No errors
No warnings
127 ms
data source=metars
4956 results
raw_text,station_id,observation_time,latitude,longitude,temp_c,dewpoint_c,wind_dir_degrees,wind_speed_kt,wind_gust_kt,visibility_statute_mi,altim_in_hg,sea_level_pressure_mb,corrected,auto,auto_station,maintenance_indicator_on,no_signal,lightning_sensor_off,freezing_rain_sensor_off,present_weather_sensor_off,wx_string,sky_cover,cloud_base_ft_agl,sky_cover,cloud_base_ft_agl,sky_cover,cloud_base_ft_agl,sky_cover,cloud_base_ft_agl,flight_category,three_hr_pressure_tendency_mb,maxT_c,minT_c,maxT24hr_c,minT24hr_c,precip_in,pcp3hr_in,pcp6hr_in,pcp24hr_in,snow_in,vert_vis_ft,metar_type,elevation_m
CYDL 060732Z AUTO 18005KT 150V220 6SM -RA BR FEW055 OVC140 03/03 A3004 RMK PCPN 1.2MM PAST HR SLP196,CYDL,2023-06-06T07:32:00Z,58.42,-130.02,3.0,3.0,180,5,,6.0,30.041338,1019.6,,TRUE,,,,,,,-RA BR,FEW,5500,OVC,14000,,,,,VFR,,,,,,,,,,,,SPECI,804.0
CYBQ 060732Z AUTO 13004KT 100V170 9SM OVC004 11/11 A2996 RMK LTNG DIST S SW SLP160,CYBQ,2023-06-06T07:32:00Z,58.7,-98.5,11.0,11.0,130,4,,9.0,29.958662,1016.0,,TRUE,,,,,,,,OVC,400,,,,,,,LIFR,,,,,,,,,,,,SPECI,272.0
YBLN 060731Z AUTO 30005KT 6000 SHRA SCT022 SCT030 BKN036 09/09 Q1008,YBLN,2023-06-06T07:31:00Z,-33.68,115.4,9.0,9.0,300,5,,3.73,29.763779,,,TRUE,,,,,,,SHRA,SCT,2200,SCT,3000,BKN,3600,,,MVFR,,,,,,,,,,,,SPECI,17.0
ZMCK 060730Z 32010MPS 290V360 9999 FEW030CB SCT033 21/05 Q1010 NOSIG RMK QFE642.6 36 MOP,ZMCK,2023-06-06T07:30:00Z,47.65,106.82,21.0,5.0,320,19,,6.21,29.822834,,,,,,TRUE,,,,,FEW,3000,SCT,3300,,,,,VFR,,,,,,,,,,,,METAR,1366.0
YPEA 060730Z AUTO 15001KT 9999 SHRA SCT051 BKN115 09/07 Q1009,YPEA,2023-06-06T07:30:00Z,-31.67,116.02,9.0,7.0,150,1,,6.21,29.793306,,,TRUE,,,,,,,SHRA,SCT,5100,BKN,11500,,,,,VFR,,,,,,,,,,,,SPECI,38.0
WSSS 060730Z 19006KT 160V220 9999 FEW020 BKN270 30/25 Q1008 NOSIG,WSSS,2023-06-06T07:30:00Z,1.37,103.97,30.0,25.0,190,6,,6.21,29.763779,,,,,,TRUE,,,,,FEW,2000,BKN,27000,,,,,VFR,,,,,,,,,,,,METAR,17.0
WIII 060730Z 17007KT 600 FG -RA OVC014 27/26 Q1008 BECMG AT0800 NSW,WIII,2023-06-06T07:30:00Z,-6.13,106.67,27.0,26.0,170,7,,,29.763779,,,,,,,,,,-RA FG,OVC,1400,,,,,,,,,,,,,,,,,,,METAR,9.0
WARR 060730Z 07009KT 9999 FEW020 32/23 Q1008 NOSIG ,WARR,2023-06-06T07:30:00Z,-7.37,112.78,32.0,23.0,70,9,,6.21,29.763779,,,,,,TRUE,,,,,FEW,2000,,,,,,,VFR,,,,,,,,,,,,METAR,3.0
WAJJ 060730Z 13010KT 9999 FEW013 30/24 Q1007 NOSIG,WAJJ,2023-06-06T07:30:00Z,-2.58,140.52,30.0,24.0,130,10,,6.21,29.734253,,,,,,TRUE,,,,,FEW,1300,,,,,,,VFR,,,,,,,,,,,,METAR,93.0
VOTV 060730Z 28008KT 6000 FEW015 FEW025CB BKN080 32/26 Q1008 NOSIG,VOTV,2023-06-06T07:30:00Z,8.48,76.92,32.0,26.0,280,8,,3.73,29.763779,,,,,,TRUE,,,,,FEW,1500,FEW,2500,BKN,8000,,,MVFR,,,,,,,,,,,,METAR,9.0
VORY 060730Z 25005KT 6000 NSC 40/25 Q1001 NOSIG,VORY,2023-06-06T07:30:00Z,17.1,81.82,40.0,25.0,250,5,,3.73,29.557087,,,,,,TRUE,,,,,CLR,,,,,,,,MVFR,,,,,,,,,,,,METAR,47.0
VOMM 060730Z 32010KT 6000 FEW020 39/25 Q1003 NOSIG,VOMM,2023-06-06T07:30:00Z,13.0,80.17,39.0,25.0,320,10,,3.73,29.616142,,,,,,TRUE,,,,,FEW,2000,,,,,,,MVFR,,,,,,,,,,,,METAR,7.0
VOML 060730Z 25010KT 9999 SCT015 34/23 Q1008 NOSIG,VOML,2023-06-06T07:30:00Z,12.97,74.88,34.0,23.0,250,10,,6.21,29.763779,,,,,,TRUE,,,,,SCT,1500,,,,,,,VFR,,,,,,,,,,,,METAR,100.0
VOHB 060730Z 24006KT 9999 SCT015 33/19 Q1011,VOHB,2023-06-06T07:30:00Z,15.37,75.08,33.0,19.0,240,6,,6.21,29.852362,,,,,,,,,,,SCT,1500,,,,,,,VFR,,,,,,,,,,,,METAR,661.0
VOGA 060730Z 29006G24KT 7000 FEW020 35/20 Q1008 NOSIG,VOGA,2023-06-06T07:30:00Z,,,35.0,20.0,290,6,24,4.35,29.763779,,,,,,TRUE,,,,,FEW,2000,,,,,,,MVFR,,,,,,,,,,,,METAR,
VOCP 060730Z 29013KT 6000 FEW020 38/17 Q1005 NOSIG,VOCP,2023-06-06T07:30:00Z,14.5,78.77,38.0,17.0,290,13,,3.73,29.675198,,,,,,TRUE,,,,,FEW,2000,,,,,,,MVFR,,,,,,,,,,,,METAR,134.0
VOCL 060730Z 26010KT 6000 FEW015 SCT080 32/21 Q1008 NOSIG,VOCL,2023-06-06T07:30:00Z,11.13,75.95,32.0,21.0,260,10,,3.73,29.763779,,,,,,TRUE,,,,,FEW,1500,SCT,8000,,,,,MVFR,,,,,,,,,,,,METAR,104.0
VOCB 060730Z 20008KT 6000 FEW012 35/21 Q1009 NOSIG,VOCB,2023-06-06T07:30:00Z,11.02,77.03,35.0,21.0,200,8,,3.73,29.793306,,,,,,TRUE,,,,,FEW,1200,,,,,,,MVFR,,,,,,,,,,,,METAR,394.0
VOBL 060730Z 27008KT 9999 SCT015 SCT020 31/19 Q1012 NOSIG,VOBL,2023-06-06T07:30:00Z,13.2,77.7,31.0,19.0,270,8,,6.21,29.88189,,,,,,TRUE,,,,,SCT,1500,SCT,2000,,,,,VFR,,,,,,,,,,,,METAR,908.0
VNKT 060730Z 20008KT 170V230 8000 FEW020 FEW025CB SCT030 30/11 Q1013 NOSIG CB TO S SW AND W,VNKT,2023-06-06T07:30:00Z,27.68,85.37,30.0,11.0,200,8,,4.97,29.911417,,,,,,TRUE,,,,,FEW,2000,FEW,2500,SCT,3000,,,MVFR,,,,,,,,,,,,METAR,1334.0
VIJP 060730Z 31005KT 6000 SCT035 37/17 Q1007 NOSIG,VIJP,2023-06-06T07:30:00Z,26.82,75.8,37.0,17.0,310,5,,3.73,29.734253,,,,,,TRUE,,,,,SCT,3500,,,,,,,MVFR,,,,,,,,,,,,METAR,383.0
VIAR 060730Z 14005KT 6000 FEW035 36/17 Q1005 NOSIG,VIAR,2023-06-06T07:30:00Z,31.7,74.8,36.0,17.0,140,5,,3.73,29.675198,,,,,,TRUE,,,,,FEW,3500,,,,,,,MVFR,,,,,,,,,,,,METAR,226.0
VHHH 060730Z 03005KT 9999 FEW008 FEW012CB SCT020 28/26 Q1006 TEMPO 3000 TSRA SHRA FEW008CB SCT020,VHHH,2023-06-06T07:30:00Z,22.32,113.92,28.0,26.0,30,5,,6.21,29.704725,,,,,,,,,,,FEW,800,FEW,1200,SCT,2000,,,VFR,,,,,,,,,,,,METAR,9.0
VGHS 060730Z 21004KT 4000 HZ FEW015 SCT100 37/24 Q1001 NOSIG,VGHS,2023-06-06T07:30:00Z,23.85,90.4,37.0,24.0,210,4,,2.49,29.557087,,,,,,TRUE,,,,HZ,FEW,1500,SCT,10000,,,,,IFR,,,,,,,,,,,,METAR,11.0
VETJ 060730Z 18003KT 5000 HZ SCT018 SCT100 36/23 Q1001 NOSIG,VETJ,2023-06-06T07:30:00Z,27.93,96.13,36.0,23.0,180,3,,3.11,29.557087,,,,,,TRUE,,,,HZ,SCT,1800,SCT,10000,,,,,MVFR,,,,,,,,,,,,METAR,244.0
VERP 060730Z 27010KT 6000 SCT025 41/14 Q1003 NOSIG,VERP,2023-06-06T07:30:00Z,21.18,81.73,41.0,14.0,270,10,,3.73,29.616142,,,,,,TRUE,,,,,SCT,2500,,,,,,,MVFR,,,,,,,,,,,,METAR,318.0
VERC 060730Z 01003KT 5000 HZ SCT020 SCT025 38/17 Q1006 NOSIG,VERC,2023-06-06T07:30:00Z,23.32,85.32,38.0,17.0,10,3,,3.11,29.704725,,,,,,TRUE,,,,HZ,SCT,2000,SCT,2500,,,,,MVFR,,,,,,,,,,,,METAR,646.0
VEPT 060730Z 27006KT 5000 HZ FEW020 SCT100 40/19 Q1001 NOSIG,VEPT,2023-06-06T07:30:00Z,25.6,85.08,40.0,19.0,270,6,,3.11,29.557087,,,,,,TRUE,,,,HZ,FEW,2000,SCT,10000,,,,,MVFR,,,,,,,,,,,,METAR,53.0
VEMN 060730Z 02003KT 5000 HZ FEW025 BKN100 36/26 Q1001 NOSIG,VEMN,2023-06-06T07:30:00Z,27.47,95.02,36.0,26.0,20,3,,3.11,29.557087,,,,,,TRUE,,,,HZ,FEW,2500,BKN,10000,,,,,MVFR,,,,,,,,,,,,METAR,111.0
VEJR 060730Z 05004KT 6000 FEW025 SCT030 38/18 Q1006,VEJR,2023-06-06T07:30:00Z,19.07,82.03,38.0,18.0,50,4,,3.73,29.704725,,,,,,,,,,,FEW,2500,SCT,3000,,,,,MVFR,,,,,,,,,,,,METAR,555.0
VEDO 060730Z 36007KT 6000 SCT020 40/14 Q1003 NOSIG,VEDO,2023-06-06T07:30:00Z,24.45,86.7,40.0,14.0,360,7,,3.73,29.616142,,,,,,TRUE,,,,,SCT,2000,,,,,,,MVFR,,,,,,,,,,,,METAR,244.0
VEDG 060730Z 07003KT 3800 HZ FEW020 SCT100 39/21 Q1001 NOSIG,VEDG,2023-06-06T07:30:00Z,23.62,87.25,39.0,21.0,70,3,,2.36,29.557087,,,,,,TRUE,,,,HZ,FEW,2000,SCT,10000,,,,,IFR,,,,,,,,,,,,METAR,88.0
VEBI 060730Z 05008KT 3000 HZ BKN020 FEW025CB 31/20 Q1008 NOSIG,VEBI,2023-06-06T07:30:00Z,25.7,91.98,31.0,20.0,50,8,,1.86,29.763779,,,,,,TRUE,,,,HZ,BKN,2000,FEW,2500,,,,,IFR,,,,,,,,,,,,METAR,892.0
VANP 060730Z 34005KT 5000 HZ FEW020 SCT025 41/15 Q1005 NOSIG,VANP,2023-06-06T07:30:00Z,21.08,79.05,41.0,15.0,340,5,,3.11,29.675198,,,,,,TRUE,,,,HZ,FEW,2000,SCT,2500,,,,,MVFR,,,,,,,,,,,,METAR,309.0
VABB 060730Z 26010KT 5000 FU FEW020 34/25 Q1007 NOSIG,VABB,2023-06-06T07:30:00Z,19.1,72.87,34.0,25.0,260,10,,3.11,29.734253,,,,,,TRUE,,,,FU,FEW,2000,,,,,,,MVFR,,,,,,,,,,,,METAR,14.0
VAAH 060730Z 23007KT 5000 FU FEW020 34/23 Q1005 NOSIG,VAAH,2023-06-06T07:30:00Z,23.07,72.63,34.0,23.0,230,7,,3.11,29.675198,,,,,,TRUE,,,,FU,FEW,2000,,,,,,,MVFR,,,,,,,,,,,,METAR,52.0
UBBZ 060730Z 09006KT 9999 SCT033 OVC106 27/16 Q1017 NOSIG RMK MT OP,UBBZ,2023-06-06T07:30:00Z,39.1,46.73,27.0,16.0,90,6,,6.21,30.029528,,,,,,TRUE,,,,,SCT,3300,OVC,10600,,,,,VFR,,,,,,,,,,,,METAR,489.0
UBBN 060730Z 23010KT 9999 FEW046 27/10 Q1013 NOSIG RMK MT OP QFE685,UBBN,2023-06-06T07:30:00Z,39.18,45.45,27.0,10.0,230,10,,6.21,29.911417,,,,,,TRUE,,,,,FEW,4600,,,,,,,VFR,,,,,,,,,,,,SPECI,857.0
UBBG 060730Z 31008KT 9999 FEW050CB BKN100 24/15 Q1015 NOSIG,UBBG,2023-06-06T07:30:00Z,40.73,46.32,24.0,15.0,310,8,,6.21,29.970472,,,,,,TRUE,,,,,FEW,5000,BKN,10000,,,,,VFR,,,,,,,,,,,,METAR,333.0
UBBF 060730Z 11012KT 9999 BKN054 28/14 Q1015 NOSIG RMK MT OP,UBBF,2023-06-06T07:30:00Z,39.6,47.2,28.0,14.0,110,12,,6.21,29.970472,,,,,,TRUE,,,,,BKN,5400,,,,,,,VFR,,,,,,,,,,,,METAR,370.0
UBBB 060730Z 33026G36KT CAVOK 23/17 Q1015 NOSIG,UBBB,2023-06-06T07:30:00Z,40.47,50.07,23.0,17.0,330,26,36,6.21,29.970472,,,,,,TRUE,,,,,CAVOK,,,,,,,,VFR,,,,,,,,,,,,METAR,94.0
TFFR 060730Z AUTO 04003KT 9999 FEW021 26/24 Q1015 NOSIG,TFFR,2023-06-06T07:30:00Z,16.27,-61.53,26.0,24.0,40,3,,6.21,29.970472,,,TRUE,,,TRUE,,,,,FEW,2100,,,,,,,VFR,,,,,,,,,,,,METAR,6.0
TFFF 060730Z AUTO 09007KT 9999 FEW018 SCT026 BKN041 28/25 Q1014 NOSIG,TFFF,2023-06-06T07:30:00Z,14.6,-61.0,28.0,25.0,90,7,,6.21,29.940945,,,TRUE,,,TRUE,,,,,FEW,1800,SCT,2600,BKN,4100,,,VFR,,,,,,,,,,,,METAR,3.0
SOCA 060730Z AUTO 00000KT 9999 FEW021 22/22 Q1012 TEMPO 3000 SHRA BKN005 FEW012CB BKN018TCU,SOCA,2023-06-06T07:30:00Z,4.82,-52.37,22.0,22.0,0,0,,6.21,29.88189,,,TRUE,,,,,,,,FEW,2100,,,,,,,VFR,,,,,,,,,,,,SPECI,7.0
OPMT 060730Z 18010KT 5000 TS FEW030CB SCT040 SCT100 26/17 Q1004 TEMPO 31015G25KT 2000 TSRA FEW030CB,OPMT,2023-06-06T07:30:00Z,30.2,71.42,26.0,17.0,180,10,,3.11,29.64567,,,,,,,,,,TS,FEW,3000,SCT,4000,SCT,10000,,,MVFR,,,,,,,,,,,,METAR,122.0
OPKC 060730Z 24014KT 6000 SCT020 BKN030 35/24 Q1004 NOSIG,OPKC,2023-06-06T07:30:00Z,24.9,67.13,35.0,24.0,240,14,,3.73,29.64567,,,,,,TRUE,,,,,SCT,2000,BKN,3000,,,,,MVFR,,,,,,,,,,,,METAR,20.0
OPIS 060730Z 13006KT 6000 NSC 34/18 Q1006 NOSIG,OPIS,2023-06-06T07:30:00Z,33.55,72.83,34.0,18.0,130,6,,3.73,29.704725,,,,,,TRUE,,,,,CLR,,,,,,,,MVFR,,,,,,,,,,,,METAR,542.0
OBBI 060730Z 11004KT 070V160 9000 NSC 35/23 Q1006 NOSIG,OBBI,2023-06-06T07:30:00Z,26.27,50.63,35.0,23.0,110,4,,5.59,29.704725,,,,,,TRUE,,,,,CLR,,,,,,,,VFR,,,,,,,,,,,,METAR,6.0
NWWW 060730Z AUTO 17003KT 9999 BKN049 OVC056 20/14 Q1018 NOSIG,NWWW,2023-06-06T07:30:00Z,-22.02,166.22,20.0,14.0,170,3,,6.21,30.059055,,,TRUE,,,TRUE,,,,,BKN,4900,OVC,5600,,,,,VFR,,,,,,,,,,,,METAR,16.0
LZTT 060730Z 24003KT 210V280 9999 -RA FEW013 BKN053 OVC080 15/12 Q1020 NOSIG,LZTT,2023-06-06T07:30:00Z,49.07,20.25,15.0,12.0,240,3,,6.21,30.11811,,,,,,TRUE,,,,-RA,FEW,1300,BKN,5300,OVC,8000,,,VFR,,,,,,,,,,,,METAR,693.0
LZKZ 060730Z 19003KT 9999 -RA NSC 18/13 Q1019 NOSIG,LZKZ,2023-06-06T07:30:00Z,48.67,21.23,18.0,13.0,190,3,,6.21,30.088583,,,,,,TRUE,,,,-RA,CLR,,,,,,,,VFR,,,,,,,,,,,,METAR,227.0
LZIB 060730Z 06005KT 9999 FEW005 BKN007 17/16 Q1016 NOSIG,LZIB,2023-06-06T07:30:00Z,48.17,17.22,17.0,16.0,60,5,,6.21,30.0,,,,,,TRUE,,,,,FEW,500,BKN,700,,,,,IFR,,,,,,,,,,,,METAR,129.0
LWSK 060730Z VRB02KT 9999 FEW080 23/16 Q1018 NOSIG,LWSK,2023-06-06T07:30:00Z,41.97,21.63,23.0,16.0,0,2,,6.21,30.059055,,,,,,TRUE,,,,,FEW,8000,,,,,,,VFR,,,,,,,,,,,,METAR,232.0
LWOH 060730Z 22008KT 180V260 9999 SCT033 20/14 Q1019,LWOH,2023-06-06T07:30:00Z,41.18,20.75,20.0,14.0,220,8,,6.21,30.088583,,,,,,,,,,,SCT,3300,,,,,,,VFR,,,,,,,,,,,,METAR,700.0
LUKK 060730Z 21005KT 130V270 CAVOK 23/06 Q1023 NOSIG,LUKK,2023-06-06T07:30:00Z,46.93,28.93,23.0,6.0,210,5,,6.21,30.206694,,,,,,TRUE,,,,,CAVOK,,,,,,,,VFR,,,,,,,,,,,,METAR,102.0
LUBM 060730Z 20008KT 160V220 CAVOK 24/08 Q1022,LUBM,2023-06-06T07:30:00Z,47.87,28.22,24.0,8.0,200,8,,6.21,30.177166,,,,,,,,,,,CAVOK,,,,,,,,VFR,,,,,,,,,,,,METAR,95.0
LKTB 060730Z 07008KT 9999 BKN049 17/13 Q1017 NOSIG,LKTB,2023-06-06T07:30:00Z,49.15,16.68,17.0,13.0,70,8,,6.21,30.029528,,,,,,TRUE,,,,,BKN,4900,,,,,,,VFR,,,,,,,,,,,,METAR,233.0
LKPR 060730Z 09008KT 060V120 6000 SCT003 BKN004 14/13 Q1018 NOSIG,LKPR,2023-06-06T07:30:00Z,50.1,14.27,14.0,13.0,90,8,,3.73,30.059055,,,,,,TRUE,,,,,SCT,300,BKN,400,,,,,LIFR,,,,,,,,,,,,METAR,364.0
LKMT 060730Z VRB02KT CAVOK 17/13 Q1018 NOSIG,LKMT,2023-06-06T07:30:00Z,49.68,18.12,17.0,13.0,0,2,,6.21,30.059055,,,,,,TRUE,,,,,CAVOK,,,,,,,,VFR,,,,,,,,,,,,METAR,251.0
LKKV 060730Z 04005KT 5000 BR BKN004 OVC010 13/12 Q1018,LKKV,2023-06-06T07:30:00Z,50.2,12.92,13.0,12.0,40,5,,3.11,30.059055,,,,,,,,,,BR,BKN,400,OVC,1000,,,,,LIFR,,,,,,,,,,,,METAR,600.0
LHBP 060730Z 17005KT 7000 -RA BKN006 OVC019 18/17 Q1017 TEMPO 2500 SHRA,LHBP,2023-06-06T07:30:00Z,47.43,19.27,18.0,17.0,170,5,,4.35,30.029528,,,,,,,,,,-RA,BKN,600,OVC,1900,,,,,IFR,,,,,,,,,,,,METAR,141.0
LFYR 060730Z AUTO 02004KT 320V060 CAVOK 18/12 Q1016 NOSIG,LFYR,2023-06-06T07:30:00Z,47.32,1.68,18.0,12.0,20,4,,6.21,30.0,,,TRUE,,,TRUE,,,,,CAVOK,,,,,,,,VFR,,,,,,,,,,,,METAR,83.0
LFTW 060730Z AUTO VRB03KT 9999 OVC025 22/18 Q1016 TEMPO 3000 BR BKN011,LFTW,2023-06-06T07:30:00Z,43.75,4.42,22.0,18.0,0,3,,6.21,30.0,,,TRUE,,,,,,,,OVC,2500,,,,,,,MVFR,,,,,,,,,,,,METAR,91.0
LFTH 060730Z AUTO 23007KT 190V270 9999 BKN021 BKN026 22/18 Q1015 NOSIG,LFTH,2023-06-06T07:30:00Z,43.1,6.15,22.0,18.0,230,7,,6.21,29.970472,,,TRUE,,,TRUE,,,,,BKN,2100,BKN,2600,,,,,MVFR,,,,,,,,,,,,METAR,3.0
LFSX 060730Z AUTO VRB02KT CAVOK 20/11 Q1017,LFSX,2023-06-06T07:30:00Z,47.77,6.35,20.0,11.0,0,2,,6.21,30.029528,,,TRUE,,,,,,,,CAVOK,,,,,,,,VFR,,,,,,,,,,,,METAR,266.0
LFST 060730Z AUTO 36004KT 310V060 CAVOK 20/14 Q1017,LFST,2023-06-06T07:30:00Z,48.53,7.63,20.0,14.0,360,4,,6.21,30.029528,,,TRUE,,,,,,,,CAVOK,,,,,,,,VFR,,,,,,,,,,,,METAR,149.0
LFSO 060730Z AUTO 35003KT 280V070 CAVOK 19/09 Q1018 NOSIG,LFSO,2023-06-06T07:30:00Z,48.57,5.97,19.0,9.0,350,3,,6.21,30.059055,,,TRUE,,,TRUE,,,,,CAVOK,,,,,,,,VFR,,,,,,,,,,,,METAR,328.0
LFSN 060730Z AUTO 05007KT CAVOK 19/10 Q1017,LFSN,2023-06-06T07:30:00Z,48.68,6.22,19.0,10.0,50,7,,6.21,30.029528,,,TRUE,,,,,,,,CAVOK,,,,,,,,VFR,,,,,,,,,,,,METAR,214.0
LFSL 060730Z AUTO 13006KT 100V170 CAVOK 20/14 Q1015 NOSIG,LFSL,2023-06-06T07:30:00Z,45.03,1.48,20.0,14.0,130,6,,6.21,29.970472,,,TRUE,,,TRUE,,,,,CAVOK,,,,,,,,VFR,,,,,,,,,,,,METAR,300.0
LFSI 060730Z AUTO 08009KT CAVOK 22/08 Q1017,LFSI,2023-06-06T07:30:00Z,48.62,4.9,22.0,8.0,80,9,,6.21,30.029528,,,TRUE,,,,,,,,CAVOK,,,,,,,,VFR,,,,,,,,,,,,METAR,136.0
LFSD 060730Z AUTO 02006KT CAVOK 20/09 Q1016,LFSD,2023-06-06T07:30:00Z,47.27,5.08,20.0,9.0,20,6,,6.21,30.0,,,TRUE,,,,,,,,CAVOK,,,,,,,,VFR,,,,,,,,,,,,METAR,218.0
LFSB 060730Z AUTO 06003KT 340V110 CAVOK 20/11 Q1017,LFSB,2023-06-06T07:30:00Z,47.6,7.52,20.0,11.0,60,3,,6.21,30.029528,,,TRUE,,,,,,,,CAVOK,,,,,,,,VFR,,,,,,,,,,,,METAR,262.0
LFRZ 060730Z AUTO 06009KT CAVOK 19/13 Q1017 NOSIG,LFRZ,2023-06-06T07:30:00Z,47.32,-2.17,19.0,13.0,60,9,,6.21,30.029528,,,TRUE,,,TRUE,,,,,CAVOK,,,,,,,,VFR,,,,,,,,,,,,METAR,2.0
LFRU 060730Z AUTO 07011KT 9000 OVC007 13/12 Q1019,LFRU,2023-06-06T07:30:00Z,48.6,-3.82,13.0,12.0,70,11,,5.59,30.088583,,,TRUE,,,,,,,,OVC,700,,,,,,,IFR,,,,,,,,,,,,METAR,85.0
LFRS 060730Z AUTO 05007KT 010V070 CAVOK 20/12 Q1016 NOSIG,LFRS,2023-06-06T07:30:00Z,47.17,-1.6,20.0,12.0,50,7,,6.21,30.0,,,TRUE,,,TRUE,,,,,CAVOK,,,,,,,,VFR,,,,,,,,,,,,METAR,26.0
LFRO 060730Z AUTO 07009KT 030V110 9000 OVC007 13/11 Q1020,LFRO,2023-06-06T07:30:00Z,48.75,-3.47,13.0,11.0,70,9,,5.59,30.11811,,,TRUE,,,,,,,,OVC,700,,,,,,,IFR,,,,,,,,,,,,METAR,86.0
LFRL 060730Z AUTO 06012KT 8000 FEW008 BKN076 15/12 Q1018 NOSIG,LFRL,2023-06-06T07:30:00Z,48.27,-4.43,15.0,12.0,60,12,,4.97,30.059055,,,TRUE,,,TRUE,,,,,FEW,800,BKN,7600,,,,,MVFR,,,,,,,,,,,,METAR,80.0
LFRG 060730Z AUTO 03007KT 360V070 8000 BKN010 13/11 Q1020 BECMG SCT006,LFRG,2023-06-06T07:30:00Z,49.37,0.15,13.0,11.0,30,7,,4.97,30.11811,,,TRUE,,,,,,,,BKN,1000,,,,,,,MVFR,,,,,,,,,,,,METAR,146.0
LFRB 060730Z AUTO 06013KT 9999 OVC007 14/12 Q1018 BECMG NSC,LFRB,2023-06-06T07:30:00Z,48.45,-4.42,14.0,12.0,60,13,,6.21,30.059055,,,TRUE,,,,,,,,OVC,700,,,,,,,IFR,,,,,,,,,,,,METAR,91.0
LFQQ 060730Z AUTO 03009KT 350V050 9999 FEW015 15/11 Q1020 NOSIG,LFQQ,2023-06-06T07:30:00Z,50.57,3.1,15.0,11.0,30,9,,6.21,30.11811,,,TRUE,,,TRUE,,,,,FEW,1500,,,,,,,VFR,,,,,,,,,,,,METAR,43.0
LFQB 060730Z AUTO VRB03KT CAVOK 19/11 Q1017,LFQB,2023-06-06T07:30:00Z,48.32,4.02,19.0,11.0,0,3,,6.21,30.029528,,,TRUE,,,,,,,,CAVOK,,,,,,,,VFR,,,,,,,,,,,,METAR,107.0
LFQA 060730Z AUTO 30005KT CAVOK 18/13 Q1018,LFQA,2023-06-06T07:30:00Z,49.2,4.15,18.0,13.0,300,5,,6.21,30.059055,,,TRUE,,,,,,,,CAVOK,,,,,,,,VFR,,,,,,,,,,,,METAR,92.0
LFPV 060730Z AUTO 02010KT 350V060 9000 NSC 15/10 Q1018 NOSIG,LFPV,2023-06-06T07:30:00Z,48.77,2.2,15.0,10.0,20,10,,5.59,30.059055,,,TRUE,,,TRUE,,,,,CLR,,,,,,,,VFR,,,,,,,,,,,,METAR,171.0
LFPO 060730Z 36010KT 330V040 CAVOK 16/11 Q1018,LFPO,2023-06-06T07:30:00Z,48.72,2.38,16.0,11.0,360,10,,6.21,30.059055,,,,,,,,,,,CAVOK,,,,,,,,VFR,,,,,,,,,,,,METAR,88.0
LFPN 060730Z AUTO 02008KT 8000 NSC 15/10 Q1018 NOSIG,LFPN,2023-06-06T07:30:00Z,48.75,2.12,15.0,10.0,20,8,,4.97,30.059055,,,TRUE,,,TRUE,,,,,CLR,,,,,,,,MVFR,,,,,,,,,,,,METAR,152.0
LFPG 060730Z 02012KT 350V060 8000 FEW010 SCT093 16/11 Q1019 NOSIG,LFPG,2023-06-06T07:30:00Z,49.02,2.53,16.0,11.0,20,12,,4.97,30.088583,,,,,,TRUE,,,,,FEW,1000,SCT,9300,,,,,MVFR,,,,,,,,,,,,METAR,107.0
LFPB 060730Z AUTO 35007KT 310V030 9999 FEW015 BKN096 15/11 Q1018 NOSIG,LFPB,2023-06-06T07:30:00Z,48.97,2.42,15.0,11.0,350,7,,6.21,30.059055,,,TRUE,,,TRUE,,,,,FEW,1500,BKN,9600,,,,,VFR,,,,,,,,,,,,METAR,50.0
LFOV 060730Z AUTO 01009KT CAVOK 16/12 Q1018,LFOV,2023-06-06T07:30:00Z,48.03,-0.75,16.0,12.0,10,9,,6.21,30.059055,,,TRUE,,,,,,,,CAVOK,,,,,,,,VFR,,,,,,,,,,,,METAR,99.0
LFOT 060730Z AUTO 05007KT 010V090 CAVOK 16/12 Q1017 NOSIG,LFOT,2023-06-06T07:30:00Z,47.43,0.72,16.0,12.0,50,7,,6.21,30.029528,,,TRUE,,,TRUE,,,,,CAVOK,,,,,,,,VFR,,,,,,,,,,,,METAR,107.0
LFOP 060730Z AUTO 04009KT 9000 OVC009 13/11 Q1020 BECMG NSC,LFOP,2023-06-06T07:30:00Z,49.37,1.17,13.0,11.0,40,9,,5.59,30.11811,,,TRUE,,,,,,,,OVC,900,,,,,,,IFR,,,,,,,,,,,,METAR,149.0
LFOK 060730Z AUTO 03010KT CAVOK 18/11 Q1017 NOSIG,LFOK,2023-06-06T07:30:00Z,48.78,4.15,18.0,11.0,30,10,,6.21,30.029528,,,TRUE,,,TRUE,,,,,CAVOK,,,,,,,,VFR,,,,,,,,,,,,METAR,166.0
LFOH 060730Z AUTO 06010KT 9999 SCT013 14/11 Q1020 NOSIG,LFOH,2023-06-06T07:30:00Z,49.52,0.08,14.0,11.0,60,10,,6.21,30.11811,,,TRUE,,,TRUE,,,,,SCT,1300,,,,,,,VFR,,,,,,,,,,,,METAR,87.0
LFOE 060730Z AUTO 04009KT 7000 OVC009 13/11 Q1019 BECMG FEW020,LFOE,2023-06-06T07:30:00Z,49.02,1.22,13.0,11.0,40,9,,4.35,30.088583,,,TRUE,,,,,,,,OVC,900,,,,,,,IFR,,,,,,,,,,,,METAR,132.0
LFOB 060730Z AUTO 03011KT 360V060 6000 OVC009 14/11 Q1019 BECMG NSC,LFOB,2023-06-06T07:30:00Z,49.47,2.12,14.0,11.0,30,11,,3.73,30.088583,,,TRUE,,,,,,,,OVC,900,,,,,,,IFR,,,,,,,,,,,,METAR,99.0
LFMU 060730Z AUTO 06006KT 360V110 9999 BKN016 23/18 Q1015 NOSIG,LFMU,2023-06-06T07:30:00Z,43.32,3.35,23.0,18.0,60,6,,6.21,29.970472,,,TRUE,,,TRUE,,,,,BKN,1600,,,,,,,MVFR,,,,,,,,,,,,METAR,14.0
LFMT 060730Z AUTO 07006KT 040V100 CAVOK 23/19 Q1016 BECMG 20012KT,LFMT,2023-06-06T07:30:00Z,43.57,3.97,23.0,19.0,70,6,,6.21,30.0,,,TRUE,,,,,,,,CAVOK,,,,,,,,VFR,,,1.2,,,,,,,,,METAR,1.0
LFMP 060730Z AUTO 05007KT 020V080 9999 BKN017 22/17 Q1015 NOSIG,LFMP,2023-06-06T07:30:00Z,42.73,2.87,22.0,17.0,50,7,,6.21,29.970472,,,TRUE,,,TRUE,,,,,BKN,1700,,,,,,,MVFR,,,,,,,,,,,,METAR,41.0
LFMO 060730Z AUTO VRB01KT 9999 OVC029 19/16 Q1016 NOSIG,LFMO,2023-06-06T07:30:00Z,44.13,4.87,19.0,16.0,0,1,,6.21,30.0,,,TRUE,,,TRUE,,,,,OVC,2900,,,,,,,MVFR,,,,,,,,,,,,METAR,56.0
LFMN 060730Z 31009KT 9999 FEW040 23/13 Q1015 NOSIG,LFMN,2023-06-06T07:30:00Z,43.65,7.2,23.0,13.0,310,9,,6.21,29.970472,,,,,,TRUE,,,,,FEW,4000,,,,,,,VFR,,,,,,,,,,,,METAR,4.0
LFML 060730Z AUTO VRB03KT CAVOK 22/18 Q1016 NOSIG,LFML,2023-06-06T07:30:00Z,43.45,5.22,22.0,18.0,0,3,,6.21,30.0,,,TRUE,,,TRUE,,,,,CAVOK,,,,,,,,VFR,,,,,,,,,,,,METAR,20.0
LFMK 060730Z AUTO 08009KT 050V110 9999 FEW014 22/17 Q1015 TEMPO BKN013,LFMK,2023-06-06T07:30:00Z,43.22,2.32,22.0,17.0,80,9,,6.21,29.970472,,,TRUE,,,,,,,,FEW,1400,,,,,,,VFR,,,,,,,,,,,,METAR,124.0
LFMI 060730Z AUTO 11004KT 040V150 CAVOK 22/17 Q1016 NOSIG,LFMI,2023-06-06T07:30:00Z,43.52,4.93,22.0,17.0,110,4,,6.21,30.0,,,TRUE,,,TRUE,,,,,CAVOK,,,,,,,,VFR,,,,,,,,,,,,METAR,20.0
LFMH 060730Z AUTO VRB02KT CAVOK 20/13 Q1017,LFMH,2023-06-06T07:30:00Z,45.52,4.28,20.0,13.0,0,2,,6.21,30.029528,,,TRUE,,,,,,,,CAVOK,,,,,,,,VFR,,,,,,,,,,,,METAR,400.0
LFMD 060730Z AUTO VRB02KT CAVOK 22/17 Q1015 NOSIG,LFMD,2023-06-06T07:30:00Z,43.53,6.95,22.0,17.0,0,2,,6.21,29.970472,,,TRUE,,,TRUE,,,,,CAVOK,,,,,,,,VFR,,,,,,,,,,,,METAR,2.0
LFLY 060730Z AUTO 18003KT 080V230 CAVOK 21/14 Q1016 NOSIG,LFLY,2023-06-06T07:30:00Z,45.72,4.95,21.0,14.0,180,3,,6.21,30.0,,,TRUE,,,TRUE,,,,,CAVOK,,,,,,,,VFR,,,,,,,,,,,,METAR,197.0
LFLX 060730Z AUTO 04004KT 350V070 CAVOK 19/13 Q1016 NOSIG,LFLX,2023-06-06T07:30:00Z,46.87,1.73,19.0,13.0,40,4,,6.21,30.0,,,TRUE,,,TRUE,,,,,CAVOK,,,,,,,,VFR,,,,,,,,,,,,METAR,157.0
LFLV 060730Z AUTO 16003KT 110V200 CAVOK 19/13 Q1016,LFLV,2023-06-06T07:30:00Z,46.17,3.38,19.0,13.0,160,3,,6.21,30.0,,,TRUE,,,,,,,,CAVOK,,,,,,,,VFR,,,,,,,,,,,,METAR,248.0
LFLU 060730Z AUTO VRB01KT CAVOK 20/15 Q1016,LFLU,2023-06-06T07:30:00Z,44.92,4.98,20.0,15.0,0,1,,6.21,30.0,,,TRUE,,,,,,,,CAVOK,,,,,,,,VFR,,,,,,,,,,,,METAR,162.0
LFLS 060730Z AUTO VRB03KT 9999 FEW013 19/15 Q1017 NOSIG,LFLS,2023-06-06T07:30:00Z,45.37,5.32,19.0,15.0,0,3,,6.21,30.029528,,,TRUE,,,TRUE,,,,,FEW,1300,,,,,,,VFR,,,,,,,,,,,,METAR,386.0
LFLP 060730Z AUTO VRB01KT CAVOK 19/11 Q1018 NOSIG,LFLP,2023-06-06T07:30:00Z,45.92,6.1,19.0,11.0,0,1,,6.21,30.059055,,,TRUE,,,TRUE,,,,,CAVOK,,,,,,,,VFR,,,,,,,,,,,,METAR,460.0
LFLN 060730Z AUTO 00000KT CAVOK 19/13 Q1016,LFLN,2023-06-06T07:30:00Z,46.42,4.02,19.0,13.0,0,0,,6.21,30.0,,,TRUE,,,,,,,,CAVOK,,,,,,,,VFR,,,,,,,,,,,,METAR,238.0
LFLL 060730Z 20004KT 130V260 CAVOK 20/15 Q1016 NOSIG,LFLL,2023-06-06T07:30:00Z,45.72,5.07,20.0,15.0,200,4,,6.21,30.0,,,,,,TRUE,,,,,CAVOK,,,,,,,,VFR,,,,,,,,,,,,METAR,234.0
LFLH 060730Z AUTO 02003KT 320V070 CAVOK 21/11 Q1016,LFLH,2023-06-06T07:30:00Z,46.83,4.82,21.0,11.0,20,3,,6.21,30.0,,,TRUE,,,,,,,,CAVOK,,,,,,,,VFR,,,,,,,,,,,,METAR,190.0
LFLC 060730Z AUTO VRB01KT CAVOK 19/13 Q1016 NOSIG,LFLC,2023-06-06T07:30:00Z,45.78,3.17,19.0,13.0,0,1,,6.21,30.0,,,TRUE,,,TRUE,,,,,CAVOK,,,,,,,,VFR,,,,,,,,,,,,METAR,325.0
LFLB 060730Z AUTO VRB02KT CAVOK 20/13 Q1016 NOSIG,LFLB,2023-06-06T07:30:00Z,45.63,5.87,20.0,13.0,0,2,,6.21,30.0,,,TRUE,,,TRUE,,,,,CAVOK,,,,,,,,VFR,,,,,,,,,,,,METAR,234.0
LFKS 060730Z AUTO 03005KT 020V080 CAVOK 23/16 Q1015,LFKS,2023-06-06T07:30:00Z,41.92,9.4,23.0,16.0,30,5,,6.21,29.970472,,,TRUE,,,,,,,,CAVOK,,,,,,,,VFR,,,,,,,,,,,,METAR,22.0
LFKJ 060730Z AUTO 23004KT 170V280 CAVOK 23/15 Q1015 NOSIG,LFKJ,2023-06-06T07:30:00Z,41.92,8.8,23.0,15.0,230,4,,6.21,29.970472,,,TRUE,,,TRUE,,,,,CAVOK,,,,,,,,VFR,,,,,,,,,,,,METAR,9.0
LFKF 060730Z AUTO VRB02KT 9999 FEW022 23/15 Q1015 TEMPO BKN012,LFKF,2023-06-06T07:30:00Z,41.5,9.08,23.0,15.0,0,2,,6.21,29.970472,,,TRUE,,,,,,,,FEW,2200,,,,,,,VFR,,,,,,,,,,,,METAR,15.0
LFKC 060730Z AUTO VRB01KT 9999 FEW025 22/15 Q1016 NOSIG,LFKC,2023-06-06T07:30:00Z,42.52,8.8,22.0,15.0,0,1,,6.21,30.0,,,TRUE,,,TRUE,,,,,FEW,2500,,,,,,,VFR,,,,,,,,,,,,METAR,38.0
LFKB 060730Z AUTO VRB03KT CAVOK 23/15 Q1015 NOSIG,LFKB,2023-06-06T07:30:00Z,42.55,9.48,23.0,15.0,0,3,,6.21,29.970472,,,TRUE,,,TRUE,,,,,CAVOK,,,,,,,,VFR,,,,,,,,,,,,METAR,7.0
LFJR 060730Z AUTO 06007KT CAVOK 18/12 Q1017,LFJR,2023-06-06T07:30:00Z,47.57,-0.32,18.0,12.0,60,7,,6.21,30.029528,,,TRUE,,,,,,,,CAVOK,,,,,,,,VFR,,,,,,,,,,,,METAR,50.0
LFJL 060730Z AUTO 06006KT CAVOK 19/10 Q1018,LFJL,2023-06-06T07:30:00Z,48.97,6.25,19.0,10.0,60,6,,6.21,30.059055,,,TRUE,,,,,,,,CAVOK,,,,,,,,VFR,,,,,,,,,,,,METAR,259.0
LFGA 060730Z AUTO 04005KT 340V090 CAVOK 20/11 Q1017,LFGA,2023-06-06T07:30:00Z,48.1,7.35,20.0,11.0,40,5,,6.21,30.029528,,,TRUE,,,,,,,,CAVOK,,,,,,,,VFR,,,,,,,,,,,,METAR,191.0
LFCR 060730Z AUTO 09003KT 050V130 CAVOK 20/13 Q1017 NOSIG,LFCR,2023-06-06T07:30:00Z,44.4,2.47,20.0,13.0,90,3,,6.21,30.029528,,,TRUE,,,TRUE,,,,,CAVOK,,,,,,,,VFR,,,,,,,,,,,,METAR,576.0
LFCK 060730Z AUTO VRB01KT CAVOK 19/16 Q1016 NOSIG,LFCK,2023-06-06T07:30:00Z,43.55,2.28,19.0,16.0,0,1,,6.21,30.0,,,TRUE,,,TRUE,,,,,CAVOK,,,,,,,,VFR,,,,,,,,,,,,METAR,223.0
LFBZ 060730Z AUTO 09003KT 9000 FEW031 BKN150 20/19 Q1014 BECMG 34010KT,LFBZ,2023-06-06T07:30:00Z,43.47,-1.53,20.0,19.0,90,3,,5.59,29.940945,,,TRUE,,,,,,,,FEW,3100,BKN,15000,,,,,VFR,,,,,,,,,,,,METAR,70.0
LFBY 060730Z AUTO 15004KT 110V190 9999 // ////// 21/19 Q1014,LFBY,2023-06-06T07:30:00Z,43.68,-1.07,21.0,19.0,150,4,,6.21,29.940945,,,TRUE,,,,,,,,,,,,,,,,,,,,,,,,,,,,METAR,32.0
LFBX 060730Z AUTO VRB02KT CAVOK 19/16 Q1015,LFBX,2023-06-06T07:30:00Z,45.2,0.82,19.0,16.0,0,2,,6.21,29.970472,,,TRUE,,,,,,,,CAVOK,,,,,,,,VFR,,,,,,,,,,,,METAR,97.0
LFBP 060730Z AUTO 10003KT 070V130 CAVOK 20/17 Q1015 NOSIG,LFBP,2023-06-06T07:30:00Z,43.38,-0.42,20.0,17.0,100,3,,6.21,29.970472,,,TRUE,,,TRUE,,,,,CAVOK,,,,,,,,VFR,,,,,,,,,,,,METAR,182.0
LFBO 060730Z AUTO 18004KT 120V210 CAVOK 21/16 Q1015 NOSIG,LFBO,2023-06-06T07:30:00Z,43.62,1.37,21.0,16.0,180,4,,6.21,29.970472,,,TRUE,,,TRUE,,,,,CAVOK,,,,,,,,VFR,,,,,,,,,,,,METAR,150.0
LFBM 060730Z AUTO VRB01KT 9999 SCT007 BKN120 OVC170 21/19 Q1014 NOSIG,LFBM,2023-06-06T07:30:00Z,43.92,-0.5,21.0,19.0,0,1,,6.21,29.940945,,,TRUE,,,TRUE,,,,,SCT,700,BKN,12000,OVC,17000,,,VFR,,,,,,,,,,,,METAR,56.0
LFBI 060730Z AUTO 02008KT CAVOK 19/12 Q1016 NOSIG,LFBI,2023-06-06T07:30:00Z,46.58,0.32,19.0,12.0,20,8,,6.21,30.0,,,TRUE,,,TRUE,,,,,CAVOK,,,,,,,,VFR,,,,,,,,,,,,METAR,117.0
LFBH 060730Z AUTO 06014KT CAVOK 21/11 Q1015 NOSIG,LFBH,2023-06-06T07:30:00Z,46.18,-1.2,21.0,11.0,60,14,,6.21,29.970472,,,TRUE,,,TRUE,,,,,CAVOK,,,,,,,,VFR,,,,,,,,,,,,METAR,18.0
LFBG 060730Z AUTO 06004KT 020V090 CAVOK 19/12 Q1015 NOSIG,LFBG,2023-06-06T07:30:00Z,45.67,-0.32,19.0,12.0,60,4,,6.21,29.970472,,,TRUE,,,TRUE,,,,,CAVOK,,,,,,,,VFR,,,,,,,,,,,,METAR,28.0
LFBF 060730Z AUTO VRB01KT CAVOK 20/16 Q1015,LFBF,2023-06-06T07:30:00Z,43.53,1.37,20.0,16.0,0,1,,6.21,29.970472,,,TRUE,,,,,,,,CAVOK,,,,,,,,VFR,,,,,,,,,,,,METAR,159.0
LFBE 060730Z AUTO 06004KT CAVOK 18/17 Q1014 NOSIG,LFBE,2023-06-06T07:30:00Z,44.82,0.52,18.0,17.0,60,4,,6.21,29.940945,,,TRUE,,,TRUE,,,,,CAVOK,,,,,,,,VFR,,,,,,,,,,,,METAR,49.0
LFBD 060730Z AUTO 07005KT 030V100 CAVOK 23/16 Q1014 NOSIG,LFBD,2023-06-06T07:30:00Z,44.82,-0.7,23.0,16.0,70,5,,6.21,29.940945,,,TRUE,,,TRUE,,,,,CAVOK,,,,,,,,VFR,,,,,,,,,,,,METAR,48.0
LFBC 060730Z AUTO 09004KT 060V120 CAVOK 20/16 Q1014 NOSIG,LFBC,2023-06-06T07:30:00Z,44.52,-1.12,20.0,16.0,90,4,,6.21,29.940945,,,TRUE,,,TRUE,,,,,CAVOK,,,,,,,,VFR,,,,,,,,,,,,METAR,22.0
LFBA 060730Z AUTO 11003KT 010V180 CAVOK 22/17 Q1014 NOSIG,LFBA,2023-06-06T07:30:00Z,44.17,0.6,22.0,17.0,110,3,,6.21,29.940945,,,TRUE,,,TRUE,,,,,CAVOK,,,,,,,,VFR,,,,,,,,,,,,METAR,68.0
LFAT 060730Z AUTO 05012KT 010V090 9999 BKN016 14/10 Q1021 NOSIG,LFAT,2023-06-06T07:30:00Z,50.52,1.62,14.0,10.0,50,12,,6.21,30.147638,,,TRUE,,,TRUE,,,,,BKN,1600,,,,,,,MVFR,,,,,,,,,,,,METAR,2.0
LFAC 060730Z AUTO 04011KT 9999 OVC015 13/10 Q1022,LFAC,2023-06-06T07:30:00Z,50.97,1.95,13.0,10.0,40,11,,6.21,30.177166,,,TRUE,,,,,,,,OVC,1500,,,,,,,MVFR,,,,,,,,,,,,METAR,3.0
LEMO 060730Z 10001KT CAVOK 23/13 Q1012 NOSIG,LEMO,2023-06-06T07:30:00Z,37.17,-5.62,23.0,13.0,100,1,,6.21,29.88189,,,,,,TRUE,,,,,CAVOK,,,,,,,,VFR,,,,,,,,,,,,METAR,82.0
LEJR 060730Z VRB01KT CAVOK 25/11 Q1011,LEJR,2023-06-06T07:30:00Z,36.75,-6.07,25.0,11.0,0,1,,6.21,29.852362,,,,,,,,,,,CAVOK,,,,,,,,VFR,,,,,,,,,,,,METAR,25.0
LDZD 060730Z 17005KT 110V230 9999 SCT030 SCT065 19/18 Q1016 NOSIG,LDZD,2023-06-06T07:30:00Z,44.1,15.33,19.0,18.0,170,5,,6.21,30.0,,,,,,TRUE,,,,,SCT,3000,SCT,6500,,,,,VFR,,,,,,,,,,,,METAR,82.0
LDZA 060730Z VRB01KT 9999 SCT007 BKN012 19/17 Q1016 TEMPO BKN007,LDZA,2023-06-06T07:30:00Z,45.72,16.07,19.0,17.0,0,1,,6.21,30.0,,,,,,,,,,,SCT,700,BKN,1200,,,,,MVFR,,,,,,,,,,,,METAR,103.0
LDSP 060730Z 30005KT 280V020 9999 -RA FEW040 SCT060 19/16 Q1015 TEMPO FEW040CB,LDSP,2023-06-06T07:30:00Z,43.53,16.3,19.0,16.0,300,5,,6.21,29.970472,,,,,,,,,,-RA,FEW,4000,SCT,6000,,,,,VFR,,,,,,,,,,,,METAR,16.0
LDRI 060730Z 12003KT 070V180 9999 FEW013 BKN030 18/18 Q1016,LDRI,2023-06-06T07:30:00Z,45.22,14.57,18.0,18.0,120,3,,6.21,30.0,,,,,,,,,,,FEW,1300,BKN,3000,,,,,MVFR,,,,,,,,,,,,METAR,80.0
LDPL 060730Z 13005KT 080V150 9999 FEW010 FEW025TCU 20/18 Q1015 TEMPO TSRA FEW025CB,LDPL,2023-06-06T07:30:00Z,44.88,13.92,20.0,18.0,130,5,,6.21,29.970472,,,,,,,,,,,FEW,1000,FEW,2500,,,,,VFR,,,,,,,,,,,,METAR,63.0
LDOS 060730Z 10004KT 5000 -RA BR BKN005 19/18 Q1016,LDOS,2023-06-06T07:30:00Z,45.47,18.82,19.0,18.0,100,4,,3.11,30.0,,,,,,,,,,-RA BR,BKN,500,,,,,,,IFR,,,,,,,,,,,,METAR,82.0
LDDU 060730Z 09005KT 9999 FEW045 21/15 Q1016 BECMG 15010KT,LDDU,2023-06-06T07:30:00Z,42.57,18.27,21.0,15.0,90,5,,6.21,30.0,,,,,,,,,,,FEW,4500,,,,,,,VFR,,,,,,,,,,,,METAR,156.0
LBWN 060730Z 15008KT 120V190 CAVOK 22/13 Q1021 NOSIG,LBWN,2023-06-06T07:30:00Z,43.22,27.82,22.0,13.0,150,8,,6.21,30.147638,,,,,,TRUE,,,,,CAVOK,,,,,,,,VFR,,,,,,,,,,,,METAR,74.0
LBSF 060730Z 10013KT CAVOK 19/08 Q1020 NOSIG,LBSF,2023-06-06T07:30:00Z,42.65,23.37,19.0,8.0,100,13,,6.21,30.11811,,,,,,TRUE,,,,,CAVOK,,,,,,,,VFR,,,,,,,,,,,,METAR,592.0
LBPD 060730Z AUTO 10007KT 070V150 9999 NCD 19/11 Q1021 NOSIG,LBPD,2023-06-06T07:30:00Z,42.05,24.85,19.0,11.0,100,7,,6.21,30.147638,,,TRUE,,,TRUE,,,,,CLR,,,,,,,,VFR,,,,,,,,,,,,METAR,182.0
LBGO 060730Z AUTO 10007KT 9999 NCD 22/11 Q1019 NOSIG,LBGO,2023-06-06T07:30:00Z,43.15,25.72,22.0,11.0,100,7,,6.21,30.088583,,,TRUE,,,TRUE,,,,,CLR,,,,,,,,VFR,,,,,,,,,,,,METAR,84.0
LBBG 060730Z 14008KT 110V170 9999 FEW025 22/10 Q1021 NOSIG,LBBG,2023-06-06T07:30:00Z,42.57,27.52,22.0,10.0,140,8,,6.21,30.147638,,,,,,TRUE,,,,,FEW,2500,,,,,,,VFR,,,,,,,,,,,,METAR,41.0
KSUT 060730Z AUTO 25005KT 10SM CLR 17/13 A2993 RMK AO2 T01670130,KSUT,2023-06-06T07:30:00Z,33.93,-78.08,16.7,13.0,250,5,,10.0,29.929134,,,TRUE,TRUE,,,,,,,CLR,,,,,,,,VFR,,,,,,,,,,,,METAR,6.0
KRHP 060730Z AUTO 00000KT 7SM OVC003 17/16 A2999 RMK AO2 P0001 T01670160,KRHP,2023-06-06T07:30:00Z,35.18,-83.85,16.7,16.0,0,0,,7.0,29.991142,,,TRUE,TRUE,,,,,,,OVC,300,,,,,,,LIFR,,,,,,0.01,,,,,,METAR,515.0
KRCZ 060730Z AUTO 19004KT 10SM CLR 17/15 A2993 RMK AO2 T01650149,KRCZ,2023-06-06T07:30:00Z,34.88,-79.77,16.5,14.9,190,4,,10.0,29.929134,,,TRUE,TRUE,,,,,,,CLR,,,,,,,,VFR,,,,,,,,,,,,METAR,110.0
KQFX 060730Z AUTO 26006KT 9999 FEW045 BKN130 25/14 A2967 RMK A02 TSNO,KQFX,2023-06-06T07:30:00Z,,,25.0,14.0,260,6,,6.21,29.66929,,,TRUE,TRUE,,,TRUE,,,,FEW,4500,BKN,13000,,,,,VFR,,,,,,,,,,,,METAR,
KQFV 060730Z AUTO 25003KT 9999 FEW048 SCT090 23/13 A2974 RMK A02 TSNO,KQFV,2023-06-06T07:30:00Z,,,23.0,13.0,250,3,,6.21,29.740158,,,TRUE,TRUE,,,TRUE,,,,FEW,4800,SCT,9000,,,,,VFR,,,,,,,,,,,,METAR,
KQFU 060730Z AUTO 22005G11KT 9999 SCT022 SCT090 BKN140 22/14 A2976 RMK A02 TSNO,KQFU,2023-06-06T07:30:00Z,,,22.0,14.0,220,5,11,6.21,29.760826,,,TRUE,TRUE,,,TRUE,,,,SCT,2200,SCT,9000,BKN,14000,,,VFR,,,,,,,,,,,,METAR,
KQFT 060730Z AUTO 23002KT 9999 BKN100 BKN130 23/15 A2970 RMK A02 TSNO,KQFT,2023-06-06T07:30:00Z,,,23.0,15.0,230,2,,6.21,29.698818,,,TRUE,TRUE,,,TRUE,,,,BKN,10000,BKN,13000,,,,,VFR,,,,,,,,,,,,METAR,
KQFB 060730Z AUTO 22004KT 9999 SCT060 30/14 A2971 RMK A02 TSNO,KQFB,2023-06-06T07:30:00Z,,,30.0,14.0,220,4,,6.21,29.71063,,,TRUE,TRUE,,,TRUE,,,,SCT,6000,,,,,,,VFR,,,,,,,,,,,,METAR,
KQEX 060730Z AUTO 30004KT 9999 CLR 29/11 A2958 RMK A02 TSNO,KQEX,2023-06-06T07:30:00Z,,,29.0,11.0,300,4,,6.21,29.58071,,,TRUE,TRUE,,,TRUE,,,,CLR,,,,,,,,VFR,,,,,,,,,,,,METAR,
KQEW 060730Z AUTO 25004KT 9999 // CLR 28/13 A2966 RMK A02 TSNO,KQEW,2023-06-06T07:30:00Z,,,28.0,13.0,250,4,,6.21,29.660433,,,TRUE,TRUE,,,TRUE,,,,CLR,,,,,,,,VFR,,,,,,,,,,,,METAR,
KQEV 060730Z AUTO 31005KT 9999 BKN050 28/14 A2966 RMK A02 TSNO,KQEV,2023-06-06T07:30:00Z,,,28.0,14.0,310,5,,6.21,29.660433,,,TRUE,TRUE,,,TRUE,,,,BKN,5000,,,,,,,VFR,,,,,,,,,,,,METAR,
KQEQ 060730Z AUTO 24007G13KT 9999 SCT022 SCT100 BKN140 21/15 A2975 RMK A02 TSNO,KQEQ,2023-06-06T07:30:00Z,,,21.0,15.0,240,7,13,6.21,29.749016,,,TRUE,TRUE,,,TRUE,,,,SCT,2200,SCT,10000,BKN,14000,,,VFR,,,,,,,,,,,,METAR,
KQEP 060730Z AUTO 29007G13KT 9999 FEW120 24/13 A2973 RMK A02 TSNO,KQEP,2023-06-06T07:30:00Z,,,24.0,13.0,290,7,13,6.21,29.731298,,,TRUE,TRUE,,,TRUE,,,,FEW,12000,,,,,,,VFR,,,,,,,,,,,,METAR,
KQEJ 060730Z AUTO 02001KT 9999 BKN038 22/16 A2966 RMK A02 TSNO,KQEJ,2023-06-06T07:30:00Z,,,22.0,16.0,20,1,,6.21,29.660433,,,TRUE,TRUE,,,TRUE,,,,BKN,3800,,,,,,,VFR,,,,,,,,,,,,METAR,
KQEI 060730Z AUTO 18005G10KT 9999 SCT048 25/13 A2968 RMK A02 TSNO,KQEI,2023-06-06T07:30:00Z,,,25.0,13.0,180,5,10,6.21,29.681103,,,TRUE,TRUE,,,TRUE,,,,SCT,4800,,,,,,,VFR,,,,,,,,,,,,METAR,
KMQI 060730Z AUTO 22008KT 10SM CLR 18/15 A2988 RMK AO2 T01790153,KMQI,2023-06-06T07:30:00Z,35.92,-75.7,17.9,15.3,220,8,,10.0,29.878937,,,TRUE,TRUE,,,,,,,CLR,,,,,,,,VFR,,,,,,,,,,,,METAR,3.0
KMBL 060730Z AUTO 00000KT 3/4SM BR CLR 11/10 A3000 RMK AO2 VIS 1/4V3,KMBL,2023-06-06T07:30:00Z,44.27,-86.25,11.0,10.0,0,0,,0.75,30.0,,,TRUE,TRUE,,,,,,BR,CLR,,,,,,,,LIFR,,,,,,,,,,,,SPECI,187.0
KLHZ 060730Z AUTO 25003KT 10SM CLR 16/15 A2991 RMK AO2,KLHZ,2023-06-06T07:30:00Z,36.02,-78.33,16.0,15.0,250,3,,10.0,29.911417,,,TRUE,TRUE,,,,,,,CLR,,,,,,,,VFR,,,,,,,,,,,,METAR,104.0
KIXA 060730Z AUTO 00000KT 10SM SCT080 12/12 A2989 RMK AO2,KIXA,2023-06-06T07:30:00Z,36.33,-77.63,12.0,12.0,0,0,,10.0,29.890747,,,TRUE,TRUE,,,,,,,SCT,8000,,,,,,,VFR,,,,,,,,,,,,METAR,43.0
KHRF 060730Z AUTO 19010KT 10SM CLR 14/11 A3004 RMK AO2 Hamilton ,KHRF,2023-06-06T07:30:00Z,46.25,-114.13,14.0,11.0,190,10,,10.0,30.041338,,,TRUE,TRUE,,,,,,,CLR,,,,,,,,VFR,,,,,,,,,,,,METAR,1112.0
KHNZ 060730Z AUTO 23004KT 10SM CLR 14/14 A2989 RMK AO2 T01410140,KHNZ,2023-06-06T07:30:00Z,36.37,-78.53,14.1,14.0,230,4,,10.0,29.890747,,,TRUE,TRUE,,,,,,,CLR,,,,,,,,VFR,,,,,,,,,,,,METAR,158.0
KGWW 060730Z AUTO 20003KT 10SM CLR 15/15 A2991 RMK AO2 T01460146,KGWW,2023-06-06T07:30:00Z,35.47,-77.97,14.6,14.6,200,3,,10.0,29.911417,,,TRUE,TRUE,,,,,,,CLR,,,,,,,,VFR,,,,,,,,,,,,METAR,40.0
KFFA 060730Z AUTO 21004KT 10SM CLR 18/15 A2986 RMK AO2 T01760149,KFFA,2023-06-06T07:30:00Z,36.02,-75.67,17.6,14.9,210,4,,10.0,29.861221,,,TRUE,TRUE,,,,,,,CLR,,,,,,,,VFR,,,,,,,,,,,,METAR,2.0
KFDK 060730Z AUTO 00000KT 10SM CLR 11/11 A2987 RMK AO2,KFDK,2023-06-06T07:30:00Z,39.42,-77.37,11.0,11.0,0,0,,10.0,29.870079,,,TRUE,TRUE,,,,,,,CLR,,,,,,,,VFR,,,,,,,,,,,,METAR,82.0
KEYF 060730Z AUTO 23005KT 10SM CLR 17/13 A2993 RMK AO2 T01680132,KEYF,2023-06-06T07:30:00Z,34.6,-78.58,16.8,13.2,230,5,,10.0,29.929134,,,TRUE,TRUE,,,,,,,CLR,,,,,,,,VFR,,,,,,,,,,,,METAR,39.0
KEXX 060730Z AUTO 00000KT 3SM BR CLR 16/16 A2992 RMK AO2 T01620162,KEXX,2023-06-06T07:30:00Z,35.78,-80.3,16.2,16.2,0,0,,3.0,29.920275,,,TRUE,TRUE,,,,,,BR,CLR,,,,,,,,MVFR,,,,,,,,,,,,METAR,221.0
KCGS 060730Z AUTO 00000KT 10SM CLR 13/10 A2986 RMK AO2 T01260100,KCGS,2023-06-06T07:30:00Z,38.98,-76.92,12.6,10.0,0,0,,10.0,29.861221,,,TRUE,TRUE,,,,,,,CLR,,,,,,,,VFR,,,,,,,,,,,,METAR,15.0
KAFP 060730Z AUTO 00000KT 10SM CLR 15/14 A2992 RMK AO2 T01450140,KAFP,2023-06-06T07:30:00Z,35.02,-80.08,14.5,14.0,0,0,,10.0,29.920275,,,TRUE,TRUE,,,,,,,CLR,,,,,,,,VFR,,,,,,,,,,,,METAR,91.0
KACV 060730Z AUTO 24005KT 7SM BKN005 BKN009 OVC014 11/09 A2984 RMK AO2 T01110094,KACV,2023-06-06T07:30:00Z,40.98,-124.1,11.1,9.4,240,5,,7.0,29.840551,,,TRUE,TRUE,,,,,,,BKN,500,BKN,900,OVC,1400,,,IFR,,,,,,,,,,,,SPECI,63.0
K1A5 060730Z AUTO 00000KT 5SM BR CLR 14/14 A3002 RMK AO2 T01420139,K1A5,2023-06-06T07:30:00Z,35.22,-83.42,14.2,13.9,0,0,,5.0,30.02067,,,TRUE,TRUE,,,,,,BR,CLR,,,,,,,,MVFR,,,,,,,,,,,,METAR,611.0
HRYR 060730Z 16008KT 130V210 9999 SCT025 SCT100 23/14 Q1025 NOSIG,HRYR,2023-06-06T07:30:00Z,-1.97,30.13,23.0,14.0,160,8,,6.21,30.265747,,,,,,TRUE,,,,,SCT,2500,SCT,10000,,,,,VFR,,,,,,,,,,,,METAR,1493.0
GMMX 060730Z 24005KT 210V280 CAVOK 22/14 Q1011 NOSIG,GMMX,2023-06-06T07:30:00Z,31.62,-8.03,22.0,14.0,240,5,,6.21,29.852362,,,,,,TRUE,,,,,CAVOK,,,,,,,,VFR,,,,,,,,,,,,METAR,465.0
GMMN 060730Z VRB02KT OVC010 21/18 Q1011 NOSIG,GMMN,2023-06-06T07:30:00Z,33.37,-7.58,21.0,18.0,0,2,,,29.852362,,,,,,TRUE,,,,,OVC,1000,,,,,,,,,,,,,,,,,,,METAR,196.0
GMME 060730Z 00000KT 5000 FEW006 SCT016 BKN116 21/21 Q1010 NOSIG,GMME,2023-06-06T07:30:00Z,34.05,-6.77,21.0,21.0,0,0,,3.11,29.822834,,,,,,TRUE,,,,,FEW,600,SCT,1600,BKN,11600,,,MVFR,,,,,,,,,,,,METAR,84.0
GMFF 060730Z 26003KT 9999 FEW030 SCT100 BKN200 21/17 Q1012 NOSIG,GMFF,2023-06-06T07:30:00Z,33.92,-4.97,21.0,17.0,260,3,,6.21,29.88189,,,,,,TRUE,,,,,FEW,3000,SCT,10000,BKN,20000,,,VFR,,,,,,,,,,,,METAR,575.0
GMAD 060730Z 08008KT 8000 NSC 20/16 Q1009 NOSIG,GMAD,2023-06-06T07:30:00Z,30.32,-9.42,20.0,16.0,80,8,,4.97,29.793306,,,,,,TRUE,,,,,CLR,,,,,,,,MVFR,,,,,,,,,,,,METAR,66.0
GLRB 060730Z 00000KT 8000 -TSRA SCT006 BKN011 FEW022CB 24/23 Q1013 NOSIG RMK CB/SW-W,GLRB,2023-06-06T07:30:00Z,6.25,-10.35,24.0,23.0,0,0,,4.97,29.911417,,,,,,TRUE,,,,-TSRA,SCT,600,BKN,1100,FEW,2200,,,MVFR,,,,,,,,,,,,METAR,12.0
FOOG 060730Z 18010KT 140V200 9999 SCT010 26/23 Q1014,FOOG,2023-06-06T07:30:00Z,-0.7,8.75,26.0,23.0,180,10,,6.21,29.940945,,,,,,,,,,,SCT,1000,,,,,,,VFR,,,,,,,,,,,,METAR,4.0
FMMI 060730Z 15005KT 100V200 9999 FEW020 21/13 Q1026 NOSIG,FMMI,2023-06-06T07:30:00Z,-18.8,47.47,21.0,13.0,150,5,,6.21,30.295275,,,,,,TRUE,,,,,FEW,2000,,,,,,,VFR,,,,,,,,,,,,METAR,1269.0
FMCZ 060730Z AUTO 13014KT 9999 FEW028 SCT033 BKN046 30/23 Q1018 NOSIG,FMCZ,2023-06-06T07:30:00Z,-12.8,45.27,30.0,23.0,130,14,,6.21,30.059055,,,TRUE,,,TRUE,,,,,FEW,2800,SCT,3300,BKN,4600,,,VFR,,,,,,,,,,,,METAR,7.0
FAOR 060730Z 01013KT CAVOK 13/09 Q1028 NOSIG,FAOR,2023-06-06T07:30:00Z,-26.13,28.23,13.0,9.0,10,13,,6.21,30.35433,,,,,,TRUE,,,,,CAVOK,,,,,,,,VFR,,,,,,,,,,,,METAR,1684.0
EPZG 060730Z VRB02KT CAVOK 20/11 Q1020,EPZG,2023-06-06T07:30:00Z,52.13,15.77,20.0,11.0,0,2,,6.21,30.11811,,,,,,,,,,,CAVOK,,,,,,,,VFR,,,,,,,,,,,,METAR,59.0
EPWR 060730Z 06005KT 020V100 CAVOK 19/14 Q1019,EPWR,2023-06-06T07:30:00Z,51.1,16.88,19.0,14.0,60,5,,6.21,30.088583,,,,,,,,,,,CAVOK,,,,,,,,VFR,,,,,,,,,,,,METAR,118.0
EPWA 060730Z 09007KT 060V130 CAVOK 22/07 Q1021 NOSIG,EPWA,2023-06-06T07:30:00Z,52.17,20.97,22.0,7.0,90,7,,6.21,30.147638,,,,,,TRUE,,,,,CAVOK,,,,,,,,VFR,,,,,,,,,,,,METAR,107.0
EPSY 060730Z 20004KT 140V250 CAVOK 22/05 Q1021,EPSY,2023-06-06T07:30:00Z,53.47,20.93,22.0,5.0,200,4,,6.21,30.147638,,,,,,,,,,,CAVOK,,,,,,,,VFR,,,,,,,,,,,,METAR,136.0
EPSC 060730Z 05004KT 360V130 CAVOK 22/06 Q1020,EPSC,2023-06-06T07:30:00Z,53.58,14.9,22.0,6.0,50,4,,6.21,30.11811,,,,,,,,,,,CAVOK,,,,,,,,VFR,,,,,,,,,,,,METAR,47.0
EPRZ 060730Z 08007KT 030V140 CAVOK 19/10 Q1019,EPRZ,2023-06-06T07:30:00Z,50.1,22.02,19.0,10.0,80,7,,6.21,30.088583,,,,,,,,,,,CAVOK,,,,,,,,VFR,,,,,,,,,,,,METAR,206.0
EPRA 060730Z 10007KT 060V140 CAVOK 21/09 Q1020,EPRA,2023-06-06T07:30:00Z,51.38,21.22,21.0,9.0,100,7,,6.21,30.11811,,,,,,,,,,,CAVOK,,,,,,,,VFR,,,,,,,,,,,,METAR,182.0
EPPO 060730Z 36003KT 350V060 CAVOK 21/08 Q1020,EPPO,2023-06-06T07:30:00Z,52.42,16.83,21.0,8.0,360,3,,6.21,30.11811,,,,,,,,,,,CAVOK,,,,,,,,VFR,,,,,,,,,,,,METAR,87.0
EPMO 060730Z 11007KT 070V160 CAVOK 23/05 Q1020,EPMO,2023-06-06T07:30:00Z,52.45,20.65,23.0,5.0,110,7,,6.21,30.11811,,,,,,,,,,,CAVOK,,,,,,,,VFR,,,,,,,,,,,,METAR,102.0
EPLL 060730Z 10006KT 060V140 CAVOK 22/05 Q1020,EPLL,2023-06-06T07:30:00Z,51.72,19.4,22.0,5.0,100,6,,6.21,30.11811,,,,,,,,,,,CAVOK,,,,,,,,VFR,,,,,,,,,,,,METAR,176.0
EPLB 060730Z 08007KT CAVOK 21/11 Q1020,EPLB,2023-06-06T07:30:00Z,51.23,22.72,21.0,11.0,80,7,,6.21,30.11811,,,,,,,,,,,CAVOK,,,,,,,,VFR,,,,,,,,,,,,METAR,206.0
EPKT 060730Z 03005KT 010V070 CAVOK 21/09 Q1018,EPKT,2023-06-06T07:30:00Z,50.47,19.08,21.0,9.0,30,5,,6.21,30.059055,,,,,,,,,,,CAVOK,,,,,,,,VFR,,,,,,,,,,,,METAR,296.0
EPKK 060730Z 05006KT 020V080 CAVOK 18/09 Q1018,EPKK,2023-06-06T07:30:00Z,50.07,19.8,18.0,9.0,50,6,,6.21,30.059055,,,,,,,,,,,CAVOK,,,,,,,,VFR,,,,,,,,,,,,METAR,237.0
EPGD 060730Z 20005KT 150V240 CAVOK 22/07 Q1021,EPGD,2023-06-06T07:30:00Z,54.37,18.47,22.0,7.0,200,5,,6.21,30.147638,,,,,,,,,,,CAVOK,,,,,,,,VFR,,,,,,,,,,,,METAR,136.0
EPBY 060730Z VRB03KT CAVOK 23/05 Q1020,EPBY,2023-06-06T07:30:00Z,53.1,18.0,23.0,5.0,0,3,,6.21,30.11811,,,,,,,,,,,CAVOK,,,,,,,,VFR,,,,,,,,,,,,METAR,66.0
EKYT 060730Z AUTO 24013KT 9999 BKN011/// 13/10 Q1019,EKYT,2023-06-06T07:30:00Z,57.1,9.87,13.0,10.0,240,13,,6.21,30.088583,,,TRUE,,,,,,,,BKN,1100,,,,,,,MVFR,,,,,,,,,,,,SPECI,2.0
DIAP 060730Z 36004KT 8000 SCT011 26/26 Q1012 RETS NOSIG,DIAP,2023-06-06T07:30:00Z,5.25,-3.92,26.0,26.0,360,4,,4.97,29.88189,,,,,,TRUE,,,,,SCT,1100,,,,,,,MVFR,,,,,,,,,,,,METAR,4.0
CYRB 060730Z 35013KT 30SM BKN008 OVC018 M00/M01 A3019 RMK ST6SC2 SLP232,CYRB,2023-06-06T07:30:00Z,74.72,-94.97,0.0,-1.0,350,13,,30.0,30.188976,1023.2,,,,,,,,,,BKN,800,OVC,1800,,,,,IFR,,,,,,,,,,,,SPECI,59.0
CYAY 060730Z AUTO 07007KT 1SM BR VV003 04/04 A3002 RMK VIS VRB 1/2-2 1/2 SLP168,CYAY,2023-06-06T07:30:00Z,51.38,-56.07,4.0,4.0,70,7,,1.0,30.02067,1016.8,,TRUE,,,,,,,BR,OVX,0,,,,,,,LIFR,,,,,,,,,,,300,SPECI,23.0
BKPR 060730Z 17005KT 130V190 CAVOK 20/16 Q1018 NOSIG,BKPR,2023-06-06T07:30:00Z,42.58,21.03,20.0,16.0,170,5,,6.21,30.059055,,,,,,TRUE,,,,,CAVOK,,,,,,,,VFR,,,,,,,,,,,,METAR,545.0
PMDY 060729Z AUTO 10SM FEW019 BKN024 23/21 A3028 RMK AO2 TSNO $,PMDY,2023-06-06T07:29:00Z,28.22,-177.37,23.0,21.0,,,,10.0,30.280512,,,TRUE,TRUE,TRUE,,TRUE,,,,FEW,1900,BKN,2400,,,,,MVFR,,,,,,,,,,,,SPECI,6.0
PHNY 060729Z AUTO 06011G19KT 1 3/4SM HZ CLR 21/18 A3015 RMK AO2 VIS 3/4V5,PHNY,2023-06-06T07:29:00Z,20.77,-156.95,21.0,18.0,60,11,19,1.75,30.15059,,,TRUE,TRUE,,,,,,HZ,CLR,,,,,,,,IFR,,,,,,,,,,,,SPECI,395.0
KSDB 060729Z AUTO 19016KT 1/4SM FG VV001 07/06 A2991 RMK AO2 T00670056,KSDB,2023-06-06T07:29:00Z,34.75,-118.72,6.7,5.6,190,16,,0.25,29.911417,,,TRUE,TRUE,,,,,,FG,OVX,0,,,,,,,LIFR,,,,,,,,,,,100,SPECI,1377.0
KMTN 060729Z AUTO 00000KT 10SM SCT090 13/09 A2985 RMK AO2,KMTN,2023-06-06T07:29:00Z,39.32,-76.42,13.0,9.0,0,0,,10.0,29.84941,,,TRUE,TRUE,,,,,,,SCT,9000,,,,,,,VFR,,,,,,,,,,,,METAR,2.0
KFME 060729Z AUTO 00000KT 09/08 A2988 RMK AO1,KFME,2023-06-06T07:29:00Z,39.08,-76.77,9.0,8.0,0,0,,,29.878937,,,TRUE,TRUE,,,,,,,,,,,,,,,,,,,,,,,,,,,METAR,43.0
K2W6 060729Z AUTO 28003KT 10SM CLR 13/11 A2987 RMK AO1,K2W6,2023-06-06T07:29:00Z,38.32,-76.55,13.0,11.0,280,3,,10.0,29.870079,,,TRUE,TRUE,,,,,,,CLR,,,,,,,,VFR,,,,,,,,,,,,METAR,40.0
PTYA 060728Z VRB04KT 9SM -SHRA BKN014CB OVC120 26/26 A2979 RMK TSE28 CB ALQDS,PTYA,2023-06-06T07:28:00Z,9.48,138.08,26.0,26.0,0,4,,9.0,29.790354,,,,,,,,,,-SHRA,BKN,1400,OVC,12000,,,,,MVFR,,,,,,,,,,,,SPECI,4.0
KGZH 060728Z AUTO 00000KT 3/4SM BR CLR 18/17 A2995 RMK AO2 T01780167,KGZH,2023-06-06T07:28:00Z,31.42,-87.05,17.8,16.7,0,0,,0.75,29.949802,,,TRUE,TRUE,,,,,,BR,CLR,,,,,,,,LIFR,,,,,,,,,,,,SPECI,77.0
KAQV 060728Z AUTO 00000KT 5SM BR BKN002 19/18 A2991 RMK AO2 T01940183,KAQV,2023-06-06T07:28:00Z,31.4,-93.3,19.4,18.3,0,0,,5.0,29.911417,,,TRUE,TRUE,,,,,,BR,BKN,200,,,,,,,LIFR,,,,,,,,,,,,SPECI,123.0
CYQL 060728Z AUTO 29012KT 9SM BKN096 OVC130 19/06 A2993 RMK WSHFT AT 0718Z PRESRR SLP129 DENSITY ALT 4200FT,CYQL,2023-06-06T07:28:00Z,49.63,-112.8,19.0,6.0,290,12,,9.0,29.929134,1012.9,,TRUE,,,,,,,,BKN,9600,OVC,13000,,,,,VFR,,,,,,,,,,,,SPECI,923.0
CYGX 060728Z 12004KT 070V160 15SM OVC024 12/12 A3003 RMK ST8 SLP176,CYGX,2023-06-06T07:28:00Z,56.35,-94.7,12.0,12.0,120,4,,15.0,30.029528,1017.6,,,,,,,,,,OVC,2400,,,,,,,MVFR,,,,,,,,,,,,SPECI,145.0
PAJZ 060727Z AUTO 11018G23KT 8SM SCT014 OVC060 08/05 A2980 RMK AO2 $,PAJZ,2023-06-06T07:27:00Z,59.73,-157.27,8.0,5.0,110,18,23,8.0,29.799213,,,TRUE,TRUE,TRUE,,,,,,SCT,1400,OVC,6000,,,,,VFR,,,,,,,,,,,,SPECI,80.0
PAEH 060727Z AUTO 03017G29KT 010V110 10SM BKN009 06/06 A2956 RMK AO2 PK WND 09030/0715 SLP012,PAEH,2023-06-06T07:27:00Z,58.65,-162.07,6.0,6.0,30,17,29,10.0,29.56004,1001.2,,TRUE,TRUE,,,,,,,BKN,900,,,,,,,IFR,,,,,,,,,,,,SPECI,101.0
PACD 060727Z AUTO 12009KT 7SM FEW002 SCT025 OVC045 06/06 A2957 RMK AO2 T00610056 TSNO,PACD,2023-06-06T07:27:00Z,55.22,-162.72,6.1,5.6,120,9,,7.0,29.568897,,,TRUE,TRUE,,,TRUE,,,,FEW,200,SCT,2500,OVC,4500,,,VFR,,,,,,,,,,,,SPECI,23.0
KRME 060727Z AUTO 00000KT 7SM TS OVC060 13/07 A2980 RMK AO2 LTG DSNT E TSB20E22B23E24B27 T01280067,KRME,2023-06-06T07:27:00Z,43.22,-75.4,12.8,6.7,0,0,,7.0,29.799213,,,TRUE,TRUE,,,,,,TS,OVC,6000,,,,,,,VFR,,,,,,,,,,,,SPECI,146.0
KORE 060727Z AUTO 00000KT 2 1/2SM BR BKN002 09/08 A2972 RMK AO2 T00890078,KORE,2023-06-06T07:27:00Z,42.57,-72.28,8.9,7.8,0,0,,2.5,29.719488,,,TRUE,TRUE,,,,,,BR,BKN,200,,,,,,,LIFR,,,,,,,,,,,,SPECI,165.0
KHKY 060727Z AUTO 00000KT 2 1/2SM BR CLR 17/16 A2993 RMK AO2 T01670156 $,KHKY,2023-06-06T07:27:00Z,35.75,-81.38,16.7,15.6,0,0,,2.5,29.929134,,,TRUE,TRUE,TRUE,,,,,BR,CLR,,,,,,,,IFR,,,,,,,,,,,,SPECI,357.0
K2DP 060727Z AUTO 20003KT 10SM M M A2986 RMK AO2 SLPNO ALSTG ESTMD $,K2DP,2023-06-06T07:27:00Z,35.68,-75.9,,,200,3,,10.0,29.861221,,,TRUE,TRUE,TRUE,,,,,,,,,,,,,,,,,,,,,,,,,,SPECI,1.0
CYOJ 060727Z AUTO 16003KT 3/8SM FG BKN001 BKN096 08/08 A2987 RMK SLP130,CYOJ,2023-06-06T07:27:00Z,58.62,-117.17,8.0,8.0,160,3,,0.38,29.870079,1013.0,,TRUE,,,,,,,FG,BKN,100,BKN,9600,,,,,LIFR,,,,,,,,,,,,SPECI,339.0
KROS 060726Z AUTO 02004KT 7SM OVC100 18/15 A3007 RMK AO2,KROS,2023-06-06T07:26:00Z,45.7,-92.95,18.0,15.0,20,4,,7.0,30.070866,,,TRUE,TRUE,,,,,,,OVC,10000,,,,,,,VFR,,,,,,,,,,,,SPECI,282.0
BGTL 060726Z AUTO 31004KT 9999 OVC011 M02/M04 A3016 RMK AO2 SLP199 TSNO $,BGTL,2023-06-06T07:26:00Z,76.53,-68.75,-2.0,-4.0,310,4,,6.21,30.159449,1019.9,,TRUE,TRUE,TRUE,,TRUE,,,,OVC,1100,,,,,,,MVFR,,,,,,,,,,,,SPECI,79.0
OPPS 060725Z 05008KT 7000 HZ FEW040 34/11 Q1006,OPPS,2023-06-06T07:25:00Z,33.98,71.52,34.0,11.0,50,8,,4.35,29.704725,,,,,,,,,,HZ,FEW,4000,,,,,,,MVFR,,,,,,,,,,,,METAR,356.0
OPLA 060725Z 15006KT 7000 FEW100 SCT200 37/17 Q1005 NOSIG RMK QFE979 A29.69,OPLA,2023-06-06T07:25:00Z,31.52,74.4,37.0,17.0,150,6,,4.35,29.675198,,,,,,TRUE,,,,,FEW,10000,SCT,20000,,,,,MVFR,,,,,,,,,,,,METAR,217.0
KW29 060725Z AUTO 00000KT 10SM CLR 15/12 A2984 RMK AO2 T01540116,KW29,2023-06-06T07:25:00Z,38.98,-76.33,15.4,11.6,0,0,,10.0,29.840551,,,TRUE,TRUE,,,,,,,CLR,,,,,,,,VFR,,,,,,,,,,,,METAR,1.0
KVVV 060725Z AUTO 00000KT 10SM CLR 22/17 A3000 RMK AO2,KVVV,2023-06-06T07:25:00Z,45.3,-96.42,22.0,17.0,0,0,,10.0,30.0,,,TRUE,TRUE,,,,,,,CLR,,,,,,,,VFR,,,,,,,,,,,,METAR,334.0
KVUJ 060725Z AUTO 00000KT 10SM CLR 14/14 A2996 RMK AO2 T01420141,KVUJ,2023-06-06T07:25:00Z,35.42,-80.15,14.2,14.1,0,0,,10.0,29.958662,,,TRUE,TRUE,,,,,,,CLR,,,,,,,,VFR,,,,,,,,,,,,METAR,174.0
KUKF 060725Z AUTO 00000KT 1/4SM FG OVC001 13/13 A2999 RMK AO2,KUKF,2023-06-06T07:25:00Z,36.22,-81.1,13.0,13.0,0,0,,0.25,29.991142,,,TRUE,TRUE,,,,,,FG,OVC,100,,,,,,,LIFR,,,,,,,,,,,,METAR,383.0
KTTA 060725Z AUTO 24003KT 10SM CLR 16/16 A2991 RMK AO2 T01600160,KTTA,2023-06-06T07:25:00Z,35.58,-79.1,16.0,16.0,240,3,,10.0,29.911417,,,TRUE,TRUE,,,,,,,CLR,,,,,,,,VFR,,,,,,,,,,,,METAR,71.0
KTDF 060725Z AUTO 24004KT 10SM SCT060 SCT070 15/14 A2992 RMK AO2,KTDF,2023-06-06T07:25:00Z,36.28,-78.98,15.0,14.0,240,4,,10.0,29.920275,,,TRUE,TRUE,,,,,,,SCT,6000,SCT,7000,,,,,VFR,,,,,,,,,,,,METAR,180.0
KSVH 060725Z AUTO 00000KT 10SM OVC022 17/17 A2992 RMK AO2 T01710165,KSVH,2023-06-06T07:25:00Z,35.75,-80.95,17.1,16.5,0,0,,10.0,29.920275,,,TRUE,TRUE,,,,,,,OVC,2200,,,,,,,MVFR,,,,,,,,,,,,METAR,286.0
KSIF 060725Z AUTO 00000KT 3SM BR CLR 15/15 A2992 RMK AO2 T01520149,KSIF,2023-06-06T07:25:00Z,36.43,-79.85,15.2,14.9,0,0,,3.0,29.920275,,,TRUE,TRUE,,,,,,BR,CLR,,,,,,,,MVFR,,,,,,,,,,,,METAR,206.0
KSCR 060725Z AUTO 00000KT 10SM CLR 13/13 A2992 RMK AO2 T01310131,KSCR,2023-06-06T07:25:00Z,35.7,-79.5,13.1,13.1,0,0,,10.0,29.920275,,,TRUE,TRUE,,,,,,,CLR,,,,,,,,VFR,,,,,,,,,,,,METAR,182.0
KSAW 060725Z AUTO 01005KT 10SM CLR 09/07 A3010 RMK AO2,KSAW,2023-06-06T07:25:00Z,46.35,-87.4,9.0,7.0,10,5,,10.0,30.100393,,,TRUE,TRUE,,,,,,,CLR,,,,,,,,VFR,,,,,,,,,,,,METAR,359.0
KS85 060725Z AUTO 01005KT 10SM 19/19 A2992 RMK A01 Culbertson ,KS85,2023-06-06T07:25:00Z,48.15,-104.5,19.0,19.0,10,5,,10.0,29.920275,,,TRUE,TRUE,,,,,,,,,,,,,,,,,,,,,,,,,,,METAR,596.0
KRUQ 060725Z AUTO 22003KT 5SM BR CLR 16/16 A2992 RMK AO2 T01610158,KRUQ,2023-06-06T07:25:00Z,35.65,-80.52,16.1,15.8,220,3,,5.0,29.920275,,,TRUE,TRUE,,,,,,BR,CLR,,,,,,,,MVFR,,,,,,,,,,,,METAR,231.0
KPGV 060725Z AUTO 00000KT 10SM BKN075 15/15 A2989 RMK AO2,KPGV,2023-06-06T07:25:00Z,35.63,-77.4,15.0,15.0,0,0,,10.0,29.890747,,,TRUE,TRUE,,,,,,,BKN,7500,,,,,,,VFR,,,,,,,,,,,,METAR,6.0
KONX 060725Z AUTO 00000KT 10SM CLR A2987 RMK AO2,KONX,2023-06-06T07:25:00Z,36.4,-76.02,,,0,0,,10.0,29.870079,,,TRUE,TRUE,,,,,,,CLR,,,,,,,,VFR,,,,,,,,,,,,METAR,4.0
KOCW 060725Z AUTO 23004KT 10SM SCT075 15/12 A2990 RMK AO2 T01500115,KOCW,2023-06-06T07:25:00Z,35.57,-77.05,15.0,11.5,230,4,,10.0,29.899607,,,TRUE,TRUE,,,,,,,SCT,7500,,,,,,,VFR,,,,,,,,,,,,METAR,10.0
KNMM 060725Z AUTO 00000KT 1/4SM FG VV001 A2995 RMK AO2 $,KNMM,2023-06-06T07:25:00Z,32.53,-88.53,,,0,0,,0.25,29.949802,,,TRUE,TRUE,TRUE,,,,,FG,OVX,0,,,,,,,LIFR,,,,,,,,,,,100,SPECI,94.0
KMWK 060725Z AUTO 00000KT 3SM BR CLR 15/14 A2995 RMK AO2 T01450141,KMWK,2023-06-06T07:25:00Z,36.47,-80.55,14.5,14.1,0,0,,3.0,29.949802,,,TRUE,TRUE,,,,,,BR,CLR,,,,,,,,MVFR,,,,,,,,,,,,METAR,374.0
KMRN 060725Z AUTO 00000KT 5SM BR CLR 15/15 A2995 RMK AO2 T01500147,KMRN,2023-06-06T07:25:00Z,35.82,-81.62,15.0,14.7,0,0,,5.0,29.949802,,,TRUE,TRUE,,,,,,BR,CLR,,,,,,,,MVFR,,,,,,,,,,,,METAR,375.0
KMOB 060725Z AUTO 02005KT 8SM SCT003 21/19 A2995 RMK AO2 T02060189 $,KMOB,2023-06-06T07:25:00Z,30.68,-88.25,20.6,18.9,20,5,,8.0,29.949802,,,TRUE,TRUE,TRUE,,,,,,SCT,300,,,,,,,VFR,,,,,,,,,,,,SPECI,67.0
KMCZ 060725Z AUTO 21003KT 10SM SCT075 13/12 A2989 RMK AO2 T01310121,KMCZ,2023-06-06T07:25:00Z,,,13.1,12.1,210,3,,10.0,29.890747,,,TRUE,TRUE,,,,,,,SCT,7500,,,,,,,VFR,,,,,,,,,,,,METAR,
KJNX 060725Z AUTO 00000KT 10SM CLR 14/13 A2990 RMK AO2,KJNX,2023-06-06T07:25:00Z,35.53,-78.38,14.0,13.0,0,0,,10.0,29.899607,,,TRUE,TRUE,,,,,,,CLR,,,,,,,,VFR,,,,,,,,,,,,SPECI,41.0
KISO 060725Z AUTO 23005KT 10SM CLR 16/13 A2991 RMK AO2 T01600134,KISO,2023-06-06T07:25:00Z,35.32,-77.62,16.0,13.4,230,5,,10.0,29.911417,,,TRUE,TRUE,,,,,,,CLR,,,,,,,,VFR,,,,,,,,,,,,METAR,27.0
KIPJ 060725Z AUTO 00000KT 5SM BR SCT002 BKN025 16/16 A2993 RMK AO2 T01600159,KIPJ,2023-06-06T07:25:00Z,35.48,-81.17,16.0,15.9,0,0,,5.0,29.929134,,,TRUE,TRUE,,,,,,BR,SCT,200,BKN,2500,,,,,MVFR,,,,,,,,,,,,METAR,266.0
KHRJ 060725Z AUTO 16005KT 10SM CLR 15/14 A2992 RMK AO2 T01490145,KHRJ,2023-06-06T07:25:00Z,35.38,-78.73,14.9,14.5,160,5,,10.0,29.920275,,,TRUE,TRUE,,,,,,,CLR,,,,,,,,VFR,,,,,,,,,,,,METAR,55.0
KHBI 060725Z AUTO 00000KT 10SM BKN029 17/16 A2994 RMK AO2 T01680159,KHBI,2023-06-06T07:25:00Z,35.65,-79.9,16.8,15.9,0,0,,10.0,29.940945,,,TRUE,TRUE,,,,,,,BKN,2900,,,,,,,MVFR,,,,,,,,,,,,METAR,199.0
KGVW 060725Z AUTO 06010KT 10SM SCT039 25/20 A2991 RMK A01,KGVW,2023-06-06T07:25:00Z,29.13,-94.55,25.0,20.0,60,10,,10.0,29.911417,,,TRUE,TRUE,,,,,,,SCT,3900,,,,,,,VFR,,,,,,,,,,,,SPECI,37.0
KGEV 060725Z AUTO 00000KT 10SM CLR 11/09 A3001 RMK AO2 T01070091,KGEV,2023-06-06T07:25:00Z,36.43,-81.42,10.7,9.1,0,0,,10.0,30.008858,,,TRUE,TRUE,,,,,,,CLR,,,,,,,,VFR,,,,,,,,,,,,METAR,961.0
KFQD 060725Z AUTO 05003KT 7SM SCT090 17/17 A2994 RMK AO2,KFQD,2023-06-06T07:25:00Z,35.42,-81.93,17.0,17.0,50,3,,7.0,29.940945,,,TRUE,TRUE,,,,,,,SCT,9000,,,,,,,VFR,,,,,,,,,,,,METAR,325.0
KESN 060725Z AUTO 00000KT 10SM CLR 14/13 A2983 RMK AO2 T01390128 $,KESN,2023-06-06T07:25:00Z,38.8,-76.07,13.9,12.8,0,0,,10.0,29.828741,,,TRUE,TRUE,TRUE,,,,,,CLR,,,,,,,,VFR,,,,,,,,,,,,SPECI,14.0
KEHO 060725Z AUTO 00000KT 10SM CLR 18/18 A2993 RMK AO2 T01800180,KEHO,2023-06-06T07:25:00Z,35.25,-81.6,18.0,18.0,0,0,,10.0,29.929134,,,TRUE,TRUE,,,,,,,CLR,,,,,,,,VFR,,,,,,,,,,,,METAR,261.0
KEDE 060725Z AUTO 00000KT 10SM CLR 16/16 A2989 RMK AO2 T01600160,KEDE,2023-06-06T07:25:00Z,36.03,-76.57,16.0,16.0,0,0,,10.0,29.890747,,,TRUE,TRUE,,,,,,,CLR,,,,,,,,VFR,,,,,,,,,,,,METAR,4.0
KDPL 060725Z AUTO 24005KT 10SM CLR 15/13 A2992 RMK AO2,KDPL,2023-06-06T07:25:00Z,35.0,-77.97,15.0,13.0,240,5,,10.0,29.920275,,,TRUE,TRUE,,,,,,,CLR,,,,,,,,VFR,,,,,,,,,,,,METAR,39.0
KDMW 060725Z AUTO 00000KT 10SM CLR 14/09 A2986 RMK AO2,KDMW,2023-06-06T07:25:00Z,39.6,-77.0,14.0,9.0,0,0,,10.0,29.861221,,,TRUE,TRUE,,,,,,,CLR,,,,,,,,VFR,,,,,,,,,,,,METAR,239.0
KCTZ 060725Z AUTO 00000KT 10SM CLR 16/15 A2993 RMK AO2 T01620152,KCTZ,2023-06-06T07:25:00Z,34.98,-78.37,16.2,15.2,0,0,,10.0,29.929134,,,TRUE,TRUE,,,,,,,CLR,,,,,,,,VFR,,,,,,,,,,,,METAR,43.0
KCPC 060725Z AUTO 00000KT 10SM CLR 17/14 A2995 RMK AO2 T01670138,KCPC,2023-06-06T07:25:00Z,34.28,-78.72,16.7,13.8,0,0,,10.0,29.949802,,,TRUE,TRUE,,,,,,,CLR,,,,,,,,VFR,,,,,,,,,,,,METAR,27.0
KCON 060725Z AUTO 00000KT 10SM FEW002 SCT110 08/08 A2968 RMK AO2 T00830083,KCON,2023-06-06T07:25:00Z,43.2,-71.5,8.3,8.3,0,0,,10.0,29.681103,,,TRUE,TRUE,,,,,,,FEW,200,SCT,11000,,,,,VFR,,,,,,,,,,,,SPECI,102.0
KCII 060725Z AUTO 21008KT 10SM 14/10 A2997 RMK A01 ,KCII,2023-06-06T07:25:00Z,47.83,-112.17,14.0,10.0,210,8,,10.0,29.970472,,,TRUE,TRUE,,,,,,,,,,,,,,,,,,,,,,,,,,,METAR,1202.0
KCGE 060725Z AUTO 00000KT 10SM 13/13 A2984 RMK A01,KCGE,2023-06-06T07:25:00Z,38.53,-76.03,13.0,13.0,0,0,,10.0,29.840551,,,TRUE,TRUE,,,,,,,,,,,,,,,,,,,,,,,,,,,METAR,5.0
KCBE 060725Z AUTO 00000KT 10SM BKN055 OVC065 09/08 A2995 RMK AO2 T00910078,KCBE,2023-06-06T07:25:00Z,39.62,-78.77,9.1,7.8,0,0,,10.0,29.949802,,,TRUE,TRUE,,,,,,,BKN,5500,OVC,6500,,,,,VFR,,,,,,,,,,,,SPECI,226.0
KASJ 060725Z AUTO 00000KT 10SM BKN075 BKN085 13/13 A2989 RMK AO2 T01310131,KASJ,2023-06-06T07:25:00Z,36.28,-77.17,13.1,13.1,0,0,,10.0,29.890747,,,TRUE,TRUE,,,,,,,BKN,7500,BKN,8500,,,,,VFR,,,,,,,,,,,,METAR,20.0
KACZ 060725Z AUTO 00000KT 10SM CLR 14/13 A2992 RMK AO2 T01360128,KACZ,2023-06-06T07:25:00Z,,,13.6,12.8,0,0,,10.0,29.920275,,,TRUE,TRUE,,,,,,,CLR,,,,,,,,VFR,,,,,,,,,,,,METAR,
K7W6 060725Z AUTO 00000KT 10SM CLR 14/13 A2989 RMK AO2 T01380134,K7W6,2023-06-06T07:25:00Z,35.55,-75.95,13.8,13.4,0,0,,10.0,29.890747,,,TRUE,TRUE,,,,,,,CLR,,,,,,,,VFR,,,,,,,,,,,,METAR,1.0
K6S8 060725Z AUTO VRB04KT 10SM 17/16 A2994 RMK A01 Laurel,K6S8,2023-06-06T07:25:00Z,45.7,-108.77,17.0,16.0,0,4,,10.0,29.940945,,,TRUE,TRUE,,,,,,,,,,,,,,,,,,,,,,,,,,,METAR,1072.0
K4U6 060725Z AUTO 15014KT 10SM 22/12 A2991 RMK A01 Circle ,K4U6,2023-06-06T07:25:00Z,47.42,-105.57,22.0,12.0,150,14,,10.0,29.911417,,,TRUE,TRUE,,,,,,,,,,,,,,,,,,,,,,,,,,,METAR,739.0
K2G4 060725Z AUTO 30003KT 8SM CLR 11/05 A2997 RMK AO2,K2G4,2023-06-06T07:25:00Z,39.58,-79.33,11.0,5.0,300,3,,8.0,29.970472,,,TRUE,TRUE,,,,,,,CLR,,,,,,,,VFR,,,,,,,,,,,,METAR,908.0
K24A 060725Z AUTO 00000KT 10SM CLR 16/15 A3002 RMK AO2 LTG DSNT SE AND S T01590147,K24A,2023-06-06T07:25:00Z,35.32,-83.2,15.9,14.7,0,0,,10.0,30.02067,,,TRUE,TRUE,,,,,,,CLR,,,,,,,,VFR,,,,,,,,,,,,METAR,864.0
FAMM 060725Z 02006KT CAVOK 20/M00 Q1026 NOSIG,FAMM,2023-06-06T07:25:00Z,-25.8,25.53,20.0,0.0,20,6,,6.21,30.295275,,,,,,TRUE,,,,,CAVOK,,,,,,,,VFR,,,,,,,,,,,,SPECI,1280.0
EHWO 060725Z AUTO 04010KT 360V070 9999 NCD 15/09 Q1021 BLU NOSIG,EHWO,2023-06-06T07:25:00Z,51.45,4.33,15.0,9.0,40,10,,6.21,30.147638,,,TRUE,,,TRUE,,,,,CLR,,,,,,,,VFR,,,,,,,,,,,,METAR,15.0
EHVL 060725Z AUTO 02015KT 9999 OVC017 13/09 Q1023 WHT,EHVL,2023-06-06T07:25:00Z,53.28,5.08,13.0,9.0,20,15,,6.21,30.206694,,,TRUE,,,,,,,,OVC,1700,,,,,,,MVFR,,,,,,,,,,,,METAR,2.0
EHVK 060725Z AUTO 03006KT 340V070 9999 NCD 15/10 Q1021 BLU NOSIG,EHVK,2023-06-06T07:25:00Z,51.65,5.7,15.0,10.0,30,6,,6.21,30.147638,,,TRUE,,,TRUE,,,,,CLR,,,,,,,,VFR,,,,,,,,,,,,METAR,20.0
EHSC 060725Z AUTO 03017KT 9999 ///////// 12/10 Q1023 W14/H11,EHSC,2023-06-06T07:25:00Z,51.93,3.67,12.0,10.0,30,17,,6.21,30.206694,,,TRUE,,,,,,,,,,,,,,,,,,,,,,,,,,,,METAR,19.0
EHSA 060725Z AUTO 02018KT 9999 ///////// 12/08 Q1022 W12/H12,EHSA,2023-06-06T07:25:00Z,52.0,3.28,12.0,8.0,20,18,,6.21,30.177166,,,TRUE,,,,,,,,,,,,,,,,,,,,,,,,,,,,METAR,18.0
EHRD 060725Z AUTO 04010KT 360V070 9999 FEW014 14/10 Q1022 BECMG FEW015,EHRD,2023-06-06T07:25:00Z,51.95,4.45,14.0,10.0,40,10,,6.21,30.177166,,,TRUE,,,,,,,,FEW,1400,,,,,,,VFR,,,,,,,,,,,,METAR,-4.0
EHPG 060725Z AUTO 04017KT 360V060 9999 BKN016 12/08 Q1023,EHPG,2023-06-06T07:25:00Z,52.37,3.35,12.0,8.0,40,17,,6.21,30.206694,,,TRUE,,,,,,,,BKN,1600,,,,,,,MVFR,,,,,,,,,,,,METAR,24.0
EHMG 060725Z AUTO 03011KT 9999 BKN010 OVC012 11/08 Q1024,EHMG,2023-06-06T07:25:00Z,53.62,4.97,11.0,8.0,30,11,,6.21,30.236221,,,TRUE,,,,,,,,BKN,1000,OVC,1200,,,,,MVFR,,,,,,,,,,,,METAR,30.0
EHMA 060725Z AUTO 02012KT 330V040 9999 FEW012 BKN014 11/08 Q1023,EHMA,2023-06-06T07:25:00Z,53.5,5.95,11.0,8.0,20,12,,6.21,30.206694,,,TRUE,,,,,,,,FEW,1200,BKN,1400,,,,,MVFR,,,,,,,,,,,,METAR,27.0
EHLW 060725Z AUTO 03011KT 350V060 9999 FEW016 14/09 Q1023 BLU,EHLW,2023-06-06T07:25:00Z,53.22,5.75,14.0,9.0,30,11,,6.21,30.206694,,,TRUE,,,,,,,,FEW,1600,,,,,,,VFR,,,,,,,,,,,,METAR,1.0
EHLE 060725Z AUTO 01010KT 9999 NCD 15/10 Q1022 NOSIG,EHLE,2023-06-06T07:25:00Z,52.45,5.52,15.0,10.0,10,10,,6.21,30.177166,,,TRUE,,,TRUE,,,,,CLR,,,,,,,,VFR,,,,,,,,,,,,METAR,-3.0
EHKV 060725Z AUTO 04014KT 9999 FEW009 BKN010 OVC013 11/08 Q1024,EHKV,2023-06-06T07:25:00Z,53.27,3.63,11.0,8.0,40,14,,6.21,30.236221,,,TRUE,,,,,,,,FEW,900,BKN,1000,OVC,1300,,,MVFR,,,,,,,,,,,,METAR,28.0
EHKD 060725Z AUTO 03010KT 350V060 9999 NCD 14/09 Q1023 BLU NOSIG,EHKD,2023-06-06T07:25:00Z,52.92,4.77,14.0,9.0,30,10,,6.21,30.206694,,,TRUE,,,TRUE,,,,,CLR,,,,,,,,VFR,,,,,,,,,,,,METAR,1.0
EHJR 060725Z AUTO 03017KT //// // ///////// 11/08 Q1024 RE// W13/H13,EHJR,2023-06-06T07:25:00Z,53.22,3.22,11.0,8.0,30,17,,,30.236221,,,TRUE,,,,,,,,,,,,,,,,,,,,,,,,,,,,METAR,31.0
EHJA 060725Z AUTO 03012KT 9999 SCT013/// OVC015/// 11/07 Q1024,EHJA,2023-06-06T07:25:00Z,53.82,2.95,11.0,7.0,30,12,,6.21,30.236221,,,TRUE,,,,,,,,SCT,1300,OVC,1500,,,,,MVFR,,,,,,,,,,,,METAR,34.0
EHHW 060725Z AUTO 04010KT 340V060 9999 BKN012/// OVC014/// 11/08 Q1023,EHHW,2023-06-06T07:25:00Z,54.03,6.03,11.0,8.0,40,10,,6.21,30.206694,,,TRUE,,,,,,,,BKN,1200,OVC,1400,,,,,MVFR,,,,,,,,,,,,METAR,10.0
EHGR 060725Z AUTO 02009KT 330V090 9999 NCD 15/10 Q1021 BLU NOSIG,EHGR,2023-06-06T07:25:00Z,51.55,4.93,15.0,10.0,20,9,,6.21,30.147638,,,TRUE,,,TRUE,,,,,CLR,,,,,,,,VFR,,,,,,,,,,,,METAR,12.0
EHGG 060725Z AUTO 02009KT 330V070 9999 NCD 14/09 Q1022 NOSIG,EHGG,2023-06-06T07:25:00Z,53.12,6.57,14.0,9.0,20,9,,6.21,30.177166,,,TRUE,,,TRUE,,,,,CLR,,,,,,,,VFR,,,,,,,,,,,,METAR,2.0
EHFS 060725Z AUTO 02013KT 340V050 9999 NCD 14/10 Q1021,EHFS,2023-06-06T07:25:00Z,51.45,3.6,14.0,10.0,20,13,,6.21,30.147638,,,TRUE,,,,,,,,CLR,,,,,,,,VFR,,,,,,,,,,,,METAR,1.0
EHFD 060725Z AUTO VRB08KT 9999 SCT014/// OVC016/// 11/06 Q1024,EHFD,2023-06-06T07:25:00Z,54.85,4.7,11.0,6.0,0,8,,6.21,30.236221,,,TRUE,,,,,,,,SCT,1400,OVC,1600,,,,,MVFR,,,,,,,,,,,,METAR,24.0
EHEH 060725Z AUTO 36007KT 320V070 9999 NCD 15/10 Q1021 BLU NOSIG,EHEH,2023-06-06T07:25:00Z,51.45,5.38,15.0,10.0,360,7,,6.21,30.147638,,,TRUE,,,TRUE,,,,,CLR,,,,,,,,VFR,,,,,,,,,,,,METAR,20.0
EHDV 060725Z AUTO 02016KT 9999 OVC016/// 11/06 Q1025,EHDV,2023-06-06T07:25:00Z,54.32,2.93,11.0,6.0,20,16,,6.21,30.265747,,,TRUE,,,,,,,,OVC,1600,,,,,,,MVFR,,,,,,,,,,,,METAR,36.0
EHDL 060725Z AUTO 02008KT 300V080 9999 NCD 15/10 Q1021 BLU,EHDL,2023-06-06T07:25:00Z,52.07,5.88,15.0,10.0,20,8,,6.21,30.147638,,,TRUE,,,,,,,,CLR,,,,,,,,VFR,,,,,,,,,,,,METAR,49.0
EHBK 060725Z AUTO 03006KT 330V060 9999 NCD 16/12 Q1020,EHBK,2023-06-06T07:25:00Z,50.92,5.77,16.0,12.0,30,6,,6.21,30.11811,,,TRUE,,,,,,,,CLR,,,,,,,,VFR,,,,,,,,,,,,METAR,112.0
EHAM 060725Z 03009KT 330V080 9999 FEW015 15/11 Q1022 NOSIG,EHAM,2023-06-06T07:25:00Z,52.32,4.78,15.0,11.0,30,9,,6.21,30.177166,,,,,,TRUE,,,,,FEW,1500,,,,,,,VFR,,,,,,,,,,,,METAR,-2.0
EHAK 060725Z AUTO 01014KT 320V060 9999 BKN014/// OVC017/// 10/07 Q1024,EHAK,2023-06-06T07:25:00Z,55.38,3.82,10.0,7.0,10,14,,6.21,30.236221,,,TRUE,,,,,,,,BKN,1400,OVC,1700,,,,,MVFR,,,,,,,,,,,,METAR,33.0
EBBE 060725Z 02006KT 9999 FEW010 13/10 Q1020 BLU BLU TEMPO WHT,EBBE,2023-06-06T07:25:00Z,50.75,4.77,13.0,10.0,20,6,,6.21,30.11811,,,,,,,,,,,FEW,1000,,,,,,,VFR,,,,,,,,,,,,SPECI,127.0
KTRK 060724Z AUTO 00000KT 10SM OVC100 09/06 A3005 RMK AO2,KTRK,2023-06-06T07:24:00Z,39.32,-120.13,9.0,6.0,0,0,,10.0,30.050198,,,TRUE,TRUE,,,,,,,OVC,10000,,,,,,,VFR,,,,,,,,,,,,SPECI,1800.0
KNBG 060724Z AUTO 10SM SCT026 BKN044 21/20 A2991 RMK AO2 T02110200 $,KNBG,2023-06-06T07:24:00Z,29.83,-90.02,21.1,20.0,,,,10.0,29.911417,,,TRUE,TRUE,TRUE,,,,,,SCT,2600,BKN,4400,,,,,VFR,,,,,,,,,,,,SPECI,0.0
FACT 060724Z 07002KT CAVOK 10/07 Q1016 NOSIG,FACT,2023-06-06T07:24:00Z,-33.97,18.6,10.0,7.0,70,2,,6.21,30.0,,,,,,TRUE,,,,,CAVOK,,,,,,,,VFR,,,,,,,,,,,,SPECI,48.0
KUTS 060723Z AUTO 00000KT 1 1/2SM BR OVC002 21/20 A2992 RMK AO2 T02110200,KUTS,2023-06-06T07:23:00Z,30.75,-95.58,21.1,20.0,0,0,,1.5,29.920275,,,TRUE,TRUE,,,,,,BR,OVC,200,,,,,,,LIFR,,,,,,,,,,,,SPECI,103.0
KSGR 060723Z AUTO 00000KT 1 1/2SM BR CLR 19/19 A2991 RMK AO2 T01940194,KSGR,2023-06-06T07:23:00Z,29.62,-95.65,19.4,19.4,0,0,,1.5,29.911417,,,TRUE,TRUE,,,,,,BR,CLR,,,,,,,,IFR,,,,,,,,,,,,SPECI,22.0
KSBA 060723Z 08004KT 9SM OVC029 16/12 A2990 RMK AO2 T01610117 $,KSBA,2023-06-06T07:23:00Z,34.43,-119.85,16.1,11.7,80,4,,9.0,29.899607,,,,TRUE,TRUE,,,,,,OVC,2900,,,,,,,MVFR,,,,,,,,,,,,SPECI,2.0
KEVM 060723Z AUTO 00000KT 7SM CLR 12/11 A3012 RMK AO2,KEVM,2023-06-06T07:23:00Z,47.42,-92.5,12.0,11.0,0,0,,7.0,30.121063,,,TRUE,TRUE,,,,,,,CLR,,,,,,,,VFR,,,,,,,,,,,,METAR,419.0
KAGS 060723Z AUTO VRB03KT 8SM -RA FEW033 BKN055 OVC100 19/17 A2992 RMK AO2 LTG DSNT E RAB09 TSB08E10B13E16B18E19B20E22 P0001 T01940172,KAGS,2023-06-06T07:23:00Z,33.37,-81.97,19.4,17.2,0,3,,8.0,29.920275,,,TRUE,TRUE,,,,,,-RA,FEW,3300,BKN,5500,OVC,10000,,,VFR,,,,,,0.01,,,,,,SPECI,40.0
EBFS 060723Z 03006KT 5000 BR SCT004 BKN006 12/11 Q1020 YLO YLO BECMG GRN,EBFS,2023-06-06T07:23:00Z,50.23,4.65,12.0,11.0,30,6,,3.11,30.11811,,,,,,,,,,BR,SCT,400,BKN,600,,,,,IFR,,,,,,,,,,,,SPECI,276.0
CYCB 060723Z 03016KT 3SM BR OVC002 OVC055 00/00 A3015 RMK SF6SC2 SLP214,CYCB,2023-06-06T07:23:00Z,69.1,-105.12,0.0,0.0,30,16,,3.0,30.15059,1021.4,,,,,,,,,BR,OVC,200,OVC,5500,,,,,LIFR,,,,,,,,,,,,SPECI,19.0
KFXE 060722Z AUTO 34004KT 10SM BKN031 25/22 A2990 RMK AO2 T02500217 PNO,KFXE,2023-06-06T07:22:00Z,26.2,-80.18,25.0,21.7,340,4,,10.0,29.899607,,,TRUE,TRUE,,,,,,,BKN,3100,,,,,,,VFR,,,,,,,,,,,,SPECI,3.0
KFMN 060722Z AUTO 09013KT 10SM -RA SCT042 BKN075 BKN090 16/08 A3011 RMK AO2 WSHFT 0702 RAB01 P0002 T01560083,KFMN,2023-06-06T07:22:00Z,36.75,-108.23,15.6,8.3,90,13,,10.0,30.109253,,,TRUE,TRUE,,,,,,-RA,SCT,4200,BKN,7500,BKN,9000,,,VFR,,,,,,0.02,,,,,,SPECI,1677.0
KESF 060722Z AUTO 00000KT 4SM BR SCT004 19/19 A2992 RMK AO2 T01890189,KESF,2023-06-06T07:22:00Z,31.4,-92.28,18.9,18.9,0,0,,4.0,29.920275,,,TRUE,TRUE,,,,,,BR,SCT,400,,,,,,,MVFR,,,,,,,,,,,,SPECI,27.0
KAKH 060722Z AUTO 00000KT 3SM BR SCT031 17/16 A2992 RMK AO2 T01670161,KAKH,2023-06-06T07:22:00Z,35.2,-81.15,16.7,16.1,0,0,,3.0,29.920275,,,TRUE,TRUE,,,,,,BR,SCT,3100,,,,,,,MVFR,,,,,,,,,,,,METAR,242.0
KAIT 060722Z AUTO 00000KT 7SM CLR 13/12 A3009 RMK AO2,KAIT,2023-06-06T07:22:00Z,46.53,-93.67,13.0,12.0,0,0,,7.0,30.088583,,,TRUE,TRUE,,,,,,,CLR,,,,,,,,VFR,,,,,,,,,,,,METAR,367.0
CZUM 060722Z AUTO 04012G18KT 9SM -RA OVC010 04/02 A3006 RMK SLP200,CZUM,2023-06-06T07:22:00Z,53.55,-64.1,4.0,2.0,40,12,18,9.0,30.059055,1020.0,,TRUE,,,,,,,-RA,OVC,1000,,,,,,,MVFR,,,,,,,,,,,,SPECI,431.0
CYOD 060722Z 30012KT 15SM -SHRA OVC015 16/14 A2995 RMK SC8 DENSITY ALT 2489FT SLP138,CYOD,2023-06-06T07:22:00Z,54.4,-110.28,16.0,14.0,300,12,,15.0,29.949802,1013.8,,,,,,,,,-SHRA,OVC,1500,,,,,,,MVFR,,,,,,,,,,,,SPECI,540.0
CYGV 060722Z AUTO 05009G16KT 2 1/2SM -RA BR SCT009 BKN013 OVC019 10/10 A2983 RMK SLP105,CYGV,2023-06-06T07:22:00Z,50.28,-63.62,10.0,10.0,50,9,16,2.5,29.828741,1010.5,,TRUE,,,,,,,-RA BR,SCT,900,BKN,1300,OVC,1900,,,IFR,,,,,,,,,,,,SPECI,32.0
RJFY 060721Z 04007KT 5000 -SHRA BR FEW002 SCT005 BKN015 FEW015TCU 19/18 Q1003 RMK 2ST002 4ST005 7CU015 1TCU015 A2964 TCU 20KM SW MOV E,RJFY,2023-06-06T07:21:00Z,31.37,130.83,19.0,18.0,40,7,,3.11,29.616142,,,,,,,,,,-SHRA BR,FEW,200,SCT,500,BKN,1500,FEW,1500,MVFR,,,,,,,,,,,,SPECI,59.0
PASN 060721Z AUTO 01003KT SCT009 OVC037 05/03 A2950 RMK AO2 T00500033 TSNO $,PASN,2023-06-06T07:21:00Z,57.15,-170.22,5.0,3.3,10,3,,,29.500984,,,TRUE,TRUE,TRUE,,TRUE,,,,SCT,900,OVC,3700,,,,,,,,,,,,,,,,,METAR,8.0
CYPD 060721Z AUTO 10014G26KT 1 1/2SM RA BR BKN007 OVC011 10/09 A2937 RMK PCPN 3.0MM PAST HR SLP950,CYPD,2023-06-06T07:21:00Z,45.67,-61.37,10.0,9.0,100,14,26,1.5,29.371063,995.0,,TRUE,,,,,,,RA BR,BKN,700,OVC,1100,,,,,IFR,,,,,,,,,,,,SPECI,106.0
PKWA 060720Z AUTO 09010KT 10SM SCT022 A2985 RMK AO2 TSNO,PKWA,2023-06-06T07:20:00Z,8.72,167.72,,,90,10,,10.0,29.84941,,,TRUE,TRUE,,,TRUE,,,,SCT,2200,,,,,,,VFR,,,,,,,,,,,,METAR,6.0
PAKT 060720Z AUTO 12007KT 10SM BKN011 OVC021 10/07 A3032 RMK AO2 T01000072 TSNO,PAKT,2023-06-06T07:20:00Z,55.35,-131.72,10.0,7.2,120,7,,10.0,30.318897,,,TRUE,TRUE,,,TRUE,,,,BKN,1100,OVC,2100,,,,,MVFR,,,,,,,,,,,,METAR,27.0
LXGB 060720Z 06014KT 9999 FEW012 21/18 Q1013 TEMPO SCT012,LXGB,2023-06-06T07:20:00Z,36.15,-5.33,21.0,18.0,60,14,,6.21,29.911417,,,,,,,,,,,FEW,1200,,,,,,,VFR,,,,,,,,,,,,METAR,5.0
LSZS 060720Z VRB02KT 2000 BKN006 06/05 Q1020 RMK D TL170,LSZS,2023-06-06T07:20:00Z,46.53,9.88,6.0,5.0,0,2,,1.24,30.11811,,,,,,,,,,,BKN,600,,,,,,,IFR,,,,,,,,,,,,SPECI,1708.0
LSZR 060720Z VRB03KT CAVOK 17/12 Q1018 RMK D,LSZR,2023-06-06T07:20:00Z,47.48,9.57,17.0,12.0,0,3,,6.21,30.059055,,,,,,,,,,,CAVOK,,,,,,,,VFR,,,,,,,,,,,,METAR,396.0
LSZL 060720Z 11003KT 050V150 9999 FEW020 18/13 Q1016 RMK BLU+,LSZL,2023-06-06T07:20:00Z,46.17,8.88,18.0,13.0,110,3,,6.21,30.0,,,,,,,,,,,FEW,2000,,,,,,,VFR,,,,,,,,,,,,SPECI,198.0
LSZH 060720Z 02004KT 330V090 CAVOK 18/12 Q1018 NOSIG,LSZH,2023-06-06T07:20:00Z,47.48,8.53,18.0,12.0,20,4,,6.21,30.059055,,,,,,TRUE,,,,,CAVOK,,,,,,,,VFR,,,,,,,,,,,,METAR,424.0
LSZG 060720Z 07008KT 020V100 CAVOK 19/11 Q1017,LSZG,2023-06-06T07:20:00Z,47.17,7.42,19.0,11.0,70,8,,6.21,30.029528,,,,,,,,,,,CAVOK,,,,,,,,VFR,,,,,,,,,,,,METAR,428.0
LSZC 060720Z VRB01KT 9999 FEW050 18/10 Q1018,LSZC,2023-06-06T07:20:00Z,46.97,8.38,18.0,10.0,0,1,,6.21,30.059055,,,,,,,,,,,FEW,5000,,,,,,,VFR,,,,,,,,,,,,METAR,445.0
LSZB 060720Z 12004KT 080V200 CAVOK 19/10 Q1017,LSZB,2023-06-06T07:20:00Z,46.92,7.5,19.0,10.0,120,4,,6.21,30.029528,,,,,,,,,,,CAVOK,,,,,,,,VFR,,,,,,,,,,,,METAR,510.0
LSZA 060720Z 17003KT 100V220 9999 FEW015 19/16 Q1016,LSZA,2023-06-06T07:20:00Z,46.0,8.92,19.0,16.0,170,3,,6.21,30.0,,,,,,,,,,,FEW,1500,,,,,,,VFR,,,,,,,,,,,,METAR,276.0
LSMP 060720Z 07003KT 020V110 CAVOK 17/11 Q1017 RMK BLU,LSMP,2023-06-06T07:20:00Z,46.83,6.92,17.0,11.0,70,3,,6.21,30.029528,,,,,,,,,,,CAVOK,,,,,,,,VFR,,,,,,,,,,,,METAR,490.0
LSMM 060720Z AUTO VRB01KT 9999NDV NCD 17/09 Q1017 RMK,LSMM,2023-06-06T07:20:00Z,46.75,8.12,17.0,9.0,0,1,,,30.029528,,,TRUE,,,,,,,,CLR,,,,,,,,,,,,,,,,,,,,METAR,570.0
LSME 060720Z VRB01KT CAVOK 18/12 Q1018 RMK BLU,LSME,2023-06-06T07:20:00Z,47.1,8.3,18.0,12.0,0,1,,6.21,30.059055,,,,,,,,,,,CAVOK,,,,,,,,VFR,,,,,,,,,,,,METAR,427.0
LSMD 060720Z 04003KT 300V110 CAVOK 18/12 Q1018 RMK BLU,LSMD,2023-06-06T07:20:00Z,47.4,8.65,18.0,12.0,40,3,,6.21,30.059055,,,,,,,,,,,CAVOK,,,,,,,,VFR,,,,,,,,,,,,METAR,436.0
LSMA 060720Z VRB02KT CAVOK 18/12 Q1018 RMK BLU,LSMA,2023-06-06T07:20:00Z,46.95,8.28,18.0,12.0,0,2,,6.21,30.059055,,,,,,,,,,,CAVOK,,,,,,,,VFR,,,,,,,,,,,,METAR,441.0
LSGS 060720Z AUTO VRB01KT CAVOK 20/08 Q1017,LSGS,2023-06-06T07:20:00Z,46.22,7.32,20.0,8.0,0,1,,6.21,30.029528,,,TRUE,,,,,,,,CAVOK,,,,,,,,VFR,,,,,,,,,,,,METAR,482.0
LSGG 060720Z 03003KT 9999 FEW040 19/10 Q1017 NOSIG,LSGG,2023-06-06T07:20:00Z,46.25,6.12,19.0,10.0,30,3,,6.21,30.029528,,,,,,TRUE,,,,,FEW,4000,,,,,,,VFR,,,,,,,,,,,,METAR,411.0
LSGC 060720Z 08004KT 350V150 CAVOK 18/08 Q1018,LSGC,2023-06-06T07:20:00Z,47.08,6.8,18.0,8.0,80,4,,6.21,30.059055,,,,,,,,,,,CAVOK,,,,,,,,VFR,,,,,,,,,,,,METAR,1018.0
LOXZ 060720Z VRB01KT 8000 -RA FEW003 SCT007 BKN070 15/13 Q1017 TEMPO BKN070,LOXZ,2023-06-06T07:20:00Z,47.2,14.75,15.0,13.0,0,1,,4.97,30.029528,,,,,,,,,,-RA,FEW,300,SCT,700,BKN,7000,,,MVFR,,,,,,,,,,,,SPECI,678.0
LOWW 060720Z 03003KT 340V050 9999 FEW006 BKN012 17/15 Q1017 NOSIG,LOWW,2023-06-06T07:20:00Z,48.12,16.57,17.0,15.0,30,3,,6.21,30.029528,,,,,,TRUE,,,,,FEW,600,BKN,1200,,,,,MVFR,,,,,,,,,,,,METAR,179.0
LOWS 060720Z AUTO VRB02KT 9999 FEW012 SCT018 17/13 Q1017 NOSIG,LOWS,2023-06-06T07:20:00Z,47.78,13.02,17.0,13.0,0,2,,6.21,30.029528,,,TRUE,,,TRUE,,,,,FEW,1200,SCT,1800,,,,,VFR,,,,,,,,,,,,METAR,427.0
LOWL 060720Z 26006KT 230V290 9999 FEW008 SCT012 BKN080 17/14 Q1017 NOSIG,LOWL,2023-06-06T07:20:00Z,48.22,14.18,17.0,14.0,260,6,,6.21,30.029528,,,,,,TRUE,,,,,FEW,800,SCT,1200,BKN,8000,,,VFR,,,,,,,,,,,,METAR,290.0
LOWK 060720Z AUTO VRB01KT 9999 -RA SCT004 BKN070 15/15 Q1017 TEMPO SHRA,LOWK,2023-06-06T07:20:00Z,46.65,14.32,15.0,15.0,0,1,,6.21,30.029528,,,TRUE,,,,,,,-RA,SCT,400,BKN,7000,,,,,VFR,,,,,,,,,,,,METAR,450.0
LOWI 060720Z VRB02KT 9999 FEW018 16/12 Q1018 NOSIG,LOWI,2023-06-06T07:20:00Z,47.27,11.33,16.0,12.0,0,2,,6.21,30.059055,,,,,,TRUE,,,,,FEW,1800,,,,,,,VFR,,,,,,,,,,,,METAR,570.0
LOWG 060720Z VRB02KT 9999 FEW010 SCT020 18/14 Q1017 NOSIG,LOWG,2023-06-06T07:20:00Z,47.0,15.43,18.0,14.0,0,2,,6.21,30.029528,,,,,,TRUE,,,,,FEW,1000,SCT,2000,,,,,VFR,,,,,,,,,,,,METAR,337.0
LLBG 060720Z 23004KT 9999 FEW030 26/16 Q1012 NOSIG,LLBG,2023-06-06T07:20:00Z,32.0,34.88,26.0,16.0,230,4,,6.21,29.88189,,,,,,TRUE,,,,,FEW,3000,,,,,,,VFR,,,,,,,,,,,,METAR,35.0
LIRZ 060720Z AUTO VRB02KT 9999 FEW008/// SCT015/// BKN051/// 19/16 Q1016,LIRZ,2023-06-06T07:20:00Z,43.1,12.5,19.0,16.0,0,2,,6.21,30.0,,,TRUE,,,,,,,,FEW,800,SCT,1500,BKN,5100,,,VFR,,,,,,,,,,,,METAR,206.0
LIRQ 060720Z VRB02KT 9999 SCT015 21/16 Q1015,LIRQ,2023-06-06T07:20:00Z,43.8,11.2,21.0,16.0,0,2,,6.21,29.970472,,,,,,,,,,,SCT,1500,,,,,,,VFR,,,,,,,,,,,,METAR,33.0
LIRN 060720Z 13003KT 060V190 9999 SCT020 SCT040 23/16 Q1016 NOSIG,LIRN,2023-06-06T07:20:00Z,40.88,14.3,23.0,16.0,130,3,,6.21,30.0,,,,,,TRUE,,,,,SCT,2000,SCT,4000,,,,,VFR,,,,,,,,,,,,METAR,76.0
LIRF 060720Z 07003KT 020V140 CAVOK 21/15 Q1016 NOSIG,LIRF,2023-06-06T07:20:00Z,41.78,12.23,21.0,15.0,70,3,,6.21,30.0,,,,,,TRUE,,,,,CAVOK,,,,,,,,VFR,,,,,,,,,,,,METAR,2.0
LIRA 060720Z VRB01KT CAVOK 21/15 Q1016,LIRA,2023-06-06T07:20:00Z,41.8,12.58,21.0,15.0,0,1,,6.21,30.0,,,,,,,,,,,CAVOK,,,,,,,,VFR,,,,,,,,,,,,METAR,101.0
LIPZ 060720Z 02006KT 9999 BKN008 19/17 Q1015 NOSIG,LIPZ,2023-06-06T07:20:00Z,45.5,12.35,19.0,17.0,20,6,,6.21,29.970472,,,,,,TRUE,,,,,BKN,800,,,,,,,IFR,,,,,,,,,,,,METAR,3.0
LIPY 060720Z AUTO 01005KT 340V040 9999 FEW017/// 21/17 Q1015,LIPY,2023-06-06T07:20:00Z,43.62,13.37,21.0,17.0,10,5,,6.21,29.970472,,,TRUE,,,,,,,,FEW,1700,,,,,,,VFR,,,,,,,,,,,,METAR,11.0
LIPX 060720Z 26007KT 230V300 9999 SCT015 20/16 Q1015,LIPX,2023-06-06T07:20:00Z,45.38,10.87,20.0,16.0,260,7,,6.21,29.970472,,,,,,,,,,,SCT,1500,,,,,,,VFR,,,,,,,,,,,,METAR,67.0
LIPR 060720Z 34003KT 260V050 9999 FEW040 20/17 Q1016,LIPR,2023-06-06T07:20:00Z,44.02,12.62,20.0,17.0,340,3,,6.21,30.0,,,,,,,,,,,FEW,4000,,,,,,,VFR,,,,,,,,,,,,METAR,10.0
LIPQ 060720Z AUTO VRB02KT 9999 -RA BKN038/// BKN100/// 19/19 Q1015,LIPQ,2023-06-06T07:20:00Z,45.82,13.47,19.0,19.0,0,2,,6.21,29.970472,,,TRUE,,,,,,,-RA,BKN,3800,BKN,10000,,,,,VFR,,,,,,,,,,,,METAR,6.0
LIPO 060720Z AUTO 26005KT 220V280 9999 FEW027/// 21/17 Q1016,LIPO,2023-06-06T07:20:00Z,45.42,10.33,21.0,17.0,260,5,,6.21,30.0,,,TRUE,,,,,,,,FEW,2700,,,,,,,VFR,,,,,,,,,,,,METAR,104.0
LIPH 060720Z 06005KT 010V090 9999 SCT015 20/16 Q1015,LIPH,2023-06-06T07:20:00Z,45.63,12.18,20.0,16.0,60,5,,6.21,29.970472,,,,,,,,,,,SCT,1500,,,,,,,VFR,,,,,,,,,,,,METAR,10.0
LIPE 060720Z VRB01KT 6000 SCT011 SCT018 19/16 Q1015,LIPE,2023-06-06T07:20:00Z,44.52,11.3,19.0,16.0,0,1,,3.73,29.970472,,,,,,,,,,,SCT,1100,SCT,1800,,,,,MVFR,,,,,,,,,,,,METAR,37.0
LIMZ 060720Z AUTO 03003KT 340V070 9999 FEW010/// BKN025/// 19/16 Q1017,LIMZ,2023-06-06T07:20:00Z,44.53,7.62,19.0,16.0,30,3,,6.21,30.029528,,,TRUE,,,,,,,,FEW,1000,BKN,2500,,,,,MVFR,,,,,,,,,,,,METAR,377.0
LIMW 060720Z AUTO VRB02KT 9999 NCD 19/12 Q1017,LIMW,2023-06-06T07:20:00Z,45.73,7.37,19.0,12.0,0,2,,6.21,30.029528,,,TRUE,,,,,,,,CLR,,,,,,,,VFR,,,,,,,,,,,,METAR,554.0
LIML 060720Z VRB02KT 9999 SCT040 20/16 Q1016 NOSIG,LIML,2023-06-06T07:20:00Z,45.47,9.27,20.0,16.0,0,2,,6.21,30.0,,,,,,TRUE,,,,,SCT,4000,,,,,,,VFR,,,,,,,,,,,,METAR,109.0
LIMJ 060720Z VRB02KT 9999 SCT016 21/16 Q1015,LIMJ,2023-06-06T07:20:00Z,44.42,8.83,21.0,16.0,0,2,,6.21,29.970472,,,,,,,,,,,SCT,1600,,,,,,,VFR,,,,,,,,,,,,METAR,3.0
LIMF 060720Z VRB01KT 9999 FEW040 19/14 Q1016,LIMF,2023-06-06T07:20:00Z,45.22,7.65,19.0,14.0,0,1,,6.21,30.0,,,,,,,,,,,FEW,4000,,,,,,,VFR,,,,,,,,,,,,METAR,295.0
LIME 060720Z 23004KT 190V260 9999 SCT015 19/15 Q1016 NOSIG,LIME,2023-06-06T07:20:00Z,45.67,9.7,19.0,15.0,230,4,,6.21,30.0,,,,,,TRUE,,,,,SCT,1500,,,,,,,VFR,,,,,,,,,,,,METAR,239.0
LIMC 060720Z 31003KT 250V010 CAVOK 20/15 Q1016 NOSIG,LIMC,2023-06-06T07:20:00Z,45.62,8.72,20.0,15.0,310,3,,6.21,30.0,,,,,,TRUE,,,,,CAVOK,,,,,,,,VFR,,,,,,,,,,,,METAR,221.0
LIEO 060720Z VRB02KT CAVOK 22/16 Q1016,LIEO,2023-06-06T07:20:00Z,40.88,9.52,22.0,16.0,0,2,,6.21,30.0,,,,,,,,,,,CAVOK,,,,,,,,VFR,,,,,,,,,,,,METAR,8.0
LIEE 060720Z 34003KT 260V060 CAVOK 20/17 Q1016,LIEE,2023-06-06T07:20:00Z,39.25,9.07,20.0,17.0,340,3,,6.21,30.0,,,,,,,,,,,CAVOK,,,,,,,,VFR,,,,,,,,,,,,METAR,1.0
LIEA 060720Z VRB01KT 9999 FEW020 22/17 Q1015,LIEA,2023-06-06T07:20:00Z,40.62,8.28,22.0,17.0,0,1,,6.21,29.970472,,,,,,,,,,,FEW,2000,,,,,,,VFR,,,,,,,,,,,,METAR,22.0
LICR 060720Z AUTO 35011KT 9999 SCT120/// 22/16 Q1016,LICR,2023-06-06T07:20:00Z,38.07,15.65,22.0,16.0,350,11,,6.21,30.0,,,TRUE,,,,,,,,SCT,12000,,,,,,,VFR,,,,,,,,,,,,METAR,16.0
LICJ 060720Z 05006KT 9999 -RA FEW018 19/17 Q1016,LICJ,2023-06-06T07:20:00Z,38.17,13.08,19.0,17.0,50,6,,6.21,30.0,,,,,,,,,,-RA,FEW,1800,,,,,,,VFR,,,,,,,,,,,,METAR,20.0
LICD 060720Z AUTO 07017KT 6000 -RA OVC089/// 20/19 Q1012,LICD,2023-06-06T07:20:00Z,35.5,12.62,20.0,19.0,70,17,,3.73,29.88189,,,TRUE,,,,,,,-RA,OVC,8900,,,,,,,MVFR,,,,,,,,,,,,METAR,20.0
LICC 060720Z 28004KT 9999 FEW020 BKN120 20/18 Q1016,LICC,2023-06-06T07:20:00Z,37.47,15.05,20.0,18.0,280,4,,6.21,30.0,,,,,,,,,,,FEW,2000,BKN,12000,,,,,VFR,,,,,,,,,,,,METAR,6.0
LICB 060720Z AUTO 09004KT 360V130 9999 -RA FEW035/// BKN076/// 20/14 Q1016,LICB,2023-06-06T07:20:00Z,37.0,14.62,20.0,14.0,90,4,,6.21,30.0,,,TRUE,,,,,,,-RA,FEW,3500,BKN,7600,,,,,VFR,,,,,,,,,,,,METAR,212.0
LICA 060720Z AUTO 20003KT 150V240 9999 SCT087/// 22/17 Q1017,LICA,2023-06-06T07:20:00Z,38.9,16.25,22.0,17.0,200,3,,6.21,30.029528,,,TRUE,,,,,,,,SCT,8700,,,,,,,VFR,,,,,,,,,,,,METAR,7.0
LIBR 060720Z 19006KT CAVOK 23/16 Q1015,LIBR,2023-06-06T07:20:00Z,40.65,17.95,23.0,16.0,190,6,,6.21,29.970472,,,,,,,,,,,CAVOK,,,,,,,,VFR,,,,,,,,,,,,METAR,5.0
LIBP 060720Z AUTO 24004KT 9999 -RA OVC075/// 20/18 Q1016,LIBP,2023-06-06T07:20:00Z,42.42,14.18,20.0,18.0,240,4,,6.21,30.0,,,TRUE,,,,,,,-RA,OVC,7500,,,,,,,VFR,,,,,,,,,,,,METAR,10.0
LIBD 060720Z 35005KT 310V030 CAVOK 23/15 Q1015,LIBD,2023-06-06T07:20:00Z,41.13,16.77,23.0,15.0,350,5,,6.21,29.970472,,,,,,,,,,,CAVOK,,,,,,,,VFR,,,,,,,,,,,,METAR,42.0
LGTS 060720Z 33005KT 250V030 9999 FEW025 22/17 Q1019 NOSIG,LGTS,2023-06-06T07:20:00Z,40.52,22.97,22.0,17.0,330,5,,6.21,30.088583,,,,,,TRUE,,,,,FEW,2500,,,,,,,VFR,,,,,,,,,,,,METAR,4.0
LGSR 060720Z 35012KT CAVOK 23/18 Q1014,LGSR,2023-06-06T07:20:00Z,36.4,25.48,23.0,18.0,350,12,,6.21,29.940945,,,,,,,,,,,CAVOK,,,,,,,,VFR,,,,,,,,,,,,METAR,31.0
LGSA 060720Z 12006KT 9999 FEW016 22/17 Q1014,LGSA,2023-06-06T07:20:00Z,35.53,24.13,22.0,17.0,120,6,,6.21,29.940945,,,,,,,,,,,FEW,1600,,,,,,,VFR,,,,,,,,,,,,METAR,122.0
LGRX 060720Z 03012KT CAVOK 26/12 Q1015,LGRX,2023-06-06T07:20:00Z,38.17,21.42,26.0,12.0,30,12,,6.21,29.970472,,,,,,,,,,,CAVOK,,,,,,,,VFR,,,,,,,,,,,,METAR,16.0
LGRP 060720Z 27005KT CAVOK 24/19 Q1012 NOSIG,LGRP,2023-06-06T07:20:00Z,36.4,28.08,24.0,19.0,270,5,,6.21,29.88189,,,,,,TRUE,,,,,CAVOK,,,,,,,,VFR,,,,,,,,,,,,METAR,3.0
LGPZ 060720Z 05009KT 9999 FEW080 26/15 Q1015,LGPZ,2023-06-06T07:20:00Z,38.92,20.77,26.0,15.0,50,9,,6.21,29.970472,,,,,,,,,,,FEW,8000,,,,,,,VFR,,,,,,,,,,,,METAR,3.0
LGMT 060720Z VRB03KT CAVOK 22/15 Q1016,LGMT,2023-06-06T07:20:00Z,39.05,26.6,22.0,15.0,0,3,,6.21,30.0,,,,,,,,,,,CAVOK,,,,,,,,VFR,,,,,,,,,,,,METAR,4.0
LGMK 060720Z 01020KT 9999 FEW008 21/14 Q1015,LGMK,2023-06-06T07:20:00Z,37.43,25.35,21.0,14.0,10,20,,6.21,29.970472,,,,,,,,,,,FEW,800,,,,,,,VFR,,,,,,,,,,,,METAR,126.0
LGLM 060720Z 04013G23KT 9999 FEW015 20/14 Q1017,LGLM,2023-06-06T07:20:00Z,39.92,25.23,20.0,14.0,40,13,23,6.21,30.029528,,,,,,,,,,,FEW,1500,,,,,,,VFR,,,,,,,,,,,,METAR,4.0
LGKV 060720Z 10006KT CAVOK 23/12 Q1019,LGKV,2023-06-06T07:20:00Z,40.92,24.62,23.0,12.0,100,6,,6.21,30.088583,,,,,,,,,,,CAVOK,,,,,,,,VFR,,,,,,,,,,,,METAR,5.0
LGKR 060720Z 00000KT 9999 FEW020 BKN080 25/20 Q1015 NOSIG,LGKR,2023-06-06T07:20:00Z,39.62,19.92,25.0,20.0,0,0,,6.21,29.970472,,,,,,TRUE,,,,,FEW,2000,BKN,8000,,,,,VFR,,,,,,,,,,,,METAR,2.0
LGKP 060720Z 30014KT 9999 FEW014 24/19 Q1013,LGKP,2023-06-06T07:20:00Z,35.42,27.15,24.0,19.0,300,14,,6.21,29.911417,,,,,,,,,,,FEW,1400,,,,,,,VFR,,,,,,,,,,,,METAR,20.0
LGKO 060720Z VRB03KT CAVOK 24/17 Q1013,LGKO,2023-06-06T07:20:00Z,36.8,27.08,24.0,17.0,0,3,,6.21,29.911417,,,,,,,,,,,CAVOK,,,,,,,,VFR,,,,,,,,,,,,METAR,130.0
LGKL 060720Z 00000KT 9999 FEW030 25/16 Q1014,LGKL,2023-06-06T07:20:00Z,37.07,22.02,25.0,16.0,0,0,,6.21,29.940945,,,,,,,,,,,FEW,3000,,,,,,,VFR,,,,,,,,,,,,METAR,4.0
LGIR 060720Z 32009KT 9999 FEW025 22/17 Q1015 NOSIG,LGIR,2023-06-06T07:20:00Z,35.33,25.17,22.0,17.0,320,9,,6.21,29.970472,,,,,,TRUE,,,,,FEW,2500,,,,,,,VFR,,,,,,,,,,,,METAR,37.0
LGIO 060720Z VRB02KT 9999 SCT035 SCT070 21/16 Q1018,LGIO,2023-06-06T07:20:00Z,39.7,20.82,21.0,16.0,0,2,,6.21,30.059055,,,,,,,,,,,SCT,3500,SCT,7000,,,,,VFR,,,,,,,,,,,,METAR,476.0
LGEL 060720Z 34010G20KT 9999 FEW025 25/12 Q1016,LGEL,2023-06-06T07:20:00Z,38.07,23.55,25.0,12.0,340,10,20,6.21,30.0,,,,,,,,,,,FEW,2500,,,,,,,VFR,,,,,,,,,,,,METAR,21.0
LGBL 060720Z 11007KT CAVOK 24/14 Q1018,LGBL,2023-06-06T07:20:00Z,39.22,22.8,24.0,14.0,110,7,,6.21,30.059055,,,,,,,,,,,CAVOK,,,,,,,,VFR,,,,,,,,,,,,METAR,13.0
LGAL 060720Z 05013KT 9999 FEW020 22/12 Q1019,LGAL,2023-06-06T07:20:00Z,40.85,25.95,22.0,12.0,50,13,,6.21,30.088583,,,,,,,,,,,FEW,2000,,,,,,,VFR,,,,,,,,,,,,METAR,5.0
LGAD 060720Z 00000KT CAVOK 25/16 Q1015,LGAD,2023-06-06T07:20:00Z,37.92,21.28,25.0,16.0,0,0,,6.21,29.970472,,,,,,,,,,,CAVOK,,,,,,,,VFR,,,,,,,,,,,,METAR,8.0
LCRA 060720Z 22007KT 9999 FEW060 24/18 Q1012 NOSIG,LCRA,2023-06-06T07:20:00Z,34.58,32.98,24.0,18.0,220,7,,6.21,29.88189,,,,,,TRUE,,,,,FEW,6000,,,,,,,VFR,,,,,,,,,,,,METAR,23.0
LATI 060720Z VRB02KT 9999 BKN120 25/17 Q1016 NOSIG,LATI,2023-06-06T07:20:00Z,41.42,19.72,25.0,17.0,0,2,,6.21,30.0,,,,,,TRUE,,,,,BKN,12000,,,,,,,VFR,,,,,,,,,,,,METAR,32.0
KW40 060720Z AUTO 22004KT 10SM CLR 15/13 A2992 RMK AO2 T01540133,KW40,2023-06-06T07:20:00Z,35.22,-78.03,15.4,13.3,220,4,,10.0,29.920275,,,TRUE,TRUE,,,,,,,CLR,,,,,,,,VFR,,,,,,,,,,,,METAR,50.0
KSBD 060720Z AUTO 26004KT 10SM OVC021 15/08 A2992 RMK AO2 T01450080,KSBD,2023-06-06T07:20:00Z,34.08,-117.25,14.5,8.0,260,4,,10.0,29.920275,,,TRUE,TRUE,,,,,,,OVC,2100,,,,,,,MVFR,,,,,,,,,,,,METAR,353.0
KRIV 060720Z AUTO 00000KT 10SM OVC019 13/09 A2991 RMK AO2 SLP122 $,KRIV,2023-06-06T07:20:00Z,33.87,-117.23,13.0,9.0,0,0,,10.0,29.911417,1012.2,,TRUE,TRUE,TRUE,,,,,,OVC,1900,,,,,,,MVFR,,,,,,,,,,,,SPECI,454.0
KQFW 060720Z AUTO 22004G15KT 9999 SCT047 24/14 A2952 RMK A02 TSNO,KQFW,2023-06-06T07:20:00Z,,,24.0,14.0,220,4,15,6.21,29.518702,,,TRUE,TRUE,,,TRUE,,,,SCT,4700,,,,,,,VFR,,,,,,,,,,,,METAR,
KQEY 060720Z AUTO 30007G14KT 9999 CLR 26/14 A2941 RMK A02 TSNO,KQEY,2023-06-06T07:20:00Z,,,26.0,14.0,300,7,14,6.21,29.409449,,,TRUE,TRUE,,,TRUE,,,,CLR,,,,,,,,VFR,,,,,,,,,,,,METAR,
KQER 060720Z AUTO 20005G11KT 9999 FEW041 SCT080 23/13 A2966 RMK A02 TSNO,KQER,2023-06-06T07:20:00Z,,,23.0,13.0,200,5,11,6.21,29.660433,,,TRUE,TRUE,,,TRUE,,,,FEW,4100,SCT,8000,,,,,VFR,,,,,,,,,,,,METAR,
KQEN 060720Z AUTO 26004G18KT 9999 BKN055 BKN120 20/10 A2975 RMK A02 TSNO,KQEN,2023-06-06T07:20:00Z,,,20.0,10.0,260,4,18,6.21,29.749016,,,TRUE,TRUE,,,TRUE,,,,BKN,5500,BKN,12000,,,,,VFR,,,,,,,,,,,,METAR,
KPNA 060720Z AUTO 31005KT 10SM CLR 07/06 A3021 RMK AO2,KPNA,2023-06-06T07:20:00Z,42.8,-109.8,7.0,6.0,310,5,,10.0,30.209646,,,TRUE,TRUE,,,,,,,CLR,,,,,,,,VFR,,,,,,,,,,,,SPECI,2158.0
KMTK 060720Z AUTO 15007KT 10SM SCT018 SCT024 25/22 A2990 RMK A01,KMTK,2023-06-06T07:20:00Z,,,25.0,22.0,150,7,,10.0,29.899607,,,TRUE,TRUE,,,,,,,SCT,1800,SCT,2400,,,,,VFR,,,,,,,,,,,,METAR,
KJYL 060720Z AUTO 00000KT 10SM SCT090 18/16 A2995 RMK AO2 LTG DSNT N T01820162,KJYL,2023-06-06T07:20:00Z,32.65,-81.6,18.2,16.2,0,0,,10.0,29.949802,,,TRUE,TRUE,,,,,,,SCT,9000,,,,,,,VFR,,,,,,,,,,,,SPECI,54.0
KIKT 060720Z AUTO 15009KT 10SM FEW038 25/22 A2990 RMK A01,KIKT,2023-06-06T07:20:00Z,28.52,-88.28,25.0,22.0,150,9,,10.0,29.899607,,,TRUE,TRUE,,,,,,,FEW,3800,,,,,,,VFR,,,,,,,,,,,,METAR,36.0
KIER 060720Z AUTO 24003KT 10SM CLR 20/20 A2992 RMK AO2 T02000196,KIER,2023-06-06T07:20:00Z,31.73,-93.1,20.0,19.6,240,3,,10.0,29.920275,,,TRUE,TRUE,,,,,,,CLR,,,,,,,,VFR,,,,,,,,,,,,SPECI,35.0
KGUL 060720Z AUTO 00000KT 9SM FEW023 26/21 A2990 RMK A01,KGUL,2023-06-06T07:20:00Z,27.3,-93.53,26.0,21.0,0,0,,9.0,29.899607,,,TRUE,TRUE,,,,,,,FEW,2300,,,,,,,VFR,,,,,,,,,,,,METAR,20.0
KETC 060720Z AUTO 00000KT 4SM BR CLR 13/13 A2989 RMK AO2 T01310128,KETC,2023-06-06T07:20:00Z,35.93,-77.55,13.1,12.8,0,0,,4.0,29.890747,,,TRUE,TRUE,,,,,,BR,CLR,,,,,,,,MVFR,,,,,,,,,,,,METAR,15.0
KEDU 060720Z AUTO 25005KT 10SM CLR 16/10 A2975 RMK AO1,KEDU,2023-06-06T07:20:00Z,38.53,-121.78,16.0,10.0,250,5,,10.0,29.749016,,,TRUE,TRUE,,,,,,,CLR,,,,,,,,VFR,,,,,,,,,,,,SPECI,20.0
KDSF 060720Z AUTO 10009KT 10SM FEW022 SCT028 SCT038 A2990 RMK A01,KDSF,2023-06-06T07:20:00Z,28.35,-88.27,,,100,9,,10.0,29.899607,,,TRUE,TRUE,,,,,,,FEW,2200,SCT,2800,SCT,3800,,,VFR,,,,,,,,,,,,METAR,40.0
KBDN 060720Z AUTO 24004KT 10SM CLR 16/07 A2998 RMK AO2,KBDN,2023-06-06T07:20:00Z,44.1,-121.2,16.0,7.0,240,4,,10.0,29.97933,,,TRUE,TRUE,,,,,,,CLR,,,,,,,,VFR,,,,,,,,,,,,METAR,1044.0
KAXS 060720Z AUTO 00000KT 10SM CLR 19/17 A3004 RMK AO2 T01900171,KAXS,2023-06-06T07:20:00Z,34.7,-99.33,19.0,17.1,0,0,,10.0,30.041338,,,TRUE,TRUE,,,,,,,CLR,,,,,,,,VFR,,,,,,,,,,,,METAR,433.0
KATP 060720Z AUTO 07005KT 8SM CLR 26/21 A2991 RMK A01,KATP,2023-06-06T07:20:00Z,27.2,-90.03,26.0,21.0,70,5,,8.0,29.911417,,,TRUE,TRUE,,,,,,,CLR,,,,,,,,VFR,,,,,,,,,,,,SPECI,50.0
EYVI 060720Z 15004KT 090V220 CAVOK 18/05 Q1023 NOSIG,EYVI,2023-06-06T07:20:00Z,54.63,25.28,18.0,5.0,150,4,,6.21,30.206694,,,,,,TRUE,,,,,CAVOK,,,,,,,,VFR,,,,,,,,,,,,METAR,180.0
EYSA 060720Z 18008KT CAVOK 18/04 Q1023 NOSIG,EYSA,2023-06-06T07:20:00Z,55.9,23.4,18.0,4.0,180,8,,6.21,30.206694,,,,,,TRUE,,,,,CAVOK,,,,,,,,VFR,,,,,,,,,,,,METAR,135.0
EYPA 060720Z 22005KT 180V270 CAVOK 20/07 Q1022,EYPA,2023-06-06T07:20:00Z,55.97,21.08,20.0,7.0,220,5,,6.21,30.177166,,,,,,,,,,,CAVOK,,,,,,,,VFR,,,,,,,,,,,,METAR,15.0
EYKA 060720Z 15005KT 110V200 CAVOK 18/05 Q1023,EYKA,2023-06-06T07:20:00Z,54.97,24.08,18.0,5.0,150,5,,6.21,30.206694,,,,,,,,,,,CAVOK,,,,,,,,VFR,,,,,,,,,,,,METAR,68.0
EVVA 060720Z AUTO 21010KT CAVOK 18/05 Q1021,EVVA,2023-06-06T07:20:00Z,57.35,21.55,18.0,5.0,210,10,,6.21,30.147638,,,TRUE,,,,,,,,CAVOK,,,,,,,,VFR,,,,,,,,,,,,METAR,1.0
EVRA 060720Z 21011KT CAVOK 19/06 Q1022 NOSIG,EVRA,2023-06-06T07:20:00Z,56.92,23.97,19.0,6.0,210,11,,6.21,30.177166,,,,,,TRUE,,,,,CAVOK,,,,,,,,VFR,,,,,,,,,,,,METAR,7.0
EVLA 060720Z AUTO 23009KT CAVOK 18/05 Q1022,EVLA,2023-06-06T07:20:00Z,56.52,21.1,18.0,5.0,230,9,,6.21,30.177166,,,TRUE,,,,,,,,CAVOK,,,,,,,,VFR,,,,,,,,,,,,METAR,5.0
EVGA 060720Z 20009KT CAVOK 19/06 Q1022 NOSIG,EVGA,2023-06-06T07:20:00Z,56.78,24.85,19.0,6.0,200,9,,6.21,30.177166,,,,,,TRUE,,,,,CAVOK,,,,,,,,VFR,,,,,,,,,,,,METAR,61.0
ETWM 060720Z 01008KT 9999 15/09 Q1021 BLU+,ETWM,2023-06-06T07:20:00Z,52.72,7.33,15.0,9.0,10,8,,6.21,30.147638,,,,,,,,,,,,,,,,,,,,,,,,,,,,,,,METAR,18.0
ETSN 060720Z 01004KT 9999 FEW018 SCT023 17/11 Q1017 BLU+BLU+,ETSN,2023-06-06T07:20:00Z,48.72,11.22,17.0,11.0,10,4,,6.21,30.029528,,,,,,,,,,,FEW,1800,SCT,2300,,,,,VFR,,,,,,,,,,,,METAR,378.0
ETSL 060720Z 31003KT 9999 SCT020 14/10 Q1018 BLU+,ETSL,2023-06-06T07:20:00Z,48.18,10.87,14.0,10.0,310,3,,6.21,30.059055,,,,,,,,,,,SCT,2000,,,,,,,VFR,,,,,,,,,,,,METAR,548.0
ETSI 060720Z VRB03KT 9999 FEW020 BKN033 15/11 Q1017 BLU BLU BECMG BLU+,ETSI,2023-06-06T07:20:00Z,48.72,11.53,15.0,11.0,0,3,,6.21,30.029528,,,,,,,,,,,FEW,2000,BKN,3300,,,,,VFR,,,,,,,,,,,,METAR,366.0
ETSH 060720Z 28004KT 9999 -RA SCT050 BKN070 17/13 Q1019 BLU BLU,ETSH,2023-06-06T07:20:00Z,51.77,13.17,17.0,13.0,280,4,,6.21,30.088583,,,,,,,,,,-RA,SCT,5000,BKN,7000,,,,,VFR,,,,,,,,,,,,METAR,79.0
ETNW 060720Z 05004KT 9999 FEW120 SCT210 19/09 Q1020 BLU+BLU+,ETNW,2023-06-06T07:20:00Z,52.45,9.42,19.0,9.0,50,4,,6.21,30.11811,,,,,,,,,,,FEW,12000,SCT,21000,,,,,VFR,,,,,,,,,,,,METAR,57.0
ETNT 060720Z 02007KT 9999 FEW010 13/09 Q1022 BLACKBLU+,ETNT,2023-06-06T07:20:00Z,53.53,7.67,13.0,9.0,20,7,,6.21,30.177166,,,,,,,,,,,FEW,1000,,,,,,,VFR,,,,,,,,,,,,METAR,5.0
ETNS 060720Z 34005KT 8000 BKN006 10/09 Q1022 YLO YLO BECMG BLU+,ETNS,2023-06-06T07:20:00Z,54.47,9.52,10.0,9.0,340,5,,4.97,30.177166,,,,,,,,,,,BKN,600,,,,,,,IFR,,,,,,,,,,,,METAR,22.0
ETNN 060720Z 28003KT 9999 16/11 Q1019 BLU+,ETNN,2023-06-06T07:20:00Z,50.82,6.67,16.0,11.0,280,3,,6.21,30.088583,,,,,,,,,,,,,,,,,,,,,,,,,,,,,,,METAR,108.0
ETNL 060720Z 32005KT 9999 20/08 Q1020 BLU+BLU+,ETNL,2023-06-06T07:20:00Z,53.92,12.27,20.0,8.0,320,5,,6.21,30.11811,,,,,,,,,,,,,,,,,,,,,,,,,,,,,,,METAR,40.0
ETNH 060720Z 32006KT 4500 BR BKN003 11/08 Q1022 YLO YLO BECMG BLU+,ETNH,2023-06-06T07:20:00Z,54.32,9.55,11.0,8.0,320,6,,2.8,30.177166,,,,,,,,,,BR,BKN,300,,,,,,,LIFR,,,,,,,,,,,,METAR,6.0
ETND 060720Z 01005KT 9999 FEW120 17/11 Q1021 BLU+BLU+,ETND,2023-06-06T07:20:00Z,52.58,8.35,17.0,11.0,10,5,,6.21,30.147638,,,,,,,,,,,FEW,12000,,,,,,,VFR,,,,,,,,,,,,METAR,37.0
ETMN 060720Z 04008KT 9999 FEW010 14/10 Q1022 BLU+BLU+,ETMN,2023-06-06T07:20:00Z,53.77,8.67,14.0,10.0,40,8,,6.21,30.177166,,,,,,,,,,,FEW,1000,,,,,,,VFR,,,,,,,,,,,,METAR,23.0
ETHS 060720Z 07009KT 9999 FEW220 20/07 Q1020 BLACKBLU+BLU+,ETHS,2023-06-06T07:20:00Z,52.92,10.18,20.0,7.0,70,9,,6.21,30.11811,,,,,,,,,,,FEW,22000,,,,,,,VFR,,,,,,,,,,,,METAR,71.0
ETHN 060720Z 05008KT 9999 FEW035 18/09 Q1018 BLU+BLU+,ETHN,2023-06-06T07:20:00Z,49.38,9.97,18.0,9.0,50,8,,6.21,30.059055,,,,,,,,,,,FEW,3500,,,,,,,VFR,,,,,,,,,,,,METAR,466.0
ETHL 060720Z 06005KT 9999 FEW120 16/09 Q1018 BLU+BLU+,ETHL,2023-06-06T07:20:00Z,48.22,9.92,16.0,9.0,60,5,,6.21,30.059055,,,,,,,,,,,FEW,12000,,,,,,,VFR,,,,,,,,,,,,METAR,536.0
ETHF 060720Z 34002KT 9999 FEW170 SCT250 17/10 Q1019 BLU+BLU+,ETHF,2023-06-06T07:20:00Z,51.12,9.28,17.0,10.0,340,2,,6.21,30.088583,,,,,,,,,,,FEW,17000,SCT,25000,,,,,VFR,,,,,,,,,,,,METAR,171.0
ETHC 060720Z 07006KT 9999 FEW220 20/07 Q1020 BLU+BLU+,ETHC,2023-06-06T07:20:00Z,52.6,10.02,20.0,7.0,70,6,,6.21,30.11811,,,,,,,,,,,FEW,22000,,,,,,,VFR,,,,,,,,,,,,METAR,35.0
ETHB 060720Z 03003KT 9999 FEW170 SCT260 15/11 Q1020 BLU+BLU+,ETHB,2023-06-06T07:20:00Z,52.27,9.07,15.0,11.0,30,3,,6.21,30.11811,,,,,,,,,,,FEW,17000,SCT,26000,,,,,VFR,,,,,,,,,,,,METAR,69.0
ETHA 060720Z 03004KT 9999 FEW006 SCT010 13/10 Q1019 BLU+BLU+,ETHA,2023-06-06T07:20:00Z,47.83,10.87,13.0,10.0,30,4,,6.21,30.088583,,,,,,,,,,,FEW,600,SCT,1000,,,,,VFR,,,,,,,,,,,,METAR,738.0
ETGG 060720Z AUTO 31008KT 9999 // ////// 12/09 Q1022 ///,ETGG,2023-06-06T07:20:00Z,54.83,9.5,12.0,9.0,310,8,,6.21,30.177166,,,TRUE,,,,,,,,,,,,,,,,,,,,,,,,,,,,METAR,33.0
ESUT 060720Z AUTO VRB02KT 9999 OVC076/// 04/M02 Q1017,ESUT,2023-06-06T07:20:00Z,65.8,15.08,4.0,-2.0,0,2,,6.21,30.029528,,,TRUE,,,,,,,,OVC,7600,,,,,,,VFR,,,,,,,,,,,,METAR,457.0
ESUP 060720Z AUTO 29007KT 260V320 9999 FEW036/// OVC054/// 09/00 Q1015,ESUP,2023-06-06T07:20:00Z,67.25,23.07,9.0,0.0,290,7,,6.21,29.970472,,,TRUE,,,,,,,,FEW,3600,OVC,5400,,,,,VFR,,,,,,,,,,,,METAR,164.0
ESTL 060720Z AUTO 00000KT 9999 NCD 21/09 Q1020,ESTL,2023-06-06T07:20:00Z,56.07,13.2,21.0,9.0,0,0,,6.21,30.11811,,,TRUE,,,,,,,,CLR,,,,,,,,VFR,,,,,,,,,,,,METAR,39.0
ESTA 060720Z AUTO 23004KT 190V260 9999 NCD 18/09 Q1020,ESTA,2023-06-06T07:20:00Z,56.28,12.83,18.0,9.0,230,4,,6.21,30.11811,,,TRUE,,,,,,,,CLR,,,,,,,,VFR,,,,,,,,,,,,METAR,19.0
ESSV 060720Z 25011KT CAVOK 15/10 Q1019,ESSV,2023-06-06T07:20:00Z,57.67,18.35,15.0,10.0,250,11,,6.21,30.088583,,,,,,,,,,,CAVOK,,,,,,,,VFR,,,,,,,,,,,,METAR,38.0
ESST 060720Z AUTO VRB03KT 9999 NCD 17/07 Q1018,ESST,2023-06-06T07:20:00Z,60.15,12.98,17.0,7.0,0,3,,6.21,30.059055,,,TRUE,,,,,,,,CLR,,,,,,,,VFR,,,,,,,,,,,,METAR,110.0
ESSP 060720Z AUTO 26007KT 9999 NCD 20/10 Q1019,ESSP,2023-06-06T07:20:00Z,58.58,16.25,20.0,10.0,260,7,,6.21,30.088583,,,TRUE,,,,,,,,CLR,,,,,,,,VFR,,,,,,,,,,,,METAR,3.0
ESSL 060720Z AUTO 26006KT 200V300 9999 NCD 20/10 Q1019,ESSL,2023-06-06T07:20:00Z,58.4,15.67,20.0,10.0,260,6,,6.21,30.088583,,,TRUE,,,,,,,,CLR,,,,,,,,VFR,,,,,,,,,,,,METAR,51.0
ESSD 060720Z 09006KT 050V120 CAVOK 13/02 Q1019,ESSD,2023-06-06T07:20:00Z,60.42,15.5,13.0,2.0,90,6,,6.21,30.088583,,,,,,,,,,,CAVOK,,,,,,,,VFR,,,,,,,,,,,,METAR,151.0
ESSB 060720Z VRB03KT CAVOK 18/09 Q1018,ESSB,2023-06-06T07:20:00Z,59.35,17.93,18.0,9.0,0,3,,6.21,30.059055,,,,,,,,,,,CAVOK,,,,,,,,VFR,,,,,,,,,,,,METAR,14.0
ESSA 060720Z 08007KT CAVOK 16/05 Q1018 NOSIG,ESSA,2023-06-06T07:20:00Z,59.65,17.93,16.0,5.0,80,7,,6.21,30.059055,,,,,,TRUE,,,,,CAVOK,,,,,,,,VFR,,,,,,,,,,,,METAR,36.0
ESPE 060720Z VRB02KT 9999 SCT047 SCT110 BKN220 10/M01 Q1017,ESPE,2023-06-06T07:20:00Z,65.88,20.15,10.0,-1.0,0,2,,6.21,30.029528,,,,,,,,,,,SCT,4700,SCT,11000,BKN,22000,,,VFR,,,,,,,,,,,,METAR,182.0
ESPA 060720Z 13004KT 080V230 9999 FEW046 BKN220 11/M01 Q1017,ESPA,2023-06-06T07:20:00Z,65.53,22.12,11.0,-1.0,130,4,,6.21,30.029528,,,,,,,,,,,FEW,4600,BKN,22000,,,,,VFR,,,,,,,,,,,,METAR,12.0
ESOW 060720Z 06004KT 360V140 CAVOK 17/07 Q1019,ESOW,2023-06-06T07:20:00Z,59.58,16.63,17.0,7.0,60,4,,6.21,30.088583,,,,,,,,,,,CAVOK,,,,,,,,VFR,,,,,,,,,,,,METAR,7.0
ESOK 060720Z AUTO VRB02KT 9999 NCD 16/09 Q1018,ESOK,2023-06-06T07:20:00Z,59.45,13.33,16.0,9.0,0,2,,6.21,30.059055,,,TRUE,,,,,,,,CLR,,,,,,,,VFR,,,,,,,,,,,,METAR,101.0
ESOH 060720Z AUTO 32004KT 260V010 9999 NCD 16/06 Q1018,ESOH,2023-06-06T07:20:00Z,60.02,13.58,16.0,6.0,320,4,,6.21,30.059055,,,TRUE,,,,,,,,CLR,,,,,,,,VFR,,,,,,,,,,,,METAR,145.0
ESOE 060720Z 21004KT 150V270 CAVOK 17/09 Q1018,ESOE,2023-06-06T07:20:00Z,59.22,15.05,17.0,9.0,210,4,,6.21,30.059055,,,,,,,,,,,CAVOK,,,,,,,,VFR,,,,,,,,,,,,METAR,57.0
ESNZ 060720Z 27009KT 9999 SCT022 BKN066 07/M06 Q1019,ESNZ,2023-06-06T07:20:00Z,63.18,14.5,7.0,-6.0,270,9,,6.21,30.088583,,,,,,,,,,,SCT,2200,BKN,6600,,,,,VFR,,,,,,,,,,,,METAR,360.0
ESNX 060720Z AUTO VRB02KT 9999 BKN110/// 07/M02 Q1016,ESNX,2023-06-06T07:20:00Z,65.58,19.28,7.0,-2.0,0,2,,6.21,30.0,,,TRUE,,,,,,,,BKN,11000,,,,,,,VFR,,,,,,,,,,,,METAR,380.0
ESNV 060720Z AUTO 27003KT 210V290 9000 OVC086/// 05/M02 Q1018,ESNV,2023-06-06T07:20:00Z,64.58,16.83,5.0,-2.0,270,3,,5.59,30.059055,,,TRUE,,,,,,,,OVC,8600,,,,,,,VFR,,,,,,,,,,,,METAR,348.0
ESNU 060720Z VRB03KT CAVOK 11/M00 Q1018,ESNU,2023-06-06T07:20:00Z,63.78,20.28,11.0,0.0,0,3,,6.21,30.059055,,,,,,,,,,,CAVOK,,,,,,,,VFR,,,,,,,,,,,,METAR,8.0
ESNS 060720Z 20004KT 170V260 CAVOK 10/M01 Q1018,ESNS,2023-06-06T07:20:00Z,64.62,21.07,10.0,-1.0,200,4,,6.21,30.059055,,,,,,,,,,,CAVOK,,,,,,,,VFR,,,,,,,,,,,,METAR,41.0
ESNQ 060720Z AUTO 33005KT 9999 OVC062/// 05/M01 Q1015,ESNQ,2023-06-06T07:20:00Z,67.82,20.33,5.0,-1.0,330,5,,6.21,29.970472,,,TRUE,,,,,,,,OVC,6200,,,,,,,VFR,,,,,,,,,,,,METAR,447.0
ESNO 060720Z AUTO 30004KT 240V360 9999 FEW090/// SCT210/// 10/00 Q1018,ESNO,2023-06-06T07:20:00Z,63.4,18.97,10.0,0.0,300,4,,6.21,30.059055,,,TRUE,,,,,,,,FEW,9000,SCT,21000,,,,,VFR,,,,,,,,,,,,METAR,100.0
ESNN 060720Z VRB02KT CAVOK 11/03 Q1020,ESNN,2023-06-06T07:20:00Z,62.52,17.43,11.0,3.0,0,2,,6.21,30.11811,,,,,,,,,,,CAVOK,,,,,,,,VFR,,,,,,,,,,,,METAR,4.0
ESNL 060720Z AUTO 26004KT 230V300 9999 FEW059/// SCT100/// 08/M01 Q1018,ESNL,2023-06-06T07:20:00Z,64.55,18.72,8.0,-1.0,260,4,,6.21,30.059055,,,TRUE,,,,,,,,FEW,5900,SCT,10000,,,,,VFR,,,,,,,,,,,,METAR,220.0
ESNK 060720Z 27007KT CAVOK 11/02 Q1019,ESNK,2023-06-06T07:20:00Z,63.03,17.77,11.0,2.0,270,7,,6.21,30.088583,,,,,,,,,,,CAVOK,,,,,,,,VFR,,,,,,,,,,,,METAR,4.0
ESNG 060720Z AUTO 32005KT 280V100 9999 OVC070/// 09/M02 Q1015,ESNG,2023-06-06T07:20:00Z,67.13,20.82,9.0,-2.0,320,5,,6.21,29.970472,,,TRUE,,,,,,,,OVC,7000,,,,,,,VFR,,,,,,,,,,,,METAR,300.0
ESND 060720Z AUTO 26004KT 230V290 9999 OVC051/// 09/03 Q1020,ESND,2023-06-06T07:20:00Z,62.05,14.42,9.0,3.0,260,4,,6.21,30.11811,,,TRUE,,,,,,,,OVC,5100,,,,,,,VFR,,,,,,,,,,,,METAR,352.0
ESMX 060720Z AUTO 22005KT 9999 NCD 20/05 Q1020,ESMX,2023-06-06T07:20:00Z,56.92,14.72,20.0,5.0,220,5,,6.21,30.11811,,,TRUE,,,,,,,,CLR,,,,,,,,VFR,,,,,,,,,,,,METAR,176.0
ESMT 060720Z AUTO 23004KT 190V270 9999 NCD 17/14 Q1020,ESMT,2023-06-06T07:20:00Z,56.68,12.82,17.0,14.0,230,4,,6.21,30.11811,,,TRUE,,,,,,,,CLR,,,,,,,,VFR,,,,,,,,,,,,METAR,24.0
ESMS 060720Z VRB02KT CAVOK 19/12 Q1020,ESMS,2023-06-06T07:20:00Z,55.53,13.37,19.0,12.0,0,2,,6.21,30.11811,,,,,,,,,,,CAVOK,,,,,,,,VFR,,,,,,,,,,,,METAR,68.0
ESMQ 060720Z 00000KT CAVOK 19/11 Q1019,ESMQ,2023-06-06T07:20:00Z,56.68,16.3,19.0,11.0,0,0,,6.21,30.088583,,,,,,,,,,,CAVOK,,,,,,,,VFR,,,,,,,,,,,,METAR,3.0
ESMK 060720Z AUTO 30003KT 260V340 9999 NCD 20/09 Q1020,ESMK,2023-06-06T07:20:00Z,55.92,14.08,20.0,9.0,300,3,,6.21,30.11811,,,TRUE,,,,,,,,CLR,,,,,,,,VFR,,,,,,,,,,,,METAR,20.0
ESKS 060720Z AUTO 07007KT 030V110 9999 OVC036/// 11/02 Q1019,ESKS,2023-06-06T07:20:00Z,61.17,12.83,11.0,2.0,70,7,,6.21,30.088583,,,TRUE,,,,,,,,OVC,3600,,,,,,,VFR,,,,,,,,,,,,METAR,503.0
ESKN 060720Z 28008KT 250V310 CAVOK 19/10 Q1018,ESKN,2023-06-06T07:20:00Z,58.78,16.92,19.0,10.0,280,8,,6.21,30.059055,,,,,,,,,,,CAVOK,,,,,,,,VFR,,,,,,,,,,,,METAR,41.0
ESKM 060720Z AUTO 01006KT 340V060 9999 NCD 14/04 Q1020,ESKM,2023-06-06T07:20:00Z,60.97,14.52,14.0,4.0,10,6,,6.21,30.11811,,,TRUE,,,,,,,,CLR,,,,,,,,VFR,,,,,,,,,,,,METAR,184.0
ESIB 060720Z AUTO 24007KT 9999 NCD 17/10 Q1018,ESIB,2023-06-06T07:20:00Z,58.42,12.7,17.0,10.0,240,7,,6.21,30.059055,,,TRUE,,,,,,,,CLR,,,,,,,,VFR,,,,,,,,,,,,METAR,51.0
ESIA 060720Z 17009KT CAVOK 16/11 Q1019,ESIA,2023-06-06T07:20:00Z,58.52,14.5,16.0,11.0,170,9,,6.21,30.088583,,,,,,,,,,,CAVOK,,,,,,,,VFR,,,,,,,,,,,,METAR,94.0
ESGT 060720Z AUTO 24007KT 190V270 9999 R15///// R33///// NCD 17/08 Q1018,ESGT,2023-06-06T07:20:00Z,58.32,12.33,17.0,8.0,240,7,,6.21,30.059055,,,TRUE,,,,,,,,CLR,,,,,,,,VFR,,,,,,,,,,,,METAR,40.0
ESGP 060720Z 19009KT CAVOK 17/09 Q1019,ESGP,2023-06-06T07:20:00Z,57.77,11.87,17.0,9.0,190,9,,6.21,30.088583,,,,,,,,,,,CAVOK,,,,,,,,VFR,,,,,,,,,,,,METAR,15.0
ESGJ 060720Z 22011KT CAVOK 19/11 Q1019,ESGJ,2023-06-06T07:20:00Z,57.77,14.07,19.0,11.0,220,11,,6.21,30.088583,,,,,,,,,,,CAVOK,,,,,,,,VFR,,,,,,,,,,,,METAR,224.0
ESGG 060720Z 21010KT CAVOK 17/08 Q1019,ESGG,2023-06-06T07:20:00Z,57.67,12.3,17.0,8.0,210,10,,6.21,30.088583,,,,,,,,,,,CAVOK,,,,,,,,VFR,,,,,,,,,,,,METAR,152.0
ESDF 060720Z 29003KT 250V320 CAVOK 19/13 Q1020,ESDF,2023-06-06T07:20:00Z,56.27,15.27,19.0,13.0,290,3,,6.21,30.11811,,,,,,,,,,,CAVOK,,,,,,,,VFR,,,,,,,,,,,,METAR,52.0
ESCM 060720Z AUTO 07007KT 030V110 9999 NCD 15/06 Q1019,ESCM,2023-06-06T07:20:00Z,59.88,17.6,15.0,6.0,70,7,,6.21,30.088583,,,TRUE,,,,,,,,CLR,,,,,,,,VFR,,,,,,,,,,,,METAR,21.0
ESCF 060720Z AUTO 24008KT 190V280 9999 NCD 19/11 Q1019,ESCF,2023-06-06T07:20:00Z,58.38,15.52,19.0,11.0,240,8,,6.21,30.088583,,,TRUE,,,,,,,,CLR,,,,,,,,VFR,,,,,,,,,,,,METAR,86.0
ENZV 060720Z 36015KT 9999 FEW020 12/07 Q1022,ENZV,2023-06-06T07:20:00Z,58.88,5.63,12.0,7.0,360,15,,6.21,30.177166,,,,,,,,,,,FEW,2000,,,,,,,VFR,,,,,,,,,,,,METAR,7.0
ENWV 060720Z AUTO 34017KT 9999NDV OVC015/// 10/07 Q1025 W///S4,ENWV,2023-06-06T07:20:00Z,56.28,3.4,10.0,7.0,340,17,,,30.265747,,,TRUE,,,,,,,,OVC,1500,,,,,,,,,,,,,,,,,,,METAR,30.0
ENVD 060720Z 34017KT 9999 -SHRA FEW015 SCT021 BKN055 03/00 Q1012,ENVD,2023-06-06T07:20:00Z,70.07,29.85,3.0,0.0,340,17,,6.21,29.88189,,,,,,,,,,-SHRA,FEW,1500,SCT,2100,BKN,5500,,,VFR,,,,,,,,,,,,METAR,39.0
ENVA 060720Z 24012KT 9999 -RA SCT009 BKN019 09/08 Q1020 TEMPO 4000 RADZ BKN008 RMK WIND 670FT 24014KT,ENVA,2023-06-06T07:20:00Z,63.47,10.92,9.0,8.0,240,12,,6.21,30.11811,,,,,,,,,,-RA,SCT,900,BKN,1900,,,,,MVFR,,,,,,,,,,,,SPECI,12.0
ENUN 060720Z AUTO 28004KT 9999NDV -SHRA BKN040/// OVC098/// 04/02 Q1019 W07/S6,ENUN,2023-06-06T07:20:00Z,,,4.0,2.0,280,4,,,30.088583,,,TRUE,,,,,,,-SHRA,BKN,4000,OVC,9800,,,,,,,,,,,,,,,,,METAR,
ENUG 060720Z AUTO 31008KT 280V090 9999NDV BKN025/// 04/M01 Q1015 W///S4,ENUG,2023-06-06T07:20:00Z,71.3,22.25,4.0,-1.0,310,8,,,29.970472,,,TRUE,,,,,,,,BKN,2500,,,,,,,,,,,,,,,,,,,METAR,30.0
ENTO 060720Z 03009KT 360V070 9999 FEW015 14/10 Q1019 NOSIG,ENTO,2023-06-06T07:20:00Z,59.2,10.27,14.0,10.0,30,9,,6.21,30.088583,,,,,,TRUE,,,,,FEW,1500,,,,,,,VFR,,,,,,,,,,,,METAR,84.0
ENTC 060720Z 02004KT 9999 -SHRA FEW014 SCT019 BKN032 06/04 Q1017 NOSIG RMK WIND 2600FT 28005KT,ENTC,2023-06-06T07:20:00Z,69.68,18.92,6.0,4.0,20,4,,6.21,30.029528,,,,,,TRUE,,,,-SHRA,FEW,1400,SCT,1900,BKN,3200,,,VFR,,,,,,,,,,,,SPECI,9.0
ENST 060720Z 03005KT 360V060 9999 FEW018 SCT030 BKN050 06/02 Q1018 RMK WIND 300FT 05006KT,ENST,2023-06-06T07:20:00Z,65.97,12.47,6.0,2.0,30,5,,6.21,30.059055,,,,,,,,,,,FEW,1800,SCT,3000,BKN,5000,,,VFR,,,,,,,,,,,,SPECI,17.0
ENSS 060720Z 35017KT 9999 -SHRA FEW016 SCT024 BKN029 04/01 Q1010 RMK WIND 0500FT 35022KT,ENSS,2023-06-06T07:20:00Z,70.35,31.05,4.0,1.0,350,17,,6.21,29.822834,,,,,,,,,,-SHRA,FEW,1600,SCT,2400,BKN,2900,,,MVFR,,,,,,,,,,,,SPECI,13.0
ENSR 060720Z 00000KT 9999 -RA FEW008 SCT014 BKN034 05/03 Q1017 RMK WIND RWY32 VRB02KT WIND 1118FT VRB02KT,ENSR,2023-06-06T07:20:00Z,69.78,20.97,5.0,3.0,0,0,,6.21,30.029528,,,,,,,,,,-RA,FEW,800,SCT,1400,BKN,3400,,,VFR,,,,,,,,,,,,SPECI,5.0
ENSO 060720Z 33013KT 9999 FEW025 12/08 Q1023,ENSO,2023-06-06T07:20:00Z,59.78,5.33,12.0,8.0,330,13,,6.21,30.206694,,,,,,,,,,,FEW,2500,,,,,,,VFR,,,,,,,,,,,,METAR,48.0
ENSL 060720Z AUTO 33016KT 9999NDV NCD 12/07 Q1026 W08/S3,ENSL,2023-06-06T07:20:00Z,58.37,1.9,12.0,7.0,330,16,,,30.295275,,,TRUE,,,,,,,,CLR,,,,,,,,,,,,,,,,,,,,METAR,50.0
ENSK 060720Z 29008KT 9999 VCSH FEW017 SCT024 BKN035 06/02 Q1018,ENSK,2023-06-06T07:20:00Z,68.57,15.02,6.0,2.0,290,8,,6.21,30.059055,,,,,,,,,,VCSH,FEW,1700,SCT,2400,BKN,3500,,,VFR,,,,,,,,,,,,METAR,3.0
ENSH 060720Z 13002KT 9999 FEW025 07/02 Q1018 RMK WIND 0150FT VRB02KT,ENSH,2023-06-06T07:20:00Z,68.25,14.67,7.0,2.0,130,2,,6.21,30.059055,,,,,,,,,,,FEW,2500,,,,,,,VFR,,,,,,,,,,,,SPECI,9.0
ENSG 060720Z 24003KT 130V290 9999 FEW037 10/01 Q1022 RMK WIND 3806FT 28006KT,ENSG,2023-06-06T07:20:00Z,61.15,7.13,10.0,1.0,240,3,,6.21,30.177166,,,,,,,,,,,FEW,3700,,,,,,,VFR,,,,,,,,,,,,SPECI,493.0
ENSF 060720Z AUTO 31013KT 9999NDV OVC015/// ///// Q//// W///S3,ENSF,2023-06-06T07:20:00Z,61.25,1.85,,,310,13,,,,,,TRUE,,,,,,,,OVC,1500,,,,,,,,,,,,,,,,,,,METAR,15.0
ENSE 060720Z AUTO 32018KT //// OVC014/// 09/07 Q1025 W///S3,ENSE,2023-06-06T07:20:00Z,61.45,2.15,9.0,7.0,320,18,,,30.265747,,,TRUE,,,,,,,,OVC,1400,,,,,,,,,,,,,,,,,,,METAR,10.0
ENSD 060720Z 00000KT 9999 FEW018 SCT027 BKN033 10/07 Q1024 RMK WIND RWY26 00000KT WIND 1140FT VRB02KT,ENSD,2023-06-06T07:20:00Z,61.82,6.12,10.0,7.0,0,0,,6.21,30.236221,,,,,,,,,,,FEW,1800,SCT,2700,BKN,3300,,,VFR,,,,,,,,,,,,SPECI,61.0
ENSB 060720Z 34004KT 300V360 9999 FEW020 03/M02 Q1014 NOSIG RMK WIND 1400FT 11002KT,ENSB,2023-06-06T07:20:00Z,78.25,15.47,3.0,-2.0,340,4,,6.21,29.940945,,,,,,TRUE,,,,,FEW,2000,,,,,,,VFR,,-0.2,,,,,,,,,,SPECI,30.0
ENRY 060720Z 04006KT 350V070 9999 BKN016 14/09 Q1019 NOSIG,ENRY,2023-06-06T07:20:00Z,59.37,10.77,14.0,9.0,40,6,,6.21,30.088583,,,,,,TRUE,,,,,BKN,1600,,,,,,,MVFR,,,,,,,,,,,,METAR,45.0
ENRS 060720Z 30004KT 260V340 9999 -SHRA SCT019 BKN026 05/02 Q1019,ENRS,2023-06-06T07:20:00Z,67.52,12.1,5.0,2.0,300,4,,6.21,30.088583,,,,,,,,,,-SHRA,SCT,1900,BKN,2600,,,,,MVFR,,,,,,,,,,,,METAR,4.0
ENRO 060720Z 22006KT 9999 BKN045 09/02 Q1019,ENRO,2023-06-06T07:20:00Z,62.57,11.33,9.0,2.0,220,6,,6.21,30.088583,,,,,,,,,,,BKN,4500,,,,,,,VFR,,,,,,,,,,,,METAR,624.0
ENRM 060720Z 23010KT 9999 VCSH SCT006 BKN012 08/08 Q1018,ENRM,2023-06-06T07:20:00Z,64.83,11.13,8.0,8.0,230,10,,6.21,30.059055,,,,,,,,,,VCSH,SCT,600,BKN,1200,,,,,MVFR,,,,,,,,,,,,METAR,4.0
ENRA 060720Z VRB02KT 9999 SCT040 BKN080 07/00 Q1018,ENRA,2023-06-06T07:20:00Z,66.37,14.3,7.0,0.0,0,2,,6.21,30.059055,,,,,,,,,,,SCT,4000,BKN,8000,,,,,VFR,,,,,,,,,,,,METAR,66.0
ENQR 060720Z AUTO 31018KT 9999NDV OVC008/// 09/07 Q1025 W11/S3,ENQR,2023-06-06T07:20:00Z,61.52,2.22,9.0,7.0,310,18,,,30.265747,,,TRUE,,,,,,,,OVC,800,,,,,,,,,,,,,,,,,,,METAR,10.0
ENQC 060720Z AUTO 31013KT 9999NDV OVC020/// 13/07 Q1025 W///S3,ENQC,2023-06-06T07:20:00Z,60.88,3.62,13.0,7.0,310,13,,,30.265747,,,TRUE,,,,,,,,OVC,2000,,,,,,,,,,,,,,,,,,,METAR,20.0
ENQA 060720Z AUTO 33013KT 9999NDV OVC019/// 10/07 Q1025 W12/S3,ENQA,2023-06-06T07:20:00Z,60.65,3.72,10.0,7.0,330,13,,,30.265747,,,TRUE,,,,,,,,OVC,1900,,,,,,,,,,,,,,,,,,,METAR,90.0
ENOV 060720Z 00000KT 9999 -DZ FEW005 BKN013 09/07 Q1024 RMK WIND RWY24 00000KT WIND 2090FT 27005KT,ENOV,2023-06-06T07:20:00Z,62.17,6.07,9.0,7.0,0,0,,6.21,30.236221,,,,,,,,,,-DZ,FEW,500,BKN,1300,,,,,MVFR,,,,,,,,,,,,SPECI,72.0
ENOL 060720Z 27017KT 9999 VCSH FEW009 SCT015 BKN025 08/07 Q1020 TEMPO 2500 DZRA BR OVC006,ENOL,2023-06-06T07:20:00Z,63.7,9.6,8.0,7.0,270,17,,6.21,30.11811,,,,,,,,,,VCSH,FEW,900,SCT,1500,BKN,2500,,,MVFR,,,,,,,,,,,,SPECI,9.0
ENOA 060720Z 34014KT 9999 BKN015 10/07 Q1025 W///S3,ENOA,2023-06-06T07:20:00Z,60.5,2.83,10.0,7.0,340,14,,6.21,30.265747,,,,,,,,,,,BKN,1500,,,,,,,MVFR,,,,,,,,,,,,SPECI,5.0
ENNO 060720Z VRB01KT CAVOK 17/05 Q1018,ENNO,2023-06-06T07:20:00Z,59.57,9.22,17.0,5.0,0,1,,6.21,30.059055,,,,,,,,,,,CAVOK,,,,,,,,VFR,,,,,,,,,,,,METAR,19.0
ENNM 060720Z VRB01KT 7000 -SHRA FEW005 SCT013 BKN021 08/07 Q1018,ENNM,2023-06-06T07:20:00Z,64.47,11.57,8.0,7.0,0,1,,4.35,30.059055,,,,,,,,,,-SHRA,FEW,500,SCT,1300,BKN,2100,,,MVFR,,,,,,,,,,,,METAR,2.0
ENNE 060720Z 27005KT 9999 -SHRA BKN020 06/04 Q1019 W///S4,ENNE,2023-06-06T07:20:00Z,66.03,8.08,6.0,4.0,270,5,,6.21,30.088583,,,,,,,,,,-SHRA,BKN,2000,,,,,,,MVFR,,,,,,,,,,,,METAR,10.0
ENNA 060720Z 01009KT 9999 FEW009 SCT027 BKN041 05/M00 Q1015 RMK WIND 1800FT 34017KT,ENNA,2023-06-06T07:20:00Z,70.07,24.97,5.0,0.0,10,9,,6.21,29.970472,,,,,,,,,,,FEW,900,SCT,2700,BKN,4100,,,VFR,,,,,,,,,,,,SPECI,12.0
ENMS 060720Z VRB02KT 9999 FEW028 BKN068 06/02 Q1018 RMK WIND 412FT 00000KT,ENMS,2023-06-06T07:20:00Z,65.78,13.22,6.0,2.0,0,2,,6.21,30.059055,,,,,,,,,,,FEW,2800,BKN,6800,,,,,VFR,,,,,,,,,,,,SPECI,44.0
ENML 060720Z 27011KT 9999 VCSH FEW007 SCT014 BKN018 09/08 Q1023,ENML,2023-06-06T07:20:00Z,62.75,7.27,9.0,8.0,270,11,,6.21,30.206694,,,,,,,,,,VCSH,FEW,700,SCT,1400,BKN,1800,,,MVFR,,,,,,,,,,,,METAR,3.0
ENMH 060720Z 32016KT 9999 SCT019 BKN035 04/M00 Q1013,ENMH,2023-06-06T07:20:00Z,71.02,27.82,4.0,0.0,320,16,,6.21,29.911417,,,,,,,,,,,SCT,1900,BKN,3500,,,,,VFR,,,,,,,,,,,,METAR,10.0
ENLE 060720Z 33019KT 9999 BKN019 09/07 Q1025 W11/S4,ENLE,2023-06-06T07:20:00Z,56.53,3.22,9.0,7.0,330,19,,6.21,30.265747,,,,,,,,,,,BKN,1900,,,,,,,MVFR,,,,,,,,,,,,METAR,10.0
ENLA 060720Z AUTO 32017KT 9999NDV FEW018/// 12/07 Q1024 W///S3,ENLA,2023-06-06T07:20:00Z,57.1,2.83,12.0,7.0,320,17,,,30.236221,,,TRUE,,,,,,,,FEW,1800,,,,,,,,,,,,,,,,,,,METAR,10.0
ENKR 060720Z 32015KT 9999 VCSH BKN026 05/M01 Q1012 RMK WIND 731FT 32023KT,ENKR,2023-06-06T07:20:00Z,69.72,29.88,5.0,-1.0,320,15,,6.21,29.88189,,,,,,,,,,VCSH,BKN,2600,,,,,,,MVFR,,,,,,,,,,,,SPECI,86.0
ENKB 060720Z 26017KT 4700 -DZ SCT005 BKN015 08/07 Q1022 RMK WIND 745FT 27021KT,ENKB,2023-06-06T07:20:00Z,63.12,7.82,8.0,7.0,260,17,,2.92,30.177166,,,,,,,,,,-DZ,SCT,500,BKN,1500,,,,,IFR,,,,,,,,,,,,SPECI,62.0
ENJS 060720Z 35018KT 9999 FEW010 11/07 Q1026 W11/S/,ENJS,2023-06-06T07:20:00Z,,,11.0,7.0,350,18,,6.21,30.295275,,,,,,,,,,,FEW,1000,,,,,,,VFR,,,,,,,,,,,,METAR,
ENHV 060720Z AUTO 33014KT 310V360 9999 FEW025/// BKN031/// OVC041/// 04/M01 Q1014,ENHV,2023-06-06T07:20:00Z,71.02,25.97,4.0,-1.0,330,14,,6.21,29.940945,,,TRUE,,,,,,,,FEW,2500,BKN,3100,OVC,4100,,,VFR,,,,,,,,,,,,METAR,13.0
ENHM 060720Z AUTO 35016KT //// NCD 10/10 Q1026 W10/S/,ENHM,2023-06-06T07:20:00Z,59.57,2.23,10.0,10.0,350,16,,,30.295275,,,TRUE,,,,,,,,CLR,,,,,,,,,,,,,,,,,,,,METAR,10.0
ENHK 060720Z 30006KT 270V340 9999 VCSH FEW017 SCT021 BKN035 05/00 Q1016,ENHK,2023-06-06T07:20:00Z,70.48,22.13,5.0,0.0,300,6,,6.21,30.0,,,,,,,,,,VCSH,FEW,1700,SCT,2100,BKN,3500,,,VFR,,,,,,,,,,,,METAR,6.0
ENHF 060720Z VRB01KT 9999 VCSH FEW011 SCT018 BKN035 04/M00 Q1015 RMK WIND 1254FT 32015KT,ENHF,2023-06-06T07:20:00Z,70.67,23.67,4.0,0.0,0,1,,6.21,29.970472,,,,,,,,,,VCSH,FEW,1100,SCT,1800,BKN,3500,,,VFR,,,,,,,,,,,,SPECI,79.0
ENHE 060720Z 36012KT 9999 SCT008 BKN020 06/05 Q1019 W///S4,ENHE,2023-06-06T07:20:00Z,65.33,2.33,6.0,5.0,360,12,,6.21,30.088583,,,,,,,,,,,SCT,800,BKN,2000,,,,,MVFR,,,,,,,,,,,,SPECI,10.0
ENHD 060720Z 34022KT CAVOK 11/08 Q1023,ENHD,2023-06-06T07:20:00Z,59.35,5.22,11.0,8.0,340,22,,6.21,30.206694,,,,,,,,,,,CAVOK,,,,,,,,VFR,,,,,,,,,,,,METAR,22.0
ENGM 060720Z 01011KT CAVOK 14/04 Q1019 NOSIG,ENGM,2023-06-06T07:20:00Z,60.2,11.07,14.0,4.0,10,11,,6.21,30.088583,,,,,,TRUE,,,,,CAVOK,,,,,,,,VFR,,,,,,,,,,,,METAR,204.0
ENGC 060720Z 33012KT 9999 FEW012 BKN015 10/07 Q1025 W09/S3,ENGC,2023-06-06T07:20:00Z,61.02,2.02,10.0,7.0,330,12,,6.21,30.265747,,,,,,,,,,,FEW,1200,BKN,1500,,,,,MVFR,,,,,,,,,,,,SPECI,10.0
ENFL 060720Z 32008KT 9999 FEW008 SCT015 BKN020 10/07 Q1025,ENFL,2023-06-06T07:20:00Z,61.57,5.02,10.0,7.0,320,8,,6.21,30.265747,,,,,,,,,,,FEW,800,SCT,1500,BKN,2000,,,MVFR,,,,,,,,,,,,METAR,1.0
ENFB 060720Z AUTO 31013KT 9999NDV OVC015/// ///// Q//// W///S3,ENFB,2023-06-06T07:20:00Z,61.2,1.83,,,310,13,,,,,,TRUE,,,,,,,,OVC,1500,,,,,,,,,,,,,,,,,,,SPECI,10.0
ENEV 060720Z 26008KT 210V300 9999 FEW025 BKN034 06/02 Q1018 RMK WIND 1400FT 23013KT,ENEV,2023-06-06T07:20:00Z,68.48,16.67,6.0,2.0,260,8,,6.21,30.059055,,,,,,,,,,,FEW,2500,BKN,3400,,,,,VFR,,,,,,,,,,,,SPECI,26.0
ENDU 060720Z VRB02KT 9999 -RA FEW009 SCT020 BKN025 06/04 Q1017 NOSIG RMK WIND 1100FT 23006KT WIND 2200FT 26011KT,ENDU,2023-06-06T07:20:00Z,69.05,18.55,6.0,4.0,0,2,,6.21,30.029528,,,,,,TRUE,,,,-RA,FEW,900,SCT,2000,BKN,2500,,,MVFR,,,,,,,,,,,,SPECI,65.0
ENDR 060720Z AUTO 29018KT 9999NDV BKN005/// BKN091/// 08/06 Q1020 W///S4,ENDR,2023-06-06T07:20:00Z,64.35,7.77,8.0,6.0,290,18,,,30.11811,,,TRUE,,,,,,,,BKN,500,BKN,9100,,,,,,,,,,,,,,,,,SPECI,10.0
ENCN 060720Z 20004KT CAVOK 18/05 Q1018,ENCN,2023-06-06T07:20:00Z,58.2,8.07,18.0,5.0,200,4,,6.21,30.059055,,,,,,,,,,,CAVOK,,,,,,,,VFR,,,,,,,,,,,,METAR,17.0
ENBV 060720Z 34021KT 9999 VCSH FEW029 BKN040 04/M00 Q1012,ENBV,2023-06-06T07:20:00Z,70.87,29.02,4.0,0.0,340,21,,6.21,29.88189,,,,,,,,,,VCSH,FEW,2900,BKN,4000,,,,,VFR,,,,,,,,,,,,METAR,13.0
ENBR 060720Z 32011KT 9999 FEW017 SCT035 11/08 Q1024 NOSIG RMK WIND 1200FT 34016KT,ENBR,2023-06-06T07:20:00Z,60.28,5.22,11.0,8.0,320,11,,6.21,30.236221,,,,,,TRUE,,,,,FEW,1700,SCT,3500,,,,,VFR,,,,,,,,,,,,SPECI,49.0
ENBO 060720Z 23008KT 9999 FEW020 SCT040 BKN048 06/03 Q1019 NOSIG,ENBO,2023-06-06T07:20:00Z,67.27,14.37,6.0,3.0,230,8,,6.21,30.088583,,,,,,TRUE,,,,,FEW,2000,SCT,4000,BKN,4800,,,VFR,,,,,,,,,,,,METAR,13.0
ENBN 060720Z 35004KT 320V020 9999 -RA VV026 06/04 Q1018,ENBN,2023-06-06T07:20:00Z,65.47,12.22,6.0,4.0,350,4,,6.21,30.059055,,,,,,,,,,-RA,OVX,0,,,,,,,LIFR,,,,,,,,,,,2600,METAR,3.0
ENBL 060720Z 00000KT 9999 FEW004 SCT012 BKN025 08/07 Q1024 REDZRA,ENBL,2023-06-06T07:20:00Z,61.4,5.77,8.0,7.0,0,0,,6.21,30.236221,,,,,,,,,,RA,FEW,400,SCT,1200,BKN,2500,,,MVFR,,,,,,,,,,,,METAR,313.0
ENAT 060720Z 35009KT 9999 SCT040 BKN080 06/M00 Q1016 RMK WIND 700FT 35009KT,ENAT,2023-06-06T07:20:00Z,69.97,23.37,6.0,0.0,350,9,,6.21,30.0,,,,,,,,,,,SCT,4000,BKN,8000,,,,,VFR,,,,,,,,,,,,SPECI,3.0
ENAN 060720Z 33013KT 9999 -RA BKN005 05/04 Q1016,ENAN,2023-06-06T07:20:00Z,69.3,16.13,5.0,4.0,330,13,,6.21,30.0,,,,,,,,,,-RA,BKN,500,,,,,,,IFR,,,,,,,,,,,,METAR,13.0
ENAL 060720Z 25012KT 9999 SCT009 BKN030 10/07 Q1023,ENAL,2023-06-06T07:20:00Z,62.57,6.12,10.0,7.0,250,12,,6.21,30.206694,,,,,,,,,,,SCT,900,BKN,3000,,,,,MVFR,,,,,,,,,,,,METAR,21.0
ELLX 060720Z 06007KT 9999 FEW035 18/09 Q1018 NOSIG,ELLX,2023-06-06T07:20:00Z,49.63,6.2,18.0,9.0,60,7,,6.21,30.059055,,,,,,TRUE,,,,,FEW,3500,,,,,,,VFR,,,,,,,,,,,,METAR,374.0
EKVG 060720Z AUTO 28005KT 240V310 9999 OVC014/// 10/08 Q1025 RMK OVC012/// WIND SKEID 29009KT,EKVG,2023-06-06T07:20:00Z,62.07,-7.27,10.0,8.0,280,5,,6.21,30.265747,,,TRUE,,,,,,,,OVC,1400,,,,,,,MVFR,,,,,,,,,,,,SPECI,89.0
EKSP 060720Z 26006KT 200V310 9999 BKN011 12/08 Q1022 BECMG FEW010,EKSP,2023-06-06T07:20:00Z,55.22,9.27,12.0,8.0,260,6,,6.21,30.177166,,,,,,,,,,,BKN,1100,,,,,,,MVFR,,,,,,,,,,,,SPECI,40.0
EKSB 060720Z 32007KT 270V340 9999 BKN010 12/09 Q1022,EKSB,2023-06-06T07:20:00Z,54.97,9.8,12.0,9.0,320,7,,6.21,30.177166,,,,,,,,,,,BKN,1000,,,,,,,MVFR,,,,,,,,,,,,METAR,23.0
EKRS 060720Z AUTO 29004KT 200V330 9999 NCD 17/15 Q1021,EKRS,2023-06-06T07:20:00Z,55.42,11.8,17.0,15.0,290,4,,6.21,30.147638,,,TRUE,,,,,,,,CLR,,,,,,,,VFR,,,,,,,,,,,,METAR,34.0
EKRN 060720Z AUTO 28005KT 9999 NCD 17/11 Q1021,EKRN,2023-06-06T07:20:00Z,55.07,14.75,17.0,11.0,280,5,,6.21,30.147638,,,TRUE,,,,,,,,CLR,,,,,,,,VFR,,,,,,,,,,,,METAR,14.0
EKRK 060720Z AUTO 27003KT 9999 NCD 19/10 Q1021,EKRK,2023-06-06T07:20:00Z,55.58,12.13,19.0,10.0,270,3,,6.21,30.147638,,,TRUE,,,,,,,,CLR,,,,,,,,VFR,,,,,,,,,,,,METAR,40.0
EKKA 060720Z AUTO 25010KT 9999 SCT013/// 13/08 Q1020 NOSIG,EKKA,2023-06-06T07:20:00Z,56.3,9.12,13.0,8.0,250,10,,6.21,30.11811,,,TRUE,,,TRUE,,,,,SCT,1300,,,,,,,VFR,,,,,,,,,,,,METAR,50.0
EKEB 060720Z AUTO 30009KT 9999 BKN014/// 12/09 Q1022,EKEB,2023-06-06T07:20:00Z,55.52,8.55,12.0,9.0,300,9,,6.21,30.177166,,,TRUE,,,,,,,,BKN,1400,,,,,,,MVFR,,,,,,,,,,,,METAR,29.0
EKCH 060720Z AUTO 12004KT 080V150 9999 NCD 18/12 Q1021 NOSIG,EKCH,2023-06-06T07:20:00Z,55.62,12.67,18.0,12.0,120,4,,6.21,30.147638,,,TRUE,,,TRUE,,,,,CLR,,,,,,,,VFR,,,,,,,,,,,,METAR,4.0
EKBI 060720Z AUTO 25008KT 220V290 9999 BKN011/// 12/08 Q1022,EKBI,2023-06-06T07:20:00Z,55.73,9.15,12.0,8.0,250,8,,6.21,30.177166,,,TRUE,,,,,,,,BKN,1100,,,,,,,MVFR,,,,,,,,,,,,METAR,67.0
EKAH 060720Z AUTO 24007KT 210V280 9999 NCD 15/08 Q1020,EKAH,2023-06-06T07:20:00Z,56.28,10.62,15.0,8.0,240,7,,6.21,30.11811,,,TRUE,,,,,,,,CLR,,,,,,,,VFR,,,,,,,,,,,,METAR,25.0
EGYM 060720Z 04008KT 7000 -DZ SCT014 OVC016 11/08 Q1025 TEMPO FEW014 OVC016 RMK GRN TEMPO WHT,EGYM,2023-06-06T07:20:00Z,52.63,0.57,11.0,8.0,40,8,,4.35,30.265747,,,,,,,,,,-DZ,SCT,1400,OVC,1600,,,,,MVFR,,,,,,,,,,,,SPECI,25.0
EGYD 060720Z 04008KT 9999 -DZ FEW007 OVC012 10/08 Q1025 NOSIG RMK GRN GRN,EGYD,2023-06-06T07:20:00Z,53.03,-0.5,10.0,8.0,40,8,,6.21,30.265747,,,,,,TRUE,,,,-DZ,FEW,700,OVC,1200,,,,,MVFR,,,,,,,,,,,,SPECI,65.0
EGXW 060720Z 05007KT 9999 OVC012 10/08 Q1025 NOSIG RMK GRN GRN,EGXW,2023-06-06T07:20:00Z,53.18,-0.52,10.0,8.0,50,7,,6.21,30.265747,,,,,,TRUE,,,,,OVC,1200,,,,,,,MVFR,,,,,,,,,,,,METAR,70.0
EGWU 060720Z 06011KT 9999 BKN020 12/07 Q1024 NOSIG RMK WHT WHT,EGWU,2023-06-06T07:20:00Z,51.55,-0.42,12.0,7.0,60,11,,6.21,30.236221,,,,,,TRUE,,,,,BKN,2000,,,,,,,MVFR,,,,,,,,,,,,SPECI,33.0
EGVP 060720Z 07013KT 9999 BKN019 11/07 Q1023 NOSIG RMK WHT WHT,EGVP,2023-06-06T07:20:00Z,51.13,-1.57,11.0,7.0,70,13,,6.21,30.206694,,,,,,TRUE,,,,,BKN,1900,,,,,,,MVFR,,,,,,,,,,,,SPECI,80.0
EGVN 060720Z 07011KT 9999 OVC015 11/07 Q1024 TEMPO BKN014 RMK WHT TEMPO GRN,EGVN,2023-06-06T07:20:00Z,51.77,-1.58,11.0,7.0,70,11,,6.21,30.236221,,,,,,,,,,,OVC,1500,,,,,,,MVFR,,,,,,,,,,,,METAR,83.0
EGUW 060720Z 04011KT 9999 -DZ FEW010 OVC016 11/08 Q1024 NOSIG RMK WHT WHT,EGUW,2023-06-06T07:20:00Z,52.12,0.97,11.0,8.0,40,11,,6.21,30.236221,,,,,,TRUE,,,,-DZ,FEW,1000,OVC,1600,,,,,MVFR,,,,,,,,,,,,METAR,86.0
EGUB 060720Z 05009KT 9999 OVC017 11/08 Q1024 NOSIG RMK WHT WHT,EGUB,2023-06-06T07:20:00Z,51.62,-1.08,11.0,8.0,50,9,,6.21,30.236221,,,,,,TRUE,,,,,OVC,1700,,,,,,,MVFR,,,,,,,,,,,,METAR,56.0
EGTE 060720Z 05011KT 9999 FEW015 BKN025 12/07 Q1023,EGTE,2023-06-06T07:20:00Z,50.73,-3.42,12.0,7.0,50,11,,6.21,30.206694,,,,,,,,,,,FEW,1500,BKN,2500,,,,,MVFR,,,,,,,,,,,,METAR,30.0
EGTC 060720Z 04009KT 9999 BKN013 10/08 Q1024,EGTC,2023-06-06T07:20:00Z,52.07,-0.62,10.0,8.0,40,9,,6.21,30.236221,,,,,,,,,,,BKN,1300,,,,,,,MVFR,,,,,,,,,,,,METAR,110.0
EGSY 060720Z AUTO 06010KT 020V100 9999 OVC021/// 12/07 Q1024,EGSY,2023-06-06T07:20:00Z,51.4,-3.43,12.0,7.0,60,10,,6.21,30.236221,,,TRUE,,,,,,,,OVC,2100,,,,,,,MVFR,,,,,,,,,,,,METAR,46.0
EGSS 060720Z AUTO 04009KT 9999 OVC013 11/08 Q1024,EGSS,2023-06-06T07:20:00Z,51.88,0.22,11.0,8.0,40,9,,6.21,30.236221,,,TRUE,,,,,,,,OVC,1300,,,,,,,MVFR,,,,,,,,,,,,METAR,101.0
EGSH 060720Z 04007KT 010V090 9000 -DZ BKN009 BKN013 11/09 Q1025 NOSIG,EGSH,2023-06-06T07:20:00Z,52.68,1.28,11.0,9.0,40,7,,5.59,30.265747,,,,,,TRUE,,,,-DZ,BKN,900,BKN,1300,,,,,IFR,,,,,,,,,,,,METAR,21.0
EGQS 060720Z 11005KT 9999 BKN023 11/06 Q1027 NOSIG RMK WHT WHT,EGQS,2023-06-06T07:20:00Z,57.72,-3.32,11.0,6.0,110,5,,6.21,30.324802,,,,,,TRUE,,,,,BKN,2300,,,,,,,MVFR,,,,,,,,,,,,METAR,6.0
EGPU 060720Z AUTO 14007KT 3200 -RA OVC001/// 12/12 Q1026 REDZ,EGPU,2023-06-06T07:20:00Z,56.5,-6.88,12.0,12.0,140,7,,1.99,30.295275,,,TRUE,,,,,,,-RA,OVC,100,,,,,,,LIFR,,,,,,,,,,,,SPECI,12.0
EGPO 060720Z 05008KT 9999 SCT014 BKN018 12/07 Q1027,EGPO,2023-06-06T07:20:00Z,58.22,-6.32,12.0,7.0,50,8,,6.21,30.324802,,,,,,,,,,,SCT,1400,BKN,1800,,,,,MVFR,,,,,,,,,,,,METAR,10.0
EGPN 060720Z VRB02KT 9999 FEW015 BKN020 11/08 Q1027,EGPN,2023-06-06T07:20:00Z,56.45,-3.02,11.0,8.0,0,2,,6.21,30.324802,,,,,,,,,,,FEW,1500,BKN,2000,,,,,MVFR,,,,,,,,,,,,METAR,4.0
EGPL 060720Z 05013KT 9999 FEW008 SCT016 13/09 Q1027,EGPL,2023-06-06T07:20:00Z,57.47,-7.37,13.0,9.0,50,13,,6.21,30.324802,,,,,,,,,,,FEW,800,SCT,1600,,,,,VFR,,,,,,,,,,,,METAR,3.0
EGPK 060720Z 04007KT 010V070 9999 BKN011 12/09 Q1027,EGPK,2023-06-06T07:20:00Z,55.5,-4.58,12.0,9.0,40,7,,6.21,30.324802,,,,,,,,,,,BKN,1100,,,,,,,MVFR,,,,,,,,,,,,METAR,14.0
EGPI 060720Z 12007KT 9999 SCT011 14/11 Q1026,EGPI,2023-06-06T07:20:00Z,55.68,-6.25,14.0,11.0,120,7,,6.21,30.295275,,,,,,,,,,,SCT,1100,,,,,,,VFR,,,,,,,,,,,,METAR,17.0
EGPH 060720Z 08005KT 030V120 9999 OVC018 11/07 Q1027,EGPH,2023-06-06T07:20:00Z,55.95,-3.35,11.0,7.0,80,5,,6.21,30.324802,,,,,,,,,,,OVC,1800,,,,,,,MVFR,,,,,,,,,,,,METAR,29.0
EGPF 060720Z AUTO 08006KT 060V130 9999 OVC014 11/08 Q1027,EGPF,2023-06-06T07:20:00Z,55.87,-4.42,11.0,8.0,80,6,,6.21,30.324802,,,TRUE,,,,,,,,OVC,1400,,,,,,,MVFR,,,,,,,,,,,,METAR,8.0
EGPE 060720Z VRB01KT 9999 FEW009 SCT013 BKN019 11/08 Q1028,EGPE,2023-06-06T07:20:00Z,57.53,-4.05,11.0,8.0,0,1,,6.21,30.35433,,,,,,,,,,,FEW,900,SCT,1300,BKN,1900,,,MVFR,,,,,,,,,,,,METAR,7.0
EGPD 060720Z AUTO 06004KT 010V100 9999 OVC019 10/06 Q1028 NOSIG,EGPD,2023-06-06T07:20:00Z,57.2,-2.22,10.0,6.0,60,4,,6.21,30.35433,,,TRUE,,,TRUE,,,,,OVC,1900,,,,,,,MVFR,,,,,,,,,,,,METAR,65.0
EGPC 060720Z VRB02KT 9999 FEW012 BKN023 11/07 Q1028,EGPC,2023-06-06T07:20:00Z,58.45,-3.08,11.0,7.0,0,2,,6.21,30.35433,,,,,,,,,,,FEW,1200,BKN,2300,,,,,MVFR,,,,,,,,,,,,METAR,38.0
EGPB 060720Z 31003KT 9999 BKN025 11/07 Q1027 NOSIG,EGPB,2023-06-06T07:20:00Z,59.87,-1.3,11.0,7.0,310,3,,6.21,30.324802,,,,,,TRUE,,,,,BKN,2500,,,,,,,MVFR,,,,,,,,,,,,METAR,2.0
EGPA 060720Z 00000KT 9999 FEW015 BKN023 11/07 Q1027,EGPA,2023-06-06T07:20:00Z,58.95,-2.9,11.0,7.0,0,0,,6.21,30.324802,,,,,,,,,,,FEW,1500,BKN,2300,,,,,MVFR,,,,,,,,,,,,METAR,15.0
EGOW 060720Z 07007KT 9999 OVC020 12/08 Q1026 RMK WHT,EGOW,2023-06-06T07:20:00Z,53.58,-3.05,12.0,8.0,70,7,,6.21,30.295275,,,,,,,,,,,OVC,2000,,,,,,,MVFR,,,,,,,,,,,,METAR,10.0
EGOV 060720Z 06013KT 9999 FEW040 13/08 Q1024 NOSIG RMK BLU BLU,EGOV,2023-06-06T07:20:00Z,53.25,-4.53,13.0,8.0,60,13,,6.21,30.236221,,,,,,TRUE,,,,,FEW,4000,,,,,,,VFR,,,,,,,,,,,,SPECI,11.0
EGOS 060720Z 06009KT 9999 OVC020 11/06 Q1025 BECMG BKN025 RMK WHT BECMG BLU,EGOS,2023-06-06T07:20:00Z,52.8,-2.67,11.0,6.0,60,9,,6.21,30.265747,,,,,,,,,,,OVC,2000,,,,,,,MVFR,,,,,,,,,,,,METAR,76.0
EGNX 060720Z 05007KT 9999 BKN013 10/07 Q1026,EGNX,2023-06-06T07:20:00Z,52.82,-1.32,10.0,7.0,50,7,,6.21,30.295275,,,,,,,,,,,BKN,1300,,,,,,,MVFR,,,,,,,,,,,,METAR,91.0
EGNV 060720Z 02007KT 9999 BKN020 11/07 Q1027,EGNV,2023-06-06T07:20:00Z,54.52,-1.42,11.0,7.0,20,7,,6.21,30.324802,,,,,,,,,,,BKN,2000,,,,,,,MVFR,,,,,,,,,,,,METAR,36.0
EGNT 060720Z 04006KT 360V080 9999 BKN018 11/07 Q1027,EGNT,2023-06-06T07:20:00Z,55.03,-1.7,11.0,7.0,40,6,,6.21,30.324802,,,,,,,,,,,BKN,1800,,,,,,,MVFR,,,,,,,,,,,,METAR,77.0
EGNS 060720Z 11009KT 9999 BKN016 13/09 Q1026 NOSIG,EGNS,2023-06-06T07:20:00Z,54.08,-4.63,13.0,9.0,110,9,,6.21,30.295275,,,,,,TRUE,,,,,BKN,1600,,,,,,,MVFR,,,,,,,,,,,,METAR,18.0
EGNR 060720Z 12004KT 090V150 9999 BKN019 11/06 Q1026,EGNR,2023-06-06T07:20:00Z,53.17,-2.98,11.0,6.0,120,4,,6.21,30.295275,,,,,,,,,,,BKN,1900,,,,,,,MVFR,,,,,,,,,,,,METAR,11.0
EGNO 060720Z 08008KT 050V110 9999 BKN023 12/07 Q1026,EGNO,2023-06-06T07:20:00Z,53.75,-2.88,12.0,7.0,80,8,,6.21,30.295275,,,,,,,,,,,BKN,2300,,,,,,,MVFR,,,,,,,,,,,,METAR,12.0
EGNM 060720Z 05006KT 020V090 9999 SCT009 BKN013 10/08 Q1026,EGNM,2023-06-06T07:20:00Z,53.87,-1.65,10.0,8.0,50,6,,6.21,30.295275,,,,,,,,,,,SCT,900,BKN,1300,,,,,MVFR,,,,,,,,,,,,METAR,221.0
EGNJ 060720Z 03008KT 9999 FEW010 BKN015 12/10 Q1026,EGNJ,2023-06-06T07:20:00Z,53.57,-0.35,12.0,10.0,30,8,,6.21,30.295275,,,,,,,,,,,FEW,1000,BKN,1500,,,,,MVFR,,,,,,,,,,,,METAR,23.0
EGNH 060720Z 10009KT 9999 FEW019 BKN024 12/07 Q1026,EGNH,2023-06-06T07:20:00Z,53.77,-3.03,12.0,7.0,100,9,,6.21,30.295275,,,,,,,,,,,FEW,1900,BKN,2400,,,,,MVFR,,,,,,,,,,,,METAR,10.0
EGMD 060720Z 05016KT CAVOK 15/10 Q1022,EGMD,2023-06-06T07:20:00Z,50.95,0.93,15.0,10.0,50,16,,6.21,30.177166,,,,,,,,,,,CAVOK,,,,,,,,VFR,,,,,,,,,,,,METAR,4.0
EGMC 060720Z 02008KT 350V050 9999 BKN027 13/09 Q1023,EGMC,2023-06-06T07:20:00Z,51.57,0.7,13.0,9.0,20,8,,6.21,30.206694,,,,,,,,,,,BKN,2700,,,,,,,MVFR,,,,,,,,,,,,METAR,15.0
EGLL 060720Z AUTO 05008KT 010V070 9999 OVC023 13/07 Q1024 NOSIG,EGLL,2023-06-06T07:20:00Z,51.48,-0.45,13.0,7.0,50,8,,6.21,30.236221,,,TRUE,,,TRUE,,,,,OVC,2300,,,,,,,MVFR,,,,,,,,,,,,METAR,26.0
EGLF 060720Z 05012KT 010V070 9999 BKN021 12/07 Q1023,EGLF,2023-06-06T07:20:00Z,51.28,-0.77,12.0,7.0,50,12,,6.21,30.206694,,,,,,,,,,,BKN,2100,,,,,,,MVFR,,,,,,,,,,,,METAR,65.0
EGLC 060720Z AUTO 06009KT 010V090 9999 BKN021 BKN027 13/08 Q1024,EGLC,2023-06-06T07:20:00Z,51.5,0.05,13.0,8.0,60,9,,6.21,30.236221,,,TRUE,,,,,,,,BKN,2100,BKN,2700,,,,,MVFR,,,,,,,,,,,,METAR,10.0
EGKK 060720Z 05011KT 9999 BKN021 13/08 Q1023,EGKK,2023-06-06T07:20:00Z,51.13,-0.18,13.0,8.0,50,11,,6.21,30.206694,,,,,,,,,,,BKN,2100,,,,,,,MVFR,,,,,,,,,,,,METAR,58.0
EGKB 060720Z 04011KT 9999 BKN019 12/08 Q1023,EGKB,2023-06-06T07:20:00Z,51.32,0.02,12.0,8.0,40,11,,6.21,30.206694,,,,,,,,,,,BKN,1900,,,,,,,MVFR,,,,,,,,,,,,METAR,183.0
EGKA 060720Z 01017KT 9999 FEW020 14/09 Q1022,EGKA,2023-06-06T07:20:00Z,50.83,-0.3,14.0,9.0,10,17,,6.21,30.177166,,,,,,,,,,,FEW,2000,,,,,,,VFR,,,,,,,,,,,,METAR,2.0
EGJJ 060720Z 07017G27KT 020V100 9999 BKN009 13/11 Q1020,EGJJ,2023-06-06T07:20:00Z,49.22,-2.2,13.0,11.0,70,17,27,6.21,30.11811,,,,,,,,,,,BKN,900,,,,,,,IFR,,,,,,,,,,,,METAR,84.0
EGJB 060720Z 06014KT 9999 BKN010 12/10 Q1021,EGJB,2023-06-06T07:20:00Z,49.42,-2.6,12.0,10.0,60,14,,6.21,30.147638,,,,,,,,,,,BKN,1000,,,,,,,MVFR,,,,,,,,,,,,METAR,102.0
EGJA 060720Z 07017KT 9999 BKN012 12/10 Q1021,EGJA,2023-06-06T07:20:00Z,49.72,-2.2,12.0,10.0,70,17,,6.21,30.147638,,,,,,,,,,,BKN,1200,,,,,,,MVFR,,,,,,,,,,,,METAR,83.0
EGHQ 060720Z 11013KT CAVOK 13/09 Q1022,EGHQ,2023-06-06T07:20:00Z,50.43,-5.0,13.0,9.0,110,13,,6.21,30.177166,,,,,,,,,,,CAVOK,,,,,,,,VFR,,,,,,,,,,,,METAR,101.0
EGHI 060720Z 04010KT 360V080 9999 FEW023 13/07 Q1023,EGHI,2023-06-06T07:20:00Z,50.95,-1.35,13.0,7.0,40,10,,6.21,30.206694,,,,,,,,,,,FEW,2300,,,,,,,VFR,,,,,,,,,,,,METAR,13.0
EGHH 060720Z 05010KT 9999 SCT020 13/07 Q1023,EGHH,2023-06-06T07:20:00Z,50.78,-1.83,13.0,7.0,50,10,,6.21,30.206694,,,,,,,,,,,SCT,2000,,,,,,,VFR,,,,,,,,,,,,METAR,9.0
EGHE 060720Z 09016KT 9999 FEW012 14/11 Q1021,EGHE,2023-06-06T07:20:00Z,49.92,-6.28,14.0,11.0,90,16,,6.21,30.147638,,,,,,,,,,,FEW,1200,,,,,,,VFR,,,,,,,,,,,,METAR,31.0
EGHC 060720Z 10015KT 9999 FEW009 SCT010 13/10 Q1021,EGHC,2023-06-06T07:20:00Z,50.1,-5.67,13.0,10.0,100,15,,6.21,30.147638,,,,,,,,,,,FEW,900,SCT,1000,,,,,VFR,,,,,,,,,,,,METAR,117.0
EGGW 060720Z AUTO 05010KT 020V080 9999 OVC012 10/08 Q1024,EGGW,2023-06-06T07:20:00Z,51.87,-0.37,10.0,8.0,50,10,,6.21,30.236221,,,TRUE,,,,,,,,OVC,1200,,,,,,,MVFR,,,,,,,,,,,,METAR,159.0
EGGP 060720Z 11005KT 9999 BKN020 11/06 Q1026,EGGP,2023-06-06T07:20:00Z,53.33,-2.85,11.0,6.0,110,5,,6.21,30.295275,,,,,,,,,,,BKN,2000,,,,,,,MVFR,,,,,,,,,,,,METAR,23.0
EGGD 060720Z AUTO 07012KT 9999 OVC015 10/06 Q1024,EGGD,2023-06-06T07:20:00Z,51.37,-2.72,10.0,6.0,70,12,,6.21,30.236221,,,TRUE,,,,,,,,OVC,1500,,,,,,,MVFR,,,,,,,,,,,,METAR,182.0
EGFF 060720Z AUTO 07011KT 9999 OVC019 12/07 Q1024,EGFF,2023-06-06T07:20:00Z,51.38,-3.35,12.0,7.0,70,11,,6.21,30.236221,,,TRUE,,,,,,,,OVC,1900,,,,,,,MVFR,,,,,,,,,,,,METAR,65.0
EGEC 060720Z 10010KT 9999 FEW010 SCT040 13/11 Q1026,EGEC,2023-06-06T07:20:00Z,55.43,-5.68,13.0,11.0,100,10,,6.21,30.295275,,,,,,,,,,,FEW,1000,SCT,4000,,,,,VFR,,,,,,,,,,,,METAR,10.0
EGDY 060720Z 05011KT 9999 OVC024 12/07 Q1023 BECMG FEW030 RMK WHT BECMG BLU,EGDY,2023-06-06T07:20:00Z,51.0,-2.63,12.0,7.0,50,11,,6.21,30.206694,,,,,,,,,,,OVC,2400,,,,,,,MVFR,,,,,,,,,,,,METAR,21.0
EGDM 060720Z 06013KT 9999 OVC018 11/07 Q1023 NOSIG RMK WHT WHT,EGDM,2023-06-06T07:20:00Z,51.17,-1.75,11.0,7.0,60,13,,6.21,30.206694,,,,,,TRUE,,,,,OVC,1800,,,,,,,MVFR,,,,,,,,,,,,SPECI,122.0
EGCK 060720Z AUTO 03007KT 9999 NCD 15/09 Q1024,EGCK,2023-06-06T07:20:00Z,53.1,-4.33,15.0,9.0,30,7,,6.21,30.236221,,,TRUE,,,,,,,,CLR,,,,,,,,VFR,,,,,,,,,,,,METAR,6.0
EGCC 060720Z AUTO VRB03KT 9999 OVC017 11/07 Q1026 NOSIG,EGCC,2023-06-06T07:20:00Z,53.35,-2.27,11.0,7.0,0,3,,6.21,30.295275,,,TRUE,,,TRUE,,,,,OVC,1700,,,,,,,MVFR,,,,,,,,,,,,METAR,78.0
EGBJ 060720Z 04007KT 9999 OVC018 12/08 Q1024,EGBJ,2023-06-06T07:20:00Z,51.9,-2.17,12.0,8.0,40,7,,6.21,30.236221,,,,,,,,,,,OVC,1800,,,,,,,MVFR,,,,,,,,,,,,METAR,27.0
EGBB 060720Z 05010KT 010V090 9999 BKN016 10/07 Q1025,EGBB,2023-06-06T07:20:00Z,52.47,-1.75,10.0,7.0,50,10,,6.21,30.265747,,,,,,,,,,,BKN,1600,,,,,,,MVFR,,,,,,,,,,,,METAR,91.0
EGAE 060720Z 02003KT 330V100 9000 VCFG FEW007 16/14 Q1025,EGAE,2023-06-06T07:20:00Z,55.03,-7.15,16.0,14.0,20,3,,5.59,30.265747,,,,,,,,,,VCFG,FEW,700,,,,,,,VFR,,,,,,,,,,,,METAR,9.0
EGAC 060720Z AUTO 16007KT 130V190 9999 OVC015 16/10 Q1026,EGAC,2023-06-06T07:20:00Z,54.62,-5.87,16.0,10.0,160,7,,6.21,30.295275,,,TRUE,,,,,,,,OVC,1500,,,,,,,MVFR,,,,,,,,,,,,METAR,2.0
EGAA 060720Z 11007KT 070V140 9999 SCT006 13/12 Q1026,EGAA,2023-06-06T07:20:00Z,54.65,-6.22,13.0,12.0,110,7,,6.21,30.295275,,,,,,,,,,,SCT,600,,,,,,,VFR,,,,,,,,,,,,METAR,65.0
EFVA 060720Z AUTO 25005KT 220V300 CAVOK 10/M00 Q1018,EFVA,2023-06-06T07:20:00Z,63.05,21.77,10.0,0.0,250,5,,6.21,30.059055,,,TRUE,,,,,,,,CAVOK,,,,,,,,VFR,,,,,,,,,,,,METAR,4.0
EFUT 060720Z 30009KT 260V330 CAVOK 14/01 Q1017,EFUT,2023-06-06T07:20:00Z,60.88,26.93,14.0,1.0,300,9,,6.21,30.029528,,,,,,,,,,,CAVOK,,,,,,,,VFR,,,,,,,,,,,,METAR,104.0
EFTU 060720Z AUTO 28003KT 250V320 9999 SHRA //////CB 13/03 Q1019,EFTU,2023-06-06T07:20:00Z,60.52,22.27,13.0,3.0,280,3,,6.21,30.088583,,,TRUE,,,,,,,SHRA,,,,,,,,,,,,,,,,,,,,,SPECI,47.0
EFTP 060720Z 04005KT 350V060 CAVOK 12/02 Q1018,EFTP,2023-06-06T07:20:00Z,61.42,23.62,12.0,2.0,40,5,,6.21,30.059055,,,,,,,,,,,CAVOK,,,,,,,,VFR,,,,,,,,,,,,METAR,111.0
EFSI 060720Z AUTO VRB04KT CAVOK 10/00 Q1018,EFSI,2023-06-06T07:20:00Z,62.7,22.83,10.0,0.0,0,4,,6.21,30.059055,,,TRUE,,,,,,,,CAVOK,,,,,,,,VFR,,,,,,,,,,,,METAR,90.0
EFSA 060720Z AUTO 29008KT 260V320 CAVOK 13/02 Q1016,EFSA,2023-06-06T07:20:00Z,61.95,28.93,13.0,2.0,290,8,,6.21,30.0,,,TRUE,,,,,,,,CAVOK,,,,,,,,VFR,,,,,,,,,,,,METAR,90.0
EFRO 060720Z 34011KT 310V020 9999 FEW040 08/M02 Q1015,EFRO,2023-06-06T07:20:00Z,66.57,25.82,8.0,-2.0,340,11,,6.21,29.970472,,,,,,,,,,,FEW,4000,,,,,,,VFR,,,,,,,,,,,,METAR,201.0
EFPO 060720Z AUTO VRB02KT 9999 -SHRA NSC 11/03 Q1019,EFPO,2023-06-06T07:20:00Z,61.47,21.8,11.0,3.0,0,2,,6.21,30.088583,,,TRUE,,,,,,,-SHRA,CLR,,,,,,,,VFR,,,,,,,,,,,,METAR,10.0
EFOU 060720Z AUTO 30009KT 260V340 CAVOK 10/01 Q1017,EFOU,2023-06-06T07:20:00Z,64.92,25.37,10.0,1.0,300,9,,6.21,30.029528,,,TRUE,,,,,,,,CAVOK,,,,,,,,VFR,,,,,,,,,,,,METAR,15.0
EFMI 060720Z AUTO VRB06KT CAVOK 13/01 Q1017,EFMI,2023-06-06T07:20:00Z,61.68,27.2,13.0,1.0,0,6,,6.21,30.029528,,,TRUE,,,,,,,,CAVOK,,,,,,,,VFR,,,,,,,,,,,,METAR,99.0
EFMA 060720Z 06007KT CAVOK 14/04 Q1019,EFMA,2023-06-06T07:20:00Z,60.12,19.9,14.0,4.0,60,7,,6.21,30.088583,,,,,,,,,,,CAVOK,,,,,,,,VFR,,,,,,,,,,,,METAR,6.0
EFLP 060720Z AUTO 27010KT CAVOK 15/03 Q1016,EFLP,2023-06-06T07:20:00Z,61.03,28.15,15.0,3.0,270,10,,6.21,30.0,,,TRUE,,,,,,,,CAVOK,,,,,,,,VFR,,,,,,,,,,,,METAR,102.0
EFKU 060720Z AUTO 33011KT CAVOK 12/01 Q1016,EFKU,2023-06-06T07:20:00Z,63.02,27.8,12.0,1.0,330,11,,6.21,30.0,,,TRUE,,,,,,,,CAVOK,,,,,,,,VFR,,,,,,,,,,,,METAR,92.0
EFKT 060720Z AUTO 33007KT 280V010 9999 BKN034 08/M00 Q1015,EFKT,2023-06-06T07:20:00Z,67.7,24.85,8.0,0.0,330,7,,6.21,29.970472,,,TRUE,,,,,,,,BKN,3400,,,,,,,VFR,,,,,,,,,,,,METAR,190.0
EFKS 060720Z AUTO 33012KT 300V010 9999 SCT035 07/M00 Q1013,EFKS,2023-06-06T07:20:00Z,66.0,29.23,7.0,0.0,330,12,,6.21,29.911417,,,TRUE,,,,,,,,SCT,3500,,,,,,,VFR,,,,,,,,,,,,METAR,270.0
EFKK 060720Z AUTO 21005KT 180V290 CAVOK 11/01 Q1018,EFKK,2023-06-06T07:20:00Z,63.72,23.13,11.0,1.0,210,5,,6.21,30.059055,,,TRUE,,,,,,,,CAVOK,,,,,,,,VFR,,,,,,,,,,,,METAR,25.0
EFKI 060720Z AUTO 27012KT 240V300 9999 FEW038 09/01 Q1015,EFKI,2023-06-06T07:20:00Z,64.27,27.67,9.0,1.0,270,12,,6.21,29.970472,,,TRUE,,,,,,,,FEW,3800,,,,,,,VFR,,,,,,,,,,,,METAR,132.0
EFKE 060720Z AUTO VRB05KT 9999 SCT041 10/00 Q1016,EFKE,2023-06-06T07:20:00Z,65.78,24.57,10.0,0.0,0,5,,6.21,30.0,,,TRUE,,,,,,,,SCT,4100,,,,,,,VFR,,,,,,,,,,,,METAR,15.0
EFJY 060720Z 33011KT CAVOK 12/M01 Q1017,EFJY,2023-06-06T07:20:00Z,62.4,25.68,12.0,-1.0,330,11,,6.21,30.029528,,,,,,,,,,,CAVOK,,,,,,,,VFR,,,,,,,,,,,,METAR,139.0
EFJO 060720Z AUTO 29013KT CAVOK 12/M02 Q1015,EFJO,2023-06-06T07:20:00Z,62.67,29.62,12.0,-2.0,290,13,,6.21,29.970472,,,TRUE,,,,,,,,CAVOK,,,,,,,,VFR,,,,,,,,,,,,METAR,118.0
EFIV 060720Z AUTO 35010KT 320V020 9999 BKN035 05/M03 Q1014,EFIV,2023-06-06T07:20:00Z,68.62,27.42,5.0,-3.0,350,10,,6.21,29.940945,,,TRUE,,,,,,,,BKN,3500,,,,,,,VFR,,,,,,,,,,,,METAR,145.0
EFHK 060720Z 28005KT 230V340 CAVOK 16/04 Q1018 NOSIG,EFHK,2023-06-06T07:20:00Z,60.32,24.97,16.0,4.0,280,5,,6.21,30.059055,,,,,,TRUE,,,,,CAVOK,,,,,,,,VFR,,,,,,,,,,,,METAR,56.0
EFHA 060720Z 32008KT 280V360 CAVOK 12/M00 Q1018,EFHA,2023-06-06T07:20:00Z,61.85,24.8,12.0,0.0,320,8,,6.21,30.059055,,,,,,,,,,,CAVOK,,,,,,,,VFR,,,,,,,,,,,,METAR,144.0
EFET 060720Z AUTO 33006KT 260V020 9999 OVC023 06/00 Q1015,EFET,2023-06-06T07:20:00Z,68.37,23.43,6.0,0.0,330,6,,6.21,29.970472,,,TRUE,,,,,,,,OVC,2300,,,,,,,MVFR,,,,,,,,,,,,METAR,300.0
EETU 060720Z 22011KT 9999 SCT020 FEW038CB 12/07 Q1020,EETU,2023-06-06T07:20:00Z,58.32,26.68,12.0,7.0,220,11,,6.21,30.11811,,,,,,,,,,,SCT,2000,FEW,3800,,,,,VFR,,,,,,,,,,,,METAR,67.0
EETN 060720Z 26005KT 9999 SCT021 15/10 Q1019 TEMPO SCT020CB,EETN,2023-06-06T07:20:00Z,59.4,24.82,15.0,10.0,260,5,,6.21,30.088583,,,,,,,,,,,SCT,2100,,,,,,,VFR,,,,,,,,,,,,SPECI,41.0
EEPU 060720Z AUTO 22011KT 9999 BKN084/// 17/08 Q1020,EEPU,2023-06-06T07:20:00Z,58.42,24.47,17.0,8.0,220,11,,6.21,30.11811,,,TRUE,,,,,,,,BKN,8400,,,,,,,VFR,,,,,,,,,,,,METAR,13.0
EEKE 060720Z AUTO 25009KT 150V290 9999NDV NCD 16/08 Q1020,EEKE,2023-06-06T07:20:00Z,58.23,22.52,16.0,8.0,250,9,,,30.11811,,,TRUE,,,,,,,,CLR,,,,,,,,,,,,,,,,,,,,METAR,4.0
EEKA 060720Z VRB07KT CAVOK 17/09 Q1019,EEKA,2023-06-06T07:20:00Z,58.98,22.83,17.0,9.0,0,7,,6.21,30.088583,,,,,,,,,,,CAVOK,,,,,,,,VFR,,,,,,,,,,,,METAR,6.0
EDXW 060720Z AUTO 32010KT 290V350 9999 // OVC013/// 11/08 Q1022,EDXW,2023-06-06T07:20:00Z,54.92,8.33,11.0,8.0,320,10,,6.21,30.177166,,,TRUE,,,,,,,,OVC,1300,,,,,,,MVFR,,,,,,,,,,,,METAR,8.0
EDVK 060720Z 27003KT 180V310 CAVOK 16/09 Q1020,EDVK,2023-06-06T07:20:00Z,51.4,9.37,16.0,9.0,270,3,,6.21,30.11811,,,,,,,,,,,CAVOK,,,,,,,,VFR,,,,,,,,,,,,METAR,277.0
EDVE 060720Z 09004KT CAVOK 17/08 Q1020,EDVE,2023-06-06T07:20:00Z,52.32,10.55,17.0,8.0,90,4,,6.21,30.11811,,,,,,,,,,,CAVOK,,,,,,,,VFR,,,,,,,,,,,,METAR,83.0
EDTY 060720Z 07009KT CAVOK 18/10 Q1018,EDTY,2023-06-06T07:20:00Z,49.12,9.78,18.0,10.0,70,9,,6.21,30.059055,,,,,,,,,,,CAVOK,,,,,,,,VFR,,,,,,,,,,,,METAR,398.0
EDTL 060720Z 01005KT 310V050 CAVOK 18/12 Q1017,EDTL,2023-06-06T07:20:00Z,48.37,7.83,18.0,12.0,10,5,,6.21,30.029528,,,,,,,,,,,CAVOK,,,,,,,,VFR,,,,,,,,,,,,METAR,152.0
EDSB 060720Z 02010KT CAVOK 20/13 Q1016,EDSB,2023-06-06T07:20:00Z,48.78,8.08,20.0,13.0,20,10,,6.21,30.0,,,,,,,,,,,CAVOK,,,,,,,,VFR,,,,,,,,,,,,METAR,122.0
EDQM 060720Z 01005KT 320V060 3600 -RA BR BKN003 12/11 Q1019,EDQM,2023-06-06T07:20:00Z,50.3,11.85,12.0,11.0,10,5,,2.24,30.088583,,,,,,,,,,-RA BR,BKN,300,,,,,,,LIFR,,,,,,,,,,,,METAR,578.0
EDNY 060720Z 05003KT 360V090 CAVOK 18/11 Q1018,EDNY,2023-06-06T07:20:00Z,47.67,9.52,18.0,11.0,50,3,,6.21,30.059055,,,,,,,,,,,CAVOK,,,,,,,,VFR,,,,,,,,,,,,METAR,411.0
EDMO 060720Z 27005KT 220V310 9999 FEW012 OVC014 13/10 Q1018,EDMO,2023-06-06T07:20:00Z,48.07,11.27,13.0,10.0,270,5,,6.21,30.059055,,,,,,,,,,,FEW,1200,OVC,1400,,,,,MVFR,,,,,,,,,,,,METAR,587.0
EDMA 060720Z 33004KT 270V010 9999 FEW020 16/11 Q1018,EDMA,2023-06-06T07:20:00Z,48.42,10.92,16.0,11.0,330,4,,6.21,30.059055,,,,,,,,,,,FEW,2000,,,,,,,VFR,,,,,,,,,,,,METAR,462.0
EDLW 060720Z 05003KT 020V080 CAVOK 15/11 Q1020,EDLW,2023-06-06T07:20:00Z,51.52,7.62,15.0,11.0,50,3,,6.21,30.11811,,,,,,,,,,,CAVOK,,,,,,,,VFR,,,,,,,,,,,,METAR,122.0
EDLV 060720Z 02005KT 330V090 CAVOK 15/10 Q1021,EDLV,2023-06-06T07:20:00Z,51.6,6.15,15.0,10.0,20,5,,6.21,30.147638,,,,,,,,,,,CAVOK,,,,,,,,VFR,,,,,,,,,,,,METAR,27.0
EDLP 060720Z 32003KT 250V020 CAVOK 15/10 Q1020,EDLP,2023-06-06T07:20:00Z,51.62,8.62,15.0,10.0,320,3,,6.21,30.11811,,,,,,,,,,,CAVOK,,,,,,,,VFR,,,,,,,,,,,,METAR,211.0
EDLN 060720Z 34006KT 320V030 CAVOK 16/11 Q1020,EDLN,2023-06-06T07:20:00Z,51.23,6.5,16.0,11.0,340,6,,6.21,30.11811,,,,,,,,,,,CAVOK,,,,,,,,VFR,,,,,,,,,,,,METAR,38.0
EDJA 060720Z 02004KT 340V100 9999 FEW014 15/11 Q1019,EDJA,2023-06-06T07:20:00Z,47.98,10.23,15.0,11.0,20,4,,6.21,30.088583,,,,,,,,,,,FEW,1400,,,,,,,VFR,,,,,,,,,,,,METAR,625.0
EDHL 060720Z 06004KT 330V110 CAVOK 19/09 Q1021,EDHL,2023-06-06T07:20:00Z,53.8,10.72,19.0,9.0,60,4,,6.21,30.147638,,,,,,,,,,,CAVOK,,,,,,,,VFR,,,,,,,,,,,,METAR,13.0
EDHK 060720Z VRB02KT CAVOK 16/11 Q1022,EDHK,2023-06-06T07:20:00Z,54.38,10.15,16.0,11.0,0,2,,6.21,30.177166,,,,,,,,,,,CAVOK,,,,,,,,VFR,,,,,,,,,,,,METAR,24.0
EDHI 060720Z 29005KT 260V330 CAVOK 18/11 Q1021,EDHI,2023-06-06T07:20:00Z,53.53,9.83,18.0,11.0,290,5,,6.21,30.147638,,,,,,,,,,,CAVOK,,,,,,,,VFR,,,,,,,,,,,,METAR,5.0
EDGS 060720Z 06004KT 020V100 CAVOK 18/07 Q1020,EDGS,2023-06-06T07:20:00Z,50.7,8.08,18.0,7.0,60,4,,6.21,30.11811,,,,,,,,,,,CAVOK,,,,,,,,VFR,,,,,,,,,,,,METAR,595.0
EDFM 060720Z VRB02KT CAVOK 21/10 Q1018,EDFM,2023-06-06T07:20:00Z,49.47,8.52,21.0,10.0,0,2,,6.21,30.059055,,,,,,,,,,,CAVOK,,,,,,,,VFR,,,,,,,,,,,,METAR,94.0
EDFH 060720Z 11005KT 060V170 CAVOK 18/11 Q1019,EDFH,2023-06-06T07:20:00Z,49.95,7.27,18.0,11.0,110,5,,6.21,30.088583,,,,,,,,,,,CAVOK,,,,,,,,VFR,,,,,,,,,,,,METAR,494.0
EDDW 060720Z AUTO 02008KT CAVOK 17/11 Q1021 NOSIG,EDDW,2023-06-06T07:20:00Z,53.03,8.8,17.0,11.0,20,8,,6.21,30.147638,,,TRUE,,,TRUE,,,,,CAVOK,,,,,,,,VFR,,,,,,,,,,,,METAR,5.0
EDDV 060720Z AUTO 06005KT 030V100 9999 ///////// 18/10 Q1020 NOSIG,EDDV,2023-06-06T07:20:00Z,52.47,9.68,18.0,10.0,60,5,,6.21,30.11811,,,TRUE,,,TRUE,,,,,,,,,,,,,,,,,,,,,,,,,METAR,53.0
EDDS 060720Z AUTO 09005KT 030V140 CAVOK 18/10 Q1018 NOSIG,EDDS,2023-06-06T07:20:00Z,48.68,9.22,18.0,10.0,90,5,,6.21,30.059055,,,TRUE,,,TRUE,,,,,CAVOK,,,,,,,,VFR,,,,,,,,,,,,METAR,374.0
EDDR 060720Z AUTO 05007KT CAVOK 18/11 Q1018 NOSIG,EDDR,2023-06-06T07:20:00Z,49.22,7.1,18.0,11.0,50,7,,6.21,30.059055,,,TRUE,,,TRUE,,,,,CAVOK,,,,,,,,VFR,,,,,,,,,,,,METAR,317.0
EDDP 060720Z AUTO VRB02KT 9999 -RA FEW047 15/14 Q1019 TEMPO RA,EDDP,2023-06-06T07:20:00Z,51.43,12.23,15.0,14.0,0,2,,6.21,30.088583,,,TRUE,,,,,,,-RA,FEW,4700,,,,,,,VFR,,,,,,,,,,,,METAR,129.0
EDDN 060720Z AUTO 34009KT 9999 BKN021 BKN026 OVC031 16/10 Q1018 NOSIG,EDDN,2023-06-06T07:20:00Z,49.5,11.05,16.0,10.0,340,9,,6.21,30.059055,,,TRUE,,,TRUE,,,,,BKN,2100,BKN,2600,OVC,3100,,,MVFR,,,,,,,,,,,,METAR,312.0
EDDM 060720Z AUTO 26005KT 230V310 9999 BKN016 OVC025 15/11 Q1018 NOSIG,EDDM,2023-06-06T07:20:00Z,48.35,11.82,15.0,11.0,260,5,,6.21,30.059055,,,TRUE,,,TRUE,,,,,BKN,1600,OVC,2500,,,,,MVFR,,,,,,,,,,,,METAR,445.0
EDDL 060720Z AUTO 35005KT 320V050 CAVOK 17/11 Q1020 NOSIG,EDDL,2023-06-06T07:20:00Z,51.3,6.77,17.0,11.0,350,5,,6.21,30.11811,,,TRUE,,,TRUE,,,,,CAVOK,,,,,,,,VFR,,,,,,,,,,,,METAR,37.0
EDDK 060720Z AUTO VRB02KT CAVOK 19/10 Q1019 NOSIG,EDDK,2023-06-06T07:20:00Z,50.87,7.15,19.0,10.0,0,2,,6.21,30.088583,,,TRUE,,,TRUE,,,,,CAVOK,,,,,,,,VFR,,,,,,,,,,,,METAR,92.0
EDDH 060720Z AUTO 01004KT 310V070 CAVOK 19/11 Q1021 NOSIG,EDDH,2023-06-06T07:20:00Z,53.63,10.0,19.0,11.0,10,4,,6.21,30.147638,,,TRUE,,,TRUE,,,,,CAVOK,,,,,,,,VFR,,,,,,,,,,,,METAR,8.0
EDDG 060720Z AUTO 04006KT 360V100 CAVOK 16/10 Q1020 NOSIG,EDDG,2023-06-06T07:20:00Z,52.13,7.7,16.0,10.0,40,6,,6.21,30.11811,,,TRUE,,,TRUE,,,,,CAVOK,,,,,,,,VFR,,,,,,,,,,,,METAR,46.0
EDDF 060720Z AUTO 05007KT 360V080 CAVOK 22/07 Q1018 NOSIG,EDDF,2023-06-06T07:20:00Z,50.05,8.6,22.0,7.0,50,7,,6.21,30.059055,,,TRUE,,,TRUE,,,,,CAVOK,,,,,,,,VFR,,,,,,,,,,,,METAR,113.0
EDDE 060720Z AUTO 05004KT 010V090 CAVOK 16/09 Q1020 NOSIG,EDDE,2023-06-06T07:20:00Z,50.98,10.97,16.0,9.0,50,4,,6.21,30.11811,,,TRUE,,,TRUE,,,,,CAVOK,,,,,,,,VFR,,,,,,,,,,,,METAR,314.0
EDDC 060720Z AUTO 05007KT 9999 -DZ BKN008 OVC030 15/14 Q1019 TEMPO SCT008 BKN015,EDDC,2023-06-06T07:20:00Z,51.13,13.75,15.0,14.0,50,7,,6.21,30.088583,,,TRUE,,,,,,,-DZ,BKN,800,OVC,3000,,,,,IFR,,,,,,,,,,,,METAR,227.0
EDDB 060720Z AUTO 10004KT 070V180 CAVOK 19/08 Q1019 NOSIG,EDDB,2023-06-06T07:20:00Z,52.38,13.53,19.0,8.0,100,4,,6.21,30.088583,,,TRUE,,,TRUE,,,,,CAVOK,,,,,,,,VFR,,,,,,,,,,,,METAR,48.0
EDBC 060720Z VRB02KT CAVOK 14/09 Q1020,EDBC,2023-06-06T07:20:00Z,51.85,11.42,14.0,9.0,0,2,,6.21,30.11811,,,,,,,,,,,CAVOK,,,,,,,,VFR,,,,,,,,,,,,METAR,178.0
EDAH 060720Z 02006KT 330V060 CAVOK 20/08 Q1020,EDAH,2023-06-06T07:20:00Z,53.87,14.15,20.0,8.0,20,6,,6.21,30.11811,,,,,,,,,,,CAVOK,,,,,,,,VFR,,,,,,,,,,,,METAR,22.0
EDAC 060720Z 01006KT 9999 -RA FEW008 14/13 Q1019,EDAC,2023-06-06T07:20:00Z,50.98,12.5,14.0,13.0,10,6,,6.21,30.088583,,,,,,,,,,-RA,FEW,800,,,,,,,VFR,,,,,,,,,,,,METAR,193.0
EBOS 060720Z 04012KT 9999 BKN012 13/10 Q1022 NOSIG,EBOS,2023-06-06T07:20:00Z,51.2,2.87,13.0,10.0,40,12,,6.21,30.177166,,,,,,TRUE,,,,,BKN,1200,,,,,,,MVFR,,,,,,,,,,,,METAR,5.0
EBLG 060720Z 01006KT 340V040 CAVOK 14/11 Q1020 NOSIG,EBLG,2023-06-06T07:20:00Z,50.63,5.45,14.0,11.0,10,6,,6.21,30.11811,,,,,,TRUE,,,,,CAVOK,,,,,,,,VFR,,,,,,,,,,,,METAR,187.0
EBCI 060720Z 04008KT 320V070 7000 BKN007 12/10 Q1020 BECMG BKN009,EBCI,2023-06-06T07:20:00Z,50.47,4.45,12.0,10.0,40,8,,4.35,30.11811,,,,,,,,,,,BKN,700,,,,,,,IFR,,,,,,,,,,,,METAR,176.0
EBBR 060720Z 01006KT 350V050 CAVOK 14/10 Q1021 NOSIG,EBBR,2023-06-06T07:20:00Z,50.9,4.52,14.0,10.0,10,6,,6.21,30.147638,,,,,,TRUE,,,,,CAVOK,,,,,,,,VFR,,,,,,,,,,,,METAR,49.0
EBAW 060720Z 03008KT 360V060 CAVOK 14/09 Q1021 NOSIG,EBAW,2023-06-06T07:20:00Z,51.2,4.47,14.0,9.0,30,8,,6.21,30.147638,,,,,,TRUE,,,,,CAVOK,,,,,,,,VFR,,,,,,,,,,,,METAR,7.0
CYPY 060720Z AUTO 25006KT 9SM BKN006 BKN013 BKN046 OVC055 16/15 A2980 RMK SLP101 DENSITY ALT 1200FT,CYPY,2023-06-06T07:20:00Z,58.77,-111.12,16.0,15.0,250,6,,9.0,29.799213,1010.1,,TRUE,,,,,,,,BKN,600,BKN,1300,BKN,4600,OVC,5500,IFR,,,,,,,,,,,,SPECI,225.0
SBEG 060719Z 00000KT 0900 0400NE FG VV003 25/25 Q1013,SBEG,2023-06-06T07:19:00Z,-3.03,-60.03,25.0,25.0,0,0,,0.56,29.911417,,,,,,,,,,FG,OVX,0,,,,,,,LIFR,,,,,,,,,,,300,SPECI,69.0
SAAR 060719Z VRB02KT 9999 BKN011 BKN040 OVC047 14/12 Q1016,SAAR,2023-06-06T07:19:00Z,-32.92,-60.77,14.0,12.0,0,2,,6.21,30.0,,,,,,,,,,,BKN,1100,BKN,4000,OVC,4700,,,MVFR,,,,,,,,,,,,SPECI,24.0
KSLR 060719Z AUTO 17008KT 10SM SCT060 22/19 A2998 RMK AO2,KSLR,2023-06-06T07:19:00Z,33.17,-95.62,22.0,19.0,170,8,,10.0,29.97933,,,TRUE,TRUE,,,,,,,SCT,6000,,,,,,,VFR,,,,,,,,,,,,SPECI,144.0
KAPS 060719Z AUTO 00000KT 7SM CLR 19/19 A2992 RMK AO2,KAPS,2023-06-06T07:19:00Z,30.08,-90.58,19.0,19.0,0,0,,7.0,29.920275,,,TRUE,TRUE,,,,,,,CLR,,,,,,,,VFR,,,,,,,,,,,,SPECI,1.0
K2V6 060719Z AUTO 20004KT 10SM 10/05 A3014 RMK AO2,K2V6,2023-06-06T07:19:00Z,40.1,-102.72,10.0,5.0,200,4,,10.0,30.138779,,,TRUE,TRUE,,,,,,,,,,,,,,,,,,,,,,,,,,,SPECI,1257.0
KSFY 060718Z AUTO 00000KT 10SM CLR 16/13 A3001 RMK AO2,KSFY,2023-06-06T07:18:00Z,42.05,-90.12,16.0,13.0,0,0,,10.0,30.008858,,,TRUE,TRUE,,,,,,,CLR,,,,,,,,VFR,,,,,,,,,,,,SPECI,188.0
KMRY 060718Z AUTO 03003KT 10SM SCT015 BKN025 13/12 A2984 RMK AO2 T01330117,KMRY,2023-06-06T07:18:00Z,36.58,-121.85,13.3,11.7,30,3,,10.0,29.840551,,,TRUE,TRUE,,,,,,,SCT,1500,BKN,2500,,,,,MVFR,,,,,,,,,,,,METAR,51.0
CYQB 060718Z 07007KT 13SM OVC006 09/08 A2975 RMK ST8 SLP077,CYQB,2023-06-06T07:18:00Z,46.78,-71.38,9.0,8.0,70,7,,13.0,29.749016,1007.7,,,,,,,,,,OVC,600,,,,,,,IFR,,,,,,,,,,,,SPECI,73.0
KJYG 060717Z AUTO 00000KT 10SM CLR 21/15 A2999 RMK AO2 TSNO,KJYG,2023-06-06T07:17:00Z,43.98,-94.55,21.0,15.0,0,0,,10.0,29.991142,,,TRUE,TRUE,,,TRUE,,,,CLR,,,,,,,,VFR,,,,,,,,,,,,METAR,323.0
KCEC 060717Z AUTO 16011KT 9SM OVC015 11/09 A2983 RMK AO2 T01060089,KCEC,2023-06-06T07:17:00Z,41.78,-124.23,10.6,8.9,160,11,,9.0,29.828741,,,TRUE,TRUE,,,,,,,OVC,1500,,,,,,,MVFR,,,,,,,,,,,,METAR,17.0
FAPE 060717Z 35004KT CAVOK 12/06 Q1018 NOSIG,FAPE,2023-06-06T07:17:00Z,-33.98,25.6,12.0,6.0,350,4,,6.21,30.059055,,,,,,TRUE,,,,,CAVOK,,,,,,,,VFR,,,,,,,,,,,,SPECI,58.0
KW99 060716Z AUTO 00000KT 2SM BR 10/10 A2995 RMK AO2,KW99,2023-06-06T07:16:00Z,39.0,-79.15,10.0,10.0,0,0,,2.0,29.949802,,,TRUE,TRUE,,,,,,BR,,,,,,,,,,,,,,,,,,,,,METAR,288.0
KSTS 060716Z 21004KT 9SM OVC010 13/09 A2987 RMK AO2 T01280094,KSTS,2023-06-06T07:16:00Z,38.5,-122.82,12.8,9.4,210,4,,9.0,29.870079,,,,TRUE,,,,,,,OVC,1000,,,,,,,MVFR,,,,,,,,,,,,METAR,35.0
KI69 060716Z AUTO 00000KT 7SM CLR 11/07 A2999 RMK AO1 T01100072,KI69,2023-06-06T07:16:00Z,39.08,-84.22,11.0,7.2,0,0,,7.0,29.991142,,,TRUE,TRUE,,,,,,,CLR,,,,,,,,VFR,,,,,,,,,,,,SPECI,238.0
KDUB 060716Z AUTO 27006KT 10SM BKN100 09/06 A3020 RMK AO2,KDUB,2023-06-06T07:16:00Z,43.55,-109.68,9.0,6.0,270,6,,10.0,30.200787,,,TRUE,TRUE,,,,,,,BKN,10000,,,,,,,VFR,,,,,,,,,,,,SPECI,2205.0
KBBB 060716Z AUTO 11003KT 10SM SCT120 21/17 A3002 RMK AO2,KBBB,2023-06-06T07:16:00Z,45.32,-95.65,21.0,17.0,110,3,,10.0,30.02067,,,TRUE,TRUE,,,,,,,SCT,12000,,,,,,,VFR,,,,,,,,,,,,METAR,315.0
KADC 060716Z AUTO 11006KT 10SM OVC120 19/16 A3005 RMK AO2 PWINO TSNO,KADC,2023-06-06T07:16:00Z,46.45,-95.22,19.0,16.0,110,6,,10.0,30.050198,,,TRUE,TRUE,,,TRUE,,TRUE,,OVC,12000,,,,,,,VFR,,,,,,,,,,,,METAR,416.0
K40B 060716Z AUTO 00000KT 09/09 A2969 RMK AO1 SLP056 T00940086 57018,K40B,2023-06-06T07:16:00Z,46.62,-69.52,9.4,8.6,0,0,,,29.68996,1005.6,,TRUE,TRUE,,,,,,,,,,,,,,,,-1.8,,,,,,,,,,,SPECI,344.0
FAUP 060716Z 07002KT CAVOK 12/M00 Q1022 NOSIG,FAUP,2023-06-06T07:16:00Z,-28.38,21.27,12.0,0.0,70,2,,6.21,30.177166,,,,,,TRUE,,,,,CAVOK,,,,,,,,VFR,,,,,,,,,,,,SPECI,845.0
FAGG 060716Z 34003KT CAVOK 12/07 Q1016,FAGG,2023-06-06T07:16:00Z,-34.0,22.37,12.0,7.0,340,3,,6.21,30.0,,,,,,,,,,,CAVOK,,,,,,,,VFR,,,,,,,,,,,,SPECI,196.0
CZPC 060716Z AUTO 36013G19KT 9SM FEW120 OVC160 16/06 A3001 RMK WSHFT AT 0704Z PRESRR SLP153 DENSITY ALT 4900FT,CZPC,2023-06-06T07:16:00Z,49.52,-114.0,16.0,6.0,360,13,19,9.0,30.008858,1015.3,,TRUE,,,,,,,,FEW,12000,OVC,16000,,,,,VFR,,,,,,,,,,,,SPECI,1187.0
UADD 060715Z 26006G15MPS 230V320 9999 SCT040 35/M01 Q1011 NOSIG RMK QFE701/0935,UADD,2023-06-06T07:15:00Z,42.85,71.3,35.0,-1.0,260,12,29,6.21,29.852362,,,,,,TRUE,,,,,SCT,4000,,,,,,,VFR,,,,,,,,,,,,SPECI,663.0
TJPS 060715Z AUTO 00000KT 10SM CLR 26/22 A2995 RMK AO2 TSNO,TJPS,2023-06-06T07:15:00Z,18.02,-66.57,26.0,22.0,0,0,,10.0,29.949802,,,TRUE,TRUE,,,TRUE,,,,CLR,,,,,,,,VFR,,,,,,,,,,,,METAR,12.0
RJDM 060715Z 06011KT 9999 FEW010 SCT020 BKN050 19/18 Q1005 RMK 1ST010 3CU020 6SC050 A2967,RJDM,2023-06-06T07:15:00Z,33.32,130.42,19.0,18.0,60,11,,6.21,29.675198,,,,,,,,,,,FEW,1000,SCT,2000,BKN,5000,,,VFR,,,,,,,,,,,,SPECI,19.0
PAKX 060715Z AUTO 08011G20KT 040V110 10SM CLR 12/02 A2979 RMK AO2,PAKX,2023-06-06T07:15:00Z,60.2,-154.32,12.0,2.0,80,11,20,10.0,29.790354,,,TRUE,TRUE,,,,,,,CLR,,,,,,,,VFR,,,,,,,,,,,,METAR,88.0
PAAD 060715Z 06007KT 10SM CLR 00/M01 A3009 RMK AO2 T00001007 PWINO,PAAD,2023-06-06T07:15:00Z,70.13,-146.28,0.0,-0.7,60,7,,10.0,30.088583,,,,TRUE,,,,,TRUE,,CLR,,,,,,,,VFR,,,,,,,,,,,,METAR,8.0
LMML 060715Z 13003KT 080V180 9000 -RA FEW039 20/18 Q1015 NOSIG,LMML,2023-06-06T07:15:00Z,35.85,14.47,20.0,18.0,130,3,,5.59,29.970472,,,,,,TRUE,,,,-RA,FEW,3900,,,,,,,VFR,,,,,,,,,,,,METAR,78.0
LIRP 060715Z 10005KT 9999 FEW020 BKN040 20/18 Q1015 NOSIG,LIRP,2023-06-06T07:15:00Z,43.68,10.38,20.0,18.0,100,5,,6.21,29.970472,,,,,,TRUE,,,,,FEW,2000,BKN,4000,,,,,VFR,,,,,,,,,,,,METAR,1.0
LHSN 060715Z 17008KT 9999 -SHRA BKN010 BKN024 OVC040 18/17 Q1018 BECMG SCT010 BKN033 RMK GRN,LHSN,2023-06-06T07:15:00Z,47.12,20.23,18.0,17.0,170,8,,6.21,30.059055,,,,,,,,,,-SHRA,BKN,1000,BKN,2400,OVC,4000,,,MVFR,,,,,,,,,,,,METAR,89.0
LHSM 060715Z AUTO VRB01KT 9999 OVC006 //////TCU 18/18 Q1017 NOSIG,LHSM,2023-06-06T07:15:00Z,46.68,17.17,18.0,18.0,0,1,,6.21,30.029528,,,TRUE,,,TRUE,,,,,OVC,600,,,,,,,IFR,,,,,,,,,,,,METAR,119.0
LHPR 060715Z AUTO 23004KT 180V280 9999 BKN017 19/16 Q1016 NOSIG,LHPR,2023-06-06T07:15:00Z,47.63,17.82,19.0,16.0,230,4,,6.21,30.0,,,TRUE,,,TRUE,,,,,BKN,1700,,,,,,,MVFR,,,,,,,,,,,,METAR,127.0
LHPP 060715Z AUTO VRB03KT 9999 SCT042 BKN071 19/17 Q1017,LHPP,2023-06-06T07:15:00Z,45.98,18.23,19.0,17.0,0,3,,6.21,30.029528,,,TRUE,,,,,,,,SCT,4200,BKN,7100,,,,,VFR,,,,,,,,,,,,METAR,193.0
LHKE 060715Z 15006KT 8000 -RA SCT008 BKN055 OVC100 18/16 Q1018 TEMPO NSW RMK BLU,LHKE,2023-06-06T07:15:00Z,46.92,19.75,18.0,16.0,150,6,,4.97,30.059055,,,,,,,,,,-RA,SCT,800,BKN,5500,OVC,10000,,,MVFR,,,,,,,,,,,,METAR,113.0
LHDC 060715Z AUTO VRB01KT 8000 RA BKN049 //////TCU 17/17 Q1019 RERA NOSIG,LHDC,2023-06-06T07:15:00Z,47.48,21.62,17.0,17.0,0,1,,4.97,30.088583,,,TRUE,,,TRUE,,,,RA,BKN,4900,,,,,,,MVFR,,,,,,,,,,,,METAR,105.0
KZPH 060715Z AUTO 04003KT 10SM BKN100 20/19 A2996 RMK A02 T01950190,KZPH,2023-06-06T07:15:00Z,28.23,-82.15,19.5,19.0,40,3,,10.0,29.958662,,,TRUE,TRUE,,,,,,,BKN,10000,,,,,,,VFR,,,,,,,,,,,,METAR,26.0
KZER 060715Z AUTO 29006KT 10SM CLR 13/02 A2986 RMK AO2,KZER,2023-06-06T07:15:00Z,40.7,-76.37,13.0,2.0,290,6,,10.0,29.861221,,,TRUE,TRUE,,,,,,,CLR,,,,,,,,VFR,,,,,,,,,,,,METAR,518.0
KY70 060715Z AUTO 36003KT 10SM CLR 17/12 A2996 RMK AO2 T01700117,KY70,2023-06-06T07:15:00Z,42.93,-85.07,17.0,11.7,360,3,,10.0,29.958662,,,TRUE,TRUE,,,,,,,CLR,,,,,,,,VFR,,,,,,,,,,,,SPECI,247.0
KY63 060715Z AUTO 11007KT 10SM CLR 22/18 A3003 RMK AO2 T02160180,KY63,2023-06-06T07:15:00Z,45.98,-96.0,21.6,18.0,110,7,,10.0,30.029528,,,TRUE,TRUE,,,,,,,CLR,,,,,,,,VFR,,,,,,,,,,,,METAR,367.0
KY49 060715Z AUTO 13006KT 10SM CLR 17/14 A3007 RMK AO2 T01720135,KY49,2023-06-06T07:15:00Z,47.15,-94.65,17.2,13.5,130,6,,10.0,30.070866,,,TRUE,TRUE,,,,,,,CLR,,,,,,,,VFR,,,,,,,,,,,,METAR,413.0
KY31 060715Z AUTO 03003KT 10SM CLR 13/10 A2998 RMK AO2 T01310098,KY31,2023-06-06T07:15:00Z,44.25,-84.18,13.1,9.8,30,3,,10.0,29.97933,,,TRUE,TRUE,,,,,,,CLR,,,,,,,,VFR,,,,,,,,,,,,SPECI,264.0
KY23 060715Z AUTO 00000KT 10SM CLR 19/19 A3004 RMK AO2 T01870186,KY23,2023-06-06T07:15:00Z,45.3,-91.63,18.7,18.6,0,0,,10.0,30.041338,,,TRUE,TRUE,,,,,,,CLR,,,,,,,,VFR,,,,,,,,,,,,SPECI,322.0
KY19 060715Z AUTO 18005KT 10SM FEW036 SCT080 19/17 A3000 RMK AO2,KY19,2023-06-06T07:15:00Z,46.77,-100.9,19.0,17.0,180,5,,10.0,30.0,,,TRUE,TRUE,,,,,,,FEW,3600,SCT,8000,,,,,VFR,,,,,,,,,,,,METAR,591.0
KXSA 060715Z AUTO 23005KT 10SM CLR 13/13 A2988 RMK AO2 T01290129,KXSA,2023-06-06T07:15:00Z,37.87,-76.9,12.9,12.9,230,5,,10.0,29.878937,,,TRUE,TRUE,,,,,,,CLR,,,,,,,,VFR,,,,,,,,,,,,METAR,41.0
KXLL 060715Z AUTO 19003KT 10SM CLR 12/06 A2982 RMK AO2,KXLL,2023-06-06T07:15:00Z,40.57,-75.48,12.0,6.0,190,3,,10.0,29.819881,,,TRUE,TRUE,,,,,,,CLR,,,,,,,,VFR,,,,,,,,,,,,METAR,118.0
KX60 060715Z AUTO 00000KT 10SM CLR 18/17 A2996 RMK AO2 T01780172,KX60,2023-06-06T07:15:00Z,29.35,-82.47,17.8,17.2,0,0,,10.0,29.958662,,,TRUE,TRUE,,,,,,,CLR,,,,,,,,VFR,,,,,,,,,,,,METAR,21.0
KX07 060715Z AUTO 03004KT 10SM SCT026 SCT036 21/21 A2996 RMK A01,KX07,2023-06-06T07:15:00Z,27.9,-81.62,21.0,21.0,30,4,,10.0,29.958662,,,TRUE,TRUE,,,,,,,SCT,2600,SCT,3600,,,,,VFR,,,,,,,,,,,,METAR,36.0
KWYS 060715Z AUTO 00000KT 10SM CLR 06/06 A3015 RMK AO2,KWYS,2023-06-06T07:15:00Z,44.68,-111.12,6.0,6.0,0,0,,10.0,30.15059,,,TRUE,TRUE,,,,,,,CLR,,,,,,,,VFR,,,,,,,,,,,,SPECI,2025.0
KWWR 060715Z AUTO 24003KT 10SM CLR 15/14 A3010 RMK AO2,KWWR,2023-06-06T07:15:00Z,36.45,-99.52,15.0,14.0,240,3,,10.0,30.100393,,,TRUE,TRUE,,,,,,,CLR,,,,,,,,VFR,,,,,,,,,,,,METAR,664.0
KWDR 060715Z AUTO 00000KT 10SM CLR 20/18 A2996 RMK AO2 LTG DSNT E SE AND NW,KWDR,2023-06-06T07:15:00Z,33.98,-83.67,20.0,18.0,0,0,,10.0,29.958662,,,TRUE,TRUE,,,,,,,CLR,,,,,,,,VFR,,,,,,,,,,,,METAR,280.0
KWDG 060715Z AUTO 03003KT 10SM CLR 19/17 A3001 RMK AO2,KWDG,2023-06-06T07:15:00Z,36.37,-97.78,19.0,17.0,30,3,,10.0,30.008858,,,TRUE,TRUE,,,,,,,CLR,,,,,,,,VFR,,,,,,,,,,,,METAR,352.0
KW96 060715Z AUTO 00000KT 10SM CLR 13/12 A2988 RMK AO1 T01250120,KW96,2023-06-06T07:15:00Z,37.5,-77.12,12.5,12.0,0,0,,10.0,29.878937,,,TRUE,TRUE,,,,,,,CLR,,,,,,,,VFR,,,,,,,,,,,,SPECI,35.0
KW81 060715Z AUTO 00000KT 7SM OVC075 14/12 A2989 RMK AO1 T01350121,KW81,2023-06-06T07:15:00Z,37.18,-78.1,13.5,12.1,0,0,,7.0,29.890747,,,TRUE,TRUE,,,,,,,OVC,7500,,,,,,,VFR,,,,,,,,,,,,METAR,121.0
KW78 060715Z AUTO 00000KT 10SM CLR 13/12 A2989 RMK AO1 T01310123,KW78,2023-06-06T07:15:00Z,36.7,-78.85,13.1,12.3,0,0,,10.0,29.890747,,,TRUE,TRUE,,,,,,,CLR,,,,,,,,VFR,,,,,,,,,,,,METAR,120.0
KW75 060715Z AUTO 00000KT 10SM CLR 15/13 A2987 RMK AO1 T01530132,KW75,2023-06-06T07:15:00Z,37.6,-76.45,15.3,13.2,0,0,,10.0,29.870079,,,TRUE,TRUE,,,,,,,CLR,,,,,,,,VFR,,,,,,,,,,,,METAR,8.0
KW63 060715Z AUTO 00000KT 10SM BKN060 BKN070 16/16 A2989 RMK AO1,KW63,2023-06-06T07:15:00Z,36.6,-78.55,16.0,16.0,0,0,,10.0,29.890747,,,TRUE,TRUE,,,,,,,BKN,6000,BKN,7000,,,,,VFR,,,,,,,,,,,,METAR,126.0
KW22 060715Z AUTO 00000KT 10SM OVC046 09/08 A2996 RMK AO2,KW22,2023-06-06T07:15:00Z,39.0,-80.27,9.0,8.0,0,0,,10.0,29.958662,,,TRUE,TRUE,,,,,,,OVC,4600,,,,,,,VFR,,,,,,,,,,,,METAR,497.0
KW13 060715Z AUTO 22003KT 10SM CLR 11/11 A2995 RMK AO1 T01100110,KW13,2023-06-06T07:15:00Z,38.08,-78.95,11.0,11.0,220,3,,10.0,29.949802,,,TRUE,TRUE,,,,,,,CLR,,,,,,,,VFR,,,,,,,,,,,,METAR,440.0
KVYS 060715Z AUTO 22003KT 10SM CLR 19/08 A3002 RMK AO2 T01900079,KVYS,2023-06-06T07:15:00Z,41.35,-89.15,19.0,7.9,220,3,,10.0,30.02067,,,TRUE,TRUE,,,,,,,CLR,,,,,,,,VFR,,,,,,,,,,,,METAR,198.0
KVWU 060715Z AUTO 00000KT 10SM BKN036 19/17 A3006 RMK AO2,KVWU,2023-06-06T07:15:00Z,48.15,-94.52,19.0,17.0,0,0,,10.0,30.059055,,,TRUE,TRUE,,,,,,,BKN,3600,,,,,,,VFR,,,,,,,,,,,,METAR,359.0
KVTP 060715Z AUTO 00000KT 10SM BKN090 BKN120 05/02 A3041 RMK AO2,KVTP,2023-06-06T07:15:00Z,37.5,-105.17,5.0,2.0,0,0,,10.0,30.410433,,,TRUE,TRUE,,,,,,,BKN,9000,BKN,12000,,,,,VFR,,,,,,,,,,,,METAR,3086.0
KVTI 060715Z AUTO 00000KT 7SM CLR 17/17 A3003 RMK AO2 T01670165,KVTI,2023-06-06T07:15:00Z,42.22,-92.02,16.7,16.5,0,0,,7.0,30.029528,,,TRUE,TRUE,,,,,,,CLR,,,,,,,,VFR,,,,,,,,,,,,METAR,256.0
KVQQ 060715Z AUTO 00000KT 10SM CLR 15/15 A2995 RMK AO2,KVQQ,2023-06-06T07:15:00Z,30.22,-81.88,15.0,15.0,0,0,,10.0,29.949802,,,TRUE,TRUE,,,,,,,CLR,,,,,,,,VFR,,,,,,,,,,,,METAR,21.0
KVPC 060715Z AUTO 00000KT 10SM SCT075 19/18 A2995 RMK AO2,KVPC,2023-06-06T07:15:00Z,34.1,-84.85,19.0,18.0,0,0,,10.0,29.949802,,,TRUE,TRUE,,,,,,,SCT,7500,,,,,,,VFR,,,,,,,,,,,,METAR,234.0
KVOA 060715Z AUTO 16007G12KT 10SM CLR 25/21 A2992 RMK A01,KVOA,2023-06-06T07:15:00Z,29.23,-87.78,25.0,21.0,160,7,12,10.0,29.920275,,,TRUE,TRUE,,,,,,,CLR,,,,,,,,VFR,,,,,,,,,,,,SPECI,53.0
KVNC 060715Z AUTO 07006KT 10SM CLR 22/20 A2994 RMK AO2,KVNC,2023-06-06T07:15:00Z,27.07,-82.43,22.0,20.0,70,6,,10.0,29.940945,,,TRUE,TRUE,,,,,,,CLR,,,,,,,,VFR,,,,,,,,,,,,METAR,4.0
KVLL 060715Z AUTO 00000KT 10SM CLR 18/09 A2995 RMK AO2 T01750088,KVLL,2023-06-06T07:15:00Z,42.55,-83.18,17.5,8.8,0,0,,10.0,29.949802,,,TRUE,TRUE,,,,,,,CLR,,,,,,,,VFR,,,,,,,,,,,,METAR,214.0
KVKY 060715Z AUTO 00000G10KT 10SM FEW022 FEW028 FEW035 A2993 RMK A01,KVKY,2023-06-06T07:15:00Z,29.25,-88.43,,,0,0,10,10.0,29.929134,,,TRUE,TRUE,,,,,,,FEW,2200,FEW,2800,FEW,3500,,,VFR,,,,,,,,,,,,SPECI,32.0
KVKS 060715Z AUTO 00000KT 10SM FEW041 SCT047 20/M39 A2992 RMK A01,KVKS,2023-06-06T07:15:00Z,32.23,-90.93,20.0,-39.0,0,0,,10.0,29.920275,,,TRUE,TRUE,,,,,,,FEW,4100,SCT,4700,,,,,VFR,,,,,,,,,,,,METAR,31.0
KVHN 060715Z AUTO 05010KT 10SM SCT075 21/11 A3015 RMK AO2 T02120112,KVHN,2023-06-06T07:15:00Z,31.07,-104.78,21.2,11.2,50,10,,10.0,30.15059,,,TRUE,TRUE,,,,,,,SCT,7500,,,,,,,VFR,,,,,,,,,,,,METAR,1200.0
KVGC 060715Z AUTO 15003KT 7SM CLR 07/03 A2981 RMK AO2,KVGC,2023-06-06T07:15:00Z,42.85,-75.57,7.0,3.0,150,3,,7.0,29.811024,,,TRUE,TRUE,,,,,,,CLR,,,,,,,,VFR,,,,,,,,,,,,METAR,346.0
KVER 060715Z AUTO 00000KT 10SM CLR 14/12 A3004 RMK AO2 T01420124,KVER,2023-06-06T07:15:00Z,38.95,-92.68,14.2,12.4,0,0,,10.0,30.041338,,,TRUE,TRUE,,,,,,,CLR,,,,,,,,VFR,,,,,,,,,,,,METAR,209.0
KVDI 060715Z AUTO 00000KT 10SM CLR 18/15 A2995 RMK AO2 LTG DSNT NE,KVDI,2023-06-06T07:15:00Z,32.2,-82.37,18.0,15.0,0,0,,10.0,29.949802,,,TRUE,TRUE,,,,,,,CLR,,,,,,,,VFR,,,,,,,,,,,,METAR,81.0
KVDF 060715Z AUTO 00000KT 10SM CLR 20/20 A2996 RMK AO2,KVDF,2023-06-06T07:15:00Z,28.02,-82.33,20.0,20.0,0,0,,10.0,29.958662,,,TRUE,TRUE,,,,,,,CLR,,,,,,,,VFR,,,,,,,,,,,,METAR,5.0
KVCV 060715Z AUTO 23006KT 10SM CLR 12/06 A2987 RMK AO2,KVCV,2023-06-06T07:15:00Z,34.58,-117.38,12.0,6.0,230,6,,10.0,29.870079,,,TRUE,TRUE,,,,,,,CLR,,,,,,,,VFR,,,,,,,,,,,,METAR,871.0
KVBW 060715Z AUTO 00000KT 10SM CLR 09/09 A2993 RMK AO1 T00910091,KVBW,2023-06-06T07:15:00Z,38.37,-78.97,9.1,9.1,0,0,,10.0,29.929134,,,TRUE,TRUE,,,,,,,CLR,,,,,,,,VFR,,,,,,,,,,,,METAR,362.0
KVAF 060715Z AUTO 13005KT 10SM 26/20 A2990 RMK A01,KVAF,2023-06-06T07:15:00Z,27.35,-94.63,26.0,20.0,130,5,,10.0,29.899607,,,TRUE,TRUE,,,,,,,,,,,,,,,,,,,,,,,,,,,METAR,38.0
KUYF 060715Z AUTO 25005KT 10SM CLR 11/04 A2998 RMK AO2,KUYF,2023-06-06T07:15:00Z,39.93,-83.47,11.0,4.0,250,5,,10.0,29.97933,,,TRUE,TRUE,,,,,,,CLR,,,,,,,,VFR,,,,,,,,,,,,METAR,326.0
KUXL 060715Z AUTO 07005KT 10SM CLR 22/20 A2993 RMK AO2 T02170201,KUXL,2023-06-06T07:15:00Z,30.13,-93.38,21.7,20.1,70,5,,10.0,29.929134,,,TRUE,TRUE,,,,,,,CLR,,,,,,,,VFR,,,,,,,,,,,,METAR,2.0
KUVA 060715Z AUTO 00000KT 19/19 A2997 RMK AO2 T01920192 PWINO,KUVA,2023-06-06T07:15:00Z,29.22,-99.75,19.2,19.2,0,0,,,29.970472,,,TRUE,TRUE,,,,,TRUE,,,,,,,,,,,,,,,,,,,,,,SPECI,285.0
KUUV 060715Z AUTO 00000KT 10SM CLR 12/10 A3005 RMK AO2,KUUV,2023-06-06T07:15:00Z,38.23,-91.17,12.0,10.0,0,0,,10.0,30.050198,,,TRUE,TRUE,,,,,,,CLR,,,,,,,,VFR,,,,,,,,,,,,METAR,284.0
KUTA 060715Z AUTO 19004KT 10SM CLR 21/19 A2993 RMK AO2 T02060194 $,KUTA,2023-06-06T07:15:00Z,34.68,-90.35,20.6,19.4,190,4,,10.0,29.929134,,,TRUE,TRUE,TRUE,,,,,,CLR,,,,,,,,VFR,,,,,,,,,,,,METAR,58.0
KUSE 060715Z AUTO 25003KT 10SM OVC085 16/08 A2994 RMK AO2,KUSE,2023-06-06T07:15:00Z,41.62,-84.13,16.0,8.0,250,3,,10.0,29.940945,,,TRUE,TRUE,,,,,,,OVC,8500,,,,,,,VFR,,,,,,,,,,,,METAR,237.0
KUOX 060715Z AUTO 00000KT 10SM CLR 17/17 A2996 RMK AO2,KUOX,2023-06-06T07:15:00Z,34.38,-89.53,17.0,17.0,0,0,,10.0,29.958662,,,TRUE,TRUE,,,,,,,CLR,,,,,,,,VFR,,,,,,,,,,,,METAR,123.0
KUNV 060715Z AUTO 00000KT 10SM CLR 10/04 A2988 RMK AO2 T01040040,KUNV,2023-06-06T07:15:00Z,40.85,-77.83,10.4,4.0,0,0,,10.0,29.878937,,,TRUE,TRUE,,,,,,,CLR,,,,,,,,VFR,,,,,,,,,,,,METAR,365.0
KUNI 060715Z AUTO 00000KT 10SM -SN CLR 08/07 A2997 RMK AO2 T00800069,KUNI,2023-06-06T07:15:00Z,39.22,-82.23,8.0,6.9,0,0,,10.0,29.970472,,,TRUE,TRUE,,,,,,-SN,CLR,,,,,,,,VFR,,,,,,,,,,,,METAR,232.0
KUMP 060715Z AUTO 00000KT 10SM CLR 14/10 A3000 RMK AO2 T01370101,KUMP,2023-06-06T07:15:00Z,39.93,-86.05,13.7,10.1,0,0,,10.0,30.0,,,TRUE,TRUE,,,,,,,CLR,,,,,,,,VFR,,,,,,,,,,,,METAR,247.0
KULM 060715Z AUTO 11004KT 10SM CLR 23/14 A2999 RMK AO2,KULM,2023-06-06T07:15:00Z,44.32,-94.5,23.0,14.0,110,4,,10.0,29.991142,,,TRUE,TRUE,,,,,,,CLR,,,,,,,,VFR,,,,,,,,,,,,SPECI,305.0
KUKT 060715Z AUTO 00000KT 10SM CLR 08/06 A2982 RMK A01,KUKT,2023-06-06T07:15:00Z,40.43,-75.38,8.0,6.0,0,0,,10.0,29.819881,,,TRUE,TRUE,,,,,,,CLR,,,,,,,,VFR,,,,,,,,,,,,METAR,156.0
KUKL 060715Z AUTO 00000KT 10SM CLR 18/14 A3004 RMK AO2 T01800143,KUKL,2023-06-06T07:15:00Z,38.3,-95.73,18.0,14.3,0,0,,10.0,30.041338,,,TRUE,TRUE,,,,,,,CLR,,,,,,,,VFR,,,,,,,,,,,,METAR,357.0
KUES 060715Z AUTO 07004KT 10SM SCT080 SCT110 16/10 A3004 RMK AO2,KUES,2023-06-06T07:15:00Z,43.05,-88.25,16.0,10.0,70,4,,10.0,30.041338,,,TRUE,TRUE,,,,,,,SCT,8000,SCT,11000,,,,,VFR,,,,,,,,,,,,METAR,273.0
KUCY 060715Z AUTO 01004KT 10SM CLR 17/16 A2994 RMK A01,KUCY,2023-06-06T07:15:00Z,36.38,-88.98,17.0,16.0,10,4,,10.0,29.940945,,,TRUE,TRUE,,,,,,,CLR,,,,,,,,VFR,,,,,,,,,,,,SPECI,97.0
KUBE 060715Z AUTO 01004KT 7SM CLR 16/16 A3006 RMK AO2,KUBE,2023-06-06T07:15:00Z,45.5,-91.98,16.0,16.0,10,4,,7.0,30.059055,,,TRUE,TRUE,,,,,,,CLR,,,,,,,,VFR,,,,,,,,,,,,METAR,376.0
KU69 060715Z AUTO 22005KT 10SM CLR 13/07 A3009 RMK A01,KU69,2023-06-06T07:15:00Z,40.2,-110.38,13.0,7.0,220,5,,10.0,30.088583,,,TRUE,TRUE,,,,,,,CLR,,,,,,,,VFR,,,,,,,,,,,,METAR,1776.0
KU64 060715Z AUTO 17010KT 10SM FEW090 BKN110 OVC140 15/02 A3015 RMK AO2 T01540024 $,KU64,2023-06-06T07:15:00Z,,,15.4,2.4,170,10,,10.0,30.15059,,,TRUE,TRUE,TRUE,,,,,,FEW,9000,BKN,11000,OVC,14000,,,VFR,,,,,,,,,,,,METAR,
KU55 060715Z AUTO 16005KT 10SM SCT055 BKN065 BKN090 10/01 A3007 RMK A01,KU55,2023-06-06T07:15:00Z,37.85,-112.38,10.0,1.0,160,5,,10.0,30.070866,,,TRUE,TRUE,,,,,,,SCT,5500,BKN,6500,BKN,9000,,,VFR,,,,,,,,,,,,METAR,2060.0
KU42 060715Z AUTO 26003KT 10SM CLR 18/08 A2997 RMK AO1 T01750075,KU42,2023-06-06T07:15:00Z,40.62,-111.98,17.5,7.5,260,3,,10.0,29.970472,,,TRUE,TRUE,,,,,,,CLR,,,,,,,,VFR,,,,,,,,,,,,METAR,1399.0
KTZR 060715Z AUTO 00000KT 7SM CLR 10/07 A2998 RMK AO2 T01000071,KTZR,2023-06-06T07:15:00Z,39.9,-83.13,10.0,7.1,0,0,,7.0,29.97933,,,TRUE,TRUE,,,,,,,CLR,,,,,,,,VFR,,,,,,,,,,,,METAR,275.0
KTYQ 060715Z AUTO 00000KT 10SM CLR 12/07 A3000 RMK AO2 T01220073,KTYQ,2023-06-06T07:15:00Z,40.03,-86.25,12.2,7.3,0,0,,10.0,30.0,,,TRUE,TRUE,,,,,,,CLR,,,,,,,,VFR,,,,,,,,,,,,METAR,279.0
KTYL 060715Z AUTO 00000KT 10SM CLR 14/M03 A3006 RMK AO2,KTYL,2023-06-06T07:15:00Z,34.45,-110.12,14.0,-3.0,0,0,,10.0,30.059055,,,TRUE,TRUE,,,,,,,CLR,,,,,,,,VFR,,,,,,,,,,,,SPECI,1748.0
KTXW 060715Z AUTO 02003KT 10SM CLR 23/21 A2989 RMK AO2 T02260207,KTXW,2023-06-06T07:15:00Z,26.18,-97.97,22.6,20.7,20,3,,10.0,29.890747,,,TRUE,TRUE,,,,,,,CLR,,,,,,,,VFR,,,,,,,,,,,,SPECI,21.0
KTWT 060715Z AUTO 00000KT 10SM CLR 16/12 A2998 RMK AO2,KTWT,2023-06-06T07:15:00Z,37.55,-87.95,16.0,12.0,0,0,,10.0,29.97933,,,TRUE,TRUE,,,,,,,CLR,,,,,,,,VFR,,,,,,,,,,,,METAR,113.0
KTWM 060715Z AUTO 05009KT 10SM SCT050 12/11 A3012 RMK AO2,KTWM,2023-06-06T07:15:00Z,47.05,-91.75,12.0,11.0,50,9,,10.0,30.121063,,,TRUE,TRUE,,,,,,,SCT,5000,,,,,,,VFR,,,,,,,,,,,,METAR,331.0
KTVY 060715Z AUTO 16007KT 10SM CLR 17/05 A2995 RMK AO2,KTVY,2023-06-06T07:15:00Z,40.62,-112.35,17.0,5.0,160,7,,10.0,29.949802,,,TRUE,TRUE,,,,,,,CLR,,,,,,,,VFR,,,,,,,,,,,,METAR,1310.0
KTVK 060715Z AUTO 00000KT 7SM CLR 14/14 A3005 RMK AO2,KTVK,2023-06-06T07:15:00Z,40.68,-92.9,14.0,14.0,0,0,,7.0,30.050198,,,TRUE,TRUE,,,,,,,CLR,,,,,,,,VFR,,,,,,,,,,,,METAR,311.0
KTVI 060715Z AUTO 18004KT 10SM CLR 20/19 A2995 RMK AO2,KTVI,2023-06-06T07:15:00Z,30.9,-83.88,20.0,19.0,180,4,,10.0,29.949802,,,TRUE,TRUE,,,,,,,CLR,,,,,,,,VFR,,,,,,,,,,,,METAR,74.0
KTTF 060715Z AUTO 00000KT 10SM SCT090 17/07 A2992 RMK AO2 T01700071,KTTF,2023-06-06T07:15:00Z,41.93,-83.42,17.0,7.1,0,0,,10.0,29.920275,,,TRUE,TRUE,,,,,,,SCT,9000,,,,,,,VFR,,,,,,,,,,,,SPECI,186.0
KTSP 060715Z AUTO 31008KT 10SM CLR 11/07 A2988 RMK AO2 LTG DSNT W,KTSP,2023-06-06T07:15:00Z,35.13,-118.43,11.0,7.0,310,8,,10.0,29.878937,,,TRUE,TRUE,,,,,,,CLR,,,,,,,,VFR,,,,,,,,,,,,METAR,1209.0
KTQV 060715Z AUTO 25008KT 10SM FEW055 SCT085 18/16 A2990 RMK A01,KTQV,2023-06-06T07:15:00Z,36.0,-78.93,18.0,16.0,250,8,,10.0,29.899607,,,TRUE,TRUE,,,,,,,FEW,5500,SCT,8500,,,,,VFR,,,,,,,,,,,,SPECI,230.0
KTQK 060715Z AUTO 17006KT 10SM CLR 14/13 A3012 RMK AO2 T01440129,KTQK,2023-06-06T07:15:00Z,38.47,-100.88,14.4,12.9,170,6,,10.0,30.121063,,,TRUE,TRUE,,,,,,,CLR,,,,,,,,VFR,,,,,,,,,,,,METAR,906.0
KTQH 060715Z AUTO 00000KT 10SM CLR 18/16 A3000 RMK AO2,KTQH,2023-06-06T07:15:00Z,35.93,-95.0,18.0,16.0,0,0,,10.0,30.0,,,TRUE,TRUE,,,,,,,CLR,,,,,,,,VFR,,,,,,,,,,,,METAR,265.0
KTPF 060715Z AUTO 09005KT 7SM OVC100 22/20 A2995 RMK AO2,KTPF,2023-06-06T07:15:00Z,27.92,-82.45,22.0,20.0,90,5,,7.0,29.949802,,,TRUE,TRUE,,,,,,,OVC,10000,,,,,,,VFR,,,,,,,,,,,,METAR,1.0
KTOC 060715Z AUTO 00000KT 4SM BR CLR 19/19 A2994 RMK AO2 LTG DSNT SW T01920188,KTOC,2023-06-06T07:15:00Z,34.6,-83.3,19.2,18.8,0,0,,4.0,29.940945,,,TRUE,TRUE,,,,,,BR,CLR,,,,,,,,MVFR,,,,,,,,,,,,METAR,292.0
KTOB 060715Z AUTO 00000KT 10SM SCT075 19/14 A3003 RMK AO2,KTOB,2023-06-06T07:15:00Z,44.02,-92.82,19.0,14.0,0,0,,10.0,30.029528,,,TRUE,TRUE,,,,,,,SCT,7500,,,,,,,VFR,,,,,,,,,,,,METAR,394.0
KTNU 060715Z AUTO 00000KT 7SM CLR 19/16 A3002 RMK A01,KTNU,2023-06-06T07:15:00Z,41.67,-93.02,19.0,16.0,0,0,,7.0,30.02067,,,TRUE,TRUE,,,,,,,CLR,,,,,,,,VFR,,,,,,,,,,,,METAR,287.0
KTNB 060715Z AUTO 00000KT 2 1/2SM BR CLR 10/10 A3003 RMK AO2 VIS 1 1/4V4 T00980098,KTNB,2023-06-06T07:15:00Z,36.2,-81.65,9.8,9.8,0,0,,2.5,30.029528,,,TRUE,TRUE,,,,,,BR,CLR,,,,,,,,IFR,,,,,,,,,,,,METAR,958.0
KTMT 060715Z AUTO 19009KT 10SM CLR 12/07 A3001 RMK AO2 T01190070,KTMT,2023-06-06T07:15:00Z,39.47,-117.2,11.9,7.0,190,9,,10.0,30.008858,,,TRUE,TRUE,,,,,,,CLR,,,,,,,,VFR,,,,,,,,,,,,METAR,1748.0
KTMK 060715Z AUTO 00000KT 10SM CLR 08/06 A2998 RMK AO2,KTMK,2023-06-06T07:15:00Z,45.42,-123.82,8.0,6.0,0,0,,10.0,29.97933,,,TRUE,TRUE,,,,,,,CLR,,,,,,,,VFR,,,,,,,,,,,,SPECI,8.0
KTME 060715Z AUTO 00000KT 4SM BR BKN004 21/21 A2993 RMK AO2,KTME,2023-06-06T07:15:00Z,29.8,-95.9,21.0,21.0,0,0,,4.0,29.929134,,,TRUE,TRUE,,,,,,BR,BKN,400,,,,,,,LIFR,,,,,,,,,,,,METAR,49.0
KTMA 060715Z AUTO 00000KT 10SM CLR 20/18 A2997 RMK AO2 T01970181 $,KTMA,2023-06-06T07:15:00Z,31.43,-83.48,19.7,18.1,0,0,,10.0,29.970472,,,TRUE,TRUE,TRUE,,,,,,CLR,,,,,,,,VFR,,,,,,,,,,,,METAR,105.0
KTKX 060715Z AUTO 02009KT 7SM SCT048 SCT055 21/10 A2995 RMK AO2,KTKX,2023-06-06T07:15:00Z,36.22,-90.03,21.0,10.0,20,9,,7.0,29.949802,,,TRUE,TRUE,,,,,,,SCT,4800,SCT,5500,,,,,VFR,,,,,,,,,,,,METAR,73.0
KTKV 060715Z AUTO 08008KT 7SM SCT060 BKN070 17/10 A3009 RMK AO2 T01670098 PWINO,KTKV,2023-06-06T07:15:00Z,45.47,-89.82,16.7,9.8,80,8,,7.0,30.088583,,,TRUE,TRUE,,,,,TRUE,,SCT,6000,BKN,7000,,,,,VFR,,,,,,,,,,,,SPECI,449.0
KTKC 060715Z AUTO 00000KT 7SM CLR 20/17 A3001 RMK AO2,KTKC,2023-06-06T07:15:00Z,44.25,-95.62,20.0,17.0,0,0,,7.0,30.008858,,,TRUE,TRUE,,,,,,,CLR,,,,,,,,VFR,,,,,,,,,,,,METAR,408.0
KTIP 060715Z AUTO 28003KT 10SM CLR 15/07 A3001 RMK AO2 T01460074,KTIP,2023-06-06T07:15:00Z,40.28,-88.15,14.6,7.4,280,3,,10.0,30.008858,,,TRUE,TRUE,,,,,,,CLR,,,,,,,,VFR,,,,,,,,,,,,METAR,224.0
KTIF 060715Z AUTO 00000KT 10SM CLR 15/13 A3010 RMK AO2 T01470131,KTIF,2023-06-06T07:15:00Z,41.97,-100.57,14.7,13.1,0,0,,10.0,30.100393,,,TRUE,TRUE,,,,,,,CLR,,,,,,,,VFR,,,,,,,,,,,,METAR,888.0
KTHA 060715Z AUTO 00000KT 10SM CLR 19/18 A2994 RMK A01,KTHA,2023-06-06T07:15:00Z,35.38,-86.25,19.0,18.0,0,0,,10.0,29.940945,,,TRUE,TRUE,,,,,,,CLR,,,,,,,,VFR,,,,,,,,,,,,SPECI,333.0
KTEX 060715Z AUTO 13009KT 10SM BKN090 08/00 A3032 RMK AO2,KTEX,2023-06-06T07:15:00Z,37.95,-107.9,8.0,0.0,130,9,,10.0,30.318897,,,TRUE,TRUE,,,,,,,BKN,9000,,,,,,,VFR,,,,,,,,,,,,SPECI,2760.0
KTEW 060715Z AUTO 00000KT 10SM SCT085 17/11 A2995 RMK AO2 T01670106,KTEW,2023-06-06T07:15:00Z,42.57,-84.42,16.7,10.6,0,0,,10.0,29.949802,,,TRUE,TRUE,,,,,,,SCT,8500,,,,,,,VFR,,,,,,,,,,,,SPECI,281.0
KTCY 060715Z AUTO 36012KT 10SM CLR 18/11 A2971 RMK A01,KTCY,2023-06-06T07:15:00Z,37.68,-121.43,18.0,11.0,360,12,,10.0,29.71063,,,TRUE,TRUE,,,,,,,CLR,,,,,,,,VFR,,,,,,,,,,,,METAR,51.0
KTBX 060715Z AUTO 10SM CLR 14/01 A3026 RMK AO2,KTBX,2023-06-06T07:15:00Z,43.47,-108.23,14.0,1.0,,,,10.0,30.259842,,,TRUE,TRUE,,,,,,,CLR,,,,,,,,VFR,,,,,,,,,,,,SPECI,2230.0
KTBR 060715Z AUTO 00000KT 10SM SCT090 17/14 A2995 RMK AO2 LTG DSNT N AND NE T01690140 PWINO,KTBR,2023-06-06T07:15:00Z,32.48,-81.73,16.9,14.0,0,0,,10.0,29.949802,,,TRUE,TRUE,,,,,TRUE,,SCT,9000,,,,,,,VFR,,,,,,,,,,,,METAR,54.0
KTAZ 060715Z AUTO 00000KT 10SM CLR 14/10 A3002 RMK AO2 T01400101,KTAZ,2023-06-06T07:15:00Z,39.53,-89.33,14.0,10.1,0,0,,10.0,30.02067,,,TRUE,TRUE,,,,,,,CLR,,,,,,,,VFR,,,,,,,,,,,,SPECI,188.0
KT89 060715Z AUTO 16004KT 10SM CLR 25/11 A2999 RMK A01,KT89,2023-06-06T07:15:00Z,29.27,-103.68,25.0,11.0,160,4,,10.0,29.991142,,,TRUE,TRUE,,,,,,,CLR,,,,,,,,VFR,,,,,,,,,,,,METAR,801.0
KT82 060715Z AUTO 00000KT 10SM CLR 19/17 A2999 RMK AO2 T01860169,KT82,2023-06-06T07:15:00Z,30.25,-98.92,18.6,16.9,0,0,,10.0,29.991142,,,TRUE,TRUE,,,,,,,CLR,,,,,,,,VFR,,,,,,,,,,,,SPECI,509.0
KT78 060715Z AUTO 00000KT 8SM CLR 20/20 A2990 RMK AO2,KT78,2023-06-06T07:15:00Z,30.08,-94.7,20.0,20.0,0,0,,8.0,29.899607,,,TRUE,TRUE,,,,,,,CLR,,,,,,,,VFR,,,,,,,,,,,,METAR,21.0
KT74 060715Z AUTO 7SM BR BKN110 19/19 A2994 RMK AO2 T01920188,KT74,2023-06-06T07:15:00Z,30.57,-97.45,19.2,18.8,,,,7.0,29.940945,,,TRUE,TRUE,,,,,,BR,BKN,11000,,,,,,,VFR,,,,,,,,,,,,METAR,169.0
KT69 060715Z AUTO 00000KT 6SM BR CLR 22/21 A2990 RMK A01,KT69,2023-06-06T07:15:00Z,28.03,-97.55,22.0,21.0,0,0,,6.0,29.899607,,,TRUE,TRUE,,,,,,BR,CLR,,,,,,,,VFR,,,,,,,,,,,,METAR,15.0
KT41 060715Z AUTO 00000KT 10SM CLR 21/20 A2991 RMK AO2 T02110200,KT41,2023-06-06T07:15:00Z,29.67,-95.07,21.1,20.0,0,0,,10.0,29.911417,,,TRUE,TRUE,,,,,,,CLR,,,,,,,,VFR,,,,,,,,,,,,METAR,8.0
KT35 060715Z AUTO 00000KT 7SM CLR 20/19 A2994 RMK AO2 T02000193,KT35,2023-06-06T07:15:00Z,30.88,-96.97,20.0,19.3,0,0,,7.0,29.940945,,,TRUE,TRUE,,,,,,,CLR,,,,,,,,VFR,,,,,,,,,,,,SPECI,122.0
KT20 060715Z AUTO 00000KT 5SM BR CLR 19/19 A2992 RMK AO2 T01910190,KT20,2023-06-06T07:15:00Z,29.52,-97.47,19.1,19.0,0,0,,5.0,29.920275,,,TRUE,TRUE,,,,,,BR,CLR,,,,,,,,MVFR,,,,,,,,,,,,SPECI,107.0
KSZY 060715Z AUTO 00000KT 10SM FEW041 20/18 A2994 RMK A01,KSZY,2023-06-06T07:15:00Z,35.2,-88.5,20.0,18.0,0,0,,10.0,29.940945,,,TRUE,TRUE,,,,,,,FEW,4100,,,,,,,VFR,,,,,,,,,,,,SPECI,184.0
KSZT 060715Z AUTO 00000KT 10SM CLR 11/06 A2995 RMK AO2,KSZT,2023-06-06T07:15:00Z,48.3,-116.57,11.0,6.0,0,0,,10.0,29.949802,,,TRUE,TRUE,,,,,,,CLR,,,,,,,,VFR,,,,,,,,,,,,SPECI,649.0
KSYM 060715Z AUTO 00000KT 10SM FEW044 OVC065 14/07 A3000 RMK AO2,KSYM,2023-06-06T07:15:00Z,38.22,-83.58,14.0,7.0,0,0,,10.0,30.0,,,TRUE,TRUE,,,,,,,FEW,4400,OVC,6500,,,,,VFR,,,,,,,,,,,,METAR,307.0
KSYI 060715Z AUTO 00000KT 6SM BR FEW044 18/18 A2994 RMK A01,KSYI,2023-06-06T07:15:00Z,35.57,-86.45,18.0,18.0,0,0,,6.0,29.940945,,,TRUE,TRUE,,,,,,BR,FEW,4400,,,,,,,VFR,,,,,,,,,,,,SPECI,244.0
KSYF 060715Z AUTO 18006KT 10SM CLR 14/11 A3012 RMK AO2 T01370114 PWINO,KSYF,2023-06-06T07:15:00Z,39.77,-101.8,13.7,11.4,180,6,,10.0,30.121063,,,TRUE,TRUE,,,,,TRUE,,CLR,,,,,,,,VFR,,,,,,,,,,,,METAR,1041.0
KSXU 060715Z AUTO 22005KT 10SM SCT095 BKN120 14/13 A3019 RMK AO2 T01350126,KSXU,2023-06-06T07:15:00Z,34.93,-104.65,13.5,12.6,220,5,,10.0,30.188976,,,TRUE,TRUE,,,,,,,SCT,9500,BKN,12000,,,,,VFR,,,,,,,,,,,,METAR,1465.0
KSXK 060715Z AUTO 18010KT 10SM SCT060 OVC070 20/15 A3000 RMK AO2,KSXK,2023-06-06T07:15:00Z,42.98,-96.17,20.0,15.0,180,10,,10.0,30.0,,,TRUE,TRUE,,,,,,,SCT,6000,OVC,7000,,,,,VFR,,,,,,,,,,,,SPECI,430.0
KSWW 060715Z AUTO 00000KT 10SM CLR 18/14 A3008 RMK AO2 T01820140,KSWW,2023-06-06T07:15:00Z,32.47,-100.47,18.2,14.0,0,0,,10.0,30.079725,,,TRUE,TRUE,,,,,,,CLR,,,,,,,,VFR,,,,,,,,,,,,SPECI,718.0
KSVE 060715Z AUTO 23006KT 10SM SCT100 17/07 A2996 RMK AO2,KSVE,2023-06-06T07:15:00Z,40.37,-120.57,17.0,7.0,230,6,,10.0,29.958662,,,TRUE,TRUE,,,,,,,SCT,10000,,,,,,,VFR,,,,,,,,,,,,SPECI,1263.0
KSVC 060715Z AUTO 10008KT 10SM CLR 20/08 A3012 RMK AO2 T02030077,KSVC,2023-06-06T07:15:00Z,32.63,-108.15,20.3,7.7,100,8,,10.0,30.121063,,,TRUE,TRUE,,,,,,,CLR,,,,,,,,VFR,,,,,,,,,,,,METAR,1638.0
KSUZ 060715Z AUTO 00000KT 10SM OVC050 22/21 A2996 RMK A01,KSUZ,2023-06-06T07:15:00Z,34.58,-92.48,22.0,21.0,0,0,,10.0,29.958662,,,TRUE,TRUE,,,,,,,OVC,5000,,,,,,,VFR,,,,,,,,,,,,METAR,114.0
KSUN 060715Z AUTO 32005KT 10SM CLR 12/08 A3007 RMK AO2,KSUN,2023-06-06T07:15:00Z,43.5,-114.28,12.0,8.0,320,5,,10.0,30.070866,,,TRUE,TRUE,,,,,,,CLR,,,,,,,,VFR,,,,,,,,,,,,METAR,1619.0
KSUA 060715Z AUTO 03005KT 10SM CLR 24/17 A2994 RMK AO2 T02390167,KSUA,2023-06-06T07:15:00Z,27.18,-80.22,23.9,16.7,30,5,,10.0,29.940945,,,TRUE,TRUE,,,,,,,CLR,,,,,,,,VFR,,,,,,,,,,,,METAR,4.0
KSTK 060715Z AUTO 00000KT 10SM CLR 13/13 A3011 RMK AO2,KSTK,2023-06-06T07:15:00Z,40.62,-103.27,13.0,13.0,0,0,,10.0,30.109253,,,TRUE,TRUE,,,,,,,CLR,,,,,,,,VFR,,,,,,,,,,,,METAR,1228.0
KSTF 060715Z AUTO 00000KT 7SM CLR M09/M09 A2993 RMK AO2,KSTF,2023-06-06T07:15:00Z,33.43,-88.85,-9.0,-9.0,0,0,,7.0,29.929134,,,TRUE,TRUE,,,,,,,CLR,,,,,,,,VFR,,,,,,,,,,,,METAR,99.0
KSTE 060715Z AUTO 08006KT 7SM SCT080 BKN090 20/09 A3005 RMK AO2 T01960088,KSTE,2023-06-06T07:15:00Z,44.55,-89.53,19.6,8.8,80,6,,7.0,30.050198,,,TRUE,TRUE,,,,,,,SCT,8000,BKN,9000,,,,,VFR,,,,,,,,,,,,SPECI,335.0
KSRR 060715Z AUTO 26006KT 10SM FEW034 SCT043 OVC070 09/09 A3030 RMK AO2,KSRR,2023-06-06T07:15:00Z,33.47,-105.52,9.0,9.0,260,6,,10.0,30.301182,,,TRUE,TRUE,,,,,,,FEW,3400,SCT,4300,OVC,7000,,,VFR,,,,,,,,,,,,METAR,2063.0
KSRE 060715Z AUTO 07003KT 10SM CLR 20/16 A2998 RMK AO2,KSRE,2023-06-06T07:15:00Z,35.27,-96.68,20.0,16.0,70,3,,10.0,29.97933,,,TRUE,TRUE,,,,,,,CLR,,,,,,,,VFR,,,,,,,,,,,,SPECI,306.0
KSRB 060715Z AUTO 05004KT 5SM BR OVC065 15/16 A2995 RMK AO2,KSRB,2023-06-06T07:15:00Z,36.05,-85.53,15.0,16.0,50,4,,5.0,29.949802,,,TRUE,TRUE,,,,,,BR,OVC,6500,,,,,,,MVFR,,,,,,,,,,,,SPECI,303.0
KSQL 060715Z AUTO 00000KT 10SM CLR 15/10 A2981 RMK AO2,KSQL,2023-06-06T07:15:00Z,37.52,-122.25,15.0,10.0,0,0,,10.0,29.811024,,,TRUE,TRUE,,,,,,,CLR,,,,,,,,VFR,,,,,,,,,,,,METAR,1.0
KSPK 060715Z AUTO 12010KT 10SM FEW120 20/05 A2995 RMK AO2,KSPK,2023-06-06T07:15:00Z,40.15,-111.67,20.0,5.0,120,10,,10.0,29.949802,,,TRUE,TRUE,,,,,,,FEW,12000,,,,,,,VFR,,,,,,,,,,,,METAR,1381.0
KSPF 060715Z AUTO 00000KT 10SM CLR 18/11 A3007 RMK AO2,KSPF,2023-06-06T07:15:00Z,44.47,-103.78,18.0,11.0,0,0,,10.0,30.070866,,,TRUE,TRUE,,,,,,,CLR,,,,,,,,VFR,,,,,,,,,,,,METAR,1191.0
KSOW 060715Z AUTO 18011KT 10SM CLR 18/M07 A3009 RMK AO2,KSOW,2023-06-06T07:15:00Z,34.27,-110.0,18.0,-7.0,180,11,,10.0,30.088583,,,TRUE,TRUE,,,,,,,CLR,,,,,,,,VFR,,,,,,,,,,,,SPECI,1954.0
KSOA 060715Z AUTO 00000KT 10SM CLR 18/16 A3006 RMK AO2,KSOA,2023-06-06T07:15:00Z,30.58,-100.65,18.0,16.0,0,0,,10.0,30.059055,,,TRUE,TRUE,,,,,,,CLR,,,,,,,,VFR,,,,,,,,,,,,SPECI,654.0
KSNL 060715Z AUTO 12004KT 10SM SCT070 23/12 A2999 RMK AO2 T02250122,KSNL,2023-06-06T07:15:00Z,35.35,-96.95,22.5,12.2,120,4,,10.0,29.991142,,,TRUE,TRUE,,,,,,,SCT,7000,,,,,,,VFR,,,,,,,,,,,,METAR,327.0
KSNK 060715Z AUTO 35003KT 7SM CLR 18/15 A3007 RMK AO2 T01780153,KSNK,2023-06-06T07:15:00Z,32.7,-100.95,17.8,15.3,350,3,,7.0,30.070866,,,TRUE,TRUE,,,,,,,CLR,,,,,,,,VFR,,,,,,,,,,,,METAR,738.0
KSNC 060715Z AUTO 00000KT 10SM CLR 13/10 A2973 RMK AO2,KSNC,2023-06-06T07:15:00Z,41.38,-72.5,13.0,10.0,0,0,,10.0,29.731298,,,TRUE,TRUE,,,,,,,CLR,,,,,,,,VFR,,,,,,,,,,,,METAR,114.0
KSMS 060715Z AUTO 00000KT 10SM BKN049 OVC090 18/17 A2995 RMK AO2 LTG DSNT W AND NW,KSMS,2023-06-06T07:15:00Z,34.0,-80.37,18.0,17.0,0,0,,10.0,29.949802,,,TRUE,TRUE,,,,,,,BKN,4900,OVC,9000,,,,,VFR,,,,,,,,,,,,METAR,53.0
KSME 060715Z AUTO 00000KT 10SM BKN060 16/16 A2995 RMK AO2,KSME,2023-06-06T07:15:00Z,37.05,-84.62,16.0,16.0,0,0,,10.0,29.949802,,,TRUE,TRUE,,,,,,,BKN,6000,,,,,,,VFR,,,,,,,,,,,,METAR,279.0
KSMD 060715Z AUTO 27006KT 10SM FEW026 FEW032 BKN055 16/08 A2998 RMK A01,KSMD,2023-06-06T07:15:00Z,41.15,-85.15,16.0,8.0,270,6,,10.0,29.97933,,,TRUE,TRUE,,,,,,,FEW,2600,FEW,3200,BKN,5500,,,VFR,,,,,,,,,,,,METAR,252.0
KSLH 060715Z AUTO 03006KT 10SM CLR 15/10 A3003 RMK AO2,KSLH,2023-06-06T07:15:00Z,45.65,-84.52,15.0,10.0,30,6,,10.0,30.029528,,,TRUE,TRUE,,,,,,,CLR,,,,,,,,VFR,,,,,,,,,,,,SPECI,193.0
KSLB 060715Z AUTO 19007KT 10SM CLR 20/14 A3004 RMK AO2,KSLB,2023-06-06T07:15:00Z,42.6,-95.23,20.0,14.0,190,7,,10.0,30.041338,,,TRUE,TRUE,,,,,,,CLR,,,,,,,,VFR,,,,,,,,,,,,METAR,450.0
KSJX 060715Z AUTO 05006KT 10SM CLR 14/12 A3005 RMK AO2 T01380117,KSJX,2023-06-06T07:15:00Z,45.7,-85.57,13.8,11.7,50,6,,10.0,30.050198,,,TRUE,TRUE,,,,,,,CLR,,,,,,,,VFR,,,,,,,,,,,,METAR,202.0
KSJS 060715Z AUTO 00000KT 10SM CLR 13/13 A2998 RMK AO2 T01250125,KSJS,2023-06-06T07:15:00Z,37.75,-82.63,12.5,12.5,0,0,,10.0,29.97933,,,TRUE,TRUE,,,,,,,CLR,,,,,,,,VFR,,,,,,,,,,,,METAR,359.0
KSIK 060715Z AUTO 00000KT 10SM CLR 17/08 A2997 RMK AO2,KSIK,2023-06-06T07:15:00Z,36.9,-89.57,17.0,8.0,0,0,,10.0,29.970472,,,TRUE,TRUE,,,,,,,CLR,,,,,,,,VFR,,,,,,,,,,,,METAR,95.0
KSHL 060715Z AUTO 17003KT 10SM CLR 20/15 A3001 RMK AO2,KSHL,2023-06-06T07:15:00Z,43.22,-95.83,20.0,15.0,170,3,,10.0,30.008858,,,TRUE,TRUE,,,,,,,CLR,,,,,,,,VFR,,,,,,,,,,,,METAR,430.0
KSHD 060715Z AUTO 23003KT 10SM CLR 09/09 A2996 RMK AO2 T00900088,KSHD,2023-06-06T07:15:00Z,38.27,-78.9,9.0,8.8,230,3,,10.0,29.958662,,,TRUE,TRUE,,,,,,,CLR,,,,,,,,VFR,,,,,,,,,,,,METAR,360.0
KSGS 060715Z AUTO 00000KT 10SM CLR 22/16 A3002 RMK AO2 T02200156,KSGS,2023-06-06T07:15:00Z,44.87,-93.03,22.0,15.6,0,0,,10.0,30.02067,,,TRUE,TRUE,,,,,,,CLR,,,,,,,,VFR,,,,,,,,,,,,METAR,250.0
KSFQ 060715Z AUTO 00000KT 10SM BKN085 16/15 A2988 RMK AO2 T01550145,KSFQ,2023-06-06T07:15:00Z,36.68,-76.6,15.5,14.5,0,0,,10.0,29.878937,,,TRUE,TRUE,,,,,,,BKN,8500,,,,,,,VFR,,,,,,,,,,,,METAR,19.0
KSEZ 060715Z AUTO 13008KT 10SM CLR 20/M10 A2999 RMK AO2,KSEZ,2023-06-06T07:15:00Z,34.85,-111.78,20.0,-10.0,130,8,,10.0,29.991142,,,TRUE,TRUE,,,,,,,CLR,,,,,,,,VFR,,,,,,,,,,,,METAR,1455.0
KSEP 060715Z AUTO 04003KT 10SM SCT100 BKN120 20/18 A3001 RMK AO2 T02020182,KSEP,2023-06-06T07:15:00Z,32.22,-98.17,20.2,18.2,40,3,,10.0,30.008858,,,TRUE,TRUE,,,,,,,SCT,10000,BKN,12000,,,,,VFR,,,,,,,,,,,,METAR,399.0
KSEM 060715Z AUTO 00000KT 10SM FEW048 21/21 A2994 RMK AO2,KSEM,2023-06-06T07:15:00Z,32.35,-86.98,21.0,21.0,0,0,,10.0,29.940945,,,TRUE,TRUE,,,,,,,FEW,4800,,,,,,,VFR,,,,,,,,,,,,SPECI,48.0
KSEF 060715Z AUTO 03003KT 10SM CLR 20/ A2995 RMK AO2 T0196////,KSEF,2023-06-06T07:15:00Z,27.45,-81.35,19.6,,30,3,,10.0,29.949802,,,TRUE,TRUE,,,,,,,CLR,,,,,,,,VFR,,,,,,,,,,,,METAR,17.0
KSEE 060715Z AUTO 20005KT 10SM BKN029 BKN035 OVC043 15/09 A2992 RMK AO2,KSEE,2023-06-06T07:15:00Z,32.82,-116.97,15.0,9.0,200,5,,10.0,29.920275,,,TRUE,TRUE,,,,,,,BKN,2900,BKN,3500,OVC,4300,,,MVFR,,,,,,,,,,,,METAR,113.0
KSDC 060715Z AUTO 00000KT 10SM CLR 13/06 A2982 RMK AO2,KSDC,2023-06-06T07:15:00Z,43.23,-77.12,13.0,6.0,0,0,,10.0,29.819881,,,TRUE,TRUE,,,,,,,CLR,,,,,,,,VFR,,,,,,,,,,,,METAR,127.0
KSDA 060715Z AUTO 00000KT 10SM FEW039 16/16 A3004 RMK AO2,KSDA,2023-06-06T07:15:00Z,40.75,-95.42,16.0,16.0,0,0,,10.0,30.041338,,,TRUE,TRUE,,,,,,,FEW,3900,,,,,,,VFR,,,,,,,,,,,,METAR,293.0
KSCX 060715Z AUTO 00000KT 10SM OVC055 17/12 A2997 RMK A01,KSCX,2023-06-06T07:15:00Z,36.45,-84.58,17.0,12.0,0,0,,10.0,29.970472,,,TRUE,TRUE,,,,,,,OVC,5500,,,,,,,VFR,,,,,,,,,,,,SPECI,462.0
KSCD 060715Z AUTO 00000KT 10SM SCT070 BKN095 OVC110 19/18 A2995 RMK AO2 T01890183,KSCD,2023-06-06T07:15:00Z,33.17,-86.3,18.9,18.3,0,0,,10.0,29.949802,,,TRUE,TRUE,,,,,,,SCT,7000,BKN,9500,OVC,11000,,,VFR,,,,,,,,,,,,SPECI,164.0
KSBS 060715Z AUTO 32003KT 10SM CLR 08/04 A3018 RMK AO1 T00820043,KSBS,2023-06-06T07:15:00Z,40.52,-106.87,8.2,4.3,320,3,,10.0,30.180119,,,TRUE,TRUE,,,,,,,CLR,,,,,,,,VFR,,,,,,,,,,,,SPECI,2097.0
KSBO 060715Z AUTO 18003KT 10SM CLR 18/18 A2995 RMK AO2 LTG DSNT SW,KSBO,2023-06-06T07:15:00Z,32.62,-82.37,18.0,18.0,180,3,,10.0,29.949802,,,TRUE,TRUE,,,,,,,CLR,,,,,,,,VFR,,,,,,,,,,,,METAR,98.0
KSAZ 060715Z AUTO 00000KT 10SM CLR 18/14 A3007 RMK AO2,KSAZ,2023-06-06T07:15:00Z,46.37,-94.8,18.0,14.0,0,0,,10.0,30.070866,,,TRUE,TRUE,,,,,,,CLR,,,,,,,,VFR,,,,,,,,,,,,METAR,391.0
KSAR 060715Z AUTO 00000KT 10SM CLR 15/12 A3001 RMK AO2 T01450120,KSAR,2023-06-06T07:15:00Z,38.15,-89.7,14.5,12.0,0,0,,10.0,30.008858,,,TRUE,TRUE,,,,,,,CLR,,,,,,,,VFR,,,,,,,,,,,,SPECI,162.0
KSAA 060715Z AUTO 21003KT 10SM CLR 06/06 A3019 RMK AO2,KSAA,2023-06-06T07:15:00Z,41.45,-106.8,6.0,6.0,210,3,,10.0,30.188976,,,TRUE,TRUE,,,,,,,CLR,,,,,,,,VFR,,,,,,,,,,,,METAR,2093.0
KS71 060715Z AUTO 00000KT 10SM 19/18 A2992 ,KS71,2023-06-06T07:15:00Z,48.6,-109.25,19.0,18.0,0,0,,10.0,29.920275,,,TRUE,,,,,,,,,,,,,,,,,,,,,,,,,,,,METAR,736.0
KS52 060715Z AUTO 00000KT 10SM SCT120 09/03 A3001 RMK AO2 T00890026,KS52,2023-06-06T07:15:00Z,48.42,-120.15,8.9,2.6,0,0,,10.0,30.008858,,,TRUE,TRUE,,,,,,,SCT,12000,,,,,,,VFR,,,,,,,,,,,,METAR,517.0
KS39 060715Z AUTO 19003KT 10SM CLR 11/07 A2998 RMK AO2,KS39,2023-06-06T07:15:00Z,44.28,-120.9,11.0,7.0,190,3,,10.0,29.97933,,,TRUE,TRUE,,,,,,,CLR,,,,,,,,VFR,,,,,,,,,,,,SPECI,987.0
KS33 060715Z AUTO 33003KT 10SM CLR A2996 RMK AO2,KS33,2023-06-06T07:15:00Z,44.67,-121.15,,,330,3,,10.0,29.958662,,,TRUE,TRUE,,,,,,,CLR,,,,,,,,VFR,,,,,,,,,,,,SPECI,739.0
KS32 060715Z AUTO 16004KT 5SM BR SCT037 BKN044 OVC055 20/20 A3002 RMK AO2 TSNO,KS32,2023-06-06T07:15:00Z,47.42,-98.1,20.0,20.0,160,4,,5.0,30.02067,,,TRUE,TRUE,,,TRUE,,,BR,SCT,3700,BKN,4400,OVC,5500,,,MVFR,,,,,,,,,,,,METAR,435.0
KS25 060715Z AUTO 00000KT 10SM SCT060 19/19 A2998 RMK AO2,KS25,2023-06-06T07:15:00Z,47.8,-103.25,19.0,19.0,0,0,,10.0,29.97933,,,TRUE,TRUE,,,,,,,SCT,6000,,,,,,,VFR,,,,,,,,,,,,METAR,632.0
KS24 060715Z AUTO 21005KT 9SM BKN070 OVC080 16/08 A2995 RMK AO2,KS24,2023-06-06T07:15:00Z,41.3,-83.03,16.0,8.0,210,5,,9.0,29.949802,,,TRUE,TRUE,,,,,,,BKN,7000,OVC,8000,,,,,VFR,,,,,,,,,,,,METAR,203.0
KS21 060715Z AUTO 00000KT 10SM FEW045 09/07 A3007 RMK AO2,KS21,2023-06-06T07:15:00Z,43.88,-121.45,9.0,7.0,0,0,,10.0,30.070866,,,TRUE,TRUE,,,,,,,FEW,4500,,,,,,,VFR,,,,,,,,,,,,METAR,1269.0
KS12 060715Z AUTO 33007KT 10SM CLR 17/03 A2991 RMK AO2,KS12,2023-06-06T07:15:00Z,,,17.0,3.0,330,7,,10.0,29.911417,,,TRUE,TRUE,,,,,,,CLR,,,,,,,,VFR,,,,,,,,,,,,METAR,
KRZT 060715Z AUTO 00000KT 10SM CLR 10/09 A2999 RMK AO2 PWINO,KRZT,2023-06-06T07:15:00Z,39.43,-83.02,10.0,9.0,0,0,,10.0,29.991142,,,TRUE,TRUE,,,,,TRUE,,CLR,,,,,,,,VFR,,,,,,,,,,,,METAR,217.0
KRZR 060715Z AUTO 00000KT 5SM BR BKN055 OVC075 19/19 A2991 RMK A01,KRZR,2023-06-06T07:15:00Z,35.22,-84.8,19.0,19.0,0,0,,5.0,29.911417,,,TRUE,TRUE,,,,,,BR,BKN,5500,OVC,7500,,,,,MVFR,,,,,,,,,,,,SPECI,259.0
KRZN 060715Z AUTO 06004KT 7SM CLR 15/13 A3007 RMK AO2 T01500130,KRZN,2023-06-06T07:15:00Z,45.82,-92.37,15.0,13.0,60,4,,7.0,30.070866,,,TRUE,TRUE,,,,,,,CLR,,,,,,,,VFR,,,,,,,,,,,,METAR,301.0
KRZL 060715Z AUTO 00000KT 10SM CLR 13/06 A3002 RMK AO2,KRZL,2023-06-06T07:15:00Z,40.95,-87.18,13.0,6.0,0,0,,10.0,30.02067,,,TRUE,TRUE,,,,,,,CLR,,,,,,,,VFR,,,,,,,,,,,,SPECI,210.0
KRYW 060715Z AUTO 27003KT 10SM SCT046 21/19 A2996 RMK AO2 T02110190,KRYW,2023-06-06T07:15:00Z,30.5,-97.97,21.1,19.0,270,3,,10.0,29.958662,,,TRUE,TRUE,,,,,,,SCT,4600,,,,,,,VFR,,,,,,,,,,,,METAR,370.0
KRYN 060715Z AUTO VRB04KT 10SM CLR 25/M07 A2985 RMK AO2,KRYN,2023-06-06T07:15:00Z,32.15,-111.17,25.0,-7.0,0,4,,10.0,29.84941,,,TRUE,TRUE,,,,,,,CLR,,,,,,,,VFR,,,,,,,,,,,,METAR,731.0
KRWV 060715Z AUTO 33004KT 7SM CLR 20/19 A2994 RMK AO2 T01970190,KRWV,2023-06-06T07:15:00Z,30.52,-96.7,19.7,19.0,330,4,,7.0,29.940945,,,TRUE,TRUE,,,,,,,CLR,,,,,,,,VFR,,,,,,,,,,,,SPECI,116.0
KRVL 060715Z AUTO 00000KT 9SM CLR 12/05 A2987 RMK AO2,KRVL,2023-06-06T07:15:00Z,40.68,-77.63,12.0,5.0,0,0,,9.0,29.870079,,,TRUE,TRUE,,,,,,,CLR,,,,,,,,VFR,,,,,,,,,,,,METAR,250.0
KRVF 060715Z AUTO 15004KT 10SM FEW070 FEW075 BKN090 13/11 A3008 RMK AO2,KRVF,2023-06-06T07:15:00Z,45.53,-112.3,13.0,11.0,150,4,,10.0,30.079725,,,TRUE,TRUE,,,,,,,FEW,7000,FEW,7500,BKN,9000,,,VFR,,,,,,,,,,,,METAR,1445.0
KRUG 060715Z AUTO 11007KT 6SM BR CLR 19/19 A2998 RMK AO2,KRUG,2023-06-06T07:15:00Z,48.38,-100.02,19.0,19.0,110,7,,6.0,29.97933,,,TRUE,TRUE,,,,,,BR,CLR,,,,,,,,VFR,,,,,,,,,,,,METAR,469.0
KRTS 060715Z AUTO 00000KT 10SM SCT095 10/09 A3001 RMK AO2,KRTS,2023-06-06T07:15:00Z,39.67,-119.88,10.0,9.0,0,0,,10.0,30.008858,,,TRUE,TRUE,,,,,,,SCT,9500,,,,,,,VFR,,,,,,,,,,,,METAR,1537.0
KRSN 060715Z AUTO 00000KT 10SM OVC130 19/19 A2991 RMK AO2 T01950195 $,KRSN,2023-06-06T07:15:00Z,32.52,-92.58,19.5,19.5,0,0,,10.0,29.911417,,,TRUE,TRUE,TRUE,,,,,,OVC,13000,,,,,,,VFR,,,,,,,,,,,,METAR,86.0
KRRT 060715Z AUTO 13007KT 10SM CLR 19/17 A3003 RMK AO2,KRRT,2023-06-06T07:15:00Z,48.93,-95.33,19.0,17.0,130,7,,10.0,30.029528,,,TRUE,TRUE,,,,,,,CLR,,,,,,,,VFR,,,,,,,,,,,,SPECI,327.0
KRQB 060715Z AUTO 00000KT 7SM SCT060 15/11 A2999 RMK AO2 T01460110,KRQB,2023-06-06T07:15:00Z,43.72,-85.5,14.6,11.0,0,0,,7.0,29.991142,,,TRUE,TRUE,,,,,,,SCT,6000,,,,,,,VFR,,,,,,,,,,,,SPECI,282.0
KRPJ 060715Z AUTO 00000KT 10SM CLR 16/09 A3003 RMK AO2 T01600088 TSNO,KRPJ,2023-06-06T07:15:00Z,41.88,-89.08,16.0,8.8,0,0,,10.0,30.029528,,,TRUE,TRUE,,,TRUE,,,,CLR,,,,,,,,VFR,,,,,,,,,,,,METAR,234.0
KRPH 060715Z AUTO 00000KT 8SM CLR 18/18 A2997 RMK AO2 T01780178 $,KRPH,2023-06-06T07:15:00Z,33.12,-98.55,17.8,17.8,0,0,,8.0,29.970472,,,TRUE,TRUE,TRUE,,,,,,CLR,,,,,,,,VFR,,,,,,,,,,,,METAR,341.0
KROX 060715Z AUTO 12005KT 10SM CLR 20/19 A3002 RMK AO2,KROX,2023-06-06T07:15:00Z,48.85,-95.7,20.0,19.0,120,5,,10.0,30.02067,,,TRUE,TRUE,,,,,,,CLR,,,,,,,,VFR,,,,,,,,,,,,METAR,320.0
KRNP 060715Z AUTO 00000KT 10SM SCT080 16/11 A2996 RMK AO2 T01600111,KRNP,2023-06-06T07:15:00Z,43.0,-84.13,16.0,11.1,0,0,,10.0,29.958662,,,TRUE,TRUE,,,,,,,SCT,8000,,,,,,,VFR,,,,,,,,,,,,METAR,224.0
KRNH 060715Z AUTO 03004KT 10SM SCT110 18/18 A3004 RMK AO2 T01800178,KRNH,2023-06-06T07:15:00Z,45.15,-92.53,18.0,17.8,30,4,,10.0,30.041338,,,TRUE,TRUE,,,,,,,SCT,11000,,,,,,,VFR,,,,,,,,,,,,SPECI,302.0
KRNC 060715Z AUTO 00000KT 4SM BR CLR 17/17 A2995 RMK A01,KRNC,2023-06-06T07:15:00Z,35.7,-85.85,17.0,17.0,0,0,,4.0,29.949802,,,TRUE,TRUE,,,,,,BR,CLR,,,,,,,,MVFR,,,,,,,,,,,,SPECI,310.0
KRMY 060715Z AUTO 26003KT 10SM SCT085 15/10 A2996 RMK AO2 T01520097,KRMY,2023-06-06T07:15:00Z,42.25,-84.95,15.2,9.7,260,3,,10.0,29.958662,,,TRUE,TRUE,,,,,,,SCT,8500,,,,,,,VFR,,,,,,,,,,,,SPECI,285.0
KRMN 060715Z AUTO 00000KT 10SM CLR 13/09 A2988 RMK AO2 T01280090,KRMN,2023-06-06T07:15:00Z,38.4,-77.45,12.8,9.0,0,0,,10.0,29.878937,,,TRUE,TRUE,,,,,,,CLR,,,,,,,,VFR,,,,,,,,,,,,METAR,50.0
KRLD 060715Z AUTO 30003KT 10SM CLR 16/06 A2987 RMK AO2 T01630057,KRLD,2023-06-06T07:15:00Z,46.3,-119.3,16.3,5.7,300,3,,10.0,29.870079,,,TRUE,TRUE,,,,,,,CLR,,,,,,,,VFR,,,,,,,,,,,,SPECI,118.0
KRKW 060715Z AUTO 32003KT 9SM FEW045 17/16 A2996 RMK A01,KRKW,2023-06-06T07:15:00Z,35.92,-84.68,17.0,16.0,320,3,,9.0,29.958662,,,TRUE,TRUE,,,,,,,FEW,4500,,,,,,,VFR,,,,,,,,,,,,SPECI,505.0
KRKR 060715Z AUTO 00000KT 10SM CLR 20/18 A2996 RMK AO2,KRKR,2023-06-06T07:15:00Z,35.02,-94.62,20.0,18.0,0,0,,10.0,29.958662,,,TRUE,TRUE,,,,,,,CLR,,,,,,,,VFR,,,,,,,,,,,,METAR,136.0
KRGK 060715Z AUTO 00000KT 10SM CLR 19/17 A3000 RMK AO2,KRGK,2023-06-06T07:15:00Z,44.58,-92.48,19.0,17.0,0,0,,10.0,30.0,,,TRUE,TRUE,,,,,,,CLR,,,,,,,,VFR,,,,,,,,,,,,METAR,238.0
KRGA 060715Z AUTO 08003KT 10SM CLR 13/13 A2999 RMK AO2,KRGA,2023-06-06T07:15:00Z,37.63,-84.33,13.0,13.0,80,3,,10.0,29.991142,,,TRUE,TRUE,,,,,,,CLR,,,,,,,,VFR,,,,,,,,,,,,METAR,301.0
KRFI 060715Z AUTO 00000KT 10SM CLR 21/18 A2993 RMK AO2 T02120182,KRFI,2023-06-06T07:15:00Z,32.15,-94.85,21.2,18.2,0,0,,10.0,29.929134,,,TRUE,TRUE,,,,,,,CLR,,,,,,,,VFR,,,,,,,,,,,,SPECI,133.0
KREG 060715Z AUTO 00000KT 10SM CLR 19/19 A2992 RMK AO2 T01930186,KREG,2023-06-06T07:15:00Z,30.17,-90.93,19.3,18.6,0,0,,10.0,29.920275,,,TRUE,TRUE,,,,,,,CLR,,,,,,,,VFR,,,,,,,,,,,,METAR,3.0
KRDK 060715Z AUTO 22003KT 10SM FEW036 FEW044 16/15 A3005 RMK AO2,KRDK,2023-06-06T07:15:00Z,41.02,-95.27,16.0,15.0,220,3,,10.0,30.050198,,,TRUE,TRUE,,,,,,,FEW,3600,FEW,4400,,,,,VFR,,,,,,,,,,,,METAR,317.0
KRCX 060715Z AUTO 02003KT 3SM BR SCT050 17/17 A3007 RMK AO2 T01730173,KRCX,2023-06-06T07:15:00Z,45.5,-91.0,17.3,17.3,20,3,,3.0,30.070866,,,TRUE,TRUE,,,,,,BR,SCT,5000,,,,,,,MVFR,,,,,,,,,,,,METAR,373.0
KRCV 060715Z AUTO 26006KT 10SM SCT110 08/07 A3031 RMK AO2 T00810065,KRCV,2023-06-06T07:15:00Z,37.72,-106.35,8.1,6.5,260,6,,10.0,30.31004,,,TRUE,TRUE,,,,,,,SCT,11000,,,,,,,VFR,,,,,,,,,,,,METAR,2418.0
KRCR 060715Z AUTO 00000KT 10SM CLR 14/09 A3000 RMK AO2,KRCR,2023-06-06T07:15:00Z,41.07,-86.18,14.0,9.0,0,0,,10.0,30.0,,,TRUE,TRUE,,,,,,,CLR,,,,,,,,VFR,,,,,,,,,,,,METAR,240.0
KRCM 060715Z AUTO 00000KT 10SM SCT110 17/11 A3003 RMK AO2,KRCM,2023-06-06T07:15:00Z,38.78,-93.8,17.0,11.0,0,0,,10.0,30.029528,,,TRUE,TRUE,,,,,,,SCT,11000,,,,,,,VFR,,,,,,,,,,,,METAR,242.0
KRCE 060715Z AUTO 32005KT 10SM FEW050 FEW055 19/17 A3000 RMK AO2,KRCE,2023-06-06T07:15:00Z,35.48,-97.82,19.0,17.0,320,5,,10.0,30.0,,,TRUE,TRUE,,,,,,,FEW,5000,FEW,5500,,,,,VFR,,,,,,,,,,,,METAR,412.0
KRBW 060715Z AUTO 00000KT 10SM CLR 16/15 A2996 RMK AO2 LTG DSNT N AND NW,KRBW,2023-06-06T07:15:00Z,32.92,-80.63,16.0,15.0,0,0,,10.0,29.958662,,,TRUE,TRUE,,,,,,,CLR,,,,,,,,VFR,,,,,,,,,,,,METAR,30.0
KRBO 060715Z AUTO 00000KT 10SM CLR A2991 RMK AO2,KRBO,2023-06-06T07:15:00Z,27.78,-97.68,,,0,0,,10.0,29.911417,,,TRUE,TRUE,,,,,,,CLR,,,,,,,,VFR,,,,,,,,,,,,SPECI,24.0
KRAW 060715Z AUTO 00000KT 10SM CLR 15/09 A3004 RMK AO2,KRAW,2023-06-06T07:15:00Z,38.35,-93.35,15.0,9.0,0,0,,10.0,30.041338,,,TRUE,TRUE,,,,,,,CLR,,,,,,,,VFR,,,,,,,,,,,,METAR,285.0
KRAS 060715Z AUTO 00000KT 10SM CLR 25/21 A2991 RMK AO2 T02500211,KRAS,2023-06-06T07:15:00Z,27.82,-97.08,25.0,21.1,0,0,,10.0,29.911417,,,TRUE,TRUE,,,,,,,CLR,,,,,,,,VFR,,,,,,,,,,,,SPECI,3.0
KQVF 060715Z AUTO 18004KT 9999 FEW015 BKN022 BKN090 28/25 A3006 RMK AO2 CIG 022V085 SLP182 WND DATA ESTMD,KQVF,2023-06-06T07:15:00Z,,,28.0,25.0,180,4,,6.21,30.059055,1018.2,,TRUE,TRUE,,,,,,,FEW,1500,BKN,2200,BKN,9000,,,MVFR,,,,,,,,,,,,SPECI,
KQOA 060715Z AUTO 08010KT 2400 RA BR BKN002 OVC026 21/20 A2997 RMK AO2 VIS 0600V2400 RAB0655 CIG 002V022 BKN V SCT SLP111 PNO FZRANO TSNO $,KQOA,2023-06-06T07:15:00Z,,,21.0,20.0,80,10,,1.49,29.970472,1011.1,,TRUE,TRUE,TRUE,,TRUE,TRUE,,RA BR,BKN,200,OVC,2600,,,,,LIFR,,,,,,,,,,,,SPECI,
KPZZ 060715Z AUTO 09004KT 10SM 25/20 A2991 RMK A01,KPZZ,2023-06-06T07:15:00Z,28.43,-91.03,25.0,20.0,90,4,,10.0,29.911417,,,TRUE,TRUE,,,,,,,,,,,,,,,,,,,,,,,,,,,SPECI,25.0
KPZQ 060715Z AUTO 04003KT 10SM CLR 14/11 A3003 RMK AO2 T01420113,KPZQ,2023-06-06T07:15:00Z,45.4,-83.82,14.2,11.3,40,3,,10.0,30.029528,,,TRUE,TRUE,,,,,,,CLR,,,,,,,,VFR,,,,,,,,,,,,METAR,199.0
KPYX 060715Z AUTO 33004KT 10SM SCT080 12/10 A3011 RMK AO2 T01180099,KPYX,2023-06-06T07:15:00Z,36.42,-100.75,11.8,9.9,330,4,,10.0,30.109253,,,TRUE,TRUE,,,,,,,SCT,8000,,,,,,,VFR,,,,,,,,,,,,METAR,890.0
KPXE 060715Z AUTO 21003KT 10SM CLR 17/17 A2995 RMK AO2 T01730173,KPXE,2023-06-06T07:15:00Z,32.52,-83.77,17.3,17.3,210,3,,10.0,29.949802,,,TRUE,TRUE,,,,,,,CLR,,,,,,,,VFR,,,,,,,,,,,,METAR,126.0
KPWD 060715Z AUTO 15008KT 10SM CLR 20/16 A2996 RMK AO2,KPWD,2023-06-06T07:15:00Z,48.78,-104.52,20.0,16.0,150,8,,10.0,29.958662,,,TRUE,TRUE,,,,,,,CLR,,,,,,,,VFR,,,,,,,,,,,,METAR,690.0
KPWC 060715Z AUTO 15004KT 7SM SCT110 16/13 A3011 RMK AO2,KPWC,2023-06-06T07:15:00Z,46.72,-94.38,16.0,13.0,150,4,,7.0,30.109253,,,TRUE,TRUE,,,,,,,SCT,11000,,,,,,,VFR,,,,,,,,,,,,METAR,394.0
KPVW 060715Z AUTO 00000KT 10SM CLR 15/14 A3012 RMK AO2 T01460136,KPVW,2023-06-06T07:15:00Z,34.17,-101.72,14.6,13.6,0,0,,10.0,30.121063,,,TRUE,TRUE,,,,,,,CLR,,,,,,,,VFR,,,,,,,,,,,,SPECI,1029.0
KPVJ 060715Z AUTO 31003KT 10SM CLR 19/16 A2997 RMK AO2 T01920155,KPVJ,2023-06-06T07:15:00Z,34.72,-97.22,19.2,15.5,310,3,,10.0,29.970472,,,TRUE,TRUE,,,,,,,CLR,,,,,,,,VFR,,,,,,,,,,,,SPECI,287.0
KPVF 060715Z AUTO 33003KT 10SM 17/12 A2986 RMK AO1,KPVF,2023-06-06T07:15:00Z,38.72,-120.75,17.0,12.0,330,3,,10.0,29.861221,,,TRUE,TRUE,,,,,,,,,,,,,,,,,,,,,,,,,,,METAR,788.0
KPVE 060715Z AUTO 00000KT 2SM BR CLR 18/18 A2994 RMK A01,KPVE,2023-06-06T07:15:00Z,35.65,-88.2,18.0,18.0,0,0,,2.0,29.940945,,,TRUE,TRUE,,,,,,BR,CLR,,,,,,,,IFR,,,,,,,,,,,,SPECI,146.0
KPVB 060715Z AUTO 00000KT 10SM CLR 20/08 A3002 RMK AO1 T01990084,KPVB,2023-06-06T07:15:00Z,42.68,-90.43,19.9,8.4,0,0,,10.0,30.02067,,,TRUE,TRUE,,,,,,,CLR,,,,,,,,VFR,,,,,,,,,,,,SPECI,311.0
KPUJ 060715Z AUTO 00000KT 10SM CLR 20/16 A2996 RMK AO2 LTG DSNT NE,KPUJ,2023-06-06T07:15:00Z,33.92,-84.93,20.0,16.0,0,0,,10.0,29.958662,,,TRUE,TRUE,,,,,,,CLR,,,,,,,,VFR,,,,,,,,,,,,METAR,385.0
KPTT 060715Z AUTO 00000KT 10SM CLR 17/17 A3007 RMK AO2 T01700166,KPTT,2023-06-06T07:15:00Z,37.7,-98.75,17.0,16.6,0,0,,10.0,30.070866,,,TRUE,TRUE,,,,,,,CLR,,,,,,,,VFR,,,,,,,,,,,,METAR,594.0
KPTS 060715Z AUTO 00000KT 10SM CLR 19/17 A3000 RMK AO2 T01890170 PWINO,KPTS,2023-06-06T07:15:00Z,37.45,-94.73,18.9,17.0,0,0,,10.0,30.0,,,TRUE,TRUE,,,,,TRUE,,CLR,,,,,,,,VFR,,,,,,,,,,,,METAR,286.0
KPTD 060715Z AUTO 00000KT 8SM SCT025 BKN029 OVC034 11/09 A2975 RMK AO2,KPTD,2023-06-06T07:15:00Z,44.68,-74.95,11.0,9.0,0,0,,8.0,29.749016,,,TRUE,TRUE,,,,,,,SCT,2500,BKN,2900,OVC,3400,,,MVFR,,,,,,,,,,,,METAR,144.0
KPTB 060715Z AUTO 00000KT 10SM OVC070 15/14 A2989 RMK AO2 T01460135,KPTB,2023-06-06T07:15:00Z,37.17,-77.52,14.6,13.5,0,0,,10.0,29.890747,,,TRUE,TRUE,,,,,,,OVC,7000,,,,,,,VFR,,,,,,,,,,,,METAR,56.0
KPSO 060715Z AUTO 06004KT 10SM SCT100 10/05 A3028 RMK AO2 T00960052,KPSO,2023-06-06T07:15:00Z,37.28,-107.05,9.6,5.2,60,4,,10.0,30.280512,,,TRUE,TRUE,,,,,,,SCT,10000,,,,,,,VFR,,,,,,,,,,,,METAR,2332.0
KPSN 060715Z AUTO 02008KT 10SM FEW050 SCT060 BKN120 20/19 A2992 RMK AO2,KPSN,2023-06-06T07:15:00Z,31.78,-95.7,20.0,19.0,20,8,,10.0,29.920275,,,TRUE,TRUE,,,,,,,FEW,5000,SCT,6000,BKN,12000,,,VFR,,,,,,,,,,,,SPECI,124.0
KPSK 060715Z AUTO 00000KT 10SM OVC045 11/10 A2997 RMK AO2 T01070097,KPSK,2023-06-06T07:15:00Z,37.13,-80.67,10.7,9.7,0,0,,10.0,29.970472,,,TRUE,TRUE,,,,,,,OVC,4500,,,,,,,VFR,,,,,,,,,,,,METAR,629.0
KPRS 060715Z AUTO 05006KT 10SM CLR 25/14 A3004 RMK AO2 LTG DSNT W T02500136,KPRS,2023-06-06T07:15:00Z,29.63,-104.35,25.0,13.6,50,6,,10.0,30.041338,,,TRUE,TRUE,,,,,,,CLR,,,,,,,,VFR,,,,,,,,,,,,METAR,890.0
KPRO 060715Z AUTO 00000KT 7SM CLR 18/16 A3004 RMK AO2 T01780157,KPRO,2023-06-06T07:15:00Z,41.83,-94.17,17.8,15.7,0,0,,7.0,30.041338,,,TRUE,TRUE,,,,,,,CLR,,,,,,,,VFR,,,,,,,,,,,,METAR,308.0
KPRG 060715Z AUTO 00000KT 7SM CLR 13/09 A3002 RMK AO2 T01320085,KPRG,2023-06-06T07:15:00Z,39.7,-87.67,13.2,8.5,0,0,,7.0,30.02067,,,TRUE,TRUE,,,,,,,CLR,,,,,,,,VFR,,,,,,,,,,,,METAR,197.0
KPPQ 060715Z AUTO 29003KT 10SM CLR 14/13 A3004 RMK AO2 T01360126,KPPQ,2023-06-06T07:15:00Z,39.63,-90.78,13.6,12.6,290,3,,10.0,30.041338,,,TRUE,TRUE,,,,,,,CLR,,,,,,,,VFR,,,,,,,,,,,,METAR,215.0
KPPO 060715Z AUTO 00000KT 10SM CLR 15/10 A3001 RMK AO2 T01530102,KPPO,2023-06-06T07:15:00Z,41.57,-86.73,15.3,10.2,0,0,,10.0,30.008858,,,TRUE,TRUE,,,,,,,CLR,,,,,,,,VFR,,,,,,,,,,,,SPECI,242.0
KPPA 060715Z AUTO 30004KT 10SM 16/15 A3014 RMK AO2 T01620145,KPPA,2023-06-06T07:15:00Z,35.62,-101.0,16.2,14.5,300,4,,10.0,30.138779,,,TRUE,TRUE,,,,,,,,,,,,,,,,,,,,,,,,,,,METAR,989.0
KPOY 060715Z AUTO 10004KT 10SM CLR 17/07 A3001 RMK AO2,KPOY,2023-06-06T07:15:00Z,44.87,-108.8,17.0,7.0,100,4,,10.0,30.008858,,,TRUE,TRUE,,,,,,,CLR,,,,,,,,VFR,,,,,,,,,,,,METAR,1547.0
KPOV 060715Z AUTO 27003KT 10SM CLR 11/07 A2993 RMK AO2 T01140065 PWINO,KPOV,2023-06-06T07:15:00Z,41.22,-81.25,11.4,6.5,270,3,,10.0,29.929134,,,TRUE,TRUE,,,,,TRUE,,CLR,,,,,,,,VFR,,,,,,,,,,,,METAR,363.0
KPO1 060715Z AUTO 13009KT 10SM CLR 22/16 A2992 RMK AO2,KPO1,2023-06-06T07:15:00Z,48.13,-105.17,22.0,16.0,130,9,,10.0,29.920275,,,TRUE,TRUE,,,,,,,CLR,,,,,,,,VFR,,,,,,,,,,,,SPECI,621.0
KPNT 060715Z AUTO 00000KT 10SM CLR 15/06 A3002 RMK AO2 T01520061,KPNT,2023-06-06T07:15:00Z,40.92,-88.62,15.2,6.1,0,0,,10.0,30.02067,,,TRUE,TRUE,,,,,,,CLR,,,,,,,,VFR,,,,,,,,,,,,METAR,199.0
KPNM 060715Z AUTO 04003KT 7SM OVC095 17/14 A3006 RMK AO2,KPNM,2023-06-06T07:15:00Z,45.53,-93.6,17.0,14.0,40,3,,7.0,30.059055,,,TRUE,TRUE,,,,,,,OVC,9500,,,,,,,VFR,,,,,,,,,,,,METAR,298.0
KPMV 060715Z AUTO 00000KT 10SM CLR 18/16 A3006 RMK AO2 T01810156,KPMV,2023-06-06T07:15:00Z,40.95,-95.92,18.1,15.6,0,0,,10.0,30.059055,,,TRUE,TRUE,,,,,,,CLR,,,,,,,,VFR,,,,,,,,,,,,SPECI,365.0
KPMU 060715Z AUTO 00000KT 10SM CLR 18/17 A2994 RMK AO2,KPMU,2023-06-06T07:15:00Z,34.37,-89.9,18.0,17.0,0,0,,10.0,29.940945,,,TRUE,TRUE,,,,,,,CLR,,,,,,,,VFR,,,,,,,,,,,,SPECI,67.0
KPLU 060715Z AUTO 00000KT 10SM CLR 12/03 A3002 RMK AO2,KPLU,2023-06-06T07:15:00Z,47.1,-122.28,12.0,3.0,0,0,,10.0,30.02067,,,TRUE,TRUE,,,,,,,CLR,,,,,,,,VFR,,,,,,,,,,,,METAR,164.0
KPLR 060715Z AUTO 00000KT 5SM BR BKN044 BKN050 19/19 A2996 RMK A01,KPLR,2023-06-06T07:15:00Z,33.57,-86.25,19.0,19.0,0,0,,5.0,29.958662,,,TRUE,TRUE,,,,,,BR,BKN,4400,BKN,5000,,,,,MVFR,,,,,,,,,,,,METAR,145.0
KPLD 060715Z AUTO 00000KT 7SM CLR 13/06 A2998 RMK AO2,KPLD,2023-06-06T07:15:00Z,40.45,-84.98,13.0,6.0,0,0,,7.0,29.97933,,,TRUE,TRUE,,,,,,,CLR,,,,,,,,VFR,,,,,,,,,,,,METAR,282.0
KPKV 060715Z AUTO 36003KT 10SM CLR 21/20 A2991 RMK AO2 T02120200,KPKV,2023-06-06T07:15:00Z,28.65,-96.68,21.2,20.0,360,3,,10.0,29.911417,,,TRUE,TRUE,,,,,,,CLR,,,,,,,,VFR,,,,,,,,,,,,METAR,8.0
KPJC 060715Z AUTO 00000KT 7SM CLR 07/07 A2993 RMK AO2,KPJC,2023-06-06T07:15:00Z,40.8,-80.17,7.0,7.0,0,0,,7.0,29.929134,,,TRUE,TRUE,,,,,,,CLR,,,,,,,,VFR,,,,,,,,,,,,METAR,273.0
KPIM 060715Z AUTO 00000KT 10SM CLR 17/16 A2996 RMK AO2 T01740160,KPIM,2023-06-06T07:15:00Z,32.83,-84.88,17.4,16.0,0,0,,10.0,29.958662,,,TRUE,TRUE,,,,,,,CLR,,,,,,,,VFR,,,,,,,,,,,,SPECI,274.0
KPHT 060715Z AUTO 03004KT 10SM 17/14 A2995 RMK A01,KPHT,2023-06-06T07:15:00Z,36.33,-88.38,17.0,14.0,30,4,,10.0,29.949802,,,TRUE,TRUE,,,,,,,,,,,,,,,,,,,,,,,,,,,SPECI,172.0
KPHN 060715Z AUTO 00000KT 10SM CLR 09/08 A2993 RMK AO2,KPHN,2023-06-06T07:15:00Z,42.92,-82.52,9.0,8.0,0,0,,10.0,29.929134,,,TRUE,TRUE,,,,,,,CLR,,,,,,,,VFR,,,,,,,,,,,,SPECI,195.0
KPEZ 060715Z AUTO 00000KT 10SM CLR 20/19 A2993 RMK AO2 T02000191,KPEZ,2023-06-06T07:15:00Z,28.95,-98.52,20.0,19.1,0,0,,10.0,29.929134,,,TRUE,TRUE,,,,,,,CLR,,,,,,,,VFR,,,,,,,,,,,,METAR,126.0
KPEX 060715Z AUTO 08004KT 10SM SCT120 20/17 A3004 RMK AO2,KPEX,2023-06-06T07:15:00Z,45.37,-94.73,20.0,17.0,80,4,,10.0,30.041338,,,TRUE,TRUE,,,,,,,SCT,12000,,,,,,,VFR,,,,,,,,,,,,SPECI,359.0
KPEQ 060715Z AUTO 06005KT 10SM CLR 22/13 A3007 RMK AO2 T02150131,KPEQ,2023-06-06T07:15:00Z,31.38,-103.52,21.5,13.1,60,5,,10.0,30.070866,,,TRUE,TRUE,,,,,,,CLR,,,,,,,,VFR,,,,,,,,,,,,METAR,794.0
KPEA 060715Z AUTO 00000KT 10SM CLR 17/15 A3003 RMK AO2 T01660149,KPEA,2023-06-06T07:15:00Z,41.4,-92.95,16.6,14.9,0,0,,10.0,30.029528,,,TRUE,TRUE,,,,,,,CLR,,,,,,,,VFR,,,,,,,,,,,,METAR,264.0
KPCZ 060715Z AUTO 05005KT 7SM SCT080 BKN095 20/12 A3005 RMK AO2 T01970117,KPCZ,2023-06-06T07:15:00Z,44.33,-89.02,19.7,11.7,50,5,,7.0,30.050198,,,TRUE,TRUE,,,,,,,SCT,8000,BKN,9500,,,,,VFR,,,,,,,,,,,,METAR,248.0
KPCW 060715Z AUTO 24005KT 10SM FEW038 FEW055 OVC095 17/09 A2993 RMK AO2,KPCW,2023-06-06T07:15:00Z,41.52,-82.87,17.0,9.0,240,5,,10.0,29.929134,,,TRUE,TRUE,,,,,,,FEW,3800,FEW,5500,OVC,9500,,,VFR,,,,,,,,,,,,METAR,179.0
KPCM 060715Z AUTO 08004KT 10SM BKN090 23/21 A2997 RMK AO2,KPCM,2023-06-06T07:15:00Z,28.0,-82.17,23.0,21.0,80,4,,10.0,29.970472,,,TRUE,TRUE,,,,,,,BKN,9000,,,,,,,VFR,,,,,,,,,,,,METAR,43.0
KPBX 060715Z AUTO 00000KT 10SM CLR 13/13 A2998 RMK AO2 T01340134,KPBX,2023-06-06T07:15:00Z,37.57,-82.57,13.4,13.4,0,0,,10.0,29.97933,,,TRUE,TRUE,,,,,,,CLR,,,,,,,,VFR,,,,,,,,,,,,SPECI,447.0
KPAN 060715Z AUTO 00000KT 10SM CLR 18/M09 A3003 RMK AO2 PWINO TSNO,KPAN,2023-06-06T07:15:00Z,34.25,-111.33,18.0,-9.0,0,0,,10.0,30.029528,,,TRUE,TRUE,,,TRUE,,TRUE,,CLR,,,,,,,,VFR,,,,,,,,,,,,METAR,1575.0
KP52 060715Z AUTO 20006KT 10SM CLR 20/M09 A2991 RMK AO2,KP52,2023-06-06T07:15:00Z,34.73,-112.03,20.0,-9.0,200,6,,10.0,29.911417,,,TRUE,TRUE,,,,,,,CLR,,,,,,,,VFR,,,,,,,,,,,,METAR,1085.0
KP08 060715Z AUTO 15005KT 10SM CLR 23/M08 A2982 RMK AO2,KP08,2023-06-06T07:15:00Z,32.93,-111.43,23.0,-8.0,150,5,,10.0,29.819881,,,TRUE,TRUE,,,,,,,CLR,,,,,,,,VFR,,,,,,,,,,,,METAR,477.0
KOZW 060715Z AUTO 01004KT 10SM SCT060 15/12 A2995 RMK AO2 T01460120,KOZW,2023-06-06T07:15:00Z,42.62,-83.98,14.6,12.0,10,4,,10.0,29.949802,,,TRUE,TRUE,,,,,,,SCT,6000,,,,,,,VFR,,,,,,,,,,,,METAR,288.0
KOZS 060715Z AUTO 00000KT 10SM CLR 17/08 A3004 RMK AO2,KOZS,2023-06-06T07:15:00Z,37.97,-92.68,17.0,8.0,0,0,,10.0,30.041338,,,TRUE,TRUE,,,,,,,CLR,,,,,,,,VFR,,,,,,,,,,,,METAR,321.0
KOZA 060715Z AUTO 31005KT 10SM CLR 17/15 A3007 RMK AO2,KOZA,2023-06-06T07:15:00Z,30.73,-101.2,17.0,15.0,310,5,,10.0,30.070866,,,TRUE,TRUE,,,,,,,CLR,,,,,,,,VFR,,,,,,,,,,,,SPECI,721.0
KOYM 060715Z AUTO 25003KT 10SM SCT090 BKN110 11/05 A2993 RMK AO2 PWINO,KOYM,2023-06-06T07:15:00Z,41.42,-78.5,11.0,5.0,250,3,,10.0,29.929134,,,TRUE,TRUE,,,,,TRUE,,SCT,9000,BKN,11000,,,,,VFR,,,,,,,,,,,,METAR,582.0
KOXV 060715Z AUTO 19005KT 8SM CLR 18/15 A3002 RMK AO2,KOXV,2023-06-06T07:15:00Z,41.28,-93.12,18.0,15.0,190,5,,8.0,30.02067,,,TRUE,TRUE,,,,,,,CLR,,,,,,,,VFR,,,,,,,,,,,,SPECI,280.0
KOXI 060715Z AUTO 00000KT 10SM CLR 12/08 A3000 RMK AO1,KOXI,2023-06-06T07:15:00Z,41.33,-86.67,12.0,8.0,0,0,,10.0,30.0,,,TRUE,TRUE,,,,,,,CLR,,,,,,,,VFR,,,,,,,,,,,,SPECI,208.0
KOWX 060715Z AUTO 20003KT 10SM BKN085 14/07 A2998 RMK AO1,KOWX,2023-06-06T07:15:00Z,41.03,-83.98,14.0,7.0,200,3,,10.0,29.97933,,,TRUE,TRUE,,,,,,,BKN,8500,,,,,,,VFR,,,,,,,,,,,,METAR,232.0
KOWI 060715Z AUTO 01003KT 7SM SCT038 BKN046 BKN055 17/17 A3002 RMK AO2 PWINO,KOWI,2023-06-06T07:15:00Z,38.53,-95.25,17.0,17.0,10,3,,7.0,30.02067,,,TRUE,TRUE,,,,,TRUE,,SCT,3800,BKN,4600,BKN,5500,,,VFR,,,,,,,,,,,,SPECI,292.0
KOVL 060715Z AUTO 06003KT 10SM CLR 22/15 A3000 RMK AO2,KOVL,2023-06-06T07:15:00Z,44.78,-95.03,22.0,15.0,60,3,,10.0,30.0,,,TRUE,TRUE,,,,,,,CLR,,,,,,,,VFR,,,,,,,,,,,,METAR,329.0
KOUN 060715Z AUTO 35005KT 10SM CLR 18/15 A2998 RMK AO2 T01820153,KOUN,2023-06-06T07:15:00Z,35.25,-97.47,18.2,15.3,350,5,,10.0,29.97933,,,TRUE,TRUE,,,,,,,CLR,,,,,,,,VFR,,,,,,,,,,,,METAR,359.0
KOSC 060715Z AUTO 03010KT 10SM SCT080 17/09 A2998 RMK AO2 T01700090,KOSC,2023-06-06T07:15:00Z,44.45,-83.4,17.0,9.0,30,10,,10.0,29.97933,,,TRUE,TRUE,,,,,,,SCT,8000,,,,,,,VFR,,,,,,,,,,,,METAR,191.0
KOSA 060715Z AUTO 26007KT 10SM CLR 21/19 A2994 RMK AO2 T02050186,KOSA,2023-06-06T07:15:00Z,33.1,-94.97,20.5,18.6,260,7,,10.0,29.940945,,,TRUE,TRUE,,,,,,,CLR,,,,,,,,VFR,,,,,,,,,,,,METAR,108.0
KORS 060715Z AUTO 00000KT 10SM OVC050 16/08 A3003 RMK AO2,KORS,2023-06-06T07:15:00Z,48.7,-122.92,16.0,8.0,0,0,,10.0,30.029528,,,TRUE,TRUE,,,,,,,OVC,5000,,,,,,,VFR,,,,,,,,,,,,METAR,7.0
KORK 060715Z AUTO 07003KT 10SM FEW060 OVC075 22/20 A2996 RMK AO2,KORK,2023-06-06T07:15:00Z,34.83,-92.25,22.0,20.0,70,3,,10.0,29.958662,,,TRUE,TRUE,,,,,,,FEW,6000,OVC,7500,,,,,VFR,,,,,,,,,,,,METAR,166.0
KORG 060715Z AUTO 00000KT 10SM CLR 22/20 A2993 RMK AO2 T02180203,KORG,2023-06-06T07:15:00Z,30.07,-93.8,21.8,20.3,0,0,,10.0,29.929134,,,TRUE,TRUE,,,,,,,CLR,,,,,,,,VFR,,,,,,,,,,,,METAR,2.0
KOQN 060715Z AUTO 00000KT 10SM CLR 13/05 A2982 RMK AO2,KOQN,2023-06-06T07:15:00Z,39.98,-75.58,13.0,5.0,0,0,,10.0,29.819881,,,TRUE,TRUE,,,,,,,CLR,,,,,,,,VFR,,,,,,,,,,,,SPECI,141.0
KOPN 060715Z AUTO 00000KT 10SM CLR 18/15 A2996 RMK AO2 LTG DSNT N AND E,KOPN,2023-06-06T07:15:00Z,32.95,-84.27,18.0,15.0,0,0,,10.0,29.958662,,,TRUE,TRUE,,,,,,,CLR,,,,,,,,VFR,,,,,,,,,,,,SPECI,241.0
KOPL 060715Z AUTO 00000KT 10SM CLR 19/18 A2993 RMK AO2 T01890181,KOPL,2023-06-06T07:15:00Z,30.55,-92.1,18.9,18.1,0,0,,10.0,29.929134,,,TRUE,TRUE,,,,,,,CLR,,,,,,,,VFR,,,,,,,,,,,,METAR,22.0
KOOA 060715Z AUTO 00000KT 10SM CLR 20/10 A3003 RMK AO2 T01950095,KOOA,2023-06-06T07:15:00Z,41.23,-92.5,19.5,9.5,0,0,,10.0,30.029528,,,TRUE,TRUE,,,,,,,CLR,,,,,,,,VFR,,,,,,,,,,,,METAR,256.0
KONZ 060715Z AUTO 00000KT 10SM SCT090 17/12 A2993 RMK AO2 T01720117,KONZ,2023-06-06T07:15:00Z,42.1,-83.15,17.2,11.7,0,0,,10.0,29.929134,,,TRUE,TRUE,,,,,,,SCT,9000,,,,,,,VFR,,,,,,,,,,,,SPECI,179.0
KONP 060715Z AUTO 00000KT 06/04 A2998 RMK AO2 PWINO,KONP,2023-06-06T07:15:00Z,44.57,-124.05,6.0,4.0,0,0,,,29.97933,,,TRUE,TRUE,,,,,TRUE,,,,,,,,,,,,,,,,,,,,,,METAR,43.0
KONM 060715Z AUTO 24006KT 10SM -RA SCT044 SCT070 SCT085 16/11 A3013 RMK AO2 T01610113,KONM,2023-06-06T07:15:00Z,34.02,-106.9,16.1,11.3,240,6,,10.0,30.129921,,,TRUE,TRUE,,,,,,-RA,SCT,4400,SCT,7000,SCT,8500,,,VFR,,,,,,,,,,,,METAR,1467.0
KONL 060715Z AUTO 23005KT 10SM CLR 15/14 A3006 RMK AO2 T01500138,KONL,2023-06-06T07:15:00Z,42.47,-98.68,15.0,13.8,230,5,,10.0,30.059055,,,TRUE,TRUE,,,,,,,CLR,,,,,,,,VFR,,,,,,,,,,,,METAR,619.0
KONA 060715Z AUTO 00000KT 10SM OVC110 21/18 A3000 RMK AO2,KONA,2023-06-06T07:15:00Z,44.07,-91.7,21.0,18.0,0,0,,10.0,30.0,,,TRUE,TRUE,,,,,,,OVC,11000,,,,,,,VFR,,,,,,,,,,,,SPECI,200.0
KOMH 060715Z AUTO 22004KT 10SM CLR 11/10 A2991 RMK AO2,KOMH,2023-06-06T07:15:00Z,38.25,-78.05,11.0,10.0,220,4,,10.0,29.911417,,,TRUE,TRUE,,,,,,,CLR,,,,,,,,VFR,,,,,,,,,,,,METAR,136.0
KOLZ 060715Z AUTO 20004KT 10SM CLR 18/11 A3003 RMK A01,KOLZ,2023-06-06T07:15:00Z,42.67,-91.97,18.0,11.0,200,4,,10.0,30.029528,,,TRUE,TRUE,,,,,,,CLR,,,,,,,,VFR,,,,,,,,,,,,METAR,328.0
KOLV 060715Z AUTO 00000KT 10SM BKN060 BKN070 21/19 A2996 RMK A01,KOLV,2023-06-06T07:15:00Z,34.98,-89.78,21.0,19.0,0,0,,10.0,29.958662,,,TRUE,TRUE,,,,,,,BKN,6000,BKN,7000,,,,,VFR,,,,,,,,,,,,METAR,124.0
KOLG 060715Z AUTO 01005KT 7SM CLR 12/11 A3009 RMK AO1,KOLG,2023-06-06T07:15:00Z,46.3,-91.82,12.0,11.0,10,5,,7.0,30.088583,,,TRUE,TRUE,,,,,,,CLR,,,,,,,,VFR,,,,,,,,,,,,METAR,334.0
KOKZ 060715Z AUTO 16004KT 10SM CLR 19/17 A2993 RMK AO2 LTG DSNT NE AND E T01860165,KOKZ,2023-06-06T07:15:00Z,32.97,-82.83,18.6,16.5,160,4,,10.0,29.929134,,,TRUE,TRUE,,,,,,,CLR,,,,,,,,VFR,,,,,,,,,,,,SPECI,128.0
KOKV 060715Z AUTO 29004KT 10SM CLR 11/06 A2988 RMK AO2,KOKV,2023-06-06T07:15:00Z,39.13,-78.15,11.0,6.0,290,4,,10.0,29.878937,,,TRUE,TRUE,,,,,,,CLR,,,,,,,,VFR,,,,,,,,,,,,METAR,213.0
KOKM 060715Z AUTO 30004KT 10SM CLR 20/18 A2997 RMK AO2 T02020175,KOKM,2023-06-06T07:15:00Z,35.67,-95.95,20.2,17.5,300,4,,10.0,29.970472,,,TRUE,TRUE,,,,,,,CLR,,,,,,,,VFR,,,,,,,,,,,,SPECI,215.0
KOJA 060715Z AUTO 35004KT 10SM CLR 18/16 A3004 RMK AO2 T01800162,KOJA,2023-06-06T07:15:00Z,35.55,-98.67,18.0,16.2,350,4,,10.0,30.041338,,,TRUE,TRUE,,,,,,,CLR,,,,,,,,VFR,,,,,,,,,,,,METAR,490.0
KOIN 060715Z AUTO 00000KT 10SM CLR 14/14 A3014 RMK AO1 T01410141,KOIN,2023-06-06T07:15:00Z,39.83,-100.53,14.1,14.1,0,0,,10.0,30.138779,,,TRUE,TRUE,,,,,,,CLR,,,,,,,,VFR,,,,,,,,,,,,METAR,810.0
KOIC 060715Z AUTO 00000KT 10SM SCT065 07/05 A2984 RMK AO2 T00690047,KOIC,2023-06-06T07:15:00Z,42.57,-75.52,6.9,4.7,0,0,,10.0,29.840551,,,TRUE,TRUE,,,,,,,SCT,6500,,,,,,,VFR,,,,,,,,,,,,METAR,311.0
KOGS 060715Z AUTO 00000KT 5SM BR FEW025 SCT032 OVC110 11/11 A2973 RMK AO2,KOGS,2023-06-06T07:15:00Z,44.67,-75.47,11.0,11.0,0,0,,5.0,29.731298,,,TRUE,TRUE,,,,,,BR,FEW,2500,SCT,3200,OVC,11000,,,MVFR,,,,,,,,,,,,METAR,88.0
KOGA 060715Z AUTO 25003KT 10SM SCT075 16/14 A3011 RMK AO2 T01580139,KOGA,2023-06-06T07:15:00Z,41.12,-101.77,15.8,13.9,250,3,,10.0,30.109253,,,TRUE,TRUE,,,,,,,SCT,7500,,,,,,,VFR,,,,,,,,,,,,METAR,991.0
KOEO 060715Z AUTO 02004KT 10SM CLR 17/17 A3007 RMK AO2 T01740174 PWINO,KOEO,2023-06-06T07:15:00Z,45.32,-92.7,17.4,17.4,20,4,,10.0,30.070866,,,TRUE,TRUE,,,,,TRUE,,CLR,,,,,,,,VFR,,,,,,,,,,,,METAR,269.0
KOEL 060715Z AUTO 00000KT 10SM CLR 15/12 A3011 RMK AO1 T01500123,KOEL,2023-06-06T07:15:00Z,39.12,-100.82,15.0,12.3,0,0,,10.0,30.109253,,,TRUE,TRUE,,,,,,,CLR,,,,,,,,VFR,,,,,,,,,,,,METAR,924.0
KOEB 060715Z AUTO 26003KT 10SM CLR 14/09 A2997 RMK AO2 T01380091,KOEB,2023-06-06T07:15:00Z,41.92,-85.05,13.8,9.1,260,3,,10.0,29.970472,,,TRUE,TRUE,,,,,,,CLR,,,,,,,,VFR,,,,,,,,,,,,METAR,291.0
KOCQ 060715Z AUTO 36003KT 10SM CLR 14/13 A3005 RMK AO1 T01410127,KOCQ,2023-06-06T07:15:00Z,44.87,-87.92,14.1,12.7,360,3,,10.0,30.050198,,,TRUE,TRUE,,,,,,,CLR,,,,,,,,VFR,,,,,,,,,,,,METAR,181.0
KOBE 060715Z AUTO 00000KT 9SM FEW023 BKN028 19/19 A2993 RMK AO2,KOBE,2023-06-06T07:15:00Z,27.27,-80.85,19.0,19.0,0,0,,9.0,29.929134,,,TRUE,TRUE,,,,,,,FEW,2300,BKN,2800,,,,,MVFR,,,,,,,,,,,,SPECI,11.0
KOAR 060715Z AUTO 00000KT 10SM OVC010 12/11 A2984 RMK AO2 PWINO,KOAR,2023-06-06T07:15:00Z,36.67,-121.77,12.0,11.0,0,0,,10.0,29.840551,,,TRUE,TRUE,,,,,TRUE,,OVC,1000,,,,,,,MVFR,,,,,,,,,,,,METAR,41.0
KO69 060715Z AUTO 28007KT 10SM OVC015 12/10 A2986 RMK A01,KO69,2023-06-06T07:15:00Z,38.25,-122.6,12.0,10.0,280,7,,10.0,29.861221,,,TRUE,TRUE,,,,,,,OVC,1500,,,,,,,MVFR,,,,,,,,,,,,METAR,26.0
KO32 060715Z AUTO 11008KT 9SM -RA CLR 18/14 A2975 RMK AO2 LTG DSNT S P0000 T01850136 $,KO32,2023-06-06T07:15:00Z,36.67,-119.45,18.5,13.6,110,8,,9.0,29.749016,,,TRUE,TRUE,TRUE,,,,,-RA,CLR,,,,,,,,VFR,,,,,,0.005,,,,,,METAR,117.0
KO22 060715Z AUTO 00000G10KT 10SM FEW047 FEW065 BKN110 18/11 A2977 RMK A01,KO22,2023-06-06T07:15:00Z,38.03,-120.42,18.0,11.0,0,0,10,10.0,29.769686,,,TRUE,TRUE,,,,,,,FEW,4700,FEW,6500,BKN,11000,,,VFR,,,,,,,,,,,,METAR,637.0
KNUQ 060715Z AUTO 00000KT 10SM CLR 17/10 A2980 RMK AO2,KNUQ,2023-06-06T07:15:00Z,37.4,-122.05,17.0,10.0,0,0,,10.0,29.799213,,,TRUE,TRUE,,,,,,,CLR,,,,,,,,VFR,,,,,,,,,,,,SPECI,9.0
KNRN 060715Z AUTO 00000KT 10SM CLR 15/13 A3012 RMK AO2,KNRN,2023-06-06T07:15:00Z,39.85,-99.9,15.0,13.0,0,0,,10.0,30.121063,,,TRUE,TRUE,,,,,,,CLR,,,,,,,,VFR,,,,,,,,,,,,SPECI,726.0
KNOW 060715Z AUTO 21003KT 10SM CLR 11/07 A3004 RMK AO2 T01100068,KNOW,2023-06-06T07:15:00Z,48.13,-123.4,11.0,6.8,210,3,,10.0,30.041338,,,TRUE,TRUE,,,,,,,CLR,,,,,,,,VFR,,,,,,,,,,,,SPECI,3.0
KN79 060715Z AUTO 00000KT 10SM CLR 10/08 A2984 RMK AO2 P0001 T00960076,KN79,2023-06-06T07:15:00Z,,,9.6,7.6,0,0,,10.0,29.840551,,,TRUE,TRUE,,,,,,,CLR,,,,,,,,VFR,,,,,,0.01,,,,,,METAR,
KN38 060715Z AUTO 29005KT 10SM BKN060 OVC080 11/05 A2985 RMK AO2,KN38,2023-06-06T07:15:00Z,41.73,-77.4,11.0,5.0,290,5,,10.0,29.84941,,,TRUE,TRUE,,,,,,,BKN,6000,OVC,8000,,,,,VFR,,,,,,,,,,,,METAR,576.0
KN03 060715Z AUTO 00000KT 10SM BKN120 08/06 A2982 RMK AO2,KN03,2023-06-06T07:15:00Z,42.6,-76.22,8.0,6.0,0,0,,10.0,29.819881,,,TRUE,TRUE,,,,,,,BKN,12000,,,,,,,VFR,,,,,,,,,,,,SPECI,361.0
KMZZ 060715Z AUTO 00000KT 7SM CLR 14/08 A2999 RMK AO2 T01350077,KMZZ,2023-06-06T07:15:00Z,40.48,-85.68,13.5,7.7,0,0,,7.0,29.991142,,,TRUE,TRUE,,,,,,,CLR,,,,,,,,VFR,,,,,,,,,,,,METAR,260.0
KMZH 060715Z AUTO 05003KT 7SM CLR 11/08 A3010 RMK AO2,KMZH,2023-06-06T07:15:00Z,46.42,-92.8,11.0,8.0,50,3,,7.0,30.100393,,,TRUE,TRUE,,,,,,,CLR,,,,,,,,VFR,,,,,,,,,,,,SPECI,331.0
KMYZ 060715Z AUTO 00000KT 10SM CLR 15/15 A3005 RMK AO2,KMYZ,2023-06-06T07:15:00Z,39.85,-96.63,15.0,15.0,0,0,,10.0,30.050198,,,TRUE,TRUE,,,,,,,CLR,,,,,,,,VFR,,,,,,,,,,,,SPECI,388.0
KMWO 060715Z AUTO 34003KT 7SM HZ CLR 10/07 A2998 RMK AO2 T00990073,KMWO,2023-06-06T07:15:00Z,39.53,-84.4,9.9,7.3,340,3,,7.0,29.97933,,,TRUE,TRUE,,,,,,HZ,CLR,,,,,,,,VFR,,,,,,,,,,,,SPECI,197.0
KMWM 060715Z AUTO 18003KT 10SM CLR 21/15 A3001 RMK AO2,KMWM,2023-06-06T07:15:00Z,43.9,-95.1,21.0,15.0,180,3,,10.0,30.008858,,,TRUE,TRUE,,,,,,,CLR,,,,,,,,VFR,,,,,,,,,,,,METAR,427.0
KMWC 060715Z AUTO 04005KT 7SM BKN090 BKN110 18/10 A3004 RMK AO2,KMWC,2023-06-06T07:15:00Z,43.12,-88.03,18.0,10.0,40,5,,7.0,30.041338,,,TRUE,TRUE,,,,,,,BKN,9000,BKN,11000,,,,,VFR,,,,,,,,,,,,METAR,225.0
KMWA 060715Z AUTO 00000KT 10SM CLR 12/09 A3000 RMK AO2 T01220092,KMWA,2023-06-06T07:15:00Z,37.77,-89.02,12.2,9.2,0,0,,10.0,30.0,,,TRUE,TRUE,,,,,,,CLR,,,,,,,,VFR,,,,,,,,,,,,METAR,142.0
KMVE 060715Z AUTO 13004KT 10SM CLR 21/17 A3000 RMK AO2,KMVE,2023-06-06T07:15:00Z,44.97,-95.72,21.0,17.0,130,4,,10.0,30.0,,,TRUE,TRUE,,,,,,,CLR,,,,,,,,VFR,,,,,,,,,,,,METAR,319.0
KMUT 060715Z AUTO 00000KT 10SM CLR 16/12 A3002 RMK AO2,KMUT,2023-06-06T07:15:00Z,41.37,-91.15,16.0,12.0,0,0,,10.0,30.02067,,,TRUE,TRUE,,,,,,,CLR,,,,,,,,VFR,,,,,,,,,,,,METAR,166.0
KMTV 060715Z AUTO 00000KT 1 1/2SM BR VV007 13/12 A2995 RMK AO2 T01320119,KMTV,2023-06-06T07:15:00Z,36.63,-80.02,13.2,11.9,0,0,,1.5,29.949802,,,TRUE,TRUE,,,,,,BR,OVX,0,,,,,,,LIFR,,,,,,,,,,,700,METAR,276.0
KMRJ 060715Z AUTO 00000KT 10SM 20/10 A3004 RMK AO2 PWINO,KMRJ,2023-06-06T07:15:00Z,42.88,-90.23,20.0,10.0,0,0,,10.0,30.041338,,,TRUE,TRUE,,,,,TRUE,,,,,,,,,,,,,,,,,,,,,,METAR,350.0
KMQW 060715Z AUTO 00000KT 10SM CLR 17/16 A2995 RMK AO2 LTG DSNT NE T01720158,KMQW,2023-06-06T07:15:00Z,32.1,-82.88,17.2,15.8,0,0,,10.0,29.949802,,,TRUE,TRUE,,,,,,,CLR,,,,,,,,VFR,,,,,,,,,,,,SPECI,62.0
KMQS 060715Z AUTO 30007KT 10SM CLR 14/04 A2983 RMK AO2,KMQS,2023-06-06T07:15:00Z,39.98,-75.87,14.0,4.0,300,7,,10.0,29.828741,,,TRUE,TRUE,,,,,,,CLR,,,,,,,,VFR,,,,,,,,,,,,METAR,200.0
KMQJ 060715Z AUTO 00000KT 10SM CLR 12/08 A3000 RMK AO1,KMQJ,2023-06-06T07:15:00Z,39.85,-85.9,12.0,8.0,0,0,,10.0,30.0,,,TRUE,TRUE,,,,,,,CLR,,,,,,,,VFR,,,,,,,,,,,,METAR,262.0
KMQB 060715Z AUTO 31003KT 10SM CLR 15/10 A3004 RMK AO2 T01490101,KMQB,2023-06-06T07:15:00Z,40.52,-90.65,14.9,10.1,310,3,,10.0,30.041338,,,TRUE,TRUE,,,,,,,CLR,,,,,,,,VFR,,,,,,,,,,,,SPECI,205.0
KMPZ 060715Z AUTO 00000KT 10SM CLR 13/11 A3003 RMK AO2,KMPZ,2023-06-06T07:15:00Z,40.95,-91.52,13.0,11.0,0,0,,10.0,30.029528,,,TRUE,TRUE,,,,,,,CLR,,,,,,,,VFR,,,,,,,,,,,,METAR,222.0
KMPR 060715Z AUTO 31003KT 10SM CLR 18/16 A3005 RMK AO2 T01790161,KMPR,2023-06-06T07:15:00Z,38.35,-97.68,17.9,16.1,310,3,,10.0,30.050198,,,TRUE,TRUE,,,,,,,CLR,,,,,,,,VFR,,,,,,,,,,,,SPECI,455.0
KMOX 060715Z AUTO 12006KT 10SM CLR 22/15 A3001 RMK AO2,KMOX,2023-06-06T07:15:00Z,45.57,-95.97,22.0,15.0,120,6,,10.0,30.008858,,,TRUE,TRUE,,,,,,,CLR,,,,,,,,VFR,,,,,,,,,,,,METAR,346.0
KMOP 060715Z AUTO 00000KT 10SM OVC075 14/12 A2997 RMK AO2 T01440123,KMOP,2023-06-06T07:15:00Z,43.62,-84.73,14.4,12.3,0,0,,10.0,29.970472,,,TRUE,TRUE,,,,,,,OVC,7500,,,,,,,VFR,,,,,,,,,,,,METAR,229.0
KMNZ 060715Z AUTO 33005KT 10SM CLR 20/19 A2999 RMK AO2 T01980188,KMNZ,2023-06-06T07:15:00Z,31.67,-98.15,19.8,18.8,330,5,,10.0,29.991142,,,TRUE,TRUE,,,,,,,CLR,,,,,,,,VFR,,,,,,,,,,,,METAR,397.0
KMNV 060715Z AUTO 24004KT 3SM BR 18/18 A2994 RMK A01,KMNV,2023-06-06T07:15:00Z,35.55,-84.38,18.0,18.0,240,4,,3.0,29.940945,,,TRUE,TRUE,,,,,,BR,,,,,,,,,,,,,,,,,,,,,SPECI,306.0
KMNI 060715Z AUTO 00000KT 10SM SCT050 16/15 A2994 RMK AO2 LTG DSNT W THRU N,KMNI,2023-06-06T07:15:00Z,33.58,-80.22,16.0,15.0,0,0,,10.0,29.940945,,,TRUE,TRUE,,,,,,,SCT,5000,,,,,,,VFR,,,,,,,,,,,,METAR,29.0
KMNH 060715Z AUTO 19010KT 10SM CLR 08/08 A3025 RMK AO2,KMNH,2023-06-06T07:15:00Z,39.22,-104.65,8.0,8.0,190,10,,10.0,30.250984,,,TRUE,TRUE,,,,,,,CLR,,,,,,,,VFR,,,,,,,,,,,,METAR,2152.0
KMNE 060715Z AUTO 00000KT 10SM CLR 19/18 A2994 RMK AO2,KMNE,2023-06-06T07:15:00Z,32.65,-93.3,19.0,18.0,0,0,,10.0,29.940945,,,TRUE,TRUE,,,,,,,CLR,,,,,,,,VFR,,,,,,,,,,,,METAR,84.0
KMMU 060715Z AUTO 00000KT 10SM BKN050 11/07 A2977 RMK AO2,KMMU,2023-06-06T07:15:00Z,40.78,-74.42,11.0,7.0,0,0,,10.0,29.769686,,,TRUE,TRUE,,,,,,,BKN,5000,,,,,,,VFR,,,,,,,,,,,,SPECI,55.0
KMMI 060715Z AUTO 00000KT 4SM BR BKN002 OVC055 18/18 A2995 RMK A01,KMMI,2023-06-06T07:15:00Z,35.4,-84.57,18.0,18.0,0,0,,4.0,29.949802,,,TRUE,TRUE,,,,,,BR,BKN,200,OVC,5500,,,,,LIFR,,,,,,,,,,,,SPECI,252.0
KMMH 060715Z AUTO 28008G15KT 10SM -RA SCT019 OVC048 09/06 A3008 RMK AO2 T00880058,KMMH,2023-06-06T07:15:00Z,37.62,-118.83,8.8,5.8,280,8,15,10.0,30.079725,,,TRUE,TRUE,,,,,,-RA,SCT,1900,OVC,4800,,,,,VFR,,,,,,,,,,,,METAR,2167.0
KMLJ 060715Z AUTO 00000KT 3SM BR CLR 19/19 A2992 RMK AO2 LTG DSNT NE,KMLJ,2023-06-06T07:15:00Z,33.15,-83.25,19.0,19.0,0,0,,3.0,29.920275,,,TRUE,TRUE,,,,,,BR,CLR,,,,,,,,MVFR,,,,,,,,,,,,SPECI,115.0
KMLE 060715Z AUTO 00000KT 10SM CLR 19/14 A3005 RMK AO2 T01910143,KMLE,2023-06-06T07:15:00Z,41.2,-96.12,19.1,14.3,0,0,,10.0,30.050198,,,TRUE,TRUE,,,,,,,CLR,,,,,,,,VFR,,,,,,,,,,,,METAR,318.0
KMKS 060715Z AUTO 00000KT 10SM CLR 15/15 A2995 RMK AO2 LTG DSNT W AND NW,KMKS,2023-06-06T07:15:00Z,33.18,-80.03,15.0,15.0,0,0,,10.0,29.949802,,,TRUE,TRUE,,,,,,,CLR,,,,,,,,VFR,,,,,,,,,,,,METAR,22.0
KMKN 060715Z AUTO 30003KT 10SM 19/17 A3000 RMK AO2 T01930169,KMKN,2023-06-06T07:15:00Z,31.92,-98.6,19.3,16.9,300,3,,10.0,30.0,,,TRUE,TRUE,,,,,,,,,,,,,,,,,,,,,,,,,,,SPECI,428.0
KMKJ 060715Z AUTO 00000KT 7SM CLR 10/09 A3002 RMK AO2 LTG DSNT SW T00970092,KMKJ,2023-06-06T07:15:00Z,36.88,-81.33,9.7,9.2,0,0,,7.0,30.02067,,,TRUE,TRUE,,,,,,,CLR,,,,,,,,VFR,,,,,,,,,,,,METAR,777.0
KMJQ 060715Z AUTO 21005KT 10SM SCT120 19/15 A3003 RMK AO2 PWINO,KMJQ,2023-06-06T07:15:00Z,43.63,-94.98,19.0,15.0,210,5,,10.0,30.029528,,,TRUE,TRUE,,,,,TRUE,,SCT,12000,,,,,,,VFR,,,,,,,,,,,,METAR,439.0
KMJD 060715Z AUTO 00000KT 9SM CLR 21/21 A2992 RMK AO2,KMJD,2023-06-06T07:15:00Z,30.48,-89.65,21.0,21.0,0,0,,9.0,29.920275,,,TRUE,TRUE,,,,,,,CLR,,,,,,,,VFR,,,,,,,,,,,,METAR,17.0
KMIO 060715Z AUTO 00000KT 10SM BKN050 18/18 A2999 RMK AO2,KMIO,2023-06-06T07:15:00Z,36.92,-94.88,18.0,18.0,0,0,,10.0,29.991142,,,TRUE,TRUE,,,,,,,BKN,5000,,,,,,,VFR,,,,,,,,,,,,SPECI,245.0
KMHR 060715Z AUTO 25009KT 10SM CLR 16/10 A2975 RMK AO2,KMHR,2023-06-06T07:15:00Z,38.55,-121.28,16.0,10.0,250,9,,10.0,29.749016,,,TRUE,TRUE,,,,,,,CLR,,,,,,,,VFR,,,,,,,,,,,,METAR,30.0
KMHP 060715Z AUTO 19003KT 10SM CLR 17/ A2995 RMK AO2 LTG DSNT N T0170////,KMHP,2023-06-06T07:15:00Z,32.37,-82.08,17.0,,190,3,,10.0,29.949802,,,TRUE,TRUE,,,,,,,CLR,,,,,,,,VFR,,,,,,,,,,,,SPECI,60.0
KMHL 060715Z AUTO 00000KT 10SM CLR 15/11 A3005 RMK AO2,KMHL,2023-06-06T07:15:00Z,39.1,-93.2,15.0,11.0,0,0,,10.0,30.050198,,,TRUE,TRUE,,,,,,,CLR,,,,,,,,VFR,,,,,,,,,,,,METAR,236.0
KMGR 060715Z AUTO 00000KT 10SM CLR 19/17 A2996 RMK AO2 T01870173,KMGR,2023-06-06T07:15:00Z,31.08,-83.8,18.7,17.3,0,0,,10.0,29.958662,,,TRUE,TRUE,,,,,,,CLR,,,,,,,,VFR,,,,,,,,,,,,METAR,86.0
KMGN 060715Z AUTO 07006KT 10SM CLR 15/10 A3001 RMK AO2 T01550099,KMGN,2023-06-06T07:15:00Z,45.43,-84.92,15.5,9.9,70,6,,10.0,30.008858,,,TRUE,TRUE,,,,,,,CLR,,,,,,,,VFR,,,,,,,,,,,,METAR,205.0
KMGG 060715Z AUTO 05004KT 10SM BKN120 20/16 A3005 RMK AO2 T01990157,KMGG,2023-06-06T07:15:00Z,45.23,-93.98,19.9,15.7,50,4,,10.0,30.050198,,,TRUE,TRUE,,,,,,,BKN,12000,,,,,,,VFR,,,,,,,,,,,,METAR,310.0
KMFV 060715Z AUTO 00000KT 10SM CLR 15/13 A2986 RMK AO2 T01470127,KMFV,2023-06-06T07:15:00Z,37.63,-75.77,14.7,12.7,0,0,,10.0,29.861221,,,TRUE,TRUE,,,,,,,CLR,,,,,,,,VFR,,,,,,,,,,,,SPECI,13.0
KMEZ 060715Z AUTO 00000KT 7SM CLR 16/16 A2998 RMK AO2 T01630163,KMEZ,2023-06-06T07:15:00Z,34.55,-94.2,16.3,16.3,0,0,,7.0,29.97933,,,TRUE,TRUE,,,,,,,CLR,,,,,,,,VFR,,,,,,,,,,,,METAR,320.0
KMEV 060715Z AUTO 08006KT 10SM SCT047 BKN055 OVC085 14/08 A2997 RMK AO2,KMEV,2023-06-06T07:15:00Z,38.98,-119.75,14.0,8.0,80,6,,10.0,29.970472,,,TRUE,TRUE,,,,,,,SCT,4700,BKN,5500,OVC,8500,,,VFR,,,,,,,,,,,,METAR,1437.0
KMER 060715Z AUTO 33010G16KT 10SM CLR 19/11 A2973 RMK AO1,KMER,2023-06-06T07:15:00Z,37.38,-120.57,19.0,11.0,330,10,16,10.0,29.731298,,,TRUE,TRUE,,,,,,,CLR,,,,,,,,VFR,,,,,,,,,,,,SPECI,58.0
KMDZ 060715Z AUTO 09006KT 10SM SCT080 18/16 A3006 RMK AO2 T01750159 PWINO,KMDZ,2023-06-06T07:15:00Z,45.1,-90.3,17.5,15.9,90,6,,10.0,30.059055,,,TRUE,TRUE,,,,,TRUE,,SCT,8000,,,,,,,VFR,,,,,,,,,,,,METAR,446.0
KMDS 060715Z AUTO 08004KT 10SM 19/19 A3003 RMK AO2,KMDS,2023-06-06T07:15:00Z,44.02,-97.08,19.0,19.0,80,4,,10.0,30.029528,,,TRUE,TRUE,,,,,,,,,,,,,,,,,,,,,,,,,,,METAR,524.0
KMDQ 060715Z AUTO 20004KT 10SM SCT100 SCT120 22/19 A2994 RMK A02 T02240189,KMDQ,2023-06-06T07:15:00Z,34.87,-86.55,22.4,18.9,200,4,,10.0,29.940945,,,TRUE,TRUE,,,,,,,SCT,10000,SCT,12000,,,,,VFR,,,,,,,,,,,,SPECI,221.0
KMCD 060715Z AUTO 04009G14KT 10SM CLR 13/09 A3004 RMK AO2 T01310085,KMCD,2023-06-06T07:15:00Z,45.85,-84.63,13.1,8.5,40,9,14,10.0,30.041338,,,TRUE,TRUE,,,,,,,CLR,,,,,,,,VFR,,,,,,,,,,,,SPECI,228.0
KMCC 060715Z AUTO 13008KT 10SM CLR 16/11 A2977 RMK AO2,KMCC,2023-06-06T07:15:00Z,38.67,-121.4,16.0,11.0,130,8,,10.0,29.769686,,,TRUE,TRUE,,,,,,,CLR,,,,,,,,VFR,,,,,,,,,,,,SPECI,21.0
KMBT 060715Z AUTO 00000KT 10SM OVC080 20/15 A2993 RMK A01,KMBT,2023-06-06T07:15:00Z,35.88,-86.38,20.0,15.0,0,0,,10.0,29.929134,,,TRUE,TRUE,,,,,,,OVC,8000,,,,,,,VFR,,,,,,,,,,,,SPECI,187.0
KMAW 060715Z AUTO 01005KT 10SM CLR 19/08 A2998 RMK AO1,KMAW,2023-06-06T07:15:00Z,36.6,-90.0,19.0,8.0,10,5,,10.0,29.97933,,,TRUE,TRUE,,,,,,,CLR,,,,,,,,VFR,,,,,,,,,,,,METAR,88.0
KMAO 060715Z AUTO 24003KT 10SM CLR 16/16 A2994 RMK AO2 LTG DSNT W,KMAO,2023-06-06T07:15:00Z,34.18,-79.33,16.0,16.0,240,3,,10.0,29.940945,,,TRUE,TRUE,,,,,,,CLR,,,,,,,,VFR,,,,,,,,,,,,METAR,27.0
KMAN 060715Z AUTO 32006KT 10SM CLR 20/09 A2989 RMK A01,KMAN,2023-06-06T07:15:00Z,43.58,-116.52,20.0,9.0,320,6,,10.0,29.890747,,,TRUE,TRUE,,,,,,,CLR,,,,,,,,VFR,,,,,,,,,,,,SPECI,773.0
KM75 060715Z AUTO 09004KT 10SM CLR 18/17 A2988 RMK A01,KM75,2023-06-06T07:15:00Z,48.37,-107.92,18.0,17.0,90,4,,10.0,29.878937,,,TRUE,TRUE,,,,,,,CLR,,,,,,,,VFR,,,,,,,,,,,,SPECI,687.0
KM40 060715Z AUTO 00000KT 3SM BR CLR 18/18 A2996 RMK AO2,KM40,2023-06-06T07:15:00Z,33.87,-88.48,18.0,18.0,0,0,,3.0,29.958662,,,TRUE,TRUE,,,,,,BR,CLR,,,,,,,,MVFR,,,,,,,,,,,,METAR,68.0
KM30 060715Z AUTO 36003KT 10SM CLR 17/08 A2998 RMK AO2 T01650081,KM30,2023-06-06T07:15:00Z,37.18,-88.75,16.5,8.1,360,3,,10.0,29.97933,,,TRUE,TRUE,,,,,,,CLR,,,,,,,,VFR,,,,,,,,,,,,METAR,116.0
KM25 060715Z AUTO 00000KT 10SM CLR 18/10 A2998 RMK AO2 PWINO,KM25,2023-06-06T07:15:00Z,36.77,-88.58,18.0,10.0,0,0,,10.0,29.97933,,,TRUE,TRUE,,,,,TRUE,,CLR,,,,,,,,VFR,,,,,,,,,,,,SPECI,157.0
KM21 060715Z AUTO 00000KT 10SM CLR 16/15 A2997 RMK AO2 T01620151,KM21,2023-06-06T07:15:00Z,37.22,-87.15,16.2,15.1,0,0,,10.0,29.970472,,,TRUE,TRUE,,,,,,,CLR,,,,,,,,VFR,,,,,,,,,,,,METAR,127.0
KM08 060715Z AUTO 00000KT 10SM OVC050 19/17 A2994 RMK A01,KM08,2023-06-06T07:15:00Z,35.22,-89.05,19.0,17.0,0,0,,10.0,29.940945,,,TRUE,TRUE,,,,,,,OVC,5000,,,,,,,VFR,,,,,,,,,,,,SPECI,149.0
KM02 060715Z AUTO 00000KT 10SM OVC070 19/14 A2995 RMK A01,KM02,2023-06-06T07:15:00Z,36.13,-87.43,19.0,14.0,0,0,,10.0,29.949802,,,TRUE,TRUE,,,,,,,OVC,7000,,,,,,,VFR,,,,,,,,,,,,SPECI,268.0
KM01 060715Z AUTO 35004KT 4SM BR CLR 20/20 A2992 RMK AO2 T01990199 $,KM01,2023-06-06T07:15:00Z,35.2,-90.05,19.9,19.9,350,4,,4.0,29.920275,,,TRUE,TRUE,TRUE,,,,,BR,CLR,,,,,,,,MVFR,,,,,,,,,,,,METAR,68.0
KLZZ 060715Z AUTO 34007KT 10SM CLR 20/18 A2993 RMK AO2 T01980180,KLZZ,2023-06-06T07:15:00Z,31.1,-98.2,19.8,18.0,340,7,,10.0,29.929134,,,TRUE,TRUE,,,,,,,CLR,,,,,,,,VFR,,,,,,,,,,,,SPECI,356.0
KLYV 060715Z AUTO 00000KT 10SM CLR 18/15 A3003 RMK AO2,KLYV,2023-06-06T07:15:00Z,43.62,-96.22,18.0,15.0,0,0,,10.0,30.029528,,,TRUE,TRUE,,,,,,,CLR,,,,,,,,VFR,,,,,,,,,,,,METAR,435.0
KLYO 060715Z AUTO 32004KT 10SM CLR 17/16 A3006 RMK AO2 T01700155,KLYO,2023-06-06T07:15:00Z,38.35,-98.23,17.0,15.5,320,4,,10.0,30.059055,,,TRUE,TRUE,,,,,,,CLR,,,,,,,,VFR,,,,,,,,,,,,SPECI,515.0
KLXY 060715Z AUTO 00000KT 10SM CLR 21/19 A2993 RMK AO2 T02100186,KLXY,2023-06-06T07:15:00Z,31.63,-96.52,21.0,18.6,0,0,,10.0,29.929134,,,TRUE,TRUE,,,,,,,CLR,,,,,,,,VFR,,,,,,,,,,,,METAR,164.0
KLXN 060715Z AUTO 00000KT 5SM BR CLR 15/15 A3008 RMK AO2 T01520145,KLXN,2023-06-06T07:15:00Z,40.78,-99.77,15.2,14.5,0,0,,5.0,30.079725,,,TRUE,TRUE,,,,,,BR,CLR,,,,,,,,MVFR,,,,,,,,,,,,METAR,734.0
KLXL 060715Z AUTO 09003KT 10SM SCT080 OVC120 16/14 A3005 RMK AO2,KLXL,2023-06-06T07:15:00Z,45.95,-94.33,16.0,14.0,90,3,,10.0,30.050198,,,TRUE,TRUE,,,,,,,SCT,8000,OVC,12000,,,,,VFR,,,,,,,,,,,,METAR,335.0
KLWB 060715Z AUTO 00000KT 7SM CLR 09/09 A2999 RMK AO2 T00920085,KLWB,2023-06-06T07:15:00Z,37.87,-80.4,9.2,8.5,0,0,,7.0,29.991142,,,TRUE,TRUE,,,,,,,CLR,,,,,,,,VFR,,,,,,,,,,,,METAR,702.0
KLWA 060715Z AUTO 00000KT 10SM CLR 14/14 A2998 RMK AO2 T01410141,KLWA,2023-06-06T07:15:00Z,42.35,-86.25,14.1,14.1,0,0,,10.0,29.97933,,,TRUE,TRUE,,,,,,,CLR,,,,,,,,VFR,,,,,,,,,,,,SPECI,199.0
KLVN 060715Z AUTO 00000KT 10SM BKN090 22/16 A3002 RMK AO2,KLVN,2023-06-06T07:15:00Z,44.63,-93.23,22.0,16.0,0,0,,10.0,30.02067,,,TRUE,TRUE,,,,,,,BKN,9000,,,,,,,VFR,,,,,,,,,,,,SPECI,292.0
KLVL 060715Z AUTO 00000KT 10SM SCT080 17/14 A2989 RMK AO1 T01660144,KLVL,2023-06-06T07:15:00Z,36.78,-77.8,16.6,14.4,0,0,,10.0,29.890747,,,TRUE,TRUE,,,,,,,SCT,8000,,,,,,,VFR,,,,,,,,,,,,METAR,98.0
KLUX 060715Z AUTO 00000KT 10SM TS CLR 18/18 A2992 RMK AO2 LTG DSNT E AND S,KLUX,2023-06-06T07:15:00Z,34.5,-81.95,18.0,18.0,0,0,,10.0,29.920275,,,TRUE,TRUE,,,,,,TS,CLR,,,,,,,,VFR,,,,,,,,,,,,METAR,213.0
KLUV 060715Z AUTO 35003KT 10SM CLR 17/17 A3011 RMK AO2,KLUV,2023-06-06T07:15:00Z,32.75,-101.92,17.0,17.0,350,3,,10.0,30.109253,,,TRUE,TRUE,,,,,,,CLR,,,,,,,,VFR,,,,,,,,,,,,SPECI,910.0
KLUL 060715Z AUTO 00000KT 10SM CLR 19/ A2994 RMK A02 T0191////,KLUL,2023-06-06T07:15:00Z,31.67,-89.17,19.1,,0,0,,10.0,29.940945,,,TRUE,TRUE,,,,,,,CLR,,,,,,,,VFR,,,,,,,,,,,,METAR,74.0
KLUG 060715Z AUTO 00000KT 9SM BKN043 BKN050 19/19 A2994 RMK A01,KLUG,2023-06-06T07:15:00Z,35.52,-86.8,19.0,19.0,0,0,,9.0,29.940945,,,TRUE,TRUE,,,,,,,BKN,4300,BKN,5000,,,,,VFR,,,,,,,,,,,,SPECI,218.0
KLUD 060715Z AUTO 07003KT 10SM CLR 21/18 A2998 RMK AO2 T02120180,KLUD,2023-06-06T07:15:00Z,33.25,-97.58,21.2,18.0,70,3,,10.0,29.97933,,,TRUE,TRUE,,,,,,,CLR,,,,,,,,VFR,,,,,,,,,,,,METAR,319.0
KLUA 060715Z AUTO 00000KT 10SM CLR 08/07 A2991 RMK AO2,KLUA,2023-06-06T07:15:00Z,38.67,-78.5,8.0,7.0,0,0,,10.0,29.911417,,,TRUE,TRUE,,,,,,,CLR,,,,,,,,VFR,,,,,,,,,,,,METAR,273.0
KLRY 060715Z AUTO 09004KT 10SM CLR 20/13 A3006 RMK AO2 PWINO,KLRY,2023-06-06T07:15:00Z,38.62,-94.35,20.0,13.0,90,4,,10.0,30.059055,,,TRUE,TRUE,,,,,TRUE,,CLR,,,,,,,,VFR,,,,,,,,,,,,METAR,272.0
KLRU 060715Z AUTO 10012G19KT 10SM CLR 24/09 A3007 RMK AO2 T02350091,KLRU,2023-06-06T07:15:00Z,32.28,-106.92,23.5,9.1,100,12,19,10.0,30.070866,,,TRUE,TRUE,,,,,,,CLR,,,,,,,,VFR,,,,,,,,,,,,METAR,1355.0
KLRO 060715Z AUTO 00000KT 8SM CLR 17/17 A2994 RMK AO2,KLRO,2023-06-06T07:15:00Z,32.9,-79.78,17.0,17.0,0,0,,8.0,29.940945,,,TRUE,TRUE,,,,,,,CLR,,,,,,,,VFR,,,,,,,,,,,,METAR,3.0
KLRJ 060715Z AUTO 19003KT 10SM CLR 19/17 A3001 RMK AO2,KLRJ,2023-06-06T07:15:00Z,42.77,-96.2,19.0,17.0,190,3,,10.0,30.008858,,,TRUE,TRUE,,,,,,,CLR,,,,,,,,VFR,,,,,,,,,,,,METAR,363.0
KLQK 060715Z AUTO 00000KT 10SM SCT065 SCT075 18/18 A2993 RMK AO2 LTG DSNT E SE AND W T01800180,KLQK,2023-06-06T07:15:00Z,34.82,-82.7,18.0,18.0,0,0,,10.0,29.929134,,,TRUE,TRUE,,,,,,,SCT,6500,SCT,7500,,,,,VFR,,,,,,,,,,,,METAR,291.0
KLOT 060715Z AUTO 00000KT 10SM CLR 19/10 A3002 RMK AO2,KLOT,2023-06-06T07:15:00Z,41.6,-88.1,19.0,10.0,0,0,,10.0,30.02067,,,TRUE,TRUE,,,,,,,CLR,,,,,,,,VFR,,,,,,,,,,,,METAR,205.0
KLOM 060715Z AUTO 00000KT 10SM BKN060 11/07 A2981 RMK AO2 T01120071,KLOM,2023-06-06T07:15:00Z,40.13,-75.27,11.2,7.1,0,0,,10.0,29.811024,,,TRUE,TRUE,,,,,,,BKN,6000,,,,,,,VFR,,,,,,,,,,,,METAR,87.0
KLNQ 060715Z AUTO 00000KT 10SM SCT075 SCT095 23/21 A2992 RMK AO2 T02280207,KLNQ,2023-06-06T07:15:00Z,29.35,-89.43,22.8,20.7,0,0,,10.0,29.920275,,,TRUE,TRUE,,,,,,,SCT,7500,SCT,9500,,,,,VFR,,,,,,,,,,,,SPECI,1.0
KLNP 060715Z AUTO 00000KT 10SM CLR 11/10 A3002 RMK AO2,KLNP,2023-06-06T07:15:00Z,36.98,-82.52,11.0,10.0,0,0,,10.0,30.02067,,,TRUE,TRUE,,,,,,,CLR,,,,,,,,VFR,,,,,,,,,,,,METAR,817.0
KLNN 060715Z AUTO 00000KT 10SM CLR 10/07 A2992 RMK AO1 T01030071,KLNN,2023-06-06T07:15:00Z,41.68,-81.38,10.3,7.1,0,0,,10.0,29.920275,,,TRUE,TRUE,,,,,,,CLR,,,,,,,,VFR,,,,,,,,,,,,METAR,190.0
KLNL 060715Z AUTO 00000KT 1 3/4SM BR BKN065 10/09 A3012 RMK AO2 T01010094,KLNL,2023-06-06T07:15:00Z,46.15,-89.22,10.1,9.4,0,0,,1.75,30.121063,,,TRUE,TRUE,,,,,,BR,BKN,6500,,,,,,,IFR,,,,,,,,,,,,METAR,517.0
KLNC 060715Z AUTO 00000KT 10SM CLR 20/18 A2996 RMK AO2 T01990179,KLNC,2023-06-06T07:15:00Z,32.58,-96.72,19.9,17.9,0,0,,10.0,29.958662,,,TRUE,TRUE,,,,,,,CLR,,,,,,,,VFR,,,,,,,,,,,,SPECI,152.0
KLNA 060715Z AUTO 33003KT 10SM CLR 24/21 A2992 RMK AO2 T02400210,KLNA,2023-06-06T07:15:00Z,26.6,-80.08,24.0,21.0,330,3,,10.0,29.920275,,,TRUE,TRUE,,,,,,,CLR,,,,,,,,VFR,,,,,,,,,,,,SPECI,3.0
KLMS 060715Z AUTO 00000KT 3SM BR CLR 18/18 A2998 RMK AO2,KLMS,2023-06-06T07:15:00Z,,,18.0,18.0,0,0,,3.0,29.97933,,,TRUE,TRUE,,,,,,BR,CLR,,,,,,,,MVFR,,,,,,,,,,,,SPECI,
KLMO 060715Z AUTO 29003KT 10SM CLR 12/10 A3014 RMK AO2 T01190095,KLMO,2023-06-06T07:15:00Z,40.17,-105.17,11.9,9.5,290,3,,10.0,30.138779,,,TRUE,TRUE,,,,,,,CLR,,,,,,,,VFR,,,,,,,,,,,,METAR,1535.0
KLLN 060715Z AUTO 06004KT 9SM OVC090 18/15 A3015 RMK AO2,KLLN,2023-06-06T07:15:00Z,33.55,-102.37,18.0,15.0,60,4,,9.0,30.15059,,,TRUE,TRUE,,,,,,,OVC,9000,,,,,,,VFR,,,,,,,,,,,,METAR,1071.0
KLKU 060715Z AUTO 00000KT 5SM BR CLR 10/10 A2989 RMK AO2 T00980097,KLKU,2023-06-06T07:15:00Z,38.02,-77.97,9.8,9.7,0,0,,5.0,29.890747,,,TRUE,TRUE,,,,,,BR,CLR,,,,,,,,MVFR,,,,,,,,,,,,METAR,146.0
KLKR 060715Z AUTO 00000KT 10SM VCTS SCT035 BKN041 OVC060 19/17 A2993 RMK AO2 LTG DSNT SW,KLKR,2023-06-06T07:15:00Z,34.72,-80.85,19.0,17.0,0,0,,10.0,29.929134,,,TRUE,TRUE,,,,,,VCTS,SCT,3500,BKN,4100,OVC,6000,,,VFR,,,,,,,,,,,,METAR,166.0
KLJF 060715Z AUTO 08005KT 10SM CLR 20/17 A3003 RMK AO2,KLJF,2023-06-06T07:15:00Z,45.1,-94.52,20.0,17.0,80,5,,10.0,30.029528,,,TRUE,TRUE,,,,,,,CLR,,,,,,,,VFR,,,,,,,,,,,,METAR,347.0
KLHM 060715Z AUTO 16011KT 10SM CLR 17/11 A2976 RMK AO1,KLHM,2023-06-06T07:15:00Z,38.92,-121.35,17.0,11.0,160,11,,10.0,29.760826,,,TRUE,TRUE,,,,,,,CLR,,,,,,,,VFR,,,,,,,,,,,,METAR,36.0
KLHB 060715Z AUTO 00000KT 10SM CLR 20/19 A2995 RMK AO2 T02010192,KLHB,2023-06-06T07:15:00Z,30.87,-96.62,20.1,19.2,0,0,,10.0,29.949802,,,TRUE,TRUE,,,,,,,CLR,,,,,,,,VFR,,,,,,,,,,,,SPECI,83.0
KLGC 060715Z AUTO 00000KT 7SM CLR 17/16 A2996 RMK AO2 T01700163,KLGC,2023-06-06T07:15:00Z,33.0,-85.07,17.0,16.3,0,0,,7.0,29.958662,,,TRUE,TRUE,,,,,,,CLR,,,,,,,,VFR,,,,,,,,,,,,SPECI,209.0
KLDM 060715Z AUTO 00000KT 4SM BR CLR 13/11 A2999 RMK AO2 T01250114,KLDM,2023-06-06T07:15:00Z,43.97,-86.4,12.5,11.4,0,0,,4.0,29.991142,,,TRUE,TRUE,,,,,,BR,CLR,,,,,,,,MVFR,,,,,,,,,,,,METAR,194.0
KLCQ 060715Z AUTO 00000KT 10SM CLR 16/15 A2995 RMK AO2,KLCQ,2023-06-06T07:15:00Z,30.18,-82.58,16.0,15.0,0,0,,10.0,29.949802,,,TRUE,TRUE,,,,,,,CLR,,,,,,,,VFR,,,,,,,,,,,,SPECI,59.0
KLCG 060715Z AUTO 21003KT 10SM CLR 17/12 A3003 RMK AO2 T01650120,KLCG,2023-06-06T07:15:00Z,42.25,-96.98,16.5,12.0,210,3,,10.0,30.029528,,,TRUE,TRUE,,,,,,,CLR,,,,,,,,VFR,,,,,,,,,,,,SPECI,434.0
KLBO 060715Z AUTO 00000KT 10SM CLR 16/11 A3005 RMK AO2,KLBO,2023-06-06T07:15:00Z,37.65,-92.65,16.0,11.0,0,0,,10.0,30.050198,,,TRUE,TRUE,,,,,,,CLR,,,,,,,,VFR,,,,,,,,,,,,METAR,399.0
KLBE 060715Z AUTO 00000KT 10SM CLR 10/07 A2993 RMK AO2,KLBE,2023-06-06T07:15:00Z,40.27,-79.4,10.0,7.0,0,0,,10.0,29.929134,,,TRUE,TRUE,,,,,,,CLR,,,,,,,,VFR,,,,,,,,,,,,METAR,345.0
KLAM 060715Z AUTO 25007KT 10SM CLR 13/05 A3026 RMK AO2 T01270051 $,KLAM,2023-06-06T07:15:00Z,35.87,-106.27,12.7,5.1,250,7,,10.0,30.259842,,,TRUE,TRUE,TRUE,,,,,,CLR,,,,,,,,VFR,,,,,,,,,,,,METAR,2166.0
KLAL 060715Z AUTO 06003KT 10SM CLR 22/19 A2996 RMK AO2 T02180185,KLAL,2023-06-06T07:15:00Z,27.98,-82.02,21.8,18.5,60,3,,10.0,29.958662,,,TRUE,TRUE,,,,,,,CLR,,,,,,,,VFR,,,,,,,,,,,,METAR,39.0
KL35 060715Z AUTO 00000KT 10SM CLR 03/M11 A2998 RMK AO2,KL35,2023-06-06T07:15:00Z,34.27,-116.85,3.0,-11.0,0,0,,10.0,29.97933,,,TRUE,TRUE,,,,,,,CLR,,,,,,,,VFR,,,,,,,,,,,,METAR,2062.0
KL08 060715Z AUTO 32018G27KT 10SM CLR 19/06 A2974 RMK AO2,KL08,2023-06-06T07:15:00Z,33.27,-116.32,19.0,6.0,320,18,27,10.0,29.740158,,,TRUE,TRUE,,,,,,,CLR,,,,,,,,VFR,,,,,,,,,,,,METAR,156.0
KKY8 060715Z AUTO 00000KT 9SM CLR 14/14 A2997 RMK A01,KKY8,2023-06-06T07:15:00Z,37.95,-86.87,14.0,14.0,0,0,,9.0,29.970472,,,TRUE,TRUE,,,,,,,CLR,,,,,,,,VFR,,,,,,,,,,,,METAR,124.0
KK88 060715Z AUTO 04003KT 10SM CLR 16/15 A3004 RMK AO1 T01570145,KK88,2023-06-06T07:15:00Z,37.87,-95.38,15.7,14.5,40,3,,10.0,30.041338,,,TRUE,TRUE,,,,,,,CLR,,,,,,,,VFR,,,,,,,,,,,,METAR,308.0
KK82 060715Z AUTO 15004KT 10SM CLR 17/15 A3007 RMK AO2 T01660152,KK82,2023-06-06T07:15:00Z,39.77,-98.8,16.6,15.2,150,4,,10.0,30.070866,,,TRUE,TRUE,,,,,,,CLR,,,,,,,,VFR,,,,,,,,,,,,SPECI,548.0
KK70 060715Z AUTO 05005KT 10SM FEW023 SCT027 BKN060 27/M35 A2988 RMK AO2,KK70,2023-06-06T07:15:00Z,25.32,-80.28,27.0,-35.0,50,5,,10.0,29.878937,,,TRUE,TRUE,,,,,,,FEW,2300,SCT,2700,BKN,6000,,,VFR,,,,,,,,,,,,SPECI,20.0
KK62 060715Z AUTO 00000KT 10SM CLR 10/08 A2998 RMK AO2,KK62,2023-06-06T07:15:00Z,38.7,-84.4,10.0,8.0,0,0,,10.0,29.97933,,,TRUE,TRUE,,,,,,,CLR,,,,,,,,VFR,,,,,,,,,,,,SPECI,274.0
KJZP 060715Z AUTO 30003KT 7SM +VCTSRA SCT049 BKN060 OVC110 21/18 A2998 RMK AO2 LTG DSNT NE THRU SE P0001 T02140176,KJZP,2023-06-06T07:15:00Z,34.45,-84.47,21.4,17.6,300,3,,7.0,29.97933,,,TRUE,TRUE,,,,,,VCTS +RA,SCT,4900,BKN,6000,OVC,11000,,,VFR,,,,,,0.01,,,,,,SPECI,462.0
KJZI 060715Z AUTO 00000KT 10SM CLR 17/16 A2995 RMK AO2,KJZI,2023-06-06T07:15:00Z,32.7,-80.0,17.0,16.0,0,0,,10.0,29.949802,,,TRUE,TRUE,,,,,,,CLR,,,,,,,,VFR,,,,,,,,,,,,METAR,5.0
KJYR 060715Z AUTO 00000KT 10SM CLR 16/13 A3005 RMK AO2,KJYR,2023-06-06T07:15:00Z,40.9,-97.62,16.0,13.0,0,0,,10.0,30.050198,,,TRUE,TRUE,,,,,,,CLR,,,,,,,,VFR,,,,,,,,,,,,METAR,508.0
KJYO 060715Z AUTO 28005KT 10SM CLR 14/10 A2988 RMK AO2,KJYO,2023-06-06T07:15:00Z,39.07,-77.57,14.0,10.0,280,5,,10.0,29.878937,,,TRUE,TRUE,,,,,,,CLR,,,,,,,,VFR,,,,,,,,,,,,METAR,112.0
KJYM 060715Z AUTO 29003KT 10SM SCT085 15/10 A2996 RMK AO2 T01530100,KJYM,2023-06-06T07:15:00Z,41.92,-84.58,15.3,10.0,290,3,,10.0,29.958662,,,TRUE,TRUE,,,,,,,SCT,8500,,,,,,,VFR,,,,,,,,,,,,SPECI,357.0
KJWY 060715Z AUTO 00000KT 7SM BKN080 OVC090 20/19 A2998 RMK AO2 T01980193,KJWY,2023-06-06T07:15:00Z,32.45,-96.92,19.8,19.3,0,0,,7.0,29.97933,,,TRUE,TRUE,,,,,,,BKN,8000,OVC,9000,,,,,VFR,,,,,,,,,,,,SPECI,211.0
KJWN 060715Z AUTO 00000KT 7SM OVC065 18/16 A2993 RMK AO2,KJWN,2023-06-06T07:15:00Z,36.18,-86.88,18.0,16.0,0,0,,7.0,29.929134,,,TRUE,TRUE,,,,,,,OVC,6500,,,,,,,VFR,,,,,,,,,,,,SPECI,149.0
KJWG 060715Z AUTO 29004KT 7SM CLR 17/17 A3006 RMK AO2 T01750166,KJWG,2023-06-06T07:15:00Z,35.87,-98.42,17.5,16.6,290,4,,7.0,30.059055,,,TRUE,TRUE,,,,,,,CLR,,,,,,,,VFR,,,,,,,,,,,,SPECI,469.0
KJVY 060715Z AUTO 00000KT 10SM CLR 12/12 A2997 RMK AO2 PWINO,KJVY,2023-06-06T07:15:00Z,38.37,-85.73,12.0,12.0,0,0,,10.0,29.970472,,,TRUE,TRUE,,,,,TRUE,,CLR,,,,,,,,VFR,,,,,,,,,,,,METAR,141.0
KJVW 060715Z AUTO 00000KT 10SM CLR 20/20 A2994 RMK AO2,KJVW,2023-06-06T07:15:00Z,32.3,-90.42,20.0,20.0,0,0,,10.0,29.940945,,,TRUE,TRUE,,,,,,,CLR,,,,,,,,VFR,,,,,,,,,,,,SPECI,73.0
KJVL 060715Z AUTO 00000KT 10SM CLR 18/08 A3001 RMK AO2,KJVL,2023-06-06T07:15:00Z,42.62,-89.05,18.0,8.0,0,0,,10.0,30.008858,,,TRUE,TRUE,,,,,,,CLR,,,,,,,,VFR,,,,,,,,,,,,SPECI,244.0
KJSV 060715Z AUTO 09004KT 6SM CLR A2995 RMK AO2,KJSV,2023-06-06T07:15:00Z,35.43,-94.8,,,90,4,,6.0,29.949802,,,TRUE,TRUE,,,,,,,CLR,,,,,,,,VFR,,,,,,,,,,,,SPECI,158.0
KJSO 060715Z AUTO 36004KT 10SM CLR 19/19 A2995 RMK AO2 T01880185 TSNO,KJSO,2023-06-06T07:15:00Z,31.87,-95.22,18.8,18.5,360,4,,10.0,29.949802,,,TRUE,TRUE,,,TRUE,,,,CLR,,,,,,,,VFR,,,,,,,,,,,,METAR,204.0
KJRO 060715Z AUTO 00000KT 1 3/4SM BR VV007 08/07 A2999 RMK AO2 VIS 1/2V5,KJRO,2023-06-06T07:15:00Z,38.98,-82.58,8.0,7.0,0,0,,1.75,29.991142,,,TRUE,TRUE,,,,,,BR,OVX,0,,,,,,,LIFR,,,,,,,,,,,700,METAR,224.0
KJPX 060715Z AUTO 00000KT 10SM SCT090 12/10 A2972 RMK AO2 T01170103,KJPX,2023-06-06T07:15:00Z,40.95,-72.25,11.7,10.3,0,0,,10.0,29.719488,,,TRUE,TRUE,,,,,,,SCT,9000,,,,,,,VFR,,,,,,,,,,,,METAR,10.0
KJOT 060715Z AUTO 00000KT 10SM CLR 15/12 A3002 RMK AO2 T01510115,KJOT,2023-06-06T07:15:00Z,41.52,-88.18,15.1,11.5,0,0,,10.0,30.02067,,,TRUE,TRUE,,,,,,,CLR,,,,,,,,VFR,,,,,,,,,,,,METAR,175.0
KJMR 060715Z AUTO 00000KT 5SM BR CLR 13/11 A3011 RMK AO2,KJMR,2023-06-06T07:15:00Z,45.88,-93.27,13.0,11.0,0,0,,5.0,30.109253,,,TRUE,TRUE,,,,,,BR,CLR,,,,,,,,MVFR,,,,,,,,,,,,METAR,301.0
KJKJ 060715Z AUTO 13005KT 10SM CLR 22/17 A3000 RMK AO2 TSNO,KJKJ,2023-06-06T07:15:00Z,46.83,-96.67,22.0,17.0,130,5,,10.0,30.0,,,TRUE,TRUE,,,TRUE,,,,CLR,,,,,,,,VFR,,,,,,,,,,,,METAR,280.0
KJKA 060715Z AUTO 03004KT 10SM CLR 21/20 A2993 RMK AO2,KJKA,2023-06-06T07:15:00Z,30.28,-87.67,21.0,20.0,30,4,,10.0,29.929134,,,TRUE,TRUE,,,,,,,CLR,,,,,,,,VFR,,,,,,,,,,,,SPECI,5.0
KJHN 060715Z AUTO 14005KT 10SM CLR 15/13 A3013 RMK AO2 T01510131,KJHN,2023-06-06T07:15:00Z,37.58,-101.73,15.1,13.1,140,5,,10.0,30.129921,,,TRUE,TRUE,,,,,,,CLR,,,,,,,,VFR,,,,,,,,,,,,METAR,1013.0
KJFZ 060715Z AUTO 00000KT 10SM CLR 14/13 A3001 RMK AO2 LTG DSNT S T01350128,KJFZ,2023-06-06T07:15:00Z,37.07,-81.8,13.5,12.8,0,0,,10.0,30.008858,,,TRUE,TRUE,,,,,,,CLR,,,,,,,,VFR,,,,,,,,,,,,METAR,809.0
KJFX 060715Z AUTO 00000KT 8SM CLR 17/17 A2996 RMK AO2,KJFX,2023-06-06T07:15:00Z,33.9,-87.32,17.0,17.0,0,0,,8.0,29.958662,,,TRUE,TRUE,,,,,,,CLR,,,,,,,,VFR,,,,,,,,,,,,SPECI,144.0
KJES 060715Z AUTO 00000KT 10SM CLR 16/14 A2997 RMK AO2 LTG DSNT N,KJES,2023-06-06T07:15:00Z,31.55,-81.88,16.0,14.0,0,0,,10.0,29.970472,,,TRUE,TRUE,,,,,,,CLR,,,,,,,,VFR,,,,,,,,,,,,METAR,26.0
KJDD 060715Z AUTO 00000KT 10SM CLR 20/17 A2995 RMK AO2,KJDD,2023-06-06T07:15:00Z,32.75,-95.5,20.0,17.0,0,0,,10.0,29.949802,,,TRUE,TRUE,,,,,,,CLR,,,,,,,,VFR,,,,,,,,,,,,METAR,127.0
KJCA 060715Z AUTO 00000KT 7SM SCT050 19/ A2994 RMK AO2 LTG DSNT E SE AND NW T0191////,KJCA,2023-06-06T07:15:00Z,34.18,-83.57,19.1,,0,0,,7.0,29.940945,,,TRUE,TRUE,,,,,,,SCT,5000,,,,,,,VFR,,,,,,,,,,,,SPECI,287.0
KJAS 060715Z AUTO 00000KT 7SM CLR 19/19 A2992 RMK AO2,KJAS,2023-06-06T07:15:00Z,30.88,-94.03,19.0,19.0,0,0,,7.0,29.920275,,,TRUE,TRUE,,,,,,,CLR,,,,,,,,VFR,,,,,,,,,,,,METAR,60.0
KJAQ 060715Z AUTO 34010KT 10SM CLR 16/11 A2980 RMK AO1 T01590106,KJAQ,2023-06-06T07:15:00Z,38.37,-120.8,15.9,10.6,340,10,,10.0,29.799213,,,TRUE,TRUE,,,,,,,CLR,,,,,,,,VFR,,,,,,,,,,,,METAR,518.0
KIZA 060715Z AUTO 00000KT 6SM HZ OVC030 15/10 A2989 RMK AO2 LTG DSNT N,KIZA,2023-06-06T07:15:00Z,34.6,-120.07,15.0,10.0,0,0,,6.0,29.890747,,,TRUE,TRUE,,,,,,HZ,OVC,3000,,,,,,,MVFR,,,,,,,,,,,,METAR,200.0
KIYA 060715Z AUTO 00000KT 19/18 A2993 RMK AO2 T01920176 PWINO,KIYA,2023-06-06T07:15:00Z,29.98,-92.08,19.2,17.6,0,0,,,29.929134,,,TRUE,TRUE,,,,,TRUE,,,,,,,,,,,,,,,,,,,,,,SPECI,4.0
KIWA 060715Z AUTO 15003KT 10SM CLR 24/M07 A2981 RMK AO2 T02391065,KIWA,2023-06-06T07:15:00Z,33.3,-111.65,23.9,-6.5,150,3,,10.0,29.811024,,,TRUE,TRUE,,,,,,,CLR,,,,,,,,VFR,,,,,,,,,,,,SPECI,420.0
KISQ 060715Z AUTO 01006KT 10SM CLR 10/08 A3005 RMK AO2 T01010076,KISQ,2023-06-06T07:15:00Z,45.97,-86.17,10.1,7.6,10,6,,10.0,30.050198,,,TRUE,TRUE,,,,,,,CLR,,,,,,,,VFR,,,,,,,,,,,,SPECI,206.0
KIRS 060715Z AUTO 00000KT 10SM CLR 15/06 A2997 RMK AO2 T01450062,KIRS,2023-06-06T07:15:00Z,41.8,-85.43,14.5,6.2,0,0,,10.0,29.970472,,,TRUE,TRUE,,,,,,,CLR,,,,,,,,VFR,,,,,,,,,,,,METAR,282.0
KIOB 060715Z AUTO 00000KT 10SM CLR 11/10 A3000 RMK AO2 PWINO,KIOB,2023-06-06T07:15:00Z,38.05,-83.98,11.0,10.0,0,0,,10.0,30.0,,,TRUE,TRUE,,,,,TRUE,,CLR,,,,,,,,VFR,,,,,,,,,,,,SPECI,301.0
KINJ 060715Z AUTO 00000KT 10SM CLR 20/19 A2995 RMK AO2 T02000185,KINJ,2023-06-06T07:15:00Z,32.08,-97.1,20.0,18.5,0,0,,10.0,29.949802,,,TRUE,TRUE,,,,,,,CLR,,,,,,,,VFR,,,,,,,,,,,,SPECI,208.0
KINF 060715Z AUTO 00000KT 7SM CLR 19/19 A2996 RMK AO2,KINF,2023-06-06T07:15:00Z,28.8,-82.32,19.0,19.0,0,0,,7.0,29.958662,,,TRUE,TRUE,,,,,,,CLR,,,,,,,,VFR,,,,,,,,,,,,METAR,14.0
KIMS 060715Z AUTO 00000KT 7SM CLR 12/10 A3001 RMK AO2,KIMS,2023-06-06T07:15:00Z,38.75,-85.47,12.0,10.0,0,0,,7.0,30.008858,,,TRUE,TRUE,,,,,,,CLR,,,,,,,,VFR,,,,,,,,,,,,METAR,244.0
KIKW 060715Z AUTO 00000KT 7SM CLR 13/12 A2997 RMK AO2 T01270120,KIKW,2023-06-06T07:15:00Z,43.67,-84.27,12.7,12.0,0,0,,7.0,29.970472,,,TRUE,TRUE,,,,,,,CLR,,,,,,,,VFR,,,,,,,,,,,,METAR,190.0
KIKV 060715Z AUTO 00000KT 4SM BR CLR 16/16 A3004 RMK AO2,KIKV,2023-06-06T07:15:00Z,41.68,-93.57,16.0,16.0,0,0,,4.0,30.041338,,,TRUE,TRUE,,,,,,BR,CLR,,,,,,,,MVFR,,,,,,,,,,,,METAR,270.0
KIKK 060715Z AUTO 25003KT 10SM SCT100 16/07 A3002 RMK AO2 T01550070 PWINO,KIKK,2023-06-06T07:15:00Z,41.07,-87.85,15.5,7.0,250,3,,10.0,30.02067,,,TRUE,TRUE,,,,,TRUE,,SCT,10000,,,,,,,VFR,,,,,,,,,,,,METAR,188.0
KIKG 060715Z AUTO 00000KT 10SM CLR 21/20 A2991 RMK AO2 T02050200,KIKG,2023-06-06T07:15:00Z,27.55,-98.03,20.5,20.0,0,0,,10.0,29.911417,,,TRUE,TRUE,,,,,,,CLR,,,,,,,,VFR,,,,,,,,,,,,METAR,37.0
KIJX 060715Z AUTO 00000KT 10SM CLR 14/12 A3002 RMK AO2 T01400116,KIJX,2023-06-06T07:15:00Z,39.77,-90.25,14.0,11.6,0,0,,10.0,30.02067,,,TRUE,TRUE,,,,,,,CLR,,,,,,,,VFR,,,,,,,,,,,,METAR,187.0
KIIY 060715Z AUTO 21004KT 10SM CLR 19/18 A2993 RMK AO2 T01950178,KIIY,2023-06-06T07:15:00Z,33.78,-82.82,19.5,17.8,210,4,,10.0,29.929134,,,TRUE,TRUE,,,,,,,CLR,,,,,,,,VFR,,,,,,,,,,,,SPECI,192.0
KIIB 060715Z AUTO 23003KT 10SM CLR 17/12 A3004 RMK AO2 T01730120,KIIB,2023-06-06T07:15:00Z,42.45,-91.95,17.3,12.0,230,3,,10.0,30.041338,,,TRUE,TRUE,,,,,,,CLR,,,,,,,,VFR,,,,,,,,,,,,METAR,294.0
KIGQ 060715Z AUTO 00000KT 10SM CLR 14/09 A3001 RMK AO2 T01350093,KIGQ,2023-06-06T07:15:00Z,41.53,-87.53,13.5,9.3,0,0,,10.0,30.008858,,,TRUE,TRUE,,,,,,,CLR,,,,,,,,VFR,,,,,,,,,,,,METAR,187.0
KIFA 060715Z AUTO 00000KT 10SM CLR 20/15 A3004 RMK AO2 T02000145,KIFA,2023-06-06T07:15:00Z,42.47,-93.27,20.0,14.5,0,0,,10.0,30.041338,,,TRUE,TRUE,,,,,,,CLR,,,,,,,,VFR,,,,,,,,,,,,METAR,344.0
KIDP 060715Z AUTO 05005KT 10SM CLR 19/17 A3001 RMK AO2 T01940169,KIDP,2023-06-06T07:15:00Z,37.17,-95.78,19.4,16.9,50,5,,10.0,30.008858,,,TRUE,TRUE,,,,,,,CLR,,,,,,,,VFR,,,,,,,,,,,,METAR,252.0
KIDI 060715Z AUTO 00000KT 6SM BR OVC070 09/07 A2996 RMK A01,KIDI,2023-06-06T07:15:00Z,40.63,-79.1,9.0,7.0,0,0,,6.0,29.958662,,,TRUE,TRUE,,,,,,BR,OVC,7000,,,,,,,VFR,,,,,,,,,,,,METAR,425.0
KICL 060715Z AUTO 00000KT 5SM BR CLR 17/17 A3006 RMK AO2,KICL,2023-06-06T07:15:00Z,40.72,-95.02,17.0,17.0,0,0,,5.0,30.059055,,,TRUE,TRUE,,,,,,BR,CLR,,,,,,,,MVFR,,,,,,,,,,,,SPECI,299.0
KIBM 060715Z AUTO 17005KT 10SM CLR 12/11 A3015 RMK AO2 T01220112,KIBM,2023-06-06T07:15:00Z,41.18,-103.68,12.2,11.2,170,5,,10.0,30.15059,,,TRUE,TRUE,,,,,,,CLR,,,,,,,,VFR,,,,,,,,,,,,METAR,1494.0
KI95 060715Z AUTO 24004KT 10SM FEW050 FEW060 OVC075 15/07 A2995 RMK A01,KI95,2023-06-06T07:15:00Z,,,15.0,7.0,240,4,,10.0,29.949802,,,TRUE,TRUE,,,,,,,FEW,5000,FEW,6000,OVC,7500,,,VFR,,,,,,,,,,,,METAR,
KI75 060715Z AUTO 00000KT 10SM CLR 17/15 A3004 RMK AO2 T01660150,KI75,2023-06-06T07:15:00Z,41.05,-93.68,16.6,15.0,0,0,,10.0,30.041338,,,TRUE,TRUE,,,,,,,CLR,,,,,,,,VFR,,,,,,,,,,,,METAR,336.0
KI74 060715Z AUTO 00000KT 7SM CLR 10/08 A2998 RMK AO2,KI74,2023-06-06T07:15:00Z,40.12,-83.75,10.0,8.0,0,0,,7.0,29.97933,,,TRUE,TRUE,,,,,,,CLR,,,,,,,,VFR,,,,,,,,,,,,METAR,322.0
KI68 060715Z AUTO 00000KT 5SM HZ BKN033 13/07 A2997 RMK AO2,KI68,2023-06-06T07:15:00Z,39.47,-84.25,13.0,7.0,0,0,,5.0,29.970472,,,TRUE,TRUE,,,,,,HZ,BKN,3300,,,,,,,MVFR,,,,,,,,,,,,METAR,274.0
KI67 060715Z AUTO 00000KT 7SM CLR 10/07 A2998 RMK AO1,KI67,2023-06-06T07:15:00Z,39.25,-84.78,10.0,7.0,0,0,,7.0,29.97933,,,TRUE,TRUE,,,,,,,CLR,,,,,,,,VFR,,,,,,,,,,,,SPECI,177.0
KI63 060715Z AUTO 00000KT 10SM CLR 13/09 A3002 RMK AO2 T01290094,KI63,2023-06-06T07:15:00Z,39.98,-90.8,12.9,9.4,0,0,,10.0,30.02067,,,TRUE,TRUE,,,,,,,CLR,,,,,,,,VFR,,,,,,,,,,,,METAR,221.0
KI23 060715Z AUTO 23004KT 10SM CLR 11/06 A2998 RMK AO1,KI23,2023-06-06T07:15:00Z,39.57,-83.42,11.0,6.0,230,4,,10.0,29.97933,,,TRUE,TRUE,,,,,,,CLR,,,,,,,,VFR,,,,,,,,,,,,SPECI,298.0
KI19 060715Z AUTO 00000KT 6SM HZ CLR 12/08 A2997 RMK AO2,KI19,2023-06-06T07:15:00Z,39.7,-83.98,12.0,8.0,0,0,,6.0,29.970472,,,TRUE,TRUE,,,,,,HZ,CLR,,,,,,,,VFR,,,,,,,,,,,,SPECI,285.0
KI16 060715Z AUTO 7SM OVC003 12/11 A3004 RMK AO2 T01160109 PNO,KI16,2023-06-06T07:15:00Z,37.6,-81.57,11.6,10.9,,,,7.0,30.041338,,,TRUE,TRUE,,,,,,,OVC,300,,,,,,,LIFR,,,,,,,,,,,,METAR,528.0
KHZX 060715Z AUTO 08004KT 7SM CLR 12/11 A3009 RMK AO2,KHZX,2023-06-06T07:15:00Z,46.62,-93.32,12.0,11.0,80,4,,7.0,30.088583,,,TRUE,TRUE,,,,,,,CLR,,,,,,,,VFR,,,,,,,,,,,,METAR,374.0
KHZL 060715Z AUTO 00000KT 10SM CLR 08/03 A2987 RMK AO2,KHZL,2023-06-06T07:15:00Z,40.98,-76.0,8.0,3.0,0,0,,10.0,29.870079,,,TRUE,TRUE,,,,,,,CLR,,,,,,,,VFR,,,,,,,,,,,,METAR,481.0
KHZE 060715Z AUTO 02003KT 10SM 19/16 A2999 RMK AO2,KHZE,2023-06-06T07:15:00Z,47.28,-101.58,19.0,16.0,20,3,,10.0,29.991142,,,TRUE,TRUE,,,,,,,,,,,,,,,,,,,,,,,,,,,METAR,542.0
KHZD 060715Z AUTO 00000KT 10SM OVC080 18/15 A2994 RMK A01,KHZD,2023-06-06T07:15:00Z,36.08,-88.47,18.0,15.0,0,0,,10.0,29.940945,,,TRUE,TRUE,,,,,,,OVC,8000,,,,,,,VFR,,,,,,,,,,,,SPECI,147.0
KHYX 060715Z AUTO 00000KT 5SM BR CLR 15/14 A2996 RMK AO2 T01460137,KHYX,2023-06-06T07:15:00Z,43.43,-83.87,14.6,13.7,0,0,,5.0,29.958662,,,TRUE,TRUE,,,,,,BR,CLR,,,,,,,,MVFR,,,,,,,,,,,,METAR,181.0
KHYW 060715Z AUTO 00000KT 10SM SCT044 15/13 A2995 RMK AO2 LTG DSNT NW,KHYW,2023-06-06T07:15:00Z,33.83,-79.12,15.0,13.0,0,0,,10.0,29.949802,,,TRUE,TRUE,,,,,,,SCT,4400,,,,,,,VFR,,,,,,,,,,,,SPECI,10.0
KHXD 060715Z AUTO 00000KT 10SM CLR 18/17 A2995 RMK AO2,KHXD,2023-06-06T07:15:00Z,32.22,-80.7,18.0,17.0,0,0,,10.0,29.949802,,,TRUE,TRUE,,,,,,,CLR,,,,,,,,VFR,,,,,,,,,,,,METAR,5.0
KHWY 060715Z AUTO 00000KT 10SM CLR 09/08 A2988 RMK AO2 T00890075,KHWY,2023-06-06T07:15:00Z,38.58,-77.72,8.9,7.5,0,0,,10.0,29.878937,,,TRUE,TRUE,,,,,,,CLR,,,,,,,,VFR,,,,,,,,,,,,METAR,93.0
KHVS 060715Z AUTO 00000KT 10SM BKN055 BKN065 OVC085 17/16 A2993 RMK AO2 LTG DSNT SW AND W,KHVS,2023-06-06T07:15:00Z,34.4,-80.12,17.0,16.0,0,0,,10.0,29.929134,,,TRUE,TRUE,,,,,,,BKN,5500,BKN,6500,OVC,8500,,,VFR,,,,,,,,,,,,METAR,110.0
KHVE 060715Z AUTO 03009KT 10SM CLR 23/02 A2993 RMK AO2,KHVE,2023-06-06T07:15:00Z,38.42,-110.7,23.0,2.0,30,9,,10.0,29.929134,,,TRUE,TRUE,,,,,,,CLR,,,,,,,,VFR,,,,,,,,,,,,METAR,1351.0
KHVC 060715Z AUTO 01003KT 10SM CLR 19/15 A2995 RMK AO2,KHVC,2023-06-06T07:15:00Z,,,19.0,15.0,10,3,,10.0,29.949802,,,TRUE,TRUE,,,,,,,CLR,,,,,,,,VFR,,,,,,,,,,,,SPECI,
KHUM 060715Z AUTO 00000KT 7SM SCT021 SCT029 SCT080 21/20 A2992 RMK AO2 T02080198,KHUM,2023-06-06T07:15:00Z,29.57,-90.67,20.8,19.8,0,0,,7.0,29.920275,,,TRUE,TRUE,,,,,,,SCT,2100,SCT,2900,SCT,8000,,,VFR,,,,,,,,,,,,METAR,1.0
KHTH 060715Z AUTO 27004KT 10SM FEW060 BKN075 OVC110 15/13 A2995 RMK A01,KHTH,2023-06-06T07:15:00Z,38.55,-118.63,15.0,13.0,270,4,,10.0,29.949802,,,TRUE,TRUE,,,,,,,FEW,6000,BKN,7500,OVC,11000,,,VFR,,,,,,,,,,,,SPECI,1281.0
KHSP 060715Z AUTO 35006KT 10SM CLR 13/03 A3001 RMK AO2 T01260032,KHSP,2023-06-06T07:15:00Z,37.95,-79.82,12.6,3.2,350,6,,10.0,30.008858,,,TRUE,TRUE,,,,,,,CLR,,,,,,,,VFR,,,,,,,,,,,,METAR,1148.0
KHSG 060715Z AUTO 00000KT 10SM CLR 15/09 A3002 RMK AO2 T01470088,KHSG,2023-06-06T07:15:00Z,43.72,-108.38,14.7,8.8,0,0,,10.0,30.02067,,,TRUE,TRUE,,,,,,,CLR,,,,,,,,VFR,,,,,,,,,,,,METAR,1497.0
KHSD 060715Z AUTO 26004KT 10SM CLR 19/17 A2999 RMK A01,KHSD,2023-06-06T07:15:00Z,35.6,-97.72,19.0,17.0,260,4,,10.0,29.991142,,,TRUE,TRUE,,,,,,,CLR,,,,,,,,VFR,,,,,,,,,,,,SPECI,358.0
KHSB 060715Z AUTO 00000KT 10SM CLR 17/07 A2999 RMK AO2 T01690070,KHSB,2023-06-06T07:15:00Z,37.82,-88.55,16.9,7.0,0,0,,10.0,29.991142,,,TRUE,TRUE,,,,,,,CLR,,,,,,,,VFR,,,,,,,,,,,,METAR,118.0
KHRX 060715Z AUTO 10SM SCT120 17/15 A3016 RMK AO2 T01670150 TSNO,KHRX,2023-06-06T07:15:00Z,34.87,-102.33,16.7,15.0,,,,10.0,30.159449,,,TRUE,TRUE,,,TRUE,,,,SCT,12000,,,,,,,VFR,,,,,,,,,,,,METAR,1153.0
KHQZ 060715Z AUTO 00000KT 10SM CLR 21/19 A2995 RMK AO1 T02050190,KHQZ,2023-06-06T07:15:00Z,32.75,-96.53,20.5,19.0,0,0,,10.0,29.949802,,,TRUE,TRUE,,,,,,,CLR,,,,,,,,VFR,,,,,,,,,,,,METAR,136.0
KHQG 060715Z AUTO 00000KT 10SM CLR 16/14 A3012 RMK AO2 T01550136 PWINO,KHQG,2023-06-06T07:15:00Z,37.17,-101.37,15.5,13.6,0,0,,10.0,30.121063,,,TRUE,TRUE,,,,,TRUE,,CLR,,,,,,,,VFR,,,,,,,,,,,,SPECI,956.0
KHQG 060715Z AUTO 00000KT 10SM CLR 16/14 A3012 RMK AO2 T01550136 PWINO,KHQG,2023-06-06T07:15:00Z,37.17,-101.37,15.5,13.6,0,0,,10.0,30.121063,,,TRUE,TRUE,,,,,TRUE,,CLR,,,,,,,,VFR,,,,,,,,,,,,SPECI,956.0
KHPT 060715Z AUTO 23005KT 10SM CLR 17/13 A3003 RMK AO2,KHPT,2023-06-06T07:15:00Z,42.72,-93.23,17.0,13.0,230,5,,10.0,30.029528,,,TRUE,TRUE,,,,,,,CLR,,,,,,,,VFR,,,,,,,,,,,,METAR,354.0
KHOE 060715Z AUTO 00000KT 10SM SCT110 18/16 A2996 RMK AO2 T01900164,KHOE,2023-06-06T07:15:00Z,31.05,-82.78,19.0,16.4,0,0,,10.0,29.958662,,,TRUE,TRUE,,,,,,,SCT,11000,,,,,,,VFR,,,,,,,,,,,,SPECI,56.0
KHOB 060715Z AUTO 06006KT 10SM CLR 17/13 A3013 RMK AO2,KHOB,2023-06-06T07:15:00Z,32.67,-103.22,17.0,13.0,60,6,,10.0,30.129921,,,TRUE,TRUE,,,,,,,CLR,,,,,,,,VFR,,,,,,,,,,,,METAR,1112.0
KHNR 060715Z AUTO 00000KT 10SM CLR 17/17 A3004 RMK A01,KHNR,2023-06-06T07:15:00Z,41.58,-95.33,17.0,17.0,0,0,,10.0,30.041338,,,TRUE,TRUE,,,,,,,CLR,,,,,,,,VFR,,,,,,,,,,,,METAR,364.0
KHMZ 060715Z AUTO 00000KT 10SM SCT050 SCT065 BKN085 07/06 A2992 RMK AO2 T00650061,KHMZ,2023-06-06T07:15:00Z,40.08,-78.52,6.5,6.1,0,0,,10.0,29.920275,,,TRUE,TRUE,,,,,,,SCT,5000,SCT,6500,BKN,8500,,,VFR,,,,,,,,,,,,METAR,351.0
KHMT 060715Z AUTO 22009KT 10SM BKN014 BKN025 OVC039 12/10 A2992 RMK AO2 T01220104,KHMT,2023-06-06T07:15:00Z,33.73,-117.02,12.2,10.4,220,9,,10.0,29.920275,,,TRUE,TRUE,,,,,,,BKN,1400,BKN,2500,OVC,3900,,,MVFR,,,,,,,,,,,,METAR,462.0
KHMP 060715Z AUTO 00000KT 4SM BR CLR 17/16 A2998 RMK AO2 LTG DSNT N T01660163,KHMP,2023-06-06T07:15:00Z,33.38,-84.33,16.6,16.3,0,0,,4.0,29.97933,,,TRUE,TRUE,,,,,,BR,CLR,,,,,,,,MVFR,,,,,,,,,,,,SPECI,263.0
KHLX 060715Z AUTO 27003KT 10SM CLR 13/12 A2998 RMK AO2 LTG DSNT S T01320115,KHLX,2023-06-06T07:15:00Z,36.77,-80.82,13.2,11.5,270,3,,10.0,29.97933,,,TRUE,TRUE,,,,,,,CLR,,,,,,,,VFR,,,,,,,,,,,,METAR,819.0
KHLB 060715Z AUTO 00000KT 9SM OVC044 11/09 A2999 RMK A01,KHLB,2023-06-06T07:15:00Z,39.35,-85.27,11.0,9.0,0,0,,9.0,29.991142,,,TRUE,TRUE,,,,,,,OVC,4400,,,,,,,VFR,,,,,,,,,,,,METAR,297.0
KHJH 060715Z AUTO 00000KT 10SM CLR 17/16 A3005 RMK AO2 T01650155,KHJH,2023-06-06T07:15:00Z,40.15,-97.58,16.5,15.5,0,0,,10.0,30.050198,,,TRUE,TRUE,,,,,,,CLR,,,,,,,,VFR,,,,,,,,,,,,METAR,449.0
KHHW 060715Z AUTO 00000KT 10SM CLR 19/16 A2995 RMK AO2,KHHW,2023-06-06T07:15:00Z,34.03,-95.55,19.0,16.0,0,0,,10.0,29.949802,,,TRUE,TRUE,,,,,,,CLR,,,,,,,,VFR,,,,,,,,,,,,METAR,178.0
KHHG 060715Z AUTO 00000KT 10SM CLR 14/09 A2998 RMK AO2 T01410091,KHHG,2023-06-06T07:15:00Z,40.85,-85.45,14.1,9.1,0,0,,10.0,29.97933,,,TRUE,TRUE,,,,,,,CLR,,,,,,,,VFR,,,,,,,,,,,,METAR,247.0
KHHF 060715Z AUTO 00000KT 10SM BKN070 15/14 A3009 RMK AO2 T01500143,KHHF,2023-06-06T07:15:00Z,35.9,-100.4,15.0,14.3,0,0,,10.0,30.088583,,,TRUE,TRUE,,,,,,,BKN,7000,,,,,,,VFR,,,,,,,,,,,,SPECI,729.0
KHFY 060715Z AUTO 00000KT 10SM CLR 16/09 A3000 RMK AO2 T01570094,KHFY,2023-06-06T07:15:00Z,39.63,-86.08,15.7,9.4,0,0,,10.0,30.0,,,TRUE,TRUE,,,,,,,CLR,,,,,,,,VFR,,,,,,,,,,,,METAR,250.0
KHFJ 060715Z AUTO 05003KT 10SM CLR 18/17 A3002 RMK AO2,KHFJ,2023-06-06T07:15:00Z,36.9,-94.02,18.0,17.0,50,3,,10.0,30.02067,,,TRUE,TRUE,,,,,,,CLR,,,,,,,,VFR,,,,,,,,,,,,SPECI,398.0
KHEQ 060715Z AUTO 18005KT 10SM CLR 15/12 A3013 RMK AO2,KHEQ,2023-06-06T07:15:00Z,40.57,-102.28,15.0,12.0,180,5,,10.0,30.129921,,,TRUE,TRUE,,,,,,,CLR,,,,,,,,VFR,,,,,,,,,,,,SPECI,1136.0
KHEG 060715Z AUTO 00000KT 10SM CLR 17/16 A2997 RMK AO2,KHEG,2023-06-06T07:15:00Z,30.28,-81.8,17.0,16.0,0,0,,10.0,29.970472,,,TRUE,TRUE,,,,,,,CLR,,,,,,,,VFR,,,,,,,,,,,,METAR,25.0
KHDL 060715Z AUTO 00000KT 10SM FEW039 BKN048 21/20 A2994 RMK AO2,KHDL,2023-06-06T07:15:00Z,31.37,-85.32,21.0,20.0,0,0,,10.0,29.940945,,,TRUE,TRUE,,,,,,,FEW,3900,BKN,4800,,,,,VFR,,,,,,,,,,,,SPECI,109.0
KHDE 060715Z AUTO 24005KT 10SM CLR 17/15 A3007 RMK AO2 T01680145,KHDE,2023-06-06T07:15:00Z,40.45,-99.33,16.8,14.5,240,5,,10.0,30.070866,,,TRUE,TRUE,,,,,,,CLR,,,,,,,,VFR,,,,,,,,,,,,METAR,703.0
KHDC 060715Z AUTO 00000KT 10SM CLR 19/19 A2993 RMK AO2 T01920188,KHDC,2023-06-06T07:15:00Z,30.52,-90.42,19.2,18.8,0,0,,10.0,29.929134,,,TRUE,TRUE,,,,,,,CLR,,,,,,,,VFR,,,,,,,,,,,,METAR,12.0
KHCR 060715Z AUTO 10SM SCT120 10/07 A3006 RMK AO2,KHCR,2023-06-06T07:15:00Z,40.48,-111.43,10.0,7.0,,,,10.0,30.059055,,,TRUE,TRUE,,,,,,,SCT,12000,,,,,,,VFR,,,,,,,,,,,,METAR,1708.0
KHCO 060715Z AUTO 11005KT 10SM SCT060 22/20 A2998 RMK AO2,KHCO,2023-06-06T07:15:00Z,48.75,-96.93,22.0,20.0,110,5,,10.0,29.97933,,,TRUE,TRUE,,,,,,,SCT,6000,,,,,,,VFR,,,,,,,,,,,,METAR,250.0
KHCD 060715Z AUTO 06005KT 10SM SCT080 SCT090 BKN120 22/18 A3003 RMK AO2 T02170181,KHCD,2023-06-06T07:15:00Z,44.87,-94.38,21.7,18.1,60,5,,10.0,30.029528,,,TRUE,TRUE,,,,,,,SCT,8000,SCT,9000,BKN,12000,,,VFR,,,,,,,,,,,,METAR,320.0
KHBV 060715Z AUTO 00000KT 10SM CLR 21/20 A2993 RMK AO2 T02100203,KHBV,2023-06-06T07:15:00Z,27.35,-98.73,21.0,20.3,0,0,,10.0,29.929134,,,TRUE,TRUE,,,,,,,CLR,,,,,,,,VFR,,,,,,,,,,,,METAR,200.0
KHAI 060715Z AUTO 29005KT 10SM CLR 16/10 A2997 RMK AO2 T01630101,KHAI,2023-06-06T07:15:00Z,41.97,-85.6,16.3,10.1,290,5,,10.0,29.970472,,,TRUE,TRUE,,,,,,,CLR,,,,,,,,VFR,,,,,,,,,,,,METAR,250.0
KHAF 060715Z AUTO 19010G16KT 8SM 13/11 A2985 RMK AO2,KHAF,2023-06-06T07:15:00Z,37.52,-122.5,13.0,11.0,190,10,16,8.0,29.84941,,,TRUE,TRUE,,,,,,,,,,,,,,,,,,,,,,,,,,,METAR,11.0
KHAE 060715Z AUTO 00000KT 10SM CLR 13/10 A3004 RMK AO2,KHAE,2023-06-06T07:15:00Z,39.73,-91.45,13.0,10.0,0,0,,10.0,30.041338,,,TRUE,TRUE,,,,,,,CLR,,,,,,,,VFR,,,,,,,,,,,,METAR,230.0
KGZS 060715Z AUTO 00000KT 10SM OVC090 20/20 A2995 RMK A01,KGZS,2023-06-06T07:15:00Z,35.15,-87.05,20.0,20.0,0,0,,10.0,29.949802,,,TRUE,TRUE,,,,,,,OVC,9000,,,,,,,VFR,,,,,,,,,,,,SPECI,198.0
KGZL 060715Z AUTO 00000KT 10SM 21/17 A2995 RMK AO2,KGZL,2023-06-06T07:15:00Z,35.28,-95.1,21.0,17.0,0,0,,10.0,29.949802,,,TRUE,TRUE,,,,,,,,,,,,,,,,,,,,,,,,,,,SPECI,176.0
KGYY 060715Z AUTO 00000KT 9SM OVC014 14/13 A3000 RMK AO2,KGYY,2023-06-06T07:15:00Z,41.62,-87.42,14.0,13.0,0,0,,9.0,30.0,,,TRUE,TRUE,,,,,,,OVC,1400,,,,,,,MVFR,,,,,,,,,,,,METAR,179.0
KGYL 060715Z AUTO 00000KT 10SM CLR 22/18 A3001 RMK AO2 T02150177,KGYL,2023-06-06T07:15:00Z,44.77,-94.08,21.5,17.7,0,0,,10.0,30.008858,,,TRUE,TRUE,,,,,,,CLR,,,,,,,,VFR,,,,,,,,,,,,METAR,304.0
KGYI 060715Z AUTO 00000KT 10SM CLR 21/18 A2998 RMK AO2 T02050181 TSNO,KGYI,2023-06-06T07:15:00Z,33.72,-96.67,20.5,18.1,0,0,,10.0,29.97933,,,TRUE,TRUE,,,TRUE,,,,CLR,,,,,,,,VFR,,,,,,,,,,,,METAR,227.0
KGYH 060715Z AUTO 21003KT 10SM VCTS SCT080 19/17 A2993 RMK A02 LTG DSNT SE AND NW T01940171,KGYH,2023-06-06T07:15:00Z,34.75,-82.38,19.4,17.1,210,3,,10.0,29.929134,,,TRUE,TRUE,,,,,,VCTS,SCT,8000,,,,,,,VFR,,,,,,,,,,,,METAR,283.0
KGYF 060715Z AUTO 12006KT 10SM CLR 26/20 A2988 RMK AO2 T02600197,KGYF,2023-06-06T07:15:00Z,26.13,-94.9,26.0,19.7,120,6,,10.0,29.878937,,,TRUE,TRUE,,,,,,,CLR,,,,,,,,VFR,,,,,,,,,,,,METAR,65.0
KGYB 060715Z AUTO 00000KT 10SM CLR 20/19 A2994 RMK AO2 T01970190,KGYB,2023-06-06T07:15:00Z,30.17,-96.98,19.7,19.0,0,0,,10.0,29.940945,,,TRUE,TRUE,,,,,,,CLR,,,,,,,,VFR,,,,,,,,,,,,METAR,140.0
KGWR 060715Z AUTO 22003KT 10SM CLR 19/19 A3000 RMK A01,KGWR,2023-06-06T07:15:00Z,46.22,-97.65,19.0,19.0,220,3,,10.0,30.0,,,TRUE,TRUE,,,,,,,CLR,,,,,,,,VFR,,,,,,,,,,,,METAR,381.0
KGWB 060715Z AUTO 00000KT 10SM CLR 15/10 A2998 RMK AO2,KGWB,2023-06-06T07:15:00Z,41.3,-85.07,15.0,10.0,0,0,,10.0,29.97933,,,TRUE,TRUE,,,,,,,CLR,,,,,,,,VFR,,,,,,,,,,,,SPECI,268.0
KGVT 060715Z AUTO 12005KT 10SM SCT060 20/19 A2995 RMK AO2 TSNO T01990193,KGVT,2023-06-06T07:15:00Z,33.07,-96.07,19.9,19.3,120,5,,10.0,29.949802,,,TRUE,TRUE,,,TRUE,,,,SCT,6000,,,,,,,VFR,,,,,,,,,,,,SPECI,165.0
KGVE 060715Z AUTO 00000KT 10SM CLR 11/10 A2989 RMK AO1 T01090100,KGVE,2023-06-06T07:15:00Z,38.15,-78.17,10.9,10.0,0,0,,10.0,29.890747,,,TRUE,TRUE,,,,,,,CLR,,,,,,,,VFR,,,,,,,,,,,,METAR,138.0
KGRY 060715Z AUTO 00000KT 10SM CLR 25/19 A2991 RMK A01,KGRY,2023-06-06T07:15:00Z,27.63,-90.45,25.0,19.0,0,0,,10.0,29.911417,,,TRUE,TRUE,,,,,,,CLR,,,,,,,,VFR,,,,,,,,,,,,METAR,58.0
KGRN 060715Z AUTO 00000KT 10SM CLR 15/13 A3009 RMK AO2 T01460125,KGRN,2023-06-06T07:15:00Z,42.8,-102.17,14.6,12.5,0,0,,10.0,30.088583,,,TRUE,TRUE,,,,,,,CLR,,,,,,,,VFR,,,,,,,,,,,,SPECI,1080.0
KGPM 060715Z AUTO 21003KT 10SM CLR 23/18 A2997 RMK AO2 T02270175,KGPM,2023-06-06T07:15:00Z,32.7,-97.05,22.7,17.5,210,3,,10.0,29.970472,,,TRUE,TRUE,,,,,,,CLR,,,,,,,,VFR,,,,,,,,,,,,METAR,178.0
KGPH 060715Z AUTO 00000KT 10SM CLR 17/16 A3004 RMK AO2,KGPH,2023-06-06T07:15:00Z,39.33,-94.32,17.0,16.0,0,0,,10.0,30.041338,,,TRUE,TRUE,,,,,,,CLR,,,,,,,,VFR,,,,,,,,,,,,METAR,233.0
KGPC 060715Z AUTO 00000KT 10SM CLR 14/08 A3001 RMK AO2 T01440079,KGPC,2023-06-06T07:15:00Z,39.63,-86.82,14.4,7.9,0,0,,10.0,30.008858,,,TRUE,TRUE,,,,,,,CLR,,,,,,,,VFR,,,,,,,,,,,,SPECI,254.0
KGNG 060715Z AUTO 06005KT 10SM SCT046 SCT055 18/11 A2997 RMK AO2,KGNG,2023-06-06T07:15:00Z,42.92,-114.77,18.0,11.0,60,5,,10.0,29.970472,,,TRUE,TRUE,,,,,,,SCT,4600,SCT,5500,,,,,VFR,,,,,,,,,,,,SPECI,1128.0
KGNB 060715Z AUTO 08003KT 10SM CLR 06/04 A3029 RMK AO2 T00580038,KGNB,2023-06-06T07:15:00Z,40.08,-105.92,5.8,3.8,80,3,,10.0,30.28937,,,TRUE,TRUE,,,,,,,CLR,,,,,,,,VFR,,,,,,,,,,,,SPECI,2500.0
KGMJ 060715Z AUTO 00000KT 7SM CLR 19/19 A3000 RMK AO2,KGMJ,2023-06-06T07:15:00Z,36.6,-94.73,19.0,19.0,0,0,,7.0,30.0,,,TRUE,TRUE,,,,,,,CLR,,,,,,,,VFR,,,,,,,,,,,,SPECI,251.0
KGLY 060715Z AUTO 03004KT 7SM CLR 15/11 A3002 RMK AO2,KGLY,2023-06-06T07:15:00Z,38.35,-93.68,15.0,11.0,30,4,,7.0,30.02067,,,TRUE,TRUE,,,,,,,CLR,,,,,,,,VFR,,,,,,,,,,,,METAR,247.0
KGLW 060715Z AUTO 00000KT 10SM SCT060 17/15 A2996 RMK AO2 T01730150,KGLW,2023-06-06T07:15:00Z,37.03,-85.95,17.3,15.0,0,0,,10.0,29.958662,,,TRUE,TRUE,,,,,,,SCT,6000,,,,,,,VFR,,,,,,,,,,,,SPECI,216.0
KGLE 060715Z AUTO 00000KT 10SM SCT080 20/16 A2998 RMK AO2 T01950161 PWINO,KGLE,2023-06-06T07:15:00Z,33.65,-97.2,19.5,16.1,0,0,,10.0,29.97933,,,TRUE,TRUE,,,,,TRUE,,SCT,8000,,,,,,,VFR,,,,,,,,,,,,SPECI,250.0
KGKT 060715Z AUTO 07003KT 8SM SCT055 BKN080 18/18 A2994 RMK A01,KGKT,2023-06-06T07:15:00Z,35.85,-83.53,18.0,18.0,70,3,,8.0,29.940945,,,TRUE,TRUE,,,,,,,SCT,5500,BKN,8000,,,,,VFR,,,,,,,,,,,,METAR,305.0
KGIC 060715Z AUTO 00000KT 10SM CLR 13/11 A3000 RMK AO1,KGIC,2023-06-06T07:15:00Z,45.95,-116.12,13.0,11.0,0,0,,10.0,30.0,,,TRUE,TRUE,,,,,,,CLR,,,,,,,,VFR,,,,,,,,,,,,SPECI,1002.0
KGHW 060715Z AUTO 05006KT 7SM CLR 19/18 A3005 RMK AO2,KGHW,2023-06-06T07:15:00Z,45.63,-95.32,19.0,18.0,50,6,,7.0,30.050198,,,TRUE,TRUE,,,,,,,CLR,,,,,,,,VFR,,,,,,,,,,,,METAR,423.0
KGHG 060715Z AUTO 00000KT 10SM FEW060 SCT070 BKN090 13/11 A2967 RMK AO2,KGHG,2023-06-06T07:15:00Z,42.1,-70.67,13.0,11.0,0,0,,10.0,29.66929,,,TRUE,TRUE,,,,,,,FEW,6000,SCT,7000,BKN,9000,,,VFR,,,,,,,,,,,,METAR,3.0
KGGP 060715Z AUTO 00000KT 10SM CLR 15/06 A3001 RMK AO2,KGGP,2023-06-06T07:15:00Z,40.72,-86.37,15.0,6.0,0,0,,10.0,30.008858,,,TRUE,TRUE,,,,,,,CLR,,,,,,,,VFR,,,,,,,,,,,,METAR,224.0
KGGI 060715Z AUTO 19003KT 10SM CLR 21/13 A3005 RMK AO2 T02050129,KGGI,2023-06-06T07:15:00Z,41.72,-92.73,20.5,12.9,190,3,,10.0,30.050198,,,TRUE,TRUE,,,,,,,CLR,,,,,,,,VFR,,,,,,,,,,,,METAR,305.0
KGGF 060715Z AUTO 18007KT 9SM CLR 14/14 A3011 RMK AO2,KGGF,2023-06-06T07:15:00Z,40.87,-101.73,14.0,14.0,180,7,,9.0,30.109253,,,TRUE,TRUE,,,,,,,CLR,,,,,,,,VFR,,,,,,,,,,,,METAR,1044.0
KGGE 060715Z AUTO 00000KT 10SM SCT046 SCT060 15/15 A2995 RMK AO2 LTG DSNT W AND NW,KGGE,2023-06-06T07:15:00Z,33.32,-79.32,15.0,15.0,0,0,,10.0,29.949802,,,TRUE,TRUE,,,,,,,SCT,4600,SCT,6000,,,,,VFR,,,,,,,,,,,,METAR,9.0
KGDJ 060715Z AUTO 30005KT 10SM CLR 19/18 A2998 RMK AO2 T01940181,KGDJ,2023-06-06T07:15:00Z,32.45,-97.82,19.4,18.1,300,5,,10.0,29.97933,,,TRUE,TRUE,,,,,,,CLR,,,,,,,,VFR,,,,,,,,,,,,METAR,235.0
KGDB 060715Z AUTO 00000KT 10SM CLR 21/17 A3002 RMK AO2 T02130170,KGDB,2023-06-06T07:15:00Z,44.75,-95.55,21.3,17.0,0,0,,10.0,30.02067,,,TRUE,TRUE,,,,,,,CLR,,,,,,,,VFR,,,,,,,,,,,,METAR,316.0
KGDA 060715Z AUTO 03003KT 10SM CLR 17/11 A2998 RMK AO2 T01720110 PWINO,KGDA,2023-06-06T07:15:00Z,37.33,-88.1,17.2,11.0,30,3,,10.0,29.97933,,,TRUE,TRUE,,,,,TRUE,,CLR,,,,,,,,VFR,,,,,,,,,,,,METAR,199.0
KGCY 060715Z AUTO 00000KT 10SM SCT060 BKN075 16/13 A2996 RMK A01,KGCY,2023-06-06T07:15:00Z,36.2,-82.82,16.0,13.0,0,0,,10.0,29.958662,,,TRUE,TRUE,,,,,,,SCT,6000,BKN,7500,,,,,VFR,,,,,,,,,,,,METAR,488.0
KGCM 060715Z AUTO 05004KT 10SM CLR 20/20 A2998 RMK AO2,KGCM,2023-06-06T07:15:00Z,36.3,-95.48,20.0,20.0,50,4,,10.0,29.97933,,,TRUE,TRUE,,,,,,,CLR,,,,,,,,VFR,,,,,,,,,,,,SPECI,215.0
KGCD 060715Z AUTO 00000KT 10SM CLR 16/07 A2999 RMK AO2 T01640073,KGCD,2023-06-06T07:15:00Z,44.4,-118.97,16.4,7.3,0,0,,10.0,29.991142,,,TRUE,TRUE,,,,,,,CLR,,,,,,,,VFR,,,,,,,,,,,,METAR,1122.0
KGBG 060715Z AUTO 00000KT 10SM CLR 13/09 A3004 RMK AO2 T01320093 TSNO,KGBG,2023-06-06T07:15:00Z,40.93,-90.43,13.2,9.3,0,0,,10.0,30.041338,,,TRUE,TRUE,,,TRUE,,,,CLR,,,,,,,,VFR,,,,,,,,,,,,METAR,230.0
KGAO 060715Z AUTO 00000KT 10SM CLR 24/21 A2991 RMK AO2 T02360210,KGAO,2023-06-06T07:15:00Z,29.45,-90.27,23.6,21.0,0,0,,10.0,29.911417,,,TRUE,TRUE,,,,,,,CLR,,,,,,,,VFR,,,,,,,,,,,,SPECI,0.0
KFZG 060715Z AUTO 18003KT 10SM CLR 20/17 A2996 RMK AO2 LTG DSNT NE T02010173,KFZG,2023-06-06T07:15:00Z,31.68,-83.27,20.1,17.3,180,3,,10.0,29.958662,,,TRUE,TRUE,,,,,,,CLR,,,,,,,,VFR,,,,,,,,,,,,SPECI,105.0
KFYJ 060715Z AUTO 00000KT 10SM CLR 14/13 A2988 RMK AO1 T01420130,KFYJ,2023-06-06T07:15:00Z,37.52,-76.77,14.2,13.0,0,0,,10.0,29.878937,,,TRUE,TRUE,,,,,,,CLR,,,,,,,,VFR,,,,,,,,,,,,METAR,3.0
KFYG 060715Z AUTO 00000KT 10SM 13/13 A3002 RMK AO2,KFYG,2023-06-06T07:15:00Z,38.58,-91.0,13.0,13.0,0,0,,10.0,30.02067,,,TRUE,TRUE,,,,,,,,,,,,,,,,,,,,,,,,,,,METAR,147.0
KFYE 060715Z AUTO 00000KT 8SM FEW050 FEW055 19/19 A2995 RMK A01,KFYE,2023-06-06T07:15:00Z,35.2,-89.38,19.0,19.0,0,0,,8.0,29.949802,,,TRUE,TRUE,,,,,,,FEW,5000,FEW,5500,,,,,VFR,,,,,,,,,,,,METAR,133.0
KFXY 060715Z AUTO 00000KT 10SM CLR 16/14 A3003 RMK AO2,KFXY,2023-06-06T07:15:00Z,43.23,-93.62,16.0,14.0,0,0,,10.0,30.029528,,,TRUE,TRUE,,,,,,,CLR,,,,,,,,VFR,,,,,,,,,,,,METAR,366.0
KFWS 060715Z AUTO 00000KT 10SM BKN080 20/17 A2997 RMK AO2 T02000175,KFWS,2023-06-06T07:15:00Z,32.57,-97.3,20.0,17.5,0,0,,10.0,29.970472,,,TRUE,TRUE,,,,,,,BKN,8000,,,,,,,VFR,,,,,,,,,,,,METAR,211.0
KFWC 060715Z AUTO 00000KT 7SM CLR 15/07 A2999 RMK AO1 T01490071,KFWC,2023-06-06T07:15:00Z,38.38,-88.42,14.9,7.1,0,0,,7.0,29.991142,,,TRUE,TRUE,,,,,,,CLR,,,,,,,,VFR,,,,,,,,,,,,METAR,131.0
KFWB 060715Z AUTO VRB04KT 10SM FEW055 21/16 A3002 RMK AO2,KFWB,2023-06-06T07:15:00Z,36.7,-93.4,21.0,16.0,0,4,,10.0,30.02067,,,TRUE,TRUE,,,,,,,FEW,5500,,,,,,,VFR,,,,,,,,,,,,METAR,392.0
KFTN 060715Z AUTO 06004KT 10SM CLR 23/20 A2995 RMK A01,KFTN,2023-06-06T07:15:00Z,28.22,-100.02,23.0,20.0,60,4,,10.0,29.949802,,,TRUE,TRUE,,,,,,,CLR,,,,,,,,VFR,,,,,,,,,,,,METAR,236.0
KFSW 060715Z AUTO 00000KT 10SM 16/11 A3002 RMK AO2,KFSW,2023-06-06T07:15:00Z,40.67,-91.32,16.0,11.0,0,0,,10.0,30.02067,,,TRUE,TRUE,,,,,,,,,,,,,,,,,,,,,,,,,,,METAR,219.0
KFSE 060715Z AUTO 15006KT 10SM CLR 21/17 A3003 RMK AO2,KFSE,2023-06-06T07:15:00Z,47.58,-95.77,21.0,17.0,150,6,,10.0,30.029528,,,TRUE,TRUE,,,,,,,CLR,,,,,,,,VFR,,,,,,,,,,,,METAR,389.0
KFRR 060715Z AUTO 19005KT 10SM CLR 11/08 A2989 RMK AO1,KFRR,2023-06-06T07:15:00Z,38.92,-78.25,11.0,8.0,190,5,,10.0,29.890747,,,TRUE,TRUE,,,,,,,CLR,,,,,,,,VFR,,,,,,,,,,,,METAR,213.0
KFRH 060715Z AUTO 05003KT 10SM CLR 14/08 A2998 RMK AO1,KFRH,2023-06-06T07:15:00Z,38.5,-86.63,14.0,8.0,50,3,,10.0,29.97933,,,TRUE,TRUE,,,,,,,CLR,,,,,,,,VFR,,,,,,,,,,,,METAR,241.0
KFPY 060715Z AUTO 13004KT 10SM CLR 20/17 A2995 RMK AO2 T02000170,KFPY,2023-06-06T07:15:00Z,30.07,-83.57,20.0,17.0,130,4,,10.0,29.949802,,,TRUE,TRUE,,,,,,,CLR,,,,,,,,VFR,,,,,,,,,,,,SPECI,12.0
KFPK 060715Z AUTO 00000KT 10SM CLR 15/10 A2995 RMK AO2 T01530095,KFPK,2023-06-06T07:15:00Z,42.57,-84.82,15.3,9.5,0,0,,10.0,29.949802,,,TRUE,TRUE,,,,,,,CLR,,,,,,,,VFR,,,,,,,,,,,,METAR,269.0
KFOT 060715Z AUTO 31006KT 5SM CLR 09/09 A2980 RMK AO1,KFOT,2023-06-06T07:15:00Z,40.55,-124.13,9.0,9.0,310,6,,5.0,29.799213,,,TRUE,TRUE,,,,,,,CLR,,,,,,,,MVFR,,,,,,,,,,,,METAR,118.0
KFOA 060715Z AUTO 00000KT 7SM HZ CLR 13/09 A3000 RMK AO2,KFOA,2023-06-06T07:15:00Z,38.67,-88.45,13.0,9.0,0,0,,7.0,30.0,,,TRUE,TRUE,,,,,,HZ,CLR,,,,,,,,VFR,,,,,,,,,,,,METAR,141.0
KFMM 060715Z AUTO 10SM CLR 13/13 A3014 RMK AO2,KFMM,2023-06-06T07:15:00Z,40.33,-103.8,13.0,13.0,,,,10.0,30.138779,,,TRUE,TRUE,,,,,,,CLR,,,,,,,,VFR,,,,,,,,,,,,METAR,1376.0
KFLY 060715Z AUTO 26003KT 10SM 10/09 A3026 RMK AO2 T01000087,KFLY,2023-06-06T07:15:00Z,38.95,-104.57,10.0,8.7,260,3,,10.0,30.259842,,,TRUE,TRUE,,,,,,,,,,,,,,,,,,,,,,,,,,,METAR,2096.0
KFKS 060715Z AUTO 00000KT 10SM CLR 14/12 A3001 RMK AO2 T01360119,KFKS,2023-06-06T07:15:00Z,44.63,-86.2,13.6,11.9,0,0,,10.0,30.008858,,,TRUE,TRUE,,,,,,,CLR,,,,,,,,VFR,,,,,,,,,,,,METAR,189.0
KFKR 060715Z AUTO 00000KT 7SM SCT033 OVC039 14/08 A2999 RMK AO2,KFKR,2023-06-06T07:15:00Z,40.27,-86.57,14.0,8.0,0,0,,7.0,29.991142,,,TRUE,TRUE,,,,,,,SCT,3300,OVC,3900,,,,,VFR,,,,,,,,,,,,METAR,260.0
KFKN 060715Z AUTO 00000KT 10SM CLR 14/13 A2988 RMK AO2 T01400125,KFKN,2023-06-06T07:15:00Z,36.7,-76.9,14.0,12.5,0,0,,10.0,29.878937,,,TRUE,TRUE,,,,,,,CLR,,,,,,,,VFR,,,,,,,,,,,,METAR,9.0
KFKA 060715Z AUTO 28004KT 7SM SCT070 SCT085 BKN110 19/16 A3002 RMK AO2,KFKA,2023-06-06T07:15:00Z,43.68,-92.17,19.0,16.0,280,4,,7.0,30.02067,,,TRUE,TRUE,,,,,,,SCT,7000,SCT,8500,BKN,11000,,,VFR,,,,,,,,,,,,METAR,388.0
KFIN 060715Z AUTO 00000KT 10SM CLR 18/18 A2995 RMK AO2 T01760176,KFIN,2023-06-06T07:15:00Z,29.47,-81.2,17.6,17.6,0,0,,10.0,29.949802,,,TRUE,TRUE,,,,,,,CLR,,,,,,,,VFR,,,,,,,,,,,,METAR,10.0
KFHB 060715Z AUTO 00000KT 10SM CLR 18/ A2995 RMK AO2,KFHB,2023-06-06T07:15:00Z,30.62,-81.47,18.0,,0,0,,10.0,29.949802,,,TRUE,TRUE,,,,,,,CLR,,,,,,,,VFR,,,,,,,,,,,,SPECI,4.0
KFGX 060715Z AUTO 00000KT 10SM CLR 11/09 A3000 RMK AO2 T01120088,KFGX,2023-06-06T07:15:00Z,38.55,-83.75,11.2,8.8,0,0,,10.0,30.0,,,TRUE,TRUE,,,,,,,CLR,,,,,,,,VFR,,,,,,,,,,,,SPECI,279.0
KFGN 060715Z AUTO 14007KT 110V180 5SM HZ CLR 20/17 A3004 RMK AO2,KFGN,2023-06-06T07:15:00Z,49.32,-94.9,20.0,17.0,140,7,,5.0,30.041338,,,TRUE,TRUE,,,,,,HZ,CLR,,,,,,,,MVFR,,,,,,,,,,,,METAR,327.0
KFFX 060715Z AUTO 00000KT 10SM CLR 15/13 A2998 RMK AO2 T01520129,KFFX,2023-06-06T07:15:00Z,43.43,-86.0,15.2,12.9,0,0,,10.0,29.97933,,,TRUE,TRUE,,,,,,,CLR,,,,,,,,VFR,,,,,,,,,,,,METAR,234.0
KFFM 060715Z AUTO 13007KT 10SM CLR 23/18 A3001 RMK AO2,KFFM,2023-06-06T07:15:00Z,46.28,-96.15,23.0,18.0,130,7,,10.0,30.008858,,,TRUE,TRUE,,,,,,,CLR,,,,,,,,VFR,,,,,,,,,,,,METAR,362.0
KFFL 060715Z AUTO 00000KT 10SM CLR 14/09 A3002 RMK A01,KFFL,2023-06-06T07:15:00Z,41.05,-91.97,14.0,9.0,0,0,,10.0,30.02067,,,TRUE,TRUE,,,,,,,CLR,,,,,,,,VFR,,,,,,,,,,,,METAR,240.0
KFET 060715Z AUTO 13004KT 10SM CLR 19/17 A3005 RMK AO2 T01850170,KFET,2023-06-06T07:15:00Z,41.45,-96.52,18.5,17.0,130,4,,10.0,30.050198,,,TRUE,TRUE,,,,,,,CLR,,,,,,,,VFR,,,,,,,,,,,,METAR,366.0
KFEP 060715Z AUTO 00000KT 10SM SCT110 15/11 A3003 RMK AO2 T01540111,KFEP,2023-06-06T07:15:00Z,42.25,-89.58,15.4,11.1,0,0,,10.0,30.029528,,,TRUE,TRUE,,,,,,,SCT,11000,,,,,,,VFR,,,,,,,,,,,,METAR,255.0
KFDW 060715Z AUTO 21004KT 10SM TSRA SCT019 SCT043 BKN090 18/16 A2994 RMK AO1 P0001 LTG DSNT SE THRU NW,KFDW,2023-06-06T07:15:00Z,34.32,-81.12,18.0,16.0,210,4,,10.0,29.940945,,,TRUE,TRUE,,,,,,TSRA,SCT,1900,SCT,4300,BKN,9000,,,VFR,,,,,,0.01,,,,,,METAR,174.0
KFBR 060715Z AUTO 00000KT 10SM CLR 11/07 A3018 RMK AO2 T01090069,KFBR,2023-06-06T07:15:00Z,41.4,-110.4,10.9,6.9,0,0,,10.0,30.180119,,,TRUE,TRUE,,,,,,,CLR,,,,,,,,VFR,,,,,,,,,,,,SPECI,2140.0
KFBL 060715Z AUTO 00000KT 10SM SCT095 BKN110 20/17 A3002 RMK AO2,KFBL,2023-06-06T07:15:00Z,44.33,-93.32,20.0,17.0,0,0,,10.0,30.02067,,,TRUE,TRUE,,,,,,,SCT,9500,BKN,11000,,,,,VFR,,,,,,,,,,,,METAR,318.0
KF70 060715Z AUTO 22007KT 10SM OVC022 12/10 A2992 RMK AO2,KF70,2023-06-06T07:15:00Z,33.57,-117.13,12.0,10.0,220,7,,10.0,29.920275,,,TRUE,TRUE,,,,,,,OVC,2200,,,,,,,MVFR,,,,,,,,,,,,METAR,406.0
KF46 060715Z AUTO 00000KT 10SM CLR 22/20 A2996 RMK AO2 T02170204,KF46,2023-06-06T07:15:00Z,32.93,-96.43,21.7,20.4,0,0,,10.0,29.958662,,,TRUE,TRUE,,,,,,,CLR,,,,,,,,VFR,,,,,,,,,,,,METAR,175.0
KF44 060715Z AUTO 05006KT 10SM BKN120 21/18 A2994 RMK AO2,KF44,2023-06-06T07:15:00Z,32.17,-95.83,21.0,18.0,50,6,,10.0,29.940945,,,TRUE,TRUE,,,,,,,BKN,12000,,,,,,,VFR,,,,,,,,,,,,METAR,137.0
KF17 060715Z AUTO 06003KT 10SM CLR 20/18 A2995 RMK AO2,KF17,2023-06-06T07:15:00Z,31.83,-94.15,20.0,18.0,60,3,,10.0,29.949802,,,TRUE,TRUE,,,,,,,CLR,,,,,,,,VFR,,,,,,,,,,,,METAR,93.0
KF05 060715Z AUTO 34005KT 10SM CLR 19/18 A3002 RMK AO2 T01930180,KF05,2023-06-06T07:15:00Z,34.23,-99.28,19.3,18.0,340,5,,10.0,30.02067,,,TRUE,TRUE,,,,,,,CLR,,,,,,,,VFR,,,,,,,,,,,,METAR,384.0
KF00 060715Z AUTO 01004KT 10SM SCT095 20/20 A2995 RMK AO2 T02040200,KF00,2023-06-06T07:15:00Z,33.62,-96.18,20.4,20.0,10,4,,10.0,29.949802,,,TRUE,TRUE,,,,,,,SCT,9500,,,,,,,VFR,,,,,,,,,,,,METAR,189.0
KEZZ 060715Z AUTO 13005KT 10SM CLR A3005 RMK AO2,KEZZ,2023-06-06T07:15:00Z,39.72,-94.28,,,130,5,,10.0,30.050198,,,TRUE,TRUE,,,,,,,CLR,,,,,,,,VFR,,,,,,,,,,,,SPECI,317.0
KEZP 060715Z AUTO 14006KT 10SM SCT024 BKN034 OVC041 25/20 A2991 RMK A01,KEZP,2023-06-06T07:15:00Z,28.22,-92.8,25.0,20.0,140,6,,10.0,29.911417,,,TRUE,TRUE,,,,,,,SCT,2400,BKN,3400,OVC,4100,,,VFR,,,,,,,,,,,,METAR,30.0
KEZM 060715Z AUTO 00000KT 10SM CLR 17/17 A2995 RMK AO2 LTG DSNT NE,KEZM,2023-06-06T07:15:00Z,32.22,-83.13,17.0,17.0,0,0,,10.0,29.949802,,,TRUE,TRUE,,,,,,,CLR,,,,,,,,VFR,,,,,,,,,,,,METAR,86.0
KEZF 060715Z AUTO 00000KT 10SM CLR 13/11 A2986 RMK AO2 T01280105,KEZF,2023-06-06T07:15:00Z,38.27,-77.45,12.8,10.5,0,0,,10.0,29.861221,,,TRUE,TRUE,,,,,,,CLR,,,,,,,,VFR,,,,,,,,,,,,METAR,26.0
KEVU 060715Z AUTO 21003KT 7SM CLR 18/17 A3005 RMK AO2 T01860171,KEVU,2023-06-06T07:15:00Z,40.35,-94.92,18.6,17.1,210,3,,7.0,30.050198,,,TRUE,TRUE,,,,,,,CLR,,,,,,,,VFR,,,,,,,,,,,,METAR,351.0
KETN 060715Z AUTO 00000KT 10SM SCT060 BKN070 OVC110 18/17 A3000 RMK AO2 T01790171,KETN,2023-06-06T07:15:00Z,32.42,-98.82,17.9,17.1,0,0,,10.0,30.0,,,TRUE,TRUE,,,,,,,SCT,6000,BKN,7000,OVC,11000,,,VFR,,,,,,,,,,,,METAR,445.0
KERY 060715Z AUTO 01004KT 10SM CLR 11/08 A3006 RMK AO2 T01070075,KERY,2023-06-06T07:15:00Z,46.3,-85.45,10.7,7.5,10,4,,10.0,30.059055,,,TRUE,TRUE,,,,,,,CLR,,,,,,,,VFR,,,,,,,,,,,,METAR,261.0
KERV 060715Z AUTO 00000KT 10SM CLR 18/17 A2998 RMK AO2 T01790170,KERV,2023-06-06T07:15:00Z,29.98,-99.08,17.9,17.0,0,0,,10.0,29.97933,,,TRUE,TRUE,,,,,,,CLR,,,,,,,,VFR,,,,,,,,,,,,METAR,483.0
KEQA 060715Z AUTO 02004KT 10SM CLR 18/14 A3003 RMK AO2,KEQA,2023-06-06T07:15:00Z,37.78,-96.82,18.0,14.0,20,4,,10.0,30.029528,,,TRUE,TRUE,,,,,,,CLR,,,,,,,,VFR,,,,,,,,,,,,METAR,422.0
KEOK 060715Z AUTO 00000KT 10SM SCT043 BKN049 BKN055 15/14 A3002 RMK A01,KEOK,2023-06-06T07:15:00Z,40.47,-91.42,15.0,14.0,0,0,,10.0,30.02067,,,TRUE,TRUE,,,,,,,SCT,4300,BKN,4900,BKN,5500,,,VFR,,,,,,,,,,,,METAR,206.0
KEMV 060715Z AUTO 00000KT 10SM OVC080 14/14 A2990 RMK AO2 T01430136 PNO,KEMV,2023-06-06T07:15:00Z,36.68,-77.48,14.3,13.6,0,0,,10.0,29.899607,,,TRUE,TRUE,,,,,,,OVC,8000,,,,,,,VFR,,,,,,,,,,,,METAR,35.0
KEMM 060715Z AUTO 36011KT 10SM CLR 08/04 A3018 RMK AO2 TSNO,KEMM,2023-06-06T07:15:00Z,41.82,-110.55,8.0,4.0,360,11,,10.0,30.180119,,,TRUE,TRUE,,,TRUE,,,,CLR,,,,,,,,VFR,,,,,,,,,,,,METAR,2219.0
KELO 060715Z AUTO 12007KT 10SM OVC045 16/11 A3012 RMK AO2,KELO,2023-06-06T07:15:00Z,47.82,-91.83,16.0,11.0,120,7,,10.0,30.121063,,,TRUE,TRUE,,,,,,,OVC,4500,,,,,,,VFR,,,,,,,,,,,,METAR,438.0
KELK 060715Z AUTO 25003KT 10SM CLR 18/17 A3005 RMK AO2 SLP460 T01800174 $,KELK,2023-06-06T07:15:00Z,35.43,-99.4,18.0,17.4,250,3,,10.0,30.050198,1046.0,,TRUE,TRUE,TRUE,,,,,,CLR,,,,,,,,VFR,,,,,,,,,,,,METAR,603.0
KELA 060715Z AUTO 26003KT 5SM BR CLR 21/20 A2993 RMK AO2 T02050197,KELA,2023-06-06T07:15:00Z,29.6,-96.32,20.5,19.7,260,3,,5.0,29.929134,,,TRUE,TRUE,,,,,,BR,CLR,,,,,,,,MVFR,,,,,,,,,,,,METAR,56.0
KEKX 060715Z AUTO 04003KT 10SM CLR 14/13 A2998 RMK AO2 T01430131,KEKX,2023-06-06T07:15:00Z,37.68,-85.92,14.3,13.1,40,3,,10.0,29.97933,,,TRUE,TRUE,,,,,,,CLR,,,,,,,,VFR,,,,,,,,,,,,METAR,234.0
KEKS 060715Z AUTO VRB04KT 10SM CLR 11/10 A3012 RMK AO2,KEKS,2023-06-06T07:15:00Z,45.27,-111.65,11.0,10.0,0,4,,10.0,30.121063,,,TRUE,TRUE,,,,,,,CLR,,,,,,,,VFR,,,,,,,,,,,,METAR,1636.0
KEKM 060715Z AUTO 00000KT 10SM CLR 15/10 A2999 RMK AO2 T01460102 $,KEKM,2023-06-06T07:15:00Z,41.72,-86.0,14.6,10.2,0,0,,10.0,29.991142,,,TRUE,TRUE,TRUE,,,,,,CLR,,,,,,,,VFR,,,,,,,,,,,,METAR,236.0
KEKE 060715Z AUTO 10005KT 10SM CLR 25/20 A2983 RMK A01,KEKE,2023-06-06T07:15:00Z,28.5,-91.58,25.0,20.0,100,5,,10.0,29.828741,,,TRUE,TRUE,,,,,,,CLR,,,,,,,,VFR,,,,,,,,,,,,METAR,31.0
KEIK 060715Z AUTO 00000KT 10SM CLR 11/10 A3014 RMK AO2 T01070096,KEIK,2023-06-06T07:15:00Z,40.02,-105.05,10.7,9.6,0,0,,10.0,30.138779,,,TRUE,TRUE,,,,,,,CLR,,,,,,,,VFR,,,,,,,,,,,,METAR,1551.0
KEGV 060715Z AUTO 05003KT 7SM CLR 13/11 A3010 RMK AO2 T01260111,KEGV,2023-06-06T07:15:00Z,45.93,-89.27,12.6,11.1,50,3,,7.0,30.100393,,,TRUE,TRUE,,,,,,,CLR,,,,,,,,VFR,,,,,,,,,,,,METAR,499.0
KEGT 060715Z AUTO 33003KT 10SM CLR 17/16 A3003 RMK AO2 T01730159,KEGT,2023-06-06T07:15:00Z,37.32,-97.38,17.3,15.9,330,3,,10.0,30.029528,,,TRUE,TRUE,,,,,,,CLR,,,,,,,,VFR,,,,,,,,,,,,SPECI,387.0
KEFK 060715Z AUTO 00000KT 7SM SCT120 06/05 A2971 RMK AO2 T00620049,KEFK,2023-06-06T07:15:00Z,44.88,-72.23,6.2,4.9,0,0,,7.0,29.71063,,,TRUE,TRUE,,,,,,,SCT,12000,,,,,,,VFR,,,,,,,,,,,,METAR,282.0
KEDN 060715Z AUTO 00000KT 10SM CLR 19/19 A2994 RMK AO2 T01900190 PWINO,KEDN,2023-06-06T07:15:00Z,31.3,-85.9,19.0,19.0,0,0,,10.0,29.940945,,,TRUE,TRUE,,,,,TRUE,,CLR,,,,,,,,VFR,,,,,,,,,,,,METAR,103.0
KEDJ 060715Z AUTO 18003KT 10SM FEW030 SCT049 BKN060 13/07 A2998 RMK A01,KEDJ,2023-06-06T07:15:00Z,40.37,-83.82,13.0,7.0,180,3,,10.0,29.97933,,,TRUE,TRUE,,,,,,,FEW,3000,SCT,4900,BKN,6000,,,VFR,,,,,,,,,,,,METAR,341.0
KEDC 060715Z AUTO 00000KT BKN120 19/19 A2993 RMK AO2,KEDC,2023-06-06T07:15:00Z,30.4,-97.57,19.0,19.0,0,0,,,29.929134,,,TRUE,TRUE,,,,,,,BKN,12000,,,,,,,,,,,,,,,,,,,METAR,184.0
KECU 060715Z AUTO 05004KT 10SM FEW090 18/16 A3006 RMK AO2,KECU,2023-06-06T07:15:00Z,29.95,-100.17,18.0,16.0,50,4,,10.0,30.059055,,,TRUE,TRUE,,,,,,,FEW,9000,,,,,,,VFR,,,,,,,,,,,,METAR,725.0
KECS 060715Z AUTO 12010KT 10SM CLR 17/08 A3009 RMK AO2,KECS,2023-06-06T07:15:00Z,43.88,-104.32,17.0,8.0,120,10,,10.0,30.088583,,,TRUE,TRUE,,,,,,,CLR,,,,,,,,VFR,,,,,,,,,,,,METAR,1273.0
KEBS 060715Z AUTO 21007KT 7SM OVC100 19/17 A3002 RMK AO2,KEBS,2023-06-06T07:15:00Z,42.43,-93.87,19.0,17.0,210,7,,7.0,30.02067,,,TRUE,TRUE,,,,,,,OVC,10000,,,,,,,VFR,,,,,,,,,,,,METAR,340.0
KEBG 060715Z AUTO 33004KT 10SM CLR 22/21 A2990 RMK AO2 T02160211,KEBG,2023-06-06T07:15:00Z,26.45,-98.13,21.6,21.1,330,4,,10.0,29.899607,,,TRUE,TRUE,,,,,,,CLR,,,,,,,,VFR,,,,,,,,,,,,METAR,21.0
KEBA 060715Z AUTO 00000KT 10SM CLR 19/18 A2992 RMK AO2 T01860178,KEBA,2023-06-06T07:15:00Z,34.1,-82.82,18.6,17.8,0,0,,10.0,29.920275,,,TRUE,TRUE,,,,,,,CLR,,,,,,,,VFR,,,,,,,,,,,,SPECI,180.0
KEAN 060715Z AUTO 15005KT 10SM CLR 12/10 A3009 RMK AO2 T01190102,KEAN,2023-06-06T07:15:00Z,42.05,-104.93,11.9,10.2,150,5,,10.0,30.088583,,,TRUE,TRUE,,,,,,,CLR,,,,,,,,VFR,,,,,,,,,,,,SPECI,1452.0
KE77 060715Z AUTO 33005KT 10SM CLR 23/M09 A2997 RMK AO2,KE77,2023-06-06T07:15:00Z,,,23.0,-9.0,330,5,,10.0,29.970472,,,TRUE,TRUE,,,,,,,CLR,,,,,,,,VFR,,,,,,,,,,,,METAR,
KE41 060715Z AUTO 00000KT 10SM CLR 16/14 A3007 RMK AO2 T01630138,KE41,2023-06-06T07:15:00Z,31.2,-101.47,16.3,13.8,0,0,,10.0,30.070866,,,TRUE,TRUE,,,,,,,CLR,,,,,,,,VFR,,,,,,,,,,,,METAR,825.0
KE38 060715Z AUTO 33005KT 10SM CLR 16/10 A3019 RMK AO2 T01600096,KE38,2023-06-06T07:15:00Z,30.38,-103.68,16.0,9.6,330,5,,10.0,30.188976,,,TRUE,TRUE,,,,,,,CLR,,,,,,,,VFR,,,,,,,,,,,,METAR,1372.0
KE16 060715Z AUTO 15009KT 10SM BKN020 BKN030 15/10 A2985 RMK AO2 PWINO PNO,KE16,2023-06-06T07:15:00Z,37.08,-121.6,15.0,10.0,150,9,,10.0,29.84941,,,TRUE,TRUE,,,,,TRUE,,BKN,2000,BKN,3000,,,,,MVFR,,,,,,,,,,,,METAR,84.0
KE11 060715Z AUTO 00000KT 10SM CLR 17/16 A3011 RMK AO2 T01650161,KE11,2023-06-06T07:15:00Z,32.33,-102.53,16.5,16.1,0,0,,10.0,30.109253,,,TRUE,TRUE,,,,,,,CLR,,,,,,,,VFR,,,,,,,,,,,,SPECI,966.0
KDZJ 060715Z AUTO 00000KT 10SM VCTS BKN033 BKN047 16/15 A3000 RMK AO2 LTG DSNT SE THRU W T01590152,KDZJ,2023-06-06T07:15:00Z,34.85,-84.0,15.9,15.2,0,0,,10.0,30.0,,,TRUE,TRUE,,,,,,VCTS,BKN,3300,BKN,4700,,,,,VFR,,,,,,,,,,,,SPECI,578.0
KDZB 060715Z AUTO 00000KT 10SM CLR 20/18 A2997 RMK AO2 T01950183,KDZB,2023-06-06T07:15:00Z,30.53,-98.37,19.5,18.3,0,0,,10.0,29.970472,,,TRUE,TRUE,,,,,,,CLR,,,,,,,,VFR,,,,,,,,,,,,METAR,329.0
KDYT 060715Z AUTO 07011KT 5SM BR OVC003 09/09 A3012 RMK AO2,KDYT,2023-06-06T07:15:00Z,46.72,-92.03,9.0,9.0,70,11,,5.0,30.121063,,,TRUE,TRUE,,,,,,BR,OVC,300,,,,,,,LIFR,,,,,,,,,,,,METAR,185.0
KDYB 060715Z AUTO 00000KT 9SM SCT060 16/16 A2994 RMK AO2,KDYB,2023-06-06T07:15:00Z,33.07,-80.28,16.0,16.0,0,0,,9.0,29.940945,,,TRUE,TRUE,,,,,,,SCT,6000,,,,,,,VFR,,,,,,,,,,,,METAR,15.0
KDYA 060715Z AUTO 00000KT 4SM HZ CLR A2994 RMK AO2,KDYA,2023-06-06T07:15:00Z,32.47,-87.95,,,0,0,,4.0,29.940945,,,TRUE,TRUE,,,,,,HZ,CLR,,,,,,,,MVFR,,,,,,,,,,,,METAR,33.0
KDXX 060715Z AUTO 09004KT 10SM CLR 23/17 A3001 RMK AO2,KDXX,2023-06-06T07:15:00Z,44.98,-96.18,23.0,17.0,90,4,,10.0,30.008858,,,TRUE,TRUE,,,,,,,CLR,,,,,,,,VFR,,,,,,,,,,,,METAR,327.0
KDWX 060715Z AUTO 02005KT 10SM CLR 10/06 A3018 RMK AO2 T01020058,KDWX,2023-06-06T07:15:00Z,41.03,-107.5,10.2,5.8,20,5,,10.0,30.180119,,,TRUE,TRUE,,,,,,,CLR,,,,,,,,VFR,,,,,,,,,,,,METAR,1974.0
KDWA 060715Z AUTO 25004KT 10SM BKN026 BKN100 17/12 A2976 RMK AO2,KDWA,2023-06-06T07:15:00Z,38.58,-121.85,17.0,12.0,250,4,,10.0,29.760826,,,TRUE,TRUE,,,,,,,BKN,2600,BKN,10000,,,,,MVFR,,,,,,,,,,,,METAR,28.0
KDVO 060715Z AUTO 25003KT 10SM BKN019 BKN029 BKN035 13/12 A2984 RMK AO2,KDVO,2023-06-06T07:15:00Z,38.15,-122.55,13.0,12.0,250,3,,10.0,29.840551,,,TRUE,TRUE,,,,,,,BKN,1900,BKN,2900,BKN,3500,,,MVFR,,,,,,,,,,,,METAR,1.0
KDUX 060715Z AUTO 00000KT 10SM CLR 15/14 A3014 RMK AO2 T01530137,KDUX,2023-06-06T07:15:00Z,35.85,-102.02,15.3,13.7,0,0,,10.0,30.138779,,,TRUE,TRUE,,,,,,,CLR,,,,,,,,VFR,,,,,,,,,,,,METAR,1129.0
KDUH 060715Z AUTO 00000KT 10SM BKN090 18/07 A2993 RMK AO2 T01760067,KDUH,2023-06-06T07:15:00Z,41.73,-83.65,17.6,6.7,0,0,,10.0,29.929134,,,TRUE,TRUE,,,,,,,BKN,9000,,,,,,,VFR,,,,,,,,,,,,METAR,203.0
KDUC 060715Z AUTO 31003KT 10SM SCT090 20/18 A3000 RMK AO2 T01970181,KDUC,2023-06-06T07:15:00Z,34.47,-97.97,19.7,18.1,310,3,,10.0,30.0,,,TRUE,TRUE,,,,,,,SCT,9000,,,,,,,VFR,,,,,,,,,,,,SPECI,339.0
KDUA 060715Z AUTO 03007KT 10SM CLR 22/16 A2998 RMK AO2,KDUA,2023-06-06T07:15:00Z,33.95,-96.4,22.0,16.0,30,7,,10.0,29.97933,,,TRUE,TRUE,,,,,,,CLR,,,,,,,,VFR,,,,,,,,,,,,METAR,209.0
KDTL 060715Z AUTO 14007KT 10SM BKN060 OVC070 20/18 A3004 RMK AO2,KDTL,2023-06-06T07:15:00Z,46.82,-95.88,20.0,18.0,140,7,,10.0,30.041338,,,TRUE,TRUE,,,,,,,BKN,6000,OVC,7000,,,,,VFR,,,,,,,,,,,,METAR,425.0
KDTA 060715Z AUTO 06010KT 10SM CLR 18/05 A2992 RMK AO1,KDTA,2023-06-06T07:15:00Z,39.38,-112.5,18.0,5.0,60,10,,10.0,29.920275,,,TRUE,TRUE,,,,,,,CLR,,,,,,,,VFR,,,,,,,,,,,,METAR,1452.0
KDRM 060715Z AUTO 05005KT 10SM CLR 15/08 A3002 RMK AO2 T01520082,KDRM,2023-06-06T07:15:00Z,46.0,-83.75,15.2,8.2,50,5,,10.0,30.02067,,,TRUE,TRUE,,,,,,,CLR,,,,,,,,VFR,,,,,,,,,,,,METAR,201.0
KDRI 060715Z AUTO 00000KT 10SM OVC150 20/20 A2993 RMK AO2 T01980197 $,KDRI,2023-06-06T07:15:00Z,30.83,-93.33,19.8,19.7,0,0,,10.0,29.929134,,,TRUE,TRUE,TRUE,,,,,,OVC,15000,,,,,,,VFR,,,,,,,,,,,,METAR,59.0
KDQH 060715Z AUTO 00000KT 10SM CLR 19/17 A2997 RMK AO2 LTG DSNT NE T01850166,KDQH,2023-06-06T07:15:00Z,31.48,-82.87,18.5,16.6,0,0,,10.0,29.970472,,,TRUE,TRUE,,,,,,,CLR,,,,,,,,VFR,,,,,,,,,,,,SPECI,76.0
KDNV 060715Z AUTO 00000KT 10SM CLR 16/07 A3001 RMK AO2 T01570068,KDNV,2023-06-06T07:15:00Z,40.2,-87.6,15.7,6.8,0,0,,10.0,30.008858,,,TRUE,TRUE,,,,,,,CLR,,,,,,,,VFR,,,,,,,,,,,,METAR,208.0
KDNS 060715Z AUTO 00000KT 10SM CLR 19/19 A3006 RMK AO2,KDNS,2023-06-06T07:15:00Z,41.98,-95.37,19.0,19.0,0,0,,10.0,30.059055,,,TRUE,TRUE,,,,,,,CLR,,,,,,,,VFR,,,,,,,,,,,,METAR,382.0
KDNN 060715Z AUTO 00000KT 10SM FEW080 BKN120 22/20 A2993 RMK AO2 LTG DSNT E AND SE T02150199,KDNN,2023-06-06T07:15:00Z,34.72,-84.87,21.5,19.9,0,0,,10.0,29.929134,,,TRUE,TRUE,,,,,,,FEW,8000,BKN,12000,,,,,VFR,,,,,,,,,,,,METAR,216.0
KDNA 060715Z AUTO 15/36000015G24KT 10SM CLR 23/09 A3005 RMK AO2,KDNA,2023-06-06T07:15:00Z,31.88,-106.7,23.0,9.0,0,15,24,10.0,30.050198,,,TRUE,TRUE,,,,,,,CLR,,,,,,,,VFR,,,,,,,,,,,,METAR,1254.0
KDLZ 060715Z AUTO 00000KT 10SM CLR 12/08 A2998 RMK AO2,KDLZ,2023-06-06T07:15:00Z,40.28,-83.12,12.0,8.0,0,0,,10.0,29.97933,,,TRUE,TRUE,,,,,,,CLR,,,,,,,,VFR,,,,,,,,,,,,METAR,287.0
KDLP 060715Z AUTO 14007G12KT 110V200 9SM FEW023 BKN030 BKN048 23/20 A2982 RMK A01,KDLP,2023-06-06T07:15:00Z,29.12,-89.55,23.0,20.0,140,7,12,9.0,29.819881,,,TRUE,TRUE,,,,,,,FEW,2300,BKN,3000,BKN,4800,,,MVFR,,,,,,,,,,,,METAR,31.0
KDLO 060715Z AUTO 00000KT 10SM CLR 16/09 A2979 RMK AO2 T01560086,KDLO,2023-06-06T07:15:00Z,35.75,-119.23,15.6,8.6,0,0,,10.0,29.790354,,,TRUE,TRUE,,,,,,,CLR,,,,,,,,VFR,,,,,,,,,,,,METAR,97.0
KDKX 060715Z AUTO 00000KT 3/4SM BR BKN001 19/19 A2994 RMK A01,KDKX,2023-06-06T07:15:00Z,35.97,-83.87,19.0,19.0,0,0,,0.75,29.940945,,,TRUE,TRUE,,,,,,BR,BKN,100,,,,,,,LIFR,,,,,,,,,,,,METAR,253.0
KDKR 060715Z AUTO 00000KT 10SM OVC120 20/20 A2992 RMK AO2,KDKR,2023-06-06T07:15:00Z,31.3,-95.4,20.0,20.0,0,0,,10.0,29.920275,,,TRUE,TRUE,,,,,,,OVC,12000,,,,,,,VFR,,,,,,,,,,,,METAR,105.0
KDKB 060715Z AUTO 00000KT 10SM CLR 17/10 A3003 RMK AO2 T01710095,KDKB,2023-06-06T07:15:00Z,41.93,-88.7,17.1,9.5,0,0,,10.0,30.029528,,,TRUE,TRUE,,,,,,,CLR,,,,,,,,VFR,,,,,,,,,,,,METAR,277.0
KDEH 060715Z AUTO 00000KT 10SM BKN070 OVC110 20/14 A3001 RMK AO2,KDEH,2023-06-06T07:15:00Z,43.27,-91.73,20.0,14.0,0,0,,10.0,30.008858,,,TRUE,TRUE,,,,,,,BKN,7000,OVC,11000,,,,,VFR,,,,,,,,,,,,METAR,348.0
KDCY 060715Z AUTO 00000KT 10SM CLR 13/08 A2998 RMK AO2 T01270081,KDCY,2023-06-06T07:15:00Z,38.7,-87.13,12.7,8.1,0,0,,10.0,29.97933,,,TRUE,TRUE,,,,,,,CLR,,,,,,,,VFR,,,,,,,,,,,,METAR,143.0
KDCM 060715Z AUTO 00000KT 10SM VCTS BKN032 OVC042 18/18 A2994 RMK AO2 LTG DSNT SE AND SW,KDCM,2023-06-06T07:15:00Z,34.78,-81.2,18.0,18.0,0,0,,10.0,29.940945,,,TRUE,TRUE,,,,,,VCTS,BKN,3200,OVC,4200,,,,,VFR,,,,,,,,,,,,METAR,191.0
KD95 060715Z AUTO 00000KT 10SM CLR 12/11 A2996 RMK AO2 T01150107,KD95,2023-06-06T07:15:00Z,43.07,-83.27,11.5,10.7,0,0,,10.0,29.958662,,,TRUE,TRUE,,,,,,,CLR,,,,,,,,VFR,,,,,,,,,,,,METAR,253.0
KD73 060715Z AUTO 00000KT 10SM CLR 19/ A2995 RMK AO2 LTG DSNT N AND SE T0193////,KD73,2023-06-06T07:15:00Z,33.78,-83.7,19.3,,0,0,,10.0,29.949802,,,TRUE,TRUE,,,,,,,CLR,,,,,,,,VFR,,,,,,,,,,,,SPECI,254.0
KD60 060715Z AUTO 08005KT 10SM CLR 18/18 A3000 RMK AO2,KD60,2023-06-06T07:15:00Z,48.38,-102.9,18.0,18.0,80,5,,10.0,30.0,,,TRUE,TRUE,,,,,,,CLR,,,,,,,,VFR,,,,,,,,,,,,METAR,682.0
KD57 060715Z AUTO 17008KT 10SM CLR 19/14 A2998 RMK AO2,KD57,2023-06-06T07:15:00Z,46.82,-101.87,19.0,14.0,170,8,,10.0,29.97933,,,TRUE,TRUE,,,,,,,CLR,,,,,,,,VFR,,,,,,,,,,,,METAR,636.0
KD55 060715Z AUTO 17004KT 10SM FEW050 FEW055 19/19 A3001 RMK AO2,KD55,2023-06-06T07:15:00Z,48.75,-98.4,19.0,19.0,170,4,,10.0,30.008858,,,TRUE,TRUE,,,,,,,FEW,5000,FEW,5500,,,,,VFR,,,,,,,,,,,,METAR,488.0
KD50 060715Z AUTO 18008KT 10SM FEW055 FEW100 21/17 A2996 RMK AO2,KD50,2023-06-06T07:15:00Z,48.93,-103.3,21.0,17.0,180,8,,10.0,29.958662,,,TRUE,TRUE,,,,,,,FEW,5500,FEW,10000,,,,,VFR,,,,,,,,,,,,METAR,591.0
KD39 060715Z AUTO 07005KT 10SM SCT120 19/18 A3005 RMK AO2 T01900179,KD39,2023-06-06T07:15:00Z,45.7,-94.93,19.0,17.9,70,5,,10.0,30.050198,,,TRUE,TRUE,,,,,,,SCT,12000,,,,,,,VFR,,,,,,,,,,,,METAR,378.0
KD25 060715Z AUTO 06003KT 10SM CLR 13/12 A3010 RMK AO2 T01280122,KD25,2023-06-06T07:15:00Z,46.12,-89.88,12.8,12.2,60,3,,10.0,30.100393,,,TRUE,TRUE,,,,,,,CLR,,,,,,,,VFR,,,,,,,,,,,,METAR,490.0
KCZT 060715Z AUTO 10SM BKN080 22/18 A2993 RMK AO2,KCZT,2023-06-06T07:15:00Z,28.52,-99.82,22.0,18.0,,,,10.0,29.929134,,,TRUE,TRUE,,,,,,,BKN,8000,,,,,,,VFR,,,,,,,,,,,,SPECI,176.0
KCZL 060715Z AUTO 00000KT 10SM SCT070 21/19 A2996 RMK AO2,KCZL,2023-06-06T07:15:00Z,34.47,-84.93,21.0,19.0,0,0,,10.0,29.958662,,,TRUE,TRUE,,,,,,,SCT,7000,,,,,,,VFR,,,,,,,,,,,,METAR,197.0
KCYD 060715Z AUTO 14005KT 10SM SCT016 25/22 A2992 RMK A02 LTG DSNT W T02540218,KCYD,2023-06-06T07:15:00Z,28.17,-89.22,25.4,21.8,140,5,,10.0,29.920275,,,TRUE,TRUE,,,,,,,SCT,1600,,,,,,,VFR,,,,,,,,,,,,METAR,30.0
KCXW 060715Z AUTO 34003KT 10SM OVC048 21/M13 A2996 RMK A01,KCXW,2023-06-06T07:15:00Z,35.02,-92.55,21.0,-13.0,340,3,,10.0,29.958662,,,TRUE,TRUE,,,,,,,OVC,4800,,,,,,,VFR,,,,,,,,,,,,METAR,84.0
KCXU 060715Z AUTO 00000KT 5SM CLR 18/17 A2995 RMK AO1 T01780169,KCXU,2023-06-06T07:15:00Z,31.22,-84.23,17.8,16.9,0,0,,5.0,29.949802,,,TRUE,TRUE,,,,,,,CLR,,,,,,,,MVFR,,,,,,,,,,,,METAR,48.0
KCXP 060715Z AUTO 00000KT 10SM BKN090 BKN110 15/07 A3000 RMK AO2,KCXP,2023-06-06T07:15:00Z,39.18,-119.73,15.0,7.0,0,0,,10.0,30.0,,,TRUE,TRUE,,,,,,,BKN,9000,BKN,11000,,,,,VFR,,,,,,,,,,,,METAR,1431.0
KCXE 060715Z AUTO 10SM CLR 15/14 A2989 RMK AO1 T01500142,KCXE,2023-06-06T07:15:00Z,36.78,-78.5,15.0,14.2,,,,10.0,29.890747,,,TRUE,TRUE,,,,,,,CLR,,,,,,,,VFR,,,,,,,,,,,,METAR,154.0
KCWV 060715Z AUTO 00000KT 7SM BKN095 17/16 A2995 RMK AO2 LTG DSNT NE T01650158,KCWV,2023-06-06T07:15:00Z,32.2,-81.87,16.5,15.8,0,0,,7.0,29.949802,,,TRUE,TRUE,,,,,,,BKN,9500,,,,,,,VFR,,,,,,,,,,,,SPECI,32.0
KCWF 060715Z AUTO 08004KT 10SM CLR 21/19 A2992 RMK AO2 T02080192,KCWF,2023-06-06T07:15:00Z,30.22,-93.15,20.8,19.2,80,4,,10.0,29.920275,,,TRUE,TRUE,,,,,,,CLR,,,,,,,,VFR,,,,,,,,,,,,SPECI,4.0
KCWC 060715Z AUTO 34003KT 10SM CLR 22/18 A2999 RMK AO2 T02160179,KCWC,2023-06-06T07:15:00Z,33.85,-98.48,21.6,17.9,340,3,,10.0,29.991142,,,TRUE,TRUE,,,,,,,CLR,,,,,,,,VFR,,,,,,,,,,,,METAR,304.0
KCWA 060715Z AUTO 08006KT 7SM BKN070 OVC090 17/11 A3006 RMK AO2,KCWA,2023-06-06T07:15:00Z,44.78,-89.67,17.0,11.0,80,6,,7.0,30.059055,,,TRUE,TRUE,,,,,,,BKN,7000,OVC,9000,,,,,VFR,,,,,,,,,,,,METAR,387.0
KCVX 060715Z AUTO 00000KT 10SM CLR 16/12 A3002 RMK AO2 T01570122,KCVX,2023-06-06T07:15:00Z,45.3,-85.27,15.7,12.2,0,0,,10.0,30.02067,,,TRUE,TRUE,,,,,,,CLR,,,,,,,,VFR,,,,,,,,,,,,METAR,196.0
KCVH 060715Z AUTO 26008KT 10SM OVC016 14/11 A2985 RMK A01,KCVH,2023-06-06T07:15:00Z,36.9,-121.42,14.0,11.0,260,8,,10.0,29.84941,,,TRUE,TRUE,,,,,,,OVC,1600,,,,,,,MVFR,,,,,,,,,,,,METAR,68.0
KCVC 060715Z AUTO 00000KT 10SM CLR 18/18 A2994 RMK AO2 LTG DSNT N AND SE,KCVC,2023-06-06T07:15:00Z,33.63,-83.85,18.0,18.0,0,0,,10.0,29.940945,,,TRUE,TRUE,,,,,,,CLR,,,,,,,,VFR,,,,,,,,,,,,SPECI,240.0
KCUH 060715Z AUTO 07004KT 10SM CLR 21/17 A3000 RMK AO2 T02070165,KCUH,2023-06-06T07:15:00Z,35.95,-96.77,20.7,16.5,70,4,,10.0,30.0,,,TRUE,TRUE,,,,,,,CLR,,,,,,,,VFR,,,,,,,,,,,,SPECI,274.0
KCTY 060715Z AUTO 00000KT 10SM CLR 19/17 A2996 RMK AO2,KCTY,2023-06-06T07:15:00Z,29.63,-83.1,19.0,17.0,0,0,,10.0,29.958662,,,TRUE,TRUE,,,,,,,CLR,,,,,,,,VFR,,,,,,,,,,,,SPECI,12.0
KCTJ 060715Z AUTO 00000KT 10SM SCT110 18/17 A3000 RMK AO2 T01790170,KCTJ,2023-06-06T07:15:00Z,33.63,-85.15,17.9,17.0,0,0,,10.0,30.0,,,TRUE,TRUE,,,,,,,SCT,11000,,,,,,,VFR,,,,,,,,,,,,METAR,351.0
KCSQ 060715Z AUTO 00000KT 2 1/2SM BR CLR 18/18 A3005 RMK AO2,KCSQ,2023-06-06T07:15:00Z,41.02,-94.37,18.0,18.0,0,0,,2.5,30.050198,,,TRUE,TRUE,,,,,,BR,CLR,,,,,,,,IFR,,,,,,,,,,,,METAR,394.0
KCRX 060715Z AUTO 00000KT 10SM BKN055 OVC065 20/18 A2996 RMK AO2,KCRX,2023-06-06T07:15:00Z,34.92,-88.6,20.0,18.0,0,0,,10.0,29.958662,,,TRUE,TRUE,,,,,,,BKN,5500,OVC,6500,,,,,VFR,,,,,,,,,,,,METAR,128.0
KCQW 060715Z AUTO 00000KT 6SM BR FEW037 FEW050 16/16 A2992 RMK AO2,KCQW,2023-06-06T07:15:00Z,34.72,-79.95,16.0,16.0,0,0,,6.0,29.920275,,,TRUE,TRUE,,,,,,BR,FEW,3700,FEW,5000,,,,,VFR,,,,,,,,,,,,METAR,67.0
KCQM 060715Z AUTO 00000KT 7SM CLR 14/11 A3010 RMK AO,KCQM,2023-06-06T07:15:00Z,47.82,-92.68,14.0,11.0,0,0,,7.0,30.100393,,,TRUE,,,,,,,,CLR,,,,,,,,VFR,,,,,,,,,,,,METAR,406.0
KCQF 060715Z AUTO 00000KT 10SM CLR 18/18 A2994 RMK AO2,KCQF,2023-06-06T07:15:00Z,30.47,-87.88,18.0,18.0,0,0,,10.0,29.940945,,,TRUE,TRUE,,,,,,,CLR,,,,,,,,VFR,,,,,,,,,,,,SPECI,21.0
KCQB 060715Z AUTO 04003KT 10SM CLR 19/15 A3001 RMK AO2 T01900145,KCQB,2023-06-06T07:15:00Z,35.72,-96.82,19.0,14.5,40,3,,10.0,30.008858,,,TRUE,TRUE,,,,,,,CLR,,,,,,,,VFR,,,,,,,,,,,,SPECI,298.0
KCPW 060715Z AUTO 01005KT 10SM BKN070 BKN100 BKN120 02/02 A3055 RMK AO2,KCPW,2023-06-06T07:15:00Z,37.45,-106.8,2.0,2.0,10,5,,10.0,30.549213,,,TRUE,TRUE,,,,,,,BKN,7000,BKN,10000,BKN,12000,,,VFR,,,,,,,,,,,,SPECI,3570.0
KCPU 060715Z AUTO 00000KT 10SM CLR 17/09 A2976 RMK AO2 T01660090,KCPU,2023-06-06T07:15:00Z,38.15,-120.65,16.6,9.0,0,0,,10.0,29.760826,,,TRUE,TRUE,,,,,,,CLR,,,,,,,,VFR,,,,,,,,,,,,METAR,400.0
KCPT 060715Z AUTO 00000KT 10SM CLR 21/19 A2997 RMK A01,KCPT,2023-06-06T07:15:00Z,32.35,-97.43,21.0,19.0,0,0,,10.0,29.970472,,,TRUE,TRUE,,,,,,,CLR,,,,,,,,VFR,,,,,,,,,,,,METAR,260.0
KCPP 060715Z AUTO 00000KT 10SM CLR 19/17 A2993 RMK AO2 LTG DSNT E SE AND NW,KCPP,2023-06-06T07:15:00Z,,,19.0,17.0,0,0,,10.0,29.929134,,,TRUE,TRUE,,,,,,,CLR,,,,,,,,VFR,,,,,,,,,,,,SPECI,
KCPK 060715Z AUTO 00000KT 10SM CLR 13/11 A2987 RMK AO2 T01260111,KCPK,2023-06-06T07:15:00Z,36.67,-76.32,12.6,11.1,0,0,,10.0,29.870079,,,TRUE,TRUE,,,,,,,CLR,,,,,,,,VFR,,,,,,,,,,,,METAR,4.0
KCOQ 060715Z AUTO 09006KT 7SM SCT120 11/09 A3009 RMK AO2 TSNO,KCOQ,2023-06-06T07:15:00Z,46.7,-92.5,11.0,9.0,90,6,,7.0,30.088583,,,TRUE,TRUE,,,TRUE,,,,SCT,12000,,,,,,,VFR,,,,,,,,,,,,METAR,390.0
KCOM 060715Z AUTO 10SM CLR 17/16 A3001 RMK AO2 T01720155,KCOM,2023-06-06T07:15:00Z,31.83,-99.4,17.2,15.5,,,,10.0,30.008858,,,TRUE,TRUE,,,,,,,CLR,,,,,,,,VFR,,,,,,,,,,,,METAR,516.0
KCNI 060715Z AUTO 02003KT 10SM VCTS SCT065 SCT080 BKN110 19/18 A2997 RMK AO2 LTG DSNT NW THRU NE T01940180,KCNI,2023-06-06T07:15:00Z,34.32,-84.42,19.4,18.0,20,3,,10.0,29.970472,,,TRUE,TRUE,,,,,,VCTS,SCT,6500,SCT,8000,BKN,11000,,,VFR,,,,,,,,,,,,SPECI,371.0
KCNC 060715Z AUTO 22003KT 7SM CLR 17/16 A3003 RMK AO2,KCNC,2023-06-06T07:15:00Z,41.02,-93.37,17.0,16.0,220,3,,7.0,30.029528,,,TRUE,TRUE,,,,,,,CLR,,,,,,,,VFR,,,,,,,,,,,,METAR,319.0
KCNB 060715Z AUTO 00000KT 10SM CLR 19/16 A3001 RMK AO2 T01930159,KCNB,2023-06-06T07:15:00Z,44.73,-96.27,19.3,15.9,0,0,,10.0,30.008858,,,TRUE,TRUE,,,,,,,CLR,,,,,,,,VFR,,,,,,,,,,,,METAR,363.0
KCMR 060715Z AUTO 14006KT 10SM CLR 11/M08 A3009 RMK AO2,KCMR,2023-06-06T07:15:00Z,35.3,-112.2,11.0,-8.0,140,6,,10.0,30.088583,,,TRUE,TRUE,,,,,,,CLR,,,,,,,,VFR,,,,,,,,,,,,METAR,2039.0
KCMD 060715Z AUTO 00000KT 10SM CLR 19/17 A2998 RMK AO2,KCMD,2023-06-06T07:15:00Z,34.27,-86.85,19.0,17.0,0,0,,10.0,29.97933,,,TRUE,TRUE,,,,,,,CLR,,,,,,,,VFR,,,,,,,,,,,,SPECI,294.0
KCLW 060715Z AUTO 10006KT 10SM SCT080 23/18 A2994 RMK AO2,KCLW,2023-06-06T07:15:00Z,27.98,-82.75,23.0,18.0,100,6,,10.0,29.940945,,,TRUE,TRUE,,,,,,,SCT,8000,,,,,,,VFR,,,,,,,,,,,,METAR,21.0
KCLS 060715Z AUTO 04005KT 10SM CLR 12/00 A3000 RMK AO2,KCLS,2023-06-06T07:15:00Z,46.68,-122.98,12.0,0.0,40,5,,10.0,30.0,,,TRUE,TRUE,,,,,,,CLR,,,,,,,,VFR,,,,,,,,,,,,METAR,52.0
KCLK 060715Z AUTO 02003KT 10SM CLR 18/16 A3004 RMK AO2,KCLK,2023-06-06T07:15:00Z,35.53,-98.93,18.0,16.0,20,3,,10.0,30.041338,,,TRUE,TRUE,,,,,,,CLR,,,,,,,,VFR,,,,,,,,,,,,METAR,489.0
KCLI 060715Z AUTO 06005KT 10SM SCT070 SCT085 17/11 A3007 RMK AO2 T01730111,KCLI,2023-06-06T07:15:00Z,44.62,-88.73,17.3,11.1,60,5,,10.0,30.070866,,,TRUE,TRUE,,,,,,,SCT,7000,SCT,8500,,,,,VFR,,,,,,,,,,,,METAR,248.0
KCKZ 060715Z AUTO 00000KT 9SM BKN035 OVC080 08/07 A2982 RMK AO2,KCKZ,2023-06-06T07:15:00Z,40.38,-75.28,8.0,7.0,0,0,,9.0,29.819881,,,TRUE,TRUE,,,,,,,BKN,3500,OVC,8000,,,,,VFR,,,,,,,,,,,,METAR,160.0
KCKP 060715Z AUTO 00000KT 10SM CLR 19/13 A3003 RMK AO2 T01930131,KCKP,2023-06-06T07:15:00Z,42.73,-95.55,19.3,13.1,0,0,,10.0,30.029528,,,TRUE,TRUE,,,,,,,CLR,,,,,,,,VFR,,,,,,,,,,,,METAR,369.0
KCKN 060715Z AUTO 14006KT 10SM CLR 20/18 A2999 RMK AO2,KCKN,2023-06-06T07:15:00Z,47.85,-96.62,20.0,18.0,140,6,,10.0,29.991142,,,TRUE,TRUE,,,,,,,CLR,,,,,,,,VFR,,,,,,,,,,,,METAR,272.0
KCKM 060715Z AUTO 00000KT 10SM 22/21 A2994 RMK A01,KCKM,2023-06-06T07:15:00Z,34.3,-90.52,22.0,21.0,0,0,,10.0,29.940945,,,TRUE,TRUE,,,,,,,,,,,,,,,,,,,,,,,,,,,METAR,52.0
KCKI 060715Z AUTO 00000KT 10SM CLR 14/12 A2994 RMK AO2 LTG DSNT W,KCKI,2023-06-06T07:15:00Z,33.72,-79.85,14.0,12.0,0,0,,10.0,29.940945,,,TRUE,TRUE,,,,,,,CLR,,,,,,,,VFR,,,,,,,,,,,,METAR,19.0
KCKF 060715Z AUTO 00000KT 10SM CLR 18/16 A2996 RMK AO2 LTG DSNT NE T01770155,KCKF,2023-06-06T07:15:00Z,31.98,-83.77,17.7,15.5,0,0,,10.0,29.958662,,,TRUE,TRUE,,,,,,,CLR,,,,,,,,VFR,,,,,,,,,,,,SPECI,92.0
KCKC 060715Z AUTO 08004KT 10SM OVC034 12/08 A3014 RMK AO2,KCKC,2023-06-06T07:15:00Z,47.83,-90.38,12.0,8.0,80,4,,10.0,30.138779,,,TRUE,TRUE,,,,,,,OVC,3400,,,,,,,VFR,,,,,,,,,,,,METAR,544.0
KCJR 060715Z AUTO 00000KT 10SM CLR 11/10 A2990 RMK AO2 T01100100,KCJR,2023-06-06T07:15:00Z,38.53,-77.87,11.0,10.0,0,0,,10.0,29.899607,,,TRUE,TRUE,,,,,,,CLR,,,,,,,,VFR,,,,,,,,,,,,METAR,90.0
KCIN 060715Z AUTO 00000KT 8SM FEW026 OVC060 18/18 A3003 RMK AO2,KCIN,2023-06-06T07:15:00Z,42.03,-94.78,18.0,18.0,0,0,,8.0,30.029528,,,TRUE,TRUE,,,,,,,FEW,2600,OVC,6000,,,,,VFR,,,,,,,,,,,,METAR,365.0
KCIC 060715Z AUTO 19004KT 10SM SCT070 BKN095 BKN120 24/14 A2975 RMK AO1,KCIC,2023-06-06T07:15:00Z,39.78,-121.85,24.0,14.0,190,4,,10.0,29.749016,,,TRUE,TRUE,,,,,,,SCT,7000,BKN,9500,BKN,12000,,,VFR,,,,,,,,,,,,METAR,72.0
KCHK 060715Z AUTO 30005KT 7SM CLR 18/17 A2997 RMK AO2 T01760169,KCHK,2023-06-06T07:15:00Z,35.1,-97.97,17.6,16.9,300,5,,7.0,29.970472,,,TRUE,TRUE,,,,,,,CLR,,,,,,,,VFR,,,,,,,,,,,,SPECI,346.0
KCGF 060715Z AUTO 00000KT 10SM CLR 09/07 A2994 RMK AO2 T00910070,KCGF,2023-06-06T07:15:00Z,41.57,-81.47,9.1,7.0,0,0,,10.0,29.940945,,,TRUE,TRUE,,,,,,,CLR,,,,,,,,VFR,,,,,,,,,,,,METAR,265.0
KCGC 060715Z AUTO 00000KT 10SM CLR 20/18 A2996 RMK AO2,KCGC,2023-06-06T07:15:00Z,28.87,-82.57,20.0,18.0,0,0,,10.0,29.958662,,,TRUE,TRUE,,,,,,,CLR,,,,,,,,VFR,,,,,,,,,,,,METAR,3.0
KCFS 060715Z AUTO 00000KT 7SM CLR 12/11 A2995 RMK AO2 T01200108,KCFS,2023-06-06T07:15:00Z,43.47,-83.45,12.0,10.8,0,0,,7.0,29.949802,,,TRUE,TRUE,,,,,,,CLR,,,,,,,,VFR,,,,,,,,,,,,METAR,214.0
KCFO 060715Z AUTO 21004KT 10SM CLR 14/11 A3016 RMK AO2 T01350105,KCFO,2023-06-06T07:15:00Z,39.78,-104.55,13.5,10.5,210,4,,10.0,30.159449,,,TRUE,TRUE,,,,,,,CLR,,,,,,,,VFR,,,,,,,,,,,,METAR,1672.0
KCFJ 060715Z AUTO 00000KT 10SM CLR 12/05 A3001 RMK AO2 T01150046,KCFJ,2023-06-06T07:15:00Z,39.98,-86.92,11.5,4.6,0,0,,10.0,30.008858,,,TRUE,TRUE,,,,,,,CLR,,,,,,,,VFR,,,,,,,,,,,,METAR,243.0
KCFE 060715Z AUTO 06006KT 8SM SCT033 BKN070 BKN120 20/17 A3003 RMK AO2,KCFE,2023-06-06T07:15:00Z,45.17,-93.85,20.0,17.0,60,6,,8.0,30.029528,,,TRUE,TRUE,,,,,,,SCT,3300,BKN,7000,BKN,12000,,,VFR,,,,,,,,,,,,METAR,292.0
KCFD 060715Z AUTO 10003KT 10SM CLR 20/20 A2995 RMK AO2 T02000200,KCFD,2023-06-06T07:15:00Z,30.72,-96.33,20.0,20.0,100,3,,10.0,29.949802,,,TRUE,TRUE,,,,,,,CLR,,,,,,,,VFR,,,,,,,,,,,,METAR,106.0
KCEY 060715Z AUTO 00000KT 10SM OVC055 17/15 A2997 RMK A01,KCEY,2023-06-06T07:15:00Z,36.67,-88.37,17.0,15.0,0,0,,10.0,29.970472,,,TRUE,TRUE,,,,,,,OVC,5500,,,,,,,VFR,,,,,,,,,,,,METAR,172.0
KCDN 060715Z AUTO 00000KT 10SM FEW039 OVC049 19/16 A2994 RMK AO2 LTG DSNT S AND W,KCDN,2023-06-06T07:15:00Z,34.28,-80.57,19.0,16.0,0,0,,10.0,29.940945,,,TRUE,TRUE,,,,,,,FEW,3900,OVC,4900,,,,,VFR,,,,,,,,,,,,METAR,90.0
KCDI 060715Z AUTO 00000KT 10SM CLR 08/08 A2996 RMK AO2 T00810080,KCDI,2023-06-06T07:15:00Z,39.97,-81.58,8.1,8.0,0,0,,10.0,29.958662,,,TRUE,TRUE,,,,,,,CLR,,,,,,,,VFR,,,,,,,,,,,,METAR,241.0
KCDH 060715Z AUTO 00000KT 9SM CLR 22/20 A2993 RMK AO2,KCDH,2023-06-06T07:15:00Z,33.62,-92.77,22.0,20.0,0,0,,9.0,29.929134,,,TRUE,TRUE,,,,,,,CLR,,,,,,,,VFR,,,,,,,,,,,,METAR,38.0
KCDA 060715Z AUTO 00000KT 1/4SM FG BKN002 OVC007 07/06 A2971 RMK AO2 T00660060,KCDA,2023-06-06T07:15:00Z,44.57,-72.02,6.6,6.0,0,0,,0.25,29.71063,,,TRUE,TRUE,,,,,,FG,BKN,200,OVC,700,,,,,LIFR,,,,,,,,,,,,METAR,357.0
KCCY 060715Z AUTO 24003KT 9SM CLR 20/14 A3002 RMK AO2,KCCY,2023-06-06T07:15:00Z,43.07,-92.62,20.0,14.0,240,3,,9.0,30.02067,,,TRUE,TRUE,,,,,,,CLR,,,,,,,,VFR,,,,,,,,,,,,METAR,340.0
KCCU 060715Z AUTO 19010KT 10SM CLR 05/01 A3049 RMK AO2,KCCU,2023-06-06T07:15:00Z,39.48,-106.15,5.0,1.0,190,10,,10.0,30.490158,,,TRUE,TRUE,,,,,,,CLR,,,,,,,,VFR,,,,,,,,,,,,METAR,3672.0
KCCO 060715Z AUTO 00000KT 10SM CLR 19/18 A2996 RMK AO2 LTG DSNT NE T01880176,KCCO,2023-06-06T07:15:00Z,33.32,-84.77,18.8,17.6,0,0,,10.0,29.958662,,,TRUE,TRUE,,,,,,,CLR,,,,,,,,VFR,,,,,,,,,,,,SPECI,290.0
KCCB 060715Z AUTO 28007KT 10SM OVC018 13/10 A2991 RMK AO2,KCCB,2023-06-06T07:15:00Z,34.12,-117.68,13.0,10.0,280,7,,10.0,29.911417,,,TRUE,TRUE,,,,,,,OVC,1800,,,,,,,MVFR,,,,,,,,,,,,METAR,440.0
KCCA 060715Z AUTO 00000KT 3SM BR FEW110 19/19 A2999 RMK AO2,KCCA,2023-06-06T07:15:00Z,35.6,-92.45,19.0,19.0,0,0,,3.0,29.991142,,,TRUE,TRUE,,,,,,BR,FEW,11000,,,,,,,MVFR,,,,,,,,,,,,METAR,152.0
KCBK 060715Z AUTO 26003KT 10SM CLR 14/13 A3012 RMK AO2 T01430128,KCBK,2023-06-06T07:15:00Z,39.43,-101.05,14.3,12.8,260,3,,10.0,30.121063,,,TRUE,TRUE,,,,,,,CLR,,,,,,,,VFR,,,,,,,,,,,,METAR,970.0
KCBG 060715Z AUTO 03003KT 7SM SCT110 17/09 A3006 RMK AO2,KCBG,2023-06-06T07:15:00Z,45.57,-93.27,17.0,9.0,30,3,,7.0,30.059055,,,TRUE,TRUE,,,,,,,SCT,11000,,,,,,,VFR,,,,,,,,,,,,METAR,285.0
KCBF 060715Z AUTO 17005KT 10SM CLR 18/16 A3003 RMK AO2,KCBF,2023-06-06T07:15:00Z,41.27,-95.77,18.0,16.0,170,5,,10.0,30.029528,,,TRUE,TRUE,,,,,,,CLR,,,,,,,,VFR,,,,,,,,,,,,METAR,379.0
KCAV 060715Z AUTO 19004KT 8SM FEW050 SCT065 SCT120 20/14 A3003 RMK A01,KCAV,2023-06-06T07:15:00Z,42.75,-93.77,20.0,14.0,190,4,,8.0,30.029528,,,TRUE,TRUE,,,,,,,FEW,5000,SCT,6500,SCT,12000,,,VFR,,,,,,,,,,,,METAR,352.0
KCAD 060715Z AUTO 00000KT 7SM CLR 12/11 A3000 RMK AO2 T01160110,KCAD,2023-06-06T07:15:00Z,44.27,-85.42,11.6,11.0,0,0,,7.0,30.0,,,TRUE,TRUE,,,,,,,CLR,,,,,,,,VFR,,,,,,,,,,,,METAR,397.0
KC83 060715Z AUTO 26015G23KT 10SM CLR 19/10 A2973 RMK AO2,KC83,2023-06-06T07:15:00Z,37.83,-121.62,19.0,10.0,260,15,23,10.0,29.731298,,,TRUE,TRUE,,,,,,,CLR,,,,,,,,VFR,,,,,,,,,,,,METAR,16.0
KC75 060715Z AUTO 00000KT 10SM CLR 14/12 A3001 RMK AO2,KC75,2023-06-06T07:15:00Z,41.02,-89.38,14.0,12.0,0,0,,10.0,30.008858,,,TRUE,TRUE,,,,,,,CLR,,,,,,,,VFR,,,,,,,,,,,,METAR,166.0
KC65 060715Z AUTO 00000KT 10SM CLR 14/08 A2999 RMK A01,KC65,2023-06-06T07:15:00Z,41.37,-86.3,14.0,8.0,0,0,,10.0,29.991142,,,TRUE,TRUE,,,,,,,CLR,,,,,,,,VFR,,,,,,,,,,,,METAR,241.0
KC35 060715Z AUTO 06003KT 10SM CLR 17/14 A3001 RMK AO2 T01730135 PWINO,KC35,2023-06-06T07:15:00Z,43.53,-89.98,17.3,13.5,60,3,,10.0,30.008858,,,TRUE,TRUE,,,,,TRUE,,CLR,,,,,,,,VFR,,,,,,,,,,,,METAR,272.0
KC29 060715Z AUTO 00000KT 10SM CLR 16/13 A3002 RMK AO1 T01580128,KC29,2023-06-06T07:15:00Z,43.12,-89.53,15.8,12.8,0,0,,10.0,30.02067,,,TRUE,TRUE,,,,,,,CLR,,,,,,,,VFR,,,,,,,,,,,,METAR,282.0
KC09 060715Z AUTO 00000KT 10SM CLR 17/09 A3000 RMK AO2 T01690092,KC09,2023-06-06T07:15:00Z,41.43,-88.42,16.9,9.2,0,0,,10.0,30.0,,,TRUE,TRUE,,,,,,,CLR,,,,,,,,VFR,,,,,,,,,,,,METAR,179.0
KC07 060715Z AUTO 00000KT 10SM CLR 04/02 A3039 RMK AO2,KC07,2023-06-06T07:15:00Z,40.35,-106.7,4.0,2.0,0,0,,10.0,30.389763,,,TRUE,TRUE,,,,,,,CLR,,,,,,,,VFR,,,,,,,,,,,,METAR,3224.0
KBYY 060715Z AUTO 00000KT 10SM CLR 20/19 A2991 RMK AO2 T01960191,KBYY,2023-06-06T07:15:00Z,28.97,-95.87,19.6,19.1,0,0,,10.0,29.911417,,,TRUE,TRUE,,,,,,,CLR,,,,,,,,VFR,,,,,,,,,,,,METAR,12.0
KBYL 060715Z AUTO 00000KT 10SM FEW070 15/13 A2997 RMK AO1,KBYL,2023-06-06T07:15:00Z,36.8,-84.2,15.0,13.0,0,0,,10.0,29.970472,,,TRUE,TRUE,,,,,,,FEW,7000,,,,,,,VFR,,,,,,,,,,,,SPECI,355.0
KBXK 060715Z AUTO 11005KT 10SM CLR 23/M02 A2977 RMK A01,KBXK,2023-06-06T07:15:00Z,33.42,-112.68,23.0,-2.0,110,5,,10.0,29.769686,,,TRUE,TRUE,,,,,,,CLR,,,,,,,,VFR,,,,,,,,,,,,METAR,303.0
KBXA 060715Z AUTO 00000KT 10SM CLR 20/19 A2994 RMK AO2 T02030190,KBXA,2023-06-06T07:15:00Z,30.82,-89.87,20.3,19.0,0,0,,10.0,29.940945,,,TRUE,TRUE,,,,,,,CLR,,,,,,,,VFR,,,,,,,,,,,,METAR,35.0
KBWW 060715Z AUTO 16007KT 10SM CLR 16/16 A3002 RMK AO2,KBWW,2023-06-06T07:15:00Z,46.17,-103.3,16.0,16.0,160,7,,10.0,30.02067,,,TRUE,TRUE,,,,,,,CLR,,,,,,,,VFR,,,,,,,,,,,,METAR,911.0
KBWP 060715Z AUTO 12005KT 10SM CLR 22/17 A2999 RMK AO2,KBWP,2023-06-06T07:15:00Z,46.25,-96.62,22.0,17.0,120,5,,10.0,29.991142,,,TRUE,TRUE,,,,,,,CLR,,,,,,,,VFR,,,,,,,,,,,,METAR,294.0
KBWD 060715Z AUTO 35005KT 7SM BKN039 BKN047 OVC055 18/18 A2999 RMK AO1,KBWD,2023-06-06T07:15:00Z,31.8,-98.95,18.0,18.0,350,5,,7.0,29.991142,,,TRUE,TRUE,,,,,,,BKN,3900,BKN,4700,OVC,5500,,,VFR,,,,,,,,,,,,SPECI,420.0
KBVU 060715Z AUTO 07005KT 10SM CLR 25/M02 A2973 RMK AO2,KBVU,2023-06-06T07:15:00Z,35.95,-114.87,25.0,-2.0,70,5,,10.0,29.731298,,,TRUE,TRUE,,,,,,,CLR,,,,,,,,VFR,,,,,,,,,,,,METAR,654.0
KBVS 060715Z AUTO 31006KT 10SM CLR 13/08 A3003 RMK A01,KBVS,2023-06-06T07:15:00Z,48.47,-122.42,13.0,8.0,310,6,,10.0,30.029528,,,TRUE,TRUE,,,,,,,CLR,,,,,,,,VFR,,,,,,,,,,,,METAR,31.0
KBVN 060715Z AUTO 00000KT 10SM CLR 15/14 A3006 RMK AO2 T01500138,KBVN,2023-06-06T07:15:00Z,41.73,-98.05,15.0,13.8,0,0,,10.0,30.059055,,,TRUE,TRUE,,,,,,,CLR,,,,,,,,VFR,,,,,,,,,,,,METAR,547.0
KBVI 060715Z AUTO 30004KT 10SM CLR 14/06 A2993 RMK AO2 T01410055,KBVI,2023-06-06T07:15:00Z,40.77,-80.37,14.1,5.5,300,4,,10.0,29.929134,,,TRUE,TRUE,,,,,,,CLR,,,,,,,,VFR,,,,,,,,,,,,METAR,387.0
KBUU 060715Z AUTO 00000KT 10SM BKN075 BKN110 14/10 A3002 RMK AO2 T01410095 PWINO,KBUU,2023-06-06T07:15:00Z,42.68,-88.3,14.1,9.5,0,0,,10.0,30.02067,,,TRUE,TRUE,,,,,TRUE,,BKN,7500,BKN,11000,,,,,VFR,,,,,,,,,,,,METAR,238.0
KBTN 060715Z AUTO 00000KT 10SM CLR 18/18 A2998 RMK AO2,KBTN,2023-06-06T07:15:00Z,45.82,-97.75,18.0,18.0,0,0,,10.0,29.97933,,,TRUE,TRUE,,,,,,,CLR,,,,,,,,VFR,,,,,,,,,,,,METAR,400.0
KBTA 060715Z AUTO 18004KT 10SM CLR 19/14 A3005 RMK AO2 T01900141,KBTA,2023-06-06T07:15:00Z,41.42,-96.12,19.0,14.1,180,4,,10.0,30.050198,,,TRUE,TRUE,,,,,,,CLR,,,,,,,,VFR,,,,,,,,,,,,METAR,400.0
KBRY 060715Z AUTO 36003KT 9SM CLR 16/14 A2994 RMK AO2 T01570136,KBRY,2023-06-06T07:15:00Z,37.82,-85.5,15.7,13.6,360,3,,9.0,29.940945,,,TRUE,TRUE,,,,,,,CLR,,,,,,,,VFR,,,,,,,,,,,,METAR,192.0
KBRG 060715Z AUTO 11008KT 10SM SCT120 19/06 A3014 RMK AO2 T01900058,KBRG,2023-06-06T07:15:00Z,34.65,-106.83,19.0,5.8,110,8,,10.0,30.138779,,,TRUE,TRUE,,,,,,,SCT,12000,,,,,,,VFR,,,,,,,,,,,,METAR,1585.0
KBQX 060715Z AUTO 21004KT 10SM FEW037 FEW043 BKN055 25/18 A2991 RMK A01,KBQX,2023-06-06T07:15:00Z,28.5,-95.72,25.0,18.0,210,4,,10.0,29.911417,,,TRUE,TRUE,,,,,,,FEW,3700,FEW,4300,BKN,5500,,,VFR,,,,,,,,,,,,METAR,34.0
KBQP 060715Z AUTO 00000KT 19/19 A2992 RMK AO2 T01900187 PWINO,KBQP,2023-06-06T07:15:00Z,32.75,-91.88,19.0,18.7,0,0,,,29.920275,,,TRUE,TRUE,,,,,TRUE,,,,,,,,,,,,,,,,,,,,,,SPECI,50.0
KBQK 060715Z AUTO 00000KT 5SM BR CLR 16/15 A2995 RMK AO2 T01590154,KBQK,2023-06-06T07:15:00Z,31.25,-81.47,15.9,15.4,0,0,,5.0,29.949802,,,TRUE,TRUE,,,,,,BR,CLR,,,,,,,,MVFR,,,,,,,,,,,,METAR,7.0
KBPG 060715Z AUTO 00000KT 5SM BR CLR 17/15 A3008 RMK AO2 T01700149,KBPG,2023-06-06T07:15:00Z,32.22,-101.52,17.0,14.9,0,0,,5.0,30.079725,,,TRUE,TRUE,,,,,,BR,CLR,,,,,,,,MVFR,,,,,,,,,,,,METAR,782.0
KBPC 060715Z AUTO 00000KT 10SM SCT120 16/13 A3012 RMK AO2,KBPC,2023-06-06T07:15:00Z,35.88,-101.03,16.0,13.0,0,0,,10.0,30.121063,,,TRUE,TRUE,,,,,,,SCT,12000,,,,,,,VFR,,,,,,,,,,,,METAR,844.0
KBOW 060715Z AUTO 05004KT 10SM CLR 22/20 A2996 RMK AO2,KBOW,2023-06-06T07:15:00Z,27.93,-81.77,22.0,20.0,50,4,,10.0,29.958662,,,TRUE,TRUE,,,,,,,CLR,,,,,,,,VFR,,,,,,,,,,,,METAR,38.0
KBNW 060715Z AUTO 00000KT 10SM 19/16 A3002 RMK AO2,KBNW,2023-06-06T07:15:00Z,42.03,-93.83,19.0,16.0,0,0,,10.0,30.02067,,,TRUE,TRUE,,,,,,,,,,,,,,,,,,,,,,,,,,,METAR,350.0
KBNL 060715Z AUTO 00000KT 10SM TS SCT075 19/16 A2995 RMK AO2 LTG DSNT NW,KBNL,2023-06-06T07:15:00Z,33.25,-81.38,19.0,16.0,0,0,,10.0,29.949802,,,TRUE,TRUE,,,,,,TS,SCT,7500,,,,,,,VFR,,,,,,,,,,,,METAR,76.0
KBMT 060715Z AUTO 04007KT 10SM CLR 21/20 A2992 RMK AO2 T02080200,KBMT,2023-06-06T07:15:00Z,30.07,-94.22,20.8,20.0,40,7,,10.0,29.920275,,,TRUE,TRUE,,,,,,,CLR,,,,,,,,VFR,,,,,,,,,,,,METAR,8.0
KBKT 060715Z AUTO 00000KT 10SM SCT070 BKN080 15/13 A2989 RMK AO1 T01530128,KBKT,2023-06-06T07:15:00Z,37.07,-77.95,15.3,12.8,0,0,,10.0,29.890747,,,TRUE,TRUE,,,,,,,SCT,7000,BKN,8000,,,,,VFR,,,,,,,,,,,,METAR,134.0
KBKS 060715Z AUTO 00000KT 10SM CLR 21/21 A2990 RMK AO2 SLP085 T02150211 $,KBKS,2023-06-06T07:15:00Z,27.2,-98.12,21.5,21.1,0,0,,10.0,29.899607,1008.5,,TRUE,TRUE,TRUE,,,,,,CLR,,,,,,,,VFR,,,,,,,,,,,,METAR,34.0
KBKN 060715Z AUTO 00000KT 17/17 A3001 RMK AO2,KBKN,2023-06-06T07:15:00Z,36.75,-97.35,17.0,17.0,0,0,,,30.008858,,,TRUE,TRUE,,,,,,,,,,,,,,,,,,,,,,,,,,,METAR,208.0
KBKD 060715Z AUTO 00000KT 10SM SCT065 BKN100 19/19 A3000 RMK AO2 T01920192,KBKD,2023-06-06T07:15:00Z,32.72,-98.88,19.2,19.2,0,0,,10.0,30.0,,,TRUE,TRUE,,,,,,,SCT,6500,BKN,10000,,,,,VFR,,,,,,,,,,,,METAR,383.0
KBJI 060715Z AUTO 14005KT 10SM CLR 17/16 A3006 RMK AO2 T01730155,KBJI,2023-06-06T07:15:00Z,47.5,-94.92,17.3,15.5,140,5,,10.0,30.059055,,,TRUE,TRUE,,,,,,,CLR,,,,,,,,VFR,,,,,,,,,,,,METAR,422.0
KBJC 060715Z AUTO 25005KT 10SM CLR 10/08 A3015 RMK AO2,KBJC,2023-06-06T07:15:00Z,39.9,-105.1,10.0,8.0,250,5,,10.0,30.15059,,,TRUE,TRUE,,,,,,,CLR,,,,,,,,VFR,,,,,,,,,,,,METAR,1694.0
KBIJ 060715Z AUTO 00000KT 10SM CLR 17/16 A2995 RMK AO2,KBIJ,2023-06-06T07:15:00Z,31.4,-84.9,17.0,16.0,0,0,,10.0,29.949802,,,TRUE,TRUE,,,,,,,CLR,,,,,,,,VFR,,,,,,,,,,,,SPECI,63.0
KBIE 060715Z AUTO 00000KT 10SM CLR 15/14 A3005 RMK AO2 T01540141,KBIE,2023-06-06T07:15:00Z,40.28,-96.75,15.4,14.1,0,0,,10.0,30.050198,,,TRUE,TRUE,,,,,,,CLR,,,,,,,,VFR,,,,,,,,,,,,METAR,398.0
KBHC 060715Z AUTO 00000KT 10SM CLR 16/15 A2996 RMK AO2 LTG DSNT N,KBHC,2023-06-06T07:15:00Z,31.72,-82.4,16.0,15.0,0,0,,10.0,29.958662,,,TRUE,TRUE,,,,,,,CLR,,,,,,,,VFR,,,,,,,,,,,,SPECI,61.0
KBGF 060715Z AUTO 00000KT 10SM SCT034 SCT040 19/19 A2994 RMK A01,KBGF,2023-06-06T07:15:00Z,35.18,-86.07,19.0,19.0,0,0,,10.0,29.940945,,,TRUE,TRUE,,,,,,,SCT,3400,SCT,4000,,,,,VFR,,,,,,,,,,,,METAR,295.0
KBGE 060715Z AUTO 00000KT 10SM CLR 20/18 A2994 RMK AO2 T01960185,KBGE,2023-06-06T07:15:00Z,30.97,-84.63,19.6,18.5,0,0,,10.0,29.940945,,,TRUE,TRUE,,,,,,,CLR,,,,,,,,VFR,,,,,,,,,,,,SPECI,40.0
KBEC 060715Z AUTO 36005KT 10SM CLR 18/14 A3003 RMK AO2 T01820141,KBEC,2023-06-06T07:15:00Z,37.7,-97.22,18.2,14.1,360,5,,10.0,30.029528,,,TRUE,TRUE,,,,,,,CLR,,,,,,,,VFR,,,,,,,,,,,,SPECI,421.0
KBDU 060715Z AUTO 00000KT 10SM CLR 12/11 A3013 RMK AO2,KBDU,2023-06-06T07:15:00Z,40.03,-105.23,12.0,11.0,0,0,,10.0,30.129921,,,TRUE,TRUE,,,,,,,CLR,,,,,,,,VFR,,,,,,,,,,,,METAR,1614.0
KBDH 060715Z AUTO 08005KT 10SM CLR 22/18 A3005 RMK AO2,KBDH,2023-06-06T07:15:00Z,45.12,-95.13,22.0,18.0,80,5,,10.0,30.050198,,,TRUE,TRUE,,,,,,,CLR,,,,,,,,VFR,,,,,,,,,,,,METAR,341.0
KBDG 060715Z AUTO 03008KT 10SM 17/04 A3014 RMK AO1 T01690035,KBDG,2023-06-06T07:15:00Z,37.58,-109.47,16.9,3.5,30,8,,10.0,30.138779,,,TRUE,TRUE,,,,,,,,,,,,,,,,,,,,,,,,,,,SPECI,1778.0
KBCK 060715Z AUTO 00000KT 2 1/2SM BR BKN110 15/15 A3000 RMK AO2 T01540149,KBCK,2023-06-06T07:15:00Z,44.25,-90.85,15.4,14.9,0,0,,2.5,30.0,,,TRUE,TRUE,,,,,,BR,BKN,11000,,,,,,,IFR,,,,,,,,,,,,METAR,256.0
KBCB 060715Z AUTO 32003KT 10SM SCT046 12/12 A3001 RMK AO2 T01180118,KBCB,2023-06-06T07:15:00Z,37.22,-80.42,11.8,11.8,320,3,,10.0,30.008858,,,TRUE,TRUE,,,,,,,SCT,4600,,,,,,,VFR,,,,,,,,,,,,METAR,642.0
KBBP 060715Z AUTO 00000KT 10SM CLR 16/15 A2993 RMK AO2 LTG DSNT W,KBBP,2023-06-06T07:15:00Z,34.62,-79.73,16.0,15.0,0,0,,10.0,29.929134,,,TRUE,TRUE,,,,,,,CLR,,,,,,,,VFR,,,,,,,,,,,,METAR,44.0
KBBG 060715Z AUTO 00000KT 10SM FEW050 19/16 A3003 RMK AO2,KBBG,2023-06-06T07:15:00Z,36.53,-93.2,19.0,16.0,0,0,,10.0,30.029528,,,TRUE,TRUE,,,,,,,FEW,5000,,,,,,,VFR,,,,,,,,,,,,METAR,403.0
KBBD 060715Z AUTO 35005KT 10SM OVC047 18/17 A3000 RMK AO2,KBBD,2023-06-06T07:15:00Z,31.18,-99.32,18.0,17.0,350,5,,10.0,30.0,,,TRUE,TRUE,,,,,,,OVC,4700,,,,,,,VFR,,,,,,,,,,,,METAR,554.0
KBAX 060715Z AUTO 01003KT 7SM CLR 14/14 A2995 RMK AO2 T01390139,KBAX,2023-06-06T07:15:00Z,43.78,-82.98,13.9,13.9,10,3,,7.0,29.949802,,,TRUE,TRUE,,,,,,,CLR,,,,,,,,VFR,,,,,,,,,,,,METAR,229.0
KBAM 060715Z AUTO 09004KT 10SM CLR 18/07 A2995 RMK AO1,KBAM,2023-06-06T07:15:00Z,40.6,-116.87,18.0,7.0,90,4,,10.0,29.949802,,,TRUE,TRUE,,,,,,,CLR,,,,,,,,VFR,,,,,,,,,,,,METAR,1381.0
KBAC 060715Z AUTO 20003KT 9SM CLR 19/19 A3002 RMK AO2,KBAC,2023-06-06T07:15:00Z,46.93,-98.02,19.0,19.0,200,3,,9.0,30.02067,,,TRUE,TRUE,,,,,,,CLR,,,,,,,,VFR,,,,,,,,,,,,METAR,423.0
KAZE 060715Z AUTO 20004KT 10SM CLR 19/16 A2994 RMK AO2 LTG DSNT N T01910155,KAZE,2023-06-06T07:15:00Z,31.88,-82.65,19.1,15.5,200,4,,10.0,29.940945,,,TRUE,TRUE,,,,,,,CLR,,,,,,,,VFR,,,,,,,,,,,,METAR,78.0
KAZC 060715Z AUTO 00000KT 10SM CLR 18/01 A2996 RMK AO2,KAZC,2023-06-06T07:15:00Z,36.97,-113.02,18.0,1.0,0,0,,10.0,29.958662,,,TRUE,TRUE,,,,,,,CLR,,,,,,,,VFR,,,,,,,,,,,,METAR,1476.0
KAYS 060715Z AUTO 00000KT 10SM CLR 18/18 A2996 RMK AO2 T01820176,KAYS,2023-06-06T07:15:00Z,31.25,-82.4,18.2,17.6,0,0,,10.0,29.958662,,,TRUE,TRUE,,,,,,,CLR,,,,,,,,VFR,,,,,,,,,,,,METAR,42.0
KAXX 060715Z AUTO 00000KT 10SM OVC005 05/05 A3037 RMK AO2 T00500045,KAXX,2023-06-06T07:15:00Z,36.42,-105.28,5.0,4.5,0,0,,10.0,30.369095,,,TRUE,TRUE,,,,,,,OVC,500,,,,,,,IFR,,,,,,,,,,,,METAR,2543.0
KAXV 060715Z AUTO 00000KT 7SM SCT075 13/06 A2998 RMK AO2,KAXV,2023-06-06T07:15:00Z,40.5,-84.3,13.0,6.0,0,0,,7.0,29.97933,,,TRUE,TRUE,,,,,,,SCT,7500,,,,,,,VFR,,,,,,,,,,,,METAR,278.0
KAXH 060715Z AUTO 00000KT 2SM BR CLR 20/19 A2992 RMK AO2 T01950187,KAXH,2023-06-06T07:15:00Z,29.52,-95.48,19.5,18.7,0,0,,2.0,29.920275,,,TRUE,TRUE,,,,,,BR,CLR,,,,,,,,IFR,,,,,,,,,,,,METAR,18.0
KAXA 060715Z AUTO 20008KT 7SM CLR 20/18 A3001 RMK A01,KAXA,2023-06-06T07:15:00Z,43.07,-94.27,20.0,18.0,200,8,,7.0,30.008858,,,TRUE,TRUE,,,,,,,CLR,,,,,,,,VFR,,,,,,,,,,,,METAR,371.0
KAWG 060715Z AUTO 27003KT 10SM CLR 17/10 A3002 RMK AO2,KAWG,2023-06-06T07:15:00Z,41.27,-91.67,17.0,10.0,270,3,,10.0,30.02067,,,TRUE,TRUE,,,,,,,CLR,,,,,,,,VFR,,,,,,,,,,,,METAR,229.0
KAVQ 060715Z AUTO 00000KT 10SM 24/M07 A2984 RMK AO2 T02431072,KAVQ,2023-06-06T07:15:00Z,32.4,-111.22,24.3,-7.2,0,0,,10.0,29.840551,,,TRUE,TRUE,,,,,,,,,,,,,,,,,,,,,,,,,,,METAR,618.0
KAVC 060715Z AUTO 00000KT 10SM OVC070 14/14 A2995 RMK AO2 T01400138,KAVC,2023-06-06T07:15:00Z,36.68,-78.05,14.0,13.8,0,0,,10.0,29.949802,,,TRUE,TRUE,,,,,,,OVC,7000,,,,,,,VFR,,,,,,,,,,,,METAR,119.0
KAUN 060715Z AUTO 07005KT 10SM CLR 17/13 A2981 RMK A01,KAUN,2023-06-06T07:15:00Z,38.95,-121.08,17.0,13.0,70,5,,10.0,29.811024,,,TRUE,TRUE,,,,,,,CLR,,,,,,,,VFR,,,,,,,,,,,,METAR,453.0
KAUM 060715Z AUTO 00000KT 10SM SCT090 20/16 A3003 RMK AO2,KAUM,2023-06-06T07:15:00Z,43.67,-92.92,20.0,16.0,0,0,,10.0,30.029528,,,TRUE,TRUE,,,,,,,SCT,9000,,,,,,,VFR,,,,,,,,,,,,METAR,376.0
KAUH 060715Z AUTO 16003KT 10SM CLR 17/14 A3006 RMK AO2 T01700141,KAUH,2023-06-06T07:15:00Z,40.88,-98.0,17.0,14.1,160,3,,10.0,30.059055,,,TRUE,TRUE,,,,,,,CLR,,,,,,,,VFR,,,,,,,,,,,,METAR,549.0
KATS 060715Z AUTO 03010KT 10SM SCT060 SCT075 20/14 A3016 RMK AO2,KATS,2023-06-06T07:15:00Z,32.85,-104.47,20.0,14.0,30,10,,10.0,30.159449,,,TRUE,TRUE,,,,,,,SCT,6000,SCT,7500,,,,,VFR,,,,,,,,,,,,METAR,1073.0
KATA 060715Z AUTO 16005KT 6SM BR CLR 21/19 A2993 RMK AO2 SLP033 T02090189 $,KATA,2023-06-06T07:15:00Z,33.1,-94.2,20.9,18.9,160,5,,6.0,29.929134,1003.3,,TRUE,TRUE,TRUE,,,,,BR,CLR,,,,,,,,VFR,,,,,,,,,,,,METAR,85.0
KASW 060715Z AUTO 28003KT 10SM CLR 15/07 A2999 RMK AO2 T01520072,KASW,2023-06-06T07:15:00Z,41.27,-85.83,15.2,7.2,280,3,,10.0,29.991142,,,TRUE,TRUE,,,,,,,CLR,,,,,,,,VFR,,,,,,,,,,,,METAR,253.0
KASN 060715Z AUTO 00000KT 10SM CLR 20/19 A2997 RMK AO2 T01950191,KASN,2023-06-06T07:15:00Z,33.57,-86.05,19.5,19.1,0,0,,10.0,29.970472,,,TRUE,TRUE,,,,,,,CLR,,,,,,,,VFR,,,,,,,,,,,,METAR,159.0
KASL 060715Z AUTO 09007KT 8SM CLR 19/19 A2992 RMK AO2 RAE0652 P0000 T01910191 $,KASL,2023-06-06T07:15:00Z,32.52,-94.3,19.1,19.1,90,7,,8.0,29.920275,,,TRUE,TRUE,TRUE,,,,,,CLR,,,,,,,,VFR,,,,,,0.005,,,,,,METAR,104.0
KARW 060715Z AUTO 00000KT 5SM HZ CLR 19/16 A2994 RMK AO2 LTG DSNT N AND NW,KARW,2023-06-06T07:15:00Z,32.42,-80.63,19.0,16.0,0,0,,5.0,29.940945,,,TRUE,TRUE,,,,,,HZ,CLR,,,,,,,,MVFR,,,,,,,,,,,,METAR,2.0
KARV 060715Z AUTO 00000KT 7SM OVC027 15/12 A3010 RMK AO2 T01460121,KARV,2023-06-06T07:15:00Z,45.92,-89.72,14.6,12.1,0,0,,7.0,30.100393,,,TRUE,TRUE,,,,,,,OVC,2700,,,,,,,MVFR,,,,,,,,,,,,METAR,494.0
KARM 060715Z AUTO 00000KT 3/4SM BR OVC002 20/20 A2993 RMK AO2 T01950195 TSNO,KARM,2023-06-06T07:15:00Z,29.25,-96.15,19.5,19.5,0,0,,0.75,29.929134,,,TRUE,TRUE,,,TRUE,,,BR,OVC,200,,,,,,,LIFR,,,,,,,,,,,,METAR,29.0
KAQX 060715Z AUTO 00000KT 10SM FEW075 18/16 A2993 RMK AO2 LTG DSNT N AND NW,KAQX,2023-06-06T07:15:00Z,32.98,-81.27,18.0,16.0,0,0,,10.0,29.929134,,,TRUE,TRUE,,,,,,,FEW,7500,,,,,,,VFR,,,,,,,,,,,,METAR,48.0
KAQO 060715Z AUTO 29004KT 10SM FEW032 BKN043 OVC060 20/18 A2996 RMK AO2,KAQO,2023-06-06T07:15:00Z,30.78,-98.67,20.0,18.0,290,4,,10.0,29.958662,,,TRUE,TRUE,,,,,,,FEW,3200,BKN,4300,OVC,6000,,,VFR,,,,,,,,,,,,METAR,334.0
KAPY 060715Z AUTO 00000KT 10SM CLR 23/21 A2993 RMK AO2 T02260206 TSNO,KAPY,2023-06-06T07:15:00Z,26.97,-99.25,22.6,20.6,0,0,,10.0,29.929134,,,TRUE,TRUE,,,TRUE,,,,CLR,,,,,,,,VFR,,,,,,,,,,,,METAR,129.0
KANW 060715Z AUTO 20003KT 10SM CLR 16/13 A3008 RMK AO2 T01570131,KANW,2023-06-06T07:15:00Z,42.57,-100.0,15.7,13.1,200,3,,10.0,30.079725,,,TRUE,TRUE,,,,,,,CLR,,,,,,,,VFR,,,,,,,,,,,,METAR,788.0
KANQ 060715Z AUTO 00000KT 10SM FEW024 SCT039 BKN055 14/09 A2997 RMK AO2,KANQ,2023-06-06T07:15:00Z,41.63,-85.08,14.0,9.0,0,0,,10.0,29.970472,,,TRUE,TRUE,,,,,,,FEW,2400,SCT,3900,BKN,5500,,,VFR,,,,,,,,,,,,METAR,299.0
KANE 060715Z AUTO 02004KT 10SM CLR 19/17 A3003 RMK AO2,KANE,2023-06-06T07:15:00Z,45.15,-93.22,19.0,17.0,20,4,,10.0,30.029528,,,TRUE,TRUE,,,,,,,CLR,,,,,,,,VFR,,,,,,,,,,,,METAR,276.0
KAMN 060715Z AUTO 27003KT 10SM BKN075 16/12 A2997 RMK AO2 T01610122,KAMN,2023-06-06T07:15:00Z,43.32,-84.68,16.1,12.2,270,3,,10.0,29.970472,,,TRUE,TRUE,,,,,,,BKN,7500,,,,,,,VFR,,,,,,,,,,,,METAR,228.0
KALX 060715Z AUTO 00000KT 10SM CLR 19/19 A2996 RMK AO2 T01900189,KALX,2023-06-06T07:15:00Z,32.92,-85.97,19.0,18.9,0,0,,10.0,29.958662,,,TRUE,TRUE,,,,,,,CLR,,,,,,,,VFR,,,,,,,,,,,,SPECI,198.0
KALN 060715Z AUTO 00000KT 10SM CLR 14/11 A3001 RMK AO2 T01350110,KALN,2023-06-06T07:15:00Z,38.88,-90.03,13.5,11.0,0,0,,10.0,30.008858,,,TRUE,TRUE,,,,,,,CLR,,,,,,,,VFR,,,,,,,,,,,,METAR,159.0
KALM 060715Z AUTO 17007KT 10SM FEW044 15/11 A3009 RMK AO2,KALM,2023-06-06T07:15:00Z,32.83,-105.98,15.0,11.0,170,7,,10.0,30.088583,,,TRUE,TRUE,,,,,,,FEW,4400,,,,,,,VFR,,,,,,,,,,,,METAR,1267.0
KAJZ 060715Z AUTO 02008KT 10SM CLR 16/04 A3008 RMK AO2 T01640043 PWINO,KAJZ,2023-06-06T07:15:00Z,38.78,-108.07,16.4,4.3,20,8,,10.0,30.079725,,,TRUE,TRUE,,,,,TRUE,,CLR,,,,,,,,VFR,,,,,,,,,,,,METAR,1583.0
KAJR 060715Z AUTO 00000KT 7SM -RA SCT075 SCT085 BKN110 20/20 A2996 RMK AO2 LTG DSNT N S AND SW T02000200,KAJR,2023-06-06T07:15:00Z,34.5,-83.55,20.0,20.0,0,0,,7.0,29.958662,,,TRUE,TRUE,,,,,,-RA,SCT,7500,SCT,8500,BKN,11000,,,VFR,,,,,,,,,,,,SPECI,441.0
KAJG 060715Z AUTO 00000KT 10SM CLR 14/10 A2999 RMK AO2 T01350096,KAJG,2023-06-06T07:15:00Z,38.62,-87.73,13.5,9.6,0,0,,10.0,29.991142,,,TRUE,TRUE,,,,,,,CLR,,,,,,,,VFR,,,,,,,,,,,,METAR,130.0
KAIO 060715Z AUTO 00000KT 10SM OVC070 18/18 A3003 RMK AO2,KAIO,2023-06-06T07:15:00Z,41.4,-95.03,18.0,18.0,0,0,,10.0,30.029528,,,TRUE,TRUE,,,,,,,OVC,7000,,,,,,,VFR,,,,,,,,,,,,METAR,349.0
KAIK 060715Z AUTO 19005KT 7SM TS SCT048 SCT060 SCT090 19/18 A2993 RMK AO2 LTG DSNT ALQDS T01850178,KAIK,2023-06-06T07:15:00Z,33.65,-81.68,18.5,17.8,190,5,,7.0,29.929134,,,TRUE,TRUE,,,,,,TS,SCT,4800,SCT,6000,SCT,9000,,,VFR,,,,,,,,,,,,METAR,155.0
KAIG 060715Z AUTO 06004KT 10SM SCT045 OVC070 16/10 A3009 RMK AO2 T01560100,KAIG,2023-06-06T07:15:00Z,45.15,-89.12,15.6,10.0,60,4,,10.0,30.088583,,,TRUE,TRUE,,,,,,,SCT,4500,OVC,7000,,,,,VFR,,,,,,,,,,,,METAR,462.0
KAHQ 060715Z AUTO 16004KT 10SM 17/15 A3005 RMK AO2 T01700150,KAHQ,2023-06-06T07:15:00Z,41.23,-96.6,17.0,15.0,160,4,,10.0,30.050198,,,TRUE,TRUE,,,,,,,,,,,,,,,,,,,,,,,,,,,METAR,372.0
KAGO 060715Z AUTO 00000KT 10SM SCT055 19/18 A2992 RMK A01,KAGO,2023-06-06T07:15:00Z,33.23,-93.22,19.0,18.0,0,0,,10.0,29.920275,,,TRUE,TRUE,,,,,,,SCT,5500,,,,,,,VFR,,,,,,,,,,,,METAR,91.0
KAGI 060715Z AUTO 09005KT 10SM CLR 24/19 A2990 RMK AO2 T02410187,KAGI,2023-06-06T07:15:00Z,27.55,-92.45,24.1,18.7,90,5,,10.0,29.899607,,,TRUE,TRUE,,,,,,,CLR,,,,,,,,VFR,,,,,,,,,,,,SPECI,41.0
KAFO 060715Z AUTO 00000KT 10SM OVC110 08/06 A3014 RMK AO2,KAFO,2023-06-06T07:15:00Z,42.72,-110.95,8.0,6.0,0,0,,10.0,30.138779,,,TRUE,TRUE,,,,,,,OVC,11000,,,,,,,VFR,,,,,,,,,,,,SPECI,1881.0
KAFK 060715Z AUTO 00000KT 10SM CLR 17/16 A3005 RMK AO2 T01720156,KAFK,2023-06-06T07:15:00Z,40.6,-95.85,17.2,15.6,0,0,,10.0,30.050198,,,TRUE,TRUE,,,,,,,CLR,,,,,,,,VFR,,,,,,,,,,,,METAR,353.0
KAEL 060715Z AUTO 00000KT 7SM 18/17 A3002 RMK AO2,KAEL,2023-06-06T07:15:00Z,43.68,-93.37,18.0,17.0,0,0,,7.0,30.02067,,,TRUE,TRUE,,,,,,,,,,,,,,,,,,,,,,,,,,,METAR,382.0
KAEJ 060715Z AUTO 27004KT 10SM CLR 05/02 A3031 RMK AO2 T00460023,KAEJ,2023-06-06T07:15:00Z,38.82,-106.12,4.6,2.3,270,4,,10.0,30.31004,,,TRUE,TRUE,,,,,,,CLR,,,,,,,,VFR,,,,,,,,,,,,METAR,2420.0
KAEG 060715Z AUTO 04004KT 10SM SCT100 BKN120 14/08 A3019 RMK AO2 T01420076,KAEG,2023-06-06T07:15:00Z,35.13,-106.8,14.2,7.6,40,4,,10.0,30.188976,,,TRUE,TRUE,,,,,,,SCT,10000,BKN,12000,,,,,VFR,,,,,,,,,,,,METAR,1771.0
KADU 060715Z AUTO 00000KT 5SM BKN010 BKN016 OVC050 16/14 A3005 RMK AO2 PWINO,KADU,2023-06-06T07:15:00Z,41.7,-94.92,16.0,14.0,0,0,,5.0,30.050198,,,TRUE,TRUE,,,,,TRUE,,BKN,1000,BKN,1600,OVC,5000,,,MVFR,,,,,,,,,,,,METAR,391.0
KADT 060715Z AUTO 23004KT 10SM CLR A3016 RMK AO2,KADT,2023-06-06T07:15:00Z,39.83,-101.05,,,230,4,,10.0,30.159449,,,TRUE,TRUE,,,,,,,CLR,,,,,,,,VFR,,,,,,,,,,,,METAR,899.0
KADS 060715Z AUTO 00000KT 10SM CLR 24/18 A2997 RMK AO2 T02350176,KADS,2023-06-06T07:15:00Z,32.97,-96.83,23.5,17.6,0,0,,10.0,29.970472,,,TRUE,TRUE,,,,,,,CLR,,,,,,,,VFR,,,,,,,,,,,,METAR,198.0
KADM 060715Z AUTO 00000KT 10SM BKN055 OVC070 18/17 A2997 RMK AO2,KADM,2023-06-06T07:15:00Z,34.3,-97.02,18.0,17.0,0,0,,10.0,29.970472,,,TRUE,TRUE,,,,,,,BKN,5500,OVC,7000,,,,,VFR,,,,,,,,,,,,SPECI,223.0
KADH 060715Z AUTO 15003KT 10SM CLR 20/17 A2999 RMK AO2,KADH,2023-06-06T07:15:00Z,34.8,-96.67,20.0,17.0,150,3,,10.0,29.991142,,,TRUE,TRUE,,,,,,,CLR,,,,,,,,VFR,,,,,,,,,,,,METAR,301.0
KACQ 060715Z AUTO 00000KT 10SM SCT090 18/15 A3003 RMK AO2,KACQ,2023-06-06T07:15:00Z,44.07,-93.55,18.0,15.0,0,0,,10.0,30.029528,,,TRUE,TRUE,,,,,,,SCT,9000,,,,,,,VFR,,,,,,,,,,,,METAR,339.0
KACP 060715Z AUTO 00000KT 4SM BR CLR 19/17 A2993 RMK AO2,KACP,2023-06-06T07:15:00Z,30.75,-92.68,19.0,17.0,0,0,,4.0,29.929134,,,TRUE,TRUE,,,,,,BR,CLR,,,,,,,,MVFR,,,,,,,,,,,,SPECI,31.0
KACJ 060715Z AUTO 00000KT 9SM CLR 18/18 A2995 RMK AO2 T01830177,KACJ,2023-06-06T07:15:00Z,32.12,-84.18,18.3,17.7,0,0,,9.0,29.949802,,,TRUE,TRUE,,,,,,,CLR,,,,,,,,VFR,,,,,,,,,,,,METAR,140.0
KACB 060715Z AUTO 00000KT 7SM CLR 12/11 A3000 RMK AO2 T01200114,KACB,2023-06-06T07:15:00Z,44.98,-85.2,12.0,11.4,0,0,,7.0,30.0,,,TRUE,TRUE,,,,,,,CLR,,,,,,,,VFR,,,,,,,,,,,,METAR,189.0
KAAS 060715Z AUTO 00000KT 10SM CLR 15/12 A3001 RMK AO1,KAAS,2023-06-06T07:15:00Z,37.35,-85.32,15.0,12.0,0,0,,10.0,30.008858,,,TRUE,TRUE,,,,,,,CLR,,,,,,,,VFR,,,,,,,,,,,,SPECI,270.0
KAAA 060715Z AUTO 00000KT 10SM 16/09 A3002 RMK AO2 T01550091,KAAA,2023-06-06T07:15:00Z,40.17,-89.33,15.5,9.1,0,0,,10.0,30.02067,,,TRUE,TRUE,,,,,,,,,,,,,,,,,,,,,,,,,,,METAR,179.0
KA39 060715Z AUTO 00000KT 10SM CLR 23/M08 A2983 RMK AO2,KA39,2023-06-06T07:15:00Z,32.98,-111.92,23.0,-8.0,0,0,,10.0,29.828741,,,TRUE,TRUE,,,,,,,CLR,,,,,,,,VFR,,,,,,,,,,,,SPECI,391.0
K9V9 060715Z AUTO 00000KT 10SM CLR 18/15 A3002 RMK AO2 T01800149,K9V9,2023-06-06T07:15:00Z,43.77,-99.32,18.0,14.9,0,0,,10.0,30.02067,,,TRUE,TRUE,,,,,,,CLR,,,,,,,,VFR,,,,,,,,,,,,METAR,511.0
K9MN 060715Z AUTO 00000KT 10SM OVC090 21/15 A3003 RMK AO1 T02100147,K9MN,2023-06-06T07:15:00Z,44.02,-92.48,21.0,14.7,0,0,,10.0,30.029528,,,TRUE,TRUE,,,,,,,OVC,9000,,,,,,,VFR,,,,,,,,,,,,METAR,308.0
K9D7 060715Z AUTO 00000KT 3SM BR CLR 18/19 A3002 RMK AO2 TSNO,K9D7,2023-06-06T07:15:00Z,48.48,-99.23,18.0,19.0,0,0,,3.0,30.02067,,,TRUE,TRUE,,,TRUE,,,BR,CLR,,,,,,,,MVFR,,,,,,,,,,,,METAR,451.0
K9A5 060715Z AUTO 00000KT 10SM SCT080 20/19 A2994 RMK AO2 T01980187,K9A5,2023-06-06T07:15:00Z,34.68,-85.28,19.8,18.7,0,0,,10.0,29.940945,,,TRUE,TRUE,,,,,,,SCT,8000,,,,,,,VFR,,,,,,,,,,,,SPECI,234.0
K96D 060715Z AUTO 10004KT 4SM BR CLR 20/20 A2998 RMK AO2,K96D,2023-06-06T07:15:00Z,48.93,-97.9,20.0,20.0,100,4,,4.0,29.97933,,,TRUE,TRUE,,,,,,BR,CLR,,,,,,,,MVFR,,,,,,,,,,,,METAR,290.0
K8W2 060715Z AUTO 00000KT 10SM CLR 10/09 A2992 RMK AO1 T00960090,K8W2,2023-06-06T07:15:00Z,38.65,-78.7,9.6,9.0,0,0,,10.0,29.920275,,,TRUE,TRUE,,,,,,,CLR,,,,,,,,VFR,,,,,,,,,,,,METAR,295.0
K8T6 060715Z AUTO 00000KT 6SM BR FEW029 SCT039 20/20 A2991 RMK AO2,K8T6,2023-06-06T07:15:00Z,28.37,-98.12,20.0,20.0,0,0,,6.0,29.911417,,,TRUE,TRUE,,,,,,BR,FEW,2900,SCT,3900,,,,,VFR,,,,,,,,,,,,METAR,39.0
K8B0 060715Z AUTO 01005KT 10SM BKN075 OVC090 10/08 A2969 RMK AO2,K8B0,2023-06-06T07:15:00Z,44.98,-70.65,10.0,8.0,10,5,,10.0,29.68996,,,TRUE,TRUE,,,,,,,BKN,7500,OVC,9000,,,,,VFR,,,,,,,,,,,,METAR,552.0
K8A0 060715Z AUTO 27004KT 10SM CLR 20/18 A2996 RMK AO2,K8A0,2023-06-06T07:15:00Z,34.23,-86.25,20.0,18.0,270,4,,10.0,29.958662,,,TRUE,TRUE,,,,,,,CLR,,,,,,,,VFR,,,,,,,,,,,,SPECI,313.0
K82V 060715Z AUTO 22004KT 10SM 11/11 A3015 RMK AO2,K82V,2023-06-06T07:15:00Z,41.15,-104.13,11.0,11.0,220,4,,10.0,30.15059,,,TRUE,TRUE,,,,,,,,,,,,,,,,,,,,,,,,,,,METAR,1563.0
K82C 060715Z AUTO 00000KT 7SM SCT095 BKN120 17/15 A3001 RMK AO2 T01660152,K82C,2023-06-06T07:15:00Z,43.83,-90.13,16.6,15.2,0,0,,7.0,30.008858,,,TRUE,TRUE,,,,,,,SCT,9500,BKN,12000,,,,,VFR,,,,,,,,,,,,METAR,273.0
K81R 060715Z AUTO 00000KT 10SM CLR 18/18 A2999 RMK AO2 T01840176,K81R,2023-06-06T07:15:00Z,31.23,-98.72,18.4,17.6,0,0,,10.0,29.991142,,,TRUE,TRUE,,,,,,,CLR,,,,,,,,VFR,,,,,,,,,,,,METAR,381.0
K7W4 060715Z AUTO 10SM CLR 11/11 A2989 RMK AO1 T01100106,K7W4,2023-06-06T07:15:00Z,37.97,-77.75,11.0,10.6,,,,10.0,29.890747,,,TRUE,TRUE,,,,,,,CLR,,,,,,,,VFR,,,,,,,,,,,,METAR,115.0
K7BM 060715Z AUTO 00000KT 10SM CLR 07/02 A3039 RMK AO2,K7BM,2023-06-06T07:15:00Z,38.78,-106.22,7.0,2.0,0,0,,10.0,30.389763,,,TRUE,TRUE,,,,,,,CLR,,,,,,,,VFR,,,,,,,,,,,,METAR,2996.0
K77S 060715Z AUTO 00000KT 10SM FEW037 FEW049 FEW055 14/10 A2989 RMK A01,K77S,2023-06-06T07:15:00Z,43.93,-123.0,14.0,10.0,0,0,,10.0,29.890747,,,TRUE,TRUE,,,,,,,FEW,3700,FEW,4900,FEW,5500,,,VFR,,,,,,,,,,,,METAR,161.0
K6S2 060715Z AUTO 00000KT 5SM BR OVC002 10/09 A2992 RMK AO2,K6S2,2023-06-06T07:15:00Z,43.98,-124.12,10.0,9.0,0,0,,5.0,29.920275,,,TRUE,TRUE,,,,,,BR,OVC,200,,,,,,,LIFR,,,,,,,,,,,,METAR,16.0
K6S0 060715Z AUTO 23009KT 10SM CLR 14/12 A3002 RMK A01,K6S0,2023-06-06T07:15:00Z,45.8,-109.97,14.0,12.0,230,9,,10.0,30.02067,,,TRUE,TRUE,,,,,,,CLR,,,,,,,,VFR,,,,,,,,,,,,METAR,1364.0
K6R3 060715Z AUTO 00000KT 3SM BR BKN002 21/20 A2992 RMK AO2 T02100204,K6R3,2023-06-06T07:15:00Z,30.35,-95.0,21.0,20.4,0,0,,3.0,29.920275,,,TRUE,TRUE,,,,,,BR,BKN,200,,,,,,,LIFR,,,,,,,,,,,,METAR,44.0
K6P9 060715Z AUTO 00000KT 10SM BKN042 BKN048 OVC050 19/16 A3000 RMK AO2 T01920160,K6P9,2023-06-06T07:15:00Z,32.43,-98.6,19.2,16.0,0,0,,10.0,30.0,,,TRUE,TRUE,,,,,,,BKN,4200,BKN,4800,OVC,5000,,,VFR,,,,,,,,,,,,SPECI,451.0
K6I2 060715Z AUTO 00000KT 10SM CLR 15/12 A2998 RMK AO2,K6I2,2023-06-06T07:15:00Z,37.63,-85.25,15.0,12.0,0,0,,10.0,29.97933,,,TRUE,TRUE,,,,,,,CLR,,,,,,,,VFR,,,,,,,,,,,,SPECI,258.0
K6B9 060715Z AUTO 27005KT 10SM FEW055 SCT075 OVC110 14/08 A2982 RMK AO2,K6B9,2023-06-06T07:15:00Z,42.92,-76.43,14.0,8.0,270,5,,10.0,29.819881,,,TRUE,TRUE,,,,,,,FEW,5500,SCT,7500,OVC,11000,,,VFR,,,,,,,,,,,,METAR,306.0
K6B0 060715Z AUTO 00000KT 10SM OVC060 08/07 A2972 RMK AO2 T00780066,K6B0,2023-06-06T07:15:00Z,43.98,-73.1,7.8,6.6,0,0,,10.0,29.719488,,,TRUE,TRUE,,,,,,,OVC,6000,,,,,,,VFR,,,,,,,,,,,,SPECI,149.0
K6A2 060715Z AUTO 24003KT 10SM CLR 20/18 A2996 RMK AO2 LTG DSNT E,K6A2,2023-06-06T07:15:00Z,33.23,-84.27,20.0,18.0,240,3,,10.0,29.958662,,,TRUE,TRUE,,,,,,,CLR,,,,,,,,VFR,,,,,,,,,,,,SPECI,290.0
K6A1 060715Z AUTO 29005KT 10SM CLR 21/16 A2995 RMK AO2 LTG DSNT E T02080158,K6A1,2023-06-06T07:15:00Z,32.57,-84.25,20.8,15.8,290,5,,10.0,29.949802,,,TRUE,TRUE,,,,,,,CLR,,,,,,,,VFR,,,,,,,,,,,,SPECI,198.0
K66R 060715Z AUTO 00000KT 10SM OVC006 A2994 RMK AO2,K66R,2023-06-06T07:15:00Z,29.65,-96.52,,,0,0,,10.0,29.940945,,,TRUE,TRUE,,,,,,,OVC,600,,,,,,,IFR,,,,,,,,,,,,METAR,70.0
K65S 060715Z AUTO 13004KT 10SM CLR 16/03 A2996 RMK AO2,K65S,2023-06-06T07:15:00Z,48.73,-116.3,16.0,3.0,130,4,,10.0,29.958662,,,TRUE,TRUE,,,,,,,CLR,,,,,,,,VFR,,,,,,,,,,,,METAR,708.0
K63S 060715Z AUTO 00000KT 10SM FEW065 SCT090 BKN110 10/01 A2998 RMK A01,K63S,2023-06-06T07:15:00Z,48.53,-117.88,10.0,1.0,0,0,,10.0,29.97933,,,TRUE,TRUE,,,,,,,FEW,6500,SCT,9000,BKN,11000,,,VFR,,,,,,,,,,,,METAR,571.0
K5T9 060715Z AUTO 07007KT 10SM FEW060 22/21 A2992 RMK A01,K5T9,2023-06-06T07:15:00Z,28.85,-100.52,22.0,21.0,70,7,,10.0,29.920275,,,TRUE,TRUE,,,,,,,FEW,6000,,,,,,,VFR,,,,,,,,,,,,METAR,269.0
K5R8 060715Z AUTO 00000KT 10SM CLR 20/18 A2993 RMK AO2 T01950183,K5R8,2023-06-06T07:15:00Z,30.43,-93.47,19.5,18.3,0,0,,10.0,29.929134,,,TRUE,TRUE,,,,,,,CLR,,,,,,,,VFR,,,,,,,,,,,,SPECI,26.0
K5H4 060715Z AUTO 00000KT 6SM HZ CLR 19/07 A3001 RMK AO2,K5H4,2023-06-06T07:15:00Z,47.78,-99.93,19.0,7.0,0,0,,6.0,30.008858,,,TRUE,TRUE,,,,,,HZ,CLR,,,,,,,,VFR,,,,,,,,,,,,METAR,490.0
K5C1 060715Z AUTO 00000KT 10SM CLR 17/17 A2997 RMK AO1,K5C1,2023-06-06T07:15:00Z,29.72,-98.7,17.0,17.0,0,0,,10.0,29.970472,,,TRUE,TRUE,,,,,,,CLR,,,,,,,,VFR,,,,,,,,,,,,METAR,422.0
K5A6 060715Z AUTO 00000KT 7SM 19/18 A2994 RMK AO2 T01850181,K5A6,2023-06-06T07:15:00Z,33.47,-89.73,18.5,18.1,0,0,,7.0,29.940945,,,TRUE,TRUE,,,,,,,,,,,,,,,,,,,,,,,,,,,SPECI,109.0
K57C 060715Z AUTO 00000KT BKN075 BKN110 15/11 A3002 RMK AO2 T01490107 PWINO,K57C,2023-06-06T07:15:00Z,42.8,-88.37,14.9,10.7,0,0,,,30.02067,,,TRUE,TRUE,,,,,TRUE,,BKN,7500,BKN,11000,,,,,,,,,,,,,,,,,METAR,454.0
K54J 060715Z AUTO 00000KT 10SM CLR 20/19 A2995 RMK AO2 T02000186,K54J,2023-06-06T07:15:00Z,30.73,-86.15,20.0,18.6,0,0,,10.0,29.949802,,,TRUE,TRUE,,,,,,,CLR,,,,,,,,VFR,,,,,,,,,,,,METAR,87.0
K54A 060715Z AUTO 07005KT 10SM CLR 23/19 A2992 RMK AO2,K54A,2023-06-06T07:15:00Z,26.85,-82.25,23.0,19.0,70,5,,10.0,29.920275,,,TRUE,TRUE,,,,,,,CLR,,,,,,,,VFR,,,,,,,,,,,,SPECI,2.0
K4V1 060715Z AUTO 00000KT 10SM CLR 12/11 A3022 RMK AO2 T01170108,K4V1,2023-06-06T07:15:00Z,37.7,-104.78,11.7,10.8,0,0,,10.0,30.221457,,,TRUE,TRUE,,,,,,,CLR,,,,,,,,VFR,,,,,,,,,,,,METAR,1847.0
K4V0 060715Z AUTO 11006KT 10SM CLR 15/05 A3006 RMK AO2 T01450053,K4V0,2023-06-06T07:15:00Z,40.1,-108.77,14.5,5.3,110,6,,10.0,30.059055,,,TRUE,TRUE,,,,,,,CLR,,,,,,,,VFR,,,,,,,,,,,,METAR,1602.0
K4S2 060715Z AUTO 19004KT 10SM CLR 14/07 A2990 RMK AO2,K4S2,2023-06-06T07:15:00Z,45.68,-121.55,14.0,7.0,190,4,,10.0,29.899607,,,TRUE,TRUE,,,,,,,CLR,,,,,,,,VFR,,,,,,,,,,,,METAR,183.0
K4S1 060715Z AUTO 35012KT CLR 11/07 A2980 RMK AO2 PWINO,K4S1,2023-06-06T07:15:00Z,42.42,-124.42,11.0,7.0,350,12,,,29.799213,,,TRUE,TRUE,,,,,TRUE,,CLR,,,,,,,,,,,,,,,,,,,,METAR,7.0
K4O4 060715Z AUTO 09007KT 7SM BKN031 BKN036 OVC041 20/19 A2995 RMK AO2,K4O4,2023-06-06T07:15:00Z,33.92,-94.87,20.0,19.0,90,7,,7.0,29.949802,,,TRUE,TRUE,,,,,,,BKN,3100,BKN,3600,OVC,4100,,,VFR,,,,,,,,,,,,METAR,148.0
K4M9 060715Z AUTO 36006KT 10SM CLR 19/14 A2998 RMK AO2 PWINO,K4M9,2023-06-06T07:15:00Z,36.4,-90.65,19.0,14.0,360,6,,10.0,29.97933,,,TRUE,TRUE,,,,,TRUE,,CLR,,,,,,,,VFR,,,,,,,,,,,,METAR,86.0
K4I3 060715Z AUTO 27003KT 10SM CLR 11/07 A2998 RMK AO2,K4I3,2023-06-06T07:15:00Z,40.33,-82.53,11.0,7.0,270,3,,10.0,29.97933,,,TRUE,TRUE,,,,,,,CLR,,,,,,,,VFR,,,,,,,,,,,,METAR,361.0
K4F2 060715Z AUTO 00000KT 10SM CLR 20/19 A2994 RMK AO2 T01970192,K4F2,2023-06-06T07:15:00Z,32.18,-94.3,19.7,19.2,0,0,,10.0,29.940945,,,TRUE,TRUE,,,,,,,CLR,,,,,,,,VFR,,,,,,,,,,,,METAR,76.0
K4BM 060715Z AUTO 20005KT 10SM CLR 04/03 A3047 RMK AO2,K4BM,2023-06-06T07:15:00Z,39.05,-105.52,4.0,3.0,200,5,,10.0,30.469488,,,TRUE,TRUE,,,,,,,CLR,,,,,,,,VFR,,,,,,,,,,,,METAR,3432.0
K4A9 060715Z AUTO 00000KT 10SM BKN050 BKN075 19/18 A2995 RMK AO2 T01900180,K4A9,2023-06-06T07:15:00Z,34.47,-85.72,19.0,18.0,0,0,,10.0,29.949802,,,TRUE,TRUE,,,,,,,BKN,5000,BKN,7500,,,,,VFR,,,,,,,,,,,,SPECI,273.0
K4A6 060715Z AUTO 00000KT 10SM FEW025 BKN048 OVC070 22/22 A2995 RMK AO2,K4A6,2023-06-06T07:15:00Z,34.68,-86.0,22.0,22.0,0,0,,10.0,29.949802,,,TRUE,TRUE,,,,,,,FEW,2500,BKN,4800,OVC,7000,,,VFR,,,,,,,,,,,,METAR,191.0
K49A 060715Z AUTO 00000KT 7SM VCTS OVC043 20/19 A2996 RMK AO2 LTG DSNT NE AND SE AND SW,K49A,2023-06-06T07:15:00Z,34.63,-84.53,20.0,19.0,0,0,,7.0,29.958662,,,TRUE,TRUE,,,,,,VCTS,OVC,4300,,,,,,,VFR,,,,,,,,,,,,SPECI,449.0
K48A 060715Z AUTO 12003KT 10SM CLR 17/16 A2994 RMK AO2 LTG DSNT NE T01730162,K48A,2023-06-06T07:15:00Z,32.4,-83.27,17.3,16.2,120,3,,10.0,29.940945,,,TRUE,TRUE,,,,,,,CLR,,,,,,,,VFR,,,,,,,,,,,,METAR,115.0
K46U 060715Z AUTO 00000KT 10SM FEW100 11/08 A3012 RMK A01,K46U,2023-06-06T07:15:00Z,43.18,-111.05,11.0,8.0,0,0,,10.0,30.121063,,,TRUE,TRUE,,,,,,,FEW,10000,,,,,,,VFR,,,,,,,,,,,,METAR,1718.0
K46D 060715Z AUTO 07004KT 10SM CLR 21/19 A3002 RMK AO2,K46D,2023-06-06T07:15:00Z,47.45,-99.15,21.0,19.0,70,4,,10.0,30.02067,,,TRUE,TRUE,,,,,,,CLR,,,,,,,,VFR,,,,,,,,,,,,METAR,488.0
K42J 060715Z AUTO 00000KT 10SM FEW047 BKN065 17/17 A2996 RMK A01,K42J,2023-06-06T07:15:00Z,29.85,-82.05,17.0,17.0,0,0,,10.0,29.958662,,,TRUE,TRUE,,,,,,,FEW,4700,BKN,6500,,,,,VFR,,,,,,,,,,,,METAR,57.0
K41U 060715Z AUTO 02004KT 10SM CLR 13/06 A3001 RMK AO1 T01290058,K41U,2023-06-06T07:15:00Z,39.33,-111.6,12.9,5.8,20,4,,10.0,30.008858,,,TRUE,TRUE,,,,,,,CLR,,,,,,,,VFR,,,,,,,,,,,,METAR,1676.0
K40U 060715Z AUTO 23004KT 10SM CLR 07/06 A3014 RMK AO2 T00710056,K40U,2023-06-06T07:15:00Z,40.98,-109.68,7.1,5.6,230,4,,10.0,30.138779,,,TRUE,TRUE,,,,,,,CLR,,,,,,,,VFR,,,,,,,,,,,,METAR,1882.0
K3U3 060715Z AUTO 00000KT 10SM 11/09 A3010 ,K3U3,2023-06-06T07:15:00Z,46.15,-112.87,11.0,9.0,0,0,,10.0,30.100393,,,TRUE,,,,,,,,,,,,,,,,,,,,,,,,,,,,METAR,1534.0
K3T5 060715Z AUTO 00000KT 9SM CLR 20/20 A2993 RMK AO2 T01960196 $,K3T5,2023-06-06T07:15:00Z,29.9,-96.95,19.6,19.6,0,0,,9.0,29.929134,,,TRUE,TRUE,TRUE,,,,,,CLR,,,,,,,,VFR,,,,,,,,,,,,METAR,96.0
K3S8 060715Z AUTO 00000KT 10SM CLR 18/08 A2989 RMK AO2,K3S8,2023-06-06T07:15:00Z,42.5,-123.4,18.0,8.0,0,0,,10.0,29.890747,,,TRUE,TRUE,,,,,,,CLR,,,,,,,,VFR,,,,,,,,,,,,METAR,339.0
K3R7 060715Z AUTO 08006KT 10SM CLR 20/20 A2993 RMK AO2 T02010201,K3R7,2023-06-06T07:15:00Z,30.25,-92.67,20.1,20.1,80,6,,10.0,29.929134,,,TRUE,TRUE,,,,,,,CLR,,,,,,,,VFR,,,,,,,,,,,,METAR,5.0
K3N8 060715Z AUTO 15006KT 10SM CLR 20/18 A3002 RMK AO2 T02040179,K3N8,2023-06-06T07:15:00Z,47.25,-95.92,20.4,17.9,150,6,,10.0,30.02067,,,TRUE,TRUE,,,,,,,CLR,,,,,,,,VFR,,,,,,,,,,,,METAR,379.0
K3LF 060715Z AUTO 00000KT 10SM CLR 13/09 A3002 RMK AO2 T01300091,K3LF,2023-06-06T07:15:00Z,39.17,-89.67,13.0,9.1,0,0,,10.0,30.02067,,,TRUE,TRUE,,,,,,,CLR,,,,,,,,VFR,,,,,,,,,,,,METAR,207.0
K3K3 060715Z AUTO 12005KT 10SM 13/12 A3014 RMK AO2,K3K3,2023-06-06T07:15:00Z,38.0,-101.75,13.0,12.0,120,5,,10.0,30.138779,,,TRUE,TRUE,,,,,,,,,,,,,,,,,,,,,,,,,,,SPECI,1010.0
K3F3 060715Z AUTO 08004KT 10SM CLR 20/19 A2997 RMK AO2 T01990192,K3F3,2023-06-06T07:15:00Z,32.07,-93.77,19.9,19.2,80,4,,10.0,29.970472,,,TRUE,TRUE,,,,,,,CLR,,,,,,,,VFR,,,,,,,,,,,,SPECI,96.0
K3D2 060715Z AUTO 36010KT 10SM CLR 13/11 A3004 RMK AO2 T01290111,K3D2,2023-06-06T07:15:00Z,45.13,-87.18,12.9,11.1,360,10,,10.0,30.041338,,,TRUE,TRUE,,,,,,,CLR,,,,,,,,VFR,,,,,,,,,,,,METAR,233.0
K3AU 060715Z AUTO 36003KT 10SM CLR 17/15 A3003 RMK AO2,K3AU,2023-06-06T07:15:00Z,37.67,-97.08,17.0,15.0,360,3,,10.0,30.029528,,,TRUE,TRUE,,,,,,,CLR,,,,,,,,VFR,,,,,,,,,,,,SPECI,403.0
K38S 060715Z AUTO 00000KT 10SM 11/11 A3012 ,K38S,2023-06-06T07:15:00Z,46.38,-112.77,11.0,11.0,0,0,,10.0,30.121063,,,TRUE,,,,,,,,,,,,,,,,,,,,,,,,,,,,METAR,1430.0
K36K 060715Z AUTO 00000KT 9SM SCT047 OVC055 15/15 A3016 RMK AO2,K36K,2023-06-06T07:15:00Z,37.97,-101.25,15.0,15.0,0,0,,9.0,30.159449,,,TRUE,TRUE,,,,,,,SCT,4700,OVC,5500,,,,,VFR,,,,,,,,,,,,SPECI,938.0
K35A 060715Z AUTO 00000KT 10SM VCTS OVC037 18/18 A2996 RMK A02 LTG DSNT S T01850176,K35A,2023-06-06T07:15:00Z,34.68,-81.63,18.5,17.6,0,0,,10.0,29.958662,,,TRUE,TRUE,,,,,,VCTS,OVC,3700,,,,,,,VFR,,,,,,,,,,,,METAR,186.0
K33V 060715Z AUTO 14005KT 10SM CLR 05/04 A3027 RMK AO1,K33V,2023-06-06T07:15:00Z,40.75,-106.28,5.0,4.0,140,5,,10.0,30.268702,,,TRUE,TRUE,,,,,,,CLR,,,,,,,,VFR,,,,,,,,,,,,METAR,2486.0
K33N 060715Z AUTO 26005KT 10SM OVC100 13/09 A2981 RMK A01,K33N,2023-06-06T07:15:00Z,39.22,-75.6,13.0,9.0,260,5,,10.0,29.811024,,,TRUE,TRUE,,,,,,,OVC,10000,,,,,,,VFR,,,,,,,,,,,,METAR,17.0
K2V5 060715Z AUTO 29005KT 10SM CLR 15/12 A3013 RMK AO2,K2V5,2023-06-06T07:15:00Z,40.1,-102.25,15.0,12.0,290,5,,10.0,30.129921,,,TRUE,TRUE,,,,,,,CLR,,,,,,,,VFR,,,,,,,,,,,,METAR,1117.0
K2P2 060715Z AUTO 04005G09KT 10SM BKN090 OVC120 13/13 A3004 RMK AO2 T01320132,K2P2,2023-06-06T07:15:00Z,45.38,-86.92,13.2,13.2,40,5,9,10.0,30.041338,,,TRUE,TRUE,,,,,,,BKN,9000,OVC,12000,,,,,VFR,,,,,,,,,,,,METAR,182.0
K2M2 060715Z AUTO 00000KT 10SM FEW030 SCT034 BKN041 20/19 A2996 RMK A01,K2M2,2023-06-06T07:15:00Z,35.23,-87.25,20.0,19.0,0,0,,10.0,29.958662,,,TRUE,TRUE,,,,,,,FEW,3000,SCT,3400,BKN,4100,,,VFR,,,,,,,,,,,,SPECI,286.0
K2J9 060715Z AUTO 00000KT 10SM CLR 18/18 A2995 RMK AO2,K2J9,2023-06-06T07:15:00Z,30.6,-84.55,18.0,18.0,0,0,,10.0,29.949802,,,TRUE,TRUE,,,,,,,CLR,,,,,,,,VFR,,,,,,,,,,,,METAR,62.0
K2I0 060715Z AUTO 00000KT 10SM CLR 18/15 A2997 RMK AO2 T01830149,K2I0,2023-06-06T07:15:00Z,37.35,-87.4,18.3,14.9,0,0,,10.0,29.970472,,,TRUE,TRUE,,,,,,,CLR,,,,,,,,VFR,,,,,,,,,,,,METAR,127.0
K2G9 060715Z AUTO 24003KT 10SM CLR 07/04 A2994 RMK AO2,K2G9,2023-06-06T07:15:00Z,40.03,-79.02,7.0,4.0,240,3,,10.0,29.940945,,,TRUE,TRUE,,,,,,,CLR,,,,,,,,VFR,,,,,,,,,,,,METAR,677.0
K2G2 060715Z AUTO 00000KT 9SM 11/09 A2993 RMK A01,K2G2,2023-06-06T07:15:00Z,40.37,-80.7,11.0,9.0,0,0,,9.0,29.929134,,,TRUE,TRUE,,,,,,,,,,,,,,,,,,,,,,,,,,,METAR,365.0
K2D5 060715Z AUTO 00000KT 6SM BR FEW050 SCT120 19/19 A3001 RMK AO2,K2D5,2023-06-06T07:15:00Z,46.17,-98.08,19.0,19.0,0,0,,6.0,30.008858,,,TRUE,TRUE,,,,,,BR,FEW,5000,SCT,12000,,,,,VFR,,,,,,,,,,,,METAR,407.0
K2A0 060715Z AUTO 00000KT 10SM BKN060 19/18 A2992 RMK A01,K2A0,2023-06-06T07:15:00Z,35.48,-84.93,19.0,18.0,0,0,,10.0,29.920275,,,TRUE,TRUE,,,,,,,BKN,6000,,,,,,,VFR,,,,,,,,,,,,SPECI,219.0
K28J 060715Z AUTO 00000KT 9SM FEW070 14/14 A2996 RMK AO2,K28J,2023-06-06T07:15:00Z,29.65,-81.68,14.0,14.0,0,0,,9.0,29.958662,,,TRUE,TRUE,,,,,,,FEW,7000,,,,,,,VFR,,,,,,,,,,,,METAR,9.0
K24J 060715Z AUTO 00000KT 10SM CLR 17/16 A2995 RMK A01,K24J,2023-06-06T07:15:00Z,30.3,-83.03,17.0,16.0,0,0,,10.0,29.949802,,,TRUE,TRUE,,,,,,,CLR,,,,,,,,VFR,,,,,,,,,,,,METAR,30.0
K22N 060715Z AUTO 00000KT 7SM CLR 07/06 A2983 RMK AO2,K22N,2023-06-06T07:15:00Z,40.8,-75.77,7.0,6.0,0,0,,7.0,29.828741,,,TRUE,TRUE,,,,,,,CLR,,,,,,,,VFR,,,,,,,,,,,,METAR,159.0
K21D 060715Z AUTO 03003KT 10SM SCT120 19/16 A3004 RMK AO2,K21D,2023-06-06T07:15:00Z,45.0,-92.85,19.0,16.0,30,3,,10.0,30.041338,,,TRUE,TRUE,,,,,,,SCT,12000,,,,,,,VFR,,,,,,,,,,,,METAR,281.0
K20V 060715Z AUTO 00000KT 10SM CLR 05/05 A3026 RMK AO2,K20V,2023-06-06T07:15:00Z,40.05,-106.37,5.0,5.0,0,0,,10.0,30.259842,,,TRUE,TRUE,,,,,,,CLR,,,,,,,,VFR,,,,,,,,,,,,METAR,2259.0
K20U 060715Z AUTO 14008KT 10SM CLR 17/16 A3001 RMK AO2,K20U,2023-06-06T07:15:00Z,46.93,-103.98,17.0,16.0,140,8,,10.0,30.008858,,,TRUE,TRUE,,,,,,,CLR,,,,,,,,VFR,,,,,,,,,,,,METAR,839.0
K1V6 060715Z AUTO 31007KT 10SM CLR 11/11 A3020 RMK AO2,K1V6,2023-06-06T07:15:00Z,38.43,-105.1,11.0,11.0,310,7,,10.0,30.200787,,,TRUE,TRUE,,,,,,,CLR,,,,,,,,VFR,,,,,,,,,,,,METAR,1658.0
K1U7 060715Z AUTO 27004KT 10SM CLR 08/08 A3010 RMK A01,K1U7,2023-06-06T07:15:00Z,42.25,-111.33,8.0,8.0,270,4,,10.0,30.100393,,,TRUE,TRUE,,,,,,,CLR,,,,,,,,VFR,,,,,,,,,,,,METAR,1808.0
K1S3 060715Z AUTO 14005KT 10SM 21/08 A2991 ,K1S3,2023-06-06T07:15:00Z,46.27,-106.62,21.0,8.0,140,5,,10.0,29.911417,,,TRUE,,,,,,,,,,,,,,,,,,,,,,,,,,,,METAR,831.0
K1R8 060715Z AUTO 00000KT 1/4SM FG OVC001 18/18 A2994 RMK AO2,K1R8,2023-06-06T07:15:00Z,30.87,-87.82,18.0,18.0,0,0,,0.25,29.940945,,,TRUE,TRUE,,,,,,FG,OVC,100,,,,,,,LIFR,,,,,,,,,,,,SPECI,76.0
K1R7 060715Z AUTO 00000KT 8SM BKN003 19/19 A2996 RMK AO2 PWINO,K1R7,2023-06-06T07:15:00Z,31.6,-90.42,19.0,19.0,0,0,,8.0,29.958662,,,TRUE,TRUE,,,,,TRUE,,BKN,300,,,,,,,LIFR,,,,,,,,,,,,METAR,142.0
K1M5 060715Z AUTO 00000KT 10SM OVC050 19/17 A2995 RMK A01,K1M5,2023-06-06T07:15:00Z,36.6,-86.48,19.0,17.0,0,0,,10.0,29.949802,,,TRUE,TRUE,,,,,,,OVC,5000,,,,,,,VFR,,,,,,,,,,,,SPECI,239.0
K1H2 060715Z AUTO 00000KT 10SM CLR 13/09 A3002 RMK AO2 T01300086,K1H2,2023-06-06T07:15:00Z,39.07,-88.53,13.0,8.6,0,0,,10.0,30.02067,,,TRUE,TRUE,,,,,,,CLR,,,,,,,,VFR,,,,,,,,,,,,METAR,174.0
K1GN 060715Z AUTO 14008KT 10SM SCT002 21/18 A2995 RMK AO2 SLP142 $,K1GN,2023-06-06T07:15:00Z,,,21.0,18.0,140,8,,10.0,29.949802,1014.2,,TRUE,TRUE,TRUE,,,,,,SCT,200,,,,,,,VFR,,,,,,,,,,,,SPECI,
K1F0 060715Z AUTO 00000KT 10SM SCT085 19/18 A2998 RMK AO2 T01910179,K1F0,2023-06-06T07:15:00Z,34.15,-97.12,19.1,17.9,0,0,,10.0,29.97933,,,TRUE,TRUE,,,,,,,SCT,8500,,,,,,,VFR,,,,,,,,,,,,SPECI,256.0
K1D8 060715Z AUTO 13006KT 10SM CLR 21/18 A2998 RMK AO2,K1D8,2023-06-06T07:15:00Z,,,21.0,18.0,130,6,,10.0,29.97933,,,TRUE,TRUE,,,,,,,CLR,,,,,,,,VFR,,,,,,,,,,,,METAR,
K1A9 060715Z AUTO 30003KT 10SM CLR 20/19 A2994 RMK AO2 T02030186,K1A9,2023-06-06T07:15:00Z,32.43,-86.52,20.3,18.6,300,3,,10.0,29.940945,,,TRUE,TRUE,,,,,,,CLR,,,,,,,,VFR,,,,,,,,,,,,SPECI,65.0
K1A6 060715Z AUTO 00000KT 10SM SCT070 15/14 A2998 RMK AO2 T01480141,K1A6,2023-06-06T07:15:00Z,36.62,-83.73,14.8,14.1,0,0,,10.0,29.97933,,,TRUE,TRUE,,,,,,,SCT,7000,,,,,,,VFR,,,,,,,,,,,,SPECI,348.0
K18H 060715Z AUTO 00000KT 10SM FEW024 FEW039 27/21 A2989 RMK A01,K18H,2023-06-06T07:15:00Z,26.13,-92.03,27.0,21.0,0,0,,10.0,29.890747,,,TRUE,TRUE,,,,,,,FEW,2400,FEW,3900,,,,,VFR,,,,,,,,,,,,METAR,30.0
K18A 060715Z AUTO 00000KT 5SM BR CLR 19/19 A3000 RMK AO2 LTG DSNT E SE AND NW T01940185,K18A,2023-06-06T07:15:00Z,34.35,-83.13,19.4,18.5,0,0,,5.0,30.0,,,TRUE,TRUE,,,,,,BR,CLR,,,,,,,,MVFR,,,,,,,,,,,,METAR,260.0
K17J 060715Z AUTO 00000KT 7SM CLR 20/18 A2994 RMK AO2 T01960182,K17J,2023-06-06T07:15:00Z,31.0,-84.87,19.6,18.2,0,0,,7.0,29.940945,,,TRUE,TRUE,,,,,,,CLR,,,,,,,,VFR,,,,,,,,,,,,SPECI,42.0
K15M 060715Z AUTO 00000KT 10SM SCT048 BKN060 19/16 A2997 RMK AO2 T01860165 $,K15M,2023-06-06T07:15:00Z,34.77,-88.17,18.6,16.5,0,0,,10.0,29.970472,,,TRUE,TRUE,TRUE,,,,,,SCT,4800,BKN,6000,,,,,VFR,,,,,,,,,,,,METAR,192.0
K14Y 060715Z AUTO 00000KT 10SM BKN100 BKN120 17/15 A3007 RMK AO2,K14Y,2023-06-06T07:15:00Z,45.9,-94.87,17.0,15.0,0,0,,10.0,30.070866,,,TRUE,TRUE,,,,,,,BKN,10000,BKN,12000,,,,,VFR,,,,,,,,,,,,METAR,404.0
K13K 060715Z AUTO 01004KT 10SM CLR 15/14 A3004 RMK AO2 T01520141,K13K,2023-06-06T07:15:00Z,37.85,-96.3,15.2,14.1,10,4,,10.0,30.041338,,,TRUE,TRUE,,,,,,,CLR,,,,,,,,VFR,,,,,,,,,,,,SPECI,367.0
K11R 060715Z AUTO 00000KT 10SM CLR 21/20 A2993 RMK AO2 T02070198,K11R,2023-06-06T07:15:00Z,30.22,-96.37,20.7,19.8,0,0,,10.0,29.929134,,,TRUE,TRUE,,,,,,,CLR,,,,,,,,VFR,,,,,,,,,,,,METAR,87.0
K10G 060715Z AUTO 25003KT 10SM CLR 14/05 A2996 RMK AO2,K10G,2023-06-06T07:15:00Z,40.53,-81.95,14.0,5.0,250,3,,10.0,29.958662,,,TRUE,TRUE,,,,,,,CLR,,,,,,,,VFR,,,,,,,,,,,,METAR,371.0
K0VG 060715Z AUTO 00000KT 10SM SCT065 14/13 A2998 RMK AO2,K0VG,2023-06-06T07:15:00Z,36.65,-83.22,14.0,13.0,0,0,,10.0,29.97933,,,TRUE,TRUE,,,,,,,SCT,6500,,,,,,,VFR,,,,,,,,,,,,METAR,426.0
K0V4 060715Z AUTO 16004KT 10SM CLR 12/12 A2989 RMK AO1,K0V4,2023-06-06T07:15:00Z,37.15,-79.02,12.0,12.0,160,4,,10.0,29.890747,,,TRUE,TRUE,,,,,,,CLR,,,,,,,,VFR,,,,,,,,,,,,SPECI,186.0
K0S9 060715Z AUTO 00000KT 10SM FEW044 08/04 A3002 RMK AO2,K0S9,2023-06-06T07:15:00Z,48.05,-122.82,8.0,4.0,0,0,,10.0,30.02067,,,TRUE,TRUE,,,,,,,FEW,4400,,,,,,,VFR,,,,,,,,,,,,METAR,33.0
K0R0 060715Z AUTO 00000KT A2996 RMK AO2 PWINO TSNO,K0R0,2023-06-06T07:15:00Z,31.3,-89.82,,,0,0,,,29.958662,,,TRUE,TRUE,,,TRUE,,TRUE,,,,,,,,,,,,,,,,,,,,,,SPECI,76.0
K0F2 060715Z AUTO 10SM CLR 21/19 A2998 RMK AO2 T02100187,K0F2,2023-06-06T07:15:00Z,33.6,-97.78,21.0,18.7,,,,10.0,29.97933,,,TRUE,TRUE,,,,,,,CLR,,,,,,,,VFR,,,,,,,,,,,,METAR,330.0
K0A9 060715Z AUTO 00000KT 10SM FEW050 SCT060 BKN090 13/12 A2997 RMK AO2,K0A9,2023-06-06T07:15:00Z,36.37,-82.17,13.0,12.0,0,0,,10.0,29.970472,,,TRUE,TRUE,,,,,,,FEW,5000,SCT,6000,BKN,9000,,,VFR,,,,,,,,,,,,SPECI,479.0
K0A0 060715Z AUTO 32005KT 10SM CLR 17/09 A3010 RMK AO2,K0A0,2023-06-06T07:15:00Z,32.98,-106.97,17.0,9.0,320,5,,10.0,30.100393,,,TRUE,TRUE,,,,,,,CLR,,,,,,,,VFR,,,,,,,,,,,,METAR,1401.0
K06D 060715Z AUTO 21004KT 10SM CLR 18/18 A3002 RMK AO2,K06D,2023-06-06T07:15:00Z,48.88,-99.62,18.0,18.0,210,4,,10.0,30.02067,,,TRUE,TRUE,,,,,,,CLR,,,,,,,,VFR,,,,,,,,,,,,METAR,554.0
K06C 060715Z AUTO 00000KT 10SM SCT100 18/12 A3002 RMK AO2 T01770117,K06C,2023-06-06T07:15:00Z,41.98,-88.1,17.7,11.7,0,0,,10.0,30.02067,,,TRUE,TRUE,,,,,,,SCT,10000,,,,,,,VFR,,,,,,,,,,,,METAR,243.0
CWPF 060715Z AUTO 36003KT 13/07 RMK AO1 SLP169 T01260072 58008,CWPF,2023-06-06T07:15:00Z,48.43,-123.43,12.6,7.2,360,3,,,,1016.9,,TRUE,TRUE,,,,,,,,,,,,,,,,-0.8,,,,,,,,,,,METAR,5.0
BIVO 060714Z 10003KT 9999 BKN050 07/04 Q1021,BIVO,2023-06-06T07:14:00Z,65.72,-14.83,7.0,4.0,100,3,,6.21,30.147638,,,,,,,,,,,BKN,5000,,,,,,,VFR,,,,,,,,,,,,METAR,3.0
PAMM 060713Z AUTO 12003KT 4SM -RA BR BKN006 OVC010 09/08 A3034 RMK AO2 RAB07 CIG 004V008 P0000 $,PAMM,2023-06-06T07:13:00Z,55.13,-131.58,9.0,8.0,120,3,,4.0,30.339567,,,TRUE,TRUE,TRUE,,,,,-RA BR,BKN,600,OVC,1000,,,,,IFR,,,,,,0.005,,,,,,METAR,0.0
KOWA 060713Z AUTO 00000KT 10SM SCT090 SCT110 19/17 A3002 RMK AO2,KOWA,2023-06-06T07:13:00Z,44.12,-93.25,19.0,17.0,0,0,,10.0,30.02067,,,TRUE,TRUE,,,,,,,SCT,9000,SCT,11000,,,,,VFR,,,,,,,,,,,,METAR,345.0
KORB 060713Z AUTO 00000KT 7SM SCT037 15/12 A3009 RMK AO2,KORB,2023-06-06T07:13:00Z,48.02,-92.87,15.0,12.0,0,0,,7.0,30.088583,,,TRUE,TRUE,,,,,,,SCT,3700,,,,,,,VFR,,,,,,,,,,,,METAR,407.0
KFOZ 060713Z AUTO 00000KT 7SM SCT050 16/13 A3013 RMK AO2,KFOZ,2023-06-06T07:13:00Z,47.77,-93.65,16.0,13.0,0,0,,7.0,30.129921,,,TRUE,TRUE,,,,,,,SCT,5000,,,,,,,VFR,,,,,,,,,,,,METAR,412.0
KDVP 060713Z AUTO 23004KT 10SM CLR 19/14 A3004 RMK AO2 T01940139,KDVP,2023-06-06T07:13:00Z,43.98,-95.78,19.4,13.9,230,4,,10.0,30.041338,,,TRUE,TRUE,,,,,,,CLR,,,,,,,,VFR,,,,,,,,,,,,METAR,493.0
KCDD 060713Z AUTO 15003KT 7SM SCT029 BKN046 16/12 A3012 RMK AO2 PWINO,KCDD,2023-06-06T07:13:00Z,48.27,-92.48,16.0,12.0,150,3,,7.0,30.121063,,,TRUE,TRUE,,,,,TRUE,,SCT,2900,BKN,4600,,,,,VFR,,,,,,,,,,,,METAR,344.0
KAQP 060713Z AUTO 12005KT 10SM 22/16 A3000 RMK AO2,KAQP,2023-06-06T07:13:00Z,45.22,-96.0,22.0,16.0,120,5,,10.0,30.0,,,TRUE,TRUE,,,,,,,,,,,,,,,,,,,,,,,,,,,METAR,312.0
CZSJ 060713Z AUTO 11004KT 5SM RA BR BKN047 OVC060 17/16 A3006 RMK LTNG DIST W PCPN 0.8MM PAST HR SLP186 DENSITY ALT 1300FT,CZSJ,2023-06-06T07:13:00Z,53.07,-93.35,17.0,16.0,110,4,,5.0,30.059055,1018.6,,TRUE,,,,,,,RA BR,BKN,4700,OVC,6000,,,,,MVFR,,,,,,,,,,,,SPECI,286.0
SACO 060712Z 01007KT 9000 NSC 13/13 Q1014 NOSIG RMK PP000,SACO,2023-06-06T07:12:00Z,-31.32,-64.22,13.0,13.0,10,7,,5.59,29.940945,,,,,,TRUE,,,,,CLR,,,,,,,,VFR,,,,,,,,,,,,SPECI,474.0
RKNN 060712Z 04003KT 9999 SCT100 BKN140 25/14 A2964 RMK CIG140,RKNN,2023-06-06T07:12:00Z,37.75,128.93,25.0,14.0,40,3,,6.21,29.639763,,,,,,,,,,,SCT,10000,BKN,14000,,,,,VFR,,,,,,,,,,,,SPECI,11.0
PAMD 060712Z AUTO 10019G25KT 10SM OVC007 09/08 A3005 RMK AO2 PNO $,PAMD,2023-06-06T07:12:00Z,59.43,-146.3,9.0,8.0,100,19,25,10.0,30.050198,,,TRUE,TRUE,TRUE,,,,,,OVC,700,,,,,,,IFR,,,,,,,,,,,,SPECI,20.0
KCOS 060712Z 00000KT 10SM BKN024 BKN028 BKN130 BKN200 12/09 A3023 RMK AO2 T01170094,KCOS,2023-06-06T07:12:00Z,38.82,-104.68,11.7,9.4,0,0,,10.0,30.230314,,,,TRUE,,,,,,,BKN,2400,BKN,2800,BKN,13000,BKN,20000,MVFR,,,,,,,,,,,,METAR,1886.0
KAEX 060712Z 07005KT 8SM FEW004 20/19 A2993 RMK AO2 T02000189,KAEX,2023-06-06T07:12:00Z,31.33,-92.57,20.0,18.9,70,5,,8.0,29.929134,,,,TRUE,,,,,,,FEW,400,,,,,,,VFR,,,,,,,,,,,,METAR,25.0
KLBF 060711Z AUTO 00000KT 5SM BR CLR 14/13 A3009 RMK AO2 T01390128,KLBF,2023-06-06T07:11:00Z,41.12,-100.67,13.9,12.8,0,0,,5.0,30.088583,,,TRUE,TRUE,,,,,,BR,CLR,,,,,,,,MVFR,,,,,,,,,,,,SPECI,843.0
CYUX 060711Z AUTO 32008KT 3SM BR BKN005 OVC009 00/ A3022 RMK DP MISG SLP235,CYUX,2023-06-06T07:11:00Z,68.77,-81.22,0.0,,320,8,,3.0,30.221457,1023.5,,TRUE,,,,,,,BR,BKN,500,OVC,900,,,,,IFR,,,,,,,,,,,,SPECI,8.0
VCRI 060710Z 25012KT 9999 SCT018 34/26 Q1007 NOSIG,VCRI,2023-06-06T07:10:00Z,6.28,81.13,34.0,26.0,250,12,,6.21,29.734253,,,,,,TRUE,,,,,SCT,1800,,,,,,,VFR,,,,,,,,,,,,METAR,50.0
VCBI 060710Z 24010KT 210V280 9999 SCT016 31/26 Q1009 NOSIG,VCBI,2023-06-06T07:10:00Z,7.17,79.88,31.0,26.0,240,10,,6.21,29.793306,,,,,,TRUE,,,,,SCT,1600,,,,,,,VFR,,,,,,,,,,,,METAR,10.0
PASD 060710Z AUTO 15007KT 10SM OVC015 07/06 A2962 RMK AO2 PNO $,PASD,2023-06-06T07:10:00Z,55.33,-160.52,7.0,6.0,150,7,,10.0,29.619095,,,TRUE,TRUE,TRUE,,,,,,OVC,1500,,,,,,,MVFR,,,,,,,,,,,,SPECI,6.0
PAMY 060710Z AUTO 05006KT 3SM -RA BR FEW020 BKN042 OVC050 05/05 A2959 RMK AO2 P0000,PAMY,2023-06-06T07:10:00Z,60.37,-166.27,5.0,5.0,50,6,,3.0,29.589567,,,TRUE,TRUE,,,,,,-RA BR,FEW,2000,BKN,4200,OVC,5000,,,MVFR,,,,,,0.005,,,,,,SPECI,14.0
KXNX 060710Z AUTO 02005KT OVC060 21/16 A2997 RMK A01,KXNX,2023-06-06T07:10:00Z,36.38,-86.42,21.0,16.0,20,5,,,29.970472,,,TRUE,TRUE,,,,,,,OVC,6000,,,,,,,,,,,,,,,,,,,SPECI,178.0
KXBP 060710Z AUTO 00000KT 10SM CLR 18/18 A2999 RMK AO2 T01810179,KXBP,2023-06-06T07:10:00Z,33.18,-97.83,18.1,17.9,0,0,,10.0,29.991142,,,TRUE,TRUE,,,,,,,CLR,,,,,,,,VFR,,,,,,,,,,,,SPECI,256.0
KVVS 060710Z AUTO 00000KT 10SM OVC055 09/07 A2995 RMK AO2 T00930068,KVVS,2023-06-06T07:10:00Z,39.95,-79.65,9.3,6.8,0,0,,10.0,29.949802,,,TRUE,TRUE,,,,,,,OVC,5500,,,,,,,VFR,,,,,,,,,,,,METAR,386.0
KVES 060710Z AUTO 00000KT 7SM CLR 13/04 A2998 RMK AO2,KVES,2023-06-06T07:10:00Z,40.2,-84.53,13.0,4.0,0,0,,7.0,29.97933,,,TRUE,TRUE,,,,,,,CLR,,,,,,,,VFR,,,,,,,,,,,,METAR,308.0
KU68 060710Z AUTO 04005KT 10SM CLR 18/11 A2998 RMK AO2,KU68,2023-06-06T07:10:00Z,44.92,-108.45,18.0,11.0,40,5,,10.0,29.97933,,,TRUE,TRUE,,,,,,,CLR,,,,,,,,VFR,,,,,,,,,,,,SPECI,1244.0
KSSC 060710Z COR 20005KT 10SM VCTS BKN049 OVC090 19/15 A2992 RMK AO2A SLP132 COR 0711,KSSC,2023-06-06T07:10:00Z,33.97,-80.47,19.0,15.0,200,5,,10.0,29.920275,1013.2,TRUE,,TRUE,,,,,,VCTS,BKN,4900,OVC,9000,,,,,VFR,,,,,,,,,,,,SPECI,71.0
KSNH 060710Z AUTO 18003KT 7SM FEW039 BKN047 BKN055 20/20 A2994 RMK A01,KSNH,2023-06-06T07:10:00Z,35.17,-88.22,20.0,20.0,180,3,,7.0,29.940945,,,TRUE,TRUE,,,,,,,FEW,3900,BKN,4700,BKN,5500,,,VFR,,,,,,,,,,,,SPECI,142.0
KRQO 060710Z AUTO 26004KT 17/16 A3003 RMK AO2 T01750162,KRQO,2023-06-06T07:10:00Z,35.47,-98.0,17.5,16.2,260,4,,,30.029528,,,TRUE,TRUE,,,,,,,,,,,,,,,,,,,,,,,,,,,SPECI,431.0
KPQI 060710Z AUTO 35012KT 7SM -RA OVC013 09/08 A2964 RMK AO2 P0000,KPQI,2023-06-06T07:10:00Z,46.68,-68.05,9.0,8.0,350,12,,7.0,29.639763,,,TRUE,TRUE,,,,,,-RA,OVC,1300,,,,,,,MVFR,,,,,,0.005,,,,,,SPECI,154.0
KOWP 060710Z AUTO 00000KT 10SM CLR 21/19 A3001 RMK AO2 T02070191,KOWP,2023-06-06T07:10:00Z,36.18,-96.15,20.7,19.1,0,0,,10.0,30.008858,,,TRUE,TRUE,,,,,,,CLR,,,,,,,,VFR,,,,,,,,,,,,SPECI,267.0
KOLY 060710Z AUTO 00000KT 7SM CLR 14/08 A3000 RMK AO2 T01360075 PWINO,KOLY,2023-06-06T07:10:00Z,38.72,-88.18,13.6,7.5,0,0,,7.0,30.0,,,TRUE,TRUE,,,,,TRUE,,CLR,,,,,,,,VFR,,,,,,,,,,,,METAR,144.0
KO86 060710Z AUTO 00000KT 10SM 17/14 A2993 RMK A01,KO86,2023-06-06T07:10:00Z,40.98,-122.7,17.0,14.0,0,0,,10.0,29.929134,,,TRUE,TRUE,,,,,,,,,,,,,,,,,,,,,,,,,,,SPECI,729.0
KMRC 060710Z AUTO 00000KT 7SM SCT003 19/19 A2993 RMK A01,KMRC,2023-06-06T07:10:00Z,35.55,-87.18,19.0,19.0,0,0,,7.0,29.929134,,,TRUE,TRUE,,,,,,,SCT,300,,,,,,,VFR,,,,,,,,,,,,SPECI,205.0
KM91 060710Z AUTO 00000KT 10SM SCT041 SCT048 OVC060 19/16 A2994 RMK A01,KM91,2023-06-06T07:10:00Z,36.53,-86.92,19.0,16.0,0,0,,10.0,29.940945,,,TRUE,TRUE,,,,,,,SCT,4100,SCT,4800,OVC,6000,,,VFR,,,,,,,,,,,,SPECI,214.0
KM54 060710Z AUTO 00000KT 10SM OVC065 18/16 A2992 RMK A01,KM54,2023-06-06T07:10:00Z,36.18,-86.32,18.0,16.0,0,0,,10.0,29.920275,,,TRUE,TRUE,,,,,,,OVC,6500,,,,,,,VFR,,,,,,,,,,,,SPECI,168.0
KM04 060710Z AUTO 00000KT 10SM 21/21 A2995 RMK A01,KM04,2023-06-06T07:10:00Z,35.58,-89.58,21.0,21.0,0,0,,10.0,29.949802,,,TRUE,TRUE,,,,,,,,,,,,,,,,,,,,,,,,,,,SPECI,83.0
KKNB 060710Z AUTO 02005KT 10SM CLR 16/04 A2997 RMK A01,KKNB,2023-06-06T07:10:00Z,37.02,-112.53,16.0,4.0,20,5,,10.0,29.970472,,,TRUE,TRUE,,,,,,,CLR,,,,,,,,VFR,,,,,,,,,,,,METAR,1476.0
KJTC 060710Z AUTO 00000KT 10SM -RA CLR 13/M04 A3015 RMK AO2,KJTC,2023-06-06T07:10:00Z,34.13,-109.32,13.0,-4.0,0,0,,10.0,30.15059,,,TRUE,TRUE,,,,,,-RA,CLR,,,,,,,,VFR,,,,,,,,,,,,SPECI,2148.0
KIFP 060710Z AUTO 16010KT 7SM CLR 30/M03 A2966 RMK AO2,KIFP,2023-06-06T07:10:00Z,35.15,-114.57,30.0,-3.0,160,10,,7.0,29.660433,,,TRUE,TRUE,,,,,,,CLR,,,,,,,,VFR,,,,,,,,,,,,METAR,210.0
KHQU 060710Z AUTO 00000KT 10SM VCTS SCT048 SCT060 SCT100 20/17 A2993 RMK AO2 LTG DSNT ALQDS T01960174,KHQU,2023-06-06T07:10:00Z,33.53,-82.52,19.6,17.4,0,0,,10.0,29.929134,,,TRUE,TRUE,,,,,,VCTS,SCT,4800,SCT,6000,SCT,10000,,,VFR,,,,,,,,,,,,SPECI,141.0
KGOO 060710Z AUTO 36004KT 10SM OVC110 18/08 A2987 RMK A01,KGOO,2023-06-06T07:10:00Z,39.22,-121.0,18.0,8.0,360,4,,10.0,29.870079,,,TRUE,TRUE,,,,,,,OVC,11000,,,,,,,VFR,,,,,,,,,,,,METAR,950.0
KGNC 060710Z AUTO 00000KT 10SM CLR 18/14 A3016 RMK AO2 T01750139,KGNC,2023-06-06T07:10:00Z,32.68,-102.65,17.5,13.9,0,0,,10.0,30.159449,,,TRUE,TRUE,,,,,,,CLR,,,,,,,,VFR,,,,,,,,,,,,SPECI,1002.0
KFYM 060710Z AUTO 26004KT 10SM CLR 21/19 A2995 RMK A01,KFYM,2023-06-06T07:10:00Z,35.07,-86.57,21.0,19.0,260,4,,10.0,29.949802,,,TRUE,TRUE,,,,,,,CLR,,,,,,,,VFR,,,,,,,,,,,,METAR,297.0
KFSK 060710Z AUTO 00000KT 10SM CLR 17/16 A3002 RMK AO2 T01690160,KFSK,2023-06-06T07:10:00Z,37.8,-94.77,16.9,16.0,0,0,,10.0,30.02067,,,TRUE,TRUE,,,,,,,CLR,,,,,,,,VFR,,,,,,,,,,,,SPECI,276.0
KDVK 060710Z AUTO 00000KT 10SM CLR 12/11 A2999 RMK AO2,KDVK,2023-06-06T07:10:00Z,37.58,-84.77,12.0,11.0,0,0,,10.0,29.991142,,,TRUE,TRUE,,,,,,,CLR,,,,,,,,VFR,,,,,,,,,,,,SPECI,309.0
KDED 060710Z AUTO 00000KT 10SM CLR 19/18 A2995 RMK AO2 T01890179,KDED,2023-06-06T07:10:00Z,29.07,-81.28,18.9,17.9,0,0,,10.0,29.949802,,,TRUE,TRUE,,,,,,,CLR,,,,,,,,VFR,,,,,,,,,,,,SPECI,21.0
KBMC 060710Z AUTO 32006KT 10SM CLR 19/06 A2996 RMK AO1 T01850056,KBMC,2023-06-06T07:10:00Z,41.55,-112.07,18.5,5.6,320,6,,10.0,29.958662,,,TRUE,TRUE,,,,,,,CLR,,,,,,,,VFR,,,,,,,,,,,,SPECI,1289.0
KANK 060710Z AUTO 00000KT 10SM CLR 10/07 A3036 RMK AO1 T01000065,KANK,2023-06-06T07:10:00Z,38.53,-106.05,10.0,6.5,0,0,,10.0,30.360237,,,TRUE,TRUE,,,,,,,CLR,,,,,,,,VFR,,,,,,,,,,,,SPECI,2293.0
K9S9 060710Z AUTO 12008KT 10SM CLR 18/01 A2993 RMK AO2 PWINO,K9S9,2023-06-06T07:10:00Z,45.45,-119.68,18.0,1.0,120,8,,10.0,29.929134,,,TRUE,TRUE,,,,,TRUE,,CLR,,,,,,,,VFR,,,,,,,,,,,,METAR,498.0
K5SM 060710Z AUTO 09008KT 10SM CLR 05/00 A3043 RMK AO2,K5SM,2023-06-06T07:10:00Z,39.43,-107.38,5.0,0.0,90,8,,10.0,30.431103,,,TRUE,TRUE,,,,,,,CLR,,,,,,,,VFR,,,,,,,,,,,,SPECI,3229.0
K2J5 060710Z AUTO 13003KT 10SM CLR 18/16 A2994 RMK AO2 LTG DSNT N AND NE T01830155,K2J5,2023-06-06T07:10:00Z,32.9,-81.97,18.3,15.5,130,3,,10.0,29.940945,,,TRUE,TRUE,,,,,,,CLR,,,,,,,,VFR,,,,,,,,,,,,SPECI,72.0
K19S 060710Z AUTO 23004KT 7SM CLR 16/ A3012 RMK AO2 T0156////,K19S,2023-06-06T07:10:00Z,37.48,-100.83,15.6,,230,4,,7.0,30.121063,,,TRUE,TRUE,,,,,,,CLR,,,,,,,,VFR,,,,,,,,,,,,SPECI,886.0
ETIH 060710Z AUTO 00000KT 9999 BKN016 OVC043 15/11 A3004 RMK AO2 CIG 016V043 SLP173 $,ETIH,2023-06-06T07:10:00Z,49.22,11.83,15.0,11.0,0,0,,6.21,30.041338,1017.3,,TRUE,TRUE,TRUE,,,,,,BKN,1600,OVC,4300,,,,,MVFR,,,,,,,,,,,,SPECI,436.0
EBFN 060710Z 02013KT 9999 BKN013 13/11 Q1022 GRN GRN,EBFN,2023-06-06T07:10:00Z,51.08,2.65,13.0,11.0,20,13,,6.21,30.177166,,,,,,,,,,,BKN,1300,,,,,,,MVFR,,,,,,,,,,,,SPECI,9.0
SBIP 060709Z AUTO 21003KT 3400 NSC 12/08 Q1020,SBIP,2023-06-06T07:09:00Z,-19.47,-42.48,12.0,8.0,210,3,,2.11,30.11811,,,TRUE,,,,,,,,CLR,,,,,,,,IFR,,,,,,,,,,,,SPECI,240.0
RJAK 060709Z 20009G19KT 150V240 9999 FEW025 SCT170 BKN210 24/16 Q1007 RMK 1CU025 4AC170 7CI210 A2974,RJAK,2023-06-06T07:09:00Z,36.03,140.18,24.0,16.0,200,9,19,6.21,29.734253,,,,,,,,,,,FEW,2500,SCT,17000,BKN,21000,,,VFR,,,,,,,,,,,,METAR,20.0
KFOK 060709Z AUTO 00000KT 3/4SM BR VV001 08/08 A2974 RMK AO2 T00780078,KFOK,2023-06-06T07:09:00Z,40.85,-72.62,7.8,7.8,0,0,,0.75,29.740158,,,TRUE,TRUE,,,,,,BR,OVX,0,,,,,,,LIFR,,,,,,,,,,,100,SPECI,13.0
CYIO 060709Z AUTO 00000KT 7SM OVC003 M01/M01 A3019 RMK SLP231,CYIO,2023-06-06T07:09:00Z,72.68,-77.97,-1.0,-1.0,0,0,,7.0,30.188976,1023.1,,TRUE,,,,,,,,OVC,300,,,,,,,LIFR,,,,,,,,,,,,SPECI,61.0
UASK 060708Z 05002MPS 9999 NSC 35/12 Q1009 NOSIG RMK QFE732/0976,UASK,2023-06-06T07:08:00Z,50.03,82.5,35.0,12.0,50,4,,6.21,29.793306,,,,,,TRUE,,,,,CLR,,,,,,,,VFR,,,,,,,,,,,,SPECI,285.0
PACZ 060708Z AUTO 10008KT 10SM -RA BKN035 BKN055 11/07 A2963 RMK AO2 SLP036,PACZ,2023-06-06T07:08:00Z,61.78,-166.03,11.0,7.0,100,8,,10.0,29.630905,1003.6,,TRUE,TRUE,,,,,,-RA,BKN,3500,BKN,5500,,,,,VFR,,,,,,,,,,,,METAR,129.0
KSMO 060708Z 00000KT 10SM SCT025 OVC045 16/11 A2991 RMK AO2 T01560106,KSMO,2023-06-06T07:08:00Z,34.02,-118.45,15.6,10.6,0,0,,10.0,29.911417,,,,TRUE,,,,,,,SCT,2500,OVC,4500,,,,,VFR,,,,,,,,,,,,SPECI,56.0
KLEB 060708Z AUTO 00000KT 1/2SM FG VV001 09/08 A2970 RMK AO2 T00890078,KLEB,2023-06-06T07:08:00Z,43.63,-72.3,8.9,7.8,0,0,,0.5,29.698818,,,TRUE,TRUE,,,,,,FG,OVX,0,,,,,,,LIFR,,,,,,,,,,,100,SPECI,169.0
K04V 060708Z AUTO 35008KT 10SM SCT120 08/06 A3032 RMK AO2 P0001,K04V,2023-06-06T07:08:00Z,38.1,-106.17,8.0,6.0,350,8,,10.0,30.318897,,,TRUE,TRUE,,,,,,,SCT,12000,,,,,,,VFR,,,,,,0.01,,,,,,SPECI,2389.0
UAKD 060707Z 27003MPS 200V010 9999 FEW050CB 35/02 Q1008 NOSIG RMK QFE722/0963,UAKD,2023-06-06T07:07:00Z,47.7,67.73,35.0,2.0,270,6,,6.21,29.763779,,,,,,TRUE,,,,,FEW,5000,,,,,,,VFR,,,,,,,,,,,,METAR,379.0
PAVC 060707Z AUTO 29005KT 3SM -RA BR FEW011 BKN026 OVC035 06/06 A2960 RMK AO2 PNO $,PAVC,2023-06-06T07:07:00Z,55.12,-162.27,6.0,6.0,290,5,,3.0,29.601377,,,TRUE,TRUE,TRUE,,,,,-RA BR,FEW,1100,BKN,2600,OVC,3500,,,MVFR,,,,,,,,,,,,SPECI,48.0
KVBG 060707Z AUTO 00000KT 9SM -RA OVC020 13/12 A2991 RMK AO2 RAB07 CIG 020V024 OVC V BKN SLP131 TSNO $,KVBG,2023-06-06T07:07:00Z,34.73,-120.58,13.0,12.0,0,0,,9.0,29.911417,1013.1,,TRUE,TRUE,TRUE,,TRUE,,,-RA,OVC,2000,,,,,,,MVFR,,,,,,,,,,,,SPECI,96.0
KDNL 060706Z AUTO 20005KT 10SM -RA FEW035 SCT050 BKN060 21/17 A2994 RMK AO2 LTG DSNT E AND SW AND W TSE0654B0659E02 P0000 T02060172,KDNL,2023-06-06T07:06:00Z,33.47,-82.03,20.6,17.2,200,5,,10.0,29.940945,,,TRUE,TRUE,,,,,,-RA,FEW,3500,SCT,5000,BKN,6000,,,VFR,,,,,,0.005,,,,,,SPECI,126.0
CYKF 060706Z AUTO 34003KT 6SM BR CLR 13/11 A2989 RMK SLP127,CYKF,2023-06-06T07:06:00Z,43.47,-80.38,13.0,11.0,340,3,,6.0,29.890747,1012.7,,TRUE,,,,,,,BR,CLR,,,,,,,,VFR,,,,,,,,,,,,SPECI,312.0
KSHM 060705Z AUTO 00000KT 10SM BKN022 11/09 A3019 RMK AO2 BKN V FEW SLP175 $,KSHM,2023-06-06T07:05:00Z,38.8,-104.52,11.0,9.0,0,0,,10.0,30.188976,1017.5,,TRUE,TRUE,TRUE,,,,,,BKN,2200,,,,,,,MVFR,,,,,,,,,,,,SPECI,1900.0
CYXS 060705Z AUTO 35004KT 9SM CLR 02/M01 A3017 RMK PCPN 50.8MM PAST HR SLP248,CYXS,2023-06-06T07:05:00Z,53.88,-122.68,2.0,-1.0,350,4,,9.0,30.171259,1024.8,,TRUE,,,,,,,,CLR,,,,,,,,VFR,,,,,,,,,,,,SPECI,685.0
RKNW 060704Z 26006KT 9999 BKN035 BKN180 25/15 A2969 RMK CIG035,RKNW,2023-06-06T07:04:00Z,37.33,127.95,25.0,15.0,260,6,,6.21,29.68996,,,,,,,,,,,BKN,3500,BKN,18000,,,,,VFR,,,,,,,,,,,,SPECI,152.0
CYKL 060704Z AUTO 02007KT 9SM -RA OVC010 03/02 A3013 RMK SLP231,CYKL,2023-06-06T07:04:00Z,54.8,-66.8,3.0,2.0,20,7,,9.0,30.129921,1023.1,,TRUE,,,,,,,-RA,OVC,1000,,,,,,,MVFR,,,,,,,,,,,,SPECI,507.0
SVVL 060703Z AUTO ///01KT NCD ///// Q////,SVVL,2023-06-06T07:03:00Z,9.33,-70.58,,,,,,,,,,TRUE,,,,,,,,CLR,,,,,,,,,,,,,,,,,,,,SPECI,575.0
SVVA 060703Z AUTO 23005KT NCD 26/25 Q1015,SVVA,2023-06-06T07:03:00Z,10.15,-67.92,26.0,25.0,230,5,,,29.970472,,,TRUE,,,,,,,,CLR,,,,,,,,,,,,,,,,,,,,METAR,428.0
SVSR 060703Z AUTO NIL,SVSR,2023-06-06T07:03:00Z,7.87,-67.43,,,,,,,,,,TRUE,,,,,,,,,,,,,,,,,,,,,,,,,,,,SPECI,49.0
SVSA 060703Z AUTO NIL,SVSA,2023-06-06T07:03:00Z,7.83,-72.45,,,,,,,,,,TRUE,,,,,,,,,,,,,,,,,,,,,,,,,,,,SPECI,383.0
SVPR 060703Z AUTO 15002KT NCD 24/22 Q1015,SVPR,2023-06-06T07:03:00Z,8.3,-62.77,24.0,22.0,150,2,,,29.970472,,,TRUE,,,,,,,,CLR,,,,,,,,,,,,,,,,,,,,METAR,140.0
SVPA 060703Z AUTO NIL,SVPA,2023-06-06T07:03:00Z,5.62,-67.6,,,,,,,,,,TRUE,,,,,,,,,,,,,,,,,,,,,,,,,,,,METAR,77.0
SVMT 060703Z AUTO 21001KT NCD 25/25 Q1014,SVMT,2023-06-06T07:03:00Z,9.75,-63.17,25.0,25.0,210,1,,,29.940945,,,TRUE,,,,,,,,CLR,,,,,,,,,,,,,,,,,,,,METAR,67.0
SVMI 060703Z AUTO 22003KT NCD 27/22 Q1013,SVMI,2023-06-06T07:03:00Z,10.6,-67.0,27.0,22.0,220,3,,,29.911417,,,TRUE,,,,,,,,CLR,,,,,,,,,,,,,,,,,,,,METAR,48.0
SVMG 060703Z AUTO 10010KT NCD 27/27 Q1014,SVMG,2023-06-06T07:03:00Z,10.92,-63.97,27.0,27.0,100,10,,,29.940945,,,TRUE,,,,,,,,CLR,,,,,,,,,,,,,,,,,,,,METAR,16.0
SVMC 060703Z AUTO 28001KT NCD 26/25 Q1012,SVMC,2023-06-06T07:03:00Z,10.57,-71.72,26.0,25.0,280,1,,,29.88189,,,TRUE,,,,,,,,CLR,,,,,,,,,,,,,,,,,,,,METAR,76.0
SVLO 060703Z AUTO NIL,SVLO,2023-06-06T07:03:00Z,11.8,-66.18,,,,,,,,,,TRUE,,,,,,,,,,,,,,,,,,,,,,,,,,,,SPECI,3.0
SVJM 060703Z AUTO 07001KT NCD 22/22 Q1014,SVJM,2023-06-06T07:03:00Z,9.92,-67.38,22.0,22.0,70,1,,,29.940945,,,TRUE,,,,,,,,CLR,,,,,,,,,,,,,,,,,,,,METAR,448.0
SVGU 060703Z AUTO 26001KT NCD 23/22 Q1015,SVGU,2023-06-06T07:03:00Z,9.03,-69.75,23.0,22.0,260,1,,,29.970472,,,TRUE,,,,,,,,CLR,,,,,,,,,,,,,,,,,,,,METAR,165.0
SVGD 060703Z AUTO 30002KT NCD 23/23 Q1015,SVGD,2023-06-06T07:03:00Z,7.22,-70.75,23.0,23.0,300,2,,,29.970472,,,TRUE,,,,,,,,CLR,,,,,,,,,,,,,,,,,,,,METAR,129.0
SVFM 060703Z AUTO NIL,SVFM,2023-06-06T07:03:00Z,10.48,-66.83,,,,,,,,,,TRUE,,,,,,,,,,,,,,,,,,,,,,,,,,,,METAR,852.0
SVCS 060703Z AUTO 30004KT NCD 22/20 Q1017,SVCS,2023-06-06T07:03:00Z,10.3,-66.82,22.0,20.0,300,4,,,30.029528,,,TRUE,,,,,,,,CLR,,,,,,,,,,,,,,,,,,,,METAR,656.0
SVCB 060703Z AUTO 26001KT NCD 25/23 Q1013,SVCB,2023-06-06T07:03:00Z,8.12,-63.53,25.0,23.0,260,1,,,29.911417,,,TRUE,,,,,,,,CLR,,,,,,,,,,,,,,,,,,,,METAR,47.0
SVBS 060703Z AUTO 30001KT NCD 24/22 Q1016,SVBS,2023-06-06T07:03:00Z,10.25,-67.65,24.0,22.0,300,1,,,30.0,,,TRUE,,,,,,,,CLR,,,,,,,,,,,,,,,,,,,,METAR,435.0
SVBM 060703Z AUTO 10008KT NCD 21/20 Q1016,SVBM,2023-06-06T07:03:00Z,10.05,-69.37,21.0,20.0,100,8,,,30.0,,,TRUE,,,,,,,,CLR,,,,,,,,,,,,,,,,,,,,METAR,624.0
SVBI 060703Z AUTO /////KT NCD 24/24 Q1018,SVBI,2023-06-06T07:03:00Z,8.62,-70.22,24.0,24.0,,,,,30.059055,,,TRUE,,,,,,,,CLR,,,,,,,,,,,,,,,,,,,,METAR,185.0
SVBC 060703Z AUTO 16003KT NCD 25/25 Q1014,SVBC,2023-06-06T07:03:00Z,10.12,-64.68,25.0,25.0,160,3,,,29.940945,,,TRUE,,,,,,,,CLR,,,,,,,,,,,,,,,,,,,,METAR,7.0
PADQ 060703Z AUTO 06010KT 1/2SM FG VV003 07/06 A2985 RMK AO2 T00670061 TSNO,PADQ,2023-06-06T07:03:00Z,57.75,-152.5,6.7,6.1,60,10,,0.5,29.84941,,,TRUE,TRUE,,,TRUE,,,FG,OVX,0,,,,,,,LIFR,,,,,,,,,,,300,SPECI,5.0
KINL 060703Z AUTO 14003KT 8SM OVC030 18/16 A3007 RMK AO2 T01830161,KINL,2023-06-06T07:03:00Z,48.57,-93.4,18.3,16.1,140,3,,8.0,30.070866,,,TRUE,TRUE,,,,,,,OVC,3000,,,,,,,MVFR,,,,,,,,,,,,SPECI,353.0
KI35 060703Z AUTO 00000KT 10SM CLR 14/14 A2999 RMK AO2,KI35,2023-06-06T07:03:00Z,36.87,-83.37,14.0,14.0,0,0,,10.0,29.991142,,,TRUE,TRUE,,,,,,,CLR,,,,,,,,VFR,,,,,,,,,,,,SPECI,467.0
PAHX 060702Z AUTO 21006KT 10SM BKN080 OVC110 15/08 A2975 RMK AO2 SLP073 T01500078,PAHX,2023-06-06T07:02:00Z,62.7,-159.57,15.0,7.8,210,6,,10.0,29.749016,1007.3,,TRUE,TRUE,,,,,,,BKN,8000,OVC,11000,,,,,VFR,,,,,,,,,,,,METAR,20.0
KFVE 060702Z AUTO 35009KT 10SM OVC014 09/08 A2966 RMK AO2 T00890078,KFVE,2023-06-06T07:02:00Z,47.28,-68.3,8.9,7.8,350,9,,10.0,29.660433,,,TRUE,TRUE,,,,,,,OVC,1400,,,,,,,MVFR,,,,,,,,,,,,SPECI,299.0
K4MR 060702Z AUTO 28011KT 10SM -RA FEW026 FEW032 BKN046 OVC090 18/14 A3017 RMK AO2 LTG DSNT SW RAB02 SLP144 $,K4MR,2023-06-06T07:02:00Z,34.3,-103.8,18.0,14.0,280,11,,10.0,30.171259,1014.4,,TRUE,TRUE,TRUE,,,,,-RA,FEW,2600,FEW,3200,BKN,4600,OVC,9000,VFR,,,,,,,,,,,,SPECI,1339.0
EGYE 060702Z 05008KT 9999 OVC009 ///// Q1025 RMK GRN,EGYE,2023-06-06T07:02:00Z,52.97,-0.57,,,50,8,,6.21,30.265747,,,,,,,,,,,OVC,900,,,,,,,IFR,,,,,,,,,,,,SPECI,105.0
VEHO 060701Z 00000KT 6000 NSW FEW025 SCT100 36/26 Q1002 NOSIG,VEHO,2023-06-06T07:01:00Z,,,36.0,26.0,0,0,,3.73,29.586615,,,,,,TRUE,,,,,FEW,2500,SCT,10000,,,,,MVFR,,,,,,,,,,,,METAR,
SAZB 060701Z 33026G36KT CAVOK 14/04 Q1009,SAZB,2023-06-06T07:01:00Z,-38.72,-62.17,14.0,4.0,330,26,36,6.21,29.793306,,,,,,,,,,,CAVOK,,,,,,,,VFR,,,,,,,,,,,,SPECI,77.0
PAFS 060701Z AUTO 12008KT 10SM CLR 17/03 A2976 RMK AO2 SLP081 T01720028,PAFS,2023-06-06T07:01:00Z,63.02,-154.35,17.2,2.8,120,8,,10.0,29.760826,1008.1,,TRUE,TRUE,,,,,,,CLR,,,,,,,,VFR,,,,,,,,,,,,METAR,131.0
CYBW 060701Z AUTO 35016G22KT 9SM SCT018 OVC050 12/08 A3010 RMK SLP203 DENSITY ALT 4400FT,CYBW,2023-06-06T07:01:00Z,51.1,-114.37,12.0,8.0,350,16,22,9.0,30.100393,1020.3,,TRUE,,,,,,,,SCT,1800,OVC,5000,,,,,VFR,,,,,,,,,,,,SPECI,1197.0
ZYTX 060700Z 25003MPS 220V300 CAVOK 27/12 Q1002 NOSIG,ZYTX,2023-06-06T07:00:00Z,41.63,123.48,27.0,12.0,250,6,,6.21,29.586615,,,,,,TRUE,,,,,CAVOK,,,,,,,,VFR,,,,,,,,,,,,METAR,56.0
ZYTL 060700Z 32004MPS 290V360 CAVOK 26/14 Q1004 NOSIG,ZYTL,2023-06-06T07:00:00Z,38.97,121.55,26.0,14.0,320,8,,6.21,29.64567,,,,,,TRUE,,,,,CAVOK,,,,,,,,VFR,,,,,,,,,,,,METAR,33.0
ZYHB 060700Z VRB02MPS 9999 SCT046 24/11 Q0997 NOSIG,ZYHB,2023-06-06T07:00:00Z,45.62,126.25,24.0,11.0,0,4,,6.21,29.438976,,,,,,TRUE,,,,,SCT,4600,,,,,,,VFR,,,,,,,,,,,,METAR,134.0
ZYCC 060700Z 31005G10MPS 250V030 9999 SCT030 26/01 Q0999 NOSIG,ZYCC,2023-06-06T07:00:00Z,43.98,125.68,26.0,1.0,310,10,19,6.21,29.498032,,,,,,TRUE,,,,,SCT,3000,,,,,,,VFR,,,,,,,,,,,,METAR,211.0
ZWWW 060700Z VRB03MPS CAVOK 35/M01 Q1011 NOSIG,ZWWW,2023-06-06T07:00:00Z,43.9,87.47,35.0,-1.0,0,6,,6.21,29.852362,,,,,,TRUE,,,,,CAVOK,,,,,,,,VFR,,,,,,,,,,,,METAR,654.0
ZWSH 060700Z 11003MPS 070V130 9999 FEW033 FEW033TCU 29/02 Q1017 NOSIG,ZWSH,2023-06-06T07:00:00Z,39.55,76.02,29.0,2.0,110,6,,6.21,30.029528,,,,,,TRUE,,,,,FEW,3300,FEW,3300,,,,,VFR,,,,,,,,,,,,METAR,1374.0
ZUUU 060700Z 07003MPS 030V150 9999 FEW026 30/14 Q1010 NOSIG,ZUUU,2023-06-06T07:00:00Z,30.58,103.95,30.0,14.0,70,6,,6.21,29.822834,,,,,,TRUE,,,,,FEW,2600,,,,,,,VFR,,,,,,,,,,,,METAR,494.0
ZUTF 060700Z 14002MPS 060V210 9999 SCT026 30/15 Q1009 NOSIG,ZUTF,2023-06-06T07:00:00Z,30.3,104.43,30.0,15.0,140,4,,6.21,29.793306,,,,,,TRUE,,,,,SCT,2600,,,,,,,VFR,,,,,,,,,,,,METAR,443.0
ZUGY 060700Z 06002MPS 030V120 9999 SCT030 OVC043 25/15 Q1015 NOSIG,ZUGY,2023-06-06T07:00:00Z,26.53,106.8,25.0,15.0,60,4,,6.21,29.970472,,,,,,TRUE,,,,,SCT,3000,OVC,4300,,,,,VFR,,,,,,,,,,,,METAR,1130.0
ZUCK 060700Z VRB01MPS 9999 SCT033 SCT040 26/18 Q1011 NOSIG,ZUCK,2023-06-06T07:00:00Z,29.72,106.63,26.0,18.0,0,2,,6.21,29.852362,,,,,,TRUE,,,,,SCT,3300,SCT,4000,,,,,VFR,,,,,,,,,,,,METAR,416.0
ZSSS 060700Z 30003MPS 270V350 9999 BKN026 25/17 Q1009 NOSIG,ZSSS,2023-06-06T07:00:00Z,31.2,121.33,25.0,17.0,300,6,,6.21,29.793306,,,,,,TRUE,,,,,BKN,2600,,,,,,,MVFR,,,,,,,,,,,,METAR,2.0
ZSQD 060700Z 17006MPS 130V190 CAVOK 29/18 Q1004 NOSIG,ZSQD,2023-06-06T07:00:00Z,36.27,120.38,29.0,18.0,170,12,,6.21,29.64567,,,,,,TRUE,,,,,CAVOK,,,,,,,,VFR,,,,,,,,,,,,METAR,8.0
ZSPD 060700Z 03004MPS 360V060 9999 SCT016 23/19 Q1009 NOSIG,ZSPD,2023-06-06T07:00:00Z,31.15,121.8,23.0,19.0,30,8,,6.21,29.793306,,,,,,TRUE,,,,,SCT,1600,,,,,,,VFR,,,,,,,,,,,,METAR,4.0
ZSOF 060700Z 18003MPS 150V220 CAVOK 28/19 Q1008 NOSIG,ZSOF,2023-06-06T07:00:00Z,31.98,116.97,28.0,19.0,180,6,,6.21,29.763779,,,,,,TRUE,,,,,CAVOK,,,,,,,,VFR,,,,,,,,,,,,METAR,23.0
ZSNJ 060700Z 24002MPS 190V320 CAVOK 27/19 Q1008 NOSIG,ZSNJ,2023-06-06T07:00:00Z,31.75,118.87,27.0,19.0,240,4,,6.21,29.763779,,,,,,TRUE,,,,,CAVOK,,,,,,,,VFR,,,,,,,,,,,,METAR,27.0
ZSNB 060700Z 34003MPS 6000 -SHRA FEW010 BKN020 22/19 Q1010 NOSIG,ZSNB,2023-06-06T07:00:00Z,29.83,121.47,22.0,19.0,340,6,,3.73,29.822834,,,,,,TRUE,,,,-SHRA,FEW,1000,BKN,2000,,,,,MVFR,,,,,,,,,,,,METAR,5.0
ZSHC 060700Z VRB01MPS 9999 SCT010 BKN017 23/19 Q1009 NOSIG,ZSHC,2023-06-06T07:00:00Z,30.22,120.43,23.0,19.0,0,2,,6.21,29.793306,,,,,,TRUE,,,,,SCT,1000,BKN,1700,,,,,MVFR,,,,,,,,,,,,METAR,8.0
ZSFZ 060700Z 19008MPS 9999 FEW020CB 32/25 Q1006 NOSIG,ZSFZ,2023-06-06T07:00:00Z,25.93,119.67,32.0,25.0,190,16,,6.21,29.704725,,,,,,TRUE,,,,,FEW,2000,,,,,,,VFR,,,,,,,,,,,,METAR,14.0
ZSAM 060700Z 17007MPS 9999 SCT030 FEW030CB 32/26 Q1007 NOSIG,ZSAM,2023-06-06T07:00:00Z,24.53,118.13,32.0,26.0,170,14,,6.21,29.734253,,,,,,TRUE,,,,,SCT,3000,FEW,3000,,,,,VFR,,,,,,,,,,,,METAR,13.0
ZPPP 060700Z 05004MPS 7000 SCT004 SCT016 OVC033 16/15 Q1021 NOSIG,ZPPP,2023-06-06T07:00:00Z,25.0,102.65,16.0,15.0,50,8,,4.35,30.147638,,,,,,TRUE,,,,,SCT,400,SCT,1600,OVC,3300,,,MVFR,,,,,,,,,,,,METAR,1885.0
ZMUB 060700Z 34008G14MPS 310V030 9999 FEW030CB SCT033 20/04 Q1010 NOSIG RMK QFE650.6 34 MOP,ZMUB,2023-06-06T07:00:00Z,47.83,106.75,20.0,4.0,340,16,27,6.21,29.822834,,,,,,TRUE,,,,,FEW,3000,SCT,3300,,,,,VFR,,,,,,,,,,,,SPECI,1300.0
ZLXY 060700Z 01003MPS 330V040 CAVOK 31/15 Q1009 NOSIG,ZLXY,2023-06-06T07:00:00Z,34.43,108.75,31.0,15.0,10,6,,6.21,29.793306,,,,,,TRUE,,,,,CAVOK,,,,,,,,VFR,,,,,,,,,,,,METAR,478.0
ZLLL 060700Z 35004MPS 9999 FEW023 SCT046 20/06 Q1018 NOSIG,ZLLL,2023-06-06T07:00:00Z,36.52,103.62,20.0,6.0,350,8,,6.21,30.059055,,,,,,TRUE,,,,,FEW,2300,SCT,4600,,,,,VFR,,,,,,,,,,,,METAR,1939.0
ZJSY 060700Z 33002MPS 280V360 9999 FEW011 FEW025TCU BKN040 28/26 Q1003 BECMG AT0750 SCT016 FEW025CB,ZJSY,2023-06-06T07:00:00Z,18.3,109.42,28.0,26.0,330,4,,6.21,29.616142,,,,,,,,,,,FEW,1100,FEW,2500,BKN,4000,,,VFR,,,,,,,,,,,,SPECI,27.0
ZJHK 060700Z VRB01MPS 8000 -TSRA FEW004 SCT023CB 25/24 Q1004 RESHRA BECMG FM0740 -SHRA,ZJHK,2023-06-06T07:00:00Z,19.93,110.43,25.0,24.0,0,2,,4.97,29.64567,,,,,,,,,,-TSRA,FEW,400,SCT,2300,,,,,MVFR,,,,,,,,,,,,SPECI,21.0
ZHHH 060700Z 24002MPS 200V280 9999 FEW033 27/19 Q1009 NOSIG,ZHHH,2023-06-06T07:00:00Z,30.78,114.22,27.0,19.0,240,4,,6.21,29.793306,,,,,,TRUE,,,,,FEW,3300,,,,,,,VFR,,,,,,,,,,,,METAR,33.0
ZHCC 060700Z VRB01MPS CAVOK 35/10 Q1006 NOSIG,ZHCC,2023-06-06T07:00:00Z,34.52,113.83,35.0,10.0,0,2,,6.21,29.704725,,,,,,TRUE,,,,,CAVOK,,,,,,,,VFR,,,,,,,,,,,,METAR,149.0
ZGSZ 060700Z 11005MPS 080V140 9999 -SHRA FEW015 FEW023CB BKN053 28/24 Q1007 NOSIG,ZGSZ,2023-06-06T07:00:00Z,22.63,113.8,28.0,24.0,110,10,,6.21,29.734253,,,,,,TRUE,,,,-SHRA,FEW,1500,FEW,2300,BKN,5300,,,VFR,,,,,,,,,,,,METAR,18.0
ZGOW 060700Z VRB01MPS 9999 TS FEW026CB BKN040 27/26 Q1008 RESHRA BECMG AT0720 NSW,ZGOW,2023-06-06T07:00:00Z,23.55,116.5,27.0,26.0,0,2,,6.21,29.763779,,,,,,,,,,TS,FEW,2600,BKN,4000,,,,,VFR,,,,,,,,,,,,METAR,4.0
ZGNN 060700Z 35005MPS 9999 FEW026 30/25 Q1005 NOSIG,ZGNN,2023-06-06T07:00:00Z,22.62,108.17,30.0,25.0,350,10,,6.21,29.675198,,,,,,TRUE,,,,,FEW,2600,,,,,,,VFR,,,,,,,,,,,,METAR,128.0
ZGKL 060700Z VRB02MPS 9999 FEW026 33/24 Q1007 NOSIG,ZGKL,2023-06-06T07:00:00Z,25.22,110.03,33.0,24.0,0,4,,6.21,29.734253,,,,,,TRUE,,,,,FEW,2600,,,,,,,VFR,,,,,,,,,,,,METAR,151.0
ZGHA 060700Z VRB01MPS 9999 BKN028 26/19 Q1010 NOSIG,ZGHA,2023-06-06T07:00:00Z,28.18,113.22,26.0,19.0,0,2,,6.21,29.822834,,,,,,TRUE,,,,,BKN,2800,,,,,,,MVFR,,,,,,,,,,,,METAR,61.0
ZGGG 060700Z VRB01MPS CAVOK 28/25 Q1008 RETS NOSIG,ZGGG,2023-06-06T07:00:00Z,23.4,113.3,28.0,25.0,0,2,,6.21,29.763779,,,,,,TRUE,,,,,CAVOK,,,,,,,,VFR,,,,,,,,,,,,METAR,11.0
ZBYN 060700Z 21003MPS 150V250 9999 FEW040 30/04 Q1009 NOSIG,ZBYN,2023-06-06T07:00:00Z,37.73,112.63,30.0,4.0,210,6,,6.21,29.793306,,,,,,TRUE,,,,,FEW,4000,,,,,,,VFR,,,,,,,,,,,,METAR,778.0
ZBTJ 060700Z VRB01MPS CAVOK 33/04 Q1003 NOSIG,ZBTJ,2023-06-06T07:00:00Z,39.12,117.35,33.0,4.0,0,2,,6.21,29.616142,,,,,,TRUE,,,,,CAVOK,,,,,,,,VFR,,,,,,,,,,,,METAR,4.0
ZBSJ 060700Z VRB02G07MPS CAVOK 36/07 Q1003 NOSIG,ZBSJ,2023-06-06T07:00:00Z,38.28,114.7,36.0,7.0,0,4,14,6.21,29.616142,,,,,,TRUE,,,,,CAVOK,,,,,,,,VFR,,,,,,,,,,,,METAR,70.0
ZBHH 060700Z 22004MPS 180V260 9999 SCT040 27/04 Q1009 NOSIG,ZBHH,2023-06-06T07:00:00Z,40.85,111.82,27.0,4.0,220,8,,6.21,29.793306,,,,,,TRUE,,,,,SCT,4000,,,,,,,VFR,,,,,,,,,,,,METAR,1081.0
ZBAD 060700Z 24004MPS 200V300 CAVOK 35/04 Q1003 NOSIG,ZBAD,2023-06-06T07:00:00Z,39.5,116.42,35.0,4.0,240,8,,6.21,29.616142,,,,,,TRUE,,,,,CAVOK,,,,,,,,VFR,,,,,,,,,,,,METAR,25.0
ZBAA 060700Z 26007G12MPS 220V290 CAVOK 36/01 Q1002 BECMG TL0840 20005MPS,ZBAA,2023-06-06T07:00:00Z,40.07,116.6,36.0,1.0,260,14,23,6.21,29.586615,,,,,,,,,,,CAVOK,,,,,,,,VFR,,,0.5,,,,,,,,,METAR,31.0
YWLM 060700Z 06007KT 9999 FEW038 17/13 Q1026,YWLM,2023-06-06T07:00:00Z,-32.8,151.83,17.0,13.0,60,7,,6.21,30.295275,,,,,,,,,,,FEW,3800,,,,,,,VFR,,,,,,,,,,,,METAR,7.0
YSTW 060700Z AUTO 19004KT 9999 // NCD 19/08 Q1025 RF00.0/000.0,YSTW,2023-06-06T07:00:00Z,-31.08,150.85,19.0,8.0,190,4,,6.21,30.265747,,,TRUE,,,,,,,,CLR,,,,,,,,VFR,,,,,,,,,,,,SPECI,404.0
YSSY 060700Z 02006KT 9999 SCT020 BKN040 18/13 Q1027 RF00.0/000.0,YSSY,2023-06-06T07:00:00Z,-33.95,151.17,18.0,13.0,20,6,,6.21,30.324802,,,,,,,,,,,SCT,2000,BKN,4000,,,,,VFR,,,,,,,,,,,,SPECI,3.0
YSRI 060700Z AUTO 00000KT 9999 // NCD 16/14 Q1026 RF00.0/000.0,YSRI,2023-06-06T07:00:00Z,-33.6,150.77,16.0,14.0,0,0,,6.21,30.295275,,,TRUE,,,,,,,,CLR,,,,,,,,VFR,,,,,,,,,,,,SPECI,19.0
YSNF 060700Z AUTO 17013KT 9999 // SCT024 SCT049 17/13 Q1020,YSNF,2023-06-06T07:00:00Z,-29.03,167.93,17.0,13.0,170,13,,6.21,30.11811,,,TRUE,,,,,,,,SCT,2400,SCT,4900,,,,,VFR,,,,,,,,,,,,SPECI,113.0
YSDU 060700Z AUTO 05006KT 9999 // BKN067 OVC115 17/10 Q1024,YSDU,2023-06-06T07:00:00Z,-32.22,148.57,17.0,10.0,50,6,,6.21,30.236221,,,TRUE,,,,,,,,BKN,6700,OVC,11500,,,,,VFR,,,,,,,,,,,,SPECI,285.0
YSCB 060700Z AUTO 27004KT 9999 // OVC024 13/10 Q1026 RF00.0/000.0,YSCB,2023-06-06T07:00:00Z,-35.3,149.18,13.0,10.0,270,4,,6.21,30.295275,,,TRUE,,,,,,,,OVC,2400,,,,,,,MVFR,,,,,,,,,,,,SPECI,577.0
YPXM 060700Z AUTO 14010KT 9999 // SCT026 OVC054 25/20 Q1013,YPXM,2023-06-06T07:00:00Z,-10.45,105.68,25.0,20.0,140,10,,6.21,29.911417,,,TRUE,,,,,,,,SCT,2600,OVC,5400,,,,,VFR,,,,,,,,,,,,SPECI,262.0
YPWR 060700Z AUTO 03013KT 9999 // OVC125 22/15 Q1012 RF00.0/000.2,YPWR,2023-06-06T07:00:00Z,-31.15,136.82,22.0,15.0,30,13,,6.21,29.88189,,,TRUE,,,,,,,,OVC,12500,,,,,,,VFR,,,,,,,,,,,,METAR,169.0
YPTN 060700Z AUTO 12006KT 9999 // SCT072 33/16 Q1011 RF00.0/000.0,YPTN,2023-06-06T07:00:00Z,-14.52,132.38,33.0,16.0,120,6,,6.21,29.852362,,,TRUE,,,,,,,,SCT,7200,,,,,,,VFR,,,,,,,,,,,,SPECI,135.0
YPPH 060700Z 21007KT 9000 RA FEW015 SCT035 BKN055 09/07 Q1008,YPPH,2023-06-06T07:00:00Z,-31.93,115.98,9.0,7.0,210,7,,5.59,29.763779,,,,,,,,,,RA,FEW,1500,SCT,3500,BKN,5500,,,VFR,,,,,,,,,,,,METAR,16.0
YPPD 060700Z AUTO 31015KT 9999 // NCD 26/11 Q1013 RF00.0/000.0,YPPD,2023-06-06T07:00:00Z,-20.37,118.62,26.0,11.0,310,15,,6.21,29.911417,,,TRUE,,,,,,,,CLR,,,,,,,,VFR,,,,,,,,,,,,SPECI,6.0
YPLM 060700Z AUTO 23013KT 9999 // BKN062 24/08 Q1015 RF00.0/000.0,YPLM,2023-06-06T07:00:00Z,-22.23,114.08,24.0,8.0,230,13,,6.21,29.970472,,,TRUE,,,,,,,,BKN,6200,,,,,,,VFR,,,,,,,,,,,,SPECI,5.0
YPKU 060700Z AUTO 05005KT 010V100 9999 // SCT075 33/15 Q1011,YPKU,2023-06-06T07:00:00Z,-15.77,128.7,33.0,15.0,50,5,,6.21,29.852362,,,TRUE,,,,,,,,SCT,7500,,,,,,,VFR,,,,,,,,,,,,SPECI,42.0
YPKG 060700Z AUTO 31009KT 9999 // BKN065 BKN075 OVC086 10/06 Q1005,YPKG,2023-06-06T07:00:00Z,-30.78,121.45,10.0,6.0,310,9,,6.21,29.675198,,,TRUE,,,,,,,,BKN,6500,BKN,7500,OVC,8600,,,VFR,,,,,,,,,,,,SPECI,372.0
YPJT 060700Z AUTO 19006KT 9999 -SHRA SCT022 SCT030 SCT040 10/08 Q1008 RESHRA,YPJT,2023-06-06T07:00:00Z,-32.1,115.88,10.0,8.0,190,6,,6.21,29.763779,,,TRUE,,,,,,,-SHRA,SCT,2200,SCT,3000,SCT,4000,,,VFR,,,,,,,,,,,,METAR,29.0
YPGV 060700Z AUTO 12014KT 9999 // SCT020 BKN026 OVC033 28/23 Q1011,YPGV,2023-06-06T07:00:00Z,-12.27,136.82,28.0,23.0,120,14,,6.21,29.852362,,,TRUE,,,,,,,,SCT,2000,BKN,2600,OVC,3300,,,MVFR,,,,,,,,,,,,SPECI,53.0
"YPDN 060700Z 33010KT 9999 FEW032 29/22 Q1010 1CU032 TO ENE, 1SC063 TO SSE",YPDN,2023-06-06T07:00:00Z,-12.42,130.9,29.0,22.0,330,10,,6.21,29.822834,,,,,,,,,,,FEW,3200,,,,,,,VFR,,,,,,,,,,,,METAR,32.0
YPCC 060700Z AUTO 09019KT 060V120 9999 // SCT020 SCT033 27/23 Q1012,YPCC,2023-06-06T07:00:00Z,-12.18,96.83,27.0,23.0,90,19,,6.21,29.88189,,,TRUE,,,,,,,,SCT,2000,SCT,3300,,,,,VFR,,,,,,,,,,,,SPECI,3.0
YPAD 060700Z 01012KT CAVOK 23/10 Q1012,YPAD,2023-06-06T07:00:00Z,-34.95,138.52,23.0,10.0,10,12,,6.21,29.88189,,,,,,,,,,,CAVOK,,,,,,,,VFR,,,,,,,,,,,,METAR,2.0
YMML 060700Z 03013KT 9999 FEW016 SCT042 15/12 Q1019 RF00.0/000.0,YMML,2023-06-06T07:00:00Z,-37.67,144.82,15.0,12.0,30,13,,6.21,30.088583,,,,,,,,,,,FEW,1600,SCT,4200,,,,,VFR,,,,,,,,,,,,SPECI,115.0
YMLT 060700Z AUTO 21005KT 9999 // SCT032 OVC051 14/11 Q1021,YMLT,2023-06-06T07:00:00Z,-41.53,147.2,14.0,11.0,210,5,,6.21,30.147638,,,TRUE,,,,,,,,SCT,3200,OVC,5100,,,,,VFR,,,,,,,,,,,,SPECI,167.0
YMHB 060700Z 00000KT 9999 FEW030 SCT110 BKN250 10/09 Q1021 RF00.0/000.2,YMHB,2023-06-06T07:00:00Z,-42.83,147.52,10.0,9.0,0,0,,6.21,30.147638,,,,,,,,,,,FEW,3000,SCT,11000,BKN,25000,,,VFR,,,,,,,,,,,,SPECI,2.0
YMAV 060700Z AUTO 04011KT 9999 // BKN038 16/12 Q1019 RF00.0/000.0,YMAV,2023-06-06T07:00:00Z,-38.03,144.48,16.0,12.0,40,11,,6.21,30.088583,,,TRUE,,,,,,,,BKN,3800,,,,,,,VFR,,,,,,,,,,,,SPECI,11.0
YLHI 060700Z AUTO 11006KT 090V150 9999 // SCT030 16/12 Q1026,YLHI,2023-06-06T07:00:00Z,-31.53,159.07,16.0,12.0,110,6,,6.21,30.295275,,,TRUE,,,,,,,,SCT,3000,,,,,,,VFR,,,,,,,,,,,,METAR,2.0
YHID 060700Z AUTO 13014KT 9999 // NCD 29/25 Q1010 RF00.0/000.0,YHID,2023-06-06T07:00:00Z,-10.58,142.3,29.0,25.0,130,14,,6.21,29.822834,,,TRUE,,,,,,,,CLR,,,,,,,,VFR,,,,,,,,,,,,METAR,5.0
YGLA 060700Z AUTO 11011KT 9999 // BKN056 BKN082 22/14 Q1022,YGLA,2023-06-06T07:00:00Z,-23.87,151.22,22.0,14.0,110,11,,6.21,30.177166,,,TRUE,,,,,,,,BKN,5600,BKN,8200,,,,,VFR,,,,,,,,,,,,METAR,17.0
YGEL 060700Z AUTO 23015KT 9999 -SHRA SCT026 SCT034 SCT050 16/13 Q1012,YGEL,2023-06-06T07:00:00Z,-28.8,114.7,16.0,13.0,230,15,,6.21,29.88189,,,TRUE,,,,,,,-SHRA,SCT,2600,SCT,3400,SCT,5000,,,VFR,,,,,,,,,,,,METAR,32.0
YFRT 060700Z AUTO 29019KT 9999 // BKN070 21/05 Q1006 RF00.0/000.0,YFRT,2023-06-06T07:00:00Z,-30.83,128.12,21.0,5.0,290,19,,6.21,29.704725,,,TRUE,,,,,,,,BKN,7000,,,,,,,VFR,,,,,,,,,,,,SPECI,159.0
YCFS 060700Z AUTO 00000KT 9999 // OVC058 17/14 Q1027 RF00.0/000.0,YCFS,2023-06-06T07:00:00Z,-30.32,153.12,17.0,14.0,0,0,,6.21,30.324802,,,TRUE,,,,,,,,OVC,5800,,,,,,,VFR,,,,,,,,,,,,METAR,2.0
YBWW 060700Z AUTO 08007KT 9999 // NCD 17/11 Q1025 RF00.0/000.0,YBWW,2023-06-06T07:00:00Z,-27.55,151.8,17.0,11.0,80,7,,6.21,30.265747,,,TRUE,,,,,,,,CLR,,,,,,,,VFR,,,,,,,,,,,,METAR,460.0
YBTL 060700Z 10016KT 9999 FEW035 SCT068 25/18 Q1017 RF00.0/000.0,YBTL,2023-06-06T07:00:00Z,-19.25,146.75,25.0,18.0,100,16,,6.21,30.029528,,,,,,,,,,,FEW,3500,SCT,6800,,,,,VFR,,,,,,,,,,,,SPECI,4.0
YBSU 060700Z AUTO 14012KT 9999 // SCT031 BKN039 20/13 Q1024,YBSU,2023-06-06T07:00:00Z,-26.6,153.08,20.0,13.0,140,12,,6.21,30.236221,,,TRUE,,,,,,,,SCT,3100,BKN,3900,,,,,VFR,,,,,,,,,,,,METAR,4.0
YBRM 060700Z AUTO 23005KT 9999 // BKN042 OVC085 26/19 Q1013,YBRM,2023-06-06T07:00:00Z,-17.93,122.23,26.0,19.0,230,5,,6.21,29.911417,,,TRUE,,,,,,,,BKN,4200,OVC,8500,,,,,VFR,,,,,,,,,,,,SPECI,11.0
YBRK 060700Z AUTO 11010KT 9999 // SCT029 BKN033 OVC044 22/16 Q1022,YBRK,2023-06-06T07:00:00Z,-23.37,150.47,22.0,16.0,110,10,,6.21,30.177166,,,TRUE,,,,,,,,SCT,2900,BKN,3300,OVC,4400,,,VFR,,,,,,,,,,,,SPECI,10.0
YBMA 060700Z AUTO 04006KT 9999 // NCD 30/12 Q1015 RF00.0/000.0,YBMA,2023-06-06T07:00:00Z,-20.67,139.48,30.0,12.0,40,6,,6.21,29.970472,,,TRUE,,,,,,,,CLR,,,,,,,,VFR,,,,,,,,,,,,SPECI,346.0
YBHM 060700Z AUTO 14021KT 9999 // BKN020 BKN024 22/20 Q1019,YBHM,2023-06-06T07:00:00Z,-20.35,148.95,22.0,20.0,140,21,,6.21,30.088583,,,TRUE,,,,,,,,BKN,2000,BKN,2400,,,,,MVFR,,,,,,,,,,,,SPECI,4.0
YBCS 060700Z AUTO 16012KT 9999 // BKN032 OVC039 24/21 Q1015,YBCS,2023-06-06T07:00:00Z,-16.87,145.75,24.0,21.0,160,12,,6.21,29.970472,,,TRUE,,,,,,,,BKN,3200,OVC,3900,,,,,VFR,,,,,,,,,,,,SPECI,2.0
YBCG 060700Z AUTO 20005KT 9999 // OVC061 17/14 Q1025 RF00.0/000.8,YBCG,2023-06-06T07:00:00Z,-28.17,153.5,17.0,14.0,200,5,,6.21,30.265747,,,TRUE,,,,,,,,OVC,6100,,,,,,,VFR,,,,,,,,,,,,SPECI,5.0
YBBN 060700Z 15006KT 9999 FEW030 BKN054 19/13 Q1025 RF00/0/000/0,YBBN,2023-06-06T07:00:00Z,-27.38,153.13,19.0,13.0,150,6,,6.21,30.265747,,,,,,,,,,,FEW,3000,BKN,5400,,,,,VFR,,,,,,,,,,,,SPECI,3.0
YBAS 060700Z AUTO 34016KT 9999 // ////// 28/07 Q1014 RF00.0////./,YBAS,2023-06-06T07:00:00Z,-23.8,133.9,28.0,7.0,340,16,,6.21,29.940945,,,TRUE,,,,,,,,,,,,,,,,,,,,,,,,,,,,SPECI,549.0
YAMB 060700Z 11007KT 9999 FEW032 SCT046 BKN057 20/12 Q1025 RF00.0/000.0 DIST SHRA SE,YAMB,2023-06-06T07:00:00Z,-27.63,152.72,20.0,12.0,110,7,,6.21,30.265747,,,,,,,,,,SHRA TS,FEW,3200,SCT,4600,BKN,5700,,,VFR,,,,,,,,,,,,SPECI,26.0
WSSL 060700Z 20004KT 140V260 9999 FEW018 BKN280 31/26 Q1008,WSSL,2023-06-06T07:00:00Z,1.42,103.87,31.0,26.0,200,4,,6.21,29.763779,,,,,,,,,,,FEW,1800,BKN,28000,,,,,VFR,,,,,,,,,,,,METAR,11.0
WSAP 060700Z 15006KT 9999 FEW018 BKN270 31/23 Q1008,WSAP,2023-06-06T07:00:00Z,1.37,103.92,31.0,23.0,150,6,,6.21,29.763779,,,,,,,,,,,FEW,1800,BKN,27000,,,,,VFR,,,,,,,,,,,,METAR,20.0
WMSA 060700Z VRB03KT 9999 FEW018 33/24 Q1008,WMSA,2023-06-06T07:00:00Z,3.13,101.55,33.0,24.0,0,3,,6.21,29.763779,,,,,,,,,,,FEW,1800,,,,,,,VFR,,,,,,,,,,,,METAR,19.0
WMKP 060700Z 21006KT 170V250 9999 FEW020 33/23 Q1008 NOSIG,WMKP,2023-06-06T07:00:00Z,5.28,100.27,33.0,23.0,210,6,,6.21,29.763779,,,,,,TRUE,,,,,FEW,2000,,,,,,,VFR,,,,,,,,,,,,METAR,4.0
WMKN 060700Z VRB04KT 9999 TS FEW017CB 32/26 Q1007,WMKN,2023-06-06T07:00:00Z,5.37,103.1,32.0,26.0,0,4,,6.21,29.734253,,,,,,,,,,TS,FEW,1700,,,,,,,VFR,,,,,,,,,,,,METAR,12.0
WMKM 060700Z 20004KT 120V260 9999 SCT020 32/25 Q1008,WMKM,2023-06-06T07:00:00Z,2.27,102.25,32.0,25.0,200,4,,6.21,29.763779,,,,,,,,,,,SCT,2000,,,,,,,VFR,,,,,,,,,,,,METAR,9.0
WMKL 060700Z VRB04KT 9999 FEW017CB SCT020 32/26 Q1008,WMKL,2023-06-06T07:00:00Z,6.32,99.72,32.0,26.0,0,4,,6.21,29.763779,,,,,,,,,,,FEW,1700,SCT,2000,,,,,VFR,,,,,,,,,,,,METAR,4.0
WMKK 060700Z 16004KT 090V260 9999 SCT018 33/23 Q1008 NOSIG,WMKK,2023-06-06T07:00:00Z,2.75,101.72,33.0,23.0,160,4,,6.21,29.763779,,,,,,TRUE,,,,,SCT,1800,,,,,,,VFR,,,,,,,,,,,,METAR,21.0
WMKJ 060700Z 19005KT 100V260 9999 FEW018 31/25 Q1007,WMKJ,2023-06-06T07:00:00Z,1.63,103.67,31.0,25.0,190,5,,6.21,29.734253,,,,,,,,,,,FEW,1800,,,,,,,VFR,,,,,,,,,,,,METAR,38.0
WMKI 060700Z 21005KT 160V280 9999 FEW020 33/26 Q1007,WMKI,2023-06-06T07:00:00Z,4.57,101.08,33.0,26.0,210,5,,6.21,29.734253,,,,,,,,,,,FEW,2000,,,,,,,VFR,,,,,,,,,,,,METAR,37.0
WMKE 060700Z 13007KT 060V190 9999 FEW017 31/26 Q1007,WMKE,2023-06-06T07:00:00Z,4.53,103.43,31.0,26.0,130,7,,6.21,29.734253,,,,,,,,,,,FEW,1700,,,,,,,VFR,,,,,,,,,,,,METAR,5.0
WMKD 060700Z VRB04KT 9999 FEW017CB 31/25 Q1007 NOSIG,WMKD,2023-06-06T07:00:00Z,3.77,103.22,31.0,25.0,0,4,,6.21,29.734253,,,,,,TRUE,,,,,FEW,1700,,,,,,,VFR,,,,,,,,,,,,METAR,18.0
WMKC 060700Z 05007KT 010V070 9999 FEW018 31/26 Q1007,WMKC,2023-06-06T07:00:00Z,6.17,102.28,31.0,26.0,50,7,,6.21,29.734253,,,,,,,,,,,FEW,1800,,,,,,,VFR,,,,,,,,,,,,METAR,7.0
WMKB 060700Z 28006KT 230V340 9999 FEW020 32/25 Q1007 NOSIG,WMKB,2023-06-06T07:00:00Z,5.47,100.38,32.0,25.0,280,6,,6.21,29.734253,,,,,,TRUE,,,,,FEW,2000,,,,,,,VFR,,,,,,,,,,,,METAR,4.0
WMKA 060700Z VRB05KT 9999 FEW020 32/24 Q1008,WMKA,2023-06-06T07:00:00Z,6.2,100.4,32.0,24.0,0,5,,6.21,29.763779,,,,,,,,,,,FEW,2000,,,,,,,VFR,,,,,,,,,,,,METAR,5.0
WMBA 060700Z VRB03KT 9999 FEW021 33/25 Q1007,WMBA,2023-06-06T07:00:00Z,4.22,100.7,33.0,25.0,0,3,,6.21,29.734253,,,,,,,,,,,FEW,2100,,,,,,,VFR,,,,,,,,,,,,METAR,9.0
WMAU 060700Z 08007KT 050V130 9999 SCT020 32/27 Q1008,WMAU,2023-06-06T07:00:00Z,2.38,103.88,32.0,27.0,80,7,,6.21,29.763779,,,,,,,,,,,SCT,2000,,,,,,,VFR,,,,,,,,,,,,METAR,5.0
WIPP 060700Z 13005KT 110V180 9000 FEW010 31/22 Q1008 NOSIG,WIPP,2023-06-06T07:00:00Z,-2.88,104.7,31.0,22.0,130,5,,5.59,29.763779,,,,,,TRUE,,,,,FEW,1000,,,,,,,VFR,,,,,,,,,,,,METAR,7.0
WIOO 060700Z 17006KT 6000 -RA FEW009CB BKN010 24/24 Q1008 NOSIG,WIOO,2023-06-06T07:00:00Z,-0.15,109.4,24.0,24.0,170,6,,3.73,29.763779,,,,,,TRUE,,,,-RA,FEW,900,BKN,1000,,,,,MVFR,,,,,,,,,,,,METAR,4.0
WIMM 060700Z 04009KT 8000 BKN017 31/26 Q1007 NOSIG,WIMM,2023-06-06T07:00:00Z,3.57,98.67,31.0,26.0,40,9,,4.97,29.734253,,,,,,TRUE,,,,,BKN,1700,,,,,,,MVFR,,,,,,,,,,,,METAR,27.0
WILL 060700Z 12010KT 9999 SCT015 30/24 Q1009 NOSIG,WILL,2023-06-06T07:00:00Z,-5.25,105.18,30.0,24.0,120,10,,6.21,29.793306,,,,,,TRUE,,,,,SCT,1500,,,,,,,VFR,,,,,,,,,,,,METAR,83.0
WIHH 060700Z 02003KT 5000 HZ SCT018 28/23 Q1008 TEMPO FM0730 4000 -RA BKN015 RMK RA TO NE AND SE METAR ,WIHH,2023-06-06T07:00:00Z,-6.27,106.88,28.0,23.0,20,3,,3.11,29.763779,,,,,,,,,,HZ,SCT,1800,,,,,,,MVFR,,,,,,,,,,,,SPECI,26.0
WIEE 060700Z VRB04KT 9999 FEW020 30/25 Q1009 NOSIG,WIEE,2023-06-06T07:00:00Z,-0.78,100.28,30.0,25.0,0,4,,6.21,29.793306,,,,,,TRUE,,,,,FEW,2000,,,,,,,VFR,,,,,,,,,,,,METAR,5.0
WIDN 060700Z 17005KT 9999 FEW017 28/26 Q1009 NOSIG,WIDN,2023-06-06T07:00:00Z,0.92,104.53,28.0,26.0,170,5,,6.21,29.793306,,,,,,TRUE,,,,,FEW,1700,,,,,,,VFR,,,,,,,,,,,,METAR,18.0
WIDD 060700Z 20006KT 9999 SCT014 30/25 Q1010 NOSIG,WIDD,2023-06-06T07:00:00Z,1.12,104.12,30.0,25.0,200,6,,6.21,29.822834,,,,,,TRUE,,,,,SCT,1400,,,,,,,VFR,,,,,,,,,,,,METAR,26.0
WBSB 060700Z 25009KT 9999 SCT015 FEW016CB BKN300 32/27 Q1008 NOSIG,WBSB,2023-06-06T07:00:00Z,4.93,114.92,32.0,27.0,250,9,,6.21,29.763779,,,,,,TRUE,,,,,SCT,1500,FEW,1600,BKN,30000,,,VFR,,,,,,,,,,,,METAR,15.0
WBKW 060700Z 20005KT 120V270 9999 SCT015 31/26 Q1007,WBKW,2023-06-06T07:00:00Z,4.32,118.12,31.0,26.0,200,5,,6.21,29.734253,,,,,,,,,,,SCT,1500,,,,,,,VFR,,,,,,,,,,,,METAR,17.0
WBKT 060700Z 24007KT 160V300 9999 FEW015 32/25 Q1007,WBKT,2023-06-06T07:00:00Z,6.92,116.83,32.0,25.0,240,7,,6.21,29.734253,,,,,,,,,,,FEW,1500,,,,,,,VFR,,,,,,,,,,,,METAR,11.0
WBKS 060700Z 04005KT 350V070 9999 TS FEW016 FEW017CB 31/26 Q1007,WBKS,2023-06-06T07:00:00Z,5.9,118.07,31.0,26.0,40,5,,6.21,29.734253,,,,,,,,,,TS,FEW,1600,FEW,1700,,,,,VFR,,,,,,,,,,,,METAR,13.0
WBKL 060700Z 27004KT 200V340 9999 FEW015 31/23 Q1008,WBKL,2023-06-06T07:00:00Z,5.3,115.25,31.0,23.0,270,4,,6.21,29.763779,,,,,,,,,,,FEW,1500,,,,,,,VFR,,,,,,,,,,,,METAR,29.0
WBKK 060700Z VRB03KT 9999 FEW014 33/25 Q1008 NOSIG,WBKK,2023-06-06T07:00:00Z,5.93,116.05,33.0,25.0,0,3,,6.21,29.763779,,,,,,TRUE,,,,,FEW,1400,,,,,,,VFR,,,,,,,,,,,,METAR,9.0
WBGY 060700Z 18005KT 110V230 9999 SCT022 32/26 Q1007,WBGY,2023-06-06T07:00:00Z,1.22,111.45,32.0,26.0,180,5,,6.21,29.734253,,,,,,,,,,,SCT,2200,,,,,,,VFR,,,,,,,,,,,,METAR,13.0
WBGS 060700Z VRB01KT 9999 SCT017 32/24 Q1008,WBGS,2023-06-06T07:00:00Z,2.27,111.98,32.0,24.0,0,1,,6.21,29.763779,,,,,,,,,,,SCT,1700,,,,,,,VFR,,,,,,,,,,,,METAR,26.0
WBGR 060700Z 27005KT 180V350 9999 FEW016 33/25 Q1008,WBGR,2023-06-06T07:00:00Z,4.32,113.98,33.0,25.0,270,5,,6.21,29.763779,,,,,,,,,,,FEW,1600,,,,,,,VFR,,,,,,,,,,,,METAR,18.0
WBGG 060700Z 30005KT 240V010 9000 -SHRA FEW015CB SCT020 28/26 Q1008 NOSIG,WBGG,2023-06-06T07:00:00Z,1.48,110.35,28.0,26.0,300,5,,5.59,29.763779,,,,,,TRUE,,,,-SHRA,FEW,1500,SCT,2000,,,,,VFR,,,,,,,,,,,,METAR,26.0
WBGB 060700Z 25005KT 9999 SCT014 FEW015CB 34/24 Q1008,WBGB,2023-06-06T07:00:00Z,3.12,113.02,34.0,24.0,250,5,,6.21,29.763779,,,,,,,,,,,SCT,1400,FEW,1500,,,,,VFR,,,,,,,,,,,,METAR,34.0
WAYY 060700Z 17006KT 9999 FEW013CB SCT015 31/28 Q1008 NOSIG RMK CB TO NE,WAYY,2023-06-06T07:00:00Z,-4.53,136.88,31.0,28.0,170,6,,6.21,29.763779,,,,,,TRUE,,,,,FEW,1300,SCT,1500,,,,,VFR,,,,,,,,,,,,METAR,32.0
WATT 060700Z 32010KT 9999 FEW018 30/23 Q1010 NOSIG,WATT,2023-06-06T07:00:00Z,-10.17,123.67,30.0,23.0,320,10,,6.21,29.822834,,,,,,TRUE,,,,,FEW,1800,,,,,,,VFR,,,,,,,,,,,,METAR,104.0
WAQQ 060700Z 22005KT 9999 SCT015 32/24 Q1007 NOSIG,WAQQ,2023-06-06T07:00:00Z,3.33,117.57,32.0,24.0,220,5,,6.21,29.734253,,,,,,TRUE,,,,,SCT,1500,,,,,,,VFR,,,,,,,,,,,,METAR,6.0
WAPP 060700Z 17007KT 130V210 9999 SCT017 31/25 Q1009 NOSIG,WAPP,2023-06-06T07:00:00Z,-3.7,128.08,31.0,25.0,170,7,,6.21,29.793306,,,,,,TRUE,,,,,SCT,1700,,,,,,,VFR,,,,,,,,,,,,METAR,20.0
WAMM 060700Z 22003KT 160V270 8000 FEW019CB 27/26 Q1009 RERA NOSIG RMK CB IN CLIMB,WAMM,2023-06-06T07:00:00Z,1.55,124.92,27.0,26.0,220,3,,4.97,29.793306,,,,,,TRUE,,,,,FEW,1900,,,,,,,MVFR,,,,,,,,,,,,SPECI,86.0
WALL 060700Z 19005KT 9999 FEW020 31/26 Q1007 NOSIG,WALL,2023-06-06T07:00:00Z,-1.27,116.9,31.0,26.0,190,5,,6.21,29.734253,,,,,,TRUE,,,,,FEW,2000,,,,,,,VFR,,,,,,,,,,,,METAR,3.0
WAKK 060700Z 14006KT 8000 FEW011CB BKN015 28/25 Q1008 NOSIG,WAKK,2023-06-06T07:00:00Z,-8.52,140.42,28.0,25.0,140,6,,4.97,29.763779,,,,,,TRUE,,,,,FEW,1100,BKN,1500,,,,,MVFR,,,,,,,,,,,,METAR,5.0
WAHS 060700Z 13005KT 8000 SCT014 33/22 Q1007 NOSIG,WAHS,2023-06-06T07:00:00Z,-6.98,110.38,33.0,22.0,130,5,,4.97,29.734253,,,,,,TRUE,,,,,SCT,1400,,,,,,,MVFR,,,,,,,,,,,,METAR,3.0
WADL 060700Z 14009KT 100V180 9999 SCT016CB 30/22 Q1010 NOSIG,WADL,2023-06-06T07:00:00Z,-8.75,116.28,30.0,22.0,140,9,,6.21,29.822834,,,,,,TRUE,,,,,SCT,1600,,,,,,,VFR,,,,,,,,,,,,METAR,97.0
WADD 060700Z 13009KT 9999 SCT016 29/25 Q1009 NOSIG,WADD,2023-06-06T07:00:00Z,-8.73,115.17,29.0,25.0,130,9,,6.21,29.793306,,,,,,TRUE,,,,,SCT,1600,,,,,,,VFR,,,,,,,,,,,,METAR,3.0
WABB 060700Z 09012KT 180V090 9999 SCT018 SCT100 29/25 Q1007 NOSIG,WABB,2023-06-06T07:00:00Z,-1.18,136.12,29.0,25.0,90,12,,6.21,29.734253,,,,,,TRUE,,,,,SCT,1800,SCT,10000,,,,,VFR,,,,,,,,,,,,METAR,12.0
WAAA 060700Z 29006KT 220V360 9999 FEW019 33/23 Q1007 NOSIG,WAAA,2023-06-06T07:00:00Z,-5.07,119.55,33.0,23.0,290,6,,6.21,29.734253,,,,,,TRUE,,,,,FEW,1900,,,,,,,VFR,,,,,,,,,,,,METAR,13.0
VYYY 060700Z 25004KT 6000 BKN012 FEW018CB OVC100 27/26 Q1003 BECMG 4000 RA,VYYY,2023-06-06T07:00:00Z,16.9,96.13,27.0,26.0,250,4,,3.73,29.616142,,,,,,,,,,,BKN,1200,FEW,1800,OVC,10000,,,MVFR,,,,,,,,,,,,SPECI,31.0
VYNT 060700Z 23010KT 7000 SCT020 FEW025CB SCT120 36/24 Q1003 NOSIG,VYNT,2023-06-06T07:00:00Z,19.62,96.2,36.0,24.0,230,10,,4.35,29.616142,,,,,,TRUE,,,,,SCT,2000,FEW,2500,SCT,12000,,,MVFR,,,,,,,,,,,,METAR,610.0
VVVD 060700Z 12010KT 090V180 CAVOK 33/26 Q1004 NOSIG,VVVD,2023-06-06T07:00:00Z,21.12,107.42,33.0,26.0,120,10,,6.21,29.64567,,,,,,TRUE,,,,,CAVOK,,,,,,,,VFR,,,,,,,,,,,,METAR,8.0
VVTS 060700Z 25013KT 9999 BKN017 32/26 Q1006 NOSIG,VVTS,2023-06-06T07:00:00Z,10.82,106.67,32.0,26.0,250,13,,6.21,29.704725,,,,,,TRUE,,,,,BKN,1700,,,,,,,MVFR,,,,,,,,,,,,METAR,10.0
VVPQ 060700Z 23006KT 9999 SCT015 BKN040 28/25 Q1007 NOSIG,VVPQ,2023-06-06T07:00:00Z,10.23,103.97,28.0,25.0,230,6,,6.21,29.734253,,,,,,TRUE,,,,,SCT,1500,BKN,4000,,,,,VFR,,,,,,,,,,,,METAR,8.0
VVPB 060700Z 02004KT 310V090 9999 FEW015 SCT070 33/25 Q1004 NOSIG,VVPB,2023-06-06T07:00:00Z,16.38,107.7,33.0,25.0,20,4,,6.21,29.64567,,,,,,TRUE,,,,,FEW,1500,SCT,7000,,,,,VFR,,,,,,,,,,,,METAR,15.0
VVNB 060700Z 26010KT 230V290 9999 VCTS FEW026 FEW030CB 30/26 Q1004 BECMG FM0730 NSW,VVNB,2023-06-06T07:00:00Z,21.22,105.8,30.0,26.0,260,10,,6.21,29.64567,,,,,,,,,,VCTS,FEW,2600,FEW,3000,,,,,VFR,,,,,,,,,,,,SPECI,6.0
VVDN 060700Z 07004KT 040V120 8000 FEW015 SCT060 32/25 Q1003 NOSIG,VVDN,2023-06-06T07:00:00Z,16.03,108.2,32.0,25.0,70,4,,4.97,29.616142,,,,,,TRUE,,,,,FEW,1500,SCT,6000,,,,,MVFR,,,,,,,,,,,,METAR,7.0
VVCT 060700Z 22013K 9999 SCT013 FEW015CB BKN050 28/24 Q1007 NOSIG,VVCT,2023-06-06T07:00:00Z,10.08,105.72,28.0,24.0,,,,6.21,29.734253,,,,,,TRUE,,,,,SCT,1300,FEW,1500,BKN,5000,,,VFR,,,,,,,,,,,,METAR,6.0
VVCR 060700Z 16007KT 9999 FEW015 32/23 Q1005 NOSIG,VVCR,2023-06-06T07:00:00Z,12.0,109.22,32.0,23.0,160,7,,6.21,29.675198,,,,,,TRUE,,,,,FEW,1500,,,,,,,VFR,,,,,,,,,,,,METAR,12.0
VVCI 060700Z 15008KT 120V190 9999 FEW019 34/25 Q1003 NOSIG,VVCI,2023-06-06T07:00:00Z,20.82,106.73,34.0,25.0,150,8,,6.21,29.616142,,,,,,TRUE,,,,,FEW,1900,,,,,,,VFR,,,,,,,,,,,,METAR,6.0
VTUW 060700Z 27003KT 190V320 9999 FEW030 33/24 Q1004 NOSIG,VTUW,2023-06-06T07:00:00Z,17.38,104.63,33.0,24.0,270,3,,6.21,29.64567,,,,,,TRUE,,,,,FEW,3000,,,,,,,VFR,,,,,,,,,,,,METAR,167.0
VTUV 060700Z VRB02KT 9999 SCT030 32/25 Q1004 NOSIG,VTUV,2023-06-06T07:00:00Z,16.12,103.78,32.0,25.0,0,2,,6.21,29.64567,,,,,,TRUE,,,,,SCT,3000,,,,,,,VFR,,,,,,,,,,,,METAR,136.0
VTUU 060700Z 23004KT 180V280 9999 SCT015 30/26 Q1005 NOSIG,VTUU,2023-06-06T07:00:00Z,15.25,104.87,30.0,26.0,230,4,,6.21,29.675198,,,,,,TRUE,,,,,SCT,1500,,,,,,,VFR,,,,,,,,,,,,METAR,119.0
VTUQ 060700Z 26006KT 220V320 9000 VCSH FEW020CB SCT025 BKN080 30/24 Q1004 NOSIG,VTUQ,2023-06-06T07:00:00Z,14.95,102.32,30.0,24.0,260,6,,5.59,29.64567,,,,,,TRUE,,,,VCSH,FEW,2000,SCT,2500,BKN,8000,,,VFR,,,,,,,,,,,,METAR,225.0
VTUO 060700Z 03004KT 8000 FEW020TCU BKN025 BKN080 28/26 Q1005 RERA NOSIG,VTUO,2023-06-06T07:00:00Z,15.23,103.25,28.0,26.0,30,4,,4.97,29.675198,,,,,,TRUE,,,,,FEW,2000,BKN,2500,BKN,8000,,,MVFR,,,,,,,,,,,,METAR,182.0
VTUL 060700Z 20005KT 160V250 9999 VCSH FEW015TCU BKN025 BKN070 33/23 Q1004 NOSIG,VTUL,2023-06-06T07:00:00Z,17.43,101.72,33.0,23.0,200,5,,6.21,29.64567,,,,,,TRUE,,,,VCSH,FEW,1500,BKN,2500,BKN,7000,,,MVFR,,,,,,,,,,,,METAR,257.0
VTUK 060700Z 01009KT 330V030 9999 -RA SCT030 BKN100 27/25 Q1005 NOSIG,VTUK,2023-06-06T07:00:00Z,16.47,102.78,27.0,25.0,10,9,,6.21,29.675198,,,,,,TRUE,,,,-RA,SCT,3000,BKN,10000,,,,,VFR,,,,,,,,,,,,METAR,190.0
VTUI 060700Z 12004KT 040V180 9999 BKN020 33/24 Q1004 NOSIG,VTUI,2023-06-06T07:00:00Z,17.2,104.12,33.0,24.0,120,4,,6.21,29.64567,,,,,,TRUE,,,,,BKN,2000,,,,,,,MVFR,,,,,,,,,,,,METAR,162.0
VTUD 060700Z 22009KT 180V250 9999 TS BKN018CB BKN020 29/25 Q1005 TEMPO TL0820 3000 TSRA,VTUD,2023-06-06T07:00:00Z,17.37,102.78,29.0,25.0,220,9,,6.21,29.675198,,,,,,,,,,TS,BKN,1800,BKN,2000,,,,,MVFR,,,,,,,,,,,,METAR,177.0
VTSY 060700Z 23005KT 160V290 9999 FEW035 33/22 Q1008 NOSIG,VTSY,2023-06-06T07:00:00Z,5.78,101.15,33.0,22.0,230,5,,6.21,29.763779,,,,,,TRUE,,,,,FEW,3500,,,,,,,VFR,,,,,,,,,,,,METAR,225.0
VTST 060700Z 26009KT 230V290 9999 FEW030 33/24 Q1007 NOSIG,VTST,2023-06-06T07:00:00Z,7.52,99.62,33.0,24.0,260,9,,6.21,29.734253,,,,,,TRUE,,,,,FEW,3000,,,,,,,VFR,,,,,,,,,,,,METAR,17.0
VTSS 060700Z 25013KT 9999 SCT020 SCT100 34/22 Q1007 NOSIG,VTSS,2023-06-06T07:00:00Z,6.92,100.38,34.0,22.0,250,13,,6.21,29.734253,,,,,,TRUE,,,,,SCT,2000,SCT,10000,,,,,VFR,,,,,,,,,,,,METAR,28.0
VTSR 060700Z 18004KT 9999 BKN020 29/25 Q1008 NOSIG,VTSR,2023-06-06T07:00:00Z,9.78,98.58,29.0,25.0,180,4,,6.21,29.763779,,,,,,TRUE,,,,,BKN,2000,,,,,,,MVFR,,,,,,,,,,,,METAR,23.0
VTSP 060700Z 26016KT 9999 SCT020 BKN080 30/26 Q1008 WS ALL RWY NOSIG,VTSP,2023-06-06T07:00:00Z,8.12,98.32,30.0,26.0,260,16,,6.21,29.763779,,,,,,TRUE,,,,,SCT,2000,BKN,8000,,,,,VFR,,,,,,,,,,,,SPECI,12.0
VTSM 060700Z 27006KT 9999 FEW020 32/24 Q1007 NOSIG,VTSM,2023-06-06T07:00:00Z,9.55,100.07,32.0,24.0,270,6,,6.21,29.734253,,,,,,TRUE,,,,,FEW,2000,,,,,,,VFR,,,,,,,,,,,,METAR,12.0
VTSG 060700Z 25009KT 220V280 9999 FEW020 BKN030 31/25 Q1008 NOSIG,VTSG,2023-06-06T07:00:00Z,8.1,98.98,31.0,25.0,250,9,,6.21,29.763779,,,,,,TRUE,,,,,FEW,2000,BKN,3000,,,,,MVFR,,,,,,,,,,,,METAR,32.0
VTSF 060700Z 21004KT 170V260 9999 VCSH FEW016CB SCT018 BKN100 31/26 Q1007 NOSIG,VTSF,2023-06-06T07:00:00Z,8.53,99.95,31.0,26.0,210,4,,6.21,29.734253,,,,,,TRUE,,,,VCSH,FEW,1600,SCT,1800,BKN,10000,,,VFR,,,,,,,,,,,,METAR,6.0
VTSE 060700Z 26006KT 220V310 9999 FEW020 30/26 Q1006 NOSIG,VTSE,2023-06-06T07:00:00Z,10.72,99.37,30.0,26.0,260,6,,6.21,29.704725,,,,,,TRUE,,,,,FEW,2000,,,,,,,VFR,,,,,,,,,,,,METAR,8.0
VTSC 060700Z 07007KT 040V110 9999 FEW022 32/24 Q1007 NOSIG,VTSC,2023-06-06T07:00:00Z,6.52,101.75,32.0,24.0,70,7,,6.21,29.734253,,,,,,TRUE,,,,,FEW,2200,,,,,,,VFR,,,,,,,,,,,,METAR,5.0
VTSB 060700Z 22009KT 6000 -RA FEW018CB SCT020 28/26 Q1007 NOSIG,VTSB,2023-06-06T07:00:00Z,9.12,99.15,28.0,26.0,220,9,,3.73,29.734253,,,,,,TRUE,,,,-RA,FEW,1800,SCT,2000,,,,,MVFR,,,,,,,,,,,,METAR,10.0
VTPT 060700Z /////KT 9999 SCT026 36/24 Q1003 NOSIG,VTPT,2023-06-06T07:00:00Z,16.88,99.25,36.0,24.0,,,,6.21,29.616142,,,,,,TRUE,,,,,SCT,2600,,,,,,,VFR,,,,,,,,,,,,METAR,148.0
VTPP 060700Z 14003KT 040V200 9999 FEW025 34/23 Q1003 NOSIG,VTPP,2023-06-06T07:00:00Z,16.78,100.28,34.0,23.0,140,3,,6.21,29.616142,,,,,,TRUE,,,,,FEW,2500,,,,,,,VFR,,,,,,,,,,,,METAR,45.0
VTPO 060700Z 08003KT 9999 SCT030 35/24 Q1003 NOSIG,VTPO,2023-06-06T07:00:00Z,17.23,99.82,35.0,24.0,80,3,,6.21,29.616142,,,,,,TRUE,,,,,SCT,3000,,,,,,,VFR,,,,,,,,,,,,METAR,58.0
VTPM 060700Z 27008KT 9999 SCT035 33/24 Q1004 NOSIG,VTPM,2023-06-06T07:00:00Z,16.7,98.53,33.0,24.0,270,8,,6.21,29.64567,,,,,,TRUE,,,,,SCT,3500,,,,,,,VFR,,,,,,,,,,,,METAR,211.0
VTPH 060700Z 19005KT 130V290 9999 SCT030 SCT060 33/24 Q1005 NOSIG,VTPH,2023-06-06T07:00:00Z,12.63,99.95,33.0,24.0,190,5,,6.21,29.675198,,,,,,TRUE,,,,,SCT,3000,SCT,6000,,,,,VFR,,,,,,,,,,,,METAR,12.0
VTPB 060700Z 32007KT 290V350 9000 -RA BKN030 26/26 Q1004 NOSIG,VTPB,2023-06-06T07:00:00Z,16.67,101.2,26.0,26.0,320,7,,5.59,29.64567,,,,,,TRUE,,,,-RA,BKN,3000,,,,,,,MVFR,,,,,,,,,,,,METAR,134.0
VTCT 060700Z VRB05KT 9999 BKN020 30/25 Q1005 NOSIG,VTCT,2023-06-06T07:00:00Z,19.95,99.88,30.0,25.0,0,5,,6.21,29.675198,,,,,,TRUE,,,,,BKN,2000,,,,,,,MVFR,,,,,,,,,,,,METAR,389.0
VTCP 060700Z 18006KT 120V240 9999 VCSH FEW020CB 33/25 Q1004 NOSIG,VTCP,2023-06-06T07:00:00Z,18.13,100.17,33.0,25.0,180,6,,6.21,29.64567,,,,,,TRUE,,,,VCSH,FEW,2000,,,,,,,VFR,,,,,,,,,,,,METAR,166.0
VTCN 060700Z 13009KT 9999 VCSH FEW018CB SCT025 29/25 Q1004 NOSIG,VTCN,2023-06-06T07:00:00Z,18.82,100.78,29.0,25.0,130,9,,6.21,29.64567,,,,,,TRUE,,,,VCSH,FEW,1800,SCT,2500,,,,,VFR,,,,,,,,,,,,METAR,211.0
VTCL 060700Z 14005KT 050V180 9999 SCT025 BKN100 33/24 Q1004 NOSIG,VTCL,2023-06-06T07:00:00Z,18.27,99.52,33.0,24.0,140,5,,6.21,29.64567,,,,,,TRUE,,,,,SCT,2500,BKN,10000,,,,,VFR,,,,,,,,,,,,METAR,240.0
VTCH 060700Z VRB03KT 9999 FEW020TCU SCT025 36/21 Q1003 NOSIG,VTCH,2023-06-06T07:00:00Z,19.3,97.98,36.0,21.0,0,3,,6.21,29.616142,,,,,,TRUE,,,,,FEW,2000,SCT,2500,,,,,VFR,,,,,,,,,,,,METAR,266.0
VTCC 060700Z 14015KT 9999 4800E -RA FEW025CB BKN035 30/22 Q1005 TEMPO TL0730 4000 TSRA,VTCC,2023-06-06T07:00:00Z,18.77,98.97,30.0,22.0,140,15,,6.21,29.675198,,,,,,,,,,-RA,FEW,2500,BKN,3500,,,,,VFR,,,,,,,,,,,,SPECI,308.0
VTBU 060700Z 22010KT 9999 FEW020 31/25 Q1006 NOSIG,VTBU,2023-06-06T07:00:00Z,12.68,101.0,31.0,25.0,220,10,,6.21,29.704725,,,,,,TRUE,,,,,FEW,2000,,,,,,,VFR,,,,,,,,,,,,METAR,12.0
VTBS 060700Z 21013KT 9999 FEW020 SCT035 33/24 Q1004 NOSIG,VTBS,2023-06-06T07:00:00Z,13.68,100.75,33.0,24.0,210,13,,6.21,29.64567,,,,,,TRUE,,,,,FEW,2000,SCT,3500,,,,,VFR,,,,,,,,,,,,METAR,1.0
VTBO 060700Z 22011KT 3000 RA FEW016CB SCT020 BKN100 26/25 Q1008 RERA,VTBO,2023-06-06T07:00:00Z,12.28,102.32,26.0,25.0,220,11,,1.86,29.763779,,,,,,,,,,RA,FEW,1600,SCT,2000,BKN,10000,,,IFR,,,,,,,,,,,,METAR,25.0
VTBD 060700Z 21010KT 170V240 9999 FEW020 SCT030 35/24 Q1004 NOSIG,VTBD,2023-06-06T07:00:00Z,13.92,100.6,35.0,24.0,210,10,,6.21,29.64567,,,,,,TRUE,,,,,FEW,2000,SCT,3000,,,,,VFR,,,,,,,,,,,,METAR,6.0
VRMM 060700Z 25009KT 9999 FEW018 BKN270 33/27 Q1009 Q1009 NOSIG,VRMM,2023-06-06T07:00:00Z,4.2,73.52,33.0,27.0,250,9,,6.21,29.793306,,,,,,TRUE,,,,,FEW,1800,BKN,27000,,,,,VFR,,,,,,,,,,,,METAR,2.0
"VRMH 060700Z 25010KT 9999 FEW018 FEW019CB BKN260 31/27 Q1010 CB WSW,WNW,NW",VRMH,2023-06-06T07:00:00Z,6.75,73.17,31.0,27.0,250,10,,6.21,29.822834,,,,,,,,,,,FEW,1800,FEW,1900,BKN,26000,,,VFR,,,,,,,,,,,,METAR,1.0
VRMG 060700Z 17007KT 9999 FEW018 SCT260 31/25 Q1011 NOSIG,VRMG,2023-06-06T07:00:00Z,-0.7,73.15,31.0,25.0,170,7,,6.21,29.852362,,,,,,TRUE,,,,,FEW,1800,SCT,26000,,,,,VFR,,,,,,,,,,,,METAR,2.0
VQPR 060700Z 15017KT 9999 SCT040 SCT080 28/07 Q1015,VQPR,2023-06-06T07:00:00Z,27.4,89.43,28.0,7.0,150,17,,6.21,29.970472,,,,,,,,,,,SCT,4000,SCT,8000,,,,,VFR,,,,,,,,,,,,METAR,2227.0
VOVZ 060700Z 21006KT 4000 HZ FEW018 SCT080 37/25 Q1002 NOSIG,VOVZ,2023-06-06T07:00:00Z,17.72,83.22,37.0,25.0,210,6,,2.49,29.586615,,,,,,TRUE,,,,HZ,FEW,1800,SCT,8000,,,,,IFR,,,,,,,,,,,,METAR,4.0
VOTR 060700Z 26012KT 8000 FEW016 37/23 Q1006 NOSIG,VOTR,2023-06-06T07:00:00Z,10.77,78.72,37.0,23.0,260,12,,4.97,29.704725,,,,,,TRUE,,,,,FEW,1600,,,,,,,MVFR,,,,,,,,,,,,METAR,90.0
VOTP 060700Z 30014G27KT 6000 FEW020 38/20 Q1004 NOSIG,VOTP,2023-06-06T07:00:00Z,13.63,79.55,38.0,20.0,300,14,27,3.73,29.64567,,,,,,TRUE,,,,,FEW,2000,,,,,,,MVFR,,,,,,,,,,,,METAR,103.0
VOTK 060700Z 25008KT 6000 FEW020 SCT100 36/24 Q1006 NOSIG,VOTK,2023-06-06T07:00:00Z,8.72,78.02,36.0,24.0,250,8,,3.73,29.704725,,,,,,TRUE,,,,,FEW,2000,SCT,10000,,,,,MVFR,,,,,,,,,,,,METAR,25.0
VOSR 060700Z 27012KT 5000 FU SCT025 SCT090 34/21 Q1008 NOSIG,VOSR,2023-06-06T07:00:00Z,16.0,73.53,34.0,21.0,270,12,,3.11,29.763779,,,,,,TRUE,,,,FU,SCT,2500,SCT,9000,,,,,MVFR,,,,,,,,,,,,METAR,62.0
VOSM 060700Z 29005KT 7000 FEW020 35/15 Q1007 NOSIG,VOSM,2023-06-06T07:00:00Z,11.78,78.07,35.0,15.0,290,5,,4.35,29.734253,,,,,,TRUE,,,,,FEW,2000,,,,,,,MVFR,,,,,,,,,,,,METAR,301.0
VOPC 060700Z 27004KT 7000 SCT020 37/24 Q1006 NOSIG,VOPC,2023-06-06T07:00:00Z,11.97,79.82,37.0,24.0,270,4,,4.35,29.704725,,,,,,TRUE,,,,,SCT,2000,,,,,,,MVFR,,,,,,,,,,,,METAR,43.0
VOND 060700Z 35003KT 9000 NSC 38/18 Q1007 NOSIG,VOND,2023-06-06T07:00:00Z,19.18,77.32,38.0,18.0,350,3,,5.59,29.734253,,,,,,TRUE,,,,,CLR,,,,,,,,VFR,,,,,,,,,,,,METAR,86.0
VOMY 060700Z 23006KT CAVOK 31/19 Q1012,VOMY,2023-06-06T07:00:00Z,12.23,76.65,31.0,19.0,230,6,,6.21,29.88189,,,,,,,,,,,CAVOK,,,,,,,,VFR,,,,,,,,,,,,METAR,727.0
VOMD 060700Z 24008KT 7000 NSC 37/23 Q1007 NOSIG,VOMD,2023-06-06T07:00:00Z,9.83,78.08,37.0,23.0,240,8,,4.35,29.734253,,,,,,TRUE,,,,,CLR,,,,,,,,MVFR,,,,,,,,,,,,METAR,135.0
VOKU 060700Z 29012KT 6000 FEW020 36/18 Q1007 NOSIG,VOKU,2023-06-06T07:00:00Z,15.72,78.17,36.0,18.0,290,12,,3.73,29.734253,,,,,,TRUE,,,,,FEW,2000,,,,,,,MVFR,,,,,,,,,,,,METAR,280.0
VOKN 060700Z 31003KT 8000 SCT012 FEW025TCU 34/25 Q1008 NOSIG,VOKN,2023-06-06T07:00:00Z,11.92,75.55,34.0,25.0,310,3,,4.97,29.763779,,,,,,TRUE,,,,,SCT,1200,FEW,2500,,,,,MVFR,,,,,,,,,,,,METAR,105.0
VOJV 060700Z 30012KT 8000 FEW015 33/21 Q1010,VOJV,2023-06-06T07:00:00Z,15.17,76.63,33.0,21.0,300,12,,4.97,29.822834,,,,,,,,,,,FEW,1500,,,,,,,MVFR,,,,,,,,,,,,METAR,508.0
VOHY 060700Z 30010KT 6000 FEW020 SCT025 36/19 Q1009 NOSIG,VOHY,2023-06-06T07:00:00Z,17.45,78.47,36.0,19.0,300,10,,3.73,29.793306,,,,,,TRUE,,,,,FEW,2000,SCT,2500,,,,,MVFR,,,,,,,,,,,,METAR,540.0
VOHS 060700Z 27015KT 6000 SCT020 35/21 Q1010 NOSIG,VOHS,2023-06-06T07:00:00Z,17.23,78.43,35.0,21.0,270,15,,3.73,29.822834,,,,,,TRUE,,,,,SCT,2000,,,,,,,MVFR,,,,,,,,,,,,METAR,607.0
VOGO 060700Z 29010KT 6000 FEW020 34/22 Q1007 NOSIG,VOGO,2023-06-06T07:00:00Z,15.38,73.83,34.0,22.0,290,10,,3.73,29.734253,,,,,,TRUE,,,,,FEW,2000,,,,,,,MVFR,,,,,,,,,,,,METAR,56.0
VOGB 060700Z 31004KT 8000 SCT020 37/24 Q1008,VOGB,2023-06-06T07:00:00Z,17.35,76.85,37.0,24.0,310,4,,4.97,29.763779,,,,,,,,,,,SCT,2000,,,,,,,MVFR,,,,,,,,,,,,METAR,458.0
VOCI 060700Z 29006KT 5000 HZ SCT015 SCT080 33/26 Q1008 NOSIG,VOCI,2023-06-06T07:00:00Z,10.15,76.4,33.0,26.0,290,6,,3.11,29.763779,,,,,,TRUE,,,,HZ,SCT,1500,SCT,8000,,,,,MVFR,,,,,,,,,,,,METAR,8.0
VOBZ 060700Z 33008KT 8000 NSC 41/22 Q1002 NOSIG,VOBZ,2023-06-06T07:00:00Z,16.52,80.78,41.0,22.0,330,8,,4.97,29.586615,,,,,,TRUE,,,,,CLR,,,,,,,,MVFR,,,,,,,,,,,,METAR,26.0
VOBM 060700Z 30006KT CAVOK 33/18 Q1013,VOBM,2023-06-06T07:00:00Z,15.85,74.62,33.0,18.0,300,6,,6.21,29.911417,,,,,,,,,,,CAVOK,,,,,,,,VFR,,,,,,,,,,,,METAR,758.0
VOBG 060700Z 29007KT 9999 SCT012 32/22 Q1013 NOSIG,VOBG,2023-06-06T07:00:00Z,12.95,77.65,32.0,22.0,290,7,,6.21,29.911417,,,,,,TRUE,,,,,SCT,1200,,,,,,,VFR,,,,,,,,,,,,METAR,884.0
VOAT 060700Z 23005KT 6000 SCT015 SCT020 BKN080 32/26 Q1009 NOSIG,VOAT,2023-06-06T07:00:00Z,10.82,72.18,32.0,26.0,230,5,,3.73,29.793306,,,,,,TRUE,,,,,SCT,1500,SCT,2000,BKN,8000,,,MVFR,,,,,,,,,,,,METAR,5.0
VOAR 060700Z 23010KT 6000 SCT014 BKN080 30/25 Q1005 TEMPO -RA/DZ,VOAR,2023-06-06T07:00:00Z,13.07,79.68,30.0,25.0,230,10,,3.73,29.675198,,,,,,,,,,,SCT,1400,BKN,8000,,,,,MVFR,,,,,,,,,,,,METAR,81.0
VMMC 060700Z 19013KT 6000 SHRA FEW006 SCT018 BKN035 27/25 Q1006 NOSIG,VMMC,2023-06-06T07:00:00Z,22.15,113.58,27.0,25.0,190,13,,3.73,29.704725,,,,,,TRUE,,,,SHRA,FEW,600,SCT,1800,BKN,3500,,,MVFR,,,,,,,,,,,,METAR,1.0
VISM 060700Z 27009KT 5000 FEW030 FEW060 25/12 Q1016,VISM,2023-06-06T07:00:00Z,31.08,77.07,25.0,12.0,270,9,,3.11,30.0,,,,,,,,,,,FEW,3000,FEW,6000,,,,,MVFR,,,,,,,,,,,,METAR,1537.0
VIPT 060700Z 28006KT 5000 HZ FEW030 34/17 Q1005,VIPT,2023-06-06T07:00:00Z,29.03,79.47,34.0,17.0,280,6,,3.11,29.675198,,,,,,,,,,HZ,FEW,3000,,,,,,,MVFR,,,,,,,,,,,,METAR,236.0
VILK 060700Z 29008KT 5000 HZ NSC 37/22 Q1003 NOSIG,VILK,2023-06-06T07:00:00Z,26.75,80.88,37.0,22.0,290,8,,3.11,29.616142,,,,,,TRUE,,,,HZ,CLR,,,,,,,,MVFR,,,,,,,,,,,,METAR,121.0
VIGG 060700Z 00000KT 6000 FEW035 FEW040CB 30/17 Q1010,VIGG,2023-06-06T07:00:00Z,32.17,76.25,30.0,17.0,0,0,,3.73,29.822834,,,,,,,,,,,FEW,3500,FEW,4000,,,,,MVFR,,,,,,,,,,,,METAR,760.0
VIDP 060700Z 25004KT 5000 HZ FEW100 36/17 Q1006 NOSIG,VIDP,2023-06-06T07:00:00Z,28.57,77.12,36.0,17.0,250,4,,3.11,29.704725,,,,,,TRUE,,,,HZ,FEW,10000,,,,,,,MVFR,,,,,,,,,,,,METAR,236.0
VIDN 060700Z 32010KT 6000 FEW030 32/12 Q1008,VIDN,2023-06-06T07:00:00Z,30.2,78.18,32.0,12.0,320,10,,3.73,29.763779,,,,,,,,,,,FEW,3000,,,,,,,MVFR,,,,,,,,,,,,METAR,550.0
VIBR 060700Z 10002KT 7000 SCT030 26/13 Q1012,VIBR,2023-06-06T07:00:00Z,31.82,77.15,26.0,13.0,100,2,,4.35,29.88189,,,,,,,,,,,SCT,3000,,,,,,,MVFR,,,,,,,,,,,,METAR,1089.0
VGEG 060700Z 30012KT 5000 HZ SCT018 FEW030CB BKN100 34/25 Q1001 NOSIG,VGEG,2023-06-06T07:00:00Z,22.23,91.82,34.0,25.0,300,12,,3.11,29.557087,,,,,,TRUE,,,,HZ,SCT,1800,FEW,3000,BKN,10000,,,MVFR,,,,,,,,,,,,METAR,7.0
VEMR 060700Z 30002KT 3000 HZ SCT020 BKN100 35/21 Q1002 BECMG 5000 HZ,VEMR,2023-06-06T07:00:00Z,25.88,93.77,35.0,21.0,300,2,,1.86,29.586615,,,,,,,,,,HZ,SCT,2000,BKN,10000,,,,,IFR,,,,,,,,,,,,METAR,147.0
VELR 060700Z 22004KT 4000 HZ FEW025 SCT090 36/27 Q1002,VELR,2023-06-06T07:00:00Z,27.3,94.1,36.0,27.0,220,4,,2.49,29.586615,,,,,,,,,,HZ,FEW,2500,SCT,9000,,,,,IFR,,,,,,,,,,,,METAR,101.0
VELP 060700Z 01004KT 4000 HZ FEW020 34/25 Q1004 NOSIG,VELP,2023-06-06T07:00:00Z,23.83,92.62,34.0,25.0,10,4,,2.49,29.64567,,,,,,TRUE,,,,HZ,FEW,2000,,,,,,,IFR,,,,,,,,,,,,METAR,429.0
VEKI 060700Z VRB03KT 5000 HZ SCT025 SCT200 39/14 Q1002 NOSIG,VEKI,2023-06-06T07:00:00Z,26.78,83.88,39.0,14.0,0,3,,3.11,29.586615,,,,,,TRUE,,,,HZ,SCT,2500,SCT,20000,,,,,MVFR,,,,,,,,,,,,METAR,81.0
VEJS 060700Z 00000KT 5000 HZ NSC 40/20 Q1002,VEJS,2023-06-06T07:00:00Z,22.82,86.17,40.0,20.0,0,0,,3.11,29.586615,,,,,,,,,,HZ,CLR,,,,,,,,MVFR,,,,,,,,,,,,METAR,151.0
VEJH 060700Z 11004KT 4000 HZ FEW020 41/17 Q1003,VEJH,2023-06-06T07:00:00Z,21.92,84.03,41.0,17.0,110,4,,2.49,29.616142,,,,,,,,,,HZ,FEW,2000,,,,,,,IFR,,,,,,,,,,,,METAR,231.0
VEGY 060700Z 00000KT 6000 FEW020 41/16 Q1002,VEGY,2023-06-06T07:00:00Z,24.75,84.95,41.0,16.0,0,0,,3.73,29.586615,,,,,,,,,,,FEW,2000,,,,,,,MVFR,,,,,,,,,,,,METAR,115.0
VEGT 060700Z 30006KT 4000 HZ SCT018 SCT100 37/28 Q1001 NOSIG,VEGT,2023-06-06T07:00:00Z,26.1,91.58,37.0,28.0,300,6,,2.49,29.557087,,,,,,TRUE,,,,HZ,SCT,1800,SCT,10000,,,,,IFR,,,,,,,,,,,,METAR,50.0
VECO 060700Z 11003KT 4500 HZ FEW025 35/28 Q1001 NOSIG,VECO,2023-06-06T07:00:00Z,26.33,89.47,35.0,28.0,110,3,,2.8,29.557087,,,,,,TRUE,,,,HZ,FEW,2500,,,,,,,IFR,,,,,,,,,,,,METAR,48.0
VECC 060700Z 23005KT 3200 HZ SCT020 38/26 Q1002 NOSIG,VECC,2023-06-06T07:00:00Z,22.65,88.43,38.0,26.0,230,5,,1.99,29.586615,,,,,,TRUE,,,,HZ,SCT,2000,,,,,,,IFR,,,,,,,,,,,,METAR,11.0
VEBU 060700Z 29005KT 6000 FEW020 39/17 Q1004 NOSIG,VEBU,2023-06-06T07:00:00Z,21.98,82.12,39.0,17.0,290,5,,3.73,29.64567,,,,,,TRUE,,,,,FEW,2000,,,,,,,MVFR,,,,,,,,,,,,METAR,274.0
VEBS 060700Z 28007KT 5000 HZ FEW020 38/26 Q1003 NOSIG,VEBS,2023-06-06T07:00:00Z,20.25,85.82,38.0,26.0,280,7,,3.11,29.616142,,,,,,TRUE,,,,HZ,FEW,2000,,,,,,,MVFR,,,,,,,,,,,,METAR,42.0
VEBN 060700Z 31006KT 5000 HZ NSC 40/18 Q1003 NOSIG,VEBN,2023-06-06T07:00:00Z,25.45,82.85,40.0,18.0,310,6,,3.11,29.616142,,,,,,TRUE,,,,HZ,CLR,,,,,,,,MVFR,,,,,,,,,,,,METAR,81.0
VEAT 060700Z 01005KT 5000 HZ FEW020 SCT025 37/27 Q1002 NOSIG,VEAT,2023-06-06T07:00:00Z,23.88,91.25,37.0,27.0,10,5,,3.11,29.586615,,,,,,TRUE,,,,HZ,FEW,2000,SCT,2500,,,,,MVFR,,,,,,,,,,,,METAR,20.0
VDSV 060700Z 28009KT 9999 SCT015 BKN040 30/26 Q1006,VDSV,2023-06-06T07:00:00Z,10.58,103.63,30.0,26.0,280,9,,6.21,29.704725,,,,,,,,,,,SCT,1500,BKN,4000,,,,,VFR,,,,,,,,,,,,METAR,1.0
VDSR 060700Z 20011KT 170V240 7000 -RA SCT015 FEW017CB BKN040 27/24 Q1005 RMK CB:S/SW,VDSR,2023-06-06T07:00:00Z,13.42,103.8,27.0,24.0,200,11,,4.35,29.675198,,,,,,,,,,-RA,SCT,1500,FEW,1700,BKN,4000,,,MVFR,,,,,,,,,,,,SPECI,16.0
VDPP 060700Z 21010KT 9999 SCT015 SCT040 33/25 Q1004,VDPP,2023-06-06T07:00:00Z,11.55,104.83,33.0,25.0,210,10,,6.21,29.64567,,,,,,,,,,,SCT,1500,SCT,4000,,,,,VFR,,,,,,,,,,,,METAR,10.0
VAUD 060700Z 07003KT 6000 NSC 36/18 Q1008 NOSIG,VAUD,2023-06-06T07:00:00Z,24.62,73.9,36.0,18.0,70,3,,3.73,29.763779,,,,,,TRUE,,,,,CLR,,,,,,,,MVFR,,,,,,,,,,,,METAR,506.0
VASU 060700Z 21010KT 6000 FEW025 SCT030 33/24 Q1007 NOSIG,VASU,2023-06-06T07:00:00Z,21.12,72.73,33.0,24.0,210,10,,3.73,29.734253,,,,,,TRUE,,,,,FEW,2500,SCT,3000,,,,,MVFR,,,,,,,,,,,,METAR,6.0
VASD 060700Z 33011KT 6000 SCT025 35/18 Q1010 NOSIG,VASD,2023-06-06T07:00:00Z,19.68,74.38,35.0,18.0,330,11,,3.73,29.822834,,,,,,TRUE,,,,,SCT,2500,,,,,,,MVFR,,,,,,,,,,,,METAR,587.0
VARK 060700Z 23012KT 6000 NSC 38/22 Q1006 NOSIG,VARK,2023-06-06T07:00:00Z,22.3,70.77,38.0,22.0,230,12,,3.73,29.704725,,,,,,TRUE,,,,,CLR,,,,,,,,MVFR,,,,,,,,,,,,METAR,125.0
VAKP 060700Z 27006KT 8000 FEW100 33/18 Q1011,VAKP,2023-06-06T07:00:00Z,16.65,74.28,33.0,18.0,270,6,,4.97,29.852362,,,,,,,,,,,FEW,10000,,,,,,,MVFR,,,,,,,,,,,,METAR,612.0
VAJL 060700Z 29008KT 7000 SCT020 36/24 Q1006 NOSIG,VAJL,2023-06-06T07:00:00Z,20.97,75.63,36.0,24.0,290,8,,4.35,29.704725,,,,,,TRUE,,,,,SCT,2000,,,,,,,MVFR,,,,,,,,,,,,METAR,257.0
VAJJ 060700Z 25007KT 5000 HZ SCT020 32/25 Q1008 NOSIG,VAJJ,2023-06-06T07:00:00Z,19.08,72.83,32.0,25.0,250,7,,3.11,29.763779,,,,,,TRUE,,,,HZ,SCT,2000,,,,,,,MVFR,,,,,,,,,,,,METAR,1.0
VAJB 060700Z 31007KT 6000 FEW030 39/17 Q1006 NOSIG,VAJB,2023-06-06T07:00:00Z,23.18,80.05,39.0,17.0,310,7,,3.73,29.704725,,,,,,TRUE,,,,,FEW,3000,,,,,,,MVFR,,,,,,,,,,,,METAR,489.0
VAID 060700Z 32006KT 7000 FEW025 SCT030 36/20 Q1009 NOSIG,VAID,2023-06-06T07:00:00Z,22.72,75.8,36.0,20.0,320,6,,4.35,29.793306,,,,,,TRUE,,,,,FEW,2500,SCT,3000,,,,,MVFR,,,,,,,,,,,,METAR,564.0
VABV 060700Z 08014KT 6000 FEW025 34/26 Q1006 BECMG 14018KT,VABV,2023-06-06T07:00:00Z,21.75,72.2,34.0,26.0,80,14,,3.73,29.704725,,,,,,,,,,,FEW,2500,,,,,,,MVFR,,,,,,,,,,,,METAR,8.0
VABO 060700Z 22009KT 6000 SCT020 SCT080 36/25 Q1006 NOSIG,VABO,2023-06-06T07:00:00Z,22.33,73.22,36.0,25.0,220,9,,3.73,29.704725,,,,,,TRUE,,,,,SCT,2000,SCT,8000,,,,,MVFR,,,,,,,,,,,,METAR,36.0
UWWW 060700Z 03003MPS 350V070 9999 SCT033 15/05 Q1016 R33/CLRD60 NOSIG RMK QFE751/1002,UWWW,2023-06-06T07:00:00Z,53.5,50.17,15.0,5.0,30,6,,6.21,30.0,,,,,,TRUE,,,,,SCT,3300,,,,,,,VFR,,,,,,,,,,,,SPECI,124.0
UWUU 060700Z 33005MPS 9999 BKN040CB 16/11 Q1012 R32L/290146 NOSIG,UWUU,2023-06-06T07:00:00Z,54.57,55.87,16.0,11.0,330,10,,6.21,29.88189,,,,,,TRUE,,,,,BKN,4000,,,,,,,VFR,,,,,,,,,,,,SPECI,137.0
UWSG 060700Z 34007MPS CAVOK 21/07 Q1018 R08/CLRD70 NOSIG RMK QFE761/1014,UWSG,2023-06-06T07:00:00Z,51.72,46.17,21.0,7.0,340,14,,6.21,30.059055,,,,,,TRUE,,,,,CAVOK,,,,,,,,VFR,,,,,,,,,,,,METAR,31.0
UWPS 060700Z 28001MPS 9999 BKN033 18/08 Q1019 R20/CLRD60 NOSIG RMK QFE746,UWPS,2023-06-06T07:00:00Z,54.12,45.2,18.0,8.0,280,2,,6.21,30.088583,,,,,,TRUE,,,,,BKN,3300,,,,,,,VFR,,,,,,,,,,,,METAR,206.0
UWOR 060700Z 31003MPS 280V350 CAVOK 28/16 Q1010 R25/CLRD65 NOSIG RMK QFE734/0979,UWOR,2023-06-06T07:00:00Z,51.07,58.6,28.0,16.0,310,6,,6.21,29.822834,,,,,,TRUE,,,,,CAVOK,,,,,,,,VFR,,,,,,,,,,,,SPECI,270.0
UWOO 060700Z VRB01MPS 9999 SCT040CB 27/14 Q1009 R08/60D NOSIG RMK QFE746/0995,UWOO,2023-06-06T07:00:00Z,51.8,55.47,27.0,14.0,0,2,,6.21,29.793306,,,,,,TRUE,,,,,SCT,4000,,,,,,,VFR,,,,,,,,,,,,METAR,90.0
UWLW 060700Z 33005MPS 300V360 CAVOK 18/06 Q1017 R02/CLRD60 NOSIG RMK QFE756/1008,UWLW,2023-06-06T07:00:00Z,54.4,48.8,18.0,6.0,330,10,,6.21,30.029528,,,,,,TRUE,,,,,CAVOK,,,,,,,,VFR,,,,,,,,,,,,SPECI,67.0
UWLL 060700Z 03004MPS 340V060 9999 SCT040 18/04 Q1017 R02/090065 NOSIG RMK QFE751/1001,UWLL,2023-06-06T07:00:00Z,54.27,48.23,18.0,4.0,30,8,,6.21,30.029528,,,,,,TRUE,,,,,SCT,4000,,,,,,,VFR,,,,,,,,,,,,SPECI,119.0
UWKS 060700Z 28004MPS 9999 SCT030 18/06 Q1017 R24/010060 NOSIG RMK QFE749,UWKS,2023-06-06T07:00:00Z,56.08,47.35,18.0,6.0,280,8,,6.21,30.029528,,,,,,TRUE,,,,,SCT,3000,,,,,,,VFR,,,,,,,,,,,,METAR,165.0
UWKE 060700Z 36003MPS CAVOK 14/09 Q1016 R21/090070 NOSIG RMK QFE745/0994,UWKE,2023-06-06T07:00:00Z,55.57,52.08,14.0,9.0,360,6,,6.21,30.0,,,,,,TRUE,,,,,CAVOK,,,,,,,,VFR,,,,,,,,,,,,SPECI,193.0
UWKD 060700Z 32004MPS 280V360 CAVOK 18/03 Q1017 R29/70D NOSIG RMK QFE752/1002,UWKD,2023-06-06T07:00:00Z,55.62,49.28,18.0,3.0,320,8,,6.21,30.029528,,,,,,TRUE,,,,,CAVOK,,,,,,,,VFR,,,,,,,,,,,,METAR,114.0
UWGG 060700Z VRB02G07MPS 9999 BKN040 18/06 Q1018 R36R/090070 NOSIG,UWGG,2023-06-06T07:00:00Z,56.23,43.78,18.0,6.0,0,4,14,6.21,30.059055,,,,,,TRUE,,,,,BKN,4000,,,,,,,VFR,,,,,,,,,,,,METAR,73.0
UUYY 060700Z 21006MPS 9999 FEW016CB BKN029 15/08 Q1010 R18/CLRD61 NOSIG RMK QFE749/0999,UUYY,2023-06-06T07:00:00Z,61.65,50.83,15.0,8.0,210,12,,6.21,29.822834,,,,,,TRUE,,,,,FEW,1600,BKN,2900,,,,,MVFR,,,,,,,,,,,,METAR,107.0
UUWW 060700Z 29004MPS 9999 FEW040 16/04 Q1021 R01/000065 NOSIG,UUWW,2023-06-06T07:00:00Z,55.6,37.27,16.0,4.0,290,8,,6.21,30.147638,,,,,,TRUE,,,,,FEW,4000,,,,,,,VFR,,,,,,,,,,,,METAR,195.0
UUOO 060700Z 30003MPS CAVOK 19/06 Q1022 R30/010070 NOSIG RMK QFE753,UUOO,2023-06-06T07:00:00Z,51.82,39.23,19.0,6.0,300,6,,6.21,30.177166,,,,,,TRUE,,,,,CAVOK,,,,,,,,VFR,,,,,,,,,,,,METAR,154.0
UUOL 060700Z 29004MPS CAVOK 19/06 Q1021 R33/////// NOSIG,UUOL,2023-06-06T07:00:00Z,52.7,39.53,19.0,6.0,290,8,,6.21,30.147638,,,,,,TRUE,,,,,CAVOK,,,,,,,,VFR,,,,,,,,,,,,METAR,176.0
UUOK 060700Z 28003MPS CAVOK 20/05 Q1022 R30/090060 NOSIG RMK QFE748/0997,UUOK,2023-06-06T07:00:00Z,51.75,36.28,20.0,5.0,280,6,,6.21,30.177166,,,,,,TRUE,,,,,CAVOK,,,,,,,,VFR,,,,,,,,,,,,METAR,203.0
UUOB 060700Z 25003MPS 200V300 CAVOK 20/03 Q1023 R29/010070 NOSIG,UUOB,2023-06-06T07:00:00Z,50.65,36.58,20.0,3.0,250,6,,6.21,30.206694,,,,,,TRUE,,,,,CAVOK,,,,,,,,VFR,,,,,,,,,,,,METAR,218.0
UUMO 060700Z 29004MPS 250V350 9999 SCT044 16/06 Q1021 R25/CLRD60 NOSIG RMK QFE750/1000,UUMO,2023-06-06T07:00:00Z,55.52,37.5,16.0,6.0,290,8,,6.21,30.147638,,,,,,TRUE,,,,,SCT,4400,,,,,,,VFR,,,,,,,,,,,,METAR,167.0
UUEE 060700Z 28004G10MPS 220V320 9999 SCT043 16/06 Q1020 R24L/CLRD62 R24C/CLRD62 NOSIG,UUEE,2023-06-06T07:00:00Z,55.97,37.42,16.0,6.0,280,8,19,6.21,30.11811,,,,,,TRUE,,,,,SCT,4300,,,,,,,VFR,,,,,,,,,,,,METAR,186.0
UUDL 060700Z 26005MPS CAVOK 17/08 Q1017 R23/010060 NOSIG RMK QFE755,UUDL,2023-06-06T07:00:00Z,57.57,40.17,17.0,8.0,260,10,,6.21,30.029528,,,,,,TRUE,,,,,CAVOK,,,,,,,,VFR,,,,,,,,,,,,METAR,88.0
UUDD 060700Z 30005MPS 270V330 9999 FEW041 16/07 Q1021 R88/60D NOSIG,UUDD,2023-06-06T07:00:00Z,55.4,37.9,16.0,7.0,300,10,,6.21,30.147638,,,,,,TRUE,,,,,FEW,4100,,,,,,,VFR,,,,,,,,,,,,METAR,165.0
UUBW 060700Z 28004MPS 250V320 9999 FEW041 17/06 Q1021 R30/010060 NOSIG RMK QFE755,UUBW,2023-06-06T07:00:00Z,55.55,38.15,17.0,6.0,280,8,,6.21,30.147638,,,,,,TRUE,,,,,FEW,4100,,,,,,,VFR,,,,,,,,,,,,METAR,111.0
UUBP 060700Z 35003MPS 310V020 CAVOK 19/07 Q1022 R34/////// NOSIG RMK QFE749/0998,UUBP,2023-06-06T07:00:00Z,53.22,34.18,19.0,7.0,350,6,,6.21,30.177166,,,,,,TRUE,,,,,CAVOK,,,,,,,,VFR,,,,,,,,,,,,SPECI,197.0
UUBC 060700Z 33003MPS 290V030 9999 BKN047 17/07 Q1022 R31/CLRD60 NOSIG RMK QFE749/0999,UUBC,2023-06-06T07:00:00Z,54.55,36.37,17.0,7.0,330,6,,6.21,30.177166,,,,,,TRUE,,,,,BKN,4700,,,,,,,VFR,,,,,,,,,,,,METAR,198.0
UTTT 060700Z 25008KT 190V280 CAVOK 37/02 Q1010 R08R/CLRD70 NOSIG,UTTT,2023-06-06T07:00:00Z,41.27,69.27,37.0,2.0,250,8,,6.21,29.822834,,,,,,TRUE,,,,,CAVOK,,,,,,,,VFR,,,,,,,,,,,,METAR,429.0
UTST 060700Z 21002KT CAVOK 38/06 Q1009 R25/CLRD70 NOSIG,UTST,2023-06-06T07:00:00Z,37.28,67.32,38.0,6.0,210,2,,6.21,29.793306,,,,,,TRUE,,,,,CAVOK,,,,,,,,VFR,,,,,,,,,,,,SPECI,311.0
UTSS 060700Z VRB02KT 9999 NSC 35/02 Q1011 R09/70D NOSIG,UTSS,2023-06-06T07:00:00Z,39.7,66.98,35.0,2.0,0,2,,6.21,29.852362,,,,,,TRUE,,,,,CLR,,,,,,,,VFR,,,,,,,,,,,,METAR,665.0
UTSK 060700Z 25004KT 200V350 CAVOK 38/M01 Q1009 R34/CLRD70,UTSK,2023-06-06T07:00:00Z,38.8,65.77,38.0,-1.0,250,4,,6.21,29.793306,,,,,,,,,,,CAVOK,,,,,,,,VFR,,,,,,,,,,,,SPECI,399.0
UTSB 060700Z 28004KT CAVOK 39/01 Q1008 R01/CLRD70 NOSIG,UTSB,2023-06-06T07:00:00Z,39.77,64.48,39.0,1.0,280,4,,6.21,29.763779,,,,,,TRUE,,,,,CAVOK,,,,,,,,VFR,,,,,,,,,,,,SPECI,225.0
UTSA 060700Z 35004KT 290V360 8000 NSC 37/02 Q1010 R07/CLRD70 NOSIG,UTSA,2023-06-06T07:00:00Z,40.12,65.17,37.0,2.0,350,4,,4.97,29.822834,,,,,,TRUE,,,,,CLR,,,,,,,,MVFR,,,,,,,,,,,,SPECI,346.0
UTNU 060700Z 03006KT CAVOK 38/02 Q1009 R31/CLRD70 NOSIG,UTNU,2023-06-06T07:00:00Z,41.58,60.63,38.0,2.0,30,6,,6.21,29.793306,,,,,,TRUE,,,,,CAVOK,,,,,,,,VFR,,,,,,,,,,,,SPECI,97.0
UTNN 060700Z 25004KT CAVOK 39/04 Q1009 R33/CLRD60 NOSIG,UTNN,2023-06-06T07:00:00Z,42.48,59.63,39.0,4.0,250,4,,6.21,29.793306,,,,,,TRUE,,,,,CAVOK,,,,,,,,VFR,,,,,,,,,,,,SPECI,76.0
UTFN 060700Z 15006KT 110V190 9999 NSC 34/04 Q1010 R28/CLRD70 NOSIG,UTFN,2023-06-06T07:00:00Z,40.98,71.57,34.0,4.0,150,6,,6.21,29.822834,,,,,,TRUE,,,,,CLR,,,,,,,,VFR,,,,,,,,,,,,METAR,477.0
UTFF 060700Z 31004KT 210V360 9999 NSC 33/04 Q1011 R18/CLRD70,UTFF,2023-06-06T07:00:00Z,40.37,71.73,33.0,4.0,310,4,,6.21,29.852362,,,,,,,,,,,CLR,,,,,,,,VFR,,,,,,,,,,,,METAR,612.0
UTDT 060700Z 27002MPS 240V320 9999 FEW060 37/07 Q1009 R35/CLRD70 RMK QFE717/0956,UTDT,2023-06-06T07:00:00Z,37.87,68.87,37.0,7.0,270,4,,6.21,29.793306,,,,,,,,,,,FEW,6000,,,,,,,VFR,,,,,,,,,,,,METAR,443.0
UTDL 060700Z 07008MPS 9999 FEW086 33/07 Q1011 R08/CLRD70 NOSIG RMK QFE719/0959,UTDL,2023-06-06T07:00:00Z,40.22,69.7,33.0,7.0,70,16,,6.21,29.852362,,,,,,TRUE,,,,,FEW,8600,,,,,,,VFR,,,,,,,,,,,,SPECI,436.0
UTDK 060700Z 21004MPS 170V250 9999 NSC 35/05 Q1011 R01/09//70 RMK QFE701/0935,UTDK,2023-06-06T07:00:00Z,37.98,69.8,35.0,5.0,210,8,,6.21,29.852362,,,,,,,,,,,CLR,,,,,,,,VFR,,,,,,,,,,,,METAR,675.0
UTDD 060700Z VRB02MPS 9999 FEW066 34/02 Q1012 R09/D NOSIG RMK QFE691/0921,UTDD,2023-06-06T07:00:00Z,38.53,68.82,34.0,2.0,0,4,,6.21,29.88189,,,,,,TRUE,,,,,FEW,6600,,,,,,,VFR,,,,,,,,,,,,METAR,785.0
UTAV 060700Z 33008KT CAVOK 39/M04 Q1008 R31/CLRD70 NOSIG,UTAV,2023-06-06T07:00:00Z,39.08,63.62,39.0,-4.0,330,8,,6.21,29.763779,,,,,,TRUE,,,,,CAVOK,,,,,,,,VFR,,,,,,,,,,,,SPECI,187.0
UTAT 060700Z 06006KT 020V170 9000 NSC 39/05 Q1009 R26/CLRD70 NOSIG,UTAT,2023-06-06T07:00:00Z,41.77,59.83,39.0,5.0,60,6,,5.59,29.793306,,,,,,TRUE,,,,,CLR,,,,,,,,VFR,,,,,,,,,,,,SPECI,84.0
UTAM 060700Z 07006KT CAVOK 38/06 Q1009 R88/CLRD70 NOSIG,UTAM,2023-06-06T07:00:00Z,37.62,61.9,38.0,6.0,70,6,,6.21,29.793306,,,,,,TRUE,,,,,CAVOK,,,,,,,,VFR,,,,,,,,,,,,SPECI,218.0
UTAK 060700Z 35010KT CAVOK 32/18 Q1011 R34L/CLRD70 NOSIG,UTAK,2023-06-06T07:00:00Z,40.05,53.0,32.0,18.0,350,10,,6.21,29.852362,,,,,,TRUE,,,,,CAVOK,,,,,,,,VFR,,,,,,,,,,,,SPECI,83.0
UTAA 060700Z 08008KT 040V170 9999 FEW100 39/M01 Q1009 R88/70D NOSIG,UTAA,2023-06-06T07:00:00Z,37.98,58.37,39.0,-1.0,80,8,,6.21,29.793306,,,,,,TRUE,,,,,FEW,10000,,,,,,,VFR,,,,,,,,,,,,METAR,207.0
USTR 060700Z 34003MPS 290V060 CAVOK 25/07 Q1014 R30/090065 R21/090065 NOSIG,USTR,2023-06-06T07:00:00Z,57.18,65.32,25.0,7.0,340,6,,6.21,29.940945,,,,,,TRUE,,,,,CAVOK,,,,,,,,VFR,,,,,,,,,,,,SPECI,93.0
USSS 060700Z 30002MPS CAVOK 22/06 Q1015 R26L/010060 NOSIG RMK QFE740/0987,USSS,2023-06-06T07:00:00Z,56.75,60.78,22.0,6.0,300,4,,6.21,29.970472,,,,,,TRUE,,,,,CAVOK,,,,,,,,VFR,,,,,,,,,,,,SPECI,222.0
USRR 060700Z 36003MPS CAVOK 23/10 Q1012 R25/CLRD60 NOSIG RMK QFE753,USRR,2023-06-06T07:00:00Z,61.33,73.42,23.0,10.0,360,6,,6.21,29.88189,,,,,,TRUE,,,,,CAVOK,,,,,,,,VFR,,,,,,,,,,,,SPECI,52.0
USPP 060700Z VRB01MPS CAVOK 19/05 Q1015 R21/090060 NOSIG RMK QFE751,USPP,2023-06-06T07:00:00Z,57.92,56.02,19.0,5.0,0,2,,6.21,29.970472,,,,,,TRUE,,,,,CAVOK,,,,,,,,VFR,,,,,,,,,,,,SPECI,120.0
USNN 060700Z 33002MPS CAVOK 27/15 Q1010 R21/0///65 NOSIG RMK QFE753,USNN,2023-06-06T07:00:00Z,60.95,76.48,27.0,15.0,330,4,,6.21,29.822834,,,,,,TRUE,,,,,CAVOK,,,,,,,,VFR,,,,,,,,,,,,SPECI,52.0
USHH 060700Z 15001MPS CAVOK 22/04 Q1013 R24/010060 NOSIG,USHH,2023-06-06T07:00:00Z,61.03,69.08,22.0,4.0,150,2,,6.21,29.911417,,,,,,TRUE,,,,,CAVOK,,,,,,,,VFR,,,,,,,,,,,,METAR,46.0
USDA 060700Z 23009MPS CAVOK 13/06 Q1001 R22/CLRD60 NOSIG RMK QFE750/1000,USDA,2023-06-06T07:00:00Z,71.2,72.05,13.0,6.0,230,17,,6.21,29.557087,,,,,,TRUE,,,,,CAVOK,,,,,,,,VFR,,,,,,,,,,,,METAR,5.0
USCM 060700Z 02007MPS 9999 SCT040CB 24/16 Q1011 R36/////// TEMPO VRB18MPS 2000 TSRA SQ RMK QFE720,USCM,2023-06-06T07:00:00Z,53.4,58.75,24.0,16.0,20,14,,6.21,29.852362,,,,,,,,,,,SCT,4000,,,,,,,VFR,,,,,,,,,,,,METAR,425.0
USCC 060700Z 06004MPS 9999 FEW040CB 23/09 Q1013 R27/000060 NOSIG RMK QFE740,USCC,2023-06-06T07:00:00Z,55.3,61.5,23.0,9.0,60,8,,6.21,29.911417,,,,,,TRUE,,,,,FEW,4000,,,,,,,VFR,,,,,,,,,,,,SPECI,227.0
URWW 060700Z 01006G15MPS 320V040 CAVOK 21/03 Q1019 R05/010070 NOSIG,URWW,2023-06-06T07:00:00Z,48.78,44.33,21.0,3.0,10,12,29,6.21,30.088583,,,,,,TRUE,,,,,CAVOK,,,,,,,,VFR,,,,,,,,,,,,SPECI,131.0
URWI 060700Z 36007MPS CAVOK 21/07 Q1019 R27/010065 NOSIG,URWI,2023-06-06T07:00:00Z,46.37,44.33,21.0,7.0,360,14,,6.21,30.088583,,,,,,TRUE,,,,,CAVOK,,,,,,,,VFR,,,,,,,,,,,,SPECI,145.0
URWA 060700Z 33008MPS 300V360 CAVOK 22/13 Q1015 R27/010070 NOSIG RMK QFE763/1017,URWA,2023-06-06T07:00:00Z,46.28,47.98,22.0,13.0,330,16,,6.21,29.970472,,,,,,TRUE,,,,,CAVOK,,,,,,,,VFR,,,,,,,,,,,,SPECI,-19.0
URSS 060700Z 17005MPS 9999 FEW027TCU SCT120 22/17 Q1016 R02/010070 R06/010070 NOSIG RMK R06/17005G08MPS MT OBSC QFE761,URSS,2023-06-06T07:00:00Z,43.45,39.92,22.0,17.0,170,10,,6.21,30.0,,,,,,TRUE,,,,,FEW,2700,SCT,12000,,,,,VFR,,,,,,,,,,,,METAR,4.0
URRP 060700Z 03005MPS 9999 FEW/// 21/06 Q1021 R05/CLRD70 NOSIG RMK QFE761/1015,URRP,2023-06-06T07:00:00Z,47.5,39.92,21.0,6.0,30,10,,6.21,30.147638,,,,,,TRUE,,,,,,,,,,,,,,,,,,,,,,,,,METAR,73.0
URMT 060700Z 11002MPS 080V170 9999 SCT025 19/13 Q1020 R07/010070 NOSIG RMK QFE725,URMT,2023-06-06T07:00:00Z,45.12,42.12,19.0,13.0,110,4,,6.21,30.11811,,,,,,TRUE,,,,,SCT,2500,,,,,,,VFR,,,,,,,,,,,,SPECI,448.0
URMO 060700Z 06003MPS 5000 -RA BKN005 OVC035 15/13 Q1020 RERA R09/290150 TEMPO 0500 -SHRA FG BKN002 BKN020CB RMK QFE721/0962,URMO,2023-06-06T07:00:00Z,43.2,44.6,15.0,13.0,60,6,,3.11,30.11811,,,,,,,,,,-RA,BKN,500,OVC,3500,,,,,IFR,,,,,,,,,,,,METAR,505.0
URMN 060700Z 13002MPS 9999 -SHRA BKN019CB 17/14 Q1019 R24/210155 NOSIG RMK QFE727,URMN,2023-06-06T07:00:00Z,43.52,43.63,17.0,14.0,130,4,,6.21,30.088583,,,,,,TRUE,,,,-SHRA,BKN,1900,,,,,,,MVFR,,,,,,,,,,,,SPECI,424.0
URMM 060700Z 11002MPS 9999 -SHRA SCT010 BKN040CB 18/17 Q1020 R30/290250 NOSIG RMK MT OBSC QFE736/0982,URMM,2023-06-06T07:00:00Z,44.22,43.07,18.0,17.0,110,4,,6.21,30.11811,,,,,,TRUE,,,,-SHRA,SCT,1000,BKN,4000,,,,,VFR,,,,,,,,,,,,METAR,318.0
URML 060700Z 33008MPS 9999 SCT///CB 20/17 Q1016 R32/290360 NOSIG RMK QFE762/1016,URML,2023-06-06T07:00:00Z,42.82,47.65,20.0,17.0,330,16,,6.21,30.0,,,,,,TRUE,,,,,,,,,,,,,,,,,,,,,,,,,SPECI,4.0
URMG 060700Z 32004MPS 290V350 9999 SCT028 BKN071 22/15 Q1018 R26/090070 NOSIG RMK QFE749/0999,URMG,2023-06-06T07:00:00Z,43.38,45.7,22.0,15.0,320,8,,6.21,30.059055,,,,,,TRUE,,,,,SCT,2800,BKN,7100,,,,,VFR,,,,,,,,,,,,METAR,160.0
URKK 060700Z 04004MPS CAVOK 20/12 Q1019 R23L/CLRD70 NOSIG RMK QFE761,URKK,2023-06-06T07:00:00Z,45.03,39.15,20.0,12.0,40,8,,6.21,30.088583,,,,,,TRUE,,,,,CAVOK,,,,,,,,VFR,,,,,,,,,,,,SPECI,29.0
URKA 060700Z 06008MPS CAVOK 22/09 Q1019 R04/010070 NOSIG RMK QFE761/1014,URKA,2023-06-06T07:00:00Z,45.0,37.35,22.0,9.0,60,16,,6.21,30.088583,,,,,,TRUE,,,,,CAVOK,,,,,,,,VFR,,,,,,,,,,,,METAR,41.0
UOOO 060700Z 20005MPS 6000 -RA OVC005 09/09 Q1003 R19/29//60 NOSIG RMK QFE736/0982,UOOO,2023-06-06T07:00:00Z,69.32,87.33,9.0,9.0,200,10,,3.73,29.616142,,,,,,TRUE,,,,-RA,OVC,500,,,,,,,IFR,,,,,,,,,,,,SPECI,177.0
UNWW 060700Z 08003MPS 360V140 CAVOK 33/10 Q1013 R19/09//60 NOSIG RMK QFE732,UNWW,2023-06-06T07:00:00Z,53.82,86.88,33.0,10.0,80,6,,6.21,29.911417,,,,,,TRUE,,,,,CAVOK,,,,,,,,VFR,,,,,,,,,,,,SPECI,307.0
UNTT 060700Z 22004MPS CAVOK 33/12 Q1012 R21/090060 NOSIG RMK QFE743,UNTT,2023-06-06T07:00:00Z,56.38,85.22,33.0,12.0,220,8,,6.21,29.88189,,,,,,TRUE,,,,,CAVOK,,,,,,,,VFR,,,,,,,,,,,,METAR,179.0
UNOO 060700Z 13003MPS 090V160 9999 SCT033 36/06 Q1009 R25/CLRD60 NOSIG RMK QFE748,UNOO,2023-06-06T07:00:00Z,54.97,73.32,36.0,6.0,130,6,,6.21,29.793306,,,,,,TRUE,,,,,SCT,3300,,,,,,,VFR,,,,,,,,,,,,SPECI,85.0
UNNT 060700Z 17002G07MPS 130V230 CAVOK 35/11 Q1011 R25/090070 R34/090070 NOSIG RMK QFE748/0998,UNNT,2023-06-06T07:00:00Z,55.02,82.65,35.0,11.0,170,4,14,6.21,29.852362,,,,,,TRUE,,,,,CAVOK,,,,,,,,VFR,,,,,,,,,,,,SPECI,106.0
UNKL 060700Z 31005MPS 280V350 CAVOK 30/13 Q1013 R29/CLRD65 NOSIG RMK QFE734,UNKL,2023-06-06T07:00:00Z,56.17,92.48,30.0,13.0,310,10,,6.21,29.911417,,,,,,TRUE,,,,,CAVOK,,,,,,,,VFR,,,,,,,,,,,,SPECI,278.0
UNEE 060700Z 11003MPS 080V150 CAVOK 34/10 Q1013 R23/CLRD60 NOSIG RMK QFE737,UNEE,2023-06-06T07:00:00Z,55.27,86.1,34.0,10.0,110,6,,6.21,29.911417,,,,,,TRUE,,,,,CAVOK,,,,,,,,VFR,,,,,,,,,,,,SPECI,261.0
UNBB 060700Z 13004MPS 100V200 CAVOK 34/05 Q1011 R24/CLRD66 NOSIG RMK QFE736,UNBB,2023-06-06T07:00:00Z,53.37,83.53,34.0,5.0,130,8,,6.21,29.852362,,,,,,TRUE,,,,,CAVOK,,,,,,,,VFR,,,,,,,,,,,,SPECI,249.0
UNAA 060700Z 06004MPS 030V100 CAVOK 33/12 Q1013 R02/CLRD67 NOSIG RMK QFE737,UNAA,2023-06-06T07:00:00Z,53.75,91.4,33.0,12.0,60,8,,6.21,29.911417,,,,,,TRUE,,,,,CAVOK,,,,,,,,VFR,,,,,,,,,,,,SPECI,249.0
UMOO 060700Z 04004MPS CAVOK 16/08 Q1025 NOSIG,UMOO,2023-06-06T07:00:00Z,53.95,30.1,16.0,8.0,40,8,,6.21,30.265747,,,,,,TRUE,,,,,CAVOK,,,,,,,,VFR,,,,,,,,,,,,METAR,188.0
UMMS 060700Z 11004MPS 060V160 CAVOK 17/04 Q1024 NOSIG,UMMS,2023-06-06T07:00:00Z,53.88,28.03,17.0,4.0,110,8,,6.21,30.236221,,,,,,TRUE,,,,,CAVOK,,,,,,,,VFR,,,,,,,,,,,,METAR,196.0
UMMG 060700Z VRB01MPS CAVOK 18/08 Q1022 NOSIG,UMMG,2023-06-06T07:00:00Z,53.6,24.05,18.0,8.0,0,2,,6.21,30.177166,,,,,,TRUE,,,,,CAVOK,,,,,,,,VFR,,,,,,,,,,,,METAR,125.0
UMKK 060700Z 15003MPS 120V190 CAVOK 20/09 Q1022 R24/CLRD95 NOSIG RMK QFE765/1020,UMKK,2023-06-06T07:00:00Z,54.88,20.57,20.0,9.0,150,6,,6.21,30.177166,,,,,,TRUE,,,,,CAVOK,,,,,,,,VFR,,,,,,,,,,,,METAR,6.0
UMIO 060700Z VRB01MPS CAVOK 16/05 Q1024 NOSIG RMK QFE750/1000,UMIO,2023-06-06T07:00:00Z,54.43,30.3,16.0,5.0,0,2,,6.21,30.236221,,,,,,TRUE,,,,,CAVOK,,,,,,,,VFR,,,,,,,,,,,,METAR,189.0
UMII 060700Z 21002MPS 150V300 9999 FEW020 16/06 Q1023 NOSIG,UMII,2023-06-06T07:00:00Z,55.13,30.35,16.0,6.0,210,4,,6.21,30.206694,,,,,,TRUE,,,,,FEW,2000,,,,,,,VFR,,,,,,,,,,,,METAR,208.0
UMGG 060700Z 04004MPS CAVOK 18/10 Q1023 NOSIG,UMGG,2023-06-06T07:00:00Z,52.53,31.02,18.0,10.0,40,8,,6.21,30.206694,,,,,,TRUE,,,,,CAVOK,,,,,,,,VFR,,,,,,,,,,,,METAR,135.0
UMBB 060700Z 12002MPS 8000 NSC 22/07 Q1021 NOSIG,UMBB,2023-06-06T07:00:00Z,52.12,23.9,22.0,7.0,120,4,,4.97,30.147638,,,,,,TRUE,,,,,CLR,,,,,,,,MVFR,,,,,,,,,,,,METAR,138.0
ULWC 060700Z 24002G07MPS 9999 SCT026CB 16/07 Q1015 R21/010060 NOSIG RMK QFE751/1002,ULWC,2023-06-06T07:00:00Z,59.28,38.02,16.0,7.0,240,4,14,6.21,29.970472,,,,,,TRUE,,,,,SCT,2600,,,,,,,VFR,,,,,,,,,,,,METAR,113.0
ULPB 060700Z 28005MPS 230V320 CAVOK 13/03 Q1014 R19/09//60 NOSIG RMK QFE756/1009,ULPB,2023-06-06T07:00:00Z,61.88,34.15,13.0,3.0,280,10,,6.21,29.940945,,,,,,TRUE,,,,,CAVOK,,,,,,,,VFR,,,,,,,,,,,,METAR,41.0
ULOO 060700Z 19002MPS 160V230 CAVOK 13/09 Q1021 R19/090060 NOSIG RMK QFE762,ULOO,2023-06-06T07:00:00Z,57.78,28.4,13.0,9.0,190,4,,6.21,30.147638,,,,,,TRUE,,,,,CAVOK,,,,,,,,VFR,,,,,,,,,,,,METAR,46.0
ULMM 060700Z 32005MPS 9000 -SHRASN BKN020CB 03/03 Q1010 R31/290158 NOSIG RMK QFE750,ULMM,2023-06-06T07:00:00Z,68.78,32.75,3.0,3.0,320,10,,5.59,29.822834,,,,,,TRUE,,,,-SHRA -SHSN,BKN,2000,,,,,,,MVFR,,,,,,,,,,,,METAR,79.0
ULLI 060700Z 28008MPS 250V310 CAVOK 16/05 Q1018 R88/090060 NOSIG,ULLI,2023-06-06T07:00:00Z,59.8,30.27,16.0,5.0,280,16,,6.21,30.059055,,,,,,TRUE,,,,,CAVOK,,,,,,,,VFR,,,,,,,,,,,,METAR,25.0
UIUU 060700Z 33007MPS 9000 SCT040CB 23/06 Q1005 R26/60D NOSIG RMK QFE710/0947,UIUU,2023-06-06T07:00:00Z,51.8,107.45,23.0,6.0,330,14,,5.59,29.675198,,,,,,TRUE,,,,,SCT,4000,,,,,,,VFR,,,,,,,,,,,,METAR,508.0
UIII 060700Z 31010MPS CAVOK 23/10 Q1009 R30/60D NOSIG RMK QFE712/0950,UIII,2023-06-06T07:00:00Z,52.27,104.37,23.0,10.0,310,19,,6.21,29.793306,,,,,,TRUE,,,,,CAVOK,,,,,,,,VFR,,,,,,,,,,,,METAR,480.0
UIBB 060700Z 36005MPS 320V040 9999 NSC 20/01 Q1013 R30/60D NOSIG RMK QFE717/0956,UIBB,2023-06-06T07:00:00Z,56.37,101.7,20.0,1.0,360,10,,6.21,29.911417,,,,,,TRUE,,,,,CLR,,,,,,,,VFR,,,,,,,,,,,,METAR,485.0
UIAA 060700Z 35011G16MPS 9999 4000S -SHRA SCT043CB 16/02 Q0997 R29/70D NOSIG RMK QFE690/0920,UIAA,2023-06-06T07:00:00Z,52.02,113.32,16.0,2.0,350,21,31,6.21,29.438976,,,,,,TRUE,,,,-SHRA,SCT,4300,,,,,,,VFR,,,,,,,,,,,,METAR,650.0
UHWW 060700Z 24006MPS 9999 FEW040 20/11 Q0999 R25L/0///70 NOSIG RMK QFE748,UHWW,2023-06-06T07:00:00Z,43.4,132.15,20.0,11.0,240,12,,6.21,29.498032,,,,,,TRUE,,,,,FEW,4000,,,,,,,VFR,,,,,,,,,,,,METAR,11.0
UHSS 060700Z 19006MPS 9999 FEW040 16/10 Q1004 R19/70D NOSIG RMK QFE752/1003,UHSS,2023-06-06T07:00:00Z,46.88,142.72,16.0,10.0,190,12,,6.21,29.64567,,,,,,TRUE,,,,,FEW,4000,,,,,,,VFR,,,,,,,,,,,,METAR,14.0
UHPP 060700Z 17004MPS 9999 BKN067 11/03 Q0992 R16R/CLRD57 NOSIG RMK MT OBSC QFE741/0988,UHPP,2023-06-06T07:00:00Z,53.17,158.45,11.0,3.0,170,8,,6.21,29.291338,,,,,,TRUE,,,,,BKN,6700,,,,,,,VFR,,,,,,,,,,,,METAR,33.0
UHMM 060700Z 21005MPS 9999 SCT040CB 13/02 Q1002 R10/19//60 NOSIG RMK QFE737 R28/26005MPS,UHMM,2023-06-06T07:00:00Z,59.92,150.72,13.0,2.0,210,10,,6.21,29.586615,,,,,,TRUE,,,,,SCT,4000,,,,,,,VFR,,,,,,,,,,,,METAR,175.0
UHMA 060700Z 09007MPS 9999 BKN006 OVC044 05/03 Q1011 R19/70D NOSIG RMK MID 09006G09MPS END R19/09005G08MPS MT OBSC QFE753/1004,UHMA,2023-06-06T07:00:00Z,64.73,177.73,5.0,3.0,90,14,,6.21,29.852362,,,,,,TRUE,,,,,BKN,600,OVC,4400,,,,,IFR,,,,,,,,,,,,METAR,53.0
UHHH 060700Z 22003MPS 180V250 9999 VCTS FEW048CB 26/09 Q0996 R88/090060 TEMPO -TSGR RMK QFE741/0988,UHHH,2023-06-06T07:00:00Z,48.52,135.18,26.0,9.0,220,6,,6.21,29.409449,,,,,,,,,,VCTS,FEW,4800,,,,,,,VFR,,,,,,,,,,,,METAR,74.0
UHBB 060700Z 36003MPS 320V070 9999 SCT020CB 16/10 Q0996 R36/090060 NOSIG RMK QFE730/0974,UHBB,2023-06-06T07:00:00Z,50.43,127.42,16.0,10.0,360,6,,6.21,29.409449,,,,,,TRUE,,,,,SCT,2000,,,,,,,VFR,,,,,,,,,,,,METAR,185.0
UGTB 060700Z 32014KT 9999 SCT040CB BKN070 23/14 Q1017 NOSIG,UGTB,2023-06-06T07:00:00Z,41.67,44.95,23.0,14.0,320,14,,6.21,30.029528,,,,,,TRUE,,,,,SCT,4000,BKN,7000,,,,,VFR,,,,,,,,,,,,METAR,468.0
UGSB 060700Z 24005KT 210V270 9999 FEW021 BKN062 21/19 Q1017 NOSIG,UGSB,2023-06-06T07:00:00Z,41.62,41.6,21.0,19.0,240,5,,6.21,30.029528,,,,,,TRUE,,,,,FEW,2100,BKN,6200,,,,,VFR,,,,,,,,,,,,METAR,32.0
UGMS 060700Z 23004KT 190V280 9999 SCT100 17/08 Q1022,UGMS,2023-06-06T07:00:00Z,43.05,42.75,17.0,8.0,230,4,,6.21,30.177166,,,,,,,,,,,SCT,10000,,,,,,,VFR,,,,,,,,,,,,METAR,1442.0
UGKO 060700Z 28004KT 250V330 9999 SCT015 BKN051 21/18 Q1016 NOSIG,UGKO,2023-06-06T07:00:00Z,42.18,42.48,21.0,18.0,280,4,,6.21,30.0,,,,,,TRUE,,,,,SCT,1500,BKN,5100,,,,,VFR,,,,,,,,,,,,METAR,44.0
UGAM 060700Z 12001G15KT 9999 SCT060 22/14 Q1017,UGAM,2023-06-06T07:00:00Z,42.53,43.13,22.0,14.0,120,1,15,6.21,30.029528,,,,,,,,,,,SCT,6000,,,,,,,VFR,,,,,,,,,,,,METAR,544.0
UERR 060700Z 36004MPS 9999 BKN040 11/M04 Q1009 R07/CLRD60 NOSIG RMK QFE727/0969,UERR,2023-06-06T07:00:00Z,62.53,114.05,11.0,-4.0,360,8,,6.21,29.793306,,,,,,TRUE,,,,,BKN,4000,,,,,,,VFR,,,,,,,,,,,,SPECI,352.0
UERP 060700Z 30003MPS 9999 BKN024CB OVC100 03/M03 Q1012 R35/090061 NOSIG RMK QFE715,UERP,2023-06-06T07:00:00Z,66.4,112.03,3.0,-3.0,300,6,,6.21,29.88189,,,,,,TRUE,,,,,BKN,2400,OVC,10000,,,,,MVFR,,,,,,,,,,,,SPECI,514.0
UEEE 060700Z 35004MPS CAVOK 21/02 Q1000 R05/09//60 NOSIG RMK QFE741,UEEE,2023-06-06T07:00:00Z,62.08,129.77,21.0,2.0,350,8,,6.21,29.52756,,,,,,TRUE,,,,,CAVOK,,,,,,,,VFR,,,,,,,,,,,,METAR,106.0
UDYZ 060700Z 12003KT 060V180 9999 NSC 28/08 Q1014 NOSIG,UDYZ,2023-06-06T07:00:00Z,40.15,44.4,28.0,8.0,120,3,,6.21,29.940945,,,,,,TRUE,,,,,CLR,,,,,,,,VFR,,,,,,,,,,,,METAR,851.0
UDSG 060700Z VRB01KT 9999 FEW049 20/12 Q1019 NOSIG,UDSG,2023-06-06T07:00:00Z,40.75,43.87,20.0,12.0,0,1,,6.21,30.088583,,,,,,TRUE,,,,,FEW,4900,,,,,,,VFR,,,,,,,,,,,,METAR,1515.0
UCFO 060700Z 28004MPS 240V330 9999 FEW048CB 31/04 Q1013 NOSIG,UCFO,2023-06-06T07:00:00Z,40.6,72.8,31.0,4.0,280,8,,6.21,29.911417,,,,,,TRUE,,,,,FEW,4800,,,,,,,VFR,,,,,,,,,,,,METAR,881.0
UCFM 060700Z 19003MPS 110V240 CAVOK 35/M01 Q1010 NOSIG,UCFM,2023-06-06T07:00:00Z,43.07,74.48,35.0,-1.0,190,6,,6.21,29.822834,,,,,,TRUE,,,,,CAVOK,,,,,,,,VFR,,,,,,,,,,,,METAR,632.0
UCFL 060700Z 15003MPS 9999 SCT030CB SCT130 19/08 Q1020,UCFL,2023-06-06T07:00:00Z,42.58,76.7,19.0,8.0,150,6,,6.21,30.11811,,,,,,,,,,,SCT,3000,SCT,13000,,,,,VFR,,,,,,,,,,,,METAR,1654.0
UBEE 060700Z 13007KT CAVOK 29/19 Q1014 NOSIG RMK SCT100 AC,UBEE,2023-06-06T07:00:00Z,40.63,47.13,29.0,19.0,130,7,,6.21,29.940945,,,,,,TRUE,,,,,CAVOK,,,,,,,,VFR,,,,,,,,,,,,SPECI,14.0
UBBY 060700Z VRB02KT 9999 VCTS FEW045CB BKN060 23/20 Q1019 NOSIG RMK MT OP,UBBY,2023-06-06T07:00:00Z,41.57,46.67,23.0,20.0,0,2,,6.21,30.088583,,,,,,TRUE,,,,VCTS,FEW,4500,BKN,6000,,,,,VFR,,,,,,,,,,,,METAR,383.0
UBBQ 060700Z 25007KT 9999 BKN080 25/17 Q1016 NOSIG RMK MT PT OBSC,UBBQ,2023-06-06T07:00:00Z,40.82,47.72,25.0,17.0,250,7,,6.21,30.0,,,,,,TRUE,,,,,BKN,8000,,,,,,,VFR,,,,,,,,,,,,METAR,339.0
UBBL 060700Z 00000KT 9999 BKN070 28/17 Q1015 NOSIG RMK MT OP,UBBL,2023-06-06T07:00:00Z,38.75,48.82,28.0,17.0,0,0,,6.21,29.970472,,,,,,TRUE,,,,,BKN,7000,,,,,,,VFR,,,,,,,,,,,,METAR,-11.0
UAUU 060700Z 09007MPS 9999 SCT052CB 32/15 Q1009 NOSIG RMK QFE741/0989,UAUU,2023-06-06T07:00:00Z,53.2,63.55,32.0,15.0,90,14,,6.21,29.793306,,,,,,TRUE,,,,,SCT,5200,,,,,,,VFR,,,,,,,,,,,,SPECI,177.0
UATT 060700Z 29002MPS CAVOK 29/10 Q1010 NOSIG RMK QFE737/0983,UATT,2023-06-06T07:00:00Z,50.25,57.2,29.0,10.0,290,4,,6.21,29.822834,,,,,,TRUE,,,,,CAVOK,,,,,,,,VFR,,,,,,,,,,,,METAR,217.0
UATG 060700Z 32009MPS CAVOK 29/14 Q1009 NOSIG RMK QFE759/1012,UATG,2023-06-06T07:00:00Z,47.12,51.83,29.0,14.0,320,17,,6.21,29.793306,,,,,,TRUE,,,,,CAVOK,,,,,,,,VFR,,,,,,,,,,,,SPECI,-23.0
UATE 060700Z 29009MPS 270V340 CAVOK 23/18 Q1013 NOSIG RMK QFE758/1011,UATE,2023-06-06T07:00:00Z,43.87,51.1,23.0,18.0,290,17,,6.21,29.911417,,,,,,TRUE,,,,,CAVOK,,,,,,,,VFR,,,,,,,,,,,,METAR,21.0
UASS 060700Z 13004MPS 080V160 CAVOK 37/03 Q1008 NOSIG RMK QFE736/0981,UASS,2023-06-06T07:00:00Z,50.35,80.23,37.0,3.0,130,8,,6.21,29.763779,,,,,,TRUE,,,,,CAVOK,,,,,,,,VFR,,,,,,,,,,,,SPECI,215.0
UASP 060700Z 12003MPS CAVOK 37/06 Q1008 NOSIG RMK QFE745/0994,UASP,2023-06-06T07:00:00Z,52.2,77.07,37.0,6.0,120,6,,6.21,29.763779,,,,,,TRUE,,,,,CAVOK,,,,,,,,VFR,,,,,,,,,,,,SPECI,122.0
UARR 060700Z 36012MPS CAVOK 20/09 Q1012 TEMPO 01012G17MPS RMK QFE755/1007,UARR,2023-06-06T07:00:00Z,51.15,51.53,20.0,9.0,360,23,,6.21,29.88189,,,,,,,,,,,CAVOK,,,,,,,,VFR,,,,,,,,,,,,SPECI,33.0
UAOO 060700Z 33005MPS 280V010 CAVOK 39/M03 Q1007 NOSIG RMK QFE744/0992,UAOO,2023-06-06T07:00:00Z,44.7,65.6,39.0,-3.0,330,10,,6.21,29.734253,,,,,,TRUE,,,,,CAVOK,,,,,,,,VFR,,,,,,,,,,,,SPECI,130.0
UAKK 060700Z 23003MPS 180V280 9999 SCT049 32/04 Q1011 NOSIG RMK QFE711/0949,UAKK,2023-06-06T07:00:00Z,49.68,73.35,32.0,4.0,230,6,,6.21,29.852362,,,,,,TRUE,,,,,SCT,4900,,,,,,,VFR,,,,,,,,,,,,SPECI,532.0
UAIT 060700Z 26005MPS 230V310 CAVOK 35/03 Q1009 NOSIG RMK QFE732/0976,UAIT,2023-06-06T07:00:00Z,43.32,68.55,35.0,3.0,260,10,,6.21,29.793306,,,,,,TRUE,,,,,CAVOK,,,,,,,,VFR,,,,,,,,,,,,METAR,301.0
UAII 060700Z 26002MPS CAVOK 36/M00 Q1010 NOSIG RMK QFE722/0963,UAII,2023-06-06T07:00:00Z,42.37,69.48,36.0,0.0,260,4,,6.21,29.822834,,,,,,TRUE,,,,,CAVOK,,,,,,,,VFR,,,,,,,,,,,,SPECI,410.0
UACP 060700Z 33005MPS 290V010 CAVOK 32/14 Q1009 NOSIG RMK QFE745/0993,UACP,2023-06-06T07:00:00Z,54.78,69.18,32.0,14.0,330,10,,6.21,29.793306,,,,,,TRUE,,,,,CAVOK,,,,,,,,VFR,,,,,,,,,,,,SPECI,134.0
UACK 060700Z 01003MPS 340V080 CAVOK 35/07 Q1009 NOSIG RMK QFE733/0977,UACK,2023-06-06T07:00:00Z,53.32,69.58,35.0,7.0,10,6,,6.21,29.793306,,,,,,TRUE,,,,,CAVOK,,,,,,,,VFR,,,,,,,,,,,,SPECI,261.0
UACC 060700Z 09005MPS 040V130 9999 SCT046 36/03 Q1008 NOSIG RMK QFE725/0967,UACC,2023-06-06T07:00:00Z,51.02,71.47,36.0,3.0,90,10,,6.21,29.763779,,,,,,TRUE,,,,,SCT,4600,,,,,,,VFR,,,,,,,,,,,,METAR,354.0
UAAT 060700Z 25003MPS 200V310 9999 FEW050CB SCT100 35/06 Q1010 NOSIG RMK QFE706/0941,UAAT,2023-06-06T07:00:00Z,45.12,78.45,35.0,6.0,250,6,,6.21,29.822834,,,,,,TRUE,,,,,FEW,5000,SCT,10000,,,,,VFR,,,,,,,,,,,,METAR,588.0
UAAH 060700Z 19005MPS 160V220 9999 FEW048 35/03 Q1009 NOSIG RMK QFE718/0958,UAAH,2023-06-06T07:00:00Z,46.9,75.0,35.0,3.0,190,10,,6.21,29.793306,,,,,,TRUE,,,,,FEW,4800,,,,,,,VFR,,,,,,,,,,,,SPECI,427.0
UAAA 060700Z 06005MPS 340V130 9999 SCT050CB BKN200 33/07 Q1011 NOSIG,UAAA,2023-06-06T07:00:00Z,43.35,77.03,33.0,7.0,60,10,,6.21,29.852362,,,,,,TRUE,,,,,SCT,5000,BKN,20000,,,,,VFR,,,,,,,,,,,,METAR,673.0
TTPP 060700Z 00000KT 9999 FEW016 26/25 Q1013 NOSIG,TTPP,2023-06-06T07:00:00Z,10.58,-61.35,26.0,25.0,0,0,,6.21,29.911417,,,,,,TRUE,,,,,FEW,1600,,,,,,,VFR,,,,,,,,,,,,METAR,11.0
TTCP 060700Z 06003KT 9999 VCSH FEW016 26/24 Q1013 NOSIG RMK VCSH-N/SW,TTCP,2023-06-06T07:00:00Z,11.15,-60.85,26.0,24.0,60,3,,6.21,29.911417,,,,,,TRUE,,,,VCSH,FEW,1600,,,,,,,VFR,,,,,,,,,,,,METAR,13.0
TNCM 060700Z 10009KT 070V130 9999 FEW016 28/26 Q1017 ,TNCM,2023-06-06T07:00:00Z,18.05,-63.12,28.0,26.0,100,9,,6.21,30.029528,,,,,,,,,,,FEW,1600,,,,,,,VFR,,,,,,,,,,,,METAR,9.0
TNCC 060700Z 11009KT 9999 BKN017 28/25 Q1012 NOSIG,TNCC,2023-06-06T07:00:00Z,12.2,-68.97,28.0,25.0,110,9,,6.21,29.88189,,,,,,TRUE,,,,,BKN,1700,,,,,,,MVFR,,,,,,,,,,,,METAR,10.0
TNCA 060700Z 10013KT 9999 SCT015 28/25 Q1011 NOSIG,TNCA,2023-06-06T07:00:00Z,12.5,-70.0,28.0,25.0,100,13,,6.21,29.852362,,,,,,TRUE,,,,,SCT,1500,,,,,,,VFR,,,,,,,,,,,,METAR,7.0
TLPL 060700Z 10018KT 9999 BKN024 28/24 Q1014 NOSIG,TLPL,2023-06-06T07:00:00Z,13.75,-60.95,28.0,24.0,100,18,,6.21,29.940945,,,,,,TRUE,,,,,BKN,2400,,,,,,,MVFR,,,,,,,,,,,,METAR,13.0
TBPB 060700Z 14007KT 9999 SCT018 27/25 Q1013 NOSIG,TBPB,2023-06-06T07:00:00Z,13.07,-59.48,27.0,25.0,140,7,,6.21,29.911417,,,,,,TRUE,,,,,SCT,1800,,,,,,,VFR,,,,,,,,,,,,METAR,55.0
TAPA 060700Z 13004KT 080V170 9999 SCT021 27/24 Q1015 NOSIG,TAPA,2023-06-06T07:00:00Z,17.13,-61.78,27.0,24.0,130,4,,6.21,29.970472,,,,,,TRUE,,,,,SCT,2100,,,,,,,VFR,,,,,,,,,,,,METAR,15.0
SYCJ 060700Z VRB02KT 9999 FEW016CB SCT090 24/24 Q1013 NOSIG RMK CB-E,SYCJ,2023-06-06T07:00:00Z,6.5,-58.25,24.0,24.0,0,2,,6.21,29.911417,,,,,,TRUE,,,,,FEW,1600,SCT,9000,,,,,VFR,,,,,,,,,,,,METAR,30.0
SUMU 060700Z 36002KT CAVOK 07/07 Q1018 NOSIG,SUMU,2023-06-06T07:00:00Z,-34.83,-56.02,7.0,7.0,360,2,,6.21,30.059055,,,,,,TRUE,,,,,CAVOK,,,,,,,,VFR,,,,,,,,,,,,METAR,32.0
SULS 060700Z 34003KT CAVOK 08/07 Q1018,SULS,2023-06-06T07:00:00Z,-34.87,-55.1,8.0,7.0,340,3,,6.21,30.059055,,,,,,,,,,,CAVOK,,,,,,,,VFR,,,,,,,,,,,,METAR,22.0
SPUR 060700Z 17004KT 9999 BKN040 24/20 Q1013 RMK BIRD HAZARD RWY 19/01 PP000,SPUR,2023-06-06T07:00:00Z,-5.17,-80.58,24.0,20.0,170,4,,6.21,29.911417,,,,,,,,,,,BKN,4000,,,,,,,VFR,,,,,,,,,,,,SPECI,55.0
SPSO 060700Z 13006KT 9999 OVC026 21/15 Q1014 RMK PP000,SPSO,2023-06-06T07:00:00Z,-13.73,-76.22,21.0,15.0,130,6,,6.21,29.940945,,,,,,,,,,,OVC,2600,,,,,,,MVFR,,,,,,,,,,,,SPECI,8.0
SPRU 060700Z 15005KT 4000 BR BKN007 22/20 Q1013 RMK PP000,SPRU,2023-06-06T07:00:00Z,-8.08,-79.12,22.0,20.0,150,5,,2.49,29.911417,,,,,,,,,,BR,BKN,700,,,,,,,IFR,,,,,,,,,,,,SPECI,23.0
SPQT 060700Z VRB01KT 5000 BR SCT003 BKN100 23/22 Q1014 NOSIG RMK PP000,SPQT,2023-06-06T07:00:00Z,-3.78,-73.32,23.0,22.0,0,1,,3.11,29.940945,,,,,,TRUE,,,,BR,SCT,300,BKN,10000,,,,,MVFR,,,,,,,,,,,,SPECI,92.0
SPJC 060700Z 13010KT 9999 BKN020 22/17 Q1013 NOSIG RMK PP000,SPJC,2023-06-06T07:00:00Z,-12.02,-77.12,22.0,17.0,130,10,,6.21,29.911417,,,,,,TRUE,,,,,BKN,2000,,,,,,,MVFR,,,,,,,,,,,,SPECI,26.0
SPHI 060700Z 18011KT CAVOK 22/19 Q1012 RMK BIRD HAZARD RWY 19/01 PP000,SPHI,2023-06-06T07:00:00Z,-6.78,-79.82,22.0,19.0,180,11,,6.21,29.88189,,,,,,,,,,,CAVOK,,,,,,,,VFR,,,,,,,,,,,,SPECI,33.0
SMJP 060700Z 00000KT 1000 BR BKN001 24/24 Q1013 TEMPO 0500 FG,SMJP,2023-06-06T07:00:00Z,5.45,-55.18,24.0,24.0,0,0,,0.62,29.911417,,,,,,,,,,BR,BKN,100,,,,,,,LIFR,,,,,,,,,,,,METAR,14.0
SLVR 060700Z 24003KT 9999 NSC 19/18 Q1016,SLVR,2023-06-06T07:00:00Z,-17.63,-63.13,19.0,18.0,240,3,,6.21,30.0,,,,,,,,,,,CLR,,,,,,,,VFR,,,,,,,,,,,,METAR,377.0
SLLP 060700Z 01006KT 9999 NSC 03/M11 Q1039,SLLP,2023-06-06T07:00:00Z,-16.52,-68.17,3.0,-11.0,10,6,,6.21,30.679134,,,,,,,,,,,CLR,,,,,,,,VFR,,,,,,,,,,,,METAR,4061.0
SLCB 060700Z 00000KT 9999 NSC 07/02 Q1027,SLCB,2023-06-06T07:00:00Z,-17.42,-66.18,7.0,2.0,0,0,,6.21,30.324802,,,,,,,,,,,CLR,,,,,,,,VFR,,,,,,,,,,,,METAR,2560.0
SKSP 060700Z 14003KT 100V180 9999 FEW014 27/24 Q1011 RMK A2987,SKSP,2023-06-06T07:00:00Z,12.58,-81.72,27.0,24.0,140,3,,6.21,29.852362,,,,,,,,,,,FEW,1400,,,,,,,VFR,,,,,,,,,,,,SPECI,6.0
SKRG 060700Z 06004KT 9999 VCSH SCT015 BKN080 14/14 Q1026 REDZ NOSIG RMK VCSH/SE A3032,SKRG,2023-06-06T07:00:00Z,6.17,-75.42,14.0,14.0,60,4,,6.21,30.295275,,,,,,TRUE,,,,VCSH,SCT,1500,BKN,8000,,,,,VFR,,,,,,,,,,,,SPECI,2132.0
SKLT 060700Z VRB02KT 9999 SCT006 BKN080 24/24 Q1013 RMK A2992,SKLT,2023-06-06T07:00:00Z,-4.2,-69.93,24.0,24.0,0,2,,6.21,29.911417,,,,,,,,,,,SCT,600,BKN,8000,,,,,VFR,,,,,,,,,,,,SPECI,78.0
SKCL 060700Z VRB02KT 9999 SCT030 BKN100 21/20 Q1016 NOSIG RMK A3001,SKCL,2023-06-06T07:00:00Z,3.53,-76.37,21.0,20.0,0,2,,6.21,30.0,,,,,,TRUE,,,,,SCT,3000,BKN,10000,,,,,VFR,,,,,,,,,,,,METAR,967.0
SKCG 060700Z VRB02KT 9999 FEW015 SCT120 28/26 Q1010 RMK A2983,SKCG,2023-06-06T07:00:00Z,10.43,-75.52,28.0,26.0,0,2,,6.21,29.822834,,,,,,,,,,,FEW,1500,SCT,12000,,,,,VFR,,,,,,,,,,,,SPECI,6.0
SKBQ 060700Z 36004KT 320V060 9999 FEW012 28/26 Q1010 NOSIG RMK A2984,SKBQ,2023-06-06T07:00:00Z,10.87,-74.77,28.0,26.0,360,4,,6.21,29.822834,,,,,,TRUE,,,,,FEW,1200,,,,,,,VFR,,,,,,,,,,,,SPECI,23.0
SKBO 060700Z VRB02KT 9999 -DZ SCT015 BKN070 12/11 Q1029 NOSIG RMK A3037,SKBO,2023-06-06T07:00:00Z,4.7,-74.15,12.0,11.0,0,2,,6.21,30.383858,,,,,,TRUE,,,,-DZ,SCT,1500,BKN,7000,,,,,VFR,,,,,,,,,,,,METAR,2547.0
SGES 060700Z 00000KT 9000 NSC 16/15 Q1018,SGES,2023-06-06T07:00:00Z,-25.45,-54.85,16.0,15.0,0,0,,5.59,30.059055,,,,,,,,,,,CLR,,,,,,,,VFR,,,,,,,,,,,,METAR,256.0
SGAS 060700Z 00000KT CAVOK 18/16 Q1017,SGAS,2023-06-06T07:00:00Z,-25.25,-57.52,18.0,16.0,0,0,,6.21,30.029528,,,,,,,,,,,CAVOK,,,,,,,,VFR,,,,,,,,,,,,METAR,83.0
SEQM 060700Z VRB02KT 9999 FEW002 BKN015 13/12 Q1028 NOSIG RMK A3037,SEQM,2023-06-06T07:00:00Z,-0.12,-78.35,13.0,12.0,0,2,,6.21,30.35433,,,,,,TRUE,,,,,FEW,200,BKN,1500,,,,,MVFR,,,,,,,,,,,,SPECI,2386.0
SEGU 060700Z 23006KT 9999 FEW010 BKN023 BKN100 25/23 Q1011 NOSIG RMK A2985,SEGU,2023-06-06T07:00:00Z,-2.15,-79.88,25.0,23.0,230,6,,6.21,29.852362,,,,,,TRUE,,,,,FEW,1000,BKN,2300,BKN,10000,,,MVFR,,,,,,,,,,,,METAR,6.0
SCVM 060700Z 14004KT CAVOK 09/08 Q1016,SCVM,2023-06-06T07:00:00Z,-32.95,-71.48,9.0,8.0,140,4,,6.21,30.0,,,,,,,,,,,CAVOK,,,,,,,,VFR,,,,,,,,,,,,METAR,136.0
SCVD 060700Z AUTO 08003KT 9999 R35///// RA FEW030 OVC045 10/10 Q1013,SCVD,2023-06-06T07:00:00Z,-39.65,-73.08,10.0,10.0,80,3,,6.21,29.911417,,,TRUE,,,,,,,RA,FEW,3000,OVC,4500,,,,,VFR,,,,,,,,,,,,SPECI,19.0
SCTN 060700Z AUTO 34012KT 9999 OVC036 11/10 Q1008,SCTN,2023-06-06T07:00:00Z,-42.92,-72.7,11.0,10.0,340,12,,6.21,29.763779,,,TRUE,,,,,,,,OVC,3600,,,,,,,VFR,,,,,,,,,,,,METAR,8.0
SCTE 060700Z VRB02KT CAVOK 09/09 Q1011 NOSIG,SCTE,2023-06-06T07:00:00Z,-41.43,-73.08,9.0,9.0,0,2,,6.21,29.852362,,,,,,TRUE,,,,,CAVOK,,,,,,,,VFR,,,,,,,,,,,,METAR,85.0
SCSN 060700Z AUTO 09003KT 070V150 9999 NCD 08/08 Q1016,SCSN,2023-06-06T07:00:00Z,-33.65,-71.62,8.0,8.0,90,3,,6.21,30.0,,,TRUE,,,,,,,,CLR,,,,,,,,VFR,,,,,,,,,,,,METAR,73.0
SCSE 060700Z AUTO 12003KT 9999 OVC007/// 12/11 Q1015,SCSE,2023-06-06T07:00:00Z,-29.92,-71.2,12.0,11.0,120,3,,6.21,29.970472,,,TRUE,,,,,,,,OVC,700,,,,,,,IFR,,,,,,,,,,,,METAR,141.0
SCQP 060700Z 28009KT 6000 RA SCT003 BKN007 OVC022 12/12 Q1012,SCQP,2023-06-06T07:00:00Z,-38.92,-72.65,12.0,12.0,280,9,,3.73,29.88189,,,,,,,,,,RA,SCT,300,BKN,700,OVC,2200,,,IFR,,,,,,,,,,,,METAR,97.0
SCPQ 060700Z AUTO VRB02KT //// R35/P2000N BKN037 BKN046 10/05 Q1008,SCPQ,2023-06-06T07:00:00Z,-42.33,-73.72,10.0,5.0,0,2,,1.24,29.763779,,,TRUE,,,,,,,,BKN,3700,BKN,4600,,,,,IFR,,,,,,,,,,,,METAR,166.0
SCON 060700Z AUTO 27004KT 240V300 9999 FEW025/// 08/07 Q1008,SCON,2023-06-06T07:00:00Z,-43.13,-73.62,8.0,7.0,270,4,,6.21,29.763779,,,TRUE,,,,,,,,FEW,2500,,,,,,,VFR,,,,,,,,,,,,METAR,11.0
SCMK 060700Z AUTO 27009KT 210V330 //// // BKN035/// 10/07 Q1007,SCMK,2023-06-06T07:00:00Z,-43.9,-73.73,10.0,7.0,270,9,,,29.734253,,,TRUE,,,,,,,,BKN,3500,,,,,,,,,,,,,,,,,,,METAR,22.0
SCJO 060700Z AUTO 01009KT 9999 -RA BKN072/// OVC083/// 10/08 Q1011,SCJO,2023-06-06T07:00:00Z,-40.6,-73.05,10.0,8.0,10,9,,6.21,29.852362,,,TRUE,,,,,,,-RA,BKN,7200,OVC,8300,,,,,VFR,,,,,,,,,,,,METAR,61.0
SCIP 060700Z 31015KT 9999 FEW010 SCT020 BKN160 21/19 Q1006 RESHRA TEMPO SHRA,SCIP,2023-06-06T07:00:00Z,-27.17,-109.43,21.0,19.0,310,15,,6.21,29.704725,,,,,,,,,,,FEW,1000,SCT,2000,BKN,16000,,,VFR,,,,,,,,,,,,SPECI,48.0
SCIE 060700Z 02008KT 8000 SCT004 BKN013 OVC030 13/13 Q1016,SCIE,2023-06-06T07:00:00Z,-36.77,-73.07,13.0,13.0,20,8,,4.97,30.0,,,,,,,,,,,SCT,400,BKN,1300,OVC,3000,,,MVFR,,,,,,,,,,,,METAR,8.0
SCIC 060700Z AUTO 00000KT //// R/////// NCD 10/09 Q1016,SCIC,2023-06-06T07:00:00Z,-34.97,-71.22,10.0,9.0,0,0,,,30.0,,,TRUE,,,,,,,,CLR,,,,,,,,,,,,,,,,,,,,METAR,230.0
SCHR 060700Z AUTO VRB03KT 9999 // BKN022 OVC030 04/02 Q0991,SCHR,2023-06-06T07:00:00Z,-47.23,-72.58,4.0,2.0,0,3,,6.21,29.26181,,,TRUE,,,,,,,,BKN,2200,OVC,3000,,,,,MVFR,,,,,,,,,,,,METAR,203.0
SCFA 060700Z 36004KT 9999 OVC020 16/11 Q1016 NOSIG,SCFA,2023-06-06T07:00:00Z,-23.43,-70.43,16.0,11.0,360,4,,6.21,30.0,,,,,,TRUE,,,,,OVC,2000,,,,,,,MVFR,,,,,,,,,,,,METAR,113.0
SCEL 060700Z 34003KT 300V030 5000 FU NSC 06/02 Q1017 NOSIG,SCEL,2023-06-06T07:00:00Z,-33.38,-70.78,6.0,2.0,340,3,,3.11,30.029528,,,,,,TRUE,,,,FU,CLR,,,,,,,,MVFR,,,,,,,,,,,,METAR,478.0
SCDA 060700Z 02004KT 9999 OVC027 19/13 Q1015,SCDA,2023-06-06T07:00:00Z,-20.53,-70.17,19.0,13.0,20,4,,6.21,29.970472,,,,,,,,,,,OVC,2700,,,,,,,MVFR,,,,,,,,,,,,METAR,41.0
SCCY 060700Z AUTO 04006KT 360V070 9999 -RA FEW031 SCT035 OVC042 05/03 Q0999,SCCY,2023-06-06T07:00:00Z,-45.58,-72.1,5.0,3.0,40,6,,6.21,29.498032,,,TRUE,,,,,,,-RA,FEW,3100,SCT,3500,OVC,4200,,,VFR,,,,,,,,,,,,METAR,301.0
SCCI 060700Z 18005KT 9999 SCT007 BKN070 OVC200 02/01 Q0974 NOSIG,SCCI,2023-06-06T07:00:00Z,-53.0,-70.85,2.0,1.0,180,5,,6.21,28.759842,,,,,,TRUE,,,,,SCT,700,BKN,7000,OVC,20000,,,VFR,,,,,,,,,,,,METAR,37.0
SCCF 060700Z AUTO 11022KT 9999 NCD 02/M27 Q1027,SCCF,2023-06-06T07:00:00Z,-22.5,-68.9,2.0,-27.0,110,22,,6.21,30.324802,,,TRUE,,,,,,,,CLR,,,,,,,,VFR,,,,,,,,,,,,METAR,2290.0
SCBA 060700Z AUTO 29026KT 9999 -RA FEW015/// BKN033/// 03/01 Q0996,SCBA,2023-06-06T07:00:00Z,-45.92,-71.68,3.0,1.0,290,26,,6.21,29.409449,,,TRUE,,,,,,,-RA,FEW,1500,BKN,3300,,,,,VFR,,,,,,,,,,,,METAR,516.0
SCAT 060700Z AUTO 01006KT 9999 OVC008/// 13/11 Q1015,SCAT,2023-06-06T07:00:00Z,-27.27,-70.77,13.0,11.0,10,6,,6.21,29.970472,,,TRUE,,,,,,,,OVC,800,,,,,,,IFR,,,,,,,,,,,,METAR,209.0
SCAR 060700Z 03003KT 9999 OVC023 19/14 Q1015,SCAR,2023-06-06T07:00:00Z,-18.35,-70.33,19.0,14.0,30,3,,6.21,29.970472,,,,,,,,,,,OVC,2300,,,,,,,MVFR,,,,,,,,,,,,METAR,57.0
SCAP 060700Z AUTO 32004KT 270V020 9999 ////// 06/04 Q1008 RERA,SCAP,2023-06-06T07:00:00Z,-43.62,-71.8,6.0,4.0,320,4,,6.21,29.763779,,,TRUE,,,,,,,,,,,,,,,,,,,,,,,,,,,,METAR,252.0
SBVT 060700Z 33001KT CAVOK 16/15 Q1019,SBVT,2023-06-06T07:00:00Z,-20.25,-40.28,16.0,15.0,330,1,,6.21,30.088583,,,,,,,,,,,CAVOK,,,,,,,,VFR,,,,,,,,,,,,METAR,4.0
SBUR 060700Z 07005KT CAVOK 16/10 Q1020,SBUR,2023-06-06T07:00:00Z,-19.77,-47.97,16.0,10.0,70,5,,6.21,30.11811,,,,,,,,,,,CAVOK,,,,,,,,VFR,,,,,,,,,,,,METAR,807.0
SBUL 060700Z 11009KT CAVOK 15/10 Q1021,SBUL,2023-06-06T07:00:00Z,-18.87,-48.22,15.0,10.0,110,9,,6.21,30.147638,,,,,,,,,,,CAVOK,,,,,,,,VFR,,,,,,,,,,,,METAR,945.0
SBTU 060700Z AUTO 22004KT 9999 ///////// 25/22 Q1014,SBTU,2023-06-06T07:00:00Z,-3.78,-49.72,25.0,22.0,220,4,,6.21,29.940945,,,TRUE,,,,,,,,,,,,,,,,,,,,,,,,,,,,METAR,250.0
SBTE 060700Z 14003KT 9999 BKN025 BKN090 25/22 Q1012,SBTE,2023-06-06T07:00:00Z,-5.05,-42.82,25.0,22.0,140,3,,6.21,29.88189,,,,,,,,,,,BKN,2500,BKN,9000,,,,,MVFR,,,,,,,,,,,,METAR,60.0
SBSV 060700Z 13012KT 9999 VCSH BKN020 OVC060 25/22 Q1016,SBSV,2023-06-06T07:00:00Z,-12.9,-38.32,25.0,22.0,130,12,,6.21,30.0,,,,,,,,,,VCSH,BKN,2000,OVC,6000,,,,,MVFR,,,,,,,,,,,,METAR,9.0
SBSR 060700Z 17005KT CAVOK 16/12 Q1019,SBSR,2023-06-06T07:00:00Z,-20.8,-49.4,16.0,12.0,170,5,,6.21,30.088583,,,,,,,,,,,CAVOK,,,,,,,,VFR,,,,,,,,,,,,METAR,537.0
SBSP 060700Z AUTO 14004KT CAVOK 13/12 Q1023,SBSP,2023-06-06T07:00:00Z,-23.62,-46.65,13.0,12.0,140,4,,6.21,30.206694,,,TRUE,,,,,,,,CAVOK,,,,,,,,VFR,,,,,,,,,,,,METAR,802.0
SBSN 060700Z 08001KT 9999 FEW015 24/24 Q1012,SBSN,2023-06-06T07:00:00Z,-2.42,-54.78,24.0,24.0,80,1,,6.21,29.88189,,,,,,,,,,,FEW,1500,,,,,,,VFR,,,,,,,,,,,,METAR,57.0
SBSL 060700Z 22002KT 9999 BKN017 BKN100 26/25 Q1012,SBSL,2023-06-06T07:00:00Z,-2.58,-44.23,26.0,25.0,220,2,,6.21,29.88189,,,,,,,,,,,BKN,1700,BKN,10000,,,,,MVFR,,,,,,,,,,,,METAR,53.0
SBSG 060700Z 19003KT CAVOK 22/21 Q1014,SBSG,2023-06-06T07:00:00Z,-5.77,-35.37,22.0,21.0,190,3,,6.21,29.940945,,,,,,,,,,,CAVOK,,,,,,,,VFR,,,,,,,,,,,,METAR,83.0
SBSC 060700Z 33005KT 9999 SCT010 17/17 Q1020,SBSC,2023-06-06T07:00:00Z,-22.92,-43.72,17.0,17.0,330,5,,6.21,30.11811,,,,,,,,,,,SCT,1000,,,,,,,VFR,,,,,,,,,,,,METAR,6.0
SBRP 060700Z 11005KT CAVOK 13/11 Q1020,SBRP,2023-06-06T07:00:00Z,-21.13,-47.77,13.0,11.0,110,5,,6.21,30.11811,,,,,,,,,,,CAVOK,,,,,,,,VFR,,,,,,,,,,,,METAR,550.0
SBRJ 060700Z 36003KT 9999 FEW015 BKN050 21/19 Q1020,SBRJ,2023-06-06T07:00:00Z,-22.9,-43.17,21.0,19.0,360,3,,6.21,30.11811,,,,,,,,,,,FEW,1500,BKN,5000,,,,,VFR,,,,,,,,,,,,METAR,6.0
SBRF 060700Z 22003KT 4000 -RA BR BKN010 SCT021 BKN040 24/23 Q1014,SBRF,2023-06-06T07:00:00Z,-8.13,-34.92,24.0,23.0,220,3,,2.49,29.940945,,,,,,,,,,-RA BR,BKN,1000,SCT,2100,BKN,4000,,,IFR,,,,,,,,,,,,METAR,10.0
SBRB 060700Z 34002KT CAVOK 22/21 Q1016,SBRB,2023-06-06T07:00:00Z,-9.87,-67.88,22.0,21.0,340,2,,6.21,30.0,,,,,,,,,,,CAVOK,,,,,,,,VFR,,,,,,,,,,,,METAR,190.0
SBPV 060700Z 00000KT 9999 -RA FEW003 BKN060 24/23 Q1013,SBPV,2023-06-06T07:00:00Z,-8.72,-63.9,24.0,23.0,0,0,,6.21,29.911417,,,,,,,,,,-RA,FEW,300,BKN,6000,,,,,VFR,,,,,,,,,,,,METAR,89.0
SBPS 060700Z 26006KT 9999 FEW025 19/18 Q1018,SBPS,2023-06-06T07:00:00Z,-16.43,-39.07,19.0,18.0,260,6,,6.21,30.059055,,,,,,,,,,,FEW,2500,,,,,,,VFR,,,,,,,,,,,,METAR,44.0
SBPL 060700Z 17006KT CAVOK 21/20 Q1016,SBPL,2023-06-06T07:00:00Z,-9.37,-40.57,21.0,20.0,170,6,,6.21,30.0,,,,,,,,,,,CAVOK,,,,,,,,VFR,,,,,,,,,,,,METAR,386.0
SBPJ 060700Z 13004KT CAVOK 23/18 Q1014,SBPJ,2023-06-06T07:00:00Z,-10.28,-48.37,23.0,18.0,130,4,,6.21,29.940945,,,,,,,,,,,CAVOK,,,,,,,,VFR,,,,,,,,,,,,METAR,226.0
SBPA 060700Z 07004KT 9999 SCT024 12/11 Q1021,SBPA,2023-06-06T07:00:00Z,-30.0,-51.17,12.0,11.0,70,4,,6.21,30.147638,,,,,,,,,,,SCT,2400,,,,,,,VFR,,,,,,,,,,,,METAR,3.0
SBNT 060700Z 18004KT CAVOK 22/22 Q1013,SBNT,2023-06-06T07:00:00Z,-5.92,-35.25,22.0,22.0,180,4,,6.21,29.911417,,,,,,,,,,,CAVOK,,,,,,,,VFR,,,,,,,,,,,,METAR,51.0
SBMQ 060700Z 03004KT 9999 FEW019 26/26 Q1012,SBMQ,2023-06-06T07:00:00Z,0.05,-51.07,26.0,26.0,30,4,,6.21,29.88189,,,,,,,,,,,FEW,1900,,,,,,,VFR,,,,,,,,,,,,METAR,15.0
SBMO 060700Z 25005KT 9999 -RA BKN017 OVC023 23/22 Q1014,SBMO,2023-06-06T07:00:00Z,-9.52,-35.78,23.0,22.0,250,5,,6.21,29.940945,,,,,,,,,,-RA,BKN,1700,OVC,2300,,,,,MVFR,,,,,,,,,,,,METAR,116.0
SBMN 060700Z 18002KT 9999 SCT006 26/25 Q1013,SBMN,2023-06-06T07:00:00Z,-3.13,-59.98,26.0,25.0,180,2,,6.21,29.911417,,,,,,,,,,,SCT,600,,,,,,,VFR,,,,,,,,,,,,METAR,71.0
SBMG 060700Z 10015KT CAVOK 17/13 Q1019,SBMG,2023-06-06T07:00:00Z,-23.48,-52.02,17.0,13.0,100,15,,6.21,30.088583,,,,,,,,,,,CAVOK,,,,,,,,VFR,,,,,,,,,,,,METAR,543.0
SBME 060700Z 32003KT CAVOK 16/16 Q1020,SBME,2023-06-06T07:00:00Z,-22.35,-41.77,16.0,16.0,320,3,,6.21,30.11811,,,,,,,,,,,CAVOK,,,,,,,,VFR,,,,,,,,,,,,METAR,2.0
SBMA 060700Z 00000KT CAVOK 23/23 Q1013,SBMA,2023-06-06T07:00:00Z,-5.37,-49.13,23.0,23.0,0,0,,6.21,29.911417,,,,,,,,,,,CAVOK,,,,,,,,VFR,,,,,,,,,,,,METAR,110.0
SBLO 060700Z 13005KT CAVOK 16/14 Q1021,SBLO,2023-06-06T07:00:00Z,-23.33,-51.12,16.0,14.0,130,5,,6.21,30.147638,,,,,,,,,,,CAVOK,,,,,,,,VFR,,,,,,,,,,,,METAR,563.0
SBLB 060700Z AUTO 26015KT 9999 NCD 24/18 Q1019 W///S3,SBLB,2023-06-06T07:00:00Z,-22.1,-39.92,24.0,18.0,260,15,,6.21,30.088583,,,TRUE,,,,,,,,CLR,,,,,,,,VFR,,,,,,,,,,,,METAR,10.0
SBKP 060700Z 13011KT 7000 NSC 14/12 Q1021,SBKP,2023-06-06T07:00:00Z,-23.0,-47.13,14.0,12.0,130,11,,4.35,30.147638,,,,,,,,,,,CLR,,,,,,,,MVFR,,,,,,,,,,,,METAR,659.0
SBKG 060700Z 18004KT CAVOK 21/19 Q1016,SBKG,2023-06-06T07:00:00Z,-7.27,-35.88,21.0,19.0,180,4,,6.21,30.0,,,,,,,,,,,CAVOK,,,,,,,,VFR,,,,,,,,,,,,METAR,499.0
SBJU 060700Z 00000KT CAVOK 21/20 Q1018,SBJU,2023-06-06T07:00:00Z,-7.22,-39.27,21.0,20.0,0,0,,6.21,30.059055,,,,,,,,,,,CAVOK,,,,,,,,VFR,,,,,,,,,,,,METAR,407.0
SBJP 060700Z 18005KT CAVOK 23/23 Q1014,SBJP,2023-06-06T07:00:00Z,-7.15,-34.95,23.0,23.0,180,5,,6.21,29.940945,,,,,,,,,,,CAVOK,,,,,,,,VFR,,,,,,,,,,,,METAR,66.0
SBIZ 060700Z 00000KT CAVOK 23/20 Q1013,SBIZ,2023-06-06T07:00:00Z,-5.52,-47.45,23.0,20.0,0,0,,6.21,29.911417,,,,,,,,,,,CAVOK,,,,,,,,VFR,,,,,,,,,,,,METAR,131.0
SBGR 060700Z 10001KT 4000 BR SCT008 11/11 Q1023,SBGR,2023-06-06T07:00:00Z,-23.42,-46.47,11.0,11.0,100,1,,2.49,30.206694,,,,,,,,,,BR,SCT,800,,,,,,,IFR,,,,,,,,,,,,METAR,745.0
SBGO 060700Z 13003KT CAVOK 14/11 Q1019,SBGO,2023-06-06T07:00:00Z,-16.62,-49.22,14.0,11.0,130,3,,6.21,30.088583,,,,,,,,,,,CAVOK,,,,,,,,VFR,,,,,,,,,,,,METAR,740.0
SBGL 060700Z 00000KT 9999 FEW015 BKN050 18/17 Q1020,SBGL,2023-06-06T07:00:00Z,-22.82,-43.25,18.0,17.0,0,0,,6.21,30.11811,,,,,,,,,,,FEW,1500,BKN,5000,,,,,VFR,,,,,,,,,,,,METAR,3.0
SBFZ 060700Z 13005KT 9999 BKN020 27/24 Q1012,SBFZ,2023-06-06T07:00:00Z,-3.77,-38.52,27.0,24.0,130,5,,6.21,29.88189,,,,,,,,,,,BKN,2000,,,,,,,MVFR,,,,,,,,,,,,METAR,32.0
SBFN 060700Z AUTO 10004KT 060V130 9999 SCT017 BKN028 25/24 Q1013,SBFN,2023-06-06T07:00:00Z,-3.85,-32.42,25.0,24.0,100,4,,6.21,29.911417,,,TRUE,,,,,,,,SCT,1700,BKN,2800,,,,,MVFR,,,,,,,,,,,,METAR,52.0
SBFL 060700Z 28004KT 9999 BKN031 19/18 Q1020,SBFL,2023-06-06T07:00:00Z,-27.67,-48.53,19.0,18.0,280,4,,6.21,30.11811,,,,,,,,,,,BKN,3100,,,,,,,VFR,,,,,,,,,,,,METAR,5.0
SBFI 060700Z 13006KT CAVOK 16/15 Q1018,SBFI,2023-06-06T07:00:00Z,-25.6,-54.48,16.0,15.0,130,6,,6.21,30.059055,,,,,,,,,,,CAVOK,,,,,,,,VFR,,,,,,,,,,,,METAR,233.0
SBDN 060700Z 10009KT CAVOK 17/13 Q1019,SBDN,2023-06-06T07:00:00Z,-22.18,-51.43,17.0,13.0,100,9,,6.21,30.088583,,,,,,,,,,,CAVOK,,,,,,,,VFR,,,,,,,,,,,,METAR,438.0
SBCY 060700Z 00000KT CAVOK 17/16 Q1015,SBCY,2023-06-06T07:00:00Z,-15.65,-56.12,17.0,16.0,0,0,,6.21,29.970472,,,,,,,,,,,CAVOK,,,,,,,,VFR,,,,,,,,,,,,METAR,182.0
SBCT 060700Z VRB01KT 6000 FEW004 BKN008 OVC020 14/13 Q1023,SBCT,2023-06-06T07:00:00Z,-25.52,-49.17,14.0,13.0,0,1,,3.73,30.206694,,,,,,,,,,,FEW,400,BKN,800,OVC,2000,,,IFR,,,,,,,,,,,,METAR,914.0
SBCG 060700Z 09008KT CAVOK 18/12 Q1018,SBCG,2023-06-06T07:00:00Z,-20.47,-54.67,18.0,12.0,90,8,,6.21,30.059055,,,,,,,,,,,CAVOK,,,,,,,,VFR,,,,,,,,,,,,METAR,556.0
SBCF 060700Z 09003KT CAVOK 14/11 Q1022,SBCF,2023-06-06T07:00:00Z,-19.63,-43.97,14.0,11.0,90,3,,6.21,30.177166,,,,,,,,,,,CAVOK,,,,,,,,VFR,,,,,,,,,,,,METAR,825.0
SBBV 060700Z 32003KT CAVOK 23/22 Q1013,SBBV,2023-06-06T07:00:00Z,2.85,-60.7,23.0,22.0,320,3,,6.21,29.911417,,,,,,,,,,,CAVOK,,,,,,,,VFR,,,,,,,,,,,,METAR,80.0
SBBR 060700Z 20002KT CAVOK 15/10 Q1020,SBBR,2023-06-06T07:00:00Z,-15.87,-47.92,15.0,10.0,200,2,,6.21,30.11811,,,,,,,,,,,CAVOK,,,,,,,,VFR,,,,,,,,,,,,METAR,1051.0
SBBH 060700Z 09005KT CAVOK 13/09 Q1021,SBBH,2023-06-06T07:00:00Z,-19.85,-43.95,13.0,9.0,90,5,,6.21,30.147638,,,,,,,,,,,CAVOK,,,,,,,,VFR,,,,,,,,,,,,METAR,799.0
SBBG 060700Z AUTO 04005KT 9999 BKN005 ///// Q////,SBBG,2023-06-06T07:00:00Z,-31.38,-54.12,,,40,5,,6.21,,,,TRUE,,,,,,,,BKN,500,,,,,,,IFR,,,,,,,,,,,,METAR,182.0
SBBE 060700Z 08003KT CAVOK 25/24 Q1013,SBBE,2023-06-06T07:00:00Z,-1.37,-48.47,25.0,24.0,80,3,,6.21,29.911417,,,,,,,,,,,CAVOK,,,,,,,,VFR,,,,,,,,,,,,METAR,16.0
SBAR 060700Z 24005KT 9999 BKN023 BKN045 23/22 Q1014,SBAR,2023-06-06T07:00:00Z,-10.98,-37.07,23.0,22.0,240,5,,6.21,29.940945,,,,,,,,,,,BKN,2300,BKN,4500,,,,,MVFR,,,,,,,,,,,,METAR,4.0
SBAN 060700Z 11007KT CAVOK 15/10 Q1021,SBAN,2023-06-06T07:00:00Z,-16.22,-48.97,15.0,10.0,110,7,,6.21,30.147638,,,,,,,,,,,CAVOK,,,,,,,,VFR,,,,,,,,,,,,METAR,1131.0
SAZS 060700Z 30012KT 5000 RA BKN015 OVC020 04/03 Q1009 RMK PP///,SAZS,2023-06-06T07:00:00Z,-41.15,-71.17,4.0,3.0,300,12,,3.11,29.793306,,,,,,,,,,RA,BKN,1500,OVC,2000,,,,,MVFR,,,,,,,,,,,,METAR,843.0
SAZM 060700Z 32015KT CAVOK 07/05 Q1014 RMK PP///,SAZM,2023-06-06T07:00:00Z,-37.92,-57.57,7.0,5.0,320,15,,6.21,29.940945,,,,,,,,,,,CAVOK,,,,,,,,VFR,,,,,,,,,,,,SPECI,17.0
SAWH 060700Z 27003KT CAVOK 03/01 Q0973 RMK PP000,SAWH,2023-06-06T07:00:00Z,-54.85,-68.3,3.0,1.0,270,3,,6.21,28.730314,,,,,,,,,,,CAVOK,,,,,,,,VFR,,,,,,,,,,,,METAR,22.0
SAWG 060700Z 29021G31KT 9999 FEW030 OVC070 06/M00 Q0976,SAWG,2023-06-06T07:00:00Z,-51.62,-69.27,6.0,0.0,290,21,31,6.21,28.818897,,,,,,,,,,,FEW,3000,OVC,7000,,,,,VFR,,,,,,,,,,,,METAR,15.0
SAWE 060700Z 21003KT 0600 R26/1700D FG FEW004 01/01 Q0974 RMK PP999,SAWE,2023-06-06T07:00:00Z,-53.78,-67.75,1.0,1.0,210,3,,0.37,28.759842,,,,,,,,,,FG,FEW,400,,,,,,,LIFR,,,,,,,,,,,,SPECI,22.0
SAVC 060700Z 28029G45KT 3500 BLDU NSC 13/M02 Q0994 RMK PP000,SAVC,2023-06-06T07:00:00Z,-45.78,-67.47,13.0,-2.0,280,29,45,2.17,29.350393,,,,,,,,,,BLDU,CLR,,,,,,,,IFR,,,,,,,,,,,,SPECI,58.0
SASJ 060700Z 33004KT 290V360 9000 NSC 13/13 Q1018 RMK PP000,SASJ,2023-06-06T07:00:00Z,-24.38,-65.1,13.0,13.0,330,4,,5.59,30.059055,,,,,,,,,,,CLR,,,,,,,,VFR,,,,,,,,,,,,SPECI,913.0
SASA 060700Z 25003KT 9999 OVC040 14/12 Q1019 RMK PP000,SASA,2023-06-06T07:00:00Z,-24.85,-65.48,14.0,12.0,250,3,,6.21,30.088583,,,,,,,,,,,OVC,4000,,,,,,,VFR,,,,,,,,,,,,SPECI,1235.0
SARL 060700Z 07008KT 9999 BKN008 17/16 Q1018,SARL,2023-06-06T07:00:00Z,-29.68,-57.15,17.0,16.0,70,8,,6.21,30.059055,,,,,,,,,,,BKN,800,,,,,,,IFR,,,,,,,,,,,,METAR,70.0
SARI 060700Z 07006KT CAVOK 17/15 Q1018 RMK PP000,SARI,2023-06-06T07:00:00Z,-25.73,-54.47,17.0,15.0,70,6,,6.21,30.059055,,,,,,,,,,,CAVOK,,,,,,,,VFR,,,,,,,,,,,,SPECI,268.0
SARF 060700Z 16002KT CAVOK 18/17 Q1016,SARF,2023-06-06T07:00:00Z,-26.22,-58.22,18.0,17.0,160,2,,6.21,30.0,,,,,,,,,,,CAVOK,,,,,,,,VFR,,,,,,,,,,,,METAR,65.0
SARE 060700Z VRB02KT 8000 NSC 18/18 Q1016 RMK PP///,SARE,2023-06-06T07:00:00Z,-27.43,-59.05,18.0,18.0,0,2,,4.97,30.0,,,,,,,,,,,CLR,,,,,,,,MVFR,,,,,,,,,,,,SPECI,52.0
SARC 060700Z 00000KT CAVOK 18/18 Q1016,SARC,2023-06-06T07:00:00Z,-27.43,-58.77,18.0,18.0,0,0,,6.21,30.0,,,,,,,,,,,CAVOK,,,,,,,,VFR,,,,,,,,,,,,METAR,60.0
SAOC 060700Z 36012KT 9999 -DZ OVC010 14/14 Q1013,SAOC,2023-06-06T07:00:00Z,-33.08,-64.27,14.0,14.0,360,12,,6.21,29.911417,,,,,,,,,,-DZ,OVC,1000,,,,,,,MVFR,,,,,,,,,,,,METAR,422.0
SANT 060700Z 08003KT 050V110 4000 BR BKN002 OVC010 15/15 Q1015 RMK PP000,SANT,2023-06-06T07:00:00Z,-26.85,-65.1,15.0,15.0,80,3,,2.49,29.970472,,,,,,,,,,BR,BKN,200,OVC,1000,,,,,LIFR,,,,,,,,,,,,SPECI,446.0
SAME 060700Z 00000KT CAVOK 06/02 Q1012,SAME,2023-06-06T07:00:00Z,-32.82,-68.78,6.0,2.0,0,0,,6.21,29.88189,,,,,,,,,,,CAVOK,,,,,,,,VFR,,,,,,,,,,,,METAR,709.0
SAEZ 060700Z 30004KT CAVOK 09/07 Q1017 NOSIG RMK PP000,SAEZ,2023-06-06T07:00:00Z,-34.82,-58.53,9.0,7.0,300,4,,6.21,30.029528,,,,,,TRUE,,,,,CAVOK,,,,,,,,VFR,,,,,,,,,,,,SPECI,16.0
SADF 060700Z 05002KT CAVOK 09/08 Q1017 RMK PP000,SADF,2023-06-06T07:00:00Z,-34.45,-58.58,9.0,8.0,50,2,,6.21,30.029528,,,,,,,,,,,CAVOK,,,,,,,,VFR,,,,,,,,,,,,METAR,4.0
SABE 060700Z 33008KT CAVOK 13/10 Q1017 NOSIG RMK PP000,SABE,2023-06-06T07:00:00Z,-34.57,-58.42,13.0,10.0,330,8,,6.21,30.029528,,,,,,TRUE,,,,,CAVOK,,,,,,,,VFR,,,,,,,,,,,,SPECI,3.0
RPVP 060700Z 18006KT 9999 FEW017CB SCT019 BKN080 31/26 Q1007 RMK A2974 CB SW/W-NW,RPVP,2023-06-06T07:00:00Z,9.75,118.75,31.0,26.0,180,6,,6.21,29.734253,,,,,,,,,,,FEW,1700,SCT,1900,BKN,8000,,,VFR,,,,,,,,,,,,METAR,15.0
RPVM 060700Z 04005KT 9999 FEW020 BKN100 30/26 Q1008 NOSIG RMK A2977,RPVM,2023-06-06T07:00:00Z,10.32,123.98,30.0,26.0,40,5,,6.21,29.763779,,,,,,TRUE,,,,,FEW,2000,BKN,10000,,,,,VFR,,,,,,,,,,,,METAR,9.0
RPVD 060700Z 07008KT 9999 VCSH FEW014CB 31/26 Q1007 RMK A2974 CB/VCSH NE/NW,RPVD,2023-06-06T07:00:00Z,9.33,123.3,31.0,26.0,70,8,,6.21,29.734253,,,,,,,,,,VCSH,FEW,1400,,,,,,,VFR,,,,,,,,,,,,METAR,11.0
RPMZ 060700Z 28007KT 9999 FEW017 BKN090 30/25 Q1008 RMK A2977,RPMZ,2023-06-06T07:00:00Z,6.92,122.07,30.0,25.0,280,7,,6.21,29.763779,,,,,,,,,,,FEW,1700,BKN,9000,,,,,VFR,,,,,,,,,,,,METAR,8.0
RPMR 060700Z 35004KT 330V040 9999 FEW018CB SCT080 32/24 Q1007 RMK A2974 CB NE/SW/NW,RPMR,2023-06-06T07:00:00Z,6.05,125.1,32.0,24.0,350,4,,6.21,29.734253,,,,,,,,,,,FEW,1800,SCT,8000,,,,,VFR,,,,,,,,,,,,METAR,47.0
RPMD 060700Z 28004KT 250V310 9999 FEW015CB SCT260 30/23 Q1007 RMK A2974 CB N/SW,RPMD,2023-06-06T07:00:00Z,7.12,125.65,30.0,23.0,280,4,,6.21,29.734253,,,,,,,,,,,FEW,1500,SCT,26000,,,,,VFR,,,,,,,,,,,,METAR,19.0
RPLL 060700Z 22006KT 190V250 8000 TS FEW022CB SCT023 BKN100 29/26 Q1007 NOSIG RMK A2974 CB N/NE/S/OHD,RPLL,2023-06-06T07:00:00Z,14.52,121.0,29.0,26.0,220,6,,4.97,29.734253,,,,,,TRUE,,,,TS,FEW,2200,SCT,2300,BKN,10000,,,MVFR,,,,,,,,,,,,METAR,15.0
RPLI 060700Z 24004KT 200V280 7000 -TSRA SCT017CB SCT018 OVC100 29/27 Q1008 NOSIG RMK A2977 CB ALQDS,RPLI,2023-06-06T07:00:00Z,18.17,120.52,29.0,27.0,240,4,,4.35,29.763779,,,,,,TRUE,,,,-TSRA,SCT,1700,SCT,1800,OVC,10000,,,MVFR,,,,,,,,,,,,METAR,5.0
RPLC 060700Z 16006KT 7000 FEW015CB SCT020 OVC100 33/25 Q1007 NOSIG RMK A2974 CB NW,RPLC,2023-06-06T07:00:00Z,15.18,120.55,33.0,25.0,160,6,,4.35,29.734253,,,,,,TRUE,,,,,FEW,1500,SCT,2000,OVC,10000,,,MVFR,,,,,,,,,,,,METAR,138.0
RPLB 060700Z 22011KT 6000 SCT018 BKN080 30/24 Q1008 RETS NOSIG RMK A2977,RPLB,2023-06-06T07:00:00Z,14.8,120.27,30.0,24.0,220,11,,3.73,29.763779,,,,,,TRUE,,,,,SCT,1800,BKN,8000,,,,,MVFR,,,,,,,,,,,,METAR,19.0
ROYN 060700Z AUTO 21012KT 9999 SCT014 30/25 Q1008,ROYN,2023-06-06T07:00:00Z,24.47,122.97,30.0,25.0,210,12,,6.21,29.763779,,,TRUE,,,,,,,,SCT,1400,,,,,,,VFR,,,,,,,,,,,,METAR,21.0
RORY 060700Z AUTO 24011KT 9999 NCD 28/25 Q1009,RORY,2023-06-06T07:00:00Z,27.05,128.4,28.0,25.0,240,11,,6.21,29.793306,,,TRUE,,,,,,,,CLR,,,,,,,,VFR,,,,,,,,,,,,METAR,13.0
RORT 060700Z AUTO 19011KT 9999 NCD 29/26 Q1009,RORT,2023-06-06T07:00:00Z,24.63,124.7,29.0,26.0,190,11,,6.21,29.793306,,,TRUE,,,,,,,,CLR,,,,,,,,VFR,,,,,,,,,,,,METAR,9.0
RORS 060700Z 21009KT 170V260 9999 FEW010 29/25 Q1009,RORS,2023-06-06T07:00:00Z,24.82,125.15,29.0,25.0,210,9,,6.21,29.793306,,,,,,,,,,,FEW,1000,,,,,,,VFR,,,,,,,,,,,,METAR,13.0
RORK 060700Z AUTO 23009KT 9999 SCT009 BKN010 28/25 Q1010,RORK,2023-06-06T07:00:00Z,25.93,131.32,28.0,25.0,230,9,,6.21,29.822834,,,TRUE,,,,,,,,SCT,900,BKN,1000,,,,,MVFR,,,,,,,,,,,,METAR,11.0
ROMY 060700Z 21012KT 9999 SCT014 28/25 Q1009,ROMY,2023-06-06T07:00:00Z,24.78,125.27,28.0,25.0,210,12,,6.21,29.793306,,,,,,,,,,,SCT,1400,,,,,,,VFR,,,,,,,,,,,,METAR,38.0
ROMD 060700Z AUTO 22010KT 9999 BKN009 28/25 Q1010,ROMD,2023-06-06T07:00:00Z,25.83,131.25,28.0,25.0,220,10,,6.21,29.822834,,,TRUE,,,,,,,,BKN,900,,,,,,,IFR,,,,,,,,,,,,METAR,45.0
ROIG 060700Z 21010KT 9999 FEW012 30/25 Q1009,ROIG,2023-06-06T07:00:00Z,24.38,124.23,30.0,25.0,210,10,,6.21,29.793306,,,,,,,,,,,FEW,1200,,,,,,,VFR,,,,,,,,,,,,METAR,37.0
ROAH 060700Z 23011KT 9999 FEW015 SCT/// 28/24 Q1009,ROAH,2023-06-06T07:00:00Z,26.18,127.65,28.0,24.0,230,11,,6.21,29.793306,,,,,,,,,,,FEW,1500,,,,,,,VFR,,,,,,,,,,,,METAR,6.0
RKTU 060700Z 32007KT CAVOK 27/15 Q1005,RKTU,2023-06-06T07:00:00Z,36.7,127.5,27.0,15.0,320,7,,6.21,29.675198,,,,,,,,,,,CAVOK,,,,,,,,VFR,,,,,,,,,,,,METAR,46.0
RKTN 060700Z 18003KT 9999 FEW050 29/12 Q1004,RKTN,2023-06-06T07:00:00Z,35.88,128.65,29.0,12.0,180,3,,6.21,29.64567,,,,,,,,,,,FEW,5000,,,,,,,VFR,,,,,,,,,,,,METAR,25.0
RKSS 060700Z 23009KT 200V290 9999 FEW035 SCT080 23/14 Q1006 NOSIG,RKSS,2023-06-06T07:00:00Z,37.55,126.78,23.0,14.0,230,9,,6.21,29.704725,,,,,,TRUE,,,,,FEW,3500,SCT,8000,,,,,VFR,,,,,,,,,,,,METAR,18.0
RKSM 060700Z 24004KT 9999 FEW030 SCT100 24/15 A2971,RKSM,2023-06-06T07:00:00Z,37.43,127.12,24.0,15.0,240,4,,6.21,29.71063,,,,,,,,,,,FEW,3000,SCT,10000,,,,,VFR,,,,,,,,,,,,METAR,18.0
RKSI 060700Z 25012KT 210V270 9999 FEW020 21/15 Q1006 NOSIG,RKSI,2023-06-06T07:00:00Z,37.47,126.45,21.0,15.0,250,12,,6.21,29.704725,,,,,,TRUE,,,,,FEW,2000,,,,,,,VFR,,,,,,,,,,,,METAR,7.0
RKPK 060700Z 20012KT 9999 FEW030 23/14 Q1005,RKPK,2023-06-06T07:00:00Z,35.17,128.93,23.0,14.0,200,12,,6.21,29.675198,,,,,,,,,,,FEW,3000,,,,,,,VFR,,,,,,,,,,,,METAR,3.0
RKPC 060700Z 03006KT 9999 FEW012 SCT035 19/17 Q1007 NOSIG,RKPC,2023-06-06T07:00:00Z,33.5,126.48,19.0,17.0,30,6,,6.21,29.734253,,,,,,TRUE,,,,,FEW,1200,SCT,3500,,,,,VFR,,,,,,,,,,,,METAR,23.0
RKNY 060700Z 05005KT 9999 FEW030 BKN100 22/13 Q1003 NOSIG,RKNY,2023-06-06T07:00:00Z,38.07,128.67,22.0,13.0,50,5,,6.21,29.616142,,,,,,TRUE,,,,,FEW,3000,BKN,10000,,,,,VFR,,,,,,,,,,,,METAR,76.0
RKJB 060700Z 29008KT 240V320 CAVOK 23/16 Q1006 NOSIG,RKJB,2023-06-06T07:00:00Z,34.98,126.38,23.0,16.0,290,8,,6.21,29.704725,,,,,,TRUE,,,,,CAVOK,,,,,,,,VFR,,,,,,,,,,,,METAR,16.0
RJTT 060700Z 20018KT 9999 FEW030 BKN160 24/16 Q1007 TEMPO 20020G30KT,RJTT,2023-06-06T07:00:00Z,35.55,139.77,24.0,16.0,200,18,,6.21,29.734253,,,,,,,,,,,FEW,3000,BKN,16000,,,,,VFR,,,2.0,,,,,,,,,METAR,5.0
RJTO 060700Z 21014KT 9999 -RA FEW015 SCT090 OVC120 20/16 Q1009,RJTO,2023-06-06T07:00:00Z,34.77,139.37,20.0,16.0,210,14,,6.21,29.793306,,,,,,,,,,-RA,FEW,1500,SCT,9000,OVC,12000,,,VFR,,,,,,,,,,,,METAR,37.0
RJTI 060700Z 21012KT 170V270 9999 FEW020 BKN150 23/16 Q1007,RJTI,2023-06-06T07:00:00Z,35.63,139.83,23.0,16.0,210,12,,6.21,29.734253,,,,,,,,,,,FEW,2000,BKN,15000,,,,,VFR,,,,,,,,,,,,METAR,4.0
RJTF 060700Z 18010KT 150V220 9999 FEW030 BKN120 BKN150 24/16 Q1006,RJTF,2023-06-06T07:00:00Z,35.67,139.52,24.0,16.0,180,10,,6.21,29.704725,,,,,,,,,,,FEW,3000,BKN,12000,BKN,15000,,,VFR,,,,,,,,,,,,METAR,37.0
RJSY 060700Z 26008KT 9999 FEW050 BKN/// 24/14 Q1005,RJSY,2023-06-06T07:00:00Z,38.82,139.78,24.0,14.0,260,8,,6.21,29.675198,,,,,,,,,,,FEW,5000,,,,,,,VFR,,,,,,,,,,,,SPECI,17.0
RJSS 060700Z 14014KT 9999 FEW015 BKN/// 22/20 Q1005,RJSS,2023-06-06T07:00:00Z,38.13,140.92,22.0,20.0,140,14,,6.21,29.675198,,,,,,,,,,,FEW,1500,,,,,,,VFR,,,,,,,,,,,,METAR,5.0
RJSR 060700Z 22009KT 9999 FEW050 BKN/// 26/07 Q1005,RJSR,2023-06-06T07:00:00Z,40.18,140.37,26.0,7.0,220,9,,6.21,29.675198,,,,,,,,,,,FEW,5000,,,,,,,VFR,,,,,,,,,,,,SPECI,83.0
RJSN 060700Z 30006KT 9999 FEW040 BKN/// 24/15 Q1005,RJSN,2023-06-06T07:00:00Z,37.95,139.12,24.0,15.0,300,6,,6.21,29.675198,,,,,,,,,,,FEW,4000,,,,,,,VFR,,,,,,,,,,,,METAR,4.0
RJSM 060700Z 03011KT 9999 FEW030 BKN140 19/12 Q1006,RJSM,2023-06-06T07:00:00Z,40.7,141.37,19.0,12.0,30,11,,6.21,29.704725,,,,,,,,,,,FEW,3000,BKN,14000,,,,,VFR,,,,,,,,,,,,METAR,31.0
RJSK 060700Z 28010KT 9999 FEW030 BKN/// 26/10 Q1006,RJSK,2023-06-06T07:00:00Z,39.62,140.22,26.0,10.0,280,10,,6.21,29.704725,,,,,,,,,,,FEW,3000,,,,,,,VFR,,,,,,,,,,,,METAR,95.0
RJSI 060700Z 18016KT 9999 SCT050 SCT100 BKN/// 27/12 Q1006,RJSI,2023-06-06T07:00:00Z,39.42,141.13,27.0,12.0,180,16,,6.21,29.704725,,,,,,,,,,,SCT,5000,SCT,10000,,,,,VFR,,,,,,,,,,,,METAR,89.0
RJSF 060700Z 17011KT 9999 FEW020 BKN/// 23/16 Q1007,RJSF,2023-06-06T07:00:00Z,37.22,140.42,23.0,16.0,170,11,,6.21,29.734253,,,,,,,,,,,FEW,2000,,,,,,,VFR,,,,,,,,,,,,SPECI,373.0
RJSC 060700Z 09007KT 050V130 9999 FEW070 BKN/// 28/15 Q1005,RJSC,2023-06-06T07:00:00Z,38.42,140.37,28.0,15.0,90,7,,6.21,29.675198,,,,,,,,,,,FEW,7000,,,,,,,VFR,,,,,,,,,,,,METAR,104.0
RJSA 060700Z 03006KT 350V060 9999 FEW040 SCT080 BKN110 20/12 Q1006,RJSA,2023-06-06T07:00:00Z,40.72,140.68,20.0,12.0,30,6,,6.21,29.704725,,,,,,,,,,,FEW,4000,SCT,8000,BKN,11000,,,VFR,,,,,,,,,,,,METAR,196.0
RJOY 060700Z 26004KT 220V290 9999 -RA FEW005 BKN015 BKN045 19/18 Q1007,RJOY,2023-06-06T07:00:00Z,34.6,135.6,19.0,18.0,260,4,,6.21,29.734253,,,,,,,,,,-RA,FEW,500,BKN,1500,BKN,4500,,,MVFR,,,,,,,,,,,,METAR,10.0
RJOW 060700Z 21003KT 160V240 9999 FEW010 SCT060 BKN070 20/16 Q1006,RJOW,2023-06-06T07:00:00Z,34.67,131.8,20.0,16.0,210,3,,6.21,29.704725,,,,,,,,,,,FEW,1000,SCT,6000,BKN,7000,,,VFR,,,,,,,,,,,,METAR,54.0
RJOT 060700Z 08004KT 040V110 8000 -RA FEW002 SCT050 BKN110 18/17 Q1006,RJOT,2023-06-06T07:00:00Z,34.22,134.02,18.0,17.0,80,4,,4.97,29.704725,,,,,,,,,,-RA,FEW,200,SCT,5000,BKN,11000,,,MVFR,,,,,,,,,,,,METAR,181.0
RJOS 060700Z 15013KT 6000 -RA SCT006 BKN050 OVC070 18/16 Q1007,RJOS,2023-06-06T07:00:00Z,34.12,134.62,18.0,16.0,150,13,,3.73,29.734253,,,,,,,,,,-RA,SCT,600,BKN,5000,OVC,7000,,,MVFR,,,,,,,,,,,,METAR,3.0
RJOR 060700Z 15009KT 120V190 9999 FEW030 SCT080 BKN130 22/15 Q1006,RJOR,2023-06-06T07:00:00Z,35.52,134.17,22.0,15.0,150,9,,6.21,29.704725,,,,,,,,,,,FEW,3000,SCT,8000,BKN,13000,,,VFR,,,,,,,,,,,,METAR,11.0
RJOO 060700Z 18004KT 130V230 9999 -RA FEW015 BKN080 OVC100 19/16 Q1007,RJOO,2023-06-06T07:00:00Z,34.78,135.43,19.0,16.0,180,4,,6.21,29.734253,,,,,,,,,,-RA,FEW,1500,BKN,8000,OVC,10000,,,VFR,,,,,,,,,,,,METAR,11.0
RJOM 060700Z 36008KT 4500 -SHRA BR FEW004 SCT006 BKN040 17/17 Q1006,RJOM,2023-06-06T07:00:00Z,33.82,132.68,17.0,17.0,360,8,,2.8,29.704725,,,,,,,,,,-SHRA BR,FEW,400,SCT,600,BKN,4000,,,IFR,,,,,,,,,,,,METAR,3.0
RJOK 060700Z VRB02KT 3500 SHRA BR FEW002 SCT005 BKN008 17/17 Q1008,RJOK,2023-06-06T07:00:00Z,33.53,133.67,17.0,17.0,0,2,,2.17,29.763779,,,,,,,,,,SHRA BR,FEW,200,SCT,500,BKN,800,,,IFR,,,,,,,,,,,,METAR,7.0
RJOH 060700Z 20003KT 140V250 9999 FEW035 BKN100 BKN220 24/15 Q1006,RJOH,2023-06-06T07:00:00Z,35.48,133.25,24.0,15.0,200,3,,6.21,29.704725,,,,,,,,,,,FEW,3500,BKN,10000,BKN,22000,,,VFR,,,,,,,,,,,,METAR,6.0
RJOC 060700Z 19007KT 9999 FEW020 BKN/// 23/15 Q1005,RJOC,2023-06-06T07:00:00Z,35.42,132.88,23.0,15.0,190,7,,6.21,29.675198,,,,,,,,,,,FEW,2000,,,,,,,VFR,,,,,,,,,,,,METAR,2.0
RJOB 060700Z 33005KT 310V020 7000 -SHRA BCFG FEW000 SCT020 BKN045 16/15 Q1008,RJOB,2023-06-06T07:00:00Z,34.75,133.85,16.0,15.0,330,5,,4.35,29.763779,,,,,,,,,,-SHRA BCFG,FEW,0,SCT,2000,BKN,4500,,,MVFR,,,,,,,,,,,,METAR,242.0
RJOA 060700Z 07007KT 8000 -SHRA PRFG FEW000 SCT008 BKN020 16/13 Q1007,RJOA,2023-06-06T07:00:00Z,34.43,132.92,16.0,13.0,70,7,,4.97,29.734253,,,,,,,,,,-SHRA PRFG,FEW,0,SCT,800,BKN,2000,,,MVFR,,,,,,,,,,,,METAR,318.0
RJNW 060700Z 25012KT 220V280 9999 FEW040 BKN/// 23/14 Q1006,RJNW,2023-06-06T07:00:00Z,37.3,136.97,23.0,14.0,250,12,,6.21,29.704725,,,,,,,,,,,FEW,4000,,,,,,,VFR,,,,,,,,,,,,SPECI,222.0
RJNT 060700Z VRB01KT 9999 FEW040 SCT140 BKN180 26/14 Q1005,RJNT,2023-06-06T07:00:00Z,36.63,137.18,26.0,14.0,0,1,,6.21,29.675198,,,,,,,,,,,FEW,4000,SCT,14000,BKN,18000,,,VFR,,,,,,,,,,,,METAR,30.0
RJNS 060700Z 22008KT 9999 -RA FEW010 SCT070 OVC100 19/16 Q1009,RJNS,2023-06-06T07:00:00Z,34.8,138.18,19.0,16.0,220,8,,6.21,29.793306,,,,,,,,,,-RA,FEW,1000,SCT,7000,OVC,10000,,,VFR,,,,,,,,,,,,METAR,133.0
RJNK 060700Z 22010KT 9999 FEW050 BKN120 BKN210 24/11 Q1005,RJNK,2023-06-06T07:00:00Z,36.38,136.42,24.0,11.0,220,10,,6.21,29.675198,,,,,,,,,,,FEW,5000,BKN,12000,BKN,21000,,,VFR,,,,,,,,,,,,METAR,7.0
RJKI 060700Z AUTO 22014KT 9999 NCD 27/23 Q1008,RJKI,2023-06-06T07:00:00Z,28.32,129.92,27.0,23.0,220,14,,6.21,29.763779,,,TRUE,,,,,,,,CLR,,,,,,,,VFR,,,,,,,,,,,,METAR,6.0
RJKA 060700Z 22015KT 9999 FEW020 BKN/// 28/22 Q1007,RJKA,2023-06-06T07:00:00Z,28.42,129.72,28.0,22.0,220,15,,6.21,29.734253,,,,,,,,,,,FEW,2000,,,,,,,VFR,,,,,,,,,,,,METAR,7.0
RJGG 060700Z 16010KT 9999 -RA FEW025 SCT040 OVC110 20/16 Q1007 NOSIG,RJGG,2023-06-06T07:00:00Z,34.87,136.8,20.0,16.0,160,10,,6.21,29.734253,,,,,,TRUE,,,,-RA,FEW,2500,SCT,4000,OVC,11000,,,VFR,,,,,,,,,,,,METAR,5.0
RJFU 060700Z 34005KT 300V360 7000 -SHRA FEW005 SCT010 BKN020 19/18 Q1004,RJFU,2023-06-06T07:00:00Z,32.92,129.92,19.0,18.0,340,5,,4.35,29.64567,,,,,,,,,,-SHRA,FEW,500,SCT,1000,BKN,2000,,,MVFR,,,,,,,,,,,,METAR,2.0
RJFT 060700Z VRB01KT 4500 -SHRA BR BCFG FEW001 SCT020 BKN030 18/17 Q1004,RJFT,2023-06-06T07:00:00Z,32.83,130.85,18.0,17.0,0,1,,2.8,29.64567,,,,,,,,,,-SHRA BR BCFG,FEW,100,SCT,2000,BKN,3000,,,IFR,,,,,,,,,,,,METAR,188.0
RJFS 060700Z 01004KT 9000 -SHRA FEW005 SCT008 BKN015 19/18 Q1004,RJFS,2023-06-06T07:00:00Z,33.15,130.3,19.0,18.0,10,4,,5.59,29.64567,,,,,,,,,,-SHRA,FEW,500,SCT,800,BKN,1500,,,MVFR,,,,,,,,,,,,METAR,2.0
RJFR 060700Z 10014KT 9999 -SHRA FEW005 BKN007 BKN010 18/17 Q1005,RJFR,2023-06-06T07:00:00Z,33.83,131.03,18.0,17.0,100,14,,6.21,29.675198,,,,,,,,,,-SHRA,FEW,500,BKN,700,BKN,1000,,,IFR,,,,,,,,,,,,METAR,9.0
RJFO 060700Z 13009KT 5000 -SHRA BR PRFG FEW002 BKN005 BKN010 17/17 Q1006,RJFO,2023-06-06T07:00:00Z,33.47,131.73,17.0,17.0,130,9,,3.11,29.704725,,,,,,,,,,-SHRA BR PRFG,FEW,200,BKN,500,BKN,1000,,,IFR,,,,,,,,,,,,METAR,3.0
RJFM 060700Z 28006KT 3500 -SHRA BR SCT003 BKN005 BKN012 17/17 Q1005,RJFM,2023-06-06T07:00:00Z,31.87,131.43,17.0,17.0,280,6,,2.17,29.675198,,,,,,,,,,-SHRA BR,SCT,300,BKN,500,BKN,1200,,,IFR,,,,,,,,,,,,METAR,10.0
RJFK 060700Z 11004KT 090V150 4000 -SHRA BCFG BR FEW003 SCT010 BKN015 18/18 Q1005,RJFK,2023-06-06T07:00:00Z,31.8,130.72,18.0,18.0,110,4,,2.49,29.675198,,,,,,,,,,-SHRA BCFG BR,FEW,300,SCT,1000,BKN,1500,,,IFR,,,,,,,,,,,,METAR,271.0
RJFG 060700Z 21009KT 170V250 2000 R31/1600VP2000N +TSRA BR FEW002 SCT005 BKN015 FEW020CB 22/22 Q1006,RJFG,2023-06-06T07:00:00Z,30.62,130.98,22.0,22.0,210,9,,1.24,29.704725,,,,,,,,,,+TSRA BR,FEW,200,SCT,500,BKN,1500,FEW,2000,IFR,,,,,,,,,,,,METAR,234.0
RJFF 060700Z 18003KT 120V270 9999 FEW005 SCT010 BKN014 20/18 Q1004 BECMG 04005KT BKN020,RJFF,2023-06-06T07:00:00Z,33.58,130.45,20.0,18.0,180,3,,6.21,29.64567,,,,,,,,,,,FEW,500,SCT,1000,BKN,1400,,,MVFR,,,,,,,,,,,,METAR,7.0
RJFE 060700Z 36007KT 9999 FEW003 SCT008 BKN015 19/18 Q1005,RJFE,2023-06-06T07:00:00Z,32.67,128.82,19.0,18.0,360,7,,6.21,29.675198,,,,,,,,,,,FEW,300,SCT,800,BKN,1500,,,MVFR,,,,,,,,,,,,METAR,80.0
RJEC 060700Z 20012KT 9999 FEW020 SCT090 BKN/// 20/12 Q1005,RJEC,2023-06-06T07:00:00Z,43.67,142.43,20.0,12.0,200,12,,6.21,29.675198,,,,,,,,,,,FEW,2000,SCT,9000,,,,,VFR,,,,,,,,,,,,METAR,209.0
RJEB 060700Z VRB04KT 9999 -TSRA FEW040 FEW050CB BKN060 14/11 Q1005,RJEB,2023-06-06T07:00:00Z,44.3,143.4,14.0,11.0,0,4,,6.21,29.675198,,,,,,,,,,-TSRA,FEW,4000,FEW,5000,BKN,6000,,,VFR,,,,,,,,,,,,METAR,24.0
RJDT 060700Z 36003KT 310V030 9999 -SHRA FEW003 SCT007 BKN015 18/17 Q1005,RJDT,2023-06-06T07:00:00Z,34.28,129.32,18.0,17.0,360,3,,6.21,29.675198,,,,,,,,,,-SHRA,FEW,300,SCT,700,BKN,1500,,,MVFR,,,,,,,,,,,,METAR,61.0
RJDC 060700Z 09015KT 8000 -SHRA FEW005 BKN007 BKN010 17/17 Q1005,RJDC,2023-06-06T07:00:00Z,33.92,131.27,17.0,17.0,90,15,,4.97,29.675198,,,,,,,,,,-SHRA,FEW,500,BKN,700,BKN,1000,,,IFR,,,,,,,,,,,,METAR,5.0
RJDB 060700Z AUTO 02005KT 350V060 9999 SCT008 BKN010 OVC013 19/18 Q1005,RJDB,2023-06-06T07:00:00Z,33.75,129.78,19.0,18.0,20,5,,6.21,29.675198,,,TRUE,,,,,,,,SCT,800,BKN,1000,OVC,1300,,,MVFR,,,,,,,,,,,,METAR,13.0
RJCW 060700Z 22013KT 9999 FEW010 SCT015 BKN018 18/14 Q1004,RJCW,2023-06-06T07:00:00Z,45.4,141.8,18.0,14.0,220,13,,6.21,29.64567,,,,,,,,,,,FEW,1000,SCT,1500,BKN,1800,,,MVFR,,,,,,,,,,,,METAR,11.0
RJCO 060700Z 16013KT 9999 -SHRA FEW030 SCT040 BKN080 18/13 Q1007,RJCO,2023-06-06T07:00:00Z,43.12,141.37,18.0,13.0,160,13,,6.21,29.734253,,,,,,,,,,-SHRA,FEW,3000,SCT,4000,BKN,8000,,,VFR,,,,,,,,,,,,METAR,7.0
RJCN 060700Z 07008KT 9999 FEW020 SCT080 BKN140 16/12 Q1006,RJCN,2023-06-06T07:00:00Z,43.57,144.97,16.0,12.0,70,8,,6.21,29.704725,,,,,,,,,,,FEW,2000,SCT,8000,BKN,14000,,,VFR,,,,,,,,,,,,METAR,62.0
RJCM 060700Z 33006KT 300V010 9999 FEW030 SCT130 BKN/// 21/14 Q1004,RJCM,2023-06-06T07:00:00Z,43.88,144.17,21.0,14.0,330,6,,6.21,29.64567,,,,,,,,,,,FEW,3000,SCT,13000,,,,,VFR,,,,,,,,,,,,METAR,30.0
RJCK 060700Z 19011KT 9999 FEW040 SCT150 BKN/// 17/11 Q1006,RJCK,2023-06-06T07:00:00Z,43.03,144.18,17.0,11.0,190,11,,6.21,29.704725,,,,,,,,,,,FEW,4000,SCT,15000,,,,,VFR,,,,,,,,,,,,METAR,94.0
RJCH 060700Z 24005KT 200V280 9999 -SHRA FEW025 BKN080 19/14 Q1006,RJCH,2023-06-06T07:00:00Z,41.77,140.82,19.0,14.0,240,5,,6.21,29.704725,,,,,,,,,,-SHRA,FEW,2500,BKN,8000,,,,,VFR,,,,,,,,,,,,METAR,36.0
RJCC 060700Z 18012KT 9999 FEW030 BKN120 18/11 Q1006,RJCC,2023-06-06T07:00:00Z,42.77,141.68,18.0,11.0,180,12,,6.21,29.704725,,,,,,,,,,,FEW,3000,BKN,12000,,,,,VFR,,,,,,,,,,,,METAR,19.0
RJCB 060700Z 32004KT 240V020 9999 FEW030 SCT160 24/15 Q1004,RJCB,2023-06-06T07:00:00Z,42.72,143.22,24.0,15.0,320,4,,6.21,29.64567,,,,,,,,,,,FEW,3000,SCT,16000,,,,,VFR,,,,,,,,,,,,METAR,149.0
RJBT 060700Z 16006KT 9999 FEW025 SCT120 BKN180 20/16 Q1007,RJBT,2023-06-06T07:00:00Z,35.5,134.8,20.0,16.0,160,6,,6.21,29.734253,,,,,,,,,,,FEW,2500,SCT,12000,BKN,18000,,,VFR,,,,,,,,,,,,METAR,172.0
RJBE 060700Z 23005KT 210V270 9999 -RA FEW007 SCT025 BKN045 18/17 Q1007,RJBE,2023-06-06T07:00:00Z,34.63,135.23,18.0,17.0,230,5,,6.21,29.734253,,,,,,,,,,-RA,FEW,700,SCT,2500,BKN,4500,,,VFR,,,,,,,,,,,,METAR,5.0
RJBD 060700Z 16007KT 5000 RA BR FEW004 SCT015 BKN025 17/17 Q1008,RJBD,2023-06-06T07:00:00Z,33.67,135.37,17.0,17.0,160,7,,3.11,29.763779,,,,,,,,,,RA BR,FEW,400,SCT,1500,BKN,2500,,,MVFR,,,,,,,,,,,,METAR,91.0
RJBB 060700Z 21010KT 9999 -RA FEW006 SCT040 OVC100 18/18 Q1007 NOSIG,RJBB,2023-06-06T07:00:00Z,34.43,135.25,18.0,18.0,210,10,,6.21,29.734253,,,,,,TRUE,,,,-RA,FEW,600,SCT,4000,OVC,10000,,,VFR,,,,,,,,,,,,METAR,8.0
RJAW 060700Z 15008KT 120V200 9999 SCT015 29/24 Q1012 RMK 3CU015 A2990 WIND BY EQPT/25,RJAW,2023-06-06T07:00:00Z,24.78,141.32,29.0,24.0,150,8,,6.21,29.88189,,,,,,,,,,,SCT,1500,,,,,,,VFR,,,,,,,,,,,,METAR,116.0
RJAH 060700Z 21009KT 9999 FEW025 BKN160 BKN230 24/17 Q1006,RJAH,2023-06-06T07:00:00Z,36.17,140.42,24.0,17.0,210,9,,6.21,29.704725,,,,,,,,,,,FEW,2500,BKN,16000,BKN,23000,,,VFR,,,,,,,,,,,,METAR,31.0
RJAF 060700Z 14012KT 9999 -RA FEW070 BKN110 19/11 Q1008,RJAF,2023-06-06T07:00:00Z,36.17,137.92,19.0,11.0,140,12,,6.21,29.763779,,,,,,,,,,-RA,FEW,7000,BKN,11000,,,,,VFR,,,,,,,,,,,,METAR,652.0
RJAA 060700Z 20009KT 170V240 9999 -SHRA FEW030 BKN140 BKN/// 23/17 Q1007 NOSIG,RJAA,2023-06-06T07:00:00Z,35.77,140.38,23.0,17.0,200,9,,6.21,29.734253,,,,,,TRUE,,,,-SHRA,FEW,3000,BKN,14000,,,,,VFR,,,,,,,,,,,,METAR,36.0
RCTP 060700Z 26013KT 9999 FEW025 33/26 Q1008 NOSIG RMK A2977,RCTP,2023-06-06T07:00:00Z,25.07,121.22,33.0,26.0,260,13,,6.21,29.763779,,,,,,TRUE,,,,,FEW,2500,,,,,,,VFR,,,,,,,,,,,,METAR,33.0
RCSS 060700Z 32006KT 220V360 9999 FEW025 SCT040 BKN055 32/24 Q1007 NOSIG RMK A2975,RCSS,2023-06-06T07:00:00Z,25.07,121.55,32.0,24.0,320,6,,6.21,29.734253,,,,,,TRUE,,,,,FEW,2500,SCT,4000,BKN,5500,,,VFR,,,,,,,,,,,,METAR,8.0
RCNN 060700Z 24012KT 9999 FEW012 FEW014TCU 32/22 Q1008 NOSIG RMK A2977 TCU E,RCNN,2023-06-06T07:00:00Z,22.93,120.2,32.0,22.0,240,12,,6.21,29.763779,,,,,,TRUE,,,,,FEW,1200,FEW,1400,,,,,VFR,,,,,,,,,,,,SPECI,15.0
RCMQ 060700Z 26010KT 9999 FEW010 30/25 Q1008 NOSIG RMK A2979,RCMQ,2023-06-06T07:00:00Z,24.27,120.62,30.0,25.0,260,10,,6.21,29.763779,,,,,,TRUE,,,,,FEW,1000,,,,,,,VFR,,,,,,,,,,,,SPECI,202.0
RCKH 060700Z 20012KT 170V230 9999 FEW018 SCT035 31/23 Q1007 NOSIG RMK A2976,RCKH,2023-06-06T07:00:00Z,22.57,120.33,31.0,23.0,200,12,,6.21,29.734253,,,,,,TRUE,,,,,FEW,1800,SCT,3500,,,,,VFR,,,,,,,,,,,,METAR,6.0
RCFN 060700Z 18007KT 160V220 9999 FEW012 SCT020 BKN035 29/26 Q1009 NOSIG RMK A2982,RCFN,2023-06-06T07:00:00Z,22.77,121.1,29.0,26.0,180,7,,6.21,29.793306,,,,,,TRUE,,,,,FEW,1200,SCT,2000,BKN,3500,,,VFR,,,,,,,,,,,,SPECI,42.0
PLCH 060700Z 08003KT 9999 FEW020 27/24 Q1011,PLCH,2023-06-06T07:00:00Z,1.98,-157.35,27.0,24.0,80,3,,6.21,29.852362,,,,,,,,,,,FEW,2000,,,,,,,VFR,,,,,,,,,,,,METAR,5.0
OTHH 060700Z 03007KT 8000 NSC 34/23 Q1006 NOSIG,OTHH,2023-06-06T07:00:00Z,25.27,51.6,34.0,23.0,30,7,,4.97,29.704725,,,,,,TRUE,,,,,CLR,,,,,,,,MVFR,,,,,,,,,,,,METAR,3.0
OTBD 060700Z 04005KT 350V080 8000 NSC 36/24 Q1006 NOSIG,OTBD,2023-06-06T07:00:00Z,25.25,51.57,36.0,24.0,40,5,,4.97,29.704725,,,,,,TRUE,,,,,CLR,,,,,,,,MVFR,,,,,,,,,,,,METAR,13.0
OSLK 060700Z 20006KT 9999 FEW030 24/16 Q1012,OSLK,2023-06-06T07:00:00Z,35.4,35.95,24.0,16.0,200,6,,6.21,29.88189,,,,,,,,,,,FEW,3000,,,,,,,VFR,,,,,,,,,,,,METAR,47.0
OSDI 060700Z 00000KT CAVOK 23/08 Q1014,OSDI,2023-06-06T07:00:00Z,33.42,36.52,23.0,8.0,0,0,,6.21,29.940945,,,,,,,,,,,CAVOK,,,,,,,,VFR,,,,,,,,,,,,METAR,614.0
ORSU 060700Z 33003KT CAVOK 32/04 Q1015,ORSU,2023-06-06T07:00:00Z,35.57,45.32,32.0,4.0,330,3,,6.21,29.970472,,,,,,,,,,,CAVOK,,,,,,,,VFR,,,,,,,,,,,,METAR,760.0
ORNI 060700Z 35008KT 8000 NSC 37/07 Q1008,ORNI,2023-06-06T07:00:00Z,31.98,44.4,37.0,7.0,350,8,,4.97,29.763779,,,,,,,,,,,CLR,,,,,,,,MVFR,,,,,,,,,,,,METAR,33.0
ORMM 060700Z 28014KT 8000 FEW040 SCT100 40/08 Q1007 NOSIG,ORMM,2023-06-06T07:00:00Z,30.53,47.67,40.0,8.0,280,14,,4.97,29.734253,,,,,,TRUE,,,,,FEW,4000,SCT,10000,,,,,MVFR,,,,,,,,,,,,METAR,2.0
ORER 060700Z 02007KT 350V080 8000 NSC 34/03 Q1012,ORER,2023-06-06T07:00:00Z,36.23,43.97,34.0,3.0,20,7,,4.97,29.88189,,,,,,,,,,,CLR,,,,,,,,MVFR,,,,,,,,,,,,METAR,399.0
ORBI 060700Z 02006KT 350V060 8000 NSC 36/09 Q1008,ORBI,2023-06-06T07:00:00Z,33.27,44.23,36.0,9.0,20,6,,4.97,29.763779,,,,,,,,,,,CLR,,,,,,,,MVFR,,,,,,,,,,,,METAR,37.0
OPST 060700Z 13008KT 5000 HZ FEW040 35/15 Q1006 NOSIG 31?,OPST,2023-06-06T07:00:00Z,32.53,74.37,35.0,15.0,130,8,,3.11,29.704725,,,,,,TRUE,,,,HZ,FEW,4000,,,,,,,MVFR,,,,,,,,,,,,METAR,234.0
OPSK 060700Z 18010KT 5000 HZ NSC 37/24 Q1002 NOSIG,OPSK,2023-06-06T07:00:00Z,27.72,68.8,37.0,24.0,180,10,,3.11,29.586615,,,,,,TRUE,,,,HZ,CLR,,,,,,,,MVFR,,,,,,,,,,,,METAR,62.0
OPNH 060700Z 13508KT 6000 NSC 39/24 Q1001,OPNH,2023-06-06T07:00:00Z,26.22,68.38,39.0,24.0,135,8,,3.73,29.557087,,,,,,,,,,,CLR,,,,,,,,MVFR,,,,,,,,,,,,METAR,30.0
OPFA 060700Z 23006KT 6000 SCT100 37/21 Q1005 NOSIG,OPFA,2023-06-06T07:00:00Z,31.37,73.0,37.0,21.0,230,6,,3.73,29.675198,,,,,,TRUE,,,,,SCT,10000,,,,,,,MVFR,,,,,,,,,,,,METAR,180.0
OMSJ 060700Z 21013KT 170V260 CAVOK 42/11 Q1006 NOSIG,OMSJ,2023-06-06T07:00:00Z,25.32,55.52,42.0,11.0,210,13,,6.21,29.704725,,,,,,TRUE,,,,,CAVOK,,,,,,,,VFR,,,,,,,,,,,,METAR,33.0
OMRK 060700Z 23010KT 170V300 CAVOK 43/11 Q1006 A2972,OMRK,2023-06-06T07:00:00Z,25.62,55.93,43.0,11.0,230,10,,6.21,29.704725,,,,,,,,,,,CAVOK,,,,,,,,VFR,,,,,,,,,,,,METAR,18.0
OMFJ 060700Z 30009KT 270V340 CAVOK 38/10 Q1005 A2969,OMFJ,2023-06-06T07:00:00Z,25.1,56.32,38.0,10.0,300,9,,6.21,29.675198,,,,,,,,,,,CAVOK,,,,,,,,VFR,,,,,,,,,,,,METAR,27.0
OMDW 060700Z 21013KT CAVOK 41/14 Q1007 NOSIG,OMDW,2023-06-06T07:00:00Z,24.9,55.17,41.0,14.0,210,13,,6.21,29.734253,,,,,,TRUE,,,,,CAVOK,,,,,,,,VFR,,,,,,,,,,,,METAR,34.0
OMDB 060700Z 23013KT CAVOK 42/15 Q1006 NOSIG,OMDB,2023-06-06T07:00:00Z,25.25,55.37,42.0,15.0,230,13,,6.21,29.704725,,,,,,TRUE,,,,,CAVOK,,,,,,,,VFR,,,,,,,,,,,,METAR,5.0
OMAL 060700Z 18013KT CAVOK 39/17 Q1009 NOSIG,OMAL,2023-06-06T07:00:00Z,24.25,55.6,39.0,17.0,180,13,,6.21,29.793306,,,,,,TRUE,,,,,CAVOK,,,,,,,,VFR,,,,,,,,,,,,METAR,247.0
OMAD 060700Z 24005KT 160V290 CAVOK 41/14 Q1005 NOSIG,OMAD,2023-06-06T07:00:00Z,24.42,54.47,41.0,14.0,240,5,,6.21,29.675198,,,,,,TRUE,,,,,CAVOK,,,,,,,,VFR,,,,,,,,,,,,METAR,9.0
OMAA 060700Z 18011KT 150V220 CAVOK 42/13 Q1005 NOSIG,OMAA,2023-06-06T07:00:00Z,24.42,54.65,42.0,13.0,180,11,,6.21,29.675198,,,,,,TRUE,,,,,CAVOK,,,,,,,,VFR,,,,,,,,,,,,METAR,13.0
OLBA 060700Z 29005KT 6000 FEW030 24/17 Q1014 NOSIG,OLBA,2023-06-06T07:00:00Z,33.82,35.48,24.0,17.0,290,5,,3.73,29.940945,,,,,,TRUE,,,,,FEW,3000,,,,,,,MVFR,,,,,,,,,,,,METAR,29.0
OKKK 060700Z 35008KT 7000 NSC 41/09 Q1007 NOSIG,OKKK,2023-06-06T07:00:00Z,,,41.0,9.0,350,8,,4.35,29.734253,,,,,,TRUE,,,,,CLR,,,,,,,,MVFR,,,,,,,,,,,,METAR,
OJAQ 060700Z 01011KT 8000 NSC 27/12 Q1010 NOSIG,OJAQ,2023-06-06T07:00:00Z,29.62,35.02,27.0,12.0,10,11,,4.97,29.822834,,,,,,TRUE,,,,,CLR,,,,,,,,MVFR,,,,,,,,,,,,METAR,45.0
OJAM 060700Z 26005KT 6000 NSC 24/M01 Q1015 NOSIG,OJAM,2023-06-06T07:00:00Z,31.98,35.98,24.0,-1.0,260,5,,3.73,29.970472,,,,,,TRUE,,,,,CLR,,,,,,,,MVFR,,,,,,,,,,,,METAR,765.0
OJAI 060700Z 29007KT 5000 HZ NSC 25/02 Q1015 NOSIG,OJAI,2023-06-06T07:00:00Z,31.72,36.0,25.0,2.0,290,7,,3.11,29.970472,,,,,,TRUE,,,,HZ,CLR,,,,,,,,MVFR,,,,,,,,,,,,METAR,723.0
OIZJ 060700Z 28010KT 8000 NSC 36/27 Q1004,OIZJ,2023-06-06T07:00:00Z,25.65,57.8,36.0,27.0,280,10,,4.97,29.64567,,,,,,,,,,,CLR,,,,,,,,MVFR,,,,,,,,,,,,METAR,6.0
OIZI 060700Z 26010KT 8000 NSC 40/10 Q1009,OIZI,2023-06-06T07:00:00Z,27.23,60.72,40.0,10.0,260,10,,4.97,29.793306,,,,,,,,,,,CLR,,,,,,,,MVFR,,,,,,,,,,,,METAR,622.0
OIZH 060700Z 02008KT CAVOK 34/01 Q1016 A3003 NOSIG,OIZH,2023-06-06T07:00:00Z,29.47,60.92,34.0,1.0,20,8,,6.21,30.0,,,,,,TRUE,,,,,CAVOK,,,,,,,,VFR,,,,,,,,,,,,METAR,1378.0
OIZC 060700Z 25012KT 6000 NSC 42/22 Q1002 A2959,OIZC,2023-06-06T07:00:00Z,25.45,60.38,42.0,22.0,250,12,,3.73,29.586615,,,,,,,,,,,CLR,,,,,,,,MVFR,,,,,,,,,,,,METAR,13.0
OIZB 060700Z 36023KT CAVOK 41/03 Q1008,OIZB,2023-06-06T07:00:00Z,31.1,61.55,41.0,3.0,360,23,,6.21,29.763779,,,,,,,,,,,CAVOK,,,,,,,,VFR,,,,,,,,,,,,METAR,483.0
OIYY 060700Z 34006KT 6000 FEW040 34/08 Q1016 NOSIG,OIYY,2023-06-06T07:00:00Z,31.9,54.28,34.0,8.0,340,6,,3.73,30.0,,,,,,TRUE,,,,,FEW,4000,,,,,,,MVFR,,,,,,,,,,,,METAR,1226.0
OITZ 060700Z 18004KT 9999 FEW030CB SCT035 BKN070 26/06 Q1018 A3008,OITZ,2023-06-06T07:00:00Z,36.77,48.37,26.0,6.0,180,4,,6.21,30.059055,,,,,,,,,,,FEW,3000,SCT,3500,BKN,7000,,,VFR,,,,,,,,,,,,METAR,1630.0
OITT 060700Z VRB02KT 9999 FEW030TCU BKN180 27/04 Q1017 A3006,OITT,2023-06-06T07:00:00Z,38.13,46.23,27.0,4.0,0,2,,6.21,30.029528,,,,,,,,,,,FEW,3000,BKN,18000,,,,,VFR,,,,,,,,,,,,METAR,1353.0
OITR 060700Z 08006KT 9999 FEW035 BKN190 26/06 Q1016 A3002,OITR,2023-06-06T07:00:00Z,37.67,45.07,26.0,6.0,80,6,,6.21,30.0,,,,,,,,,,,FEW,3500,BKN,19000,,,,,VFR,,,,,,,,,,,,METAR,1312.0
OITP 060700Z 11010KT 9999 FEW040 BKN180 29/17 Q1013,OITP,2023-06-06T07:00:00Z,39.6,47.88,29.0,17.0,110,10,,6.21,29.911417,,,,,,,,,,,FEW,4000,BKN,18000,,,,,VFR,,,,,,,,,,,,METAR,72.0
OITM 060700Z 18004KT 9999 FEW035 BKN170 27/02 Q1017,OITM,2023-06-06T07:00:00Z,37.35,46.15,27.0,2.0,180,4,,6.21,30.029528,,,,,,,,,,,FEW,3500,BKN,17000,,,,,VFR,,,,,,,,,,,,METAR,1340.0
OITL 060700Z 07017KT 9999 FEW012 BKN180 18/13 Q1019 NOSIG,OITL,2023-06-06T07:00:00Z,38.33,48.42,18.0,13.0,70,17,,6.21,30.088583,,,,,,TRUE,,,,,FEW,1200,BKN,18000,,,,,VFR,,,,,,,,,,,,METAR,1314.0
OITK 060700Z 36006KT 9999 FEW035 BKN170 27/06 Q1016 A3002,OITK,2023-06-06T07:00:00Z,38.42,44.98,27.0,6.0,360,6,,6.21,30.0,,,,,,,,,,,FEW,3500,BKN,17000,,,,,VFR,,,,,,,,,,,,METAR,1192.0
OISY 060700Z 00000KT CAVOK 30/M09 Q1024,OISY,2023-06-06T07:00:00Z,30.7,51.55,30.0,-9.0,0,0,,6.21,30.236221,,,,,,,,,,,CAVOK,,,,,,,,VFR,,,,,,,,,,,,METAR,1800.0
OISS 060700Z 00000KT CAVOK 32/04 Q1018 A3008,OISS,2023-06-06T07:00:00Z,29.53,52.58,32.0,4.0,0,0,,6.21,30.059055,,,,,,,,,,,CAVOK,,,,,,,,VFR,,,,,,,,,,,,METAR,1484.0
OISR 060700Z 00000KT CAVOK 41/15 Q1010 A2982 NOSIG,OISR,2023-06-06T07:00:00Z,27.37,53.2,41.0,15.0,0,0,,6.21,29.822834,,,,,,TRUE,,,,,CAVOK,,,,,,,,VFR,,,,,,,,,,,,METAR,402.0
OISL 060700Z 18004KT CAVOK 37/07 Q1011 A2987 NOSIG,OISL,2023-06-06T07:00:00Z,27.67,54.37,37.0,7.0,180,4,,6.21,29.852362,,,,,,TRUE,,,,,CAVOK,,,,,,,,VFR,,,,,,,,,,,,METAR,804.0
OISF 060700Z 17004KT 8000 NSC 34/04 Q1017 A3005,OISF,2023-06-06T07:00:00Z,28.9,53.72,34.0,4.0,170,4,,4.97,30.029528,,,,,,,,,,,CLR,,,,,,,,MVFR,,,,,,,,,,,,METAR,1305.0
OINZ 060700Z 28012KT 9999 SCT023 BKN190 28/20 Q1012,OINZ,2023-06-06T07:00:00Z,36.63,53.2,28.0,20.0,280,12,,6.21,29.88189,,,,,,,,,,,SCT,2300,BKN,19000,,,,,VFR,,,,,,,,,,,,METAR,8.0
OINR 060700Z 33014KT 9999 FEW023CB SCT026 BKN090 27/22 Q1012,OINR,2023-06-06T07:00:00Z,36.9,50.67,27.0,22.0,330,14,,6.21,29.88189,,,,,,,,,,,FEW,2300,SCT,2600,BKN,9000,,,VFR,,,,,,,,,,,,METAR,-19.0
OINN 060700Z 32014KT 9999 FEW024TCU SCT030 28/22 Q1011,OINN,2023-06-06T07:00:00Z,36.67,51.47,28.0,22.0,320,14,,6.21,29.852362,,,,,,,,,,,FEW,2400,SCT,3000,,,,,VFR,,,,,,,,,,,,METAR,-25.0
OING 060700Z 27018KT 9999 SCT030 30/21 Q1012 NOSIG,OING,2023-06-06T07:00:00Z,36.9,54.4,30.0,21.0,270,18,,6.21,29.88189,,,,,,TRUE,,,,,SCT,3000,,,,,,,VFR,,,,,,,,,,,,METAR,0.0
OINE 060700Z 20012KT 9999 FEW030 BKN170 31/18 Q1010,OINE,2023-06-06T07:00:00Z,37.38,55.45,31.0,18.0,200,12,,6.21,29.822834,,,,,,,,,,,FEW,3000,BKN,17000,,,,,VFR,,,,,,,,,,,,METAR,125.0
OIMT 060700Z 28004KT 7000 NSC 39/06 Q1009,OIMT,2023-06-06T07:00:00Z,33.67,56.88,39.0,6.0,280,4,,4.35,29.793306,,,,,,,,,,,CLR,,,,,,,,MVFR,,,,,,,,,,,,METAR,693.0
OIMS 060700Z 07006KT 9999 FEW035 BKN200 35/06 Q1015,OIMS,2023-06-06T07:00:00Z,36.17,57.6,35.0,6.0,70,6,,6.21,29.970472,,,,,,,,,,,FEW,3500,BKN,20000,,,,,VFR,,,,,,,,,,,,METAR,920.0
OIMQ 060700Z 15006KT CAVOK 34/03 Q1016,OIMQ,2023-06-06T07:00:00Z,35.27,58.47,34.0,3.0,150,6,,6.21,30.0,,,,,,,,,,,CAVOK,,,,,,,,VFR,,,,,,,,,,,,METAR,1101.0
OIMN 060700Z 14004KT CAVOK 31/05 Q1016,OIMN,2023-06-06T07:00:00Z,37.48,57.3,31.0,5.0,140,4,,6.21,30.0,,,,,,,,,,,CAVOK,,,,,,,,VFR,,,,,,,,,,,,METAR,1065.0
OIMM 060700Z 04006KT CAVOK 33/11 Q1016 A3002,OIMM,2023-06-06T07:00:00Z,36.23,59.63,33.0,11.0,40,6,,6.21,30.0,,,,,,,,,,,CAVOK,,,,,,,,VFR,,,,,,,,,,,,METAR,995.0
OIMJ 060700Z 09012KT CAVOK 30/05 Q1016,OIMJ,2023-06-06T07:00:00Z,36.43,55.1,30.0,5.0,90,12,,6.21,30.0,,,,,,,,,,,CAVOK,,,,,,,,VFR,,,,,,,,,,,,METAR,1285.0
OIMD 060700Z 00000KT CAVOK 36/03 Q1012,OIMD,2023-06-06T07:00:00Z,34.38,58.63,36.0,3.0,0,0,,6.21,29.88189,,,,,,,,,,,CAVOK,,,,,,,,VFR,,,,,,,,,,,,METAR,1097.0
OIMB 060700Z 29012KT 9999 FEW040 34/M02 Q1017 A3004,OIMB,2023-06-06T07:00:00Z,32.9,59.28,34.0,-2.0,290,12,,6.21,30.029528,,,,,,,,,,,FEW,4000,,,,,,,VFR,,,,,,,,,,,,METAR,1512.0
OIKQ 060700Z 24012KT CAVOK 38/22 Q1005 NOSIG,OIKQ,2023-06-06T07:00:00Z,26.75,55.9,38.0,22.0,240,12,,6.21,29.675198,,,,,,TRUE,,,,,CAVOK,,,,,,,,VFR,,,,,,,,,,,,METAR,9.0
OIKK 060700Z 20004KT 9999 FEW035 32/05 Q1019 A3011,OIKK,2023-06-06T07:00:00Z,30.25,56.97,32.0,5.0,200,4,,6.21,30.088583,,,,,,,,,,,FEW,3500,,,,,,,VFR,,,,,,,,,,,,METAR,1749.0
OIKB 060700Z 20010KT 6000 NSC 38/21 Q1005 A2969 NOSIG,OIKB,2023-06-06T07:00:00Z,27.22,56.37,38.0,21.0,200,10,,3.73,29.675198,,,,,,TRUE,,,,,CLR,,,,,,,,MVFR,,,,,,,,,,,,METAR,6.0
OIIP 060700Z 15004KT 8000 SCT040 BKN100 30/08 Q1015 A2999,OIIP,2023-06-06T07:00:00Z,35.78,50.83,30.0,8.0,150,4,,4.97,29.970472,,,,,,,,,,,SCT,4000,BKN,10000,,,,,MVFR,,,,,,,,,,,,METAR,1270.0
OIIK 060700Z 13010KT 9999 FEW045 30/11 Q1016,OIIK,2023-06-06T07:00:00Z,36.25,50.05,30.0,11.0,130,10,,6.21,30.0,,,,,,,,,,,FEW,4500,,,,,,,VFR,,,,,,,,,,,,METAR,1278.0
OIII 060700Z 18006KT 9999 FEW040 SCT090 32/03 Q1016 A3000 NOSIG,OIII,2023-06-06T07:00:00Z,35.68,51.3,32.0,3.0,180,6,,6.21,30.0,,,,,,TRUE,,,,,FEW,4000,SCT,9000,,,,,VFR,,,,,,,,,,,,METAR,1182.0
OIIE 060700Z 10006KT CAVOK 34/05 Q1014,OIIE,2023-06-06T07:00:00Z,35.42,51.15,34.0,5.0,100,6,,6.21,29.940945,,,,,,,,,,,CAVOK,,,,,,,,VFR,,,,,,,,,,,,METAR,993.0
OIHR 060700Z 34008KT 4000 DU FEW030 BKN100 27/09 Q1018,OIHR,2023-06-06T07:00:00Z,34.13,49.85,27.0,9.0,340,8,,2.49,30.059055,,,,,,,,,,DU,FEW,3000,BKN,10000,,,,,IFR,,,,,,,,,,,,METAR,1658.0
OIHH 060700Z 31006KT CAVOK 25/06 Q1019 A3010,OIHH,2023-06-06T07:00:00Z,34.87,48.55,25.0,6.0,310,6,,6.21,30.088583,,,,,,,,,,,CAVOK,,,,,,,,VFR,,,,,,,,,,,,METAR,1742.0
OIGG 060700Z 30004KT 9999 FEW015CB SCT025 BKN070 24/21 Q1014,OIGG,2023-06-06T07:00:00Z,37.33,49.6,24.0,21.0,300,4,,6.21,29.940945,,,,,,,,,,,FEW,1500,SCT,2500,BKN,7000,,,VFR,,,,,,,,,,,,METAR,-16.0
OIFS 060700Z 20008KT 9999 FEW040 28/M06 Q1023,OIFS,2023-06-06T07:00:00Z,32.28,50.85,28.0,-6.0,200,8,,6.21,30.206694,,,,,,,,,,,FEW,4000,,,,,,,VFR,,,,,,,,,,,,METAR,2042.0
OIFM 060700Z 00000KT CAVOK 31/04 Q1019 A3010,OIFM,2023-06-06T07:00:00Z,32.75,51.87,31.0,4.0,0,0,,6.21,30.088583,,,,,,,,,,,CAVOK,,,,,,,,VFR,,,,,,,,,,,,METAR,1539.0
OICS 060700Z 20004KT CAVOK 28/M01 Q1017 A3005,OICS,2023-06-06T07:00:00Z,35.25,47.02,28.0,-1.0,200,4,,6.21,30.029528,,,,,,,,,,,CAVOK,,,,,,,,VFR,,,,,,,,,,,,METAR,1369.0
OICM 060700Z 27006KT CAVOK 40/08 Q1005,OICM,2023-06-06T07:00:00Z,,,40.0,8.0,270,6,,6.21,29.675198,,,,,,,,,,,CAVOK,,,,,,,,VFR,,,,,,,,,,,,METAR,
OICK 060700Z 27006KT 9999 FEW045 BKN190 29/04 Q1015 A2999,OICK,2023-06-06T07:00:00Z,33.43,48.28,29.0,4.0,270,6,,6.21,29.970472,,,,,,,,,,,FEW,4500,BKN,19000,,,,,VFR,,,,,,,,,,,,METAR,1156.0
OICI 060700Z 30008KT CAVOK 30/04 Q1018 A3007,OICI,2023-06-06T07:00:00Z,33.58,46.4,30.0,4.0,300,8,,6.21,30.059055,,,,,,,,,,,CAVOK,,,,,,,,VFR,,,,,,,,,,,,METAR,1323.0
OICC 060700Z 30006KT CAVOK 27/M03 Q1017 A3005,OICC,2023-06-06T07:00:00Z,34.35,47.17,27.0,-3.0,300,6,,6.21,30.029528,,,,,,,,,,,CAVOK,,,,,,,,VFR,,,,,,,,,,,,METAR,1310.0
OIBV 060700Z 01006KT 7000 NSC 35/22 Q1006,OIBV,2023-06-06T07:00:00Z,26.82,53.35,35.0,22.0,10,6,,4.35,29.704725,,,,,,,,,,,CLR,,,,,,,,MVFR,,,,,,,,,,,,METAR,23.0
OIBS 060700Z 18004KT 5000 HZ NSC 33/26 Q1006,OIBS,2023-06-06T07:00:00Z,25.9,54.55,33.0,26.0,180,4,,3.11,29.704725,,,,,,,,,,HZ,CLR,,,,,,,,MVFR,,,,,,,,,,,,METAR,4.0
OIBQ 060700Z 32008KT 5000 HZ NSC 31/25 Q1006,OIBQ,2023-06-06T07:00:00Z,29.27,50.32,31.0,25.0,320,8,,3.11,29.704725,,,,,,,,,,HZ,CLR,,,,,,,,MVFR,,,,,,,,,,,,METAR,3.0
OIBP 060700Z 00000KT 6000 NSC 41/17 Q1005 A2969,OIBP,2023-06-06T07:00:00Z,27.38,52.73,41.0,17.0,0,0,,3.73,29.675198,,,,,,,,,,,CLR,,,,,,,,MVFR,,,,,,,,,,,,METAR,13.0
OIBL 060700Z 20004KT 6000 NSC 38/18 Q1006,OIBL,2023-06-06T07:00:00Z,26.53,54.82,38.0,18.0,200,4,,3.73,29.704725,,,,,,,,,,,CLR,,,,,,,,MVFR,,,,,,,,,,,,METAR,25.0
OIBK 060700Z 29010KT 7000 NSC 37/21 Q1006 NOSIG,OIBK,2023-06-06T07:00:00Z,26.53,53.98,37.0,21.0,290,10,,4.35,29.704725,,,,,,TRUE,,,,,CLR,,,,,,,,MVFR,,,,,,,,,,,,METAR,27.0
OIBJ 060700Z AUTO VRB01KT //// // ////// 39/09 Q1012,OIBJ,2023-06-06T07:00:00Z,27.82,52.35,39.0,9.0,0,1,,,29.88189,,,TRUE,,,,,,,,,,,,,,,,,,,,,,,,,,,,METAR,647.0
OIBH 060700Z 00000KT CAVOK 33/24 Q1006 A2972,OIBH,2023-06-06T07:00:00Z,27.2,54.32,33.0,24.0,0,0,,6.21,29.704725,,,,,,,,,,,CAVOK,,,,,,,,VFR,,,,,,,,,,,,METAR,412.0
OIBB 060700Z 30012KT 7000 NSC 33/22 Q1006 A2971 NOSIG,OIBB,2023-06-06T07:00:00Z,28.93,50.83,33.0,22.0,300,12,,4.35,29.704725,,,,,,TRUE,,,,,CLR,,,,,,,,MVFR,,,,,,,,,,,,METAR,15.0
OIBA 060700Z 20010KT 6000 NSC 35/26 Q1004,OIBA,2023-06-06T07:00:00Z,25.88,55.03,35.0,26.0,200,10,,3.73,29.64567,,,,,,,,,,,CLR,,,,,,,,MVFR,,,,,,,,,,,,METAR,7.0
OIAW 060700Z 29006KT CAVOK 40/09 Q1005 NOSIG,OIAW,2023-06-06T07:00:00Z,31.33,48.77,40.0,9.0,290,6,,6.21,29.675198,,,,,,TRUE,,,,,CAVOK,,,,,,,,VFR,,,,,,,,,,,,METAR,25.0
OIAM 060700Z 32010KT CAVOK 40/15 Q1006,OIAM,2023-06-06T07:00:00Z,30.55,49.15,40.0,15.0,320,10,,6.21,29.704725,,,,,,,,,,,CAVOK,,,,,,,,VFR,,,,,,,,,,,,METAR,7.0
OIAH 060700Z 31004KT CAVOK 37/03 Q1012,OIAH,2023-06-06T07:00:00Z,30.33,50.83,37.0,3.0,310,4,,6.21,29.88189,,,,,,,,,,,CAVOK,,,,,,,,VFR,,,,,,,,,,,,METAR,730.0
OIAG 060700Z 17008KT 6000 NSC 39/15 Q1007,OIAG,2023-06-06T07:00:00Z,30.73,49.68,39.0,15.0,170,8,,3.73,29.734253,,,,,,,,,,,CLR,,,,,,,,MVFR,,,,,,,,,,,,METAR,17.0
OIAA 060700Z 30010KT 8000 FEW040 BKN100 39/10 Q1006,OIAA,2023-06-06T07:00:00Z,30.35,48.22,39.0,10.0,300,10,,4.97,29.704725,,,,,,,,,,,FEW,4000,BKN,10000,,,,,MVFR,,,,,,,,,,,,METAR,4.0
OEYN 060700Z 16008KT CAVOK 36/26 Q1006 NOSIG,OEYN,2023-06-06T07:00:00Z,24.13,38.07,36.0,26.0,160,8,,6.21,29.704725,,,,,,TRUE,,,,,CAVOK,,,,,,,,VFR,,,,,,,,,,,,METAR,20.0
OEWJ 060700Z 29009KT CAVOK 30/25 Q1008 NOSIG,OEWJ,2023-06-06T07:00:00Z,26.18,36.47,30.0,25.0,290,9,,6.21,29.763779,,,,,,TRUE,,,,,CAVOK,,,,,,,,VFR,,,,,,,,,,,,METAR,8.0
OEWD 060700Z 33004KT CAVOK 38/00 Q1011,OEWD,2023-06-06T07:00:00Z,20.5,45.2,38.0,0.0,330,4,,6.21,29.852362,,,,,,,,,,,CAVOK,,,,,,,,VFR,,,,,,,,,,,,METAR,629.0
OETR 060700Z 33004KT CAVOK 27/M06 Q1014 NOSIG,OETR,2023-06-06T07:00:00Z,31.7,38.73,27.0,-6.0,330,4,,6.21,29.940945,,,,,,TRUE,,,,,CAVOK,,,,,,,,VFR,,,,,,,,,,,,METAR,854.0
OETF 060700Z 15008KT CAVOK 28/10 Q1021 NOSIG,OETF,2023-06-06T07:00:00Z,21.47,40.53,28.0,10.0,150,8,,6.21,30.147638,,,,,,TRUE,,,,,CAVOK,,,,,,,,VFR,,,,,,,,,,,,METAR,1460.0
OETB 060700Z 00000KT CAVOK 30/03 Q1013 NOSIG,OETB,2023-06-06T07:00:00Z,28.37,36.62,30.0,3.0,0,0,,6.21,29.911417,,,,,,TRUE,,,,,CAVOK,,,,,,,,VFR,,,,,,,,,,,,METAR,770.0
OESK 060700Z 28008KT CAVOK 32/04 Q1014 NOSIG,OESK,2023-06-06T07:00:00Z,29.78,40.1,32.0,4.0,280,8,,6.21,29.940945,,,,,,TRUE,,,,,CAVOK,,,,,,,,VFR,,,,,,,,,,,,METAR,671.0
OESH 060700Z 18004KT CAVOK 37/04 Q1011 NOSIG,OESH,2023-06-06T07:00:00Z,17.47,47.12,37.0,4.0,180,4,,6.21,29.852362,,,,,,TRUE,,,,,CAVOK,,,,,,,,VFR,,,,,,,,,,,,METAR,720.0
OERR 060700Z 20015KT CAVOK 34/10 Q1010 NOSIG,OERR,2023-06-06T07:00:00Z,30.9,41.13,34.0,10.0,200,15,,6.21,29.822834,,,,,,TRUE,,,,,CAVOK,,,,,,,,VFR,,,,,,,,,,,,METAR,554.0
OERK 060700Z 02007KT CAVOK 36/02 Q1013 NOSIG,OERK,2023-06-06T07:00:00Z,24.95,46.72,36.0,2.0,20,7,,6.21,29.911417,,,,,,TRUE,,,,,CAVOK,,,,,,,,VFR,,,,,,,,,,,,METAR,618.0
OERF 060700Z 21007KT CAVOK 36/08 Q1011 NOSIG,OERF,2023-06-06T07:00:00Z,29.62,43.48,36.0,8.0,210,7,,6.21,29.852362,,,,,,TRUE,,,,,CAVOK,,,,,,,,VFR,,,,,,,,,,,,METAR,441.0
OEPA 060700Z 00000KT CAVOK 39/08 Q1011 NOSIG,OEPA,2023-06-06T07:00:00Z,28.33,46.12,39.0,8.0,0,0,,6.21,29.852362,,,,,,TRUE,,,,,CAVOK,,,,,,,,VFR,,,,,,,,,,,,METAR,361.0
OENG 060700Z 00000KT 8000 NSC 35/03 Q1016 NOSIG,OENG,2023-06-06T07:00:00Z,17.62,44.42,35.0,3.0,0,0,,4.97,30.0,,,,,,TRUE,,,,,CLR,,,,,,,,MVFR,,,,,,,,,,,,METAR,1210.0
OEMN 060700Z 19003KT CAVOK 40/16 Q1010,OEMN,2023-06-06T07:00:00Z,,,40.0,16.0,190,3,,6.21,29.822834,,,,,,,,,,,CAVOK,,,,,,,,VFR,,,,,,,,,,,,METAR,
OEMA 060700Z 15004KT CAVOK 34/13 Q1015 NOSIG,OEMA,2023-06-06T07:00:00Z,24.55,39.7,34.0,13.0,150,4,,6.21,29.970472,,,,,,TRUE,,,,,CAVOK,,,,,,,,VFR,,,,,,,,,,,,METAR,639.0
OEKM 060700Z 03012KT 8000 NSC 25/06 Q1025 NOSIG,OEKM,2023-06-06T07:00:00Z,18.3,42.78,25.0,6.0,30,12,,4.97,30.265747,,,,,,TRUE,,,,,CLR,,,,,,,,MVFR,,,,,,,,,,,,METAR,2038.0
OEKJ 060700Z 03010KT CAVOK 39/04 Q1014,OEKJ,2023-06-06T07:00:00Z,24.07,47.58,39.0,4.0,30,10,,6.21,29.940945,,,,,,,,,,,CAVOK,,,,,,,,VFR,,,,,,,,,,,,METAR,487.0
OEJN 060700Z 29008KT CAVOK 37/26 Q1007 NOSIG,OEJN,2023-06-06T07:00:00Z,21.68,39.15,37.0,26.0,290,8,,6.21,29.734253,,,,,,TRUE,,,,,CAVOK,,,,,,,,VFR,,,,,,,,,,,,METAR,8.0
OEHL 060700Z 21016KT CAVOK 33/14 Q1016 NOSIG,OEHL,2023-06-06T07:00:00Z,27.43,41.68,33.0,14.0,210,16,,6.21,30.0,,,,,,TRUE,,,,,CAVOK,,,,,,,,VFR,,,,,,,,,,,,METAR,1002.0
OEGT 060700Z 28006KT CAVOK 26/01 Q1013 NOSIG,OEGT,2023-06-06T07:00:00Z,31.42,37.27,26.0,1.0,280,6,,6.21,29.911417,,,,,,TRUE,,,,,CAVOK,,,,,,,,VFR,,,,,,,,,,,,METAR,512.0
OEGS 060700Z 24004KT 9999 SCT040 34/12 Q1013,OEGS,2023-06-06T07:00:00Z,26.3,43.77,34.0,12.0,240,4,,6.21,29.911417,,,,,,,,,,,SCT,4000,,,,,,,VFR,,,,,,,,,,,,METAR,647.0
OEGN 060700Z 00000KT 8000 NSC 37/24 Q1008 NOSIG,OEGN,2023-06-06T07:00:00Z,16.9,42.58,37.0,24.0,0,0,,4.97,29.763779,,,,,,TRUE,,,,,CLR,,,,,,,,MVFR,,,,,,,,,,,,METAR,5.0
OEDR 060700Z VRB05KT 6000 NSC 35/25 Q1005,OEDR,2023-06-06T07:00:00Z,26.27,50.17,35.0,25.0,0,5,,3.73,29.675198,,,,,,,,,,,CLR,,,,,,,,MVFR,,,,,,,,,,,,METAR,17.0
OEDM 060700Z 06015KT 8000 SCT040 33/05 Q1015,OEDM,2023-06-06T07:00:00Z,24.45,44.12,33.0,5.0,60,15,,4.97,29.970472,,,,,,,,,,,SCT,4000,,,,,,,MVFR,,,,,,,,,,,,METAR,922.0
OEDF 060700Z 04004KT 8000 NSC 37/18 Q1006 NOSIG,OEDF,2023-06-06T07:00:00Z,26.43,49.82,37.0,18.0,40,4,,4.97,29.704725,,,,,,TRUE,,,,,CLR,,,,,,,,MVFR,,,,,,,,,,,,METAR,15.0
OEBH 060700Z 30009KT CAVOK 31/17 Q1017 NOSIG,OEBH,2023-06-06T07:00:00Z,19.98,42.62,31.0,17.0,300,9,,6.21,30.029528,,,,,,TRUE,,,,,CAVOK,,,,,,,,VFR,,,,,,,,,,,,METAR,1167.0
OEBA 060700Z 10005KT 9999 FEW030 26/10 Q1022 NOSIG,OEBA,2023-06-06T07:00:00Z,20.3,41.63,26.0,10.0,100,5,,6.21,30.177166,,,,,,TRUE,,,,,FEW,3000,,,,,,,VFR,,,,,,,,,,,,METAR,1659.0
OEAO 060700Z 09002KT CAVOK 34/07 Q1013 NOSIG,OEAO,2023-06-06T07:00:00Z,26.48,38.12,34.0,7.0,90,2,,6.21,29.911417,,,,,,TRUE,,,,,CAVOK,,,,,,,,VFR,,,,,,,,,,,,METAR,615.0
OEAH 060700Z 01009KT CAVOK 39/04 Q1007 NOSIG,OEAH,2023-06-06T07:00:00Z,25.28,49.48,39.0,4.0,10,9,,6.21,29.734253,,,,,,TRUE,,,,,CAVOK,,,,,,,,VFR,,,,,,,,,,,,METAR,180.0
OEAB 060700Z 36010KT CAVOK 26/05 Q1026 NOSIG,OEAB,2023-06-06T07:00:00Z,18.23,42.65,26.0,5.0,360,10,,6.21,30.295275,,,,,,TRUE,,,,,CAVOK,,,,,,,,VFR,,,,,,,,,,,,METAR,2092.0
NZWN 060700Z AUTO 14018KT 8000 -RA BKN025/// BKN036/// BKN044/// 10/08 Q1031,NZWN,2023-06-06T07:00:00Z,-41.32,174.8,10.0,8.0,140,18,,4.97,30.442913,,,TRUE,,,,,,,-RA,BKN,2500,BKN,3600,BKN,4400,,,MVFR,,,,,,,,,,,,METAR,12.0
NZCH 060700Z AUTO 21003KT 9999 NCD 05/04 Q1033,NZCH,2023-06-06T07:00:00Z,-43.48,172.52,5.0,4.0,210,3,,6.21,30.501968,,,TRUE,,,,,,,,CLR,,,,,,,,VFR,,,,,,,,,,,,METAR,36.0
NZAA 060700Z AUTO 20004KT 160V230 9999 NCD 12/07 Q1021,NZAA,2023-06-06T07:00:00Z,-37.02,174.8,12.0,7.0,200,4,,6.21,30.147638,,,TRUE,,,,,,,,CLR,,,,,,,,VFR,,,,,,,,,,,,METAR,7.0
NVVV 060700Z 09004KT 9999 SCT020 BKN120 23/20 Q1014,NVVV,2023-06-06T07:00:00Z,-17.68,168.3,23.0,20.0,90,4,,6.21,29.940945,,,,,,,,,,,SCT,2000,BKN,12000,,,,,VFR,,,,,,,,,,,,METAR,23.0
NTAA 060700Z 09003KT 9999 FEW023 24/20 Q1015 NOSIG,NTAA,2023-06-06T07:00:00Z,-17.55,-149.62,24.0,20.0,90,3,,6.21,29.970472,,,,,,TRUE,,,,,FEW,2300,,,,,,,VFR,,,,,,,,,,,,METAR,2.0
NSFA 060700Z 10005KT 9999 FEW030 24/23 Q1012,NSFA,2023-06-06T07:00:00Z,-13.83,-172.0,24.0,23.0,100,5,,6.21,29.88189,,,,,,,,,,,FEW,3000,,,,,,,VFR,,,,,,,,,,,,METAR,6.0
NIUE 060700Z AUTO 10008KT NCD 24/20 Q1016,NIUE,2023-06-06T07:00:00Z,-19.07,-169.92,24.0,20.0,100,8,,,30.0,,,TRUE,,,,,,,,CLR,,,,,,,,,,,,,,,,,,,,METAR,22.0
NGTA 060700Z 07007KT 9999 SCT019 29/24 Q1008,NGTA,2023-06-06T07:00:00Z,1.37,173.13,29.0,24.0,70,7,,6.21,29.763779,,,,,,,,,,,SCT,1900,,,,,,,VFR,,,,,,,,,,,,METAR,8.0
NGFU 060700Z 08007KT 9999 FEW018TCU SCT300 29/26 Q1009,NGFU,2023-06-06T07:00:00Z,-8.52,179.18,29.0,26.0,80,7,,6.21,29.793306,,,,,,,,,,,FEW,1800,SCT,30000,,,,,VFR,,,,,,,,,,,,METAR,2.0
NFTF 060700Z 07008KT 9999 FEW016 BKN110 23/20 Q1015,NFTF,2023-06-06T07:00:00Z,-21.23,-175.15,23.0,20.0,70,8,,6.21,29.970472,,,,,,,,,,,FEW,1600,BKN,11000,,,,,VFR,,,,,,,,,,,,METAR,38.0
NFNA 060700Z 00000KT 9999 SCT020 BKN045 24/23 Q1013,NFNA,2023-06-06T07:00:00Z,-18.05,178.57,24.0,23.0,0,0,,6.21,29.911417,,,,,,,,,,,SCT,2000,BKN,4500,,,,,VFR,,,,,,,,,,,,METAR,6.0
NFFN 060700Z 00000KT 9999 FEW028 SCT048 BKN110 26/21 Q1013 NOSIG,NFFN,2023-06-06T07:00:00Z,-17.75,177.45,26.0,21.0,0,0,,6.21,29.911417,,,,,,TRUE,,,,,FEW,2800,SCT,4800,BKN,11000,,,VFR,,,,,,,,,,,,METAR,14.0
NCSW 060700Z AUTO NIL,NCSW,2023-06-06T07:00:00Z,,,,,,,,,,,,TRUE,,,,,,,,,,,,,,,,,,,,,,,,,,,,METAR,
NCRK 060700Z AUTO NIL,NCRK,2023-06-06T07:00:00Z,-10.02,-161.1,,,,,,,,,,TRUE,,,,,,,,,,,,,,,,,,,,,,,,,,,,METAR,7.0
NCRG 060700Z AUTO 15002KT 9999 NCD 20/13 Q1018,NCRG,2023-06-06T07:00:00Z,-21.2,-159.82,20.0,13.0,150,2,,6.21,30.059055,,,TRUE,,,,,,,,CLR,,,,,,,,VFR,,,,,,,,,,,,METAR,7.0
NCPY 060700Z AUTO 12002KT //// ////// 27/24 Q1013,NCPY,2023-06-06T07:00:00Z,-9.02,-158.03,27.0,24.0,120,2,,,29.911417,,,TRUE,,,,,,,,,,,,,,,,,,,,,,,,,,,,METAR,2.0
NCPL 060700Z AUTO NIL,NCPL,2023-06-06T07:00:00Z,1.98,-157.48,,,,,,,,,,TRUE,,,,,,,,,,,,,,,,,,,,,,,,,,,,METAR,3.0
NCPK 060700Z AUTO 12005KT //// ////// 26/24 Q1011,NCPK,2023-06-06T07:00:00Z,-10.9,-165.83,26.0,24.0,120,5,,,29.852362,,,TRUE,,,,,,,,,,,,,,,,,,,,,,,,,,,,METAR,5.0
NCNS 060700Z AUTO NIL,NCNS,2023-06-06T07:00:00Z,,,,,,,,,,,,TRUE,,,,,,,,,,,,,,,,,,,,,,,,,,,,METAR,
NCMR 060700Z AUTO 13002KT //// ////// ///// Q1016,NCMR,2023-06-06T07:00:00Z,-19.85,-157.7,,,130,2,,,30.0,,,TRUE,,,,,,,,,,,,,,,,,,,,,,,,,,,,METAR,8.0
NCMK 060700Z AUTO 18001KT //// ////// 20/16 Q1015,NCMK,2023-06-06T07:00:00Z,-20.15,-157.33,20.0,16.0,180,1,,,29.970472,,,TRUE,,,,,,,,,,,,,,,,,,,,,,,,,,,,METAR,13.0
NCMH 060700Z AUTO NIL,NCMH,2023-06-06T07:00:00Z,-10.38,-161.0,,,,,,,,,,TRUE,,,,,,,,,,,,,,,,,,,,,,,,,,,,METAR,1.0
NCMG 060700Z AUTO 12004KT //// ////// ///// Q////,NCMG,2023-06-06T07:00:00Z,-21.88,-157.9,,,120,4,,,,,,TRUE,,,,,,,,,,,,,,,,,,,,,,,,,,,,METAR,14.0
NCAT 060700Z AUTO NIL,NCAT,2023-06-06T07:00:00Z,-19.97,-158.12,,,,,,,,,,TRUE,,,,,,,,,,,,,,,,,,,,,,,,,,,,METAR,11.0
NCAI 060700Z AUTO 18003KT //// ////// 24/17 Q1017,NCAI,2023-06-06T07:00:00Z,-18.82,-159.77,24.0,17.0,180,3,,,30.029528,,,TRUE,,,,,,,,,,,,,,,,,,,,,,,,,,,,METAR,7.0
MYSM 060700Z AUTO 25005KT 9999 BKN073/// 27/26 A2991,MYSM,2023-06-06T07:00:00Z,24.05,-74.52,27.0,26.0,250,5,,6.21,29.911417,,,TRUE,,,,,,,,BKN,7300,,,,,,,VFR,,,,,,,,,,,,METAR,5.0
MYCB 060700Z AUTO 25002KT 9999 // FEW013 25/25 A2990,MYCB,2023-06-06T07:00:00Z,24.32,-75.45,25.0,25.0,250,2,,6.21,29.899607,,,TRUE,,,,,,,,FEW,1300,,,,,,,VFR,,,,,,,,,,,,METAR,2.0
MROC 060700Z 05006KT CAVOK 21/19 A3003 NOSIG,MROC,2023-06-06T07:00:00Z,10.0,-84.22,21.0,19.0,50,6,,6.21,30.029528,,,,,,TRUE,,,,,CAVOK,,,,,,,,VFR,,,,,,,,,,,,METAR,900.0
MPTO 060700Z VRB02KT 9999 SCT018 26/25 Q1012 NOSIG,MPTO,2023-06-06T07:00:00Z,9.05,-79.38,26.0,25.0,0,2,,6.21,29.88189,,,,,,TRUE,,,,,SCT,1800,,,,,,,VFR,,,,,,,,,,,,METAR,7.0
MPMG 060700Z AUTO 29002KT //// R01///// // SCT028/// 27/25 Q1012,MPMG,2023-06-06T07:00:00Z,8.98,-79.57,27.0,25.0,290,2,,,29.88189,,,TRUE,,,,,,,,SCT,2800,,,,,,,,,,,,,,,,,,,SPECI,6.0
MKJP 060700Z 11003KT 9999 FEW022 29/24 Q1012,MKJP,2023-06-06T07:00:00Z,17.93,-76.78,29.0,24.0,110,3,,6.21,29.88189,,,,,,,,,,,FEW,2200,,,,,,,VFR,,,,,,,,,,,,METAR,3.0
MHTG 060700Z VRB02KT 7000 -RA FEW005 SCT028 BKN080 20/19 Q1019 A3009 RETS NOSIG,MHTG,2023-06-06T07:00:00Z,14.07,-87.22,20.0,19.0,0,2,,4.35,30.088583,,,,,,TRUE,,,,-RA,FEW,500,SCT,2800,BKN,8000,,,MVFR,,,,,,,,,,,,METAR,1001.0
MHPR COR 060700Z 10014KT 7000 RA FEW046CB BKN080 21/20 Q1017 A3004 NOSIG,MHPR,2023-06-06T07:00:00Z,14.38,-87.62,21.0,20.0,100,14,,4.35,30.029528,,TRUE,,,,TRUE,,,,RA,FEW,4600,BKN,8000,,,,,MVFR,,,,,,,,,,,,METAR,628.0
MHLM 060700Z 18004KT 9999 FEW026 BKN080 28/24 Q1010 A2983 NOSIG,MHLM,2023-06-06T07:00:00Z,15.45,-87.93,28.0,24.0,180,4,,6.21,29.822834,,,,,,TRUE,,,,,FEW,2600,BKN,8000,,,,,VFR,,,,,,,,,,,,METAR,32.0
MGPB 060700Z 00000KT 9999 FEW018 FEW025CB SCT200 26/25 Q1009 A2980 CB/LTNG/NW,MGPB,2023-06-06T07:00:00Z,15.73,-88.58,26.0,25.0,0,0,,6.21,29.793306,,,,,,,,,,,FEW,1800,FEW,2500,SCT,20000,,,VFR,,,,,,,,,,,,SPECI,6.0
MGMM 060700Z 00000KT 9999 FEW020 SCT090 23/23 Q1014 A2994,MGMM,2023-06-06T07:00:00Z,16.9,-89.87,23.0,23.0,0,0,,6.21,29.940945,,,,,,,,,,,FEW,2000,SCT,9000,,,,,VFR,,,,,,,,,,,,METAR,105.0
MGHT 060700Z 00000KT 9999 BKN020 14/13,MGHT,2023-06-06T07:00:00Z,15.32,-91.5,14.0,13.0,0,0,,6.21,,,,,,,,,,,,BKN,2000,,,,,,,MVFR,,,,,,,,,,,,METAR,1875.0
MGGT 060700Z 00000KT CAVOK 20/17 Q1021 A3015 FEW200,MGGT,2023-06-06T07:00:00Z,14.58,-90.53,20.0,17.0,0,0,,6.21,30.147638,,,,,,,,,,,FEW,20000,,,,,,,VFR,,,,,,,,,,,,METAR,1497.0
MDST 060700Z 00000KT 9999 SCT018 BKN300 24/23 Q1013,MDST,2023-06-06T07:00:00Z,19.4,-70.6,24.0,23.0,0,0,,6.21,29.911417,,,,,,,,,,,SCT,1800,BKN,30000,,,,,VFR,,,,,,,,,,,,METAR,175.0
MDSD 060700Z 00000KT 9999 FEW016 SCT300 26/25 Q1014,MDSD,2023-06-06T07:00:00Z,18.42,-69.67,26.0,25.0,0,0,,6.21,29.940945,,,,,,,,,,,FEW,1600,SCT,30000,,,,,VFR,,,,,,,,,,,,METAR,18.0
MDPC 060700Z 14008KT 9999 FEW018 SCT300 28/25 Q1014,MDPC,2023-06-06T07:00:00Z,18.57,-68.37,28.0,25.0,140,8,,6.21,29.940945,,,,,,,,,,,FEW,1800,SCT,30000,,,,,VFR,,,,,,,,,,,,METAR,10.0
LZZI 060700Z 09004KT 9999 -RA SCT054 16/14 Q1018,LZZI,2023-06-06T07:00:00Z,49.23,18.62,16.0,14.0,90,4,,6.21,30.059055,,,,,,,,,,-RA,SCT,5400,,,,,,,VFR,,,,,,,,,,,,METAR,311.0
LZPP 060700Z 08007KT 050V110 9999 SCT019 BKN039 18/15 Q1017,LZPP,2023-06-06T07:00:00Z,48.62,17.83,18.0,15.0,80,7,,6.21,30.029528,,,,,,,,,,,SCT,1900,BKN,3900,,,,,VFR,,,,,,,,,,,,METAR,160.0
LYVR 060700Z 16011KT 9999 -RA FEW040TCU BKN047 20/13 Q1018 TEMPO 5000 SHRA,LYVR,2023-06-06T07:00:00Z,45.13,21.32,20.0,13.0,160,11,,6.21,30.059055,,,,,,,,,,-RA,FEW,4000,BKN,4700,,,,,VFR,,,,,,,,,,,,METAR,82.0
LYTV 060700Z VRB02KT CAVOK 21/18 Q1016 NOSIG,LYTV,2023-06-06T07:00:00Z,42.4,18.72,21.0,18.0,0,2,,6.21,30.0,,,,,,TRUE,,,,,CAVOK,,,,,,,,VFR,,,,,,,,,,,,METAR,3.0
LYPG 060700Z 35005KT 9999 FEW050 BKN090 22/13 Q1016 NOSIG,LYPG,2023-06-06T07:00:00Z,42.37,19.25,22.0,13.0,350,5,,6.21,30.0,,,,,,TRUE,,,,,FEW,5000,BKN,9000,,,,,VFR,,,,,,,,,,,,METAR,32.0
LYNI 060700Z 11012KT 080V140 9999 FEW040 22/09 Q1018 NOSIG,LYNI,2023-06-06T07:00:00Z,43.33,21.85,22.0,9.0,110,12,,6.21,30.059055,,,,,,TRUE,,,,,FEW,4000,,,,,,,VFR,,,,,,,,,,,,METAR,197.0
LYKV 060700Z VRB01KT 9999 SCT007 17/17 Q1017 NOSIG,LYKV,2023-06-06T07:00:00Z,43.82,20.58,17.0,17.0,0,1,,6.21,30.029528,,,,,,TRUE,,,,,SCT,700,,,,,,,VFR,,,,,,,,,,,,METAR,209.0
LYBT 060700Z 10008KT 060V130 CAVOK 21/19 Q1016 NOSIG,LYBT,2023-06-06T07:00:00Z,44.93,20.25,21.0,19.0,100,8,,6.21,30.0,,,,,,TRUE,,,,,CAVOK,,,,,,,,VFR,,,,,,,,,,,,METAR,78.0
LYBE 060700Z 11008KT 9999 SCT035 21/17 Q1017 NOSIG,LYBE,2023-06-06T07:00:00Z,44.82,20.28,21.0,17.0,110,8,,6.21,30.029528,,,,,,TRUE,,,,,SCT,3500,,,,,,,VFR,,,,,,,,,,,,METAR,93.0
LRTR 060700Z 03004KT 9999 FEW050CB 18/17 Q1018 NOSIG,LRTR,2023-06-06T07:00:00Z,45.82,21.33,18.0,17.0,30,4,,6.21,30.059055,,,,,,TRUE,,,,,FEW,5000,,,,,,,VFR,,,,,,,,,,,,METAR,104.0
LRTM 060700Z 12005KT 070V150 CAVOK 20/13 Q1020,LRTM,2023-06-06T07:00:00Z,46.47,24.42,20.0,13.0,120,5,,6.21,30.11811,,,,,,,,,,,CAVOK,,,,,,,,VFR,,,,,,,,,,,,METAR,289.0
LRTC 060700Z 15008KT CAVOK 23/03 Q1022,LRTC,2023-06-06T07:00:00Z,45.07,28.72,23.0,3.0,150,8,,6.21,30.177166,,,,,,,,,,,CAVOK,,,,,,,,VFR,,,,,,,,,,,,METAR,52.0
LRSV 060700Z 16015KT CAVOK 22/06 Q1021,LRSV,2023-06-06T07:00:00Z,47.68,26.35,22.0,6.0,160,15,,6.21,30.147638,,,,,,,,,,,CAVOK,,,,,,,,VFR,,,,,,,,,,,,METAR,406.0
LRSM 060700Z 16003KT 100V250 CAVOK 22/14 Q1018,LRSM,2023-06-06T07:00:00Z,47.7,22.88,22.0,14.0,160,3,,6.21,30.059055,,,,,,,,,,,CAVOK,,,,,,,,VFR,,,,,,,,,,,,METAR,123.0
LRSB 060700Z 19009KT CAVOK 21/08 Q1020,LRSB,2023-06-06T07:00:00Z,45.78,24.08,21.0,8.0,190,9,,6.21,30.11811,,,,,,,,,,,CAVOK,,,,,,,,VFR,,,,,,,,,,,,METAR,442.0
LROP 060700Z 07010KT CAVOK 20/08 Q1022 NOSIG,LROP,2023-06-06T07:00:00Z,44.57,26.1,20.0,8.0,70,10,,6.21,30.177166,,,,,,TRUE,,,,,CAVOK,,,,,,,,VFR,,,,,,,,,,,,METAR,92.0
LROD 060700Z 35006KT 9999 -SHRA FEW047CB BKN049 18/16 Q1019,LROD,2023-06-06T07:00:00Z,47.03,21.88,18.0,16.0,350,6,,6.21,30.088583,,,,,,,,,,-SHRA,FEW,4700,BKN,4900,,,,,VFR,,,,,,,,,,,,METAR,132.0
LRIA 060700Z 17009KT CAVOK 22/07 Q1022,LRIA,2023-06-06T07:00:00Z,47.17,27.62,22.0,7.0,170,9,,6.21,30.177166,,,,,,,,,,,CAVOK,,,,,,,,VFR,,,,,,,,,,,,METAR,71.0
LRCV 060700Z 06018KT CAVOK 18/06 Q1020,LRCV,2023-06-06T07:00:00Z,44.32,23.88,18.0,6.0,60,18,,6.21,30.11811,,,,,,,,,,,CAVOK,,,,,,,,VFR,,,,,,,,,,,,METAR,192.0
LRCL 060700Z 10006KT 040V140 9999 FEW030 22/13 Q1019,LRCL,2023-06-06T07:00:00Z,46.78,23.68,22.0,13.0,100,6,,6.21,30.088583,,,,,,,,,,,FEW,3000,,,,,,,VFR,,,,,,,,,,,,METAR,313.0
LRCK 060700Z 09010KT 060V120 CAVOK 23/09 Q1022 NOSIG,LRCK,2023-06-06T07:00:00Z,44.37,28.48,23.0,9.0,90,10,,6.21,30.177166,,,,,,TRUE,,,,,CAVOK,,,,,,,,VFR,,,,,,,,,,,,METAR,108.0
LRBS 060700Z 07010KT 030V100 CAVOK 20/09 Q1022 NOSIG,LRBS,2023-06-06T07:00:00Z,44.5,26.08,20.0,9.0,70,10,,6.21,30.177166,,,,,,TRUE,,,,,CAVOK,,,,,,,,VFR,,,,,,,,,,,,METAR,91.0
LRBM 060700Z AUTO 10008KT 9999 BKN110/// 23/15 Q1019,LRBM,2023-06-06T07:00:00Z,47.67,23.47,23.0,15.0,100,8,,6.21,30.088583,,,TRUE,,,,,,,,BKN,11000,,,,,,,VFR,,,,,,,,,,,,METAR,180.0
LRBC 060700Z 15012KT CAVOK 22/05 Q1022,LRBC,2023-06-06T07:00:00Z,46.52,26.92,22.0,5.0,150,12,,6.21,30.177166,,,,,,,,,,,CAVOK,,,,,,,,VFR,,,,,,,,,,,,METAR,183.0
LRAR 060700Z 03004KT 9999 -SHRA FEW010 SCT049 FEW050CB 18/17 Q1018,LRAR,2023-06-06T07:00:00Z,46.18,21.27,18.0,17.0,30,4,,6.21,30.059055,,,,,,,,,,-SHRA,FEW,1000,SCT,4900,FEW,5000,,,VFR,,,,,,,,,,,,METAR,102.0
LQTZ 060700Z 10004KT 070V150 9999 FEW003 BKN045 18/18 Q1016,LQTZ,2023-06-06T07:00:00Z,44.47,18.73,18.0,18.0,100,4,,6.21,30.0,,,,,,,,,,,FEW,300,BKN,4500,,,,,VFR,,,,,,,,,,,,METAR,242.0
LQSA 060700Z VRB02KT 8000 -RA SCT006 SCT050 16/16 Q1017 NOSIG,LQSA,2023-06-06T07:00:00Z,43.82,18.32,16.0,16.0,0,2,,4.97,30.029528,,,,,,TRUE,,,,-RA,SCT,600,SCT,5000,,,,,MVFR,,,,,,,,,,,,METAR,505.0
LQMO 060700Z 14003KT 9999 FEW008 SCT070 BKN085 18/17 Q1015,LQMO,2023-06-06T07:00:00Z,43.28,17.83,18.0,17.0,140,3,,6.21,29.970472,,,,,,,,,,,FEW,800,SCT,7000,BKN,8500,,,VFR,,,,,,,,,,,,METAR,49.0
LQBK 060700Z VRB02KT 7000 SCT007 BKN013 20/20 Q1016 NOSIG,LQBK,2023-06-06T07:00:00Z,44.93,17.3,20.0,20.0,0,2,,4.35,30.0,,,,,,TRUE,,,,,SCT,700,BKN,1300,,,,,MVFR,,,,,,,,,,,,METAR,114.0
LPST 060700Z 15006KT CAVOK 19/15 Q1011,LPST,2023-06-06T07:00:00Z,38.82,-9.33,19.0,15.0,150,6,,6.21,29.852362,,,,,,,,,,,CAVOK,,,,,,,,VFR,,,,,,,,,,,,METAR,129.0
LPPT 060700Z 34002KT CAVOK 19/16 Q1011,LPPT,2023-06-06T07:00:00Z,38.77,-9.13,19.0,16.0,340,2,,6.21,29.852362,,,,,,,,,,,CAVOK,,,,,,,,VFR,,,,,,,,,,,,METAR,98.0
LPPS 060700Z 17015KT 9999 SCT004 BKN008 20/20 Q1005,LPPS,2023-06-06T07:00:00Z,33.07,-16.35,20.0,20.0,170,15,,6.21,29.675198,,,,,,,,,,,SCT,400,BKN,800,,,,,IFR,,,,,,,,,,,,METAR,89.0
LPPR 060700Z 00000KT CAVOK 18/17 Q1011,LPPR,2023-06-06T07:00:00Z,41.23,-8.68,18.0,17.0,0,0,,6.21,29.852362,,,,,,,,,,,CAVOK,,,,,,,,VFR,,,,,,,,,,,,METAR,64.0
LPPD 060700Z 03028G46KT 9000 SCT014 FEW018TCU SCT020 17/13 Q0998 RERA,LPPD,2023-06-06T07:00:00Z,37.73,-25.68,17.0,13.0,30,28,46,5.59,29.468504,,,,,,,,,,,SCT,1400,FEW,1800,SCT,2000,,,VFR,,,,,,,,,,,,METAR,62.0
LPOV 060700Z VRB01KT 3000 BR NSC 15/15 Q1011,LPOV,2023-06-06T07:00:00Z,40.92,-8.65,15.0,15.0,0,1,,1.86,29.852362,,,,,,,,,,BR,CLR,,,,,,,,IFR,,,,,,,,,,,,METAR,16.0
LPMT 060700Z VRB02KT CAVOK 19/17 Q1010,LPMT,2023-06-06T07:00:00Z,38.7,-9.05,19.0,17.0,0,2,,6.21,29.822834,,,,,,,,,,,CAVOK,,,,,,,,VFR,,,,,,,,,,,,METAR,4.0
LPMR 060700Z 18002KT 6000 NSC 18/15 Q1010,LPMR,2023-06-06T07:00:00Z,39.82,-8.88,18.0,15.0,180,2,,3.73,29.822834,,,,,,,,,,,CLR,,,,,,,,MVFR,,,,,,,,,,,,METAR,50.0
LPMA 060700Z 21015KT 6000 RA BKN006 20/19 Q1005,LPMA,2023-06-06T07:00:00Z,32.7,-16.77,20.0,19.0,210,15,,3.73,29.675198,,,,,,,,,,RA,BKN,600,,,,,,,IFR,,,,,,,,,,,,METAR,54.0
LPLA 060700Z /////KT 9999 FEW014 SCT015 BKN025 18/17 Q1006,LPLA,2023-06-06T07:00:00Z,38.77,-27.1,18.0,17.0,,,,6.21,29.704725,,,,,,,,,,,FEW,1400,SCT,1500,BKN,2500,,,MVFR,,,,,,,,,,,,METAR,60.0
LPHR 060700Z 06012KT 9999 SCT012 19/15 Q1007,LPHR,2023-06-06T07:00:00Z,38.52,-28.72,19.0,15.0,60,12,,6.21,29.734253,,,,,,,,,,,SCT,1200,,,,,,,VFR,,,,,,,,,,,,METAR,39.0
LPFR 060700Z 09007KT CAVOK 23/15 Q1011,LPFR,2023-06-06T07:00:00Z,37.02,-7.97,23.0,15.0,90,7,,6.21,29.852362,,,,,,,,,,,CAVOK,,,,,,,,VFR,,,,,,,,,,,,METAR,3.0
LPFL 060700Z 02011KT 9999 VCSH FEW008 FEW010TCU BKN040 19/17 Q1010,LPFL,2023-06-06T07:00:00Z,39.45,-31.12,19.0,17.0,20,11,,6.21,29.822834,,,,,,,,,,VCSH,FEW,800,FEW,1000,BKN,4000,,,VFR,,,,,,,,,,,,METAR,35.0
LPCS 060700Z 06003KT 030V100 9999 FEW025 19/15 Q1011,LPCS,2023-06-06T07:00:00Z,38.73,-9.35,19.0,15.0,60,3,,6.21,29.852362,,,,,,,,,,,FEW,2500,,,,,,,VFR,,,,,,,,,,,,METAR,99.0
LPBJ 060700Z 09003KT 060V120 CAVOK 20/12 Q1012,LPBJ,2023-06-06T07:00:00Z,38.08,-7.93,20.0,12.0,90,3,,6.21,29.88189,,,,,,,,,,,CAVOK,,,,,,,,VFR,,,,,,,,,,,,METAR,196.0
LPAZ 060700Z 01028G38KT 9999 VCSH FEW007 BKN013 FEW020TCU 17/15 Q0998,LPAZ,2023-06-06T07:00:00Z,36.97,-25.17,17.0,15.0,10,28,38,6.21,29.468504,,,,,,,,,,VCSH,FEW,700,BKN,1300,FEW,2000,,,MVFR,,,,,,,,,,,,METAR,96.0
LOAV 060700Z VRB03KT 9999 FEW008 BKN012 17/15,LOAV,2023-06-06T07:00:00Z,47.97,16.27,17.0,15.0,0,3,,6.21,,,,,,,,,,,,FEW,800,BKN,1200,,,,,MVFR,,,,,,,,,,,,METAR,232.0
LOAN 060700Z VRB02KT 9999 FEW004 SCT007 BKN012,LOAN,2023-06-06T07:00:00Z,47.85,16.25,,,0,2,,6.21,,,,,,,,,,,,FEW,400,SCT,700,BKN,1200,,,MVFR,,,,,,,,,,,,METAR,266.0
LKVO 060700Z 09008KT 6000 -RA BKN002 OVC007 15/14 Q1018,LKVO,2023-06-06T07:00:00Z,50.22,14.4,15.0,14.0,90,8,,3.73,30.059055,,,,,,,,,,-RA,BKN,200,OVC,700,,,,,LIFR,,,,,,,,,,,,METAR,275.0
LKPD 060700Z VRB01KT 9999 -RA OVC039 15/14 Q1018 NOSIG RMK BLU BLU,LKPD,2023-06-06T07:00:00Z,50.02,15.73,15.0,14.0,0,1,,6.21,30.059055,,,,,,TRUE,,,,-RA,OVC,3900,,,,,,,VFR,,,,,,,,,,,,SPECI,226.0
LKNA 060700Z 04007KT 9999 BKN042 OVC049 15/13 Q1017 NOSIG RMK BLU BLU,LKNA,2023-06-06T07:00:00Z,49.17,16.12,15.0,13.0,40,7,,6.21,30.029528,,,,,,TRUE,,,,,BKN,4200,OVC,4900,,,,,VFR,,,,,,,,,,,,SPECI,460.0
LKLN 060700Z AUTO VRB02KT 9999 // OVC004 15/14 Q1017,LKLN,2023-06-06T07:00:00Z,49.68,13.27,15.0,14.0,0,2,,6.21,30.029528,,,TRUE,,,,,,,,OVC,400,,,,,,,LIFR,,,,,,,,,,,,SPECI,353.0
LKKU 060700Z 03004KT 340V090 CAVOK 19/15 Q1017,LKKU,2023-06-06T07:00:00Z,49.05,17.45,19.0,15.0,30,4,,6.21,30.029528,,,,,,,,,,,CAVOK,,,,,,,,VFR,,,,,,,,,,,,METAR,176.0
LKKB 060700Z 07007KT 4000 BR SCT002 BKN004 OVC007 14/13 Q1018 NOSIG,LKKB,2023-06-06T07:00:00Z,50.12,14.53,14.0,13.0,70,7,,2.49,30.059055,,,,,,TRUE,,,,BR,SCT,200,BKN,400,OVC,700,,,LIFR,,,,,,,,,,,,METAR,281.0
LKCV 060700Z 04005KT 5000 -RA BR OVC034 14/14 Q1018 NOSIG RMK WHT WHT,LKCV,2023-06-06T07:00:00Z,49.93,15.38,14.0,14.0,40,5,,3.11,30.059055,,,,,,TRUE,,,,-RA BR,OVC,3400,,,,,,,MVFR,,,,,,,,,,,,SPECI,234.0
LJPZ 060700Z VRB02KT 9999 -RA FEW025 SCT040 BKN070 18/18 Q1015 RERA,LJPZ,2023-06-06T07:00:00Z,45.47,13.62,18.0,18.0,0,2,,6.21,29.970472,,,,,,,,,,-RA,FEW,2500,SCT,4000,BKN,7000,,,VFR,,,,,,,,,,,,METAR,2.0
LJMB 060700Z VRB02KT 9999 FEW009 BKN019 17/14 Q1017,LJMB,2023-06-06T07:00:00Z,46.47,15.67,17.0,14.0,0,2,,6.21,30.029528,,,,,,,,,,,FEW,900,BKN,1900,,,,,MVFR,,,,,,,,,,,,METAR,263.0
LJLJ 060700Z VRB01KT 8000 -RA SCT004 SCT035 OVC075 16/15 Q1017 NOSIG,LJLJ,2023-06-06T07:00:00Z,46.22,14.47,16.0,15.0,0,1,,4.97,30.029528,,,,,,TRUE,,,,-RA,SCT,400,SCT,3500,OVC,7500,,,MVFR,,,,,,,,,,,,METAR,363.0
LJCE 060700Z VRB02KT 9999 SCT007 BKN020 OVC050 18/16 Q1016 RMK WHT,LJCE,2023-06-06T07:00:00Z,45.9,15.52,18.0,16.0,0,2,,6.21,30.0,,,,,,,,,,,SCT,700,BKN,2000,OVC,5000,,,MVFR,,,,,,,,,,,,METAR,153.0
LFVP 060700Z AUTO 08022KT 3600 1700 BR OVC002 07/07 Q1007,LFVP,2023-06-06T07:00:00Z,46.77,-56.18,7.0,7.0,80,22,,2.24,29.734253,,,TRUE,,,,,,,BR,OVC,200,,,,,,,LIFR,,,,,,,,,,,,SPECI,5.0
LFSM 060700Z AUTO 05008KT 020V080 CAVOK 19/09 Q1017,LFSM,2023-06-06T07:00:00Z,47.48,6.78,19.0,9.0,50,8,,6.21,30.029528,,,TRUE,,,,,,,,CAVOK,,,,,,,,VFR,,,,,,,,,,,,METAR,317.0
LFSG 060700Z AUTO 02008KT CAVOK 17/10 Q1017,LFSG,2023-06-06T07:00:00Z,48.33,6.07,17.0,10.0,20,8,,6.21,30.029528,,,TRUE,,,,,,,,CAVOK,,,,,,,,VFR,,,,,,,,,,,,METAR,320.0
LFRV 060700Z AUTO 03010KT CAVOK 15/12 Q1017,LFRV,2023-06-06T07:00:00Z,47.72,-2.72,15.0,12.0,30,10,,6.21,30.029528,,,TRUE,,,,,,,,CAVOK,,,,,,,,VFR,,,,,,,,,,,,METAR,132.0
LFRT 060700Z AUTO 05010KT 9000 OVC006 13/12 Q1019,LFRT,2023-06-06T07:00:00Z,48.53,-2.85,13.0,12.0,50,10,,5.59,30.088583,,,TRUE,,,,,,,,OVC,600,,,,,,,IFR,,,,,,,,,,,,METAR,134.0
LFRQ 060700Z AUTO 05010KT CAVOK 16/12 Q1017 NOSIG,LFRQ,2023-06-06T07:00:00Z,47.97,-4.17,16.0,12.0,50,10,,6.21,30.029528,,,TRUE,,,TRUE,,,,,CAVOK,,,,,,,,VFR,,,,,,,,,,,,METAR,94.0
LFRN 060700Z AUTO 02005KT 350V050 CAVOK 16/12 Q1018 NOSIG,LFRN,2023-06-06T07:00:00Z,48.07,-1.73,16.0,12.0,20,5,,6.21,30.059055,,,TRUE,,,TRUE,,,,,CAVOK,,,,,,,,VFR,,,,,,,,,,,,METAR,35.0
LFRM 060700Z AUTO 03009KT CAVOK 15/10 Q1018 NOSIG,LFRM,2023-06-06T07:00:00Z,47.95,0.2,15.0,10.0,30,9,,6.21,30.059055,,,TRUE,,,TRUE,,,,,CAVOK,,,,,,,,VFR,,,,,,,,,,,,METAR,51.0
LFRK 060700Z AUTO 01006KT 340V050 9999 BKN010 13/11 Q1020 NOSIG,LFRK,2023-06-06T07:00:00Z,49.17,-0.45,13.0,11.0,10,6,,6.21,30.11811,,,TRUE,,,TRUE,,,,,BKN,1000,,,,,,,MVFR,,,,,,,,,,,,METAR,66.0
LFRJ 060700Z AUTO 07014KT 9000 OVC006 13/11 Q1019 BECMG NSC,LFRJ,2023-06-06T07:00:00Z,48.52,-4.15,13.0,11.0,70,14,,5.59,30.088583,,,TRUE,,,,,,,,OVC,600,,,,,,,IFR,,,,,,,,,,,,METAR,109.0
LFRI 060700Z AUTO 05009KT CAVOK 20/12 Q1016 NOSIG,LFRI,2023-06-06T07:00:00Z,46.7,-1.37,20.0,12.0,50,9,,6.21,30.0,,,TRUE,,,TRUE,,,,,CAVOK,,,,,,,,VFR,,,,,,,,,,,,METAR,89.0
LFRH 060700Z AUTO 05012KT CAVOK 16/12 Q1017 NOSIG,LFRH,2023-06-06T07:00:00Z,47.77,-3.45,16.0,12.0,50,12,,6.21,30.029528,,,TRUE,,,TRUE,,,,,CAVOK,,,,,,,,VFR,,,,,,,,,,,,METAR,46.0
LFRD 060700Z AUTO 05009KT 9999 BKN010 BKN250 14/11 Q1019 BECMG NSC,LFRD,2023-06-06T07:00:00Z,48.58,-2.07,14.0,11.0,50,9,,6.21,30.088583,,,TRUE,,,,,,,,BKN,1000,BKN,25000,,,,,MVFR,,,,,,,,,,,,METAR,56.0
LFRC 060700Z AUTO 06012KT 9999 OVC009 11/10 Q1021 NOSIG,LFRC,2023-06-06T07:00:00Z,49.63,-1.47,11.0,10.0,60,12,,6.21,30.147638,,,TRUE,,,TRUE,,,,,OVC,900,,,,,,,IFR,,,,,,,,,,,,METAR,137.0
LFQG 060700Z AUTO 00000KT CAVOK 20/11 Q1016,LFQG,2023-06-06T07:00:00Z,47.0,3.1,20.0,11.0,0,0,,6.21,30.0,,,TRUE,,,,,,,,CAVOK,,,,,,,,VFR,,,,,,,,,,,,METAR,172.0
LFPT 060700Z AUTO 05010KT 7000 OVC010 14/10 Q1019,LFPT,2023-06-06T07:00:00Z,49.1,2.03,14.0,10.0,50,10,,4.35,30.088583,,,TRUE,,,,,,,,OVC,1000,,,,,,,MVFR,,,,,,,,,,,,METAR,91.0
LFPM 060700Z AUTO 01008KT 340V050 CAVOK 16/10 Q1018,LFPM,2023-06-06T07:00:00Z,48.62,2.67,16.0,10.0,10,8,,6.21,30.059055,,,TRUE,,,,,,,,CAVOK,,,,,,,,VFR,,,,,,,,,,,,METAR,91.0
LFOZ 060700Z AUTO 04005KT 360V080 CAVOK 16/11 Q1017,LFOZ,2023-06-06T07:00:00Z,47.9,2.17,16.0,11.0,40,5,,6.21,30.029528,,,TRUE,,,,,,,,CAVOK,,,,,,,,VFR,,,,,,,,,,,,METAR,121.0
LFOJ 060700Z AUTO 02010KT CAVOK 15/11 Q1017 NOSIG,LFOJ,2023-06-06T07:00:00Z,47.98,1.75,15.0,11.0,20,10,,6.21,30.029528,,,TRUE,,,TRUE,,,,,CAVOK,,,,,,,,VFR,,,,,,,,,,,,METAR,122.0
LFOA 060700Z AUTO 04007KT CAVOK 18/11 Q1016 NOSIG,LFOA,2023-06-06T07:00:00Z,47.05,2.63,18.0,11.0,40,7,,6.21,30.0,,,TRUE,,,TRUE,,,,,CAVOK,,,,,,,,VFR,,,,,,,,,,,,METAR,174.0
LFMY 060700Z AUTO 06003KT 9999 BKN025 19/16 Q1016 NOSIG,LFMY,2023-06-06T07:00:00Z,43.6,5.1,19.0,16.0,60,3,,6.21,30.0,,,TRUE,,,TRUE,,,,,BKN,2500,,,,,,,MVFR,,,,,,,,,,,,METAR,57.0
LFMV 060700Z AUTO VRB03KT 9999 BKN018 BKN030 19/14 Q1016 NOSIG,LFMV,2023-06-06T07:00:00Z,43.9,4.9,19.0,14.0,0,3,,6.21,30.0,,,TRUE,,,TRUE,,,,,BKN,1800,BKN,3000,,,,,MVFR,,,,,,,,,,,,METAR,33.0
LFMC 060700Z AUTO 03003KT 360V060 9999 ////// 18/17 Q1016,LFMC,2023-06-06T07:00:00Z,43.37,6.38,18.0,17.0,30,3,,6.21,30.0,,,TRUE,,,,,,,,,,,,,,,,,,,,,,,,,,,,METAR,79.0
LFLW 060700Z AUTO 10004KT CAVOK 17/13 Q1017 TEMPO 3000 BR,LFLW,2023-06-06T07:00:00Z,44.88,2.42,17.0,13.0,100,4,,6.21,30.029528,,,TRUE,,,,,,,,CAVOK,,,,,,,,VFR,,,,,,,,,,,,METAR,638.0
LFHP 060700Z AUTO VRB02KT CAVOK 14/12 Q1018,LFHP,2023-06-06T07:00:00Z,45.07,3.77,14.0,12.0,0,2,,6.21,30.059055,,,TRUE,,,,,,,,CAVOK,,,,,,,,VFR,,,,,,,,,,,,METAR,829.0
LFGJ 060700Z AUTO 06003KT 010V120 9000 NSC 19/12 Q1016,LFGJ,2023-06-06T07:00:00Z,47.05,5.43,19.0,12.0,60,3,,5.59,30.0,,,TRUE,,,,,,,,CLR,,,,,,,,VFR,,,,,,,,,,,,METAR,191.0
LFBU 060700Z AUTO 04005KT CAVOK ///// Q1015 NOSIG,LFBU,2023-06-06T07:00:00Z,45.72,0.22,,,40,5,,6.21,29.970472,,,TRUE,,,TRUE,,,,,CAVOK,,,,,,,,VFR,,,,,,,,,,,,METAR,124.0
LFBT 060700Z AUTO 17003KT CAVOK 18/15 Q1015 NOSIG,LFBT,2023-06-06T07:00:00Z,43.18,0.0,18.0,15.0,170,3,,6.21,29.970472,,,TRUE,,,TRUE,,,,,CAVOK,,,,,,,,VFR,,,,,,,,,,,,METAR,359.0
LFBL 060700Z AUTO 08006KT CAVOK 19/11 Q1016 NOSIG,LFBL,2023-06-06T07:00:00Z,45.87,1.17,19.0,11.0,80,6,,6.21,30.0,,,TRUE,,,TRUE,,,,,CAVOK,,,,,,,,VFR,,,,,,,,,,,,METAR,402.0
LFAQ 060700Z AUTO 03011KT 6000 OVC008 12/11 Q1020 BECMG NSC,LFAQ,2023-06-06T07:00:00Z,49.97,2.7,12.0,11.0,30,11,,3.73,30.11811,,,TRUE,,,,,,,,OVC,800,,,,,,,IFR,,,,,,,,,,,,METAR,107.0
LEZL 060700Z 04003KT 340V100 CAVOK 24/16 Q1011 NOSIG,LEZL,2023-06-06T07:00:00Z,37.42,-5.9,24.0,16.0,40,3,,6.21,29.852362,,,,,,TRUE,,,,,CAVOK,,,,,,,,VFR,,,,,,,,,,,,METAR,26.0
LEZG 060700Z 10005KT 070V140 CAVOK 20/16 Q1015,LEZG,2023-06-06T07:00:00Z,41.67,-1.02,20.0,16.0,100,5,,6.21,29.970472,,,,,,,,,,,CAVOK,,,,,,,,VFR,,,,,,,,,,,,METAR,245.0
LEXJ 060700Z 00000KT 8000 NSC 20/18 Q1013,LEXJ,2023-06-06T07:00:00Z,43.42,-3.82,20.0,18.0,0,0,,4.97,29.911417,,,,,,,,,,,CLR,,,,,,,,MVFR,,,,,,,,,,,,METAR,1.0
LEVX 060700Z 21005KT CAVOK 17/16 Q1012 NOSIG,LEVX,2023-06-06T07:00:00Z,42.23,-8.62,17.0,16.0,210,5,,6.21,29.88189,,,,,,TRUE,,,,,CAVOK,,,,,,,,VFR,,,,,,,,,,,,METAR,253.0
LEVT 060700Z VRB01KT 3000 1000NE R04/P2000 R22/0900N BR BCFG BKN003 16/16 Q1016,LEVT,2023-06-06T07:00:00Z,42.87,-2.72,16.0,16.0,0,1,,1.86,30.0,,,,,,,,,,BCFG BR,BKN,300,,,,,,,LIFR,,,,,,,,,,,,SPECI,501.0
LEVS 060700Z 01004KT 320V080 CAVOK 17/13 Q1016,LEVS,2023-06-06T07:00:00Z,40.37,-3.78,17.0,13.0,10,4,,6.21,30.0,,,,,,,,,,,CAVOK,,,,,,,,VFR,,,,,,,,,,,,METAR,683.0
LEVD 060700Z 09005KT 060V140 CAVOK 16/12 Q1016,LEVD,2023-06-06T07:00:00Z,41.72,-4.85,16.0,12.0,90,5,,6.21,30.0,,,,,,,,,,,CAVOK,,,,,,,,VFR,,,,,,,,,,,,METAR,844.0
LEVC 060700Z 31003KT 270V350 9999 FEW020 21/15 Q1015 NOSIG,LEVC,2023-06-06T07:00:00Z,39.5,-0.47,21.0,15.0,310,3,,6.21,29.970472,,,,,,TRUE,,,,,FEW,2000,,,,,,,VFR,,,,,,,,,,,,METAR,58.0
LETU 060700Z AUTO 14005KT CAVOK 18/16 Q1015,LETU,2023-06-06T07:00:00Z,,,18.0,16.0,140,5,,6.21,29.970472,,,TRUE,,,,,,,,CAVOK,,,,,,,,VFR,,,,,,,,,,,,METAR,
LETO 060700Z 02004KT 360V080 CAVOK 17/14 Q1016 NOSIG,LETO,2023-06-06T07:00:00Z,40.48,-3.47,17.0,14.0,20,4,,6.21,30.0,,,,,,TRUE,,,,,CAVOK,,,,,,,,VFR,,,,,,,,,,,,METAR,598.0
LETL 060700Z AUTO VRB02KT 9999 FEW005 14/13 Q1018,LETL,2023-06-06T07:00:00Z,40.42,-1.22,14.0,13.0,0,2,,6.21,30.059055,,,TRUE,,,,,,,,FEW,500,,,,,,,VFR,,,,,,,,,,,,METAR,1024.0
LEST 060700Z 12003KT 080V140 CAVOK 18/15 Q1013 NOSIG,LEST,2023-06-06T07:00:00Z,42.88,-8.42,18.0,15.0,120,3,,6.21,29.911417,,,,,,TRUE,,,,,CAVOK,,,,,,,,VFR,,,,,,,,,,,,METAR,363.0
LESO 060700Z 00000KT 9999 FEW050 21/18 Q1014,LESO,2023-06-06T07:00:00Z,43.35,-1.8,21.0,18.0,0,0,,6.21,29.940945,,,,,,,,,,,FEW,5000,,,,,,,VFR,,,,,,,,,,,,METAR,3.0
LESB 060700Z AUTO VRB01KT CAVOK 22/15 Q1016,LESB,2023-06-06T07:00:00Z,39.6,2.7,22.0,15.0,0,1,,6.21,30.0,,,TRUE,,,,,,,,CAVOK,,,,,,,,VFR,,,,,,,,,,,,METAR,48.0
LESA 060700Z VRB02KT CAVOK 16/13 Q1016,LESA,2023-06-06T07:00:00Z,40.95,-5.5,16.0,13.0,0,2,,6.21,30.0,,,,,,,,,,,CAVOK,,,,,,,,VFR,,,,,,,,,,,,METAR,788.0
LERT 060700Z 11011KT 080V150 CAVOK 22/13 Q1011 NOSIG,LERT,2023-06-06T07:00:00Z,36.63,-6.33,22.0,13.0,110,11,,6.21,29.852362,,,,,,TRUE,,,,,CAVOK,,,,,,,,VFR,,,,,,,,,,,,METAR,27.0
LERS 060700Z 22003KT 170V340 9999 FEW017 SCT030 21/17 Q1015,LERS,2023-06-06T07:00:00Z,41.13,1.17,21.0,17.0,220,3,,6.21,29.970472,,,,,,,,,,,FEW,1700,SCT,3000,,,,,VFR,,,,,,,,,,,,METAR,68.0
LERI 060700Z VRB01KT 7000 FEW009 20/16 Q1016 NOSIG,LERI,2023-06-06T07:00:00Z,37.95,-1.22,20.0,16.0,0,1,,4.35,30.0,,,,,,TRUE,,,,,FEW,900,,,,,,,MVFR,,,,,,,,,,,,METAR,74.0
LEPP 060700Z VRB02KT CAVOK 17/14 Q1016,LEPP,2023-06-06T07:00:00Z,42.77,-1.65,17.0,14.0,0,2,,6.21,30.0,,,,,,,,,,,CAVOK,,,,,,,,VFR,,,,,,,,,,,,METAR,448.0
LEPA 060700Z 22001KT 9999 FEW025 22/17 Q1015 NOSIG,LEPA,2023-06-06T07:00:00Z,39.55,2.73,22.0,17.0,220,1,,6.21,29.970472,,,,,,TRUE,,,,,FEW,2500,,,,,,,VFR,,,,,,,,,,,,METAR,8.0
LEMI 060700Z 04003KT 350V070 9999 BKN015 20/17 Q1016,LEMI,2023-06-06T07:00:00Z,37.8,-1.12,20.0,17.0,40,3,,6.21,30.0,,,,,,,,,,,BKN,1500,,,,,,,MVFR,,,,,,,,,,,,METAR,193.0
LEMH 060700Z VRB02KT 9999 FEW014 22/17 Q1016,LEMH,2023-06-06T07:00:00Z,39.87,4.22,22.0,17.0,0,2,,6.21,30.0,,,,,,,,,,,FEW,1400,,,,,,,VFR,,,,,,,,,,,,METAR,82.0
LEMG 060700Z 13004KT 080V170 9999 SCT012 BKN020 21/18 Q1014 NOSIG,LEMG,2023-06-06T07:00:00Z,36.67,-4.47,21.0,18.0,130,4,,6.21,29.940945,,,,,,TRUE,,,,,SCT,1200,BKN,2000,,,,,MVFR,,,,,,,,,,,,METAR,5.0
LEMD 060700Z 34004KT 300V030 CAVOK 17/14 Q1016 NOSIG,LEMD,2023-06-06T07:00:00Z,40.45,-3.57,17.0,14.0,340,4,,6.21,30.0,,,,,,TRUE,,,,,CAVOK,,,,,,,,VFR,,,,,,,,,,,,METAR,589.0
LELO 060700Z VRB01KT CAVOK 18/14 Q1015,LELO,2023-06-06T07:00:00Z,42.45,-2.32,18.0,14.0,0,1,,6.21,29.970472,,,,,,,,,,,CAVOK,,,,,,,,VFR,,,,,,,,,,,,METAR,352.0
LELN 060700Z VRB01KT CAVOK 15/12 Q1016,LELN,2023-06-06T07:00:00Z,42.58,-5.65,15.0,12.0,0,1,,6.21,30.0,,,,,,,,,,,CAVOK,,,,,,,,VFR,,,,,,,,,,,,METAR,911.0
LELL 060700Z VRB02KT CAVOK 21/14 Q1015,LELL,2023-06-06T07:00:00Z,41.52,2.1,21.0,14.0,0,2,,6.21,29.970472,,,,,,,,,,,CAVOK,,,,,,,,VFR,,,,,,,,,,,,METAR,136.0
LELC 060700Z 07004KT 030V110 9999 SCT014 23/19 Q1015 NOSIG,LELC,2023-06-06T07:00:00Z,37.77,-0.8,23.0,19.0,70,4,,6.21,29.970472,,,,,,TRUE,,,,,SCT,1400,,,,,,,VFR,,,,,,,,,,,,METAR,3.0
LEIB 060700Z 20003KT 110V250 9999 BKN018 21/17 Q1015 NOSIG,LEIB,2023-06-06T07:00:00Z,38.87,1.38,21.0,17.0,200,3,,6.21,29.970472,,,,,,TRUE,,,,,BKN,1800,,,,,,,MVFR,,,,,,,,,,,,METAR,4.0
LEHC 060700Z VRB01KT CAVOK 17/13 Q1016,LEHC,2023-06-06T07:00:00Z,42.08,-0.32,17.0,13.0,0,1,,6.21,30.0,,,,,,,,,,,CAVOK,,,,,,,,VFR,,,,,,,,,,,,METAR,540.0
LEGT 060700Z 04006KT CAVOK 18/13 Q1016,LEGT,2023-06-06T07:00:00Z,40.28,-3.72,18.0,13.0,40,6,,6.21,30.0,,,,,,,,,,,CAVOK,,,,,,,,VFR,,,,,,,,,,,,METAR,619.0
LEGR 060700Z 00000KT 9999 FEW080 19/15 Q1015,LEGR,2023-06-06T07:00:00Z,37.18,-3.78,19.0,15.0,0,0,,6.21,29.970472,,,,,,,,,,,FEW,8000,,,,,,,VFR,,,,,,,,,,,,METAR,560.0
LEGE 060700Z 00000KT CAVOK 19/15 Q1015,LEGE,2023-06-06T07:00:00Z,41.9,2.77,19.0,15.0,0,0,,6.21,29.970472,,,,,,,,,,,CAVOK,,,,,,,,VFR,,,,,,,,,,,,METAR,140.0
LEGA 060700Z 26003KT 200V340 CAVOK 20/12 Q1016,LEGA,2023-06-06T07:00:00Z,37.13,-3.62,20.0,12.0,260,3,,6.21,30.0,,,,,,,,,,,CAVOK,,,,,,,,VFR,,,,,,,,,,,,METAR,684.0
LEEC 060700Z 35003KT 310V040 CAVOK 23/16 Q1011,LEEC,2023-06-06T07:00:00Z,37.32,-6.0,23.0,16.0,350,3,,6.21,29.852362,,,,,,,,,,,CAVOK,,,,,,,,VFR,,,,,,,,,,,,METAR,7.0
LEDA 060700Z 05005KT CAVOK 17/15 Q1016,LEDA,2023-06-06T07:00:00Z,41.73,0.53,17.0,15.0,50,5,,6.21,30.0,,,,,,,,,,,CAVOK,,,,,,,,VFR,,,,,,,,,,,,METAR,352.0
LECV 060700Z 00000KT CAVOK 16/12 Q1017,LECV,2023-06-06T07:00:00Z,40.68,-3.75,16.0,12.0,0,0,,6.21,30.029528,,,,,,,,,,,CAVOK,,,,,,,,VFR,,,,,,,,,,,,METAR,995.0
LECO 060700Z 17003KT 130V200 9999 BCFG FEW001 15/15 Q1012 NOSIG,LECO,2023-06-06T07:00:00Z,43.3,-8.37,15.0,15.0,170,3,,6.21,29.88189,,,,,,TRUE,,,,BCFG,FEW,100,,,,,,,VFR,,,,,,,,,,,,METAR,80.0
LECH 060700Z AUTO 23003KT 200V270 8000 NCD 18/16 Q1016,LECH,2023-06-06T07:00:00Z,40.2,0.07,18.0,16.0,230,3,,4.97,30.0,,,TRUE,,,,,,,,CLR,,,,,,,,MVFR,,,,,,,,,,,,METAR,360.0
LEBZ 060700Z 09007KT CAVOK 21/16 Q1012,LEBZ,2023-06-06T07:00:00Z,38.87,-6.82,21.0,16.0,90,7,,6.21,29.88189,,,,,,,,,,,CAVOK,,,,,,,,VFR,,,,,,,,,,,,METAR,183.0
LEBT 060700Z AUTO 24002KT CAVOK 21/14 Q1015,LEBT,2023-06-06T07:00:00Z,39.58,-0.45,21.0,14.0,240,2,,6.21,29.970472,,,TRUE,,,,,,,,CAVOK,,,,,,,,VFR,,,,,,,,,,,,METAR,50.0
LEBR 060700Z AUTO 11007KT CAVOK 18/15 Q1015,LEBR,2023-06-06T07:00:00Z,42.2,-1.43,18.0,15.0,110,7,,6.21,29.970472,,,TRUE,,,,,,,,CAVOK,,,,,,,,VFR,,,,,,,,,,,,METAR,347.0
LEBL 060700Z 32004KT 9999 FEW020 21/17 Q1015 NOSIG,LEBL,2023-06-06T07:00:00Z,41.28,2.07,21.0,17.0,320,4,,6.21,29.970472,,,,,,TRUE,,,,,FEW,2000,,,,,,,VFR,,,,,,,,,,,,METAR,2.0
LEBG 060700Z 00000KT CAVOK 15/11 Q1017,LEBG,2023-06-06T07:00:00Z,42.37,-3.62,15.0,11.0,0,0,,6.21,30.029528,,,,,,,,,,,CAVOK,,,,,,,,VFR,,,,,,,,,,,,METAR,892.0
LEBB 060700Z 00000KT CAVOK 21/18 Q1014 NOSIG,LEBB,2023-06-06T07:00:00Z,43.28,-2.92,21.0,18.0,0,0,,6.21,29.940945,,,,,,TRUE,,,,,CAVOK,,,,,,,,VFR,,,,,,,,,,,,METAR,38.0
LEBA 060700Z VRB01KT CAVOK 22/14 Q1013,LEBA,2023-06-06T07:00:00Z,37.85,-4.83,22.0,14.0,0,1,,6.21,29.911417,,,,,,,,,,,CAVOK,,,,,,,,VFR,,,,,,,,,,,,METAR,88.0
LEAS 060700Z VRB02KT CAVOK 19/16 Q1013 NOSIG,LEAS,2023-06-06T07:00:00Z,43.57,-6.03,19.0,16.0,0,2,,6.21,29.911417,,,,,,TRUE,,,,,CAVOK,,,,,,,,VFR,,,,,,,,,,,,METAR,120.0
LEAO 060700Z 07003KT 020V140 CAVOK 18/16 Q1015,LEAO,2023-06-06T07:00:00Z,38.95,-3.73,18.0,16.0,70,3,,6.21,29.970472,,,,,,,,,,,CAVOK,,,,,,,,VFR,,,,,,,,,,,,METAR,621.0
LEAM 060700Z 07007KT 020V110 CAVOK 23/14 Q1014,LEAM,2023-06-06T07:00:00Z,36.85,-2.37,23.0,14.0,70,7,,6.21,29.940945,,,,,,,,,,,CAVOK,,,,,,,,VFR,,,,,,,,,,,,METAR,16.0
LEAL 060700Z VRB01KT 9999 SCT014 21/17 Q1015 NOSIG,LEAL,2023-06-06T07:00:00Z,38.27,-0.55,21.0,17.0,0,1,,6.21,29.970472,,,,,,TRUE,,,,,SCT,1400,,,,,,,VFR,,,,,,,,,,,,METAR,26.0
LEAG 060700Z AUTO 07010KT 030V100 9999 BKN010/// 20/18 Q1013,LEAG,2023-06-06T07:00:00Z,36.12,-5.45,20.0,18.0,70,10,,6.21,29.911417,,,TRUE,,,,,,,,BKN,1000,,,,,,,MVFR,,,,,,,,,,,,METAR,4.0
LEAB 060700Z 17007KT 140V210 8000 BKN005 16/15 Q1017 NOSIG,LEAB,2023-06-06T07:00:00Z,38.95,-1.85,16.0,15.0,170,7,,4.97,30.029528,,,,,,TRUE,,,,,BKN,500,,,,,,,IFR,,,,,,,,,,,,METAR,704.0
LCPH 060700Z 28007KT 250V320 9999 FEW020 24/19 Q1012 NOSIG,LCPH,2023-06-06T07:00:00Z,34.72,32.47,24.0,19.0,280,7,,6.21,29.88189,,,,,,TRUE,,,,,FEW,2000,,,,,,,VFR,,,,,,,,,,,,METAR,8.0
LCLK 060700Z 15007KT 120V180 9999 FEW020 25/19 Q1012 NOSIG,LCLK,2023-06-06T07:00:00Z,34.87,33.62,25.0,19.0,150,7,,6.21,29.88189,,,,,,TRUE,,,,,FEW,2000,,,,,,,VFR,,,,,,,,,,,,METAR,2.0
KNEL 060700Z AUTO 30005KT CLR 13/05 A2976 RMK AO2 SLP077 T01330050 $,KNEL,2023-06-06T07:00:00Z,40.03,-74.33,13.3,5.0,300,5,,,29.760826,1007.7,,TRUE,TRUE,TRUE,,,,,,CLR,,,,,,,,,,,,,,,,,,,,METAR,26.0
KMHV 060700Z AUTO 22015KT 10SM BKN055 BKN060 13/07 A2980 RMK AO2 LTG DSNT W,KMHV,2023-06-06T07:00:00Z,35.07,-118.15,13.0,7.0,220,15,,10.0,29.799213,,,TRUE,TRUE,,,,,,,BKN,5500,BKN,6000,,,,,VFR,,,,,,,,,,,,METAR,841.0
KLSF 060700Z AUTO 00000KT 6SM BR CLR 17/16 A2992 RMK AO2 SLP135 $,KLSF,2023-06-06T07:00:00Z,32.32,-84.97,17.0,16.0,0,0,,6.0,29.920275,1013.5,,TRUE,TRUE,TRUE,,,,,BR,CLR,,,,,,,,VFR,,,,,,,,,,,,SPECI,68.0
KGZN 060700Z AUTO 30005KT 10SM BKN050 BKN060 18/17 A2999 RMK AO2,KGZN,2023-06-06T07:00:00Z,32.37,-99.02,18.0,17.0,300,5,,10.0,29.991142,,,TRUE,TRUE,,,,,,,BKN,5000,BKN,6000,,,,,VFR,,,,,,,,,,,,METAR,522.0
HUEN 060700Z 21017KT 9999 SCT020 FEW022CB 23/18 Q1021,HUEN,2023-06-06T07:00:00Z,0.03,32.45,23.0,18.0,210,17,,6.21,30.147638,,,,,,,,,,,SCT,2000,FEW,2200,,,,,VFR,,,,,,,,,,,,METAR,1147.0
HTZA 060700Z 22011KT 9999 BKN016 27/23 Q1018 NOSIG,HTZA,2023-06-06T07:00:00Z,-6.22,39.22,27.0,23.0,220,11,,6.21,30.059055,,,,,,TRUE,,,,,BKN,1600,,,,,,,MVFR,,,,,,,,,,,,METAR,19.0
HTTB 060700Z 12015G25KT 9999 FEW020 24/16 Q1023 NOSIG,HTTB,2023-06-06T07:00:00Z,-5.07,32.82,24.0,16.0,120,15,25,6.21,30.206694,,,,,,TRUE,,,,,FEW,2000,,,,,,,VFR,,,,,,,,,,,,METAR,1185.0
HTSU 060700Z 16003KT 9999 FEW020 FEW021CB 21/13 Q1028,HTSU,2023-06-06T07:00:00Z,-7.95,31.6,21.0,13.0,160,3,,6.21,30.35433,,,,,,,,,,,FEW,2000,FEW,2100,,,,,VFR,,,,,,,,,,,,METAR,1820.0
HTSO 060700Z VRB02KT 9999 BKN017 22/17 Q1025,HTSO,2023-06-06T07:00:00Z,-10.67,35.58,22.0,17.0,0,2,,6.21,30.265747,,,,,,,,,,,BKN,1700,,,,,,,MVFR,,,,,,,,,,,,METAR,1058.0
HTMW 060700Z 12015KT 9999 FEW024 FEW025CB 25/16 Q1021 NOSIG,HTMW,2023-06-06T07:00:00Z,-2.43,32.92,25.0,16.0,120,15,,6.21,30.147638,,,,,,TRUE,,,,,FEW,2400,FEW,2500,,,,,VFR,,,,,,,,,,,,METAR,1144.0
HTMU 060700Z 09008KT 9999 FEW021 FEW023CB SCT080 25/16 Q1022,HTMU,2023-06-06T07:00:00Z,-1.5,33.8,25.0,16.0,90,8,,6.21,30.177166,,,,,,,,,,,FEW,2100,FEW,2300,SCT,8000,,,VFR,,,,,,,,,,,,METAR,1154.0
HTMT 060700Z 18010KT 9999 FEW021 Q1019 NOSIG,HTMT,2023-06-06T07:00:00Z,-10.33,40.18,,,180,10,,6.21,30.088583,,,,,,TRUE,,,,,FEW,2100,,,,,,,VFR,,,,,,,,,,,,METAR,114.0
HTMP 060700Z 09005KT 9999 FEW020 FEW022CB 24/15 Q1024,HTMP,2023-06-06T07:00:00Z,-6.35,31.08,24.0,15.0,90,5,,6.21,30.236221,,,,,,,,,,,FEW,2000,FEW,2200,,,,,VFR,,,,,,,,,,,,METAR,1073.0
HTMG 060700Z 00000KT 9999 BKN021 23/21 Q1021,HTMG,2023-06-06T07:00:00Z,-6.78,37.65,23.0,21.0,0,0,,6.21,30.147638,,,,,,,,,,,BKN,2100,,,,,,,MVFR,,,,,,,,,,,,METAR,512.0
HTKJ 060700Z 18005KT 9999 BKN024 21/19 Q1023 NOSIG,HTKJ,2023-06-06T07:00:00Z,-3.42,37.07,21.0,19.0,180,5,,6.21,30.206694,,,,,,TRUE,,,,,BKN,2400,,,,,,,MVFR,,,,,,,,,,,,METAR,893.0
HTKA 060700Z 09006KT 9999 FEW023 FEW024CB 27/18 Q1019 NOSIG,HTKA,2023-06-06T07:00:00Z,-4.88,29.67,27.0,18.0,90,6,,6.21,30.088583,,,,,,TRUE,,,,,FEW,2300,FEW,2400,,,,,VFR,,,,,,,,,,,,METAR,819.0
HTIR 060700Z 00000KT 9999 BKN026 23/14 Q1025,HTIR,2023-06-06T07:00:00Z,-7.67,35.75,23.0,14.0,0,0,,6.21,30.265747,,,,,,,,,,,BKN,2600,,,,,,,MVFR,,,,,,,,,,,,METAR,1432.0
HTIB 060700Z 16015KT CAVOK 25/16 Q1020,HTIB,2023-06-06T07:00:00Z,,,25.0,16.0,160,15,,6.21,30.11811,,,,,,,,,,,CAVOK,,,,,,,,VFR,,,,,,,,,,,,METAR,
HTDO 060700Z 06015KT 9999 FEW025 SCT090 23/14 Q1023 NOSIG,HTDO,2023-06-06T07:00:00Z,-6.17,35.77,23.0,14.0,60,15,,6.21,30.206694,,,,,,TRUE,,,,,FEW,2500,SCT,9000,,,,,VFR,,,,,,,,,,,,METAR,1119.0
HTDA 060700Z 21008KT 9999 FEW012 26/23 Q1019 NOSIG,HTDA,2023-06-06T07:00:00Z,-6.88,39.2,26.0,23.0,210,8,,6.21,30.088583,,,,,,TRUE,,,,,FEW,1200,,,,,,,VFR,,,,,,,,,,,,METAR,53.0
HTBU 060700Z 13010KT 9999 FEW020 FEW022CB SCT100 26/20 Q1020,HTBU,2023-06-06T07:00:00Z,-1.32,31.82,26.0,20.0,130,10,,6.21,30.11811,,,,,,,,,,,FEW,2000,FEW,2200,SCT,10000,,,VFR,,,,,,,,,,,,METAR,1144.0
HTAR 060700Z 11010KT 5000 SCT007 BKN016 17/17 Q1027 NOSIG,HTAR,2023-06-06T07:00:00Z,-3.37,36.63,17.0,17.0,110,10,,3.11,30.324802,,,,,,TRUE,,,,,SCT,700,BKN,1600,,,,,MVFR,,,,,,,,,,,,METAR,1386.0
HRZA 060700Z 18004KT 9999 FEW026 21/17 Q1024 NOSIG,HRZA,2023-06-06T07:00:00Z,-2.47,28.92,21.0,17.0,180,4,,6.21,30.236221,,,,,,TRUE,,,,,FEW,2600,,,,,,,VFR,,,,,,,,,,,,METAR,1591.0
HKWJ 060700Z 17011KT 9999 BKN025 29/21 Q1016,HKWJ,2023-06-06T07:00:00Z,1.75,40.08,29.0,21.0,170,11,,6.21,30.0,,,,,,,,,,,BKN,2500,,,,,,,MVFR,,,,,,,,,,,,METAR,254.0
HKNW 060700Z 18010KT 9999 BKN021 19/14 Q1028,HKNW,2023-06-06T07:00:00Z,-1.32,36.82,19.0,14.0,180,10,,6.21,30.35433,,,,,,,,,,,BKN,2100,,,,,,,MVFR,,,,,,,,,,,,METAR,1666.0
HKNK 060700Z 00000KT 9999 FEW023 BKN230 21/12,HKNK,2023-06-06T07:00:00Z,-0.3,36.17,21.0,12.0,0,0,,6.21,,,,,,,,,,,,FEW,2300,BKN,23000,,,,,VFR,,,,,,,,,,,,METAR,1900.0
HKNI 060700Z 23002KT 9999 BKN019 18/16,HKNI,2023-06-06T07:00:00Z,-0.33,36.92,18.0,16.0,230,2,,6.21,,,,,,,,,,,,BKN,1900,,,,,,,MVFR,,,,,,,,,,,,METAR,1769.0
HKMO 060700Z 19006KT 6000 -SHRA BKN021 BKN080 25/23 Q1018 TEMPO TL0800 9999 SCT022 BKN080,HKMO,2023-06-06T07:00:00Z,-4.02,39.62,25.0,23.0,190,6,,3.73,30.059055,,,,,,,,,,-SHRA,BKN,2100,BKN,8000,,,,,MVFR,,,,,,,,,,,,METAR,55.0
HKML 060700Z 21009KT 9999 FEW023TCU 28/24 Q1017,HKML,2023-06-06T07:00:00Z,-3.22,40.1,28.0,24.0,210,9,,6.21,30.029528,,,,,,,,,,,FEW,2300,,,,,,,VFR,,,,,,,,,,,,METAR,20.0
HKLO 060700Z 09012KT FEW029 BKN290 31/18 Q1013,HKLO,2023-06-06T07:00:00Z,3.12,35.62,31.0,18.0,90,12,,,29.911417,,,,,,,,,,,FEW,2900,BKN,29000,,,,,,,,,,,,,,,,,METAR,503.0
HKKT 060700Z 00000KT 9999 FEW020 SCT220 22/16,HKKT,2023-06-06T07:00:00Z,0.97,34.97,22.0,16.0,0,0,,6.21,,,,,,,,,,,,FEW,2000,SCT,22000,,,,,VFR,,,,,,,,,,,,METAR,1829.0
HKKI 060700Z 07004KT 9999 FEW025CB SCT280 26/17 Q1021,HKKI,2023-06-06T07:00:00Z,-0.1,34.75,26.0,17.0,70,4,,6.21,30.147638,,,,,,,,,,,FEW,2500,SCT,28000,,,,,VFR,,,,,,,,,,,,METAR,1152.0
HKJK 060700Z 17009KT 9999 SCT012 BKN018 20/16 Q1026 NOSIG,HKJK,2023-06-06T07:00:00Z,-1.32,36.92,20.0,16.0,170,9,,6.21,30.295275,,,,,,TRUE,,,,,SCT,1200,BKN,1800,,,,,MVFR,,,,,,,,,,,,METAR,1615.0
HKGO 060700Z AUTO 10008KT 15/14 Q1029 A30.40,HKGO,2023-06-06T07:00:00Z,,,15.0,14.0,100,8,,,30.383858,,,TRUE,,,,,,,,,,,,,,,,,,,,,,,,,,,,METAR,
HKGA 060700Z 18008KT 9999 BKN024 29/21 Q1017,HKGA,2023-06-06T07:00:00Z,-0.47,39.65,29.0,21.0,180,8,,6.21,30.029528,,,,,,,,,,,BKN,2400,,,,,,,MVFR,,,,,,,,,,,,METAR,147.0
HKEL 060700Z VRB03KT 9999 FEW021CB BKN270 21/12 Q1028,HKEL,2023-06-06T07:00:00Z,0.4,35.23,21.0,12.0,0,3,,6.21,30.35433,,,,,,,,,,,FEW,2100,BKN,27000,,,,,VFR,,,,,,,,,,,,METAR,2116.0
HETR 060700Z 30020KT CAVOK 27/19 Q1009,HETR,2023-06-06T07:00:00Z,28.22,33.65,27.0,19.0,300,20,,6.21,29.793306,,,,,,,,,,,CAVOK,,,,,,,,VFR,,,,,,,,,,,,METAR,35.0
HESX 060700Z 05010KT CAVOK 24/15 Q1013 NOSIG,HESX,2023-06-06T07:00:00Z,,,24.0,15.0,50,10,,6.21,29.911417,,,,,,TRUE,,,,,CAVOK,,,,,,,,VFR,,,,,,,,,,,,METAR,
HESW 060700Z 14008KT 9999 FEW025 SCT100 25/11 Q1014,HESW,2023-06-06T07:00:00Z,29.35,25.5,25.0,11.0,140,8,,6.21,29.940945,,,,,,,,,,,FEW,2500,SCT,10000,,,,,VFR,,,,,,,,,,,,METAR,101.0
HESN 060700Z 01006KT CAVOK 35/07 Q1010 NOSIG,HESN,2023-06-06T07:00:00Z,23.97,32.82,35.0,7.0,10,6,,6.21,29.822834,,,,,,TRUE,,,,,CAVOK,,,,,,,,VFR,,,,,,,,,,,,METAR,197.0
HESH 060700Z 26013KT CAVOK 31/16 Q1009 NOSIG,HESH,2023-06-06T07:00:00Z,27.97,34.38,31.0,16.0,260,13,,6.21,29.793306,,,,,,TRUE,,,,,CAVOK,,,,,,,,VFR,,,,,,,,,,,,METAR,50.0
HESG 060700Z 34006KT CAVOK 32/10 Q1009 NOSIG,HESG,2023-06-06T07:00:00Z,26.33,31.75,32.0,10.0,340,6,,6.21,29.793306,,,,,,TRUE,,,,,CAVOK,,,,,,,,VFR,,,,,,,,,,,,METAR,70.0
HEPS 060700Z 05006KT 9999 SCT030 23/17 Q1013 NOSIG,HEPS,2023-06-06T07:00:00Z,31.28,32.25,23.0,17.0,50,6,,6.21,29.911417,,,,,,TRUE,,,,,SCT,3000,,,,,,,VFR,,,,,,,,,,,,METAR,2.0
HEMM 060700Z 36009KT 9999 SCT020 23/17 Q1013 NOSIG,HEMM,2023-06-06T07:00:00Z,31.32,27.22,23.0,17.0,360,9,,6.21,29.911417,,,,,,TRUE,,,,,SCT,2000,,,,,,,VFR,,,,,,,,,,,,METAR,26.0
HEMA 060700Z 33015KT CAVOK 33/14 Q1010 NOSIG,HEMA,2023-06-06T07:00:00Z,25.55,34.58,33.0,14.0,330,15,,6.21,29.822834,,,,,,TRUE,,,,,CAVOK,,,,,,,,VFR,,,,,,,,,,,,METAR,77.0
HELX 060700Z 00000KT CAVOK 36/07 Q1009 NOSIG,HELX,2023-06-06T07:00:00Z,25.67,32.7,36.0,7.0,0,0,,6.21,29.793306,,,,,,TRUE,,,,,CAVOK,,,,,,,,VFR,,,,,,,,,,,,METAR,86.0
HEIS 060700Z 02008KT CAVOK 25/17 Q1013,HEIS,2023-06-06T07:00:00Z,30.58,32.25,25.0,17.0,20,8,,6.21,29.911417,,,,,,,,,,,CAVOK,,,,,,,,VFR,,,,,,,,,,,,METAR,14.0
HEGN 060700Z 35008KT CAVOK 31/07 Q1009 NOSIG,HEGN,2023-06-06T07:00:00Z,27.18,33.8,31.0,7.0,350,8,,6.21,29.793306,,,,,,TRUE,,,,,CAVOK,,,,,,,,VFR,,,,,,,,,,,,METAR,14.0
HECP 060700Z 02009KT CAVOK 23/15 Q1013 NOSIG,HECP,2023-06-06T07:00:00Z,30.07,31.83,23.0,15.0,20,9,,6.21,29.911417,,,,,,TRUE,,,,,CAVOK,,,,,,,,VFR,,,,,,,,,,,,METAR,240.0
HECA 060700Z 01008KT 8000 SCT025 24/16 Q1013 NOSIG,HECA,2023-06-06T07:00:00Z,30.12,31.4,24.0,16.0,10,8,,4.97,29.911417,,,,,,TRUE,,,,,SCT,2500,,,,,,,MVFR,,,,,,,,,,,,METAR,68.0
HEBL 060700Z 05010KT CAVOK 36/11 Q1009 NOSIG,HEBL,2023-06-06T07:00:00Z,22.38,31.62,36.0,11.0,50,10,,6.21,29.793306,,,,,,TRUE,,,,,CAVOK,,,,,,,,VFR,,,,,,,,,,,,METAR,184.0
HEBA 060700Z 34007KT 9999 SCT020 24/16 Q1013 NOSIG,HEBA,2023-06-06T07:00:00Z,30.92,29.7,24.0,16.0,340,7,,6.21,29.911417,,,,,,TRUE,,,,,SCT,2000,,,,,,,VFR,,,,,,,,,,,,METAR,41.0
HEAX 060700Z 01005KT 9999 SCT020 24/18 Q1013 NOSIG,HEAX,2023-06-06T07:00:00Z,31.18,29.93,24.0,18.0,10,5,,6.21,29.911417,,,,,,TRUE,,,,,SCT,2000,,,,,,,VFR,,,,,,,,,,,,METAR,-2.0
HEAT 060700Z 01006KT CAVOK 31/09 Q1013 NOSIG,HEAT,2023-06-06T07:00:00Z,27.05,31.02,31.0,9.0,10,6,,6.21,29.911417,,,,,,TRUE,,,,,CAVOK,,,,,,,,VFR,,,,,,,,,,,,METAR,229.0
HCMM 060700Z 23012KT 9999 SCT026 30/26 Q1015,HCMM,2023-06-06T07:00:00Z,2.02,45.3,30.0,26.0,230,12,,6.21,29.970472,,,,,,,,,,,SCT,2600,,,,,,,VFR,,,,,,,,,,,,METAR,6.0
HCMF 060700Z 01008KT CAVOK 32/28 Q1007,HCMF,2023-06-06T07:00:00Z,11.27,49.13,32.0,28.0,10,8,,6.21,29.734253,,,,,,,,,,,CAVOK,,,,,,,,VFR,,,,,,,,,,,,METAR,8.0
HBBA 060700Z 29005KT 9999 FEW020 SCT100 27/19 Q1018 NOSIG,HBBA,2023-06-06T07:00:00Z,-3.32,29.32,27.0,19.0,290,5,,6.21,30.059055,,,,,,TRUE,,,,,FEW,2000,SCT,10000,,,,,VFR,,,,,,,,,,,,METAR,777.0
HALA 060700Z 24004KT 9999 FEW023 21/19 Q1023 NOSIG,HALA,2023-06-06T07:00:00Z,7.07,38.5,21.0,19.0,240,4,,6.21,30.206694,,,,,,TRUE,,,,,FEW,2300,,,,,,,VFR,,,,,,,,,,,,METAR,1652.0
HADR 060700Z 14008KT 9999 FEW026 30/18 Q1019,HADR,2023-06-06T07:00:00Z,9.6,41.87,30.0,18.0,140,8,,6.21,30.088583,,,,,,,,,,,FEW,2600,,,,,,,VFR,,,,,,,,,,,,METAR,1164.0
HABD 060700Z 12002KT 9999 FEW024 BKN060 17/15 Q1026 NOSIG,HABD,2023-06-06T07:00:00Z,11.6,37.32,17.0,15.0,120,2,,6.21,30.295275,,,,,,TRUE,,,,,FEW,2400,BKN,6000,,,,,VFR,,,,,,,,,,,,METAR,1828.0
HAAB 060700Z 12002KT 9999 FEW024 BKN060 17/15 Q1026 NOSIG,HAAB,2023-06-06T07:00:00Z,8.97,38.78,17.0,15.0,120,2,,6.21,30.295275,,,,,,TRUE,,,,,FEW,2400,BKN,6000,,,,,VFR,,,,,,,,,,,,METAR,2319.0
GVSV 060700Z VRB02KT CAVOK 23/19 Q1013 NOSIG,GVSV,2023-06-06T07:00:00Z,16.83,-25.07,23.0,19.0,0,2,,6.21,29.911417,,,,,,TRUE,,,,,CAVOK,,,,,,,,VFR,,,,,,,,,,,,METAR,16.0
GVNP 060700Z 05005KT 9999 FEW016 20/18 Q1013 NOSIG,GVNP,2023-06-06T07:00:00Z,14.95,-23.48,20.0,18.0,50,5,,6.21,29.911417,,,,,,TRUE,,,,,FEW,1600,,,,,,,VFR,,,,,,,,,,,,METAR,70.0
GVBA 060700Z 34006KT 9999 BKN014 BKN100 23/21 Q1013 NOSIG,GVBA,2023-06-06T07:00:00Z,16.13,-22.88,23.0,21.0,340,6,,6.21,29.911417,,,,,,TRUE,,,,,BKN,1400,BKN,10000,,,,,MVFR,,,,,,,,,,,,METAR,23.0
GVAC 060700Z 34010KT 9999 BKN013 SCT015 23/20 Q1013 NOSIG,GVAC,2023-06-06T07:00:00Z,16.73,-22.93,23.0,20.0,340,10,,6.21,29.911417,,,,,,TRUE,,,,,BKN,1300,SCT,1500,,,,,MVFR,,,,,,,,,,,,METAR,54.0
GUCY 060700Z 05004KT 9999 BKN015 SCT110 26/25 Q1013 NOSIG,GUCY,2023-06-06T07:00:00Z,9.57,-13.62,26.0,25.0,50,4,,6.21,29.911417,,,,,,TRUE,,,,,BKN,1500,SCT,11000,,,,,MVFR,,,,,,,,,,,,METAR,10.0
GQPP 060700Z 32004KT 290V350 0600 R02/0400 FG BKN005 19/19 Q1013 BECMG 4000 BR SCT005,GQPP,2023-06-06T07:00:00Z,20.92,-17.02,19.0,19.0,320,4,,0.37,29.911417,,,,,,,,,,FG,BKN,500,,,,,,,LIFR,,,,,,,,,,,,METAR,5.0
GQNO 060700Z 32008KT 8000 NSC 20/19 Q1012 NOSIG,GQNO,2023-06-06T07:00:00Z,18.3,-15.97,20.0,19.0,320,8,,4.97,29.88189,,,,,,TRUE,,,,,CLR,,,,,,,,MVFR,,,,,,,,,,,,METAR,1.0
GOTT 060700Z 23004KT CAVOK 31/19 Q1011,GOTT,2023-06-06T07:00:00Z,13.73,-13.65,31.0,19.0,230,4,,6.21,29.852362,,,,,,,,,,,CAVOK,,,,,,,,VFR,,,,,,,,,,,,METAR,53.0
GOTK 060700Z 26004KT 9999 SCT015 30/20 Q1012,GOTK,2023-06-06T07:00:00Z,12.57,-12.22,30.0,20.0,260,4,,6.21,29.88189,,,,,,,,,,,SCT,1500,,,,,,,VFR,,,,,,,,,,,,METAR,165.0
GOSS 060700Z 36004KT 310V060 CAVOK 23/22 Q1013,GOSS,2023-06-06T07:00:00Z,16.05,-16.45,23.0,22.0,360,4,,6.21,29.911417,,,,,,,,,,,CAVOK,,,,,,,,VFR,,,,,,,,,,,,METAR,3.0
GOSP 060700Z 28004KT CAVOK 23/20 Q1012,GOSP,2023-06-06T07:00:00Z,16.68,-14.97,23.0,20.0,280,4,,6.21,29.88189,,,,,,,,,,,CAVOK,,,,,,,,VFR,,,,,,,,,,,,METAR,10.0
GOSM 060700Z 30006KT CAVOK 29/15 Q1011,GOSM,2023-06-06T07:00:00Z,15.6,-13.33,29.0,15.0,300,6,,6.21,29.852362,,,,,,,,,,,CAVOK,,,,,,,,VFR,,,,,,,,,,,,METAR,28.0
GOOY 060700Z 32008KT CAVOK 24/21 Q1012,GOOY,2023-06-06T07:00:00Z,14.73,-17.5,24.0,21.0,320,8,,6.21,29.88189,,,,,,,,,,,CAVOK,,,,,,,,VFR,,,,,,,,,,,,METAR,21.0
GOOK 060700Z 04010KT CAVOK 25/21 Q1012,GOOK,2023-06-06T07:00:00Z,14.15,-16.07,25.0,21.0,40,10,,6.21,29.88189,,,,,,,,,,,CAVOK,,,,,,,,VFR,,,,,,,,,,,,METAR,8.0
GOOD 060700Z 34004KT CAVOK 24/23 Q1012,GOOD,2023-06-06T07:00:00Z,14.65,-16.22,24.0,23.0,340,4,,6.21,29.88189,,,,,,,,,,,CAVOK,,,,,,,,VFR,,,,,,,,,,,,METAR,9.0
GOGS 060700Z 32004KT 9999 SCT013 27/24 Q1012,GOGS,2023-06-06T07:00:00Z,12.4,-16.75,27.0,24.0,320,4,,6.21,29.88189,,,,,,,,,,,SCT,1300,,,,,,,VFR,,,,,,,,,,,,METAR,13.0
GOGK 060700Z 22004KT CAVOK 28/22 Q1011,GOGK,2023-06-06T07:00:00Z,12.9,-14.97,28.0,22.0,220,4,,6.21,29.852362,,,,,,,,,,,CAVOK,,,,,,,,VFR,,,,,,,,,,,,METAR,37.0
GOGG 060700Z 00000KT 9999 FEW015 27/25 Q1013,GOGG,2023-06-06T07:00:00Z,12.55,-16.27,27.0,25.0,0,0,,6.21,29.911417,,,,,,,,,,,FEW,1500,,,,,,,VFR,,,,,,,,,,,,METAR,24.0
GOBD 060700Z 34007KT CAVOK 22/22 Q1013 NOSIG,GOBD,2023-06-06T07:00:00Z,14.67,-17.07,22.0,22.0,340,7,,6.21,29.911417,,,,,,TRUE,,,,,CAVOK,,,,,,,,VFR,,,,,,,,,,,,METAR,90.0
GMTT 060700Z 08015KT CAVOK 23/19 Q1010 NOSIG,GMTT,2023-06-06T07:00:00Z,35.72,-5.9,23.0,19.0,80,15,,6.21,29.822834,,,,,,TRUE,,,,,CAVOK,,,,,,,,VFR,,,,,,,,,,,,METAR,19.0
GMTN 060700Z 08009KT 9999 SCT015 SCT200 22/20 Q1012 NOSIG,GMTN,2023-06-06T07:00:00Z,35.58,-5.32,22.0,20.0,80,9,,6.21,29.88189,,,,,,TRUE,,,,,SCT,1500,SCT,20000,,,,,VFR,,,,,,,,,,,,METAR,10.0
GMTA 060700Z 25003KT 220V290 9999 FEW020 BKN100 22/17 Q1012 NOSIG,GMTA,2023-06-06T07:00:00Z,35.17,-3.85,22.0,17.0,250,3,,6.21,29.88189,,,,,,TRUE,,,,,FEW,2000,BKN,10000,,,,,VFR,,,,,,,,,,,,METAR,14.0
GMMZ 060700Z 07012KT 8000 FEW040 SCT100 25/08 Q1013 NOSIG,GMMZ,2023-06-06T07:00:00Z,30.93,-6.9,25.0,8.0,70,12,,4.97,29.911417,,,,,,TRUE,,,,,FEW,4000,SCT,10000,,,,,MVFR,,,,,,,,,,,,METAR,1139.0
GMMW 060700Z 08006KT 050V110 4000 BR BKN012 20/18 Q1013 NOSIG,GMMW,2023-06-06T07:00:00Z,34.98,-3.02,20.0,18.0,80,6,,2.49,29.911417,,,,,,TRUE,,,,BR,BKN,1200,,,,,,,IFR,,,,,,,,,,,,METAR,174.0
GMMI 060700Z AUTO VRB02KT 7000 NSC 19/// Q1010 NOSIG,GMMI,2023-06-06T07:00:00Z,31.4,-9.68,,,0,2,,4.35,29.822834,,,TRUE,,,TRUE,,,,,CLR,,,,,,,,MVFR,,,,,,,,,,,,METAR,102.0
GMMH 060700Z 24002KT 8000 FEW006 20/19 Q1012 NOSIG,GMMH,2023-06-06T07:00:00Z,23.72,-15.93,20.0,19.0,240,2,,4.97,29.88189,,,,,,TRUE,,,,,FEW,600,,,,,,,MVFR,,,,,,,,,,,,METAR,11.0
GMMD 060700Z 18007KT 9999 BKN120 22/11 Q1011 NOSIG,GMMD,2023-06-06T07:00:00Z,32.4,-6.32,22.0,11.0,180,7,,6.21,29.852362,,,,,,TRUE,,,,,BKN,12000,,,,,,,VFR,,,,,,,,,,,,METAR,515.0
GMMC 060700Z 04002KT 6000 BKN016 SCT026 21/18 Q1010,GMMC,2023-06-06T07:00:00Z,33.57,-7.67,21.0,18.0,40,2,,3.73,29.822834,,,,,,,,,,,BKN,1600,SCT,2600,,,,,MVFR,,,,,,,,,,,,METAR,62.0
GMMB 060700Z 31003KT 5000 OVC010 20/20 Q1011 NOSIG,GMMB,2023-06-06T07:00:00Z,33.65,-7.22,20.0,20.0,310,3,,3.11,29.852362,,,,,,TRUE,,,,,OVC,1000,,,,,,,MVFR,,,,,,,,,,,,METAR,191.0
GMFO 060700Z VRB02KT CAVOK 20/13 Q1014 NOSIG,GMFO,2023-06-06T07:00:00Z,34.78,-1.92,20.0,13.0,0,2,,6.21,29.940945,,,,,,TRUE,,,,,CAVOK,,,,,,,,VFR,,,,,,,,,,,,METAR,452.0
GMFM 060700Z 11003KT 070V150 9999 SCT016 SCT100 20/16 Q1012 NOSIG,GMFM,2023-06-06T07:00:00Z,33.87,-5.52,20.0,16.0,110,3,,6.21,29.88189,,,,,,TRUE,,,,,SCT,1600,SCT,10000,,,,,VFR,,,,,,,,,,,,METAR,569.0
GMFK 060700Z VRB02KT CAVOK 23/13 Q1017 NOSIG,GMFK,2023-06-06T07:00:00Z,31.95,-4.4,23.0,13.0,0,2,,6.21,30.029528,,,,,,TRUE,,,,,CAVOK,,,,,,,,VFR,,,,,,,,,,,,METAR,1033.0
GMFB 060700Z 10014KT 9999 SCT033 OVC060 19/14 Q1017 NOSIG,GMFB,2023-06-06T07:00:00Z,32.52,-1.98,19.0,14.0,100,14,,6.21,30.029528,,,,,,TRUE,,,,,SCT,3300,OVC,6000,,,,,VFR,,,,,,,,,,,,METAR,1106.0
GMAT 060700Z 12005KT CAVOK 18/16 Q1010 NOSIG,GMAT,2023-06-06T07:00:00Z,28.43,-11.15,18.0,16.0,120,5,,6.21,29.822834,,,,,,TRUE,,,,,CAVOK,,,,,,,,VFR,,,,,,,,,,,,METAR,192.0
GMAG 060700Z 06006KT 4000 BR SCT013 BKN100 17/16 Q1009 NOSIG,GMAG,2023-06-06T07:00:00Z,29.03,-10.05,17.0,16.0,60,6,,2.49,29.793306,,,,,,TRUE,,,,BR,SCT,1300,BKN,10000,,,,,IFR,,,,,,,,,,,,METAR,333.0
GFLL 060700Z 06006KT 9999 SCT090 23/21 Q1012,GFLL,2023-06-06T07:00:00Z,8.62,-13.18,23.0,21.0,60,6,,6.21,29.88189,,,,,,,,,,,SCT,9000,,,,,,,VFR,,,,,,,,,,,,METAR,28.0
GEML 060700Z 11007KT 080V140 9999 FEW006 SCT008 21/19 Q1013,GEML,2023-06-06T07:00:00Z,35.27,-2.95,21.0,19.0,110,7,,6.21,29.911417,,,,,,,,,,,FEW,600,SCT,800,,,,,VFR,,,,,,,,,,,,METAR,48.0
GECE 060700Z AUTO 08008KT 050V140 CAVOK 21/18 Q1013,GECE,2023-06-06T07:00:00Z,35.88,-5.3,21.0,18.0,80,8,,6.21,29.911417,,,TRUE,,,,,,,,CAVOK,,,,,,,,VFR,,,,,,,,,,,,METAR,2.0
GCXO 060700Z 11007KT 070V150 3600 1500E BCFG FEW000 BKN002 18/18 Q1009 NOSIG,GCXO,2023-06-06T07:00:00Z,28.48,-16.35,18.0,18.0,110,7,,2.24,29.793306,,,,,,TRUE,,,,BCFG,FEW,0,BKN,200,,,,,LIFR,,,,,,,,,,,,SPECI,623.0
GCTS 060700Z 26011KT 9999 FEW015 SCT025 BKN035 22/19 Q1009 NOSIG,GCTS,2023-06-06T07:00:00Z,28.05,-16.57,22.0,19.0,260,11,,6.21,29.793306,,,,,,TRUE,,,,,FEW,1500,SCT,2500,BKN,3500,,,VFR,,,,,,,,,,,,METAR,59.0
GCRR 060700Z 13007KT 9999 FEW015 BKN020 21/19 Q1010,GCRR,2023-06-06T07:00:00Z,28.95,-13.58,21.0,19.0,130,7,,6.21,29.822834,,,,,,,,,,,FEW,1500,BKN,2000,,,,,MVFR,,,,,,,,,,,,METAR,9.0
GCLP 060700Z 18016KT 9999 FEW022 22/19 Q1009 NOSIG,GCLP,2023-06-06T07:00:00Z,27.92,-15.38,22.0,19.0,180,16,,6.21,29.793306,,,,,,TRUE,,,,,FEW,2200,,,,,,,VFR,,,,,,,,,,,,METAR,16.0
GCLA 060700Z 19015KT 150V210 3000 RA SCT010 BKN020 22/21 Q1006,GCLA,2023-06-06T07:00:00Z,28.62,-17.75,22.0,21.0,190,15,,1.86,29.704725,,,,,,,,,,RA,SCT,1000,BKN,2000,,,,,IFR,,,,,,,,,,,,METAR,20.0
GCHI 060700Z 18014KT 9999 FEW020 SCT034 22/20 Q1007,GCHI,2023-06-06T07:00:00Z,27.82,-17.88,22.0,20.0,180,14,,6.21,29.734253,,,,,,,,,,,FEW,2000,SCT,3400,,,,,VFR,,,,,,,,,,,,METAR,21.0
GCGM 060700Z 24009KT 210V280 9999 BKN004 21/20 Q1009 RMK R09/22006KT 190V290 ARP/22009KT 170V260,GCGM,2023-06-06T07:00:00Z,28.03,-17.22,21.0,20.0,240,9,,6.21,29.793306,,,,,,,,,,,BKN,400,,,,,,,LIFR,,,,,,,,,,,,METAR,217.0
GCFV 060700Z 21005KT 9999 SCT016 21/18 Q1010,GCFV,2023-06-06T07:00:00Z,28.43,-13.87,21.0,18.0,210,5,,6.21,29.822834,,,,,,,,,,,SCT,1600,,,,,,,VFR,,,,,,,,,,,,METAR,11.0
GBYD 060700Z VRB02KT CAVOK 25/22 Q1012,GBYD,2023-06-06T07:00:00Z,13.33,-16.65,25.0,22.0,0,2,,6.21,29.88189,,,,,,,,,,,CAVOK,,,,,,,,VFR,,,,,,,,,,,,METAR,29.0
GAKD 060700Z 28006KT CAVOK 32/18 Q1012,GAKD,2023-06-06T07:00:00Z,14.48,-11.4,32.0,18.0,280,6,,6.21,29.88189,,,,,,,,,,,CAVOK,,,,,,,,VFR,,,,,,,,,,,,METAR,53.0
GABS 060700Z 20004KT CAVOK 24/24 Q1014 NOSIG,GABS,2023-06-06T07:00:00Z,12.53,-7.95,24.0,24.0,200,4,,6.21,29.940945,,,,,,TRUE,,,,,CAVOK,,,,,,,,VFR,,,,,,,,,,,,METAR,375.0
FZNA 060700Z 18008KT 8000 FEW018 BKN300 23/18 Q1023 NOSIG,FZNA,2023-06-06T07:00:00Z,-1.67,29.22,23.0,18.0,180,8,,4.97,30.206694,,,,,,TRUE,,,,,FEW,1800,BKN,30000,,,,,MVFR,,,,,,,,,,,,METAR,1552.0
FZAA 060700Z 27008KT 6000 SCT014 24/20 Q1016 NOSIG,FZAA,2023-06-06T07:00:00Z,-4.38,15.45,24.0,20.0,270,8,,3.73,30.0,,,,,,TRUE,,,,,SCT,1400,,,,,,,MVFR,,,,,,,,,,,,METAR,309.0
FYWW 060700Z 11003KT CAVOK 15/M08 Q1025,FYWW,2023-06-06T07:00:00Z,-22.57,17.1,15.0,-8.0,110,3,,6.21,30.265747,,,,,,,,,,,CAVOK,,,,,,,,VFR,,,,,,,,,,,,METAR,1672.0
FYWH 060700Z 00000KT CAVOK 14/M07 Q1026 NOSIG,FYWH,2023-06-06T07:00:00Z,-22.47,17.47,14.0,-7.0,0,0,,6.21,30.295275,,,,,,TRUE,,,,,CAVOK,,,,,,,,VFR,,,,,,,,,,,,METAR,1699.0
FYWE 060700Z VRB02KT CAVOK 12/M12 Q1026,FYWE,2023-06-06T07:00:00Z,-22.62,17.08,12.0,-12.0,0,2,,6.21,30.295275,,,,,,,,,,,CAVOK,,,,,,,,VFR,,,,,,,,,,,,METAR,1700.0
FYWB 060700Z 08007KT 0500 FG OVC004 09/08 Q1019 REFG,FYWB,2023-06-06T07:00:00Z,-22.98,14.65,9.0,8.0,80,7,,0.31,30.088583,,,,,,,,,,FG,OVC,400,,,,,,,LIFR,,,,,,,,,,,,METAR,87.0
FYRU 060700Z 03005KT CAVOK ///// Q////,FYRU,2023-06-06T07:00:00Z,-17.95,19.72,,,30,5,,6.21,,,,,,,,,,,,CAVOK,,,,,,,,VFR,,,,,,,,,,,,METAR,1104.0
FYOA 060700Z 14003KT CAVOK 17/M04 Q1019,FYOA,2023-06-06T07:00:00Z,-17.88,15.97,17.0,-4.0,140,3,,6.21,30.088583,,,,,,,,,,,CAVOK,,,,,,,,VFR,,,,,,,,,,,,METAR,1099.0
FYLZ 060700Z AUTO 00000KT //// // ////// 12/02 Q1016,FYLZ,2023-06-06T07:00:00Z,-26.68,15.25,12.0,2.0,0,0,,,30.0,,,TRUE,,,,,,,,,,,,,,,,,,,,,,,,,,,,METAR,129.0
FYKT 060700Z AUTO 08004KT //// // ////// 12/M00 Q1021,FYKT,2023-06-06T07:00:00Z,-26.53,18.12,12.0,0.0,80,4,,,30.147638,,,TRUE,,,,,,,,,,,,,,,,,,,,,,,,,,,,METAR,1064.0
FYKM 060700Z 06004KT CAVOK 24/06 Q1021,FYKM,2023-06-06T07:00:00Z,-17.63,24.18,24.0,6.0,60,4,,6.21,30.147638,,,,,,,,,,,CAVOK,,,,,,,,VFR,,,,,,,,,,,,METAR,959.0
FYGF 060700Z 31001KT CAVOK 17/02 Q1025,FYGF,2023-06-06T07:00:00Z,-19.6,18.12,17.0,2.0,310,1,,6.21,30.265747,,,,,,,,,,,CAVOK,,,,,,,,VFR,,,,,,,,,,,,METAR,1407.0
FWCL 060700Z 07007KT 9999 FEW020 26/15 Q1023 NOSIG,FWCL,2023-06-06T07:00:00Z,-15.67,34.97,26.0,15.0,70,7,,6.21,30.206694,,,,,,TRUE,,,,,FEW,2000,,,,,,,VFR,,,,,,,,,,,,METAR,774.0
FTTY 060700Z 16021KT 1500 BLDU NSC 37/22 Q1009,FTTY,2023-06-06T07:00:00Z,17.92,19.1,37.0,22.0,160,21,,0.93,29.793306,,,,,,,,,,BLDU,CLR,,,,,,,,LIFR,,,,,,,,,,,,METAR,234.0
FTTJ 060700Z 22004KT 6000 NSC 29/23 Q1010 NOSIG,FTTJ,2023-06-06T07:00:00Z,12.13,15.03,29.0,23.0,220,4,,3.73,29.822834,,,,,,TRUE,,,,,CLR,,,,,,,,MVFR,,,,,,,,,,,,METAR,295.0
FTTD 060700Z 22004KT CAVOK 27/23 Q1013,FTTD,2023-06-06T07:00:00Z,8.62,16.07,27.0,23.0,220,4,,6.21,29.911417,,,,,,,,,,,CAVOK,,,,,,,,VFR,,,,,,,,,,,,METAR,420.0
FTTA 060700Z 08006KT 9999 FEW020 26/23 Q1014,FTTA,2023-06-06T07:00:00Z,9.15,18.37,26.0,23.0,80,6,,6.21,29.940945,,,,,,,,,,,FEW,2000,,,,,,,VFR,,,,,,,,,,,,METAR,361.0
FSIA 060700Z 13014KT 9999 SCT022 30/23 Q1013 NOSIG,FSIA,2023-06-06T07:00:00Z,-4.67,55.52,30.0,23.0,130,14,,6.21,29.911417,,,,,,TRUE,,,,,SCT,2200,,,,,,,VFR,,,,,,,,,,,,METAR,3.0
FQXA 060700Z 14007KT 100V160 9999 SCT015 OVC020 22/19 Q1024,FQXA,2023-06-06T07:00:00Z,-25.05,33.62,22.0,19.0,140,7,,6.21,30.236221,,,,,,,,,,,SCT,1500,OVC,2000,,,,,MVFR,,,,,,,,,,,,METAR,3.0
FQVL 060700Z 19005KT 9999 FEW020 25/22 Q1022,FQVL,2023-06-06T07:00:00Z,-22.0,35.32,25.0,22.0,190,5,,6.21,30.177166,,,,,,,,,,,FEW,2000,,,,,,,VFR,,,,,,,,,,,,METAR,15.0
FQTT 060700Z 12005KT 080V190 8000 NSC 27/15 Q1020 RMK HZ,FQTT,2023-06-06T07:00:00Z,-16.1,33.63,27.0,15.0,120,5,,4.97,30.11811,,,,,,,,,,,CLR,,,,,,,,MVFR,,,,,,,,,,,,METAR,146.0
FQQL 060700Z 08015KT 9999 FEW018 27/22 Q1020,FQQL,2023-06-06T07:00:00Z,-17.87,36.87,27.0,22.0,80,15,,6.21,30.11811,,,,,,,,,,,FEW,1800,,,,,,,VFR,,,,,,,,,,,,METAR,5.0
FQPB 060700Z 16007KT 9999 SCT020 28/21 Q1019,FQPB,2023-06-06T07:00:00Z,-12.98,40.52,28.0,21.0,160,7,,6.21,30.088583,,,,,,,,,,,SCT,2000,,,,,,,VFR,,,,,,,,,,,,METAR,101.0
FQNP 060700Z 10006KT 050V150 9999 FEW020 25/18 Q1022,FQNP,2023-06-06T07:00:00Z,-15.1,39.27,25.0,18.0,100,6,,6.21,30.177166,,,,,,,,,,,FEW,2000,,,,,,,VFR,,,,,,,,,,,,METAR,434.0
FQNC 060700Z 15007KT 9999 BKN020 27/21 Q1020,FQNC,2023-06-06T07:00:00Z,-14.48,40.72,27.0,21.0,150,7,,6.21,30.11811,,,,,,,,,,,BKN,2000,,,,,,,MVFR,,,,,,,,,,,,METAR,112.0
FQMA 060700Z 25005KT 9999 SCT020 19/13 Q1025 NOSIG,FQMA,2023-06-06T07:00:00Z,-25.92,32.57,19.0,13.0,250,5,,6.21,30.265747,,,,,,TRUE,,,,,SCT,2000,,,,,,,VFR,,,,,,,,,,,,METAR,34.0
FQLC 060700Z 05011KT 9999 SCT016 20/16 Q1026,FQLC,2023-06-06T07:00:00Z,-13.27,35.25,20.0,16.0,50,11,,6.21,30.295275,,,,,,,,,,,SCT,1600,,,,,,,VFR,,,,,,,,,,,,METAR,1362.0
FQIN 060700Z 27004KT 9999 SCT020 25/23 Q1023,FQIN,2023-06-06T07:00:00Z,-23.87,35.38,25.0,23.0,270,4,,6.21,30.206694,,,,,,,,,,,SCT,2000,,,,,,,VFR,,,,,,,,,,,,METAR,10.0
FQCH 060700Z /////KT 0600 FG FEW020 18/18 Q1025,FQCH,2023-06-06T07:00:00Z,-19.15,33.43,18.0,18.0,,,,0.37,30.265747,,,,,,,,,,FG,FEW,2000,,,,,,,LIFR,,,,,,,,,,,,SPECI,695.0
FQBR 060700Z 17003KT 9999 SCT018 27/24 Q1020,FQBR,2023-06-06T07:00:00Z,-19.8,34.9,27.0,24.0,170,3,,6.21,30.11811,,,,,,,,,,,SCT,1800,,,,,,,VFR,,,,,,,,,,,,METAR,14.0
FPST 060700Z 18014KT 9999 FEW023 SCT100 27/24 Q1014 NOSIG,FPST,2023-06-06T07:00:00Z,0.37,6.72,27.0,24.0,180,14,,6.21,29.940945,,,,,,TRUE,,,,,FEW,2300,SCT,10000,,,,,VFR,,,,,,,,,,,,METAR,11.0
FOOR 060700Z /////KT 8000 BKN005 23/22 Q////,FOOR,2023-06-06T07:00:00Z,-0.82,12.73,23.0,22.0,,,,4.97,,,,,,,,,,,,BKN,500,,,,,,,IFR,,,,,,,,,,,,METAR,487.0
FOON 060700Z /////KT 9999 SCT003 BKN040 22/22 Q1015,FOON,2023-06-06T07:00:00Z,-1.65,13.43,22.0,22.0,,,,6.21,29.970472,,,,,,,,,,,SCT,300,BKN,4000,,,,,VFR,,,,,,,,,,,,METAR,440.0
FOOL 060700Z 17008KT 9999 SCT010 BKN030 26/23 Q1014 NOSIG,FOOL,2023-06-06T07:00:00Z,0.45,9.42,26.0,23.0,170,8,,6.21,29.940945,,,,,,TRUE,,,,,SCT,1000,BKN,3000,,,,,MVFR,,,,,,,,,,,,METAR,9.0
FOOB 060700Z /////KT 6000 SCT008 OVC020 23/22 Q1013,FOOB,2023-06-06T07:00:00Z,2.07,11.48,23.0,22.0,,,,3.73,29.911417,,,,,,,,,,,SCT,800,OVC,2000,,,,,MVFR,,,,,,,,,,,,METAR,599.0
FOGO 060700Z /////KT 9999 SCT007 OVC030 22/21 Q////,FOGO,2023-06-06T07:00:00Z,1.53,11.58,22.0,21.0,,,,6.21,,,,,,,,,,,,SCT,700,OVC,3000,,,,,MVFR,,,,,,,,,,,,METAR,660.0
FOGM 060700Z /////KT 9000 SCT008 OVC021 24/23 Q////,FOGM,2023-06-06T07:00:00Z,-1.83,11.05,24.0,23.0,,,,5.59,,,,,,,,,,,,SCT,800,OVC,2100,,,,,MVFR,,,,,,,,,,,,METAR,90.0
FNLU 060700Z 14004KT 8000 BKN020 24/15 Q1014 NOSIG,FNLU,2023-06-06T07:00:00Z,-8.85,13.22,24.0,15.0,140,4,,4.97,29.940945,,,,,,TRUE,,,,,BKN,2000,,,,,,,MVFR,,,,,,,,,,,,METAR,75.0
FMSD 060700Z 32004KT CAVOK 27/19 Q1022,FMSD,2023-06-06T07:00:00Z,-25.03,46.95,27.0,19.0,320,4,,6.21,30.177166,,,,,,,,,,,CAVOK,,,,,,,,VFR,,,,,,,,,,,,METAR,7.0
FMNN 060700Z 03002KT 9999 BKN020 29/// Q1017,FMNN,2023-06-06T07:00:00Z,-13.32,48.32,,,30,2,,6.21,30.029528,,,,,,,,,,,BKN,2000,,,,,,,MVFR,,,,,,,,,,,,METAR,10.0
FMNM 060700Z 13011KT 100V170 9999 FEW023 32/16 Q1019 NOSIG,FMNM,2023-06-06T07:00:00Z,-15.67,46.35,32.0,16.0,130,11,,6.21,30.088583,,,,,,TRUE,,,,,FEW,2300,,,,,,,VFR,,,,,,,,,,,,METAR,18.0
FMNA 060700Z 14016KT 9999 -RA FEW010 BKN020 25/23 Q1016,FMNA,2023-06-06T07:00:00Z,-12.33,49.28,25.0,23.0,140,16,,6.21,30.0,,,,,,,,,,-RA,FEW,1000,BKN,2000,,,,,MVFR,,,,,,,,,,,,METAR,108.0
FMMT 060700Z 26007KT 9999 VCSH FEW007 SCT017TCU BKN033 24/22 Q1022 TEMPO 4000 RA,FMMT,2023-06-06T07:00:00Z,-18.12,49.38,24.0,22.0,260,7,,6.21,30.177166,,,,,,,,,,VCSH,FEW,700,SCT,1700,BKN,3300,,,VFR,,,,,,,,,,,,METAR,13.0
FMEP 060700Z AUTO VRB03KT CAVOK 29/20 Q1021 BECMG 12024KT,FMEP,2023-06-06T07:00:00Z,-21.32,55.42,29.0,20.0,0,3,,6.21,30.147638,,,TRUE,,,,,,,,CAVOK,,,,,,,,VFR,,,,,,,,,,,,SPECI,21.0
FMEE 060700Z AUTO 11017KT 9999 ////// 28/21 Q1021,FMEE,2023-06-06T07:00:00Z,-20.88,55.52,28.0,21.0,110,17,,6.21,30.147638,,,TRUE,,,,,,,,,,,,,,,,,,,,,,,,,,,,METAR,20.0
FMCH 060700Z 25005KT 9999 FEW023 29/21 Q1018 NOSIG,FMCH,2023-06-06T07:00:00Z,-11.53,43.27,29.0,21.0,250,5,,6.21,30.059055,,,,,,TRUE,,,,,FEW,2300,,,,,,,VFR,,,,,,,,,,,,METAR,30.0
FKYS 060700Z VRB02KT 9999 FEW003 BKN006 23/23 Q1018 NOSIG,FKYS,2023-06-06T07:00:00Z,3.82,11.52,23.0,23.0,0,2,,6.21,30.059055,,,,,,TRUE,,,,,FEW,300,BKN,600,,,,,IFR,,,,,,,,,,,,METAR,694.0
FKKR 060700Z 31008KT CAVOK 28/23 Q1012 NOSIG,FKKR,2023-06-06T07:00:00Z,9.33,13.37,28.0,23.0,310,8,,6.21,29.88189,,,,,,TRUE,,,,,CAVOK,,,,,,,,VFR,,,,,,,,,,,,METAR,223.0
FKKN 060700Z 21003KT 9999 OVC009 23/20 Q1020,FKKN,2023-06-06T07:00:00Z,7.35,13.57,23.0,20.0,210,3,,6.21,30.11811,,,,,,,,,,,OVC,900,,,,,,,IFR,,,,,,,,,,,,METAR,1108.0
FKKD 060700Z VRB01KT 9999 TS BKN013 FEW016CB 25/25 Q1013 NOSIG,FKKD,2023-06-06T07:00:00Z,4.0,9.72,25.0,25.0,0,1,,6.21,29.911417,,,,,,TRUE,,,,TS,BKN,1300,FEW,1600,,,,,MVFR,,,,,,,,,,,,METAR,10.0
FIMP 060700Z 09011KT 9999 SCT018 27/20 Q1022,FIMP,2023-06-06T07:00:00Z,-20.43,57.68,27.0,20.0,90,11,,6.21,30.177166,,,,,,,,,,,SCT,1800,,,,,,,VFR,,,,,,,,,,,,METAR,57.0
FGSL 060700Z 00000KT 9999 SCT010 FEW016CB BKN040 25/25 Q1014 NO SIG,FGSL,2023-06-06T07:00:00Z,3.75,8.72,25.0,25.0,0,0,,6.21,29.940945,,,,,,,,,,,SCT,1000,FEW,1600,BKN,4000,,,VFR,,,,,,,,,,,,METAR,23.0
FEFT 060700Z 28006KT 9999 SCT007 22/21 Q1014,FEFT,2023-06-06T07:00:00Z,4.22,15.8,22.0,21.0,280,6,,6.21,29.940945,,,,,,,,,,,SCT,700,,,,,,,VFR,,,,,,,,,,,,METAR,567.0
FEFF 060700Z 28004KT 8000 SCT008 24/22 Q1014 NOSIG,FEFF,2023-06-06T07:00:00Z,4.4,18.52,24.0,22.0,280,4,,4.97,29.940945,,,,,,TRUE,,,,,SCT,800,,,,,,,MVFR,,,,,,,,,,,,METAR,364.0
FDST 060700Z AUTO 34003KT //// // ////// 21/15 Q1024,FDST,2023-06-06T07:00:00Z,-26.43,31.95,21.0,15.0,340,3,,,30.236221,,,TRUE,,,,,,,,,,,,,,,,,,,,,,,,,,,,METAR,642.0
FDSK 060700Z VRB02KT 9999 BKN050 19/10 Q1027 NOSIG,FDSK,2023-06-06T07:00:00Z,-26.35,31.72,19.0,10.0,0,2,,6.21,30.324802,,,,,,TRUE,,,,,BKN,5000,,,,,,,VFR,,,,,,,,,,,,METAR,323.0
FDPP 060700Z AUTO 03002KT //// // ////// ///// Q1031,FDPP,2023-06-06T07:00:00Z,-25.97,31.25,,,30,2,,,30.442913,,,TRUE,,,,,,,,,,,,,,,,,,,,,,,,,,,,METAR,1023.0
FDOT 060700Z AUTO 10001KT //// // ////// 17/13 Q1027,FDOT,2023-06-06T07:00:00Z,-26.7,31.43,17.0,13.0,100,1,,,30.324802,,,TRUE,,,,,,,,,,,,,,,,,,,,,,,,,,,,METAR,342.0
FDMY 060700Z AUTO 00000KT //// // ////// 16/09 Q1037,FDMY,2023-06-06T07:00:00Z,-25.88,31.52,16.0,9.0,0,0,,,30.620079,,,TRUE,,,,,,,,,,,,,,,,,,,,,,,,,,,,METAR,401.0
FDBB 060700Z AUTO 00000KT //// // ////// 18/13 Q1025,FDBB,2023-06-06T07:00:00Z,-26.8,31.93,18.0,13.0,0,0,,,30.265747,,,TRUE,,,,,,,,,,,,,,,,,,,,,,,,,,,,METAR,106.0
FCPP 060700Z 12004KT 9999 FEW010 23/22 Q1014 NOSIG,FCPP,2023-06-06T07:00:00Z,-4.82,11.9,23.0,22.0,120,4,,6.21,29.940945,,,,,,TRUE,,,,,FEW,1000,,,,,,,VFR,,,,,,,,,,,,METAR,18.0
FCOD 060700Z 00000KT 4500 BR FEW005 25/24 Q1015,FCOD,2023-06-06T07:00:00Z,,,25.0,24.0,0,0,,2.8,29.970472,,,,,,,,,,BR,FEW,500,,,,,,,IFR,,,,,,,,,,,,METAR,
FCBB 060700Z 24004KT 200V280 8000 SCT016 23/21 Q1016 NOSIG,FCBB,2023-06-06T07:00:00Z,-4.25,15.25,23.0,21.0,240,4,,4.97,30.0,,,,,,TRUE,,,,,SCT,1600,,,,,,,MVFR,,,,,,,,,,,,METAR,316.0
FBSK 060700Z VRB02KT CAVOK 11/06 Q1025 NOSIG,FBSK,2023-06-06T07:00:00Z,-24.55,25.92,11.0,6.0,0,2,,6.21,30.265747,,,,,,TRUE,,,,,CAVOK,,,,,,,,VFR,,,,,,,,,,,,METAR,1007.0
FBMN 060700Z 11005KT CAVOK 19/02 Q1022,FBMN,2023-06-06T07:00:00Z,-19.97,23.42,19.0,2.0,110,5,,6.21,30.177166,,,,,,,,,,,CAVOK,,,,,,,,VFR,,,,,,,,,,,,METAR,946.0
FAWB 060700Z AUTO 07006KT //// // ////// 14/11 Q1026,FAWB,2023-06-06T07:00:00Z,-25.65,28.22,14.0,11.0,70,6,,,30.295275,,,TRUE,,,,,,,,,,,,,,,,,,,,,,,,,,,,METAR,1245.0
FAVV 060700Z AUTO 08001KT //// // ////// 12/05 Q1028,FAVV,2023-06-06T07:00:00Z,-26.57,27.97,12.0,5.0,80,1,,,30.35433,,,TRUE,,,,,,,,,,,,,,,,,,,,,,,,,,,,SPECI,1480.0
FAUT 060700Z AUTO 01001KT //// // ////// 10/05 Q1020,FAUT,2023-06-06T07:00:00Z,-31.53,28.67,10.0,5.0,10,1,,,30.11811,,,TRUE,,,,,,,,,,,,,,,,,,,,,,,,,,,,METAR,735.0
FAPP 060700Z 06010KT 9999 BKN008 15/12 Q1029 BECMG BKN015,FAPP,2023-06-06T07:00:00Z,-23.83,29.45,15.0,12.0,60,10,,6.21,30.383858,,,,,,,,,,,BKN,800,,,,,,,IFR,,,,,,,,,,,,SPECI,1238.0
FAPN 060700Z AUTO 21001KT //// // ////// 11/05 Q1026,FAPN,2023-06-06T07:00:00Z,-25.33,27.17,11.0,5.0,210,1,,,30.295275,,,TRUE,,,,,,,,,,,,,,,,,,,,,,,,,,,,METAR,1045.0
FALW 060700Z AUTO 19002KT //// // ////// 07/05 Q1015,FALW,2023-06-06T07:00:00Z,-32.97,18.17,7.0,5.0,190,2,,,29.970472,,,TRUE,,,,,,,,,,,,,,,,,,,,,,,,,,,,METAR,31.0
FALE 060700Z 35007KT CAVOK 19/11 Q1023 NOSIG,FALE,2023-06-06T07:00:00Z,-29.62,31.12,19.0,11.0,350,7,,6.21,30.206694,,,,,,TRUE,,,,,CAVOK,,,,,,,,VFR,,,,,,,,,,,,METAR,109.0
FALA 060700Z 00000KT 8000 NSC 11/04 Q1028 NOSIG,FALA,2023-06-06T07:00:00Z,-25.93,27.92,11.0,4.0,0,0,,4.97,30.35433,,,,,,TRUE,,,,,CLR,,,,,,,,MVFR,,,,,,,,,,,,METAR,1365.0
FAKN 060700Z 24001KT CAVOK 15/11 Q1029 NOSIG,FAKN,2023-06-06T07:00:00Z,-25.38,31.1,15.0,11.0,240,1,,6.21,30.383858,,,,,,TRUE,,,,,CAVOK,,,,,,,,VFR,,,,,,,,,,,,METAR,864.0
FAKM 060700Z 00000KT CAVOK 08/01 Q1024,FAKM,2023-06-06T07:00:00Z,-28.8,24.77,8.0,1.0,0,0,,6.21,30.236221,,,,,,,,,,,CAVOK,,,,,,,,VFR,,,,,,,,,,,,METAR,1203.0
FAJB 060700Z AUTO 04003KT //// // ////// 13/07 Q1027,FAJB,2023-06-06T07:00:00Z,-26.15,28.0,13.0,7.0,40,3,,,30.324802,,,TRUE,,,,,,,,,,,,,,,,,,,,,,,,,,,,SPECI,1626.0
FAEL 060700Z 32005KT 280V360 CAVOK 13/05 Q1019,FAEL,2023-06-06T07:00:00Z,-33.03,27.82,13.0,5.0,320,5,,6.21,30.088583,,,,,,,,,,,CAVOK,,,,,,,,VFR,,,,,,,,,,,,METAR,127.0
FABL 060700Z 11001KT CAVOK 06/M00 Q1027 NOSIG,FABL,2023-06-06T07:00:00Z,-29.1,26.3,6.0,0.0,110,1,,6.21,30.324802,,,,,,TRUE,,,,,CAVOK,,,,,,,,VFR,,,,,,,,,,,,METAR,1348.0
EINN 060700Z VRB02KT CAVOK 14/09 Q1024 NOSIG,EINN,2023-06-06T07:00:00Z,52.7,-8.92,14.0,9.0,0,2,,6.21,30.236221,,,,,,TRUE,,,,,CAVOK,,,,,,,,VFR,,,,,,,,,,,,METAR,20.0
EIME 060700Z 06005KT 030V100 9999 FEW022 15/12 Q1024,EIME,2023-06-06T07:00:00Z,53.3,-6.45,15.0,12.0,60,5,,6.21,30.236221,,,,,,,,,,,FEW,2200,,,,,,,VFR,,,,,,,,,,,,METAR,90.0
EIKY 060700Z 28003KT CAVOK 13/11 Q1023,EIKY,2023-06-06T07:00:00Z,52.18,-9.53,13.0,11.0,280,3,,6.21,30.206694,,,,,,,,,,,CAVOK,,,,,,,,VFR,,,,,,,,,,,,METAR,23.0
EIKN 060700Z 12005KT 070V170 9999 FEW035 15/09 Q1024 NOSIG,EIKN,2023-06-06T07:00:00Z,53.92,-8.82,15.0,9.0,120,5,,6.21,30.236221,,,,,,TRUE,,,,,FEW,3500,,,,,,,VFR,,,,,,,,,,,,METAR,201.0
EIDW 060700Z 07007KT 9999 FEW009 15/12 Q1025 NOSIG,EIDW,2023-06-06T07:00:00Z,53.42,-6.28,15.0,12.0,70,7,,6.21,30.265747,,,,,,TRUE,,,,,FEW,900,,,,,,,VFR,,,,,,,,,,,,METAR,75.0
EIDL 060700Z VRB01KT CAVOK 14/09 Q1025,EIDL,2023-06-06T07:00:00Z,55.05,-8.33,14.0,9.0,0,1,,6.21,30.265747,,,,,,,,,,,CAVOK,,,,,,,,VFR,,,,,,,,,,,,METAR,2.0
EICK 060700Z 07008KT 9999 FEW040 13/10 Q1023 NOSIG,EICK,2023-06-06T07:00:00Z,51.85,-8.47,13.0,10.0,70,8,,6.21,30.206694,,,,,,TRUE,,,,,FEW,4000,,,,,,,VFR,,,,,,,,,,,,METAR,158.0
EGUL 060700Z 06006KT 9999 BKN015 11/11 A3024 RMK AO2A SLP244 $,EGUL,2023-06-06T07:00:00Z,52.42,0.57,11.0,11.0,60,6,,6.21,30.239174,1024.4,,,TRUE,TRUE,,,,,,BKN,1500,,,,,,,MVFR,,,,,,,,,,,,SPECI,8.0
DXXX 060700Z VRB02KT 9999 FEW012 FEW017CB 27/25 Q1013 TEMPO TS,DXXX,2023-06-06T07:00:00Z,6.17,1.25,27.0,25.0,0,2,,6.21,29.911417,,,,,,,,,,,FEW,1200,FEW,1700,,,,,VFR,,,,,,,,,,,,METAR,22.0
DTTZ 060700Z 04012KT CAVOK 24/16 Q1012,DTTZ,2023-06-06T07:00:00Z,33.93,8.1,24.0,16.0,40,12,,6.21,29.88189,,,,,,,,,,,CAVOK,,,,,,,,VFR,,,,,,,,,,,,METAR,87.0
DTTX 060700Z 01014KT 330V030 8000 FEW020 SCT033 22/18 Q1011,DTTX,2023-06-06T07:00:00Z,34.72,10.68,22.0,18.0,10,14,,4.97,29.852362,,,,,,,,,,,FEW,2000,SCT,3300,,,,,MVFR,,,,,,,,,,,,METAR,17.0
DTTR 060700Z 35014KT 8000 NSC 22/17 Q1011,DTTR,2023-06-06T07:00:00Z,31.7,9.27,22.0,17.0,350,14,,4.97,29.852362,,,,,,,,,,,CLR,,,,,,,,MVFR,,,,,,,,,,,,METAR,253.0
DTTN 060700Z 00000KT 9999 SCT020 19/16 Q1015,DTTN,2023-06-06T07:00:00Z,36.47,8.8,19.0,16.0,0,0,,6.21,29.970472,,,,,,,,,,,SCT,2000,,,,,,,VFR,,,,,,,,,,,,METAR,145.0
DTTL 060700Z 05007KT 9999 FEW020 BKN033 20/17 Q1015,DTTL,2023-06-06T07:00:00Z,36.85,11.07,20.0,17.0,50,7,,6.21,29.970472,,,,,,,,,,,FEW,2000,BKN,3300,,,,,VFR,,,,,,,,,,,,METAR,18.0
DTTK 060700Z 05008KT 350V090 7000 BKN020 SCT026 21/17 Q1014,DTTK,2023-06-06T07:00:00Z,35.67,10.08,21.0,17.0,50,8,,4.35,29.940945,,,,,,,,,,,BKN,2000,SCT,2600,,,,,MVFR,,,,,,,,,,,,METAR,65.0
DTTJ 060700Z 03014KT 6000 SCT020 BKN026 23/19 Q1010 NOSIG,DTTJ,2023-06-06T07:00:00Z,33.87,10.77,23.0,19.0,30,14,,3.73,29.822834,,,,,,TRUE,,,,,SCT,2000,BKN,2600,,,,,MVFR,,,,,,,,,,,,METAR,3.0
DTTG 060700Z 02018KT 7000 FEW016 BKN030 21/18 Q1011 NOSIG,DTTG,2023-06-06T07:00:00Z,33.73,9.92,21.0,18.0,20,18,,4.35,29.852362,,,,,,TRUE,,,,,FEW,1600,BKN,3000,,,,,MVFR,,,,,,,,,,,,METAR,120.0
DTTF 060700Z 06021KT 010V080 6000 BKN023 20/15 Q1013,DTTF,2023-06-06T07:00:00Z,34.42,8.82,20.0,15.0,60,21,,3.73,29.911417,,,,,,,,,,,BKN,2300,,,,,,,MVFR,,,,,,,,,,,,METAR,314.0
DTTD 060700Z 02007KT 6000 SCT026 SCT030 22/17 Q1011,DTTD,2023-06-06T07:00:00Z,32.32,10.4,22.0,17.0,20,7,,3.73,29.852362,,,,,,,,,,,SCT,2600,SCT,3000,,,,,MVFR,,,,,,,,,,,,METAR,306.0
DTTB 060700Z 07010KT 9999 SCT020TCU SCT030 22/18 Q1015,DTTB,2023-06-06T07:00:00Z,37.25,9.8,22.0,18.0,70,10,,6.21,29.970472,,,,,,,,,,,SCT,2000,SCT,3000,,,,,VFR,,,,,,,,,,,,METAR,4.0
DTTA 060700Z 05008KT 020V090 9999 SCT026 SCT040 22/18 Q1015,DTTA,2023-06-06T07:00:00Z,36.85,10.22,22.0,18.0,50,8,,6.21,29.970472,,,,,,,,,,,SCT,2600,SCT,4000,,,,,VFR,,,,,,,,,,,,METAR,4.0
DTNH 060700Z 05017KT 9999 BKN026 SCT033 21/17 Q1014,DTNH,2023-06-06T07:00:00Z,36.07,10.43,21.0,17.0,50,17,,6.21,29.940945,,,,,,,,,,,BKN,2600,SCT,3300,,,,,MVFR,,,,,,,,,,,,METAR,1.0
DTMB 060700Z 05015KT 7000 SCT020 SCT033 20/18 Q1013,DTMB,2023-06-06T07:00:00Z,35.77,10.75,20.0,18.0,50,15,,4.35,29.911417,,,,,,,,,,,SCT,2000,SCT,3300,,,,,MVFR,,,,,,,,,,,,METAR,1.0
DTKA 060700Z VRB01KT 9999 SCT020 SCT030 17/17 Q1015 NOSIG,DTKA,2023-06-06T07:00:00Z,36.98,8.88,17.0,17.0,0,1,,6.21,29.970472,,,,,,TRUE,,,,,SCT,2000,SCT,3000,,,,,VFR,,,,,,,,,,,,METAR,70.0
DRZR 060700Z 20012KT CAVOK 30/21 Q1013,DRZR,2023-06-06T07:00:00Z,13.77,8.98,30.0,21.0,200,12,,6.21,29.911417,,,,,,,,,,,CAVOK,,,,,,,,VFR,,,,,,,,,,,,METAR,457.0
DRZA 060700Z 24006KT CAVOK 33/10 Q1010,DRZA,2023-06-06T07:00:00Z,16.97,8.0,33.0,10.0,240,6,,6.21,29.822834,,,,,,,,,,,CAVOK,,,,,,,,VFR,,,,,,,,,,,,METAR,506.0
DRRT 060700Z 22012KT CAVOK 33/21 Q1011,DRRT,2023-06-06T07:00:00Z,14.87,5.27,33.0,21.0,220,12,,6.21,29.852362,,,,,,,,,,,CAVOK,,,,,,,,VFR,,,,,,,,,,,,METAR,387.0
DRRN 060700Z 24011KT CAVOK 32/20 Q1011 NOSIG,DRRN,2023-06-06T07:00:00Z,13.47,2.17,32.0,20.0,240,11,,6.21,29.852362,,,,,,TRUE,,,,,CAVOK,,,,,,,,VFR,,,,,,,,,,,,METAR,223.0
DRRM 060700Z 24006KT 190V270 9999 FEW040 30/24 Q1012,DRRM,2023-06-06T07:00:00Z,13.5,7.12,30.0,24.0,240,6,,6.21,29.88189,,,,,,,,,,,FEW,4000,,,,,,,VFR,,,,,,,,,,,,METAR,374.0
DNYO 060700Z 31006KT 9999 FEW010 27/23 Q1013,DNYO,2023-06-06T07:00:00Z,9.27,12.42,27.0,23.0,310,6,,6.21,29.911417,,,,,,,,,,,FEW,1000,,,,,,,VFR,,,,,,,,,,,,METAR,178.0
DNMN 060700Z 16006KT 8000 -TSRA SCT007 FEW018CB 21/21 Q1016,DNMN,2023-06-06T07:00:00Z,9.65,6.47,21.0,21.0,160,6,,4.97,30.0,,,,,,,,,,-TSRA,SCT,700,FEW,1800,,,,,MVFR,,,,,,,,,,,,METAR,268.0
DNMM 060700Z 19004KT 9999 TS SCT011 FEW020CB 27/24 Q1014 NOSIG,DNMM,2023-06-06T07:00:00Z,6.57,3.32,27.0,24.0,190,4,,6.21,29.940945,,,,,,TRUE,,,,TS,SCT,1100,FEW,2000,,,,,VFR,,,,,,,,,,,,METAR,27.0
DNKN 060700Z 23008KT 9999 FEW010 26/21 Q1015 NOSIG,DNKN,2023-06-06T07:00:00Z,12.05,8.52,26.0,21.0,230,8,,6.21,29.970472,,,,,,TRUE,,,,,FEW,1000,,,,,,,VFR,,,,,,,,,,,,METAR,471.0
DNIL 060700Z 21004KT 9999 FEW010 25/24 Q1014,DNIL,2023-06-06T07:00:00Z,8.43,4.48,25.0,24.0,210,4,,6.21,29.940945,,,,,,,,,,,FEW,1000,,,,,,,VFR,,,,,,,,,,,,METAR,341.0
DNIB 060700Z 27006KT 9999 BKN010 26/25 Q1014,DNIB,2023-06-06T07:00:00Z,7.37,3.98,26.0,25.0,270,6,,6.21,29.940945,,,,,,,,,,,BKN,1000,,,,,,,MVFR,,,,,,,,,,,,METAR,220.0
DNEN 060700Z 00000KT 9999 BKN010 FEW020CB 26/25 Q1013 NOSIG,DNEN,2023-06-06T07:00:00Z,6.47,7.55,26.0,25.0,0,0,,6.21,29.911417,,,,,,TRUE,,,,,BKN,1000,FEW,2000,,,,,MVFR,,,,,,,,,,,,METAR,142.0
DNAA 060700Z 26006KT 9999 TS BKN008 FEW019CB 22/21 Q1016 NOSIG,DNAA,2023-06-06T07:00:00Z,9.0,7.27,22.0,21.0,260,6,,6.21,30.0,,,,,,TRUE,,,,TS,BKN,800,FEW,1900,,,,,IFR,,,,,,,,,,,,METAR,338.0
DIBK 060700Z 22006KT 8000 FEW016 23/23 Q1014 NOSIG,DIBK,2023-06-06T07:00:00Z,7.73,-5.07,23.0,23.0,220,6,,4.97,29.940945,,,,,,TRUE,,,,,FEW,1600,,,,,,,MVFR,,,,,,,,,,,,METAR,363.0
DGAA 060700Z 25007KT 9999 TS FEW030CB 27/25 Q1013 NOSIG,DGAA,2023-06-06T07:00:00Z,5.58,-0.17,27.0,25.0,250,7,,6.21,29.911417,,,,,,TRUE,,,,TS,FEW,3000,,,,,,,VFR,,,,,,,,,,,,METAR,68.0
DFOO 060700Z 22005KT CAVOK 26/23 Q1014,DFOO,2023-06-06T07:00:00Z,11.17,-4.32,26.0,23.0,220,5,,6.21,29.940945,,,,,,,,,,,CAVOK,,,,,,,,VFR,,,,,,,,,,,,METAR,461.0
DFFD 060700Z 23009KT CAVOK 29/24 Q1012 NOSIG,DFFD,2023-06-06T07:00:00Z,12.35,-1.52,29.0,24.0,230,9,,6.21,29.88189,,,,,,TRUE,,,,,CAVOK,,,,,,,,VFR,,,,,,,,,,,,METAR,309.0
DBBB 060700Z 24005KT 9999 TS SCT011 FEW020CB 26/24 Q1012 BECMG NSW,DBBB,2023-06-06T07:00:00Z,6.35,2.38,26.0,24.0,240,5,,6.21,29.88189,,,,,,,,,,TS,SCT,1100,FEW,2000,,,,,VFR,,,,,,,,,,,,METAR,4.0
DAUZ 060700Z 34012KT 3000 HZ NSC 26/15 Q1011,DAUZ,2023-06-06T07:00:00Z,28.05,9.63,26.0,15.0,340,12,,1.86,29.852362,,,,,,,,,,HZ,CLR,,,,,,,,IFR,,,,,,,,,,,,METAR,567.0
DAUU 060700Z 10007KT 4000 HZ FEW046 SCT200 24/16 Q1012,DAUU,2023-06-06T07:00:00Z,31.92,5.4,24.0,16.0,100,7,,2.49,29.88189,,,,,,,,,,HZ,FEW,4600,SCT,20000,,,,,IFR,,,,,,,,,,,,METAR,147.0
DAUT 060700Z 11010KT CAVOK 28/07 Q1009,DAUT,2023-06-06T07:00:00Z,29.25,0.27,28.0,7.0,110,10,,6.21,29.793306,,,,,,,,,,,CAVOK,,,,,,,,VFR,,,,,,,,,,,,METAR,307.0
DAUO 060700Z 10007KT 070V130 CAVOK 24/15 Q1012,DAUO,2023-06-06T07:00:00Z,33.5,6.78,24.0,15.0,100,7,,6.21,29.88189,,,,,,,,,,,CAVOK,,,,,,,,VFR,,,,,,,,,,,,METAR,55.0
DAUL 060700Z 21004KT 9999 FEW033 SCT100 19/08 Q1015,DAUL,2023-06-06T07:00:00Z,33.77,2.92,19.0,8.0,210,4,,6.21,29.970472,,,,,,,,,,,FEW,3300,SCT,10000,,,,,VFR,,,,,,,,,,,,METAR,755.0
DAUK 060700Z 08007KT CAVOK 23/15 Q1012,DAUK,2023-06-06T07:00:00Z,33.08,6.08,23.0,15.0,80,7,,6.21,29.88189,,,,,,,,,,,CAVOK,,,,,,,,VFR,,,,,,,,,,,,METAR,83.0
DAUI 060700Z 09014KT 8000 NSC 29/08 Q1009,DAUI,2023-06-06T07:00:00Z,27.25,2.52,29.0,8.0,90,14,,4.97,29.793306,,,,,,,,,,,CLR,,,,,,,,MVFR,,,,,,,,,,,,METAR,271.0
DAUH 060700Z 06009KT 030V090 6000 NSC 24/16 Q1012,DAUH,2023-06-06T07:00:00Z,31.67,6.15,24.0,16.0,60,9,,3.73,29.88189,,,,,,,,,,,CLR,,,,,,,,MVFR,,,,,,,,,,,,METAR,141.0
DAUG 060700Z 06007KT CAVOK 24/08 Q1014,DAUG,2023-06-06T07:00:00Z,32.38,3.78,24.0,8.0,60,7,,6.21,29.940945,,,,,,,,,,,CAVOK,,,,,,,,VFR,,,,,,,,,,,,METAR,444.0
DAUE 060700Z 09007KT 040V120 4000 HZ BKN040 25/09 Q1013,DAUE,2023-06-06T07:00:00Z,30.57,2.87,25.0,9.0,90,7,,2.49,29.911417,,,,,,,,,,HZ,BKN,4000,,,,,,,IFR,,,,,,,,,,,,METAR,396.0
DAUB 060700Z 24004KT 170V270 8000 NSC 25/15 Q1013,DAUB,2023-06-06T07:00:00Z,34.78,5.73,25.0,15.0,240,4,,4.97,29.911417,,,,,,,,,,,CLR,,,,,,,,MVFR,,,,,,,,,,,,METAR,75.0
DAUA 060700Z 09015KT 8000 NSC 30/08 Q1008,DAUA,2023-06-06T07:00:00Z,27.83,-0.18,30.0,8.0,90,15,,4.97,29.763779,,,,,,,,,,,CLR,,,,,,,,MVFR,,,,,,,,,,,,METAR,278.0
DATM 060700Z 28004KT CAVOK 28/M04 Q1010,DATM,2023-06-06T07:00:00Z,21.38,0.92,28.0,-4.0,280,4,,6.21,29.822834,,,,,,,,,,,CAVOK,,,,,,,,VFR,,,,,,,,,,,,METAR,398.0
DAOY 060700Z VRB02KT 8000 NSC 17/08 Q1017,DAOY,2023-06-06T07:00:00Z,33.72,1.08,17.0,8.0,0,2,,4.97,30.029528,,,,,,,,,,,CLR,,,,,,,,MVFR,,,,,,,,,,,,METAR,1340.0
DAOV 060700Z 01005KT 9999 FEW033 SCT233 19/13 Q1015,DAOV,2023-06-06T07:00:00Z,35.2,0.15,19.0,13.0,10,5,,6.21,29.970472,,,,,,,,,,,FEW,3300,SCT,23300,,,,,VFR,,,,,,,,,,,,METAR,506.0
DAOR 060700Z 11012KT CAVOK 25/10 Q1014,DAOR,2023-06-06T07:00:00Z,31.65,-2.27,25.0,10.0,110,12,,6.21,29.940945,,,,,,,,,,,CAVOK,,,,,,,,VFR,,,,,,,,,,,,METAR,809.0
DAOO 060700Z 02005KT 340V070 9999 FEW026 SCT100 21/17 Q1013,DAOO,2023-06-06T07:00:00Z,35.62,-0.62,21.0,17.0,20,5,,6.21,29.911417,,,,,,,,,,,FEW,2600,SCT,10000,,,,,VFR,,,,,,,,,,,,METAR,87.0
DAON 060700Z VRB02KT 9999 FEW026 BKN030 20/14 Q1013,DAON,2023-06-06T07:00:00Z,35.02,-1.47,20.0,14.0,0,2,,6.21,29.911417,,,,,,,,,,,FEW,2600,BKN,3000,,,,,MVFR,,,,,,,,,,,,METAR,245.0
DAOL 060700Z 06010KT 6000 FEW013 SCT200 21/18 Q1014,DAOL,2023-06-06T07:00:00Z,35.53,-0.52,21.0,18.0,60,10,,3.73,29.940945,,,,,,,,,,,FEW,1300,SCT,20000,,,,,MVFR,,,,,,,,,,,,METAR,103.0
DAOI 060700Z 06007KT 9999 FEW023 BKN233 20/12 Q1015,DAOI,2023-06-06T07:00:00Z,36.22,1.32,20.0,12.0,60,7,,6.21,29.970472,,,,,,,,,,,FEW,2300,BKN,23300,,,,,VFR,,,,,,,,,,,,METAR,141.0
DAOF 060700Z 27014KT CAVOK 21/07 Q1010,DAOF,2023-06-06T07:00:00Z,27.7,-8.17,21.0,7.0,270,14,,6.21,29.822834,,,,,,,,,,,CAVOK,,,,,,,,VFR,,,,,,,,,,,,METAR,441.0
DAOB 060700Z VRB02KT 9999 FEW026 BKN220 18/12 Q1018,DAOB,2023-06-06T07:00:00Z,35.33,1.47,18.0,12.0,0,2,,6.21,30.059055,,,,,,,,,,,FEW,2600,BKN,22000,,,,,VFR,,,,,,,,,,,,METAR,976.0
DAFH 060700Z 27004KT 9999 FEW033 SCT200 22/08 Q1016,DAFH,2023-06-06T07:00:00Z,32.93,3.32,22.0,8.0,270,4,,6.21,30.0,,,,,,,,,,,FEW,3300,SCT,20000,,,,,VFR,,,,,,,,,,,,METAR,774.0
DABT 060700Z 00000KT 8000 FEW010 SCT023 18/12 Q1017,DABT,2023-06-06T07:00:00Z,35.75,6.32,18.0,12.0,0,0,,4.97,30.029528,,,,,,,,,,,FEW,1000,SCT,2300,,,,,MVFR,,,,,,,,,,,,METAR,813.0
DABS 060700Z 33006KT 9999 BKN026 16/12 Q1016,DABS,2023-06-06T07:00:00Z,35.43,8.12,16.0,12.0,330,6,,6.21,30.0,,,,,,,,,,,BKN,2600,,,,,,,MVFR,,,,,,,,,,,,METAR,806.0
DABC 060700Z VRB02KT 9000 FEW023 17/13 Q1017,DABC,2023-06-06T07:00:00Z,36.27,6.62,17.0,13.0,0,2,,5.59,30.029528,,,,,,,,,,,FEW,2300,,,,,,,VFR,,,,,,,,,,,,METAR,686.0
DABB 060700Z VRB02KT 6000 FEW020 20/20 Q1015,DABB,2023-06-06T07:00:00Z,36.82,7.82,20.0,20.0,0,2,,3.73,29.970472,,,,,,,,,,,FEW,2000,,,,,,,MVFR,,,,,,,,,,,,METAR,3.0
DAAY 060700Z 21004KT 9999 SCT033 SCT100 19/10 Q1019,DAAY,2023-06-06T07:00:00Z,33.53,-0.25,19.0,10.0,210,4,,6.21,30.088583,,,,,,,,,,,SCT,3300,SCT,10000,,,,,VFR,,,,,,,,,,,,METAR,1116.0
DAAV 060700Z 14002KT 9999 FEW020 21/18 Q1015,DAAV,2023-06-06T07:00:00Z,36.8,5.88,21.0,18.0,140,2,,6.21,29.970472,,,,,,,,,,,FEW,2000,,,,,,,VFR,,,,,,,,,,,,METAR,11.0
DAAT 060700Z 35005KT CAVOK 26/M04 Q1017,DAAT,2023-06-06T07:00:00Z,22.82,5.47,26.0,-4.0,350,5,,6.21,30.029528,,,,,,,,,,,CAVOK,,,,,,,,VFR,,,,,,,,,,,,METAR,1376.0
DAAS 060700Z 14004KT 8000 FEW010 SCT026 16/10 Q1018,DAAS,2023-06-06T07:00:00Z,36.18,5.33,16.0,10.0,140,4,,4.97,30.059055,,,,,,,,,,,FEW,1000,SCT,2600,,,,,MVFR,,,,,,,,,,,,METAR,1012.0
DAAP 060700Z 35006KT 8000 NSC 27/12 Q1012,DAAP,2023-06-06T07:00:00Z,26.72,8.62,27.0,12.0,350,6,,4.97,29.88189,,,,,,,,,,,CLR,,,,,,,,MVFR,,,,,,,,,,,,METAR,542.0
DAAJ 060700Z 35004KT CAVOK 30/M04 Q1013,DAAJ,2023-06-06T07:00:00Z,24.28,9.47,30.0,-4.0,350,4,,6.21,29.911417,,,,,,,,,,,CAVOK,,,,,,,,VFR,,,,,,,,,,,,METAR,962.0
DAAG 060700Z 24003KT 9999 FEW010 19/14 Q1015,DAAG,2023-06-06T07:00:00Z,36.68,3.22,19.0,14.0,240,3,,6.21,29.970472,,,,,,,,,,,FEW,1000,,,,,,,VFR,,,,,,,,,,,,METAR,18.0
DAAE 060700Z 25003KT 9999 FEW016 21/17 Q1015,DAAE,2023-06-06T07:00:00Z,36.72,5.07,21.0,17.0,250,3,,6.21,29.970472,,,,,,,,,,,FEW,1600,,,,,,,VFR,,,,,,,,,,,,METAR,1.0
DAAD 060700Z 09005KT 8000 NSC 20/14 Q1016,DAAD,2023-06-06T07:00:00Z,35.32,4.2,20.0,14.0,90,5,,4.97,30.0,,,,,,,,,,,CLR,,,,,,,,MVFR,,,,,,,,,,,,METAR,461.0
CZZJ 060700Z AUTO 25001KT 03/M00 RMK AO1 SLP223 T00311003 52001,CZZJ,2023-06-06T07:00:00Z,53.58,-116.47,3.1,-0.3,250,1,,,,1022.3,,TRUE,TRUE,,,,,,,,,,,,,,,,0.1,,,,,,,,,,,METAR,927.0
CZVL 060700Z AUTO 30007KT 9SM CLR 08/05 A3007 RMK SLP195,CZVL,2023-06-06T07:00:00Z,53.67,-113.85,8.0,5.0,300,7,,9.0,30.070866,1019.5,,TRUE,,,,,,,,CLR,,,,,,,,VFR,,,,,,,,,,,,METAR,685.0
CZTB 060700Z AUTO 09007KT 14/10 RMK AO1 SLP214 T01440100 55006,CZTB,2023-06-06T07:00:00Z,48.37,-89.32,14.4,10.0,90,7,,,,1021.4,,TRUE,TRUE,,,,,,,,,,,,,,,,-0.6,,,,,,,,,,,METAR,197.0
CZSP 060700Z AUTO 06012G22KT 09/09 RMK AO1 1PAST HR 8043 PK WND 04023/0625 SLP963 P0004 T00890087 50011,CZSP,2023-06-06T07:00:00Z,46.45,-62.58,8.9,8.7,60,12,22,,,996.3,,TRUE,TRUE,,,,,,,,,,,,,,,,1.1,,,,,0.04,,,,,,METAR,31.0
CZSM 060700Z AUTO 00000KT 17/15 RMK AO1 SLP088 T01710152 56025,CZSM,2023-06-06T07:00:00Z,60.03,-111.93,17.1,15.2,0,0,,,,1008.8,,TRUE,TRUE,,,,,,,,,,,,,,,,-2.5,,,,,,,,,,,SPECI,203.0
CZOL 060700Z AUTO 32005KT 10/05 RMK AO1 T00990052,CZOL,2023-06-06T07:00:00Z,53.65,-113.35,9.9,5.2,320,5,,,,,,TRUE,TRUE,,,,,,,,,,,,,,,,,,,,,,,,,,,METAR,645.0
CZMJ 060700Z AUTO 11005KT 18/15 RMK AO1 SLP129 T01830150 58004,CZMJ,2023-06-06T07:00:00Z,50.33,-105.53,18.3,15.0,110,5,,,,1012.9,,TRUE,TRUE,,,,,,,,,,,,,,,,-0.4,,,,,,,,,,,METAR,571.0
CZMD 060700Z AUTO 11005KT 080V160 9SM OVC071 15/09 A3011 RMK SLP206,CZMD,2023-06-06T07:00:00Z,53.43,-91.77,15.0,9.0,110,5,,9.0,30.109253,1020.6,,TRUE,,,,,,,,OVC,7100,,,,,,,VFR,,,,,,,,,,,,METAR,276.0
CZKD 060700Z AUTO 12008KT 15/15 RMK AO1 5PAST HR 8020 SLP153 P0014 T01530147 50035,CZKD,2023-06-06T07:00:00Z,56.03,-96.52,15.3,14.7,120,8,,,,1015.3,,TRUE,TRUE,,,,,,,,,,,,,,,,3.5,,,,,0.14,,,,,,METAR,190.0
CZHY 060700Z AUTO 35002KT 12/11 RMK AO1 SLP092 T01170109 58021,CZHY,2023-06-06T07:00:00Z,60.83,-115.78,11.7,10.9,350,2,,,,1009.2,,TRUE,TRUE,,,,,,,,,,,,,,,,-2.1,,,,,,,,,,,SPECI,159.0
CZFS 060700Z AUTO 20005KT 18/03 RMK AO1 SLP092 T01780029 58013,CZFS,2023-06-06T07:00:00Z,61.77,-121.23,17.8,2.9,200,5,,,,1009.2,,TRUE,TRUE,,,,,,,,,,,,,,,,-1.3,,,,,,,,,,,SPECI,174.0
CZEV 060700Z AUTO 07008KT 12/02 RMK AO1 SLP179 T01240021 58012,CZEV,2023-06-06T07:00:00Z,68.32,-133.48,12.4,2.1,70,8,,,,1017.9,,TRUE,TRUE,,,,,,,,,,,,,,,,-1.2,,,,,,,,,,,SPECI,92.0
CZEL 060700Z AUTO 01005KT 13/10 RMK AO1 SLP126 T01250101 56013,CZEL,2023-06-06T07:00:00Z,43.65,-80.42,12.5,10.1,10,5,,,,1012.6,,TRUE,TRUE,,,,,,,,,,,,,,,,-1.3,,,,,,,,,,,METAR,370.0
CZDB 060700Z AUTO 04012KT 11/10 RMK AO1 PK WND 05017/0647 SLP931 T01070095 57033,CZDB,2023-06-06T07:00:00Z,45.42,-63.47,10.7,9.5,40,12,,,,993.1,,TRUE,TRUE,,,,,,,,,,,,,,,,-3.3,,,,,,,,,,,METAR,38.0
CZCR 060700Z AUTO 28001KT 09/09 RMK AO1 7PAST HR 8030 SLP051 P0007 T00910091 50017,CZCR,2023-06-06T07:00:00Z,47.98,-66.33,9.1,9.1,280,1,,,,1005.1,,TRUE,TRUE,,,,,,,,,,,,,,,,1.7,,,,,0.07,,,,,,METAR,39.0
CZCP 060700Z AUTO 08023KT ////SM ////// M00/M01 A3019,CZCP,2023-06-06T07:00:00Z,70.17,-124.68,0.0,-1.0,80,23,,,30.188976,,,TRUE,,,,,,,,,,,,,,,,,,,,,,,,,,,,SPECI,23.0
CZBF 060700Z AUTO 03007G15KT 350V050 3SM -RA BR OVC005 09/09 A2966 RMK PCPN 3.5MM PAST HR SLP047,CZBF,2023-06-06T07:00:00Z,47.62,-65.75,9.0,9.0,30,7,15,3.0,29.660433,1004.7,,TRUE,,,,,,,-RA BR,OVC,500,,,,,,,IFR,,,,,,,,,,,,SPECI,60.0
CYZY 060700Z AUTO 15004KT 100V240 9SM FEW240 06/01 A3011 RMK SLP217,CYZY,2023-06-06T07:00:00Z,55.3,-123.13,6.0,1.0,150,4,,9.0,30.109253,1021.7,,TRUE,,,,,,,,FEW,24000,,,,,,,VFR,,,,,,,,,,,,SPECI,694.0
CYZX 060700Z 02009KT 4SM -RA BR BKN012 OVC019 10/09 A2933 RMK SF5SC3 DENSITY ALT 292FT SLP933,CYZX,2023-06-06T07:00:00Z,44.98,-64.92,10.0,9.0,20,9,,4.0,29.329725,993.3,,,,,,,,,-RA BR,BKN,1200,OVC,1900,,,,,MVFR,,,,,,,,,,,,SPECI,28.0
CYZV 060700Z 01004KT 10SM -RA OVC043 08/08 A2985 RMK SC8 SLP112,CYZV,2023-06-06T07:00:00Z,50.22,-66.27,8.0,8.0,10,4,,10.0,29.84941,1011.2,,,,,,,,,-RA,OVC,4300,,,,,,,VFR,,,,,,,,,,,,SPECI,43.0
CYZT 060700Z 25007KT 15SM SKC 10/06 A3023 RMK SLP238,CYZT,2023-06-06T07:00:00Z,50.68,-127.37,10.0,6.0,250,7,,15.0,30.230314,1023.8,,,,,,,,,,SKC,,,,,,,,VFR,,,,,,,,,,,,SPECI,13.0
CYZS 060700Z 32007KT 15SM OVC120 01/01 A3024 RMK AC8 SLP248,CYZS,2023-06-06T07:00:00Z,64.2,-83.35,1.0,1.0,320,7,,15.0,30.239174,1024.8,,,,,,,,,,OVC,12000,,,,,,,VFR,,,,,,,,,,,,SPECI,60.0
CYZR 060700Z AUTO VRB02KT 9SM CLR 12/11 A2993 RMK SLP135,CYZR,2023-06-06T07:00:00Z,43.0,-82.3,12.0,11.0,0,2,,9.0,29.929134,1013.5,,TRUE,,,,,,,,CLR,,,,,,,,VFR,,,,,,,,,,,,SPECI,181.0
CYZP 060700Z AUTO 26011KT 9SM OVC050 11/07 A3033 RMK SLP274,CYZP,2023-06-06T07:00:00Z,53.25,-131.82,11.0,7.0,260,11,,9.0,30.33071,1027.4,,TRUE,,,,,,,,OVC,5000,,,,,,,VFR,,,,,,,,,,,,SPECI,7.0
CYZH 060700Z AUTO 24006KT 9SM CLR 09/04 A3004 RMK SLP189,CYZH,2023-06-06T07:00:00Z,55.28,-114.77,9.0,4.0,240,6,,9.0,30.041338,1018.9,,TRUE,,,,,,,,CLR,,,,,,,,VFR,,,,,,,,,,,,SPECI,583.0
CYZF 060700Z 06009KT 15SM VCSH FEW050 BKN070 BKN120 16/11 A2981 RMK SC1AC5AC1 SLP101 DENSITY ALT 1100FT,CYZF,2023-06-06T07:00:00Z,62.47,-114.45,16.0,11.0,60,9,,15.0,29.811024,1010.1,,,,,,,,,VCSH,FEW,5000,BKN,7000,BKN,12000,,,VFR,,,,,,,,,,,,SPECI,202.0
CYZE 060700Z AUTO 04014G20KT 9SM CLR 14/06 A3001 RMK SLP165,CYZE,2023-06-06T07:00:00Z,45.88,-82.57,14.0,6.0,40,14,20,9.0,30.008858,1016.5,,TRUE,,,,,,,,CLR,,,,,,,,VFR,,,,,,,,,,,,SPECI,189.0
CYYZ 060700Z 34012KT 10SM BKN180 BKN240 17/11 A2986 RMK AC6CI1 SLP113 DENSITY ALT 1000FT,CYYZ,2023-06-06T07:00:00Z,43.67,-79.62,17.0,11.0,340,12,,10.0,29.861221,1011.3,,,,,,,,,,BKN,18000,BKN,24000,,,,,VFR,,,,,,,,,,,,SPECI,171.0
CYYY 060700Z 05012G19KT 10SM -RA OVC003 08/08 A2979 RMK SF8 SLP090,CYYY,2023-06-06T07:00:00Z,48.6,-68.22,8.0,8.0,50,12,19,10.0,29.790354,1009.0,,,,,,,,,-RA,OVC,300,,,,,,,LIFR,,,,,,,,,,,,SPECI,43.0
CYYW 060700Z AUTO 30002KT 9SM FEW150 BKN240 07/07 A3019 RMK SLP225,CYYW,2023-06-06T07:00:00Z,50.3,-88.9,7.0,7.0,300,2,,9.0,30.188976,1022.5,,TRUE,,,,,,,,FEW,15000,BKN,24000,,,,,VFR,,,,,,,,,,,,METAR,320.0
CYYU 060700Z 36006KT 15SM BKN260 06/00 A3016 RMK CI7 SLP221,CYYU,2023-06-06T07:00:00Z,49.42,-82.47,6.0,0.0,360,6,,15.0,30.159449,1022.1,,,,,,,,,,BKN,26000,,,,,,,VFR,,,,,,,,,,,,SPECI,228.0
CYYT 060700Z 09005KT 1/8SM R16/1600V1800FT/N -DZ FG VV001 05/05 A2992 RMK FG8 SLP140,CYYT,2023-06-06T07:00:00Z,47.62,-52.73,5.0,5.0,90,5,,0.13,29.920275,1014.0,,,,,,,,,-DZ FG,OVX,0,,,,,,,LIFR,,,,,,,,,,,100,SPECI,128.0
CYYR 060700Z 02011G17KT 15SM BKN014 05/01 A3010 RMK SC7 DENSITY ALT -1181FT SLP195,CYYR,2023-06-06T07:00:00Z,53.32,-60.42,5.0,1.0,20,11,17,15.0,30.100393,1019.5,,,,,,,,,,BKN,1400,,,,,,,MVFR,,,,,,,,,,,,SPECI,42.0
CYYQ 060700Z 13012KT 15SM BKN049 06/03 A3008 RMK SC6 PRESFR SLP191,CYYQ,2023-06-06T07:00:00Z,58.75,-94.07,6.0,3.0,130,12,,15.0,30.079725,1019.1,,,,,,,,,,BKN,4900,,,,,,,VFR,,,,,,,,,,,,SPECI,20.0
CYYN 060700Z AUTO 16009KT 9SM CLR 18/14 A2991 RMK SLP115 DENSITY ALT 3700FT,CYYN,2023-06-06T07:00:00Z,50.28,-107.68,18.0,14.0,160,9,,9.0,29.911417,1011.5,,TRUE,,,,,,,,CLR,,,,,,,,VFR,,,,,,,,,,,,SPECI,814.0
CYYL 060700Z AUTO 05002KT 9SM SCT140 BKN160 19/18 A2985 RMK SLP113 DENSITY ALT 2000FT,CYYL,2023-06-06T07:00:00Z,56.87,-101.07,19.0,18.0,50,2,,9.0,29.84941,1011.3,,TRUE,,,,,,,,SCT,14000,BKN,16000,,,,,VFR,,,,,,,,,,,,SPECI,351.0
CYYJ 060700Z 27003KT 230V290 20SM SKC 14/03 A3003 RMK SLP170,CYYJ,2023-06-06T07:00:00Z,48.63,-123.42,14.0,3.0,270,3,,20.0,30.029528,1017.0,,,,,,,,,,SKC,,,,,,,,VFR,,,,,,,,,,,,SPECI,16.0
CYYH 060700Z 08008KT 15SM FEW010 FEW130 SCT150 02/M01 A3020 RMK ST1AS1AC2 SLP231,CYYH,2023-06-06T07:00:00Z,69.53,-93.57,2.0,-1.0,80,8,,15.0,30.200787,1023.1,,,,,,,,,,FEW,1000,FEW,13000,SCT,15000,,,VFR,,,,,,,,,,,,SPECI,19.0
CYYG 060700Z 05015G21KT 5SM -RA BR OVC006 10/09 A2939 RMK NS8 PRESFR SLP955,CYYG,2023-06-06T07:00:00Z,46.28,-63.12,10.0,9.0,50,15,21,5.0,29.388779,995.5,,,,,,,,,-RA BR,OVC,600,,,,,,,IFR,,,,,,,,,,,,SPECI,48.0
CYYF 060700Z 35007KT 15SM FEW240 15/M00 A3008 RMK CI1 SLP186,CYYF,2023-06-06T07:00:00Z,49.47,-119.6,15.0,0.0,350,7,,15.0,30.079725,1018.6,,,,,,,,,,FEW,24000,,,,,,,VFR,,,,,,,,,,,,SPECI,342.0
CYYE 060700Z 22004KT 15SM BKN110 12/02 A2984 RMK AC7 SLP115,CYYE,2023-06-06T07:00:00Z,58.83,-122.58,12.0,2.0,220,4,,15.0,29.840551,1011.5,,,,,,,,,,BKN,11000,,,,,,,VFR,,,,,,,,,,,,SPECI,379.0
CYYD 060700Z AUTO 00000KT 9SM CLR 07/01 A3020 RMK SLP241,CYYD,2023-06-06T07:00:00Z,54.82,-127.18,7.0,1.0,0,0,,9.0,30.200787,1024.1,,TRUE,,,,,,,,CLR,,,,,,,,VFR,,,,,,,,,,,,SPECI,527.0
CYYC 060700Z 36023G29KT 12SM FEW019 BKN083 12/06 A3008 RMK SC1AC6 SC TR SLP192 DENSITY ALT 4000FT,CYYC,2023-06-06T07:00:00Z,51.12,-114.02,12.0,6.0,360,23,29,12.0,30.079725,1019.2,,,,,,,,,,FEW,1900,BKN,8300,,,,,VFR,,,,,,,,,,,,SPECI,1085.0
CYYB 060700Z AUTO 36011G19KT 9SM CLR 11/06 A2994 RMK SLP141,CYYB,2023-06-06T07:00:00Z,46.35,-79.42,11.0,6.0,360,11,19,9.0,29.940945,1014.1,,TRUE,,,,,,,,CLR,,,,,,,,VFR,,,,,,,,,,,,SPECI,360.0
CYXY 060700Z 20006KT 160V230 8SM -SHRA FEW008 OVC064 08/07 A2990 RMK CF1SC7 CVCTV CLD EMBD SLP144,CYXY,2023-06-06T07:00:00Z,60.72,-135.07,8.0,7.0,200,6,,8.0,29.899607,1014.4,,,,,,,,,-SHRA,FEW,800,OVC,6400,,,,,VFR,,,,,,,,,,,,SPECI,677.0
CYXX 060700Z 03003KT 15SM SKC 13/06 A3003 RMK SLP170,CYXX,2023-06-06T07:00:00Z,49.03,-122.38,13.0,6.0,30,3,,15.0,30.029528,1017.0,,,,,,,,,,SKC,,,,,,,,VFR,,,,,,,,,,,,SPECI,54.0
CYXU 060700Z 30005KT 10SM OVC240 13/10 A2991 RMK CI8 SLP129,CYXU,2023-06-06T07:00:00Z,43.03,-81.15,13.0,10.0,300,5,,10.0,29.911417,1012.9,,,,,,,,,,OVC,24000,,,,,,,VFR,,,,,,,,,,,,SPECI,278.0
CYXT 060700Z 31003KT 220V330 20SM FEW060 08/M00 A3030 RMK SC1 SLP267,CYXT,2023-06-06T07:00:00Z,54.47,-128.57,8.0,0.0,310,3,,20.0,30.301182,1026.7,,,,,,,,,,FEW,6000,,,,,,,VFR,,,,,,,,,,,,SPECI,213.0
CYXR 060700Z AUTO 34011KT 9SM CLR 09/04 A3001 RMK SLP168,CYXR,2023-06-06T07:00:00Z,47.7,-79.85,9.0,4.0,340,11,,9.0,30.008858,1016.8,,TRUE,,,,,,,,CLR,,,,,,,,VFR,,,,,,,,,,,,SPECI,244.0
CYXL 060700Z 14004KT 15SM FEW110 14/13 A3011 RMK AC2 SLP204,CYXL,2023-06-06T07:00:00Z,50.12,-91.9,14.0,13.0,140,4,,15.0,30.109253,1020.4,,,,,,,,,,FEW,11000,,,,,,,VFR,,,,,,,,,,,,SPECI,381.0
CYXJ 060700Z 22012G18KT 15SM SCT095 10/M01 A2999 RMK AC4 SLP173,CYXJ,2023-06-06T07:00:00Z,56.25,-120.73,10.0,-1.0,220,12,18,15.0,29.991142,1017.3,,,,,,,,,,SCT,9500,,,,,,,VFR,,,,,,,,,,,,SPECI,700.0
CYXH 060700Z AUTO 20005KT 9SM OVC130 19/15 A2988 RMK SLP107 DENSITY ALT 3500FT,CYXH,2023-06-06T07:00:00Z,50.02,-110.72,19.0,15.0,200,5,,9.0,29.878937,1010.7,,TRUE,,,,,,,,OVC,13000,,,,,,,VFR,,,,,,,,,,,,SPECI,717.0
CYXE 060700Z 17008KT 15SM FEW060CB SCT100 23/16 A2985 RMK CB1AC3 OCNL LTGCC N SLP104 DENSITY ALT 3100FT,CYXE,2023-06-06T07:00:00Z,52.17,-106.7,23.0,16.0,170,8,,15.0,29.84941,1010.4,,,,,,,,,,FEW,6000,SCT,10000,,,,,VFR,,,,,,,,,,,,SPECI,504.0
CYXC 060700Z 34008KT 25SM FEW230 18/M05 A2998 RMK CI2 SLP135 DENSITY ALT 4100FT,CYXC,2023-06-06T07:00:00Z,49.6,-115.78,18.0,-5.0,340,8,,25.0,29.97933,1013.5,,,,,,,,,,FEW,23000,,,,,,,VFR,,,,,,,,,,,,SPECI,928.0
CYWK 060700Z AUTO 04010G18KT 9SM OVC013 05/03 A3003 RMK SLP187,CYWK,2023-06-06T07:00:00Z,52.92,-66.87,5.0,3.0,40,10,18,9.0,30.029528,1018.7,,TRUE,,,,,,,,OVC,1300,,,,,,,MVFR,,,,,,,,,,,,SPECI,547.0
CYWG 060700Z 14009KT 15SM BKN240 22/19 A2998 RMK CI6 SLP152 DENSITY ALT 1700FT,CYWG,2023-06-06T07:00:00Z,49.9,-97.23,22.0,19.0,140,9,,15.0,29.97933,1015.2,,,,,,,,,,BKN,24000,,,,,,,VFR,,,,,,,,,,,,SPECI,238.0
CYWE 060700Z AUTO 06005KT 9SM SCT091 OVC130 15/11 A2988 RMK SLP131 DENSITY ALT 1600FT,CYWE,2023-06-06T07:00:00Z,64.18,-114.08,15.0,11.0,60,5,,9.0,29.878937,1013.1,,TRUE,,,,,,,,SCT,9100,OVC,13000,,,,,VFR,,,,,,,,,,,,METAR,374.0
CYVV 060700Z 04008KT 10SM FEW075 BKN250 15/08 A2994 RMK AC2CI4 SLP140,CYVV,2023-06-06T07:00:00Z,44.75,-81.1,15.0,8.0,40,8,,10.0,29.940945,1014.0,,,,,,,,,,FEW,7500,BKN,25000,,,,,VFR,,,,,,,,,,,,METAR,221.0
CYVT 060700Z AUTO 25007KT 9SM SCT250 20/17 A2982 RMK SLP104 DENSITY ALT 2500FT,CYVT,2023-06-06T07:00:00Z,55.83,-108.42,20.0,17.0,250,7,,9.0,29.819881,1010.4,,TRUE,,,,,,,,SCT,25000,,,,,,,VFR,,,,,,,,,,,,METAR,438.0
CYVR 060700Z 30013G18KT 20SM SKC 15/10 A3003 RMK SLP171,CYVR,2023-06-06T07:00:00Z,49.17,-123.17,15.0,10.0,300,13,18,20.0,30.029528,1017.1,,,,,,,,,,SKC,,,,,,,,VFR,,,,,,,,,,,,SPECI,2.0
CYVQ 060700Z 29003KT 3SM -RA SCT003 OVC026 11/11 A2991 RMK ST4SC4 SLP133,CYVQ,2023-06-06T07:00:00Z,65.27,-126.78,11.0,11.0,290,3,,3.0,29.911417,1013.3,,,,,,,,,-RA,SCT,300,OVC,2600,,,,,MVFR,,,,,,,,,,,,METAR,63.0
CYVP 060700Z 21004KT 15SM FEW045 SCT110 00/00 A3024 RMK SC2AC1 SLP245,CYVP,2023-06-06T07:00:00Z,58.12,-68.42,0.0,0.0,210,4,,15.0,30.239174,1024.5,,,,,,,,,,FEW,4500,SCT,11000,,,,,VFR,,,,,,,,,,,,SPECI,28.0
CYVO 060700Z AUTO 36011G17KT 9SM OVC025 09/05 A2993 RMK SLP144,CYVO,2023-06-06T07:00:00Z,48.07,-77.77,9.0,5.0,360,11,17,9.0,29.929134,1014.4,,TRUE,,,,,,,,OVC,2500,,,,,,,MVFR,,,,,,,,,,,,METAR,329.0
CYVM 060700Z AUTO 06006KT 9SM OVC017 M02/M05 A3024 RMK SLP243,CYVM,2023-06-06T07:00:00Z,67.55,-64.02,-2.0,-5.0,60,6,,9.0,30.239174,1024.3,,TRUE,,,,,,,,OVC,1700,,,,,,,MVFR,,,,,,,,,,,,METAR,3.0
CYVL 060700Z AUTO 05007KT 9SM -RA FEW055 OVC074 09/08 A2999 RMK SLP170,CYVL,2023-06-06T07:00:00Z,67.02,-126.13,9.0,8.0,50,7,,9.0,29.991142,1017.0,,TRUE,,,,,,,-RA,FEW,5500,OVC,7400,,,,,VFR,,,,,,,,,,,,METAR,261.0
CYVC 060700Z 00000KT 15SM -TSRA FEW030CB BKN070 BKN120 19/18 A2988 RMK CB2AC4AC1 PRESFR SLP122 DENSITY ALT 2100FT,CYVC,2023-06-06T07:00:00Z,55.15,-105.27,19.0,18.0,0,0,,15.0,29.878937,1012.2,,,,,,,,,-TSRA,FEW,3000,BKN,7000,BKN,12000,,,VFR,,,,,,,,,,,,METAR,378.0
CYUY 060700Z 35007KT 15SM FEW058 07/03 A3000 RMK SC1 SLP165,CYUY,2023-06-06T07:00:00Z,48.2,-78.82,7.0,3.0,350,7,,15.0,30.0,1016.5,,,,,,,,,,FEW,5800,,,,,,,VFR,,,,,,,,,,,,SPECI,304.0
CYUL 060700Z 01010KT 15SM BKN050 OVC080 16/08 A2972 RMK SC6AC2 SLP065 DENSITY ALT 500FT,CYUL,2023-06-06T07:00:00Z,45.47,-73.73,16.0,8.0,10,10,,15.0,29.719488,1006.5,,,,,,,,,,BKN,5000,OVC,8000,,,,,VFR,,,,,,,,,,,,SPECI,31.0
CYUA 060700Z AUTO 30011KT ////SM BKN110 03/01 A3006,CYUA,2023-06-06T07:00:00Z,68.92,-137.23,3.0,1.0,300,11,,,30.059055,,,TRUE,,,,,,,,BKN,11000,,,,,,,,,,,,,,,,,,,METAR,25.0
CYTZ 060700Z AUTO 32010G17KT 9SM CLR 18/11 A2985 RMK SLP109 DENSITY ALT 800FT,CYTZ,2023-06-06T07:00:00Z,43.63,-79.4,18.0,11.0,320,10,17,9.0,29.84941,1010.9,,TRUE,,,,,,,,CLR,,,,,,,,VFR,,,,,,,,,,,,METAR,76.0
CYTS 060700Z 33007KT 15SM SKC 05/02 A3010 RMK SLP201,CYTS,2023-06-06T07:00:00Z,48.57,-81.37,5.0,2.0,330,7,,15.0,30.100393,1020.1,,,,,,,,,,SKC,,,,,,,,VFR,,,,,,,,,,,,METAR,290.0
CYTR 060700Z 32006KT 15SM FEW070 13/12 A2981 RMK AC2 DENSITY ALT 418FT SLP094,CYTR,2023-06-06T07:00:00Z,44.12,-77.52,13.0,12.0,320,6,,15.0,29.811024,1009.4,,,,,,,,,,FEW,7000,,,,,,,VFR,,,,,,,,,,,,SPECI,80.0
CYTL 060700Z AUTO 15009KT 9SM OVC110 13/07 A3018 RMK SLP228,CYTL,2023-06-06T07:00:00Z,53.82,-89.88,13.0,7.0,150,9,,9.0,30.180119,1022.8,,TRUE,,,,,,,,OVC,11000,,,,,,,VFR,,,,,,,,,,,,SPECI,218.0
CYTH 060700Z 08003KT 15SM OVC240 18/15 A2992 RMK CI8 VIA CYXU SLP138 DENSITY ALT 1300FT,CYTH,2023-06-06T07:00:00Z,55.8,-97.83,18.0,15.0,80,3,,15.0,29.920275,1013.8,,,,,,,,,,OVC,24000,,,,,,,VFR,,,,,,,,,,,,METAR,212.0
CYTE 060700Z AUTO 26003KT 9SM OVC008 02/02 A3016 RMK SLP218,CYTE,2023-06-06T07:00:00Z,64.22,-76.52,2.0,2.0,260,3,,9.0,30.159449,1021.8,,TRUE,,,,,,,,OVC,800,,,,,,,IFR,,,,,,,,,,,,SPECI,49.0
CYSM 060700Z 00000KT 15SM OVC026 17/16 A2976 RMK SC8 SLP086 DENSITY ALT 1300FT,CYSM,2023-06-06T07:00:00Z,60.03,-111.92,17.0,16.0,0,0,,15.0,29.760826,1008.6,,,,,,,,,,OVC,2600,,,,,,,MVFR,,,,,,,,,,,,METAR,203.0
CYSJ 060700Z 36015G23KT 5SM -RA OVC008 07/07 A2942 RMK SF8 SLP967,CYSJ,2023-06-06T07:00:00Z,45.32,-65.88,7.0,7.0,360,15,23,5.0,29.421259,996.7,,,,,,,,,-RA,OVC,800,,,,,,,IFR,,,,,,,,,,,,SPECI,89.0
CYSF 060700Z AUTO 09004KT 9SM OVC220 17/16 A2980 RMK SLP099 DENSITY ALT 1400FT,CYSF,2023-06-06T07:00:00Z,59.25,-105.83,17.0,16.0,90,4,,9.0,29.799213,1009.9,,TRUE,,,,,,,,OVC,22000,,,,,,,VFR,,,,,,,,,,,,METAR,238.0
CYSC 060700Z AUTO 07002KT 9SM SCT120 SCT250 09/08 A2970 RMK SLP063,CYSC,2023-06-06T07:00:00Z,45.43,-71.68,9.0,8.0,70,2,,9.0,29.698818,1006.3,,TRUE,,,,,,,,SCT,12000,SCT,25000,,,,,VFR,,,,,,,,,,,,METAR,236.0
CYSB 060700Z 01013G20KT 15SM BKN240 11/04 A2999 RMK CI5 SLP159,CYSB,2023-06-06T07:00:00Z,46.63,-80.8,11.0,4.0,10,13,20,15.0,29.991142,1015.9,,,,,,,,,,BKN,24000,,,,,,,VFR,,,,,,,,,,,,METAR,349.0
CYRV 060700Z AUTO VRB02KT 9SM CLR 17/02 A3008 RMK SLP184 DENSITY ALT 1900FT,CYRV,2023-06-06T07:00:00Z,50.97,-118.17,17.0,2.0,0,2,,9.0,30.079725,1018.4,,TRUE,,,,,,,,CLR,,,,,,,,VFR,,,,,,,,,,,,METAR,456.0
CYRT 060700Z 11015G24KT 15SM SCT250 M00/M01 A3028 RMK CI4 SLP258,CYRT,2023-06-06T07:00:00Z,62.82,-92.12,0.0,-1.0,110,15,24,15.0,30.280512,1025.8,,,,,,,,,,SCT,25000,,,,,,,VFR,,,,,,,,,,,,METAR,29.0
CYRQ 060700Z AUTO VRB02KT 9SM SCT140 08/07 A2973 RMK SLP069,CYRQ,2023-06-06T07:00:00Z,46.35,-72.68,8.0,7.0,0,2,,9.0,29.731298,1006.9,,TRUE,,,,,,,,SCT,14000,,,,,,,VFR,,,,,,,,,,,,METAR,58.0
CYRJ 060700Z 31007KT 5SM FU SCT033 OVC089 12/08 A2979 RMK SC4AC4 SLP093,CYRJ,2023-06-06T07:00:00Z,48.52,-72.27,12.0,8.0,310,7,,5.0,29.790354,1009.3,,,,,,,,,FU,SCT,3300,OVC,8900,,,,,MVFR,,,,,,,,,,,,METAR,173.0
CYQZ 060700Z AUTO VRB02KT 9SM CLR 05/01 A3018 RMK SLP236,CYQZ,2023-06-06T07:00:00Z,53.02,-122.52,5.0,1.0,0,2,,9.0,30.180119,1023.6,,TRUE,,,,,,,,CLR,,,,,,,,VFR,,,,,,,,,,,,METAR,548.0
CYQY 060700Z 09019G36KT 3SM -RA BR OVC002 08/08 A2945 RMK NS8 PRESFR SLP977,CYQY,2023-06-06T07:00:00Z,46.17,-60.03,8.0,8.0,90,19,36,3.0,29.450787,997.7,,,,,,,,,-RA BR,OVC,200,,,,,,,LIFR,,,,,,,,,,,,SPECI,58.0
CYQX 060700Z 11005KT 1/8SM R13/1600V2000FT/N R03/2600V3000FT/N -DZ FG VV001 05/05 A2994 RMK FG8 SLP146,CYQX,2023-06-06T07:00:00Z,48.95,-54.58,5.0,5.0,110,5,,0.13,29.940945,1014.6,,,,,,,,,-DZ FG,OVX,0,,,,,,,LIFR,,,,,,,,,,,100,SPECI,144.0
CYQW 060700Z AUTO 08005KT 9SM CLR 17/17 A2985 RMK SLP108 DENSITY ALT 2600FT,CYQW,2023-06-06T07:00:00Z,52.77,-108.25,17.0,17.0,80,5,,9.0,29.84941,1010.8,,TRUE,,,,,,,,CLR,,,,,,,,VFR,,,,,,,,,,,,METAR,545.0
CYQV 060700Z AUTO 15006KT 9SM FEW150 21/17 A2994 RMK SLP142 DENSITY ALT 2800FT,CYQV,2023-06-06T07:00:00Z,51.27,-102.47,21.0,17.0,150,6,,9.0,29.940945,1014.2,,TRUE,,,,,,,,FEW,15000,,,,,,,VFR,,,,,,,,,,,,METAR,493.0
CYQU 060700Z 24006KT 25SM BKN090 09/M00 A3004 RMK AC6 SLP189,CYQU,2023-06-06T07:00:00Z,55.18,-118.88,9.0,0.0,240,6,,25.0,30.041338,1018.9,,,,,,,,,,BKN,9000,,,,,,,VFR,,,,,,,,,,,,METAR,668.0
CYQT 060700Z 07010KT 15SM BKN039 14/09 A3014 RMK SC7 SLP212,CYQT,2023-06-06T07:00:00Z,48.37,-89.32,14.0,9.0,70,10,,15.0,30.138779,1021.2,,,,,,,,,,BKN,3900,,,,,,,VFR,,,,,,,,,,,,METAR,197.0
CYQR 060700Z 13010KT 15SM FEW250 20/17 A2993 RMK CI2 SLP132 DENSITY ALT 2900FT,CYQR,2023-06-06T07:00:00Z,50.43,-104.67,20.0,17.0,130,10,,15.0,29.929134,1013.2,,,,,,,,,,FEW,25000,,,,,,,VFR,,,,,,,,,,,,METAR,576.0
CYQQ 060700Z 33013KT 20SM SKC 15/06 A3009 RMK DENSITY ALT 74FT SLP191,CYQQ,2023-06-06T07:00:00Z,49.72,-124.9,15.0,6.0,330,13,,20.0,30.088583,1019.1,,,,,,,,,,SKC,,,,,,,,VFR,,,,,,,,,,,,SPECI,24.0
CYQM 060700Z 02013G20KT 6SM RA BR BKN004 BKN012 OVC021 09/08 A2942 RMK ST7SC1NS1 SC TR SLP966,CYQM,2023-06-06T07:00:00Z,46.12,-64.67,9.0,8.0,20,13,20,6.0,29.421259,996.6,,,,,,,,,RA BR,BKN,400,BKN,1200,OVC,2100,,,LIFR,,,,,,,,,,,,SPECI,67.0
CYQK 060700Z 13005KT 20SM FEW031 SCT230 18/16 A3006 RMK SC2CI2 SLP182 DENSITY ALT 1900FT,CYQK,2023-06-06T07:00:00Z,49.78,-94.37,18.0,16.0,130,5,,20.0,30.059055,1018.2,,,,,,,,,,FEW,3100,SCT,23000,,,,,VFR,,,,,,,,,,,,METAR,413.0
CYQI 060700Z 34024KT 8SM SHRA BKN007 OVC017 08/08 A2938 RMK SF7SC1 SLP953,CYQI,2023-06-06T07:00:00Z,43.83,-66.08,8.0,8.0,340,24,,8.0,29.379921,995.3,,,,,,,,,SHRA,BKN,700,OVC,1700,,,,,IFR,,,,,,,,,,,,METAR,37.0
CYQH 060700Z 11003KT 050V150 20SM BKN042 06/03 A2993 RMK SC6 SLP159,CYQH,2023-06-06T07:00:00Z,60.12,-128.82,6.0,3.0,110,3,,20.0,29.929134,1015.9,,,,,,,,,,BKN,4200,,,,,,,VFR,,,,,,,,,,,,METAR,692.0
CYQG 060700Z AUTO 25003KT 9SM FEW091 15/12 A2994 RMK SLP137,CYQG,2023-06-06T07:00:00Z,42.27,-82.97,15.0,12.0,250,3,,9.0,29.940945,1013.7,,TRUE,,,,,,,,FEW,9100,,,,,,,VFR,,,,,,,,,,,,SPECI,189.0
CYQF 060700Z AUTO 34006KT 9SM CLR 10/02 A3011 RMK SLP210,CYQF,2023-06-06T07:00:00Z,52.17,-113.9,10.0,2.0,340,6,,9.0,30.109253,1021.0,,TRUE,,,,,,,,CLR,,,,,,,,VFR,,,,,,,,,,,,METAR,912.0
CYQD 060700Z AUTO 14008KT 9SM CLR 21/20 A2988 RMK SLP119 DENSITY ALT 1900FT,CYQD,2023-06-06T07:00:00Z,53.97,-101.08,21.0,20.0,140,8,,9.0,29.878937,1011.9,,TRUE,,,,,,,,CLR,,,,,,,,VFR,,,,,,,,,,,,METAR,268.0
CYQA 060700Z AUTO 35005KT 9SM CLR 13/07 A2989 RMK SLP124,CYQA,2023-06-06T07:00:00Z,44.97,-79.3,13.0,7.0,350,5,,9.0,29.890747,1012.4,,TRUE,,,,,,,,CLR,,,,,,,,VFR,,,,,,,,,,,,METAR,277.0
CYPX 060700Z AUTO 28010KT 9SM CLR 00/M01 A3032 RMK SLP273,CYPX,2023-06-06T07:00:00Z,60.03,-77.27,0.0,-1.0,280,10,,9.0,30.318897,1027.3,,TRUE,,,,,,,,CLR,,,,,,,,VFR,,,,,,,,,,,,METAR,10.0
CYPR 060700Z AUTO 03003KT 9SM FEW041 OVC060 10/07 A3033 RMK SLP273,CYPR,2023-06-06T07:00:00Z,54.28,-130.45,10.0,7.0,30,3,,9.0,30.33071,1027.3,,TRUE,,,,,,,,FEW,4100,OVC,6000,,,,,VFR,,,,,,,,,,,,METAR,30.0
CYPQ 060700Z AUTO 03002KT 9SM OVC035 11/10 A2983 RMK SLP105,CYPQ,2023-06-06T07:00:00Z,44.22,-78.37,11.0,10.0,30,2,,9.0,29.828741,1010.5,,TRUE,,,,,,,,OVC,3500,,,,,,,VFR,,,,,,,,,,,,METAR,190.0
CYPO 060700Z AUTO 08003KT 9SM CLR 02/01 A3035 RMK SLP280,CYPO,2023-06-06T07:00:00Z,54.98,-85.43,2.0,1.0,80,3,,9.0,30.351377,1028.0,,TRUE,,,,,,,,CLR,,,,,,,,VFR,,,,,,,,,,,,METAR,49.0
CYPL 060700Z AUTO 13011G17KT 9SM SCT130 OVC180 14/06 A3018 RMK SLP227,CYPL,2023-06-06T07:00:00Z,51.43,-90.22,14.0,6.0,130,11,17,9.0,30.180119,1022.7,,TRUE,,,,,,,,SCT,13000,OVC,18000,,,,,VFR,,,,,,,,,,,,SPECI,390.0
CYPH 060700Z AUTO 36005KT 9SM CLR 01/M02 A3035 RMK SLP281,CYPH,2023-06-06T07:00:00Z,58.47,-78.08,1.0,-2.0,360,5,,9.0,30.351377,1028.1,,TRUE,,,,,,,,CLR,,,,,,,,VFR,,,,,,,,,,,,METAR,24.0
CYPE 060700Z 23007KT 15SM SCT130 08/01 A3000 RMK AC4 SLP175,CYPE,2023-06-06T07:00:00Z,56.22,-117.45,8.0,1.0,230,7,,15.0,30.0,1017.5,,,,,,,,,,SCT,13000,,,,,,,VFR,,,,,,,,,,,,METAR,572.0
CYPA 060700Z 25008G18KT 180V290 15SM BKN130 BKN270 25/18 A2986 RMK AC5CI1 OCNL LTGIC DIST NW PRESRR SLP110 DENSITY ALT 2900FT,CYPA,2023-06-06T07:00:00Z,53.22,-105.67,25.0,18.0,250,8,18,15.0,29.861221,1011.0,,,,,,,,,,BKN,13000,BKN,27000,,,,,VFR,,,,,,,,,,,,METAR,428.0
CYOW 060700Z 34013G22KT 2SM FU OVC036 16/10 A2976 RMK FU6SC2 SLP081 DENSITY ALT 800FT,CYOW,2023-06-06T07:00:00Z,45.32,-75.67,16.0,10.0,340,13,22,2.0,29.760826,1008.1,,,,,,,,,FU,OVC,3600,,,,,,,IFR,,,,,,,,,,,,SPECI,111.0
CYOO 060700Z AUTO 35008KT 9SM CLR 15/10 A2983 RMK SLP104 DENSITY ALT 700FT,CYOO,2023-06-06T07:00:00Z,43.92,-78.9,15.0,10.0,350,8,,9.0,29.828741,1010.4,,TRUE,,,,,,,,CLR,,,,,,,,VFR,,,,,,,,,,,,METAR,136.0
CYNM 060700Z AUTO 33006KT 9SM FEW066 05/02 A3004 RMK SLP181,CYNM,2023-06-06T07:00:00Z,49.77,-77.78,5.0,2.0,330,6,,9.0,30.041338,1018.1,,TRUE,,,,,,,,FEW,6600,,,,,,,VFR,,,,,,,,,,,,METAR,276.0
CYNE 060700Z AUTO 17003KT 9SM CLR 21/17 A2994 RMK SLP142 DENSITY ALT 1600FT,CYNE,2023-06-06T07:00:00Z,53.97,-97.83,21.0,17.0,170,3,,9.0,29.940945,1014.2,,TRUE,,,,,,,,CLR,,,,,,,,VFR,,,,,,,,,,,,METAR,220.0
CYNA 060700Z AUTO 05011KT 9SM BKN042 OVC060 11/10 A2983 RMK SLP105,CYNA,2023-06-06T07:00:00Z,50.18,-61.78,11.0,10.0,50,11,,9.0,29.828741,1010.5,,TRUE,,,,,,,,BKN,4200,OVC,6000,,,,,VFR,,,,,,,,,,,,METAR,9.0
CYMX 060700Z VRB02KT 10SM -SHRA BKN120 16/07 A2971 RMK FU7AC1 AC TR SLP064 DENSITY ALT 700FT,CYMX,2023-06-06T07:00:00Z,45.67,-74.03,16.0,7.0,0,2,,10.0,29.71063,1006.4,,,,,,,,,-SHRA,BKN,12000,,,,,,,VFR,,,,,,,,,,,,SPECI,78.0
CYMT 060700Z AUTO 36010G19KT 9SM CLR 09/03 A2992 RMK SLP138,CYMT,2023-06-06T07:00:00Z,49.77,-74.52,9.0,3.0,360,10,19,9.0,29.920275,1013.8,,TRUE,,,,,,,,CLR,,,,,,,,VFR,,,,,,,,,,,,METAR,388.0
CYMO 060700Z AUTO 33006KT 9SM CLR 01/00 A3016 RMK SLP216,CYMO,2023-06-06T07:00:00Z,51.28,-80.62,1.0,0.0,330,6,,9.0,30.159449,1021.6,,TRUE,,,,,,,,CLR,,,,,,,,VFR,,,,,,,,,,,,METAR,8.0
CYMM 060700Z AUTO 25012G17KT 9SM BKN012 OVC017 14/13 A2991 RMK SLP135 DENSITY ALT 1500FT,CYMM,2023-06-06T07:00:00Z,56.65,-111.22,14.0,13.0,250,12,17,9.0,29.911417,1013.5,,TRUE,,,,,,,,BKN,1200,OVC,1700,,,,,MVFR,,,,,,,,,,,,METAR,371.0
CYMH 060700Z AUTO 07006KT 5/8SM -RA BR VV003 02/02 A3007 RMK SLP185,CYMH,2023-06-06T07:00:00Z,52.3,-55.82,2.0,2.0,70,6,,0.63,30.070866,1018.5,,TRUE,,,,,,,-RA BR,OVX,0,,,,,,,LIFR,,,,,,,,,,,300,SPECI,18.0
CYMA 060700Z 07005KT 020V100 15SM FEW070 SCT090 OVC120 15/08 A2984 RMK AC1AC3AC4 FU SLP119 DENSITY ALT 2200FT,CYMA,2023-06-06T07:00:00Z,63.62,-135.87,15.0,8.0,70,5,,15.0,29.840551,1011.9,,,,,,,,,,FEW,7000,SCT,9000,OVC,12000,,,VFR,,,,,,,,,,,,SPECI,519.0
CYLW 060700Z AUTO 00000KT 9SM CLR 10/02 A3010 RMK SLP194,CYLW,2023-06-06T07:00:00Z,49.95,-119.37,10.0,2.0,0,0,,9.0,30.100393,1019.4,,TRUE,,,,,,,,CLR,,,,,,,,VFR,,,,,,,,,,,,SPECI,420.0
CYLL 060700Z AUTO /////KT 9SM OVC019 16/13 A2993 RMK WIND MISG SLP133 DENSITY ALT 2800FT,CYLL,2023-06-06T07:00:00Z,53.32,-110.07,16.0,13.0,,,,9.0,29.929134,1013.3,,TRUE,,,,,,,,OVC,1900,,,,,,,MVFR,,,,,,,,,,,,SPECI,664.0
CYLH 060700Z AUTO 12008KT 9SM SCT150 OVC170 12/06 A3024 RMK SLP248,CYLH,2023-06-06T07:00:00Z,52.2,-87.93,12.0,6.0,120,8,,9.0,30.239174,1024.8,,TRUE,,,,,,,,SCT,15000,OVC,17000,,,,,VFR,,,,,,,,,,,,METAR,245.0
CYKY 060700Z 11009KT 15SM FEW080 FEW240 20/15 A2985 RMK CU1CI1 SLP098 DENSITY ALT 3500FT,CYKY,2023-06-06T07:00:00Z,51.52,-109.17,20.0,15.0,110,9,,15.0,29.84941,1009.8,,,,,,,,,,FEW,8000,FEW,24000,,,,,VFR,,,,,,,,,,,,SPECI,692.0
CYKP 060700Z AUTO 07007KT 9SM SCT230 SCT250 07/02 A3026 RMK SLP251,CYKP,2023-06-06T07:00:00Z,51.67,-85.9,7.0,2.0,70,7,,9.0,30.259842,1025.1,,TRUE,,,,,,,,SCT,23000,SCT,25000,,,,,VFR,,,,,,,,,,,,METAR,181.0
CYKJ 060700Z AUTO 21004KT 190V250 9SM FEW160 19/18 A2981 RMK SLP101 DENSITY ALT 2700FT,CYKJ,2023-06-06T07:00:00Z,57.25,-105.62,19.0,18.0,210,4,,9.0,29.811024,1010.1,,TRUE,,,,,,,,FEW,16000,,,,,,,VFR,,,,,,,,,,,,SPECI,519.0
CYKA 060700Z VRB06KT 40SM SKC 15/M01 A3013 RMK SLP206,CYKA,2023-06-06T07:00:00Z,50.7,-120.45,15.0,-1.0,0,6,,40.0,30.129921,1020.6,,,,,,,,,,SKC,,,,,,,,VFR,,,,,,,,,,,,SPECI,344.0
CYJT 060700Z 07014KT 15SM SCT023 OVC039 12/09 A2976 RMK SC3SC5 SLP079,CYJT,2023-06-06T07:00:00Z,48.55,-58.57,12.0,9.0,70,14,,15.0,29.760826,1007.9,,,,,,,,,,SCT,2300,OVC,3900,,,,,VFR,,,,,,,,,,,,SPECI,7.0
CYIV 060700Z AUTO 13009KT 9SM FEW044 18/15 A2999 RMK SLP159 DENSITY ALT 1300FT,CYIV,2023-06-06T07:00:00Z,53.85,-94.65,18.0,15.0,130,9,,9.0,29.991142,1015.9,,TRUE,,,,,,,,FEW,4400,,,,,,,VFR,,,,,,,,,,,,SPECI,234.0
CYIN 060700Z AUTO 00000KT 9SM CLR 02/M02 A3019 RMK SLP239,CYIN,2023-06-06T07:00:00Z,51.27,-121.68,2.0,-2.0,0,0,,9.0,30.188976,1023.9,,TRUE,,,,,,,,CLR,,,,,,,,VFR,,,,,,,,,,,,METAR,1127.0
CYHZ 060700Z 05008G16KT 2 1/4SM -DZ BR OVC005 10/09 A2927 RMK ST8 CIG VRB 3-7 SLP917 DENSITY ALT 700FT,CYHZ,2023-06-06T07:00:00Z,44.87,-63.5,10.0,9.0,50,8,16,2.25,29.27067,991.7,,,,,,,,,-DZ BR,OVC,500,,,,,,,IFR,,,,,,,,,,,,SPECI,136.0
CYHY 060700Z VRB02KT 12SM -RA SCT004 BKN020 OVC050 11/11 A2979 RMK ST3SC3SC2 SLP096,CYHY,2023-06-06T07:00:00Z,60.83,-115.77,11.0,11.0,0,2,,12.0,29.790354,1009.6,,,,,,,,,-RA,SCT,400,BKN,2000,OVC,5000,,,MVFR,,,,,,,,,,,,SPECI,159.0
CYHU 060700Z AUTO 02008KT 8SM CLR 14/08 A2971 RMK SLP064,CYHU,2023-06-06T07:00:00Z,45.52,-73.42,14.0,8.0,20,8,,8.0,29.71063,1006.4,,TRUE,,,,,,,,CLR,,,,,,,,VFR,,,,,,,,,,,,SPECI,26.0
CYHM 060700Z 34007KT 15SM FEW070 OVC280 16/12 A2987 RMK AC2CS6 SLP115 DENSITY ALT 1200FT,CYHM,2023-06-06T07:00:00Z,43.17,-79.93,16.0,12.0,340,7,,15.0,29.870079,1011.5,,,,,,,,,,FEW,7000,OVC,28000,,,,,VFR,,,,,,,,,,,,METAR,237.0
CYHK 060700Z AUTO 21006KT 9SM CLR 05/04 A3017 RMK SLP221,CYHK,2023-06-06T07:00:00Z,68.62,-95.85,5.0,4.0,210,6,,9.0,30.171259,1022.1,,TRUE,,,,,,,,CLR,,,,,,,,VFR,,,,,,,,,,,,SPECI,36.0
CYHE 060700Z AUTO 06005KT 020V090 9SM CLR 15/07 A3006 RMK SLP183,CYHE,2023-06-06T07:00:00Z,49.37,-121.5,15.0,7.0,60,5,,9.0,30.059055,1018.3,,TRUE,,,,,,,,CLR,,,,,,,,VFR,,,,,,,,,,,,SPECI,43.0
CYHD 060700Z AUTO 08004KT 9SM CLR 15/13 A3010 RMK SLP201,CYHD,2023-06-06T07:00:00Z,49.82,-92.75,15.0,13.0,80,4,,9.0,30.100393,1020.1,,TRUE,,,,,,,,CLR,,,,,,,,VFR,,,,,,,,,,,,SPECI,414.0
CYGW 060700Z AUTO 03002KT 9SM CLR 01/M01 A3030 RMK SLP263,CYGW,2023-06-06T07:00:00Z,55.27,-77.77,1.0,-1.0,30,2,,9.0,30.301182,1026.3,,TRUE,,,,,,,,CLR,,,,,,,,VFR,,,,,,,,,,,,SPECI,13.0
CYGP 060700Z 23002KT 2SM RA OVC012 08/08 A2976 RMK NS8 SLP079,CYGP,2023-06-06T07:00:00Z,48.77,-64.47,8.0,8.0,230,2,,2.0,29.760826,1007.9,,,,,,,,,RA,OVC,1200,,,,,,,IFR,,,,,,,,,,,,SPECI,31.0
CYGL 060700Z 05006KT 15SM FEW240 08/01 A3021 RMK CI1 SLP240,CYGL,2023-06-06T07:00:00Z,53.62,-77.7,8.0,1.0,50,6,,15.0,30.209646,1024.0,,,,,,,,,,FEW,24000,,,,,,,VFR,,,,,,,,,,,,SPECI,192.0
CYFS 060700Z 21003KT 170V260 3SM FU BKN084 OVC100 18/03 A2979 RMK FU3AC3AC2 VIS SE 1 SLP094 DENSITY ALT 1200FT,CYFS,2023-06-06T07:00:00Z,61.75,-121.22,18.0,3.0,210,3,,3.0,29.790354,1009.4,,,,,,,,,FU,BKN,8400,OVC,10000,,,,,MVFR,,,,,,,,,,,,SPECI,174.0
CYFC 060700Z AUTO 34011G16KT 7SM -RA OVC016 08/07 A2950 RMK PCPN 2.0MM PAST HR SLP992,CYFC,2023-06-06T07:00:00Z,45.87,-66.53,8.0,7.0,340,11,16,7.0,29.500984,999.2,,TRUE,,,,,,,-RA,OVC,1600,,,,,,,MVFR,,,,,,,,,,,,SPECI,16.0
CYFB 060700Z VRB02KT 30SM SCT040 01/M01 A3017 RMK SC4 SLP221,CYFB,2023-06-06T07:00:00Z,63.75,-68.55,1.0,-1.0,0,2,,30.0,30.171259,1022.1,,,,,,,,,,SCT,4000,,,,,,,VFR,,,,,,,,,,,,SPECI,23.0
CYEV 060700Z 06010KT 15SM BKN100 OVC140 13/02 A3003 RMK AC5AC3 SLP174,CYEV,2023-06-06T07:00:00Z,68.32,-133.5,13.0,2.0,60,10,,15.0,30.029528,1017.4,,,,,,,,,,BKN,10000,OVC,14000,,,,,VFR,,,,,,,,,,,,SPECI,74.0
CYET 060700Z AUTO 00000KT 9SM CLR 03/00 A3011 RMK SLP221,CYET,2023-06-06T07:00:00Z,53.57,-116.47,3.0,0.0,0,0,,9.0,30.109253,1022.1,,TRUE,,,,,,,,CLR,,,,,,,,VFR,,,,,,,,,,,,SPECI,925.0
CYER 060700Z AUTO 12008KT 9SM SCT250 03/01 A3031 RMK SLP265,CYER,2023-06-06T07:00:00Z,56.02,-87.68,3.0,1.0,120,8,,9.0,30.31004,1026.5,,TRUE,,,,,,,,SCT,25000,,,,,,,VFR,,,,,,,,,,,,METAR,11.0
CYEN 060700Z AUTO 13004KT 9SM CLR 19/17 A2996 RMK SLP143 DENSITY ALT 2800FT,CYEN,2023-06-06T07:00:00Z,49.22,-102.97,19.0,17.0,130,4,,9.0,29.958662,1014.3,,TRUE,,,,,,,,CLR,,,,,,,,VFR,,,,,,,,,,,,SPECI,580.0
CYEK 060700Z AUTO 13011KT 9SM OVC066 01/01 A3018 RMK SLP223,CYEK,2023-06-06T07:00:00Z,61.1,-94.07,1.0,1.0,130,11,,9.0,30.180119,1022.3,,TRUE,,,,,,,,OVC,6600,,,,,,,VFR,,,,,,,,,,,,SPECI,7.0
CYEG 060700Z 32005KT 20SM SCT130 09/05 A3007 RMK AC3 SLP194,CYEG,2023-06-06T07:00:00Z,53.3,-113.58,9.0,5.0,320,5,,20.0,30.070866,1019.4,,,,,,,,,,SCT,13000,,,,,,,VFR,,,,,,,,,,,,SPECI,710.0
CYDQ 060700Z AUTO 24009KT 9SM OVC086 12/M02 A3001 RMK SLP178,CYDQ,2023-06-06T07:00:00Z,55.75,-120.18,12.0,-2.0,240,9,,9.0,30.008858,1017.8,,TRUE,,,,,,,,OVC,8600,,,,,,,VFR,,,,,,,,,,,,SPECI,658.0
CYDN 060700Z AUTO 27002KT 9SM CLR 19/18 A2995 RMK ICE MISG SLP141 DENSITY ALT 1700FT,CYDN,2023-06-06T07:00:00Z,51.1,-100.05,19.0,18.0,270,2,,9.0,29.949802,1014.1,,TRUE,,,,,,,,CLR,,,,,,,,VFR,,,,,,,,,,,,SPECI,302.0
CYDF 060700Z 05012G17KT 15SM OVC008 06/06 A2991 RMK SC8 SLP130,CYDF,2023-06-06T07:00:00Z,49.22,-57.4,6.0,6.0,50,12,17,15.0,29.911417,1013.0,,,,,,,,,,OVC,800,,,,,,,IFR,,,,,,,,,,,,SPECI,15.0
CYDB 060700Z AUTO 26006KT 240V300 9SM CLR 12/M02 A2985 RMK SLP124 DENSITY ALT 3000FT,CYDB,2023-06-06T07:00:00Z,61.37,-139.02,12.0,-2.0,260,6,,9.0,29.84941,1012.4,,TRUE,,,,,,,,CLR,,,,,,,,VFR,,,,,,,,,,,,SPECI,807.0
CYCY 060700Z AUTO 26002KT 9SM OVC024 M03/M06 A3026 RMK SLP252,CYCY,2023-06-06T07:00:00Z,70.48,-68.52,-3.0,-6.0,260,2,,9.0,30.259842,1025.2,,TRUE,,,,,,,,OVC,2400,,,,,,,MVFR,,,,,,,,,,,,SPECI,73.0
CYCO 060700Z 03010KT 12SM OVC013 03/02 A3016 RMK SC8 FU SLP217,CYCO,2023-06-06T07:00:00Z,67.82,-115.15,3.0,2.0,30,10,,12.0,30.159449,1021.7,,,,,,,,,,OVC,1300,,,,,,,MVFR,,,,,,,,,,,,SPECI,20.0
CYCK 060700Z AUTO 30005KT 9SM CLR 14/08 A2992 RMK SLP132,CYCK,2023-06-06T07:00:00Z,42.3,-82.08,14.0,8.0,300,5,,9.0,29.920275,1013.2,,TRUE,,,,,,,,CLR,,,,,,,,VFR,,,,,,,,,,,,METAR,196.0
CYCA 060700Z AUTO 02010KT 7SM OVC002 01/01 A3011 RMK SLP199,CYCA,2023-06-06T07:00:00Z,53.68,-57.03,1.0,1.0,20,10,,7.0,30.109253,1019.9,,TRUE,,,,,,,,OVC,200,,,,,,,LIFR,,,,,,,,,,,,METAR,12.0
CYBX 060700Z 07016G22KT 15SM FEW007 OVC085 06/04 A2997 RMK SC1AC7 SLP151,CYBX,2023-06-06T07:00:00Z,51.45,-57.18,6.0,4.0,70,16,22,15.0,29.970472,1015.1,,,,,,,,,,FEW,700,OVC,8500,,,,,VFR,,,,,,,,,,,,SPECI,32.0
CYBU 060700Z AUTO 16007KT 9SM CLR 22/19 A2986 RMK SLP111 DENSITY ALT 2500FT,CYBU,2023-06-06T07:00:00Z,53.32,-104.0,22.0,19.0,160,7,,9.0,29.861221,1011.1,,TRUE,,,,,,,,CLR,,,,,,,,VFR,,,,,,,,,,,,SPECI,369.0
CYBR 060700Z 31003KT 15SM FEW250 18/18 A2997 RMK CI1 SLP151 DENSITY ALT 2000FT,CYBR,2023-06-06T07:00:00Z,49.92,-99.95,18.0,18.0,310,3,,15.0,29.970472,1015.1,,,,,,,,,,FEW,25000,,,,,,,VFR,,,,,,,,,,,,SPECI,405.0
CYBK 060700Z 00000KT 20SM SKC 01/M01 A3020 RMK SLP231,CYBK,2023-06-06T07:00:00Z,64.3,-96.07,1.0,-1.0,0,0,,20.0,30.200787,1023.1,,,,,,,,,,SKC,,,,,,,,VFR,,,,,,,,,,,,SPECI,14.0
CYBG 060700Z 18002KT 25SM FEW065 SCT100 BKN130 07/06 A2979 RMK SC1AC3AC3 DENSITY ALT -37FT SLP091,CYBG,2023-06-06T07:00:00Z,48.33,-70.98,7.0,6.0,180,2,,25.0,29.790354,1009.1,,,,,,,,,,FEW,6500,SCT,10000,BKN,13000,,,VFR,,,,,,,,,,,,SPECI,151.0
CYBC 060700Z AUTO 06006KT 7SM -RA FEW046 OVC060 10/09 A2981 RMK SLP096,CYBC,2023-06-06T07:00:00Z,49.13,-68.2,10.0,9.0,60,6,,7.0,29.811024,1009.6,,TRUE,,,,,,,-RA,FEW,4600,OVC,6000,,,,,VFR,,,,,,,,,,,,SPECI,20.0
CYAT 060700Z AUTO 36007KT 9SM 01/01 A3027 RMK CLD MISG SLP254,CYAT,2023-06-06T07:00:00Z,52.93,-82.43,1.0,1.0,360,7,,9.0,30.268702,1025.4,,TRUE,,,,,,,,,,,,,,,,,,,,,,,,,,,,METAR,4.0
CYAM 060700Z 05006KT 020V100 15SM FEW180 BKN220 BKN240 13/06 A3005 RMK AC2CS3CI2 SLP181,CYAM,2023-06-06T07:00:00Z,46.48,-84.52,13.0,6.0,50,6,,15.0,30.050198,1018.1,,,,,,,,,,FEW,18000,BKN,22000,BKN,24000,,,VFR,,,,,,,,,,,,SPECI,186.0
CYAH 060700Z AUTO 06004KT 9SM CLR 02/M01 A3018 RMK SLP236,CYAH,2023-06-06T07:00:00Z,53.75,-73.67,2.0,-1.0,60,4,,9.0,30.180119,1023.6,,TRUE,,,,,,,,CLR,,,,,,,,VFR,,,,,,,,,,,,SPECI,298.0
CXZV 060700Z AUTO 36003KT 09/07 RMK AO1 2PAST HR 6016 SLP108 P0001 T00860073 50002,CXZV,2023-06-06T07:00:00Z,50.22,-66.25,8.6,7.3,360,3,,,,1010.8,,TRUE,TRUE,,,,,,,,,,,,,,,,0.2,,,,,0.01,,,,,,METAR,43.0
CXZC 060700Z AUTO 32003KT 01/01 RMK AO1 SLP222 T00050007 56012,CXZC,2023-06-06T07:00:00Z,51.3,-80.62,0.5,0.7,320,3,,,,1022.2,,TRUE,TRUE,,,,,,,,,,,,,,,,-1.2,,,,,,,,,,,METAR,8.0
CXYH 060700Z AUTO 00000KT 11/04 RMK AO1 SLP083 T01090042 58007,CXYH,2023-06-06T07:00:00Z,61.25,-123.75,10.9,4.2,0,0,,,,1008.3,,TRUE,TRUE,,,,,,,,,,,,,,,,-0.7,,,,,,,,,,,METAR,197.0
CXWN 060700Z AUTO 10002KT 22/18 RMK AO1 SLP153 T02170182 58008,CXWN,2023-06-06T07:00:00Z,49.88,-97.13,21.7,18.2,100,2,,,,1015.3,,TRUE,TRUE,,,,,,,,,,,,,,,,-0.8,,,,,,,,,,,METAR,232.0
CXWM 060700Z AUTO 20007KT 20/11 RMK AO1 T02000106,CXWM,2023-06-06T07:00:00Z,49.5,-112.12,20.0,10.6,200,7,,,,,,TRUE,TRUE,,,,,,,,,,,,,,,,,,,,,,,,,,,METAR,947.0
CXVW 060700Z AUTO 16004KT 04/M00 RMK AO1 SLP193 T00391002 56006,CXVW,2023-06-06T07:00:00Z,55.1,-117.2,3.9,-0.2,160,4,,,,1019.3,,TRUE,TRUE,,,,,,,,,,,,,,,,-0.6,,,,,,,,,,,METAR,696.0
CXVN 060700Z AUTO 30005KT 18/14 RMK AO1 SLP109 T01770136 57010,CXVN,2023-06-06T07:00:00Z,43.18,-79.4,17.7,13.6,300,5,,,,1010.9,,TRUE,TRUE,,,,,,,,,,,,,,,,-1.0,,,,,,,,,,,METAR,86.0
CXVM 060700Z AUTO 32009KT 14/12 RMK AO1 T01420116,CXVM,2023-06-06T07:00:00Z,53.35,-110.88,14.2,11.6,320,9,,,,,,TRUE,TRUE,,,,,,,,,,,,,,,,,,,,,,,,,,,METAR,622.0
CXTV 060700Z AUTO 08004KT 09/02 RMK AO1 SLP186 T00890016 58013,CXTV,2023-06-06T07:00:00Z,68.75,-133.5,8.9,1.6,80,4,,,,1018.6,,TRUE,TRUE,,,,,,,,,,,,,,,,-1.3,,,,,,,,,,,METAR,91.0
CXTP 060700Z AUTO 05001KT 04/04 RMK AO1 SLP139 T00400040 57015,CXTP,2023-06-06T07:00:00Z,48.55,-53.97,4.0,4.0,50,1,,,,1013.9,,TRUE,TRUE,,,,,,,,,,,,,,,,-1.5,,,,,,,,,,,METAR,104.0
CXTO 060700Z AUTO 18/10 RMK AO1 SLP110 T01760103 56010,CXTO,2023-06-06T07:00:00Z,43.67,-79.4,17.6,10.3,,,,,,1011.0,,TRUE,TRUE,,,,,,,,,,,,,,,,-1.0,,,,,,,,,,,METAR,115.0
CXTN 060700Z AUTO 13019KT 06/M02 RMK AO1 PK WND 13026/0603 SLP230 T00591017 57011,CXTN,2023-06-06T07:00:00Z,69.2,-122.35,5.9,-1.7,130,19,,,,1023.0,,TRUE,TRUE,,,,,,,,,,,,,,,,-1.1,,,,,,,,,,,METAR,564.0
CXTH 060700Z AUTO 31015KT 12/08 RMK AO1 PK WND 30023/0653 T01240075,CXTH,2023-06-06T07:00:00Z,53.63,-111.68,12.4,7.5,310,15,,,,,,TRUE,TRUE,,,,,,,,,,,,,,,,,,,,,,,,,,,METAR,679.0
CXTD 060700Z AUTO 10013G20KT 09/08 RMK AO1 4PAST HR 6036 PK WND 10020/0651 SLP957 P0029 T00930075 50074,CXTD,2023-06-06T07:00:00Z,45.62,-61.68,9.3,7.5,100,13,20,,,995.7,,TRUE,TRUE,,,,,,,,,,,,,,,,7.4,,,,,0.29,,,,,,METAR,58.0
CXSP 060700Z AUTO 29010KT 13/10 RMK AO1 PK WND 31018/0609 T01320101,CXSP,2023-06-06T07:00:00Z,54.02,-111.27,13.2,10.1,290,10,,,,,,TRUE,TRUE,,,,,,,,,,,,,,,,,,,,,,,,,,,METAR,652.0
CXSL 060700Z AUTO 32008KT 10/04 RMK AO1 T00990044,CXSL,2023-06-06T07:00:00Z,54.28,-112.5,9.9,4.4,320,8,,,,,,TRUE,TRUE,,,,,,,,,,,,,,,,,,,,,,,,,,,METAR,680.0
CXSH 060700Z AUTO 33004KT 10/07 RMK AO1 SLP073 T00950066 55015,CXSH,2023-06-06T07:00:00Z,46.55,-72.73,9.5,6.6,330,4,,,,1007.3,,TRUE,TRUE,,,,,,,,,,,,,,,,-1.5,,,,,,,,,,,METAR,106.0
CXSE 060700Z AUTO 29006KT M01/M02 RMK AO1 SLP256 T10071017 51008,CXSE,2023-06-06T07:00:00Z,73.77,-105.28,-0.7,-1.7,290,6,,,,1025.6,,TRUE,TRUE,,,,,,,,,,,,,,,,0.8,,,,,,,,,,,METAR,11.0
CXSC 060700Z AUTO 20002KT 17/16 RMK AO1 T01690157,CXSC,2023-06-06T07:00:00Z,50.3,-110.08,16.9,15.7,200,2,,,,,,TRUE,TRUE,,,,,,,,,,,,,,,,,,,,,,,,,,,METAR,809.0
CXRL 060700Z AUTO 32010KT 12/07 RMK AO1 PK WND 35017/0635 T01210074,CXRL,2023-06-06T07:00:00Z,54.5,-111.7,12.1,7.4,320,10,,,,,,TRUE,TRUE,,,,,,,,,,,,,,,,,,,,,,,,,,,METAR,585.0
CXRH 060700Z AUTO 24001KT 09/06 RMK AO1 SLP111 T00870061 57017,CXRH,2023-06-06T07:00:00Z,49.57,-57.88,8.7,6.1,240,1,,,,1011.1,,TRUE,TRUE,,,,,,,,,,,,,,,,-1.7,,,,,,,,,,,METAR,68.0
CXRB 060700Z AUTO 35012KT M00/M01 RMK AO1 SOG 06 3011 SLP224 T10011013,CXRB,2023-06-06T07:00:00Z,74.72,-94.98,-0.1,-1.3,350,12,,,,1022.4,,TRUE,TRUE,,,,,,,,,,,,,,,,,,,,,,,,,,,METAR,30.0
CXPL 060700Z AUTO 36024KT 14/10 RMK AO1 PK WND 35032/0635 T01430095,CXPL,2023-06-06T07:00:00Z,51.13,-111.7,14.3,9.5,360,24,,,,,,TRUE,TRUE,,,,,,,,,,,,,,,,,,,,,,,,,,,METAR,735.0
CXPC 060700Z AUTO 14/06 RMK AO1 SLP139 T01440059 58001,CXPC,2023-06-06T07:00:00Z,45.35,-80.05,14.4,5.9,,,,,,1013.9,,TRUE,TRUE,,,,,,,,,,,,,,,,-0.1,,,,,,,,,,,METAR,176.0
CXPA 060700Z AUTO 23002KT 03/M00 RMK AO1 T00341001,CXPA,2023-06-06T07:00:00Z,55.62,-118.3,3.4,-0.1,230,2,,,,,,TRUE,TRUE,,,,,,,,,,,,,,,,,,,,,,,,,,,METAR,628.0
CXOY 060700Z AUTO 35017KT 17/13 RMK AO1 PK WND 35024/0631 T01730128,CXOY,2023-06-06T07:00:00Z,51.35,-110.35,17.3,12.8,350,17,,,,,,TRUE,TRUE,,,,,,,,,,,,,,,,,,,,,,,,,,,METAR,784.0
CXOX 060700Z AUTO 34002KT 19/17 RMK AO1 6PAST HR 0005 SLP115 P0014 T01880168 50036,CXOX,2023-06-06T07:00:00Z,55.15,-105.27,18.8,16.8,340,2,,,,1011.5,,TRUE,TRUE,,,,,,,,,,,,,,,,3.6,,,,,0.14,,,,,,METAR,381.0
CXOL 060700Z AUTO 34018KT 11/03 RMK AO1 PK WND 34025/0631 T01060026,CXOL,2023-06-06T07:00:00Z,51.77,-114.08,10.6,2.6,340,18,,,,,,TRUE,TRUE,,,,,,,,,,,,,,,,,,,,,,,,,,,METAR,1026.0
CXNP 060700Z AUTO 03009KT 10/10 RMK AO1 1PAST HR 8030 SLP945 P0004 T01020098 50011,CXNP,2023-06-06T07:00:00Z,45.75,-64.23,10.2,9.8,30,9,,,,994.5,,TRUE,TRUE,,,,,,,,,,,,,,,,1.1,,,,,0.04,,,,,,METAR,19.0
CXNM 060700Z AUTO 09016G25KT 06/06 RMK AO1 3PAST HR M PK WND 06028/0645 P0021 T00560057 50053,CXNM,2023-06-06T07:00:00Z,46.82,-60.67,5.6,5.7,90,16,25,,,,,TRUE,TRUE,,,,,,,,,,,,,,,,5.3,,,,,0.21,,,,,,METAR,452.0
CXMY 060700Z AUTO 09/09 RMK AO1 T00900087,CXMY,2023-06-06T07:00:00Z,44.98,-62.48,9.0,8.7,,,,,,,,TRUE,TRUE,,,,,,,,,,,,,,,,,,,,,,,,,,,METAR,37.0
CXMO 060700Z AUTO 36021KT 13/09 RMK AO1 PK WND 01037/0607 T01260094,CXMO,2023-06-06T07:00:00Z,51.67,-112.68,12.6,9.4,360,21,,,,,,TRUE,TRUE,,,,,,,,,,,,,,,,,,,,,,,,,,,METAR,837.0
CXMM 060700Z AUTO 26011KT 14/13 RMK AO1 PK WND 27017/0647 SLP135 T01430128 51029,CXMM,2023-06-06T07:00:00Z,56.65,-111.22,14.3,12.8,260,11,,,,1013.5,,TRUE,TRUE,,,,,,,,,,,,,,,,2.9,,,,,,,,,,,METAR,372.0
CXMI 060700Z AUTO 03009KT 10/09 RMK AO1 PK WND 03017/0605 SLP910 T00950092 58017,CXMI,2023-06-06T07:00:00Z,44.6,-63.53,9.5,9.2,30,9,,,,991.0,,TRUE,TRUE,,,,,,,,,,,,,,,,-1.7,,,,,,,,,,,METAR,15.0
CXMG 060700Z AUTO 22008KT 12/02 RMK AO1 T01210022,CXMG,2023-06-06T07:00:00Z,56.97,-117.45,12.1,2.2,220,8,,,,,,TRUE,TRUE,,,,,,,,,,,,,,,,,,,,,,,,,,,METAR,467.0
CXMD 060700Z AUTO 18002KT 20/18 RMK AO1 SLP150 T02000181 57008,CXMD,2023-06-06T07:00:00Z,49.18,-98.08,20.0,18.1,180,2,,,,1015.0,,TRUE,TRUE,,,,,,,,,,,,,,,,-0.8,,,,,,,,,,,METAR,297.0
CXLL 060700Z AUTO 12/07 RMK AO1 SLP094 T01160068 58010,CXLL,2023-06-06T07:00:00Z,61.12,-122.85,11.6,6.8,,,,,,1009.4,,TRUE,TRUE,,,,,,,,,,,,,,,,-1.0,,,,,,,,,,,METAR,180.0
CXLC 060700Z AUTO 08011G16KT 16/10 RMK AO1 PK WND 09018/0641 SLP119 T01580095 58018,CXLC,2023-06-06T07:00:00Z,63.6,-113.85,15.8,9.5,80,11,16,,,1011.9,,TRUE,TRUE,,,,,,,,,,,,,,,,-1.8,,,,,,,,,,,METAR,370.0
CXLB 060700Z AUTO 05008KT 10/10 RMK AO1 SLP909 T01020097 56021,CXLB,2023-06-06T07:00:00Z,44.37,-64.3,10.2,9.7,50,8,,,,990.9,,TRUE,TRUE,,,,,,,,,,,,,,,,-2.1,,,,,,,,,,,METAR,4.0
CXKT 060700Z AUTO 01006KT 10/10 RMK AO1 8PAST HR 6034 SLP928 P0007 T01040100 50018,CXKT,2023-06-06T07:00:00Z,45.07,-64.48,10.4,10.0,10,6,,,,992.8,,TRUE,TRUE,,,,,,,,,,,,,,,,1.8,,,,,0.07,,,,,,METAR,48.0
CXKM 060700Z AUTO 34022KT 13/05 RMK AO1 PK WND 34028/0652 T01330047,CXKM,2023-06-06T07:00:00Z,52.83,-111.87,13.3,4.7,340,22,,,,,,TRUE,TRUE,,,,,,,,,,,,,,,,,,,,,,,,,,,METAR,679.0
CXKI 060700Z AUTO 32005KT 08/03 RMK AO1 SLP170 T00750030 55006,CXKI,2023-06-06T07:00:00Z,48.13,-80.0,7.5,3.0,320,5,,,,1017.0,,TRUE,TRUE,,,,,,,,,,,,,,,,-0.6,,,,,,,,,,,METAR,328.0
CXKE 060700Z AUTO 28003KT 13/11 RMK AO1 SLP078 T01280108 57017,CXKE,2023-06-06T07:00:00Z,45.0,-75.63,12.8,10.8,280,3,,,,1007.8,,TRUE,TRUE,,,,,,,,,,,,,,,,-1.7,,,,,,,,,,,METAR,99.0
CXKA 060700Z AUTO 33003KT 06/01 RMK AO1 SLP223 T00570006 58005,CXKA,2023-06-06T07:00:00Z,49.4,-82.45,5.7,0.6,330,3,,,,1022.3,,TRUE,TRUE,,,,,,,,,,,,,,,,-0.5,,,,,,,,,,,METAR,221.0
CXIB 060700Z AUTO 06004KT 08/08 RMK AO1 4PAST HR 6050 SLP001 P0002 T00780076 50004,CXIB,2023-06-06T07:00:00Z,46.67,-60.4,7.8,7.6,60,4,,,,1000.1,,TRUE,TRUE,,,,,,,,,,,,,,,,0.4,,,,,0.02,,,,,,METAR,6.0
CXHR 060700Z AUTO 35030KT 12/10 RMK AO1 PK WND 34038/0656 T01230097,CXHR,2023-06-06T07:00:00Z,51.18,-112.5,12.3,9.7,350,30,,,,,,TRUE,TRUE,,,,,,,,,,,,,,,,,,,,,,,,,,,METAR,975.0
CXHP 060700Z AUTO 20007KT 08/02 RMK AO1 T00760022,CXHP,2023-06-06T07:00:00Z,55.4,-116.48,7.6,2.2,200,7,,,,,,TRUE,TRUE,,,,,,,,,,,,,,,,,,,,,,,,,,,METAR,601.0
CXHM 060700Z AUTO 22001KT 17/11 RMK AO1 SLP113 T01690113 57010,CXHM,2023-06-06T07:00:00Z,43.28,-79.9,16.9,11.3,220,1,,,,1011.3,,TRUE,TRUE,,,,,,,,,,,,,,,,-1.0,,,,,,,,,,,METAR,105.0
CXHD 060700Z AUTO 34016KT 12/03 RMK AO1 PK WND 33024/0644 T01170034,CXHD,2023-06-06T07:00:00Z,53.18,-112.25,11.7,3.4,340,16,,,,,,TRUE,TRUE,,,,,,,,,,,,,,,,,,,,,,,,,,,METAR,688.0
CXHA 060700Z AUTO 36002KT 16/12 RMK AO1 SLP137 T01590115 56007,CXHA,2023-06-06T07:00:00Z,42.03,-82.9,15.9,11.5,360,2,,,,1013.7,,TRUE,TRUE,,,,,,,,,,,,,,,,-0.7,,,,,,,,,,,METAR,193.0
CXGH 060700Z AUTO 15014KT 23/20 RMK AO1 PK WND 15018/0636 SLP155 T02330195 56007,CXGH,2023-06-06T07:00:00Z,50.63,-97.0,23.3,19.5,150,14,,,,1015.5,,TRUE,TRUE,,,,,,,,,,,,,,,,-0.7,,,,,,,,,,,METAR,217.0
CXFR 060700Z AUTO 23005KT 08/M00 RMK AO1 T00831004,CXFR,2023-06-06T07:00:00Z,56.08,-118.43,8.3,-0.4,230,5,,,,,,TRUE,TRUE,,,,,,,,,,,,,,,,,,,,,,,,,,,METAR,657.0
CXFM 060700Z AUTO 17006KT 16/14 RMK AO1 T01600141,CXFM,2023-06-06T07:00:00Z,49.48,-111.48,16.0,14.1,170,6,,,,,,TRUE,TRUE,,,,,,,,,,,,,,,,,,,,,,,,,,,METAR,884.0
CXET 060700Z AUTO 33004KT 12/10 RMK AO1 SLP126 T01160102 57009,CXET,2023-06-06T07:00:00Z,44.23,-79.78,11.6,10.2,330,4,,,,1012.6,,TRUE,TRUE,,,,,,,,,,,,,,,,-0.9,,,,,,,,,,,METAR,250.0
CXEG 060700Z AUTO 32005KT 09/04 RMK AO1 SLP191 T00940043 51010,CXEG,2023-06-06T07:00:00Z,53.3,-113.6,9.4,4.3,320,5,,,,1019.1,,TRUE,TRUE,,,,,,,,,,,,,,,,1.0,,,,,,,,,,,METAR,706.0
CXEC 060700Z AUTO 31006KT 11/05 RMK AO1 SLP189 T01050049 51010,CXEC,2023-06-06T07:00:00Z,53.57,-113.52,10.5,4.9,310,6,,,,1018.9,,TRUE,TRUE,,,,,,,,,,,,,,,,1.0,,,,,,,,,,,METAR,666.0
CXEA 060700Z AUTO 12002KT 16/15 RMK AO1 SLP186 T01620148 57008,CXEA,2023-06-06T07:00:00Z,50.63,-93.22,16.2,14.8,120,2,,,,1018.6,,TRUE,TRUE,,,,,,,,,,,,,,,,-0.8,,,,,,,,,,,METAR,351.0
CXDW 060700Z AUTO 16004KT 19/18 RMK AO1 SLP151 T01850179 56007,CXDW,2023-06-06T07:00:00Z,49.4,-98.32,18.5,17.9,160,4,,,,1015.1,,TRUE,TRUE,,,,,,,,,,,,,,,,-0.7,,,,,,,,,,,METAR,341.0
CXDK 060700Z AUTO 00000KT 08/04 RMK AO1 SLP104 T00830040 58010,CXDK,2023-06-06T07:00:00Z,61.27,-124.47,8.3,4.0,0,0,,,,1010.4,,TRUE,TRUE,,,,,,,,,,,,,,,,-1.0,,,,,,,,,,,METAR,269.0
CXDI 060700Z AUTO 33002KT 12/10 RMK AO1 SLP117 T01170100 58013,CXDI,2023-06-06T07:00:00Z,42.87,-80.55,11.7,10.0,330,2,,,,1011.7,,TRUE,TRUE,,,,,,,,,,,,,,,,-1.3,,,,,,,,,,,METAR,234.0
CXDE 060700Z AUTO 36002KT 06/06 RMK AO1 SLP134 T00620059 58003,CXDE,2023-06-06T07:00:00Z,65.22,-123.43,6.2,5.9,360,2,,,,1013.4,,TRUE,TRUE,,,,,,,,,,,,,,,,-0.3,,,,,,,,,,,METAR,208.0
CXDB 060700Z AUTO 26006KT 15/06 RMK AO1 T01500058,CXDB,2023-06-06T07:00:00Z,49.05,-112.82,15.0,5.8,260,6,,,,,,TRUE,TRUE,,,,,,,,,,,,,,,,,,,,,,,,,,,METAR,1311.0
CXCS 060700Z AUTO 32021KT 14/11 RMK AO1 PK WND 32027/0659 T01440114,CXCS,2023-06-06T07:00:00Z,51.93,-110.72,14.4,11.4,320,21,,,,,,TRUE,TRUE,,,,,,,,,,,,,,,,,,,,,,,,,,,METAR,771.0
CXCP 060700Z AUTO 35029KT 14/10 RMK AO1 PK WND 01037/0623 T01370095,CXCP,2023-06-06T07:00:00Z,50.28,-113.35,13.7,9.5,350,29,,,,,,TRUE,TRUE,,,,,,,,,,,,,,,,,,,,,,,,,,,METAR,999.0
CXCK 060700Z AUTO 11006KT 10/09 RMK AO1 3PAST HR 1008 SLP122 P0001 T01000093 50003,CXCK,2023-06-06T07:00:00Z,62.12,-136.2,10.0,9.3,110,6,,,,1012.2,,TRUE,TRUE,,,,,,,,,,,,,,,,0.3,,,,,0.01,,,,,,METAR,526.0
CXCD 060700Z AUTO 23006KT 07/M01 RMK AO1 T00721013,CXCD,2023-06-06T07:00:00Z,56.32,-119.75,7.2,-1.3,230,6,,,,,,TRUE,TRUE,,,,,,,,,,,,,,,,,,,,,,,,,,,METAR,628.0
CXCA 060700Z AUTO 01004KT 10/08 RMK AO1 SLP220 T00960083 58009,CXCA,2023-06-06T07:00:00Z,49.15,-88.35,9.6,8.3,10,4,,,,1022.0,,TRUE,TRUE,,,,,,,,,,,,,,,,-0.9,,,,,,,,,,,METAR,228.0
CXBW 060700Z AUTO 19001KT 19/13 RMK AO1 T01850133,CXBW,2023-06-06T07:00:00Z,49.8,-112.3,18.5,13.3,190,1,,,,,,TRUE,TRUE,,,,,,,,,,,,,,,,,,,,,,,,,,,METAR,823.0
CXBR 060700Z AUTO 35022KT 18/10 RMK AO1 PK WND 34034/0642 T01780098,CXBR,2023-06-06T07:00:00Z,49.62,-113.82,17.8,9.8,350,22,,,,,,TRUE,TRUE,,,,,,,,,,,,,,,,,,,,,,,,,,,METAR,1137.0
CXBO 060700Z AUTO 06009KT 10/08 RMK AO1 T01010082,CXBO,2023-06-06T07:00:00Z,46.83,-71.2,10.1,8.2,60,9,,,,,,TRUE,TRUE,,,,,,,,,,,,,,,,,,,,,,,,,,,METAR,8.0
CXBK 060700Z AUTO 13007KT 19/17 RMK AO1 T01850174 58004,CXBK,2023-06-06T07:00:00Z,50.2,-104.7,18.5,17.4,130,7,,,,,,TRUE,TRUE,,,,,,,,,,,,,,,,-0.4,,,,,,,,,,,METAR,585.0
CXBI 060700Z AUTO 36007KT 14/09 RMK AO1 SLP127 T01370088 56009,CXBI,2023-06-06T07:00:00Z,44.48,-79.55,13.7,8.8,360,7,,,,1012.7,,TRUE,TRUE,,,,,,,,,,,,,,,,-0.9,,,,,,,,,,,METAR,287.0
CXBA 060700Z AUTO 33013KT 16/13 RMK AO1 PK WND 33022/0615 T01610132,CXBA,2023-06-06T07:00:00Z,52.12,-110.1,16.1,13.2,330,13,,,,,,TRUE,TRUE,,,,,,,,,,,,,,,,,,,,,,,,,,,METAR,696.0
CXAK 060700Z AUTO 34015KT 12/07 RMK AO1 PK WND 32025/0638 T01150073,CXAK,2023-06-06T07:00:00Z,52.35,-112.6,11.5,7.3,340,15,,,,,,TRUE,TRUE,,,,,,,,,,,,,,,,,,,,,,,,,,,METAR,799.0
CXAJ 060700Z AUTO 27005KT 09/06 RMK AO1 T00890058,CXAJ,2023-06-06T07:00:00Z,54.78,-112.82,8.9,5.8,270,5,,,,,,TRUE,TRUE,,,,,,,,,,,,,,,,,,,,,,,,,,,METAR,586.0
CXAG 060700Z AUTO 31011KT 10/05 RMK AO1 PK WND 33018/0613 T01020047,CXAG,2023-06-06T07:00:00Z,53.92,-112.28,10.2,4.7,310,11,,,,,,TRUE,TRUE,,,,,,,,,,,,,,,,,,,,,,,,,,,METAR,632.0
CXAF 060700Z AUTO 32004KT 08/05 RMK AO1 T00810053,CXAF,2023-06-06T07:00:00Z,54.28,-112.97,8.1,5.3,320,4,,,,,,TRUE,TRUE,,,,,,,,,,,,,,,,,,,,,,,,,,,METAR,667.0
CWZW 060700Z AUTO 15003KT 05/04 RMK AO1 7PAST HR 3005 SLP175 P0011 T00470041 50027,CWZW,2023-06-06T07:00:00Z,60.17,-132.73,4.7,4.1,150,3,,,,1017.5,,TRUE,TRUE,,,,,,,,,,,,,,,,2.7,,,,,0.11,,,,,,METAR,683.0
CWZQ 060700Z AUTO 08034G49KT 11/08 RMK AO1 PRESFR PK WND 07049/0655 SLP950 T01100075 58071,CWZQ,2023-06-06T07:00:00Z,46.53,-61.05,11.0,7.5,80,34,49,,,995.0,,TRUE,TRUE,,,,,,,,,,,,,,,,-7.1,,,,,,,,,,,METAR,13.0
CWZO 060700Z AUTO 17007KT RMK AO1,CWZO,2023-06-06T07:00:00Z,48.57,-123.25,,,170,7,,,,,,TRUE,TRUE,,,,,,,,,,,,,,,,,,,,,,,,,,,METAR,5.0
CWZN 060700Z AUTO 06028KT 09/09 RMK AO1 PK WND 06031/0659 SLP087 T00870087 58025,CWZN,2023-06-06T07:00:00Z,47.37,-55.8,8.7,8.7,60,28,,,,1008.7,,TRUE,TRUE,,,,,,,,,,,,,,,,-2.5,,,,,,,,,,,METAR,63.0
CWZL 060700Z AUTO 31004KT 11/07 RMK AO1 SLP278 T01140073 58005,CWZL,2023-06-06T07:00:00Z,53.03,-131.6,11.4,7.3,310,4,,,,1027.8,,TRUE,TRUE,,,,,,,,,,,,,,,,-0.5,,,,,,,,,,,METAR,17.0
CWZG 060700Z AUTO 04005KT 15/09 RMK AO1 SLP148 T01460093 52016,CWZG,2023-06-06T07:00:00Z,51.2,-115.55,14.6,9.3,40,5,,,,1014.8,,TRUE,TRUE,,,,,,,,,,,,,,,,1.6,,,,,,,,,,,METAR,1402.0
CWZA 060700Z AUTO 32001KT 11/07 RMK AO1 SLP174 T01090067 50001,CWZA,2023-06-06T07:00:00Z,49.25,-121.77,10.9,6.7,320,1,,,,1017.4,,TRUE,TRUE,,,,,,,,,,,,,,,,0.1,,,,,,,,,,,METAR,18.0
CWYY 060700Z AUTO 32006KT 19/03 RMK AO1 SLP168 T01900034 51012,CWYY,2023-06-06T07:00:00Z,49.03,-119.43,19.0,3.4,320,6,,,,1016.8,,TRUE,TRUE,,,,,,,,,,,,,,,,1.2,,,,,,,,,,,METAR,284.0
CWYL 060700Z AUTO 00000KT 06/M04 RMK AO1 SLP170 T00611036 51006,CWYL,2023-06-06T07:00:00Z,51.45,-116.33,6.1,-3.6,0,0,,,,1017.0,,TRUE,TRUE,,,,,,,,,,,,,,,,0.6,,,,,,,,,,,METAR,1602.0
CWYJ 060700Z AUTO 28002KT 11/03 RMK AO1 SLP172 T01120034 57009,CWYJ,2023-06-06T07:00:00Z,48.45,-123.3,11.2,3.4,280,2,,,,1017.2,,TRUE,TRUE,,,,,,,,,,,,,,,,-0.9,,,,,,,,,,,METAR,59.0
CWXL 060700Z AUTO 17005KT 18/15 RMK AO1 SLP116 T01780153 53007,CWXL,2023-06-06T07:00:00Z,49.73,-111.45,17.8,15.3,170,5,,,,1011.6,,TRUE,TRUE,,,,,,,,,,,,,,,,0.7,,,,,,,,,,,METAR,815.0
CWXI 060700Z AUTO 05011KT 05/04 RMK AO1 SLP130 T00480035 56007,CWXI,2023-06-06T07:00:00Z,51.02,-57.1,4.8,3.5,50,11,,,,1013.0,,TRUE,TRUE,,,,,,,,,,,,,,,,-0.7,,,,,,,,,,,METAR,15.0
CWXC 060700Z AUTO 00000KT 08/04 RMK AO1 SLP094 T00770044 57005,CWXC,2023-06-06T07:00:00Z,48.88,-71.03,7.7,4.4,0,0,,,,1009.4,,TRUE,TRUE,,,,,,,,,,,,,,,,-0.5,,,,,,,,,,,METAR,306.0
CWXA 060700Z AUTO 00007KT 14/08 RMK AO1 SLP198 T01380082 51031,CWXA,2023-06-06T07:00:00Z,51.07,-115.07,13.8,8.2,0,7,,,,1019.8,,TRUE,TRUE,,,,,,,,,,,,,,,,3.1,,,,,,,,,,,METAR,1303.0
CWWZ 060700Z AUTO 26007KT 15/14 RMK AO1 SLP108 T01500137 58011,CWWZ,2023-06-06T07:00:00Z,43.25,-79.22,15.0,13.7,260,7,,,,1010.8,,TRUE,TRUE,,,,,,,,,,,,,,,,-1.1,,,,,,,,,,,METAR,75.0
CWWS 060700Z AUTO 15010KT 18/17 RMK AO1 SLP146 T01790168 56013,CWWS,2023-06-06T07:00:00Z,52.82,-97.62,17.9,16.8,150,10,,,,1014.6,,TRUE,TRUE,,,,,,,,,,,,,,,,-1.3,,,,,,,,,,,METAR,220.0
CWWL 060700Z AUTO 27004KT 11/08 RMK AO1 SLP269 T01080082 58005,CWWL,2023-06-06T07:00:00Z,53.5,-130.63,10.8,8.2,270,4,,,,1026.9,,TRUE,TRUE,,,,,,,,,,,,,,,,-0.5,,,,,,,,,,,METAR,8.0
CWWK 060700Z AUTO 08001KT 15/08 RMK AO1 SLP173 T01510075 58004,CWWK,2023-06-06T07:00:00Z,49.02,-122.78,15.1,7.5,80,1,,,,1017.3,,TRUE,TRUE,,,,,,,,,,,,,,,,-0.4,,,,,,,,,,,METAR,10.0
CWWF 060700Z AUTO 17007KT 21/17 RMK AO1 SLP137 T02090169 58004,CWWF,2023-06-06T07:00:00Z,49.7,-103.8,20.9,16.9,170,7,,,,1013.7,,TRUE,TRUE,,,,,,,,,,,,,,,,-0.4,,,,,,,,,,,METAR,583.0
CWWE 060700Z AUTO 33006KT RMK AO1 3PAST HR 6013 P0005 50013,CWWE,2023-06-06T07:00:00Z,43.98,-64.67,,,330,6,,,,,,TRUE,TRUE,,,,,,,,,,,,,,,,1.3,,,,,0.05,,,,,,METAR,4.0
CWWB 060700Z AUTO 33011KT 20/12 RMK AO1 SLP110 T01970120 58013,CWWB,2023-06-06T07:00:00Z,43.3,-79.78,19.7,12.0,330,11,,,,1011.0,,TRUE,TRUE,,,,,,,,,,,,,,,,-1.3,,,,,,,,,,,METAR,77.0
CWWA 060700Z AUTO 01001KT 15/02 RMK AO1 SLP173 T01510016 50000,CWWA,2023-06-06T07:00:00Z,49.35,-123.18,15.1,1.6,10,1,,,,1017.3,,TRUE,TRUE,,,,,,,,,,,,,,,,0.0,,,,,,,,,,,METAR,172.0
CWVU 060700Z AUTO 32027G32KT 08/08 RMK AO1 0PAST HR 8017 PK WND 32032/0639 SLP956 P0004 T00780075 50010,CWVU,2023-06-06T07:00:00Z,44.28,-66.33,7.8,7.5,320,27,32,,,995.6,,TRUE,TRUE,,,,,,,,,,,,,,,,1.0,,,,,0.04,,,,,,METAR,4.0
CWVT 060700Z AUTO 26003KT 20/16 RMK AO1 SLP117 T02030155 53006,CWVT,2023-06-06T07:00:00Z,55.83,-108.42,20.3,15.5,260,3,,,,1011.7,,TRUE,TRUE,,,,,,,,,,,,,,,,0.6,,,,,,,,,,,METAR,431.0
CWVQ 060700Z AUTO 02004KT 15/08 RMK AO1 SLP065 T01500083 56013,CWVQ,2023-06-06T07:00:00Z,45.42,-73.92,15.0,8.3,20,4,,,,1006.5,,TRUE,TRUE,,,,,,,,,,,,,,,,-1.3,,,,,,,,,,,METAR,38.0
CWVP 060700Z AUTO 22003KT 16/12 RMK AO1 SLP121 T01580122 55001,CWVP,2023-06-06T07:00:00Z,49.63,-109.52,15.8,12.2,220,3,,,,1012.1,,TRUE,TRUE,,,,,,,,,,,,,,,,-0.1,,,,,,,,,,,METAR,1269.0
CWVN 060700Z AUTO 21002KT 18/13 RMK AO1 SLP117 T01780128 55000,CWVN,2023-06-06T07:00:00Z,49.07,-107.58,17.8,12.8,210,2,,,,1011.7,,TRUE,TRUE,,,,,,,,,,,,,,,,0.0,,,,,,,,,,,METAR,792.0
CWVI 060700Z AUTO 33012KT 12/05 RMK AO1 PK WND 32022/0608 SLP168 T01160049 51022,CWVI,2023-06-06T07:00:00Z,53.52,-112.1,11.6,4.9,330,12,,,,1016.8,,TRUE,TRUE,,,,,,,,,,,,,,,,2.2,,,,,,,,,,,METAR,640.0
CWVF 060700Z AUTO 31025KT 17/11 RMK AO1 PK WND 31029/0642 T01660106,CWVF,2023-06-06T07:00:00Z,49.1,-123.3,16.6,10.6,310,25,,,,,,TRUE,TRUE,,,,,,,,,,,,,,,,,,,,,,,,,,,METAR,13.0
CWUX 060700Z AUTO 16003KT 07/06 RMK AO1 SLP096 T00720055 55008,CWUX,2023-06-06T07:00:00Z,48.3,-70.93,7.2,5.5,160,3,,,,1009.6,,TRUE,TRUE,,,,,,,,,,,,,,,,-0.8,,,,,,,,,,,METAR,150.0
CWUW 060700Z AUTO 09016KT ////SM ////// M06/M07 A3011,CWUW,2023-06-06T07:00:00Z,68.62,-71.12,-6.0,-7.0,90,16,,,30.109253,,,TRUE,,,,,,,,,,,,,,,,,,,,,,,,,,,,SPECI,173.0
CWUS 060700Z AUTO 26006KT 17/M02 RMK AO1 SLP182 T01651024 51005,CWUS,2023-06-06T07:00:00Z,49.57,-119.65,16.5,-2.4,260,6,,,,1018.2,,TRUE,TRUE,,,,,,,,,,,,,,,,0.5,,,,,,,,,,,METAR,455.0
CWTY 060700Z AUTO 07002KT 14/10 RMK AO1 SLP070 T01360099 56012,CWTY,2023-06-06T07:00:00Z,46.35,-72.52,13.6,9.9,70,2,,,,1007.0,,TRUE,TRUE,,,,,,,,,,,,,,,,-1.2,,,,,,,,,,,METAR,8.0
CWTT 060700Z AUTO 02001KT 09/07 RMK AO1 T00880067,CWTT,2023-06-06T07:00:00Z,45.27,-72.17,8.8,6.7,20,1,,,,,,TRUE,TRUE,,,,,,,,,,,,,,,,,,,,,,,,,,,METAR,210.0
CWTN 060700Z AUTO 13003KT 08/07 RMK AO1 SLP081 T00770072 55007,CWTN,2023-06-06T07:00:00Z,47.07,-70.78,7.7,7.2,130,3,,,,1008.1,,TRUE,TRUE,,,,,,,,,,,,,,,,-0.7,,,,,,,,,,,METAR,5.0
CWTG 060700Z AUTO 03011G17KT 09/08 RMK AO1 3PAST HR 8013 PK WND 04019/0624 SLP096 P0001 T00900079 50003,CWTG,2023-06-06T07:00:00Z,49.32,-67.37,9.0,7.9,30,11,17,,,1009.6,,TRUE,TRUE,,,,,,,,,,,,,,,,0.3,,,,,0.01,,,,,,METAR,6.0
CWTA 060700Z AUTO 36005KT 16/08 RMK AO1 SLP064 T01550077 56009,CWTA,2023-06-06T07:00:00Z,45.5,-73.58,15.5,7.7,360,5,,,,1006.4,,TRUE,TRUE,,,,,,,,,,,,,,,,-0.9,,,,,,,,,,,METAR,71.0
CWST 060700Z AUTO 04008G15KT 08/08 RMK AO1 SLP081 T00790076 56011,CWST,2023-06-06T07:00:00Z,47.35,-70.02,7.9,7.6,40,8,15,,,1008.1,,TRUE,TRUE,,,,,,,,,,,,,,,,-1.1,,,,,,,,,,,METAR,31.0
CWSS 060700Z AUTO 33005KT 09/08 RMK AO1 6PAST HR 6029 SLP995 P0002 T00930084 50006,CWSS,2023-06-06T07:00:00Z,45.2,-67.25,9.3,8.4,330,5,,,,999.5,,TRUE,TRUE,,,,,,,,,,,,,,,,0.6,,,,,0.02,,,,,,METAR,27.0
CWSR 060700Z AUTO 19003KT 18/16 RMK AO1 SLP108 T01760159 55014,CWSR,2023-06-06T07:00:00Z,53.37,-107.55,17.6,15.9,190,3,,,,1010.8,,TRUE,TRUE,,,,,,,,,,,,,,,,-1.4,,,,,,,,,,,METAR,589.0
CWSP 060700Z AUTO 00000KT 12/02 RMK AO1 SLP175 T01160016 58010,CWSP,2023-06-06T07:00:00Z,48.38,-123.92,11.6,1.6,0,0,,,,1017.5,,TRUE,TRUE,,,,,,,,,,,,,,,,-1.0,,,,,,,,,,,METAR,2.0
CWSL 060700Z AUTO 16003KT 13/01 RMK AO1 SLP197 T01300010 53004,CWSL,2023-06-06T07:00:00Z,50.7,-119.28,13.0,1.0,160,3,,,,1019.7,,TRUE,TRUE,,,,,,,,,,,,,,,,0.4,,,,,,,,,,,METAR,353.0
CWSK 060700Z AUTO 36001KT 11/06 RMK AO1 SLP178 T01080058 50003,CWSK,2023-06-06T07:00:00Z,49.78,-123.17,10.8,5.8,360,1,,,,1017.8,,TRUE,TRUE,,,,,,,,,,,,,,,,0.3,,,,,,,,,,,METAR,59.0
CWSG 060700Z AUTO 05010KT 08/07 RMK AO1 2PAST HR 8013 SLP092 P0005 T00770073 50012,CWSG,2023-06-06T07:00:00Z,49.12,-66.65,7.7,7.3,50,10,,,,1009.2,,TRUE,TRUE,,,,,,,,,,,,,,,,1.2,,,,,0.05,,,,,,METAR,5.0
CWSF 060700Z AUTO 04001KT 07/07 RMK AO1 8PAST HR 6020 SLP092 P0003 T00740070 50008,CWSF,2023-06-06T07:00:00Z,49.25,-65.32,7.4,7.0,40,1,,,,1009.2,,TRUE,TRUE,,,,,,,,,,,,,,,,0.8,,,,,0.03,,,,,,METAR,15.0
CWSD 060700Z AUTO 06020G27KT 09/09 RMK AO1 3PAST HR 6042 PK WND 06031/0638 SLP969 P0005 T00900089 50013,CWSD,2023-06-06T07:00:00Z,46.43,-63.85,9.0,8.9,60,20,27,,,996.9,,TRUE,TRUE,,,,,,,,,,,,,,,,1.3,,,,,0.05,,,,,,METAR,12.0
CWSA 060700Z AUTO 17012KT 3SM BR 09/09 A2938 RMK CLD MISG SLP951,CWSA,2023-06-06T07:00:00Z,43.93,-60.0,9.0,9.0,170,12,,3.0,29.379921,995.1,,TRUE,,,,,,,BR,,,,,,,,,,,,,,,,,,,,,SPECI,4.0
CWRZ 060700Z AUTO 04023KT 09/08 RMK AO1 PK WND 04027/0657 SLP056 T00860079 57031,CWRZ,2023-06-06T07:00:00Z,48.42,-64.32,8.6,7.9,40,23,,,,1005.6,,TRUE,TRUE,,,,,,,,,,,,,,,,-3.1,,,,,,,,,,,METAR,16.0
CWRY 060700Z AUTO 20001KT 16/12 RMK AO1 SLP122 T01640123 53002,CWRY,2023-06-06T07:00:00Z,49.12,-112.05,16.4,12.3,200,1,,,,1012.2,,TRUE,TRUE,,,,,,,,,,,,,,,,0.2,,,,,,,,,,,METAR,1048.0
CWRX 060700Z AUTO ///// ////SM ////// M02/M02 A3018,CWRX,2023-06-06T07:00:00Z,69.07,-79.07,-2.0,-2.0,,,,,30.180119,,,TRUE,,,,,,,,,,,,,,,,,,,,,,,,,,,,SPECI,39.0
CWRU 060700Z AUTO 34026KT 11/ RMK AO1 PK WND 01031/0622 SLP217 T0107 50000,CWRU,2023-06-06T07:00:00Z,50.12,-127.93,10.7,,340,26,,,,1021.7,,TRUE,TRUE,,,,,,,,,,,,,,,,0.0,,,,,,,,,,,METAR,76.0
CWRT 060700Z AUTO 20002KT 08/04 RMK AO1 SLP151 T00800038 53013,CWRT,2023-06-06T07:00:00Z,49.62,-114.47,8.0,3.8,200,2,,,,1015.1,,TRUE,TRUE,,,,,,,,,,,,,,,,1.3,,,,,,,,,,,METAR,1311.0
CWRN 060700Z AUTO 10014G19KT 08/07 RMK AO1 PK WND 09025/0607 SLP950 T00760073 56028,CWRN,2023-06-06T07:00:00Z,45.35,-60.98,7.6,7.3,100,14,19,,,995.0,,TRUE,TRUE,,,,,,,,,,,,,,,,-2.8,,,,,,,,,,,METAR,8.0
CWRM 060700Z AUTO 33003KT 07/04 RMK AO1 SLP186 T00700037 50012,CWRM,2023-06-06T07:00:00Z,52.42,-114.92,7.0,3.7,330,3,,,,1018.6,,TRUE,TRUE,,,,,,,,,,,,,,,,1.2,,,,,,,,,,,METAR,986.0
CWRK 060700Z AUTO 00000KT 06/06 RMK AO1 SLP111 T00550061 58012,CWRK,2023-06-06T07:00:00Z,45.07,-77.87,5.5,6.1,0,0,,,,1011.1,,TRUE,TRUE,,,,,,,,,,,,,,,,-1.2,,,,,,,,,,,METAR,328.0
CWRJ 060700Z AUTO 20005KT 18/13 RMK AO1 SLP105 T01790132 50002,CWRJ,2023-06-06T07:00:00Z,51.57,-107.92,17.9,13.2,200,5,,,,1010.5,,TRUE,TRUE,,,,,,,,,,,,,,,,0.2,,,,,,,,,,,METAR,586.0
CWRA 060700Z AUTO 04013KT 05/05 RMK AO1 PK WND 04018/0601 SLP118 T00450054 56016,CWRA,2023-06-06T07:00:00Z,46.65,-53.07,4.5,5.4,40,13,,,,1011.8,,TRUE,TRUE,,,,,,,,,,,,,,,,-1.6,,,,,,,,,,,METAR,4.0
CWQV 060700Z AUTO 08003KT 09/ RMK AO1 T0089,CWQV,2023-06-06T07:00:00Z,48.27,-70.12,8.9,,80,3,,,,,,TRUE,TRUE,,,,,,,,,,,,,,,,,,,,,,,,,,,METAR,4.0
CWQS 060700Z AUTO 09003KT 09/07 RMK AO1 SLP274 T00900072 58006,CWQS,2023-06-06T07:00:00Z,53.32,-132.77,9.0,7.2,90,3,,,,1027.4,,TRUE,TRUE,,,,,,,,,,,,,,,,-0.6,,,,,,,,,,,METAR,10.0
CWQR 060700Z AUTO 04009KT 06/06 RMK AO1 T00620059,CWQR,2023-06-06T07:00:00Z,50.22,-64.22,6.2,5.9,40,9,,,,,,TRUE,TRUE,,,,,,,,,,,,,,,,,,,,,,,,,,,METAR,9.0
CWQP 060700Z AUTO 32008KT 15/11 RMK AO1 SLP094 T01470110 56017,CWQP,2023-06-06T07:00:00Z,43.83,-77.15,14.7,11.0,320,8,,,,1009.4,,TRUE,TRUE,,,,,,,,,,,,,,,,-1.7,,,,,,,,,,,METAR,77.0
CWQO 060700Z AUTO 05014KT 07/07 RMK AO1 PK WND 04018/0627 T00720071,CWQO,2023-06-06T07:00:00Z,48.42,-68.9,7.2,7.1,50,14,,,,,,TRUE,TRUE,,,,,,,,,,,,,,,,,,,,,,,,,,,METAR,7.0
CWQK 060700Z AUTO 26007KT 14/02 RMK AO1 SLP171 T01360020 58009,CWQK,2023-06-06T07:00:00Z,48.3,-123.53,13.6,2.0,260,7,,,,1017.1,,TRUE,TRUE,,,,,,,,,,,,,,,,-0.9,,,,,,,,,,,METAR,5.0
CWQH 060700Z AUTO 07001KT 09/08 RMK AO1 SLP062 T00910084 56014,CWQH,2023-06-06T07:00:00Z,45.37,-71.82,9.1,8.4,70,1,,,,1006.2,,TRUE,TRUE,,,,,,,,,,,,,,,,-1.4,,,,,,,,,,,METAR,181.0
CWPZ 060700Z AUTO 33002KT M00/M02 RMK AO1 SLP247 T10041022 51010,CWPZ,2023-06-06T07:00:00Z,54.38,-125.97,-0.4,-2.2,330,2,,,,1024.7,,TRUE,TRUE,,,,,,,,,,,,,,,,1.0,,,,,,,,,,,METAR,715.0
CWPR 060700Z AUTO 28002KT 11/M02 RMK AO1 SLP202 T01101020 51015,CWPR,2023-06-06T07:00:00Z,49.47,-120.52,11.0,-2.0,280,2,,,,1020.2,,TRUE,TRUE,,,,,,,,,,,,,,,,1.5,,,,,,,,,,,METAR,703.0
CWPO 060700Z AUTO 17006KT 19/19 RMK AO1 SLP163 T01860186 56007,CWPO,2023-06-06T07:00:00Z,49.2,-98.9,18.6,18.6,170,6,,,,1016.3,,TRUE,TRUE,,,,,,,,,,,,,,,,-0.7,,,,,,,,,,,METAR,471.0
CWPE 060700Z AUTO 34008KT 08/07 RMK AO1 2PAST HR 6028 PK WND 35018/0614 SLP969 P0005 T00800071 50012,CWPE,2023-06-06T07:00:00Z,45.07,-66.47,8.0,7.1,340,8,,,,996.9,,TRUE,TRUE,,,,,,,,,,,,,,,,1.2,,,,,0.05,,,,,,METAR,9.0
CWPD 060700Z AUTO 02004KT 07/01 RMK AO1 SLP052 T00740006 56011,CWPD,2023-06-06T07:00:00Z,47.57,-71.22,7.4,0.6,20,4,,,,1005.2,,TRUE,TRUE,,,,,,,,,,,,,,,,-1.1,,,,,,,,,,,METAR,795.0
CWOY 060700Z AUTO 17008KT 22/16 RMK AO1 SLP126 T02150163 58005,CWOY,2023-06-06T07:00:00Z,51.77,-104.2,21.5,16.3,170,8,,,,1012.6,,TRUE,TRUE,,,,,,,,,,,,,,,,-0.5,,,,,,,,,,,METAR,557.0
CWOE 060700Z AUTO 01008KT 18/14 RMK AO1 SLP109 T01790142 56005,CWOE,2023-06-06T07:00:00Z,49.12,-110.47,17.9,14.2,10,8,,,,1010.9,,TRUE,TRUE,,,,,,,,,,,,,,,,-0.5,,,,,,,,,,,METAR,931.0
CWOD 060700Z AUTO 34010G15KT 14/07 RMK AO1 PK WND 35019/0618 SLP096 T01400066 56010,CWOD,2023-06-06T07:00:00Z,48.85,-72.55,14.0,6.6,340,10,15,,,1009.6,,TRUE,TRUE,,,,,,,,,,,,,,,,-1.0,,,,,,,,,,,METAR,150.0
CWOC 060700Z AUTO 03007KT 10/09 RMK AO1 2PAST HR 6035 SLP039 P0001 T01000091 50002,CWOC,2023-06-06T07:00:00Z,48.02,-65.32,10.0,9.1,30,7,,,,1003.9,,TRUE,TRUE,,,,,,,,,,,,,,,,0.2,,,,,0.01,,,,,,METAR,42.0
CWOB 060700Z AUTO 00000KT ////SM ////// ///// A3012,CWOB,2023-06-06T07:00:00Z,63.33,-64.15,,,0,0,,,30.121063,,,TRUE,,,,,,,,,,,,,,,,,,,,,,,,,,,,SPECI,369.0
CWNZ 060700Z AUTO 36003KT 06/04 RMK AO1 SLP236 T00560040 58001,CWNZ,2023-06-06T07:00:00Z,49.75,-84.17,5.6,4.0,360,3,,,,1023.6,,TRUE,TRUE,,,,,,,,,,,,,,,,-0.1,,,,,,,,,,,METAR,261.0
CWNQ 060700Z AUTO 09001KT 11/08 RMK AO1 SLP065 T01080080 58010,CWNQ,2023-06-06T07:00:00Z,46.22,-72.65,10.8,8.0,90,1,,,,1006.5,,TRUE,TRUE,,,,,,,,,,,,,,,,-1.0,,,,,,,,,,,METAR,9.0
CWNP 060700Z AUTO 09003KT 12/01 RMK AO1 SLP169 T01200005 52014,CWNP,2023-06-06T07:00:00Z,50.27,-117.82,12.0,0.5,90,3,,,,1016.9,,TRUE,TRUE,,,,,,,,,,,,,,,,1.4,,,,,,,,,,,METAR,517.0
CWNM 060700Z AUTO 22001KT 14/05 RMK AO1 SLP152 T01380049 51023,CWNM,2023-06-06T07:00:00Z,49.5,-117.3,13.8,4.9,220,1,,,,1015.2,,TRUE,TRUE,,,,,,,,,,,,,,,,2.3,,,,,,,,,,,METAR,533.0
CWNK 060700Z AUTO 14004KT 21/18 RMK AO1 SLP150 T02050182 56006,CWNK,2023-06-06T07:00:00Z,49.5,-98.03,20.5,18.2,140,4,,,,1015.0,,TRUE,TRUE,,,,,,,,,,,,,,,,-0.6,,,,,,,,,,,METAR,271.0
CWNH 060700Z AUTO 36006KT 06/06 RMK AO1 SLP085 T00550055 56013,CWNH,2023-06-06T07:00:00Z,47.8,-69.53,5.5,5.5,360,6,,,,1008.5,,TRUE,TRUE,,,,,,,,,,,,,,,,-1.3,,,,,,,,,,,METAR,147.0
CWNE 060700Z AUTO 05028KT 08/08 RMK AO1 2PAST HR 8049 PK WND 05032/0657 SLP986 P0009 T00760076 50022,CWNE,2023-06-06T07:00:00Z,47.07,-64.0,7.6,7.6,50,28,,,,998.6,,TRUE,TRUE,,,,,,,,,,,,,,,,2.2,,,,,0.09,,,,,,METAR,5.0
CWND 060700Z AUTO 05010KT 02/00 RMK AO1 SLP171 T00170000 56015,CWND,2023-06-06T07:00:00Z,69.63,-135.43,1.7,0.0,50,10,,,,1017.1,,TRUE,TRUE,,,,,,,,,,,,,,,,-1.5,,,,,,,,,,,METAR,14.0
CWNC 060700Z AUTO 01003KT 13/11 RMK AO1 SLP096 T01340114 58012,CWNC,2023-06-06T07:00:00Z,43.95,-78.17,13.4,11.4,10,3,,,,1009.6,,TRUE,TRUE,,,,,,,,,,,,,,,,-1.2,,,,,,,,,,,METAR,71.0
CWMT 060700Z AUTO 04001KT 16/14 RMK AO1 SLP092 T01620135 58024,CWMT,2023-06-06T07:00:00Z,63.13,-117.25,16.2,13.5,40,1,,,,1009.2,,TRUE,TRUE,,,,,,,,,,,,,,,,-2.4,,,,,,,,,,,SPECI,274.0
CWMQ 060700Z AUTO 23003KT 17/15 RMK AO1 SLP109 T01690151 55001,CWMQ,2023-06-06T07:00:00Z,49.9,-109.47,16.9,15.1,230,3,,,,1010.9,,TRUE,TRUE,,,,,,,,,,,,,,,,-0.1,,,,,,,,,,,METAR,767.0
CWMM 060700Z AUTO 02001KT 14/07 RMK AO1 SLP172 T01420073 58001,CWMM,2023-06-06T07:00:00Z,49.22,-122.68,14.2,7.3,20,1,,,,1017.2,,TRUE,TRUE,,,,,,,,,,,,,,,,-0.1,,,,,,,,,,,METAR,2.0
CWMJ 060700Z AUTO 04002KT 10/10 RMK AO1 SLP095 T00980098 56013,CWMJ,2023-06-06T07:00:00Z,46.27,-76.0,9.8,9.8,40,2,,,,1009.5,,TRUE,TRUE,,,,,,,,,,,,,,,,-1.3,,,,,,,,,,,METAR,198.0
CWME 060700Z AUTO 15002KT 10/08 RMK AO1 SLP244 T00950081 58003,CWME,2023-06-06T07:00:00Z,52.18,-127.47,9.5,8.1,150,2,,,,1024.4,,TRUE,TRUE,,,,,,,,,,,,,,,,-0.3,,,,,,,,,,,METAR,23.0
CWLY 060700Z AUTO VRB02KT 9SM CLR 14/02 A3009 RMK SLP192,CWLY,2023-06-06T07:00:00Z,50.22,-121.58,14.0,2.0,0,2,,9.0,30.088583,1019.2,,TRUE,,,,,,,,CLR,,,,,,,,VFR,,,,,,,,,,,,SPECI,228.0
CWLX 060700Z AUTO ///// ////SM ////// M04/M04 A3019,CWLX,2023-06-06T07:00:00Z,68.9,-75.15,-4.0,-4.0,,,,,30.188976,,,TRUE,,,,,,,,,,,,,,,,,,,,,,,,,,,,SPECI,129.0
CWLS 060700Z AUTO 36002KT 12/11 RMK AO1 SLP131 T01170109 56013,CWLS,2023-06-06T07:00:00Z,43.97,-80.75,11.7,10.9,360,2,,,,1013.1,,TRUE,TRUE,,,,,,,,,,,,,,,,-1.3,,,,,,,,,,,METAR,413.0
CWLP 060700Z AUTO 30017KT 10/08 RMK AO1 PK WND 31021/0658 SLP238 T01020075 58011,CWLP,2023-06-06T07:00:00Z,50.93,-127.63,10.2,7.5,300,17,,,,1023.8,,TRUE,TRUE,,,,,,,,,,,,,,,,-1.1,,,,,,,,,,,METAR,15.0
CWLM 060700Z AUTO 29004KT 13/05 RMK AO1 SLP173 T01300046 58009,CWLM,2023-06-06T07:00:00Z,48.42,-123.32,13.0,4.6,290,4,,,,1017.3,,TRUE,TRUE,,,,,,,,,,,,,,,,-0.9,,,,,,,,,,,METAR,62.0
CWLE 060700Z AUTO 19009KT 19/13 RMK AO1 SLP116 T01900126 58001,CWLE,2023-06-06T07:00:00Z,50.95,-107.15,19.0,12.6,190,9,,,,1011.6,,TRUE,TRUE,,,,,,,,,,,,,,,,-0.1,,,,,,,,,,,METAR,666.0
CWLC 060700Z AUTO 00000KT 10/07 RMK AO1 T00980074,CWLC,2023-06-06T07:00:00Z,54.3,-130.62,9.8,7.4,0,0,,,,,,TRUE,TRUE,,,,,,,,,,,,,,,,,,,,,,,,,,,METAR,27.0
CWLB 060700Z AUTO 31007KT 12/06 RMK AO1 SLP171 T01150064 53020,CWLB,2023-06-06T07:00:00Z,54.77,-112.02,11.5,6.4,310,7,,,,1017.1,,TRUE,TRUE,,,,,,,,,,,,,,,,2.0,,,,,,,,,,,METAR,561.0
CWKX 060700Z AUTO 20006KT 03/03 RMK AO1 1PAST HR 0001 SLP211 P0008 T00330026 50021,CWKX,2023-06-06T07:00:00Z,58.43,-130.02,3.3,2.6,200,6,,,,1021.1,,TRUE,TRUE,,,,,,,,,,,,,,,,2.1,,,,,0.08,,,,,,METAR,807.0
CWKO 060700Z AUTO 15009KT 20/14 RMK AO1 SLP135 T01970135 58008,CWKO,2023-06-06T07:00:00Z,49.17,-105.97,19.7,13.5,150,9,,,,1013.5,,TRUE,TRUE,,,,,,,,,,,,,,,,-0.8,,,,,,,,,,,METAR,914.0
CWKM 060700Z AUTO 08007KT ////SM SCT110 02/01 A3011,CWKM,2023-06-06T07:00:00Z,69.6,-140.17,2.0,1.0,80,7,,,30.109253,,,TRUE,,,,,,,,SCT,11000,,,,,,,,,,,,,,,,,,,SPECI,8.0
CWKH 060700Z AUTO 14/M05 RMK AO1 SLP166 T01411046 57009,CWKH,2023-06-06T07:00:00Z,48.57,-123.55,14.1,-4.6,,,,,,1016.6,,TRUE,TRUE,,,,,,,,,,,,,,,,-0.9,,,,,,,,,,,METAR,327.0
CWKG 060700Z AUTO 34004KT 09/08 RMK AO1 SLP928 T00860083 56022,CWKG,2023-06-06T07:00:00Z,44.43,-65.2,8.6,8.3,340,4,,,,992.8,,TRUE,TRUE,,,,,,,,,,,,,,,,-2.2,,,,,,,,,,,METAR,154.0
CWJX 060700Z AUTO 17007KT 20/16 RMK AO1 SLP094 T02020162 58002,CWJX,2023-06-06T07:00:00Z,50.88,-109.5,20.2,16.2,170,7,,,,1009.4,,TRUE,TRUE,,,,,,,,,,,,,,,,-0.2,,,,,,,,,,,METAR,671.0
CWJW 060700Z AUTO 09004KT 08/M05 RMK AO1 SLP206 T00801046 52010,CWJW,2023-06-06T07:00:00Z,52.93,-118.03,8.0,-4.6,90,4,,,,1020.6,,TRUE,TRUE,,,,,,,,,,,,,,,,1.0,,,,,,,,,,,METAR,1022.0
CWJV 060700Z AUTO 06001KT 12/02 RMK AO1 SLP193 T01210017 51005,CWJV,2023-06-06T07:00:00Z,50.22,-119.18,12.1,1.7,60,1,,,,1019.3,,TRUE,TRUE,,,,,,,,,,,,,,,,0.5,,,,,,,,,,,METAR,487.0
CWJU 060700Z AUTO 20007KT 09/08 RMK AO1 SLP275 T00890084 58004,CWJU,2023-06-06T07:00:00Z,54.25,-133.07,8.9,8.4,200,7,,,,1027.5,,TRUE,TRUE,,,,,,,,,,,,,,,,-0.4,,,,,,,,,,,METAR,47.0
CWJT 060700Z AUTO 00000KT 08/07 RMK AO1 SLP078 T00760066 56016,CWJT,2023-06-06T07:00:00Z,46.07,-74.57,7.6,6.6,0,0,,,,1007.8,,TRUE,TRUE,,,,,,,,,,,,,,,,-1.6,,,,,,,,,,,METAR,236.0
CWJR 060700Z AUTO 33004KT 18/04 RMK AO1 SLP135 T01800037 51020,CWJR,2023-06-06T07:00:00Z,49.03,-116.5,18.0,3.7,330,4,,,,1013.5,,TRUE,TRUE,,,,,,,,,,,,,,,,2.0,,,,,,,,,,,METAR,642.0
CWJO 060700Z AUTO 00013KT 10/06 RMK AO1 SLP090 T00980057 56007,CWJO,2023-06-06T07:00:00Z,48.43,-71.15,9.8,5.7,0,13,,,,1009.0,,TRUE,TRUE,,,,,,,,,,,,,,,,-0.7,,,,,,,,,,,METAR,113.0
CWJI 060700Z AUTO 17006KT 20/14 RMK AO1 SLP123 T02020139 58008,CWJI,2023-06-06T07:00:00Z,49.72,-105.93,20.2,13.9,170,6,,,,1012.3,,TRUE,TRUE,,,,,,,,,,,,,,,,-0.8,,,,,,,,,,,METAR,724.0
CWJH 060700Z AUTO 17003KT 19/18 RMK AO1 3PAST HR 5012 SLP114 P0005 T01920180 50013,CWJH,2023-06-06T07:00:00Z,56.32,-103.27,19.2,18.0,170,3,,,,1011.4,,TRUE,TRUE,,,,,,,,,,,,,,,,1.3,,,,,0.05,,,,,,METAR,345.0
CWJD 060700Z AUTO 18001KT 17/16 RMK AO1 SLP131 T01680155 58011,CWJD,2023-06-06T07:00:00Z,53.18,-99.27,16.8,15.5,180,1,,,,1013.1,,TRUE,TRUE,,,,,,,,,,,,,,,,-1.1,,,,,,,,,,,METAR,222.0
CWJC 060700Z AUTO 13010KT 09/09 RMK AO1 SLP168 T00910089 56012,CWJC,2023-06-06T07:00:00Z,61.13,-100.9,9.1,8.9,130,10,,,,1016.8,,TRUE,TRUE,,,,,,,,,,,,,,,,-1.2,,,,,,,,,,,METAR,340.0
CWJB 060700Z AUTO 10/08 RMK AO1 T00950083,CWJB,2023-06-06T07:00:00Z,46.78,-71.28,9.5,8.3,,,,,,,,TRUE,TRUE,,,,,,,,,,,,,,,,,,,,,,,,,,,METAR,90.0
CWIZ 060700Z AUTO 35004KT 14/08 RMK AO1 T01410082,CWIZ,2023-06-06T07:00:00Z,45.28,-73.33,14.1,8.2,350,4,,,,,,TRUE,TRUE,,,,,,,,,,,,,,,,,,,,,,,,,,,METAR,45.0
CWIW 060700Z AUTO 17007KT 20/18 RMK AO1 SLP120 T02000176 56002,CWIW,2023-06-06T07:00:00Z,51.67,-105.4,20.0,17.6,170,7,,,,1012.0,,TRUE,TRUE,,,,,,,,,,,,,,,,-0.2,,,,,,,,,,,METAR,524.0
CWIT 060700Z AUTO 29004KT 13/08 RMK AO1 SLP062 T01320082 56012,CWIT,2023-06-06T07:00:00Z,45.17,-73.67,13.2,8.2,290,4,,,,1006.2,,TRUE,TRUE,,,,,,,,,,,,,,,,-1.2,,,,,,,,,,,METAR,53.0
CWIS 060700Z AUTO 04007KT 07/03 RMK AO1 SLP077 T00700034 56013,CWIS,2023-06-06T07:00:00Z,47.28,-70.63,7.0,3.4,40,7,,,,1007.7,,TRUE,TRUE,,,,,,,,,,,,,,,,-1.3,,,,,,,,,,,METAR,720.0
CWIP 060700Z AUTO 32002KT 09/09 RMK AO1 T00920088,CWIP,2023-06-06T07:00:00Z,50.17,-66.43,9.2,8.8,320,2,,,,,,TRUE,TRUE,,,,,,,,,,,,,,,,,,,,,,,,,,,METAR,27.0
CWIL 060700Z AUTO ///// ////SM NCD 08/06 A3012,CWIL,2023-06-06T07:00:00Z,68.32,-100.07,8.0,6.0,,,,,30.121063,,,TRUE,,,,,,,,CLR,,,,,,,,,,,,,,,,,,,,SPECI,28.0
CWIK 060700Z AUTO 15005KT 20/16 RMK AO1 SLP145 T01970162 58007,CWIK,2023-06-06T07:00:00Z,50.37,-102.58,19.7,16.2,150,5,,,,1014.5,,TRUE,TRUE,,,,,,,,,,,,,,,,-0.7,,,,,,,,,,,SPECI,597.0
CWIJ 060700Z AUTO 10009KT 10/06 RMK AO1 SLP176 T01040055 58013,CWIJ,2023-06-06T07:00:00Z,65.77,-111.23,10.4,5.5,100,9,,,,1017.6,,TRUE,TRUE,,,,,,,,,,,,,,,,-1.3,,,,,,,,,,,METAR,490.0
CWII 060700Z AUTO 13012KT 22/19 RMK AO1 SLP159 T02200189 56007,CWII,2023-06-06T07:00:00Z,50.7,-96.57,22.0,18.9,130,12,,,,1015.9,,TRUE,TRUE,,,,,,,,,,,,,,,,-0.7,,,,,,,,,,,METAR,216.0
CWIG 060700Z AUTO 04016G21KT RMK AO1 PK WND 05021/0653,CWIG,2023-06-06T07:00:00Z,47.07,-70.53,,,40,16,21,,,,,TRUE,TRUE,,,,,,,,,,,,,,,,,,,,,,,,,,,METAR,12.0
CWID 060700Z AUTO 31001KT 14/12 RMK AO1 SLP091 T01390121 58018,CWID,2023-06-06T07:00:00Z,61.32,-117.6,13.9,12.1,310,1,,,,1009.1,,TRUE,TRUE,,,,,,,,,,,,,,,,-1.8,,,,,,,,,,,METAR,160.0
CWHV 060700Z AUTO 32002KT 08/07 RMK AO1 SLP063 T00770069 56013,CWHV,2023-06-06T07:00:00Z,46.2,-70.78,7.7,6.9,320,2,,,,1006.3,,TRUE,TRUE,,,,,,,,,,,,,,,,-1.3,,,,,,,,,,,METAR,227.0
CWHT 060700Z AUTO 03005KT 10/00 RMK AO1 SLP144 T00960000 51026,CWHT,2023-06-06T07:00:00Z,60.77,-137.58,9.6,0.0,30,5,,,,1014.4,,TRUE,TRUE,,,,,,,,,,,,,,,,2.6,,,,,,,,,,,METAR,601.0
CWHQ 060700Z AUTO 09004KT 11/09 RMK AO1 T01090088,CWHQ,2023-06-06T07:00:00Z,46.68,-71.97,10.9,8.8,90,4,,,,,,TRUE,TRUE,,,,,,,,,,,,,,,,,,,,,,,,,,,METAR,56.0
CWHP 060700Z AUTO 04016KT 06/05 RMK AO1 PK WND 03019/0602 SLP073 T00590050 58025,CWHP,2023-06-06T07:00:00Z,49.08,-61.7,5.9,5.0,40,16,,,,1007.3,,TRUE,TRUE,,,,,,,,,,,,,,,,-2.5,,,,,,,,,,,METAR,7.0
CWHO 060700Z AUTO 00036KT 01/M00 RMK AO1 2PAST HR 3004 SLP227 P0001 T00051002 50002,CWHO,2023-06-06T07:00:00Z,55.45,-60.22,0.5,-0.2,0,36,,,,1022.7,,TRUE,TRUE,,,,,,,,,,,,,,,,0.2,,,,,0.01,,,,,,METAR,16.0
CWHL 060700Z AUTO 35003KT 10/06 RMK AO1 SLP266 T01000061 58004,CWHL,2023-06-06T07:00:00Z,54.17,-130.35,10.0,6.1,350,3,,,,1026.6,,TRUE,TRUE,,,,,,,,,,,,,,,,-0.4,,,,,,,,,,,METAR,5.0
CWHI 060700Z AUTO 33014KT 11/04 RMK AO1 PK WND 35029/0603 T01140035,CWHI,2023-06-06T07:00:00Z,51.7,-113.22,11.4,3.5,330,14,,,,,,TRUE,TRUE,,,,,,,,,,,,,,,,,,,,,,,,,,,METAR,906.0
CWGY 060700Z AUTO 33014G19KT 17/13 RMK AO1 PK WND 34025/0640 SLP119 T01700134 53017,CWGY,2023-06-06T07:00:00Z,51.67,-110.2,17.0,13.4,330,14,19,,,1011.9,,TRUE,TRUE,,,,,,,,,,,,,,,,1.7,,,,,,,,,,,METAR,709.0
CWGW 060700Z AUTO 21002KT 11/05 RMK AO1 SLP140 T01140048 51012,CWGW,2023-06-06T07:00:00Z,49.75,-114.9,11.4,4.8,210,2,,,,1014.0,,TRUE,TRUE,,,,,,,,,,,,,,,,1.2,,,,,,,,,,,METAR,1137.0
CWGT 060700Z AUTO 31020KT 15/10 RMK AO1 PK WND 32023/0645 SLP188 T01530095 58004,CWGT,2023-06-06T07:00:00Z,49.48,-124.43,15.3,9.5,310,20,,,,1018.8,,TRUE,TRUE,,,,,,,,,,,,,,,,-0.4,,,,,,,,,,,METAR,5.0
CWGR 060700Z AUTO 06020G26KT 08/07 RMK AO1 4PAST HR 7045 PK WND 06030/0635 SLP014 P0002 T00770074 50004,CWGR,2023-06-06T07:00:00Z,47.42,-61.77,7.7,7.4,60,20,26,,,1001.4,,TRUE,TRUE,,,,,,,,,,,,,,,,0.4,,,,,0.02,,,,,,METAR,4.0
CWGM 060700Z AUTO 20007KT 15/03 RMK AO1 SLP130 T01520031 53010,CWGM,2023-06-06T07:00:00Z,49.13,-113.8,15.2,3.1,200,7,,,,1013.0,,TRUE,TRUE,,,,,,,,,,,,,,,,1.0,,,,,,,,,,,METAR,1292.0
CWGL 060700Z AUTO 36007KT 15/09 RMK AO1 SLP103 T01470089 56011,CWGL,2023-06-06T07:00:00Z,44.53,-79.22,14.7,8.9,360,7,,,,1010.3,,TRUE,TRUE,,,,,,,,,,,,,,,,-1.1,,,,,,,,,,,METAR,220.0
CWGH 060700Z AUTO 00000KT 12/11 RMK AO1 SLP079 T01210111 56017,CWGH,2023-06-06T07:00:00Z,44.42,-75.85,12.1,11.1,0,0,,,,1007.9,,TRUE,TRUE,,,,,,,,,,,,,,,,-1.7,,,,,,,,,,,METAR,76.0
CWGD 060700Z AUTO 00000KT 11/10 RMK AO1 SLP133 T01140101 57011,CWGD,2023-06-06T07:00:00Z,43.77,-81.72,11.4,10.1,0,0,,,,1013.3,,TRUE,TRUE,,,,,,,,,,,,,,,,-1.1,,,,,,,,,,,METAR,214.0
CWGB 060700Z AUTO 28022KT 16/ RMK AO1 PK WND 27028/0605 SLP180 T0163 58002,CWGB,2023-06-06T07:00:00Z,49.35,-124.13,16.3,,280,22,,,,1018.0,,TRUE,TRUE,,,,,,,,,,,,,,,,-0.2,,,,,,,,,,,METAR,6.0
CWFQ 060700Z AUTO 18003KT 11/07 RMK AO1 SLP059 T01100070 56016,CWFQ,2023-06-06T07:00:00Z,45.03,-72.85,11.0,7.0,180,3,,,,1005.9,,TRUE,TRUE,,,,,,,,,,,,,,,,-1.6,,,,,,,,,,,METAR,190.0
CWFJ 060700Z AUTO 22007KT 16/05 RMK AO1 T01610048,CWFJ,2023-06-06T07:00:00Z,49.2,-113.27,16.1,4.8,220,7,,,,,,TRUE,TRUE,,,,,,,,,,,,,,,,,,,,,,,,,,,METAR,1142.0
CWFF 060700Z AUTO 16007KT 23/16 RMK AO1 SLP114 T02290155 56004,CWFF,2023-06-06T07:00:00Z,52.82,-104.6,22.9,15.5,160,7,,,,1011.4,,TRUE,TRUE,,,,,,,,,,,,,,,,-0.4,,,,,,,,,,,METAR,482.0
CWEZ 060700Z AUTO 31003KT 17/08 RMK AO1 SLP164 T01700081 57006,CWEZ,2023-06-06T07:00:00Z,48.78,-123.05,17.0,8.1,310,3,,,,1016.4,,TRUE,TRUE,,,,,,,,,,,,,,,,-0.6,,,,,,,,,,,METAR,23.0
CWEW 060700Z AUTO 01004KT 14/08 RMK AO1 SLP071 T01380077 57006,CWEW,2023-06-06T07:00:00Z,45.82,-73.43,13.8,7.7,10,4,,,,1007.1,,TRUE,TRUE,,,,,,,,,,,,,,,,-0.6,,,,,,,,,,,METAR,17.0
CWEU 060700Z 25023KT 15SM SCT055 SCT075 BKN110 M01/M10 A2984 RMK SC3AC1AC1 SC LENT SLP114,CWEU,2023-06-06T07:00:00Z,80.0,-85.93,-1.0,-10.0,250,23,,15.0,29.840551,1011.4,,,,,,,,,,SCT,5500,SCT,7500,BKN,11000,,,VFR,,,,,,,,,,,,SPECI,2.0
CWER 060700Z AUTO 06022KT RMK AO1 PK WND 06027/0623,CWER,2023-06-06T07:00:00Z,47.0,-70.82,,,60,22,,,,,,TRUE,TRUE,,,,,,,,,,,,,,,,,,,,,,,,,,,METAR,4.0
CWEQ 060700Z AUTO 02003KT 21/18 RMK AO1 SLP129 T02110180 58004,CWEQ,2023-06-06T07:00:00Z,52.12,-101.22,21.1,18.0,20,3,,,,1012.9,,TRUE,TRUE,,,,,,,,,,,,,,,,-0.4,,,,,,,,,,,METAR,331.0
CWEP 060700Z AUTO 05025KT 09/08 RMK AO1 7PAST HR 8047 PK WND 05033/0646 SLP964 P0007 T00890084 50017,CWEP,2023-06-06T07:00:00Z,46.45,-61.98,8.9,8.4,50,25,,,,996.4,,TRUE,TRUE,,,,,,,,,,,,,,,,1.7,,,,,0.07,,,,,,METAR,9.0
CWEL 060700Z AUTO 29028KT 17/09 RMK AO1 PK WND 29034/0647 SLP174 T01650090 58007,CWEL,2023-06-06T07:00:00Z,49.22,-123.8,16.5,9.0,290,28,,,,1017.4,,TRUE,TRUE,,,,,,,,,,,,,,,,-0.7,,,,,,,,,,,METAR,0.0
CWEH 060700Z AUTO 20002KT 17/12 RMK AO1 SLP118 T01650120 56005,CWEH,2023-06-06T07:00:00Z,49.43,-108.98,16.5,12.0,200,2,,,,1011.8,,TRUE,TRUE,,,,,,,,,,,,,,,,-0.5,,,,,,,,,,,METAR,1077.0
CWEF 060700Z AUTO 09030G38KT 07/07 RMK AO1 PK WND 08039/0646 SLP003 T00690068 58047,CWEF,2023-06-06T07:00:00Z,47.22,-60.13,6.9,6.8,90,30,38,,,1000.3,,TRUE,TRUE,,,,,,,,,,,,,,,,-4.7,,,,,,,,,,,METAR,27.0
CWEB 060700Z AUTO 00035KT 12/07 RMK AO1 SLP186 T01230071 58011,CWEB,2023-06-06T07:00:00Z,49.38,-126.55,12.3,7.1,0,35,,,,1018.6,,TRUE,TRUE,,,,,,,,,,,,,,,,-1.1,,,,,,,,,,,METAR,1.0
CWDZ 060700Z AUTO 34015G21KT 15/10 RMK AO1 PK WND 34026/0638 SLP168 T01530097 51043,CWDZ,2023-06-06T07:00:00Z,51.43,-112.67,15.3,9.7,340,15,21,,,1016.8,,TRUE,TRUE,,,,,,,,,,,,,,,,4.3,,,,,,,,,,,METAR,689.0
CWDV 060700Z AUTO 11004KT 14/11 RMK AO1 SLP208 T01380107 57014,CWDV,2023-06-06T07:00:00Z,49.02,-90.47,13.8,10.7,110,4,,,,1020.8,,TRUE,TRUE,,,,,,,,,,,,,,,,-1.4,,,,,,,,,,,METAR,487.0
CWDQ 060700Z AUTO 34004KT 11/06 RMK AO1 SLP084 T01070062 56011,CWDQ,2023-06-06T07:00:00Z,47.42,-72.78,10.7,6.2,340,4,,,,1008.4,,TRUE,TRUE,,,,,,,,,,,,,,,,-1.1,,,,,,,,,,,METAR,174.0
CWDO 060700Z AUTO 11005KT 04/04 RMK AO1 SLP140 T00430043 58010,CWDO,2023-06-06T07:00:00Z,49.68,-54.78,4.3,4.3,110,5,,,,1014.0,,TRUE,TRUE,,,,,,,,,,,,,,,,-1.0,,,,,,,,,,,METAR,89.0
CWDM 060700Z AUTO 04011KT 07/06 RMK AO1 PK WND 04018/0609 SLP124 T00730059 56009,CWDM,2023-06-06T07:00:00Z,50.47,-59.63,7.3,5.9,40,11,,,,1012.4,,TRUE,TRUE,,,,,,,,,,,,,,,,-0.9,,,,,,,,,,,METAR,2.0
CWDK 060700Z AUTO 35018G27KT 15/09 RMK AO1 PRESRR PK WND 35034/0630 SLP154 T01490094 53040,CWDK,2023-06-06T07:00:00Z,50.02,-113.62,14.9,9.4,350,18,27,,,1015.4,,TRUE,TRUE,,,,,,,,,,,,,,,,4.0,,,,,,,,,,,METAR,1014.0
CWDJ 060700Z AUTO 14010KT 20/16 RMK AO1 SLP127 T02030157 58004,CWDJ,2023-06-06T07:00:00Z,50.4,-104.58,20.3,15.7,140,10,,,,1012.7,,TRUE,TRUE,,,,,,,,,,,,,,,,-0.4,,,,,,,,,,,METAR,576.0
CWDC 060700Z AUTO 07003KT 18/17 RMK AO1 SLP091 T01780170 58023,CWDC,2023-06-06T07:00:00Z,59.57,-108.48,17.8,17.0,70,3,,,,1009.1,,TRUE,TRUE,,,,,,,,,,,,,,,,-2.3,,,,,,,,,,,METAR,311.0
CWDA 060700Z AUTO 00016KT 02/ RMK AO1 T0022,CWDA,2023-06-06T07:00:00Z,50.72,-56.12,2.2,,0,16,,,,,,TRUE,TRUE,,,,,,,,,,,,,,,,,,,,,,,,,,,METAR,30.0
CWCT 060700Z AUTO 34021G28KT 13/10 RMK AO1 PK WND 34032/0640 SLP161 T01320099 53026,CWCT,2023-06-06T07:00:00Z,52.07,-111.43,13.2,9.9,340,21,28,,,1016.1,,TRUE,TRUE,,,,,,,,,,,,,,,,2.6,,,,,,,,,,,METAR,793.0
CWCO 060700Z AUTO 33005KT 16/12 RMK AO1 SLP131 T01550116 58004,CWCO,2023-06-06T07:00:00Z,44.5,-80.22,15.5,11.6,330,5,,,,1013.1,,TRUE,TRUE,,,,,,,,,,,,,,,,-0.4,,,,,,,,,,,METAR,182.0
CWCJ 060700Z AUTO 05003KT 10/07 RMK AO1 SLP216 T00950073 58007,CWCJ,2023-06-06T07:00:00Z,48.6,-86.28,9.5,7.3,50,3,,,,1021.6,,TRUE,TRUE,,,,,,,,,,,,,,,,-0.7,,,,,,,,,,,METAR,207.0
CWCF 060700Z AUTO 12005KT 21/18 RMK AO1 SLP153 T02070184 56014,CWCF,2023-06-06T07:00:00Z,52.35,-97.03,20.7,18.4,120,5,,,,1015.3,,TRUE,TRUE,,,,,,,,,,,,,,,,-1.4,,,,,,,,,,,METAR,219.0
CWBZ 060700Z AUTO 24002KT 11/09 RMK AO1 SLP066 T01110087 56015,CWBZ,2023-06-06T07:00:00Z,45.12,-74.28,11.1,8.7,240,2,,,,1006.6,,TRUE,TRUE,,,,,,,,,,,,,,,,-1.5,,,,,,,,,,,METAR,49.0
CWBY 060700Z AUTO 05011KT 09/08 RMK AO1 5PAST HR 8020 SLP099 P0002 T00870082 50005,CWBY,2023-06-06T07:00:00Z,49.83,-64.28,8.7,8.2,50,11,,,,1009.9,,TRUE,TRUE,,,,,,,,,,,,,,,,0.5,,,,,0.02,,,,,,METAR,56.0
CWBV 060700Z AUTO 08016KT 07/07 RMK AO1 PK WND 06020/0603 SLP906 T00720072 56037,CWBV,2023-06-06T07:00:00Z,44.82,-62.33,7.2,7.2,80,16,,,,990.6,,TRUE,TRUE,,,,,,,,,,,,,,,,-3.7,,,,,,,,,,,METAR,16.0
CWBU 060700Z AUTO 19008KT 22/18 RMK AO1 SLP107 T02180178 57006,CWBU,2023-06-06T07:00:00Z,53.33,-104.02,21.8,17.8,190,8,,,,1010.7,,TRUE,TRUE,,,,,,,,,,,,,,,,-0.6,,,,,,,,,,,SPECI,369.0
CWBT 060700Z AUTO 03002KT 09/10 RMK AO1 6PAST HR 7019 SLP108 P0002 T00850095 50006,CWBT,2023-06-06T07:00:00Z,50.27,-64.23,8.5,9.5,30,2,,,,1010.8,,TRUE,TRUE,,,,,,,,,,,,,,,,0.6,,,,,0.02,,,,,,METAR,12.0
CWBS 060700Z AUTO 35005KT 14/08 RMK AO1 T01410084,CWBS,2023-06-06T07:00:00Z,46.18,-72.92,14.1,8.4,350,5,,,,,,TRUE,TRUE,,,,,,,,,,,,,,,,,,,,,,,,,,,METAR,3.0
CWBO 060700Z AUTO 02017G24KT 17/11 RMK AO1 PK WND 01027/0615 SLP136 T01740106 53030,CWBO,2023-06-06T07:00:00Z,50.53,-111.83,17.4,10.6,20,17,24,,,1013.6,,TRUE,TRUE,,,,,,,,,,,,,,,,3.0,,,,,,,,,,,METAR,752.0
CWBK 060700Z AUTO 06016KT 10/10 RMK AO1 5PAST HR 8027 PK WND 05023/0615 SLP945 P0002 T01010097 50005,CWBK,2023-06-06T07:00:00Z,45.77,-62.67,10.1,9.7,60,16,,,,994.5,,TRUE,TRUE,,,,,,,,,,,,,,,,0.5,,,,,0.02,,,,,,METAR,2.0
CWBA 060700Z AUTO 34006KT 12/07 RMK AO1 T01200072,CWBA,2023-06-06T07:00:00Z,46.72,-79.1,12.0,7.2,340,6,,,,,,TRUE,TRUE,,,,,,,,,,,,,,,,,,,,,,,,,,,METAR,181.0
CWAV 060700Z AUTO 35008KT 12/05 RMK AO1 SLP202 T01150054 51022,CWAV,2023-06-06T07:00:00Z,51.77,-114.67,11.5,5.4,350,8,,,,1020.2,,TRUE,TRUE,,,,,,,,,,,,,,,,2.2,,,,,,,,,,,METAR,1115.0
CWAR 060700Z AUTO 02012KT 08/07 RMK AO1 SLP118 T00840073 56020,CWAR,2023-06-06T07:00:00Z,47.28,-54.0,8.4,7.3,20,12,,,,1011.8,,TRUE,TRUE,,,,,,,,,,,,,,,,-2.0,,,,,,,,,,,METAR,6.0
CWAQ 060700Z AUTO 14004KT 19/14 RMK AO1 SLP131 T01910135 58005,CWAQ,2023-06-06T07:00:00Z,49.05,-105.48,19.1,13.5,140,4,,,,1013.1,,TRUE,TRUE,,,,,,,,,,,,,,,,-0.5,,,,,,,,,,,METAR,761.0
CWAJ 060700Z AUTO 29003KT RMK AO1 56015,CWAJ,2023-06-06T07:00:00Z,42.25,-81.9,,,290,3,,,,,,TRUE,TRUE,,,,,,,,,,,,,,,,-1.5,,,,,,,,,,,METAR,177.0
CWAF 060700Z AUTO 04015KT 08/07 RMK AO1 PK WND 05018/0605 T00780067,CWAF,2023-06-06T07:00:00Z,48.07,-69.55,7.8,6.7,40,15,,,,,,TRUE,TRUE,,,,,,,,,,,,,,,,,,,,,,,,,,,METAR,6.0
CTRA 060700Z AUTO 13003KT 17/15 RMK AO1 SLP186 T01720154 58013,CTRA,2023-06-06T07:00:00Z,49.67,-93.73,17.2,15.4,130,3,,,,1018.6,,TRUE,TRUE,,,,,,,,,,,,,,,,-1.3,,,,,,,,,,,METAR,432.0
CTNK 060700Z AUTO 04001KT 12/06 RMK AO1 SLP120 T01200062 57011,CTNK,2023-06-06T07:00:00Z,45.53,-78.27,12.0,6.2,40,1,,,,1012.0,,TRUE,TRUE,,,,,,,,,,,,,,,,-1.1,,,,,,,,,,,METAR,405.0
CTCK 060700Z AUTO 30003KT 12/10 RMK AO1 SLP065 T01200097 57018,CTCK,2023-06-06T07:00:00Z,45.25,-74.97,12.0,9.7,300,3,,,,1006.5,,TRUE,TRUE,,,,,,,,,,,,,,,,-1.8,,,,,,,,,,,METAR,84.0
CPSV 060700Z AUTO 23003KT 18/16 RMK AO1 T01760158,CPSV,2023-06-06T07:00:00Z,49.92,-110.92,17.6,15.8,230,3,,,,,,TRUE,TRUE,,,,,,,,,,,,,,,,,,,,,,,,,,,METAR,766.0
CPST 060700Z AUTO 01026KT 12/07 RMK AO1 PK WND 02038/0648 T01180068,CPST,2023-06-06T07:00:00Z,51.03,-113.28,11.8,6.8,10,26,,,,,,TRUE,TRUE,,,,,,,,,,,,,,,,,,,,,,,,,,,METAR,1005.0
CPRY 060700Z AUTO 24007KT 20/07 RMK AO1 T01980066,CPRY,2023-06-06T07:00:00Z,49.48,-112.68,19.8,6.6,240,7,,,,,,TRUE,TRUE,,,,,,,,,,,,,,,,,,,,,,,,,,,METAR,947.0
CPRO 060700Z AUTO 35017KT 16/11 RMK AO1 PK WND 35030/0611 T01570110,CPRO,2023-06-06T07:00:00Z,50.83,-112.05,15.7,11.0,350,17,,,,,,TRUE,TRUE,,,,,,,,,,,,,,,,,,,,,,,,,,,METAR,733.0
CPIN 060700Z AUTO 04011KT ////SM ////// ///// A////,CPIN,2023-06-06T07:00:00Z,,,,,40,11,,,,,,TRUE,,,,,,,,,,,,,,,,,,,,,,,,,,,,METAR,
CPFI 060700Z AUTO 18002KT 19/14 RMK AO1 T01880142,CPFI,2023-06-06T07:00:00Z,49.8,-112.03,18.8,14.2,180,2,,,,,,TRUE,TRUE,,,,,,,,,,,,,,,,,,,,,,,,,,,METAR,804.0
CPEH 060700Z AUTO 17/12 RMK AO1 T01690115,CPEH,2023-06-06T07:00:00Z,50.18,-112.43,16.9,11.5,,,,,,,,TRUE,TRUE,,,,,,,,,,,,,,,,,,,,,,,,,,,METAR,814.0
CPBT 060700Z AUTO 27006KT 16/06 RMK AO1 T01590061,CPBT,2023-06-06T07:00:00Z,49.53,-113.05,15.9,6.1,270,6,,,,,,TRUE,TRUE,,,,,,,,,,,,,,,,,,,,,,,,,,,METAR,998.0
CMGB 060700Z AUTO 00000KT 09/07 RMK AO1 SLP061 T00900072 56012,CMGB,2023-06-06T07:00:00Z,45.37,-72.77,9.0,7.2,0,0,,,,1006.1,,TRUE,TRUE,,,,,,,,,,,,,,,,-1.2,,,,,,,,,,,SPECI,87.0
CMFM 060700Z AUTO 04002KT 06/02 RMK AO1 SLP077 T00630015 55010,CMFM,2023-06-06T07:00:00Z,47.32,-71.15,6.3,1.5,40,2,,,,1007.7,,TRUE,TRUE,,,,,,,,,,,,,,,,-1.0,,,,,,,,,,,SPECI,663.0
CERM 060700Z AUTO 29002KT 09/08 RMK AO1 SLP055 T00940075 58023,CERM,2023-06-06T07:00:00Z,47.42,-68.32,9.4,7.5,290,2,,,,1005.5,,TRUE,TRUE,,,,,,,,,,,,,,,,-2.3,,,,,,,,,,,METAR,151.0
CBBC 060700Z AUTO 32003KT 9SM CLR 10/05 A3026 RMK SLP251,CBBC,2023-06-06T07:00:00Z,52.18,-128.15,10.0,5.0,320,3,,9.0,30.259842,1025.1,,TRUE,,,,,,,,CLR,,,,,,,,VFR,,,,,,,,,,,,METAR,36.0
CBAR 060700Z AUTO 09017KT ////SM ////// ///// A////,CBAR,2023-06-06T07:00:00Z,,,,,90,17,,,,,,TRUE,,,,,,,,,,,,,,,,,,,,,,,,,,,,METAR,
CAHR 060700Z AUTO 05017G23KT 09/09 RMK AO1 5PAST HR 6044 PK WND 05029/0601 SLP957 P0006 T00890086 50015,CAHR,2023-06-06T07:00:00Z,46.35,-63.17,8.9,8.6,50,17,23,,,995.7,,TRUE,TRUE,,,,,,,,,,,,,,,,1.5,,,,,0.06,,,,,,METAR,52.0
BIRK 060700Z 26009KT 9999 FEW012 BKN025 OVC036 07/02 Q1024,BIRK,2023-06-06T07:00:00Z,64.13,-21.93,7.0,2.0,260,9,,6.21,30.236221,,,,,,,,,,,FEW,1200,BKN,2500,OVC,3600,,,MVFR,,,,,,,,,,,,METAR,12.0
BIKF 060700Z 27009KT 9999 OVC023 07/02 Q1024,BIKF,2023-06-06T07:00:00Z,63.98,-22.6,7.0,2.0,270,9,,6.21,30.236221,,,,,,,,,,,OVC,2300,,,,,,,MVFR,,,,,,,,,,,,METAR,49.0
BIIS 060700Z 05009KT 9999 -RA FEW005 SCT010 BKN015 OVC020 04/03 Q1022,BIIS,2023-06-06T07:00:00Z,66.05,-23.13,4.0,3.0,50,9,,6.21,30.177166,,,,,,,,,,-RA,FEW,500,SCT,1000,BKN,1500,OVC,2000,MVFR,,,,,,,,,,,,METAR,3.0
BIEG 060700Z 23007KT 9999 SCT025 BKN045 08/04 Q1021,BIEG,2023-06-06T07:00:00Z,65.27,-14.4,8.0,4.0,230,7,,6.21,30.147638,,,,,,,,,,,SCT,2500,BKN,4500,,,,,VFR,,,,,,,,,,,,METAR,20.0
BIAR 060700Z 01003KT 9999 FEW015 SCT035 06/04 Q1021,BIAR,2023-06-06T07:00:00Z,65.67,-18.07,6.0,4.0,10,3,,6.21,30.147638,,,,,,,,,,,FEW,1500,SCT,3500,,,,,VFR,,,,,,,,,,,,METAR,1.0
AYPY 060700Z 16013KT 9999 HZ SCT025CB BKN030 30/26 Q1008,AYPY,2023-06-06T07:00:00Z,-9.43,147.22,30.0,26.0,160,13,,6.21,29.763779,,,,,,,,,,HZ,SCT,2500,BKN,3000,,,,,MVFR,,,,,,,,,,,,METAR,44.0
AYNZ 060700Z 09005G10KT 9999 HZ SCT060 31/19 Q1008,AYNZ,2023-06-06T07:00:00Z,-6.57,146.72,31.0,19.0,90,5,10,6.21,29.763779,,,,,,,,,,HZ,SCT,6000,,,,,,,VFR,,,,,,,,,,,,METAR,74.0
AYMH 060700Z 09010KT 9999 FUHZ SCT050 24/14 Q1019,AYMH,2023-06-06T07:00:00Z,-5.83,144.3,24.0,14.0,90,10,,6.21,30.088583,,,,,,,,,,FU HZ,SCT,5000,,,,,,,VFR,,,,,,,,,,,,METAR,1634.0
AGGH 060700Z 09007KT 9999 FEW018 FEW019CB 30/26 Q1009 RMK CB ASSW SH TO S,AGGH,2023-06-06T07:00:00Z,-9.42,160.05,30.0,26.0,90,7,,6.21,29.793306,,,,,,,,,,,FEW,1800,FEW,1900,,,,,VFR,,,,,,,,,,,,METAR,6.0
RODE 060659Z AUTO A2982 RMK AO2 SLPNO PWINO TSNO $,RODE,2023-06-06T06:59:00Z,26.72,127.77,,,,,,,29.819881,,,TRUE,TRUE,TRUE,,TRUE,,TRUE,,,,,,,,,,,,,,,,,,,,,,METAR,69.0
MUCF 060659Z AUTO 10003KT 070V140 24/23 Q1013,MUCF,2023-06-06T06:59:00Z,22.15,-80.4,24.0,23.0,100,3,,,29.911417,,,TRUE,,,,,,,,,,,,,,,,,,,,,,,,,,,,METAR,35.0
MTPP 060659Z AUTO 12008KT 9000 ////// 27/25 Q1013 A2991 NOSIG,MTPP,2023-06-06T06:59:00Z,18.57,-72.3,27.0,25.0,120,8,,5.59,29.911417,,,TRUE,,,TRUE,,,,,,,,,,,,,,,,,,,,,,,,,SPECI,36.0
KSYN 060659Z AUTO 00000KT 10SM BKN090 OVC120 20/17 A3001 RMK AO2,KSYN,2023-06-06T06:59:00Z,44.47,-93.02,20.0,17.0,0,0,,10.0,30.008858,,,TRUE,TRUE,,,,,,,BKN,9000,OVC,12000,,,,,VFR,,,,,,,,,,,,SPECI,280.0
KPMH 060659Z AUTO 00000KT 10SM CLR 11/09 A2999 RMK AO2,KPMH,2023-06-06T06:59:00Z,38.83,-82.85,11.0,9.0,0,0,,10.0,29.991142,,,TRUE,TRUE,,,,,,,CLR,,,,,,,,VFR,,,,,,,,,,,,METAR,200.0
KP92 060659Z AUTO 00000KT 21/21 A2990 RMK AO1 SLP125 P0001 T02060206,KP92,2023-06-06T06:59:00Z,29.57,-91.53,20.6,20.6,0,0,,,29.899607,1012.5,,TRUE,TRUE,,,,,,,,,,,,,,,,,,,,,0.01,,,,,,METAR,1.0
KNOZ 060659Z AUTO 12010KT 10SM CLR 24/10 A2971 RMK AO2 SLP010 T02390100 403670211,KNOZ,2023-06-06T06:59:00Z,32.53,-114.5,23.9,10.0,120,10,,10.0,29.71063,1001.0,,TRUE,TRUE,,,,,,,CLR,,,,,,,,VFR,,,,36.7,21.1,,,,,,,METAR,78.0
KNGU 060659Z 20007KT 10SM SCT250 17/13 A2988 RMK AO2 SLP119 T01720128 $,KNGU,2023-06-06T06:59:00Z,36.93,-76.27,17.2,12.8,200,7,,10.0,29.878937,1011.9,,,TRUE,TRUE,,,,,,SCT,25000,,,,,,,VFR,,,,,,,,,,,,METAR,3.0
KLAX 060659Z COR 10003KT 10SM FEW020 FEW030 OVC045 16/11 A2991 RMK AO2 T01610111,KLAX,2023-06-06T06:59:00Z,33.93,-118.38,16.1,11.1,100,3,,10.0,29.911417,,TRUE,,TRUE,,,,,,,FEW,2000,FEW,3000,OVC,4500,,,VFR,,,,,,,,,,,,SPECI,30.0
K04W 060659Z AUTO 01004KT 7SM CLR 13/13 A3008 RMK AO2,K04W,2023-06-06T06:59:00Z,46.02,-92.9,13.0,13.0,10,4,,7.0,30.079725,,,TRUE,TRUE,,,,,,,CLR,,,,,,,,VFR,,,,,,,,,,,,SPECI,310.0
KSMX 060658Z AUTO 00000KT 5SM -RA BR SCT026 OVC095 13/13 A2989 RMK AO2 LTG DSNT NE TSB56E58 P0001 T01280128,KSMX,2023-06-06T06:58:00Z,34.9,-120.45,12.8,12.8,0,0,,5.0,29.890747,,,TRUE,TRUE,,,,,,-RA BR,SCT,2600,OVC,9500,,,,,MVFR,,,,,,0.01,,,,,,SPECI,73.0
KROG 060658Z AUTO 04004KT 10SM CLR 19/17 A3003 RMK AO2 SLP152 T01890167 TSNO,KROG,2023-06-06T06:58:00Z,36.37,-94.1,18.9,16.7,40,4,,10.0,30.029528,1015.2,,TRUE,TRUE,,,TRUE,,,,CLR,,,,,,,,VFR,,,,,,,,,,,,METAR,407.0
KPRN 060658Z AUTO 30004KT 10SM CLR 19/18 A2994 RMK AO2 SLP085 T01940183,KPRN,2023-06-06T06:58:00Z,31.85,-86.62,19.4,18.3,300,4,,10.0,29.940945,1008.5,,TRUE,TRUE,,,,,,,CLR,,,,,,,,VFR,,,,,,,,,,,,METAR,137.0
KMRH 060658Z AUTO 25007KT 10SM CLR 20/16 A2990 RMK AO2 SLP126 T02000156,KMRH,2023-06-06T06:58:00Z,34.73,-76.65,20.0,15.6,250,7,,10.0,29.899607,1012.6,,TRUE,TRUE,,,,,,,CLR,,,,,,,,VFR,,,,,,,,,,,,SPECI,2.0
KMEI 060658Z AUTO 03003KT 8SM R01/2600VP6000FT CLR 19/19 A2995 RMK AO2 SLP139 T01940189,KMEI,2023-06-06T06:58:00Z,32.33,-88.75,19.4,18.9,30,3,,8.0,29.949802,1013.9,,TRUE,TRUE,,,,,,,CLR,,,,,,,,VFR,,,,,,,,,,,,SPECI,90.0
KEUF 060658Z AUTO 00000KT 6SM BR CLR 18/17 A2995 RMK AO2 SLP138 T01830172,KEUF,2023-06-06T06:58:00Z,31.95,-85.13,18.3,17.2,0,0,,6.0,29.949802,1013.8,,TRUE,TRUE,,,,,,BR,CLR,,,,,,,,VFR,,,,,,,,,,,,METAR,87.0
KBKF 060658Z 19006KT 10SM FEW160 FEW220 11/08 A3015 RMK AO2A SLP158 T01110083 402100109,KBKF,2023-06-06T06:58:00Z,39.72,-104.75,11.1,8.3,190,6,,10.0,30.15059,1015.8,,,TRUE,,,,,,,FEW,16000,FEW,22000,,,,,VFR,,,,21.0,10.9,,,,,,,METAR,1703.0
KBCR 060658Z AUTO 00000KT 9SM CLR 19/18 A2995 RMK AO2 SLP100 T01940183,KBCR,2023-06-06T06:58:00Z,30.85,-85.6,19.4,18.3,0,0,,9.0,29.949802,1010.0,,TRUE,TRUE,,,,,,,CLR,,,,,,,,VFR,,,,,,,,,,,,SPECI,26.0
K0J4 060658Z AUTO 00000KT 10SM CLR 19/17 A2996 RMK AO2 SLP142 T01940172,K0J4,2023-06-06T06:58:00Z,31.05,-86.32,19.4,17.2,0,0,,10.0,29.958662,1014.2,,TRUE,TRUE,,,,,,,CLR,,,,,,,,VFR,,,,,,,,,,,,METAR,96.0
PHNG 060657Z 07008KT FEW026 FEW065 27/21 A3010 RMK AO2 SLP186 T02670206 $,PHNG,2023-06-06T06:57:00Z,21.43,-157.77,26.7,20.6,70,8,,,30.100393,1018.6,,,TRUE,TRUE,,,,,,FEW,2600,FEW,6500,,,,,,,,,,,,,,,,,SPECI,1.0
MMIO 060657Z RTD 00000KT 10SM SKC 19/07 A3016,MMIO,2023-06-06T06:57:00Z,25.55,-100.93,19.0,7.0,0,0,,10.0,30.159449,,,,,,,,,,,SKC,,,,,,,,VFR,,,,,,,,,,,,SPECI,1430.0
KNYL 060657Z AUTO 20004KT 10SM CLR 24/08 A2971 RMK AO2 SLP056 T02440083 403720217,KNYL,2023-06-06T06:57:00Z,32.65,-114.62,24.4,8.3,200,4,,10.0,29.71063,1005.6,,TRUE,TRUE,,,,,,,CLR,,,,,,,,VFR,,,,37.2,21.7,,,,,,,METAR,58.0
KNJW 060657Z AUTO 00000KT 7SM CLR 18/17 A2997 RMK AO2 SLP063 T01830172,KNJW,2023-06-06T06:57:00Z,32.78,-88.82,18.3,17.2,0,0,,7.0,29.970472,1006.3,,TRUE,TRUE,,,,,,,CLR,,,,,,,,VFR,,,,,,,,,,,,METAR,165.0
KNJM 060657Z AUTO 26007KT 10SM CLR 18/14 A2991 RMK AO2 SLP133 T01830144,KNJM,2023-06-06T06:57:00Z,34.68,-77.02,18.3,14.4,260,7,,10.0,29.911417,1013.3,,TRUE,TRUE,,,,,,,CLR,,,,,,,,VFR,,,,,,,,,,,,METAR,5.0
KMNM 060657Z AUTO 36003KT 9SM CLR 13/11 A3006 RMK AO2 SLP195 T01330111 PNO $,KMNM,2023-06-06T06:57:00Z,45.12,-87.63,13.3,11.1,360,3,,9.0,30.059055,1019.5,,TRUE,TRUE,TRUE,,,,,,CLR,,,,,,,,VFR,,,,,,,,,,,,SPECI,188.0
KFLG 060657Z AUTO 00000KT 10SM CLR 11/M05 A3012 RMK AO2 SLP105 T01061050 402500028,KFLG,2023-06-06T06:57:00Z,35.13,-111.67,10.6,-5.0,0,0,,10.0,30.121063,1010.5,,TRUE,TRUE,,,,,,,CLR,,,,,,,,VFR,,,,25.0,2.8,,,,,,,METAR,2134.0
TJSJ 060656Z 18004KT 10SM CLR 27/24 A2997 RMK AO2 SLP148 T02720239,TJSJ,2023-06-06T06:56:00Z,18.43,-66.02,27.2,23.9,180,4,,10.0,29.970472,1014.8,,,TRUE,,,,,,,CLR,,,,,,,,VFR,,,,,,,,,,,,SPECI,3.0
RJOI 060656Z 29003KT 2SM -RA BR FEW006 BKN020 OVC035 18/17 A2974 RMK AO2 SLP072 P0007 T01830167,RJOI,2023-06-06T06:56:00Z,34.13,132.23,18.3,16.7,290,3,,2.0,29.740158,1007.2,,,TRUE,,,,,,-RA BR,FEW,600,BKN,2000,OVC,3500,,,IFR,,,,,,0.07,,,,,,SPECI,2.0
PPIZ 060656Z AUTO 01009KT 10SM CLR 04/02 A3005 RMK AO2 SLP180 T00390017,PPIZ,2023-06-06T06:56:00Z,69.73,-163.0,3.9,1.7,10,9,,10.0,30.050198,1018.0,,TRUE,TRUE,,,,,,,CLR,,,,,,,,VFR,,,,,,,,,,,,METAR,5.0
PGWT 060656Z 08013KT 7SM FEW015 FEW050 BKN080 BKN120 29/24,PGWT,2023-06-06T06:56:00Z,14.98,145.62,29.0,24.0,80,13,,7.0,,,,,,,,,,,,FEW,1500,FEW,5000,BKN,8000,BKN,12000,VFR,,,,,,,,,,,,METAR,84.0
PGUA 060656Z 03002KT 10SM SCT015 BKN150 28/26 A2990 RMK SLPNO WND DATA/ALSTG ESTMD,PGUA,2023-06-06T06:56:00Z,13.57,144.92,28.0,26.0,30,2,,10.0,29.899607,,,,,,,,,,,SCT,1500,BKN,15000,,,,,VFR,,,,,,,,,,,,METAR,159.0
PFSH 060656Z AUTO 04011KT 10SM CLR 16/08 A2976 RMK AO2 SLP077 T01610083,PFSH,2023-06-06T06:56:00Z,64.37,-161.22,16.1,8.3,40,11,,10.0,29.760826,1007.7,,TRUE,TRUE,,,,,,,CLR,,,,,,,,VFR,,,,,,,,,,,,METAR,6.0
PFNO 060656Z AUTO 04009KT 10SM OVC080 14/04 A2992 RMK AO2 SLP211 T01440039 $,PFNO,2023-06-06T06:56:00Z,66.82,-161.02,14.4,3.9,40,9,,10.0,29.920275,1021.1,,TRUE,TRUE,TRUE,,,,,,OVC,8000,,,,,,,VFR,,,,,,,,,,,,METAR,14.0
PFKW 060656Z AUTO 08010KT 10SM OVC095 12/05 A2964 RMK AO2 SLP035 T01220050,PFKW,2023-06-06T06:56:00Z,60.8,-161.43,12.2,5.0,80,10,,10.0,29.639763,1003.5,,TRUE,TRUE,,,,,,,OVC,9500,,,,,,,VFR,,,,,,,,,,,,METAR,4.0
PFKT 060656Z AUTO 04019KT 10SM 14/06 A2984 RMK AO2 SLP103 T01440061 $,PFKT,2023-06-06T06:56:00Z,65.33,-166.47,14.4,6.1,40,19,,10.0,29.840551,1010.3,,TRUE,TRUE,TRUE,,,,,,,,,,,,,,,,,,,,,,,,,,METAR,8.0
PFEL 060656Z AUTO 02008KT 10SM OVC070 17/06 A2979 RMK AO2 SLP088 T01720061,PFEL,2023-06-06T06:56:00Z,64.62,-162.27,17.2,6.1,20,8,,10.0,29.790354,1008.8,,TRUE,TRUE,,,,,,,OVC,7000,,,,,,,VFR,,,,,,,,,,,,METAR,50.0
PFCL 060656Z AUTO 13017G23KT 10SM FEW015 07/06 A2967 RMK AO2 SLP042 T00720061 TSNO,PFCL,2023-06-06T06:56:00Z,58.83,-158.53,7.2,6.1,130,17,23,10.0,29.66929,1004.2,,TRUE,TRUE,,,TRUE,,,,FEW,1500,,,,,,,VFR,,,,,,,,,,,,METAR,23.0
PAZK 060656Z AUTO 21006KT 10SM CLR 11/M02 A2990 RMK AO2 SLP138 T01061017,PAZK,2023-06-06T06:56:00Z,61.93,-147.17,10.6,-1.7,210,6,,10.0,29.899607,1013.8,,TRUE,TRUE,,,,,,,CLR,,,,,,,,VFR,,,,,,,,,,,,METAR,1002.0
PAWS 060656Z AUTO 05008KT 10SM CLR 14/01 A2994 RMK AO2 SLP141 T01440011,PAWS,2023-06-06T06:56:00Z,61.57,-149.53,14.4,1.1,50,8,,10.0,29.940945,1014.1,,TRUE,TRUE,,,,,,,CLR,,,,,,,,VFR,,,,,,,,,,,,METAR,102.0
PAWN 060656Z AUTO 03006KT 10SM CLR 16/04 RMK AO2 SLPNO T01560039 $,PAWN,2023-06-06T06:56:00Z,67.57,-162.98,15.6,3.9,30,6,,10.0,,,,TRUE,TRUE,TRUE,,,,,,CLR,,,,,,,,VFR,,,,,,,,,,,,METAR,26.0
PAWM 060656Z AUTO 05003KT 8SM BKN070 17/06 A2980 RMK AO2 SLP092 T01670056,PAWM,2023-06-06T06:56:00Z,64.68,-163.42,16.7,5.6,50,3,,8.0,29.799213,1009.2,,TRUE,TRUE,,,,,,,BKN,7000,,,,,,,VFR,,,,,,,,,,,,METAR,80.0
PAVD 060656Z AUTO 26005KT OVC046 11/07 RMK AO2 SLPNO T01060072 TSNO $,PAVD,2023-06-06T06:56:00Z,61.13,-146.25,10.6,7.2,260,5,,,,,,TRUE,TRUE,TRUE,,TRUE,,,,OVC,4600,,,,,,,,,,,,,,,,,,,METAR,21.0
PAUN 060656Z AUTO 06012KT 10SM CLR 19/07 A2974 RMK AO2 SLP073 T01940072 PNO $,PAUN,2023-06-06T06:56:00Z,63.88,-160.8,19.4,7.2,60,12,,10.0,29.740158,1007.3,,TRUE,TRUE,TRUE,,,,,,CLR,,,,,,,,VFR,,,,,,,,,,,,METAR,4.0
PATQ 060656Z AUTO 08008KT 10SM OVC090 10/05 A3005 RMK AO2 SLP178 T01000050 TSNO,PATQ,2023-06-06T06:56:00Z,70.47,-157.43,10.0,5.0,80,8,,10.0,30.050198,1017.8,,TRUE,TRUE,,,TRUE,,,,OVC,9000,,,,,,,VFR,,,,,,,,,,,,METAR,28.0
PATG 060656Z AUTO 10015KT 10SM FEW019 BKN041 OVC065 08/07 A2964 RMK AO2 SLP038 T00830067,PATG,2023-06-06T06:56:00Z,59.05,-160.38,8.3,6.7,100,15,,10.0,29.639763,1003.8,,TRUE,TRUE,,,,,,,FEW,1900,BKN,4100,OVC,6500,,,VFR,,,,,,,,,,,,METAR,1.0
PASX 060656Z AUTO 09008KT 10SM SCT080 BKN100 13/04 A2995 RMK AO2 SLP146 T01280044,PASX,2023-06-06T06:56:00Z,60.48,-151.05,12.8,4.4,90,8,,10.0,29.949802,1014.6,,TRUE,TRUE,,,,,,,SCT,8000,BKN,10000,,,,,VFR,,,,,,,,,,,,METAR,28.0
PASM 060656Z AUTO 11011G17KT 10SM -RA OVC060 13/06 A2971 RMK AO2 RAE19B49 SLP069 P0000 T01280056,PASM,2023-06-06T06:56:00Z,62.07,-163.3,12.8,5.6,110,11,17,10.0,29.71063,1006.9,,TRUE,TRUE,,,,,,-RA,OVC,6000,,,,,,,VFR,,,,,,0.005,,,,,,METAR,108.0
PASL 060656Z AUTO VRB04KT 10SM OVC085 16/04 A2977 RMK AO2 SLP073 T01560044,PASL,2023-06-06T06:56:00Z,61.68,-157.15,15.6,4.4,0,4,,10.0,29.769686,1007.3,,TRUE,TRUE,,,,,,,OVC,8500,,,,,,,VFR,,,,,,,,,,,,METAR,64.0
PASK 060656Z AUTO 03009KT 10SM OVC075 11/04 A2990 RMK AO2 SLP124 T01060039,PASK,2023-06-06T06:56:00Z,66.6,-160.0,10.6,3.9,30,9,,10.0,29.899607,1012.4,,TRUE,TRUE,,,,,,,OVC,7500,,,,,,,VFR,,,,,,,,,,,,METAR,3.0
PARY 060656Z AUTO 06007KT 10SM CLR 18/05 A2978 RMK AO2 SLP091 T01830050 PNO $,PARY,2023-06-06T06:56:00Z,64.73,-155.47,18.3,5.0,60,7,,10.0,29.778543,1009.1,,TRUE,TRUE,TRUE,,,,,,CLR,,,,,,,,VFR,,,,,,,,,,,,METAR,185.0
PARS 060656Z AUTO 10006KT 10SM -RA BKN060 OVC080 13/07 A2972 RMK AO2 RAB12 SLP066 P0000 T01280072 $,PARS,2023-06-06T06:56:00Z,61.77,-161.32,12.8,7.2,100,6,,10.0,29.719488,1006.6,,TRUE,TRUE,TRUE,,,,,-RA,BKN,6000,OVC,8000,,,,,VFR,,,,,,0.005,,,,,,METAR,15.0
PARC 060656Z AUTO 10SM CLR 13/02 A2995 RMK AO2 SLP167 T01330017 $,PARC,2023-06-06T06:56:00Z,68.12,-145.58,13.3,1.7,,,,10.0,29.949802,1016.7,,TRUE,TRUE,TRUE,,,,,,CLR,,,,,,,,VFR,,,,,,,,,,,,METAR,626.0
PAPM 060656Z AUTO 11017G21KT 10SM BKN030 BKN042 OVC110 08/06 A2958 RMK AO2 PK WND 11027/0611 RAE20 SLP017 P0000 T00780056,PAPM,2023-06-06T06:56:00Z,59.02,-161.82,7.8,5.6,110,17,21,10.0,29.58071,1001.7,,TRUE,TRUE,,,,,,,BKN,3000,BKN,4200,OVC,11000,,,MVFR,,,,,,0.005,,,,,,METAR,4.0
PAPH 060656Z AUTO 14016G20KT 10SM FEW011 07/05 A2962 RMK AO2 SLP030 T00720050,PAPH,2023-06-06T06:56:00Z,56.95,-158.62,7.2,5.0,140,16,20,10.0,29.619095,1003.0,,TRUE,TRUE,,,,,,,FEW,1100,,,,,,,VFR,,,,,,,,,,,,METAR,29.0
PAPG 060656Z AUTO 18003KT 10SM OVC043 07/05 A3030 RMK AO2 SLP264 T00670050,PAPG,2023-06-06T06:56:00Z,56.82,-132.93,6.7,5.0,180,3,,10.0,30.301182,1026.4,,TRUE,TRUE,,,,,,,OVC,4300,,,,,,,VFR,,,,,,,,,,,,METAR,24.0
PAOU 060656Z AUTO 17014KT 10SM SCT023 BKN050 OVC070 07/04 A2957 RMK AO2 SLP011 T00670044 PNO $,PAOU,2023-06-06T06:56:00Z,56.0,-161.17,6.7,4.4,170,14,,10.0,29.568897,1001.1,,TRUE,TRUE,TRUE,,,,,,SCT,2300,BKN,5000,OVC,7000,,,VFR,,,,,,,,,,,,METAR,3.0
PAOH 060656Z AUTO 27005KT 10SM OVC037 09/04 A3024 RMK AO2 SLP242 T00940044 PNO $,PAOH,2023-06-06T06:56:00Z,58.1,-135.45,9.4,4.4,270,5,,10.0,30.239174,1024.2,,TRUE,TRUE,TRUE,,,,,,OVC,3700,,,,,,,VFR,,,,,,,,,,,,METAR,0.0
PANW 060656Z AUTO 11018G24KT 10SM SCT060 08/05 A2974 RMK AO2 PK WND 10027/0625 SLP075 T00780050,PANW,2023-06-06T06:56:00Z,59.45,-157.32,7.8,5.0,110,18,24,10.0,29.740158,1007.5,,TRUE,TRUE,,,,,,,SCT,6000,,,,,,,VFR,,,,,,,,,,,,METAR,100.0
PANV 060656Z AUTO 19009KT 10SM 16/05 A2972 RMK AO2 WSHFT 0547 SLP118 T01560050 TSNO $,PANV,2023-06-06T06:56:00Z,62.65,-160.18,15.6,5.0,190,9,,10.0,29.719488,1011.8,,TRUE,TRUE,TRUE,,TRUE,,,,,,,,,,,,,,,,,,,,,,,,METAR,91.0
PAMO 060656Z AUTO 10018KT 10SM OVC055 13/07 A2970 RMK AO2 RAE01 SLP061 P0000 T01280067,PAMO,2023-06-06T06:56:00Z,62.1,-163.68,12.8,6.7,100,18,,10.0,29.698818,1006.1,,TRUE,TRUE,,,,,,,OVC,5500,,,,,,,VFR,,,,,,0.005,,,,,,METAR,93.0
PAMK 060656Z AUTO VRB06KT 10SM OVC110 09/05 A2974 RMK AO2 SLP071 T00940050,PAMK,2023-06-06T06:56:00Z,63.48,-162.12,9.4,5.0,0,6,,10.0,29.740158,1007.1,,TRUE,TRUE,,,,,,,OVC,11000,,,,,,,VFR,,,,,,,,,,,,METAR,31.0
PAMH 060656Z AUTO 00000KT 10SM CLR 17/04 A2978 RMK AO2 SLP079 T01720044,PAMH,2023-06-06T06:56:00Z,63.9,-152.28,17.2,4.4,0,0,,10.0,29.778543,1007.9,,TRUE,TRUE,,,,,,,CLR,,,,,,,,VFR,,,,,,,,,,,,METAR,200.0
PAMB 060656Z AUTO 12012KT 8SM SCT055 SCT070 08/06 A2968 RMK AO2 SLP055 T00780061 $,PAMB,2023-06-06T06:56:00Z,58.98,-159.05,7.8,6.1,120,12,,8.0,29.681103,1005.5,,TRUE,TRUE,TRUE,,,,,,SCT,5500,SCT,7000,,,,,VFR,,,,,,,,,,,,METAR,28.0
PALG 060656Z AUTO 12007G15KT 080V190 10SM SCT055 BKN070 12/06 A2971 RMK AO2 SLP064 T01220056,PALG,2023-06-06T06:56:00Z,61.53,-160.33,12.2,5.6,120,7,15,10.0,29.71063,1006.4,,TRUE,TRUE,,,,,,,SCT,5500,BKN,7000,,,,,VFR,,,,,,,,,,,,METAR,13.0
PAKP 060656Z AUTO 03004KT 9SM BKN075 10/00 A2996 RMK AO2 SLP171 T01000000,PAKP,2023-06-06T06:56:00Z,68.13,-151.73,10.0,0.0,30,4,,9.0,29.958662,1017.1,,TRUE,TRUE,,,,,,,BKN,7500,,,,,,,VFR,,,,,,,,,,,,METAR,649.0
PAKI 060656Z AUTO 10SM -RA FEW028 BKN033 OVC047 09/08 A2958 RMK AO2 RAB0558 SLP020 P0000 T00890083 $,PAKI,2023-06-06T06:56:00Z,59.93,-164.03,8.9,8.3,,,,10.0,29.58071,1002.0,,TRUE,TRUE,TRUE,,,,,-RA,FEW,2800,BKN,3300,OVC,4700,,,VFR,,,,,,0.005,,,,,,METAR,4.0
PAKH 060656Z AUTO 10SM -RA BKN011 OVC017 07/06 A2980 RMK AO2 SLP090 P0000 T00720061 TSNO $,PAKH,2023-06-06T06:56:00Z,56.93,-154.18,7.2,6.1,,,,10.0,29.799213,1009.0,,TRUE,TRUE,TRUE,,TRUE,,,-RA,BKN,1100,OVC,1700,,,,,MVFR,,,,,,0.005,,,,,,METAR,15.0
PAKF 060656Z AUTO 12005KT 8SM -RA BKN008 OVC015 06/06 A2957 RMK AO2 RAB03 CIG 007V011 SLP013 P0000 T00610056,PAKF,2023-06-06T06:56:00Z,54.85,-163.42,6.1,5.6,120,5,,8.0,29.568897,1001.3,,TRUE,TRUE,,,,,,-RA,BKN,800,OVC,1500,,,,,IFR,,,,,,0.005,,,,,,METAR,2.0
PAIN 060656Z AUTO 00000KT 10SM CLR 13/03 A2987 RMK AO2 SLP122 T01280033 PNO $,PAIN,2023-06-06T06:56:00Z,63.73,-148.92,12.8,3.3,0,0,,10.0,29.870079,1012.2,,TRUE,TRUE,TRUE,,,,,,CLR,,,,,,,,VFR,,,,,,,,,,,,METAR,525.0
PAIK 060656Z AUTO 02006KT 10SM OVC080 14/02 A2995 RMK AO2 SLP142 T01390022,PAIK,2023-06-06T06:56:00Z,66.98,-160.43,13.9,2.2,20,6,,10.0,29.949802,1014.2,,TRUE,TRUE,,,,,,,OVC,8000,,,,,,,VFR,,,,,,,,,,,,METAR,49.0
PAIG 060656Z AUTO 10011G20KT 10SM BKN070 09/05 A2975 RMK AO2 SLP082 T00890050 $,PAIG,2023-06-06T06:56:00Z,59.32,-155.9,8.9,5.0,100,11,20,10.0,29.749016,1008.2,,TRUE,TRUE,TRUE,,,,,,BKN,7000,,,,,,,VFR,,,,,,,,,,,,METAR,24.0
PAHY 060656Z AUTO 14007KT 10SM BKN016 OVC040 10/08 A3031 RMK AO2 SLP261 T01000083 $,PAHY,2023-06-06T06:56:00Z,55.2,-132.83,10.0,8.3,140,7,,10.0,30.31004,1026.1,,TRUE,TRUE,TRUE,,,,,,BKN,1600,OVC,4000,,,,,MVFR,,,,,,,,,,,,METAR,0.0
PAHL 060656Z AUTO 04006KT 10SM CLR 18/05 A2984 RMK AO2 SLP107 T01780050,PAHL,2023-06-06T06:56:00Z,65.7,-156.35,17.8,5.0,40,6,,10.0,29.840551,1010.7,,TRUE,TRUE,,,,,,,CLR,,,,,,,,VFR,,,,,,,,,,,,METAR,49.0
PAHC 060656Z AUTO VRB03KT 10SM OVC075 14/06 A2973 RMK AO2 SLP071 T01440056,PAHC,2023-06-06T06:56:00Z,62.18,-159.78,14.4,5.6,0,3,,10.0,29.731298,1007.1,,TRUE,TRUE,,,,,,,OVC,7500,,,,,,,VFR,,,,,,,,,,,,METAR,21.0
PAGS 060656Z AUTO 22004KT 10SM OVC037 09/05 A3025 RMK AO2 SLP243 T00890050,PAGS,2023-06-06T06:56:00Z,58.42,-135.7,8.9,5.0,220,4,,10.0,30.250984,1024.3,,TRUE,TRUE,,,,,,,OVC,3700,,,,,,,VFR,,,,,,,,,,,,METAR,9.0
PAGN 060656Z AUTO 00000KT 10SM BKN044 09/06 A3028 RMK AO2 SLP242 T00890056,PAGN,2023-06-06T06:56:00Z,57.5,-134.58,8.9,5.6,0,0,,10.0,30.280512,1024.2,,TRUE,TRUE,,,,,,,BKN,4400,,,,,,,VFR,,,,,,,,,,,,METAR,2.0
PAFM 060656Z AUTO 01009KT 10SM CLR 15/02 A2994 RMK AO2 SLP144 T01500017,PAFM,2023-06-06T06:56:00Z,67.1,-157.85,15.0,1.7,10,9,,10.0,29.940945,1014.4,,TRUE,TRUE,,,,,,,CLR,,,,,,,,VFR,,,,,,,,,,,,METAR,79.0
PAFE 060656Z AUTO 10003KT 10SM BKN035 07/05 A3030 RMK AO2 SLP275 T00720050 $,PAFE,2023-06-06T06:56:00Z,56.97,-133.92,7.2,5.0,100,3,,10.0,30.301182,1027.5,,TRUE,TRUE,TRUE,,,,,,BKN,3500,,,,,,,VFR,,,,,,,,,,,,METAR,1.0
PADU 060656Z AUTO VRB03KT 10SM OVC036 08/05 A2958 RMK AO2 SLP019 T00780050 $,PADU,2023-06-06T06:56:00Z,53.9,-166.53,7.8,5.0,0,3,,10.0,29.58071,1001.9,,TRUE,TRUE,TRUE,,,,,,OVC,3600,,,,,,,VFR,,,,,,,,,,,,METAR,4.0
PADM 060656Z AUTO 06010KT 10SM -RA OVC070 13/06 A2975 RMK AO2 SLP079 P0000 T01280061,PADM,2023-06-06T06:56:00Z,61.87,-162.03,12.8,6.1,60,10,,10.0,29.749016,1007.9,,TRUE,TRUE,,,,,,-RA,OVC,7000,,,,,,,VFR,,,,,,0.005,,,,,,METAR,17.0
PADL 060656Z AUTO 13016KT 10SM FEW023 SCT048 BKN060 08/06 A2970 RMK AO2 RAE0557B22E35 SLP059 P0000 T00830061,PADL,2023-06-06T06:56:00Z,59.05,-158.5,8.3,6.1,130,16,,10.0,29.698818,1005.9,,TRUE,TRUE,,,,,,,FEW,2300,SCT,4800,BKN,6000,,,VFR,,,,,,0.005,,,,,,METAR,20.0
PADK 060656Z AUTO 23020G26KT BKN006 OVC010 07/07 A2948 RMK AO2 PK WND 23026/0656 CIG 005V009 SLP981 T00720067 PWINO $,PADK,2023-06-06T06:56:00Z,51.88,-176.65,7.2,6.7,230,20,26,,29.480314,998.1,,TRUE,TRUE,TRUE,,,,TRUE,,BKN,600,OVC,1000,,,,,,,,,,,,,,,,,METAR,3.0
PACM 060656Z AUTO 10006KT FEW040 BKN070 OVC085 12/08 A2968 RMK AO2 SLP045 T01220078 PWINO $,PACM,2023-06-06T06:56:00Z,61.85,-165.57,12.2,7.8,100,6,,,29.681103,1004.5,,TRUE,TRUE,TRUE,,,,TRUE,,FEW,4000,BKN,7000,OVC,8500,,,,,,,,,,,,,,,METAR,3.0
PABV 060656Z AUTO 23007KT 10SM CLR 16/03 A2993 RMK AO2 SLP139 T01610028,PABV,2023-06-06T06:56:00Z,61.42,-149.52,16.1,2.8,230,7,,10.0,29.929134,1013.9,,TRUE,TRUE,,,,,,,CLR,,,,,,,,VFR,,,,,,,,,,,,METAR,21.0
PABL 060656Z AUTO 05005KT 10SM OVC075 16/06 A2986 RMK AO2 SLP114 T01610061,PABL,2023-06-06T06:56:00Z,65.98,-161.15,16.1,6.1,50,5,,10.0,29.861221,1011.4,,TRUE,TRUE,,,,,,,OVC,7500,,,,,,,VFR,,,,,,,,,,,,METAR,7.0
PAAK 060656Z AUTO VRB06KT 10SM OVC007 06/06 A2955 RMK AO2 RAE11 SLP007 P0000 T00610061,PAAK,2023-06-06T06:56:00Z,52.22,-174.2,6.1,6.1,0,6,,10.0,29.551182,1000.7,,TRUE,TRUE,,,,,,,OVC,700,,,,,,,IFR,,,,,,0.005,,,,,,METAR,11.0
LIRI 060656Z VRB01KT CAVOK 23/16 Q1016,LIRI,2023-06-06T06:56:00Z,40.62,14.92,23.0,16.0,0,1,,6.21,30.0,,,,,,,,,,,CAVOK,,,,,,,,VFR,,,,,,,,,,,,SPECI,31.0
KYKN 060656Z AUTO 00000KT 10SM CLR 21/14 A3002 RMK AO2 SLP167 T02060139,KYKN,2023-06-06T06:56:00Z,42.92,-97.37,20.6,13.9,0,0,,10.0,30.02067,1016.7,,TRUE,TRUE,,,,,,,CLR,,,,,,,,VFR,,,,,,,,,,,,SPECI,388.0
KY50 060656Z AUTO 04005KT 10SM CLR 17/14 A3004 RMK AO2 SLP167 T01720139 $,KY50,2023-06-06T06:56:00Z,44.03,-89.3,17.2,13.9,40,5,,10.0,30.041338,1016.7,,TRUE,TRUE,TRUE,,,,,,CLR,,,,,,,,VFR,,,,,,,,,,,,SPECI,261.0
KXVG 060656Z AUTO 00000KT 7SM SCT085 15/13 A3008 RMK AO2,KXVG,2023-06-06T06:56:00Z,46.98,-94.2,15.0,13.0,0,0,,7.0,30.079725,,,TRUE,TRUE,,,,,,,SCT,8500,,,,,,,VFR,,,,,,,,,,,,SPECI,407.0
KWWD 060656Z AUTO 28004KT 10SM CLR 17/12 A2981 RMK AO2 SLP097 T01720122 $,KWWD,2023-06-06T06:56:00Z,39.02,-74.92,17.2,12.2,280,4,,10.0,29.811024,1009.7,,TRUE,TRUE,TRUE,,,,,,CLR,,,,,,,,VFR,,,,,,,,,,,,METAR,4.0
KWVL 060656Z AUTO 34010G17KT 10SM BKN090 OVC110 12/10 A2960 RMK AO2 SLP048 T01220100,KWVL,2023-06-06T06:56:00Z,44.52,-69.67,12.2,10.0,340,10,17,10.0,29.601377,1004.8,,TRUE,TRUE,,,,,,,BKN,9000,OVC,11000,,,,,VFR,,,,,,,,,,,,METAR,87.0
KWMC 060656Z AUTO 03009KT 10SM CLR 18/06 A2992 RMK AO2 SLP083 T01830061,KWMC,2023-06-06T06:56:00Z,40.9,-117.8,18.3,6.1,30,9,,10.0,29.920275,1008.3,,TRUE,TRUE,,,,,,,CLR,,,,,,,,VFR,,,,,,,,,,,,SPECI,1311.0
KWJF 060656Z AUTO 22018G24KT 10SM CLR 12/06 A2983 RMK AO2 SLP088 T01220056,KWJF,2023-06-06T06:56:00Z,34.73,-118.22,12.2,5.6,220,18,24,10.0,29.828741,1008.8,,TRUE,TRUE,,,,,,,CLR,,,,,,,,VFR,,,,,,,,,,,,METAR,712.0
KVPZ 060656Z AUTO 33005KT 10SM CLR 17/09 A3001 RMK AO2 SLP159 T01670094 PWINO $,KVPZ,2023-06-06T06:56:00Z,41.45,-87.0,16.7,9.4,330,5,,10.0,30.008858,1015.9,,TRUE,TRUE,TRUE,,,,TRUE,,CLR,,,,,,,,VFR,,,,,,,,,,,,SPECI,235.0
KVIS 060656Z AUTO 17005KT 10SM CLR 17/13 A2975 RMK AO2 SLP079 T01720128,KVIS,2023-06-06T06:56:00Z,36.32,-119.4,17.2,12.8,170,5,,10.0,29.749016,1007.9,,TRUE,TRUE,,,,,,,CLR,,,,,,,,VFR,,,,,,,,,,,,SPECI,92.0
KVBT 060656Z AUTO 02003KT 10SM CLR 21/17 A3003 RMK AO2 SLP159 T02060172,KVBT,2023-06-06T06:56:00Z,36.35,-94.22,20.6,17.2,20,3,,10.0,30.029528,1015.9,,TRUE,TRUE,,,,,,,CLR,,,,,,,,VFR,,,,,,,,,,,,METAR,390.0
KUKI 060656Z AUTO 17006KT 10SM CLR 14/10 A2984 RMK AO2 SLP098 T01390100,KUKI,2023-06-06T06:56:00Z,39.12,-123.2,13.9,10.0,170,6,,10.0,29.840551,1009.8,,TRUE,TRUE,,,,,,,CLR,,,,,,,,VFR,,,,,,,,,,,,SPECI,183.0
KUDG 060656Z AUTO 22006KT 10SM CLR 17/16 A2994 RMK AO2 SLP138 T01670161,KUDG,2023-06-06T06:56:00Z,34.45,-79.88,16.7,16.1,220,6,,10.0,29.940945,1013.8,,TRUE,TRUE,,,,,,,CLR,,,,,,,,VFR,,,,,,,,,,,,METAR,57.0
KUCP 060656Z AUTO 00000KT 9SM CLR 08/08 A2993 RMK AO2 SLP147 T00830078,KUCP,2023-06-06T06:56:00Z,41.03,-80.42,8.3,7.8,0,0,,9.0,29.929134,1014.7,,TRUE,TRUE,,,,,,,CLR,,,,,,,,VFR,,,,,,,,,,,,METAR,313.0
KTVF 060656Z AUTO 12005KT 10SM CLR 20/ A3002 RMK AO2 SLP162 T0200,KTVF,2023-06-06T06:56:00Z,48.07,-96.17,20.0,,120,5,,10.0,30.02067,1016.2,,TRUE,TRUE,,,,,,,CLR,,,,,,,,VFR,,,,,,,,,,,,SPECI,339.0
KTPH 060656Z AUTO 36013G19KT 10SM -RA SCT060 BKN075 OVC110 15/09 A2999 RMK AO2 LTG DSNT E RAB18 SLP085 P0000 T01500094,KTPH,2023-06-06T06:56:00Z,38.05,-117.08,15.0,9.4,360,13,19,10.0,29.991142,1008.5,,TRUE,TRUE,,,,,,-RA,SCT,6000,BKN,7500,OVC,11000,,,VFR,,,,,,0.005,,,,,,SPECI,1647.0
KSXT 060656Z AUTO 01009G17KT 10SM CLR 17/02 A2998 RMK AO2 SLP100 T01670022 $,KSXT,2023-06-06T06:56:00Z,42.6,-123.37,16.7,2.2,10,9,17,10.0,29.97933,1010.0,,TRUE,TRUE,TRUE,,,,,,CLR,,,,,,,,VFR,,,,,,,,,,,,METAR,1151.0
KSUE 060656Z AUTO 01010KT 10SM CLR 14/12 A3005 RMK AO2 SLP172 T01440122,KSUE,2023-06-06T06:56:00Z,44.85,-87.42,14.4,12.2,10,10,,10.0,30.050198,1017.2,,TRUE,TRUE,,,,,,,CLR,,,,,,,,VFR,,,,,,,,,,,,SPECI,215.0
KSRC 060656Z AUTO 30004KT 10SM FEW065 21/19 A2998 RMK AO2 SLP147 T02060189,KSRC,2023-06-06T06:56:00Z,35.22,-91.73,20.6,18.9,300,4,,10.0,29.97933,1014.7,,TRUE,TRUE,,,,,,,FEW,6500,,,,,,,VFR,,,,,,,,,,,,METAR,80.0
KSQI 060656Z AUTO 00000KT 10SM CLR 16/12 A3001 RMK AO2 SLP028 T01610122,KSQI,2023-06-06T06:56:00Z,41.75,-89.67,16.1,12.2,0,0,,10.0,30.008858,1002.8,,TRUE,TRUE,,,,,,,CLR,,,,,,,,VFR,,,,,,,,,,,,METAR,196.0
KSPD 060656Z AUTO 22003KT 13/11 A3016 RMK AO1 SLP171 T01330106 402110128,KSPD,2023-06-06T06:56:00Z,37.28,-102.62,13.3,10.6,220,3,,,30.159449,1017.1,,TRUE,TRUE,,,,,,,,,,,,,,,,,,,21.1,12.8,,,,,,,METAR,1340.0
KSOP 060656Z AUTO 27003KT 10SM CLR 17/16 A2993 RMK AO2 SLP137 T01720161,KSOP,2023-06-06T06:56:00Z,35.23,-79.4,17.2,16.1,270,3,,10.0,29.929134,1013.7,,TRUE,TRUE,,,,,,,CLR,,,,,,,,VFR,,,,,,,,,,,,METAR,135.0
KSMP 060656Z AUTO 22003KT 10SM CLR 09/04 A3006 RMK AO2 SLP166 T00890039,KSMP,2023-06-06T06:56:00Z,47.28,-121.33,8.9,3.9,220,3,,10.0,30.059055,1016.6,,TRUE,TRUE,,,,,,,CLR,,,,,,,,VFR,,,,,,,,,,,,METAR,1206.0
KSMN 060656Z AUTO 00000KT 10SM CLR 12/09 A3006 RMK AO2 SLP869 T01170094 402390117,KSMN,2023-06-06T06:56:00Z,45.12,-113.87,11.7,9.4,0,0,,10.0,30.059055,986.9,,TRUE,TRUE,,,,,,,CLR,,,,,,,,VFR,,,,23.9,11.7,,,,,,,METAR,1228.0
KSLG 060656Z AUTO 00000KT 8SM CLR 18/18 A3001 RMK AO2 SLP150 T01830183,KSLG,2023-06-06T06:56:00Z,36.2,-94.48,18.3,18.3,0,0,,8.0,30.008858,1015.0,,TRUE,TRUE,,,,,,,CLR,,,,,,,,VFR,,,,,,,,,,,,METAR,361.0
KSLE 060656Z AUTO 01004KT 10SM CLR 17/M02 A2991 RMK AO2 SLP128 T01671017 $,KSLE,2023-06-06T06:56:00Z,44.9,-123.0,16.7,-1.7,10,4,,10.0,29.911417,1012.8,,TRUE,TRUE,TRUE,,,,,,CLR,,,,,,,,VFR,,,,,,,,,,,,SPECI,63.0
KSKX 060656Z AUTO 04004KT 10SM CLR 08/05 A3030 RMK AO2 SLP207 T00830050 402390061,KSKX,2023-06-06T06:56:00Z,36.45,-105.67,8.3,5.0,40,4,,10.0,30.301182,1020.7,,TRUE,TRUE,,,,,,,CLR,,,,,,,,VFR,,,,23.9,6.1,,,,,,,METAR,2163.0
KSHV 060656Z 00000KT 10SM SCT150 OVC250 22/19 A2994 RMK SLPNO,KSHV,2023-06-06T06:56:00Z,32.45,-93.83,22.0,19.0,0,0,,10.0,29.940945,,,,,,,,,,,SCT,15000,OVC,25000,,,,,VFR,,,,,,,,,,,,METAR,70.0
KSGU 060656Z AUTO 00000KT 10SM CLR 26/M01 A2978 RMK AO2 SLP044 T02611011 403610194,KSGU,2023-06-06T06:56:00Z,37.03,-113.52,26.1,-1.1,0,0,,10.0,29.778543,1004.4,,TRUE,TRUE,,,,,,,CLR,,,,,,,,VFR,,,,36.1,19.4,,,,,,,SPECI,877.0
KSGT 060656Z AUTO 22012KT 10SM FEW055 23/18 A2996 RMK AO2 SLP143 T02280183,KSGT,2023-06-06T06:56:00Z,34.6,-91.57,22.8,18.3,220,12,,10.0,29.958662,1014.3,,TRUE,TRUE,,,,,,,FEW,5500,,,,,,,VFR,,,,,,,,,,,,METAR,67.0
KSGJ 060656Z AUTO 00000KT 10SM 19/18 A2997 RMK AO2 SLP146 T01940178 $,KSGJ,2023-06-06T06:56:00Z,29.97,-81.33,19.4,17.8,0,0,,10.0,29.970472,1014.6,,TRUE,TRUE,TRUE,,,,,,,,,,,,,,,,,,,,,,,,,,METAR,2.0
KSGH 060656Z AUTO 00000KT 7SM CLR 12/07 A2999 RMK AO2 SLP151 T01170067,KSGH,2023-06-06T06:56:00Z,39.83,-83.83,11.7,6.7,0,0,,7.0,29.991142,1015.1,,TRUE,TRUE,,,,,,,CLR,,,,,,,,VFR,,,,,,,,,,,,SPECI,318.0
KSFZ 060656Z AUTO 30006KT 10SM FEW060 SCT075 OVC090 14/09 A2971 RMK AO2 SLP057 T01390094,KSFZ,2023-06-06T06:56:00Z,41.92,-71.5,13.9,9.4,300,6,,10.0,29.71063,1005.7,,TRUE,TRUE,,,,,,,FEW,6000,SCT,7500,OVC,9000,,,VFR,,,,,,,,,,,,METAR,129.0
KSFO 060656Z 21015KT 10SM SCT150 16/11 A2982 RMK AO2 SLP096 T01610106,KSFO,2023-06-06T06:56:00Z,37.62,-122.37,16.1,10.6,210,15,,10.0,29.819881,1009.6,,,TRUE,,,,,,,SCT,15000,,,,,,,VFR,,,,,,,,,,,,SPECI,2.0
KSFM 060656Z AUTO 31003KT 10SM SCT065 11/09 A2966 RMK AO2 SLP048 T01060094,KSFM,2023-06-06T06:56:00Z,43.38,-70.72,10.6,9.4,310,3,,10.0,29.660433,1004.8,,TRUE,TRUE,,,,,,,SCT,6500,,,,,,,VFR,,,,,,,,,,,,METAR,70.0
KSDY 060656Z AUTO 15003KT 10SM CLR 21/16 A2996 RMK AO2 SLP134 T02060156 403170167,KSDY,2023-06-06T06:56:00Z,47.7,-104.2,20.6,15.6,150,3,,10.0,29.958662,1013.4,,TRUE,TRUE,,,,,,,CLR,,,,,,,,VFR,,,,31.7,16.7,,,,,,,METAR,600.0
KSDF 060656Z 00000KT 10SM FEW300 19/12 A2997 RMK AO2 SLP144 T01890122,KSDF,2023-06-06T06:56:00Z,38.18,-85.73,18.9,12.2,0,0,,10.0,29.970472,1014.4,,,TRUE,,,,,,,FEW,30000,,,,,,,VFR,,,,,,,,,,,,METAR,146.0
KSBP 060656Z AUTO 28004KT 10SM -RA SCT017 BKN024 BKN090 14/13 A2986 RMK AO2 LTG DSNT E AND SE TSB03E05B14E16B18E19B21E22 PRESFR SLP110 P0003 T01390128,KSBP,2023-06-06T06:56:00Z,35.23,-120.63,13.9,12.8,280,4,,10.0,29.861221,1011.0,,TRUE,TRUE,,,,,,-RA,SCT,1700,BKN,2400,BKN,9000,,,MVFR,,,,,,0.03,,,,,,SPECI,52.0
KRUT 060656Z AUTO 15005KT 10SM OVC050 08/06 A2974 RMK AO2 SLP063 T00780061 $,KRUT,2023-06-06T06:56:00Z,43.53,-72.95,7.8,6.1,150,5,,10.0,29.740158,1006.3,,TRUE,TRUE,TRUE,,,,,,OVC,5000,,,,,,,VFR,,,,,,,,,,,,METAR,238.0
KRKD 060656Z AUTO VRB04KT 10SM BKN060 11/10 A2959 RMK AO2 SLP018 T01110100,KRKD,2023-06-06T06:56:00Z,44.07,-69.1,11.1,10.0,0,4,,10.0,29.589567,1001.8,,TRUE,TRUE,,,,,,,BKN,6000,,,,,,,VFR,,,,,,,,,,,,METAR,15.0
KRDM 060656Z AUTO 18003KT 10SM CLR 16/08 A2997 RMK AO2 SLP123 T01560078 PNO,KRDM,2023-06-06T06:56:00Z,44.25,-121.15,15.6,7.8,180,3,,10.0,29.970472,1012.3,,TRUE,TRUE,,,,,,,CLR,,,,,,,,VFR,,,,,,,,,,,,SPECI,930.0
KPWT 060656Z AUTO 00000KT 10SM CLR 11/02 A3003 RMK AO2 SLP171 T01110017,KPWT,2023-06-06T06:56:00Z,47.5,-122.77,11.1,1.7,0,0,,10.0,30.029528,1017.1,,TRUE,TRUE,,,,,,,CLR,,,,,,,,VFR,,,,,,,,,,,,SPECI,143.0
KPWG 060656Z AUTO 10003KT 10SM CLR 22/21 A2995 RMK AO2 SLP133 T02220211,KPWG,2023-06-06T06:56:00Z,31.48,-97.32,22.2,21.1,100,3,,10.0,29.949802,1013.3,,TRUE,TRUE,,,,,,,CLR,,,,,,,,VFR,,,,,,,,,,,,SPECI,178.0
KPVU 060656Z AUTO 21004KT 10SM CLR 19/09 A2997 RMK AO2 SLP098 T01940094 402830106,KPVU,2023-06-06T06:56:00Z,40.22,-111.72,19.4,9.4,210,4,,10.0,29.970472,1009.8,,TRUE,TRUE,,,,,,,CLR,,,,,,,,VFR,,,,28.3,10.6,,,,,,,METAR,1370.0
KPVG 060656Z AUTO 9SM CLR 12/12 A2989 RMK AO2 SLP123 T01170117 $,KPVG,2023-06-06T06:56:00Z,36.78,-76.45,11.7,11.7,,,,9.0,29.890747,1012.3,,TRUE,TRUE,TRUE,,,,,,CLR,,,,,,,,VFR,,,,,,,,,,,,METAR,7.0
KPVC 060656Z AUTO 29007KT 10SM OVC090 13/12 A2967 RMK AO2 SLP047 T01330122,KPVC,2023-06-06T06:56:00Z,42.07,-70.22,13.3,12.2,290,7,,10.0,29.66929,1004.7,,TRUE,TRUE,,,,,,,OVC,9000,,,,,,,VFR,,,,,,,,,,,,METAR,1.0
KPTV 060656Z AUTO 15009KT 10SM CLR 17/11 A2980 RMK AO2 SLP087 T01720106 402940167,KPTV,2023-06-06T06:56:00Z,36.02,-119.07,17.2,10.6,150,9,,10.0,29.799213,1008.7,,TRUE,TRUE,,,,,,,CLR,,,,,,,,VFR,,,,29.4,16.7,,,,,,,SPECI,132.0
KPTN 060656Z AUTO 05004KT 10SM CLR 21/20 A2993 RMK AO2 SLP135 T02060200 $,KPTN,2023-06-06T06:56:00Z,29.72,-91.33,20.6,20.0,50,4,,10.0,29.929134,1013.5,,TRUE,TRUE,TRUE,,,,,,CLR,,,,,,,,VFR,,,,,,,,,,,,METAR,2.0
KPRX 060656Z AUTO 00000KT 10SM -RA CLR 21/21 A2994 RMK AO2 RAB03 SLP135 P0000 T02060206,KPRX,2023-06-06T06:56:00Z,33.63,-95.45,20.6,20.6,0,0,,10.0,29.940945,1013.5,,TRUE,TRUE,,,,,,-RA,CLR,,,,,,,,VFR,,,,,,0.005,,,,,,METAR,165.0
KPIB 060656Z AUTO 00000KT 5SM BR CLR 19/19 A2995 RMK AO2 SLP140 T01890189,KPIB,2023-06-06T06:56:00Z,31.47,-89.33,18.9,18.9,0,0,,5.0,29.949802,1014.0,,TRUE,TRUE,,,,,,BR,CLR,,,,,,,,MVFR,,,,,,,,,,,,METAR,91.0
KP60 060656Z AUTO 00000KT 07/04 A3025 RMK AO1 SLP181 T00720044 402000011,KP60,2023-06-06T06:56:00Z,44.55,-110.42,7.2,4.4,0,0,,,30.250984,1018.1,,TRUE,TRUE,,,,,,,,,,,,,,,,,,,20.0,1.1,,,,,,,SPECI,2377.0
KP53 060656Z AUTO 06003KT 09/08 A3008 RMK AO1 SLP188 T00890078,KP53,2023-06-06T06:56:00Z,46.42,-86.65,8.9,7.8,60,3,,,30.079725,1018.8,,TRUE,TRUE,,,,,,,,,,,,,,,,,,,,,,,,,,,SPECI,185.0
KP28 060656Z AUTO 27003KT 17/16 A3004 RMK AO1 SLP160 T01670161 $,KP28,2023-06-06T06:56:00Z,37.28,-98.55,16.7,16.1,270,3,,,30.041338,1016.0,,TRUE,TRUE,TRUE,,,,,,,,,,,,,,,,,,,,,,,,,,METAR,469.0
KOWB 060656Z AUTO 00000KT 10SM CLR 17/13 A2998 RMK AO2 SLP149 T01670133,KOWB,2023-06-06T06:56:00Z,37.72,-87.17,16.7,13.3,0,0,,10.0,29.97933,1014.9,,TRUE,TRUE,,,,,,,CLR,,,,,,,,VFR,,,,,,,,,,,,METAR,121.0
KOTH 060656Z AUTO 36008KT 8SM CLR 11/08 A2994 RMK AO2 SLP137 T01060078,KOTH,2023-06-06T06:56:00Z,43.42,-124.25,10.6,7.8,360,8,,8.0,29.940945,1013.7,,TRUE,TRUE,,,,,,,CLR,,,,,,,,VFR,,,,,,,,,,,,SPECI,3.0
KOTG 060656Z AUTO 21005KT 10SM CLR 21/14 A3003 RMK AO2 SLP161 T02060144 PNO $,KOTG,2023-06-06T06:56:00Z,43.65,-95.57,20.6,14.4,210,5,,10.0,30.029528,1016.1,,TRUE,TRUE,TRUE,,,,,,CLR,,,,,,,,VFR,,,,,,,,,,,,METAR,478.0
KOLU 060656Z AUTO 00000KT 10SM CLR 21/16 A3005 RMK AO2 SLP166 T02060156,KOLU,2023-06-06T06:56:00Z,41.45,-97.33,20.6,15.6,0,0,,10.0,30.050198,1016.6,,TRUE,TRUE,,,,,,,CLR,,,,,,,,VFR,,,,,,,,,,,,METAR,438.0
KOKK 060656Z AUTO 25003KT 10SM CLR 15/09 A3000 RMK AO2 SLP155 T01500089 PNO $,KOKK,2023-06-06T06:56:00Z,40.53,-86.07,15.0,8.9,250,3,,10.0,30.0,1015.5,,TRUE,TRUE,TRUE,,,,,,CLR,,,,,,,,VFR,,,,,,,,,,,,METAR,251.0
KOFK 060656Z AUTO 00000KT 10SM 17/14 A3004 RMK AO2 SLP160 T01670144,KOFK,2023-06-06T06:56:00Z,41.98,-97.43,16.7,14.4,0,0,,10.0,30.041338,1016.0,,TRUE,TRUE,,,,,,,,,,,,,,,,,,,,,,,,,,,SPECI,476.0
KOCH 060656Z AUTO 36003KT 9SM CLR 19/19 A2993 RMK AO2 SLP138 T01940194,KOCH,2023-06-06T06:56:00Z,31.57,-94.72,19.4,19.4,360,3,,9.0,29.929134,1013.8,,TRUE,TRUE,,,,,,,CLR,,,,,,,,VFR,,,,,,,,,,,,SPECI,105.0
KOAJ 060656Z AUTO 22004KT 10SM CLR 14/13 A2992 RMK AO2 SLP134 T01440128,KOAJ,2023-06-06T06:56:00Z,34.82,-77.62,14.4,12.8,220,4,,10.0,29.920275,1013.4,,TRUE,TRUE,,,,,,,CLR,,,,,,,,VFR,,,,,,,,,,,,METAR,26.0
KNYG 060656Z AUTO 29010KT 9SM CLR 16/ A2987 RMK AO2 SLP117 T0156 $,KNYG,2023-06-06T06:56:00Z,38.5,-77.3,15.6,,290,10,,9.0,29.870079,1011.7,,TRUE,TRUE,TRUE,,,,,,CLR,,,,,,,,VFR,,,,,,,,,,,,METAR,2.0
KNXP 060656Z AUTO 25014KT 10SM CLR 22/M13 A2981 RMK AO2 SLP058 T02221133,KNXP,2023-06-06T06:56:00Z,34.28,-116.13,22.2,-13.3,250,14,,10.0,29.811024,1005.8,,TRUE,TRUE,,,,,,,CLR,,,,,,,,VFR,,,,,,,,,,,,SPECI,610.0
KNXF 060656Z AUTO 15003KT 10SM FEW030 OVC047 16/10 A2992 RMK AO2 SLP216 T01610100 $,KNXF,2023-06-06T06:56:00Z,33.28,-117.45,16.1,10.0,150,3,,10.0,29.920275,1021.6,,TRUE,TRUE,TRUE,,,,,,FEW,3000,OVC,4700,,,,,VFR,,,,,,,,,,,,METAR,28.0
KNTU 060656Z 24005KT 10SM FEW300 14/13 A2986 RMK AO2 SLP115 T01440133,KNTU,2023-06-06T06:56:00Z,36.82,-76.02,14.4,13.3,240,5,,10.0,29.861221,1011.5,,,TRUE,,,,,,,FEW,30000,,,,,,,VFR,,,,,,,,,,,,METAR,6.0
KNSE 060656Z AUTO 00000KT 10SM CLR 18/17 A2994 RMK AO2 SLP124 T01830172 $,KNSE,2023-06-06T06:56:00Z,30.73,-87.02,18.3,17.2,0,0,,10.0,29.940945,1012.4,,TRUE,TRUE,TRUE,,,,,,CLR,,,,,,,,VFR,,,,,,,,,,,,METAR,56.0
KNQI 060656Z AUTO 00000KT 10SM CLR 21/21 A2991 RMK AO2 SLP124 T02110206 $,KNQI,2023-06-06T06:56:00Z,27.5,-97.82,21.1,20.6,0,0,,10.0,29.911417,1012.4,,TRUE,TRUE,TRUE,,,,,,CLR,,,,,,,,VFR,,,,,,,,,,,,METAR,15.0
KNPA 060656Z AUTO 00000KT 10SM CLR 19/18 A2993 RMK AO2 SLP138 T01940183,KNPA,2023-06-06T06:56:00Z,30.35,-87.32,19.4,18.3,0,0,,10.0,29.929134,1013.8,,TRUE,TRUE,,,,,,,CLR,,,,,,,,VFR,,,,,,,,,,,,METAR,6.0
KNOG 060656Z AUTO 21003KT 10SM CLR 22/22 A2992 RMK AO2 SLP111 T02220217 TSNO PNO $,KNOG,2023-06-06T06:56:00Z,27.9,-98.05,22.2,21.7,210,3,,10.0,29.920275,1011.1,,TRUE,TRUE,TRUE,,TRUE,,,,CLR,,,,,,,,VFR,,,,,,,,,,,,SPECI,72.0
KNLC 060656Z 17007KT 10SM BKN150 19/11 A2974 RMK AO2 SLP071 RH/58 T01890106 $,KNLC,2023-06-06T06:56:00Z,36.32,-119.95,18.9,10.6,170,7,,10.0,29.740158,1007.1,,,TRUE,TRUE,,,,,,BKN,15000,,,,,,,VFR,,,,,,,,,,,,METAR,69.0
KNKT 060656Z 24007KT 10SM CLR 16/15 A2991 RMK AO2 SLP126 T01610150,KNKT,2023-06-06T06:56:00Z,34.9,-76.88,16.1,15.0,240,7,,10.0,29.911417,1012.6,,,TRUE,,,,,,,CLR,,,,,,,,VFR,,,,,,,,,,,,METAR,8.0
KNJK 060656Z AUTO 28016KT 10SM CLR 21/06 A2971 RMK AO2 PK WND 28026/0631 RAB19E41 SLP075 P0000 T02060056 $,KNJK,2023-06-06T06:56:00Z,32.82,-115.67,20.6,5.6,280,16,,10.0,29.71063,1007.5,,TRUE,TRUE,TRUE,,,,,,CLR,,,,,,,,VFR,,,,,,0.005,,,,,,METAR,-15.0
KNID 060656Z AUTO 17011KT 10SM CLR 19/07 A2973 RMK AO2 SLP047 T01890072 $,KNID,2023-06-06T06:56:00Z,35.68,-117.68,18.9,7.2,170,11,,10.0,29.731298,1004.7,,TRUE,TRUE,TRUE,,,,,,CLR,,,,,,,,VFR,,,,,,,,,,,,SPECI,682.0
KNGP 060656Z AUTO 24003KT 10SM CLR 25/21 A2989 RMK AO2 SLP121 T02500211,KNGP,2023-06-06T06:56:00Z,27.68,-97.28,25.0,21.1,240,3,,10.0,29.890747,1012.1,,TRUE,TRUE,,,,,,,CLR,,,,,,,,VFR,,,,,,,,,,,,METAR,5.0
KNFL 060656Z 23007KT 10SM SCT070 SCT100 SCT150 17/09 A2990 RMK AO2 SLP101 T01670089,KNFL,2023-06-06T06:56:00Z,39.42,-118.7,16.7,8.9,230,7,,10.0,29.899607,1010.1,,,TRUE,,,,,,,SCT,7000,SCT,10000,SCT,15000,,,VFR,,,,,,,,,,,,METAR,1199.0
KNFE 060656Z AUTO 00000KT 10SM CLR 17/13 A2988 RMK AO2 SLP119 T01670133,KNFE,2023-06-06T06:56:00Z,36.7,-76.13,16.7,13.3,0,0,,10.0,29.878937,1011.9,,TRUE,TRUE,,,,,,,CLR,,,,,,,,VFR,,,,,,,,,,,,SPECI,4.0
KNCA 060656Z AUTO 25008KT 10SM CLR 16/13 A2990 RMK AO2 SLP129 T01560128,KNCA,2023-06-06T06:56:00Z,34.72,-77.45,15.6,12.8,250,8,,10.0,29.899607,1012.9,,TRUE,TRUE,,,,,,,CLR,,,,,,,,VFR,,,,,,,,,,,,METAR,9.0
KNBC 060656Z AUTO 00000KT 10SM CLR 18/16 A2995 RMK AO2 SLP141 T01830156 $,KNBC,2023-06-06T06:56:00Z,32.47,-80.72,18.3,15.6,0,0,,10.0,29.949802,1014.1,,TRUE,TRUE,TRUE,,,,,,CLR,,,,,,,,VFR,,,,,,,,,,,,METAR,9.0
KMYR 060656Z AUTO 26004KT 10SM CLR 18/16 A2995 RMK AO2 SLP142 T01780161,KMYR,2023-06-06T06:56:00Z,33.68,-78.92,17.8,16.1,260,4,,10.0,29.949802,1014.2,,TRUE,TRUE,,,,,,,CLR,,,,,,,,VFR,,,,,,,,,,,,METAR,7.0
KMVN 060656Z AUTO 00000KT 7SM CLR 10/09 A3000 RMK AO2 SLP159 T01000094,KMVN,2023-06-06T06:56:00Z,38.32,-88.87,10.0,9.4,0,0,,7.0,30.0,1015.9,,TRUE,TRUE,,,,,,,CLR,,,,,,,,VFR,,,,,,,,,,,,METAR,145.0
KMTW 060656Z AUTO 34005KT 7SM BKN060 17/12 A3004 RMK AO2 SLP170 T01720122,KMTW,2023-06-06T06:56:00Z,44.12,-87.67,17.2,12.2,340,5,,7.0,30.041338,1017.0,,TRUE,TRUE,,,,,,,BKN,6000,,,,,,,VFR,,,,,,,,,,,,SPECI,197.0
KMSV 060656Z AUTO 26005KT 8SM CLR 09/03 A2982 RMK AO2 SLP093 T00940028,KMSV,2023-06-06T06:56:00Z,41.7,-74.78,9.4,2.8,260,5,,8.0,29.819881,1009.3,,TRUE,TRUE,,,,,,,CLR,,,,,,,,VFR,,,,,,,,,,,,METAR,427.0
KMRF 060656Z AUTO 00000KT 10SM CLR 17/11 A3016 RMK AO2 SLP152 T01720106 402720100,KMRF,2023-06-06T06:56:00Z,30.37,-104.02,17.2,10.6,0,0,,10.0,30.159449,1015.2,,TRUE,TRUE,,,,,,,CLR,,,,,,,,VFR,,,,27.2,10.0,,,,,,,METAR,1476.0
KMQY 060656Z AUTO 31004KT 10SM CLR 21/16 A2996 RMK AO2 SLP146 T02060161,KMQY,2023-06-06T06:56:00Z,36.02,-86.52,20.6,16.1,310,4,,10.0,29.958662,1014.6,,TRUE,TRUE,,,,,,,CLR,,,,,,,,VFR,,,,,,,,,,,,METAR,156.0
KMML 060656Z AUTO 00000KT 10SM CLR 20/17 A3001 RMK AO2 SLP155 T02000167 $,KMML,2023-06-06T06:56:00Z,44.45,-95.82,20.0,16.7,0,0,,10.0,30.008858,1015.5,,TRUE,TRUE,TRUE,,,,,,CLR,,,,,,,,VFR,,,,,,,,,,,,METAR,358.0
KMKY 060656Z AUTO 10SM CLR 22/19 A2992 RMK AO2 SLP132 T02220189 TSNO PNO $,KMKY,2023-06-06T06:56:00Z,26.0,-81.67,22.2,18.9,,,,10.0,29.920275,1013.2,,TRUE,TRUE,TRUE,,TRUE,,,,CLR,,,,,,,,VFR,,,,,,,,,,,,METAR,2.0
KMKT 060656Z AUTO 11006KT 10SM SCT095 22/16 A3001 RMK AO2 SLP157 T02220156,KMKT,2023-06-06T06:56:00Z,44.22,-93.92,22.2,15.6,110,6,,10.0,30.008858,1015.7,,TRUE,TRUE,,,,,,,SCT,9500,,,,,,,VFR,,,,,,,,,,,,METAR,309.0
KMHS 060656Z AUTO 00000KT 10SM FEW120 18/08 A2997 RMK AO2 SLP130 T01830083,KMHS,2023-06-06T06:56:00Z,41.32,-122.32,18.3,8.3,0,0,,10.0,29.970472,1013.0,,TRUE,TRUE,,,,,,,FEW,12000,,,,,,,VFR,,,,,,,,,,,,METAR,1080.0
KMEH 060656Z AUTO 00000KT 10SM CLR 11/06 A3002 RMK AO2 SLP144 T01060061,KMEH,2023-06-06T06:56:00Z,45.52,-118.42,10.6,6.1,0,0,,10.0,30.02067,1014.4,,TRUE,TRUE,,,,,,,CLR,,,,,,,,VFR,,,,,,,,,,,,SPECI,1138.0
KMDT 060656Z 35004KT 10SM CLR 16/09 A2983 RMK AO2 SLP101 T01610089,KMDT,2023-06-06T06:56:00Z,40.2,-76.77,16.1,8.9,350,4,,10.0,29.828741,1010.1,,,TRUE,,,,,,,CLR,,,,,,,,VFR,,,,,,,,,,,,SPECI,91.0
KM19 060656Z AUTO 00000KT 10SM FEW090 21/17 A2997 RMK AO2 SLP144 T02060172 PNO $,KM19,2023-06-06T06:56:00Z,35.65,-91.17,20.6,17.2,0,0,,10.0,29.970472,1014.4,,TRUE,TRUE,TRUE,,,,,,FEW,9000,,,,,,,VFR,,,,,,,,,,,,METAR,72.0
KLZU 060656Z AUTO 00000KT 10SM CLR 21/18 A2995 RMK AO2 SLP144 T02110183,KLZU,2023-06-06T06:56:00Z,33.98,-83.97,21.1,18.3,0,0,,10.0,29.949802,1014.4,,TRUE,TRUE,,,,,,,CLR,,,,,,,,VFR,,,,,,,,,,,,METAR,316.0
KLWS 060656Z AUTO 16004KT 10SM CLR 19/09 A2991 RMK AO2 SLP120 T01890094,KLWS,2023-06-06T06:56:00Z,46.37,-117.02,18.9,9.4,160,4,,10.0,29.911417,1012.0,,TRUE,TRUE,,,,,,,CLR,,,,,,,,VFR,,,,,,,,,,,,SPECI,435.0
KLRD 060656Z AUTO 08004KT 10SM CLR 23/21 A2992 RMK AO2 SLP129 T02330206,KLRD,2023-06-06T06:56:00Z,27.55,-99.47,23.3,20.6,80,4,,10.0,29.920275,1012.9,,TRUE,TRUE,,,,,,,CLR,,,,,,,,VFR,,,,,,,,,,,,METAR,150.0
KLNR 060656Z AUTO 00000KT 6SM BR CLR 17/14 A3000 RMK AO2 SLP150 T01670144,KLNR,2023-06-06T06:56:00Z,43.22,-90.18,16.7,14.4,0,0,,6.0,30.0,1015.0,,TRUE,TRUE,,,,,,BR,CLR,,,,,,,,VFR,,,,,,,,,,,,SPECI,218.0
KLGD 060656Z AUTO 21004KT 10SM CLR 17/08 A2997 RMK AO2 SLP127 T01720078,KLGD,2023-06-06T06:56:00Z,45.28,-118.0,17.2,7.8,210,4,,10.0,29.970472,1012.7,,TRUE,TRUE,,,,,,,CLR,,,,,,,,VFR,,,,,,,,,,,,SPECI,827.0
KLEW 060656Z AUTO 34005KT 10SM OVC100 11/10 A2964 RMK AO2 SLP042 T01110100,KLEW,2023-06-06T06:56:00Z,44.03,-70.28,11.1,10.0,340,5,,10.0,29.639763,1004.2,,TRUE,TRUE,,,,,,,OVC,10000,,,,,,,VFR,,,,,,,,,,,,METAR,81.0
KLCI 060656Z AUTO 00000KT 10SM CLR 09/09 A2968 RMK AO2 SLP051 T00940094,KLCI,2023-06-06T06:56:00Z,43.57,-71.42,9.4,9.4,0,0,,10.0,29.681103,1005.1,,TRUE,TRUE,,,,,,,CLR,,,,,,,,VFR,,,,,,,,,,,,METAR,166.0
KLBL 060656Z AUTO 16003KT 10SM CLR 17/16 A3012 RMK AO2 SLP174 T01720156,KLBL,2023-06-06T06:56:00Z,37.03,-100.97,17.2,15.6,160,3,,10.0,30.121063,1017.4,,TRUE,TRUE,,,,,,,CLR,,,,,,,,VFR,,,,,,,,,,,,METAR,877.0
KLAS 060656Z 20005KT 10SM FEW200 27/M01 A2973 RMK AO2 SLP039 T02721011,KLAS,2023-06-06T06:56:00Z,36.07,-115.17,27.2,-1.1,200,5,,10.0,29.731298,1003.9,,,TRUE,,,,,,,FEW,20000,,,,,,,VFR,,,,,,,,,,,,SPECI,662.0
KKLS 060656Z AUTO 35003KT CLR 15/M02 A2997 RMK AO2 SLP153 T01501022 PWINO $,KKLS,2023-06-06T06:56:00Z,46.12,-122.9,15.0,-2.2,350,3,,,29.970472,1015.3,,TRUE,TRUE,TRUE,,,,TRUE,,CLR,,,,,,,,,,,,,,,,,,,,SPECI,4.0
KJXN 060656Z AUTO 23003KT 9SM SCT080 15/11 A2995 RMK AO2 SLP137 T01500106 $,KJXN,2023-06-06T06:56:00Z,42.27,-84.47,15.0,10.6,230,3,,9.0,29.949802,1013.7,,TRUE,TRUE,TRUE,,,,,,SCT,8000,,,,,,,VFR,,,,,,,,,,,,SPECI,303.0
KJRB 060656Z AUTO 00000KT 9SM CLR 18/05 A2977 RMK AO2 SLP078 T01830050,KJRB,2023-06-06T06:56:00Z,40.7,-74.02,18.3,5.0,0,0,,9.0,29.769686,1007.8,,TRUE,TRUE,,,,,,,CLR,,,,,,,,VFR,,,,,,,,,,,,METAR,2.0
KJMS 060656Z AUTO 12003KT 10SM FEW085 18/16 A3001 RMK AO2 SLP156 T01830156,KJMS,2023-06-06T06:56:00Z,46.93,-98.67,18.3,15.6,120,3,,10.0,30.008858,1015.6,,TRUE,TRUE,,,,,,,FEW,8500,,,,,,,VFR,,,,,,,,,,,,SPECI,455.0
KJHW 060656Z AUTO 25003KT 10SM CLR 12/05 A2991 RMK AO2 SLP129 T01170050 PNO $,KJHW,2023-06-06T06:56:00Z,42.15,-79.27,11.7,5.0,250,3,,10.0,29.911417,1012.9,,TRUE,TRUE,TRUE,,,,,,CLR,,,,,,,,VFR,,,,,,,,,,,,METAR,520.0
KJAX 060656Z 00000KT 10SM CLR 18/16 A2994 RMK AO2 SLP140 T01780161,KJAX,2023-06-06T06:56:00Z,30.5,-81.68,17.8,16.1,0,0,,10.0,29.940945,1014.0,,,TRUE,,,,,,,CLR,,,,,,,,VFR,,,,,,,,,,,,SPECI,8.0
KJAC 060656Z AUTO 04013KT 10SM CLR 13/07 A3015 RMK AO2 SLP158 T01280067 402330028,KJAC,2023-06-06T06:56:00Z,43.62,-110.73,12.8,6.7,40,13,,10.0,30.15059,1015.8,,TRUE,TRUE,,,,,,,CLR,,,,,,,,VFR,,,,23.3,2.8,,,,,,,METAR,1967.0
KIWD 060656Z AUTO 06003KT 6SM BR SCT100 11/10 A3011 RMK AO2 SLP197 T01060100,KIWD,2023-06-06T06:56:00Z,46.52,-90.12,10.6,10.0,60,3,,6.0,30.109253,1019.7,,TRUE,TRUE,,,,,,BR,SCT,10000,,,,,,,VFR,,,,,,,,,,,,METAR,373.0
KITH 060656Z AUTO 08003KT 7SM CLR 10/10 A2984 RMK AO2 RAE02 SLP101 P0000 T01000100,KITH,2023-06-06T06:56:00Z,42.48,-76.45,10.0,10.0,80,3,,7.0,29.840551,1010.1,,TRUE,TRUE,,,,,,,CLR,,,,,,,,VFR,,,,,,0.005,,,,,,SPECI,338.0
KISP 060656Z AUTO 32005KT 10SM CLR 14/12 A2973 RMK AO2 SLP066 T01440117,KISP,2023-06-06T06:56:00Z,40.8,-73.1,14.4,11.7,320,5,,10.0,29.731298,1006.6,,TRUE,TRUE,,,,,,,CLR,,,,,,,,VFR,,,,,,,,,,,,SPECI,25.0
KISM 060656Z AUTO 04003KT 10SM CLR 22/19 A2996 RMK AO2 SLP146 T02220194 PNO $,KISM,2023-06-06T06:56:00Z,28.28,-81.43,22.2,19.4,40,3,,10.0,29.958662,1014.6,,TRUE,TRUE,TRUE,,,,,,CLR,,,,,,,,VFR,,,,,,,,,,,,METAR,25.0
KINW 060656Z AUTO 22007KT 10SM CLR 19/M03 A2998 RMK AO2 SLP074 T01941033 403330083,KINW,2023-06-06T06:56:00Z,35.03,-110.72,19.4,-3.3,220,7,,10.0,29.97933,1007.4,,TRUE,TRUE,,,,,,,CLR,,,,,,,,VFR,,,,33.3,8.3,,,,,,,METAR,1492.0
KILE 060656Z AUTO 00000KT 10SM CLR 21/19 A2995 RMK AO2 SLP129 T02060194,KILE,2023-06-06T06:56:00Z,31.08,-97.68,20.6,19.4,0,0,,10.0,29.949802,1012.9,,TRUE,TRUE,,,,,,,CLR,,,,,,,,VFR,,,,,,,,,,,,METAR,256.0
KHYS 060656Z AUTO 00000KT 10SM CLR 18/15 A3008 RMK AO2 SLP172 T01830150 $,KHYS,2023-06-06T06:56:00Z,38.85,-99.27,18.3,15.0,0,0,,10.0,30.079725,1017.2,,TRUE,TRUE,TRUE,,,,,,CLR,,,,,,,,VFR,,,,,,,,,,,,METAR,607.0
KHYI 060656Z AUTO 35003KT 10SM CLR 18/18 A2994 RMK AO2 SLP131 T01830178,KHYI,2023-06-06T06:56:00Z,29.88,-97.87,18.3,17.8,350,3,,10.0,29.940945,1013.1,,TRUE,TRUE,,,,,,,CLR,,,,,,,,VFR,,,,,,,,,,,,METAR,180.0
KHYA 060656Z AUTO 27006KT 10SM OVC090 13/12 A2965 RMK AO2 SLP042 T01280117,KHYA,2023-06-06T06:56:00Z,41.67,-70.27,12.8,11.7,270,6,,10.0,29.648623,1004.2,,TRUE,TRUE,,,,,,,OVC,9000,,,,,,,VFR,,,,,,,,,,,,SPECI,11.0
KHWV 060656Z AUTO 00000KT 10SM CLR 13/11 A2973 RMK AO2 SLP068 T01280111,KHWV,2023-06-06T06:56:00Z,40.82,-72.87,12.8,11.1,0,0,,10.0,29.731298,1006.8,,TRUE,TRUE,,,,,,,CLR,,,,,,,,VFR,,,,,,,,,,,,SPECI,20.0
KHPN 060656Z 33006KT 6SM HZ FEW050 14/06 A2975 RMK AO2 SLP071 T01440061,KHPN,2023-06-06T06:56:00Z,41.07,-73.7,14.4,6.1,330,6,,6.0,29.749016,1007.1,,,TRUE,,,,,,HZ,FEW,5000,,,,,,,VFR,,,,,,,,,,,,SPECI,113.0
KHND 060656Z AUTO 15005KT 10SM CLR 25/M02 A2977 RMK AO2 SLP064 T02501022 403720200,KHND,2023-06-06T06:56:00Z,35.98,-115.13,25.0,-2.2,150,5,,10.0,29.769686,1006.4,,TRUE,TRUE,,,,,,,CLR,,,,,,,,VFR,,,,37.2,20.0,,,,,,,METAR,740.0
KHNB 060656Z AUTO 00000KT 10SM CLR 15/13 A2999 RMK AO2 SLP151 T01500128,KHNB,2023-06-06T06:56:00Z,38.25,-86.95,15.0,12.8,0,0,,10.0,29.991142,1015.1,,TRUE,TRUE,,,,,,,CLR,,,,,,,,VFR,,,,,,,,,,,,METAR,159.0
KHEZ 060656Z AUTO 09003KT 10SM CLR 19/18 A2996 RMK AO2 SLP143 T01890183,KHEZ,2023-06-06T06:56:00Z,31.62,-91.3,18.9,18.3,90,3,,10.0,29.958662,1014.3,,TRUE,TRUE,,,,,,,CLR,,,,,,,,VFR,,,,,,,,,,,,METAR,82.0
KHEF 060656Z AUTO 00000KT 10SM CLR 10/10 A2988 RMK AO2 SLP125 T01000100,KHEF,2023-06-06T06:56:00Z,38.72,-77.52,10.0,10.0,0,0,,10.0,29.878937,1012.5,,TRUE,TRUE,,,,,,,CLR,,,,,,,,VFR,,,,,,,,,,,,METAR,53.0
KHDN 060656Z AUTO 09009KT 10SM CLR 11/06 A3017 RMK AO2 SLP150 T01060061,KHDN,2023-06-06T06:56:00Z,40.48,-107.22,10.6,6.1,90,9,,10.0,30.171259,1015.0,,TRUE,TRUE,,,,,,,CLR,,,,,,,,VFR,,,,,,,,,,,,SPECI,2012.0
KGXY 060656Z AUTO 04003KT 10SM CLR 13/12 A3013 RMK AO2 SLP178 T01280122 402440122,KGXY,2023-06-06T06:56:00Z,40.43,-104.62,12.8,12.2,40,3,,10.0,30.129921,1017.8,,TRUE,TRUE,,,,,,,CLR,,,,,,,,VFR,,,,24.4,12.2,,,,,,,SPECI,1420.0
KGVQ 060656Z AUTO 24009KT 10SM CLR 14/07 A2985 RMK AO2 SLP105 T01390067,KGVQ,2023-06-06T06:56:00Z,43.03,-78.17,13.9,6.7,240,9,,10.0,29.84941,1010.5,,TRUE,TRUE,,,,,,,CLR,,,,,,,,VFR,,,,,,,,,,,,METAR,279.0
KGUC 060656Z AUTO 07009KT 10SM CLR 11/05 A3029 RMK AO2 SLP174 T01110050,KGUC,2023-06-06T06:56:00Z,38.52,-106.93,11.1,5.0,70,9,,10.0,30.28937,1017.4,,TRUE,TRUE,,,,,,,CLR,,,,,,,,VFR,,,,,,,,,,,,SPECI,2337.0
KGTU 060656Z AUTO 09004KT 10SM CLR 21/19 A2996 RMK AO2 SLP139 T02110194,KGTU,2023-06-06T06:56:00Z,30.68,-97.68,21.1,19.4,90,4,,10.0,29.958662,1013.9,,TRUE,TRUE,,,,,,,CLR,,,,,,,,VFR,,,,,,,,,,,,SPECI,232.0
KGTR 060656Z AUTO 00000KT 10SM CLR 19/18 A2995 RMK AO2 SLP147 T01890183,KGTR,2023-06-06T06:56:00Z,33.45,-88.58,18.9,18.3,0,0,,10.0,29.949802,1014.7,,TRUE,TRUE,,,,,,,CLR,,,,,,,,VFR,,,,,,,,,,,,METAR,80.0
KGRD 060656Z AUTO 00000KT 9SM BKN040 19/18 A2994 RMK AO2 SLP132 T01940178,KGRD,2023-06-06T06:56:00Z,34.25,-82.15,19.4,17.8,0,0,,9.0,29.940945,1013.2,,TRUE,TRUE,,,,,,,BKN,4000,,,,,,,VFR,,,,,,,,,,,,METAR,188.0
KGPZ 060656Z AUTO 15004KT 7SM CLR 14/11 A3012 RMK AO2 SLP196 T01440106,KGPZ,2023-06-06T06:56:00Z,47.22,-93.52,14.4,10.6,150,4,,7.0,30.121063,1019.6,,TRUE,TRUE,,,,,,,CLR,,,,,,,,VFR,,,,,,,,,,,,SPECI,410.0
KGON 060656Z AUTO 30005KT 10SM OVC095 16/09 A2971 RMK AO2 SLP060 T01610094 $,KGON,2023-06-06T06:56:00Z,41.33,-72.05,16.1,9.4,300,5,,10.0,29.71063,1006.0,,TRUE,TRUE,TRUE,,,,,,OVC,9500,,,,,,,VFR,,,,,,,,,,,,SPECI,2.0
KGNR 060656Z AUTO 35014G22KT 09/08 A2962 RMK AO1 SLP036 T00940078,KGNR,2023-06-06T06:56:00Z,45.47,-69.55,9.4,7.8,350,14,22,,29.619095,1003.6,,TRUE,TRUE,,,,,,,,,,,,,,,,,,,,,,,,,,,METAR,426.0
KGNA 060656Z AUTO 00000KT 08/06 A3014 RMK AO1 SLP209 T00780061,KGNA,2023-06-06T06:56:00Z,47.75,-90.35,7.8,6.1,0,0,,,30.138779,1020.9,,TRUE,TRUE,,,,,,,,,,,,,,,,,,,,,,,,,,,SPECI,186.0
KGDV 060656Z AUTO 15004KT 10SM CLR 21/14 A2997 RMK AO2 SLP126 T02060139 403000167 TSNO,KGDV,2023-06-06T06:56:00Z,47.13,-104.8,20.6,13.9,150,4,,10.0,29.970472,1012.6,,TRUE,TRUE,,,TRUE,,,,CLR,,,,,,,,VFR,,,,30.0,16.7,,,,,,,SPECI,749.0
KGBD 060656Z AUTO 23004KT 10SM FEW120 17/17 A3008 RMK AO2 SLP171 P0001 T01720167,KGBD,2023-06-06T06:56:00Z,38.35,-98.87,17.2,16.7,230,4,,10.0,30.079725,1017.1,,TRUE,TRUE,,,,,,,FEW,12000,,,,,,,VFR,,,,,,0.01,,,,,,METAR,573.0
KGAI 060656Z AUTO 00000KT 10SM CLR 11/09 A2988 RMK AO2 SLP130 T01060094,KGAI,2023-06-06T06:56:00Z,39.17,-77.17,10.6,9.4,0,0,,10.0,29.878937,1013.0,,TRUE,TRUE,,,,,,,CLR,,,,,,,,VFR,,,,,,,,,,,,METAR,151.0
KGAD 060656Z AUTO 00000KT 10SM CLR 18/18 A2995 RMK AO2 SLP141 T01830183 PNO $,KGAD,2023-06-06T06:56:00Z,33.97,-86.08,18.3,18.3,0,0,,10.0,29.949802,1014.1,,TRUE,TRUE,TRUE,,,,,,CLR,,,,,,,,VFR,,,,,,,,,,,,METAR,169.0
KFSD 060656Z AUTO 00000KT 10SM CLR 19/14 A3001 RMK AO2 SLP154 T01940144,KFSD,2023-06-06T06:56:00Z,43.58,-96.75,19.4,14.4,0,0,,10.0,30.008858,1015.4,,TRUE,TRUE,,,,,,,CLR,,,,,,,,VFR,,,,,,,,,,,,SPECI,433.0
KFRM 060656Z AUTO 22007KT 10SM CLR 23/14 A3001 RMK AO2 SLP157 T02330139,KFRM,2023-06-06T06:56:00Z,43.63,-94.42,23.3,13.9,220,7,,10.0,30.008858,1015.7,,TRUE,TRUE,,,,,,,CLR,,,,,,,,VFR,,,,,,,,,,,,METAR,353.0
KFOD 060656Z AUTO 19003KT 7SM CLR 19/16 A3004 RMK AO2 SLP176 T01940161,KFOD,2023-06-06T06:56:00Z,42.53,-94.17,19.4,16.1,190,3,,7.0,30.041338,1017.6,,TRUE,TRUE,,,,,,,CLR,,,,,,,,VFR,,,,,,,,,,,,METAR,347.0
KFNL 060656Z 18003KT 10SM CLR 13/12 A3014 RMK AO2 SLP160 T01280117 402330117,KFNL,2023-06-06T06:56:00Z,40.45,-105.02,12.8,11.7,180,3,,10.0,30.138779,1016.0,,,TRUE,,,,,,,CLR,,,,,,,,VFR,,,,23.3,11.7,,,,,,,SPECI,1529.0
KFLP 060656Z AUTO 02003KT 10SM CLR 19/17 A3001 RMK AO2 SLP153 T01940167,KFLP,2023-06-06T06:56:00Z,36.28,-92.58,19.4,16.7,20,3,,10.0,30.008858,1015.3,,TRUE,TRUE,,,,,,,CLR,,,,,,,,VFR,,,,,,,,,,,,METAR,215.0
KFKL 060656Z AUTO 26005KT 10SM CLR 12/05 A2992 RMK AO2 SLP130 T01170050,KFKL,2023-06-06T06:56:00Z,41.37,-79.87,11.7,5.0,260,5,,10.0,29.920275,1013.0,,TRUE,TRUE,,,,,,,CLR,,,,,,,,VFR,,,,,,,,,,,,METAR,468.0
KFCI 060656Z AUTO 00000KT 10SM SCT080 13/13 RMK AO2 SLPNO T01280128 $,KFCI,2023-06-06T06:56:00Z,37.4,-77.52,12.8,12.8,0,0,,10.0,,,,TRUE,TRUE,TRUE,,,,,,SCT,8000,,,,,,,VFR,,,,,,,,,,,,METAR,63.0
KFAM 060656Z AUTO 00000KT 10SM CLR 12/09 A3003 RMK AO2 SLP170 T01220089,KFAM,2023-06-06T06:56:00Z,37.77,-90.42,12.2,8.9,0,0,,10.0,30.029528,1017.0,,TRUE,TRUE,,,,,,,CLR,,,,,,,,VFR,,,,,,,,,,,,METAR,276.0
KEWK 060656Z AUTO 34004KT 10SM SCT120 17/17 A3005 RMK AO2 SLP162 T01720172,KEWK,2023-06-06T06:56:00Z,38.05,-97.27,17.2,17.2,340,4,,10.0,30.050198,1016.2,,TRUE,TRUE,,,,,,,SCT,12000,,,,,,,VFR,,,,,,,,,,,,METAR,468.0
KEUL 060656Z AUTO 10SM CLR 18/09 A2989 RMK AO2 SLP103 T01830089 403000139,KEUL,2023-06-06T06:56:00Z,43.63,-116.62,18.3,8.9,,,,10.0,29.890747,1010.3,,TRUE,TRUE,,,,,,,CLR,,,,,,,,VFR,,,,30.0,13.9,,,,,,,SPECI,741.0
KESC 060656Z AUTO 01006KT 10SM CLR 13/09 A3006 RMK AO2 SLP182 T01280094,KESC,2023-06-06T06:56:00Z,45.72,-87.08,12.8,9.4,10,6,,10.0,30.059055,1018.2,,TRUE,TRUE,,,,,,,CLR,,,,,,,,VFR,,,,,,,,,,,,METAR,180.0
KENV 060656Z AUTO 28009KT 10SM CLR 21/07 A2994 RMK AO2 SLP103 T02060072 402780117 PNO $,KENV,2023-06-06T06:56:00Z,40.72,-114.02,20.6,7.2,280,9,,10.0,29.940945,1010.3,,TRUE,TRUE,TRUE,,,,,,CLR,,,,,,,,VFR,,,,27.8,11.7,,,,,,,METAR,1291.0
KELZ 060656Z AUTO 32004KT 9SM FEW110 11/04 A2990 RMK AO2 SLP120 T01060044,KELZ,2023-06-06T06:56:00Z,42.1,-77.98,10.6,4.4,320,4,,9.0,29.899607,1012.0,,TRUE,TRUE,,,,,,,FEW,11000,,,,,,,VFR,,,,,,,,,,,,SPECI,639.0
KEKY 060656Z AUTO 35003KT 10SM CLR 21/19 A2997 RMK AO2 SLP995 T02060189,KEKY,2023-06-06T06:56:00Z,33.32,-86.93,20.6,18.9,350,3,,10.0,29.970472,999.5,,TRUE,TRUE,,,,,,,CLR,,,,,,,,VFR,,,,,,,,,,,,METAR,213.0
KEKQ 060656Z AUTO 00000KT 10SM CLR 16/14 A2998 RMK AO2 SLP143 T01610139,KEKQ,2023-06-06T06:56:00Z,36.85,-84.85,16.1,13.9,0,0,,10.0,29.97933,1014.3,,TRUE,TRUE,,,,,,,CLR,,,,,,,,VFR,,,,,,,,,,,,METAR,291.0
KEKO 060656Z AUTO 06007KT 10SM CLR 13/08 A2998 RMK AO2 SLP104 T01330078 $,KEKO,2023-06-06T06:56:00Z,40.82,-115.78,13.3,7.8,60,7,,10.0,29.97933,1010.4,,TRUE,TRUE,TRUE,,,,,,CLR,,,,,,,,VFR,,,,,,,,,,,,SPECI,1541.0
KEHR 060656Z AUTO 00000KT 10SM CLR 16/14 A2998 RMK AO2 SLP150 T01560139,KEHR,2023-06-06T06:56:00Z,37.82,-87.67,15.6,13.9,0,0,,10.0,29.97933,1015.0,,TRUE,TRUE,,,,,,,CLR,,,,,,,,VFR,,,,,,,,,,,,METAR,117.0
KEGE 060656Z AUTO 00000KT 10SM CLR 10/06 A3021 RMK AO2 SLP131 T01000061,KEGE,2023-06-06T06:56:00Z,39.63,-106.92,10.0,6.1,0,0,,10.0,30.209646,1013.1,,TRUE,TRUE,,,,,,,CLR,,,,,,,,VFR,,,,,,,,,,,,SPECI,1993.0
KEEN 060656Z AUTO 00000KT 1/4SM -RA FG OVC002 09/09 A2972 RMK AO2 SLP068 P0000 T00890089 $,KEEN,2023-06-06T06:56:00Z,42.88,-72.27,8.9,8.9,0,0,,0.25,29.719488,1006.8,,TRUE,TRUE,TRUE,,,,,-RA FG,OVC,200,,,,,,,LIFR,,,,,,0.005,,,,,,METAR,143.0
KEED 060656Z AUTO 11004KT 10SM CLR 28/M02 A2969 RMK AO2 SLP020 T02781022,KEED,2023-06-06T06:56:00Z,34.77,-114.62,27.8,-2.2,110,4,,10.0,29.68996,1002.0,,TRUE,TRUE,,,,,,,CLR,,,,,,,,VFR,,,,,,,,,,,,SPECI,271.0
KEAU 060656Z AUTO 00000KT 10SM CLR 19/16 A3001 RMK AO2 SLP156 T01940161,KEAU,2023-06-06T06:56:00Z,44.87,-91.48,19.4,16.1,0,0,,10.0,30.008858,1015.6,,TRUE,TRUE,,,,,,,CLR,,,,,,,,VFR,,,,,,,,,,,,SPECI,271.0
KEAR 060656Z AUTO 30005KT 10SM CLR 18/15 A3007 RMK AO2 SLP165 T01830150,KEAR,2023-06-06T06:56:00Z,40.72,-99.0,18.3,15.0,300,5,,10.0,30.070866,1016.5,,TRUE,TRUE,,,,,,,CLR,,,,,,,,VFR,,,,,,,,,,,,SPECI,649.0
KDYR 060656Z AUTO 00000KT 10SM CLR 20/18 A2996 RMK AO2 SLP147 T02000178,KDYR,2023-06-06T06:56:00Z,36.0,-89.4,20.0,17.8,0,0,,10.0,29.958662,1014.7,,TRUE,TRUE,,,,,,,CLR,,,,,,,,VFR,,,,,,,,,,,,METAR,98.0
KDWU 060656Z AUTO 00000KT 10SM CLR 11/ A2998 RMK AO2 SLP151 T0111,KDWU,2023-06-06T06:56:00Z,38.55,-82.73,11.1,,0,0,,10.0,29.97933,1015.1,,TRUE,TRUE,,,,,,,CLR,,,,,,,,VFR,,,,,,,,,,,,METAR,165.0
KDVL 060656Z AUTO 00000KT 10SM CLR 21/18 A3001 RMK AO2 SLP165 T02060183,KDVL,2023-06-06T06:56:00Z,48.12,-98.92,20.6,18.3,0,0,,10.0,30.008858,1016.5,,TRUE,TRUE,,,,,,,CLR,,,,,,,,VFR,,,,,,,,,,,,SPECI,439.0
KDUG 060656Z AUTO 13003KT 10SM CLR 18/M06 A2997 RMK AO2 SLP074 T01831061 403500139 TSNO $,KDUG,2023-06-06T06:56:00Z,31.47,-109.6,18.3,-6.1,130,3,,10.0,29.970472,1007.4,,TRUE,TRUE,TRUE,,TRUE,,,,CLR,,,,,,,,VFR,,,,35.0,13.9,,,,,,,METAR,1260.0
KDIK 060656Z AUTO 17007KT 10SM CLR 16/14 A2999 RMK AO2 SLP139 T01610144 403000144,KDIK,2023-06-06T06:56:00Z,46.8,-102.8,16.1,14.4,170,7,,10.0,29.991142,1013.9,,TRUE,TRUE,,,,,,,CLR,,,,,,,,VFR,,,,30.0,14.4,,,,,,,SPECI,788.0
KDIJ 060656Z AUTO 07006KT 10SM BKN120 10/08 A3014 RMK AO2 SLP155 T01000083 402390044,KDIJ,2023-06-06T06:56:00Z,43.75,-111.1,10.0,8.3,70,6,,10.0,30.138779,1015.5,,TRUE,TRUE,,,,,,,BKN,12000,,,,,,,VFR,,,,23.9,4.4,,,,,,,METAR,1896.0
KDAY 060656Z 22003KT 5SM HZ FEW250 16/06 A2999 RMK AO2 SLP147 T01560056,KDAY,2023-06-06T06:56:00Z,39.9,-84.22,15.6,5.6,220,3,,5.0,29.991142,1014.7,,,TRUE,,,,,,HZ,FEW,25000,,,,,,,MVFR,,,,,,,,,,,,METAR,303.0
KD07 060656Z AUTO 15009KT 19/14 A3002 RMK AO1 SLP149 T01890139 403110139,KD07,2023-06-06T06:56:00Z,45.03,-102.02,18.9,13.9,150,9,,,30.02067,1014.9,,TRUE,TRUE,,,,,,,,,,,,,,,,,,,31.1,13.9,,,,,,,METAR,786.0
KCXY 060656Z AUTO 25006KT 10SM OVC065 14/07 A2984 RMK AO2 SLP104 T01390072,KCXY,2023-06-06T06:56:00Z,40.22,-76.85,13.9,7.2,250,6,,10.0,29.840551,1010.4,,TRUE,TRUE,,,,,,,OVC,6500,,,,,,,VFR,,,,,,,,,,,,SPECI,102.0
KCWI 060656Z AUTO 27003KT 10SM SCT120 17/08 A3002 RMK AO2 SLP164 T01720083,KCWI,2023-06-06T06:56:00Z,41.82,-90.32,17.2,8.3,270,3,,10.0,30.02067,1016.4,,TRUE,TRUE,,,,,,,SCT,12000,,,,,,,VFR,,,,,,,,,,,,METAR,212.0
KCVO 060656Z AUTO 31005KT 10SM CLR 14/06 A2992 RMK AO2 SLP133 T01390056,KCVO,2023-06-06T06:56:00Z,44.5,-123.28,13.9,5.6,310,5,,10.0,29.920275,1013.3,,TRUE,TRUE,,,,,,,CLR,,,,,,,,VFR,,,,,,,,,,,,METAR,75.0
KCVN 060656Z AUTO 07003KT 10SM FEW120 15/14 A3018 RMK AO2 SLP191 T01500139 402170133,KCVN,2023-06-06T06:56:00Z,34.42,-103.07,15.0,13.9,70,3,,10.0,30.180119,1019.1,,TRUE,TRUE,,,,,,,FEW,12000,,,,,,,VFR,,,,21.7,13.3,,,,,,,METAR,1278.0
KCTB 060656Z AUTO 27005KT 10SM BKN100 16/10 A2997 RMK AO2 SLP116 T01560100 402780083,KCTB,2023-06-06T06:56:00Z,48.6,-112.37,15.6,10.0,270,5,,10.0,29.970472,1011.6,,TRUE,TRUE,,,,,,,BKN,10000,,,,,,,VFR,,,,27.8,8.3,,,,,,,SPECI,1172.0
KCOE 060656Z AUTO 14003KT 10SM CLR 17/09 A2997 RMK AO2 SLP145 T01720089 PNO $,KCOE,2023-06-06T06:56:00Z,47.77,-116.82,17.2,8.9,140,3,,10.0,29.970472,1014.5,,TRUE,TRUE,TRUE,,,,,,CLR,,,,,,,,VFR,,,,,,,,,,,,METAR,693.0
KCOD 060656Z AUTO 24005KT 10SM CLR 17/10 A3004 RMK AO2 SLP125 T01670100 402390111,KCOD,2023-06-06T06:56:00Z,44.52,-109.02,16.7,10.0,240,5,,10.0,30.041338,1012.5,,TRUE,TRUE,,,,,,,CLR,,,,,,,,VFR,,,,23.9,11.1,,,,,,,SPECI,1550.0
KCIU 060656Z AUTO 04009KT 10SM CLR 14/06 A3006 RMK AO2 SLP175 T01390061,KCIU,2023-06-06T06:56:00Z,46.25,-84.47,13.9,6.1,40,9,,10.0,30.059055,1017.5,,TRUE,TRUE,,,,,,,CLR,,,,,,,,VFR,,,,,,,,,,,,METAR,242.0
KCHS 060656Z 15003KT 10SM FEW050 SCT250 19/16 A2994 RMK AO2 SLP138 T01890161,KCHS,2023-06-06T06:56:00Z,32.9,-80.03,18.9,16.1,150,3,,10.0,29.940945,1013.8,,,TRUE,,,,,,,FEW,5000,SCT,25000,,,,,VFR,,,,,,,,,,,,METAR,12.0
KCGZ 060656Z AUTO 22006KT 10SM CLR 25/M07 A2981 RMK AO2 SLP079 T02501072 404000189 PNO $,KCGZ,2023-06-06T06:56:00Z,32.95,-111.77,25.0,-7.2,220,6,,10.0,29.811024,1007.9,,TRUE,TRUE,TRUE,,,,,,CLR,,,,,,,,VFR,,,,40.0,18.9,,,,,,,METAR,444.0
KCAE 060656Z 19004KT 10SM FEW041 BKN055 19/17 A2992 RMK AO2 LTG DSNT W-N SLP129 LTG DSNT N CB DSNT N T01940167,KCAE,2023-06-06T06:56:00Z,33.93,-81.12,19.4,16.7,190,4,,10.0,29.920275,1012.9,,,TRUE,,,,,,,FEW,4100,BKN,5500,,,,,VFR,,,,,,,,,,,,SPECI,69.0
KBZN 060656Z AUTO 16006KT 10SM CLR 13/12 A3005 RMK AO2 SLP141 T01280117 402670094,KBZN,2023-06-06T06:56:00Z,45.78,-111.17,12.8,11.7,160,6,,10.0,30.050198,1014.1,,TRUE,TRUE,,,,,,,CLR,,,,,,,,VFR,,,,26.7,9.4,,,,,,,METAR,1349.0
KBVX 060656Z AUTO 00000KT 10SM CLR 19/18 A2998 RMK AO2 SLP151 T01940178,KBVX,2023-06-06T06:56:00Z,35.73,-91.65,19.4,17.8,0,0,,10.0,29.97933,1015.1,,TRUE,TRUE,,,,,,,CLR,,,,,,,,VFR,,,,,,,,,,,,METAR,137.0
KBTP 060656Z AUTO 00000KT 10SM CLR 09/07 A2994 RMK AO2 SLP141 T00940072 TSNO $,KBTP,2023-06-06T06:56:00Z,40.77,-79.95,9.4,7.2,0,0,,10.0,29.940945,1014.1,,TRUE,TRUE,TRUE,,TRUE,,,,CLR,,,,,,,,VFR,,,,,,,,,,,,METAR,375.0
KBOK 060656Z AUTO 00000KT 8SM CLR 12/10 A2982 RMK AO2 SLP097 T01170100 402610106,KBOK,2023-06-06T06:56:00Z,42.07,-124.28,11.7,10.0,0,0,,8.0,29.819881,1009.7,,TRUE,TRUE,,,,,,,CLR,,,,,,,,VFR,,,,26.1,10.6,,,,,,,SPECI,140.0
KBMI 060656Z AUTO 00000KT 10SM CLR 16/12 A3004 RMK AO2 SLP165 T01610122,KBMI,2023-06-06T06:56:00Z,40.47,-88.92,16.1,12.2,0,0,,10.0,30.041338,1016.5,,TRUE,TRUE,,,,,,,CLR,,,,,,,,VFR,,,,,,,,,,,,SPECI,262.0
KBLM 060656Z AUTO 28005KT 10SM CLR 13/08 A2978 RMK AO2 SLP085 T01280078,KBLM,2023-06-06T06:56:00Z,40.17,-74.12,12.8,7.8,280,5,,10.0,29.778543,1008.5,,TRUE,TRUE,,,,,,,CLR,,,,,,,,VFR,,,,,,,,,,,,SPECI,45.0
KBKX 060656Z AUTO 00000KT 10SM CLR 18/16 A3003 RMK AO2 SLP172 T01830156,KBKX,2023-06-06T06:56:00Z,44.3,-96.82,18.3,15.6,0,0,,10.0,30.029528,1017.2,,TRUE,TRUE,,,,,,,CLR,,,,,,,,VFR,,,,,,,,,,,,METAR,494.0
KBJJ 060656Z AUTO 00000KT 8SM CLR 09/06 A2996 RMK AO2 SLP143 T00940061,KBJJ,2023-06-06T06:56:00Z,40.87,-81.88,9.4,6.1,0,0,,8.0,29.958662,1014.3,,TRUE,TRUE,,,,,,,CLR,,,,,,,,VFR,,,,,,,,,,,,SPECI,338.0
KBIH 060656Z AUTO 35011KT 10SM -RA FEW070 BKN080 OVC110 16/11 A2989 RMK AO2 RAB05 SLP073 P0000 T01610106,KBIH,2023-06-06T06:56:00Z,37.37,-118.35,16.1,10.6,350,11,,10.0,29.890747,1007.3,,TRUE,TRUE,,,,,,-RA,FEW,7000,BKN,8000,OVC,11000,,,VFR,,,,,,0.005,,,,,,SPECI,1252.0
KBID 060656Z AUTO 27007KT 10SM OVC080 14/12 A2972 RMK AO2 SLP064 T01390117,KBID,2023-06-06T06:56:00Z,41.17,-71.58,13.9,11.7,270,7,,10.0,29.719488,1006.4,,TRUE,TRUE,,,,,,,OVC,8000,,,,,,,VFR,,,,,,,,,,,,METAR,32.0
KBHB 060656Z AUTO 36009G15KT 10SM OVC013 11/09 A2955 RMK AO2 SLP009 T01110089,KBHB,2023-06-06T06:56:00Z,44.45,-68.37,11.1,8.9,360,9,15,10.0,29.551182,1000.9,,TRUE,TRUE,,,,,,,OVC,1300,,,,,,,MVFR,,,,,,,,,,,,METAR,21.0
KAWO 060656Z AUTO 31009KT 10SM CLR 12/06 A3003 RMK AO2 SLP173 T01220056,KAWO,2023-06-06T06:56:00Z,48.17,-122.17,12.2,5.6,310,9,,10.0,30.029528,1017.3,,TRUE,TRUE,,,,,,,CLR,,,,,,,,VFR,,,,,,,,,,,,METAR,38.0
KASH 060656Z AUTO 00000KT 10SM CLR 11/11 A2969 RMK AO2 SLP058 T01060106,KASH,2023-06-06T06:56:00Z,42.78,-71.52,10.6,10.6,0,0,,10.0,29.68996,1005.8,,TRUE,TRUE,,,,,,,CLR,,,,,,,,VFR,,,,,,,,,,,,METAR,56.0
KART 060656Z AUTO 16005KT 7SM OVC048 12/09 A2977 RMK AO2 SLP081 T01170089,KART,2023-06-06T06:56:00Z,43.98,-76.03,11.7,8.9,160,5,,7.0,29.769686,1008.1,,TRUE,TRUE,,,,,,,OVC,4800,,,,,,,VFR,,,,,,,,,,,,SPECI,100.0
KARG 060656Z AUTO 35005KT 10SM CLR 19/16 A2998 RMK AO2 SLP149 T01940156,KARG,2023-06-06T06:56:00Z,36.12,-90.92,19.4,15.6,350,5,,10.0,29.97933,1014.9,,TRUE,TRUE,,,,,,,CLR,,,,,,,,VFR,,,,,,,,,,,,METAR,82.0
KAND 060656Z AUTO 18003KT 10SM FEW060 SCT080 BKN100 19/19 A2993 RMK AO2 SLP126 T01940194,KAND,2023-06-06T06:56:00Z,34.5,-82.72,19.4,19.4,180,3,,10.0,29.929134,1012.6,,TRUE,TRUE,,,,,,,FEW,6000,SCT,8000,BKN,10000,,,VFR,,,,,,,,,,,,METAR,233.0
KALK 060656Z AUTO 24014KT 10SM CLR 23/M04 A3001 RMK AO2 SLP058 T02331039 403330128,KALK,2023-06-06T06:56:00Z,31.6,-110.43,23.3,-3.9,240,14,,10.0,30.008858,1005.8,,TRUE,TRUE,,,,,,,CLR,,,,,,,,VFR,,,,33.3,12.8,,,,,,,METAR,1451.0
KAJO 060656Z AUTO 00000KT 10SM BKN031 OVC037 14/11 A2992 RMK AO2 SLP127 T01440106,KAJO,2023-06-06T06:56:00Z,33.9,-117.6,14.4,10.6,0,0,,10.0,29.920275,1012.7,,TRUE,TRUE,,,,,,,BKN,3100,OVC,3700,,,,,VFR,,,,,,,,,,,,METAR,161.0
KAIZ 060656Z AUTO 27003KT 10SM CLR 13/11 RMK AO2 SLPNO T01330111 $,KAIZ,2023-06-06T06:56:00Z,38.1,-92.53,13.3,11.1,270,3,,10.0,,,,TRUE,TRUE,TRUE,,,,,,CLR,,,,,,,,VFR,,,,,,,,,,,,METAR,263.0
KAFJ 060656Z AUTO 00000KT 10SM CLR 09/07 A2997 RMK AO2 SLP146 T00890072,KAFJ,2023-06-06T06:56:00Z,40.13,-80.28,8.9,7.2,0,0,,10.0,29.970472,1014.6,,TRUE,TRUE,,,,,,,CLR,,,,,,,,VFR,,,,,,,,,,,,METAR,360.0
KADF 060656Z AUTO VRB03KT 10SM CLR 21/19 A2996 RMK AO2 SLP142 T02110189,KADF,2023-06-06T06:56:00Z,34.1,-93.07,21.1,18.9,0,3,,10.0,29.958662,1014.2,,TRUE,TRUE,,,,,,,CLR,,,,,,,,VFR,,,,,,,,,,,,METAR,54.0
K8D3 060656Z AUTO 00000KT 18/17 A2998 RMK AO1 SLP136 T01830167 $,K8D3,2023-06-06T06:56:00Z,45.67,-96.98,18.3,16.7,0,0,,,29.97933,1013.6,,TRUE,TRUE,TRUE,,,,,,,,,,,,,,,,,,,,,,,,,,METAR,535.0
K79J 060656Z AUTO 00000KT 10SM CLR 21/18 A2995 RMK AO2 SLPNO T02110183,K79J,2023-06-06T06:56:00Z,31.32,-86.4,21.1,18.3,0,0,,10.0,29.949802,,,TRUE,TRUE,,,,,,,CLR,,,,,,,,VFR,,,,,,,,,,,,SPECI,93.0
K2WX 060656Z AUTO 18007KT 19/13 A2999 RMK AO1 SLP131 T01890133 403060156,K2WX,2023-06-06T06:56:00Z,45.6,-103.55,18.9,13.3,180,7,,,29.991142,1013.1,,TRUE,TRUE,,,,,,,,,,,,,,,,,,,30.6,15.6,,,,,,,METAR,925.0
K1M4 060656Z AUTO 00000KT 10SM CLR 17/17 A2999 RMK AO2 SLP141 T01720172,K1M4,2023-06-06T06:56:00Z,34.28,-87.6,17.2,17.2,0,0,,10.0,29.991142,1014.1,,TRUE,TRUE,,,,,,,CLR,,,,,,,,VFR,,,,,,,,,,,,METAR,283.0
TXKF 060655Z 36008KT 9999 FEW017 BKN052 21/17 Q1007 ,TXKF,2023-06-06T06:55:00Z,32.37,-64.68,21.0,17.0,360,8,,6.21,29.734253,,,,,,,,,,,FEW,1700,BKN,5200,,,,,VFR,,,,,,,,,,,,METAR,4.0
TNCE 060655Z AUTO 10005KT 060V150 //// // ///////// 27/24 Q1015 RE//,TNCE,2023-06-06T06:55:00Z,17.48,-62.97,27.0,24.0,100,5,,,29.970472,,,TRUE,,,,,,,,,,,,,,,,,,,,,,,,,,,,METAR,38.0
TNCB 060655Z AUTO 09010KT 070V130 9999 FEW010/// SCT016/// OVC022/// 28/25 Q1012,TNCB,2023-06-06T06:55:00Z,12.13,-68.28,28.0,25.0,90,10,,6.21,29.88189,,,TRUE,,,,,,,,FEW,1000,SCT,1600,OVC,2200,,,MVFR,,,,,,,,,,,,METAR,6.0
RODN 060655Z AUTO 22008KT 10SM CLR 29/22 A2979 RMK AO2 SLP093 T02850215 FZRANO $,RODN,2023-06-06T06:55:00Z,26.35,127.77,28.5,21.5,220,8,,10.0,29.790354,1009.3,,TRUE,TRUE,TRUE,,,TRUE,,,CLR,,,,,,,,VFR,,,,,,,,,,,,SPECI,38.0
RKSO 060655Z 31007G15KT 10SM SCT035 24/17 A2971 RMK AO2A SLP064 T02410168 $,RKSO,2023-06-06T06:55:00Z,37.08,127.02,24.1,16.8,310,7,15,10.0,29.71063,1006.4,,,TRUE,TRUE,,,,,,SCT,3500,,,,,,,VFR,,,,,,,,,,,,SPECI,10.0
RKSG 060655Z 29014KT 10SM CLR 24/20 A2971 RMK AO2A SLP063 T02410196 $,RKSG,2023-06-06T06:55:00Z,36.97,127.02,24.1,19.6,290,14,,10.0,29.71063,1006.3,,,TRUE,TRUE,,,,,,CLR,,,,,,,,VFR,,,,,,,,,,,,SPECI,12.0
RKJK 060655Z 29010KT 7SM CLR 23/08 A2970 RMK AO2A SLP061 T02290078 $,RKJK,2023-06-06T06:55:00Z,35.9,126.62,22.9,7.8,290,10,,7.0,29.698818,1006.1,,,TRUE,TRUE,,,,,,CLR,,,,,,,,VFR,,,,,,,,,,,,SPECI,8.0
RJTY 060655Z AUTO 19012KT 10SM SCT120 23/14 A2975 RMK AO2 SLP075 T02340141 $,RJTY,2023-06-06T06:55:00Z,35.75,139.33,23.4,14.1,190,12,,10.0,29.749016,1007.5,,TRUE,TRUE,TRUE,,,,,,SCT,12000,,,,,,,VFR,,,,,,,,,,,,SPECI,136.0
PWAK 060655Z AUTO 07014KT 10SM SCT018 SCT035 28/23 A2999 RMK AO2 SLP162 T02800231,PWAK,2023-06-06T06:55:00Z,19.28,166.62,28.0,23.1,70,14,,10.0,29.991142,1016.2,,TRUE,TRUE,,,,,,,SCT,1800,SCT,3500,,,,,VFR,,,,,,,,,,,,SPECI,7.0
PHSF 060655Z AUTO 10007KT 10SM CLR 10/09 A3040 RMK AO2 SLP186 T01030091 $,PHSF,2023-06-06T06:55:00Z,19.77,-155.55,10.3,9.1,100,7,,10.0,30.398623,1018.6,,TRUE,TRUE,TRUE,,,,,,CLR,,,,,,,,VFR,,,,,,,,,,,,SPECI,1863.0
PHHI 060655Z COR AUTO 07005KT 10SM SCT025 SCT036 BKN050 22/18 A3014 RMK AO2 DZB05E18RAB18E19 SLP197 P0000 T02190177 $ COR 0659,PHHI,2023-06-06T06:55:00Z,21.48,-158.05,21.9,17.7,70,5,,10.0,30.138779,1019.7,TRUE,TRUE,TRUE,TRUE,,,,,,SCT,2500,SCT,3600,BKN,5000,,,VFR,,,,,,0.005,,,,,,SPECI,246.0
PATL 060655Z AUTO 00000KT 10SM CLR 17/03 A2976 RMK AO2 SLP074 T01720027,PATL,2023-06-06T06:55:00Z,62.9,-155.97,17.2,2.7,0,0,,10.0,29.760826,1007.4,,TRUE,TRUE,,,,,,,CLR,,,,,,,,VFR,,,,,,,,,,,,METAR,261.0
PATC 060655Z AUTO 03020KT 10SM OVC065 04/02 A2985 RMK AO2 SLP111 T00430019,PATC,2023-06-06T06:55:00Z,65.57,-167.92,4.3,1.9,30,20,,10.0,29.84941,1011.1,,TRUE,TRUE,,,,,,,OVC,6500,,,,,,,VFR,,,,,,,,,,,,METAR,77.0
PASY 060655Z AUTO M M M M 05/04 A2924,PASY,2023-06-06T06:55:00Z,52.72,174.12,5.0,4.0,,,,,29.241142,,,TRUE,,,,,,,,,,,,,,,,,,,,,,,,,,,,SPECI,6.0
PASV 060655Z AUTO 23007KT 170V270 10SM OVC080 12/02 A2977 RMK AO2 SLP077 T01200022,PASV,2023-06-06T06:55:00Z,61.1,-155.57,12.0,2.2,230,7,,10.0,29.769686,1007.7,,TRUE,TRUE,,,,,,,OVC,8000,,,,,,,VFR,,,,,,,,,,,,METAR,462.0
PALU 060655Z AUTO 12010KT 10SM FEW050 BKN230 08/03 A3003 RMK AO2 SLP170 T00800034,PALU,2023-06-06T06:55:00Z,68.88,-166.1,8.0,3.4,120,10,,10.0,30.029528,1017.0,,TRUE,TRUE,,,,,,,FEW,5000,BKN,23000,,,,,VFR,,,,,,,,,,,,METAR,8.0
PAFR 060655Z AUTO 07007KT 10SM OVC140 16/M01 A2991 RMK AO2 SLP134 T01561010 $,PAFR,2023-06-06T06:55:00Z,61.27,-149.65,15.6,-1.0,70,7,,10.0,29.911417,1013.4,,TRUE,TRUE,TRUE,,,,,,OVC,14000,,,,,,,VFR,,,,,,,,,,,,SPECI,106.0
PAFB 060655Z AUTO 00000KT 9SM CLR 20/06 A2979 RMK AO2 SLP092 T01970061 FZRANO $,PAFB,2023-06-06T06:55:00Z,64.83,-147.62,19.7,6.1,0,0,,9.0,29.790354,1009.2,,TRUE,TRUE,TRUE,,,TRUE,,,CLR,,,,,,,,VFR,,,,,,,,,,,,SPECI,137.0
PAEI 060655Z AUTO 00000KT 10SM SCT170 16/06 A2977 RMK AO2 RAB25E30 SLP084 P0000 T01620063 $,PAEI,2023-06-06T06:55:00Z,64.67,-147.1,16.2,6.3,0,0,,10.0,29.769686,1008.4,,TRUE,TRUE,TRUE,,,,,,SCT,17000,,,,,,,VFR,,,,,,0.005,,,,,,METAR,166.0
PAED 060655Z 00000KT 10SM SCT090 BKN140 BKN200 16/01 A2989 RMK AO2A SLP117 T01600009 $,PAED,2023-06-06T06:55:00Z,61.25,-149.83,16.0,0.9,0,0,,10.0,29.890747,1011.7,,,TRUE,TRUE,,,,,,SCT,9000,BKN,14000,BKN,20000,,,VFR,,,,,,,,,,,,METAR,54.0
OTBH 060655Z 34004KT 9000 HZ CLR 38/13 A2969 Q1005 RMK AO2A SLP055 T03790131 FZRANO VISNO RWY16 $,OTBH,2023-06-06T06:55:00Z,25.12,51.32,37.9,13.1,340,4,,5.59,29.675198,1005.5,,,TRUE,TRUE,,,TRUE,,HZ,CLR,,,,,,,,VFR,,,,,,,,,,,,SPECI,40.0
OKAS 060655Z 32012KT 9999 FEW220 40/05 A2979 RMK AO2A SLP081 T03960049 FZRANO $,OKAS,2023-06-06T06:55:00Z,29.35,47.52,39.6,4.9,320,12,,6.21,29.790354,1008.1,,,TRUE,TRUE,,,TRUE,,,FEW,22000,,,,,,,VFR,,,,,,,,,,,,METAR,144.0
OEPS 060655Z 01009KT 330V040 9999 FEW240 38/06 A2992 RMK AO2A SLP108 WND DATA ESTMD T03790056,OEPS,2023-06-06T06:55:00Z,24.07,47.58,37.9,5.6,10,9,,6.21,29.920275,1010.8,,,TRUE,,,,,,,FEW,24000,,,,,,,VFR,,,,,,,,,,,,SPECI,503.0
NZCM 060655Z AUTO 06003KT 9999 CLR M22/M32 A2904 RMK AO2 SLP840 T12161325,NZCM,2023-06-06T06:55:00Z,-77.85,166.67,-21.6,-32.5,60,3,,6.21,29.040354,984.0,,TRUE,TRUE,,,,,,,CLR,,,,,,,,VFR,,,,,,,,,,,,METAR,24.0
LIVT 060655Z VRB01KT 7000 -RA BKN030 19/18 Q1015 RMK OVC OVC060 QUK 1 QUL 0 VIS MAR 7 KM VIS MIN 7000,LIVT,2023-06-06T06:55:00Z,45.68,13.75,19.0,18.0,0,1,,4.35,29.970472,,,,,,,,,,-RA,BKN,3000,,,,,,,MVFR,,,,,,,,,,,,SPECI,20.0
LIVP 060655Z 34008KT 9999 SCT040 06/03 Q1019 RMK BKN SCT060 MON LIB VAL CLD SCT VIS MIN 9999,LIVP,2023-06-06T06:55:00Z,46.15,11.03,6.0,3.0,340,8,,6.21,30.088583,,,,,,,,,,,SCT,4000,,,,,,,VFR,,,,,,,,,,,,SPECI,2099.0
LIVO 060655Z 00000KT 3000 -RA BR SCT012 BKN018 12/10 Q1017 RMK OVC VIS MIN 3000,LIVO,2023-06-06T06:55:00Z,46.5,13.58,12.0,10.0,0,0,,1.86,30.029528,,,,,,,,,,-RA BR,SCT,1200,BKN,1800,,,,,IFR,,,,,,,,,,,,METAR,782.0
LIVM 060655Z AUTO /////KT //// ///// Q////,LIVM,2023-06-06T06:55:00Z,44.45,12.3,,,,,,,,,,TRUE,,,,,,,,,,,,,,,,,,,,,,,,,,,,METAR,6.0
LIVF 060655Z 34001KT 9999 FEW028 FEW030TCU 16/13 Q1015,LIVF,2023-06-06T06:55:00Z,43.52,12.72,16.0,13.0,340,1,,6.21,29.970472,,,,,,,,,,,FEW,2800,FEW,3000,,,,,VFR,,,,,,,,,,,,METAR,549.0
LIVE 060655Z 01005KT 9999 FEW018 09/07 Q1019 RMK FEW VIS MIN 9999,LIVE,2023-06-06T06:55:00Z,46.82,10.5,9.0,7.0,10,5,,6.21,30.088583,,,,,,,,,,,FEW,1800,,,,,,,VFR,,,,,,,,,,,,SPECI,1684.0
LIVD 060655Z VRB01KT 7000 OVC020 13/10 Q1020 RMK OVC VIS MIN 7000,LIVD,2023-06-06T06:55:00Z,46.72,12.22,13.0,10.0,0,1,,4.35,30.11811,,,,,,,,,,,OVC,2000,,,,,,,MVFR,,,,,,,,,,,,SPECI,1221.0
LIVC 060655Z AUTO VRB02KT //// 07/06 Q1021,LIVC,2023-06-06T06:55:00Z,44.2,10.68,7.0,6.0,0,2,,,30.147638,,,TRUE,,,,,,,,,,,,,,,,,,,,,,,,,,,,METAR,2139.0
LIRX 060655Z 00000KT 9999 SCT008TCU 17/16 Q1015 RMK SCT VIS MIN 9999 VIS MAR 15 KM,LIRX,2023-06-06T06:55:00Z,42.73,10.38,17.0,16.0,0,0,,6.21,29.970472,,,,,,,,,,,SCT,800,,,,,,,VFR,,,,,,,,,,,,SPECI,397.0
LIRV 060655Z VRB02KT 9999 SCT018 18/15 Q1016 RMK SCT MON E SE CLD CIME VAR SLW VIS MIN 9999 WIND THR04 /////KT BLU,LIRV,2023-06-06T06:55:00Z,42.42,12.07,18.0,15.0,0,2,,6.21,30.0,,,,,,,,,,,SCT,1800,,,,,,,VFR,,,,,,,,,,,,SPECI,294.0
LIRT 060655Z 29004KT 9999 FEW005 14/12 Q1018,LIRT,2023-06-06T06:55:00Z,41.03,15.22,14.0,12.0,290,4,,6.21,30.059055,,,,,,,,,,,FEW,500,,,,,,,VFR,,,,,,,,,,,,METAR,1058.0
LIRS 060655Z 09003KT 9999 FEW016TCU 20/18 Q1015 RMK SCT VIS MIN 9999 WIND THR03 08003KT WIND THR21 06002KT BLU,LIRS,2023-06-06T06:55:00Z,42.75,11.07,20.0,18.0,90,3,,6.21,29.970472,,,,,,,,,,,FEW,1600,,,,,,,VFR,,,,,,,,,,,,SPECI,3.0
LIRM 060655Z 04003KT 9999 FEW020 23/16 Q1015 RMK FEW VIS MIN 9999 WIND THR06 11003KT BLU,LIRM,2023-06-06T06:55:00Z,41.05,14.07,23.0,16.0,40,3,,6.21,29.970472,,,,,,,,,,,FEW,2000,,,,,,,VFR,,-0.3,,,,,,,,,,SPECI,6.0
LIRL 060655Z 30001KT 9999 FEW025 20/17 Q1016 RMK FEW MON LIB NC VIS MIN 9999 WIND THR12 /////KT WIND THR30 03001KT BLU,LIRL,2023-06-06T06:55:00Z,41.53,12.9,20.0,17.0,300,1,,6.21,30.0,,,,,,,,,,,FEW,2500,,,,,,,VFR,,,,,,,,,,,,SPECI,23.0
LIRK 060655Z AUTO /////KT //// ///// Q////,LIRK,2023-06-06T06:55:00Z,42.47,12.97,,,,,,,,,,TRUE,,,,,,,,,,,,,,,,,,,,,,,,,,,,METAR,1721.0
LIRH 060655Z 00000KT 9999 FEW025 18/15 Q1015 RMK FEW MON LIB NC VIS MIN 9999 WIND THR16 00000KT BLU,LIRH,2023-06-06T06:55:00Z,41.65,13.3,18.0,15.0,0,0,,6.21,29.970472,,,,,,,,,,,FEW,2500,,,,,,,VFR,,,,,,,,,,,,SPECI,183.0
LIRG 060655Z VRB02KT 9999 FEW010 19/16 Q1016 RMK FEW MON NE VERS INC VAR RAPID VIS MIN 9999 BLU,LIRG,2023-06-06T06:55:00Z,42.0,12.73,19.0,16.0,0,2,,6.21,30.0,,,,,,,,,,,FEW,1000,,,,,,,VFR,,,,,,,,,,,,SPECI,82.0
LIRE 060655Z 13001KT CAVOK 21/18 Q1015 RMK SKC VIS MIN 9999 WIND THR13 01002KT WIND THR31 /////KT BLU,LIRE,2023-06-06T06:55:00Z,41.65,12.43,21.0,18.0,130,1,,6.21,29.970472,,,,,,,,,,,CAVOK,,,,,,,,VFR,,,,,,,,,,,,SPECI,16.0
LIQW 060655Z 28002KT 9999 FEW030 19/18 Q1015 RMK FEW VIS MIN 9999 WIND THR14 /////KT BLU,LIQW,2023-06-06T06:55:00Z,44.08,9.98,19.0,18.0,280,2,,6.21,29.970472,,,,,,,,,,,FEW,3000,,,,,,,VFR,,,,,,,,,,,,SPECI,6.0
LIQC 060655Z 00000KT 9999 SCT020 21/17 Q1016 RMK SCT QUK 1 QUL 0 VIS MAR 20 KM VIS MIN 9999,LIQC,2023-06-06T06:55:00Z,40.55,14.2,21.0,17.0,0,0,,6.21,30.0,,,,,,,,,,,SCT,2000,,,,,,,VFR,,,,,,,,,,,,SPECI,154.0
LIPS 060655Z 01005KT 9999 BKN100 19/16 Q1015 RMK BKN VIS MIN 9999 WIND THR26 30003KT WIND THR08 01004KT BLU,LIPS,2023-06-06T06:55:00Z,45.68,12.1,19.0,16.0,10,5,,6.21,29.970472,,,,,,,,,,,BKN,10000,,,,,,,VFR,,,,,,,,,,,,SPECI,42.0
LIPL 060655Z 30003KT 6000 FEW035 SCT070 20/19 Q1015 RMK BKN VIS MIN 6000 WIND THR31 /////KT WIND THR13 31003KT WHT,LIPL,2023-06-06T06:55:00Z,45.42,10.27,20.0,19.0,300,3,,3.73,29.970472,,,,,,,,,,,FEW,3500,SCT,7000,,,,,MVFR,,,,,,,,,,,,SPECI,96.0
LIPI 060655Z 35003KT 9999 -RA SCT020 BKN040 17/17 Q1015 RMK OVC VIS MIN 9999 WIND THR06 03003KT WIND THR24 35002KT BLU,LIPI,2023-06-06T06:55:00Z,45.97,13.05,17.0,17.0,350,3,,6.21,29.970472,,,,,,,,,,-RA,SCT,2000,BKN,4000,,,,,VFR,,,,,,,,,,,,SPECI,49.0
LIPF 060655Z 00000KT 4000 BR SCT025 SCT070 20/19 Q1015 RMK BKN VIS MIN 4000,LIPF,2023-06-06T06:55:00Z,44.82,11.62,20.0,19.0,0,0,,2.49,29.970472,,,,,,,,,,BR,SCT,2500,SCT,7000,,,,,IFR,,,,,,,,,,,,SPECI,5.0
LIPC 060655Z 33005KT 5000 BR SCT006 BKN020 18/17 Q1016 RMK BKN VIS MIN 5000 WIND THR11 31005KT WIND THR29 33006KT WHT,LIPC,2023-06-06T06:55:00Z,44.22,12.3,18.0,17.0,330,5,,3.11,30.0,,,,,,,,,,BR,SCT,600,BKN,2000,,,,,MVFR,,,,,,,,,,,,SPECI,10.0
LIPA 060655Z 05005KT 9999 SCT030 BKN060 18/17 Q1015 RMK OVC VIS MIN 9999 WIND THR05 05004KT WIND THR23 05005KT A3000 BLU,LIPA,2023-06-06T06:55:00Z,46.02,12.58,18.0,17.0,50,5,,6.21,29.970472,,,,,,,,,,,SCT,3000,BKN,6000,,,,,VFR,,,,,,,,,,,,SPECI,113.0
LIMV 060655Z /////KT 9999 FEW009 14/14 Q1017 RMK FEW MON LIB CUF VAL N FOSCHIA S NIL VIS MIN 7000N,LIMV,2023-06-06T06:55:00Z,44.55,8.93,14.0,14.0,,,,6.21,30.029528,,,,,,,,,,,FEW,900,,,,,,,VFR,,,,,,,,,,,,SPECI,474.0
LIMU 060655Z 02006KT 9999 FEW020 20/16 Q1016 RMK FEW QUK 1 QUL 1 SE VIS MAR 20 KM VIS MIN 9999,LIMU,2023-06-06T06:55:00Z,43.95,8.17,20.0,16.0,20,6,,6.21,30.0,,,,,,,,,,,FEW,2000,,,,,,,VFR,,,,,,,,,,,,SPECI,215.0
LIMS 060655Z 35004KT CAVOK 19/19 Q1015 RMK SKC VIS MIN 9999 WIND THR30 33004KT BLU,LIMS,2023-06-06T06:55:00Z,44.92,9.72,19.0,19.0,350,4,,6.21,29.970472,,,,,,,,,,,CAVOK,,,,,,,,VFR,,,,,,,,,,,,SPECI,132.0
LIMN 060655Z VRB01KT 9999 FEW015 18/16 Q1015 RMK FEW VIS MIN 9999 BLU,LIMN,2023-06-06T06:55:00Z,45.52,8.67,18.0,16.0,0,1,,6.21,29.970472,,,,,,,,,,,FEW,1500,,,,,,,VFR,,,,,,,,,,,,SPECI,168.0
LIMK 060655Z 00000KT 7000 BKN010 17/17 Q1017 RMK OVC SCT060 VAL FOSCHIA VIS MIN 7000,LIMK,2023-06-06T06:55:00Z,45.02,7.72,17.0,17.0,0,0,,4.35,30.029528,,,,,,,,,,,BKN,1000,,,,,,,MVFR,,,,,,,,,,,,SPECI,693.0
LIED 060655Z 00000KT CAVOK 19/16 Q1014 RMK SKC VIS MIN 9999 WIND THR35 /////KT WIND THR17 00000KT BLU,LIED,2023-06-06T06:55:00Z,39.35,8.97,19.0,16.0,0,0,,6.21,29.940945,,,,,,,,,,,CAVOK,,,,,,,,VFR,,,,,,,,,,,,SPECI,26.0
LIEB 060655Z 05006KT CAVOK 19/16 Q1014 RMK FEW FEW200 QUK 1 QUL 0 VIS MAR 30 KM MON LIB VIS MIN 9999,LIEB,2023-06-06T06:55:00Z,39.93,9.72,19.0,16.0,50,6,,6.21,29.940945,,,,,,,,,,,CAVOK,,,,,,,,VFR,,,,,,,,,,,,SPECI,126.0
LICZ 060655Z 18004KT 9999 BKN090 18/18 Q1014 RMK BKN BKN180 VIS MIN 9999 WIND THR28 19004KT WIND THR10 17003KT A2997 BLU,LICZ,2023-06-06T06:55:00Z,37.4,14.92,18.0,18.0,180,4,,6.21,29.940945,,,,,,,,,,,BKN,9000,,,,,,,VFR,,,,,,,,,,,,SPECI,22.0
LICT 060655Z 35002KT 9999 FEW007 SCT012 19/16 Q1016 RMK OVC BKN060 VIS MIN 9999 WIND THR13 03003KT BLU,LICT,2023-06-06T06:55:00Z,37.92,12.5,19.0,16.0,350,2,,6.21,30.0,,,,,,,,,,,FEW,700,SCT,1200,,,,,VFR,,,,,,,,,,,,SPECI,4.0
LICF 060655Z 34005KT 9999 SCT030 21/18 Q1016 RMK BKN SCT090 BKN200 QUK 1 QUL 0 VIS MAR 16 KM MON LIB NC VIS MIN 9999,LICF,2023-06-06T06:55:00Z,38.2,15.55,21.0,18.0,340,5,,6.21,30.0,,,,,,,,,,,SCT,3000,,,,,,,VFR,,,,,,,,,,,,SPECI,66.0
LIBY 060655Z VRB03KT 9999 SCT020 22/17 Q1015 RMK BKN SCT080 QUK 1 QUL 0 VIS MAR 12 KM VIS MIN 9999,LIBY,2023-06-06T06:55:00Z,39.82,18.35,22.0,17.0,0,3,,6.21,29.970472,,,,,,,,,,,SCT,2000,,,,,,,VFR,,,,,,,,,,,,SPECI,105.0
LIBV 060655Z 17004KT 6000 SCT020 19/19 Q1015 RMK SCT VIS MIN 6000 WIND THR32 20004KT WIND THR14 /////KT WHT,LIBV,2023-06-06T06:55:00Z,40.77,16.93,19.0,19.0,170,4,,3.73,29.970472,,,,,,,,,,,SCT,2000,,,,,,,MVFR,,,0.4,,,,,,,,,SPECI,344.0
LIBQ 060655Z 23003KT 0000 FG VV/// 11/09 Q1021 RMK MON INVIS VAL INVIS VIS MIN 0000,LIBQ,2023-06-06T06:55:00Z,39.32,16.38,11.0,9.0,230,3,,0.0,30.147638,,,,,,,,,,FG,OVX,0,,,,,,,LIFR,,,,,,,,,,,,SPECI,1660.0
LIBN 060655Z 16006KT 9999 FEW030 22/20 Q1015 RMK BKN SCT080 VIS MIN 9999 WIND THR14 16006KT WIND THR32 /////KT BLU,LIBN,2023-06-06T06:55:00Z,40.23,18.13,22.0,20.0,160,6,,6.21,29.970472,,,,,,,,,,,FEW,3000,,,,,,,VFR,,,,,,,,,,,,SPECI,46.0
LIBA 060655Z 28004KT 9999 SCT030 21/18 Q1015 RMK BKN BKN100 VIS MIN 9999 WIND THR11 29005KT WIND THR29 /////KT BLU,LIBA,2023-06-06T06:55:00Z,41.53,15.72,21.0,18.0,280,4,,6.21,29.970472,,,,,,,,,,,SCT,3000,,,,,,,VFR,,,,,,,,,,,,SPECI,55.0
KXNO 060655Z AUTO 00000KT 10SM FEW060 18/18 A2993 RMK AO2 LTG DSNT W-NW SLP136 T01810181 $,KXNO,2023-06-06T06:55:00Z,33.62,-81.07,18.1,18.1,0,0,,10.0,29.929134,1013.6,,TRUE,TRUE,TRUE,,,,,,FEW,6000,,,,,,,VFR,,,,,,,,,,,,METAR,94.0
KXMR 060655Z AUTO 09004KT 10SM CLR 22/17 A2991 RMK AO2 SLP132 T02230170 $,KXMR,2023-06-06T06:55:00Z,28.47,-80.57,22.3,17.0,90,4,,10.0,29.911417,1013.2,,TRUE,TRUE,TRUE,,,,,,CLR,,,,,,,,VFR,,,,,,,,,,,,SPECI,5.0
KXIF 060655Z AUTO 21003KT 10SM CLR 11/06 A2986 RMK AO2 SLP112 T01080060 $,KXIF,2023-06-06T06:55:00Z,,,10.8,6.0,210,3,,10.0,29.861221,1011.2,,TRUE,TRUE,TRUE,,,,,,CLR,,,,,,,,VFR,,,,,,,,,,,,METAR,
KWRI 060655Z AUTO 30006KT 10SM CLR 15/05 A2978 RMK AO2 SLP083 T01460046,KWRI,2023-06-06T06:55:00Z,40.02,-74.58,14.6,4.6,300,6,,10.0,29.778543,1008.3,,TRUE,TRUE,,,,,,,CLR,,,,,,,,VFR,,,,,,,,,,,,METAR,35.0
KWRB 060655Z AUTO 00000KT 9SM CLR 19/19 A2993 RMK AO2 SLP135 T01850185,KWRB,2023-06-06T06:55:00Z,32.63,-83.58,18.5,18.5,0,0,,9.0,29.929134,1013.5,,TRUE,TRUE,,,,,,,CLR,,,,,,,,VFR,,,,,,,,,,,,SPECI,82.0
KW31 060655Z AUTO 00000KT 10SM SCT070 SCT080 15/13 A2989 RMK AO1 T01500130,KW31,2023-06-06T06:55:00Z,36.95,-78.18,15.0,13.0,0,0,,10.0,29.890747,,,TRUE,TRUE,,,,,,,SCT,7000,SCT,8000,,,,,VFR,,,,,,,,,,,,METAR,159.0
KVPS 060655Z AUTO 00000KT 10SM CLR 20/19 A2994 RMK AO2 SLP145 T02000188 $,KVPS,2023-06-06T06:55:00Z,30.47,-86.52,20.0,18.8,0,0,,10.0,29.940945,1014.5,,TRUE,TRUE,TRUE,,,,,,CLR,,,,,,,,VFR,,,,,,,,,,,,SPECI,21.0
KVOK 060655Z AUTO 09004KT 10SM CLR 16/14 A2999 RMK AO2 SLP155 T01610144,KVOK,2023-06-06T06:55:00Z,43.93,-90.27,16.1,14.4,90,4,,10.0,29.991142,1015.5,,TRUE,TRUE,,,,,,,CLR,,,,,,,,VFR,,,,,,,,,,,,METAR,278.0
KVAD 060655Z AUTO 00000KT 10SM SCT110 18/16 A2994 RMK AO2 SLP139 T01810157 $,KVAD,2023-06-06T06:55:00Z,30.97,-83.2,18.1,15.7,0,0,,10.0,29.940945,1013.9,,TRUE,TRUE,TRUE,,,,,,SCT,11000,,,,,,,VFR,,,,,,,,,,,,SPECI,70.0
KTTS 060655Z AUTO 00000KT 10SM CLR 19/18 A2992 RMK AO2 SLP136 T01900175 $,KTTS,2023-06-06T06:55:00Z,28.58,-80.67,19.0,17.5,0,0,,10.0,29.920275,1013.6,,TRUE,TRUE,TRUE,,,,,,CLR,,,,,,,,VFR,,,,,,,,,,,,SPECI,1.0
KTIK 060655Z AUTO 00000KT 10SM CLR 20/15 A2995 RMK AO2 SLP137 T02000146 $,KTIK,2023-06-06T06:55:00Z,35.4,-97.38,20.0,14.6,0,0,,10.0,29.949802,1013.7,,TRUE,TRUE,TRUE,,,,,,CLR,,,,,,,,VFR,,,,,,,,,,,,SPECI,387.0
KTDR 060655Z AUTO 35003KT 10SM CLR 22/21 A2989 RMK AO2 SLP125 T02210212 $,KTDR,2023-06-06T06:55:00Z,30.05,-85.52,22.1,21.2,350,3,,10.0,29.890747,1012.5,,TRUE,TRUE,TRUE,,,,,,CLR,,,,,,,,VFR,,,,,,,,,,,,METAR,4.0
KTCM 060655Z AUTO 00000KT 10SM CLR 14/02 A3001 RMK AO2 SLP165 T01410017 $,KTCM,2023-06-06T06:55:00Z,47.13,-122.47,14.1,1.7,0,0,,10.0,30.008858,1016.5,,TRUE,TRUE,TRUE,,,,,,CLR,,,,,,,,VFR,,,,,,,,,,,,METAR,87.0
KTBN 060655Z AUTO 09004KT 10SM CLR 17/10 A3001 RMK AO2 SLP155 T01740098 $,KTBN,2023-06-06T06:55:00Z,37.73,-92.13,17.4,9.8,90,4,,10.0,30.008858,1015.5,,TRUE,TRUE,TRUE,,,,,,CLR,,,,,,,,VFR,,,,,,,,,,,,SPECI,349.0
KT70 060655Z AUTO 08003KT 1/4SM HZ FEW080 21/19 A2994 RMK AO2 SLP126 T02110188 RVRNO $,KT70,2023-06-06T06:55:00Z,29.12,-100.48,21.1,18.8,80,3,,0.25,29.940945,1012.6,,TRUE,TRUE,TRUE,,,,,HZ,FEW,8000,,,,,,,LIFR,,,,,,,,,,,,METAR,296.0
KSZL 060655Z 00000KT 10SM CLR 16/10 A3002 RMK AO2A SLP162 T01560101 $,KSZL,2023-06-06T06:55:00Z,38.73,-93.53,15.6,10.1,0,0,,10.0,30.02067,1016.2,,,TRUE,TRUE,,,,,,CLR,,,,,,,,VFR,,,,,,,,,,,,METAR,259.0
KSXS 060655Z AUTO 26003KT 10SM CLR 20/19 A2992 RMK AO2 SLP130 T02000188,KSXS,2023-06-06T06:55:00Z,31.37,-85.85,20.0,18.8,260,3,,10.0,29.920275,1013.0,,TRUE,TRUE,,,,,,,CLR,,,,,,,,VFR,,,,,,,,,,,,METAR,120.0
KSVN 060655Z AUTO 00000KT 10SM CLR 17/15 A2992 RMK AO2 SLP135 T01710149 $,KSVN,2023-06-06T06:55:00Z,32.02,-81.12,17.1,14.9,0,0,,10.0,29.920275,1013.5,,TRUE,TRUE,TRUE,,,,,,CLR,,,,,,,,VFR,,,,,,,,,,,,METAR,13.0
KSUU 060655Z AUTO 24024G30KT 10SM CLR 14/09 A2978 RMK AO2 PK WND 24034/40 SLP091 T01420094,KSUU,2023-06-06T06:55:00Z,38.27,-121.93,14.2,9.4,240,24,30,10.0,29.778543,1009.1,,TRUE,TRUE,,,,,,,CLR,,,,,,,,VFR,,,,,,,,,,,,METAR,9.0
KSLI 060655Z AUTO 17004KT 10SM SCT036 BKN046 15/10 A2989 RMK AO2 SLP125 T01530101,KSLI,2023-06-06T06:55:00Z,33.78,-118.03,15.3,10.1,170,4,,10.0,29.890747,1012.5,,TRUE,TRUE,,,,,,,SCT,3600,BKN,4600,,,,,VFR,,,,,,,,,,,,METAR,8.0
KSKF 060655Z AUTO 00000KT 8SM CLR 20/20 A2991 RMK AO2 SLP122 T01990196 $,KSKF,2023-06-06T06:55:00Z,29.38,-98.57,19.9,19.6,0,0,,8.0,29.911417,1012.2,,TRUE,TRUE,TRUE,,,,,,CLR,,,,,,,,VFR,,,,,,,,,,,,SPECI,214.0
KSKA 060655Z AUTO 12003KT 10SM CLR 14/M01 A2994 RMK AO2 SLP123 T01431006 $,KSKA,2023-06-06T06:55:00Z,47.62,-117.67,14.3,-0.6,120,3,,10.0,29.940945,1012.3,,TRUE,TRUE,TRUE,,,,,,CLR,,,,,,,,VFR,,,,,,,,,,,,METAR,754.0
KSEQ 060655Z AUTO 10003KT 10SM CLR 19/19 A2991 RMK AO2 SLPNO T01890187 $,KSEQ,2023-06-06T06:55:00Z,29.57,-97.9,18.9,18.7,100,3,,10.0,29.911417,,,TRUE,TRUE,TRUE,,,,,,CLR,,,,,,,,VFR,,,,,,,,,,,,METAR,160.0
KSCK 060655Z AUTO 34006KT 10SM CLR 17/12 A2975 RMK AO2 SLP072 T01670117,KSCK,2023-06-06T06:55:00Z,37.88,-121.22,16.7,11.7,340,6,,10.0,29.749016,1007.2,,TRUE,TRUE,,,,,,,CLR,,,,,,,,VFR,,,,,,,,,,,,SPECI,8.0
KRYM 060655Z AUTO 08003KT 10SM BKN080 OVC110 17/15 A3005 RMK AO2 SLP176 T01740148 $,KRYM,2023-06-06T06:55:00Z,46.08,-94.37,17.4,14.8,80,3,,10.0,30.050198,1017.6,,TRUE,TRUE,TRUE,,,,,,BKN,8000,OVC,11000,,,,,VFR,,,,,,,,,,,,METAR,344.0
KRVJ 060655Z AUTO 00000KT 10SM CLR 17/15 A2995 RMK AO2 T01670151,KRVJ,2023-06-06T06:55:00Z,32.07,-82.15,16.7,15.1,0,0,,10.0,29.949802,,,TRUE,TRUE,,,,,,,CLR,,,,,,,,VFR,,,,,,,,,,,,METAR,60.0
KRNO 060655Z 00000KT 10SM SCT050 BKN100 15/09 A2998 RMK AO2 SLP105 T01500094 $,KRNO,2023-06-06T06:55:00Z,39.5,-119.77,15.0,9.4,0,0,,10.0,29.97933,1010.5,,,TRUE,TRUE,,,,,,SCT,5000,BKN,10000,,,,,VFR,,,,,,,,,,,,SPECI,1344.0
KRND 060655Z AUTO 31005KT 10SM CLR 20/20 A2991 RMK AO2 SLP121 T01970195 TSNO $,KRND,2023-06-06T06:55:00Z,29.53,-98.27,19.7,19.5,310,5,,10.0,29.911417,1012.1,,TRUE,TRUE,TRUE,,TRUE,,,,CLR,,,,,,,,VFR,,,,,,,,,,,,METAR,224.0
KRDR 060655Z AUTO 00000KT 10SM CLR 19/18 A2996 RMK AO2 SLP147 T01870182 $,KRDR,2023-06-06T06:55:00Z,47.93,-97.4,18.7,18.2,0,0,,10.0,29.958662,1014.7,,TRUE,TRUE,TRUE,,,,,,CLR,,,,,,,,VFR,,,,,,,,,,,,METAR,276.0
KRCA 060655Z AUTO 18003KT 10SM CLR 18/13 A3002 RMK AO2 SLP145 T01780133 402750156 $,KRCA,2023-06-06T06:55:00Z,44.15,-103.12,17.8,13.3,180,3,,10.0,30.02067,1014.5,,TRUE,TRUE,TRUE,,,,,,CLR,,,,,,,,VFR,,,,27.5,15.6,,,,,,,SPECI,993.0
KQTZ 060655Z VRB05KT 9999 FEW200 FEW250 36/08 A2977 RMK SLP084,KQTZ,2023-06-06T06:55:00Z,,,36.0,8.0,0,5,,6.21,29.769686,1008.4,,,,,,,,,,FEW,20000,FEW,25000,,,,,VFR,,,,,,,,,,,,SPECI,
KQRH 060655Z AUTO VRB06KT 9999 CLR 35/26 A2974 RMK AO2 SLP073 WND DATA ESTMD T03510262,KQRH,2023-06-06T06:55:00Z,,,35.1,26.2,0,6,,6.21,29.740158,1007.3,,TRUE,TRUE,,,,,,,CLR,,,,,,,,VFR,,,,,,,,,,,,METAR,
KQN3 060655Z 23006KT 9999 FEW200 32/22 A2988 RMK AO2A SLP099 T03240216,KQN3,2023-06-06T06:55:00Z,,,32.4,21.6,230,6,,6.21,29.878937,1009.9,,,TRUE,,,,,,,FEW,20000,,,,,,,VFR,,,,,,,,,,,,METAR,
KQHY 060655Z AUTO 00000KT 10SM CLR 20/19 A2994 RMK AO2 SLP145 T02020192,KQHY,2023-06-06T06:55:00Z,,,20.2,19.2,0,0,,10.0,29.940945,1014.5,,TRUE,TRUE,,,,,,,CLR,,,,,,,,VFR,,,,,,,,,,,,METAR,
KQDG 060655Z AUTO 05009KT 9999 CLR 20/12 A2970 RMK AO2 SLP059 T01960124 $,KQDG,2023-06-06T06:55:00Z,,,19.6,12.4,50,9,,6.21,29.698818,1005.9,,TRUE,TRUE,TRUE,,,,,,CLR,,,,,,,,VFR,,,,,,,,,,,,METAR,
KQD3 060655Z AUTO VRB03G10KT 9999 CLR 35/27 A2979 RMK AO2 SLP072 WND DATA ESTMD T03480270,KQD3,2023-06-06T06:55:00Z,,,34.8,27.0,0,3,10,6.21,29.790354,1007.2,,TRUE,TRUE,,,,,,,CLR,,,,,,,,VFR,,,,,,,,,,,,METAR,
KQAZ 060655Z VRB03KT 9999 FEW160 32/02 A2984 RMK AO2A SLP095 WND DATA ESTMD T03240018,KQAZ,2023-06-06T06:55:00Z,,,32.4,1.8,0,3,,6.21,29.840551,1009.5,,,TRUE,,,,,,,FEW,16000,,,,,,,VFR,,,,,,,,,,,,SPECI,
KPSM 060655Z 27003KT 10SM FEW110 11/10 A2965 RMK AO2A SLP043 T01130100,KPSM,2023-06-06T06:55:00Z,43.08,-70.82,11.3,10.0,270,3,,10.0,29.648623,1004.3,,,TRUE,,,,,,,FEW,11000,,,,,,,VFR,,,,,,,,,,,,METAR,34.0
KPOE 060655Z AUTO 00000KT 10SM BKN140 OVC190 20/20 A2991 RMK AO2 SLP128 T01970195,KPOE,2023-06-06T06:55:00Z,31.05,-93.2,19.7,19.5,0,0,,10.0,29.911417,1012.8,,TRUE,TRUE,,,,,,,BKN,14000,OVC,19000,,,,,VFR,,,,,,,,,,,,METAR,98.0
KPOB 060655Z AUTO 00000KT 10SM CLR 17/15 A2990 RMK AO2 SLP127 T01680148 $,KPOB,2023-06-06T06:55:00Z,35.17,-79.02,16.8,14.8,0,0,,10.0,29.899607,1012.7,,TRUE,TRUE,TRUE,,,,,,CLR,,,,,,,,VFR,,,,,,,,,,,,METAR,57.0
KPHP 060655Z AUTO 25003KT 10SM CLR 18/14 A3001 RMK AO2 SLP142 T01830144 403110122,KPHP,2023-06-06T06:55:00Z,44.05,-101.6,18.3,14.4,250,3,,10.0,30.008858,1014.2,,TRUE,TRUE,,,,,,,CLR,,,,,,,,VFR,,,,31.1,12.2,,,,,,,SPECI,673.0
KPAM 060655Z COR 35003KT 10SM CLR 21/20 A2992 RMK AO2A SLP135 T02050197 $ COR 0710,KPAM,2023-06-06T06:55:00Z,30.07,-85.57,20.5,19.7,350,3,,10.0,29.920275,1013.5,TRUE,,TRUE,TRUE,,,,,,CLR,,,,,,,,VFR,,,,,,,,,,,,METAR,4.0
KP58 060655Z AUTO 00000KT 16/12 A2995 RMK AO1 SLP137 T01610122,KP58,2023-06-06T06:55:00Z,44.02,-82.8,16.1,12.2,0,0,,,29.949802,1013.7,,TRUE,TRUE,,,,,,,,,,,,,,,,,,,,,,,,,,,METAR,180.0
KOZR 060655Z AUTO 00000KT 10SM CLR 20/18 A2993 RMK AO2 SLP135 T01970176 $,KOZR,2023-06-06T06:55:00Z,31.28,-85.72,19.7,17.6,0,0,,10.0,29.929134,1013.5,,TRUE,TRUE,TRUE,,,,,,CLR,,,,,,,,VFR,,,,,,,,,,,,METAR,90.0
KOLE 060655Z AUTO 00000KT 10SM CLR 10/04 A2989 RMK AO2,KOLE,2023-06-06T06:55:00Z,42.23,-78.37,10.0,4.0,0,0,,10.0,29.890747,,,TRUE,TRUE,,,,,,,CLR,,,,,,,,VFR,,,,,,,,,,,,SPECI,651.0
KOFF 060655Z 16004KT 10SM CLR 20/16 A3007 RMK AO2A SLP179 T01960160 $,KOFF,2023-06-06T06:55:00Z,41.12,-95.92,19.6,16.0,160,4,,10.0,30.070866,1017.9,,,TRUE,TRUE,,,,,,CLR,,,,,,,,VFR,,,,,,,,,,,,METAR,308.0
KNTD 060655Z AUTO 00000KT 7SM OVC039 15/12 A2991 RMK AO2 SLP130 T01500122 CHINO S VISNO S $,KNTD,2023-06-06T06:55:00Z,34.12,-119.12,15.0,12.2,0,0,,7.0,29.911417,1013.0,,TRUE,TRUE,TRUE,,,,,,OVC,3900,,,,,,,VFR,,,,,,,,,,,,METAR,1.0
KNKX 060655Z 19004KT OVC042 14/09 A2993 RMK AO2 SLP130 T01390089 $,KNKX,2023-06-06T06:55:00Z,32.87,-117.13,13.9,8.9,190,4,,,29.929134,1013.0,,,TRUE,TRUE,,,,,,OVC,4200,,,,,,,,,,,,,,,,,,,METAR,138.0
KMXF 060655Z AUTO 31004KT 10SM CLR 21/17 A2992 RMK AO2 SLP133 T02070167,KMXF,2023-06-06T06:55:00Z,32.38,-86.37,20.7,16.7,310,4,,10.0,29.920275,1013.3,,TRUE,TRUE,,,,,,,CLR,,,,,,,,VFR,,,,,,,,,,,,METAR,47.0
KMUO 060655Z AUTO 24003KT 10SM CLR 17/07 A2988 RMK AO2 SLP095 T01660067 402860112 $,KMUO,2023-06-06T06:55:00Z,43.03,-115.87,16.6,6.7,240,3,,10.0,29.878937,1009.5,,TRUE,TRUE,TRUE,,,,,,CLR,,,,,,,,VFR,,,,28.6,11.2,,,,,,,METAR,915.0
KMUI 060655Z AUTO 00000KT 10SM CLR 13/04 A2982 RMK AO2 SLP099 T01290038,KMUI,2023-06-06T06:55:00Z,40.43,-76.57,12.9,3.8,0,0,,10.0,29.819881,1009.9,,TRUE,TRUE,,,,,,,CLR,,,,,,,,VFR,,,,,,,,,,,,METAR,146.0
KMTC 060655Z AUTO 00000KT 10SM CLR 14/08 A2991 RMK AO2 SLP131 T01380078 $,KMTC,2023-06-06T06:55:00Z,42.62,-82.83,13.8,7.8,0,0,,10.0,29.911417,1013.1,,TRUE,TRUE,TRUE,,,,,,CLR,,,,,,,,VFR,,,,,,,,,,,,METAR,177.0
KMMT 060655Z AUTO 00000KT 10SM VCTS OVC050 18/16 A2992 RMK AO2 SLP133 T01780161 $,KMMT,2023-06-06T06:55:00Z,33.92,-80.8,17.8,16.1,0,0,,10.0,29.920275,1013.3,,TRUE,TRUE,TRUE,,,,,VCTS,OVC,5000,,,,,,,VFR,,,,,,,,,,,,METAR,76.0
KMKG 060655Z AUTO 01006KT 4SM HZ CLR 18/13 A2998 RMK AO2 SLP149 T01830128,KMKG,2023-06-06T06:55:00Z,43.17,-86.23,18.3,12.8,10,6,,4.0,29.97933,1014.9,,TRUE,TRUE,,,,,,HZ,CLR,,,,,,,,MVFR,,,,,,,,,,,,SPECI,190.0
KMIB 060655Z 16004KT 10SM FEW100 19/18 A2995 RMK AO2A SLP139 T01890182 $,KMIB,2023-06-06T06:55:00Z,48.42,-101.35,18.9,18.2,160,4,,10.0,29.949802,1013.9,,,TRUE,TRUE,,,,,,FEW,10000,,,,,,,VFR,,,,,,,,,,,,METAR,505.0
KMGE 060655Z AUTO 29005KT 10SM CLR 20/17 A2993 RMK AO2 SLP128 T02040168 $,KMGE,2023-06-06T06:55:00Z,33.92,-84.52,20.4,16.8,290,5,,10.0,29.929134,1012.8,,TRUE,TRUE,TRUE,,,,,,CLR,,,,,,,,VFR,,,,,,,,,,,,METAR,309.0
KMCJ 060655Z AUTO 06004KT 10SM SCT031 BKN043 22/20 A2990 RMK A01,KMCJ,2023-06-06T06:55:00Z,29.72,-95.4,22.0,20.0,60,4,,10.0,29.899607,,,TRUE,TRUE,,,,,,,SCT,3100,BKN,4300,,,,,VFR,,,,,,,,,,,,METAR,70.0
KMCF 060655Z AUTO 08006KT 10SM CLR 23/19 A2990 RMK AO2 SLP128 T02270190 FZRANO $,KMCF,2023-06-06T06:55:00Z,27.85,-82.52,22.7,19.0,80,6,,10.0,29.899607,1012.8,,TRUE,TRUE,TRUE,,,TRUE,,,CLR,,,,,,,,VFR,,,,,,,,,,,,SPECI,3.0
KLUF 060655Z AUTO 18008KT 10SM CLR 28/M06 A2976 RMK AO2 SLP061 T02821063 403970225 $,KLUF,2023-06-06T06:55:00Z,33.53,-112.37,28.2,-6.3,180,8,,10.0,29.760826,1006.1,,TRUE,TRUE,TRUE,,,,,,CLR,,,,,,,,VFR,,,,39.7,22.5,,,,,,,METAR,333.0
KLTS 060655Z AUTO 34005KT 10SM CLR 19/16 A2999 RMK AO2 SLP142 T01880156 $,KLTS,2023-06-06T06:55:00Z,34.67,-99.27,18.8,15.6,340,5,,10.0,29.991142,1014.2,,TRUE,TRUE,TRUE,,,,,,CLR,,,,,,,,VFR,,,,,,,,,,,,METAR,416.0
KLSV 060655Z AUTO 13011KT 10SM CLR 28/M03 A2968 RMK AO2 SLP023 T02821028 $,KLSV,2023-06-06T06:55:00Z,36.23,-115.05,28.2,-2.8,130,11,,10.0,29.681103,1002.3,,TRUE,TRUE,TRUE,,,,,,CLR,,,,,,,,VFR,,,,,,,,,,,,METAR,563.0
KLRF 060655Z AUTO 07004KT 10SM CLR 21/20 A2994 RMK AO2 SLP138 T02140197,KLRF,2023-06-06T06:55:00Z,34.92,-92.12,21.4,19.7,70,4,,10.0,29.940945,1013.8,,TRUE,TRUE,,,,,,,CLR,,,,,,,,VFR,,,,,,,,,,,,SPECI,85.0
KLOR 060655Z AUTO 00000KT 10SM CLR 17/17 A2993 RMK AO2 SLP117 T01740169,KLOR,2023-06-06T06:55:00Z,31.35,-85.75,17.4,16.9,0,0,,10.0,29.929134,1011.7,,TRUE,TRUE,,,,,,,CLR,,,,,,,,VFR,,,,,,,,,,,,METAR,92.0
KLLJ 060655Z AUTO 00000KT 10SM CLR 12/09 A3007 RMK AO2 SLP136 T01220094 402220106,KLLJ,2023-06-06T06:55:00Z,44.52,-114.22,12.2,9.4,0,0,,10.0,30.070866,1013.6,,TRUE,TRUE,,,,,,,CLR,,,,,,,,VFR,,,,22.2,10.6,,,,,,,METAR,1535.0
KLIC 060655Z AUTO 00000KT 10SM CLR 11/09 A3018 RMK AO2 SLP166 T01110089 402060106,KLIC,2023-06-06T06:55:00Z,39.27,-103.67,11.1,8.9,0,0,,10.0,30.180119,1016.6,,TRUE,TRUE,,,,,,,CLR,,,,,,,,VFR,,,,20.6,10.6,,,,,,,SPECI,1635.0
KLHW 060655Z AUTO 00000KT 10SM CLR 17/15 A2992 RMK AO2 SLP135 T01670154 $,KLHW,2023-06-06T06:55:00Z,31.88,-81.57,16.7,15.4,0,0,,10.0,29.920275,1013.5,,TRUE,TRUE,TRUE,,,,,,CLR,,,,,,,,VFR,,,,,,,,,,,,METAR,14.0
KLGF 060655Z AUTO 28007KT M M CLR 25/01 A2971 RMK AO2 SLP057 T02520013 403820211 RVRNO PWINO TSNO $,KLGF,2023-06-06T06:55:00Z,32.87,-114.4,25.2,1.3,280,7,,,29.71063,1005.7,,TRUE,TRUE,TRUE,,TRUE,,TRUE,,CLR,,,,,,,,,,,,38.2,21.1,,,,,,,METAR,118.0
KLFI 060655Z 26003KT 10SM CLR 15/14 A2986 RMK AO2A SLP118 T01460144 $,KLFI,2023-06-06T06:55:00Z,37.08,-76.33,14.6,14.4,260,3,,10.0,29.861221,1011.8,,,TRUE,TRUE,,,,,,CLR,,,,,,,,VFR,,,,,,,,,,,,SPECI,2.0
KLCK 060655Z AUTO 00000KT 7SM CLR 12/09 A2997 RMK AO2 T01200088,KLCK,2023-06-06T06:55:00Z,39.82,-82.92,12.0,8.8,0,0,,7.0,29.970472,,,TRUE,TRUE,,,,,,,CLR,,,,,,,,VFR,,,,,,,,,,,,METAR,225.0
KIRK 060655Z AUTO 00000KT 10SM CLR 12/11 A3005 RMK AO2 SLP175 T01170106,KIRK,2023-06-06T06:55:00Z,40.1,-92.55,11.7,10.6,0,0,,10.0,30.050198,1017.5,,TRUE,TRUE,,,,,,,CLR,,,,,,,,VFR,,,,,,,,,,,,METAR,292.0
KINS 060655Z AUTO 05003KT 10SM CLR 25/M12 A2976 RMK AO2 SLP025 T02471118 $,KINS,2023-06-06T06:55:00Z,36.58,-115.68,24.7,-11.8,50,3,,10.0,29.760826,1002.5,,TRUE,TRUE,TRUE,,,,,,CLR,,,,,,,,VFR,,,,,,,,,,,,SPECI,954.0
KIAB 060655Z AUTO 04003KT 10SM BKN150 18/16 A3000 RMK AO2 SLP153 T01790155 $,KIAB,2023-06-06T06:55:00Z,37.62,-97.27,17.9,15.5,40,3,,10.0,30.0,1015.3,,TRUE,TRUE,TRUE,,,,,,BKN,15000,,,,,,,VFR,,,,,,,,,,,,METAR,413.0
KHUA 060655Z AUTO 31005KT 10SM BKN240 20/20 A2995 RMK AO2 LTG DSNT N RAB36E36 SLP136 P0000 T02010199,KHUA,2023-06-06T06:55:00Z,34.68,-86.68,20.1,19.9,310,5,,10.0,29.949802,1013.6,,TRUE,TRUE,,,,,,,BKN,24000,,,,,,,VFR,,,,,,0.005,,,,,,SPECI,200.0
KHST 060655Z AUTO 06003KT 10SM FEW024 FEW028 26/23 A2989 RMK AO2 SLP125 T02600225,KHST,2023-06-06T06:55:00Z,25.48,-80.37,26.0,22.5,60,3,,10.0,29.890747,1012.5,,TRUE,TRUE,,,,,,,FEW,2400,FEW,2800,,,,,VFR,,,,,,,,,,,,METAR,1.0
KHRT 060655Z 01003KT 10SM CLR 20/19 A2993 RMK AO2A SLP137 T01970185,KHRT,2023-06-06T06:55:00Z,30.42,-86.68,19.7,18.5,10,3,,10.0,29.929134,1013.7,,,TRUE,,,,,,,CLR,,,,,,,,VFR,,,,,,,,,,,,METAR,10.0
KHOP 060655Z AUTO 02004KT 10SM CLR 18/18 A2994 RMK AO2 SLP136 T01810179,KHOP,2023-06-06T06:55:00Z,36.67,-87.5,18.1,17.9,20,4,,10.0,29.940945,1013.6,,TRUE,TRUE,,,,,,,CLR,,,,,,,,VFR,,,,,,,,,,,,METAR,170.0
KHON 060655Z AUTO 18005KT 10SM CLR 22/16 A2998 RMK AO2 SLP143 T02170156,KHON,2023-06-06T06:55:00Z,44.38,-98.23,21.7,15.6,180,5,,10.0,29.97933,1014.3,,TRUE,TRUE,,,,,,,CLR,,,,,,,,VFR,,,,,,,,,,,,SPECI,391.0
KHMN 060655Z AUTO 32008KT 10SM CLR 17/11 A3010 RMK AO2 SLP128 T01670112 403160165 $,KHMN,2023-06-06T06:55:00Z,32.85,-106.1,16.7,11.2,320,8,,10.0,30.100393,1012.8,,TRUE,TRUE,TRUE,,,,,,CLR,,,,,,,,VFR,,,,31.6,16.5,,,,,,,METAR,1240.0
KHLR 060655Z AUTO 26003KT 10SM FEW170 22/19 A2994 RMK AO2 SLP128 T02160189,KHLR,2023-06-06T06:55:00Z,31.13,-97.72,21.6,18.9,260,3,,10.0,29.940945,1012.8,,TRUE,TRUE,,,,,,,FEW,17000,,,,,,,VFR,,,,,,,,,,,,METAR,271.0
KHIF 060655Z 11014KT 10SM FEW120 16/07 A2995 RMK AO2A SLP089 T01640073 402770124,KHIF,2023-06-06T06:55:00Z,41.12,-111.97,16.4,7.3,110,14,,10.0,29.949802,1008.9,,,TRUE,,,,,,,FEW,12000,,,,,,,VFR,,,,27.7,12.4,,,,,,,METAR,1461.0
KHFF 060655Z AUTO 00000KT 10SM CLR 14/14 A2990 RMK AO2 LTG DSNT W SLP126 T01400138 $,KHFF,2023-06-06T06:55:00Z,35.03,-79.5,14.0,13.8,0,0,,10.0,29.899607,1012.6,,TRUE,TRUE,TRUE,,,,,,CLR,,,,,,,,VFR,,,,,,,,,,,,METAR,100.0
KHEY 060655Z AUTO 00000KT 9SM CLR 18/18 A2991 RMK AO2 SLP128 T01830181,KHEY,2023-06-06T06:55:00Z,31.35,-85.65,18.3,18.1,0,0,,9.0,29.911417,1012.8,,TRUE,TRUE,,,,,,,CLR,,,,,,,,VFR,,,,,,,,,,,,METAR,95.0
KGXF 060655Z AUTO 00000KT 10SM CLR 27/M05 A2976 RMK AO2 SLP064 T02651052 404030197 FZRANO $,KGXF,2023-06-06T06:55:00Z,32.88,-112.72,26.5,-5.2,0,0,,10.0,29.760826,1006.4,,TRUE,TRUE,TRUE,,,TRUE,,,CLR,,,,,,,,VFR,,,,40.3,19.7,,,,,,,METAR,261.0
KGXA 060655Z AUTO 00000KT 10SM CLR 09/06 A2982 RMK AO2 LTG DSNT W SLP073 WND DATA ESTMD T00910063,KGXA,2023-06-06T06:55:00Z,34.57,-117.67,9.1,6.3,0,0,,10.0,29.819881,1007.3,,TRUE,TRUE,,,,,,,CLR,,,,,,,,VFR,,,,,,,,,,,,METAR,927.0
KGUS 060655Z AUTO 24003KT 10SM CLR 14/08 A2998 RMK AO2 SLP152 T01390079 $,KGUS,2023-06-06T06:55:00Z,40.63,-86.15,13.9,7.9,240,3,,10.0,29.97933,1015.2,,TRUE,TRUE,TRUE,,,,,,CLR,,,,,,,,VFR,,,,,,,,,,,,METAR,245.0
KGUR 060655Z AUTO 10004KT 9SM CLR 13/12 A3008 RMK AO2 SLP171 T01250119 402480089,KGUR,2023-06-06T06:55:00Z,42.25,-104.72,12.5,11.9,100,4,,9.0,30.079725,1017.1,,TRUE,TRUE,,,,,,,CLR,,,,,,,,VFR,,,,24.8,8.9,,,,,,,METAR,1341.0
KGTB 060655Z AUTO 25006KT 10SM FEW080 13/11 A2975 RMK AO2 RAE0555DZB0555E00RAB00E01 SLP073 P0000 T01320107,KGTB,2023-06-06T06:55:00Z,44.07,-75.72,13.2,10.7,250,6,,10.0,29.749016,1007.3,,TRUE,TRUE,,,,,,,FEW,8000,,,,,,,VFR,,,,,,0.005,,,,,,METAR,206.0
KGSB 060655Z 00000KT 10SM CLR 16/14 A2988 RMK AO2A SLP121 WND DATA ESTMD T01640140 $,KGSB,2023-06-06T06:55:00Z,35.33,-77.93,16.4,14.0,0,0,,10.0,29.878937,1012.1,,,TRUE,TRUE,,,,,,CLR,,,,,,,,VFR,,,,,,,,,,,,SPECI,33.0
KGRK 060655Z AUTO 00000KT 9SM FEW047 21/19 A2994 RMK AO2 SLP129 T02090185,KGRK,2023-06-06T06:55:00Z,31.07,-97.83,20.9,18.5,0,0,,9.0,29.940945,1012.9,,TRUE,TRUE,,,,,,,FEW,4700,,,,,,,VFR,,,,,,,,,,,,METAR,311.0
KGRF 060655Z AUTO 00000KT 10SM CLR 13/02 A2999 RMK AO2 SLP159 T01280021 $,KGRF,2023-06-06T06:55:00Z,47.07,-122.57,12.8,2.1,0,0,,10.0,29.991142,1015.9,,TRUE,TRUE,TRUE,,,,,,CLR,,,,,,,,VFR,,,,,,,,,,,,SPECI,91.0
KGPI 060655Z AUTO 23004KT 10SM CLR 17/11 A2996 RMK AO2 SLP127 T01670106 402780072 VISNO NE,KGPI,2023-06-06T06:55:00Z,48.32,-114.25,16.7,10.6,230,4,,10.0,29.958662,1012.7,,TRUE,TRUE,,,,,,,CLR,,,,,,,,VFR,,,,27.8,7.2,,,,,,,SPECI,903.0
KGOV 060655Z AUTO 00000KT 10SM SCT070 12/10 A3001 RMK AO2 SLP165 T01180104 $,KGOV,2023-06-06T06:55:00Z,44.68,-84.73,11.8,10.4,0,0,,10.0,30.008858,1016.5,,TRUE,TRUE,TRUE,,,,,,SCT,7000,,,,,,,VFR,,,,,,,,,,,,SPECI,350.0
KGFA 060655Z AUTO 18004KT 10SM BKN150 14/12 A2996 RMK AO2 SLP127 T01400122 402640122 $,KGFA,2023-06-06T06:55:00Z,47.5,-111.18,14.0,12.2,180,4,,10.0,29.958662,1012.7,,TRUE,TRUE,TRUE,,,,,,BKN,15000,,,,,,,VFR,,,,26.4,12.2,,,,,,,METAR,1058.0
KFTK 060655Z AUTO 01005KT 10SM CLR 14/14 A2996 RMK AO2 SLP142 T01390137 $,KFTK,2023-06-06T06:55:00Z,37.9,-85.97,13.9,13.7,10,5,,10.0,29.958662,1014.2,,TRUE,TRUE,TRUE,,,,,,CLR,,,,,,,,VFR,,,,,,,,,,,,METAR,225.0
KFSI 060655Z AUTO 06013G16KT 10SM CLR 19/17 A2997 RMK AO2 SLP141 T01890167 FZRANO $,KFSI,2023-06-06T06:55:00Z,34.65,-98.4,18.9,16.7,60,13,16,10.0,29.970472,1014.1,,TRUE,TRUE,TRUE,,,TRUE,,,CLR,,,,,,,,VFR,,,,,,,,,,,,METAR,360.0
KFRI 060655Z AUTO 00000KT 10SM CLR 16/15 A3004 RMK AO2 SLP163 T01630150 $,KFRI,2023-06-06T06:55:00Z,39.05,-96.77,16.3,15.0,0,0,,10.0,30.041338,1016.3,,TRUE,TRUE,TRUE,,,,,,CLR,,,,,,,,VFR,,,,,,,,,,,,SPECI,232.0
KFHU 060655Z AUTO 00000KT 10SM CLR 23/M07 A3000 RMK AO2 SLP087 T02291070 403330158,KFHU,2023-06-06T06:55:00Z,31.58,-110.35,22.9,-7.0,0,0,,10.0,30.0,1008.7,,TRUE,TRUE,,,,,,,CLR,,,,,,,,VFR,,,,33.3,15.8,,,,,,,METAR,1424.0
KFFO 060655Z 00000KT 6SM HZ CLR 13/08 A2994 RMK AO2A SLP138 T01300077,KFFO,2023-06-06T06:55:00Z,39.83,-84.03,13.0,7.7,0,0,,6.0,29.940945,1013.8,,,TRUE,,,,,,HZ,CLR,,,,,,,,VFR,,,,,,,,,,,,METAR,250.0
KFEW 060655Z AUTO 22007KT 10SM FEW130 10/09 A3018 RMK AO2 SLP164 T01030092 401960088 $,KFEW,2023-06-06T06:55:00Z,41.13,-104.87,10.3,9.2,220,7,,10.0,30.180119,1016.4,,TRUE,TRUE,TRUE,,,,,,FEW,13000,,,,,,,VFR,,,,19.6,8.8,,,,,,,METAR,1877.0
KFCS 060655Z 20010KT 10SM BKN025 BKN040 13/11 A3021 RMK A02A SLP115,KFCS,2023-06-06T06:55:00Z,38.67,-104.77,13.0,11.0,200,10,,10.0,30.209646,1011.5,,,TRUE,,,,,,,BKN,2500,BKN,4000,,,,,MVFR,,,,,,,,,,,,METAR,1789.0
KFBG 060655Z AUTO 23003KT 10SM CLR 18/15 A2990 RMK AO2 SLP126 T01780154 $,KFBG,2023-06-06T06:55:00Z,35.12,-78.92,17.8,15.4,230,3,,10.0,29.899607,1012.6,,TRUE,TRUE,TRUE,,,,,,CLR,,,,,,,,VFR,,,,,,,,,,,,METAR,69.0
KFAF 060655Z AUTO 22003KT 10SM CLR 18/13 A2985 RMK AO2 SLP112 T01750130 $,KFAF,2023-06-06T06:55:00Z,37.13,-76.62,17.5,13.0,220,3,,10.0,29.84941,1011.2,,TRUE,TRUE,TRUE,,,,,,CLR,,,,,,,,VFR,,,,,,,,,,,,METAR,3.0
KETH 060655Z AUTO 11005KT 10SM CLR 21/17 A3001 RMK AO2,KETH,2023-06-06T06:55:00Z,45.78,-96.55,21.0,17.0,110,5,,10.0,30.008858,,,TRUE,TRUE,,,,,,,CLR,,,,,,,,VFR,,,,,,,,,,,,METAR,309.0
KEOE 060655Z AUTO 18004KT 4SM VCTSRA SCT029 BKN039 BKN048 19/18 A2995 RMK AO2 LTG DSNT E AND SE P0002,KEOE,2023-06-06T06:55:00Z,34.32,-81.63,19.0,18.0,180,4,,4.0,29.949802,,,TRUE,TRUE,,,,,,VCTSRA,SCT,2900,BKN,3900,BKN,4800,,,MVFR,,,,,,0.02,,,,,,METAR,166.0
KEND 060655Z AUTO 07003KT 10SM CLR 19/16 A2999 RMK AO2 SLP145 T01930157 $,KEND,2023-06-06T06:55:00Z,36.33,-97.92,19.3,15.7,70,3,,10.0,29.991142,1014.5,,TRUE,TRUE,TRUE,,,,,,CLR,,,,,,,,VFR,,,,,,,,,,,,SPECI,392.0
KEGI 060655Z AUTO 00000KT 10SM CLR 18/17 A2993 RMK AO2 SLP135 T01790167 $,KEGI,2023-06-06T06:55:00Z,30.65,-86.52,17.9,16.7,0,0,,10.0,29.929134,1013.5,,TRUE,TRUE,TRUE,,,,,,CLR,,,,,,,,VFR,,,,,,,,,,,,SPECI,59.0
KEDW 060655Z AUTO 24017KT 10SM CLR 12/07 A2980 RMK AO2 PK WND 25028/32 SLP074 T01220067,KEDW,2023-06-06T06:55:00Z,34.9,-117.87,12.2,6.7,240,17,,10.0,29.799213,1007.4,,TRUE,TRUE,,,,,,,CLR,,,,,,,,VFR,,,,,,,,,,,,METAR,698.0
KEAT 060655Z AUTO 00000KT 10SM CLR 20/02 A2995 RMK AO2 SLP134 T02000022,KEAT,2023-06-06T06:55:00Z,47.4,-120.2,20.0,2.2,0,0,,10.0,29.949802,1013.4,,TRUE,TRUE,,,,,,,CLR,,,,,,,,VFR,,,,,,,,,,,,METAR,375.0
KDYS 060655Z AUTO 00000KT 10SM CLR 18/17 A3000 RMK AO2 SLP123 T01790166,KDYS,2023-06-06T06:55:00Z,32.42,-99.83,17.9,16.6,0,0,,10.0,30.0,1012.3,,TRUE,TRUE,,,,,,,CLR,,,,,,,,VFR,,,,,,,,,,,,METAR,544.0
KDOV 060655Z AUTO 28006KT 10SM CLR 16/06 A2980 RMK AO2 SLP095 T01610060,KDOV,2023-06-06T06:55:00Z,39.12,-75.47,16.1,6.0,280,6,,10.0,29.799213,1009.5,,TRUE,TRUE,,,,,,,CLR,,,,,,,,VFR,,,,,,,,,,,,METAR,6.0
KDMA 060655Z 30005KT 10SM CLR 24/M07 A2987 RMK AO2A SLP067 T02421070 403720188 $,KDMA,2023-06-06T06:55:00Z,32.17,-110.88,24.2,-7.0,300,5,,10.0,29.870079,1006.7,,,TRUE,TRUE,,,,,,CLR,,,,,,,,VFR,,,,37.2,18.8,,,,,,,SPECI,804.0
KDLH 060655Z 08009KT 8SM SCT120 12/09 A3011 RMK AO2 SLP198 T01220094,KDLH,2023-06-06T06:55:00Z,46.85,-92.2,12.2,9.4,80,9,,8.0,30.109253,1019.8,,,TRUE,,,,,,,SCT,12000,,,,,,,VFR,,,,,,,,,,,,SPECI,434.0
KDLF 060655Z AUTO 05004KT 10SM BKN080 21/18 A2993 RMK AO2 SLP123 T02140180 $,KDLF,2023-06-06T06:55:00Z,29.37,-100.78,21.4,18.0,50,4,,10.0,29.929134,1012.3,,TRUE,TRUE,TRUE,,,,,,BKN,8000,,,,,,,VFR,,,,,,,,,,,,METAR,328.0
KDAA 060655Z AUTO 00000KT 10SM CLR 12/10 A2984 RMK AO2 SLP107 T01150099 $,KDAA,2023-06-06T06:55:00Z,38.72,-77.17,11.5,9.9,0,0,,10.0,29.840551,1010.7,,TRUE,TRUE,TRUE,,,,,,CLR,,,,,,,,VFR,,,,,,,,,,,,METAR,17.0
KCWN 060655Z AUTO 17008KT 10SM FEW023 12/08 A3023 RMK AO2 SLPNO T01230084 401420099 $,KCWN,2023-06-06T06:55:00Z,38.75,-104.85,12.3,8.4,170,8,,10.0,30.230314,,,TRUE,TRUE,TRUE,,,,,,FEW,2300,,,,,,,VFR,,,,14.2,9.9,,,,,,,METAR,2040.0
KCVS 060655Z AUTO 00000KT 10SM OVC110 16/15 A3017 RMK AO2 SLP171 T01550153 402200139 $,KCVS,2023-06-06T06:55:00Z,34.37,-103.32,15.5,15.3,0,0,,10.0,30.171259,1017.1,,TRUE,TRUE,TRUE,,,,,,OVC,11000,,,,,,,VFR,,,,22.0,13.9,,,,,,,METAR,1305.0
KCOF 060655Z AUTO 05007KT 10SM CLR 24/18 A2992 RMK AO2 SLP136 T02430180 $,KCOF,2023-06-06T06:55:00Z,28.23,-80.6,24.3,18.0,50,7,,10.0,29.920275,1013.6,,TRUE,TRUE,TRUE,,,,,,CLR,,,,,,,,VFR,,,,,,,,,,,,SPECI,1.0
KCNK 060655Z AUTO 00000KT 10SM CLR 17/14 A3004 RMK AO2 SLP159 T01720144,KCNK,2023-06-06T06:55:00Z,39.55,-97.65,17.2,14.4,0,0,,10.0,30.041338,1015.9,,TRUE,TRUE,,,,,,,CLR,,,,,,,,VFR,,,,,,,,,,,,METAR,445.0
KCMY 060655Z AUTO 00000KT 8SM CLR 15/15 A2999 RMK AO2 SLP155 T01490147 FZRANO $,KCMY,2023-06-06T06:55:00Z,43.97,-90.73,14.9,14.7,0,0,,8.0,29.991142,1015.5,,TRUE,TRUE,TRUE,,,TRUE,,,CLR,,,,,,,,VFR,,,,,,,,,,,,METAR,253.0
KCMA 060655Z AUTO 35003KT 10SM OVC043 16/12 A2991 RMK AO2 SLP135 T01560117,KCMA,2023-06-06T06:55:00Z,34.22,-119.1,15.6,11.7,350,3,,10.0,29.911417,1013.5,,TRUE,TRUE,,,,,,,OVC,4300,,,,,,,VFR,,,,,,,,,,,,METAR,20.0
KCEF 060655Z AUTO 00000KT 10SM CLR 10/10 A2969 RMK AO2 SLP060 T00980096,KCEF,2023-06-06T06:55:00Z,42.2,-72.52,9.8,9.6,0,0,,10.0,29.68996,1006.0,,TRUE,TRUE,,,,,,,CLR,,,,,,,,VFR,,,,,,,,,,,,METAR,72.0
KCBM 060655Z 00000KT 10SM BKN140 19/17 A2991 RMK AO2A SLPNO ALSTG ESTMD $,KCBM,2023-06-06T06:55:00Z,33.65,-88.45,19.0,17.0,0,0,,10.0,29.911417,,,,TRUE,TRUE,,,,,,BKN,14000,,,,,,,VFR,,,,,,,,,,,,METAR,59.0
KCAO 060655Z AUTO 24005KT 10SM BKN110 13/12 A3020 RMK AO2 SLP182 T01330117 401780122,KCAO,2023-06-06T06:55:00Z,36.45,-103.15,13.3,11.7,240,5,,10.0,30.200787,1018.2,,TRUE,TRUE,,,,,,,BKN,11000,,,,,,,VFR,,,,17.8,12.2,,,,,,,SPECI,1517.0
KBYS 060655Z AUTO 28015G20KT 10SM CLR 18/M01 A2975 RMK AO2 SLP048 T01831010 $,KBYS,2023-06-06T06:55:00Z,35.28,-116.63,18.3,-1.0,280,15,20,10.0,29.749016,1004.8,,TRUE,TRUE,TRUE,,,,,,CLR,,,,,,,,VFR,,,,,,,,,,,,METAR,717.0
KBLV 060655Z 00000KT 10SM CLR 15/09 A2999 RMK AO2A SLP156 T01500091 $,KBLV,2023-06-06T06:55:00Z,38.53,-89.83,15.0,9.1,0,0,,10.0,29.991142,1015.6,,,TRUE,TRUE,,,,,,CLR,,,,,,,,VFR,,,,,,,,,,,,METAR,134.0
KBIX 060655Z AUTO 04005KT 10SM CLR 21/20 A2990 RMK AO2 SLP128 T02130201,KBIX,2023-06-06T06:55:00Z,30.42,-88.92,21.3,20.1,40,5,,10.0,29.899607,1012.8,,TRUE,TRUE,,,,,,,CLR,,,,,,,,VFR,,,,,,,,,,,,SPECI,4.0
KBIF 060655Z 36008KT 7SM FEW150 23/09 A3005 RMK AO2A SLPNO ALSTG WND DATA ESTMD T02280094 $,KBIF,2023-06-06T06:55:00Z,31.85,-106.38,22.8,9.4,360,8,,7.0,30.050198,,,,TRUE,TRUE,,,,,,FEW,15000,,,,,,,VFR,,,,,,,,,,,,METAR,1201.0
KBAD 060655Z AUTO 18004KT 10SM CLR 21/18 A2993 RMK AO2 SLP138 T02090177,KBAD,2023-06-06T06:55:00Z,32.5,-93.67,20.9,17.7,180,4,,10.0,29.929134,1013.8,,TRUE,TRUE,,,,,,,CLR,,,,,,,,VFR,,,,,,,,,,,,SPECI,49.0
KBAB 060655Z AUTO 17008KT 10SM OVC140 19/12 A2975 RMK AO2 SLP076 T01880116 $,KBAB,2023-06-06T06:55:00Z,39.13,-121.43,18.8,11.6,170,8,,10.0,29.749016,1007.6,,TRUE,TRUE,TRUE,,,,,,OVC,14000,,,,,,,VFR,,,,,,,,,,,,METAR,31.0
KAST 060655Z AUTO 24004KT 10SM CLR 10/07 A2998 RMK AO2 SLP153 T01000067,KAST,2023-06-06T06:55:00Z,46.15,-123.88,10.0,6.7,240,4,,10.0,29.97933,1015.3,,TRUE,TRUE,,,,,,,CLR,,,,,,,,VFR,,,,,,,,,,,,SPECI,3.0
KANJ 060655Z AUTO 06006KT 10SM CLR 14/06 A3006 RMK AO2 SLP175 T01440061,KANJ,2023-06-06T06:55:00Z,46.47,-84.37,14.4,6.1,60,6,,10.0,30.059055,1017.5,,TRUE,TRUE,,,,,,,CLR,,,,,,,,VFR,,,,,,,,,,,,SPECI,220.0
KAFF 060655Z AUTO 35004KT 10SM FEW017 08/08 A3022 RMK AO2 SLP183 T00760075 401720076,KAFF,2023-06-06T06:55:00Z,38.97,-104.82,7.6,7.5,350,4,,10.0,30.221457,1018.3,,TRUE,TRUE,,,,,,,FEW,1700,,,,,,,VFR,,,,17.2,7.6,,,,,,,METAR,2003.0
KADW 060655Z AUTO 00000KT 10SM CLR 14/10 A2983 RMK AO2 SLP107 T01400096 $,KADW,2023-06-06T06:55:00Z,38.82,-76.87,14.0,9.6,0,0,,10.0,29.828741,1010.7,,TRUE,TRUE,TRUE,,,,,,CLR,,,,,,,,VFR,,,,,,,,,,,,METAR,87.0
KABH 060655Z AUTO 00000KT 10SM SCT027 BKN038 12/11 A3023 RMK AO2 SLP194 T01170108 401780108,KABH,2023-06-06T06:55:00Z,38.75,-104.3,11.7,10.8,0,0,,10.0,30.230314,1019.4,,TRUE,TRUE,,,,,,,SCT,2700,BKN,3800,,,,,VFR,,,,17.8,10.8,,,,,,,METAR,1838.0
KAAT 060655Z AUTO 18004KT 10SM CLR 13/09 A2999 RMK AO2 SLP116 T01280094,KAAT,2023-06-06T06:55:00Z,41.48,-120.57,12.8,9.4,180,4,,10.0,29.991142,1011.6,,TRUE,TRUE,,,,,,,CLR,,,,,,,,VFR,,,,,,,,,,,,SPECI,1336.0
K9L2 060655Z AUTO 20016G21KT 10SM CLR 13/06 A2979 RMK AO2 LTG DSNT W SLP069 T01260057,K9L2,2023-06-06T06:55:00Z,34.98,-117.87,12.6,5.7,200,16,21,10.0,29.790354,1006.9,,TRUE,TRUE,,,,,,,CLR,,,,,,,,VFR,,,,,,,,,,,,METAR,697.0
K7L2 060655Z AUTO 15010KT 10SM CLR 20/16 A3002 RMK AO2,K7L2,2023-06-06T06:55:00Z,46.22,-100.25,20.0,16.0,150,10,,10.0,30.02067,,,TRUE,TRUE,,,,,,,CLR,,,,,,,,VFR,,,,,,,,,,,,METAR,541.0
K1YT 060655Z AUTO 08010KT 10SM CLR 19/M02 A2990 RMK AO2 SLP120 T01921019 $,K1YT,2023-06-06T06:55:00Z,46.67,-120.45,19.2,-1.9,80,10,,10.0,29.899607,1012.0,,TRUE,TRUE,TRUE,,,,,,CLR,,,,,,,,VFR,,,,,,,,,,,,METAR,423.0
K1OW 060655Z AUTO 17007KT 10SM CLR 12/11 A3027 RMK AO2 SLP205 T01230109 402090099 $,K1OW,2023-06-06T06:55:00Z,40.88,-104.0,12.3,10.9,170,7,,10.0,30.268702,1020.5,,TRUE,TRUE,TRUE,,,,,,CLR,,,,,,,,VFR,,,,20.9,9.9,,,,,,,METAR,1650.0
K1ON 060655Z AUTO 13005KT 10SM CLR 20/18 A2996 RMK AO2 SLP143 T02020178 $,K1ON,2023-06-06T06:55:00Z,,,20.2,17.8,130,5,,10.0,29.958662,1014.3,,TRUE,TRUE,TRUE,,,,,,CLR,,,,,,,,VFR,,,,,,,,,,,,METAR,
K1OM 060655Z AUTO 29018KT 10SM M 18/13 A2995 RMK AO2 SLP115 T01800127 402690162 $,K1OM,2023-06-06T06:55:00Z,47.33,-108.93,18.0,12.7,290,18,,10.0,29.949802,1011.5,,TRUE,TRUE,TRUE,,,,,,,,,,,,,,,,,,26.9,16.2,,,,,,,METAR,1088.0
K1NW 060655Z AUTO 20008KT 10SM M 13/13 A3013 RMK AO2 SLP159 T01310131 402310096 $,K1NW,2023-06-06T06:55:00Z,40.63,-103.83,13.1,13.1,200,8,,10.0,30.129921,1015.9,,TRUE,TRUE,TRUE,,,,,,,,,,,,,,,,,,23.1,9.6,,,,,,,METAR,1461.0
K1NN 060655Z AUTO 14004KT 7SM CLR 21/19 A2997 RMK AO2 SLP143 T02070192 $,K1NN,2023-06-06T06:55:00Z,,,20.7,19.2,140,4,,7.0,29.970472,1014.3,,TRUE,TRUE,TRUE,,,,,,CLR,,,,,,,,VFR,,,,,,,,,,,,METAR,
K1MW 060655Z AUTO 17007KT 10SM CLR 14/12 A3012 RMK AO2 SLP161 T01380118 402350089 $,K1MW,2023-06-06T06:55:00Z,40.7,-103.48,13.8,11.8,170,7,,10.0,30.121063,1016.1,,TRUE,TRUE,TRUE,,,,,,CLR,,,,,,,,VFR,,,,23.5,8.9,,,,,,,METAR,1338.0
K1MN 060655Z AUTO 14005KT 6SM BR CLR 20/19 A2996 RMK AO2 SLP140 T01960193 $,K1MN,2023-06-06T06:55:00Z,,,19.6,19.3,140,5,,6.0,29.958662,1014.0,,TRUE,TRUE,TRUE,,,,,BR,CLR,,,,,,,,VFR,,,,,,,,,,,,METAR,
K1MM 060655Z AUTO 14006KT 10SM SCT140 14/11 A3000 RMK AO2 SLP134 T01400112 402630104 $,K1MM,2023-06-06T06:55:00Z,47.02,-109.63,14.0,11.2,140,6,,10.0,30.0,1013.4,,TRUE,TRUE,TRUE,,,,,,SCT,14000,,,,,,,VFR,,,,26.3,10.4,,,,,,,METAR,1256.0
K1LN 060655Z AUTO 19005KT 10SM CLR 19/18 A2997 RMK AO2 SLP141 T01880183 $,K1LN,2023-06-06T06:55:00Z,,,18.8,18.3,190,5,,10.0,29.970472,1014.1,,TRUE,TRUE,TRUE,,,,,,CLR,,,,,,,,VFR,,,,,,,,,,,,METAR,
K1LM 060655Z AUTO 34010KT 10SM CLR 14/11 A3002 RMK AO2 SLP134 T01400113 402380107 $,K1LM,2023-06-06T06:55:00Z,46.7,-109.73,14.0,11.3,340,10,,10.0,30.02067,1013.4,,TRUE,TRUE,TRUE,,,,,,CLR,,,,,,,,VFR,,,,23.8,10.7,,,,,,,METAR,1417.0
K1KW 060655Z AUTO 19008KT 10SM CLR 13/12 M RMK AO2 SLPNO T01340121 402350092 $,K1KW,2023-06-06T06:55:00Z,41.13,-103.48,13.4,12.1,190,8,,10.0,,,,TRUE,TRUE,TRUE,,,,,,CLR,,,,,,,,VFR,,,,23.5,9.2,,,,,,,METAR,1443.0
K1JW 060655Z AUTO 14008KT 10SM CLR 13/11 M RMK AO2 SLPNO T01310106 402300095 $,K1JW,2023-06-06T06:55:00Z,40.97,-103.2,13.1,10.6,140,8,,10.0,,,,TRUE,TRUE,TRUE,,,,,,CLR,,,,,,,,VFR,,,,23.0,9.5,,,,,,,METAR,1382.0
K1JN 060655Z AUTO 20007KT 10SM CLR 20/20 A2997 RMK AO2 SLP142 T01980198 $,K1JN,2023-06-06T06:55:00Z,,,19.8,19.8,200,7,,10.0,29.970472,1014.2,,TRUE,TRUE,TRUE,,,,,,CLR,,,,,,,,VFR,,,,,,,,,,,,METAR,
K1JM 060655Z AUTO 25005KT 10SM OVC160 13/12 A2994 RMK AO2 SLP122 T01340120 402520100 $,K1JM,2023-06-06T06:55:00Z,47.75,-111.55,13.4,12.0,250,5,,10.0,29.940945,1012.2,,TRUE,TRUE,TRUE,,,,,,OVC,16000,,,,,,,VFR,,,,25.2,10.0,,,,,,,METAR,1154.0
K1IW 060655Z AUTO 19007KT 10SM CLR M A3012 RMK AO2 SLPNO ALSTG ESTMD $,K1IW,2023-06-06T06:55:00Z,41.05,-102.87,,,190,7,,10.0,30.121063,,,TRUE,TRUE,TRUE,,,,,,CLR,,,,,,,,VFR,,,,,,,,,,,,METAR,1294.0
K1IN 060655Z AUTO 14004KT 10SM FEW120 20/18 A2997 RMK AO2 SLP143 T02000179 $,K1IN,2023-06-06T06:55:00Z,,,20.0,17.9,140,4,,10.0,29.970472,1014.3,,TRUE,TRUE,TRUE,,,,,,FEW,12000,,,,,,,VFR,,,,,,,,,,,,METAR,
K1IM 060655Z AUTO 19003KT 10SM BKN140 OVC170 14/13 A2994 RMK AO2 SLP124 T01420134 402610128 $,K1IM,2023-06-06T06:55:00Z,47.32,-111.47,14.2,13.4,190,3,,10.0,29.940945,1012.4,,TRUE,TRUE,TRUE,,,,,,BKN,14000,OVC,17000,,,,,VFR,,,,26.1,12.8,,,,,,,METAR,1110.0
K1HW 060655Z AUTO 17006KT 10SM CLR 13/12 A3009 RMK AO2 SLP159 T01270118 402420097 $,K1HW,2023-06-06T06:55:00Z,41.32,-102.83,12.7,11.8,170,6,,10.0,30.088583,1015.9,,TRUE,TRUE,TRUE,,,,,,CLR,,,,,,,,VFR,,,,24.2,9.7,,,,,,,METAR,1265.0
K1HN 060655Z AUTO 15005KT 10SM CLR 22/17 A2995 RMK AO2 SLP139 T02230168 $,K1HN,2023-06-06T06:55:00Z,,,22.3,16.8,150,5,,10.0,29.949802,1013.9,,TRUE,TRUE,TRUE,,,,,,CLR,,,,,,,,VFR,,,,,,,,,,,,METAR,
K1HM 060655Z AUTO 00000KT 10SM BKN150 15/12 A2995 RMK AO2 SLP121 T01510115 402460109 $,K1HM,2023-06-06T06:55:00Z,47.7,-111.95,15.1,11.5,0,0,,10.0,29.949802,1012.1,,TRUE,TRUE,TRUE,,,,,,BKN,15000,,,,,,,VFR,,,,24.6,10.9,,,,,,,METAR,1181.0
K1GM 060655Z AUTO 21005KT 10SM CLR 13/12 M RMK AO2 SLPNO T01310118 402320101 $,K1GM,2023-06-06T06:55:00Z,47.33,-112.1,13.1,11.8,210,5,,10.0,,,,TRUE,TRUE,TRUE,,,,,,CLR,,,,,,,,VFR,,,,23.2,10.1,,,,,,,METAR,1317.0
K1FW 060655Z AUTO 00000KT 10SM CLR 13/12 A3012 RMK AO2 SLP156 T01320124 402360087 $,K1FW,2023-06-06T06:55:00Z,41.37,-103.48,13.2,12.4,0,0,,10.0,30.121063,1015.6,,TRUE,TRUE,TRUE,,,,,,CLR,,,,,,,,VFR,,,,23.6,8.7,,,,,,,METAR,1451.0
K1FM 060655Z AUTO 00000KT 10SM FEW140 13/09 A2999 RMK AO2 SLP129 T01340087 402390111 $,K1FM,2023-06-06T06:55:00Z,47.6,-112.32,13.4,8.7,0,0,,10.0,29.991142,1012.9,,TRUE,TRUE,TRUE,,,,,,FEW,14000,,,,,,,VFR,,,,23.9,11.1,,,,,,,METAR,1344.0
K1EW 060655Z AUTO 18007KT 10SM CLR 12/11 A3013 RMK AO2 SLP158 T01190105 402170083 $,K1EW,2023-06-06T06:55:00Z,41.12,-103.98,11.9,10.5,180,7,,10.0,30.129921,1015.8,,TRUE,TRUE,TRUE,,,,,,CLR,,,,,,,,VFR,,,,21.7,8.3,,,,,,,METAR,1609.0
K1EN 060655Z AUTO 12004KT 10SM CLR 19/17 A2977 RMK AO2 SLP080 T01890170 $,K1EN,2023-06-06T06:55:00Z,,,18.9,17.0,120,4,,10.0,29.769686,1008.0,,TRUE,TRUE,TRUE,,,,,,CLR,,,,,,,,VFR,,,,,,,,,,,,METAR,
K1EM 060655Z AUTO 25004KT 10SM CLR 16/12 A2997 RMK AO2 SLP122 T01610115 402700135 $,K1EM,2023-06-06T06:55:00Z,47.45,-109.42,16.1,11.5,250,4,,10.0,29.970472,1012.2,,TRUE,TRUE,TRUE,,,,,,CLR,,,,,,,,VFR,,,,27.0,13.5,,,,,,,METAR,1118.0
K1DW 060655Z AUTO 17008KT 10SM CLR 13/11 A3014 RMK AO2 SLP164 T01280105 402280098 $,K1DW,2023-06-06T06:55:00Z,41.37,-103.8,12.8,10.5,170,8,,10.0,30.138779,1016.4,,TRUE,TRUE,TRUE,,,,,,CLR,,,,,,,,VFR,,,,22.8,9.8,,,,,,,METAR,1539.0
K1DN 060655Z AUTO 15008KT 10SM CLR 21/18 A2849 RMK AO2 SLP635 T02080176 $,K1DN,2023-06-06T06:55:00Z,,,20.8,17.6,150,8,,10.0,28.491142,963.5,,TRUE,TRUE,TRUE,,,,,,CLR,,,,,,,,VFR,,,,,,,,,,,,METAR,
K1DM 060655Z AUTO 10003KT 10SM BKN110 OVC140 17/11 A2997 RMK AO2 RAB01E15RAB20E52 SLP125 P0001 T01660113 402640132 $,K1DM,2023-06-06T06:55:00Z,47.37,-109.8,16.6,11.3,100,3,,10.0,29.970472,1012.5,,TRUE,TRUE,TRUE,,,,,,BKN,11000,OVC,14000,,,,,VFR,,,,26.4,13.2,0.01,,,,,,METAR,1093.0
K1CW 060655Z AUTO 16014KT 10SM CLR 15/11 A3010 RMK AO2 SLP148 T01530113 402430105 $,K1CW,2023-06-06T06:55:00Z,41.58,-103.57,15.3,11.3,160,14,,10.0,30.100393,1014.8,,TRUE,TRUE,TRUE,,,,,,CLR,,,,,,,,VFR,,,,24.3,10.5,,,,,,,METAR,1370.0
K1CN 060655Z AUTO 13005KT 9SM CLR 19/17 A2998 RMK AO2 SLP146 T01940168 $,K1CN,2023-06-06T06:55:00Z,,,19.4,16.8,130,5,,9.0,29.97933,1014.6,,TRUE,TRUE,TRUE,,,,,,CLR,,,,,,,,VFR,,,,,,,,,,,,METAR,
K1CM 060655Z AUTO 00000KT 10SM FEW060 14/11 A3002 RMK AO2 SLP140 T01380108 402360103 $,K1CM,2023-06-06T06:55:00Z,47.1,-110.17,13.8,10.8,0,0,,10.0,30.02067,1014.0,,TRUE,TRUE,TRUE,,,,,,FEW,6000,,,,,,,VFR,,,,23.6,10.3,,,,,,,METAR,1338.0
K1BW 060655Z AUTO 17012KT 10SM CLR 12/10 A3016 RMK AO2 SLP169 T01230102 402180083 $,K1BW,2023-06-06T06:55:00Z,41.52,-104.0,12.3,10.2,170,12,,10.0,30.159449,1016.9,,TRUE,TRUE,TRUE,,,,,,CLR,,,,,,,,VFR,,,,21.8,8.3,,,,,,,METAR,1606.0
K1BN 060655Z AUTO 22007KT 10SM FEW130 21/17 A2997 RMK AO2 SLP142 T02140168 $,K1BN,2023-06-06T06:55:00Z,,,21.4,16.8,220,7,,10.0,29.970472,1014.2,,TRUE,TRUE,TRUE,,,,,,FEW,13000,,,,,,,VFR,,,,,,,,,,,,METAR,
K1AN 060655Z AUTO 18005KT 10SM CLR 22/18 A2992 RMK AO2 SLP143 T02150181 $,K1AN,2023-06-06T06:55:00Z,,,21.5,18.1,180,5,,10.0,29.920275,1014.3,,TRUE,TRUE,TRUE,,,,,,CLR,,,,,,,,VFR,,,,,,,,,,,,METAR,
K1AM 060655Z AUTO 13005KT 10SM CLR 14/11 A2998 RMK AO2 SLP132 T01390112 402380119 $,K1AM,2023-06-06T06:55:00Z,47.28,-110.8,13.9,11.2,130,5,,10.0,29.97933,1013.2,,TRUE,TRUE,TRUE,,,,,,CLR,,,,,,,,VFR,,,,23.8,11.9,,,,,,,METAR,1228.0
FJDG 060655Z 16015G19KT 9999 FEW015 SCT040 OVC080 29/25 A2991 RMK SLP125 P0008 T02890254,FJDG,2023-06-06T06:55:00Z,-7.32,72.42,28.9,25.4,160,15,19,6.21,29.911417,1012.5,,,,,,,,,,FEW,1500,SCT,4000,OVC,8000,,,VFR,,,,,,0.08,,,,,,SPECI,3.0
ETOU 060655Z 00000KT 9999 CLR 20/07 A3007 RMK AO2A SLP184 T02040202,ETOU,2023-06-06T06:55:00Z,50.03,8.32,20.4,7.0,0,0,,6.21,30.070866,1018.4,,,TRUE,,,,,,,CLR,,,,,,,,VFR,,,,,,,,,,,,SPECI,141.0
ETIK 060655Z AUTO 02003KT 9999 CLR 17/10 A3006 RMK AO2 SLP179 T01700099,ETIK,2023-06-06T06:55:00Z,49.47,10.38,17.0,9.9,20,3,,6.21,30.059055,1017.9,,TRUE,TRUE,,,,,,,CLR,,,,,,,,VFR,,,,,,,,,,,,METAR,326.0
ETIC 060655Z AUTO 29004KT 9999 OVC010 13/11 A3003 RMK AO2 SLP172 T01260107 $,ETIC,2023-06-06T06:55:00Z,49.7,11.93,12.6,10.7,290,4,,6.21,30.029528,1017.2,,TRUE,TRUE,TRUE,,,,,,OVC,1000,,,,,,,MVFR,,,,,,,,,,,,METAR,414.0
ETEB 060655Z AUTO 01012KT 9999 CLR 16/09 A3005 RMK AO2 SLP188 T01610088 $,ETEB,2023-06-06T06:55:00Z,49.32,10.63,16.1,8.8,10,12,,6.21,30.050198,1018.8,,TRUE,TRUE,TRUE,,,,,,CLR,,,,,,,,VFR,,,,,,,,,,,,METAR,466.0
ETAR 060655Z AUTO 00000KT 9999 CLR 18/10 A3006 RMK AO2 SLP181 T01750104,ETAR,2023-06-06T06:55:00Z,49.43,7.58,17.5,10.4,0,0,,6.21,30.059055,1018.1,,TRUE,TRUE,,,,,,,CLR,,,,,,,,VFR,,,,,,,,,,,,SPECI,231.0
ETAD 060655Z 08008KT 9999 FEW060 18/09 A3007 RMK AO2A SLP170 T01790090,ETAD,2023-06-06T06:55:00Z,49.98,6.7,17.9,9.0,80,8,,6.21,30.070866,1017.0,,,TRUE,,,,,,,FEW,6000,,,,,,,VFR,,,,,,,,,,,,SPECI,365.0
EGVA 060655Z AUTO 05009KT 9999 OVC016 11/09 A3022 RMK AO2 SLP237 T01070090 FZRANO $,EGVA,2023-06-06T06:55:00Z,51.67,-1.78,10.7,9.0,50,9,,6.21,30.221457,1023.7,,TRUE,TRUE,TRUE,,,TRUE,,,OVC,1600,,,,,,,MVFR,,,,,,,,,,,,SPECI,84.0
EGUN 060655Z 05006KT 9999 OVC017 11/11 A3025 RMK AO2A SLP247 T01100110 $,EGUN,2023-06-06T06:55:00Z,52.37,0.48,11.0,11.0,50,6,,6.21,30.250984,1024.7,,,TRUE,TRUE,,,,,,OVC,1700,,,,,,,MVFR,,,,,,,,,,,,SPECI,10.0
EBLB 060655Z AUTO 05003KT 9999 NCD 17/08 Q1020 BLU,EBLB,2023-06-06T06:55:00Z,50.47,6.17,17.0,8.0,50,3,,6.21,30.11811,,,TRUE,,,,,,,,CLR,,,,,,,,VFR,,,,,,,,,,,,METAR,563.0
EBDT 060655Z AUTO 02006KT 9999 NCD 14/10 Q1020 BLU,EBDT,2023-06-06T06:55:00Z,51.02,5.07,14.0,10.0,20,6,,6.21,30.11811,,,TRUE,,,,,,,,CLR,,,,,,,,VFR,,,,,,,,,,,,METAR,25.0
EBCV 060655Z AUTO 03009KT 9999 BKN010/// BKN110/// 13/10 Q1020 GRN,EBCV,2023-06-06T06:55:00Z,50.57,3.82,13.0,10.0,30,9,,6.21,30.11811,,,TRUE,,,,,,,,BKN,1000,BKN,11000,,,,,MVFR,,,,,,,,,,,,METAR,56.0
EBBL 060655Z 01006KT 9999 SKC 15/09 Q1020 BLU BLU,EBBL,2023-06-06T06:55:00Z,51.17,5.47,15.0,9.0,10,6,,6.21,30.11811,,,,,,,,,,,SKC,,,,,,,,VFR,,,,,,,,,,,,METAR,50.0
BK12 060655Z 11003KT 9999 FEW017 BKN140 20/13 A3013 RMK AO2 SLP180 WND DATA ESTMD T01980133,BK12,2023-06-06T06:55:00Z,,,19.8,13.3,110,3,,6.21,30.129921,1018.0,,,TRUE,,,,,,,FEW,1700,BKN,14000,,,,,VFR,,,,,,,,,,,,METAR,
PHOG 060654Z 06012KT 10SM CLR 24/18 A3009 RMK AO2 SLP193 T02390183,PHOG,2023-06-06T06:54:00Z,20.9,-156.43,23.9,18.3,60,12,,10.0,30.088583,1019.3,,,TRUE,,,,,,,CLR,,,,,,,,VFR,,,,,,,,,,,,METAR,14.0
PHMK 060654Z AUTO 01005KT 10SM CLR 23/19 A3011 RMK AO2 SLP199 T02330189 TSNO,PHMK,2023-06-06T06:54:00Z,21.15,-157.1,23.3,18.9,10,5,,10.0,30.109253,1019.9,,TRUE,TRUE,,,TRUE,,,,CLR,,,,,,,,VFR,,,,,,,,,,,,SPECI,135.0
PGUM 060654Z 09010KT 10SM SCT019 29/24 A2984 RMK AO2 RAB23E32 SLP095 P0000 T02940244,PGUM,2023-06-06T06:54:00Z,13.48,144.8,29.4,24.4,90,10,,10.0,29.840551,1009.5,,,TRUE,,,,,,,SCT,1900,,,,,,,VFR,,,,,,0.005,,,,,,SPECI,74.0
PGSN 060654Z 08014KT 10SM CLR 29/28 A2983 RMK AO2 SLP123 T02890278,PGSN,2023-06-06T06:54:00Z,15.12,145.72,28.9,27.8,80,14,,10.0,29.828741,1012.3,,,TRUE,,,,,,,CLR,,,,,,,,VFR,,,,,,,,,,,,SPECI,65.0
PAKN 060654Z 15012KT 10SM OVC036 09/05 A2970 RMK AO2 RAE14B29E40 SLP056 P0000 T00890050,PAKN,2023-06-06T06:54:00Z,58.68,-156.65,8.9,5.0,150,12,,10.0,29.698818,1005.6,,,TRUE,,,,,,,OVC,3600,,,,,,,VFR,,,,,,0.005,,,,,,METAR,20.0
PAHN 060654Z AUTO 08008G17KT 050V130 FEW055 11/04 A3013 RMK AO2 SLP206 T01060044 TSNO $,PAHN,2023-06-06T06:54:00Z,59.25,-135.52,10.6,4.4,80,8,17,,30.129921,1020.6,,TRUE,TRUE,TRUE,,TRUE,,,,FEW,5500,,,,,,,,,,,,,,,,,,,METAR,15.0
LIBF 060654Z VRB01KT CAVOK 22/18 Q1016,LIBF,2023-06-06T06:54:00Z,41.42,15.53,22.0,18.0,0,1,,6.21,30.0,,,,,,,,,,,CAVOK,,,,,,,,VFR,,,,,,,,,,,,SPECI,81.0
KWLD 060654Z AUTO 00000KT 10SM CLR 18/15 A3002 RMK AO2 SLP155 T01830150,KWLD,2023-06-06T06:54:00Z,37.17,-97.03,18.3,15.0,0,0,,10.0,30.02067,1015.5,,TRUE,TRUE,,,,,,,CLR,,,,,,,,VFR,,,,,,,,,,,,METAR,351.0
KWAL 060654Z AUTO 26006KT 10SM CLR 17/15 A2985 RMK AO2 SLP105 T01720150,KWAL,2023-06-06T06:54:00Z,37.93,-75.47,17.2,15.0,260,6,,10.0,29.84941,1010.5,,TRUE,TRUE,,,,,,,CLR,,,,,,,,VFR,,,,,,,,,,,,METAR,10.0
KVTA 060654Z AUTO 00000KT 6SM BR CLR 09/08 A2996 RMK AO2 SLP143 T00940083,KVTA,2023-06-06T06:54:00Z,40.02,-82.47,9.4,8.3,0,0,,6.0,29.958662,1014.3,,TRUE,TRUE,,,,,,BR,CLR,,,,,,,,VFR,,,,,,,,,,,,METAR,268.0
KVSF 060654Z AUTO 00000KT 10SM BKN110 08/07 A2971 RMK AO2 SLP063 T00830072,KVSF,2023-06-06T06:54:00Z,43.35,-72.52,8.3,7.2,0,0,,10.0,29.71063,1006.3,,TRUE,TRUE,,,,,,,BKN,11000,,,,,,,VFR,,,,,,,,,,,,METAR,176.0
KVAY 060654Z AUTO 00000KT 10SM CLR 17/04 A2979 RMK AO2 SLP088 T01670044 $,KVAY,2023-06-06T06:54:00Z,39.93,-74.83,16.7,4.4,0,0,,10.0,29.790354,1008.8,,TRUE,TRUE,TRUE,,,,,,CLR,,,,,,,,VFR,,,,,,,,,,,,METAR,15.0
KUZA 060654Z AUTO 22003KT 7SM BKN033 OVC045 19/18 A2993 RMK AO2 SLP127 T01890178,KUZA,2023-06-06T06:54:00Z,34.98,-81.05,18.9,17.8,220,3,,7.0,29.929134,1012.7,,TRUE,TRUE,,,,,,,BKN,3300,OVC,4500,,,,,VFR,,,,,,,,,,,,METAR,198.0
KUIN 060654Z AUTO 02003KT 10SM CLR 18/09 A3003 RMK AO2 SLP162 T01780094,KUIN,2023-06-06T06:54:00Z,39.95,-91.2,17.8,9.4,20,3,,10.0,30.029528,1016.2,,TRUE,TRUE,,,,,,,CLR,,,,,,,,VFR,,,,,,,,,,,,METAR,233.0
KTQE 060654Z AUTO 15004KT 10SM CLR 18/13 A3002 RMK AO2 SLP153 T01780133,KTQE,2023-06-06T06:54:00Z,41.77,-96.18,17.8,13.3,150,4,,10.0,30.02067,1015.3,,TRUE,TRUE,,,,,,,CLR,,,,,,,,VFR,,,,,,,,,,,,METAR,312.0
KTAD 060654Z AUTO 25009KT 10SM BKN100 11/09 A3021 RMK AO2 SLP174 T01110094 402000106,KTAD,2023-06-06T06:54:00Z,37.27,-104.33,11.1,9.4,250,9,,10.0,30.209646,1017.4,,TRUE,TRUE,,,,,,,BKN,10000,,,,,,,VFR,,,,20.0,10.6,,,,,,,METAR,1751.0
KSYR 060654Z 26006KT 6SM HZ SCT060 BKN110 OVC170 16/06 A2981 RMK AO2 SLP088 T01560061,KSYR,2023-06-06T06:54:00Z,43.12,-76.1,15.6,6.1,260,6,,6.0,29.811024,1008.8,,,TRUE,,,,,,HZ,SCT,6000,BKN,11000,OVC,17000,,,VFR,,,,,,,,,,,,SPECI,125.0
KSUS 060654Z AUTO 22003KT 10SM CLR 12/11 A3000 RMK AO2 SLP155 T01170106,KSUS,2023-06-06T06:54:00Z,38.65,-90.65,11.7,10.6,220,3,,10.0,30.0,1015.5,,TRUE,TRUE,,,,,,,CLR,,,,,,,,VFR,,,,,,,,,,,,METAR,140.0
KSLC 060654Z 09003KT 10SM SCT140 SCT150 22/07 A2993 RMK AO2 SLP079 T02170072 403110144,KSLC,2023-06-06T06:54:00Z,40.77,-111.97,21.7,7.2,90,3,,10.0,29.929134,1007.9,,,TRUE,,,,,,,SCT,14000,SCT,15000,,,,,VFR,,,,31.1,14.4,,,,,,,METAR,1286.0
KSET 060654Z AUTO 00000KT 10SM CLR 14/11 A3000 RMK AO2 SLP155 T01440111,KSET,2023-06-06T06:54:00Z,38.93,-90.43,14.4,11.1,0,0,,10.0,30.0,1015.5,,TRUE,TRUE,,,,,,,CLR,,,,,,,,VFR,,,,,,,,,,,,METAR,133.0
KSBY 060654Z AUTO 00000KT 10SM CLR 15/14 A2984 RMK AO2 SLP105 T01500139,KSBY,2023-06-06T06:54:00Z,38.33,-75.5,15.0,13.9,0,0,,10.0,29.840551,1010.5,,TRUE,TRUE,,,,,,,CLR,,,,,,,,VFR,,,,,,,,,,,,METAR,14.0
KSBN 060654Z AUTO 00000KT 10SM CLR 16/09 A3000 RMK AO2 SLP156 T01610094,KSBN,2023-06-06T06:54:00Z,41.7,-86.32,16.1,9.4,0,0,,10.0,30.0,1015.6,,TRUE,TRUE,,,,,,,CLR,,,,,,,,VFR,,,,,,,,,,,,METAR,236.0
KRST 060654Z AUTO 20004KT 10SM BKN095 OVC110 21/16 A3002 RMK AO2 SLP159 T02060156,KRST,2023-06-06T06:54:00Z,43.9,-92.5,20.6,15.6,200,4,,10.0,30.02067,1015.9,,TRUE,TRUE,,,,,,,BKN,9500,OVC,11000,,,,,VFR,,,,,,,,,,,,METAR,398.0
KRSP 060654Z AUTO 29006KT 10SM CLR 13/04 A2989 RMK AO2 SLP114 T01330039 $,KRSP,2023-06-06T06:54:00Z,39.65,-77.47,13.3,3.9,290,6,,10.0,29.890747,1011.4,,TRUE,TRUE,TRUE,,,,,,CLR,,,,,,,,VFR,,,,,,,,,,,,SPECI,555.0
KROC 060654Z 23003KT 10SM BKN250 12/08 A2983 RMK AO2 SLP103 T01220078,KROC,2023-06-06T06:54:00Z,43.12,-77.68,12.2,7.8,230,3,,10.0,29.828741,1010.3,,,TRUE,,,,,,,BKN,25000,,,,,,,VFR,,,,,,,,,,,,SPECI,166.0
KROA 060654Z 33003KT 10SM CLR 14/11 A2995 RMK AO2 SLP132 T01440111,KROA,2023-06-06T06:54:00Z,37.32,-79.97,14.4,11.1,330,3,,10.0,29.949802,1013.2,,,TRUE,,,,,,,CLR,,,,,,,,VFR,,,,,,,,,,,,METAR,349.0
KRKS 060654Z AUTO 08004KT 10SM FEW120 13/07 A3016 RMK AO2 SLP140 T01280067 402390089,KRKS,2023-06-06T06:54:00Z,41.6,-109.07,12.8,6.7,80,4,,10.0,30.159449,1014.0,,TRUE,TRUE,,,,,,,FEW,12000,,,,,,,VFR,,,,23.9,8.9,,,,,,,METAR,2062.0
KRIC 060654Z 00000KT 10SM FEW085 14/12 A2988 RMK AO2 SLP123 T01440117,KRIC,2023-06-06T06:54:00Z,37.52,-77.32,14.4,11.7,0,0,,10.0,29.878937,1012.3,,,TRUE,,,,,,,FEW,8500,,,,,,,VFR,,,,,,,,,,,,METAR,51.0
KRFD 060654Z 11003KT 10SM SCT250 18/11 A3003 RMK AO2 SLP164 T01780106 $,KRFD,2023-06-06T06:54:00Z,42.2,-89.1,17.8,10.6,110,3,,10.0,30.029528,1016.4,,,TRUE,TRUE,,,,,,SCT,25000,,,,,,,VFR,,,,,,,,,,,,METAR,222.0
KRDG 060654Z AUTO 21003KT 8SM OVC060 15/05 A2982 RMK AO2 SLP100 T01500050,KRDG,2023-06-06T06:54:00Z,40.37,-75.97,15.0,5.0,210,3,,8.0,29.819881,1010.0,,TRUE,TRUE,,,,,,,OVC,6000,,,,,,,VFR,,,,,,,,,,,,METAR,101.0
KRBL 060654Z AUTO 27006KT 10SM CLR 27/11 A2975 RMK AO2 SLP069 T02670111,KRBL,2023-06-06T06:54:00Z,40.15,-122.25,26.7,11.1,270,6,,10.0,29.749016,1006.9,,TRUE,TRUE,,,,,,,CLR,,,,,,,,VFR,,,,,,,,,,,,METAR,107.0
KPTW 060654Z AUTO 00000KT 9SM OVC060 11/06 A2983 RMK AO2 SLP098 T01060056,KPTW,2023-06-06T06:54:00Z,40.23,-75.55,10.6,5.6,0,0,,9.0,29.828741,1009.8,,TRUE,TRUE,,,,,,,OVC,6000,,,,,,,VFR,,,,,,,,,,,,METAR,88.0
KPSF 060654Z AUTO 29005KT 8SM CLR 12/04 A2974 RMK AO2 SLP054 T01170044,KPSF,2023-06-06T06:54:00Z,42.43,-73.28,11.7,4.4,290,5,,8.0,29.740158,1005.4,,TRUE,TRUE,,,,,,,CLR,,,,,,,,VFR,,,,,,,,,,,,METAR,352.0
KPNE 060654Z AUTO 29005KT 10SM CLR 16/04 A2981 RMK AO2 SLP093 T01560039 $,KPNE,2023-06-06T06:54:00Z,40.08,-75.02,15.6,3.9,290,5,,10.0,29.811024,1009.3,,TRUE,TRUE,TRUE,,,,,,CLR,,,,,,,,VFR,,,,,,,,,,,,METAR,32.0
KPLN 060654Z AUTO 04005KT 10SM CLR 15/11 A3003 RMK AO2 SLP168 T01500106,KPLN,2023-06-06T06:54:00Z,45.57,-84.8,15.0,10.6,40,5,,10.0,30.029528,1016.8,,TRUE,TRUE,,,,,,,CLR,,,,,,,,VFR,,,,,,,,,,,,METAR,215.0
KPIA 060654Z 00000KT 10SM CLR 17/11 A3002 RMK AO2 SLP162 T01670111 $,KPIA,2023-06-06T06:54:00Z,40.67,-89.68,16.7,11.1,0,0,,10.0,30.02067,1016.2,,,TRUE,TRUE,,,,,,CLR,,,,,,,,VFR,,,,,,,,,,,,METAR,200.0
KPHL 060654Z 29006KT 10SM FEW250 18/03 A2981 RMK AO2 SLP093 T01780033,KPHL,2023-06-06T06:54:00Z,39.87,-75.23,17.8,3.3,290,6,,10.0,29.811024,1009.3,,,TRUE,,,,,,,FEW,25000,,,,,,,VFR,,,,,,,,,,,,SPECI,2.0
KPHF 060654Z 23005KT 10SM CLR 16/12 A2988 RMK AO2 SLP117 T01560122,KPHF,2023-06-06T06:54:00Z,37.13,-76.5,15.6,12.2,230,5,,10.0,29.878937,1011.7,,,TRUE,,,,,,,CLR,,,,,,,,VFR,,,,,,,,,,,,METAR,12.0
KORH 060654Z AUTO 29010KT 10SM FEW085 13/08 A2970 RMK AO2 SLP059 T01280083,KORH,2023-06-06T06:54:00Z,42.27,-71.87,12.8,8.3,290,10,,10.0,29.698818,1005.9,,TRUE,TRUE,,,,,,,FEW,8500,,,,,,,VFR,,,,,,,,,,,,METAR,306.0
KOLS 060654Z AUTO 10004KT 10SM CLR 19/M04 A2995 RMK AO2 SLP070 T01891039 403500133,KOLS,2023-06-06T06:54:00Z,31.42,-110.85,18.9,-3.9,100,4,,10.0,29.949802,1007.0,,TRUE,TRUE,,,,,,,CLR,,,,,,,,VFR,,,,35.0,13.3,,,,,,,METAR,1194.0
KOLM 060654Z AUTO 02003KT 10SM CLR 13/02 A3002 RMK AO2 SLP164 T01330017,KOLM,2023-06-06T06:54:00Z,46.97,-122.9,13.3,1.7,20,3,,10.0,30.02067,1016.4,,TRUE,TRUE,,,,,,,CLR,,,,,,,,VFR,,,,,,,,,,,,METAR,58.0
KOFP 060654Z AUTO 00000KT 10SM CLR 13/12 A2990 RMK AO2 SLP121 T01330117,KOFP,2023-06-06T06:54:00Z,37.7,-77.43,13.3,11.7,0,0,,10.0,29.899607,1012.1,,TRUE,TRUE,,,,,,,CLR,,,,,,,,VFR,,,,,,,,,,,,METAR,63.0
KNAK 060654Z AUTO 27003KT 10SM CLR 17/09 A2984 RMK AO2 SLP107 T01670089 $,KNAK,2023-06-06T06:54:00Z,38.98,-76.48,16.7,8.9,270,3,,10.0,29.840551,1010.7,,TRUE,TRUE,TRUE,,,,,,CLR,,,,,,,,VFR,,,,,,,,,,,,METAR,2.0
KMWN 060654Z COR 34035G42KT 8000 HZ BKN/// BKN000 BKN010 BKN060 02/00 RMK TPS LWR BKN045 HZ BKN000,KMWN,2023-06-06T06:54:00Z,44.27,-71.3,2.0,0.0,340,35,42,4.97,,,TRUE,,,,,,,,HZ,BKN,0,BKN,1000,BKN,6000,,,LIFR,,,,,,,,,,,,METAR,1911.0
KMVL 060654Z AUTO 00000KT 10SM CLR 08/06 A2971 RMK AO2 SLP063 T00780056,KMVL,2023-06-06T06:54:00Z,44.53,-72.62,7.8,5.6,0,0,,10.0,29.71063,1006.3,,TRUE,TRUE,,,,,,,CLR,,,,,,,,VFR,,,,,,,,,,,,METAR,226.0
KMTP 060654Z AUTO 26003KT 17/11 A2973 RMK AO1 SLP065 T01670111,KMTP,2023-06-06T06:54:00Z,41.07,-71.92,16.7,11.1,260,3,,,29.731298,1006.5,,TRUE,TRUE,,,,,,,,,,,,,,,,,,,,,,,,,,,METAR,2.0
KMOT 060654Z AUTO 12004KT 10SM CLR 21/17 A2996 RMK AO2 SLP136 T02060167,KMOT,2023-06-06T06:54:00Z,48.25,-101.27,20.6,16.7,120,4,,10.0,29.958662,1013.6,,TRUE,TRUE,,,,,,,CLR,,,,,,,,VFR,,,,,,,,,,,,METAR,507.0
KMKC 060654Z 04003KT 10SM CLR 22/17 A3002 RMK AO2 SLP157 T02220167,KMKC,2023-06-06T06:54:00Z,39.12,-94.6,22.2,16.7,40,3,,10.0,30.02067,1015.7,,,TRUE,,,,,,,CLR,,,,,,,,VFR,,,,,,,,,,,,METAR,228.0
KMIV 060654Z AUTO 28006KT 10SM CLR 12/07 A2981 RMK AO2 SLP092 T01170067,KMIV,2023-06-06T06:54:00Z,39.37,-75.08,11.7,6.7,280,6,,10.0,29.811024,1009.2,,TRUE,TRUE,,,,,,,CLR,,,,,,,,VFR,,,,,,,,,,,,METAR,18.0
KMGJ 060654Z AUTO 20003KT 10SM CLR 11/06 A2976 RMK AO2 SLP076 T01060056,KMGJ,2023-06-06T06:54:00Z,41.52,-74.27,10.6,5.6,200,3,,10.0,29.760826,1007.6,,TRUE,TRUE,,,,,,,CLR,,,,,,,,VFR,,,,,,,,,,,,METAR,106.0
KMFI 060654Z AUTO 10007KT 7SM SCT070 BKN090 20/15 A3004 RMK AO2 SLP164 T02000150,KMFI,2023-06-06T06:54:00Z,44.63,-90.18,20.0,15.0,100,7,,7.0,30.041338,1016.4,,TRUE,TRUE,,,,,,,SCT,7000,BKN,9000,,,,,VFR,,,,,,,,,,,,METAR,383.0
KMEM 060654Z 00000KT 10SM FEW250 22/18 A2994 RMK AO2 SLP136 T02170178,KMEM,2023-06-06T06:54:00Z,35.07,-89.98,21.7,17.8,0,0,,10.0,29.940945,1013.6,,,TRUE,,,,,,,FEW,25000,,,,,,,VFR,,,,,,,,,,,,METAR,78.0
KLYH 060654Z AUTO 35005KT 10SM CLR 16/12 A2990 RMK AO2 SLP117 T01560117,KLYH,2023-06-06T06:54:00Z,37.32,-79.2,15.6,11.7,350,5,,10.0,29.899607,1011.7,,TRUE,TRUE,,,,,,,CLR,,,,,,,,VFR,,,,,,,,,,,,METAR,282.0
KLWT 060654Z AUTO 16005KT 10SM CLR 14/11 A3002 RMK AO2 SLP132 T01390111 402670106,KLWT,2023-06-06T06:54:00Z,47.05,-109.47,13.9,11.1,160,5,,10.0,30.02067,1013.2,,TRUE,TRUE,,,,,,,CLR,,,,,,,,VFR,,,,26.7,10.6,,,,,,,METAR,1254.0
KLWM 060654Z AUTO 25003KT 10SM FEW070 13/10 A2969 RMK AO2 SLP053 T01280100 $,KLWM,2023-06-06T06:54:00Z,42.72,-71.13,12.8,10.0,250,3,,10.0,29.68996,1005.3,,TRUE,TRUE,TRUE,,,,,,FEW,7000,,,,,,,VFR,,,,,,,,,,,,METAR,42.0
KLNK 060654Z AUTO 19004KT 10SM CLR 17/13 A3005 RMK AO2 SLP168 T01670128,KLNK,2023-06-06T06:54:00Z,40.85,-96.77,16.7,12.8,190,4,,10.0,30.050198,1016.8,,TRUE,TRUE,,,,,,,CLR,,,,,,,,VFR,,,,,,,,,,,,METAR,357.0
KLEX 060654Z 09006KT 10SM CLR 18/09 A2998 RMK AO2 SLP144 T01780094,KLEX,2023-06-06T06:54:00Z,38.03,-84.6,17.8,9.4,90,6,,10.0,29.97933,1014.4,,,TRUE,,,,,,,CLR,,,,,,,,VFR,,,,,,,,,,,,METAR,294.0
KLAF 060654Z AUTO 00000KT 10SM CLR 13/08 A3000 RMK AO2 SLP154 T01280083,KLAF,2023-06-06T06:54:00Z,40.42,-86.93,12.8,8.3,0,0,,10.0,30.0,1015.4,,TRUE,TRUE,,,,,,,CLR,,,,,,,,VFR,,,,,,,,,,,,METAR,182.0
KJST 060654Z AUTO 00000KT 6SM HZ CLR 12/04 A2993 RMK AO2 SLP129 T01170039,KJST,2023-06-06T06:54:00Z,40.32,-78.83,11.7,3.9,0,0,,6.0,29.929134,1012.9,,TRUE,TRUE,,,,,,HZ,CLR,,,,,,,,VFR,,,,,,,,,,,,METAR,695.0
KJAN 060654Z AUTO 34004KT 8SM CLR 20/18 A2994 RMK AO2 SLP132 T02000183 $,KJAN,2023-06-06T06:54:00Z,32.32,-90.08,20.0,18.3,340,4,,8.0,29.940945,1013.2,,TRUE,TRUE,TRUE,,,,,,CLR,,,,,,,,VFR,,,,,,,,,,,,METAR,92.0
KIZG 060654Z AUTO 00000KT 10SM FEW110 07/07 A2968 RMK AO2 SLP051 T00720067,KIZG,2023-06-06T06:54:00Z,43.98,-70.95,7.2,6.7,0,0,,10.0,29.681103,1005.1,,TRUE,TRUE,,,,,,,FEW,11000,,,,,,,VFR,,,,,,,,,,,,METAR,138.0
KISW 060654Z AUTO 10005KT 8SM BKN095 20/13 A3005 RMK AO2 SLP168 T02000133,KISW,2023-06-06T06:54:00Z,44.37,-89.83,20.0,13.3,100,5,,8.0,30.050198,1016.8,,TRUE,TRUE,,,,,,,BKN,9500,,,,,,,VFR,,,,,,,,,,,,METAR,311.0
KIPT 060654Z AUTO 30004KT 10SM CLR 12/07 A2984 RMK AO2 SLP103 T01220067,KIPT,2023-06-06T06:54:00Z,41.25,-76.92,12.2,6.7,300,4,,10.0,29.840551,1010.3,,TRUE,TRUE,,,,,,,CLR,,,,,,,,VFR,,,,,,,,,,,,METAR,160.0
KINT 060654Z AUTO 00000KT 8SM SCT022 18/17 A2994 RMK AO2 SLP128 T01830167,KINT,2023-06-06T06:54:00Z,36.13,-80.22,18.3,16.7,0,0,,8.0,29.940945,1012.8,,TRUE,TRUE,,,,,,,SCT,2200,,,,,,,VFR,,,,,,,,,,,,METAR,292.0
KIND 060654Z 34005KT 8SM FEW250 16/08 A2999 RMK AO2 SLP152 T01560078,KIND,2023-06-06T06:54:00Z,39.72,-86.27,15.6,7.8,340,5,,8.0,29.991142,1015.2,,,TRUE,,,,,,,FEW,25000,,,,,,,VFR,,,,,,,,,,,,METAR,242.0
KIMT 060654Z AUTO 00000KT 4SM BR CLR 11/09 A3008 RMK AO2 SLP184 T01110094,KIMT,2023-06-06T06:54:00Z,45.82,-88.12,11.1,9.4,0,0,,4.0,30.079725,1018.4,,TRUE,TRUE,,,,,,BR,CLR,,,,,,,,MVFR,,,,,,,,,,,,METAR,343.0
KILN 060654Z AUTO 00000KT 4SM HZ CLR 12/06 A2999 RMK AO2 SLP150 T01170061,KILN,2023-06-06T06:54:00Z,39.43,-83.8,11.7,6.1,0,0,,4.0,29.991142,1015.0,,TRUE,TRUE,,,,,,HZ,CLR,,,,,,,,MVFR,,,,,,,,,,,,METAR,325.0
KHWD 060654Z AUTO 32007KT 10SM CLR 14/11 A2981 RMK AO2 SLP106 T01390111,KHWD,2023-06-06T06:54:00Z,37.67,-122.12,13.9,11.1,320,7,,10.0,29.811024,1010.6,,TRUE,TRUE,,,,,,,CLR,,,,,,,,VFR,,,,,,,,,,,,METAR,9.0
KGSO 060654Z 23004KT 7SM SCT026 SCT250 17/16 A2991 RMK AO2 SLP122 T01670156,KGSO,2023-06-06T06:54:00Z,36.1,-79.95,16.7,15.6,230,4,,7.0,29.911417,1012.2,,,TRUE,,,,,,,SCT,2600,SCT,25000,,,,,VFR,,,,,,,,,,,,METAR,275.0
KGED 060654Z AUTO 00000KT 10SM CLR 16/12 A2983 RMK AO2 SLP100 T01610117,KGED,2023-06-06T06:54:00Z,38.68,-75.37,16.1,11.7,0,0,,10.0,29.828741,1010.0,,TRUE,TRUE,,,,,,,CLR,,,,,,,,VFR,,,,,,,,,,,,METAR,15.0
KGCN 060654Z AUTO 20003KT 10SM CLR 13/M04 A3008 RMK AO2 SLP087 T01331044 402720028,KGCN,2023-06-06T06:54:00Z,35.95,-112.15,13.3,-4.4,200,3,,10.0,30.079725,1008.7,,TRUE,TRUE,,,,,,,CLR,,,,,,,,VFR,,,,27.2,2.8,,,,,,,METAR,1993.0
KGCK 060654Z AUTO 30005KT 10SM CLR 16/13 A3010 RMK AO2 SLP165 T01610133,KGCK,2023-06-06T06:54:00Z,37.92,-100.72,16.1,13.3,300,5,,10.0,30.100393,1016.5,,TRUE,TRUE,,,,,,,CLR,,,,,,,,VFR,,,,,,,,,,,,METAR,877.0
KFZY 060654Z AUTO 30005KT 8SM BKN100 14/10 A2980 RMK AO2 SLP090 T01440100,KFZY,2023-06-06T06:54:00Z,43.35,-76.38,14.4,10.0,300,5,,8.0,29.799213,1009.0,,TRUE,TRUE,,,,,,,BKN,10000,,,,,,,VFR,,,,,,,,,,,,METAR,143.0
KFWA 060654Z 30003KT 10SM FEW030 FEW055 BKN280 16/08 A2998 RMK AO2 SLP149 T01560078,KFWA,2023-06-06T06:54:00Z,40.98,-85.2,15.6,7.8,300,3,,10.0,29.97933,1014.9,,,TRUE,,,,,,,FEW,3000,FEW,5500,BKN,28000,,,VFR,,,,,,,,,,,,METAR,243.0
KFIG 060654Z AUTO 20004KT 7SM SCT085 09/05 A2991 RMK AO2 SLP124 T00940050,KFIG,2023-06-06T06:54:00Z,41.05,-78.42,9.4,5.0,200,4,,7.0,29.911417,1012.4,,TRUE,TRUE,,,,,,,SCT,8500,,,,,,,VFR,,,,,,,,,,,,METAR,461.0
KFFZ 060654Z 31005KT CLR 28/M06 A2979 RMK AO2 SLP061 T02831056 403940244 $,KFFZ,2023-06-06T06:54:00Z,33.47,-111.72,28.3,-5.6,310,5,,,29.790354,1006.1,,,TRUE,TRUE,,,,,,CLR,,,,,,,,,,,,39.4,24.4,,,,,,,METAR,420.0
KEWN 060654Z AUTO 23005KT 10SM CLR 16/13 A2991 RMK AO2 SLP129 T01560128,KEWN,2023-06-06T06:54:00Z,35.07,-77.05,15.6,12.8,230,5,,10.0,29.911417,1012.9,,TRUE,TRUE,,,,,,,CLR,,,,,,,,VFR,,,,,,,,,,,,METAR,3.0
KEVV 060654Z AUTO 00000KT 10SM CLR 16/12 A2998 RMK AO2 SLP149 T01560117 $,KEVV,2023-06-06T06:54:00Z,38.05,-87.52,15.6,11.7,0,0,,10.0,29.97933,1014.9,,TRUE,TRUE,TRUE,,,,,,CLR,,,,,,,,VFR,,,,,,,,,,,,METAR,123.0
KEUG 060654Z AUTO 36006KT 10SM CLR 14/03 A2991 RMK AO2 SLP127 T01390033,KEUG,2023-06-06T06:54:00Z,44.13,-123.22,13.9,3.3,360,6,,10.0,29.911417,1012.7,,TRUE,TRUE,,,,,,,CLR,,,,,,,,VFR,,,,,,,,,,,,METAR,109.0
KEFD 060654Z 00000KT 10SM CLR 21/20 A2989,KEFD,2023-06-06T06:54:00Z,29.6,-95.17,21.0,20.0,0,0,,10.0,29.890747,,,,,,,,,,,CLR,,,,,,,,VFR,,,,,,,,,,,,METAR,9.0
KECG 060654Z AUTO 19006KT 10SM CLR 17/15 A2988 RMK AO2 SLP117 T01670150,KECG,2023-06-06T06:54:00Z,36.27,-76.18,16.7,15.0,190,6,,10.0,29.878937,1011.7,,TRUE,TRUE,,,,,,,CLR,,,,,,,,VFR,,,,,,,,,,,,METAR,2.0
KDYL 060654Z AUTO 00000KT 10SM CLR 14/04 A2980 RMK AO2 SLP089 T01390039,KDYL,2023-06-06T06:54:00Z,40.33,-75.12,13.9,3.9,0,0,,10.0,29.799213,1008.9,,TRUE,TRUE,,,,,,,CLR,,,,,,,,VFR,,,,,,,,,,,,METAR,121.0
KDSV 060654Z AUTO 14005KT 9SM SCT100 BKN120 13/08 A2985 RMK AO2 SLP113 T01280083,KDSV,2023-06-06T06:54:00Z,42.57,-77.72,12.8,8.3,140,5,,9.0,29.84941,1011.3,,TRUE,TRUE,,,,,,,SCT,10000,BKN,12000,,,,,VFR,,,,,,,,,,,,METAR,195.0
KDSM 060654Z 00000KT 7SM FEW250 21/16 A3003 RMK AO2 SLP162 T02060161,KDSM,2023-06-06T06:54:00Z,41.53,-93.67,20.6,16.1,0,0,,7.0,30.029528,1016.2,,,TRUE,,,,,,,FEW,25000,,,,,,,VFR,,,,,,,,,,,,METAR,286.0
KDMH 060654Z AUTO 20/07 A2985 RMK AO1 SLP107 T02000067,KDMH,2023-06-06T06:54:00Z,39.28,-76.62,20.0,6.7,,,,,29.84941,1010.7,,TRUE,TRUE,,,,,,,,,,,,,,,,,,,,,,,,,,,METAR,4.0
KDEC 060654Z AUTO 00000KT 10SM CLR 17/09 A3002 RMK AO2 SLP161 T01670089,KDEC,2023-06-06T06:54:00Z,39.83,-88.87,16.7,8.9,0,0,,10.0,30.02067,1016.1,,TRUE,TRUE,,,,,,,CLR,,,,,,,,VFR,,,,,,,,,,,,METAR,205.0
KDDH 060654Z AUTO 00000KT 7SM BKN110 07/ A2975 RMK AO2 SLP071 T0072 $,KDDH,2023-06-06T06:54:00Z,42.9,-73.25,7.2,,0,0,,7.0,29.749016,1007.1,,TRUE,TRUE,TRUE,,,,,,BKN,11000,,,,,,,VFR,,,,,,,,,,,,METAR,241.0
KCRW 060654Z 00000KT 6SM BR FEW003 SCT200 11/11 A2996 RMK AO2 SLP141 VLY FG T01060106,KCRW,2023-06-06T06:54:00Z,38.38,-81.58,10.6,10.6,0,0,,6.0,29.958662,1014.1,,,TRUE,,,,,,BR,FEW,300,SCT,20000,,,,,VFR,,,,,,,,,,,,METAR,278.0
KCOU 060654Z AUTO 00000KT 10SM CLR 17/11 A3004 RMK AO2 SLP163 T01720106,KCOU,2023-06-06T06:54:00Z,38.82,-92.22,17.2,10.6,0,0,,10.0,30.041338,1016.3,,TRUE,TRUE,,,,,,,CLR,,,,,,,,VFR,,,,,,,,,,,,METAR,272.0
KCEU 060654Z AUTO 00000KT 8SM CLR 19/19 A2993 RMK AO2 SLP128 T01940189,KCEU,2023-06-06T06:54:00Z,34.67,-82.88,19.4,18.9,0,0,,8.0,29.929134,1012.8,,TRUE,TRUE,,,,,,,CLR,,,,,,,,VFR,,,,,,,,,,,,METAR,270.0
KCAR 060654Z AUTO 36010KT 10SM -RA OVC013 09/08 A2963 RMK AO2 RAB32 SLP040 P0000 T00940078,KCAR,2023-06-06T06:54:00Z,46.87,-68.02,9.4,7.8,360,10,,10.0,29.630905,1004.0,,TRUE,TRUE,,,,,,-RA,OVC,1300,,,,,,,MVFR,,,,,,0.005,,,,,,METAR,189.0
KBWI 060654Z 28004KT 10SM CLR 15/08 A2984 RMK AO2 SLP103 HAZY SKY T01500078,KBWI,2023-06-06T06:54:00Z,39.17,-76.68,15.0,7.8,280,4,,10.0,29.840551,1010.3,,,TRUE,,,,,,,CLR,,,,,,,,VFR,,,,,,,,,,,,METAR,42.0
KBUY 060654Z AUTO 00000KT 9SM CLR 17/16 A2991 RMK AO2 SLP121 T01720156,KBUY,2023-06-06T06:54:00Z,36.05,-79.47,17.2,15.6,0,0,,9.0,29.911417,1012.1,,TRUE,TRUE,,,,,,,CLR,,,,,,,,VFR,,,,,,,,,,,,METAR,185.0
KBUF 060654Z 23007KT 10SM FEW080 SCT250 14/12 A2986 RMK AO2 SLP108 T01440117,KBUF,2023-06-06T06:54:00Z,42.93,-78.73,14.4,11.7,230,7,,10.0,29.861221,1010.8,,,TRUE,,,,,,,FEW,8000,SCT,25000,,,,,VFR,,,,,,,,,,,,METAR,217.0
KBTV 060654Z AUTO 00000KT 10SM OVC050 12/07 A2971 RMK AO2 SLP060 T01170072,KBTV,2023-06-06T06:54:00Z,44.47,-73.15,11.7,7.2,0,0,,10.0,29.71063,1006.0,,TRUE,TRUE,,,,,,,OVC,5000,,,,,,,VFR,,,,,,,,,,,,METAR,101.0
KBOS 060654Z 28005KT 10SM FEW060 OVC080 15/10 A2968 RMK AO2 SLP049 T01500100,KBOS,2023-06-06T06:54:00Z,42.37,-71.02,15.0,10.0,280,5,,10.0,29.681103,1004.9,,,TRUE,,,,,,,FEW,6000,OVC,8000,,,,,VFR,,,,,,,,,,,,SPECI,4.0
KBFL 060654Z AUTO VRB03KT 8SM FEW080 19/10 A2977 RMK AO2 LTG DSNT SW SLP077 T01890100,KBFL,2023-06-06T06:54:00Z,35.43,-119.05,18.9,10.0,0,3,,8.0,29.769686,1007.7,,TRUE,TRUE,,,,,,,FEW,8000,,,,,,,VFR,,,,,,,,,,,,METAR,146.0
KAVP 060654Z AUTO 00000KT 6SM HZ CLR 10/05 A2983 RMK AO2 SLP096 T01000050,KAVP,2023-06-06T06:54:00Z,41.33,-75.72,10.0,5.0,0,0,,6.0,29.828741,1009.6,,TRUE,TRUE,,,,,,HZ,CLR,,,,,,,,VFR,,,,,,,,,,,,METAR,290.0
KAVL 060654Z AUTO 00000KT 9SM SCT032 18/16 A2998 RMK AO2 SLP126 T01780161,KAVL,2023-06-06T06:54:00Z,35.43,-82.53,17.8,16.1,0,0,,9.0,29.97933,1012.6,,TRUE,TRUE,,,,,,,SCT,3200,,,,,,,VFR,,,,,,,,,,,,METAR,646.0
KAUW 060654Z AUTO 08006KT 5SM HZ BKN075 OVC090 19/09 A3004 RMK AO2 SLP170 T01940089,KAUW,2023-06-06T06:54:00Z,44.93,-89.62,19.4,8.9,80,6,,5.0,30.041338,1017.0,,TRUE,TRUE,,,,,,HZ,BKN,7500,OVC,9000,,,,,MVFR,,,,,,,,,,,,METAR,367.0
KAPN 060654Z AUTO 03009KT 10SM CLR 16/08 A3000 RMK AO2 SLP159 T01560078,KAPN,2023-06-06T06:54:00Z,45.07,-83.57,15.6,7.8,30,9,,10.0,30.0,1015.9,,TRUE,TRUE,,,,,,,CLR,,,,,,,,VFR,,,,,,,,,,,,METAR,208.0
KAPC 060654Z 30008KT 10SM OVC019 14/10 A2985 RMK AO2 SLP098 T01390100,KAPC,2023-06-06T06:54:00Z,38.2,-122.28,13.9,10.0,300,8,,10.0,29.84941,1009.8,,,TRUE,,,,,,,OVC,1900,,,,,,,MVFR,,,,,,,,,,,,METAR,5.0
KALO 060654Z AUTO 00000KT 7SM CLR 18/13 A3002 RMK AO2 SLP159 T01830128,KALO,2023-06-06T06:54:00Z,42.55,-92.4,18.3,12.8,0,0,,7.0,30.02067,1015.9,,TRUE,TRUE,,,,,,,CLR,,,,,,,,VFR,,,,,,,,,,,,METAR,264.0
KAKR 060654Z AUTO 00000KT 10SM CLR 12/06 A2994 RMK AO2 SLP134 T01170061,KAKR,2023-06-06T06:54:00Z,41.03,-81.47,11.7,6.1,0,0,,10.0,29.940945,1013.4,,TRUE,TRUE,,,,,,,CLR,,,,,,,,VFR,,,,,,,,,,,,METAR,319.0
KAKQ 060654Z AUTO 00000KT 10SM BKN080 OVC095 17/14 A2988 RMK AO2 SLP118 T01720139,KAKQ,2023-06-06T06:54:00Z,36.98,-77.0,17.2,13.9,0,0,,10.0,29.878937,1011.8,,TRUE,TRUE,,,,,,,BKN,8000,OVC,9500,,,,,VFR,,,,,,,,,,,,METAR,34.0
KACY 060654Z 30006KT 10SM CLR 13/06 A2979 RMK AO2 SLP088 T01330061 $,KACY,2023-06-06T06:54:00Z,39.45,-74.57,13.3,6.1,300,6,,10.0,29.790354,1008.8,,,TRUE,TRUE,,,,,,CLR,,,,,,,,VFR,,,,,,,,,,,,SPECI,18.0
KAAO 060654Z AUTO 34008KT 10SM CLR 17/14 A3003 RMK AO2 SLP160 T01720139,KAAO,2023-06-06T06:54:00Z,37.75,-97.22,17.2,13.9,340,8,,10.0,30.029528,1016.0,,TRUE,TRUE,,,,,,,CLR,,,,,,,,VFR,,,,,,,,,,,,METAR,429.0
K1V4 060654Z AUTO 08/07 A2969 RMK AO1 SLP052 T00780072,K1V4,2023-06-06T06:54:00Z,44.42,-72.02,7.8,7.2,,,,,29.68996,1005.2,,TRUE,TRUE,,,,,,,,,,,,,,,,,,,,,,,,,,,METAR,213.0
K12N 060654Z AUTO 00000KT 11/06 A2980 RMK AO1 SLP087 T01060061,K12N,2023-06-06T06:54:00Z,41.02,-74.73,10.6,6.1,0,0,,,29.799213,1008.7,,TRUE,TRUE,,,,,,,,,,,,,,,,,,,,,,,,,,,SPECI,178.0
TJNR 060653Z AUTO 22003KT 8SM OVC019 26/24 A2999 RMK AO2 SLP154 T02610244,TJNR,2023-06-06T06:53:00Z,18.25,-65.63,26.1,24.4,220,3,,8.0,29.991142,1015.4,,TRUE,TRUE,,,,,,,OVC,1900,,,,,,,MVFR,,,,,,,,,,,,SPECI,7.0
TISX 060653Z AUTO 12007KT 10SM OVC018 28/25 A2998 RMK AO2 SLP151 T02780250,TISX,2023-06-06T06:53:00Z,17.7,-64.8,27.8,25.0,120,7,,10.0,29.97933,1015.1,,TRUE,TRUE,,,,,,,OVC,1800,,,,,,,MVFR,,,,,,,,,,,,SPECI,16.0
PHTO 060653Z 23005KT 10SM CLR 23/20 A3011 RMK AO2 SLP195 T02280200,PHTO,2023-06-06T06:53:00Z,19.72,-155.05,22.8,20.0,230,5,,10.0,30.109253,1019.5,,,TRUE,,,,,,,CLR,,,,,,,,VFR,,,,,,,,,,,,METAR,9.0
PHNL 060653Z 04008KT 10SM SCT042 BKN070 25/19 A3011 RMK AO2 SLP194 T02500189,PHNL,2023-06-06T06:53:00Z,21.33,-157.93,25.0,18.9,40,8,,10.0,30.109253,1019.4,,,TRUE,,,,,,,SCT,4200,BKN,7000,,,,,VFR,,,,,,,,,,,,METAR,2.0
PHLI 060653Z 04009KT 10SM SCT024 24/20 A3014 RMK AO2 SLP201 T02440200,PHLI,2023-06-06T06:53:00Z,21.97,-159.33,24.4,20.0,40,9,,10.0,30.138779,1020.1,,,TRUE,,,,,,,SCT,2400,,,,,,,VFR,,,,,,,,,,,,METAR,32.0
PHKO 060653Z 28005KT 10SM SCT028 OVC036 26/19 A3008 RMK AO2 SLP186 T02610189,PHKO,2023-06-06T06:53:00Z,19.73,-156.05,26.1,18.9,280,5,,10.0,30.079725,1018.6,,,TRUE,,,,,,,SCT,2800,OVC,3600,,,,,VFR,,,,,,,,,,,,METAR,11.0
PHJR 060653Z 04004KT 10SM SCT065 24/17 A3012 RMK AO2 SLP205 T02440172,PHJR,2023-06-06T06:53:00Z,21.32,-158.07,24.4,17.2,40,4,,10.0,30.121063,1020.5,,,TRUE,,,,,,,SCT,6500,,,,,,,VFR,,,,,,,,,,,,SPECI,9.0
PAYA 060653Z AUTO VRB03KT 10SM FEW023 OVC030 09/06 A3022 RMK AO2 SLP234 T00890056 TSNO,PAYA,2023-06-06T06:53:00Z,59.52,-139.67,8.9,5.6,0,3,,10.0,30.221457,1023.4,,TRUE,TRUE,,,TRUE,,,,FEW,2300,OVC,3000,,,,,MVFR,,,,,,,,,,,,METAR,9.0
PAWI 060653Z AUTO 05006KT 10SM CLR 03/01 A3005 RMK AO2 SLP176 T00280006 TSNO $,PAWI,2023-06-06T06:53:00Z,70.63,-160.02,2.8,0.6,50,6,,10.0,30.050198,1017.6,,TRUE,TRUE,TRUE,,TRUE,,,,CLR,,,,,,,,VFR,,,,,,,,,,,,METAR,12.0
PAWD 060653Z AUTO 10005KT 10SM OVC060 10/06 A3001 RMK AO2 SLP162 T01000061 TSNO,PAWD,2023-06-06T06:53:00Z,60.12,-149.42,10.0,6.1,100,5,,10.0,30.008858,1016.2,,TRUE,TRUE,,,TRUE,,,,OVC,6000,,,,,,,VFR,,,,,,,,,,,,METAR,3.0
PAVL 060653Z AUTO 04007KT 10SM FEW080 09/04 A2994 RMK AO2 SLP140 T00890044 TSNO $,PAVL,2023-06-06T06:53:00Z,67.73,-164.55,8.9,4.4,40,7,,10.0,29.940945,1014.0,,TRUE,TRUE,TRUE,,TRUE,,,,FEW,8000,,,,,,,VFR,,,,,,,,,,,,METAR,6.0
PATO 060653Z AUTO 12012G32KT 10SM FEW031 OVC055 11/05 A3007 RMK AO2 PK WND 12032/0647 SLP182 T01060050 TSNO,PATO,2023-06-06T06:53:00Z,60.78,-148.85,10.6,5.0,120,12,32,10.0,30.070866,1018.2,,TRUE,TRUE,,,TRUE,,,,FEW,3100,OVC,5500,,,,,VFR,,,,,,,,,,,,METAR,47.0
PATK 060653Z AUTO 19010KT 10SM OVC075 17/01 A2992 RMK AO2 SLP132 T01670006 TSNO,PATK,2023-06-06T06:53:00Z,62.32,-150.1,16.7,0.6,190,10,,10.0,29.920275,1013.2,,TRUE,TRUE,,,TRUE,,,,OVC,7500,,,,,,,VFR,,,,,,,,,,,,METAR,107.0
PASO 060653Z AUTO VRB03KT 10SM BKN050 BKN060 09/08 A2989 RMK AO2 RAE12 SLP120 P0000 T00940083 TSNO,PASO,2023-06-06T06:53:00Z,59.45,-151.7,9.4,8.3,0,3,,10.0,29.890747,1012.0,,TRUE,TRUE,,,TRUE,,,,BKN,5000,BKN,6000,,,,,VFR,,,,,,0.005,,,,,,METAR,20.0
PASI 060653Z 10006KT 10SM BKN030 OVC047 10/04 A3026 RMK AO2 SLP246 T01000044,PASI,2023-06-06T06:53:00Z,57.03,-135.35,10.0,4.4,100,6,,10.0,30.259842,1024.6,,,TRUE,,,,,,,BKN,3000,OVC,4700,,,,,MVFR,,,,,,,,,,,,METAR,2.0
PASC 060653Z 08008KT 10SM FEW100 08/02 A3008 RMK AO2 SLP188 T00830022,PASC,2023-06-06T06:53:00Z,70.2,-148.47,8.3,2.2,80,8,,10.0,30.079725,1018.8,,,TRUE,,,,,,,FEW,10000,,,,,,,VFR,,,,,,,,,,,,METAR,17.0
PAQT 060653Z AUTO 05008KT 10SM OVC090 09/03 A3010 RMK AO2 SLP194 T00940028 $,PAQT,2023-06-06T06:53:00Z,70.22,-151.0,9.4,2.8,50,8,,10.0,30.100393,1019.4,,TRUE,TRUE,TRUE,,,,,,OVC,9000,,,,,,,VFR,,,,,,,,,,,,METAR,11.0
PAPB 060653Z AUTO 27003KT 10SM OVC003 07/04 A2950 RMK AO2 SLP979 T00670039 TSNO $,PAPB,2023-06-06T06:53:00Z,56.58,-169.67,6.7,3.9,270,3,,10.0,29.500984,997.9,,TRUE,TRUE,TRUE,,TRUE,,,,OVC,300,,,,,,,LIFR,,,,,,,,,,,,SPECI,33.0
PAOT 060653Z 04005KT 10SM OVC080 11/06 A2990 RMK AO2 SLP124 T01110056,PAOT,2023-06-06T06:53:00Z,66.88,-162.6,11.1,5.6,40,5,,10.0,29.899607,1012.4,,,TRUE,,,,,,,OVC,8000,,,,,,,VFR,,,,,,,,,,,,METAR,3.0
PAOR 060653Z 30003KT 10SM FEW180 14/04 A2983 RMK AO2 SLP098 T01440044,PAOR,2023-06-06T06:53:00Z,62.97,-141.93,14.4,4.4,300,3,,10.0,29.828741,1009.8,,,TRUE,,,,,,,FEW,18000,,,,,,,VFR,,,,,,,,,,,,METAR,524.0
PAOM 060653Z 04011KT 10SM SCT110 14/05 A2978 RMK AO2 SLP084 T01390050,PAOM,2023-06-06T06:53:00Z,64.5,-165.43,13.9,5.0,40,11,,10.0,29.778543,1008.4,,,TRUE,,,,,,,SCT,11000,,,,,,,VFR,,,,,,,,,,,,METAR,6.0
PANN 060653Z AUTO 03003KT 10SM CLR 18/06 A2976 RMK AO2 SLP084 T01830056 TSNO,PANN,2023-06-06T06:53:00Z,64.55,-149.08,18.3,5.6,30,3,,10.0,29.760826,1008.4,,TRUE,TRUE,,,TRUE,,,,CLR,,,,,,,,VFR,,,,,,,,,,,,METAR,110.0
PANC 060653Z 16017G25KT 10SM FEW075 FEW095 BKN150 BKN250 13/03 A2992 RMK AO2 PK WND 14029/0559 SLP132 ACSL S T01330028,PANC,2023-06-06T06:53:00Z,61.17,-150.02,13.3,2.8,160,17,25,10.0,29.920275,1013.2,,,TRUE,,,,,,,FEW,7500,FEW,9500,BKN,15000,BKN,25000,VFR,,,,,,,,,,,,METAR,39.0
PAMR 060653Z AUTO 19009KT 10SM CLR 17/M01 A2991 RMK AO2 SLP128 T01671011 TSNO,PAMR,2023-06-06T06:53:00Z,61.22,-149.85,16.7,-1.1,190,9,,10.0,29.911417,1012.8,,TRUE,TRUE,,,TRUE,,,,CLR,,,,,,,,VFR,,,,,,,,,,,,METAR,43.0
PAMC 060653Z AUTO 09005KT 10SM CLR 18/04 A2973 RMK AO2 SLP069 T01780039 TSNO,PAMC,2023-06-06T06:53:00Z,62.97,-155.62,17.8,3.9,90,5,,10.0,29.731298,1006.9,,TRUE,TRUE,,,TRUE,,,,CLR,,,,,,,,VFR,,,,,,,,,,,,METAR,101.0
PALH 060653Z AUTO 19011G20KT 10SM CLR 14/01 A2993 RMK AO2 SLP135 T01390011 TSNO,PALH,2023-06-06T06:53:00Z,61.18,-149.97,13.9,1.1,190,11,20,10.0,29.929134,1013.5,,TRUE,TRUE,,,TRUE,,,,CLR,,,,,,,,VFR,,,,,,,,,,,,METAR,26.0
PAKW 060653Z AUTO 00000KT 10SM OVC042 09/08 A3029 RMK AO2 SLP256 T00940078 TSNO,PAKW,2023-06-06T06:53:00Z,55.58,-133.07,9.4,7.8,0,0,,10.0,30.28937,1025.6,,TRUE,TRUE,,,TRUE,,,,OVC,4200,,,,,,,VFR,,,,,,,,,,,,METAR,7.0
PAKV 060653Z AUTO 03004KT 10SM CLR 18/06 A2980 RMK AO2 SLP092 T01780056 TSNO,PAKV,2023-06-06T06:53:00Z,64.33,-158.72,17.8,5.6,30,4,,10.0,29.799213,1009.2,,TRUE,TRUE,,,TRUE,,,,CLR,,,,,,,,VFR,,,,,,,,,,,,METAR,53.0
PAJN 060653Z 25006KT 10SM FEW030 SCT038 OVC050 10/04 A3023 RMK AO2 SLP236 T01000039,PAJN,2023-06-06T06:53:00Z,58.35,-134.55,10.0,3.9,250,6,,10.0,30.230314,1023.6,,,TRUE,,,,,,,FEW,3000,SCT,3800,OVC,5000,,,VFR,,,,,,,,,,,,METAR,6.0
PAIL 060653Z AUTO 10020G30KT 10SM CLR 08/04 A2982 RMK AO2 PK WND 10032/0628 SLP098 T00830044 TSNO,PAIL,2023-06-06T06:53:00Z,59.75,-154.92,8.3,4.4,100,20,30,10.0,29.819881,1009.8,,TRUE,TRUE,,,TRUE,,,,CLR,,,,,,,,VFR,,,,,,,,,,,,METAR,44.0
PAHO 060653Z AUTO 11006KT 10SM FEW090 BKN120 11/04 A2991 RMK AO2 SLP128 T01110044 TSNO,PAHO,2023-06-06T06:53:00Z,59.63,-151.48,11.1,4.4,110,6,,10.0,29.911417,1012.8,,TRUE,TRUE,,,TRUE,,,,FEW,9000,BKN,12000,,,,,VFR,,,,,,,,,,,,METAR,6.0
PAGY 060653Z AUTO 20016KT 10SM OVC060 11/04 A3010 RMK AO2 PK WND 21026/0614 SLP191 T01110044 TSNO,PAGY,2023-06-06T06:53:00Z,59.47,-135.32,11.1,4.4,200,16,,10.0,30.100393,1019.1,,TRUE,TRUE,,,TRUE,,,,OVC,6000,,,,,,,VFR,,,,,,,,,,,,METAR,7.0
PAFA 060653Z 03006KT 10SM FEW100 FEW200 18/07 A2980 RMK AO2 SLP093 T01830072,PAFA,2023-06-06T06:53:00Z,64.8,-147.87,18.3,7.2,30,6,,10.0,29.799213,1009.3,,,TRUE,,,,,,,FEW,10000,FEW,20000,,,,,VFR,,,,,,,,,,,,METAR,130.0
PAEN 060653Z AUTO 10009KT 10SM SCT080 OVC100 13/04 A2993 RMK AO2 SLP136 T01330039 TSNO,PAEN,2023-06-06T06:53:00Z,60.57,-151.25,13.3,3.9,100,9,,10.0,29.929134,1013.6,,TRUE,TRUE,,,TRUE,,,,SCT,8000,OVC,10000,,,,,VFR,,,,,,,,,,,,METAR,30.0
PAEG 060653Z AUTO 00000KT 10SM CLR 14/04 A2981 RMK AO2 SLP095 T01440044 TSNO $,PAEG,2023-06-06T06:53:00Z,64.78,-141.15,14.4,4.4,0,0,,10.0,29.811024,1009.5,,TRUE,TRUE,TRUE,,TRUE,,,,CLR,,,,,,,,VFR,,,,,,,,,,,,METAR,273.0
PADE 060653Z AUTO 02011KT 10SM CLR 06/02 A2986 RMK AO2 SLP110 T00610022 TSNO $,PADE,2023-06-06T06:53:00Z,66.07,-162.77,6.1,2.2,20,11,,10.0,29.861221,1011.0,,TRUE,TRUE,TRUE,,TRUE,,,,CLR,,,,,,,,VFR,,,,,,,,,,,,METAR,5.0
PACV 060653Z 12004KT 10SM OVC021 09/07 A3014 RMK AO2 SLP206 T00940067,PACV,2023-06-06T06:53:00Z,60.5,-145.47,9.4,6.7,120,4,,10.0,30.138779,1020.6,,,TRUE,,,,,,,OVC,2100,,,,,,,MVFR,,,,,,,,,,,,METAR,15.0
PABT 060653Z VRB04KT 10SM FEW065 BKN090 BKN130 16/04 A2989 RMK AO2 SLP130 T01610044,PABT,2023-06-06T06:53:00Z,66.92,-151.52,16.1,4.4,0,4,,10.0,29.890747,1013.0,,,TRUE,,,,,,,FEW,6500,BKN,9000,BKN,13000,,,VFR,,,,,,,,,,,,METAR,195.0
PABR 060653Z AUTO 06008KT 10SM CLR 02/M01 A3008 RMK AO2 SLP185 T00221006 TSNO $,PABR,2023-06-06T06:53:00Z,71.28,-156.78,2.2,-0.6,60,8,,10.0,30.079725,1018.5,,TRUE,TRUE,TRUE,,TRUE,,,,CLR,,,,,,,,VFR,,,,,,,,,,,,METAR,6.0
PABI 060653Z AUTO 18006KT 10SM CLR 17/03 A2986 RMK AO2 SLP110 T01720033 TSNO,PABI,2023-06-06T06:53:00Z,64.0,-145.72,17.2,3.3,180,6,,10.0,29.861221,1011.0,,TRUE,TRUE,,,TRUE,,,,CLR,,,,,,,,VFR,,,,,,,,,,,,METAR,388.0
PABE 060653Z 09013KT 10SM FEW065 BKN090 OVC110 12/04 A2964 RMK AO2 SLP039 T01170044,PABE,2023-06-06T06:53:00Z,60.78,-161.83,11.7,4.4,90,13,,10.0,29.639763,1003.9,,,TRUE,,,,,,,FEW,6500,BKN,9000,OVC,11000,,,VFR,,,,,,,,,,,,METAR,28.0
PAAQ 060653Z AUTO 14021G30KT 10SM CLR 16/02 A2992 RMK AO2 PK WND 15031/0605 SLP134 T01560017 TSNO $,PAAQ,2023-06-06T06:53:00Z,61.6,-149.08,15.6,1.7,140,21,30,10.0,29.920275,1013.4,,TRUE,TRUE,TRUE,,TRUE,,,,CLR,,,,,,,,VFR,,,,,,,,,,,,METAR,68.0
MMML 060653Z 35012KT 10SM SKC 21/03 A2970,MMML,2023-06-06T06:53:00Z,32.62,-115.23,21.0,3.0,350,12,,10.0,29.698818,,,,,,,,,,,SKC,,,,,,,,VFR,,,,,,,,,,,,METAR,21.0
LIMA 060653Z VRB02KT 9999 FEW013 BKN040 17/14 Q1016,LIMA,2023-06-06T06:53:00Z,45.08,7.6,17.0,14.0,0,2,,6.21,30.0,,,,,,,,,,,FEW,1300,BKN,4000,,,,,VFR,,,,,,,,,,,,SPECI,285.0
KZZV 060653Z AUTO 00000KT 10SM CLR 11/09 A2996 RMK AO2 SLP142 T01060094,KZZV,2023-06-06T06:53:00Z,39.95,-81.9,10.6,9.4,0,0,,10.0,29.958662,1014.2,,TRUE,TRUE,,,,,,,CLR,,,,,,,,VFR,,,,,,,,,,,,METAR,268.0
KYKM 060653Z AUTO 26008KT 10SM CLR 16/01 A2992 RMK AO2 SLP124 T01610011 $,KYKM,2023-06-06T06:53:00Z,46.57,-120.53,16.1,1.1,260,8,,10.0,29.920275,1012.4,,TRUE,TRUE,TRUE,,,,,,CLR,,,,,,,,VFR,,,,,,,,,,,,METAR,319.0
KYIP 060653Z 04005KT 9SM SCT090 16/09 A2994 RMK AO2 SLP133 T01610089,KYIP,2023-06-06T06:53:00Z,42.23,-83.53,16.1,8.9,40,5,,9.0,29.940945,1013.3,,,TRUE,,,,,,,SCT,9000,,,,,,,VFR,,,,,,,,,,,,METAR,215.0
KXNA 060653Z AUTO 00000KT 10SM CLR 19/17 A3001 RMK AO2 SLP148 T01890167,KXNA,2023-06-06T06:53:00Z,36.28,-94.3,18.9,16.7,0,0,,10.0,30.008858,1014.8,,TRUE,TRUE,,,,,,,CLR,,,,,,,,VFR,,,,,,,,,,,,METAR,390.0
KWVI 060653Z AUTO 28006KT 10SM OVC014 14/11 A2985 RMK AO2 SLP108 T01390106,KWVI,2023-06-06T06:53:00Z,36.93,-121.78,13.9,10.6,280,6,,10.0,29.84941,1010.8,,TRUE,TRUE,,,,,,,OVC,1400,,,,,,,MVFR,,,,,,,,,,,,METAR,47.0
KWST 060653Z AUTO 00000KT 10SM OVC090 15/11 A2971 RMK AO2 SLP060 T01500106,KWST,2023-06-06T06:53:00Z,41.35,-71.8,15.0,10.6,0,0,,10.0,29.71063,1006.0,,TRUE,TRUE,,,,,,,OVC,9000,,,,,,,VFR,,,,,,,,,,,,METAR,20.0
KWRL 060653Z AUTO 12006KT 10SM CLR 15/12 A2999 RMK AO2 SLP119 T01500117 402830111,KWRL,2023-06-06T06:53:00Z,43.97,-107.95,15.0,11.7,120,6,,10.0,29.991142,1011.9,,TRUE,TRUE,,,,,,,CLR,,,,,,,,VFR,,,,28.3,11.1,,,,,,,METAR,1281.0
KVUO 060653Z AUTO 31007KT 10SM CLR 18/M02 A2993 RMK AO2 SLP136 T01831017,KVUO,2023-06-06T06:53:00Z,45.62,-122.65,18.3,-1.7,310,7,,10.0,29.929134,1013.6,,TRUE,TRUE,,,,,,,CLR,,,,,,,,VFR,,,,,,,,,,,,METAR,7.0
KVRB 060653Z AUTO 05004KT 10SM CLR 23/16 A2995 RMK AO2 SLP139 T02280161,KVRB,2023-06-06T06:53:00Z,27.65,-80.42,22.8,16.1,50,4,,10.0,29.949802,1013.9,,TRUE,TRUE,,,,,,,CLR,,,,,,,,VFR,,,,,,,,,,,,METAR,7.0
KVLD 060653Z AUTO 00000KT 10SM CLR 19/16 A2995 RMK AO1 SLP149 T01890161,KVLD,2023-06-06T06:53:00Z,30.78,-83.27,18.9,16.1,0,0,,10.0,29.949802,1014.9,,TRUE,TRUE,,,,,,,CLR,,,,,,,,VFR,,,,,,,,,,,,METAR,59.0
KVIH 060653Z AUTO 00000KT 10SM CLR 14/08 A3004 RMK AO2 SLP163 T01440083,KVIH,2023-06-06T06:53:00Z,38.13,-91.77,14.4,8.3,0,0,,10.0,30.041338,1016.3,,TRUE,TRUE,,,,,,,CLR,,,,,,,,VFR,,,,,,,,,,,,METAR,342.0
KVGT 060653Z AUTO 19009KT 10SM CLR 28/M02 A2971 RMK AO2 SLP048 T02831022,KVGT,2023-06-06T06:53:00Z,36.22,-115.2,28.3,-2.2,190,9,,10.0,29.71063,1004.8,,TRUE,TRUE,,,,,,,CLR,,,,,,,,VFR,,,,,,,,,,,,METAR,664.0
KVEL 060653Z AUTO 30006KT 10SM CLR 15/07 A3006 RMK AO2 SLP119 T01500067 402780089,KVEL,2023-06-06T06:53:00Z,40.45,-109.52,15.0,6.7,300,6,,10.0,30.059055,1011.9,,TRUE,TRUE,,,,,,,CLR,,,,,,,,VFR,,,,27.8,8.9,,,,,,,METAR,1604.0
KVCB 060653Z AUTO 23013G18KT 10SM CLR 17/10 A2977 RMK AO2 SLP079 T01720100,KVCB,2023-06-06T06:53:00Z,38.38,-121.95,17.2,10.0,230,13,18,10.0,29.769686,1007.9,,TRUE,TRUE,,,,,,,CLR,,,,,,,,VFR,,,,,,,,,,,,METAR,30.0
KUUU 060653Z AUTO 00000KT 10SM OVC070 14/11 A2969 RMK AO2 SLP053 T01390106,KUUU,2023-06-06T06:53:00Z,41.53,-71.28,13.9,10.6,0,0,,10.0,29.68996,1005.3,,TRUE,TRUE,,,,,,,OVC,7000,,,,,,,VFR,,,,,,,,,,,,METAR,45.0
KUNO 060653Z AUTO 02003KT 10SM CLR 16/11 A3003 RMK AO2 SLP157 T01610111,KUNO,2023-06-06T06:53:00Z,36.88,-91.9,16.1,11.1,20,3,,10.0,30.029528,1015.7,,TRUE,TRUE,,,,,,,CLR,,,,,,,,VFR,,,,,,,,,,,,METAR,376.0
KUIL 060653Z AUTO 01007KT 10SM CLR 13/02 A3002 RMK AO2 SLP164 T01330017,KUIL,2023-06-06T06:53:00Z,47.93,-124.55,13.3,1.7,10,7,,10.0,30.02067,1016.4,,TRUE,TRUE,,,,,,,CLR,,,,,,,,VFR,,,,,,,,,,,,METAR,58.0
KUAO 060653Z AUTO 36005KT 10SM CLR 17/M03 A2993 RMK AO2 SLP133 T01671028,KUAO,2023-06-06T06:53:00Z,45.25,-122.77,16.7,-2.8,360,5,,10.0,29.929134,1013.3,,TRUE,TRUE,,,,,,,CLR,,,,,,,,VFR,,,,,,,,,,,,METAR,60.0
KTYS 060653Z 00000KT 10SM CLR 21/17 A2993 RMK AO2 SLP121 T02060167,KTYS,2023-06-06T06:53:00Z,35.82,-83.98,20.6,16.7,0,0,,10.0,29.929134,1012.1,,,TRUE,,,,,,,CLR,,,,,,,,VFR,,,,,,,,,,,,METAR,300.0
KTYR 060653Z AUTO 04004KT 10SM FEW110 21/17 A2995 RMK AO2 TSE0554 SLP134 T02110172,KTYR,2023-06-06T06:53:00Z,32.37,-95.4,21.1,17.2,40,4,,10.0,29.949802,1013.4,,TRUE,TRUE,,,,,,,FEW,11000,,,,,,,VFR,,,,,,,,,,,,METAR,161.0
KTXK 060653Z AUTO 16003KT 10SM CLR 23/18 A2994 RMK AO2 SLP134 T02330178,KTXK,2023-06-06T06:53:00Z,33.45,-93.98,23.3,17.8,160,3,,10.0,29.940945,1013.4,,TRUE,TRUE,,,,,,,CLR,,,,,,,,VFR,,,,,,,,,,,,METAR,118.0
KTWF 060653Z AUTO 20010KT 10SM CLR 14/09 A2996 RMK AO2 SLP100 T01390089 402610100,KTWF,2023-06-06T06:53:00Z,42.48,-114.48,13.9,8.9,200,10,,10.0,29.958662,1010.0,,TRUE,TRUE,,,,,,,CLR,,,,,,,,VFR,,,,26.1,10.0,,,,,,,METAR,1269.0
KTVR 060653Z AUTO 02003KT 10SM CLR 21/19 A2993 RMK AO2 SLP142 T02110194 $,KTVR,2023-06-06T06:53:00Z,32.35,-91.03,21.1,19.4,20,3,,10.0,29.929134,1014.2,,TRUE,TRUE,TRUE,,,,,,CLR,,,,,,,,VFR,,,,,,,,,,,,METAR,25.0
KTVL 060653Z AUTO 00000KT 10SM FEW070 OVC090 12/06 A3004 RMK AO2 SLP117 T01220061,KTVL,2023-06-06T06:53:00Z,38.9,-120.0,12.2,6.1,0,0,,10.0,30.041338,1011.7,,TRUE,TRUE,,,,,,,FEW,7000,OVC,9000,,,,,VFR,,,,,,,,,,,,METAR,1907.0
KTVC 060653Z AUTO 35003KT 10SM CLR 17/14 A2999 RMK AO2 SLP154 T01670144,KTVC,2023-06-06T06:53:00Z,44.73,-85.58,16.7,14.4,350,3,,10.0,29.991142,1015.4,,TRUE,TRUE,,,,,,,CLR,,,,,,,,VFR,,,,,,,,,,,,METAR,188.0
KTUS 060653Z 05004KT 10SM CLR 26/M05 A2990 RMK AO2 SLP069 T02611050 403830211,KTUS,2023-06-06T06:53:00Z,32.13,-110.95,26.1,-5.0,50,4,,10.0,29.899607,1006.9,,,TRUE,,,,,,,CLR,,,,,,,,VFR,,,,38.3,21.1,,,,,,,METAR,776.0
KTUP 060653Z AUTO 00000KT 10SM CLR 19/17 A2995 RMK AO2 SLP136 T01890167,KTUP,2023-06-06T06:53:00Z,34.27,-88.77,18.9,16.7,0,0,,10.0,29.949802,1013.6,,TRUE,TRUE,,,,,,,CLR,,,,,,,,VFR,,,,,,,,,,,,METAR,107.0
KTUL 060653Z 36006KT 10SM FEW070 FEW120 21/18 A2998 RMK AO2 SLP144 T02060183,KTUL,2023-06-06T06:53:00Z,36.2,-95.88,20.6,18.3,360,6,,10.0,29.97933,1014.4,,,TRUE,,,,,,,FEW,7000,FEW,12000,,,,,VFR,,,,,,,,,,,,METAR,196.0
KTTN 060653Z AUTO 30005KT 8SM CLR 14/04 A2978 RMK AO2 SLP079 T01440044,KTTN,2023-06-06T06:53:00Z,40.28,-74.82,14.4,4.4,300,5,,8.0,29.778543,1007.9,,TRUE,TRUE,,,,,,,CLR,,,,,,,,VFR,,,,,,,,,,,,METAR,58.0
KTTD 060653Z AUTO 25003KT 10SM CLR 18/M01 A2992 RMK AO2 SLP131 T01781006,KTTD,2023-06-06T06:53:00Z,45.55,-122.42,17.8,-0.6,250,3,,10.0,29.920275,1013.1,,TRUE,TRUE,,,,,,,CLR,,,,,,,,VFR,,,,,,,,,,,,METAR,8.0
KTRL 060653Z AUTO 15004KT 10SM CLR 22/19 A2995 RMK AO2 SLP135 T02170189,KTRL,2023-06-06T06:53:00Z,32.72,-96.27,21.7,18.9,150,4,,10.0,29.949802,1013.5,,TRUE,TRUE,,,,,,,CLR,,,,,,,,VFR,,,,,,,,,,,,METAR,144.0
KTRI 060653Z 00000KT 10SM FEW065 SCT250 14/12 A2997 RMK AO2 SLP125 T01440122,KTRI,2023-06-06T06:53:00Z,36.48,-82.4,14.4,12.2,0,0,,10.0,29.970472,1012.5,,,TRUE,,,,,,,FEW,6500,SCT,25000,,,,,VFR,,,,,,,,,,,,METAR,456.0
KTPA 060653Z VRB04KT 10SM BKN090 24/19 A2995 RMK AO2 SLP141 T02390189,KTPA,2023-06-06T06:53:00Z,27.97,-82.53,23.9,18.9,0,4,,10.0,29.949802,1014.1,,,TRUE,,,,,,,BKN,9000,,,,,,,VFR,,,,,,,,,,,,METAR,2.0
KTOR 060653Z AUTO 09007KT 10SM CLR 13/11 A3008 RMK AO2 SLP145 T01330111 402560094,KTOR,2023-06-06T06:53:00Z,42.07,-104.15,13.3,11.1,90,7,,10.0,30.079725,1014.5,,TRUE,TRUE,,,,,,,CLR,,,,,,,,VFR,,,,25.6,9.4,,,,,,,METAR,1285.0
KTOP 060653Z AUTO 00000KT 7SM CLR 18/17 A3003 RMK AO2 SLP160 T01780167,KTOP,2023-06-06T06:53:00Z,39.07,-95.63,17.8,16.7,0,0,,7.0,30.029528,1016.0,,TRUE,TRUE,,,,,,,CLR,,,,,,,,VFR,,,,,,,,,,,,METAR,268.0
KTOI 060653Z AUTO 00000KT 8SM CLR 19/17 A2995 RMK AO2 SLP138 T01940172,KTOI,2023-06-06T06:53:00Z,31.85,-86.02,19.4,17.2,0,0,,8.0,29.949802,1013.8,,TRUE,TRUE,,,,,,,CLR,,,,,,,,VFR,,,,,,,,,,,,METAR,120.0
KTMB 060653Z AUTO 05004KT 10SM FEW027 OVC060 26/22 A2989 RMK AO2 SLP122 T02610222,KTMB,2023-06-06T06:53:00Z,25.65,-80.43,26.1,22.2,50,4,,10.0,29.890747,1012.2,,TRUE,TRUE,,,,,,,FEW,2700,OVC,6000,,,,,VFR,,,,,,,,,,,,METAR,2.0
KTLH 060653Z AUTO 00000KT 10SM CLR 20/18 A2994 RMK AO2 SLP136 T02000183,KTLH,2023-06-06T06:53:00Z,30.4,-84.35,20.0,18.3,0,0,,10.0,29.940945,1013.6,,TRUE,TRUE,,,,,,,CLR,,,,,,,,VFR,,,,,,,,,,,,METAR,17.0
KTKI 060653Z AUTO 03003KT 10SM FEW070 21/20 A2995 RMK AO2 SLP139 T02110200,KTKI,2023-06-06T06:53:00Z,33.18,-96.58,21.1,20.0,30,3,,10.0,29.949802,1013.9,,TRUE,TRUE,,,,,,,FEW,7000,,,,,,,VFR,,,,,,,,,,,,METAR,173.0
KTIW 060653Z AUTO 04007KT 10SM CLR 16/01 A3002 RMK AO2 SLP163 T01610006 $,KTIW,2023-06-06T06:53:00Z,47.27,-122.58,16.1,0.6,40,7,,10.0,30.02067,1016.3,,TRUE,TRUE,TRUE,,,,,,CLR,,,,,,,,VFR,,,,,,,,,,,,METAR,89.0
KTHV 060653Z AUTO 00000KT 10SM OVC070 09/07 A2985 RMK AO2 SLP109 T00940072,KTHV,2023-06-06T06:53:00Z,39.92,-76.88,9.4,7.2,0,0,,10.0,29.84941,1010.9,,TRUE,TRUE,,,,,,,OVC,7000,,,,,,,VFR,,,,,,,,,,,,METAR,141.0
KTDZ 060653Z AUTO 23007KT 7SM BKN080 OVC095 19/07 A2995 RMK AO2 SLP137 T01890067 $,KTDZ,2023-06-06T06:53:00Z,41.57,-83.48,18.9,6.7,230,7,,7.0,29.949802,1013.7,,TRUE,TRUE,TRUE,,,,,,BKN,8000,OVC,9500,,,,,VFR,,,,,,,,,,,,METAR,189.0
KTCS 060653Z AUTO 01004KT 10SM CLR 18/10 A3012 RMK AO2 SLP118 T01780100 403110167,KTCS,2023-06-06T06:53:00Z,33.23,-107.27,17.8,10.0,10,4,,10.0,30.121063,1011.8,,TRUE,TRUE,,,,,,,CLR,,,,,,,,VFR,,,,31.1,16.7,,,,,,,METAR,1471.0
KTCL 060653Z AUTO 00000KT 8SM CLR 18/18 A2994 RMK AO2 SLP137 T01830178,KTCL,2023-06-06T06:53:00Z,33.22,-87.62,18.3,17.8,0,0,,8.0,29.940945,1013.7,,TRUE,TRUE,,,,,,,CLR,,,,,,,,VFR,,,,,,,,,,,,METAR,48.0
KTCC 060653Z AUTO 29008KT 10SM FEW060 BKN120 16/15 A3016 RMK AO2 SLP172 T01560150 402170139,KTCC,2023-06-06T06:53:00Z,35.18,-103.6,15.6,15.0,290,8,,10.0,30.159449,1017.2,,TRUE,TRUE,,,,,,,FEW,6000,BKN,12000,,,,,VFR,,,,21.7,13.9,,,,,,,METAR,1233.0
KSWO 060653Z AUTO 02007KT 10SM CLR 19/17 A2999 RMK AO2 SLP144 T01890167,KSWO,2023-06-06T06:53:00Z,36.17,-97.08,18.9,16.7,20,7,,10.0,29.991142,1014.4,,TRUE,TRUE,,,,,,,CLR,,,,,,,,VFR,,,,,,,,,,,,METAR,293.0
KSTP 060653Z AUTO 00000KT 10SM CLR 22/17 A3002 RMK AO2 SLP159 T02220172,KSTP,2023-06-06T06:53:00Z,44.93,-93.05,22.2,17.2,0,0,,10.0,30.02067,1015.9,,TRUE,TRUE,,,,,,,CLR,,,,,,,,VFR,,,,,,,,,,,,METAR,213.0
KSTJ 060653Z AUTO 07003KT 9SM CLR 18/17 A3004 RMK AO2 SLP164 T01830167,KSTJ,2023-06-06T06:53:00Z,39.77,-94.92,18.3,16.7,70,3,,9.0,30.041338,1016.4,,TRUE,TRUE,,,,,,,CLR,,,,,,,,VFR,,,,,,,,,,,,METAR,247.0
KSTC 060653Z AUTO VRB04KT 7SM BKN090 OVC120 18/15 A3005 RMK AO2 SLP179 T01830150 $,KSTC,2023-06-06T06:53:00Z,45.55,-94.05,18.3,15.0,0,4,,7.0,30.050198,1017.9,,TRUE,TRUE,TRUE,,,,,,BKN,9000,OVC,12000,,,,,VFR,,,,,,,,,,,,METAR,302.0
KSSI 060653Z AUTO 00000KT 10SM CLR 21/18 A2995 RMK AO2 SLP143 T02060183,KSSI,2023-06-06T06:53:00Z,31.15,-81.38,20.6,18.3,0,0,,10.0,29.949802,1014.3,,TRUE,TRUE,,,,,,,CLR,,,,,,,,VFR,,,,,,,,,,,,METAR,6.0
KSSF 060653Z AUTO 00000KT 10SM CLR 21/19 A2992 RMK AO2 SLP120 T02060194 $,KSSF,2023-06-06T06:53:00Z,29.33,-98.47,20.6,19.4,0,0,,10.0,29.920275,1012.0,,TRUE,TRUE,TRUE,,,,,,CLR,,,,,,,,VFR,,,,,,,,,,,,METAR,175.0
KSRQ 060653Z AUTO 08005KT 10SM CLR 23/18 A2992 RMK AO2 SLP130 T02280183,KSRQ,2023-06-06T06:53:00Z,27.4,-82.57,22.8,18.3,80,5,,10.0,29.920275,1013.0,,TRUE,TRUE,,,,,,,CLR,,,,,,,,VFR,,,,,,,,,,,,METAR,5.0
KSPW 060653Z AUTO 18004KT 10SM CLR 20/14 A3002 RMK AO2 SLP156 T02000144 $,KSPW,2023-06-06T06:53:00Z,43.17,-95.22,20.0,14.4,180,4,,10.0,30.02067,1015.6,,TRUE,TRUE,TRUE,,,,,,CLR,,,,,,,,VFR,,,,,,,,,,,,METAR,407.0
KSPG 060653Z AUTO 10013KT 10SM SCT080 24/21 A2993 RMK AO2 SLP135 T02440211,KSPG,2023-06-06T06:53:00Z,27.77,-82.63,24.4,21.1,100,13,,10.0,29.929134,1013.5,,TRUE,TRUE,,,,,,,SCT,8000,,,,,,,VFR,,,,,,,,,,,,METAR,1.0
KSPB 060653Z AUTO 33010G16KT 10SM CLR 18/M02 A2992 RMK AO2 SLP130 T01831017,KSPB,2023-06-06T06:53:00Z,45.77,-122.87,18.3,-1.7,330,10,16,10.0,29.920275,1013.0,,TRUE,TRUE,,,,,,,CLR,,,,,,,,VFR,,,,,,,,,,,,METAR,15.0
KSNY 060653Z AUTO 18007KT 10SM CLR 13/11 A3012 RMK AO2 SLP161 T01280111 402330072,KSNY,2023-06-06T06:53:00Z,41.1,-102.98,12.8,11.1,180,7,,10.0,30.121063,1016.1,,TRUE,TRUE,,,,,,,CLR,,,,,,,,VFR,,,,23.3,7.2,,,,,,,METAR,1307.0
KSNS 060653Z AUTO 29004KT 10SM BKN013 OVC020 15/11 A2984 RMK AO2 SLP112 T01500111,KSNS,2023-06-06T06:53:00Z,36.67,-121.6,15.0,11.1,290,4,,10.0,29.840551,1011.2,,TRUE,TRUE,,,,,,,BKN,1300,OVC,2000,,,,,MVFR,,,,,,,,,,,,METAR,20.0
KSNA 060653Z AUTO 11004KT 10SM OVC049 17/10 A2991 RMK AO2 SLP129 T01670100,KSNA,2023-06-06T06:53:00Z,33.67,-117.87,16.7,10.0,110,4,,10.0,29.911417,1012.9,,TRUE,TRUE,,,,,,,OVC,4900,,,,,,,VFR,,,,,,,,,,,,METAR,14.0
KSMQ 060653Z AUTO 00000KT 8SM SCT055 11/08 A2977 RMK AO2 SLP081 T01060078,KSMQ,2023-06-06T06:53:00Z,40.62,-74.67,10.6,7.8,0,0,,8.0,29.769686,1008.1,,TRUE,TRUE,,,,,,,SCT,5500,,,,,,,VFR,,,,,,,,,,,,METAR,30.0
KSMF 060653Z 18010KT 10SM BKN170 17/11 A2974 RMK AO2 SLP071 T01670106,KSMF,2023-06-06T06:53:00Z,38.7,-121.6,16.7,10.6,180,10,,10.0,29.740158,1007.1,,,TRUE,,,,,,,BKN,17000,,,,,,,VFR,,,,,,,,,,,,METAR,7.0
KSLN 060653Z AUTO 00000KT 10SM CLR 18/15 A3005 RMK AO2 SLP164 T01830150,KSLN,2023-06-06T06:53:00Z,38.8,-97.65,18.3,15.0,0,0,,10.0,30.050198,1016.4,,TRUE,TRUE,,,,,,,CLR,,,,,,,,VFR,,,,,,,,,,,,METAR,377.0
KSJC 060653Z 20011KT 10SM FEW007 SCT100 BKN140 17/10 A2981 RMK AO2 SLP094 T01670100,KSJC,2023-06-06T06:53:00Z,37.37,-121.92,16.7,10.0,200,11,,10.0,29.811024,1009.4,,,TRUE,,,,,,,FEW,700,SCT,10000,BKN,14000,,,VFR,,,,,,,,,,,,METAR,13.0
KSIY 060653Z AUTO 05007KT 10SM CLR 18/11 A2992 RMK AO2 SLP116 T01830106,KSIY,2023-06-06T06:53:00Z,41.77,-122.47,18.3,10.6,50,7,,10.0,29.920275,1011.6,,TRUE,TRUE,,,,,,,CLR,,,,,,,,VFR,,,,,,,,,,,,METAR,807.0
KSHR 060653Z AUTO 21004KT 10SM CLR 12/07 A2997 RMK AO2 SLP121 T01220072 402670106,KSHR,2023-06-06T06:53:00Z,44.77,-106.97,12.2,7.2,210,4,,10.0,29.970472,1012.1,,TRUE,TRUE,,,,,,,CLR,,,,,,,,VFR,,,,26.7,10.6,,,,,,,METAR,1212.0
KSHN 060653Z AUTO 00000KT 10SM CLR 07/02 A3000 RMK AO2 SLP160 T00720017,KSHN,2023-06-06T06:53:00Z,47.23,-123.13,7.2,1.7,0,0,,10.0,30.0,1016.0,,TRUE,TRUE,,,,,,,CLR,,,,,,,,VFR,,,,,,,,,,,,METAR,84.0
KSFF 060653Z AUTO 35003KT 10SM CLR 15/08 A2995 RMK AO2 SLP126 T01500078,KSFF,2023-06-06T06:53:00Z,47.68,-117.32,15.0,7.8,350,3,,10.0,29.949802,1012.6,,TRUE,TRUE,,,,,,,CLR,,,,,,,,VFR,,,,,,,,,,,,METAR,593.0
KSFB 060653Z AUTO 02003KT 10SM CLR 21/19 A2995 RMK AO2 SLP140 T02060194,KSFB,2023-06-06T06:53:00Z,28.77,-81.23,20.6,19.4,20,3,,10.0,29.949802,1014.0,,TRUE,TRUE,,,,,,,CLR,,,,,,,,VFR,,,,,,,,,,,,METAR,16.0
KSEG 060653Z AUTO 00000KT 10SM OVC055 09/08 A2986 RMK AO2 SLP108 T00940083 $,KSEG,2023-06-06T06:53:00Z,40.82,-76.87,9.4,8.3,0,0,,10.0,29.861221,1010.8,,TRUE,TRUE,TRUE,,,,,,OVC,5500,,,,,,,VFR,,,,,,,,,,,,METAR,136.0
KSEA 060653Z 03011KT 10SM CLR 16/01 A3002 RMK AO2 SLP171 T01610011,KSEA,2023-06-06T06:53:00Z,47.45,-122.32,16.1,1.1,30,11,,10.0,30.02067,1017.1,,,TRUE,,,,,,,CLR,,,,,,,,VFR,,,,,,,,,,,,METAR,115.0
KSDM 060653Z AUTO 23003KT 10SM OVC038 14/08 A2993 RMK AO2 SLP133 T01390083,KSDM,2023-06-06T06:53:00Z,32.58,-117.0,13.9,8.3,230,3,,10.0,29.929134,1013.3,,TRUE,TRUE,,,,,,,OVC,3800,,,,,,,VFR,,,,,,,,,,,,METAR,161.0
KSDL 060653Z AUTO 00000KT 10SM CLR 27/M04 A2981 RMK AO2 SLP067 T02671044 403890228,KSDL,2023-06-06T06:53:00Z,33.62,-111.92,26.7,-4.4,0,0,,10.0,29.811024,1006.7,,TRUE,TRUE,,,,,,,CLR,,,,,,,,VFR,,,,38.9,22.8,,,,,,,METAR,438.0
KSBM 060653Z AUTO 04009KT 6SM HZ BKN075 BKN090 19/12 A3002 RMK AO2 SLP162 T01890117,KSBM,2023-06-06T06:53:00Z,43.78,-87.85,18.9,11.7,40,9,,6.0,30.02067,1016.2,,TRUE,TRUE,,,,,,HZ,BKN,7500,BKN,9000,,,,,VFR,,,,,,,,,,,,METAR,225.0
KSAV 060653Z AUTO 00000KT 10SM CLR 18/15 A2995 RMK AO2 SLP142 T01780150,KSAV,2023-06-06T06:53:00Z,32.12,-81.2,17.8,15.0,0,0,,10.0,29.949802,1014.2,,TRUE,TRUE,,,,,,,CLR,,,,,,,,VFR,,,,,,,,,,,,METAR,10.0
KSAF 060653Z AUTO 20005KT 10SM CLR 12/08 A3022 RMK AO2 SLP151 T01170083 402390083,KSAF,2023-06-06T06:53:00Z,35.62,-106.1,11.7,8.3,200,5,,10.0,30.221457,1015.1,,TRUE,TRUE,,,,,,,CLR,,,,,,,,VFR,,,,23.9,8.3,,,,,,,METAR,1918.0
KSAC 060653Z AUTO 22011G23KT 180V240 10SM CLR 16/10 A2976 RMK AO2 SLP076 T01560100,KSAC,2023-06-06T06:53:00Z,38.5,-121.5,15.6,10.0,220,11,23,10.0,29.760826,1007.6,,TRUE,TRUE,,,,,,,CLR,,,,,,,,VFR,,,,,,,,,,,,METAR,5.0
KRXE 060653Z AUTO 36003KT 10SM CLR 15/10 A3004 RMK AO2 SLP129 T01500100 402610100,KRXE,2023-06-06T06:53:00Z,43.83,-111.8,15.0,10.0,360,3,,10.0,30.041338,1012.9,,TRUE,TRUE,,,,,,,CLR,,,,,,,,VFR,,,,26.1,10.0,,,,,,,METAR,1483.0
KRWL 060653Z AUTO 06004KT 10SM CLR 07/03 A3017 RMK AO2 SLP142 T00720028 402330067,KRWL,2023-06-06T06:53:00Z,41.8,-107.2,7.2,2.8,60,4,,10.0,30.171259,1014.2,,TRUE,TRUE,,,,,,,CLR,,,,,,,,VFR,,,,23.3,6.7,,,,,,,METAR,2066.0
KRWI 060653Z AUTO 00000KT 10SM CLR 16/13 A2989 RMK AO2 SLP122 T01560128 $,KRWI,2023-06-06T06:53:00Z,35.85,-77.9,15.6,12.8,0,0,,10.0,29.890747,1012.2,,TRUE,TRUE,TRUE,,,,,,CLR,,,,,,,,VFR,,,,,,,,,,,,METAR,46.0
KRWF 060653Z AUTO 07004KT 10SM CLR 22/16 A2999 RMK AO2 SLP149 T02170156,KRWF,2023-06-06T06:53:00Z,44.55,-95.08,21.7,15.6,70,4,,10.0,29.991142,1014.9,,TRUE,TRUE,,,,,,,CLR,,,,,,,,VFR,,,,,,,,,,,,METAR,312.0
KRVS 060653Z AUTO 27004KT 10SM CLR 22/17 A2997 RMK AO2 SLP150 T02220167,KRVS,2023-06-06T06:53:00Z,36.05,-95.98,22.2,16.7,270,4,,10.0,29.970472,1015.0,,TRUE,TRUE,,,,,,,CLR,,,,,,,,VFR,,,,,,,,,,,,METAR,191.0
KRUE 060653Z AUTO 28003KT 7SM CLR 19/16 A2997 RMK AO2 SLP140 T01890161,KRUE,2023-06-06T06:53:00Z,35.25,-93.1,18.9,16.1,280,3,,7.0,29.970472,1014.0,,TRUE,TRUE,,,,,,,CLR,,,,,,,,VFR,,,,,,,,,,,,METAR,119.0
KRSW 060653Z 06004KT 10SM CLR 22/19 A2991 RMK AO2 SLP127 T02170189,KRSW,2023-06-06T06:53:00Z,26.53,-81.75,21.7,18.9,60,4,,10.0,29.911417,1012.7,,,TRUE,,,,,,,CLR,,,,,,,,VFR,,,,,,,,,,,,METAR,8.0
KRSL 060653Z AUTO 25003KT 10SM CLR 18/14 A3006 RMK AO2 SLP162 T01830144,KRSL,2023-06-06T06:53:00Z,38.87,-98.82,18.3,14.4,250,3,,10.0,30.059055,1016.2,,TRUE,TRUE,,,,,,,CLR,,,,,,,,VFR,,,,,,,,,,,,METAR,569.0
KRQE 060653Z AUTO 12003KT 10SM CLR 14/03 A3014 RMK AO2 SLP092 T01440033 402670044,KRQE,2023-06-06T06:53:00Z,35.65,-109.07,14.4,3.3,120,3,,10.0,30.138779,1009.2,,TRUE,TRUE,,,,,,,CLR,,,,,,,,VFR,,,,26.7,4.4,,,,,,,METAR,2056.0
KRNT 060653Z AUTO 01004KT 10SM CLR 17/04 A3002 RMK AO2 SLP170 T01670044,KRNT,2023-06-06T06:53:00Z,47.5,-122.22,16.7,4.4,10,4,,10.0,30.02067,1017.0,,TRUE,TRUE,,,,,,,CLR,,,,,,,,VFR,,,,,,,,,,,,METAR,7.0
KRNM 060653Z AUTO 00000KT 9SM SCT014 OVC019 13/09 A2993 RMK AO2 SLP126 T01280094,KRNM,2023-06-06T06:53:00Z,33.03,-116.92,12.8,9.4,0,0,,9.0,29.929134,1012.6,,TRUE,TRUE,,,,,,,SCT,1400,OVC,1900,,,,,MVFR,,,,,,,,,,,,METAR,423.0
KRMG 060653Z AUTO 22003KT 10SM CLR 21/18 A2993 RMK AO2 SLP123 T02110183,KRMG,2023-06-06T06:53:00Z,34.35,-85.17,21.1,18.3,220,3,,10.0,29.929134,1012.3,,TRUE,TRUE,,,,,,,CLR,,,,,,,,VFR,,,,,,,,,,,,METAR,196.0
KRKP 060653Z AUTO 22003KT 6SM BR CLR 22/21 A2989 RMK AO2 SLP124 T02220211,KRKP,2023-06-06T06:53:00Z,28.08,-97.05,22.2,21.1,220,3,,6.0,29.890747,1012.4,,TRUE,TRUE,,,,,,BR,CLR,,,,,,,,VFR,,,,,,,,,,,,METAR,8.0
KRIW 060653Z AUTO 24006KT 10SM CLR 14/08 A3009 RMK AO2 SLP134 T01440078 402390100,KRIW,2023-06-06T06:53:00Z,43.07,-108.43,14.4,7.8,240,6,,10.0,30.088583,1013.4,,TRUE,TRUE,,,,,,,CLR,,,,,,,,VFR,,,,23.9,10.0,,,,,,,METAR,1662.0
KRIL 060653Z AUTO 10003KT 10SM CLR 13/06 A3010 RMK AO2 SLP127 T01330056 402830083,KRIL,2023-06-06T06:53:00Z,39.53,-107.73,13.3,5.6,100,3,,10.0,30.100393,1012.7,,TRUE,TRUE,,,,,,,CLR,,,,,,,,VFR,,,,28.3,8.3,,,,,,,METAR,1683.0
KRHI 060653Z AUTO 08009KT 6SM HZ OVC055 16/09 A3010 RMK AO2 SLP185 T01560094,KRHI,2023-06-06T06:53:00Z,45.63,-89.48,15.6,9.4,80,9,,6.0,30.100393,1018.5,,TRUE,TRUE,,,,,,HZ,OVC,5500,,,,,,,VFR,,,,,,,,,,,,METAR,493.0
KRDD 060653Z AUTO 01007KT 10SM FEW055 SCT100 23/17 A2978 RMK AO2 SLP078 T02280167,KRDD,2023-06-06T06:53:00Z,40.52,-122.3,22.8,16.7,10,7,,10.0,29.778543,1007.8,,TRUE,TRUE,,,,,,,FEW,5500,SCT,10000,,,,,VFR,,,,,,,,,,,,METAR,152.0
KRBG 060653Z AUTO 00000KT 10SM CLR 22/04 A2987 RMK AO2 SLP112 T02220039,KRBG,2023-06-06T06:53:00Z,43.23,-123.35,22.2,3.9,0,0,,10.0,29.870079,1011.2,,TRUE,TRUE,,,,,,,CLR,,,,,,,,VFR,,,,,,,,,,,,METAR,152.0
KRBD 060653Z AUTO 00000KT 10SM SCT080 22/18 A2994 RMK AO2 SLP132 T02170178,KRBD,2023-06-06T06:53:00Z,32.68,-96.87,21.7,17.8,0,0,,10.0,29.940945,1013.2,,TRUE,TRUE,,,,,,,SCT,8000,,,,,,,VFR,,,,,,,,,,,,METAR,200.0
KRAL 060653Z AUTO VRB03KT OVC030 14/09 A2991 RMK AO2 SLP117 T01440094,KRAL,2023-06-06T06:53:00Z,33.95,-117.45,14.4,9.4,0,3,,,29.911417,1011.7,,TRUE,TRUE,,,,,,,OVC,3000,,,,,,,,,,,,,,,,,,,METAR,254.0
KRAC 060653Z AUTO 32004KT 8SM FEW085 18/09 A3003 RMK AO2 SLP166 T01780089,KRAC,2023-06-06T06:53:00Z,42.77,-87.82,17.8,8.9,320,4,,8.0,30.029528,1016.6,,TRUE,TRUE,,,,,,,FEW,8500,,,,,,,VFR,,,,,,,,,,,,METAR,203.0
KPWA 060653Z AUTO 24004KT 10SM CLR 21/14 A2999 RMK AO2 SLP139 T02060139,KPWA,2023-06-06T06:53:00Z,35.53,-97.65,20.6,13.9,240,4,,10.0,29.991142,1013.9,,TRUE,TRUE,,,,,,,CLR,,,,,,,,VFR,,,,,,,,,,,,METAR,390.0
KPUW 060653Z AUTO 07003KT 10SM CLR 14/09 A2997 RMK AO2 SLP141 T01390094,KPUW,2023-06-06T06:53:00Z,46.75,-117.12,13.9,9.4,70,3,,10.0,29.970472,1014.1,,TRUE,TRUE,,,,,,,CLR,,,,,,,,VFR,,,,,,,,,,,,METAR,774.0
KPUC 060653Z AUTO 30006KT 10SM CLR 17/03 A3004 RMK AO2 SLP095 T01670033 402720094,KPUC,2023-06-06T06:53:00Z,39.62,-110.75,16.7,3.3,300,6,,10.0,30.041338,1009.5,,TRUE,TRUE,,,,,,,CLR,,,,,,,,VFR,,,,27.2,9.4,,,,,,,METAR,1777.0
KPUB 060653Z AUTO 26005KT 10SM OVC095 14/12 A3016 RMK AO2 SLP176 T01390122 402170139,KPUB,2023-06-06T06:53:00Z,38.28,-104.5,13.9,12.2,260,5,,10.0,30.159449,1017.6,,TRUE,TRUE,,,,,,,OVC,9500,,,,,,,VFR,,,,21.7,13.9,,,,,,,METAR,1441.0
KPTK 060653Z AUTO 22003KT 8SM CLR 16/10 A2995 RMK AO2 SLP137 T01610100 TSNO $,KPTK,2023-06-06T06:53:00Z,42.67,-83.42,16.1,10.0,220,3,,8.0,29.949802,1013.7,,TRUE,TRUE,TRUE,,TRUE,,,,CLR,,,,,,,,VFR,,,,,,,,,,,,METAR,295.0
KPSX 060653Z AUTO 00000KT 10SM CLR 21/18 A2990 RMK AO2 SLP125 T02110183 $,KPSX,2023-06-06T06:53:00Z,28.72,-96.25,21.1,18.3,0,0,,10.0,29.899607,1012.5,,TRUE,TRUE,TRUE,,,,,,CLR,,,,,,,,VFR,,,,,,,,,,,,METAR,4.0
KPSP 060653Z AUTO 31017G24KT 10SM CLR 22/06 A2971 RMK AO2 PK WND 32029/0605 SLP059 T02170061,KPSP,2023-06-06T06:53:00Z,33.82,-116.5,21.7,6.1,310,17,24,10.0,29.71063,1005.9,,TRUE,TRUE,,,,,,,CLR,,,,,,,,VFR,,,,,,,,,,,,METAR,123.0
KPSC 060653Z AUTO 33003KT 10SM CLR 15/09 A2987 RMK AO2 SLP110 T01500089,KPSC,2023-06-06T06:53:00Z,46.27,-119.12,15.0,8.9,330,3,,10.0,29.870079,1011.0,,TRUE,TRUE,,,,,,,CLR,,,,,,,,VFR,,,,,,,,,,,,METAR,121.0
KPRC 060653Z 17008KT 10SM CLR 19/M11 A2997 RMK AO2 SLP062 T01891106 402940100,KPRC,2023-06-06T06:53:00Z,34.65,-112.42,18.9,-10.6,170,8,,10.0,29.970472,1006.2,,,TRUE,,,,,,,CLR,,,,,,,,VFR,,,,29.4,10.0,,,,,,,METAR,1528.0
KPRB 060653Z AUTO 19006KT 10SM -RA OVC013 13/11 A2988 RMK AO2 RAB46 SLP113 P0000 T01330106 $,KPRB,2023-06-06T06:53:00Z,35.67,-120.63,13.3,10.6,190,6,,10.0,29.878937,1011.3,,TRUE,TRUE,TRUE,,,,,-RA,OVC,1300,,,,,,,MVFR,,,,,,0.005,,,,,,METAR,249.0
KPQL 060653Z AUTO 00000KT 7SM CLR 19/18 A2993 RMK AO2 SLP136 T01940183,KPQL,2023-06-06T06:53:00Z,30.47,-88.53,19.4,18.3,0,0,,7.0,29.929134,1013.6,,TRUE,TRUE,,,,,,,CLR,,,,,,,,VFR,,,,,,,,,,,,METAR,4.0
KPOU 060653Z AUTO 00000KT 8SM CLR 11/08 A2975 RMK AO2 SLP071 T01110083 $,KPOU,2023-06-06T06:53:00Z,41.63,-73.88,11.1,8.3,0,0,,8.0,29.749016,1007.1,,TRUE,TRUE,TRUE,,,,,,CLR,,,,,,,,VFR,,,,,,,,,,,,METAR,45.0
KPOF 060653Z AUTO 34004KT 10SM CLR 17/12 A2998 RMK AO2 SLP146 T01670122,KPOF,2023-06-06T06:53:00Z,36.77,-90.32,16.7,12.2,340,4,,10.0,29.97933,1014.6,,TRUE,TRUE,,,,,,,CLR,,,,,,,,VFR,,,,,,,,,,,,METAR,99.0
KPNS 060653Z 03003KT 10SM CLR 22/21 A2994 RMK AO2 SLP138 T02220206,KPNS,2023-06-06T06:53:00Z,30.48,-87.18,22.2,20.6,30,3,,10.0,29.940945,1013.8,,,TRUE,,,,,,,CLR,,,,,,,,VFR,,,,,,,,,,,,METAR,34.0
KPNC 060653Z AUTO VRB03KT 10SM CLR 19/16 A3000 RMK AO2 SLP145 T01890156,KPNC,2023-06-06T06:53:00Z,36.73,-97.1,18.9,15.6,0,3,,10.0,30.0,1014.5,,TRUE,TRUE,,,,,,,CLR,,,,,,,,VFR,,,,,,,,,,,,METAR,304.0
KPMP 060653Z AUTO 06006KT 10SM FEW027 BKN036 27/21 A2990 RMK AO2 SLP125 T02670206,KPMP,2023-06-06T06:53:00Z,26.25,-80.12,26.7,20.6,60,6,,10.0,29.899607,1012.5,,TRUE,TRUE,,,,,,,FEW,2700,BKN,3600,,,,,VFR,,,,,,,,,,,,METAR,4.0
KPMD 060653Z AUTO 23010KT 10SM CLR 12/04 A2983 RMK AO2 SLP081 T01220039,KPMD,2023-06-06T06:53:00Z,34.63,-118.08,12.2,3.9,230,10,,10.0,29.828741,1008.1,,TRUE,TRUE,,,,,,,CLR,,,,,,,,VFR,,,,,,,,,,,,METAR,764.0
KPKD 060653Z AUTO 13006KT 9SM CLR 18/14 A3006 RMK AO2 SLP176 T01780139,KPKD,2023-06-06T06:53:00Z,46.9,-95.07,17.8,13.9,130,6,,9.0,30.059055,1017.6,,TRUE,TRUE,,,,,,,CLR,,,,,,,,VFR,,,,,,,,,,,,METAR,439.0
KPKB 060653Z AUTO 00000KT 10SM CLR 09/09 A2997 RMK AO2 SLP144 T00940089,KPKB,2023-06-06T06:53:00Z,39.35,-81.43,9.4,8.9,0,0,,10.0,29.970472,1014.4,,TRUE,TRUE,,,,,,,CLR,,,,,,,,VFR,,,,,,,,,,,,METAR,245.0
KPIR 060653Z AUTO 17004KT 10SM SCT110 20/14 A2999 RMK AO2 SLP140 T02000144,KPIR,2023-06-06T06:53:00Z,44.38,-100.28,20.0,14.4,170,4,,10.0,29.991142,1014.0,,TRUE,TRUE,,,,,,,SCT,11000,,,,,,,VFR,,,,,,,,,,,,METAR,524.0
KPIL 060653Z AUTO 31003KT 10SM CLR 24/23 A2989 RMK AO2 SLP121 T02440228,KPIL,2023-06-06T06:53:00Z,26.17,-97.33,24.4,22.8,310,3,,10.0,29.890747,1012.1,,TRUE,TRUE,,,,,,,CLR,,,,,,,,VFR,,,,,,,,,,,,METAR,5.0
KPIH 060653Z AUTO 10003KT 10SM CLR 14/09 A3000 RMK AO2 SLP119 T01440089 402670072,KPIH,2023-06-06T06:53:00Z,42.92,-112.57,14.4,8.9,100,3,,10.0,30.0,1011.9,,TRUE,TRUE,,,,,,,CLR,,,,,,,,VFR,,,,26.7,7.2,,,,,,,METAR,1357.0
KPIE 060653Z AUTO 10008KT 10SM CLR 24/20 A2994 RMK AO2 SLP138 T02390200,KPIE,2023-06-06T06:53:00Z,27.92,-82.68,23.9,20.0,100,8,,10.0,29.940945,1013.8,,TRUE,TRUE,,,,,,,CLR,,,,,,,,VFR,,,,,,,,,,,,METAR,1.0
KPHD 060653Z AUTO 00000KT 6SM BR CLR 11/08 A2995 RMK AO2 SLP141 T01060083,KPHD,2023-06-06T06:53:00Z,40.47,-81.42,10.6,8.3,0,0,,6.0,29.949802,1014.1,,TRUE,TRUE,,,,,,BR,CLR,,,,,,,,VFR,,,,,,,,,,,,METAR,272.0
KPGD 060653Z AUTO 07006KT 10SM CLR 20/18 A2994 RMK AO2 SLP138 T02000183,KPGD,2023-06-06T06:53:00Z,26.92,-82.0,20.0,18.3,70,6,,10.0,29.940945,1013.8,,TRUE,TRUE,,,,,,,CLR,,,,,,,,VFR,,,,,,,,,,,,METAR,7.0
KPGA 060653Z AUTO VRB04KT 10SM CLR 25/00 A2987 RMK AO2 SLP041 T02500000 403440167,KPGA,2023-06-06T06:53:00Z,36.92,-111.45,25.0,0.0,0,4,,10.0,29.870079,1004.1,,TRUE,TRUE,,,,,,,CLR,,,,,,,,VFR,,,,34.4,16.7,,,,,,,METAR,1310.0
KPEO 060653Z AUTO 17003KT 6SM HZ SCT070 16/ A2983 RMK AO2 SLP096 T0161 $,KPEO,2023-06-06T06:53:00Z,42.65,-77.05,16.1,,170,3,,6.0,29.828741,1009.6,,TRUE,TRUE,TRUE,,,,,HZ,SCT,7000,,,,,,,VFR,,,,,,,,,,,,METAR,268.0
KPDX 060653Z 31006KT 10SM CLR 18/M01 A2993 RMK AO2 SLP132 T01831011,KPDX,2023-06-06T06:53:00Z,45.6,-122.62,18.3,-1.1,310,6,,10.0,29.929134,1013.2,,,TRUE,,,,,,,CLR,,,,,,,,VFR,,,,,,,,,,,,METAR,7.0
KPDT 060653Z AUTO 11007KT 10SM CLR 18/06 A2990 RMK AO2 SLP110 T01780056,KPDT,2023-06-06T06:53:00Z,45.7,-118.83,17.8,5.6,110,7,,10.0,29.899607,1011.0,,TRUE,TRUE,,,,,,,CLR,,,,,,,,VFR,,,,,,,,,,,,METAR,453.0
KPDK 060653Z AUTO 29003KT 10SM CLR 20/17 A2995 RMK AO2 SLP127 T02000172,KPDK,2023-06-06T06:53:00Z,33.88,-84.3,20.0,17.2,290,3,,10.0,29.949802,1012.7,,TRUE,TRUE,,,,,,,CLR,,,,,,,,VFR,,,,,,,,,,,,METAR,299.0
KPBI 060653Z 34005KT 10SM FEW032 23/19 A2992 RMK AO2 SLP130 T02280194 $,KPBI,2023-06-06T06:53:00Z,26.68,-80.1,22.8,19.4,340,5,,10.0,29.920275,1013.0,,,TRUE,TRUE,,,,,,FEW,3200,,,,,,,VFR,,,,,,,,,,,,METAR,4.0
KPBG 060653Z AUTO VRB03KT 6SM HZ CLR 15/06 A2970 RMK AO2 SLP055 T01500061,KPBG,2023-06-06T06:53:00Z,44.65,-73.47,15.0,6.1,0,3,,6.0,29.698818,1005.5,,TRUE,TRUE,,,,,,HZ,CLR,,,,,,,,VFR,,,,,,,,,,,,METAR,61.0
KPBF 060653Z AUTO 00000KT 10SM CLR 22/19 A2995 RMK AO2 SLP138 T02170189,KPBF,2023-06-06T06:53:00Z,34.18,-91.93,21.7,18.9,0,0,,10.0,29.949802,1013.8,,TRUE,TRUE,,,,,,,CLR,,,,,,,,VFR,,,,,,,,,,,,METAR,63.0
KPAH 060653Z AUTO 00000KT 10SM CLR 16/12 A2996 RMK AO2 SLP141 T01560122,KPAH,2023-06-06T06:53:00Z,37.07,-88.77,15.6,12.2,0,0,,10.0,29.958662,1014.1,,TRUE,TRUE,,,,,,,CLR,,,,,,,,VFR,,,,,,,,,,,,METAR,125.0
KPAE 060653Z AUTO 35004KT 10SM CLR 13/04 A3004 RMK AO2 SLP171 T01280039,KPAE,2023-06-06T06:53:00Z,47.92,-122.28,12.8,3.9,350,4,,10.0,30.041338,1017.1,,TRUE,TRUE,,,,,,,CLR,,,,,,,,VFR,,,,,,,,,,,,METAR,166.0
KP68 060653Z AUTO 00000KT 09/07 A2999 RMK AO1 SLP090 T00890067,KP68,2023-06-06T06:53:00Z,39.6,-116.0,8.9,6.7,0,0,,,29.991142,1009.0,,TRUE,TRUE,,,,,,,,,,,,,,,,,,,,,,,,,,,METAR,1813.0
KOXB 060653Z AUTO 28005KT 10SM CLR 16/13 A2983 RMK AO2 SLP102 T01560133,KOXB,2023-06-06T06:53:00Z,38.32,-75.12,15.6,13.3,280,5,,10.0,29.828741,1010.2,,TRUE,TRUE,,,,,,,CLR,,,,,,,,VFR,,,,,,,,,,,,METAR,2.0
KOWD 060653Z AUTO 22003KT 10SM BKN060 OVC080 14/11 A2969 RMK AO2 SLP052 T01390106,KOWD,2023-06-06T06:53:00Z,42.18,-71.17,13.9,10.6,220,3,,10.0,29.68996,1005.2,,TRUE,TRUE,,,,,,,BKN,6000,OVC,8000,,,,,VFR,,,,,,,,,,,,METAR,14.0
KOVS 060653Z AUTO 00000KT 8SM CLR 16/14 A3001 RMK AO2 SLP160 T01610139,KOVS,2023-06-06T06:53:00Z,43.15,-90.68,16.1,13.9,0,0,,8.0,30.008858,1016.0,,TRUE,TRUE,,,,,,,CLR,,,,,,,,VFR,,,,,,,,,,,,METAR,205.0
KOVE 060653Z AUTO 18008KT 10SM CLR 22/14 A2975 RMK AO2 SLP075 T02220139,KOVE,2023-06-06T06:53:00Z,39.5,-121.62,22.2,13.9,180,8,,10.0,29.749016,1007.5,,TRUE,TRUE,,,,,,,CLR,,,,,,,,VFR,,,,,,,,,,,,METAR,56.0
KOTM 060653Z AUTO 00000KT 9SM CLR 14/09 A3001 RMK AO2 SLP159 T01440094,KOTM,2023-06-06T06:53:00Z,41.1,-92.45,14.4,9.4,0,0,,9.0,30.008858,1015.9,,TRUE,TRUE,,,,,,,CLR,,,,,,,,VFR,,,,,,,,,,,,METAR,254.0
KOSU 060653Z AUTO 29003KT 6SM HZ CLR 14/11 A2997 RMK AO2 SLP143 T01390106,KOSU,2023-06-06T06:53:00Z,40.08,-83.08,13.9,10.6,290,3,,6.0,29.970472,1014.3,,TRUE,TRUE,,,,,,HZ,CLR,,,,,,,,VFR,,,,,,,,,,,,METAR,276.0
KOSH 060653Z AUTO 04009KT 7SM BKN075 OVC090 21/13 A3003 RMK AO2 SLP155 T02060133,KOSH,2023-06-06T06:53:00Z,43.98,-88.55,20.6,13.3,40,9,,7.0,30.029528,1015.5,,TRUE,TRUE,,,,,,,BKN,7500,OVC,9000,,,,,VFR,,,,,,,,,,,,METAR,239.0
KORL 060653Z AUTO 04003KT 10SM CLR 22/19 A2995 RMK AO2 SLP144 T02220194,KORL,2023-06-06T06:53:00Z,28.55,-81.33,22.2,19.4,40,3,,10.0,29.949802,1014.4,,TRUE,TRUE,,,,,,,CLR,,,,,,,,VFR,,,,,,,,,,,,METAR,32.0
KOQT 060653Z AUTO 00000KT 7SM CLR 19/18 A2995 RMK AO2 SLP128 T01940183,KOQT,2023-06-06T06:53:00Z,36.02,-84.23,19.4,18.3,0,0,,7.0,29.949802,1012.8,,TRUE,TRUE,,,,,,,CLR,,,,,,,,VFR,,,,,,,,,,,,METAR,276.0
KOPF 060653Z AUTO 10SM FEW065 25/21 A2990 RMK AO2 SLP126 T02500211 $,KOPF,2023-06-06T06:53:00Z,25.92,-80.28,25.0,21.1,,,,10.0,29.899607,1012.6,,TRUE,TRUE,TRUE,,,,,,FEW,6500,,,,,,,VFR,,,,,,,,,,,,METAR,1.0
KONT 060653Z 26007KT 9SM BKN024 BKN044 14/10 A2991 RMK AO2 SLP124 T01390100,KONT,2023-06-06T06:53:00Z,34.05,-117.58,13.9,10.0,260,7,,9.0,29.911417,1012.4,,,TRUE,,,,,,,BKN,2400,BKN,4400,,,,,MVFR,,,,,,,,,,,,METAR,279.0
KONO 060653Z AUTO 35004KT 10SM CLR 19/08 A2991 RMK AO2 SLP113 T01940078 403170150,KONO,2023-06-06T06:53:00Z,44.02,-117.02,19.4,7.8,350,4,,10.0,29.911417,1011.3,,TRUE,TRUE,,,,,,,CLR,,,,,,,,VFR,,,,31.7,15.0,,,,,,,METAR,668.0
KOMK 060653Z AUTO 35011KT 10SM CLR 18/M03 A3001 RMK AO2 SLP156 T01831028,KOMK,2023-06-06T06:53:00Z,48.47,-119.52,18.3,-2.8,350,11,,10.0,30.008858,1015.6,,TRUE,TRUE,,,,,,,CLR,,,,,,,,VFR,,,,,,,,,,,,METAR,395.0
KOLF 060653Z AUTO 09005KT 10SM CLR 21/17 A2992 RMK AO2 SLP117 T02060167 403170183,KOLF,2023-06-06T06:53:00Z,48.1,-105.58,20.6,16.7,90,5,,10.0,29.920275,1011.7,,TRUE,TRUE,,,,,,,CLR,,,,,,,,VFR,,,,31.7,18.3,,,,,,,METAR,605.0
KOJC 060653Z AUTO 06005KT 10SM CLR 19/17 A3003 RMK AO2 SLP158 T01940167,KOJC,2023-06-06T06:53:00Z,38.85,-94.73,19.4,16.7,60,5,,10.0,30.029528,1015.8,,TRUE,TRUE,,,,,,,CLR,,,,,,,,VFR,,,,,,,,,,,,METAR,328.0
KOGD 060653Z AUTO 18006KT 10SM CLR 19/07 A2995 RMK AO2 SLP083 T01940067 TSNO,KOGD,2023-06-06T06:53:00Z,41.2,-112.02,19.4,6.7,180,6,,10.0,29.949802,1008.3,,TRUE,TRUE,,,TRUE,,,,CLR,,,,,,,,VFR,,,,,,,,,,,,METAR,1356.0
KOGB 060653Z AUTO 18003KT 10SM FEW060 18/15 A2995 RMK AO2 LTG DSNT W RAE51 SLP138 P0000 T01780150,KOGB,2023-06-06T06:53:00Z,33.47,-80.85,17.8,15.0,180,3,,10.0,29.949802,1013.8,,TRUE,TRUE,,,,,,,FEW,6000,,,,,,,VFR,,,,,,0.005,,,,,,METAR,59.0
KODX 060653Z AUTO 00000KT 8SM CLR 16/14 A3005 RMK AO2 SLP167 T01610144 $,KODX,2023-06-06T06:53:00Z,41.62,-98.95,16.1,14.4,0,0,,8.0,30.050198,1016.7,,TRUE,TRUE,TRUE,,,,,,CLR,,,,,,,,VFR,,,,,,,,,,,,METAR,628.0
KODO 060653Z AUTO 06004KT 10SM CLR 19/14 A3010 RMK AO2 SLP155 T01890139,KODO,2023-06-06T06:53:00Z,31.92,-102.4,18.9,13.9,60,4,,10.0,30.100393,1015.5,,TRUE,TRUE,,,,,,,CLR,,,,,,,,VFR,,,,,,,,,,,,METAR,912.0
KOAK 060653Z 33006KT 10SM FEW014 FEW200 14/11 A2984 RMK AO2 SLP103 T01390111,KOAK,2023-06-06T06:53:00Z,37.72,-122.23,13.9,11.1,330,6,,10.0,29.840551,1010.3,,,TRUE,,,,,,,FEW,1400,FEW,20000,,,,,VFR,,,,,,,,,,,,METAR,3.0
KNUW 060653Z 00000KT 10SM FEW200 09/06 A3005 RMK AO2 SLP178 T00940061 VISNO $,KNUW,2023-06-06T06:53:00Z,48.35,-122.65,9.4,6.1,0,0,,10.0,30.050198,1017.8,,,TRUE,TRUE,,,,,,FEW,20000,,,,,,,VFR,,,,,,,,,,,,SPECI,14.0
KNUI 060653Z AUTO 00000KT 10SM CLR 13/13 A2985 RMK AO2 SLP107 T01330128,KNUI,2023-06-06T06:53:00Z,38.15,-76.43,13.3,12.8,0,0,,10.0,29.84941,1010.7,,TRUE,TRUE,,,,,,,CLR,,,,,,,,VFR,,,,,,,,,,,,METAR,4.0
KNSI 060653Z AUTO 00000KT 10SM FEW009 OVC026 13/12 A2990 RMK AO2 SLP121 T01330117 $,KNSI,2023-06-06T06:53:00Z,33.23,-119.45,13.3,11.7,0,0,,10.0,29.899607,1012.1,,TRUE,TRUE,TRUE,,,,,,FEW,900,OVC,2600,,,,,MVFR,,,,,,,,,,,,SPECI,161.0
KNRS 060653Z AUTO 19005KT 10SM OVC042 16/09 A2994 RMK AO2 SLP137 T01560094,KNRS,2023-06-06T06:53:00Z,32.57,-117.12,15.6,9.4,190,5,,10.0,29.940945,1013.7,,TRUE,TRUE,,,,,,,OVC,4200,,,,,,,VFR,,,,,,,,,,,,METAR,15.0
KNQX 060653Z AUTO 00000KT 10SM CLR A2989 RMK AO2 SLP122 $,KNQX,2023-06-06T06:53:00Z,24.57,-81.67,,,0,0,,10.0,29.890747,1012.2,,TRUE,TRUE,TRUE,,,,,,CLR,,,,,,,,VFR,,,,,,,,,,,,METAR,2.0
KNIP 060653Z AUTO 16004KT 10SM CLR 22/18 A2996 RMK AO2 SLP140 T02170183,KNIP,2023-06-06T06:53:00Z,30.23,-81.67,21.7,18.3,160,4,,10.0,29.958662,1014.0,,TRUE,TRUE,,,,,,,CLR,,,,,,,,VFR,,,,,,,,,,,,SPECI,3.0
KNFG 060653Z 00000KT 10SM SCT030 BKN037 OVC046 16/12 A2992 RMK AO2 SLP131 T01560117 $,KNFG,2023-06-06T06:53:00Z,33.3,-117.35,15.6,11.7,0,0,,10.0,29.920275,1013.1,,,TRUE,TRUE,,,,,,SCT,3000,BKN,3700,OVC,4600,,,VFR,,,,,,,,,,,,SPECI,21.0
KNEW 060653Z AUTO 17004KT 10SM CLR 24/20 A2992 RMK AO2 SLP125 T02440200,KNEW,2023-06-06T06:53:00Z,30.05,-90.03,24.4,20.0,170,4,,10.0,29.920275,1012.5,,TRUE,TRUE,,,,,,,CLR,,,,,,,,VFR,,,,,,,,,,,,METAR,1.0
KMYV 060653Z AUTO 17012KT 10SM -RA CLR 19/11 A2976 RMK AO2 SLP080 P0000 T01890111,KMYV,2023-06-06T06:53:00Z,39.1,-121.57,18.9,11.1,170,12,,10.0,29.760826,1008.0,,TRUE,TRUE,,,,,,-RA,CLR,,,,,,,,VFR,,,,,,0.005,,,,,,METAR,18.0
KMYF 060653Z AUTO 20004KT 10SM OVC042 15/09 A2993 RMK AO2 SLP133 T01500089,KMYF,2023-06-06T06:53:00Z,32.82,-117.13,15.0,8.9,200,4,,10.0,29.929134,1013.3,,TRUE,TRUE,,,,,,,OVC,4200,,,,,,,VFR,,,,,,,,,,,,METAR,128.0
KMWT 060653Z AUTO 00000KT 10SM CLR 19/17 A2995 RMK AO2 SLP129 T01890167,KMWT,2023-06-06T06:53:00Z,34.55,-93.58,18.9,16.7,0,0,,10.0,29.949802,1012.9,,TRUE,TRUE,,,,,,,CLR,,,,,,,,VFR,,,,,,,,,,,,METAR,220.0
KMWL 060653Z AUTO 00000KT 10SM BKN080 20/18 A2996 RMK AO2 SLP133 T02000178,KMWL,2023-06-06T06:53:00Z,32.78,-98.07,20.0,17.8,0,0,,10.0,29.958662,1013.3,,TRUE,TRUE,,,,,,,BKN,8000,,,,,,,VFR,,,,,,,,,,,,METAR,288.0
KMVY 060653Z AUTO 27005KT 10SM OVC090 13/12 A2968 RMK AO2 SLP051 T01330117,KMVY,2023-06-06T06:53:00Z,41.4,-70.62,13.3,11.7,270,5,,10.0,29.681103,1005.1,,TRUE,TRUE,,,,,,,OVC,9000,,,,,,,VFR,,,,,,,,,,,,METAR,18.0
KMTO 060653Z AUTO 00000KT 6SM HZ CLR 17/05 A3000 RMK AO2 SLP154 T01720050,KMTO,2023-06-06T06:53:00Z,39.47,-88.27,17.2,5.0,0,0,,6.0,30.0,1015.4,,TRUE,TRUE,,,,,,HZ,CLR,,,,,,,,VFR,,,,,,,,,,,,METAR,216.0
KMTJ 060653Z AUTO 17006KT 10SM CLR 15/04 A3011 RMK AO2 SLP120 T01500039 402780094,KMTJ,2023-06-06T06:53:00Z,38.5,-107.9,15.0,3.9,170,6,,10.0,30.109253,1012.0,,TRUE,TRUE,,,,,,,CLR,,,,,,,,VFR,,,,27.8,9.4,,,,,,,METAR,1755.0
KMTH 060653Z AUTO 00000KT 10SM SCT026 SCT065 BKN120 27/22 A2988 RMK AO2 SLP117 T02670222 $,KMTH,2023-06-06T06:53:00Z,24.73,-81.05,26.7,22.2,0,0,,10.0,29.878937,1011.7,,TRUE,TRUE,TRUE,,,,,,SCT,2600,SCT,6500,BKN,12000,,,VFR,,,,,,,,,,,,METAR,1.0
KMSY 060653Z 16003KT 10SM SCT030 SCT140 BKN250 24/21 A2992 RMK AO2 SLP134 T02390206,KMSY,2023-06-06T06:53:00Z,30.0,-90.25,23.9,20.6,160,3,,10.0,29.920275,1013.4,,,TRUE,,,,,,,SCT,3000,SCT,14000,BKN,25000,,,VFR,,,,,,,,,,,,METAR,0.0
KMSS 060653Z AUTO 23003KT 5SM BR OVC031 12/09 A2976 RMK AO2 SLP077 T01170094,KMSS,2023-06-06T06:53:00Z,44.93,-74.85,11.7,9.4,230,3,,5.0,29.760826,1007.7,,TRUE,TRUE,,,,,,BR,OVC,3100,,,,,,,MVFR,,,,,,,,,,,,METAR,60.0
KMSP 060653Z 06005KT 10SM FEW110 FEW140 23/17 A3002 RMK AO2 SLP159 T02330167,KMSP,2023-06-06T06:53:00Z,44.88,-93.23,23.3,16.7,60,5,,10.0,30.02067,1015.9,,,TRUE,,,,,,,FEW,11000,FEW,14000,,,,,VFR,,,,,,,,,,,,METAR,255.0
KMSO 060653Z AUTO 10SM OVC100 16/13 A3002 RMK AO2 SLP154 T01610133 402220111 $,KMSO,2023-06-06T06:53:00Z,46.92,-114.1,16.1,13.3,,,,10.0,30.02067,1015.4,,TRUE,TRUE,TRUE,,,,,,OVC,10000,,,,,,,VFR,,,,22.2,11.1,,,,,,,METAR,974.0
KMSN 060653Z AUTO 00000KT 9SM CLR 18/09 A3001 RMK AO2 SLP158 T01830094,KMSN,2023-06-06T06:53:00Z,43.13,-89.35,18.3,9.4,0,0,,9.0,30.008858,1015.8,,TRUE,TRUE,,,,,,,CLR,,,,,,,,VFR,,,,,,,,,,,,METAR,262.0
KMSL 060653Z AUTO 24003KT 10SM SCT055 21/17 A2996 RMK AO2 LTG DSNT NE SLP137 T02110167,KMSL,2023-06-06T06:53:00Z,34.75,-87.6,21.1,16.7,240,3,,10.0,29.958662,1013.7,,TRUE,TRUE,,,,,,,SCT,5500,,,,,,,VFR,,,,,,,,,,,,METAR,170.0
KMRB 060653Z AUTO 00000KT 10SM CLR 09/07 A2987 RMK AO2 SLP115 T00890072 $,KMRB,2023-06-06T06:53:00Z,39.4,-77.98,8.9,7.2,0,0,,10.0,29.870079,1011.5,,TRUE,TRUE,TRUE,,,,,,CLR,,,,,,,,VFR,,,,,,,,,,,,METAR,165.0
KMPO 060653Z AUTO 29006KT 10SM OVC070 09/02 A2982 RMK AO2 SLP096 T00940022,KMPO,2023-06-06T06:53:00Z,41.13,-75.38,9.4,2.2,290,6,,10.0,29.819881,1009.6,,TRUE,TRUE,,,,,,,OVC,7000,,,,,,,VFR,,,,,,,,,,,,METAR,576.0
KMOD 060653Z AUTO 34015KT 10SM CLR 18/12 A2972 RMK AO2 SLP062 T01780117,KMOD,2023-06-06T06:53:00Z,37.62,-120.95,17.8,11.7,340,15,,10.0,29.719488,1006.2,,TRUE,TRUE,,,,,,,CLR,,,,,,,,VFR,,,,,,,,,,,,METAR,25.0
KMNN 060653Z AUTO 00000KT 6SM HZ FEW090 14/07 A2997 RMK AO2 SLP146 T01390067,KMNN,2023-06-06T06:53:00Z,40.62,-83.07,13.9,6.7,0,0,,6.0,29.970472,1014.6,,TRUE,TRUE,,,,,,HZ,FEW,9000,,,,,,,VFR,,,,,,,,,,,,METAR,301.0
KMMV 060653Z AUTO 35006KT 10SM CLR 17/00 A2992 RMK AO2 SLP130 T01720000,KMMV,2023-06-06T06:53:00Z,45.2,-123.13,17.2,0.0,350,6,,10.0,29.920275,1013.0,,TRUE,TRUE,,,,,,,CLR,,,,,,,,VFR,,,,,,,,,,,,METAR,48.0
KMMK 060653Z AUTO 00000KT 10SM CLR 09/07 A2974 RMK AO2 SLP069 T00890072 $,KMMK,2023-06-06T06:53:00Z,41.52,-72.83,8.9,7.2,0,0,,10.0,29.740158,1006.9,,TRUE,TRUE,TRUE,,,,,,CLR,,,,,,,,VFR,,,,,,,,,,,,METAR,30.0
KMLU 060653Z AUTO 03008KT 10SM -RA BKN120 21/19 A2992 RMK AO2 SLP129 P0000 T02060189,KMLU,2023-06-06T06:53:00Z,32.52,-92.03,20.6,18.9,30,8,,10.0,29.920275,1012.9,,TRUE,TRUE,,,,,,-RA,BKN,12000,,,,,,,VFR,,,,,,0.005,,,,,,METAR,22.0
KMLT 060653Z AUTO 35009G20KT 10SM OVC040 11/08 A2962 RMK AO2 SLP037 T01060083,KMLT,2023-06-06T06:53:00Z,45.65,-68.7,10.6,8.3,350,9,20,10.0,29.619095,1003.7,,TRUE,TRUE,,,,,,,OVC,4000,,,,,,,VFR,,,,,,,,,,,,METAR,121.0
KMLS 060653Z AUTO 15006KT 10SM CLR 20/12 A2993 RMK AO2 SLP112 T02000122 403110183,KMLS,2023-06-06T06:53:00Z,46.43,-105.88,20.0,12.2,150,6,,10.0,29.929134,1011.2,,TRUE,TRUE,,,,,,,CLR,,,,,,,,VFR,,,,31.1,18.3,,,,,,,METAR,800.0
KMLP 060653Z AUTO 33003KT 10SM CLR 12/03 A3013 RMK AO2 SLP115 T01170033,KMLP,2023-06-06T06:53:00Z,47.45,-115.67,11.7,3.3,330,3,,10.0,30.129921,1011.5,,TRUE,TRUE,,,,,,,CLR,,,,,,,,VFR,,,,,,,,,,,,METAR,1837.0
KMLC 060653Z AUTO 15003KT 7SM FEW110 18/18 A2996 RMK AO2 SLP136 T01780178,KMLC,2023-06-06T06:53:00Z,34.88,-95.78,17.8,17.8,150,3,,7.0,29.958662,1013.6,,TRUE,TRUE,,,,,,,FEW,11000,,,,,,,VFR,,,,,,,,,,,,METAR,231.0
KMLB 060653Z 06009KT 10SM CLR 24/17 A2994 RMK AO2 SLP137 T02390172,KMLB,2023-06-06T06:53:00Z,28.1,-80.65,23.9,17.2,60,9,,10.0,29.940945,1013.7,,,TRUE,,,,,,,CLR,,,,,,,,VFR,,,,,,,,,,,,METAR,7.0
KMKO 060653Z AUTO 33005KT 8SM CLR 19/18 A2999 RMK AO2 SLP147 T01890178,KMKO,2023-06-06T06:53:00Z,35.65,-95.37,18.9,17.8,330,5,,8.0,29.991142,1014.7,,TRUE,TRUE,,,,,,,CLR,,,,,,,,VFR,,,,,,,,,,,,METAR,184.0
KMKL 060653Z AUTO 00000KT 10SM CLR 21/19 A2996 RMK AO2 SLP139 T02060189,KMKL,2023-06-06T06:53:00Z,35.6,-88.92,20.6,18.9,0,0,,10.0,29.958662,1013.9,,TRUE,TRUE,,,,,,,CLR,,,,,,,,VFR,,,,,,,,,,,,METAR,130.0
KMIW 060653Z AUTO 00000KT 6SM HZ CLR 18/14 A3002 RMK AO2 SLP160 T01830139,KMIW,2023-06-06T06:53:00Z,42.12,-92.92,18.3,13.9,0,0,,6.0,30.02067,1016.0,,TRUE,TRUE,,,,,,HZ,CLR,,,,,,,,VFR,,,,,,,,,,,,METAR,296.0
KMIE 060653Z AUTO 28003KT 7SM CLR 16/06 A2999 RMK AO2 SLP145 T01610056,KMIE,2023-06-06T06:53:00Z,40.23,-85.4,16.1,5.6,280,3,,7.0,29.991142,1014.5,,TRUE,TRUE,,,,,,,CLR,,,,,,,,VFR,,,,,,,,,,,,METAR,286.0
KMIC 060653Z AUTO 01005KT 8SM CLR 20/17 A3002 RMK AO2 SLP160 T02000167,KMIC,2023-06-06T06:53:00Z,45.07,-93.35,20.0,16.7,10,5,,8.0,30.02067,1016.0,,TRUE,TRUE,,,,,,,CLR,,,,,,,,VFR,,,,,,,,,,,,METAR,263.0
KMIA 060653Z 04004KT 10SM FEW030 SCT065 BKN250 27/22 A2990 RMK AO2 SLP124 T02670217 $,KMIA,2023-06-06T06:53:00Z,25.8,-80.32,26.7,21.7,40,4,,10.0,29.899607,1012.4,,,TRUE,TRUE,,,,,,FEW,3000,SCT,6500,BKN,25000,,,VFR,,,,,,,,,,,,METAR,1.0
KMHT 060653Z 00000KT 10SM FEW100 11/09 A2967 RMK AO2 SLP060 T01060089,KMHT,2023-06-06T06:53:00Z,42.93,-71.43,10.6,8.9,0,0,,10.0,29.66929,1006.0,,,TRUE,,,,,,,FEW,10000,,,,,,,VFR,,,,,,,,,,,,METAR,68.0
KMHE 060653Z AUTO 20004KT 10SM CLR 23/14 A3000 RMK AO2 SLP148 T02280139,KMHE,2023-06-06T06:53:00Z,43.77,-98.03,22.8,13.9,200,4,,10.0,30.0,1014.8,,TRUE,TRUE,,,,,,,CLR,,,,,,,,VFR,,,,,,,,,,,,METAR,397.0
KMGY 060653Z AUTO 00000KT 6SM HZ CLR 14/06 A2998 RMK AO2 SLP145 T01440061,KMGY,2023-06-06T06:53:00Z,39.6,-84.23,14.4,6.1,0,0,,6.0,29.97933,1014.5,,TRUE,TRUE,,,,,,HZ,CLR,,,,,,,,VFR,,,,,,,,,,,,METAR,290.0
KMGW 060653Z AUTO 00000KT 10SM CLR 11/08 A2996 RMK AO2 SLP140 T01110083,KMGW,2023-06-06T06:53:00Z,39.65,-79.92,11.1,8.3,0,0,,10.0,29.958662,1014.0,,TRUE,TRUE,,,,,,,CLR,,,,,,,,VFR,,,,,,,,,,,,METAR,375.0
KMGM 060653Z AUTO 26004KT 10SM CLR 21/19 A2994 RMK AO2 SLP137 T02110189,KMGM,2023-06-06T06:53:00Z,32.3,-86.4,21.1,18.9,260,4,,10.0,29.940945,1013.7,,TRUE,TRUE,,,,,,,CLR,,,,,,,,VFR,,,,,,,,,,,,METAR,64.0
KMFR 060653Z AUTO 00000KT 10SM CLR 21/12 A2986 RMK AO2 SLP102 T02110117 $,KMFR,2023-06-06T06:53:00Z,42.38,-122.87,21.1,11.7,0,0,,10.0,29.861221,1010.2,,TRUE,TRUE,TRUE,,,,,,CLR,,,,,,,,VFR,,,,,,,,,,,,METAR,397.0
KMFE 060653Z AUTO 00000KT 10SM CLR 23/19 A2990 RMK AO2 SLP122 T02330189,KMFE,2023-06-06T06:53:00Z,26.18,-98.25,23.3,18.9,0,0,,10.0,29.899607,1012.2,,TRUE,TRUE,,,,,,,CLR,,,,,,,,VFR,,,,,,,,,,,,METAR,29.0
KMDW 060653Z COR 35005KT 10SM SCT100 BKN250 21/07 A3001 RMK AO2 SLP152 T02060072,KMDW,2023-06-06T06:53:00Z,41.78,-87.75,20.6,7.2,350,5,,10.0,30.008858,1015.2,TRUE,,TRUE,,,,,,,SCT,10000,BKN,25000,,,,,VFR,,,,,,,,,,,,METAR,186.0
KMCW 060653Z AUTO 23008KT 6SM HZ CLR 22/13 A3003 RMK AO2 SLP156 T02220133,KMCW,2023-06-06T06:53:00Z,43.15,-93.33,22.2,13.3,230,8,,6.0,30.029528,1015.6,,TRUE,TRUE,,,,,,HZ,CLR,,,,,,,,VFR,,,,,,,,,,,,METAR,363.0
KMCO 060653Z 02006KT 10SM CLR 22/19 A2995 RMK AO2 SLP140 T02170194,KMCO,2023-06-06T06:53:00Z,28.42,-81.33,21.7,19.4,20,6,,10.0,29.949802,1014.0,,,TRUE,,,,,,,CLR,,,,,,,,VFR,,,,,,,,,,,,METAR,27.0
KMCN 060653Z AUTO 00000KT 7SM CLR 18/18 A2994 RMK AO2 SLP134 T01830178,KMCN,2023-06-06T06:53:00Z,32.68,-83.65,18.3,17.8,0,0,,7.0,29.940945,1013.4,,TRUE,TRUE,,,,,,,CLR,,,,,,,,VFR,,,,,,,,,,,,METAR,104.0
KMCK 060653Z AUTO 00000KT 7SM CLR 16/14 A3010 RMK AO2 SLP174 T01560139 $,KMCK,2023-06-06T06:53:00Z,40.2,-100.58,15.6,13.9,0,0,,7.0,30.100393,1017.4,,TRUE,TRUE,TRUE,,,,,,CLR,,,,,,,,VFR,,,,,,,,,,,,METAR,780.0
KMCI 060653Z 00000KT 10SM CLR 19/17 A3004 RMK AO2 SLP160 T01940167,KMCI,2023-06-06T06:53:00Z,39.3,-94.73,19.4,16.7,0,0,,10.0,30.041338,1016.0,,,TRUE,,,,,,,CLR,,,,,,,,VFR,,,,,,,,,,,,METAR,308.0
KMCE 060653Z AUTO 27007KT 10SM CLR 18/10 A2972 RMK AO2 SLP064 T01780100,KMCE,2023-06-06T06:53:00Z,37.28,-120.5,17.8,10.0,270,7,,10.0,29.719488,1006.4,,TRUE,TRUE,,,,,,,CLR,,,,,,,,VFR,,,,,,,,,,,,METAR,49.0
KMCB 060653Z AUTO 00000KT 10SM CLR 18/18 A2994 RMK AO2 SLP135 T01830178,KMCB,2023-06-06T06:53:00Z,31.18,-90.47,18.3,17.8,0,0,,10.0,29.940945,1013.5,,TRUE,TRUE,,,,,,,CLR,,,,,,,,VFR,,,,,,,,,,,,METAR,124.0
KMBS 060653Z AUTO 01004KT 7SM FEW050 15/13 A2997 RMK AO2 SLP147 T01500128,KMBS,2023-06-06T06:53:00Z,43.53,-84.08,15.0,12.8,10,4,,7.0,29.970472,1014.7,,TRUE,TRUE,,,,,,,FEW,5000,,,,,,,VFR,,,,,,,,,,,,METAR,201.0
KMAI 060653Z AUTO 00000KT 10SM CLR 21/19 A2993 RMK AO2 SLP135 T02060194,KMAI,2023-06-06T06:53:00Z,30.83,-85.18,20.6,19.4,0,0,,10.0,29.929134,1013.5,,TRUE,TRUE,,,,,,,CLR,,,,,,,,VFR,,,,,,,,,,,,METAR,33.0
KMAF 060653Z AUTO 06004KT 10SM CLR 18/14 A3009 RMK AO2 SLP150 T01830144,KMAF,2023-06-06T06:53:00Z,31.95,-102.2,18.3,14.4,60,4,,10.0,30.088583,1015.0,,TRUE,TRUE,,,,,,,CLR,,,,,,,,VFR,,,,,,,,,,,,METAR,874.0
KMAE 060653Z AUTO 28007KT 10SM CLR 18/11 A2972 RMK AO2 SLP063 T01780106,KMAE,2023-06-06T06:53:00Z,36.98,-120.12,17.8,10.6,280,7,,10.0,29.719488,1006.3,,TRUE,TRUE,,,,,,,CLR,,,,,,,,VFR,,,,,,,,,,,,METAR,77.0
KLXV 060653Z AUTO 07005KT 10SM CLR 03/01 A3038 RMK AO2 SLP148 T00280006 401720011 $,KLXV,2023-06-06T06:53:00Z,39.23,-106.32,2.8,0.6,70,5,,10.0,30.380905,1014.8,,TRUE,TRUE,TRUE,,,,,,CLR,,,,,,,,VFR,,,,17.2,1.1,,,,,,,METAR,3027.0
KLXT 060653Z AUTO 12004KT 10SM CLR 21/13 A3004 RMK AO2 SLP162 T02060133,KLXT,2023-06-06T06:53:00Z,38.97,-94.37,20.6,13.3,120,4,,10.0,30.041338,1016.2,,TRUE,TRUE,,,,,,,CLR,,,,,,,,VFR,,,,,,,,,,,,METAR,306.0
KLWV 060653Z AUTO 00000KT 10SM CLR 14/10 A2999 RMK AO2 SLP152 T01440100,KLWV,2023-06-06T06:53:00Z,38.77,-87.6,14.4,10.0,0,0,,10.0,29.991142,1015.2,,TRUE,TRUE,,,,,,,CLR,,,,,,,,VFR,,,,,,,,,,,,METAR,128.0
KLWD 060653Z AUTO 19004KT 8SM CLR 17/13 A3005 RMK AO2 SLP168 T01720133,KLWD,2023-06-06T06:53:00Z,40.63,-93.9,17.2,13.3,190,4,,8.0,30.050198,1016.8,,TRUE,TRUE,,,,,,,CLR,,,,,,,,VFR,,,,,,,,,,,,METAR,345.0
KLVS 060653Z AUTO 30005KT 10SM FEW100 10/09 A3029 RMK AO2 SLP173 T01000094 401780083,KLVS,2023-06-06T06:53:00Z,35.65,-105.13,10.0,9.4,300,5,,10.0,30.28937,1017.3,,TRUE,TRUE,,,,,,,FEW,10000,,,,,,,VFR,,,,17.8,8.3,,,,,,,METAR,2095.0
KLVM 060653Z AUTO 25004KT 10SM CLR 15/11 A3003 RMK AO2 SLP127 T01500106 402670094,KLVM,2023-06-06T06:53:00Z,45.7,-110.43,15.0,10.6,250,4,,10.0,30.029528,1012.7,,TRUE,TRUE,,,,,,,CLR,,,,,,,,VFR,,,,26.7,9.4,,,,,,,METAR,1418.0
KLVK 060653Z AUTO 32008G15KT 10SM CLR 15/11 A2979 RMK AO2 SLP085 T01500106,KLVK,2023-06-06T06:53:00Z,37.7,-121.82,15.0,10.6,320,8,15,10.0,29.790354,1008.5,,TRUE,TRUE,,,,,,,CLR,,,,,,,,VFR,,,,,,,,,,,,METAR,120.0
KLVJ 060653Z AUTO 00000KT 5SM BR CLR 22/19 A2992 RMK AO2 SLP129 T02170194,KLVJ,2023-06-06T06:53:00Z,29.52,-95.25,21.7,19.4,0,0,,5.0,29.920275,1012.9,,TRUE,TRUE,,,,,,BR,CLR,,,,,,,,MVFR,,,,,,,,,,,,METAR,11.0
KLUK 060653Z AUTO 00000KT 3SM BR CLR 11/09 A2999 RMK AO2 SLP152 T01110094,KLUK,2023-06-06T06:53:00Z,39.1,-84.42,11.1,9.4,0,0,,3.0,29.991142,1015.2,,TRUE,TRUE,,,,,,BR,CLR,,,,,,,,MVFR,,,,,,,,,,,,METAR,144.0
KLSE 060653Z AUTO 20005KT 6SM HZ CLR 21/18 A2999 RMK AO2 SLP146 T02060178,KLSE,2023-06-06T06:53:00Z,43.88,-91.25,20.6,17.8,200,5,,6.0,29.991142,1014.6,,TRUE,TRUE,,,,,,HZ,CLR,,,,,,,,VFR,,,,,,,,,,,,METAR,198.0
KLPR 060653Z AUTO 22003KT 7SM BKN090 12/07 A2995 RMK AO2 SLP139 T01220072 PNO $,KLPR,2023-06-06T06:53:00Z,41.35,-82.18,12.2,7.2,220,3,,7.0,29.949802,1013.9,,TRUE,TRUE,TRUE,,,,,,BKN,9000,,,,,,,VFR,,,,,,,,,,,,METAR,241.0
KLOZ 060653Z AUTO 01004KT 10SM CLR 15/13 A2998 RMK AO2 SLP138 T01500128,KLOZ,2023-06-06T06:53:00Z,37.08,-84.07,15.0,12.8,10,4,,10.0,29.97933,1013.8,,TRUE,TRUE,,,,,,,CLR,,,,,,,,VFR,,,,,,,,,,,,METAR,361.0
KLOU 060653Z AUTO 00000KT 9SM CLR 14/13 A2997 RMK AO2 SLP145 T01390133,KLOU,2023-06-06T06:53:00Z,38.22,-85.67,13.9,13.3,0,0,,9.0,29.970472,1014.5,,TRUE,TRUE,,,,,,,CLR,,,,,,,,VFR,,,,,,,,,,,,METAR,165.0
KLOL 060653Z AUTO 34005KT 10SM CLR 16/07 A2989 RMK AO2 SLP084 T01560072,KLOL,2023-06-06T06:53:00Z,40.07,-118.57,15.6,7.2,340,5,,10.0,29.890747,1008.4,,TRUE,TRUE,,,,,,,CLR,,,,,,,,VFR,,,,,,,,,,,,METAR,1191.0
KLNS 060653Z AUTO 29005KT 10SM CLR 13/05 A2983 RMK AO2 SLP099 T01330050,KLNS,2023-06-06T06:53:00Z,40.12,-76.3,13.3,5.0,290,5,,10.0,29.828741,1009.9,,TRUE,TRUE,,,,,,,CLR,,,,,,,,VFR,,,,,,,,,,,,METAR,122.0
KLND 060653Z AUTO 21004KT 10SM CLR 13/07 A3008 RMK AO2 SLP134 T01330072 402330100,KLND,2023-06-06T06:53:00Z,42.82,-108.73,13.3,7.2,210,4,,10.0,30.079725,1013.4,,TRUE,TRUE,,,,,,,CLR,,,,,,,,VFR,,,,23.3,10.0,,,,,,,METAR,1700.0
KLMT 060653Z AUTO 23004KT 10SM CLR 14/09 A2999 RMK AO2 SLP117 T01390089,KLMT,2023-06-06T06:53:00Z,42.15,-121.72,13.9,8.9,230,4,,10.0,29.991142,1011.7,,TRUE,TRUE,,,,,,,CLR,,,,,,,,VFR,,,,,,,,,,,,METAR,1246.0
KLLQ 060653Z AUTO 27006KT 10SM CLR 21/19 A2992 RMK AO2 SLP129 T02060189,KLLQ,2023-06-06T06:53:00Z,33.63,-91.75,20.6,18.9,270,6,,10.0,29.920275,1012.9,,TRUE,TRUE,,,,,,,CLR,,,,,,,,VFR,,,,,,,,,,,,METAR,86.0
KLKV 060653Z AUTO 36014KT 10SM CLR 16/07 A3002 RMK AO2 SLP123 T01560072,KLKV,2023-06-06T06:53:00Z,42.17,-120.4,15.6,7.2,360,14,,10.0,30.02067,1012.3,,TRUE,TRUE,,,,,,,CLR,,,,,,,,VFR,,,,,,,,,,,,METAR,1440.0
KLIT 060653Z 00000KT 10SM BKN080 BKN250 24/18 A2997 RMK AO2 SLP146 T02440183,KLIT,2023-06-06T06:53:00Z,34.73,-92.23,24.4,18.3,0,0,,10.0,29.970472,1014.6,,,TRUE,,,,,,,BKN,8000,BKN,25000,,,,,VFR,,,,,,,,,,,,METAR,77.0
KLHX 060653Z AUTO 19005KT 10SM CLR 14/12 A3014 RMK AO2 SLP169 T01390117 402060133,KLHX,2023-06-06T06:53:00Z,38.05,-103.52,13.9,11.7,190,5,,10.0,30.138779,1016.9,,TRUE,TRUE,,,,,,,CLR,,,,,,,,VFR,,,,20.6,13.3,,,,,,,METAR,1289.0
KLHQ 060653Z AUTO 00000KT 7SM CLR 10/08 A2997 RMK AO2 SLP146 T01000083,KLHQ,2023-06-06T06:53:00Z,39.75,-82.67,10.0,8.3,0,0,,7.0,29.970472,1014.6,,TRUE,TRUE,,,,,,,CLR,,,,,,,,VFR,,,,,,,,,,,,METAR,259.0
KLGB 060653Z AUTO 17004KT 10SM BKN034 OVC047 16/09 A2992 RMK AO2 SLP131 T01610089,KLGB,2023-06-06T06:53:00Z,33.82,-118.15,16.1,8.9,170,4,,10.0,29.920275,1013.1,,TRUE,TRUE,,,,,,,BKN,3400,OVC,4700,,,,,VFR,,,,,,,,,,,,METAR,10.0
KLFT 060653Z AUTO 00000KT 10SM CLR 21/20 A2993 RMK AO2 SLP134 T02060200,KLFT,2023-06-06T06:53:00Z,30.2,-91.97,20.6,20.0,0,0,,10.0,29.929134,1013.4,,TRUE,TRUE,,,,,,,CLR,,,,,,,,VFR,,,,,,,,,,,,METAR,9.0
KLFK 060653Z AUTO 00000KT 10SM SCT110 21/ A2992 RMK AO2 SLP127 T0211 $,KLFK,2023-06-06T06:53:00Z,31.23,-94.75,21.1,,0,0,,10.0,29.920275,1012.7,,TRUE,TRUE,TRUE,,,,,,SCT,11000,,,,,,,VFR,,,,,,,,,,,,METAR,87.0
KLEE 060653Z AUTO 00000KT 10SM CLR 19/18 A2996 RMK AO2 SLP146 T01940183,KLEE,2023-06-06T06:53:00Z,28.82,-81.82,19.4,18.3,0,0,,10.0,29.958662,1014.6,,TRUE,TRUE,,,,,,,CLR,,,,,,,,VFR,,,,,,,,,,,,METAR,21.0
KLCH 060653Z AUTO 07006KT 8SM CLR 20/20 A2992 RMK AO2 SLP138 T02000200,KLCH,2023-06-06T06:53:00Z,30.13,-93.22,20.0,20.0,70,6,,8.0,29.920275,1013.8,,TRUE,TRUE,,,,,,,CLR,,,,,,,,VFR,,,,,,,,,,,,METAR,2.0
KLBX 060653Z AUTO 00000KT 6SM BR CLR 19/19 A2990 RMK AO2 SLP126 T01940189,KLBX,2023-06-06T06:53:00Z,29.12,-95.47,19.4,18.9,0,0,,6.0,29.899607,1012.6,,TRUE,TRUE,,,,,,BR,CLR,,,,,,,,VFR,,,,,,,,,,,,METAR,4.0
KLBB 060653Z 03006KT 10SM FEW130 FEW250 16/14 A3012 RMK AO2 SLP162 T01610144,KLBB,2023-06-06T06:53:00Z,33.67,-101.82,16.1,14.4,30,6,,10.0,30.121063,1016.2,,,TRUE,,,,,,,FEW,13000,FEW,25000,,,,,VFR,,,,,,,,,,,,METAR,996.0
KLAW 060653Z AUTO 00000KT 9SM CLR 19/17 A2999 RMK AO2 SLP143 T01940172 $,KLAW,2023-06-06T06:53:00Z,34.55,-98.42,19.4,17.2,0,0,,9.0,29.991142,1014.3,,TRUE,TRUE,TRUE,,,,,,CLR,,,,,,,,VFR,,,,,,,,,,,,METAR,328.0
KLAR 060653Z AUTO 18009KT 6SM BR CLR 09/09 A3019 RMK AO2 SLP134 T00940089 401940078 $,KLAR,2023-06-06T06:53:00Z,41.32,-105.67,9.4,8.9,180,9,,6.0,30.188976,1013.4,,TRUE,TRUE,TRUE,,,,,BR,CLR,,,,,,,,VFR,,,,19.4,7.8,,,,,,,METAR,2217.0
KLAN 060653Z AUTO 33004KT 8SM CLR 17/12 A2996 RMK AO2 SLP141 T01720117,KLAN,2023-06-06T06:53:00Z,42.78,-84.58,17.2,11.7,330,4,,8.0,29.958662,1014.1,,TRUE,TRUE,,,,,,,CLR,,,,,,,,VFR,,,,,,,,,,,,METAR,261.0
KLAA 060653Z AUTO 23006KT 10SM CLR 13/12 A3012 RMK AO2 SLP171 T01280117 402220128,KLAA,2023-06-06T06:53:00Z,38.07,-102.68,12.8,11.7,230,6,,10.0,30.121063,1017.1,,TRUE,TRUE,,,,,,,CLR,,,,,,,,VFR,,,,22.2,12.8,,,,,,,METAR,1129.0
KJLN 060653Z AUTO 00000KT 9SM CLR 18/16 A3001 RMK AO2 SLP151 T01830156,KJLN,2023-06-06T06:53:00Z,37.15,-94.5,18.3,15.6,0,0,,9.0,30.008858,1015.1,,TRUE,TRUE,,,,,,,CLR,,,,,,,,VFR,,,,,,,,,,,,METAR,297.0
KJKL 060653Z AUTO 00000KT CLR 16/11 A2999 RMK AO2 SLP141 T01610106 $,KJKL,2023-06-06T06:53:00Z,37.6,-83.32,16.1,10.6,0,0,,,29.991142,1014.1,,TRUE,TRUE,TRUE,,,,,,CLR,,,,,,,,,,,,,,,,,,,,METAR,414.0
KJER 060653Z AUTO 13004KT 10SM CLR 16/08 A2996 RMK AO2 SLP113 T01610078 402610106,KJER,2023-06-06T06:53:00Z,42.72,-114.45,16.1,7.8,130,4,,10.0,29.958662,1011.3,,TRUE,TRUE,,,,,,,CLR,,,,,,,,VFR,,,,26.1,10.6,,,,,,,METAR,1226.0
KJEF 060653Z AUTO 00000KT 10SM CLR 16/12 A3003 RMK AO2 SLP154 T01560117,KJEF,2023-06-06T06:53:00Z,38.6,-92.15,15.6,11.7,0,0,,10.0,30.029528,1015.4,,TRUE,TRUE,,,,,,,CLR,,,,,,,,VFR,,,,,,,,,,,,METAR,167.0
KJBR 060653Z AUTO 03006KT 10SM CLR 22/12 A2996 RMK AO2 SLP142 T02220122 $,KJBR,2023-06-06T06:53:00Z,35.83,-90.65,22.2,12.2,30,6,,10.0,29.958662,1014.2,,TRUE,TRUE,TRUE,,,,,,CLR,,,,,,,,VFR,,,,,,,,,,,,METAR,79.0
KIXD 060653Z AUTO 24003KT 9SM CLR 17/17 A3005 RMK AO2 SLP164 T01720167 $,KIXD,2023-06-06T06:53:00Z,38.82,-94.88,17.2,16.7,240,3,,9.0,30.050198,1016.4,,TRUE,TRUE,TRUE,,,,,,CLR,,,,,,,,VFR,,,,,,,,,,,,METAR,322.0
KIWI 060653Z AUTO 00000KT 10SM CLR 11/09 A2963 RMK AO2 SLP032 T01060089,KIWI,2023-06-06T06:53:00Z,43.97,-69.72,10.6,8.9,0,0,,10.0,29.630905,1003.2,,TRUE,TRUE,,,,,,,CLR,,,,,,,,VFR,,,,,,,,,,,,METAR,16.0
KITR 060653Z AUTO 19008KT 10SM CLR 13/11 A3015 RMK AO2 SLP170 T01330111 402440100,KITR,2023-06-06T06:53:00Z,39.23,-102.28,13.3,11.1,190,8,,10.0,30.15059,1017.0,,TRUE,TRUE,,,,,,,CLR,,,,,,,,VFR,,,,24.4,10.0,,,,,,,METAR,1285.0
KIPL 060653Z AUTO 30013KT 10SM CLR 20/06 A2968 RMK AO2 SLP052 T02000056,KIPL,2023-06-06T06:53:00Z,32.83,-115.58,20.0,5.6,300,13,,10.0,29.681103,1005.2,,TRUE,TRUE,,,,,,,CLR,,,,,,,,VFR,,,,,,,,,,,,METAR,-16.0
KINK 060653Z AUTO 06008KT 10SM CLR 21/13 A3006 RMK AO2 SLP138 T02110128,KINK,2023-06-06T06:53:00Z,31.78,-103.2,21.1,12.8,60,8,,10.0,30.059055,1013.8,,TRUE,TRUE,,,,,,,CLR,,,,,,,,VFR,,,,,,,,,,,,METAR,857.0
KIML 060653Z AUTO 21005KT 9SM CLR 16/12 A3011 RMK AO2 SLP174 T01560122 402610133 $,KIML,2023-06-06T06:53:00Z,40.52,-101.62,15.6,12.2,210,5,,9.0,30.109253,1017.4,,TRUE,TRUE,TRUE,,,,,,CLR,,,,,,,,VFR,,,,26.1,13.3,,,,,,,METAR,997.0
KILM 060653Z AUTO 24005KT 10SM CLR 17/14 A2993 RMK AO2 SLP134 T01670144 $,KILM,2023-06-06T06:53:00Z,34.27,-77.9,16.7,14.4,240,5,,10.0,29.929134,1013.4,,TRUE,TRUE,TRUE,,,,,,CLR,,,,,,,,VFR,,,,,,,,,,,,METAR,9.0
KIDA 060653Z AUTO 00000KT 10SM CLR 13/09 A3003 RMK AO2 SLP131 T01280094 402670078,KIDA,2023-06-06T06:53:00Z,43.52,-112.07,12.8,9.4,0,0,,10.0,30.029528,1013.1,,TRUE,TRUE,,,,,,,CLR,,,,,,,,VFR,,,,26.7,7.8,,,,,,,METAR,1444.0
KICT 060653Z 33006KT 10SM CLR 18/16 A3003 RMK AO2 SLP157 T01830156,KICT,2023-06-06T06:53:00Z,37.65,-97.43,18.3,15.6,330,6,,10.0,30.029528,1015.7,,,TRUE,,,,,,,CLR,,,,,,,,VFR,,,,,,,,,,,,METAR,428.0
KICR 060653Z AUTO VRB03KT 10SM CLR 20/13 A3003 RMK AO2 SLP154 T02000133,KICR,2023-06-06T06:53:00Z,43.38,-99.85,20.0,13.3,0,3,,10.0,30.029528,1015.4,,TRUE,TRUE,,,,,,,CLR,,,,,,,,VFR,,,,,,,,,,,,METAR,618.0
KIAH 060653Z 03004KT 10SM SCT200 21/19 A2990 RMK AO2 SLP126 T02060194,KIAH,2023-06-06T06:53:00Z,30.0,-95.37,20.6,19.4,30,4,,10.0,29.899607,1012.6,,,TRUE,,,,,,,SCT,20000,,,,,,,VFR,,,,,,,,,,,,METAR,27.0
KIAG 060653Z AUTO 00000KT 10SM SCT100 13/11 A2984 RMK AO2 SLP106 T01330106 $,KIAG,2023-06-06T06:53:00Z,43.12,-78.93,13.3,10.6,0,0,,10.0,29.840551,1010.6,,TRUE,TRUE,TRUE,,,,,,SCT,10000,,,,,,,VFR,,,,,,,,,,,,METAR,179.0
KHZY 060653Z AUTO 00000KT 10SM CLR 09/06 A2992 RMK AO2 SLP130 T00940056,KHZY,2023-06-06T06:53:00Z,41.78,-80.7,9.4,5.6,0,0,,10.0,29.920275,1013.0,,TRUE,TRUE,,,,,,,CLR,,,,,,,,VFR,,,,,,,,,,,,METAR,279.0
KHYR 060653Z AUTO 03004KT 4SM BR CLR 13/12 A3008 RMK AO2 SLP184 T01280117,KHYR,2023-06-06T06:53:00Z,46.02,-91.45,12.8,11.7,30,4,,4.0,30.079725,1018.4,,TRUE,TRUE,,,,,,BR,CLR,,,,,,,,MVFR,,,,,,,,,,,,METAR,369.0
KHWO 060653Z AUTO 04003KT CLR 25/21 A2991 RMK AO2 SLP128 T02500211,KHWO,2023-06-06T06:53:00Z,26.0,-80.23,25.0,21.1,40,3,,,29.911417,1012.8,,TRUE,TRUE,,,,,,,CLR,,,,,,,,,,,,,,,,,,,,METAR,2.0
KHVR 060653Z AUTO 21011KT 10SM CLR 19/15 A2991 RMK AO2 LTG DSNT S SLP111 T01940150 402890156,KHVR,2023-06-06T06:53:00Z,48.55,-109.77,19.4,15.0,210,11,,10.0,29.911417,1011.1,,TRUE,TRUE,,,,,,,CLR,,,,,,,,VFR,,,,28.9,15.6,,,,,,,METAR,789.0
KHVN 060653Z AUTO 00000KT 10SM CLR 11/09 A2973 RMK AO2 SLP066 T01110094,KHVN,2023-06-06T06:53:00Z,41.27,-72.88,11.1,9.4,0,0,,10.0,29.731298,1006.6,,TRUE,TRUE,,,,,,,CLR,,,,,,,,VFR,,,,,,,,,,,,METAR,4.0
KHUL 060653Z AUTO 35012G17KT 10SM -RA OVC016 09/07 A2958 RMK AO2 RAB50 SLP019 P0000 T00940067,KHUL,2023-06-06T06:53:00Z,46.12,-67.8,9.4,6.7,350,12,17,10.0,29.58071,1001.9,,TRUE,TRUE,,,,,,-RA,OVC,1600,,,,,,,MVFR,,,,,,0.005,,,,,,METAR,148.0
KHUF 060653Z 00000KT 9SM CLR 13/09 A3000 RMK AO2 SLP156 T01330089,KHUF,2023-06-06T06:53:00Z,39.45,-87.32,13.3,8.9,0,0,,9.0,30.0,1015.6,,,TRUE,,,,,,,CLR,,,,,,,,VFR,,,,,,,,,,,,METAR,174.0
KHSV 060653Z AUTO 00000KT 10SM CLR 21/19 A2996 RMK AO2 LTG DSNT N SLP137 T02060189,KHSV,2023-06-06T06:53:00Z,34.65,-86.78,20.6,18.9,0,0,,10.0,29.958662,1013.7,,TRUE,TRUE,,,,,,,CLR,,,,,,,,VFR,,,,,,,,,,,,METAR,190.0
KHSI 060653Z AUTO 17003KT 10SM CLR 19/15 A3007 RMK AO2 SLP165 T01890150,KHSI,2023-06-06T06:53:00Z,40.6,-98.43,18.9,15.0,170,3,,10.0,30.070866,1016.5,,TRUE,TRUE,,,,,,,CLR,,,,,,,,VFR,,,,,,,,,,,,METAR,592.0
KHRO 060653Z AUTO 01003KT 10SM CLR 18/16 A3002 RMK AO2 SLP151 T01830161,KHRO,2023-06-06T06:53:00Z,36.27,-93.15,18.3,16.1,10,3,,10.0,30.02067,1015.1,,TRUE,TRUE,,,,,,,CLR,,,,,,,,VFR,,,,,,,,,,,,METAR,417.0
KHRI 060653Z AUTO 16006KT 10SM CLR 17/07 A2986 RMK AO2 SLP105 T01720067,KHRI,2023-06-06T06:53:00Z,45.83,-119.27,17.2,6.7,160,6,,10.0,29.861221,1010.5,,TRUE,TRUE,,,,,,,CLR,,,,,,,,VFR,,,,,,,,,,,,METAR,194.0
KHQM 060653Z AUTO 00000KT 10SM CLR 13/08 A3001 RMK AO2 SLP166 T01280078,KHQM,2023-06-06T06:53:00Z,46.97,-123.93,12.8,7.8,0,0,,10.0,30.008858,1016.6,,TRUE,TRUE,,,,,,,CLR,,,,,,,,VFR,,,,,,,,,,,,METAR,4.0
KHOU 060653Z 00000KT 9SM FEW130 BKN250 22/20 A2990 RMK AO2 SLP130 T02170200,KHOU,2023-06-06T06:53:00Z,29.63,-95.28,21.7,20.0,0,0,,9.0,29.899607,1013.0,,,TRUE,,,,,,,FEW,13000,BKN,25000,,,,,VFR,,,,,,,,,,,,METAR,13.0
KHOT 060653Z AUTO 06003KT 9SM CLR 21/18 A2997 RMK AO2 SLP141 T02060183,KHOT,2023-06-06T06:53:00Z,34.48,-93.1,20.6,18.3,60,3,,9.0,29.970472,1014.1,,TRUE,TRUE,,,,,,,CLR,,,,,,,,VFR,,,,,,,,,,,,METAR,153.0
KHLN 060653Z AUTO 00000KT 10SM FEW095 16/10 A3001 RMK AO2 SLP148 T01560100 402720133,KHLN,2023-06-06T06:53:00Z,46.6,-111.98,15.6,10.0,0,0,,10.0,30.008858,1014.8,,TRUE,TRUE,,,,,,,FEW,9500,,,,,,,VFR,,,,27.2,13.3,,,,,,,METAR,1178.0
KHLG 060653Z AUTO 00000KT 10SM CLR 13/07 A2995 RMK AO2 SLP138 T01280072,KHLG,2023-06-06T06:53:00Z,40.17,-80.65,12.8,7.2,0,0,,10.0,29.949802,1013.8,,TRUE,TRUE,,,,,,,CLR,,,,,,,,VFR,,,,,,,,,,,,METAR,365.0
KHLC 060653Z AUTO 00000KT 10SM CLR 17/13 A3008 RMK AO2 SLP171 T01720133,KHLC,2023-06-06T06:53:00Z,39.37,-99.83,17.2,13.3,0,0,,10.0,30.079725,1017.1,,TRUE,TRUE,,,,,,,CLR,,,,,,,,VFR,,,,,,,,,,,,METAR,667.0
KHKS 060653Z AUTO 00000KT 9SM CLR 20/19 A2994 RMK AO2 SLP129 T02000194,KHKS,2023-06-06T06:53:00Z,32.33,-90.22,20.0,19.4,0,0,,9.0,29.940945,1012.9,,TRUE,TRUE,,,,,,,CLR,,,,,,,,VFR,,,,,,,,,,,,METAR,103.0
KHKA 060653Z AUTO 36004KT 10SM CLR 19/16 A2994 RMK AO2 SLP137 T01940156 $,KHKA,2023-06-06T06:53:00Z,35.93,-89.83,19.4,15.6,360,4,,10.0,29.940945,1013.7,,TRUE,TRUE,TRUE,,,,,,CLR,,,,,,,,VFR,,,,,,,,,,,,METAR,78.0
KHJO 060653Z AUTO 10SM 19/12 A2975 RMK AO2 SLPNO T01890117 $,KHJO,2023-06-06T06:53:00Z,36.32,-119.62,18.9,11.7,,,,10.0,29.749016,,,TRUE,TRUE,TRUE,,,,,,,,,,,,,,,,,,,,,,,,,,METAR,73.0
KHIO 060653Z AUTO 29009KT 10SM CLR 16/04 A2992 RMK AO2 SLP129 T01610039,KHIO,2023-06-06T06:53:00Z,45.55,-122.95,16.1,3.9,290,9,,10.0,29.920275,1012.9,,TRUE,TRUE,,,,,,,CLR,,,,,,,,VFR,,,,,,,,,,,,METAR,62.0
KHIB 060653Z AUTO 13003KT 5SM BR CLR 11/10 A3010 RMK AO2 SLP194 T01110100,KHIB,2023-06-06T06:53:00Z,47.38,-92.83,11.1,10.0,130,3,,5.0,30.100393,1019.4,,TRUE,TRUE,,,,,,BR,CLR,,,,,,,,MVFR,,,,,,,,,,,,METAR,409.0
KHHR 060653Z AUTO 14003KT 10SM FEW031 OVC046 18/10 A2992 RMK AO2 SLP131 T01830100,KHHR,2023-06-06T06:53:00Z,33.92,-118.33,18.3,10.0,140,3,,10.0,29.920275,1013.1,,TRUE,TRUE,,,,,,,FEW,3100,OVC,4600,,,,,VFR,,,,,,,,,,,,METAR,21.0
KHGR 060653Z AUTO 00000KT 10SM CLR 16/05 A2988 RMK AO2 SLP123 T01560050,KHGR,2023-06-06T06:53:00Z,39.7,-77.73,15.6,5.0,0,0,,10.0,29.878937,1012.3,,TRUE,TRUE,,,,,,,CLR,,,,,,,,VFR,,,,,,,,,,,,METAR,206.0
KHFD 060653Z AUTO 00000KT 10SM CLR 13/11 A2972 RMK AO2 SLP065 T01280111,KHFD,2023-06-06T06:53:00Z,41.73,-72.65,12.8,11.1,0,0,,10.0,29.719488,1006.5,,TRUE,TRUE,,,,,,,CLR,,,,,,,,VFR,,,,,,,,,,,,METAR,3.0
KHEI 060653Z AUTO 14004KT 10SM CLR 18/14 A3002 RMK AO2 SLP148 T01780139 403060133,KHEI,2023-06-06T06:53:00Z,46.02,-102.65,17.8,13.9,140,4,,10.0,30.02067,1014.8,,TRUE,TRUE,,,,,,,CLR,,,,,,,,VFR,,,,30.6,13.3,,,,,,,METAR,824.0
KHBR 060653Z AUTO 00000KT 9SM CLR 18/16 A3002 RMK AO2 SLP150 T01830161,KHBR,2023-06-06T06:53:00Z,34.98,-99.05,18.3,16.1,0,0,,9.0,30.02067,1015.0,,TRUE,TRUE,,,,,,,CLR,,,,,,,,VFR,,,,,,,,,,,,METAR,475.0
KHBG 060653Z AUTO 00000KT 10SM CLR 19/19 A2995 RMK AO2 SLP140 T01940189,KHBG,2023-06-06T06:53:00Z,31.27,-89.25,19.4,18.9,0,0,,10.0,29.949802,1014.0,,TRUE,TRUE,,,,,,,CLR,,,,,,,,VFR,,,,,,,,,,,,METAR,45.0
KHAO 060653Z AUTO 00000KT 5SM BR CLR 10/08 A2999 RMK AO2 SLP153 T01000078 $,KHAO,2023-06-06T06:53:00Z,39.37,-84.52,10.0,7.8,0,0,,5.0,29.991142,1015.3,,TRUE,TRUE,TRUE,,,,,BR,CLR,,,,,,,,MVFR,,,,,,,,,,,,METAR,185.0
KGWO 060653Z AUTO 00000KT 10SM CLR 22/19 A2993 RMK AO2 SLP132 T02170189,KGWO,2023-06-06T06:53:00Z,33.5,-90.08,21.7,18.9,0,0,,10.0,29.929134,1013.2,,TRUE,TRUE,,,,,,,CLR,,,,,,,,VFR,,,,,,,,,,,,METAR,42.0
KGVL 060653Z AUTO 28003KT 10SM CLR 22/18 A2997 RMK AO2 LTG DSNT N AND NW SLP132 T02170178,KGVL,2023-06-06T06:53:00Z,34.27,-83.83,21.7,17.8,280,3,,10.0,29.970472,1013.2,,TRUE,TRUE,,,,,,,CLR,,,,,,,,VFR,,,,,,,,,,,,METAR,387.0
KGUY 060653Z AUTO 27005KT 10SM CLR 16/14 A3013 RMK AO2 SLP165 T01560139,KGUY,2023-06-06T06:53:00Z,36.68,-101.5,15.6,13.9,270,5,,10.0,30.129921,1016.5,,TRUE,TRUE,,,,,,,CLR,,,,,,,,VFR,,,,,,,,,,,,METAR,950.0
KGUP 060653Z AUTO 09004KT 10SM CLR 14/04 A3012 RMK AO2 SLP085 T01390044 402610067,KGUP,2023-06-06T06:53:00Z,35.52,-108.8,13.9,4.4,90,4,,10.0,30.121063,1008.5,,TRUE,TRUE,,,,,,,CLR,,,,,,,,VFR,,,,26.1,6.7,,,,,,,METAR,1972.0
KGTF 060653Z 22007KT 10SM CLR 14/12 A2997 RMK AO2 SLP125 T01390122 402670117,KGTF,2023-06-06T06:53:00Z,47.47,-111.38,13.9,12.2,220,7,,10.0,29.970472,1012.5,,,TRUE,,,,,,,CLR,,,,,,,,VFR,,,,26.7,11.7,,,,,,,METAR,1117.0
KGSP 060653Z AUTO 23004KT 10SM CLR 18/16 A2994 RMK AO2 SLP129 T01830161,KGSP,2023-06-06T06:53:00Z,34.9,-82.22,18.3,16.1,230,4,,10.0,29.940945,1012.9,,TRUE,TRUE,,,,,,,CLR,,,,,,,,VFR,,,,,,,,,,,,METAR,285.0
KGSH 060653Z AUTO 26003KT 10SM CLR 16/08 A2998 RMK AO2 SLP148 T01610083,KGSH,2023-06-06T06:53:00Z,41.53,-85.78,16.1,8.3,260,3,,10.0,29.97933,1014.8,,TRUE,TRUE,,,,,,,CLR,,,,,,,,VFR,,,,,,,,,,,,METAR,252.0
KGRR 060653Z AUTO 35003KT 7SM CLR 18/13 A2997 RMK AO2 SLP145 T01830128,KGRR,2023-06-06T06:53:00Z,42.88,-85.52,18.3,12.8,350,3,,7.0,29.970472,1014.5,,TRUE,TRUE,,,,,,,CLR,,,,,,,,VFR,,,,,,,,,,,,METAR,239.0
KGRI 060653Z AUTO 19006KT 10SM CLR 19/14 A3005 RMK AO2 SLP165 T01890144,KGRI,2023-06-06T06:53:00Z,40.97,-98.32,18.9,14.4,190,6,,10.0,30.050198,1016.5,,TRUE,TRUE,,,,,,,CLR,,,,,,,,VFR,,,,,,,,,,,,METAR,562.0
KGRB 060653Z AUTO 03008KT 10SM BKN055 OVC065 19/13 A3005 RMK AO2 SLP172 T01890128,KGRB,2023-06-06T06:53:00Z,44.48,-88.13,18.9,12.8,30,8,,10.0,30.050198,1017.2,,TRUE,TRUE,,,,,,,BKN,5500,OVC,6500,,,,,VFR,,,,,,,,,,,,METAR,209.0
KGPT 060653Z AUTO 04005KT 10SM CLR 22/21 A2992 RMK AO2 SLP130 T02170206,KGPT,2023-06-06T06:53:00Z,30.42,-89.08,21.7,20.6,40,5,,10.0,29.920275,1013.0,,TRUE,TRUE,,,,,,,CLR,,,,,,,,VFR,,,,,,,,,,,,METAR,5.0
KGOK 060653Z AUTO 00000KT 10SM CLR 18/16 A2998 RMK AO2 SLP142 T01830156 $,KGOK,2023-06-06T06:53:00Z,35.85,-97.4,18.3,15.6,0,0,,10.0,29.97933,1014.2,,TRUE,TRUE,TRUE,,,,,,CLR,,,,,,,,VFR,,,,,,,,,,,,METAR,326.0
KGNV 060653Z AUTO 00000KT 10SM CLR 17/16 A2998 RMK AO2 SLP151 T01720161,KGNV,2023-06-06T06:53:00Z,29.7,-82.28,17.2,16.1,0,0,,10.0,29.97933,1015.1,,TRUE,TRUE,,,,,,,CLR,,,,,,,,VFR,,,,,,,,,,,,METAR,41.0
KGMU 060653Z AUTO 00000KT 10SM FEW070 SCT085 20/17 A2995 RMK AO2 SLP132 T02000172,KGMU,2023-06-06T06:53:00Z,34.85,-82.35,20.0,17.2,0,0,,10.0,29.949802,1013.2,,TRUE,TRUE,,,,,,,FEW,7000,SCT,8500,,,,,VFR,,,,,,,,,,,,METAR,309.0
KGLR 060653Z AUTO 05008KT 10SM FEW065 17/09 A3002 RMK AO2 SLP160 T01670094,KGLR,2023-06-06T06:53:00Z,45.02,-84.68,16.7,9.4,50,8,,10.0,30.02067,1016.0,,TRUE,TRUE,,,,,,,FEW,6500,,,,,,,VFR,,,,,,,,,,,,METAR,403.0
KGLH 060653Z AUTO 34005KT 10SM CLR 21/19 A2991 RMK AO2 RAE28 SLP135 P0000 T02060189,KGLH,2023-06-06T06:53:00Z,33.47,-90.98,20.6,18.9,340,5,,10.0,29.911417,1013.5,,TRUE,TRUE,,,,,,,CLR,,,,,,,,VFR,,,,,,0.005,,,,,,METAR,40.0
KGLD 060653Z AUTO 21005KT 10SM CLR 16/12 A3012 RMK AO2 SLP164 T01610117 402560106,KGLD,2023-06-06T06:53:00Z,39.37,-101.7,16.1,11.7,210,5,,10.0,30.121063,1016.4,,TRUE,TRUE,,,,,,,CLR,,,,,,,,VFR,,,,25.6,10.6,,,,,,,METAR,1111.0
KGKY 060653Z AUTO 00000KT 10SM CLR 21/18 A2995 RMK AO2 SLP134 T02060183,KGKY,2023-06-06T06:53:00Z,32.67,-97.1,20.6,18.3,0,0,,10.0,29.949802,1013.4,,TRUE,TRUE,,,,,,,CLR,,,,,,,,VFR,,,,,,,,,,,,METAR,189.0
KGKJ 060653Z AUTO 23003KT 10SM CLR 13/05 A2992 RMK AO2 SLP125 T01330050,KGKJ,2023-06-06T06:53:00Z,41.63,-80.22,13.3,5.0,230,3,,10.0,29.920275,1012.5,,TRUE,TRUE,,,,,,,CLR,,,,,,,,VFR,,,,,,,,,,,,METAR,428.0
KGJT 060653Z AUTO 09012KT 10SM CLR 19/04 A3001 RMK AO2 SLP095 T01890039 403060156,KGJT,2023-06-06T06:53:00Z,39.13,-108.53,18.9,3.9,90,12,,10.0,30.008858,1009.5,,TRUE,TRUE,,,,,,,CLR,,,,,,,,VFR,,,,30.6,15.6,,,,,,,METAR,1475.0
KGIF 060653Z AUTO 05005KT 10SM CLR 21/19 A2996 RMK AO2 SLP144 T02110189,KGIF,2023-06-06T06:53:00Z,28.07,-81.75,21.1,18.9,50,5,,10.0,29.958662,1014.4,,TRUE,TRUE,,,,,,,CLR,,,,,,,,VFR,,,,,,,,,,,,METAR,44.0
KGGW 060653Z AUTO 10010KT 10SM CLR 21/16 A2989 RMK AO2 SLP108 T02060161 403170189,KGGW,2023-06-06T06:53:00Z,48.22,-106.62,20.6,16.1,100,10,,10.0,29.890747,1010.8,,TRUE,TRUE,,,,,,,CLR,,,,,,,,VFR,,,,31.7,18.9,,,,,,,METAR,698.0
KGGG 060653Z AUTO 30003KT 10SM -RA OVC120 20/18 A2992 RMK AO2 SLP127 P0025 T02000183,KGGG,2023-06-06T06:53:00Z,32.38,-94.72,20.0,18.3,300,3,,10.0,29.920275,1012.7,,TRUE,TRUE,,,,,,-RA,OVC,12000,,,,,,,VFR,,,,,,0.25,,,,,,METAR,107.0
KGFL 060653Z AUTO 00000KT 8SM BKN055 09/07 A2973 RMK AO2 SLP069 T00890067,KGFL,2023-06-06T06:53:00Z,43.33,-73.62,8.9,6.7,0,0,,8.0,29.731298,1006.9,,TRUE,TRUE,,,,,,,BKN,5500,,,,,,,VFR,,,,,,,,,,,,METAR,99.0
KGFK 060653Z 16005KT 10SM CLR 21/17 A2997 RMK AO2 SLP144 T02110172,KGFK,2023-06-06T06:53:00Z,47.95,-97.18,21.1,17.2,160,5,,10.0,29.970472,1014.4,,,TRUE,,,,,,,CLR,,,,,,,,VFR,,,,,,,,,,,,METAR,256.0
KGEZ 060653Z AUTO 00000KT 7SM CLR 15/07 A2998 RMK AO2 SLP147 T01500067,KGEZ,2023-06-06T06:53:00Z,39.58,-85.8,15.0,6.7,0,0,,7.0,29.97933,1014.7,,TRUE,TRUE,,,,,,,CLR,,,,,,,,VFR,,,,,,,,,,,,METAR,245.0
KGEY 060653Z AUTO 11003KT 10SM CLR 18/11 A2997 RMK AO2 SLP110 T01780106 403060117 $,KGEY,2023-06-06T06:53:00Z,44.52,-108.08,17.8,10.6,110,3,,10.0,29.970472,1011.0,,TRUE,TRUE,TRUE,,,,,,CLR,,,,,,,,VFR,,,,30.6,11.7,,,,,,,METAR,1191.0
KGEG 060653Z 23003KT 10SM CLR 19/M01 A2996 RMK AO2 SLP127 T01891006,KGEG,2023-06-06T06:53:00Z,47.62,-117.53,18.9,-0.6,230,3,,10.0,29.958662,1012.7,,,TRUE,,,,,,,CLR,,,,,,,,VFR,,,,,,,,,,,,METAR,718.0
KGCC 060653Z AUTO 17009KT 10SM CLR 16/09 A3004 RMK AO2 SLP128 T01610094 402560094,KGCC,2023-06-06T06:53:00Z,44.33,-105.55,16.1,9.4,170,9,,10.0,30.041338,1012.8,,TRUE,TRUE,,,,,,,CLR,,,,,,,,VFR,,,,25.6,9.4,,,,,,,METAR,1328.0
KGAG 060653Z AUTO 00000KT 10SM CLR 17/14 A3007 RMK AO2 SLP159 T01670144,KGAG,2023-06-06T06:53:00Z,36.3,-99.77,16.7,14.4,0,0,,10.0,30.070866,1015.9,,TRUE,TRUE,,,,,,,CLR,,,,,,,,VFR,,,,,,,,,,,,METAR,670.0
KFYV 060653Z AUTO 00000KT 7SM CLR 19/17 A3001 RMK AO2 SLP148 T01890167,KFYV,2023-06-06T06:53:00Z,36.02,-94.17,18.9,16.7,0,0,,7.0,30.008858,1014.8,,TRUE,TRUE,,,,,,,CLR,,,,,,,,VFR,,,,,,,,,,,,METAR,377.0
KFWN 060653Z AUTO 00000KT 7SM OVC050 10/05 A2979 RMK AO2 SLP088 T01000050,KFWN,2023-06-06T06:53:00Z,41.2,-74.63,10.0,5.0,0,0,,7.0,29.790354,1008.8,,TRUE,TRUE,,,,,,,OVC,5000,,,,,,,VFR,,,,,,,,,,,,METAR,129.0
KFUL 060653Z AUTO VRB03KT 10SM OVC047 16/09 A2991 RMK AO2 SLP128 T01610094,KFUL,2023-06-06T06:53:00Z,33.87,-117.98,16.1,9.4,0,3,,10.0,29.911417,1012.8,,TRUE,TRUE,,,,,,,OVC,4700,,,,,,,VFR,,,,,,,,,,,,METAR,23.0
KFTY 060653Z 00000KT 10SM CLR 21/18 A2994 RMK AO2 SLP130 T02060178,KFTY,2023-06-06T06:53:00Z,33.78,-84.52,20.6,17.8,0,0,,10.0,29.940945,1013.0,,,TRUE,,,,,,,CLR,,,,,,,,VFR,,,,,,,,,,,,METAR,245.0
KFTW 060653Z 00000KT 10SM CLR 21/19 A2995 RMK AO2 SLP133 T02110189,KFTW,2023-06-06T06:53:00Z,32.83,-97.37,21.1,18.9,0,0,,10.0,29.949802,1013.3,,,TRUE,,,,,,,CLR,,,,,,,,VFR,,,,,,,,,,,,METAR,213.0
KFST 060653Z AUTO 13006KT 10SM CLR 22/14 A3007 RMK AO2 SLP136 T02170139,KFST,2023-06-06T06:53:00Z,30.92,-102.92,21.7,13.9,130,6,,10.0,30.070866,1013.6,,TRUE,TRUE,,,,,,,CLR,,,,,,,,VFR,,,,,,,,,,,,METAR,917.0
KFSM 060653Z AUTO 01006KT 10SM CLR 21/17 A2997 RMK AO2 SLP142 T02060172 $,KFSM,2023-06-06T06:53:00Z,35.33,-94.37,20.6,17.2,10,6,,10.0,29.970472,1014.2,,TRUE,TRUE,TRUE,,,,,,CLR,,,,,,,,VFR,,,,,,,,,,,,METAR,136.0
KFRG 060653Z AUTO 34004KT 9SM CLR 17/08 A2974 RMK AO2 SLP071 T01670078 $,KFRG,2023-06-06T06:53:00Z,40.73,-73.42,16.7,7.8,340,4,,9.0,29.740158,1007.1,,TRUE,TRUE,TRUE,,,,,,CLR,,,,,,,,VFR,,,,,,,,,,,,METAR,23.0
KFPR 060653Z AUTO 05003KT 10SM CLR 23/17 A2994 RMK AO2 SLP137 T02280172,KFPR,2023-06-06T06:53:00Z,27.5,-80.38,22.8,17.2,50,3,,10.0,29.940945,1013.7,,TRUE,TRUE,,,,,,,CLR,,,,,,,,VFR,,,,,,,,,,,,METAR,7.0
KFOE 060653Z AUTO 16003KT 10SM CLR 17/16 A3004 RMK AO2 SLP161 T01670156 PNO $,KFOE,2023-06-06T06:53:00Z,38.93,-95.65,16.7,15.6,160,3,,10.0,30.041338,1016.1,,TRUE,TRUE,TRUE,,,,,,CLR,,,,,,,,VFR,,,,,,,,,,,,METAR,315.0
KFNT 060653Z AUTO 28003KT 9SM SCT085 14/11 A2995 RMK AO2 SLP141 T01390111,KFNT,2023-06-06T06:53:00Z,42.97,-83.75,13.9,11.1,280,3,,9.0,29.949802,1014.1,,TRUE,TRUE,,,,,,,SCT,8500,,,,,,,VFR,,,,,,,,,,,,METAR,235.0
KFNB 060653Z AUTO 00000KT 7SM CLR 17/16 A3004 RMK AO2 SLP163 T01670161,KFNB,2023-06-06T06:53:00Z,40.07,-95.58,16.7,16.1,0,0,,7.0,30.041338,1016.3,,TRUE,TRUE,,,,,,,CLR,,,,,,,,VFR,,,,,,,,,,,,METAR,301.0
KFMY 060653Z AUTO 06006KT 10SM CLR 23/19 A2991 RMK AO2 SLP129 T02280189,KFMY,2023-06-06T06:53:00Z,26.58,-81.87,22.8,18.9,60,6,,10.0,29.911417,1012.9,,TRUE,TRUE,,,,,,,CLR,,,,,,,,VFR,,,,,,,,,,,,METAR,4.0
KFLO 060653Z AUTO 20004KT 10SM CLR 17/14 A2994 RMK AO2 SLP137 T01670144,KFLO,2023-06-06T06:53:00Z,34.18,-79.73,16.7,14.4,200,4,,10.0,29.940945,1013.7,,TRUE,TRUE,,,,,,,CLR,,,,,,,,VFR,,,,,,,,,,,,METAR,43.0
KFLL 060653Z 05005KT 10SM SCT026 SCT080 26/22 A2989 RMK AO2 SLP121 T02560222,KFLL,2023-06-06T06:53:00Z,26.07,-80.15,25.6,22.2,50,5,,10.0,29.890747,1012.1,,,TRUE,,,,,,,SCT,2600,SCT,8000,,,,,VFR,,,,,,,,,,,,METAR,1.0
KFLD 060653Z AUTO 05004KT 10SM -RA BKN090 19/13 A3004 RMK AO2 RAB09 SLP166 P0000 T01940128,KFLD,2023-06-06T06:53:00Z,43.77,-88.48,19.4,12.8,50,4,,10.0,30.041338,1016.6,,TRUE,TRUE,,,,,,-RA,BKN,9000,,,,,,,VFR,,,,,,0.005,,,,,,METAR,242.0
KFHR 060653Z AUTO 00000KT 10SM CLR 10/02 A3005 RMK AO2 SLP174 T01000017,KFHR,2023-06-06T06:53:00Z,48.52,-123.03,10.0,1.7,0,0,,10.0,30.050198,1017.4,,TRUE,TRUE,,,,,,,CLR,,,,,,,,VFR,,,,,,,,,,,,METAR,34.0
KFFT 060653Z AUTO A2998 RMK AO2 SLPNO PWINO $,KFFT,2023-06-06T06:53:00Z,38.18,-84.9,,,,,,,29.97933,,,TRUE,TRUE,TRUE,,,,TRUE,,,,,,,,,,,,,,,,,,,,,,METAR,235.0
KFFC 060653Z AUTO 00000KT 6SM BR CLR 18/17 A2995 RMK AO2 SLP137 T01780167,KFFC,2023-06-06T06:53:00Z,33.35,-84.57,17.8,16.7,0,0,,6.0,29.949802,1013.7,,TRUE,TRUE,,,,,,BR,CLR,,,,,,,,VFR,,,,,,,,,,,,METAR,242.0
KFDY 060653Z AUTO 23004KT 7SM OVC085 17/07 A2996 RMK AO2 SLP136 T01670072,KFDY,2023-06-06T06:53:00Z,41.02,-83.67,16.7,7.2,230,4,,7.0,29.958662,1013.6,,TRUE,TRUE,,,,,,,OVC,8500,,,,,,,VFR,,,,,,,,,,,,METAR,247.0
KFDR 060653Z AUTO 36008KT 10SM CLR 20/17 A2998 RMK AO2 SLP133 T02000172,KFDR,2023-06-06T06:53:00Z,34.35,-98.98,20.0,17.2,360,8,,10.0,29.97933,1013.3,,TRUE,TRUE,,,,,,,CLR,,,,,,,,VFR,,,,,,,,,,,,METAR,378.0
KFCM 060653Z AUTO 05005KT 9SM BKN110 23/18 A3001 RMK AO2 SLP155 T02330183,KFCM,2023-06-06T06:53:00Z,44.83,-93.47,23.3,18.3,50,5,,9.0,30.008858,1015.5,,TRUE,TRUE,,,,,,,BKN,11000,,,,,,,VFR,,,,,,,,,,,,METAR,276.0
KFAY 060653Z 22006KT 10SM CLR 17/14 A2991 RMK AO2 SLP123 T01670144,KFAY,2023-06-06T06:53:00Z,34.98,-78.88,16.7,14.4,220,6,,10.0,29.911417,1012.3,,,TRUE,,,,,,,CLR,,,,,,,,VFR,,,,,,,,,,,,METAR,57.0
KFAT 060653Z 00000KT 10SM FEW130 BKN180 BKN230 21/11 A2976 RMK AO2 SLP074 T02060111,KFAT,2023-06-06T06:53:00Z,36.78,-119.72,20.6,11.1,0,0,,10.0,29.760826,1007.4,,,TRUE,,,,,,,FEW,13000,BKN,18000,BKN,23000,,,VFR,,,,,,,,,,,,METAR,102.0
KFAR 060653Z 16007KT 10SM CLR 24/17 A2999 RMK AO2 SLP148 T02440172,KFAR,2023-06-06T06:53:00Z,46.9,-96.82,24.4,17.2,160,7,,10.0,29.991142,1014.8,,,TRUE,,,,,,,CLR,,,,,,,,VFR,,,,,,,,,,,,METAR,276.0
KEYW 060653Z AUTO 00000KT 10SM CLR 27/22 A2989 RMK AO2 SLP127 T02720222,KEYW,2023-06-06T06:53:00Z,24.55,-81.75,27.2,22.2,0,0,,10.0,29.890747,1012.7,,TRUE,TRUE,,,,,,,CLR,,,,,,,,VFR,,,,,,,,,,,,METAR,1.0
KEYE 060653Z AUTO 00000KT 8SM CLR 17/10 A2999 RMK AO2 SLP150 T01720100,KEYE,2023-06-06T06:53:00Z,39.83,-86.3,17.2,10.0,0,0,,8.0,29.991142,1015.0,,TRUE,TRUE,,,,,,,CLR,,,,,,,,VFR,,,,,,,,,,,,METAR,248.0
KEWB 060653Z AUTO 26003KT 10SM SCT065 OVC080 12/11 A2968 RMK AO2 SLP050 T01220111,KEWB,2023-06-06T06:53:00Z,41.68,-70.95,12.2,11.1,260,3,,10.0,29.681103,1005.0,,TRUE,TRUE,,,,,,,SCT,6500,OVC,8000,,,,,VFR,,,,,,,,,,,,METAR,22.0
KEVW 060653Z AUTO 03003KT 10SM CLR 11/06 A3015 RMK AO2 SLP126 T01110056 402060078 $,KEVW,2023-06-06T06:53:00Z,41.27,-111.03,11.1,5.6,30,3,,10.0,30.15059,1012.6,,TRUE,TRUE,TRUE,,,,,,CLR,,,,,,,,VFR,,,,20.6,7.8,,,,,,,METAR,2178.0
KEQY 060653Z AUTO 21003KT 10SM OVC033 17/17 A2993 RMK AO2 SLP137 T01720167,KEQY,2023-06-06T06:53:00Z,35.02,-80.62,17.2,16.7,210,3,,10.0,29.929134,1013.7,,TRUE,TRUE,,,,,,,OVC,3300,,,,,,,VFR,,,,,,,,,,,,METAR,205.0
KEPH 060653Z AUTO 34011KT 10SM CLR 21/M02 A2992 RMK AO2 SLP124 T02061022,KEPH,2023-06-06T06:53:00Z,47.3,-119.52,20.6,-2.2,340,11,,10.0,29.920275,1012.4,,TRUE,TRUE,,,,,,,CLR,,,,,,,,VFR,,,,,,,,,,,,METAR,382.0
KENW 060653Z AUTO 29003KT 8SM FEW090 17/08 A3002 RMK AO2 SLP161 T01720083,KENW,2023-06-06T06:53:00Z,42.6,-87.93,17.2,8.3,290,3,,8.0,30.02067,1016.1,,TRUE,TRUE,,,,,,,FEW,9000,,,,,,,VFR,,,,,,,,,,,,METAR,222.0
KEMP 060653Z AUTO 00000KT 10SM CLR 16/14 A3004 RMK AO2 SLP164 T01610144,KEMP,2023-06-06T06:53:00Z,38.33,-96.2,16.1,14.4,0,0,,10.0,30.041338,1016.4,,TRUE,TRUE,,,,,,,CLR,,,,,,,,VFR,,,,,,,,,,,,METAR,366.0
KELY 060653Z AUTO 20003KT 10SM BKN120 12/06 A3003 RMK AO2 SLP082 T01220061,KELY,2023-06-06T06:53:00Z,39.3,-114.85,12.2,6.1,200,3,,10.0,30.029528,1008.2,,TRUE,TRUE,,,,,,,BKN,12000,,,,,,,VFR,,,,,,,,,,,,METAR,1906.0
KELN 060653Z AUTO 32009KT 10SM CLR 17/06 A2996 RMK AO2 SLP134 T01670056 $,KELN,2023-06-06T06:53:00Z,47.03,-120.53,16.7,5.6,320,9,,10.0,29.958662,1013.4,,TRUE,TRUE,TRUE,,,,,,CLR,,,,,,,,VFR,,,,,,,,,,,,METAR,532.0
KELM 060653Z AUTO 25004KT 6SM HZ OVC095 13/07 A2983 RMK AO2 SLP097 T01280067,KELM,2023-06-06T06:53:00Z,42.15,-76.9,12.8,6.7,250,4,,6.0,29.828741,1009.7,,TRUE,TRUE,,,,,,HZ,OVC,9500,,,,,,,VFR,,,,,,,,,,,,METAR,287.0
KELD 060653Z AUTO 22004KT 10SM FEW110 21/18 A2994 RMK AO2 SLP134 T02110183,KELD,2023-06-06T06:53:00Z,33.22,-92.82,21.1,18.3,220,4,,10.0,29.940945,1013.4,,TRUE,TRUE,,,,,,,FEW,11000,,,,,,,VFR,,,,,,,,,,,,METAR,76.0
KEET 060653Z AUTO 00000KT 10SM CLR 20/19 A2996 RMK AO2 SLP137 T02000189,KEET,2023-06-06T06:53:00Z,33.18,-86.78,20.0,18.9,0,0,,10.0,29.958662,1013.7,,TRUE,TRUE,,,,,,,CLR,,,,,,,,VFR,,,,,,,,,,,,METAR,172.0
KEEO 060653Z AUTO 06005KT 10SM CLR 09/06 A3014 RMK AO2 SLP137 T00890056 402330050,KEEO,2023-06-06T06:53:00Z,40.05,-107.88,8.9,5.6,60,5,,10.0,30.138779,1013.7,,TRUE,TRUE,,,,,,,CLR,,,,,,,,VFR,,,,23.3,5.0,,,,,,,METAR,1957.0
KECP 060653Z AUTO 00000KT 9SM CLR 20/19 A2993 RMK AO1 SLP146 T02000189,KECP,2023-06-06T06:53:00Z,30.35,-85.8,20.0,18.9,0,0,,9.0,29.929134,1014.6,,TRUE,TRUE,,,,,,,CLR,,,,,,,,VFR,,,,,,,,,,,,METAR,17.0
KDXR 060653Z AUTO 00000KT 10SM CLR 12/07 A2976 RMK AO2 SLP077 T01220072,KDXR,2023-06-06T06:53:00Z,41.37,-73.48,12.2,7.2,0,0,,10.0,29.760826,1007.7,,TRUE,TRUE,,,,,,,CLR,,,,,,,,VFR,,,,,,,,,,,,METAR,138.0
KDWH 060653Z AUTO 08003KT 6SM BR CLR 21/19 A2991 RMK AO2 SLP125 T02060194,KDWH,2023-06-06T06:53:00Z,30.07,-95.55,20.6,19.4,80,3,,6.0,29.911417,1012.5,,TRUE,TRUE,,,,,,BR,CLR,,,,,,,,VFR,,,,,,,,,,,,METAR,46.0
KDVT 060653Z AUTO 22006KT 10SM CLR 26/M06 A2980 RMK AO2 SLP064 T02561061 403890206,KDVT,2023-06-06T06:53:00Z,33.68,-112.07,25.6,-6.1,220,6,,10.0,29.799213,1006.4,,TRUE,TRUE,,,,,,,CLR,,,,,,,,VFR,,,,38.9,20.6,,,,,,,METAR,454.0
KDUJ 060653Z AUTO 23004KT 8SM CLR 11/05 A2991 RMK AO2 SLP121 T01060050,KDUJ,2023-06-06T06:53:00Z,41.17,-78.9,10.6,5.0,230,4,,8.0,29.911417,1012.1,,TRUE,TRUE,,,,,,,CLR,,,,,,,,VFR,,,,,,,,,,,,METAR,552.0
KDTW 060653Z 00000KT 7SM BKN060 BKN080 OVC120 19/08 A2994 RMK AO2 SLP136 T01940083,KDTW,2023-06-06T06:53:00Z,42.23,-83.33,19.4,8.3,0,0,,7.0,29.940945,1013.6,,,TRUE,,,,,,,BKN,6000,BKN,8000,OVC,12000,,,VFR,,,,,,,,,,,,METAR,192.0
KDTS 060653Z AUTO 00000KT 10SM CLR 22/20 A2994 RMK AO2 SLP136 T02220200,KDTS,2023-06-06T06:53:00Z,30.4,-86.47,22.2,20.0,0,0,,10.0,29.940945,1013.6,,TRUE,TRUE,,,,,,,CLR,,,,,,,,VFR,,,,,,,,,,,,METAR,5.0
KDTO 060653Z AUTO 00000KT 10SM CLR 21/19 A2996 RMK AO2 SLP135 T02060194 $,KDTO,2023-06-06T06:53:00Z,33.2,-97.2,20.6,19.4,0,0,,10.0,29.958662,1013.5,,TRUE,TRUE,TRUE,,,,,,CLR,,,,,,,,VFR,,,,,,,,,,,,METAR,199.0
KDTN 060653Z AUTO 15005KT 10SM CLR 22/18 A2994 RMK AO2 SLP135 T02220183,KDTN,2023-06-06T06:53:00Z,32.55,-93.75,22.2,18.3,150,5,,10.0,29.940945,1013.5,,TRUE,TRUE,,,,,,,CLR,,,,,,,,VFR,,,,,,,,,,,,METAR,53.0
KDRT 060653Z AUTO 06006KT 10SM BKN085 24/17 A2995 RMK AO2 SLP131 T02440172,KDRT,2023-06-06T06:53:00Z,29.37,-100.92,24.4,17.2,60,6,,10.0,29.949802,1013.1,,TRUE,TRUE,,,,,,,BKN,8500,,,,,,,VFR,,,,,,,,,,,,METAR,303.0
KDRO 060653Z AUTO 08006KT 10SM SCT120 11/06 A3021 RMK AO2 SLP154 T01060056 402610044,KDRO,2023-06-06T06:53:00Z,37.15,-107.77,10.6,5.6,80,6,,10.0,30.209646,1015.4,,TRUE,TRUE,,,,,,,SCT,12000,,,,,,,VFR,,,,26.1,4.4,,,,,,,METAR,2021.0
KDRA 060653Z AUTO 26009KT 10SM CLR 24/M02 A2976 RMK AO2 SLP025 T02391022,KDRA,2023-06-06T06:53:00Z,36.62,-116.03,23.9,-2.2,260,9,,10.0,29.760826,1002.5,,TRUE,TRUE,,,,,,,CLR,,,,,,,,VFR,,,,,,,,,,,,METAR,988.0
KDMO 060653Z AUTO 00000KT 10SM CLR 18/10 A3004 RMK AO2 SLP164 T01830100 $,KDMO,2023-06-06T06:53:00Z,38.72,-93.17,18.3,10.0,0,0,,10.0,30.041338,1016.4,,TRUE,TRUE,TRUE,,,,,,CLR,,,,,,,,VFR,,,,,,,,,,,,METAR,271.0
KDMN 060653Z AUTO 05016G21KT 10SM CLR 21/09 A3005 RMK AO2 PK WND 05028/0601 SLP095 T02060089 403390161,KDMN,2023-06-06T06:53:00Z,32.27,-107.72,20.6,8.9,50,16,21,10.0,30.050198,1009.5,,TRUE,TRUE,,,,,,,CLR,,,,,,,,VFR,,,,33.9,16.1,,,,,,,METAR,1310.0
KDLS 060653Z AUTO 27004KT 10SM CLR 21/06 A2986 RMK AO2 SLP108 T02060061,KDLS,2023-06-06T06:53:00Z,45.62,-121.17,20.6,6.1,270,4,,10.0,29.861221,1010.8,,TRUE,TRUE,,,,,,,CLR,,,,,,,,VFR,,,,,,,,,,,,METAR,71.0
KDLN 060653Z AUTO 25006KT 10SM CLR 10/09 A3008 RMK AO2 SLP143 T01000094 402110100,KDLN,2023-06-06T06:53:00Z,45.25,-112.55,10.0,9.4,250,6,,10.0,30.079725,1014.3,,TRUE,TRUE,,,,,,,CLR,,,,,,,,VFR,,,,21.1,10.0,,,,,,,METAR,1586.0
KDKK 060653Z AUTO 22007KT 10SM CLR 16/06 A2988 RMK AO2 SLP116 T01560056,KDKK,2023-06-06T06:53:00Z,42.5,-79.28,15.6,5.6,220,7,,10.0,29.878937,1011.6,,TRUE,TRUE,,,,,,,CLR,,,,,,,,VFR,,,,,,,,,,,,METAR,205.0
KDHT 060653Z AUTO 30004KT 9SM OVC110 16/13 A3016 RMK AO2 SLP169 T01560133,KDHT,2023-06-06T06:53:00Z,36.02,-102.55,15.6,13.3,300,4,,9.0,30.159449,1016.9,,TRUE,TRUE,,,,,,,OVC,11000,,,,,,,VFR,,,,,,,,,,,,METAR,1217.0
KDHN 060653Z AUTO 24005KT 10SM CLR 21/18 A2997 RMK AO2 SLP145 T02060178,KDHN,2023-06-06T06:53:00Z,31.32,-85.45,20.6,17.8,240,5,,10.0,29.970472,1014.5,,TRUE,TRUE,,,,,,,CLR,,,,,,,,VFR,,,,,,,,,,,,METAR,113.0
KDGW 060653Z AUTO 13009KT 10SM CLR 13/11 A3009 RMK AO2 SLP142 T01330106 402440094 $,KDGW,2023-06-06T06:53:00Z,42.8,-105.38,13.3,10.6,130,9,,10.0,30.088583,1014.2,,TRUE,TRUE,TRUE,,,,,,CLR,,,,,,,,VFR,,,,24.4,9.4,,,,,,,METAR,1503.0
KDFW 060653Z 18003KT 10SM FEW100 SCT250 23/18 A2994 RMK AO2 SLP128 T02330183,KDFW,2023-06-06T06:53:00Z,32.9,-97.02,23.3,18.3,180,3,,10.0,29.940945,1012.8,,,TRUE,,,,,,,FEW,10000,SCT,25000,,,,,VFR,,,,,,,,,,,,METAR,168.0
KDFI 060653Z AUTO 00000KT 9SM CLR 14/09 A2996 RMK AO2 SLP141 T01390089,KDFI,2023-06-06T06:53:00Z,41.33,-84.43,13.9,8.9,0,0,,9.0,29.958662,1014.1,,TRUE,TRUE,,,,,,,CLR,,,,,,,,VFR,,,,,,,,,,,,METAR,215.0
KDEW 060653Z AUTO 02003KT 10SM CLR 08/03 A2995 RMK AO2 SLP135 T00830033,KDEW,2023-06-06T06:53:00Z,47.97,-117.43,8.3,3.3,20,3,,10.0,29.949802,1013.5,,TRUE,TRUE,,,,,,,CLR,,,,,,,,VFR,,,,,,,,,,,,METAR,672.0
KDET 060653Z 35003KT 7SM FEW090 18/09 A2993 RMK AO2 SLP132 T01780089,KDET,2023-06-06T06:53:00Z,42.4,-83.02,17.8,8.9,350,3,,7.0,29.929134,1013.2,,,TRUE,,,,,,,FEW,9000,,,,,,,VFR,,,,,,,,,,,,METAR,190.0
KDEQ 060653Z AUTO 08005KT 10SM SCT090 21/16 A2993 RMK AO2 LTG DSNT NE AND E SLP130 T02110161,KDEQ,2023-06-06T06:53:00Z,34.05,-94.4,21.1,16.1,80,5,,10.0,29.929134,1013.0,,TRUE,TRUE,,,,,,,SCT,9000,,,,,,,VFR,,,,,,,,,,,,METAR,107.0
KDEN 060653Z 18009KT 10SM FEW160 FEW220 13/09 A3015 RMK AO2 SLP149 T01280089 402110111,KDEN,2023-06-06T06:53:00Z,39.85,-104.65,12.8,8.9,180,9,,10.0,30.15059,1014.9,,,TRUE,,,,,,,FEW,16000,FEW,22000,,,,,VFR,,,,21.1,11.1,,,,,,,METAR,1656.0
KDCU 060653Z AUTO 00000KT 10SM FEW060 19/17 A2996 RMK AO2 LTG DSNT NE SLP139 T01940172 $,KDCU,2023-06-06T06:53:00Z,34.65,-86.95,19.4,17.2,0,0,,10.0,29.958662,1013.9,,TRUE,TRUE,TRUE,,,,,,FEW,6000,,,,,,,VFR,,,,,,,,,,,,METAR,180.0
KDBQ 060653Z AUTO 21003KT 10SM CLR 18/10 A3003 RMK AO2 SLP164 T01780100,KDBQ,2023-06-06T06:53:00Z,42.4,-90.7,17.8,10.0,210,3,,10.0,30.029528,1016.4,,TRUE,TRUE,,,,,,,CLR,,,,,,,,VFR,,,,,,,,,,,,METAR,317.0
KDAN 060653Z AUTO 26006KT 10SM CLR 17/16 A2990 RMK AO2 SLP115 T01720156 $,KDAN,2023-06-06T06:53:00Z,36.57,-79.33,17.2,15.6,260,6,,10.0,29.899607,1011.5,,TRUE,TRUE,TRUE,,,,,,CLR,,,,,,,,VFR,,,,,,,,,,,,METAR,170.0
KDAL 060653Z 00000KT 10SM BKN250 23/18 A2994 RMK AO2 SLP133 T02330183 $,KDAL,2023-06-06T06:53:00Z,32.85,-96.85,23.3,18.3,0,0,,10.0,29.940945,1013.3,,,TRUE,TRUE,,,,,,BKN,25000,,,,,,,VFR,,,,,,,,,,,,METAR,148.0
KDAB 060653Z 00000KT 10SM CLR 19/18 A2995 RMK AO2 SLP141 T01940183 $,KDAB,2023-06-06T06:53:00Z,29.18,-81.07,19.4,18.3,0,0,,10.0,29.949802,1014.1,,,TRUE,TRUE,,,,,,CLR,,,,,,,,VFR,,,,,,,,,,,,METAR,8.0
KCYS 060653Z AUTO 20007KT 10SM CLR 11/08 A3017 RMK AO2 SLP151 T01110083 402000100,KCYS,2023-06-06T06:53:00Z,41.15,-104.8,11.1,8.3,200,7,,10.0,30.171259,1015.1,,TRUE,TRUE,,,,,,,CLR,,,,,,,,VFR,,,,20.0,10.0,,,,,,,METAR,1868.0
KCXO 060653Z AUTO 00000KT 10SM CLR 19/19 A2992 RMK AO2 SLP128 T01940194,KCXO,2023-06-06T06:53:00Z,30.35,-95.42,19.4,19.4,0,0,,10.0,29.920275,1012.8,,TRUE,TRUE,,,,,,,CLR,,,,,,,,VFR,,,,,,,,,,,,METAR,69.0
KCUT 060653Z AUTO 00000KT 10SM CLR 11/09 A3016 RMK AO2 SLP160 T01110089 402220106,KCUT,2023-06-06T06:53:00Z,43.73,-103.62,11.1,8.9,0,0,,10.0,30.159449,1016.0,,TRUE,TRUE,,,,,,,CLR,,,,,,,,VFR,,,,22.2,10.6,,,,,,,METAR,1700.0
KCUB 060653Z AUTO 00000KT 10SM SCT050 SCT055 19/16 A2994 RMK AO2 LTG DSNT W SLP136 T01890161,KCUB,2023-06-06T06:53:00Z,33.97,-81.0,18.9,16.1,0,0,,10.0,29.940945,1013.6,,TRUE,TRUE,,,,,,,SCT,5000,SCT,5500,,,,,VFR,,,,,,,,,,,,METAR,55.0
KCSV 060653Z AUTO 00000KT 4SM BR CLR 16/16 A2999 RMK AO2 SLP137 T01560156,KCSV,2023-06-06T06:53:00Z,35.95,-85.08,15.6,15.6,0,0,,4.0,29.991142,1013.7,,TRUE,TRUE,,,,,,BR,CLR,,,,,,,,MVFR,,,,,,,,,,,,METAR,569.0
KCSM 060653Z AUTO 36006KT 10SM CLR 18/16 A3005 RMK AO2 SLP153 T01780156,KCSM,2023-06-06T06:53:00Z,35.35,-99.2,17.8,15.6,360,6,,10.0,30.050198,1015.3,,TRUE,TRUE,,,,,,,CLR,,,,,,,,VFR,,,,,,,,,,,,METAR,586.0
KCRS 060653Z AUTO 00000KT 10SM CLR 22/21 A2996 RMK AO2 SLP139 T02220206,KCRS,2023-06-06T06:53:00Z,32.03,-96.4,22.2,20.6,0,0,,10.0,29.958662,1013.9,,TRUE,TRUE,,,,,,,CLR,,,,,,,,VFR,,,,,,,,,,,,METAR,136.0
KCRQ 060653Z AUTO 16005KT 10SM FEW029 BKN045 16/09 A2991 RMK AO2 SLP128 T01610089,KCRQ,2023-06-06T06:53:00Z,33.13,-117.28,16.1,8.9,160,5,,10.0,29.911417,1012.8,,TRUE,TRUE,,,,,,,FEW,2900,BKN,4500,,,,,VFR,,,,,,,,,,,,METAR,96.0
KCRG 060653Z AUTO 00000KT 10SM CLR 18/17 A2995 RMK AO2 SLP143 T01830167,KCRG,2023-06-06T06:53:00Z,30.33,-81.52,18.3,16.7,0,0,,10.0,29.949802,1014.3,,TRUE,TRUE,,,,,,,CLR,,,,,,,,VFR,,,,,,,,,,,,METAR,12.0
KCRE 060653Z 26003KT 10SM CLR 17/14 A2994 RMK AO1 SLP138 T01670144,KCRE,2023-06-06T06:53:00Z,33.82,-78.72,16.7,14.4,260,3,,10.0,29.940945,1013.8,,,TRUE,,,,,,,CLR,,,,,,,,VFR,,,,,,,,,,,,METAR,9.0
KCQC 060653Z AUTO 19004KT 10SM CLR 09/08 A3028 RMK AO2 SLP186 T00890078 402170067 $,KCQC,2023-06-06T06:53:00Z,35.0,-105.67,8.9,7.8,190,4,,10.0,30.280512,1018.6,,TRUE,TRUE,TRUE,,,,,,CLR,,,,,,,,VFR,,,,21.7,6.7,,,,,,,SPECI,2163.0
KCPS 060653Z AUTO 00000KT 10SM CLR 13/09 A3000 RMK AO2 SLP156 T01280089,KCPS,2023-06-06T06:53:00Z,38.53,-90.15,12.8,8.9,0,0,,10.0,30.0,1015.6,,TRUE,TRUE,,,,,,,CLR,,,,,,,,VFR,,,,,,,,,,,,METAR,125.0
KCPR 060653Z AUTO 34005KT 10SM CLR 10/09 A3008 RMK AO2 SLP136 T01000094 402500089,KCPR,2023-06-06T06:53:00Z,42.9,-106.47,10.0,9.4,340,5,,10.0,30.079725,1013.6,,TRUE,TRUE,,,,,,,CLR,,,,,,,,VFR,,,,25.0,8.9,,,,,,,METAR,1623.0
KCOT 060653Z AUTO 00000KT 10SM OVC110 24/18 A2992 RMK AO2 SLP124 T02440178,KCOT,2023-06-06T06:53:00Z,28.45,-99.22,24.4,17.8,0,0,,10.0,29.920275,1012.4,,TRUE,TRUE,,,,,,,OVC,11000,,,,,,,VFR,,,,,,,,,,,,METAR,144.0
KCNY 060653Z AUTO 09009KT 10SM CLR 22/04 A2993 RMK AO2 SLP069 T02220039 403060111,KCNY,2023-06-06T06:53:00Z,38.77,-109.75,22.2,3.9,90,9,,10.0,29.929134,1006.9,,TRUE,TRUE,,,,,,,CLR,,,,,,,,VFR,,,,30.6,11.1,,,,,,,METAR,1392.0
KCNO 060653Z AUTO 28007KT 10SM OVC045 14/09 A2992 RMK AO2 SLP130 T01440094,KCNO,2023-06-06T06:53:00Z,33.98,-117.62,14.4,9.4,280,7,,10.0,29.920275,1013.0,,TRUE,TRUE,,,,,,,OVC,4500,,,,,,,VFR,,,,,,,,,,,,METAR,191.0
KCNM 060653Z AUTO 08006KT 10SM BKN070 22/11 A3011 RMK AO2 SLP144 T02170111 402890172,KCNM,2023-06-06T06:53:00Z,32.33,-104.25,21.7,11.1,80,6,,10.0,30.109253,1014.4,,TRUE,TRUE,,,,,,,BKN,7000,,,,,,,VFR,,,,28.9,17.2,,,,,,,METAR,993.0
KCMX 060653Z AUTO 08008KT 10SM CLR 12/07 A3010 RMK AO2 SLP193 T01170072,KCMX,2023-06-06T06:53:00Z,47.17,-88.48,11.7,7.2,80,8,,10.0,30.100393,1019.3,,TRUE,TRUE,,,,,,,CLR,,,,,,,,VFR,,,,,,,,,,,,METAR,326.0
KCMI 060653Z AUTO 00000KT 10SM CLR 17/07 A3002 RMK AO2 SLP160 T01720067,KCMI,2023-06-06T06:53:00Z,40.03,-88.27,17.2,6.7,0,0,,10.0,30.02067,1016.0,,TRUE,TRUE,,,,,,,CLR,,,,,,,,VFR,,,,,,,,,,,,METAR,227.0
KCLM 060653Z AUTO 00000KT 10SM CLR 09/01 A3005 RMK AO2 SLP177 T00890011,KCLM,2023-06-06T06:53:00Z,48.12,-123.5,8.9,1.1,0,0,,10.0,30.050198,1017.7,,TRUE,TRUE,,,,,,,CLR,,,,,,,,VFR,,,,,,,,,,,,METAR,81.0
KCLL 060653Z AUTO 00000KT 10SM CLR 22/19 A2992 RMK AO2 SLP128 T02170194,KCLL,2023-06-06T06:53:00Z,30.58,-96.37,21.7,19.4,0,0,,10.0,29.920275,1012.8,,TRUE,TRUE,,,,,,,CLR,,,,,,,,VFR,,,,,,,,,,,,METAR,96.0
KCKB 060653Z AUTO 00000KT 10SM CLR 10/08 A2995 RMK AO2 SLP132 T01000078,KCKB,2023-06-06T06:53:00Z,39.3,-80.22,10.0,7.8,0,0,,10.0,29.949802,1013.2,,TRUE,TRUE,,,,,,,CLR,,,,,,,,VFR,,,,,,,,,,,,METAR,368.0
KCHO 060653Z AUTO 00000KT 10SM CLR 14/10 A2990 RMK AO2 SLP120 T01390100 PWINO,KCHO,2023-06-06T06:53:00Z,38.13,-78.45,13.9,10.0,0,0,,10.0,29.899607,1012.0,,TRUE,TRUE,,,,,TRUE,,CLR,,,,,,,,VFR,,,,,,,,,,,,METAR,193.0
KCHA 060653Z AUTO 00000KT 10SM FEW065 SCT110 24/19 A2993 RMK AO2 SLP125 T02390189,KCHA,2023-06-06T06:53:00Z,35.03,-85.2,23.9,18.9,0,0,,10.0,29.929134,1012.5,,TRUE,TRUE,,,,,,,FEW,6500,SCT,11000,,,,,VFR,,,,,,,,,,,,METAR,203.0
KCGI 060653Z AUTO 25003KT 10SM CLR 14/11 A2998 RMK AO2 SLP150 T01440106,KCGI,2023-06-06T06:53:00Z,37.23,-89.58,14.4,10.6,250,3,,10.0,29.97933,1015.0,,TRUE,TRUE,,,,,,,CLR,,,,,,,,VFR,,,,,,,,,,,,METAR,103.0
KCEZ 060653Z AUTO 10SM CLR 21/03 A3009 RMK AO2 SLP102 T02060033 402720044,KCEZ,2023-06-06T06:53:00Z,37.3,-108.63,20.6,3.3,,,,10.0,30.088583,1010.2,,TRUE,TRUE,,,,,,,CLR,,,,,,,,VFR,,,,27.2,4.4,,,,,,,METAR,1801.0
KCEW 060653Z AUTO 00000KT 8SM CLR 18/17 A2996 RMK AO2 SLP142 T01780167,KCEW,2023-06-06T06:53:00Z,30.78,-86.52,17.8,16.7,0,0,,8.0,29.958662,1014.2,,TRUE,TRUE,,,,,,,CLR,,,,,,,,VFR,,,,,,,,,,,,METAR,47.0
KCDW 060653Z AUTO 00000KT 7SM BKN050 14/04 A2977 RMK AO2 SLP086 T01440044,KCDW,2023-06-06T06:53:00Z,40.88,-74.28,14.4,4.4,0,0,,7.0,29.769686,1008.6,,TRUE,TRUE,,,,,,,BKN,5000,,,,,,,VFR,,,,,,,,,,,,METAR,52.0
KCDS 060653Z AUTO 31003KT 9SM FEW120 18/16 A3004 RMK AO2 SLP151 T01830161,KCDS,2023-06-06T06:53:00Z,34.43,-100.28,18.3,16.1,310,3,,9.0,30.041338,1015.1,,TRUE,TRUE,,,,,,,FEW,12000,,,,,,,VFR,,,,,,,,,,,,METAR,595.0
KCDR 060653Z AUTO 15007KT 10SM CLR 17/12 A3006 RMK AO2 SLP159 T01670117 402720122 $,KCDR,2023-06-06T06:53:00Z,42.83,-103.1,16.7,11.7,150,7,,10.0,30.059055,1015.9,,TRUE,TRUE,TRUE,,,,,,CLR,,,,,,,,VFR,,,,27.2,12.2,,,,,,,METAR,1002.0
KCDC 060653Z AUTO 22008KT 10SM CLR 17/02 A2996 RMK AO2 SLP066 T01720022 402890117 $,KCDC,2023-06-06T06:53:00Z,37.7,-113.1,17.2,2.2,220,8,,10.0,29.958662,1006.6,,TRUE,TRUE,TRUE,,,,,,CLR,,,,,,,,VFR,,,,28.9,11.7,,,,,,,METAR,1703.0
KCCR 060653Z AUTO 29008KT 10SM CLR 14/11 A2983 RMK AO2 SLP086 T01440106,KCCR,2023-06-06T06:53:00Z,38.0,-122.05,14.4,10.6,290,8,,10.0,29.828741,1008.6,,TRUE,TRUE,,,,,,,CLR,,,,,,,,VFR,,,,,,,,,,,,METAR,6.0
KCAG 060653Z AUTO 00000KT 10SM CLR 11/04 A3014 RMK AO2 SLP142 T01110044 402610044,KCAG,2023-06-06T06:53:00Z,40.5,-107.52,11.1,4.4,0,0,,10.0,30.138779,1014.2,,TRUE,TRUE,,,,,,,CLR,,,,,,,,VFR,,,,26.1,4.4,,,,,,,METAR,1888.0
KBYI 060653Z AUTO 00000KT 10SM CLR 14/10 A2997 RMK AO2 SLP111 T01440100 402610083,KBYI,2023-06-06T06:53:00Z,42.55,-113.77,14.4,10.0,0,0,,10.0,29.970472,1011.1,,TRUE,TRUE,,,,,,,CLR,,,,,,,,VFR,,,,26.1,8.3,,,,,,,METAR,1263.0
KBYG 060653Z AUTO 13007KT 10SM CLR 16/11 A3003 RMK AO2 SLP117 T01560111 402500117,KBYG,2023-06-06T06:53:00Z,44.38,-106.72,15.6,11.1,130,7,,10.0,30.029528,1011.7,,TRUE,TRUE,,,,,,,CLR,,,,,,,,VFR,,,,25.0,11.7,,,,,,,METAR,1503.0
KBWG 060653Z AUTO 00000KT 10SM BKN060 21/15 A2996 RMK AO2 SLP139 T02060150,KBWG,2023-06-06T06:53:00Z,36.97,-86.42,20.6,15.0,0,0,,10.0,29.958662,1013.9,,TRUE,TRUE,,,,,,,BKN,6000,,,,,,,VFR,,,,,,,,,,,,METAR,159.0
KBVY 060653Z AUTO 29003KT 10SM BKN065 BKN075 12/11 A2966 RMK AO2 SLP040 T01220111,KBVY,2023-06-06T06:53:00Z,42.58,-70.92,12.2,11.1,290,3,,10.0,29.660433,1004.0,,TRUE,TRUE,,,,,,,BKN,6500,BKN,7500,,,,,VFR,,,,,,,,,,,,METAR,28.0
KBVO 060653Z AUTO 00000KT 10SM CLR 19/17 A3002 RMK AO2 SLP153 T01890172,KBVO,2023-06-06T06:53:00Z,36.77,-96.02,18.9,17.2,0,0,,10.0,30.02067,1015.3,,TRUE,TRUE,,,,,,,CLR,,,,,,,,VFR,,,,,,,,,,,,METAR,210.0
KBUR 060653Z 16006KT 10SM BKN022 OVC035 14/10 A2991 RMK AO2 SLP121 T01440100 $,KBUR,2023-06-06T06:53:00Z,34.2,-118.37,14.4,10.0,160,6,,10.0,29.911417,1012.1,,,TRUE,TRUE,,,,,,BKN,2200,OVC,3500,,,,,MVFR,,,,,,,,,,,,METAR,221.0
KBTR 060653Z AUTO 00000KT 10SM CLR 20/19 A2994 RMK AO2 SLP137 T02000189,KBTR,2023-06-06T06:53:00Z,30.53,-91.15,20.0,18.9,0,0,,10.0,29.940945,1013.7,,TRUE,TRUE,,,,,,,CLR,,,,,,,,VFR,,,,,,,,,,,,METAR,20.0
KBTM 060653Z AUTO 18003KT 10SM BKN100 11/09 A3012 RMK AO2 SLP152 T01110094 402220089,KBTM,2023-06-06T06:53:00Z,45.97,-112.5,11.1,9.4,180,3,,10.0,30.121063,1015.2,,TRUE,TRUE,,,,,,,BKN,10000,,,,,,,VFR,,,,22.2,8.9,,,,,,,METAR,1680.0
KBTL 060653Z AUTO 27005KT 10SM CLR 16/10 A2997 RMK AO2 SLP143 T01560100,KBTL,2023-06-06T06:53:00Z,42.32,-85.25,15.6,10.0,270,5,,10.0,29.970472,1014.3,,TRUE,TRUE,,,,,,,CLR,,,,,,,,VFR,,,,,,,,,,,,METAR,282.0
KBRO 060653Z AUTO 00000KT 10SM CLR 23/23 A2988 RMK AO2 SLP117 T02330228,KBRO,2023-06-06T06:53:00Z,25.92,-97.42,23.3,22.8,0,0,,10.0,29.878937,1011.7,,TRUE,TRUE,,,,,,,CLR,,,,,,,,VFR,,,,,,,,,,,,METAR,6.0
KBRL 060653Z AUTO 00000KT 10SM CLR 15/12 A3002 RMK AO2 SLP163 T01500117,KBRL,2023-06-06T06:53:00Z,40.77,-91.13,15.0,11.7,0,0,,10.0,30.02067,1016.3,,TRUE,TRUE,,,,,,,CLR,,,,,,,,VFR,,,,,,,,,,,,METAR,208.0
KBRD 060653Z AUTO 06004KT 4SM BR CLR 15/13 A3008 RMK AO2 SLP184 T01500128 $,KBRD,2023-06-06T06:53:00Z,46.4,-94.13,15.0,12.8,60,4,,4.0,30.079725,1018.4,,TRUE,TRUE,TRUE,,,,,BR,CLR,,,,,,,,MVFR,,,,,,,,,,,,METAR,372.0
KBPT 060653Z AUTO 05006KT 10SM CLR 22/20 A2990 RMK AO2 SLP126 T02170200 $,KBPT,2023-06-06T06:53:00Z,29.95,-94.03,21.7,20.0,50,6,,10.0,29.899607,1012.6,,TRUE,TRUE,TRUE,,,,,,CLR,,,,,,,,VFR,,,,,,,,,,,,METAR,6.0
KBPK 060653Z AUTO 00000KT 10SM CLR 19/13 A3000 RMK AO2 SLP149 T01940133,KBPK,2023-06-06T06:53:00Z,36.37,-92.47,19.4,13.3,0,0,,10.0,30.0,1014.9,,TRUE,TRUE,,,,,,,CLR,,,,,,,,VFR,,,,,,,,,,,,METAR,279.0
KBPI 060653Z AUTO 34009KT 10SM CLR 08/06 A3019 RMK AO2 SLP148 T00780061 402170039,KBPI,2023-06-06T06:53:00Z,42.58,-110.1,7.8,6.1,340,9,,10.0,30.188976,1014.8,,TRUE,TRUE,,,,,,,CLR,,,,,,,,VFR,,,,21.7,3.9,,,,,,,METAR,2120.0
KBOI 060653Z 19004KT 10SM CLR 19/10 A2989 RMK AO2 SLP095 T01940100 403000172,KBOI,2023-06-06T06:53:00Z,43.57,-116.23,19.4,10.0,190,4,,10.0,29.890747,1009.5,,,TRUE,,,,,,,CLR,,,,,,,,VFR,,,,30.0,17.2,,,,,,,METAR,860.0
KBNO 060653Z AUTO 35004KT 10SM CLR 11/07 A3001 RMK AO2 SLP131 T01060067,KBNO,2023-06-06T06:53:00Z,43.6,-118.95,10.6,6.7,350,4,,10.0,30.008858,1013.1,,TRUE,TRUE,,,,,,,CLR,,,,,,,,VFR,,,,,,,,,,,,METAR,1263.0
KBNA 060653Z 34005KT 10SM CLR 22/15 A2995 RMK AO2 SLP135 T02170150,KBNA,2023-06-06T06:53:00Z,36.12,-86.68,21.7,15.0,340,5,,10.0,29.949802,1013.5,,,TRUE,,,,,,,CLR,,,,,,,,VFR,,,,,,,,,,,,METAR,168.0
KBMQ 060653Z AUTO 01004KT 10SM CLR 21/18 A2998 RMK AO2 SLP133 T02060178,KBMQ,2023-06-06T06:53:00Z,30.73,-98.23,20.6,17.8,10,4,,10.0,29.97933,1013.3,,TRUE,TRUE,,,,,,,CLR,,,,,,,,VFR,,,,,,,,,,,,METAR,387.0
KBMG 060653Z AUTO 00000KT 6SM HZ CLR 13/08 A2999 RMK AO2 SLP152 T01280078,KBMG,2023-06-06T06:53:00Z,39.15,-86.62,12.8,7.8,0,0,,6.0,29.991142,1015.2,,TRUE,TRUE,,,,,,HZ,CLR,,,,,,,,VFR,,,,,,,,,,,,METAR,254.0
KBLI 060653Z AUTO 00000KT 10SM CLR 12/09 A3003 RMK AO2 SLP175 T01170089,KBLI,2023-06-06T06:53:00Z,48.8,-122.53,11.7,8.9,0,0,,10.0,30.029528,1017.5,,TRUE,TRUE,,,,,,,CLR,,,,,,,,VFR,,,,,,,,,,,,METAR,46.0
KBKV 060653Z AUTO 08003KT 10SM CLR 21/19 A2996 RMK AO2 SLP144 T02060189,KBKV,2023-06-06T06:53:00Z,28.47,-82.45,20.6,18.9,80,3,,10.0,29.958662,1014.4,,TRUE,TRUE,,,,,,,CLR,,,,,,,,VFR,,,,,,,,,,,,METAR,21.0
KBKL 060653Z 00000KT 6SM HZ CLR 16/07 A2992 RMK AO2 SLP132 T01610072,KBKL,2023-06-06T06:53:00Z,41.53,-81.67,16.1,7.2,0,0,,6.0,29.920275,1013.2,,,TRUE,,,,,,HZ,CLR,,,,,,,,VFR,,,,,,,,,,,,METAR,177.0
KBKE 060653Z AUTO 00000KT 10SM CLR 13/08 A2999 RMK AO2 SLP133 T01280078,KBKE,2023-06-06T06:53:00Z,44.85,-117.82,12.8,7.8,0,0,,10.0,29.991142,1013.3,,TRUE,TRUE,,,,,,,CLR,,,,,,,,VFR,,,,,,,,,,,,METAR,1025.0
KBIV 060653Z AUTO 00000KT 8SM CLR 16/13 A2998 RMK AO2 SLP149 T01610128,KBIV,2023-06-06T06:53:00Z,42.75,-86.1,16.1,12.8,0,0,,8.0,29.97933,1014.9,,TRUE,TRUE,,,,,,,CLR,,,,,,,,VFR,,,,,,,,,,,,METAR,207.0
KBIL 060653Z 00000KT 10SM FEW200 18/14 A2993 RMK AO2 SLP106 T01830139 402720139,KBIL,2023-06-06T06:53:00Z,45.8,-108.55,18.3,13.9,0,0,,10.0,29.929134,1010.6,,,TRUE,,,,,,,FEW,20000,,,,,,,VFR,,,,27.2,13.9,,,,,,,METAR,1089.0
KBHM 060653Z 00000KT 10SM SCT250 22/18 A2998 RMK AO2 SLP144 T02170178 $,KBHM,2023-06-06T06:53:00Z,33.57,-86.75,21.7,17.8,0,0,,10.0,29.97933,1014.4,,,TRUE,TRUE,,,,,,SCT,25000,,,,,,,VFR,,,,,,,,,,,,METAR,191.0
KBGR 060653Z 34008KT 10SM FEW012 SCT080 10/09 A2959 RMK AO2 SLP020 T01000089,KBGR,2023-06-06T06:53:00Z,44.8,-68.82,10.0,8.9,340,8,,10.0,29.589567,1002.0,,,TRUE,,,,,,,FEW,1200,SCT,8000,,,,,VFR,,,,,,,,,,,,METAR,45.0
KBGM 060653Z AUTO 28005KT 9SM CLR 13/04 A2982 RMK AO2 SLP092 T01330044 $,KBGM,2023-06-06T06:53:00Z,42.22,-75.98,13.3,4.4,280,5,,9.0,29.819881,1009.2,,TRUE,TRUE,TRUE,,,,,,CLR,,,,,,,,VFR,,,,,,,,,,,,METAR,485.0
KBFM 060653Z AUTO 32004KT 10SM CLR 21/19 A2995 RMK AO2 SLP143 T02110194,KBFM,2023-06-06T06:53:00Z,30.62,-88.07,21.1,19.4,320,4,,10.0,29.949802,1014.3,,TRUE,TRUE,,,,,,,CLR,,,,,,,,VFR,,,,,,,,,,,,METAR,7.0
KBFI 060653Z 00000KT 10SM CLR 16/04 A3002 RMK AO2 SLP166 T01560039 402220106,KBFI,2023-06-06T06:53:00Z,47.55,-122.32,15.6,3.9,0,0,,10.0,30.02067,1016.6,,,TRUE,,,,,,,CLR,,,,,,,,VFR,,,,22.2,10.6,,,,,,,METAR,7.0
KBFF 060653Z AUTO 12006KT 10SM CLR 15/13 A3009 RMK AO2 SLP153 T01500128 402610111,KBFF,2023-06-06T06:53:00Z,41.87,-103.6,15.0,12.8,120,6,,10.0,30.088583,1015.3,,TRUE,TRUE,,,,,,,CLR,,,,,,,,VFR,,,,26.1,11.1,,,,,,,METAR,1204.0
KBFD 060653Z AUTO 00000KT 8SM CLR 08/05 A2990 RMK AO2 SLP119 T00830050,KBFD,2023-06-06T06:53:00Z,41.8,-78.63,8.3,5.0,0,0,,8.0,29.899607,1011.9,,TRUE,TRUE,,,,,,,CLR,,,,,,,,VFR,,,,,,,,,,,,METAR,642.0
KBDE 060653Z AUTO 13008KT 10SM CLR 20/17 A3005 RMK AO2 SLP171 T02000167,KBDE,2023-06-06T06:53:00Z,48.73,-94.62,20.0,16.7,130,8,,10.0,30.050198,1017.1,,TRUE,TRUE,,,,,,,CLR,,,,,,,,VFR,,,,,,,,,,,,METAR,330.0
KBCE 060653Z AUTO 25005KT 10SM CLR 07/02 A3012 RMK AO2 SLP093 T00670017 402220044,KBCE,2023-06-06T06:53:00Z,37.7,-112.15,6.7,1.7,250,5,,10.0,30.121063,1009.3,,TRUE,TRUE,,,,,,,CLR,,,,,,,,VFR,,,,22.2,4.4,,,,,,,METAR,2311.0
KBBW 060653Z AUTO 00000KT 9SM CLR 17/15 A3007 RMK AO2 SLP164 T01670150,KBBW,2023-06-06T06:53:00Z,41.43,-99.63,16.7,15.0,0,0,,9.0,30.070866,1016.4,,TRUE,TRUE,,,,,,,CLR,,,,,,,,VFR,,,,,,,,,,,,METAR,771.0
KBAF 060653Z AUTO 00000KT 4SM BR CLR 10/09 A2972 RMK AO2 SLP064 T01000089,KBAF,2023-06-06T06:53:00Z,42.17,-72.72,10.0,8.9,0,0,,4.0,29.719488,1006.4,,TRUE,TRUE,,,,,,BR,CLR,,,,,,,,MVFR,,,,,,,,,,,,METAR,80.0
KAZO 060653Z AUTO 30005KT 10SM CLR 16/11 A2998 RMK AO2 SLP147 T01560106,KAZO,2023-06-06T06:53:00Z,42.23,-85.55,15.6,10.6,300,5,,10.0,29.97933,1014.7,,TRUE,TRUE,,,,,,,CLR,,,,,,,,VFR,,,,,,,,,,,,METAR,264.0
KAXN 060653Z AUTO 10006KT 10SM CLR 21/17 A3006 RMK AO2 SLP172 T02060172,KAXN,2023-06-06T06:53:00Z,45.87,-95.4,20.6,17.2,100,6,,10.0,30.059055,1017.2,,TRUE,TRUE,,,,,,,CLR,,,,,,,,VFR,,,,,,,,,,,,METAR,433.0
KAWM 060653Z AUTO 00000KT 6SM BR CLR 19/19 A2993 RMK AO2 SLP131 T01940189,KAWM,2023-06-06T06:53:00Z,35.13,-90.23,19.4,18.9,0,0,,6.0,29.929134,1013.1,,TRUE,TRUE,,,,,,BR,CLR,,,,,,,,VFR,,,,,,,,,,,,METAR,64.0
KAUS 060653Z 00000KT 8SM FEW090 BKN250 19/19 A2993 RMK AO2 SLP127 T01940189,KAUS,2023-06-06T06:53:00Z,30.18,-97.68,19.4,18.9,0,0,,8.0,29.929134,1012.7,,,TRUE,,,,,,,FEW,9000,BKN,25000,,,,,VFR,,,,,,,,,,,,METAR,148.0
KAUG 060653Z AUTO 32009KT 10SM BKN100 12/09 A2962 RMK AO2 SLP031 T01220094,KAUG,2023-06-06T06:53:00Z,44.32,-69.8,12.2,9.4,320,9,,10.0,29.619095,1003.1,,TRUE,TRUE,,,,,,,BKN,10000,,,,,,,VFR,,,,,,,,,,,,METAR,107.0
KATY 060653Z AUTO 00000KT 10SM CLR 19/15 A3002 RMK AO2 SLP155 T01890150,KATY,2023-06-06T06:53:00Z,44.9,-97.15,18.9,15.0,0,0,,10.0,30.02067,1015.5,,TRUE,TRUE,,,,,,,CLR,,,,,,,,VFR,,,,,,,,,,,,METAR,531.0
KASX 060653Z AUTO 08003KT 3SM BR OVC004 09/08 A3011 RMK AO2 SLP200 T00890083,KASX,2023-06-06T06:53:00Z,46.55,-90.92,8.9,8.3,80,3,,3.0,30.109253,1020.0,,TRUE,TRUE,,,,,,BR,OVC,400,,,,,,,LIFR,,,,,,,,,,,,METAR,249.0
KASE 060653Z AUTO 17007KT 10SM CLR 11/01 A3023 RMK AO2 SLP119 T01060011 402220028,KASE,2023-06-06T06:53:00Z,39.23,-106.87,10.6,1.1,170,7,,10.0,30.230314,1011.9,,TRUE,TRUE,,,,,,,CLR,,,,,,,,VFR,,,,22.2,2.8,,,,,,,METAR,2384.0
KASD 060653Z AUTO 01003KT 10SM FEW004 FEW027 22/21 A2992 RMK AO2 SLP132 T02170206,KASD,2023-06-06T06:53:00Z,30.35,-89.82,21.7,20.6,10,3,,10.0,29.920275,1013.2,,TRUE,TRUE,,,,,,,FEW,400,FEW,2700,,,,,VFR,,,,,,,,,,,,METAR,8.0
KARB 060653Z AUTO 00000KT 7SM CLR 12/09 A2993 RMK AO2 SLP133 T01220089,KARB,2023-06-06T06:53:00Z,42.22,-83.73,12.2,8.9,0,0,,7.0,29.929134,1013.3,,TRUE,TRUE,,,,,,,CLR,,,,,,,,VFR,,,,,,,,,,,,METAR,251.0
KARA 060653Z AUTO 07005KT 10SM CLR 21/18 A2992 RMK AO2 SLP130 T02110183,KARA,2023-06-06T06:53:00Z,30.03,-91.88,21.1,18.3,70,5,,10.0,29.920275,1013.0,,TRUE,TRUE,,,,,,,CLR,,,,,,,,VFR,,,,,,,,,,,,METAR,5.0
KAPF 060653Z AUTO 06008KT 9SM CLR 23/19 A2990 RMK AO2 SLP125 T02330189 PWINO,KAPF,2023-06-06T06:53:00Z,26.15,-81.77,23.3,18.9,60,8,,9.0,29.899607,1012.5,,TRUE,TRUE,,,,,TRUE,,CLR,,,,,,,,VFR,,,,,,,,,,,,METAR,2.0
KAPA 060653Z 17008KT 10SM FEW150 BKN220 12/08 A3017 RMK AO2 SLP172 T01170083 402000100,KAPA,2023-06-06T06:53:00Z,39.57,-104.85,11.7,8.3,170,8,,10.0,30.171259,1017.2,,,TRUE,,,,,,,FEW,15000,BKN,22000,,,,,VFR,,,,20.0,10.0,,,,,,,METAR,1791.0
KAOO 060653Z AUTO 7SM SCT035 OVC070 11/04 A2991 RMK AO2 SLPNO T01110044 $,KAOO,2023-06-06T06:53:00Z,40.3,-78.32,11.1,4.4,,,,7.0,29.911417,,,TRUE,TRUE,TRUE,,,,,,SCT,3500,OVC,7000,,,,,VFR,,,,,,,,,,,,METAR,450.0
KAOH 060653Z AUTO 23003KT 6SM HZ FEW075 14/06 A2997 RMK AO2 SLP145 T01440061,KAOH,2023-06-06T06:53:00Z,40.7,-84.02,14.4,6.1,230,3,,6.0,29.970472,1014.5,,TRUE,TRUE,,,,,,HZ,FEW,7500,,,,,,,VFR,,,,,,,,,,,,METAR,294.0
KANB 060653Z AUTO 00000KT 10SM CLR 19/18 A2996 RMK AO2 SLP136 T01890178,KANB,2023-06-06T06:53:00Z,33.58,-85.85,18.9,17.8,0,0,,10.0,29.958662,1013.6,,TRUE,TRUE,,,,,,,CLR,,,,,,,,VFR,,,,,,,,,,,,METAR,187.0
KAMW 060653Z AUTO 00000KT 6SM BR CLR 17/14 A3002 RMK AO2 SLP159 T01670144,KAMW,2023-06-06T06:53:00Z,41.98,-93.62,16.7,14.4,0,0,,6.0,30.02067,1015.9,,TRUE,TRUE,,,,,,BR,CLR,,,,,,,,VFR,,,,,,,,,,,,METAR,282.0
KAMG 060653Z AUTO 00000KT 10SM CLR 18/16 A2995 RMK AO2 SLP139 T01780161,KAMG,2023-06-06T06:53:00Z,31.53,-82.5,17.8,16.1,0,0,,10.0,29.949802,1013.9,,TRUE,TRUE,,,,,,,CLR,,,,,,,,VFR,,,,,,,,,,,,METAR,61.0
KAMA 060653Z AUTO 32003KT 10SM CLR 17/13 A3013 RMK AO2 SLP162 T01670133,KAMA,2023-06-06T06:53:00Z,35.22,-101.72,16.7,13.3,320,3,,10.0,30.129921,1016.2,,TRUE,TRUE,,,,,,,CLR,,,,,,,,VFR,,,,,,,,,,,,METAR,1102.0
KALW 060653Z AUTO 10005KT 10SM CLR 19/08 A2988 RMK AO2 SLP111 T01890078,KALW,2023-06-06T06:53:00Z,46.1,-118.28,18.9,7.8,100,5,,10.0,29.878937,1011.1,,TRUE,TRUE,,,,,,,CLR,,,,,,,,VFR,,,,,,,,,,,,METAR,355.0
KALI 060653Z AUTO 00000KT 10SM CLR 21/21 A2990 RMK AO2 SLP124 T02110211,KALI,2023-06-06T06:53:00Z,27.73,-98.02,21.1,21.1,0,0,,10.0,29.899607,1012.4,,TRUE,TRUE,,,,,,,CLR,,,,,,,,VFR,,,,,,,,,,,,METAR,52.0
KAKO 060653Z AUTO 18008KT 10SM CLR 13/10 A3015 RMK AO2 SLP165 T01330100 402220106 $,KAKO,2023-06-06T06:53:00Z,40.17,-103.22,13.3,10.0,180,8,,10.0,30.15059,1016.5,,TRUE,TRUE,TRUE,,,,,,CLR,,,,,,,,VFR,,,,22.2,10.6,,,,,,,METAR,1431.0
KAIA 060653Z AUTO 15007KT 10SM CLR 13/11 A3009 RMK AO2 SLP163 T01280111 402560072 $,KAIA,2023-06-06T06:53:00Z,42.05,-102.8,12.8,11.1,150,7,,10.0,30.088583,1016.3,,TRUE,TRUE,TRUE,,,,,,CLR,,,,,,,,VFR,,,,25.6,7.2,,,,,,,METAR,1198.0
KAGC 060653Z 28003KT 8SM CLR 15/06 A2992 RMK AO2 SLP132 T01500061,KAGC,2023-06-06T06:53:00Z,40.35,-79.92,15.0,6.1,280,3,,8.0,29.920275,1013.2,,,TRUE,,,,,,,CLR,,,,,,,,VFR,,,,,,,,,,,,METAR,380.0
KAFW 060653Z 00000KT 10SM SCT250 22/18 A2995 RMK AO2 SLP127 T02170183,KAFW,2023-06-06T06:53:00Z,32.97,-97.32,21.7,18.3,0,0,,10.0,29.949802,1012.7,,,TRUE,,,,,,,SCT,25000,,,,,,,VFR,,,,,,,,,,,,METAR,208.0
KADG 060653Z AUTO 27003KT 8SM BKN090 16/11 A2995 RMK AO2 SLP141 T01610111,KADG,2023-06-06T06:53:00Z,41.87,-84.08,16.1,11.1,270,3,,8.0,29.949802,1014.1,,TRUE,TRUE,,,,,,,BKN,9000,,,,,,,VFR,,,,,,,,,,,,METAR,244.0
KACK 060653Z AUTO 28008KT 10SM OVC085 13/12 RMK AO2 SLPNO T01280117 $,KACK,2023-06-06T06:53:00Z,41.25,-70.07,12.8,11.7,280,8,,10.0,,,,TRUE,TRUE,TRUE,,,,,,OVC,8500,,,,,,,VFR,,,,,,,,,,,,METAR,12.0
KABY 060653Z AUTO 00000KT 9SM CLR 19/16 A2996 RMK AO2 SLP142 T01890161,KABY,2023-06-06T06:53:00Z,31.53,-84.2,18.9,16.1,0,0,,9.0,29.958662,1014.2,,TRUE,TRUE,,,,,,,CLR,,,,,,,,VFR,,,,,,,,,,,,METAR,60.0
KABR 060653Z AUTO 00000KT 10SM CLR 17/14 A3000 RMK AO2 SLP149 T01720139,KABR,2023-06-06T06:53:00Z,45.45,-98.42,17.2,13.9,0,0,,10.0,30.0,1014.9,,TRUE,TRUE,,,,,,,CLR,,,,,,,,VFR,,,,,,,,,,,,METAR,397.0
KAAF 060653Z AUTO 00000KT 9SM CLR 21/20 A2992 RMK AO2 SLP133 T02110200 $,KAAF,2023-06-06T06:53:00Z,29.73,-85.03,21.1,20.0,0,0,,9.0,29.920275,1013.3,,TRUE,TRUE,TRUE,,,,,,CLR,,,,,,,,VFR,,,,,,,,,,,,METAR,5.0
RJSH 060652Z 01010KT 9999 FEW030 SCT080 BKN130 20/13 Q1005 RMK 1CU030 3AC080 6AC130 A2970,RJSH,2023-06-06T06:52:00Z,40.55,141.47,20.0,13.0,10,10,,6.21,29.675198,,,,,,,,,,,FEW,3000,SCT,8000,BKN,13000,,,VFR,,,,,,,,,,,,METAR,46.0
PKMR 060652Z 07006KT 15SM FEW014 SCT045 BKN120 OVC300 28/25 A2982 RMK SHRAB21E43 SLP098 T02770249,PKMR,2023-06-06T06:52:00Z,7.08,171.38,27.7,24.9,70,6,,15.0,29.819881,1009.8,,,,,,,,,,FEW,1400,SCT,4500,BKN,12000,OVC,30000,VFR,,,,,,,,,,,,SPECI,7.0
PATA 060652Z AUTO 03003KT 10SM CLR 18/06 A2981 RMK AO2 SLP096 T01830061 TSNO,PATA,2023-06-06T06:52:00Z,65.17,-152.1,18.3,6.1,30,3,,10.0,29.811024,1009.6,,TRUE,TRUE,,,TRUE,,,,CLR,,,,,,,,VFR,,,,,,,,,,,,METAR,62.0
PABA 060652Z AUTO 08010KT 10SM CLR 01/00 A3012 RMK AO2 SLP205 T00110000 FZRANO,PABA,2023-06-06T06:52:00Z,70.13,-143.58,1.1,0.0,80,10,,10.0,30.121063,1020.5,,TRUE,TRUE,,,,TRUE,,,CLR,,,,,,,,VFR,,,,,,,,,,,,METAR,1.0
KVTN 060652Z AUTO 00000KT 10SM CLR 17/14 A3007 RMK AO2 SLP165 T01720144,KVTN,2023-06-06T06:52:00Z,42.87,-100.55,17.2,14.4,0,0,,10.0,30.070866,1016.5,,TRUE,TRUE,,,,,,,CLR,,,,,,,,VFR,,,,,,,,,,,,METAR,790.0
KTRM 060652Z AUTO 34015KT 7SM 21/08 A2969 RMK AO2 SLP055 T02060083 $,KTRM,2023-06-06T06:52:00Z,33.63,-116.17,20.6,8.3,340,15,,7.0,29.68996,1005.5,,TRUE,TRUE,TRUE,,,,,,,,,,,,,,,,,,,,,,,,,,METAR,-39.0
KTOL 060652Z 00000KT 8SM OVC090 18/07 A2994 RMK AO2 SLP135 T01780072,KTOL,2023-06-06T06:52:00Z,41.58,-83.8,17.8,7.2,0,0,,8.0,29.940945,1013.5,,,TRUE,,,,,,,OVC,9000,,,,,,,VFR,,,,,,,,,,,,METAR,206.0
KTAN 060652Z AUTO 00000KT 10SM SCT060 BKN080 OVC095 13/11 A2968 RMK AO2 SLP052 T01280111,KTAN,2023-06-06T06:52:00Z,41.88,-71.02,12.8,11.1,0,0,,10.0,29.681103,1005.2,,TRUE,TRUE,,,,,,,SCT,6000,BKN,8000,OVC,9500,,,VFR,,,,,,,,,,,,METAR,8.0
KSUX 060652Z AUTO 10003KT 10SM CLR 19/16 A3002 RMK AO2 SLP157 T01890156,KSUX,2023-06-06T06:52:00Z,42.38,-96.38,18.9,15.6,100,3,,10.0,30.02067,1015.7,,TRUE,TRUE,,,,,,,CLR,,,,,,,,VFR,,,,,,,,,,,,METAR,332.0
KSPS 060652Z 33005KT 10SM CLR 19/18 A2998 RMK AO2 SLP138 T01940183,KSPS,2023-06-06T06:52:00Z,33.98,-98.5,19.4,18.3,330,5,,10.0,29.97933,1013.8,,,TRUE,,,,,,,CLR,,,,,,,,VFR,,,,,,,,,,,,METAR,310.0
KSPI 060652Z AUTO 00000KT 8SM CLR 13/09 A3002 RMK AO2 SLP161 T01330094,KSPI,2023-06-06T06:52:00Z,39.85,-89.68,13.3,9.4,0,0,,8.0,30.02067,1016.1,,TRUE,TRUE,,,,,,,CLR,,,,,,,,VFR,,,,,,,,,,,,METAR,179.0
KSGF 060652Z 15003KT 9SM CLR 19/13 A3002 RMK AO2 SLP154 T01940128 $,KSGF,2023-06-06T06:52:00Z,37.23,-93.38,19.4,12.8,150,3,,9.0,30.02067,1015.4,,,TRUE,TRUE,,,,,,CLR,,,,,,,,VFR,,,,,,,,,,,,METAR,387.0
KREO 060652Z AUTO 05004KT 16/06 A2998 RMK AO1 SLP115 T01610056 402940083,KREO,2023-06-06T06:52:00Z,42.58,-117.87,16.1,5.6,50,4,,,29.97933,1011.5,,TRUE,TRUE,,,,,,,,,,,,,,,,,,,29.4,8.3,,,,,,,METAR,1237.0
KRAP 060652Z AUTO 14003KT 10SM CLR 16/14 A3004 RMK AO2 SLP151 T01610139 402670133,KRAP,2023-06-06T06:52:00Z,44.05,-103.05,16.1,13.9,140,3,,10.0,30.041338,1015.1,,TRUE,TRUE,,,,,,,CLR,,,,,,,,VFR,,,,26.7,13.3,,,,,,,METAR,965.0
KPYM 060652Z AUTO 30003KT 10SM SCT065 OVC080 13/11 A2967 RMK AO2 SLP050 T01330111,KPYM,2023-06-06T06:52:00Z,41.92,-70.73,13.3,11.1,300,3,,10.0,29.66929,1005.0,,TRUE,TRUE,,,,,,,SCT,6500,OVC,8000,,,,,VFR,,,,,,,,,,,,METAR,42.0
KPWK 060652Z AUTO 00000KT 10SM CLR 18/10 A3002 RMK AO2 SLP162 T01780100,KPWK,2023-06-06T06:52:00Z,42.12,-87.9,17.8,10.0,0,0,,10.0,30.02067,1016.2,,TRUE,TRUE,,,,,,,CLR,,,,,,,,VFR,,,,,,,,,,,,METAR,194.0
KP69 060652Z AUTO 00000KT 14/13 A2999 RMK AO1 SLP144 T01440133,KP69,2023-06-06T06:52:00Z,46.15,-115.6,14.4,13.3,0,0,,,29.991142,1014.4,,TRUE,TRUE,,,,,,,,,,,,,,,,,,,,,,,,,,,METAR,447.0
KOMA 060652Z 16005KT 10SM SCT250 21/16 A3003 RMK AO2 SLP161 T02060161,KOMA,2023-06-06T06:52:00Z,41.32,-95.9,20.6,16.1,160,5,,10.0,30.029528,1016.1,,,TRUE,,,,,,,SCT,25000,,,,,,,VFR,,,,,,,,,,,,METAR,299.0
KOKC 060652Z 32003KT 10SM FEW250 19/15 A2999 RMK AO2 SLP142 T01940150,KOKC,2023-06-06T06:52:00Z,35.38,-97.6,19.4,15.0,320,3,,10.0,29.991142,1014.2,,,TRUE,,,,,,,FEW,25000,,,,,,,VFR,,,,,,,,,,,,METAR,391.0
KOKB 060652Z AUTO 16004KT 10SM BKN032 OVC046 17/09 A2991 RMK AO2 SLP129 T01670094,KOKB,2023-06-06T06:52:00Z,33.22,-117.35,16.7,9.4,160,4,,10.0,29.911417,1012.9,,TRUE,TRUE,,,,,,,BKN,3200,OVC,4600,,,,,VFR,,,,,,,,,,,,METAR,7.0
KNZY 060652Z 20005KT 10SM FEW026 BKN042 16/11 A2992 RMK AO2 SLP132 T01610106,KNZY,2023-06-06T06:52:00Z,32.7,-117.22,16.1,10.6,200,5,,10.0,29.920275,1013.2,,,TRUE,,,,,,,FEW,2600,BKN,4200,,,,,VFR,,,,,,,,,,,,SPECI,4.0
KNRB 060652Z AUTO 00000KT 10SM CLR 22/19 A2995 RMK AO2 SLP141 T02220194,KNRB,2023-06-06T06:52:00Z,30.38,-81.42,22.2,19.4,0,0,,10.0,29.949802,1014.1,,TRUE,TRUE,,,,,,,CLR,,,,,,,,VFR,,,,,,,,,,,,SPECI,4.0
KNHK 060652Z AUTO 24004KT 10SM CLR 16/11 A2985 RMK AO2 SLP108 T01560111,KNHK,2023-06-06T06:52:00Z,38.28,-76.4,15.6,11.1,240,4,,10.0,29.84941,1010.8,,TRUE,TRUE,,,,,,,CLR,,,,,,,,VFR,,,,,,,,,,,,SPECI,5.0
KNFW 060652Z AUTO 00000KT 10SM CLR 22/18 A2996 RMK AO2 SLP128 T02170183 TSNO CHINO S VISNO S $,KNFW,2023-06-06T06:52:00Z,32.78,-97.43,21.7,18.3,0,0,,10.0,29.958662,1012.8,,TRUE,TRUE,TRUE,,TRUE,,,,CLR,,,,,,,,VFR,,,,,,,,,,,,METAR,188.0
KN60 060652Z AUTO 10004KT 20/16 A2998 RMK AO1 SLP141 T02000161,KN60,2023-06-06T06:52:00Z,47.65,-101.43,20.0,16.1,100,4,,,29.97933,1014.1,,TRUE,TRUE,,,,,,,,,,,,,,,,,,,,,,,,,,,METAR,582.0
KMWH 060652Z AUTO 35007KT 10SM CLR 17/00 A2992 RMK AO2 SLP125 T01670000,KMWH,2023-06-06T06:52:00Z,47.2,-119.32,16.7,0.0,350,7,,10.0,29.920275,1012.5,,TRUE,TRUE,,,,,,,CLR,,,,,,,,VFR,,,,,,,,,,,,METAR,355.0
KMLI 060652Z AUTO 00000KT 10SM CLR 16/11 A3001 RMK AO2 SLP159 T01560111,KMLI,2023-06-06T06:52:00Z,41.45,-90.52,15.6,11.1,0,0,,10.0,30.008858,1015.9,,TRUE,TRUE,,,,,,,CLR,,,,,,,,VFR,,,,,,,,,,,,METAR,174.0
KMLF 060652Z AUTO 35015KT 10SM CLR 19/04 A2991 RMK AO2 SLP060 T01890044 402940100,KMLF,2023-06-06T06:52:00Z,38.42,-113.02,18.9,4.4,350,15,,10.0,29.911417,1006.0,,TRUE,TRUE,,,,,,,CLR,,,,,,,,VFR,,,,29.4,10.0,,,,,,,METAR,1537.0
KMKE 060652Z 03008KT 8SM SCT090 19/12 A3001 RMK AO2 SLP158 T01940122,KMKE,2023-06-06T06:52:00Z,42.95,-87.9,19.4,12.2,30,8,,8.0,30.008858,1015.8,,,TRUE,,,,,,,SCT,9000,,,,,,,VFR,,,,,,,,,,,,METAR,203.0
KMHK 060652Z AUTO 00000KT 10SM CLR 16/14 A3004 RMK AO2 SLP164 T01610144,KMHK,2023-06-06T06:52:00Z,39.13,-96.68,16.1,14.4,0,0,,10.0,30.041338,1016.4,,TRUE,TRUE,,,,,,,CLR,,,,,,,,VFR,,,,,,,,,,,,METAR,320.0
KMFD 060652Z AUTO 19004KT 7SM CLR 11/07 A2997 RMK AO2 SLP144 T01110072,KMFD,2023-06-06T06:52:00Z,40.82,-82.52,11.1,7.2,190,4,,7.0,29.970472,1014.4,,TRUE,TRUE,,,,,,,CLR,,,,,,,,VFR,,,,,,,,,,,,METAR,394.0
KMEB 060652Z AUTO 18003KT 10SM CLR 16/14 A2993 RMK AO2 SLP132 T01610139,KMEB,2023-06-06T06:52:00Z,34.78,-79.37,16.1,13.9,180,3,,10.0,29.929134,1013.2,,TRUE,TRUE,,,,,,,CLR,,,,,,,,VFR,,,,,,,,,,,,METAR,65.0
KMDH 060652Z AUTO 00000KT 5SM HZ CLR 13/11 A2999 RMK AO2 SLP153 T01330106,KMDH,2023-06-06T06:52:00Z,37.78,-89.25,13.3,10.6,0,0,,5.0,29.991142,1015.3,,TRUE,TRUE,,,,,,HZ,CLR,,,,,,,,MVFR,,,,,,,,,,,,METAR,122.0
KMBG 060652Z AUTO 13005KT 10SM CLR 18/16 A2998 RMK AO2 SLP141 T01830156,KMBG,2023-06-06T06:52:00Z,45.55,-100.42,18.3,15.6,130,5,,10.0,29.97933,1014.1,,TRUE,TRUE,,,,,,,CLR,,,,,,,,VFR,,,,,,,,,,,,METAR,515.0
KLWC 060652Z AUTO 33004KT 5SM BR CLR 16/16 A3003 RMK AO1 SLP163 T01610156,KLWC,2023-06-06T06:52:00Z,39.02,-95.22,16.1,15.6,330,4,,5.0,30.029528,1016.3,,TRUE,TRUE,,,,,,BR,CLR,,,,,,,,MVFR,,,,,,,,,,,,METAR,252.0
KIOW 060652Z AUTO 26003KT 10SM CLR 18/10 A3003 RMK AO2 SLP166 T01830100,KIOW,2023-06-06T06:52:00Z,41.63,-91.55,18.3,10.0,260,3,,10.0,30.029528,1016.6,,TRUE,TRUE,,,,,,,CLR,,,,,,,,VFR,,,,,,,,,,,,METAR,199.0
KIJD 060652Z AUTO 00000KT 10SM BKN080 12/11 A2972 RMK AO2 SLP062 T01220111,KIJD,2023-06-06T06:52:00Z,41.75,-72.18,12.2,11.1,0,0,,10.0,29.719488,1006.2,,TRUE,TRUE,,,,,,,BKN,8000,,,,,,,VFR,,,,,,,,,,,,METAR,73.0
KIEN 060652Z AUTO 00000KT 10SM CLR 16/11 A3007 RMK AO2 SLP156 T01560111 402720139,KIEN,2023-06-06T06:52:00Z,43.03,-102.52,15.6,11.1,0,0,,10.0,30.070866,1015.6,,TRUE,TRUE,,,,,,,CLR,,,,,,,,VFR,,,,27.2,13.9,,,,,,,METAR,1002.0
KIAD 060652Z 00000KT 10SM CLR 14/08 A2987 RMK AO2 SLP114 T01390078,KIAD,2023-06-06T06:52:00Z,38.93,-77.45,13.9,7.8,0,0,,10.0,29.870079,1011.4,,,TRUE,,,,,,,CLR,,,,,,,,VFR,,,,,,,,,,,,METAR,90.0
KHUT 060652Z AUTO 32004KT 10SM CLR 17/16 A3005 RMK AO2 SLP154 T01670161,KHUT,2023-06-06T06:52:00Z,38.07,-97.87,16.7,16.1,320,4,,10.0,30.050198,1015.4,,TRUE,TRUE,,,,,,,CLR,,,,,,,,VFR,,,,,,,,,,,,METAR,464.0
KHRL 060652Z AUTO 36004KT 10SM CLR 22/22 A2989 RMK AO2 SLP120 T02220222,KHRL,2023-06-06T06:52:00Z,26.23,-97.65,22.2,22.2,360,4,,10.0,29.890747,1012.0,,TRUE,TRUE,,,,,,,CLR,,,,,,,,VFR,,,,,,,,,,,,METAR,9.0
KHIE 060652Z AUTO 00000KT 1/4SM FG VV002 05/05 A2971 RMK AO2 SLP063 T00500050,KHIE,2023-06-06T06:52:00Z,44.37,-71.55,5.0,5.0,0,0,,0.25,29.71063,1006.3,,TRUE,TRUE,,,,,,FG,OVX,0,,,,,,,LIFR,,,,,,,,,,,200,METAR,321.0
KGLS 060652Z AUTO 00000KT 10SM CLR 23/22 A2990 RMK AO2 SLP126 T02330217,KGLS,2023-06-06T06:52:00Z,29.27,-94.87,23.3,21.7,0,0,,10.0,29.899607,1012.6,,TRUE,TRUE,,,,,,,CLR,,,,,,,,VFR,,,,,,,,,,,,METAR,2.0
KFIT 060652Z AUTO 32007KT 10SM CLR 13/08 A2970 RMK AO2 SLP057 T01330078,KFIT,2023-06-06T06:52:00Z,42.55,-71.75,13.3,7.8,320,7,,10.0,29.698818,1005.7,,TRUE,TRUE,,,,,,,CLR,,,,,,,,VFR,,,,,,,,,,,,METAR,102.0
KEST 060652Z AUTO 20005KT 9SM OVC120 22/14 A3002 RMK AO2 SLP153 T02220139,KEST,2023-06-06T06:52:00Z,43.4,-94.75,22.2,13.9,200,5,,9.0,30.02067,1015.3,,TRUE,TRUE,,,,,,,OVC,12000,,,,,,,VFR,,,,,,,,,,,,METAR,401.0
KDVN 060652Z AUTO 00000KT 10SM CLR 16/07 A3003 RMK AO2 SLP163 T01610072,KDVN,2023-06-06T06:52:00Z,41.62,-90.58,16.1,7.2,0,0,,10.0,30.029528,1016.3,,TRUE,TRUE,,,,,,,CLR,,,,,,,,VFR,,,,,,,,,,,,METAR,227.0
KDPA 060652Z 00000KT 10SM CLR 17/10 A3001 RMK AO2 SLP157 T01670100,KDPA,2023-06-06T06:52:00Z,41.88,-88.25,16.7,10.0,0,0,,10.0,30.008858,1015.7,,,TRUE,,,,,,,CLR,,,,,,,,VFR,,,,,,,,,,,,METAR,228.0
KDDC 060652Z AUTO 00000KT 9SM CLR 18/13 A3008 RMK AO2 SLP161 T01780128,KDDC,2023-06-06T06:52:00Z,37.77,-99.97,17.8,12.8,0,0,,9.0,30.079725,1016.1,,TRUE,TRUE,,,,,,,CLR,,,,,,,,VFR,,,,,,,,,,,,METAR,786.0
KDCA 060652Z 00000KT 10SM BKN250 19/08 A2986 RMK AO2 SLP112 T01940078 $,KDCA,2023-06-06T06:52:00Z,38.85,-77.03,19.4,7.8,0,0,,10.0,29.861221,1011.2,,,TRUE,TRUE,,,,,,BKN,25000,,,,,,,VFR,,,,,,,,,,,,METAR,4.0
KCVG 060652Z 00000KT 5SM HZ CLR 15/06 A2998 RMK AO2 SLP143 T01500061,KCVG,2023-06-06T06:52:00Z,39.05,-84.67,15.0,6.1,0,0,,5.0,29.97933,1014.3,,,TRUE,,,,,,HZ,CLR,,,,,,,,MVFR,,,,,,,,,,,,METAR,264.0
KCQX 060652Z AUTO VRB03KT 10SM FEW028 OVC085 13/12 A2967 RMK AO2 SLP046 T01330117,KCQX,2023-06-06T06:52:00Z,41.68,-70.0,13.3,11.7,0,3,,10.0,29.66929,1004.6,,TRUE,TRUE,,,,,,,FEW,2800,OVC,8500,,,,,VFR,,,,,,,,,,,,METAR,17.0
KCNU 060652Z AUTO 01003KT 10SM CLR 18/16 A3002 RMK AO2 SLP155 T01830156,KCNU,2023-06-06T06:52:00Z,37.67,-95.48,18.3,15.6,10,3,,10.0,30.02067,1015.5,,TRUE,TRUE,,,,,,,CLR,,,,,,,,VFR,,,,,,,,,,,,METAR,301.0
KCLT 060652Z 00000KT 8SM SCT033 19/17 A2993 RMK AO2 SLP143 T01890172,KCLT,2023-06-06T06:52:00Z,35.22,-80.95,18.9,17.2,0,0,,8.0,29.929134,1014.3,,,TRUE,,,,,,,SCT,3300,,,,,,,VFR,,,,,,,,,,,,METAR,223.0
KCKV 060652Z AUTO 02003KT 10SM CLR 21/14 A2995 RMK AO2 SLP136 T02060139,KCKV,2023-06-06T06:52:00Z,36.62,-87.42,20.6,13.9,20,3,,10.0,29.949802,1013.6,,TRUE,TRUE,,,,,,,CLR,,,,,,,,VFR,,,,,,,,,,,,METAR,166.0
KCID 060652Z AUTO 00000KT 10SM CLR 17/12 A3002 RMK AO2 SLP159 T01670122,KCID,2023-06-06T06:52:00Z,41.88,-91.72,16.7,12.2,0,0,,10.0,30.02067,1015.9,,TRUE,TRUE,,,,,,,CLR,,,,,,,,VFR,,,,,,,,,,,,METAR,257.0
KCFV 060652Z AUTO 06003KT 10SM CLR 19/18 A3000 RMK AO2 SLP152 T01940178,KCFV,2023-06-06T06:52:00Z,37.08,-95.57,19.4,17.8,60,3,,10.0,30.0,1015.2,,TRUE,TRUE,,,,,,,CLR,,,,,,,,VFR,,,,,,,,,,,,METAR,228.0
KBML 060652Z AUTO 00000KT 1/4SM FG VV001 08/08 A2970 RMK AO2 SLP061 T00830078,KBML,2023-06-06T06:52:00Z,44.58,-71.18,8.3,7.8,0,0,,0.25,29.698818,1006.1,,TRUE,TRUE,,,,,,FG,OVX,0,,,,,,,LIFR,,,,,,,,,,,100,METAR,344.0
KBLU 060652Z AUTO 23006KT 10SM OVC100 14/03 A2999 RMK AO2 SLP063 T01440033 $,KBLU,2023-06-06T06:52:00Z,39.28,-120.7,14.4,3.3,230,6,,10.0,29.991142,1006.3,,TRUE,TRUE,TRUE,,,,,,OVC,10000,,,,,,,VFR,,,,,,,,,,,,METAR,1605.0
KBLH 060652Z AUTO 19009KT 10SM CLR 26/M02 A2969 RMK AO2 SLP047 T02611022,KBLH,2023-06-06T06:52:00Z,33.62,-114.72,26.1,-2.2,190,9,,10.0,29.68996,1004.7,,TRUE,TRUE,,,,,,,CLR,,,,,,,,VFR,,,,,,,,,,,,METAR,119.0
KBLF 060652Z AUTO 24004KT 8SM CLR 11/09 A3001 RMK AO2 SLP136 T01060094,KBLF,2023-06-06T06:52:00Z,37.3,-81.2,10.6,9.4,240,4,,8.0,30.008858,1013.6,,TRUE,TRUE,,,,,,,CLR,,,,,,,,VFR,,,,,,,,,,,,METAR,871.0
KBKB 060652Z AUTO 00000KT CLR 19/19 A2990 RMK AO2 SLP152 T01940189 $,KBKB,2023-06-06T06:52:00Z,31.02,-92.92,19.4,18.9,0,0,,,29.899607,1015.2,,TRUE,TRUE,TRUE,,,,,,CLR,,,,,,,,,,,,,,,,,,,,SPECI,74.0
KBIS 060652Z 14005KT 10SM CLR 19/15 A3000 RMK AO2 SLP148 T01890150,KBIS,2023-06-06T06:52:00Z,46.77,-100.75,18.9,15.0,140,5,,10.0,30.0,1014.8,,,TRUE,,,,,,,CLR,,,,,,,,VFR,,,,,,,,,,,,METAR,506.0
KBAN 060652Z AUTO VRB03KT 10SM OVC038 08/04 A3007 RMK AO2 RAE13 SLP091 P0000 T00830044 $,KBAN,2023-06-06T06:52:00Z,38.35,-119.52,8.3,4.4,0,3,,10.0,30.070866,1009.1,,TRUE,TRUE,TRUE,,,,,,OVC,3800,,,,,,,VFR,,,,,,0.005,,,,,,METAR,2067.0
KATL 060652Z 25006KT 10SM SCT250 22/17 A2994 RMK AO2 SLP130 T02220172 $,KATL,2023-06-06T06:52:00Z,33.63,-84.45,22.2,17.2,250,6,,10.0,29.940945,1013.0,,,TRUE,TRUE,,,,,,SCT,25000,,,,,,,VFR,,,,,,,,,,,,METAR,309.0
KARR 060652Z AUTO 00000KT 8SM CLR 16/09 A3001 RMK AO2 SLP158 T01560089,KARR,2023-06-06T06:52:00Z,41.77,-88.48,15.6,8.9,0,0,,8.0,30.008858,1015.8,,TRUE,TRUE,,,,,,,CLR,,,,,,,,VFR,,,,,,,,,,,,METAR,213.0
KAQW 060652Z AUTO 00000KT 7SM CLR 08/06 A2975 RMK AO2 SLP076 T00830061,KAQW,2023-06-06T06:52:00Z,42.7,-73.17,8.3,6.1,0,0,,7.0,29.749016,1007.6,,TRUE,TRUE,,,,,,,CLR,,,,,,,,VFR,,,,,,,,,,,,METAR,196.0
KALS 060652Z AUTO 30005KT 10SM OVC090 11/07 A3029 RMK AO2 SLP175 T01110072 402330044,KALS,2023-06-06T06:52:00Z,37.43,-105.87,11.1,7.2,300,5,,10.0,30.28937,1017.5,,TRUE,TRUE,,,,,,,OVC,9000,,,,,,,VFR,,,,23.3,4.4,,,,,,,METAR,2299.0
KAFN 060652Z AUTO 19003KT 10SM FEW075 09/07 A2971 RMK AO2 SLP068 T00890072,KAFN,2023-06-06T06:52:00Z,42.8,-72.0,8.9,7.2,190,3,,10.0,29.71063,1006.8,,TRUE,TRUE,,,,,,,FEW,7500,,,,,,,VFR,,,,,,,,,,,,METAR,308.0
KABQ 060652Z 11014KT 10SM SCT110 BKN140 18/07 A3016 RMK AO2 PK WND 09028/0559 SLP136 T01780072 402940161,KABQ,2023-06-06T06:52:00Z,35.05,-106.62,17.8,7.2,110,14,,10.0,30.159449,1013.6,,,TRUE,,,,,,,SCT,11000,BKN,14000,,,,,VFR,,,,29.4,16.1,,,,,,,METAR,1620.0
KABI 060652Z 00000KT 6SM BR SCT055 18/17 A3003 RMK AO2 SLP148 T01780167 $,KABI,2023-06-06T06:52:00Z,32.42,-99.68,17.8,16.7,0,0,,6.0,30.029528,1014.8,,,TRUE,TRUE,,,,,BR,SCT,5500,,,,,,,VFR,,,,,,,,,,,,METAR,543.0
PHBK 060651Z AUTO 11004KT 10SM CLR 23/16 A3010 RMK AO2 SLP194 T02280161,PHBK,2023-06-06T06:51:00Z,22.03,-159.78,22.8,16.1,110,4,,10.0,30.100393,1019.4,,TRUE,TRUE,,,,,,,CLR,,,,,,,,VFR,,,,,,,,,,,,SPECI,5.0
MUGM 060651Z 30005KT 10SM FEW020 FEW250 27/26 A2994 RMK AO2 SLP136 T02670261 $,MUGM,2023-06-06T06:51:00Z,19.9,-75.2,26.7,26.1,300,5,,10.0,29.940945,1013.6,,,TRUE,TRUE,,,,,,FEW,2000,FEW,25000,,,,,VFR,,,,,,,,,,,,SPECI,21.0
KYNG 060651Z 23003KT 10SM BKN250 11/07 A2993 RMK AO2 SLP131 T01060067,KYNG,2023-06-06T06:51:00Z,41.25,-80.67,10.6,6.7,230,3,,10.0,29.929134,1013.1,,,TRUE,,,,,,,BKN,25000,,,,,,,VFR,,,,,,,,,,,,METAR,356.0
KXWA 060651Z AUTO 15007KT 10SM CLR 21/15 A2998 RMK AO2 SLP140 T02060150,KXWA,2023-06-06T06:51:00Z,48.27,-103.75,20.6,15.0,150,7,,10.0,29.97933,1014.0,,TRUE,TRUE,,,,,,,CLR,,,,,,,,VFR,,,,,,,,,,,,METAR,717.0
KVNY 060651Z AUTO 14004KT 10SM FEW027 OVC038 16/10 A2991 RMK AO2 SLP122 T01560100,KVNY,2023-06-06T06:51:00Z,34.22,-118.48,15.6,10.0,140,4,,10.0,29.911417,1012.2,,TRUE,TRUE,,,,,,,FEW,2700,OVC,3800,,,,,VFR,,,,,,,,,,,,METAR,241.0
KVCT 060651Z AUTO 35004KT 5SM HZ CLR 21/ A2991 RMK AO2 SLP128 T0206 $,KVCT,2023-06-06T06:51:00Z,28.87,-96.93,20.6,,350,4,,5.0,29.911417,1012.8,,TRUE,TRUE,TRUE,,,,,HZ,CLR,,,,,,,,MVFR,,,,,,,,,,,,METAR,33.0
KUGN 060651Z AUTO 31004KT 10SM CLR 17/08 A3001 RMK AO2 SLP153 T01720083,KUGN,2023-06-06T06:51:00Z,42.42,-87.87,17.2,8.3,310,4,,10.0,30.008858,1015.3,,TRUE,TRUE,,,,,,,CLR,,,,,,,,VFR,,,,,,,,,,,,METAR,217.0
KTPL 060651Z AUTO 00000KT CLR 21/19 A2995 RMK AO2 SLP130 T02060194 PWINO RVRNO $,KTPL,2023-06-06T06:51:00Z,31.15,-97.4,20.6,19.4,0,0,,,29.949802,1013.0,,TRUE,TRUE,TRUE,,,,TRUE,,CLR,,,,,,,,,,,,,,,,,,,,METAR,206.0
KTEB 060651Z 34004KT 7SM CLR 16/05 A2975 RMK AO2 SLP073 T01610050,KTEB,2023-06-06T06:51:00Z,40.87,-74.05,16.1,5.0,340,4,,7.0,29.749016,1007.3,,,TRUE,,,,,,,CLR,,,,,,,,VFR,,,,,,,,,,,,METAR,3.0
KSTL 060651Z 00000KT 10SM CLR 18/11 A3001 RMK AO2 SLP153 T01780111,KSTL,2023-06-06T06:51:00Z,38.75,-90.37,17.8,11.1,0,0,,10.0,30.008858,1015.3,,,TRUE,,,,,,,CLR,,,,,,,,VFR,,,,,,,,,,,,METAR,163.0
KSNT 060651Z AUTO 14003KT 06/05 A3014 RMK AO1 SLP137 T00610050 401940056,KSNT,2023-06-06T06:51:00Z,44.17,-114.93,6.1,5.0,140,3,,,30.138779,1013.7,,TRUE,TRUE,,,,,,,,,,,,,,,,,,,19.4,5.6,,,,,,,METAR,1980.0
KSLK 060651Z AUTO 04003KT 9SM BKN050 OVC120 06/05 A2976 RMK AO2 SLP079 T00610050,KSLK,2023-06-06T06:51:00Z,44.4,-74.2,6.1,5.0,40,3,,9.0,29.760826,1007.9,,TRUE,TRUE,,,,,,,BKN,5000,OVC,12000,,,,,VFR,,,,,,,,,,,,METAR,502.0
KSJT 060651Z AUTO 00000KT 9SM CLR 18/16 A3003 RMK AO2 SLP149 T01780161,KSJT,2023-06-06T06:51:00Z,31.37,-100.5,17.8,16.1,0,0,,9.0,30.029528,1014.9,,TRUE,TRUE,,,,,,,CLR,,,,,,,,VFR,,,,,,,,,,,,METAR,582.0
KSAT 060651Z 30004KT 10SM FEW080 SCT250 21/18 A2994 RMK AO2 SLP121 T02060183,KSAT,2023-06-06T06:51:00Z,29.53,-98.48,20.6,18.3,300,4,,10.0,29.940945,1012.1,,,TRUE,,,,,,,FEW,8000,SCT,25000,,,,,VFR,,,,,,,,,,,,METAR,246.0
KSAN 060651Z 16006KT 10SM FEW028 BKN045 17/09 A2994 RMK AO2 SLP140 T01670094 $,KSAN,2023-06-06T06:51:00Z,32.73,-117.18,16.7,9.4,160,6,,10.0,29.940945,1014.0,,,TRUE,TRUE,,,,,,FEW,2800,BKN,4500,,,,,VFR,,,,,,,,,,,,METAR,3.0
KSAD 060651Z AUTO 29009KT 10SM CLR 27/M07 A2985 RMK AO2 SLP044 T02671067 403780206,KSAD,2023-06-06T06:51:00Z,32.85,-109.63,26.7,-6.7,290,9,,10.0,29.84941,1004.4,,TRUE,TRUE,,,,,,,CLR,,,,,,,,VFR,,,,37.8,20.6,,,,,,,METAR,937.0
KROW 060651Z AUTO 09008KT 10SM FEW090 OVC110 19/16 A3014 RMK AO2 RAE12 SLP147 P0001 T01890156 402940167,KROW,2023-06-06T06:51:00Z,33.3,-104.5,18.9,15.6,90,8,,10.0,30.138779,1014.7,,TRUE,TRUE,,,,,,,FEW,9000,OVC,11000,,,,,VFR,,,,29.4,16.7,0.01,,,,,,METAR,1105.0
KRDU 060651Z 24003KT 10SM FEW060 FEW250 18/16 A2991 RMK SLP123 T01780156,KRDU,2023-06-06T06:51:00Z,35.9,-78.78,17.8,15.6,240,3,,10.0,29.911417,1012.3,,,,,,,,,,FEW,6000,FEW,25000,,,,,VFR,,,,,,,,,,,,METAR,121.0
KPWM 060651Z AUTO 28008KT 10SM OVC095 12/10 A2964 RMK AO2 SLP036 T01170100,KPWM,2023-06-06T06:51:00Z,43.65,-70.3,11.7,10.0,280,8,,10.0,29.639763,1003.6,,TRUE,TRUE,,,,,,,OVC,9500,,,,,,,VFR,,,,,,,,,,,,METAR,15.0
KPVD 060651Z 26004KT 10SM BKN065 OVC080 13/11 A2970 RMK AO2 SLP057 T01330106,KPVD,2023-06-06T06:51:00Z,41.72,-71.43,13.3,10.6,260,4,,10.0,29.698818,1005.7,,,TRUE,,,,,,,BKN,6500,OVC,8000,,,,,VFR,,,,,,,,,,,,METAR,15.0
KPIT 060651Z 28004KT 10SM FEW060 SCT250 12/07 A2993 RMK AO2 SLP137 T01170067,KPIT,2023-06-06T06:51:00Z,40.47,-80.2,11.7,6.7,280,4,,10.0,29.929134,1013.7,,,TRUE,,,,,,,FEW,6000,SCT,25000,,,,,VFR,,,,,,,,,,,,METAR,339.0
KPHX 060651Z 31007KT 10SM FEW140 SCT250 29/M08 A2976 RMK AO2 SLP057 T02941078 404170256,KPHX,2023-06-06T06:51:00Z,33.43,-112.02,29.4,-7.8,310,7,,10.0,29.760826,1005.7,,,TRUE,,,,,,,FEW,14000,SCT,25000,,,,,VFR,,,,41.7,25.6,,,,,,,METAR,338.0
KP59 060651Z AUTO VRB03KT 09/06 A3012 RMK AO1 SLP199 T00890056 $,KP59,2023-06-06T06:51:00Z,47.47,-87.88,8.9,5.6,0,3,,,30.121063,1019.9,,TRUE,TRUE,TRUE,,,,,,,,,,,,,,,,,,,,,,,,,,METAR,185.0
KOXR 060651Z AUTO 13004KT 10SM SCT016 OVC044 16/12 A2991 RMK AO2 SLP127 T01560117,KOXR,2023-06-06T06:51:00Z,34.2,-119.2,15.6,11.7,130,4,,10.0,29.911417,1012.7,,TRUE,TRUE,,,,,,,SCT,1600,OVC,4400,,,,,VFR,,,,,,,,,,,,METAR,12.0
KOXC 060651Z AUTO 35005KT 10SM CLR 11/08 A2976 RMK AO2 SLP085 T01110083,KOXC,2023-06-06T06:51:00Z,41.47,-73.13,11.1,8.3,350,5,,10.0,29.760826,1008.5,,TRUE,TRUE,,,,,,,CLR,,,,,,,,VFR,,,,,,,,,,,,METAR,211.0
KORF 060651Z 22008KT 10SM CLR 16/14 A2987 RMK AO2 SLP113 T01610139,KORF,2023-06-06T06:51:00Z,36.9,-76.2,16.1,13.9,220,8,,10.0,29.870079,1011.3,,,TRUE,,,,,,,CLR,,,,,,,,VFR,,,,,,,,,,,,METAR,5.0
KORD 060651Z 36003KT 10SM SCT100 BKN250 19/09 A3001 RMK AO2 SLP157 T01940094,KORD,2023-06-06T06:51:00Z,41.95,-87.93,19.4,9.4,360,3,,10.0,30.008858,1015.7,,,TRUE,,,,,,,SCT,10000,BKN,25000,,,,,VFR,,,,,,,,,,,,METAR,202.0
KOCF 060651Z AUTO 00000KT 10SM CLR 19/18 A2997 RMK AO2 SLP147 T01940178 $,KOCF,2023-06-06T06:51:00Z,29.17,-82.22,19.4,17.8,0,0,,10.0,29.970472,1014.7,,TRUE,TRUE,TRUE,,,,,,CLR,,,,,,,,VFR,,,,,,,,,,,,METAR,24.0
KNYC 060651Z AUTO 00000KT 5SM HZ CLR 18/04 A2979 RMK AO2 SLP077 T01780039 $,KNYC,2023-06-06T06:51:00Z,40.78,-73.97,17.8,3.9,0,0,,5.0,29.790354,1007.7,,TRUE,TRUE,TRUE,,,,,HZ,CLR,,,,,,,,MVFR,,,,,,,,,,,,METAR,33.0
KNBT 060651Z AUTO 25009KT 10SM CLR 21/15 A2990 RMK AO2 SLP127 T02110150,KNBT,2023-06-06T06:51:00Z,35.02,-76.47,21.1,15.0,250,9,,10.0,29.899607,1012.7,,TRUE,TRUE,,,,,,,CLR,,,,,,,,VFR,,,,,,,,,,,,METAR,5.0
KMYL 060651Z AUTO 03005KT 10SM CLR 12/07 A3005 RMK AO2 SLP151 T01170072 402000094,KMYL,2023-06-06T06:51:00Z,44.9,-116.1,11.7,7.2,30,5,,10.0,30.050198,1015.1,,TRUE,TRUE,,,,,,,CLR,,,,,,,,VFR,,,,20.0,9.4,,,,,,,METAR,1532.0
KMPV 060651Z AUTO 00000KT 10SM FEW065 09/06 A2974 RMK AO2 SLP073 T00890056,KMPV,2023-06-06T06:51:00Z,44.2,-72.57,8.9,5.6,0,0,,10.0,29.740158,1007.3,,TRUE,TRUE,,,,,,,FEW,6500,,,,,,,VFR,,,,,,,,,,,,METAR,336.0
KLGU 060651Z AUTO 05003KT 10SM CLR 16/07 A2999 RMK AO2 SLP109 T01560067 402830078,KLGU,2023-06-06T06:51:00Z,41.78,-111.85,15.6,6.7,50,3,,10.0,29.991142,1010.9,,TRUE,TRUE,,,,,,,CLR,,,,,,,,VFR,,,,28.3,7.8,,,,,,,METAR,1359.0
KLGA 060651Z 31010KT 7SM OVC250 19/07 A2975 RMK AO2 SLP072 T01890067,KLGA,2023-06-06T06:51:00Z,40.78,-73.88,18.9,6.7,310,10,,7.0,29.749016,1007.2,,,TRUE,,,,,,,OVC,25000,,,,,,,VFR,,,,,,,,,,,,METAR,9.0
KJFK 060651Z 33010KT 7SM BKN300 17/06 A2975 RMK AO2 SLP075 FU BKN300 T01720056,KJFK,2023-06-06T06:51:00Z,40.63,-73.77,17.2,5.6,330,10,,7.0,29.749016,1007.5,,,TRUE,,,,,,,BKN,30000,,,,,,,VFR,,,,,,,,,,,,METAR,3.0
KJCT 060651Z AUTO 28003KT 10SM CLR 18/17 A3001 RMK AO2 SLP126 T01830167,KJCT,2023-06-06T06:51:00Z,30.5,-99.77,18.3,16.7,280,3,,10.0,30.008858,1012.6,,TRUE,TRUE,,,,,,,CLR,,,,,,,,VFR,,,,,,,,,,,,METAR,522.0
KILG 060651Z AUTO 26005KT 10SM CLR 14/05 A2982 RMK AO2 SLP097 T01440050 $,KILG,2023-06-06T06:51:00Z,39.67,-75.6,14.4,5.0,260,5,,10.0,29.819881,1009.7,,TRUE,TRUE,TRUE,,,,,,CLR,,,,,,,,VFR,,,,,,,,,,,,METAR,22.0
KIGM 060651Z AUTO 16010KT 10SM CLR 20/M07 A2985 RMK AO2 SLP034 T02001072 403560144,KIGM,2023-06-06T06:51:00Z,35.25,-113.93,20.0,-7.2,160,10,,10.0,29.84941,1003.4,,TRUE,TRUE,,,,,,,CLR,,,,,,,,VFR,,,,35.6,14.4,,,,,,,METAR,1045.0
KHTS 060651Z 00000KT 8SM CLR 13/11 A2997 RMK AO2 SLP144 T01330111,KHTS,2023-06-06T06:51:00Z,38.37,-82.55,13.3,11.1,0,0,,8.0,29.970472,1014.4,,,TRUE,,,,,,,CLR,,,,,,,,VFR,,,,,,,,,,,,METAR,252.0
KHSE 060651Z AUTO 25003KT 10SM CLR 14/14 A2990 RMK AO2 SLP124 T01440144,KHSE,2023-06-06T06:51:00Z,35.23,-75.62,14.4,14.4,250,3,,10.0,29.899607,1012.4,,TRUE,TRUE,,,,,,,CLR,,,,,,,,VFR,,,,,,,,,,,,METAR,4.0
KHDO 060651Z AUTO 34004KT 10SM CLR 19/19 A2995 RMK AO2 SLP128 T01940189,KHDO,2023-06-06T06:51:00Z,29.37,-99.17,19.4,18.9,340,4,,10.0,29.949802,1012.8,,TRUE,TRUE,,,,,,,CLR,,,,,,,,VFR,,,,,,,,,,,,METAR,280.0
KGDP 060651Z AUTO 05023KT 8SM CLR 17/11 RMK AO2 PK WND 04034/0620 SLPNO T01720111 402610139,KGDP,2023-06-06T06:51:00Z,31.83,-104.82,17.2,11.1,50,23,,8.0,,,,TRUE,TRUE,,,,,,,CLR,,,,,,,,VFR,,,,26.1,13.9,,,,,,,METAR,1664.0
KEWR 060651Z 32011KT 9SM FEW160 OVC250 19/03 A2976 RMK AO2 SLP076 T01940033,KEWR,2023-06-06T06:51:00Z,40.68,-74.17,19.4,3.3,320,11,,9.0,29.760826,1007.6,,,TRUE,,,,,,,FEW,16000,OVC,25000,,,,,VFR,,,,,,,,,,,,METAR,2.0
KERI 060651Z AUTO 18004KT 10SM CLR 13/06 A2990 RMK AO2 SLP125 T01280056,KERI,2023-06-06T06:51:00Z,42.08,-80.18,12.8,5.6,180,4,,10.0,29.899607,1012.5,,TRUE,TRUE,,,,,,,CLR,,,,,,,,VFR,,,,,,,,,,,,METAR,222.0
KELP 060651Z 36005KT 10SM FEW110 FEW140 SCT250 23/09 A3005 RMK AO2 SLP099 T02280094 403330194,KELP,2023-06-06T06:51:00Z,31.82,-106.35,22.8,9.4,360,5,,10.0,30.050198,1009.9,,,TRUE,,,,,,,FEW,11000,FEW,14000,SCT,25000,,,VFR,,,,33.3,19.4,,,,,,,METAR,1205.0
KEKN 060651Z AUTO 00000KT 10SM CLR 06/05 A2999 RMK AO2 SLP155 T00610050,KEKN,2023-06-06T06:51:00Z,38.88,-79.85,6.1,5.0,0,0,,10.0,29.991142,1015.5,,TRUE,TRUE,,,,,,,CLR,,,,,,,,VFR,,,,,,,,,,,,METAR,596.0
KDAW 060651Z AUTO 31004KT 10SM CLR 12/09 A2966 RMK AO2 SLP041 T01170094,KDAW,2023-06-06T06:51:00Z,43.28,-70.92,11.7,9.4,310,4,,10.0,29.660433,1004.1,,TRUE,TRUE,,,,,,,CLR,,,,,,,,VFR,,,,,,,,,,,,METAR,100.0
KCSG 060651Z AUTO 00000KT 10SM CLR 20/18 A2994 RMK AO2 SLP134 T02000178,KCSG,2023-06-06T06:51:00Z,32.52,-84.95,20.0,17.8,0,0,,10.0,29.940945,1013.4,,TRUE,TRUE,,,,,,,CLR,,,,,,,,VFR,,,,,,,,,,,,METAR,120.0
KCRP 060651Z 00000KT 10SM FEW022 FEW120 SCT250 22/22 A2990 RMK AO2 SLP123 T02220217,KCRP,2023-06-06T06:51:00Z,27.77,-97.5,22.2,21.7,0,0,,10.0,29.899607,1012.3,,,TRUE,,,,,,,FEW,2200,FEW,12000,SCT,25000,,,VFR,,,,,,,,,,,,METAR,11.0
KCMH 060651Z 00000KT 7SM FEW250 12/11 A2997 RMK AO2 SLP144 T01220111,KCMH,2023-06-06T06:51:00Z,40.0,-82.88,12.2,11.1,0,0,,7.0,29.970472,1014.4,,,TRUE,,,,,,,FEW,25000,,,,,,,VFR,,,,,,,,,,,,METAR,257.0
KCLE 060651Z 21004KT 9SM BKN250 12/07 A2993 RMK AO2 SLP148 T01220067 $,KCLE,2023-06-06T06:51:00Z,41.42,-81.85,12.2,6.7,210,4,,9.0,29.929134,1014.8,,,TRUE,TRUE,,,,,,BKN,25000,,,,,,,VFR,,,,,,,,,,,,METAR,237.0
KCDJ 060651Z AUTO 00000KT 16/14 A3005 RMK AO1 SLP166 T01610139,KCDJ,2023-06-06T06:51:00Z,39.82,-93.57,16.1,13.9,0,0,,,30.050198,1016.6,,TRUE,TRUE,,,,,,,,,,,,,,,,,,,,,,,,,,,METAR,234.0
KCAK 060651Z 24003KT 8SM BKN250 12/06 A2994 RMK AO2 SLP136 T01170061 $,KCAK,2023-06-06T06:51:00Z,40.92,-81.45,11.7,6.1,240,3,,8.0,29.940945,1013.6,,,TRUE,TRUE,,,,,,BKN,25000,,,,,,,VFR,,,,,,,,,,,,METAR,369.0
KBKW 060651Z AUTO 00000KT 10SM CLR 10/08 A3000 RMK AO2 SLP138 T01000083,KBKW,2023-06-06T06:51:00Z,37.8,-81.12,10.0,8.3,0,0,,10.0,30.0,1013.8,,TRUE,TRUE,,,,,,,CLR,,,,,,,,VFR,,,,,,,,,,,,METAR,762.0
KBHK 060651Z AUTO 13008KT 10SM CLR 17/13 A3000 RMK AO2 SLP136 T01670133 403000144,KBHK,2023-06-06T06:51:00Z,46.35,-104.25,16.7,13.3,130,8,,10.0,30.0,1013.6,,TRUE,TRUE,,,,,,,CLR,,,,,,,,VFR,,,,30.0,14.4,,,,,,,METAR,904.0
KBGD 060651Z AUTO 24003KT 10SM CLR 18/15 A3013 RMK AO2 SLP169 T01830150,KBGD,2023-06-06T06:51:00Z,35.7,-101.4,18.3,15.0,240,3,,10.0,30.129921,1016.9,,TRUE,TRUE,,,,,,,CLR,,,,,,,,VFR,,,,,,,,,,,,METAR,928.0
KBED 060651Z AUTO 26004KT 10SM FEW070 11/10 A2967 RMK AO2 SLP060 T01110100,KBED,2023-06-06T06:51:00Z,42.47,-71.3,11.1,10.0,260,4,,10.0,29.66929,1006.0,,TRUE,TRUE,,,,,,,FEW,7000,,,,,,,VFR,,,,,,,,,,,,METAR,39.0
KBDL 060651Z 26004KT 10SM FEW220 BKN250 12/09 A2972 RMK AO2 SLP064 T01220089,KBDL,2023-06-06T06:51:00Z,41.93,-72.68,12.2,8.9,260,4,,10.0,29.719488,1006.4,,,TRUE,,,,,,,FEW,22000,BKN,25000,,,,,VFR,,,,,,,,,,,,METAR,52.0
KBAZ 060651Z AUTO 33003KT 10SM CLR 19/18 A2992 RMK AO2 SLP122 T01940183,KBAZ,2023-06-06T06:51:00Z,29.72,-98.05,19.4,18.3,330,3,,10.0,29.920275,1012.2,,TRUE,TRUE,,,,,,,CLR,,,,,,,,VFR,,,,,,,,,,,,METAR,199.0
KAVX 060651Z AUTO 00000KT 10SM OVC021 12/08 A2993 RMK AO2 SLP124 T01220078,KAVX,2023-06-06T06:51:00Z,33.4,-118.42,12.2,7.8,0,0,,10.0,29.929134,1012.4,,TRUE,TRUE,,,,,,,OVC,2100,,,,,,,MVFR,,,,,,,,,,,,METAR,482.0
KATT 060651Z AUTO 00000KT 10SM CLR 21/19 A2995 RMK AO2 SLP129 T02060189,KATT,2023-06-06T06:51:00Z,30.32,-97.77,20.6,18.9,0,0,,10.0,29.949802,1012.9,,TRUE,TRUE,,,,,,,CLR,,,,,,,,VFR,,,,,,,,,,,,METAR,203.0
KALB 060651Z 00000KT 8SM SCT150 14/07 A2975 RMK AO2 SLP073 T01440067,KALB,2023-06-06T06:51:00Z,42.75,-73.8,14.4,6.7,0,0,,8.0,29.749016,1007.3,,,TRUE,,,,,,,SCT,15000,,,,,,,VFR,,,,,,,,,,,,METAR,82.0
KAHN 060651Z AUTO 00000KT 10SM CLR 19/18 A2994 RMK AO2 SLP132 T01890178,KAHN,2023-06-06T06:51:00Z,33.95,-83.33,18.9,17.8,0,0,,10.0,29.940945,1013.2,,TRUE,TRUE,,,,,,,CLR,,,,,,,,VFR,,,,,,,,,,,,METAR,241.0
KACT 060651Z AUTO 06005KT 7SM CLR 21/20 A2994 RMK AO2 SLP132 T02060200,KACT,2023-06-06T06:51:00Z,31.62,-97.23,20.6,20.0,60,5,,7.0,29.940945,1013.2,,TRUE,TRUE,,,,,,,CLR,,,,,,,,VFR,,,,,,,,,,,,METAR,150.0
KABE 060651Z 19003KT 9SM BKN055 OVC110 12/04 A2981 RMK AO2 SLP091 T01220039,KABE,2023-06-06T06:51:00Z,40.65,-75.45,12.2,3.9,190,3,,9.0,29.811024,1009.1,,,TRUE,,,,,,,BKN,5500,OVC,11000,,,,,VFR,,,,,,,,,,,,METAR,117.0
K6R6 060651Z AUTO 11003KT 20/18 A3004 RMK AO1 SLP140 T02000178 $,K6R6,2023-06-06T06:51:00Z,30.05,-102.22,20.0,17.8,110,3,,,30.041338,1014.0,,TRUE,TRUE,TRUE,,,,,,,,,,,,,,,,,,,,,,,,,,METAR,702.0
PTTP 060650Z 00000KT 15SM SCT018 OVC300 29/26 A2984 RMK SLP103 T2930255,PTTP,2023-06-06T06:50:00Z,6.97,158.22,29.0,26.0,0,0,,15.0,29.840551,1010.3,,,,,,,,,,SCT,1800,OVC,30000,,,,,VFR,,,,,,,,,,,,SPECI,36.0
PTRO 060650Z 29004KT 7SM -SHRA BKN014CB BKN110 OVC290 25/23 A2975 RMK CB OHD AND ALQDS,PTRO,2023-06-06T06:50:00Z,7.37,134.55,25.0,23.0,290,4,,7.0,29.749016,,,,,,,,,,-SHRA,BKN,1400,BKN,11000,OVC,29000,,,MVFR,,,,,,,,,,,,SPECI,30.0
PTKK 060650Z 16011KT 15SM FEW014 BKN120 OVC280 29/25 A2975 RMK SLP078 T02940245,PTKK,2023-06-06T06:50:00Z,7.47,151.85,29.4,24.5,160,11,,15.0,29.749016,1007.8,,,,,,,,,,FEW,1400,BKN,12000,OVC,28000,,,VFR,,,,,,,,,,,,SPECI,3.0
PGRO 060650Z 08012KT 7SM VCSH SCT016 BKN080 BKN100 26/23 A2981 RMK VCSH SW,PGRO,2023-06-06T06:50:00Z,14.18,145.25,26.0,23.0,80,12,,7.0,29.811024,,,,,,,,,,VCSH,SCT,1600,BKN,8000,BKN,10000,,,VFR,,,,,,,,,,,,SPECI,181.0
OOSA 060650Z 17011KT 9999 FEW025 33/24 Q1009 NOSIG,OOSA,2023-06-06T06:50:00Z,17.03,54.1,33.0,24.0,170,11,,6.21,29.793306,,,,,,TRUE,,,,,FEW,2500,,,,,,,VFR,,,,,,,,,,,,METAR,20.0
OOMS 060650Z 33011KT CAVOK 42/16 Q1005 NOSIG,OOMS,2023-06-06T06:50:00Z,23.58,58.28,42.0,16.0,330,11,,6.21,29.675198,,,,,,TRUE,,,,,CAVOK,,,,,,,,VFR,,,,,,,,,,,,METAR,8.0
OOKB 060650Z 18012KT 110V260 CAVOK 43/10 Q1005 NOSIG,OOKB,2023-06-06T06:50:00Z,26.17,56.23,43.0,10.0,180,12,,6.21,29.675198,,,,,,TRUE,,,,,CAVOK,,,,,,,,VFR,,,,,,,,,,,,METAR,30.0
OODQ 060650Z AUTO 21017KT CAVOK ////// 34/23 Q1008 NOSIG RMK RH53? 0,OODQ,2023-06-06T06:50:00Z,19.52,57.65,34.0,23.0,210,17,,6.21,29.763779,,,TRUE,,,TRUE,,,,,CAVOK,,,,,,,,VFR,,,,,,,,,,,,METAR,116.0
OOAD 060650Z 23008KT 200V290 CAVOK 37/17 Q1010 NOSIG,OOAD,2023-06-06T06:50:00Z,22.5,57.37,37.0,17.0,230,8,,6.21,29.822834,,,,,,TRUE,,,,,CAVOK,,,,,,,,VFR,,,,,,,,,,,,METAR,327.0
NSTU 060650Z VRB05KT 10SM FEW017TCU SCT040 SCT100 BKN200 28/25 A2989 RMK TCU E-SE SLP124 T02800249,NSTU,2023-06-06T06:50:00Z,-14.33,-170.72,28.0,24.9,0,5,,10.0,29.890747,1012.4,,,,,,,,,,FEW,1700,SCT,4000,SCT,10000,BKN,20000,VFR,,,,,,,,,,,,SPECI,8.0
MUVR 060650Z 17004KT 9999 FEW020 23/22 Q1013,MUVR,2023-06-06T06:50:00Z,23.03,-81.43,23.0,22.0,170,4,,6.21,29.911417,,,,,,,,,,,FEW,2000,,,,,,,VFR,,,,,,,,,,,,METAR,65.0
MUSC 060650Z 00000KT 9000 BKN023 24/23 Q1013,MUSC,2023-06-06T06:50:00Z,22.5,-79.92,24.0,23.0,0,0,,5.59,29.911417,,,,,,,,,,,BKN,2300,,,,,,,MVFR,,,,,,,,,,,,METAR,97.0
MUHG 060650Z 12004KT 8000 FEW030 25/24 Q1014,MUHG,2023-06-06T06:50:00Z,20.78,-76.32,25.0,24.0,120,4,,4.97,29.940945,,,,,,,,,,,FEW,3000,,,,,,,MVFR,,,,,,,,,,,,METAR,100.0
MUHA 060650Z 23001KT 9000 FEW030 21/21 Q1013,MUHA,2023-06-06T06:50:00Z,22.98,-82.42,21.0,21.0,230,1,,5.59,29.911417,,,,,,,,,,,FEW,3000,,,,,,,VFR,,,,,,,,,,,,METAR,61.0
MUCU 060650Z 36002KT 9000 FEW020 26/25 Q1013,MUCU,2023-06-06T06:50:00Z,19.97,-75.83,26.0,25.0,360,2,,5.59,29.911417,,,,,,,,,,,FEW,2000,,,,,,,VFR,,,,,,,,,,,,METAR,70.0
MUCM 060650Z 19002KT 9000 NSC 25/24 Q1013,MUCM,2023-06-06T06:50:00Z,21.42,-77.85,25.0,24.0,190,2,,5.59,29.911417,,,,,,,,,,,CLR,,,,,,,,VFR,,,,,,,,,,,,METAR,125.0
MUCL 060650Z AUTO 22001KT 26/23 Q1012,MUCL,2023-06-06T06:50:00Z,21.63,-81.55,26.0,23.0,220,1,,,29.88189,,,TRUE,,,,,,,,,,,,,,,,,,,,,,,,,,,,METAR,5.0
MUCC 060650Z VRB01KT 9000 FEW020 24/23 Q1012,MUCC,2023-06-06T06:50:00Z,22.47,-78.33,24.0,23.0,0,1,,5.59,29.88189,,,,,,,,,,,FEW,2000,,,,,,,VFR,,,,,,,,,,,,METAR,7.0
MSLP 060650Z 08004KT 9999 FEW077 26/23 Q1011 A2988 NOSIG,MSLP,2023-06-06T06:50:00Z,13.43,-89.05,26.0,23.0,80,4,,6.21,29.852362,,,,,,TRUE,,,,,FEW,7700,,,,,,,VFR,,,,,,,,,,,,METAR,25.0
LTFO 060650Z 24007KT 9999 BKN035 21/18 Q1017,LTFO,2023-06-06T06:50:00Z,41.18,40.85,21.0,18.0,240,7,,6.21,30.029528,,,,,,,,,,,BKN,3500,,,,,,,VFR,,,,,,,,,,,,METAR,5.0
LTFM 060650Z 06015KT 9999 SCT013 BKN022 19/15 Q1020 NOSIG RMK RWY17L 07014KT RWY34L 07013KT RWY16R 06014KT RWY36 06014KT RWY18 06014KT,LTFM,2023-06-06T06:50:00Z,41.27,28.75,19.0,15.0,60,15,,6.21,30.11811,,,,,,TRUE,,,,,SCT,1300,BKN,2200,,,,,MVFR,,,,,,,,,,,,METAR,99.0
LTFK 060650Z 01014KT 9999 SCT030 BKN080 19/15 Q1019,LTFK,2023-06-06T06:50:00Z,40.2,25.88,19.0,15.0,10,14,,6.21,30.088583,,,,,,,,,,,SCT,3000,BKN,8000,,,,,VFR,,,,,,,,,,,,METAR,21.0
LTFJ 060650Z 06010KT 9999 SCT021 22/17 Q1019 NOSIG RMK RWY24 07010KT,LTFJ,2023-06-06T06:50:00Z,40.9,29.3,22.0,17.0,60,10,,6.21,30.088583,,,,,,TRUE,,,,,SCT,2100,,,,,,,VFR,,,,,,,,,,,,SPECI,83.0
LTFH 060650Z 30018KT 8000 SCT015 FEW025TCU BKN027 BKN080 18/16 Q1019 RESHRA NOSIG,LTFH,2023-06-06T06:50:00Z,41.27,36.57,18.0,16.0,300,18,,4.97,30.088583,,,,,,TRUE,,,,,SCT,1500,FEW,2500,BKN,2700,BKN,8000,MVFR,,,,,,,,,,,,METAR,7.0
LTFG 060650Z 24008KT 9999 FEW020 23/20 Q1013,LTFG,2023-06-06T06:50:00Z,36.3,32.3,23.0,20.0,240,8,,6.21,29.911417,,,,,,,,,,,FEW,2000,,,,,,,VFR,,,,,,,,,,,,METAR,26.0
LTFE 060650Z VRB02KT CAVOK 27/15 Q1012 NOSIG RMK RWY10 VRB02KT,LTFE,2023-06-06T06:50:00Z,37.25,27.67,27.0,15.0,0,2,,6.21,29.88189,,,,,,TRUE,,,,,CAVOK,,,,,,,,VFR,,,,,,,,,,,,SPECI,6.0
LTFD 060650Z 06019KT 9999 FEW035 23/13 Q1016,LTFD,2023-06-06T06:50:00Z,39.55,27.02,23.0,13.0,60,19,,6.21,30.0,,,,,,,,,,,FEW,3500,,,,,,,VFR,,,,,,,,,,,,METAR,15.0
LTFC 060650Z 08013KT 9999 SCT035 21/13 Q1017 RMK RWY23 08010KT,LTFC,2023-06-06T06:50:00Z,37.87,30.38,21.0,13.0,80,13,,6.21,30.029528,,,,,,,,,,,SCT,3500,,,,,,,VFR,,,,,,,,,,,,SPECI,862.0
LTFB 060650Z 07008KT CAVOK 25/15 Q1014,LTFB,2023-06-06T06:50:00Z,37.95,27.33,25.0,15.0,70,8,,6.21,29.940945,,,,,,,,,,,CAVOK,,,,,,,,VFR,,,,,,,,,,,,METAR,3.0
LTDA 060650Z 22009KT 180V300 9999 FEW040 26/17 Q1011 NOSIG,LTDA,2023-06-06T06:50:00Z,36.37,36.28,26.0,17.0,220,9,,6.21,29.852362,,,,,,TRUE,,,,,FEW,4000,,,,,,,VFR,,,,,,,,,,,,METAR,80.0
LTCW 060650Z VRB02KT 9999 FEW040 SCT180 19/06 Q1021,LTCW,2023-06-06T06:50:00Z,37.55,44.23,19.0,6.0,0,2,,6.21,30.147638,,,,,,,,,,,FEW,4000,SCT,18000,,,,,VFR,,,,,,,,,,,,METAR,1852.0
LTCV 060650Z 05005KT 360V090 9999 FEW040 SCT100 31/07 Q1012,LTCV,2023-06-06T06:50:00Z,37.37,42.07,31.0,7.0,50,5,,6.21,29.88189,,,,,,,,,,,FEW,4000,SCT,10000,,,,,VFR,,,,,,,,,,,,METAR,620.0
LTCU 060650Z VRB02KT CAVOK 21/10 Q1016,LTCU,2023-06-06T06:50:00Z,38.87,40.58,21.0,10.0,0,2,,6.21,30.0,,,,,,,,,,,CAVOK,,,,,,,,VFR,,,,,,,,,,,,METAR,1061.0
LTCT 060650Z 35005KT 290V080 CAVOK 27/05 Q1015,LTCT,2023-06-06T06:50:00Z,39.98,43.87,27.0,5.0,350,5,,6.21,29.970472,,,,,,,,,,,CAVOK,,,,,,,,VFR,,,,,,,,,,,,METAR,936.0
LTCS 060650Z 06006KT 350V100 CAVOK 27/07 Q1014 RMK RWY22 02005KT 330V080 5AC120,LTCS,2023-06-06T06:50:00Z,37.45,38.9,27.0,7.0,60,6,,6.21,29.940945,,,,,,,,,,,CAVOK,,,,,,,,VFR,,,,,,,,,,,,METAR,825.0
LTCR 060650Z VRB04G14KT 9999 FEW040 SCT100 32/04 Q1011,LTCR,2023-06-06T06:50:00Z,37.22,40.63,32.0,4.0,0,4,14,6.21,29.852362,,,,,,,,,,,FEW,4000,SCT,10000,,,,,VFR,,,,,,,,,,,,METAR,529.0
LTCP 060650Z 09005KT 030V140 9999 FEW040 SCT100 28/09 Q1013,LTCP,2023-06-06T06:50:00Z,37.73,38.47,28.0,9.0,90,5,,6.21,29.911417,,,,,,,,,,,FEW,4000,SCT,10000,,,,,VFR,,,,,,,,,,,,METAR,672.0
LTCO 060650Z VRB02KT 9999 FEW035 19/09 Q1020,LTCO,2023-06-06T06:50:00Z,39.65,43.03,19.0,9.0,0,2,,6.21,30.11811,,,,,,,,,,,FEW,3500,,,,,,,VFR,,,,,,,,,,,,METAR,1657.0
LTCN 060650Z 20004KT 150V320 CAVOK 25/13 Q1013,LTCN,2023-06-06T06:50:00Z,37.53,36.95,25.0,13.0,200,4,,6.21,29.911417,,,,,,,,,,,CAVOK,,,,,,,,VFR,,,,,,,,,,,,METAR,505.0
LTCM 060650Z 34006KT 310V010 9999 FEW027 SCT090 21/15 Q1021,LTCM,2023-06-06T06:50:00Z,42.02,35.07,21.0,15.0,340,6,,6.21,30.147638,,,,,,,,,,,FEW,2700,SCT,9000,,,,,VFR,,,,,,,,,,,,METAR,7.0
LTCL 060650Z VRB02KT CAVOK 29/08 Q1013,LTCL,2023-06-06T06:50:00Z,37.98,41.83,29.0,8.0,0,2,,6.21,29.911417,,,,,,,,,,,CAVOK,,,,,,,,VFR,,,,,,,,,,,,METAR,602.0
LTCK 060650Z VRB02KT 9999 FEW040 21/10 Q1017,LTCK,2023-06-06T06:50:00Z,38.75,41.67,21.0,10.0,0,2,,6.21,30.029528,,,,,,,,,,,FEW,4000,,,,,,,VFR,,,,,,,,,,,,METAR,1267.0
LTCJ 060650Z 33005KT 290V030 CAVOK 28/12 Q1012 NOSIG RMK RWY20 35006KT 330V040 1AC100 2CI200,LTCJ,2023-06-06T06:50:00Z,37.93,41.12,28.0,12.0,330,5,,6.21,29.88189,,,,,,TRUE,,,,,CAVOK,,,,,,,,VFR,,,,,,,,,,,,SPECI,559.0
LTCI 060650Z 29006KT 9999 FEW040 20/07 Q1022 NOSIG,LTCI,2023-06-06T06:50:00Z,38.47,43.33,20.0,7.0,290,6,,6.21,30.177166,,,,,,TRUE,,,,,FEW,4000,,,,,,,VFR,,,,,,,,,,,,METAR,1654.0
LTCG 060650Z 30006KT 9999 SCT009 BKN035 21/18 Q1018 NOSIG RMK RWY29 31007KT,LTCG,2023-06-06T06:50:00Z,41.0,39.77,21.0,18.0,300,6,,6.21,30.059055,,,,,,TRUE,,,,,SCT,900,BKN,3500,,,,,VFR,,,,,,,,,,,,SPECI,28.0
LTCF 060650Z VRB02KT 9999 FEW040 18/09 Q1020 NOSIG,LTCF,2023-06-06T06:50:00Z,40.57,43.12,18.0,9.0,0,2,,6.21,30.11811,,,,,,TRUE,,,,,FEW,4000,,,,,,,VFR,,,,,,,,,,,,METAR,1794.0
LTCE 060650Z VRB02KT 9999 SCT040 BKN080 17/08 Q1020 NOSIG RMK RWY08R 04003KT 290V090 RWY26R VRB03KT RWY08L VRB03KT 3CU040 5AC080,LTCE,2023-06-06T06:50:00Z,39.95,41.17,17.0,8.0,0,2,,6.21,30.11811,,,,,,TRUE,,,,,SCT,4000,BKN,8000,,,,,VFR,,,,,,,,,,,,SPECI,1758.0
LTCD 060650Z VRB01KT 9999 SCT045 19/11 Q1018 NOSIG,LTCD,2023-06-06T06:50:00Z,39.72,39.52,19.0,11.0,0,1,,6.21,30.059055,,,,,,TRUE,,,,,SCT,4500,,,,,,,VFR,,,,,,,,,,,,METAR,1146.0
LTCC 060650Z 10005KT 350V140 CAVOK 27/10 Q1013 NOSIG RMK RWY16 /////KT SKC,LTCC,2023-06-06T06:50:00Z,37.88,40.2,27.0,10.0,100,5,,6.21,29.911417,,,,,,TRUE,,,,,CAVOK,,,,,,,,VFR,,,,,,,,,,,,SPECI,676.0
LTCB 060650Z 32010KT 270V350 6000 SHRA SCT009 FEW020CB BKN028 19/17 Q1018 BECMG TL0750 NSW,LTCB,2023-06-06T06:50:00Z,40.97,38.07,19.0,17.0,320,10,,3.73,30.059055,,,,,,,,,,SHRA,SCT,900,FEW,2000,BKN,2800,,,MVFR,,,,,,,,,,,,METAR,5.0
LTCA 060650Z VRB04KT 9999 FEW035 SCT200 23/10 Q1015 NOSIG,LTCA,2023-06-06T06:50:00Z,38.6,39.28,23.0,10.0,0,4,,6.21,29.970472,,,,,,TRUE,,,,,FEW,3500,SCT,20000,,,,,VFR,,,,,,,,,,,,METAR,887.0
LTBY 060650Z 31003KT 250V040 7000 SCT015 17/14 Q1019,LTBY,2023-06-06T06:50:00Z,39.82,30.52,17.0,14.0,310,3,,4.35,30.088583,,,,,,,,,,,SCT,1500,,,,,,,MVFR,,,,,,,,,,,,METAR,788.0
LTBU 060650Z 04013KT 010V070 9999 SCT026 21/14 Q1019 RMK RWY22 04013KT,LTBU,2023-06-06T06:50:00Z,41.13,27.92,21.0,14.0,40,13,,6.21,30.088583,,,,,,,,,,,SCT,2600,,,,,,,VFR,,,,,,,,,,,,SPECI,165.0
LTBS 060650Z 21008KT 9999 FEW030 25/18 Q1012 NOSIG RMK RWY19 21008KT 1CU030,LTBS,2023-06-06T06:50:00Z,36.7,28.78,25.0,18.0,210,8,,6.21,29.88189,,,,,,TRUE,,,,,FEW,3000,,,,,,,VFR,,,-0.8,,,,,,,,,METAR,2.0
LTBR 060650Z 09005KT 360V140 9999 FEW035 20/15 Q1018 NOSIG RMK RWY07 VRB04KT,LTBR,2023-06-06T06:50:00Z,40.25,29.57,20.0,15.0,90,5,,6.21,30.059055,,,,,,TRUE,,,,,FEW,3500,,,,,,,VFR,,,,,,,,,,,,SPECI,233.0
LTBQ 060650Z 07005KT 020V110 9999 BKN030 20/16 Q1019 NOSIG,LTBQ,2023-06-06T06:50:00Z,40.73,30.07,20.0,16.0,70,5,,6.21,30.088583,,,,,,TRUE,,,,,BKN,3000,,,,,,,MVFR,,,,,,,,,,,,METAR,51.0
LTBO 060650Z 07010KT 9999 FEW040 20/14 Q1018,LTBO,2023-06-06T06:50:00Z,38.67,29.47,20.0,14.0,70,10,,6.21,30.059055,,,,,,,,,,,FEW,4000,,,,,,,VFR,,,,,,,,,,,,METAR,868.0
LTBJ 060650Z 34011KT CAVOK 24/14 Q1014 NOSIG RMK RWY16 35010KT,LTBJ,2023-06-06T06:50:00Z,38.28,27.15,24.0,14.0,340,11,,6.21,29.940945,,,,,,TRUE,,,,,CAVOK,,,,,,,,VFR,,,,,,,,,,,,METAR,123.0
LTBH 060650Z 08015KT 030V100 9999 SCT030 21/16 Q1017,LTBH,2023-06-06T06:50:00Z,40.13,26.42,21.0,16.0,80,15,,6.21,30.029528,,,,,,,,,,,SCT,3000,,,,,,,VFR,,,,,,,,,,,,METAR,8.0
LTBF 060650Z VRB02KT 9999 FEW017 SCT035 20/15 Q1018 NOSIG,LTBF,2023-06-06T06:50:00Z,39.62,27.92,20.0,15.0,0,2,,6.21,30.059055,,,,,,TRUE,,,,,FEW,1700,SCT,3500,,,,,VFR,,,,,,,,,,,,METAR,95.0
LTBD 060650Z 08013KT CAVOK 26/15 Q1013,LTBD,2023-06-06T06:50:00Z,37.82,27.88,26.0,15.0,80,13,,6.21,29.911417,,,,,,,,,,,CAVOK,,,,,,,,VFR,,,,,,,,,,,,METAR,29.0
LTBA 060650Z 04015KT 9999 SCT026 22/15 Q1018 RMK RWY23 06015KT 020V090,LTBA,2023-06-06T06:50:00Z,40.97,28.82,22.0,15.0,40,15,,6.21,30.059055,,,,,,,,,,,SCT,2600,,,,,,,VFR,,,,,,,,,,,,METAR,33.0
LTAZ 060650Z 02012KT 9999 SCT030 BKN090 18/12 Q1018 RMK RWY29 02011KT,LTAZ,2023-06-06T06:50:00Z,38.77,34.52,18.0,12.0,20,12,,6.21,30.059055,,,,,,,,,,,SCT,3000,BKN,9000,,,,,VFR,,,,,,,,,,,,SPECI,944.0
LTAY 060650Z 08010KT 050V110 9999 FEW035 21/13 Q1017 NOSIG,LTAY,2023-06-06T06:50:00Z,37.78,29.7,21.0,13.0,80,10,,6.21,30.029528,,,,,,TRUE,,,,,FEW,3500,,,,,,,VFR,,,,,,,,,,,,METAR,851.0
LTAW 060650Z 12004KT 090V160 9999 BKN030 BKN070 21/14 Q1018,LTAW,2023-06-06T06:50:00Z,40.3,36.37,21.0,14.0,120,4,,6.21,30.059055,,,,,,,,,,,BKN,3000,BKN,7000,,,,,MVFR,,,,,,,,,,,,METAR,561.0
LTAU 060650Z 06005KT 330V110 9999 BKN030 19/11 Q1018 NOSIG RMK RWY07 06008KT 340V090,LTAU,2023-06-06T06:50:00Z,38.77,35.48,19.0,11.0,60,5,,6.21,30.059055,,,,,,TRUE,,,,,BKN,3000,,,,,,,MVFR,,,,,,,,,,,,SPECI,1053.0
LTAT 060650Z VRB03KT CAVOK 23/10 Q1016 NOSIG RMK RWY03 VRB02KT,LTAT,2023-06-06T06:50:00Z,38.43,38.08,23.0,10.0,0,3,,6.21,30.0,,,,,,TRUE,,,,,CAVOK,,,,,,,,VFR,,,,,,,,,,,,SPECI,850.0
LTAS 060650Z VRB02KT 9999 FEW010 SCT040 20/17 Q1019,LTAS,2023-06-06T06:50:00Z,41.52,32.08,20.0,17.0,0,2,,6.21,30.088583,,,,,,,,,,,FEW,1000,SCT,4000,,,,,VFR,,,,,,,,,,,,METAR,13.0
LTAR 060650Z 35011KT 9999 SCT015 BKN030 13/10 Q1020,LTAR,2023-06-06T06:50:00Z,39.8,36.9,13.0,10.0,350,11,,6.21,30.11811,,,,,,,,,,,SCT,1500,BKN,3000,,,,,MVFR,,,,,,,,,,,,METAR,1601.0
LTAP 060650Z 02008KT 350V050 9999 BKN030 BKN100 18/13 Q1018 NOSIG RMK RWY23 02008KT 340V050,LTAP,2023-06-06T06:50:00Z,40.83,35.52,18.0,13.0,20,8,,6.21,30.059055,,,,,,TRUE,,,,,BKN,3000,BKN,10000,,,,,MVFR,,,,,,,,,,,,SPECI,536.0
LTAN 060650Z 36009KT 9999 BKN030 15/12 Q1019 NOSIG,LTAN,2023-06-06T06:50:00Z,37.97,32.55,15.0,12.0,360,9,,6.21,30.088583,,,,,,TRUE,,,,,BKN,3000,,,,,,,MVFR,,,,,,,,,,,,METAR,1029.0
LTAL 060650Z 03004KT 340V080 9999 SCT014 BKN040 14/11 Q1021,LTAL,2023-06-06T06:50:00Z,41.32,33.8,14.0,11.0,30,4,,6.21,30.147638,,,,,,,,,,,SCT,1400,BKN,4000,,,,,VFR,,,,,,,,,,,,METAR,1074.0
LTAJ 060650Z VRB01KT CAVOK 27/08 Q1012 NOSIG RMK RWY10 09004KT 360V140 SKC,LTAJ,2023-06-06T06:50:00Z,36.95,37.48,27.0,8.0,0,1,,6.21,29.88189,,,,,,TRUE,,,,,CAVOK,,,,,,,,VFR,,,,,,,,,,,,SPECI,684.0
LTAI 060650Z 33008KT 280V010 CAVOK 28/14 Q1012 NOSIG RMK RWY18C 33008KT 300V010 RWY36R 34008KT 290V010 RWY18L 35007KT 300V020,LTAI,2023-06-06T06:50:00Z,36.9,30.8,28.0,14.0,330,8,,6.21,29.88189,,,,,,TRUE,,,,,CAVOK,,,,,,,,VFR,,,,,,,,,,,,METAR,50.0
LTAG 060650Z 00000KT 9999 FEW035 25/17 Q1011 NOSIG RMK 2CU035,LTAG,2023-06-06T06:50:00Z,37.0,35.42,25.0,17.0,0,0,,6.21,29.852362,,,,,,TRUE,,,,,FEW,3500,,,,,,,VFR,,,,,,,,,,,,SPECI,62.0
LTAF 060650Z VRB02KT 9999 SCT030 26/19 Q1011 NOSIG RMK RWY23 06003KT 3CU030,LTAF,2023-06-06T06:50:00Z,36.98,35.28,26.0,19.0,0,2,,6.21,29.852362,,,,,,TRUE,,,,,SCT,3000,,,,,,,VFR,,,,,,,,,,,,METAR,19.0
LTAE 060650Z 04007KT 310V120 9999 SCT040 20/12 Q1019 NOSIG RMK RWY21 02007KT 330V090,LTAE,2023-06-06T06:50:00Z,40.07,32.57,20.0,12.0,40,7,,6.21,30.088583,,,,,,TRUE,,,,,SCT,4000,,,,,,,VFR,,,,,,,,,,,,METAR,836.0
LTAC 060650Z 03009KT 350V060 9999 SCT030 SCT100 18/11 Q1020 NOSIG RMK RWY21L 03010KT 360V060 RWY03L 03008KT 350V070 RWY21R 03012KT,LTAC,2023-06-06T06:50:00Z,40.12,32.98,18.0,11.0,30,9,,6.21,30.11811,,,,,,TRUE,,,,,SCT,3000,SCT,10000,,,,,VFR,,,,,,,,,,,,SPECI,952.0
LLIB 060650Z AUTO VRB03KT CAVOK 23/14 Q1012,LLIB,2023-06-06T06:50:00Z,32.98,35.57,23.0,14.0,0,3,,6.21,29.88189,,,TRUE,,,,,,,,CAVOK,,,,,,,,VFR,,,,,,,,,,,,METAR,268.0
LLHA 060650Z 35008KT 9999 FEW025 24/16 Q1012,LLHA,2023-06-06T06:50:00Z,32.8,35.03,24.0,16.0,350,8,,6.21,29.88189,,,,,,,,,,,FEW,2500,,,,,,,VFR,,,,,,,,,,,,METAR,3.0
LLER 060650Z 02015KT CAVOK 27/13 Q1011,LLER,2023-06-06T06:50:00Z,29.72,35.02,27.0,13.0,20,15,,6.21,29.852362,,,,,,,,,,,CAVOK,,,,,,,,VFR,,,,,,,,,,,,METAR,88.0
LIRU 060650Z 05005KT CAVOK 21/17 Q1016,LIRU,2023-06-06T06:50:00Z,41.95,12.5,21.0,17.0,50,5,,6.21,30.0,,,,,,,,,,,CAVOK,,,,,,,,VFR,,,,,,,,,,,,METAR,16.0
LIPU 060650Z VRB02KT 9999 FEW008 BKN020 20/17 Q1015,LIPU,2023-06-06T06:50:00Z,45.38,11.83,20.0,17.0,0,2,,6.21,29.970472,,,,,,,,,,,FEW,800,BKN,2000,,,,,MVFR,,,,,,,,,,,,METAR,6.0
LIPK 060650Z 35004KT CAVOK 19/16 Q1015,LIPK,2023-06-06T06:50:00Z,44.2,12.07,19.0,16.0,350,4,,6.21,29.970472,,,,,,,,,,,CAVOK,,,,,,,,VFR,,,,,,,,,,,,METAR,24.0
LIPB 060650Z VRB02KT 9999 SCT030 17/13 Q1017,LIPB,2023-06-06T06:50:00Z,46.47,11.32,17.0,13.0,0,2,,6.21,30.029528,,,,,,,,,,,SCT,3000,,,,,,,VFR,,,,,,,,,,,,METAR,239.0
LIMP 060650Z VRB02KT 9999 FEW020 20/16 Q1016,LIMP,2023-06-06T06:50:00Z,44.82,10.3,20.0,16.0,0,2,,6.21,30.0,,,,,,,,,,,FEW,2000,,,,,,,VFR,,,,,,,,,,,,METAR,41.0
LIMG 060650Z VRB02KT CAVOK 20/15 Q1015,LIMG,2023-06-06T06:50:00Z,44.03,8.12,20.0,15.0,0,2,,6.21,29.970472,,,,,,,,,,,CAVOK,,,,,,,,VFR,,,,,,,,,,,,METAR,41.0
LICG 060650Z 08013KT 8000 -RA SCT007 BKN012CB 17/16 Q1015 RETS,LICG,2023-06-06T06:50:00Z,36.82,11.97,17.0,16.0,80,13,,4.97,29.970472,,,,,,,,,,-RA,SCT,700,BKN,1200,,,,,MVFR,,,,,,,,,,,,METAR,192.0
LIBG 060650Z 10004KT 070V150 9999 FEW010 SCT020 23/19 Q1015,LIBG,2023-06-06T06:50:00Z,40.52,17.4,23.0,19.0,100,4,,6.21,29.970472,,,,,,,,,,,FEW,1000,SCT,2000,,,,,VFR,,,,,,,,,,,,METAR,64.0
LIBC 060650Z 24006KT 210V270 9999 BKN060 21/14 Q1016,LIBC,2023-06-06T06:50:00Z,39.0,17.07,21.0,14.0,240,6,,6.21,30.0,,,,,,,,,,,BKN,6000,,,,,,,VFR,,,,,,,,,,,,METAR,158.0
LGZA 060650Z 34007KT CAVOK 25/13 Q1015,LGZA,2023-06-06T06:50:00Z,37.75,20.88,25.0,13.0,340,7,,6.21,29.970472,,,,,,,,,,,CAVOK,,,,,,,,VFR,,,,,,,,,,,,METAR,3.0
LGSO 060650Z 36012KT 9999 FEW008 22/16 Q1015,LGSO,2023-06-06T06:50:00Z,37.42,24.95,22.0,16.0,360,12,,6.21,29.970472,,,,,,,,,,,FEW,800,,,,,,,VFR,,,,,,,,,,,,METAR,71.0
LGSM 060650Z 36011KT 330V070 CAVOK 26/16 Q1013,LGSM,2023-06-06T06:50:00Z,37.68,26.92,26.0,16.0,360,11,,6.21,29.911417,,,,,,,,,,,CAVOK,,,,,,,,VFR,,,,,,,,,,,,METAR,5.0
LGSK 060650Z 01007KT 9999 FEW012 22/14 Q1018,LGSK,2023-06-06T06:50:00Z,39.18,23.5,22.0,14.0,10,7,,6.21,30.059055,,,,,,,,,,,FEW,1200,,,,,,,VFR,,,,,,,,,,,,METAR,13.0
LGPA 060650Z 35011KT 9999 FEW016 22/16 Q1015,LGPA,2023-06-06T06:50:00Z,37.02,25.1,22.0,16.0,350,11,,6.21,29.970472,,,,,,,,,,,FEW,1600,,,,,,,VFR,,,,,,,,,,,,METAR,42.0
LGNX 060650Z 35012KT 9999 FEW020 21/15 Q1015,LGNX,2023-06-06T06:50:00Z,37.08,25.37,21.0,15.0,350,12,,6.21,29.970472,,,,,,,,,,,FEW,2000,,,,,,,VFR,,,,,,,,,,,,METAR,3.0
LGKZ 060650Z 00000KT CAVOK 20/13 Q1020,LGKZ,2023-06-06T06:50:00Z,40.28,21.83,20.0,13.0,0,0,,6.21,30.11811,,,,,,,,,,,CAVOK,,,,,,,,VFR,,,,,,,,,,,,METAR,615.0
LGKF 060650Z 29005KT CAVOK 24/17 Q1015,LGKF,2023-06-06T06:50:00Z,38.12,20.5,24.0,17.0,290,5,,6.21,29.970472,,,,,,,,,,,CAVOK,,,,,,,,VFR,,,,,,,,,,,,METAR,14.0
LGHI 060650Z 01013KT CAVOK 23/19 Q1014,LGHI,2023-06-06T06:50:00Z,38.33,26.13,23.0,19.0,10,13,,6.21,29.940945,,,,,,,,,,,CAVOK,,,,,,,,VFR,,,,,,,,,,,,METAR,6.0
LGAV 060650Z 05017G27KT 9999 FEW025 25/06 Q1016 NOSIG,LGAV,2023-06-06T06:50:00Z,37.93,23.95,25.0,6.0,50,17,27,6.21,30.0,,,,,,TRUE,,,,,FEW,2500,,,,,,,VFR,,,,,,,,,,,,METAR,83.0
LCEN 060650Z 00000KT 9999 FEW025 26/15 Q1012 NOSIG RMK RWY11 09003KT,LCEN,2023-06-06T06:50:00Z,35.15,33.5,26.0,15.0,0,0,,6.21,29.88189,,,,,,TRUE,,,,,FEW,2500,,,,,,,VFR,,,,,,,,,,,,SPECI,91.0
KRYY 060650Z AUTO 21003KT 10SM CLR 21/18 A2995 RMK AO2 SLP132 T02110178 $,KRYY,2023-06-06T06:50:00Z,34.02,-84.6,21.1,17.8,210,3,,10.0,29.949802,1013.2,,TRUE,TRUE,TRUE,,,,,,CLR,,,,,,,,VFR,,,,,,,,,,,,METAR,306.0
KNQA 060650Z 00000KT 10SM CLR 21/20 A2994,KNQA,2023-06-06T06:50:00Z,35.35,-89.87,21.0,20.0,0,0,,10.0,29.940945,,,,,,,,,,,CLR,,,,,,,,VFR,,,,,,,,,,,,METAR,90.0
KDAG 060650Z AUTO 31015G21KT 10SM CLR 17/04 A2977 RMK AO2 SLP057 T01720039,KDAG,2023-06-06T06:50:00Z,34.85,-116.78,17.2,3.9,310,15,21,10.0,29.769686,1005.7,,TRUE,TRUE,,,,,,,CLR,,,,,,,,VFR,,,,,,,,,,,,METAR,584.0
FHAW 060650Z 17008KT 9999 -SHRA FEW023 BKN045 25/20 Q1016 TEMPO SCT024 RMK BLU TEMPO WHT,FHAW,2023-06-06T06:50:00Z,-7.97,-14.4,25.0,20.0,170,8,,6.21,30.0,,,,,,,,,,-SHRA,FEW,2300,BKN,4500,,,,,VFR,,,,,,,,,,,,SPECI,79.0
ETNG 060650Z 35003KT CAVOK 15/11 Q1020 NOSIG,ETNG,2023-06-06T06:50:00Z,50.97,6.03,15.0,11.0,350,3,,6.21,30.11811,,,,,,TRUE,,,,,CAVOK,,,,,,,,VFR,,,,,,,,,,,,METAR,76.0
ENLK 060650Z 31007KT 9999 VCSH SCT020 BKN050 07/02 Q1018,ENLK,2023-06-06T06:50:00Z,68.15,13.62,7.0,2.0,310,7,,6.21,30.059055,,,,,,,,,,VCSH,SCT,2000,BKN,5000,,,,,VFR,,,,,,,,,,,,METAR,26.0
ENBS 060650Z 32023KT 9999 VCSH FEW009 BKN022 02/M00 Q1010,ENBS,2023-06-06T06:50:00Z,70.62,29.68,2.0,0.0,320,23,,6.21,29.822834,,,,,,,,,,VCSH,FEW,900,BKN,2200,,,,,MVFR,,,,,,,,,,,,METAR,144.0
EKVJ 060650Z 31010KT 9999 SCT011 11/// Q1022,EKVJ,2023-06-06T06:50:00Z,55.98,8.35,,,310,10,,6.21,30.177166,,,,,,,,,,,SCT,1100,,,,,,,VFR,,0.0,,,,,,,,,,METAR,5.0
EKVD 060650Z 28007KT 240V310 9999 BKN009 11/08 Q1022,EKVD,2023-06-06T06:50:00Z,55.43,9.32,11.0,8.0,280,7,,6.21,30.177166,,,,,,,,,,,BKN,900,,,,,,,IFR,,,,,,,,,,,,METAR,41.0
EKOD 060650Z 26006KT 220V300 CAVOK 12/10 Q1021,EKOD,2023-06-06T06:50:00Z,55.47,10.32,12.0,10.0,260,6,,6.21,30.147638,,,,,,,,,,,CAVOK,,,,,,,,VFR,,,,,,,,,,,,METAR,13.0
EGYP 060650Z 34013KT 8000 -DZ SCT003 BKN006 07/07 Q0984,EGYP,2023-06-06T06:50:00Z,-51.82,-58.45,7.0,7.0,340,13,,4.97,29.055119,,,,,,,,,,-DZ,SCT,300,BKN,600,,,,,IFR,,,,,,,,,,,,METAR,70.0
EGYH 060650Z AUTO 06014KT //// // OVC014/// 11/08 Q1025,EGYH,2023-06-06T06:50:00Z,52.87,0.15,11.0,8.0,60,14,,,30.265747,,,TRUE,,,,,,,,OVC,1400,,,,,,,,,,,,,,,,,,,SPECI,5.0
EGXZ 060650Z AUTO 06006KT 9999 OVC019/// 11/07 Q1026,EGXZ,2023-06-06T06:50:00Z,54.2,-1.38,11.0,7.0,60,6,,6.21,30.295275,,,TRUE,,,,,,,,OVC,1900,,,,,,,MVFR,,,,,,,,,,,,METAR,24.0
EGXV 060650Z AUTO 02004KT 9999 OVC017/// 11/09 Q1026,EGXV,2023-06-06T06:50:00Z,53.87,-0.45,11.0,9.0,20,4,,6.21,30.295275,,,TRUE,,,,,,,,OVC,1700,,,,,,,MVFR,,,,,,,,,,,,METAR,6.0
EGXT 060650Z AUTO 01008KT 9999 -DZ OVC007/// 10/08 Q1025,EGXT,2023-06-06T06:50:00Z,52.62,-0.47,10.0,8.0,10,8,,6.21,30.265747,,,TRUE,,,,,,,-DZ,OVC,700,,,,,,,IFR,,,,,,,,,,,,METAR,74.0
EGXS 060650Z AUTO 36013KT 9999 // OVC004/// 11/10 Q1025,EGXS,2023-06-06T06:50:00Z,53.48,0.15,11.0,10.0,360,13,,6.21,30.265747,,,TRUE,,,,,,,,OVC,400,,,,,,,LIFR,,,,,,,,,,,,METAR,6.0
EGXE 060650Z 01006KT 9999 SCT008 OVC017 11/09 Q1026 RMK GRN,EGXE,2023-06-06T06:50:00Z,54.28,-1.52,11.0,9.0,10,6,,6.21,30.295275,,,,,,,,,,,SCT,800,OVC,1700,,,,,MVFR,,,,,,,,,,,,SPECI,30.0
EGXC 060650Z 03007KT 9999 OVC014 11/08 Q1025 TEMPO OVC015 RMK GRN TEMPO WHT,EGXC,2023-06-06T06:50:00Z,53.1,-0.17,11.0,8.0,30,7,,6.21,30.265747,,,,,,,,,,,OVC,1400,,,,,,,MVFR,,,,,,,,,,,,SPECI,9.0
EGWC 060650Z 06007KT 9999 OVC017 11/07 Q1026 RMK WHT,EGWC,2023-06-06T06:50:00Z,52.63,-2.3,11.0,7.0,60,7,,6.21,30.295275,,,,,,,,,,,OVC,1700,,,,,,,MVFR,,,,,,,,,,,,SPECI,79.0
EGVO 060650Z AUTO 03010KT 9999 OVC018/// 11/07 Q1023,EGVO,2023-06-06T06:50:00Z,51.23,-0.95,11.0,7.0,30,10,,6.21,30.206694,,,TRUE,,,,,,,,OVC,1800,,,,,,,MVFR,,,,,,,,,,,,METAR,118.0
EGTK 060650Z 05010KT 9999 OVC014 10/07 Q1024,EGTK,2023-06-06T06:50:00Z,51.83,-1.32,10.0,7.0,50,10,,6.21,30.236221,,,,,,,,,,,OVC,1400,,,,,,,MVFR,,,,,,,,,,,,METAR,78.0
EGQM 060650Z AUTO 01004KT 9999 OVC021/// 11/07 Q1027,EGQM,2023-06-06T06:50:00Z,55.42,-1.6,11.0,7.0,10,4,,6.21,30.324802,,,TRUE,,,,,,,,OVC,2100,,,,,,,MVFR,,,,,,,,,,,,METAR,24.0
EGQL 060650Z AUTO 11005KT 9999 OVC018/// 11/07 Q1027,EGQL,2023-06-06T06:50:00Z,56.38,-2.87,11.0,7.0,110,5,,6.21,30.324802,,,TRUE,,,,,,,,OVC,1800,,,,,,,MVFR,,,,,,,,,,,,METAR,11.0
EGQK 060650Z AUTO 08006KT 9999 OVC019/// 11/07 Q1027,EGQK,2023-06-06T06:50:00Z,57.65,-3.57,11.0,7.0,80,6,,6.21,30.324802,,,TRUE,,,,,,,,OVC,1900,,,,,,,MVFR,,,,,,,,,,,,METAR,5.0
EGQA 060650Z AUTO 13004KT 9999 OVC020/// 11/06 Q1027,EGQA,2023-06-06T06:50:00Z,57.83,-3.95,11.0,6.0,130,4,,6.21,30.324802,,,TRUE,,,,,,,,OVC,2000,,,,,,,MVFR,,,,,,,,,,,,METAR,4.0
EGOP 060650Z AUTO 08007KT 9999 OVC028/// 12/07 Q1024,EGOP,2023-06-06T06:50:00Z,51.72,-4.37,12.0,7.0,80,7,,6.21,30.236221,,,TRUE,,,,,,,,OVC,2800,,,,,,,MVFR,,,,,,,,,,,,METAR,8.0
EGOM 060650Z AUTO 06008KT 9999 // OVC006/// 08/07 Q1026,EGOM,2023-06-06T06:50:00Z,55.05,-2.55,8.0,7.0,60,8,,6.21,30.295275,,,TRUE,,,,,,,,OVC,600,,,,,,,IFR,,,,,,,,,,,,SPECI,286.0
EGDR 060650Z AUTO 07012KT 9999 OVC010/// 13/11 Q1021,EGDR,2023-06-06T06:50:00Z,50.08,-5.25,13.0,11.0,70,12,,6.21,30.147638,,,TRUE,,,,,,,,OVC,1000,,,,,,,MVFR,,,,,,,,,,,,METAR,74.0
EEEI 060650Z 32005KT 290V360 9999 SCT022 15/11 Q1019 NOSIG,EEEI,2023-06-06T06:50:00Z,59.27,24.2,15.0,11.0,320,5,,6.21,30.088583,,,,,,TRUE,,,,,SCT,2200,,,,,,,VFR,,,,,,,,,,,,METAR,19.0
BGSF 060650Z AUTO 30011KT 9999NDV BKN055/// BKN140/// 02/M03 Q1021,BGSF,2023-06-06T06:50:00Z,67.0,-50.72,2.0,-3.0,300,11,,,30.147638,,,TRUE,,,,,,,,BKN,5500,BKN,14000,,,,,,,,,,,,,,,,,SPECI,75.0
BGKK 060650Z AUTO 24010KT 9999NDV SCT004/// 00/M01 Q1025,BGKK,2023-06-06T06:50:00Z,65.57,-37.13,0.0,-1.0,240,10,,,30.265747,,,TRUE,,,,,,,,SCT,400,,,,,,,,,,,,,,,,,,,SPECI,37.0
BGJN 060650Z AUTO 22005KT 9999NDV OVC067/// M00/M04 Q1021,BGJN,2023-06-06T06:50:00Z,69.25,-51.07,0.0,-4.0,220,5,,,30.147638,,,TRUE,,,,,,,,OVC,6700,,,,,,,,,,,,,,,,,,,SPECI,22.0
BGBW 060650Z 24008KT 9999 FEW008 SCT012 BKN017 04/01 Q1027,BGBW,2023-06-06T06:50:00Z,61.17,-45.42,4.0,1.0,240,8,,6.21,30.324802,,,,,,,,,,,FEW,800,SCT,1200,BKN,1700,,,MVFR,,,,,,,,,,,,METAR,49.0
MMTJ 060649Z 00000KT 7SM OVC030 15/11 A2996 RMK 8/5// HZY BINOVC,MMTJ,2023-06-06T06:49:00Z,32.53,-116.97,15.0,11.0,0,0,,7.0,29.958662,,,,,,,,,,,OVC,3000,,,,,,,MVFR,,,,,,,,,,,,METAR,150.0
MMSP 060649Z 12004KT 8SM SKC 17/14 A3022,MMSP,2023-06-06T06:49:00Z,22.25,-100.93,17.0,14.0,120,4,,8.0,30.221457,,,,,,,,,,,SKC,,,,,,,,VFR,,,,,,,,,,,,METAR,1841.0
MMTO 060648Z 14008KT 6SM SCT020 13/10 A3037 RMK 8/400 HZY,MMTO,2023-06-06T06:48:00Z,19.35,-99.57,13.0,10.0,140,8,,6.0,30.369095,,,,,,,,,,,SCT,2000,,,,,,,VFR,,,,,,,,,,,,METAR,2582.0
KJDN 060648Z AUTO 13004KT 18/13 A2992 RMK AO1 SLP115 T01780133 403060161,KJDN,2023-06-06T06:48:00Z,47.33,-106.95,17.8,13.3,130,4,,,29.920275,1011.5,,TRUE,TRUE,,,,,,,,,,,,,,,,,,,30.6,16.1,,,,,,,METAR,802.0
KCQT 060647Z AUTO VRB03KT 10SM SCT034 OVC044 17/11 A2992 RMK AO2 SLP131 T01670106 $,KCQT,2023-06-06T06:47:00Z,34.02,-118.28,16.7,10.6,0,3,,10.0,29.920275,1013.1,,TRUE,TRUE,TRUE,,,,,,SCT,3400,OVC,4400,,,,,VFR,,,,,,,,,,,,METAR,51.0
RKSF 060646Z 26006KT 9999 FEW030 BKN080 23/15 A2969 RMK CIG080,RKSF,2023-06-06T06:46:00Z,37.5,126.92,23.0,15.0,260,6,,6.21,29.68996,,,,,,,,,,,FEW,3000,BKN,8000,,,,,VFR,,,,,,,,,,,,METAR,49.0
MMMX 060645Z 20007KT 8SM SCT015 BKN080 16/13 A3033 NOSIG RMK 8/470 PCPN 3TH QUAD,MMMX,2023-06-06T06:45:00Z,19.43,-99.08,16.0,13.0,200,7,,8.0,30.33071,,,,,,TRUE,,,,,SCT,1500,BKN,8000,,,,,VFR,,,,,,,,,,,,METAR,2224.0
LHPA 060645Z 22002KT 6000 SCT004 BKN011 17/17 Q1016 NOSIG RMK GRN,LHPA,2023-06-06T06:45:00Z,47.35,17.5,17.0,17.0,220,2,,3.73,30.0,,,,,,TRUE,,,,,SCT,400,BKN,1100,,,,,MVFR,,,,,,,,,,,,METAR,143.0
KSWF 060645Z 27004KT 10SM BKN030 OVC100 13/07 A2977,KSWF,2023-06-06T06:45:00Z,41.5,-74.08,13.0,7.0,270,4,,10.0,29.769686,,,,,,,,,,,BKN,3000,OVC,10000,,,,,MVFR,,,,,,,,,,,,METAR,139.0
MMAA 060644Z 02005KT 5SM BKN015TCU 28/23 A2990 RMK 8/200 HZY,MMAA,2023-06-06T06:44:00Z,16.75,-99.75,28.0,23.0,20,5,,5.0,29.899607,,,,,,,,,,,BKN,1500,,,,,,,MVFR,,,,,,,,,,,,METAR,5.0
MMUN 060642Z 00000KT 7SM SCT080 BKN250 26/24 A2989 RMK 8/078,MMUN,2023-06-06T06:42:00Z,21.03,-86.85,26.0,24.0,0,0,,7.0,29.890747,,,,,,,,,,,SCT,8000,BKN,25000,,,,,VFR,,,,,,,,,,,,METAR,13.0
MMQT 060641Z 09011KT 7SM SCT020 18/13 A3029 RMK 8/500,MMQT,2023-06-06T06:41:00Z,20.62,-100.18,18.0,13.0,90,11,,7.0,30.28937,,,,,,,,,,,SCT,2000,,,,,,,VFR,,,,,,,,,,,,METAR,1909.0
MMMD 060641Z 10004KT 7SM SCT300 24/22 A2989 RMK 8/008,MMMD,2023-06-06T06:41:00Z,20.95,-89.65,24.0,22.0,100,4,,7.0,29.890747,,,,,,,,,,,SCT,30000,,,,,,,VFR,,,,,,,,,,,,METAR,10.0
MMAS 060641Z 07005KT 8SM FEW100 20/02 A3017 RMK 8/030 HZY,MMAS,2023-06-06T06:41:00Z,21.7,-102.32,20.0,2.0,70,5,,8.0,30.171259,,,,,,,,,,,FEW,10000,,,,,,,VFR,,,,,,,,,,,,SPECI,1866.0
FADY 060641Z 12002KT CAVOK 06/01 Q1023,FADY,2023-06-06T06:41:00Z,-30.68,24.02,6.0,1.0,120,2,,6.21,30.206694,,,,,,,,,,,CAVOK,,,,,,,,VFR,,,,,,,,,,,,SPECI,1265.0
MMMZ 060640Z 00000KT 10SM SKC 23/22 A2985,MMMZ,2023-06-06T06:40:00Z,23.17,-106.27,23.0,22.0,0,0,,10.0,29.84941,,,,,,,,,,,SKC,,,,,,,,VFR,,,,,,,,,,,,METAR,7.0
MMMY 060640Z 28006KT 8SM SKC 20/20 A2993,MMMY,2023-06-06T06:40:00Z,25.77,-100.1,20.0,20.0,280,6,,8.0,29.929134,,,,,,,,,,,SKC,,,,,,,,VFR,,,,,,,,,,,,METAR,382.0
MMMM 060640Z 00000KT 8SM SKC 18/09 A3017 RMK HZY,MMMM,2023-06-06T06:40:00Z,19.85,-101.03,18.0,9.0,0,0,,8.0,30.171259,,,,,,,,,,,SKC,,,,,,,,VFR,,,,,,,,,,,,SPECI,1840.0
MMHO 060640Z 00000KT 10SM SCT090 OVC200 26/04 A2982 RMK 8/037 HZY,MMHO,2023-06-06T06:40:00Z,29.08,-111.05,26.0,4.0,0,0,,10.0,29.819881,,,,,,,,,,,SCT,9000,OVC,20000,,,,,VFR,,,,,,,,,,,,METAR,186.0
MMGL 060640Z 31007KT 8SM SKC 22/04 A3012,MMGL,2023-06-06T06:40:00Z,20.52,-103.32,22.0,4.0,310,7,,8.0,30.121063,,,,,,,,,,,SKC,,,,,,,,VFR,,,,,,,,,,,,METAR,1531.0
RJSU 060638Z 13006KT 080V170 9999 FEW008 BKN010 BKN030 22/20 Q1007 RMK 1ST008 5ST010 6CU030 A2973,RJSU,2023-06-06T06:38:00Z,38.23,140.92,22.0,20.0,130,6,,6.21,29.734253,,,,,,,,,,,FEW,800,BKN,1000,BKN,3000,,,MVFR,,,,,,,,,,,,SPECI,9.0
KRPX 060638Z AUTO 10SM 19/13 A2987 RMK Roundup ,KRPX,2023-06-06T06:38:00Z,46.47,-108.55,19.0,13.0,,,,10.0,29.870079,,,TRUE,,,,,,,,,,,,,,,,,,,,,,,,,,,,METAR,1062.0
RJOZ 060637Z 11010KT 5000 -SHRA BR FEW006 SCT012 BKN020 18/17 Q1006 RMK 1ST006 4CU012 7CU020 A2971 VIS VRB,RJOZ,2023-06-06T06:37:00Z,34.03,131.05,18.0,17.0,110,10,,3.11,29.704725,,,,,,,,,,-SHRA BR,FEW,600,SCT,1200,BKN,2000,,,MVFR,,,,,,,,,,,,METAR,4.0
KTGI 060635Z AUTO 24010KT 10SM CLR 20/17 A2986 RMK AO1 T01950167,KTGI,2023-06-06T06:35:00Z,37.82,-75.98,19.5,16.7,240,10,,10.0,29.861221,,,TRUE,TRUE,,,,,,,CLR,,,,,,,,VFR,,,,,,,,,,,,SPECI,1.0
RJTK 060632Z 19019KT 9999 -SHRA FEW020 BKN120 BKN200 23/18 Q1008 RMK 1CU020 6AC120 7CI200 A2978 MAX WIND 27KT,RJTK,2023-06-06T06:32:00Z,35.38,139.92,23.0,18.0,190,19,,6.21,29.763779,,,,,,,,,,-SHRA,FEW,2000,BKN,12000,BKN,20000,,,VFR,,,,,,,,,,,,SPECI,2.0
WIBB 060630Z 12005KT 9999 SCT012 32/23 Q1006 NOSIG,WIBB,2023-06-06T06:30:00Z,0.47,101.45,32.0,23.0,120,5,,6.21,29.704725,,,,,,TRUE,,,,,SCT,1200,,,,,,,VFR,,,,,,,,,,,,METAR,41.0
WAOO 060630Z 20013G19KT 9999 TS FEW015CB SCT016 32/25 Q1008 TEMPO FM0700 5000 TSRA RMK CB TO AREA,WAOO,2023-06-06T06:30:00Z,-3.45,114.77,32.0,25.0,200,13,19,6.21,29.763779,,,,,,,,,,TS,FEW,1500,SCT,1600,,,,,VFR,,,,,,,,,,,,METAR,23.0
VYMD 060630Z 18005KT 7000 TS BKN020 FEW025CB 35/26 Q1003,VYMD,2023-06-06T06:30:00Z,21.7,95.98,35.0,26.0,180,5,,4.35,29.616142,,,,,,,,,,TS,BKN,2000,FEW,2500,,,,,MVFR,,,,,,,,,,,,METAR,87.0
VLVT 060630Z 22006KT 9000 BKN016 31/28 Q1005 NOSIG,VLVT,2023-06-06T06:30:00Z,17.98,102.57,31.0,28.0,220,6,,5.59,29.675198,,,,,,TRUE,,,,,BKN,1600,,,,,,,MVFR,,,,,,,,,,,,METAR,171.0
VEPY 060630Z 22005KT 5000 HZ FEW015 27/20 Q1013 NOSIG,VEPY,2023-06-06T06:30:00Z,27.22,88.58,27.0,20.0,220,5,,3.11,29.911417,,,,,,TRUE,,,,HZ,FEW,1500,,,,,,,MVFR,,,,,,,,,,,,METAR,1399.0
FABM 060624Z AUTO 09002KT //// // ////// 05/05 Q1028,FABM,2023-06-06T06:24:00Z,-28.25,28.33,5.0,5.0,90,2,,,30.35433,,,TRUE,,,,,,,,,,,,,,,,,,,,,,,,,,,,SPECI,1690.0
ETSB 060620Z 08005KT 9999 FEW060 16/07 Q1019 BLU+,ETSB,2023-06-06T06:20:00Z,50.17,7.07,16.0,7.0,80,5,,6.21,30.088583,,,,,,,,,,,FEW,6000,,,,,,,VFR,,,,,,,,,,,,METAR,477.0
