No errors
No warnings
140 ms
data source=metars
4910 results
raw_text,station_id,observation_time,latitude,longitude,temp_c,dewpoint_c,wind_dir_degrees,wind_speed_kt,wind_gust_kt,visibility_statute_mi,altim_in_hg,sea_level_pressure_mb,corrected,auto,auto_station,maintenance_indicator_on,no_signal,lightning_sensor_off,freezing_rain_sensor_off,present_weather_sensor_off,wx_string,sky_cover,cloud_base_ft_agl,sky_cover,cloud_base_ft_agl,sky_cover,cloud_base_ft_agl,sky_cover,cloud_base_ft_agl,flight_category,three_hr_pressure_tendency_mb,maxT_c,minT_c,maxT24hr_c,minT24hr_c,precip_in,pcp3hr_in,pcp6hr_in,pcp24hr_in,snow_in,vert_vis_ft,metar_type,elevation_m
OPLA 160725Z 36016KT 4000 HZ FEW040 SCT100 36/14 Q1005 TEMPO 33015G30KT 1500 DRDU RMK QFE979 A29.70,OPLA,2023-05-16T07:25:00Z,31.52,74.4,36.0,14.0,360,16,,2.49,29.675198,,,,,,,,,,HZ,FEW,4000,SCT,10000,,,,,IFR,,,,,,,,,,,,METAR,217.0
PAMY 160724Z AUTO 05012KT 3SM -SN BR OVC014 00/00 A2964 RMK AO2 RAE04SNB04 FZRANO PNO $,PAMY,2023-05-16T07:24:00Z,60.37,-166.27,0.0,0.0,50,12,,3.0,29.639763,,,TRUE,TRUE,TRUE,,,TRUE,,-SN BR,OVC,1400,,,,,,,MVFR,,,,,,,,,,,,SPECI,14.0
CYAY 160724Z AUTO 31006KT 2SM -RA BR OVC004 03/03 A2929 RMK SLP921,CYAY,2023-05-16T07:24:00Z,51.38,-56.07,3.0,3.0,310,6,,2.0,29.291338,992.1,,TRUE,,,,,,,-RA BR,OVC,400,,,,,,,LIFR,,,,,,,,,,,,SPECI,23.0
KSMX 160723Z AUTO 00000KT 1 1/4SM BR OVC002 11/11 A3008 RMK AO2 T01060106,KSMX,2023-05-16T07:23:00Z,34.9,-120.45,10.6,10.6,0,0,,1.25,30.079725,,,TRUE,TRUE,,,,,,BR,OVC,200,,,,,,,LIFR,,,,,,,,,,,,METAR,73.0
KSJC 160723Z AUTO 32007KT 10SM FEW010 14/12 A3008 RMK AO2 T01390122,KSJC,2023-05-16T07:23:00Z,37.37,-121.92,13.9,12.2,320,7,,10.0,30.079725,,,TRUE,TRUE,,,,,,,FEW,1000,,,,,,,VFR,,,,,,,,,,,,SPECI,13.0
KDAN 160723Z AUTO 00000KT 6SM BR FEW001 OVC050 16/15 A3006 RMK AO2 T01560150,KDAN,2023-05-16T07:23:00Z,36.57,-79.33,15.6,15.0,0,0,,6.0,30.059055,,,TRUE,TRUE,,,,,,BR,FEW,100,OVC,5000,,,,,VFR,,,,,,,,,,,,SPECI,170.0
CYMH 160723Z AUTO 01007KT 5SM -SN OVC007 00/M00 A2932 RMK SLP933,CYMH,2023-05-16T07:23:00Z,52.3,-55.82,0.0,0.0,10,7,,5.0,29.320866,993.3,,TRUE,,,,,,,-SN,OVC,700,,,,,,,IFR,,,,,,,,,,,,METAR,18.0
UTO8 M M M 211/-05/-05/2614/M/M PK WND 2622 0611Z SOG 73 6010 64MM,UTO8,2023-05-16T07:22:00Z,,,,,,,,3.73,,,,,,,,,,,,,,,,,,,,,,,,,,,,,,,,SPECI,
KRMG 160722Z AUTO 00000KT 1/4SM FG VV001 19/18 A3005 RMK AO2 T01890183,KRMG,2023-05-16T07:22:00Z,34.35,-85.17,18.9,18.3,0,0,,0.25,30.050198,,,TRUE,TRUE,,,,,,FG,OVX,0,,,,,,,LIFR,,,,,,,,,,,100,METAR,196.0
KRKP 160722Z AUTO 04003KT 9SM BKN015 OVC120 24/22 A3007 RMK AO2 T02440222,KRKP,2023-05-16T07:22:00Z,28.08,-97.05,24.4,22.2,40,3,,9.0,30.070866,,,TRUE,TRUE,,,,,,,BKN,1500,OVC,12000,,,,,MVFR,,,,,,,,,,,,SPECI,8.0
KLBF 160722Z AUTO 32003KT 3/4SM BR VV002 06/06 A3023 RMK AO2 T00610056,KLBF,2023-05-16T07:22:00Z,41.12,-100.67,6.1,5.6,320,3,,0.75,30.230314,,,TRUE,TRUE,,,,,,BR,OVX,0,,,,,,,LIFR,,,,,,,,,,,200,SPECI,843.0
KEVM 160722Z AUTO 28003KT 10SM CLR 11/03 A2996 RMK AO2,KEVM,2023-05-16T07:22:00Z,47.42,-92.5,11.0,3.0,280,3,,10.0,29.958662,,,TRUE,TRUE,,,,,,,CLR,,,,,,,,VFR,,,,,,,,,,,,METAR,419.0
CYYW 160722Z AUTO 36011G17KT 290V080 9SM OVC007 07/07 A2991 RMK PRESRR SLP136,CYYW,2023-05-16T07:22:00Z,50.3,-88.9,7.0,7.0,360,11,17,9.0,29.911417,1013.6,,TRUE,,,,,,,,OVC,700,,,,,,,IFR,,,,,,,,,,,,SPECI,320.0
CYVO 160722Z AUTO 01007KT 9SM -RA SCT006 OVC013 03/01 A2973 RMK SLP084,CYVO,2023-05-16T07:22:00Z,48.07,-77.77,3.0,1.0,10,7,,9.0,29.731298,1008.4,,TRUE,,,,,,,-RA,SCT,600,OVC,1300,,,,,MVFR,,,,,,,,,,,,SPECI,329.0
UAKD 160721Z 08011G16MPS 9999 SCT060CB 18/M02 Q1012 NOSIG RMK QFE725/0967,UAKD,2023-05-16T07:21:00Z,47.7,67.73,18.0,-2.0,80,21,31,6.21,29.88189,,,,,,TRUE,,,,,SCT,6000,,,,,,,VFR,,,,,,,,,,,,METAR,379.0
PABA 160721Z AUTO 28014KT 2SM -SN BR SCT006 SCT011 OVC047 M02/M03 A3029 RMK AO2 FZRANO PNO $,PABA,2023-05-16T07:21:00Z,70.13,-143.58,-2.0,-3.0,280,14,,2.0,30.28937,,,TRUE,TRUE,TRUE,,,TRUE,,-SN BR,SCT,600,SCT,1100,OVC,4700,,,IFR,,,,,,,,,,,,METAR,1.0
KSBP 160721Z AUTO 27003KT 2 1/2SM BR OVC003 12/12 A3007 RMK AO2 VIS 1 3/4V3 T01220117,KSBP,2023-05-16T07:21:00Z,35.23,-120.63,12.2,11.7,270,3,,2.5,30.070866,,,TRUE,TRUE,,,,,,BR,OVC,300,,,,,,,LIFR,,,,,,,,,,,,SPECI,52.0
KONA 160721Z AUTO 00000KT 10SM CLR 12/08 A3006 RMK AO2,KONA,2023-05-16T07:21:00Z,44.07,-91.7,12.0,8.0,0,0,,10.0,30.059055,,,TRUE,TRUE,,,,,,,CLR,,,,,,,,VFR,,,,,,,,,,,,METAR,200.0
KF17 160721Z AUTO 00000KT 10SM CLR 20/19 A3007 RMK AO2,KF17,2023-05-16T07:21:00Z,31.83,-94.15,20.0,19.0,0,0,,10.0,30.070866,,,TRUE,TRUE,,,,,,,CLR,,,,,,,,VFR,,,,,,,,,,,,METAR,93.0
KARA 160721Z AUTO 34003KT 8SM CLR 21/19 A3005 RMK AO2 T02110194 $,KARA,2023-05-16T07:21:00Z,30.03,-91.88,21.1,19.4,340,3,,8.0,30.050198,,,TRUE,TRUE,TRUE,,,,,,CLR,,,,,,,,VFR,,,,,,,,,,,,SPECI,5.0
SAEZ 160720Z 05004KT 5000 R11/P2000 R29/P2000 MIFG BR SCT022 14/13 Q1017 NOSIG,SAEZ,2023-05-16T07:20:00Z,-34.82,-58.53,14.0,13.0,50,4,,3.11,30.029528,,,,,,TRUE,,,,MIFG BR,SCT,2200,,,,,,,MVFR,,,,,,,,,,,,METAR,16.0
PKWA 160720Z AUTO 06015KT 10SM CLR 29/24 A2984 RMK AO2 T02860241 TSNO,PKWA,2023-05-16T07:20:00Z,8.72,167.72,28.6,24.1,60,15,,10.0,29.840551,,,TRUE,TRUE,,,TRUE,,,,CLR,,,,,,,,VFR,,,,,,,,,,,,METAR,6.0
PFSH 160720Z AUTO 02016KT 7SM UP FEW004 SCT019 OVC027 00/00 A2995 RMK AO2 P0001 FZRANO,PFSH,2023-05-16T07:20:00Z,64.37,-161.22,0.0,0.0,20,16,,7.0,29.949802,,,TRUE,TRUE,,,,TRUE,,UP,FEW,400,SCT,1900,OVC,2700,,,MVFR,,,,,,0.01,,,,,,METAR,6.0
PAMD 160720Z AUTO 13006KT 10SM BKN002 05/04 A3034 RMK AO2 PNO $,PAMD,2023-05-16T07:20:00Z,59.43,-146.3,5.0,4.0,130,6,,10.0,30.339567,,,TRUE,TRUE,TRUE,,,,,,BKN,200,,,,,,,LIFR,,,,,,,,,,,,METAR,20.0
LXGB 160720Z 25006KT CAVOK 20/15 Q1013 NOSIG RMK BLU BLU,LXGB,2023-05-16T07:20:00Z,36.15,-5.33,20.0,15.0,250,6,,6.21,29.911417,,,,,,TRUE,,,,,CAVOK,,,,,,,,VFR,,,,,,,,,,,,SPECI,5.0
LSZS 160720Z 01011KT 320V030 9999 FEW037 BKN048 06/M02 Q1009 RMK D TL180,LSZS,2023-05-16T07:20:00Z,46.53,9.88,6.0,-2.0,10,11,,6.21,29.793306,,,,,,,,,,,FEW,3700,BKN,4800,,,,,VFR,,,,,,,,,,,,METAR,1708.0
LSZR 160720Z 30007KT 9999 FEW008 SCT015 BKN030 12/11 Q1013 RMK D,LSZR,2023-05-16T07:20:00Z,47.48,9.57,12.0,11.0,300,7,,6.21,29.911417,,,,,,,,,,,FEW,800,SCT,1500,BKN,3000,,,MVFR,,,,,,,,,,,,METAR,396.0
LSZL 160720Z VRB02KT CAVOK 18/07 Q1005 RMK BLU,LSZL,2023-05-16T07:20:00Z,46.17,8.88,18.0,7.0,0,2,,6.21,29.675198,,,,,,,,,,,CAVOK,,,,,,,,VFR,,,,,,,,,,,,METAR,198.0
LSZH 160720Z 33004KT 300V360 9999 FEW018 SCT021 BKN023 12/09 Q1014 NOSIG,LSZH,2023-05-16T07:20:00Z,47.48,8.53,12.0,9.0,330,4,,6.21,29.940945,,,,,,TRUE,,,,,FEW,1800,SCT,2100,BKN,2300,,,MVFR,,,,,,,,,,,,METAR,424.0
LSZG 160720Z 09002KT 9999 -SHRA FEW028 BKN036 12/11 Q1013,LSZG,2023-05-16T07:20:00Z,47.17,7.42,12.0,11.0,90,2,,6.21,29.911417,,,,,,,,,,-SHRA,FEW,2800,BKN,3600,,,,,VFR,,,,,,,,,,,,METAR,428.0
LSZC 160720Z 19004KT 170V230 8000 -RA SCT014 OVC017 11/09 Q1013,LSZC,2023-05-16T07:20:00Z,46.97,8.38,11.0,9.0,190,4,,4.97,29.911417,,,,,,,,,,-RA,SCT,1400,OVC,1700,,,,,MVFR,,,,,,,,,,,,METAR,445.0
LSZB 160720Z 34005KT 290V010 9999 SCT017 BKN024 11/09 Q1013,LSZB,2023-05-16T07:20:00Z,46.92,7.5,11.0,9.0,340,5,,6.21,29.911417,,,,,,,,,,,SCT,1700,BKN,2400,,,,,MVFR,,,,,,,,,,,,METAR,510.0
LSZA 160720Z 02007KT 330V080 9999 FEW080 19/05 Q1004,LSZA,2023-05-16T07:20:00Z,46.0,8.92,19.0,5.0,20,7,,6.21,29.64567,,,,,,,,,,,FEW,8000,,,,,,,VFR,,,,,,,,,,,,METAR,276.0
LSMP 160720Z 05003KT 360V080 9999 -RA FEW028 BKN032 BKN069 12/10 Q1013 RMK BLU,LSMP,2023-05-16T07:20:00Z,46.83,6.92,12.0,10.0,50,3,,6.21,29.911417,,,,,,,,,,-RA,FEW,2800,BKN,3200,BKN,6900,,,VFR,,,,,,,,,,,,METAR,490.0
LSMM 160720Z 14005KT 9999 SCT020 OVC056 11/08 Q1013 RMK BLU,LSMM,2023-05-16T07:20:00Z,46.75,8.12,11.0,8.0,140,5,,6.21,29.911417,,,,,,,,,,,SCT,2000,OVC,5600,,,,,VFR,,,,,,,,,,,,METAR,570.0
LSME 160720Z 00000KT 9999 FEW015 BKN017 OVC021 12/12 Q1013 RMK WHT,LSME,2023-05-16T07:20:00Z,47.1,8.3,12.0,12.0,0,0,,6.21,29.911417,,,,,,,,,,,FEW,1500,BKN,1700,OVC,2100,,,MVFR,,,,,,,,,,,,METAR,427.0
LSMD 160720Z AUTO VRB01KT 9999NDV SCT020 OVC023 12/09 Q1014 RMK,LSMD,2023-05-16T07:20:00Z,47.4,8.65,12.0,9.0,0,1,,,29.940945,,,TRUE,,,,,,,,SCT,2000,OVC,2300,,,,,,,,,,,,,,,,,METAR,436.0
LSMA 160720Z 06008KT 360V110 9999 -SHRA SCT022 OVC028 12/08 Q1013 RMK BLU,LSMA,2023-05-16T07:20:00Z,46.95,8.28,12.0,8.0,60,8,,6.21,29.911417,,,,,,,,,,-SHRA,SCT,2200,OVC,2800,,,,,MVFR,,,,,,,,,,,,METAR,441.0
LSGS 160720Z 27005KT 220V310 9999 SCT100 14/08 Q1011,LSGS,2023-05-16T07:20:00Z,46.22,7.32,14.0,8.0,270,5,,6.21,29.852362,,,,,,,,,,,SCT,10000,,,,,,,VFR,,,,,,,,,,,,METAR,482.0
LSGG 160720Z VRB01KT 9999 FEW027 BKN040 13/08 Q1013 NOSIG,LSGG,2023-05-16T07:20:00Z,46.25,6.12,13.0,8.0,0,1,,6.21,29.911417,,,,,,TRUE,,,,,FEW,2700,BKN,4000,,,,,VFR,,,,,,,,,,,,METAR,411.0
LSGC 160720Z 04007KT 010V070 4000 -RA BKN003 OVC006 07/07 Q1014,LSGC,2023-05-16T07:20:00Z,47.08,6.8,7.0,7.0,40,7,,2.49,29.940945,,,,,,,,,,-RA,BKN,300,OVC,600,,,,,LIFR,,,,,,,,,,,,METAR,1018.0
LOXZ 160720Z VRB01KT 6000 RA FEW005 SCT040 BKN045 08/07 Q1012 TEMPO -RA SCT006 BKN015,LOXZ,2023-05-16T07:20:00Z,47.2,14.75,8.0,7.0,0,1,,3.73,29.88189,,,,,,,,,,RA,FEW,500,SCT,4000,BKN,4500,,,MVFR,,,,,,,,,,,,METAR,678.0
LOWW 160720Z 01004KT CAVOK 13/11 Q1012 NOSIG,LOWW,2023-05-16T07:20:00Z,48.12,16.57,13.0,11.0,10,4,,6.21,29.88189,,,,,,TRUE,,,,,CAVOK,,,,,,,,VFR,,,,,,,,,,,,METAR,179.0
LOWS 160720Z AUTO VRB02KT 9999 FEW030 SCT050 BKN095 11/10 Q1013 NOSIG,LOWS,2023-05-16T07:20:00Z,47.78,13.02,11.0,10.0,0,2,,6.21,29.911417,,,TRUE,,,TRUE,,,,,FEW,3000,SCT,5000,BKN,9500,,,VFR,,,,,,,,,,,,METAR,427.0
LOWL 160720Z 35003KT 4500 BR SCT004 10/10 Q1013 TEMPO BKN005 BECMG 8000,LOWL,2023-05-16T07:20:00Z,48.22,14.18,10.0,10.0,350,3,,2.8,29.911417,,,,,,,,,,BR,SCT,400,,,,,,,IFR,,,,,,,,,,,,METAR,290.0
LOWK 160720Z AUTO VRB01KT 9999 -RA SCT005 OVC050 10/10 Q1011 TEMPO 4000 RA BKN006,LOWK,2023-05-16T07:20:00Z,46.65,14.32,10.0,10.0,0,1,,6.21,29.852362,,,TRUE,,,,,,,-RA,SCT,500,OVC,5000,,,,,VFR,,,,,,,,,,,,METAR,450.0
LOWI 160720Z 26002KT 8000 -RA FEW006 SCT010 BKN020 10/10 Q1012 TEMPO RA BKN010,LOWI,2023-05-16T07:20:00Z,47.27,11.33,10.0,10.0,260,2,,4.97,29.88189,,,,,,,,,,-RA,FEW,600,SCT,1000,BKN,2000,,,MVFR,,,,,,,,,,,,METAR,570.0
LOWG 160720Z 32005KT 290V350 8000 RA FEW030 BKN040 BKN050 11/10 Q1011 TEMPO -RA,LOWG,2023-05-16T07:20:00Z,47.0,15.43,11.0,10.0,320,5,,4.97,29.852362,,,,,,,,,,RA,FEW,3000,BKN,4000,BKN,5000,,,MVFR,,,,,,,,,,,,METAR,337.0
LLBG 160720Z VRB02KT CAVOK 28/16 Q1007 NOSIG,LLBG,2023-05-16T07:20:00Z,32.0,34.88,28.0,16.0,0,2,,6.21,29.734253,,,,,,TRUE,,,,,CAVOK,,,,,,,,VFR,,,,,,,,,,,,METAR,35.0
LIRZ 160720Z AUTO 33009KT 9999 BKN075/// 14/12 Q0996,LIRZ,2023-05-16T07:20:00Z,43.1,12.5,14.0,12.0,330,9,,6.21,29.409449,,,TRUE,,,,,,,,BKN,7500,,,,,,,VFR,,,,,,,,,,,,METAR,206.0
LIRQ 160720Z 03016G29KT 330V090 9999 RA SCT040 BKN070 14/10 Q0999,LIRQ,2023-05-16T07:20:00Z,43.8,11.2,14.0,10.0,30,16,29,6.21,29.498032,,,,,,,,,,RA,SCT,4000,BKN,7000,,,,,VFR,,,,,,,,,,,,METAR,33.0
LIRN 160720Z VRB02KT 9999 -RA BKN030 15/13 Q0996 RERA NOSIG,LIRN,2023-05-16T07:20:00Z,40.88,14.3,15.0,13.0,0,2,,6.21,29.409449,,,,,,TRUE,,,,-RA,BKN,3000,,,,,,,MVFR,,,,,,,,,,,,METAR,76.0
LIRF 160720Z 30004KT 9999 FEW020 SCT040 15/13 Q0996 REDZ NOSIG,LIRF,2023-05-16T07:20:00Z,41.78,12.23,15.0,13.0,300,4,,6.21,29.409449,,,,,,TRUE,,,,,FEW,2000,SCT,4000,,,,,VFR,,,,,,,,,,,,METAR,2.0
LIRA 160720Z 35004KT 320V030 9999 FEW005 SCT015 BKN040 13/12 Q0996,LIRA,2023-05-16T07:20:00Z,41.8,12.58,13.0,12.0,350,4,,6.21,29.409449,,,,,,,,,,,FEW,500,SCT,1500,BKN,4000,,,VFR,,,,,,,,,,,,METAR,101.0
LIPZ 160720Z 05014KT 9999 BKN070 15/12 Q1004 TEMPO RA,LIPZ,2023-05-16T07:20:00Z,45.5,12.35,15.0,12.0,50,14,,6.21,29.64567,,,,,,,,,,,BKN,7000,,,,,,,VFR,,,,,,,,,,,,METAR,3.0
LIPY 160720Z AUTO VRB04KT 4900 +TSRA OVC013/// 15/14 Q0996,LIPY,2023-05-16T07:20:00Z,43.62,13.37,15.0,14.0,0,4,,3.04,29.409449,,,TRUE,,,,,,,+TSRA,OVC,1300,,,,,,,MVFR,,,,,,,,,,,,METAR,11.0
LIPX 160720Z 36003KT 280V040 9999 BKN070 15/11 Q1004,LIPX,2023-05-16T07:20:00Z,45.38,10.87,15.0,11.0,360,3,,6.21,29.64567,,,,,,,,,,,BKN,7000,,,,,,,VFR,,,,,,,,,,,,METAR,67.0
LIPR 160720Z 05021G31KT 8000 -TSRA FEW015CB BKN025 BKN060 16/12 Q0997 RERA,LIPR,2023-05-16T07:20:00Z,44.02,12.62,16.0,12.0,50,21,31,4.97,29.438976,,,,,,,,,,-TSRA,FEW,1500,BKN,2500,BKN,6000,,,MVFR,,,,,,,,,,,,METAR,10.0
LIPQ 160720Z AUTO VRB01KT 9999 -RA VV002 16/12 Q1004,LIPQ,2023-05-16T07:20:00Z,45.82,13.47,16.0,12.0,0,1,,6.21,29.64567,,,TRUE,,,,,,,-RA,OVX,0,,,,,,,LIFR,,,,,,,,,,,200,METAR,6.0
LIPO 160720Z AUTO 27004KT 9999 -RA BKN055/// 14/13 Q1005,LIPO,2023-05-16T07:20:00Z,45.42,10.33,14.0,13.0,270,4,,6.21,29.675198,,,TRUE,,,,,,,-RA,BKN,5500,,,,,,,VFR,,,,,,,,,,,,METAR,104.0
LIPH 160720Z 36006KT 320V050 9999 -RA FEW030 BKN080 14/12 Q1004 RERA,LIPH,2023-05-16T07:20:00Z,45.63,12.18,14.0,12.0,360,6,,6.21,29.64567,,,,,,,,,,-RA,FEW,3000,BKN,8000,,,,,VFR,,,,,,,,,,,,METAR,10.0
LIPE 160720Z 31007KT 270V360 4000 SHRA BKN010 OVC020 12/12 Q1003,LIPE,2023-05-16T07:20:00Z,44.52,11.3,12.0,12.0,310,7,,2.49,29.616142,,,,,,,,,,SHRA,BKN,1000,OVC,2000,,,,,IFR,,,,,,,,,,,,METAR,37.0
LIMZ 160720Z AUTO VRB01KT 9999 FEW091/// 18/08 Q1005,LIMZ,2023-05-16T07:20:00Z,44.53,7.62,18.0,8.0,0,1,,6.21,29.675198,,,TRUE,,,,,,,,FEW,9100,,,,,,,VFR,,,,,,,,,,,,METAR,377.0
LIMW 160720Z AUTO 23012KT 200V260 9999 NCD 19/02 Q1007,LIMW,2023-05-16T07:20:00Z,45.73,7.37,19.0,2.0,230,12,,6.21,29.734253,,,TRUE,,,,,,,,CLR,,,,,,,,VFR,,,,,,,,,,,,METAR,554.0
LIML 160720Z 13004KT 080V170 9999 SCT040 16/11 Q1005 NOSIG,LIML,2023-05-16T07:20:00Z,45.47,9.27,16.0,11.0,130,4,,6.21,29.675198,,,,,,TRUE,,,,,SCT,4000,,,,,,,VFR,,,,,,,,,,,,METAR,109.0
LIMJ 160720Z 35011KT CAVOK 19/10 Q1003,LIMJ,2023-05-16T07:20:00Z,44.42,8.83,19.0,10.0,350,11,,6.21,29.616142,,,,,,,,,,,CAVOK,,,,,,,,VFR,,,,,,,,,,,,METAR,3.0
LIMF 160720Z 13004KT 110V170 CAVOK 16/10 Q1005,LIMF,2023-05-16T07:20:00Z,45.22,7.65,16.0,10.0,130,4,,6.21,29.675198,,,,,,,,,,,CAVOK,,,,,,,,VFR,,,,,,,,,,,,METAR,295.0
LIME 160720Z 14007KT 120V180 9999 SCT045 BKN100 15/10 Q1005 NOSIG,LIME,2023-05-16T07:20:00Z,45.67,9.7,15.0,10.0,140,7,,6.21,29.675198,,,,,,TRUE,,,,,SCT,4500,BKN,10000,,,,,VFR,,,,,,,,,,,,METAR,239.0
LIMC 160720Z 04005KT 010V070 CAVOK 16/08 Q1004 NOSIG,LIMC,2023-05-16T07:20:00Z,45.62,8.72,16.0,8.0,40,5,,6.21,29.64567,,,,,,TRUE,,,,,CAVOK,,,,,,,,VFR,,,,,,,,,,,,METAR,221.0
LIEO 160720Z 24013KT 9999 FEW035 20/13 Q1001,LIEO,2023-05-16T07:20:00Z,40.88,9.52,20.0,13.0,240,13,,6.21,29.557087,,,,,,,,,,,FEW,3500,,,,,,,VFR,,,,,,,,,,,,METAR,8.0
LIEE 160720Z 34008KT 310V010 9999 BKN030 20/12 Q1003,LIEE,2023-05-16T07:20:00Z,39.25,9.07,20.0,12.0,340,8,,6.21,29.616142,,,,,,,,,,,BKN,3000,,,,,,,MVFR,,,,,,,,,,,,METAR,1.0
LIEA 160720Z VRB04KT 9999 FEW020 19/14 Q1003,LIEA,2023-05-16T07:20:00Z,40.62,8.28,19.0,14.0,0,4,,6.21,29.616142,,,,,,,,,,,FEW,2000,,,,,,,VFR,,,,,,,,,,,,METAR,22.0
LICR 160720Z AUTO 19007KT 9999 FEW068/// BKN100/// 19/13 Q1004,LICR,2023-05-16T07:20:00Z,38.07,15.65,19.0,13.0,190,7,,6.21,29.64567,,,TRUE,,,,,,,,FEW,6800,BKN,10000,,,,,VFR,,,,,,,,,,,,METAR,16.0
LICJ 160720Z 24016KT 9999 FEW025 SCT050 18/14 Q1003,LICJ,2023-05-16T07:20:00Z,38.17,13.08,18.0,14.0,240,16,,6.21,29.616142,,,,,,,,,,,FEW,2500,SCT,5000,,,,,VFR,,,,,,,,,,,,METAR,20.0
LICD 160720Z AUTO 26018KT 9999 NCD 19/13 Q1008,LICD,2023-05-16T07:20:00Z,35.5,12.62,19.0,13.0,260,18,,6.21,29.763779,,,TRUE,,,,,,,,CLR,,,,,,,,VFR,,,,,,,,,,,,METAR,20.0
LICC 160720Z 25015KT 9999 FEW030 19/12 Q1004,LICC,2023-05-16T07:20:00Z,37.47,15.05,19.0,12.0,250,15,,6.21,29.64567,,,,,,,,,,,FEW,3000,,,,,,,VFR,,,,,,,,,,,,METAR,6.0
LICB 160720Z AUTO 25012KT 9999 BKN013/// BKN048/// 16/14 Q1005,LICB,2023-05-16T07:20:00Z,37.0,14.62,16.0,14.0,250,12,,6.21,29.675198,,,TRUE,,,,,,,,BKN,1300,BKN,4800,,,,,MVFR,,,,,,,,,,,,METAR,212.0
LICA 160720Z AUTO 22009KT 180V240 9999 FEW028/// BKN052/// 18/13 Q1003,LICA,2023-05-16T07:20:00Z,38.9,16.25,18.0,13.0,220,9,,6.21,29.616142,,,TRUE,,,,,,,,FEW,2800,BKN,5200,,,,,VFR,,,,,,,,,,,,METAR,7.0
LIBR 160720Z 17017G27KT 9999 SCT030 19/12 Q1001,LIBR,2023-05-16T07:20:00Z,40.65,17.95,19.0,12.0,170,17,27,6.21,29.557087,,,,,,,,,,,SCT,3000,,,,,,,VFR,,,,,,,,,,,,METAR,5.0
LIBP 160720Z AUTO 20006KT 9999 -RA BKN085/// 15/14 Q0996,LIBP,2023-05-16T07:20:00Z,42.42,14.18,15.0,14.0,200,6,,6.21,29.409449,,,TRUE,,,,,,,-RA,BKN,8500,,,,,,,VFR,,,,,,,,,,,,METAR,10.0
LIBD 160720Z 15021G37KT 9999 FEW012 SCT025 19/14 Q0998,LIBD,2023-05-16T07:20:00Z,41.13,16.77,19.0,14.0,150,21,37,6.21,29.468504,,,,,,,,,,,FEW,1200,SCT,2500,,,,,VFR,,,,,,,,,,,,METAR,42.0
LGZA 160720Z 19007KT 7000 SCT008 SCT020 BKN070 18/17 Q1009,LGZA,2023-05-16T07:20:00Z,37.75,20.88,18.0,17.0,190,7,,4.35,29.793306,,,,,,,,,,,SCT,800,SCT,2000,BKN,7000,,,MVFR,,,,,,,,,,,,METAR,3.0
LGTS 160720Z VRB01KT 9999 FEW040 20/13 Q1010 NOSIG,LGTS,2023-05-16T07:20:00Z,40.52,22.97,20.0,13.0,0,1,,6.21,29.822834,,,,,,TRUE,,,,,FEW,4000,,,,,,,VFR,,,,,,,,,,,,METAR,4.0
LGSR 160720Z 14010KT CAVOK 22/08 Q1009,LGSR,2023-05-16T07:20:00Z,36.4,25.48,22.0,8.0,140,10,,6.21,29.793306,,,,,,,,,,,CAVOK,,,,,,,,VFR,,,,,,,,,,,,METAR,31.0
LGSA 160720Z 32005KT 9999 FEW020 SCT070 20/17 Q1008,LGSA,2023-05-16T07:20:00Z,35.53,24.13,20.0,17.0,320,5,,6.21,29.763779,,,,,,,,,,,FEW,2000,SCT,7000,,,,,VFR,,,,,,,,,,,,METAR,122.0
LGRX 160720Z 00000KT 9999 FEW020 BKN080 18/18 Q1008,LGRX,2023-05-16T07:20:00Z,38.17,21.42,18.0,18.0,0,0,,6.21,29.763779,,,,,,,,,,,FEW,2000,BKN,8000,,,,,VFR,,,,,,,,,,,,METAR,16.0
LGRP 160720Z 05008KT 9999 FEW018 26/16 Q1009 NOSIG,LGRP,2023-05-16T07:20:00Z,36.4,28.08,26.0,16.0,50,8,,6.21,29.793306,,,,,,TRUE,,,,,FEW,1800,,,,,,,VFR,,,,,,,,,,,,METAR,3.0
LGPZ 160720Z 10018G28KT 8000 FEW015 SCT025 BKN080 18/17 Q1006 RERA,LGPZ,2023-05-16T07:20:00Z,38.92,20.77,18.0,17.0,100,18,28,4.97,29.704725,,,,,,,,,,,FEW,1500,SCT,2500,BKN,8000,,,MVFR,,,,,,,,,,,,METAR,3.0
LGMT 160720Z VRB02KT 9999 FEW025 22/16 Q1010,LGMT,2023-05-16T07:20:00Z,39.05,26.6,22.0,16.0,0,2,,6.21,29.822834,,,,,,,,,,,FEW,2500,,,,,,,VFR,,,,,,,,,,,,METAR,4.0
LGMK 160720Z 11009KT CAVOK 22/15 Q1009,LGMK,2023-05-16T07:20:00Z,37.43,25.35,22.0,15.0,110,9,,6.21,29.793306,,,,,,,,,,,CAVOK,,,,,,,,VFR,,,,,,,,,,,,METAR,126.0
LGLM 160720Z 08004KT CAVOK 22/14 Q1009,LGLM,2023-05-16T07:20:00Z,39.92,25.23,22.0,14.0,80,4,,6.21,29.793306,,,,,,,,,,,CAVOK,,,,,,,,VFR,,,,,,,,,,,,METAR,4.0
LGKV 160720Z 10009KT 9999 FEW040 21/15 Q1010,LGKV,2023-05-16T07:20:00Z,40.92,24.62,21.0,15.0,100,9,,6.21,29.822834,,,,,,,,,,,FEW,4000,,,,,,,VFR,,,,,,,,,,,,METAR,5.0
LGKR 160720Z 16013KT 5000 -RA BR FEW013 FEW018TCU BKN020 OVC080 17/16 Q1005 NOSIG,LGKR,2023-05-16T07:20:00Z,39.62,19.92,17.0,16.0,160,13,,3.11,29.675198,,,,,,TRUE,,,,-RA BR,FEW,1300,FEW,1800,BKN,2000,OVC,8000,MVFR,,,,,,,,,,,,METAR,2.0
LGKP 160720Z 10005KT CAVOK 22/19 Q1011,LGKP,2023-05-16T07:20:00Z,35.42,27.15,22.0,19.0,100,5,,6.21,29.852362,,,,,,,,,,,CAVOK,,,,,,,,VFR,,,,,,,,,,,,METAR,20.0
LGKO 160720Z 13010KT CAVOK 23/13 Q1010,LGKO,2023-05-16T07:20:00Z,36.8,27.08,23.0,13.0,130,10,,6.21,29.822834,,,,,,,,,,,CAVOK,,,,,,,,VFR,,,,,,,,,,,,METAR,130.0
LGKL 160720Z 00000KT 9999 SCT025 BKN070 22/16 Q1010,LGKL,2023-05-16T07:20:00Z,37.07,22.02,22.0,16.0,0,0,,6.21,29.822834,,,,,,,,,,,SCT,2500,BKN,7000,,,,,VFR,,,,,,,,,,,,METAR,4.0
LGIR 160720Z 16015KT 9999 FEW020 SCT080 27/09 Q1009 NOSIG,LGIR,2023-05-16T07:20:00Z,35.33,25.17,27.0,9.0,160,15,,6.21,29.793306,,,,,,TRUE,,,,,FEW,2000,SCT,8000,,,,,VFR,,,,,,,,,,,,METAR,37.0
LGIO 160720Z 14006KT 5000 RA FEW025 BKN030 OVC070 14/14 Q1010,LGIO,2023-05-16T07:20:00Z,39.7,20.82,14.0,14.0,140,6,,3.11,29.822834,,,,,,,,,,RA,FEW,2500,BKN,3000,OVC,7000,,,MVFR,,,,,,,,,,,,METAR,476.0
LGEL 160720Z VRB02KT CAVOK 23/11 Q1008,LGEL,2023-05-16T07:20:00Z,38.07,23.55,23.0,11.0,0,2,,6.21,29.763779,,,,,,,,,,,CAVOK,,,,,,,,VFR,,,,,,,,,,,,METAR,21.0
LGBL 160720Z 05004KT 9999 FEW025 20/14 Q1010,LGBL,2023-05-16T07:20:00Z,39.22,22.8,20.0,14.0,50,4,,6.21,29.822834,,,,,,,,,,,FEW,2500,,,,,,,VFR,,,,,,,,,,,,METAR,13.0
LGAV 160720Z 00000KT CAVOK 22/10 Q1009 NOSIG,LGAV,2023-05-16T07:20:00Z,37.93,23.95,22.0,10.0,0,0,,6.21,29.793306,,,,,,TRUE,,,,,CAVOK,,,,,,,,VFR,,,,,,,,,,,,METAR,83.0
LGAL 160720Z 06011KT CAVOK 22/12 Q1009,LGAL,2023-05-16T07:20:00Z,40.85,25.95,22.0,12.0,60,11,,6.21,29.793306,,,,,,,,,,,CAVOK,,,,,,,,VFR,,,,,,,,,,,,METAR,5.0
LGAD 160720Z 18006KT 6000 -RA SCT025 BKN080 18/18 Q1009,LGAD,2023-05-16T07:20:00Z,37.92,21.28,18.0,18.0,180,6,,3.73,29.793306,,,,,,,,,,-RA,SCT,2500,BKN,8000,,,,,MVFR,,,,,,,,,,,,METAR,8.0
LATI 160720Z 14015KT 9999 FEW025 SCT038 BKN066 19/14 Q1005 NOSIG,LATI,2023-05-16T07:20:00Z,41.42,19.72,19.0,14.0,140,15,,6.21,29.675198,,,,,,TRUE,,,,,FEW,2500,SCT,3800,BKN,6600,,,VFR,,,,,,,,,,,,METAR,32.0
KTRK 160720Z AUTO 00000KT 10SM CLR 03/01 A3032 RMK AO2,KTRK,2023-05-16T07:20:00Z,39.32,-120.13,3.0,1.0,0,0,,10.0,30.318897,,,TRUE,TRUE,,,,,,,CLR,,,,,,,,VFR,,,,,,,,,,,,METAR,1800.0
KSTJ 160720Z AUTO 35007KT 10SM SCT009 OVC020 14/13 A3011 RMK AO2 T01390133,KSTJ,2023-05-16T07:20:00Z,39.77,-94.92,13.9,13.3,350,7,,10.0,30.109253,,,TRUE,TRUE,,,,,,,SCT,900,OVC,2000,,,,,MVFR,,,,,,,,,,,,SPECI,247.0
KSBD 160720Z AUTO 24004KT 10SM CLR 17/12 A3005 RMK AO2 T01690121,KSBD,2023-05-16T07:20:00Z,34.08,-117.25,16.9,12.1,240,4,,10.0,30.050198,,,TRUE,TRUE,,,,,,,CLR,,,,,,,,VFR,,,,,,,,,,,,METAR,353.0
KROG 160720Z 30005KT 9SM OVC003 19/19 A3007 RMK AO2 RAE08 CIG 002V008 P0000,KROG,2023-05-16T07:20:00Z,36.37,-94.1,19.0,19.0,300,5,,9.0,30.070866,,,,TRUE,,,,,,,OVC,300,,,,,,,LIFR,,,,,,0.005,,,,,,SPECI,407.0
KQFX 160720Z AUTO 26007G17KT 9999 CLR 32/10 A2979 RMK A02 TSNO,KQFX,2023-05-16T07:20:00Z,,,32.0,10.0,260,7,17,6.21,29.790354,,,TRUE,TRUE,,,TRUE,,,,CLR,,,,,,,,VFR,,,,,,,,,,,,METAR,
KQFW 160720Z AUTO 18005G14KT 9999 CLR 30/13 A2963 RMK A02 TSNO,KQFW,2023-05-16T07:20:00Z,,,30.0,13.0,180,5,14,6.21,29.630905,,,TRUE,TRUE,,,TRUE,,,,CLR,,,,,,,,VFR,,,,,,,,,,,,METAR,
KQFV 160720Z AUTO 23004G11KT 9999 CLR 30/11 A2984 RMK A02 TSNO,KQFV,2023-05-16T07:20:00Z,,,30.0,11.0,230,4,11,6.21,29.840551,,,TRUE,TRUE,,,TRUE,,,,CLR,,,,,,,,VFR,,,,,,,,,,,,METAR,
KQFU 160720Z AUTO 19005G12KT 9999 CLR 29/11 A2985 RMK A02 TSNO,KQFU,2023-05-16T07:20:00Z,,,29.0,11.0,190,5,12,6.21,29.84941,,,TRUE,TRUE,,,TRUE,,,,CLR,,,,,,,,VFR,,,,,,,,,,,,METAR,
KQFT 160720Z AUTO 21005KT 9999 CLR 32/09 A2978 RMK A02 TSNO,KQFT,2023-05-16T07:20:00Z,,,32.0,9.0,210,5,,6.21,29.778543,,,TRUE,TRUE,,,TRUE,,,,CLR,,,,,,,,VFR,,,,,,,,,,,,METAR,
KQFB 160720Z AUTO 25002KT 9999 CLR 33/11 A2986 RMK A02 TSNO,KQFB,2023-05-16T07:20:00Z,,,33.0,11.0,250,2,,6.21,29.861221,,,TRUE,TRUE,,,TRUE,,,,CLR,,,,,,,,VFR,,,,,,,,,,,,METAR,
KQEY 160720Z AUTO 23007G12KT 9999 CLR 31/10 A2956 RMK A02 TSNO,KQEY,2023-05-16T07:20:00Z,,,31.0,10.0,230,7,12,6.21,29.56004,,,TRUE,TRUE,,,TRUE,,,,CLR,,,,,,,,VFR,,,,,,,,,,,,METAR,
KQEX 160720Z AUTO 17003KT 9999 CLR 33/13 A2972 RMK A02 TSNO,KQEX,2023-05-16T07:20:00Z,,,33.0,13.0,170,3,,6.21,29.719488,,,TRUE,TRUE,,,TRUE,,,,CLR,,,,,,,,VFR,,,,,,,,,,,,METAR,
KQEW 160720Z AUTO 24007G14KT 9999 // CLR 32/10 A2980 RMK A02 TSNO,KQEW,2023-05-16T07:20:00Z,,,32.0,10.0,240,7,14,6.21,29.799213,,,TRUE,TRUE,,,TRUE,,,,CLR,,,,,,,,VFR,,,,,,,,,,,,METAR,
KQEV 160720Z AUTO 22008G16KT 9999 CLR 30/07 A2980 RMK A02 TSNO,KQEV,2023-05-16T07:20:00Z,,,30.0,7.0,220,8,16,6.21,29.799213,,,TRUE,TRUE,,,TRUE,,,,CLR,,,,,,,,VFR,,,,,,,,,,,,METAR,
KQEQ 160720Z AUTO 22007G12KT 9999 CLR 28/13 A2984 RMK A02 TSNO,KQEQ,2023-05-16T07:20:00Z,,,28.0,13.0,220,7,12,6.21,29.840551,,,TRUE,TRUE,,,TRUE,,,,CLR,,,,,,,,VFR,,,,,,,,,,,,METAR,
KQEP 160720Z AUTO 25007G18KT 9999 CLR 30/11 A2982 RMK A02 TSNO,KQEP,2023-05-16T07:20:00Z,,,30.0,11.0,250,7,18,6.21,29.819881,,,TRUE,TRUE,,,TRUE,,,,CLR,,,,,,,,VFR,,,,,,,,,,,,METAR,
KQEN 160720Z AUTO 25007G19KT 9999 CLR 26/08 A2987 RMK A02 TSNO,KQEN,2023-05-16T07:20:00Z,,,26.0,8.0,250,7,19,6.21,29.870079,,,TRUE,TRUE,,,TRUE,,,,CLR,,,,,,,,VFR,,,,,,,,,,,,METAR,
KQEJ 160720Z AUTO 20007G14KT 9999 CLR 30/11 A2977 RMK A02 TSNO,KQEJ,2023-05-16T07:20:00Z,,,30.0,11.0,200,7,14,6.21,29.769686,,,TRUE,TRUE,,,TRUE,,,,CLR,,,,,,,,VFR,,,,,,,,,,,,METAR,
KQEI 160720Z AUTO 21004G10KT 9999 CLR 30/13 A2979 RMK A02 TSNO,KQEI,2023-05-16T07:20:00Z,,,30.0,13.0,210,4,10,6.21,29.790354,,,TRUE,TRUE,,,TRUE,,,,CLR,,,,,,,,VFR,,,,,,,,,,,,METAR,
KPO1 160720Z AUTO 03004KT 10SM CLR 11/08 A3010 RMK AO2,KPO1,2023-05-16T07:20:00Z,48.13,-105.17,11.0,8.0,30,4,,10.0,30.100393,,,TRUE,TRUE,,,,,,,CLR,,,,,,,,VFR,,,,,,,,,,,,SPECI,621.0
KMTK 160720Z AUTO 01004KT 10SM CLR 27/24 A3003 RMK A01,KMTK,2023-05-16T07:20:00Z,,,27.0,24.0,10,4,,10.0,30.029528,,,TRUE,TRUE,,,,,,,CLR,,,,,,,,VFR,,,,,,,,,,,,METAR,
KJQF 160720Z AUTO 19009KT 10SM SCT095 OVC110 20/12 A3010 RMK AO2,KJQF,2023-05-16T07:20:00Z,35.38,-80.72,20.0,12.0,190,9,,10.0,30.100393,,,TRUE,TRUE,,,,,,,SCT,9500,OVC,11000,,,,,VFR,,,,,,,,,,,,SPECI,204.0
KHRF 160720Z AUTO 20011KT 10SM CLR 14/08 A3017 RMK AO2,KHRF,2023-05-16T07:20:00Z,46.25,-114.13,14.0,8.0,200,11,,10.0,30.171259,,,TRUE,TRUE,,,,,,,CLR,,,,,,,,VFR,,,,,,,,,,,,METAR,1112.0
KGVW 160720Z AUTO 18006KT 10SM FEW005 24/23 A3007 RMK A01,KGVW,2023-05-16T07:20:00Z,29.13,-94.55,24.0,23.0,180,6,,10.0,30.070866,,,TRUE,TRUE,,,,,,,FEW,500,,,,,,,VFR,,,,,,,,,,,,METAR,37.0
KGUL 160720Z AUTO 00000KT 10SM CLR 25/22 A3006 RMK A01,KGUL,2023-05-16T07:20:00Z,27.3,-93.53,25.0,22.0,0,0,,10.0,30.059055,,,TRUE,TRUE,,,,,,,CLR,,,,,,,,VFR,,,,,,,,,,,,METAR,20.0
KGNG 160720Z AUTO 07007KT 10SM FEW070 12/12 A3025 RMK AO2,KGNG,2023-05-16T07:20:00Z,42.92,-114.77,12.0,12.0,70,7,,10.0,30.250984,,,TRUE,TRUE,,,,,,,FEW,7000,,,,,,,VFR,,,,,,,,,,,,METAR,1128.0
KDSF 160720Z AUTO 25011KT 10SM CLR 26/23 A3005 RMK A01,KDSF,2023-05-16T07:20:00Z,28.35,-88.27,26.0,23.0,250,11,,10.0,30.050198,,,TRUE,TRUE,,,,,,,CLR,,,,,,,,VFR,,,,,,,,,,,,METAR,40.0
KATP 160720Z AUTO 32007KT 5SM HZ FEW013 26/23 A3006 RMK A01,KATP,2023-05-16T07:20:00Z,27.2,-90.03,26.0,23.0,320,7,,5.0,30.059055,,,TRUE,TRUE,,,,,,HZ,FEW,1300,,,,,,,MVFR,,,,,,,,,,,,METAR,50.0
EYVI 160720Z 17012KT 9999 OVC004 12/12 Q1009 NOSIG,EYVI,2023-05-16T07:20:00Z,54.63,25.28,12.0,12.0,170,12,,6.21,29.793306,,,,,,TRUE,,,,,OVC,400,,,,,,,LIFR,,,,,,,,,,,,METAR,180.0
EYSA 160720Z 14010KT 9000 -RA BKN008 OVC016 13/12 Q1006 NOSIG,EYSA,2023-05-16T07:20:00Z,55.9,23.4,13.0,12.0,140,10,,5.59,29.704725,,,,,,TRUE,,,,-RA,BKN,800,OVC,1600,,,,,IFR,,,,,,,,,,,,METAR,135.0
EYPA 160720Z 17008KT 140V200 9999 VCSH BKN011CB 14/13 Q1004,EYPA,2023-05-16T07:20:00Z,55.97,21.08,14.0,13.0,170,8,,6.21,29.64567,,,,,,,,,,VCSH,BKN,1100,,,,,,,MVFR,,,,,,,,,,,,METAR,15.0
EYKA 160720Z 16008KT 130V200 9999 OVC016 14/11 Q1007,EYKA,2023-05-16T07:20:00Z,54.97,24.08,14.0,11.0,160,8,,6.21,29.734253,,,,,,,,,,,OVC,1600,,,,,,,MVFR,,,,,,,,,,,,METAR,68.0
EVVA 160720Z AUTO 14006KT 9999 FEW010 SCT020 OVC031 14/13 Q1004,EVVA,2023-05-16T07:20:00Z,57.35,21.55,14.0,13.0,140,6,,6.21,29.64567,,,TRUE,,,,,,,,FEW,1000,SCT,2000,OVC,3100,,,VFR,,,,,,,,,,,,METAR,1.0
EVRA 160720Z 14010KT 9999 -RA OVC012 14/12 Q1006 NOSIG,EVRA,2023-05-16T07:20:00Z,56.92,23.97,14.0,12.0,140,10,,6.21,29.704725,,,,,,TRUE,,,,-RA,OVC,1200,,,,,,,MVFR,,,,,,,,,,,,METAR,7.0
EVLA 160720Z AUTO 15008KT 110V180 9999 FEW009/// SCT011/// OVC027/// 14/12 Q1004,EVLA,2023-05-16T07:20:00Z,56.52,21.1,14.0,12.0,150,8,,6.21,29.64567,,,TRUE,,,,,,,,FEW,900,SCT,1100,OVC,2700,,,MVFR,,,,,,,,,,,,METAR,5.0
EVGA 160720Z 13008KT 100V160 9999 -RA FEW013 BKN016 OVC033 14/12 Q1007 TEMPO BKN012,EVGA,2023-05-16T07:20:00Z,56.78,24.85,14.0,12.0,130,8,,6.21,29.734253,,,,,,,,,,-RA,FEW,1300,BKN,1600,OVC,3300,,,MVFR,,,,,,,,,,,,METAR,61.0
ESUT 160720Z AUTO 31005KT 9000 BKN029/// OVC041/// 05/05 Q1008 RERA REDZ,ESUT,2023-05-16T07:20:00Z,65.8,15.08,5.0,5.0,310,5,,5.59,29.763779,,,TRUE,,,,,,,,BKN,2900,OVC,4100,,,,,MVFR,,,,,,,,,,,,METAR,457.0
ESUP 160720Z AUTO 14003KT 110V190 9999 BKN083/// OVC100/// 13/// Q1010,ESUP,2023-05-16T07:20:00Z,67.25,23.07,,,140,3,,6.21,29.822834,,,TRUE,,,,,,,,BKN,8300,OVC,10000,,,,,VFR,,,,,,,,,,,,METAR,164.0
ESTL 160720Z 29011KT 9999 OVC005 12/12 Q1008,ESTL,2023-05-16T07:20:00Z,56.07,13.2,12.0,12.0,290,11,,6.21,29.763779,,,,,,,,,,,OVC,500,,,,,,,IFR,,,,,,,,,,,,METAR,39.0
ESTA 160720Z 29013KT 9999 OVC008 12/10 Q1008,ESTA,2023-05-16T07:20:00Z,56.28,12.83,12.0,10.0,290,13,,6.21,29.763779,,,,,,,,,,,OVC,800,,,,,,,IFR,,,,,,,,,,,,METAR,19.0
ESSV 160720Z 12005KT 9999 BKN005 12/11 Q1003,ESSV,2023-05-16T07:20:00Z,57.67,18.35,12.0,11.0,120,5,,6.21,29.616142,,,,,,,,,,,BKN,500,,,,,,,IFR,,,,,,,,,,,,METAR,38.0
ESST 160720Z 32005KT 9999 -RA BKN051 OVC064 11/10 Q1008,ESST,2023-05-16T07:20:00Z,60.15,12.98,11.0,10.0,320,5,,6.21,29.763779,,,,,,,,,,-RA,BKN,5100,OVC,6400,,,,,VFR,,,,,,,,,,,,METAR,110.0
ESSP 160720Z 32004KT 9999 -DZ BKN059 14/08 Q1005,ESSP,2023-05-16T07:20:00Z,58.58,16.25,14.0,8.0,320,4,,6.21,29.675198,,,,,,,,,,-DZ,BKN,5900,,,,,,,VFR,,,,,,,,,,,,METAR,3.0
ESSL 160720Z 31006KT 280V340 CAVOK 14/08 Q1005,ESSL,2023-05-16T07:20:00Z,58.4,15.67,14.0,8.0,310,6,,6.21,29.675198,,,,,,,,,,,CAVOK,,,,,,,,VFR,,,,,,,,,,,,METAR,51.0
ESSD 160720Z VRB03KT CAVOK 13/07 Q1007,ESSD,2023-05-16T07:20:00Z,60.42,15.5,13.0,7.0,0,3,,6.21,29.734253,,,,,,,,,,,CAVOK,,,,,,,,VFR,,,,,,,,,,,,METAR,151.0
ESSB 160720Z 06006KT 030V090 9999 -RA FEW018 SCT040 BKN057 12/10 Q1005,ESSB,2023-05-16T07:20:00Z,59.35,17.93,12.0,10.0,60,6,,6.21,29.675198,,,,,,,,,,-RA,FEW,1800,SCT,4000,BKN,5700,,,VFR,,,,,,,,,,,,METAR,14.0
ESSA 160720Z 06006KT 9000 -RA NSC 11/10 Q1006 NOSIG,ESSA,2023-05-16T07:20:00Z,59.65,17.93,11.0,10.0,60,6,,5.59,29.704725,,,,,,TRUE,,,,-RA,CLR,,,,,,,,VFR,,,,,,,,,,,,METAR,36.0
ESPE 160720Z VRB02KT CAVOK 10/09 Q1009,ESPE,2023-05-16T07:20:00Z,65.88,20.15,10.0,9.0,0,2,,6.21,29.793306,,,,,,,,,,,CAVOK,,,,,,,,VFR,,,,,,,,,,,,METAR,182.0
ESPA 160720Z 15005KT CAVOK 12/06 Q1010,ESPA,2023-05-16T07:20:00Z,65.53,22.12,12.0,6.0,150,5,,6.21,29.822834,,,,,,,,,,,CAVOK,,,,,,,,VFR,,,,,,,,,,,,METAR,12.0
ESOW 160720Z VRB03KT CAVOK 14/07 Q1006,ESOW,2023-05-16T07:20:00Z,59.58,16.63,14.0,7.0,0,3,,6.21,29.704725,,,,,,,,,,,CAVOK,,,,,,,,VFR,,,,,,,,,,,,METAR,7.0
ESOK 160720Z 03006KT 9999 FEW007 BKN070 13/09 Q1007,ESOK,2023-05-16T07:20:00Z,59.45,13.33,13.0,9.0,30,6,,6.21,29.734253,,,,,,,,,,,FEW,700,BKN,7000,,,,,VFR,,,,,,,,,,,,METAR,101.0
ESOH 160720Z AUTO VRB03KT 9999 FEW032/// SCT048/// BKN070/// 12/10 Q1007 RERA,ESOH,2023-05-16T07:20:00Z,60.02,13.58,12.0,10.0,0,3,,6.21,29.734253,,,TRUE,,,,,,,,FEW,3200,SCT,4800,BKN,7000,,,VFR,,,,,,,,,,,,METAR,145.0
ESOE 160720Z 34007KT CAVOK 14/06 Q1006,ESOE,2023-05-16T07:20:00Z,59.22,15.05,14.0,6.0,340,7,,6.21,29.704725,,,,,,,,,,,CAVOK,,,,,,,,VFR,,,,,,,,,,,,METAR,57.0
ESNZ 160720Z VRB03KT CAVOK 08/M06 Q1008,ESNZ,2023-05-16T07:20:00Z,63.18,14.5,8.0,-6.0,0,3,,6.21,29.763779,,,,,,,,,,,CAVOK,,,,,,,,VFR,,,,,,,,,,,,METAR,360.0
ESNX 160720Z AUTO 13005KT 9999 FEW049/// BKN062/// 10/07 Q1009,ESNX,2023-05-16T07:20:00Z,65.58,19.28,10.0,7.0,130,5,,6.21,29.793306,,,TRUE,,,,,,,,FEW,4900,BKN,6200,,,,,VFR,,,,,,,,,,,,METAR,380.0
ESNV 160720Z AUTO 18006KT 150V210 9999 SCT044/// OVC060/// 11/07 Q1009,ESNV,2023-05-16T07:20:00Z,64.58,16.83,11.0,7.0,180,6,,6.21,29.793306,,,TRUE,,,,,,,,SCT,4400,OVC,6000,,,,,VFR,,,,,,,,,,,,METAR,348.0
ESNU 160720Z VRB02KT CAVOK 16/06 Q1010,ESNU,2023-05-16T07:20:00Z,63.78,20.28,16.0,6.0,0,2,,6.21,29.822834,,,,,,,,,,,CAVOK,,,,,,,,VFR,,,,,,,,,,,,METAR,8.0
ESNS 160720Z VRB04KT CAVOK 17/06 Q1010,ESNS,2023-05-16T07:20:00Z,64.62,21.07,17.0,6.0,0,4,,6.21,29.822834,,,,,,,,,,,CAVOK,,,,,,,,VFR,,,,,,,,,,,,METAR,41.0
ESNQ 160720Z AUTO 19007KT 9999 OVC098/// 11/05 Q1008,ESNQ,2023-05-16T07:20:00Z,67.82,20.33,11.0,5.0,190,7,,6.21,29.763779,,,TRUE,,,,,,,,OVC,9800,,,,,,,VFR,,,,,,,,,,,,METAR,447.0
ESNN 160720Z 21003KT 150V240 CAVOK 15/04 Q1009,ESNN,2023-05-16T07:20:00Z,62.52,17.43,15.0,4.0,210,3,,6.21,29.793306,,,,,,,,,,,CAVOK,,,,,,,,VFR,,,,,,,,,,,,METAR,4.0
ESNL 160720Z AUTO 14006KT 9999 NCD 14/08 Q1009,ESNL,2023-05-16T07:20:00Z,64.55,18.72,14.0,8.0,140,6,,6.21,29.793306,,,TRUE,,,,,,,,CLR,,,,,,,,VFR,,,,,,,,,,,,METAR,220.0
ESNK 160720Z 06002KT CAVOK 15/05 Q1009,ESNK,2023-05-16T07:20:00Z,63.03,17.77,15.0,5.0,60,2,,6.21,29.793306,,,,,,,,,,,CAVOK,,,,,,,,VFR,,,,,,,,,,,,METAR,4.0
ESNG 160720Z 12006KT 100V160 CAVOK 12/06 Q1009,ESNG,2023-05-16T07:20:00Z,67.13,20.82,12.0,6.0,120,6,,6.21,29.793306,,,,,,,,,,,CAVOK,,,,,,,,VFR,,,,,,,,,,,,METAR,300.0
ESMX 160720Z 28005KT 250V310 CAVOK 12/12 Q1006 REDZ,ESMX,2023-05-16T07:20:00Z,56.92,14.72,12.0,12.0,280,5,,6.21,29.704725,,,,,,,,,,,CAVOK,,,,,,,,VFR,,,,,,,,,,,,METAR,176.0
ESMT 160720Z 31008KT 9999 FEW009 SCT011 BKN013 13/11 Q1008,ESMT,2023-05-16T07:20:00Z,56.68,12.82,13.0,11.0,310,8,,6.21,29.763779,,,,,,,,,,,FEW,900,SCT,1100,BKN,1300,,,MVFR,,,,,,,,,,,,METAR,24.0
ESMS 160720Z 29010KT 9999 OVC007 11/09 Q1008,ESMS,2023-05-16T07:20:00Z,55.53,13.37,11.0,9.0,290,10,,6.21,29.763779,,,,,,,,,,,OVC,700,,,,,,,IFR,,,,,,,,,,,,METAR,68.0
ESMQ 160720Z 31007KT 9999 -DZ FEW006 BKN010 BKN019 12/11 Q1005,ESMQ,2023-05-16T07:20:00Z,56.68,16.3,12.0,11.0,310,7,,6.21,29.675198,,,,,,,,,,-DZ,FEW,600,BKN,1000,BKN,1900,,,MVFR,,,,,,,,,,,,METAR,3.0
ESMK 160720Z 28008KT 9999 FEW009 BKN082 13/12 Q1007,ESMK,2023-05-16T07:20:00Z,55.92,14.08,13.0,12.0,280,8,,6.21,29.734253,,,,,,,,,,,FEW,900,BKN,8200,,,,,VFR,,,,,,,,,,,,METAR,20.0
ESKS 160720Z AUTO 28003KT 9999 BKN001/// OVC045/// 08/08 Q1008,ESKS,2023-05-16T07:20:00Z,61.17,12.83,8.0,8.0,280,3,,6.21,29.763779,,,TRUE,,,,,,,,BKN,100,OVC,4500,,,,,LIFR,,,,,,,,,,,,METAR,503.0
ESKN 160720Z 03005KT 350V060 9999 BKN012 13/10 Q1005,ESKN,2023-05-16T07:20:00Z,58.78,16.92,13.0,10.0,30,5,,6.21,29.675198,,,,,,,,,,,BKN,1200,,,,,,,MVFR,,,,,,,,,,,,METAR,41.0
ESKM 160720Z AUTO 32004KT 9999 OVC094/// 12/10 Q1007,ESKM,2023-05-16T07:20:00Z,60.97,14.52,12.0,10.0,320,4,,6.21,29.734253,,,TRUE,,,,,,,,OVC,9400,,,,,,,VFR,,,,,,,,,,,,METAR,184.0
ESIB 160720Z 25004KT CAVOK 13/12 Q1006,ESIB,2023-05-16T07:20:00Z,58.42,12.7,13.0,12.0,250,4,,6.21,29.704725,,,,,,,,,,,CAVOK,,,,,,,,VFR,,,,,,,,,,,,METAR,51.0
ESIA 160720Z VRB01KT CAVOK 13/09 Q1006,ESIA,2023-05-16T07:20:00Z,58.52,14.5,13.0,9.0,0,1,,6.21,29.704725,,,,,,,,,,,CAVOK,,,,,,,,VFR,,,,,,,,,,,,METAR,94.0
ESGT 160720Z VRB03KT CAVOK 13/10 Q1007,ESGT,2023-05-16T07:20:00Z,58.32,12.33,13.0,10.0,0,3,,6.21,29.734253,,,,,,,,,,,CAVOK,,,,,,,,VFR,,,,,,,,,,,,METAR,40.0
ESGP 160720Z 27005KT 9999 SCT010 OVC064 14/11 Q1007,ESGP,2023-05-16T07:20:00Z,57.77,11.87,14.0,11.0,270,5,,6.21,29.734253,,,,,,,,,,,SCT,1000,OVC,6400,,,,,VFR,,,,,,,,,,,,METAR,15.0
ESGJ 160720Z 26004KT CAVOK 14/12 Q1006,ESGJ,2023-05-16T07:20:00Z,57.77,14.07,14.0,12.0,260,4,,6.21,29.704725,,,,,,,,,,,CAVOK,,,,,,,,VFR,,,,,,,,,,,,METAR,224.0
ESGG 160720Z 28005KT CAVOK 14/09 Q1007,ESGG,2023-05-16T07:20:00Z,57.67,12.3,14.0,9.0,280,5,,6.21,29.734253,,,,,,,,,,,CAVOK,,,,,,,,VFR,,,,,,,,,,,,METAR,152.0
ESDF 160720Z 31006KT 270V340 9999 -SHRA SCT010 BKN043 13/13 Q1006,ESDF,2023-05-16T07:20:00Z,56.27,15.27,13.0,13.0,310,6,,6.21,29.704725,,,,,,,,,,-SHRA,SCT,1000,BKN,4300,,,,,VFR,,,,,,,,,,,,METAR,52.0
ESCM 160720Z 09006KT 9999 -RA FEW034 SCT056 12/09 Q1006,ESCM,2023-05-16T07:20:00Z,59.88,17.6,12.0,9.0,90,6,,6.21,29.704725,,,,,,,,,,-RA,FEW,3400,SCT,5600,,,,,VFR,,,,,,,,,,,,METAR,21.0
ESCF 160720Z 34006KT CAVOK 14/09 Q1005,ESCF,2023-05-16T07:20:00Z,58.38,15.52,14.0,9.0,340,6,,6.21,29.675198,,,,,,,,,,,CAVOK,,,,,,,,VFR,,,,,,,,,,,,METAR,86.0
ENZV 160720Z 33012KT 9999 FEW015 10/05 Q1014,ENZV,2023-05-16T07:20:00Z,58.88,5.63,10.0,5.0,330,12,,6.21,29.940945,,,,,,,,,,,FEW,1500,,,,,,,VFR,,,,,,,,,,,,METAR,7.0
ENWV 160720Z AUTO 30023KT 9999NDV OVC059/// 09/07 Q1017 W///S3,ENWV,2023-05-16T07:20:00Z,56.28,3.4,9.0,7.0,300,23,,,30.029528,,,TRUE,,,,,,,,OVC,5900,,,,,,,,,,,,,,,,,,,METAR,30.0
ENVD 160720Z 29010KT CAVOK 13/06 Q1009,ENVD,2023-05-16T07:20:00Z,70.07,29.85,13.0,6.0,290,10,,6.21,29.793306,,,,,,,,,,,CAVOK,,,,,,,,VFR,,,,,,,,,,,,METAR,39.0
ENVA 160720Z 26006KT 9999 FEW011 BKN022 08/06 Q1010 NOSIG RMK WIND 670FT 27012KT,ENVA,2023-05-16T07:20:00Z,63.47,10.92,8.0,6.0,260,6,,6.21,29.822834,,,,,,TRUE,,,,,FEW,1100,BKN,2200,,,,,MVFR,,,,,,,,,,,,METAR,12.0
ENUN 160720Z AUTO 18014KT 9999NDV FEW019/// BKN030/// 07/02 Q1005 W07/S4,ENUN,2023-05-16T07:20:00Z,,,7.0,2.0,180,14,,,29.675198,,,TRUE,,,,,,,,FEW,1900,BKN,3000,,,,,,,,,,,,,,,,,METAR,
ENUG 160720Z AUTO 22017KT 9999NDV OVC035/// 06/04 Q1008 W///S4,ENUG,2023-05-16T07:20:00Z,71.3,22.25,6.0,4.0,220,17,,,29.763779,,,TRUE,,,,,,,,OVC,3500,,,,,,,,,,,,,,,,,,,METAR,30.0
ENTO 160720Z 34005KT 9999 VCSH BKN051 10/10 Q1008 NOSIG,ENTO,2023-05-16T07:20:00Z,59.2,10.27,10.0,10.0,340,5,,6.21,29.763779,,,,,,TRUE,,,,VCSH,BKN,5100,,,,,,,VFR,,,,,,,,,,,,METAR,84.0
ENTC 160720Z 21010KT 9999 FEW040 BKN055 09/04 Q1009 NOSIG RMK WIND 2600FT 21014KT,ENTC,2023-05-16T07:20:00Z,69.68,18.92,9.0,4.0,210,10,,6.21,29.793306,,,,,,TRUE,,,,,FEW,4000,BKN,5500,,,,,VFR,,,-1.4,,,,,,,,,METAR,9.0
ENST 160720Z 19006KT 9999 FEW020 SCT033 BKN066 10/03 Q1009 RMK WIND 300FT 18008KT,ENST,2023-05-16T07:20:00Z,65.97,12.47,10.0,3.0,190,6,,6.21,29.793306,,,,,,,,,,,FEW,2000,SCT,3300,BKN,6600,,,VFR,,,,,,,,,,,,METAR,17.0
ENSS 160720Z 33011KT CAVOK 10/05 Q1009 RMK WIND 0500FT 34010KT,ENSS,2023-05-16T07:20:00Z,70.35,31.05,10.0,5.0,330,11,,6.21,29.793306,,,,,,,,,,,CAVOK,,,,,,,,VFR,,,,,,,,,,,,METAR,13.0
ENSR 160720Z 34005KT 9999 FEW074 SCT130 09/05 Q1009 RMK WIND RWY32 35005KT WIND 1118FT 21003KT,ENSR,2023-05-16T07:20:00Z,69.78,20.97,9.0,5.0,340,5,,6.21,29.793306,,,,,,,,,,,FEW,7400,SCT,13000,,,,,VFR,,,-0.3,,,,,,,,,METAR,5.0
ENSL 160720Z AUTO 27026KT 9999NDV FEW012/// BKN026/// BKN046/// 09/07 Q1016 W06/S3,ENSL,2023-05-16T07:20:00Z,58.37,1.9,9.0,7.0,270,26,,,30.0,,,TRUE,,,,,,,,FEW,1200,BKN,2600,BKN,4600,,,,,,,,,,,,,,,METAR,50.0
ENSK 160720Z 18011KT 9999 FEW030 SCT045 08/03 Q1009,ENSK,2023-05-16T07:20:00Z,68.57,15.02,8.0,3.0,180,11,,6.21,29.793306,,,,,,,,,,,FEW,3000,SCT,4500,,,,,VFR,,,,,,,,,,,,METAR,3.0
ENSH 160720Z 19012KT 9999 BKN011 07/06 Q1009 RMK WIND 0150FT 17017KT,ENSH,2023-05-16T07:20:00Z,68.25,14.67,7.0,6.0,190,12,,6.21,29.793306,,,,,,,,,,,BKN,1100,,,,,,,MVFR,,,,,,,,,,,,METAR,9.0
ENSG 160720Z 27009KT 240V300 9999 FEW027 07/M01 Q1010 RMK WIND 3806FT 26011KT,ENSG,2023-05-16T07:20:00Z,61.15,7.13,7.0,-1.0,270,9,,6.21,29.822834,,,,,,,,,,,FEW,2700,,,,,,,VFR,,,,,,,,,,,,METAR,493.0
ENSF 160720Z AUTO 32031KT 9999NDV BKN013/// BKN032/// BKN062/// ///// Q//// W///S4,ENSF,2023-05-16T07:20:00Z,61.25,1.85,,,320,31,,,,,,TRUE,,,,,,,,BKN,1300,BKN,3200,BKN,6200,,,,,,,,,,,,,,,METAR,15.0
ENSE 160720Z AUTO 32030KT //// OVC014/// 06/05 Q1011 W///S/,ENSE,2023-05-16T07:20:00Z,61.45,2.15,6.0,5.0,320,30,,,29.852362,,,TRUE,,,,,,,,OVC,1400,,,,,,,,,,,,,,,,,,,METAR,10.0
ENSD 160720Z 19012KT 160V220 9999 FEW040 SCT050 09/00 Q1011 RMK WIND RWY26 31004KT WIND 1140FT VRB06KT,ENSD,2023-05-16T07:20:00Z,61.82,6.12,9.0,0.0,190,12,,6.21,29.852362,,,,,,,,,,,FEW,4000,SCT,5000,,,,,VFR,,,,,,,,,,,,METAR,61.0
ENSB 160720Z 12009KT 9999 FEW030 SCT060 M04/M09 Q1000 TEMPO 12019KT RMK WIND 1400FT 26004KT,ENSB,2023-05-16T07:20:00Z,78.25,15.47,-4.0,-9.0,120,9,,6.21,29.52756,,,,,,,,,,,FEW,3000,SCT,6000,,,,,VFR,,,,,,,,,,,,METAR,30.0
ENRY 160720Z 36005KT CAVOK 13/09 Q1008 NOSIG,ENRY,2023-05-16T07:20:00Z,59.37,10.77,13.0,9.0,360,5,,6.21,29.763779,,,,,,TRUE,,,,,CAVOK,,,,,,,,VFR,,,,,,,,,,,,METAR,45.0
ENRS 160720Z AUTO 17008KT 9999 FEW029/// SCT046/// 08/05 Q1008,ENRS,2023-05-16T07:20:00Z,67.52,12.1,8.0,5.0,170,8,,6.21,29.763779,,,TRUE,,,,,,,,FEW,2900,SCT,4600,,,,,VFR,,,,,,,,,,,,METAR,4.0
ENRO 160720Z 00000KT 9999 SCT007 BKN016 06/04 Q1008,ENRO,2023-05-16T07:20:00Z,62.57,11.33,6.0,4.0,0,0,,6.21,29.763779,,,,,,,,,,,SCT,700,BKN,1600,,,,,MVFR,,,,,,,,,,,,METAR,624.0
ENRM 160720Z 21009KT 9999 -RA BKN040 08/06 Q1009,ENRM,2023-05-16T07:20:00Z,64.83,11.13,8.0,6.0,210,9,,6.21,29.793306,,,,,,,,,,-RA,BKN,4000,,,,,,,VFR,,,,,,,,,,,,METAR,4.0
ENRA 160720Z 08004KT 050V130 9999 -DZ FEW015 BKN023 08/06 Q1009,ENRA,2023-05-16T07:20:00Z,66.37,14.3,8.0,6.0,80,4,,6.21,29.793306,,,,,,,,,,-DZ,FEW,1500,BKN,2300,,,,,MVFR,,,,,,,,,,,,METAR,66.0
ENQR 160720Z AUTO 32028KT 9999NDV -SHRA BKN015/// 06/03 Q1010 W09/S4,ENQR,2023-05-16T07:20:00Z,61.52,2.22,6.0,3.0,320,28,,,29.822834,,,TRUE,,,,,,,-SHRA,BKN,1500,,,,,,,,,,,,,,,,,,,METAR,10.0
ENQC 160720Z AUTO 22020KT 2600NDV RA OVC011/// 08/07 Q1011 W///S4,ENQC,2023-05-16T07:20:00Z,60.88,3.62,8.0,7.0,220,20,,,29.852362,,,TRUE,,,,,,,RA,OVC,1100,,,,,,,,,,,,,,,,,,,METAR,20.0
ENQA 160720Z AUTO 24017KT 9999NDV BKN009/// BKN044/// BKN063/// 08/07 Q1012 W11/S4,ENQA,2023-05-16T07:20:00Z,60.65,3.72,8.0,7.0,240,17,,,29.88189,,,TRUE,,,,,,,,BKN,900,BKN,4400,BKN,6300,,,,,,,,,,,,,,,METAR,90.0
ENOV 160720Z VRB04KT 9999 FEW045 BKN076 10/M00 Q1010 RMK WIND RWY24 07006KT WIND 2090FT 17017KT,ENOV,2023-05-16T07:20:00Z,62.17,6.07,10.0,0.0,0,4,,6.21,29.822834,,,,,,,,,,,FEW,4500,BKN,7600,,,,,VFR,,,,,,,,,,,,METAR,72.0
ENOL 160720Z 15006KT 9999 -RA FEW008 BKN030 08/06 Q1010 NOSIG,ENOL,2023-05-16T07:20:00Z,63.7,9.6,8.0,6.0,150,6,,6.21,29.822834,,,,,,TRUE,,,,-RA,FEW,800,BKN,3000,,,,,MVFR,,,,,,,,,,,,METAR,9.0
ENOA 160720Z 26020KT 9999 VCSH FEW010 BKN035 BKN070 09/07 Q1012 W///S4,ENOA,2023-05-16T07:20:00Z,60.5,2.83,9.0,7.0,260,20,,6.21,29.88189,,,,,,,,,,VCSH,FEW,1000,BKN,3500,BKN,7000,,,VFR,,,,,,,,,,,,METAR,5.0
ENNO 160720Z VRB02KT 9999 -RA FEW018 BKN060 09/08 Q1009,ENNO,2023-05-16T07:20:00Z,59.57,9.22,9.0,8.0,0,2,,6.21,29.793306,,,,,,,,,,-RA,FEW,1800,BKN,6000,,,,,VFR,,,,,,,,,,,,METAR,19.0
ENNM 160720Z 23004KT 9999 -RA SCT023 BKN047 08/05 Q1010,ENNM,2023-05-16T07:20:00Z,64.47,11.57,8.0,5.0,230,4,,6.21,29.822834,,,,,,,,,,-RA,SCT,2300,BKN,4700,,,,,VFR,,,,,,,,,,,,METAR,2.0
ENNE 160720Z 18021KT 9999 BKN025 07/02 Q1006 W///S5,ENNE,2023-05-16T07:20:00Z,66.03,8.08,7.0,2.0,180,21,,6.21,29.704725,,,,,,,,,,,BKN,2500,,,,,,,MVFR,,,,,,,,,,,,METAR,10.0
ENNA 160720Z 35006KT 9999 SCT025 10/05 Q1009 RMK WIND 1800FT VRB07KT,ENNA,2023-05-16T07:20:00Z,70.07,24.97,10.0,5.0,350,6,,6.21,29.793306,,,,,,,,,,,SCT,2500,,,,,,,VFR,,,,,,,,,,,,METAR,12.0
ENMS 160720Z VRB02KT 9999 FEW018 BKN024 09/05 Q1009 RMK WIND 412FT VRB02KT,ENMS,2023-05-16T07:20:00Z,65.78,13.22,9.0,5.0,0,2,,6.21,29.793306,,,,,,,,,,,FEW,1800,BKN,2400,,,,,MVFR,,,,,,,,,,,,METAR,44.0
ENML 160720Z 07005KT 9999 FEW020 10/05 Q1009,ENML,2023-05-16T07:20:00Z,62.75,7.27,10.0,5.0,70,5,,6.21,29.793306,,,,,,,,,,,FEW,2000,,,,,,,VFR,,,,,,,,,,,,METAR,3.0
ENLK 160720Z 17011KT 9999 FEW008 SCT020 BKN030 08/06 Q1008,ENLK,2023-05-16T07:20:00Z,68.15,13.62,8.0,6.0,170,11,,6.21,29.763779,,,,,,,,,,,FEW,800,SCT,2000,BKN,3000,,,MVFR,,,,,,,,,,,,METAR,26.0
ENLE 160720Z 28023KT 9999 FEW040 BKN060 09/06 Q1017 W09/S4,ENLE,2023-05-16T07:20:00Z,56.53,3.22,9.0,6.0,280,23,,6.21,30.029528,,,,,,,,,,,FEW,4000,BKN,6000,,,,,VFR,,,,,,,,,,,,METAR,10.0
ENLA 160720Z AUTO 28021KT 9999NDV OVC060/// 09/07 Q1016 W///S3,ENLA,2023-05-16T07:20:00Z,57.1,2.83,9.0,7.0,280,21,,,30.0,,,TRUE,,,,,,,,OVC,6000,,,,,,,,,,,,,,,,,,,METAR,10.0
ENKR 160720Z 24011KT CAVOK 15/04 Q1009 RMK WIND 731FT 24013KT,ENKR,2023-05-16T07:20:00Z,69.72,29.88,15.0,4.0,240,11,,6.21,29.793306,,,,,,,,,,,CAVOK,,,,,,,,VFR,,,,,,,,,,,,METAR,86.0
ENKB 160720Z VRB05KT 9999 FEW027 11/03 Q1009 RMK WIND 745FT 17009KT,ENKB,2023-05-16T07:20:00Z,63.12,7.82,11.0,3.0,0,5,,6.21,29.793306,,,,,,,,,,,FEW,2700,,,,,,,VFR,,,,,,,,,,,,METAR,62.0
ENJS 160720Z 30023KT 9999 FEW015 SCT050 BKN100 09/07 Q1014 W08/S/,ENJS,2023-05-16T07:20:00Z,,,9.0,7.0,300,23,,6.21,29.940945,,,,,,,,,,,FEW,1500,SCT,5000,BKN,10000,,,VFR,,,,,,,,,,,,METAR,
ENHV 160720Z 30003KT 270V330 9999 BKN034 09/03 Q1009,ENHV,2023-05-16T07:20:00Z,71.02,25.97,9.0,3.0,300,3,,6.21,29.793306,,,,,,,,,,,BKN,3400,,,,,,,VFR,,,,,,,,,,,,METAR,13.0
ENHM 160720Z AUTO 27022KT //// FEW029/// BKN037/// OVC042/// 08/08 Q1013 W08/S/,ENHM,2023-05-16T07:20:00Z,59.57,2.23,8.0,8.0,270,22,,,29.911417,,,TRUE,,,,,,,,FEW,2900,BKN,3700,OVC,4200,,,,,,,,,,,,,,,METAR,10.0
ENHK 160720Z VRB02KT 9999 BKN045 08/05 Q1009,ENHK,2023-05-16T07:20:00Z,70.48,22.13,8.0,5.0,0,2,,6.21,29.793306,,,,,,,,,,,BKN,4500,,,,,,,VFR,,,,,,,,,,,,METAR,6.0
ENHF 160720Z 24004KT 220V300 9999 FEW022 SCT070 09/05 Q1009 RMK WIND 1254FT VRB03KT,ENHF,2023-05-16T07:20:00Z,70.67,23.67,9.0,5.0,240,4,,6.21,29.793306,,,,,,,,,,,FEW,2200,SCT,7000,,,,,VFR,,,,,,,,,,,,METAR,79.0
ENHD 160720Z 01007KT 9999 FEW013 09/06 Q1014,ENHD,2023-05-16T07:20:00Z,59.35,5.22,9.0,6.0,10,7,,6.21,29.940945,,,,,,,,,,,FEW,1300,,,,,,,VFR,,,,,,,,,,,,METAR,22.0
ENGM 160720Z 02005KT 9999 -RA FEW005 BKN056 10/09 Q1008 NOSIG,ENGM,2023-05-16T07:20:00Z,60.2,11.07,10.0,9.0,20,5,,6.21,29.763779,,,,,,TRUE,,,,-RA,FEW,500,BKN,5600,,,,,VFR,,,,,,,,,,,,METAR,204.0
ENGC 160720Z 33027KT 9999 -SHRA BKN015CB BKN035 07/04 Q1011 W07/S4,ENGC,2023-05-16T07:20:00Z,61.02,2.02,7.0,4.0,330,27,,6.21,29.852362,,,,,,,,,,-SHRA,BKN,1500,BKN,3500,,,,,MVFR,,,,,,,,,,,,METAR,10.0
ENFL 160720Z 16015KT 9999 FEW016 SCT040 BKN055 08/04 Q1011,ENFL,2023-05-16T07:20:00Z,61.57,5.02,8.0,4.0,160,15,,6.21,29.852362,,,,,,,,,,,FEW,1600,SCT,4000,BKN,5500,,,VFR,,,,,,,,,,,,METAR,1.0
ENFB 160720Z AUTO 32027KT 9999NDV SCT012/// BKN051/// ///// Q//// W///S4,ENFB,2023-05-16T07:20:00Z,61.2,1.83,,,320,27,,,,,,TRUE,,,,,,,,SCT,1200,BKN,5100,,,,,,,,,,,,,,,,,METAR,10.0
ENEV 160720Z 16004KT 130V190 9999 FEW008 SCT016 BKN035 08/06 Q1010 RMK WIND 1400FT 21009KT,ENEV,2023-05-16T07:20:00Z,68.48,16.67,8.0,6.0,160,4,,6.21,29.822834,,,,,,,,,,,FEW,800,SCT,1600,BKN,3500,,,VFR,,,-0.9,,,,,,,,,METAR,26.0
ENDU 160720Z 24006KT 180V280 9999 FEW030 SCT050 BKN100 11/04 Q1009 NOSIG RMK WIND 1100FT 23003KT WIND 2200FT 21010KT,ENDU,2023-05-16T07:20:00Z,69.05,18.55,11.0,4.0,240,6,,6.21,29.793306,,,,,,TRUE,,,,,FEW,3000,SCT,5000,BKN,10000,,,VFR,,,-1.0,,,,,,,,,METAR,65.0
ENDR 160720Z AUTO 21019KT 9999NDV SCT020/// BKN110/// 07/03 Q1008 W///S4,ENDR,2023-05-16T07:20:00Z,64.35,7.77,7.0,3.0,210,19,,,29.763779,,,TRUE,,,,,,,,SCT,2000,BKN,11000,,,,,,,,,,,,,,,,,METAR,10.0
ENCN 160720Z 31003KT 240V360 CAVOK 14/06 Q1009,ENCN,2023-05-16T07:20:00Z,58.2,8.07,14.0,6.0,310,3,,6.21,29.793306,,,,,,,,,,,CAVOK,,,,,,,,VFR,,,,,,,,,,,,METAR,17.0
ENBV 160720Z 36003KT 9999 -SHRA FEW024 SCT054 BKN067 07/06 Q1009,ENBV,2023-05-16T07:20:00Z,70.87,29.02,7.0,6.0,360,3,,6.21,29.793306,,,,,,,,,,-SHRA,FEW,2400,SCT,5400,BKN,6700,,,VFR,,,,,,,,,,,,METAR,13.0
ENBS 160720Z 34005KT 310V050 9999 -SHRA FEW003 SCT044 BKN055 07/06 Q1009,ENBS,2023-05-16T07:20:00Z,70.62,29.68,7.0,6.0,340,5,,6.21,29.793306,,,,,,,,,,-SHRA,FEW,300,SCT,4400,BKN,5500,,,VFR,,,,,,,,,,,,METAR,144.0
ENBR 160720Z 20003KT 140V240 9999 SCT014 08/06 Q1013 NOSIG RMK WIND 1200FT VRB03KT,ENBR,2023-05-16T07:20:00Z,60.28,5.22,8.0,6.0,200,3,,6.21,29.911417,,,,,,TRUE,,,,,SCT,1400,,,,,,,VFR,,,,,,,,,,,,METAR,49.0
ENBO 160720Z 11007KT 9999 FEW008 SCT025 BKN060 08/07 Q1009 NOSIG,ENBO,2023-05-16T07:20:00Z,67.27,14.37,8.0,7.0,110,7,,6.21,29.793306,,,,,,TRUE,,,,,FEW,800,SCT,2500,BKN,6000,,,VFR,,,,,,,,,,,,METAR,13.0
ENBN 160720Z 22007KT 9999 VCSH SCT020 BKN040 10/04 Q1009,ENBN,2023-05-16T07:20:00Z,65.47,12.22,10.0,4.0,220,7,,6.21,29.793306,,,,,,,,,,VCSH,SCT,2000,BKN,4000,,,,,VFR,,,,,,,,,,,,METAR,3.0
ENBL 160720Z 20006KT 150V220 9999 FEW010 BKN030 07/02 Q1011,ENBL,2023-05-16T07:20:00Z,61.4,5.77,7.0,2.0,200,6,,6.21,29.852362,,,,,,,,,,,FEW,1000,BKN,3000,,,,,MVFR,,,,,,,,,,,,METAR,313.0
ENAT 160720Z 35004KT CAVOK 10/04 Q1009 RMK WIND 700FT VRB02KT,ENAT,2023-05-16T07:20:00Z,69.97,23.37,10.0,4.0,350,4,,6.21,29.793306,,,,,,,,,,,CAVOK,,,,,,,,VFR,,,,,,,,,,,,METAR,3.0
ENAN 160720Z 17017KT 9999 FEW043 10/02 Q1008,ENAN,2023-05-16T07:20:00Z,69.3,16.13,10.0,2.0,170,17,,6.21,29.763779,,,,,,,,,,,FEW,4300,,,,,,,VFR,,,,,,,,,,,,METAR,13.0
ENAL 160720Z 20011KT 9999 FEW042 BKN049 10/02 Q1009,ENAL,2023-05-16T07:20:00Z,62.57,6.12,10.0,2.0,200,11,,6.21,29.793306,,,,,,,,,,,FEW,4200,BKN,4900,,,,,VFR,,,,,,,,,,,,METAR,21.0
ELLX 160720Z 36014KT 330V030 9999 FEW015 BKN021 07/04 Q1018 NOSIG,ELLX,2023-05-16T07:20:00Z,49.63,6.2,7.0,4.0,360,14,,6.21,30.059055,,,,,,TRUE,,,,,FEW,1500,BKN,2100,,,,,MVFR,,,,,,,,,,,,METAR,374.0
EKYT 160720Z AUTO 25010KT 9999 FEW010/// BKN140/// 12/09 Q1009,EKYT,2023-05-16T07:20:00Z,57.1,9.87,12.0,9.0,250,10,,6.21,29.793306,,,TRUE,,,,,,,,FEW,1000,BKN,14000,,,,,VFR,,,,,,,,,,,,METAR,2.0
EKVJ 160720Z 31017KT 9999 BKN018 09/// Q1012,EKVJ,2023-05-16T07:20:00Z,55.98,8.35,,,310,17,,6.21,29.88189,,,,,,,,,,,BKN,1800,,,,,,,MVFR,,,,,,,,,,,,METAR,5.0
EKVG 160720Z AUTO 33013KT 9999 OVC027/// 03/M03 Q1020 RMK OVC028/// WIND SKEID 31017G37KT 280V350,EKVG,2023-05-16T07:20:00Z,62.07,-7.27,3.0,-3.0,330,13,,6.21,30.11811,,,TRUE,,,,,,,,OVC,2700,,,,,,,MVFR,,,,,,,,,,,,METAR,89.0
EKSP 160720Z 28016KT 9999 SCT015 BKN025 08/05 Q1012 BECMG 29015G25KT,EKSP,2023-05-16T07:20:00Z,55.22,9.27,8.0,5.0,280,16,,6.21,29.88189,,,,,,,,,,,SCT,1500,BKN,2500,,,,,MVFR,,,,,,,,,,,,METAR,40.0
EKSB 160720Z 28012G23KT 230V310 9999 BKN025 10/06 Q1012,EKSB,2023-05-16T07:20:00Z,54.97,9.8,10.0,6.0,280,12,23,6.21,29.88189,,,,,,,,,,,BKN,2500,,,,,,,MVFR,,,,,,,,,,,,METAR,23.0
EKRS 160720Z AUTO 30009KT 230V360 9999 OVC016/// 10/10 Q1010,EKRS,2023-05-16T07:20:00Z,55.42,11.8,10.0,10.0,300,9,,6.21,29.822834,,,TRUE,,,,,,,,OVC,1600,,,,,,,MVFR,,,,,,,,,,,,METAR,34.0
EKRN 160720Z AUTO 28011KT 6000 SCT003/// BKN011/// OVC047/// 11/10 Q1008,EKRN,2023-05-16T07:20:00Z,55.07,14.75,11.0,10.0,280,11,,3.73,29.763779,,,TRUE,,,,,,,,SCT,300,BKN,1100,OVC,4700,,,MVFR,,,,,,,,,,,,METAR,14.0
EKRK 160720Z AUTO 28013KT 9999 BKN013/// BKN077/// 10/07 Q1010,EKRK,2023-05-16T07:20:00Z,55.58,12.13,10.0,7.0,280,13,,6.21,29.822834,,,TRUE,,,,,,,,BKN,1300,BKN,7700,,,,,MVFR,,,,,,,,,,,,METAR,40.0
EKKA 160720Z AUTO 28013KT 9999 OVC014/// 09/06 Q1010 TEMPO BKN012,EKKA,2023-05-16T07:20:00Z,56.3,9.12,9.0,6.0,280,13,,6.21,29.822834,,,TRUE,,,,,,,,OVC,1400,,,,,,,MVFR,,,,,,,,,,,,METAR,50.0
EKEB 160720Z AUTO 30015KT 9999 BKN020/// 09/05 Q1013,EKEB,2023-05-16T07:20:00Z,55.52,8.55,9.0,5.0,300,15,,6.21,29.911417,,,TRUE,,,,,,,,BKN,2000,,,,,,,MVFR,,,,,,,,,,,,METAR,29.0
EKCH 160720Z 28012KT 9999 BKN014 11/08 Q1009 NOSIG,EKCH,2023-05-16T07:20:00Z,55.62,12.67,11.0,8.0,280,12,,6.21,29.793306,,,,,,TRUE,,,,,BKN,1400,,,,,,,MVFR,,,,,,,,,,,,METAR,4.0
EKBI 160720Z AUTO 29014KT 9999 -RA OVC018/// 08/05 Q1012,EKBI,2023-05-16T07:20:00Z,55.73,9.15,8.0,5.0,290,14,,6.21,29.88189,,,TRUE,,,,,,,-RA,OVC,1800,,,,,,,MVFR,,,,,,,,,,,,METAR,67.0
EKAH 160720Z AUTO 27011KT 230V290 9999 NCD 12/07 Q1010,EKAH,2023-05-16T07:20:00Z,56.28,10.62,12.0,7.0,270,11,,6.21,29.822834,,,TRUE,,,,,,,,CLR,,,,,,,,VFR,,,,,,,,,,,,METAR,25.0
EGUW 160720Z 32009KT CAVOK 10/06 Q1023 NOSIG RMK BLU BLU,EGUW,2023-05-16T07:20:00Z,52.12,0.97,10.0,6.0,320,9,,6.21,30.206694,,,,,,TRUE,,,,,CAVOK,,,,,,,,VFR,,,,,,,,,,,,SPECI,86.0
EGTK 160720Z 33010KT CAVOK 10/06 Q1025,EGTK,2023-05-16T07:20:00Z,51.83,-1.32,10.0,6.0,330,10,,6.21,30.265747,,,,,,,,,,,CAVOK,,,,,,,,VFR,,,,,,,,,,,,METAR,78.0
EGTE 160720Z 34004KT 290V010 CAVOK 09/07 Q1027,EGTE,2023-05-16T07:20:00Z,50.73,-3.42,9.0,7.0,340,4,,6.21,30.324802,,,,,,,,,,,CAVOK,,,,,,,,VFR,,,,,,,,,,,,METAR,30.0
EGTC 160720Z 30009KT CAVOK 09/06 Q1025,EGTC,2023-05-16T07:20:00Z,52.07,-0.62,9.0,6.0,300,9,,6.21,30.265747,,,,,,,,,,,CAVOK,,,,,,,,VFR,,,,,,,,,,,,METAR,110.0
EGSY 160720Z AUTO VRB02KT 9999 NCD 11/05 Q1027,EGSY,2023-05-16T07:20:00Z,51.4,-3.43,11.0,5.0,0,2,,6.21,30.324802,,,TRUE,,,,,,,,CLR,,,,,,,,VFR,,,,,,,,,,,,METAR,46.0
EGSS 160720Z AUTO 33009KT 9999 NCD 10/06 Q1024,EGSS,2023-05-16T07:20:00Z,51.88,0.22,10.0,6.0,330,9,,6.21,30.236221,,,TRUE,,,,,,,,CLR,,,,,,,,VFR,,,,,,,,,,,,METAR,101.0
EGSH 160720Z 30007KT 270V340 CAVOK 11/07 Q1023,EGSH,2023-05-16T07:20:00Z,52.68,1.28,11.0,7.0,300,7,,6.21,30.206694,,,,,,,,,,,CAVOK,,,,,,,,VFR,,,,,,,,,,,,METAR,21.0
EGPU 160720Z AUTO 28015KT 9999 -RA SCT011/// OVC044/// 11/09 Q1024,EGPU,2023-05-16T07:20:00Z,56.5,-6.88,11.0,9.0,280,15,,6.21,30.236221,,,TRUE,,,,,,,-RA,SCT,1100,OVC,4400,,,,,VFR,,,,,,,,,,,,METAR,12.0
EGPO 160720Z 32011KT 9999 VCSH FEW012TCU SCT023 10/08 Q1022,EGPO,2023-05-16T07:20:00Z,58.22,-6.32,10.0,8.0,320,11,,6.21,30.177166,,,,,,,,,,VCSH,FEW,1200,SCT,2300,,,,,VFR,,,,,,,,,,,,METAR,10.0
EGPN 160720Z 26012KT 9999 FEW040 11/07 Q1021,EGPN,2023-05-16T07:20:00Z,56.45,-3.02,11.0,7.0,260,12,,6.21,30.147638,,,,,,,,,,,FEW,4000,,,,,,,VFR,,,,,,,,,,,,METAR,4.0
EGPL 160720Z 31013KT 9999 VCSH FEW014 SCT034 11/08 Q1023,EGPL,2023-05-16T07:20:00Z,57.47,-7.37,11.0,8.0,310,13,,6.21,30.206694,,,,,,,,,,VCSH,FEW,1400,SCT,3400,,,,,VFR,,,,,,,,,,,,METAR,3.0
EGPK 160720Z 30015KT 9999 SCT032 BKN041 12/08 Q1024,EGPK,2023-05-16T07:20:00Z,55.5,-4.58,12.0,8.0,300,15,,6.21,30.236221,,,,,,,,,,,SCT,3200,BKN,4100,,,,,VFR,,,,,,,,,,,,METAR,14.0
EGPI 160720Z 31012KT 9999 FEW012 BKN037 11/09 Q1025,EGPI,2023-05-16T07:20:00Z,55.68,-6.25,11.0,9.0,310,12,,6.21,30.265747,,,,,,,,,,,FEW,1200,BKN,3700,,,,,VFR,,,,,,,,,,,,METAR,17.0
EGPH 160720Z 26010KT 9999 FEW023 12/07 Q1022,EGPH,2023-05-16T07:20:00Z,55.95,-3.35,12.0,7.0,260,10,,6.21,30.177166,,,,,,,,,,,FEW,2300,,,,,,,VFR,,,,,,,,,,,,METAR,29.0
EGPF 160720Z AUTO 28013KT 9999 FEW025 SCT044 12/07 Q1024,EGPF,2023-05-16T07:20:00Z,55.87,-4.42,12.0,7.0,280,13,,6.21,30.236221,,,TRUE,,,,,,,,FEW,2500,SCT,4400,,,,,VFR,,,,,,,,,,,,METAR,8.0
EGPE 160720Z 25012KT 9999 VCSH FEW010 SCT036 11/08 Q1021,EGPE,2023-05-16T07:20:00Z,57.53,-4.05,11.0,8.0,250,12,,6.21,30.147638,,,,,,,,,,VCSH,FEW,1000,SCT,3600,,,,,VFR,,,,,,,,,,,,METAR,7.0
EGPD 160720Z AUTO 28013KT 9999 SCT049 11/06 Q1020 NOSIG,EGPD,2023-05-16T07:20:00Z,57.2,-2.22,11.0,6.0,280,13,,6.21,30.11811,,,TRUE,,,TRUE,,,,,SCT,4900,,,,,,,VFR,,,,,,,,,,,,METAR,65.0
EGPC 160720Z 31016KT 9999 VCSH FEW018 SCT025 BKN036 09/07 Q1019,EGPC,2023-05-16T07:20:00Z,58.45,-3.08,9.0,7.0,310,16,,6.21,30.088583,,,,,,,,,,VCSH,FEW,1800,SCT,2500,BKN,3600,,,VFR,,,,,,,,,,,,METAR,38.0
EGPA 160720Z 31019KT 9999 FEW011 SCT019 10/04 Q1018,EGPA,2023-05-16T07:20:00Z,58.95,-2.9,10.0,4.0,310,19,,6.21,30.059055,,,,,,,,,,,FEW,1100,SCT,1900,,,,,VFR,,,,,,,,,,,,METAR,15.0
EGNX 160720Z 28008KT CAVOK 10/07 Q1025,EGNX,2023-05-16T07:20:00Z,52.82,-1.32,10.0,7.0,280,8,,6.21,30.265747,,,,,,,,,,,CAVOK,,,,,,,,VFR,,,,,,,,,,,,METAR,91.0
EGNV 160720Z 30010KT 9999 FEW040 10/05 Q1023,EGNV,2023-05-16T07:20:00Z,54.52,-1.42,10.0,5.0,300,10,,6.21,30.206694,,,,,,,,,,,FEW,4000,,,,,,,VFR,,,,,,,,,,,,METAR,36.0
EGNT 160720Z 30012KT CAVOK 10/06 Q1023,EGNT,2023-05-16T07:20:00Z,55.03,-1.7,10.0,6.0,300,12,,6.21,30.206694,,,,,,,,,,,CAVOK,,,,,,,,VFR,,,,,,,,,,,,METAR,77.0
EGNS 160720Z 29009KT 9999 FEW014 10/07 Q1026 NOSIG,EGNS,2023-05-16T07:20:00Z,54.08,-4.63,10.0,7.0,290,9,,6.21,30.295275,,,,,,TRUE,,,,,FEW,1400,,,,,,,VFR,,,,,,,,,,,,METAR,18.0
EGNR 160720Z 32013KT 9999 SCT030 11/06 Q1026,EGNR,2023-05-16T07:20:00Z,53.17,-2.98,11.0,6.0,320,13,,6.21,30.295275,,,,,,,,,,,SCT,3000,,,,,,,VFR,,,,,,,,,,,,METAR,11.0
EGNO 160720Z 30009KT 9999 BKN020 11/07 Q1026,EGNO,2023-05-16T07:20:00Z,53.75,-2.88,11.0,7.0,300,9,,6.21,30.295275,,,,,,,,,,,BKN,2000,,,,,,,MVFR,,,,,,,,,,,,METAR,12.0
EGNM 160720Z 26009KT CAVOK 09/05 Q1024,EGNM,2023-05-16T07:20:00Z,53.87,-1.65,9.0,5.0,260,9,,6.21,30.236221,,,,,,,,,,,CAVOK,,,,,,,,VFR,,,,,,,,,,,,METAR,221.0
EGNJ 160720Z 30010KT CAVOK 10/06 Q1024,EGNJ,2023-05-16T07:20:00Z,53.57,-0.35,10.0,6.0,300,10,,6.21,30.236221,,,,,,,,,,,CAVOK,,,,,,,,VFR,,,,,,,,,,,,METAR,23.0
EGNH 160720Z 32014KT 9999 SCT019 SCT030 11/07 Q1026,EGNH,2023-05-16T07:20:00Z,53.77,-3.03,11.0,7.0,320,14,,6.21,30.295275,,,,,,,,,,,SCT,1900,SCT,3000,,,,,VFR,,,,,,,,,,,,METAR,10.0
EGMD 160720Z AUTO 31009KT 9999 NCD 11/08 Q1024,EGMD,2023-05-16T07:20:00Z,50.95,0.93,11.0,8.0,310,9,,6.21,30.236221,,,TRUE,,,,,,,,CLR,,,,,,,,VFR,,,,,,,,,,,,METAR,4.0
EGMC 160720Z 33007KT 300V360 CAVOK 11/06 Q1024,EGMC,2023-05-16T07:20:00Z,51.57,0.7,11.0,6.0,330,7,,6.21,30.236221,,,,,,,,,,,CAVOK,,,,,,,,VFR,,,,,,,,,,,,METAR,15.0
EGLL 160720Z AUTO 33006KT 290V020 9999 NCD 11/05 Q1025 NOSIG,EGLL,2023-05-16T07:20:00Z,51.48,-0.45,11.0,5.0,330,6,,6.21,30.265747,,,TRUE,,,TRUE,,,,,CLR,,,,,,,,VFR,,,,,,,,,,,,METAR,26.0
EGLF 160720Z AUTO 32008KT 290V360 9999 NCD 10/06 Q1025,EGLF,2023-05-16T07:20:00Z,51.28,-0.77,10.0,6.0,320,8,,6.21,30.265747,,,TRUE,,,,,,,,CLR,,,,,,,,VFR,,,,,,,,,,,,METAR,65.0
EGLC 160720Z AUTO 31006KT 9999 NCD 11/06 Q1025,EGLC,2023-05-16T07:20:00Z,51.5,0.05,11.0,6.0,310,6,,6.21,30.265747,,,TRUE,,,,,,,,CLR,,,,,,,,VFR,,,,,,,,,,,,METAR,10.0
EGKK 160720Z 32008KT 290V010 CAVOK 10/06 Q1025,EGKK,2023-05-16T07:20:00Z,51.13,-0.18,10.0,6.0,320,8,,6.21,30.265747,,,,,,,,,,,CAVOK,,,,,,,,VFR,,,,,,,,,,,,METAR,58.0
EGKB 160720Z 30007KT CAVOK 09/06 Q1025,EGKB,2023-05-16T07:20:00Z,51.32,0.02,9.0,6.0,300,7,,6.21,30.265747,,,,,,,,,,,CAVOK,,,,,,,,VFR,,,,,,,,,,,,METAR,183.0
EGKA 160720Z 35008KT 300V010 CAVOK 11/07 Q1024,EGKA,2023-05-16T07:20:00Z,50.83,-0.3,11.0,7.0,350,8,,6.21,30.236221,,,,,,,,,,,CAVOK,,,,,,,,VFR,,,,,,,,,,,,METAR,2.0
EGJJ 160720Z 02011KT 9999 FEW012 12/09 Q1026,EGJJ,2023-05-16T07:20:00Z,49.22,-2.2,12.0,9.0,20,11,,6.21,30.295275,,,,,,,,,,,FEW,1200,,,,,,,VFR,,,,,,,,,,,,METAR,84.0
EGJB 160720Z 01011KT CAVOK 11/07 Q1026,EGJB,2023-05-16T07:20:00Z,49.42,-2.6,11.0,7.0,10,11,,6.21,30.295275,,,,,,,,,,,CAVOK,,,,,,,,VFR,,,,,,,,,,,,METAR,102.0
EGJA 160720Z 02011KT CAVOK 11/07 Q1026,EGJA,2023-05-16T07:20:00Z,49.72,-2.2,11.0,7.0,20,11,,6.21,30.295275,,,,,,,,,,,CAVOK,,,,,,,,VFR,,,,,,,,,,,,METAR,83.0
EGHQ 160720Z 05006KT CAVOK 11/07 Q1027,EGHQ,2023-05-16T07:20:00Z,50.43,-5.0,11.0,7.0,50,6,,6.21,30.324802,,,,,,,,,,,CAVOK,,,,,,,,VFR,,,,,,,,,,,,METAR,101.0
EGHI 160720Z 35006KT 310V040 CAVOK 11/05 Q1026,EGHI,2023-05-16T07:20:00Z,50.95,-1.35,11.0,5.0,350,6,,6.21,30.295275,,,,,,,,,,,CAVOK,,,,,,,,VFR,,,,,,,,,,,,METAR,13.0
EGHC 160720Z 03010KT CAVOK 12/08 Q1027,EGHC,2023-05-16T07:20:00Z,50.1,-5.67,12.0,8.0,30,10,,6.21,30.324802,,,,,,,,,,,CAVOK,,,,,,,,VFR,,,,,,,,,,,,METAR,117.0
EGGW 160720Z AUTO 32012KT 9999 NCD 10/06 Q1025,EGGW,2023-05-16T07:20:00Z,51.87,-0.37,10.0,6.0,320,12,,6.21,30.265747,,,TRUE,,,,,,,,CLR,,,,,,,,VFR,,,,,,,,,,,,METAR,159.0
EGGP 160720Z 31012KT 9999 FEW024 SCT033 12/05 Q1026,EGGP,2023-05-16T07:20:00Z,53.33,-2.85,12.0,5.0,310,12,,6.21,30.295275,,,,,,,,,,,FEW,2400,SCT,3300,,,,,VFR,,,,,,,,,,,,METAR,23.0
EGGD 160720Z AUTO 33007KT 280V010 9999 NCD 10/04 Q1026,EGGD,2023-05-16T07:20:00Z,51.37,-2.72,10.0,4.0,330,7,,6.21,30.295275,,,TRUE,,,,,,,,CLR,,,,,,,,VFR,,,,,,,,,,,,METAR,182.0
EGFF 160720Z AUTO 31003KT 280V360 9999 NCD 11/06 Q1027,EGFF,2023-05-16T07:20:00Z,51.38,-3.35,11.0,6.0,310,3,,6.21,30.324802,,,TRUE,,,,,,,,CLR,,,,,,,,VFR,,,,,,,,,,,,METAR,65.0
EGEC 160720Z 29009KT 9999 FEW020 10/09 Q1025,EGEC,2023-05-16T07:20:00Z,55.43,-5.68,10.0,9.0,290,9,,6.21,30.265747,,,,,,,,,,,FEW,2000,,,,,,,VFR,,,,,,,,,,,,METAR,10.0
EGCK 160720Z AUTO 32005KT 280V340 9999 SCT027/// 12/06 Q1027,EGCK,2023-05-16T07:20:00Z,53.1,-4.33,12.0,6.0,320,5,,6.21,30.324802,,,TRUE,,,,,,,,SCT,2700,,,,,,,VFR,,,,,,,,,,,,METAR,6.0
EGCC 160720Z 29005KT 260V320 9999 FEW015 SCT025 10/07 Q1026,EGCC,2023-05-16T07:20:00Z,53.35,-2.27,10.0,7.0,290,5,,6.21,30.295275,,,,,,,,,,,FEW,1500,SCT,2500,,,,,VFR,,,,,,,,,,,,METAR,78.0
EGBJ 160720Z 00000KT 9999 FEW025 10/05 Q1027,EGBJ,2023-05-16T07:20:00Z,51.9,-2.17,10.0,5.0,0,0,,6.21,30.324802,,,,,,,,,,,FEW,2500,,,,,,,VFR,,,,,,,,,,,,METAR,27.0
EGBB 160720Z 32012KT 9999 FEW021 10/05 Q1026,EGBB,2023-05-16T07:20:00Z,52.47,-1.75,10.0,5.0,320,12,,6.21,30.295275,,,,,,,,,,,FEW,2100,,,,,,,VFR,,,,,,,,,,,,METAR,91.0
EGAE 160720Z 23009KT 9999 FEW018 OVC038 11/08 Q1027,EGAE,2023-05-16T07:20:00Z,55.03,-7.15,11.0,8.0,230,9,,6.21,30.324802,,,,,,,,,,,FEW,1800,OVC,3800,,,,,VFR,,,,,,,,,,,,METAR,9.0
EGAC 160720Z AUTO 29003KT 220V350 9999 OVC036 11/07 Q1026,EGAC,2023-05-16T07:20:00Z,54.62,-5.87,11.0,7.0,290,3,,6.21,30.295275,,,TRUE,,,,,,,,OVC,3600,,,,,,,VFR,,,,,,,,,,,,METAR,2.0
EGAA 160720Z AUTO 25008KT 9999 OVC036 09/07 Q1026,EGAA,2023-05-16T07:20:00Z,54.65,-6.22,9.0,7.0,250,8,,6.21,30.295275,,,TRUE,,,,,,,,OVC,3600,,,,,,,VFR,,,,,,,,,,,,METAR,65.0
EFVA 160720Z AUTO 14012KT CAVOK 18/06 Q1010,EFVA,2023-05-16T07:20:00Z,63.05,21.77,18.0,6.0,140,12,,6.21,29.822834,,,TRUE,,,,,,,,CAVOK,,,,,,,,VFR,,,,,,,,,,,,METAR,4.0
EFUT 160720Z 13011KT 9999 VCSH FEW070CB 17/06 Q1013,EFUT,2023-05-16T07:20:00Z,60.88,26.93,17.0,6.0,130,11,,6.21,29.911417,,,,,,,,,,VCSH,FEW,7000,,,,,,,VFR,,,,,,,,,,,,METAR,104.0
EFTU 160720Z AUTO 09004KT 9999 -SHRA NSC 14/10 Q1009,EFTU,2023-05-16T07:20:00Z,60.52,22.27,14.0,10.0,90,4,,6.21,29.793306,,,TRUE,,,,,,,-SHRA,CLR,,,,,,,,VFR,,,,,,,,,,,,METAR,47.0
EFTP 160720Z 14009KT 110V170 CAVOK 18/07 Q1010,EFTP,2023-05-16T07:20:00Z,61.42,23.62,18.0,7.0,140,9,,6.21,29.822834,,,,,,,,,,,CAVOK,,,,,,,,VFR,,,,,,,,,,,,METAR,111.0
EFSI 160720Z AUTO 12006KT 9999 -SHRA NSC 14/09 Q1010,EFSI,2023-05-16T07:20:00Z,62.7,22.83,14.0,9.0,120,6,,6.21,29.822834,,,TRUE,,,,,,,-SHRA,CLR,,,,,,,,VFR,,,,,,,,,,,,METAR,90.0
EFSA 160720Z AUTO 13009KT CAVOK 18/06 Q1015,EFSA,2023-05-16T07:20:00Z,61.95,28.93,18.0,6.0,130,9,,6.21,29.970472,,,TRUE,,,,,,,,CAVOK,,,,,,,,VFR,,,,,,,,,,,,METAR,90.0
EFRO 160720Z 20007KT 170V230 CAVOK 16/03 Q1012,EFRO,2023-05-16T07:20:00Z,66.57,25.82,16.0,3.0,200,7,,6.21,29.88189,,,,,,,,,,,CAVOK,,,,,,,,VFR,,,,,,,,,,,,METAR,201.0
EFPO 160720Z AUTO VRB02KT 9999 -SHRA NSC 15/11 Q1009,EFPO,2023-05-16T07:20:00Z,61.47,21.8,15.0,11.0,0,2,,6.21,29.793306,,,TRUE,,,,,,,-SHRA,CLR,,,,,,,,VFR,,,,,,,,,,,,METAR,10.0
EFOU 160720Z AUTO 14008KT CAVOK 19/08 Q1012,EFOU,2023-05-16T07:20:00Z,64.92,25.37,19.0,8.0,140,8,,6.21,29.88189,,,TRUE,,,,,,,,CAVOK,,,,,,,,VFR,,,,,,,,,,,,METAR,15.0
EFMI 160720Z AUTO 12010KT CAVOK 19/06 Q1013,EFMI,2023-05-16T07:20:00Z,61.68,27.2,19.0,6.0,120,10,,6.21,29.911417,,,TRUE,,,,,,,,CAVOK,,,,,,,,VFR,,,,,,,,,,,,METAR,99.0
EFMA 160720Z AUTO VRB02KT 9999 SHRA BKN028 //////CB 12/11 Q1007 RERA,EFMA,2023-05-16T07:20:00Z,60.12,19.9,12.0,11.0,0,2,,6.21,29.734253,,,TRUE,,,,,,,SHRA,BKN,2800,,,,,,,MVFR,,,,,,,,,,,,METAR,6.0
EFLP 160720Z AUTO 12008KT 090V150 CAVOK 19/06 Q1014,EFLP,2023-05-16T07:20:00Z,61.03,28.15,19.0,6.0,120,8,,6.21,29.940945,,,TRUE,,,,,,,,CAVOK,,,,,,,,VFR,,,,,,,,,,,,METAR,102.0
EFKU 160720Z 11005KT 080V140 CAVOK 17/08 Q1015,EFKU,2023-05-16T07:20:00Z,63.02,27.8,17.0,8.0,110,5,,6.21,29.970472,,,,,,,,,,,CAVOK,,,,,,,,VFR,,,,,,,,,,,,METAR,92.0
EFKT 160720Z AUTO 18009KT 120V210 CAVOK 15/05 Q1010,EFKT,2023-05-16T07:20:00Z,67.7,24.85,15.0,5.0,180,9,,6.21,29.822834,,,TRUE,,,,,,,,CAVOK,,,,,,,,VFR,,,,,,,,,,,,METAR,190.0
EFKS 160720Z AUTO 17004KT CAVOK 13/06 Q1015,EFKS,2023-05-16T07:20:00Z,66.0,29.23,13.0,6.0,170,4,,6.21,29.970472,,,TRUE,,,,,,,,CAVOK,,,,,,,,VFR,,,,,,,,,,,,METAR,270.0
EFKK 160720Z AUTO 13010KT CAVOK 18/06 Q1011,EFKK,2023-05-16T07:20:00Z,63.72,23.13,18.0,6.0,130,10,,6.21,29.852362,,,TRUE,,,,,,,,CAVOK,,,,,,,,VFR,,,,,,,,,,,,METAR,25.0
EFKI 160720Z AUTO 13006KT 100V180 CAVOK 18/07 Q1014,EFKI,2023-05-16T07:20:00Z,64.27,27.67,18.0,7.0,130,6,,6.21,29.940945,,,TRUE,,,,,,,,CAVOK,,,,,,,,VFR,,,,,,,,,,,,METAR,132.0
EFKE 160720Z AUTO 10004KT 070V140 CAVOK 16/03 Q1012,EFKE,2023-05-16T07:20:00Z,65.78,24.57,16.0,3.0,100,4,,6.21,29.88189,,,TRUE,,,,,,,,CAVOK,,,,,,,,VFR,,,,,,,,,,,,METAR,15.0
EFJY 160720Z AUTO 13012KT CAVOK 20/07 Q1012,EFJY,2023-05-16T07:20:00Z,62.4,25.68,20.0,7.0,130,12,,6.21,29.88189,,,TRUE,,,,,,,,CAVOK,,,,,,,,VFR,,,,,,,,,,,,METAR,139.0
EFJO 160720Z AUTO 16009KT 130V190 CAVOK 18/05 Q1016,EFJO,2023-05-16T07:20:00Z,62.67,29.62,18.0,5.0,160,9,,6.21,30.0,,,TRUE,,,,,,,,CAVOK,,,,,,,,VFR,,,,,,,,,,,,METAR,118.0
EFIV 160720Z AUTO 21012KT 180V240 CAVOK 16/04 Q1010,EFIV,2023-05-16T07:20:00Z,68.62,27.42,16.0,4.0,210,12,,6.21,29.822834,,,TRUE,,,,,,,,CAVOK,,,,,,,,VFR,,,,,,,,,,,,METAR,145.0
EFHK 160720Z 11009KT 9999 -RA NSC 13/08 Q1012 TEMPO FEW050CB,EFHK,2023-05-16T07:20:00Z,60.32,24.97,13.0,8.0,110,9,,6.21,29.88189,,,,,,,,,,-RA,CLR,,,,,,,,VFR,,,,,,,,,,,,SPECI,56.0
EFHA 160720Z 12009KT 090V190 CAVOK 20/05 Q1011,EFHA,2023-05-16T07:20:00Z,61.85,24.8,20.0,5.0,120,9,,6.21,29.852362,,,,,,,,,,,CAVOK,,,,,,,,VFR,,,,,,,,,,,,METAR,144.0
EFET 160720Z AUTO 21007KT 9999 -SHRA NSC 10/06 Q1010,EFET,2023-05-16T07:20:00Z,68.37,23.43,10.0,6.0,210,7,,6.21,29.822834,,,TRUE,,,,,,,-SHRA,CLR,,,,,,,,VFR,,,,,,,,,,,,METAR,300.0
EETU 160720Z 12008KT 9999 -RA FEW032 12/10 Q1012,EETU,2023-05-16T07:20:00Z,58.32,26.68,12.0,10.0,120,8,,6.21,29.88189,,,,,,,,,,-RA,FEW,3200,,,,,,,VFR,,,,,,,,,,,,METAR,67.0
EETN 160720Z 12008KT 9999 -RA SCT026 BKN040 13/11 Q1010 TEMPO 4000 RA,EETN,2023-05-16T07:20:00Z,59.4,24.82,13.0,11.0,120,8,,6.21,29.822834,,,,,,,,,,-RA,SCT,2600,BKN,4000,,,,,VFR,,,,,,,,,,,,SPECI,41.0
EEPU 160720Z AUTO 12010KT 090V150 9999 OVC051/// 14/11 Q1008,EEPU,2023-05-16T07:20:00Z,58.42,24.47,14.0,11.0,120,10,,6.21,29.763779,,,TRUE,,,,,,,,OVC,5100,,,,,,,VFR,,,,,,,,,,,,METAR,13.0
EEKE 160720Z AUTO 15017KT 9999NDV -RA SCT010 OVC012 14/12 Q1006,EEKE,2023-05-16T07:20:00Z,58.23,22.52,14.0,12.0,150,17,,,29.704725,,,TRUE,,,,,,,-RA,SCT,1000,OVC,1200,,,,,,,,,,,,,,,,,METAR,4.0
EEKA 160720Z 12013KT 6000 SHRA FEW011 SCT027CB BKN035 13/11 Q1007,EEKA,2023-05-16T07:20:00Z,58.98,22.83,13.0,11.0,120,13,,3.73,29.734253,,,,,,,,,,SHRA,FEW,1100,SCT,2700,BKN,3500,,,MVFR,,,,,,,,,,,,METAR,6.0
EDXW 160720Z AUTO 31022KT 9999 // BKN021/// BKN047/// 10/05 Q1014,EDXW,2023-05-16T07:20:00Z,54.92,8.33,10.0,5.0,310,22,,6.21,29.940945,,,TRUE,,,,,,,,BKN,2100,BKN,4700,,,,,MVFR,,,,,,,,,,,,METAR,8.0
EDVK 160720Z 31008KT 290V350 9999 VCSH SCT012 BKN016 BKN030 08/05 Q1017,EDVK,2023-05-16T07:20:00Z,51.4,9.37,8.0,5.0,310,8,,6.21,30.029528,,,,,,,,,,VCSH,SCT,1200,BKN,1600,BKN,3000,,,MVFR,,,,,,,,,,,,METAR,277.0
EDTY 160720Z 34010KT 310V010 9999 BKN009 OVC030 11/10 Q1014,EDTY,2023-05-16T07:20:00Z,49.12,9.78,11.0,10.0,340,10,,6.21,29.940945,,,,,,,,,,,BKN,900,OVC,3000,,,,,IFR,,,,,,,,,,,,METAR,398.0
EDTL 160720Z 35006KT 9999 -RA OVC019 11/10 Q1016,EDTL,2023-05-16T07:20:00Z,48.37,7.83,11.0,10.0,350,6,,6.21,30.0,,,,,,,,,,-RA,OVC,1900,,,,,,,MVFR,,,,,,,,,,,,METAR,152.0
EDSB 160720Z 03007KT 9999 FEW013 OVC021 12/09 Q1015,EDSB,2023-05-16T07:20:00Z,48.78,8.08,12.0,9.0,30,7,,6.21,29.970472,,,,,,,,,,,FEW,1300,OVC,2100,,,,,MVFR,,,,,,,,,,,,METAR,122.0
EDQM 160720Z 36006KT 310V060 9999 SCT012 BKN015 10/07 Q1014,EDQM,2023-05-16T07:20:00Z,50.3,11.85,10.0,7.0,360,6,,6.21,29.940945,,,,,,,,,,,SCT,1200,BKN,1500,,,,,MVFR,,,,,,,,,,,,METAR,578.0
EDNY 160720Z 04006KT 340V080 CAVOK 11/09 Q1013 RMK/H,EDNY,2023-05-16T07:20:00Z,47.67,9.52,11.0,9.0,40,6,,6.21,29.911417,,,,,,,,,,,CAVOK,,,,,,,,VFR,,,,,,,,,,,,METAR,411.0
EDMO 160720Z VRB01KT 9999 FEW011 10/08 Q1013,EDMO,2023-05-16T07:20:00Z,48.07,11.27,10.0,8.0,0,1,,6.21,29.911417,,,,,,,,,,,FEW,1100,,,,,,,VFR,,,,,,,,,,,,METAR,587.0
EDMA 160720Z VRB02KT CAVOK 10/09 Q1013,EDMA,2023-05-16T07:20:00Z,48.42,10.92,10.0,9.0,0,2,,6.21,29.911417,,,,,,,,,,,CAVOK,,,,,,,,VFR,,,,,,,,,,,,METAR,462.0
EDLW 160720Z 32006KT 230V040 9999 FEW019 SCT022 BKN026 09/05 Q1020,EDLW,2023-05-16T07:20:00Z,51.52,7.62,9.0,5.0,320,6,,6.21,30.11811,,,,,,,,,,,FEW,1900,SCT,2200,BKN,2600,,,MVFR,,,,,,,,,,,,METAR,122.0
EDLV 160720Z 33007KT 290V070 9999 SCT021 BKN025 BKN044 11/06 Q1021,EDLV,2023-05-16T07:20:00Z,51.6,6.15,11.0,6.0,330,7,,6.21,30.147638,,,,,,,,,,,SCT,2100,BKN,2500,BKN,4400,,,MVFR,,,,,,,,,,,,METAR,27.0
EDLP 160720Z 32005KT 260V020 9999 FEW016 SCT018 BKN030 08/04 Q1018,EDLP,2023-05-16T07:20:00Z,51.62,8.62,8.0,4.0,320,5,,6.21,30.059055,,,,,,,,,,,FEW,1600,SCT,1800,BKN,3000,,,MVFR,,,,,,,,,,,,METAR,211.0
EDLN 160720Z 35009KT 310V020 9999 SCT023 10/05 Q1020,EDLN,2023-05-16T07:20:00Z,51.23,6.5,10.0,5.0,350,9,,6.21,30.11811,,,,,,,,,,,SCT,2300,,,,,,,VFR,,,,,,,,,,,,METAR,38.0
EDJA 160720Z 01007KT 9999 FEW010 11/08 Q1013,EDJA,2023-05-16T07:20:00Z,47.98,10.23,11.0,8.0,10,7,,6.21,29.911417,,,,,,,,,,,FEW,1000,,,,,,,VFR,,,,,,,,,,,,METAR,625.0
EDHL 160720Z 29014G24KT 250V320 9999 SCT029 BKN034 11/04 Q1015,EDHL,2023-05-16T07:20:00Z,53.8,10.72,11.0,4.0,290,14,24,6.21,29.970472,,,,,,,,,,,SCT,2900,BKN,3400,,,,,VFR,,,,,,,,,,,,METAR,13.0
EDHK 160720Z 30015KT 9999 BKN030 BKN037 10/04 Q1014,EDHK,2023-05-16T07:20:00Z,54.38,10.15,10.0,4.0,300,15,,6.21,29.940945,,,,,,,,,,,BKN,3000,BKN,3700,,,,,MVFR,,,,,,,,,,,,METAR,24.0
EDHI 160720Z 28016KT 9999 FEW030 SCT034 11/04 Q1016,EDHI,2023-05-16T07:20:00Z,53.53,9.83,11.0,4.0,280,16,,6.21,30.0,,,,,,,,,,,FEW,3000,SCT,3400,,,,,VFR,,,,,,,,,,,,METAR,5.0
EDGS 160720Z 33013KT 9999 SCT002 OVC004 05/05 Q1017,EDGS,2023-05-16T07:20:00Z,50.7,8.08,5.0,5.0,330,13,,6.21,30.029528,,,,,,,,,,,SCT,200,OVC,400,,,,,LIFR,,,,,,,,,,,,METAR,595.0
EDFM 160720Z 34009KT 9999 SCT018 BKN045 13/09 Q1016,EDFM,2023-05-16T07:20:00Z,49.47,8.52,13.0,9.0,340,9,,6.21,30.0,,,,,,,,,,,SCT,1800,BKN,4500,,,,,VFR,,,,,,,,,,,,METAR,94.0
EDFH 160720Z 33009KT 290V360 9000 -RA BKN004 06/06 Q1018,EDFH,2023-05-16T07:20:00Z,49.95,7.27,6.0,6.0,330,9,,5.59,30.059055,,,,,,,,,,-RA,BKN,400,,,,,,,LIFR,,,,,,,,,,,,METAR,494.0
EDDW 160720Z AUTO 30013KT 9999 SCT024 11/05 Q1017 TEMPO 32015G25KT,EDDW,2023-05-16T07:20:00Z,53.03,8.8,11.0,5.0,300,13,,6.21,30.029528,,,TRUE,,,,,,,,SCT,2400,,,,,,,VFR,,,,,,,,,,,,METAR,5.0
EDDV 160720Z AUTO 32013KT 270V350 9999 SCT028 10/04 Q1017 TEMPO 33015G25KT,EDDV,2023-05-16T07:20:00Z,52.47,9.68,10.0,4.0,320,13,,6.21,30.029528,,,TRUE,,,,,,,,SCT,2800,,,,,,,VFR,,,,,,,,,,,,METAR,53.0
EDDS 160720Z AUTO 35012KT 320V020 9999 BKN014 OVC020 12/09 Q1014 TEMPO SHRA BKN012CB,EDDS,2023-05-16T07:20:00Z,48.68,9.22,12.0,9.0,350,12,,6.21,29.940945,,,TRUE,,,,,,,,BKN,1400,OVC,2000,,,,,MVFR,,,,,,,,,,,,SPECI,374.0
EDDR 160720Z AUTO 36011KT 330V030 9999 -RA BKN018 09/06 Q1017 NOSIG,EDDR,2023-05-16T07:20:00Z,49.22,7.1,9.0,6.0,360,11,,6.21,30.029528,,,TRUE,,,TRUE,,,,-RA,BKN,1800,,,,,,,MVFR,,,,,,,,,,,,METAR,317.0
EDDP 160720Z AUTO 31010KT 9999 BKN016 10/07 Q1015 NOSIG,EDDP,2023-05-16T07:20:00Z,51.43,12.23,10.0,7.0,310,10,,6.21,29.970472,,,TRUE,,,TRUE,,,,,BKN,1600,,,,,,,MVFR,,,,,,,,,,,,METAR,129.0
EDDN 160720Z AUTO 34006KT 310V020 9999 SCT036 14/09 Q1014 NOSIG,EDDN,2023-05-16T07:20:00Z,49.5,11.05,14.0,9.0,340,6,,6.21,29.940945,,,TRUE,,,TRUE,,,,,SCT,3600,,,,,,,VFR,,,,,,,,,,,,METAR,312.0
EDDM 160720Z AUTO 33003KT 260V030 CAVOK 11/09 Q1013 BECMG 34008KT,EDDM,2023-05-16T07:20:00Z,48.35,11.82,11.0,9.0,330,3,,6.21,29.911417,,,TRUE,,,,,,,,CAVOK,,,,,,,,VFR,,,,,,,,,,,,METAR,445.0
EDDL 160720Z AUTO 35009KT 320V020 9999 FEW020 BKN033 BKN040 11/06 Q1020 NOSIG,EDDL,2023-05-16T07:20:00Z,51.3,6.77,11.0,6.0,350,9,,6.21,30.11811,,,TRUE,,,TRUE,,,,,FEW,2000,BKN,3300,BKN,4000,,,VFR,,,,,,,,,,,,METAR,37.0
EDDK 160720Z AUTO 36010KT 310V050 9999 FEW018 10/06 Q1020 NOSIG,EDDK,2023-05-16T07:20:00Z,50.87,7.15,10.0,6.0,360,10,,6.21,30.11811,,,TRUE,,,TRUE,,,,,FEW,1800,,,,,,,VFR,,,,,,,,,,,,METAR,92.0
EDDH 160720Z AUTO 29016KT 9999 FEW029 11/04 Q1015 TEMPO 30015G25KT,EDDH,2023-05-16T07:20:00Z,53.63,10.0,11.0,4.0,290,16,,6.21,29.970472,,,TRUE,,,,,,,,FEW,2900,,,,,,,VFR,,,,,,,,,,,,METAR,8.0
EDDG 160720Z AUTO 32011KT 270V010 9999 SCT023 SCT028 11/05 Q1019 NOSIG,EDDG,2023-05-16T07:20:00Z,52.13,7.7,11.0,5.0,320,11,,6.21,30.088583,,,TRUE,,,TRUE,,,,,SCT,2300,SCT,2800,,,,,VFR,,,,,,,,,,,,METAR,46.0
EDDF 160720Z AUTO 36009KT 9999 FEW019 SCT026 OVC036 12/07 Q1017 NOSIG,EDDF,2023-05-16T07:20:00Z,50.05,8.6,12.0,7.0,360,9,,6.21,30.029528,,,TRUE,,,TRUE,,,,,FEW,1900,SCT,2600,OVC,3600,,,VFR,,,,,,,,,,,,METAR,113.0
EDDE 160720Z AUTO 34009KT 9999 OVC014 09/07 Q1016 BECMG BKN015,EDDE,2023-05-16T07:20:00Z,50.98,10.97,9.0,7.0,340,9,,6.21,30.0,,,TRUE,,,,,,,,OVC,1400,,,,,,,MVFR,,,,,,,,,,,,SPECI,314.0
EDDC 160720Z AUTO 30009KT 260V330 8000 OVC006 09/07 Q1014 BECMG BKN010,EDDC,2023-05-16T07:20:00Z,51.13,13.75,9.0,7.0,300,9,,4.97,29.940945,,,TRUE,,,,,,,,OVC,600,,,,,,,IFR,,,,,,,,,,,,METAR,227.0
EDDB 160720Z AUTO 28012KT 9999 OVC014 11/08 Q1014 BECMG BKN015,EDDB,2023-05-16T07:20:00Z,52.38,13.53,11.0,8.0,280,12,,6.21,29.940945,,,TRUE,,,,,,,,OVC,1400,,,,,,,MVFR,,,,,,,,,,,,METAR,48.0
EDAH 160720Z 28014KT 9999 OVC009 12/10 Q1011,EDAH,2023-05-16T07:20:00Z,53.87,14.15,12.0,10.0,280,14,,6.21,29.852362,,,,,,,,,,,OVC,900,,,,,,,IFR,,,,,,,,,,,,METAR,22.0
EDAC 160720Z 32007KT 9999 OVC015 10/07 Q1015,EDAC,2023-05-16T07:20:00Z,50.98,12.5,10.0,7.0,320,7,,6.21,29.970472,,,,,,,,,,,OVC,1500,,,,,,,MVFR,,,,,,,,,,,,METAR,193.0
EBOS 160720Z 36008KT 330V030 9999 SCT021 10/05 Q1024 NOSIG,EBOS,2023-05-16T07:20:00Z,51.2,2.87,10.0,5.0,360,8,,6.21,30.236221,,,,,,TRUE,,,,,SCT,2100,,,,,,,VFR,,,,,,,,,,,,METAR,5.0
EBLG 160720Z 35008KT 9999 SCT017 09/05 Q1021 NOSIG,EBLG,2023-05-16T07:20:00Z,50.63,5.45,9.0,5.0,350,8,,6.21,30.147638,,,,,,TRUE,,,,,SCT,1700,,,,,,,VFR,,,,,,,,,,,,METAR,187.0
EBCI 160720Z 02011KT 330V040 9999 SCT015 08/05 Q1022 NOSIG,EBCI,2023-05-16T07:20:00Z,50.47,4.45,8.0,5.0,20,11,,6.21,30.177166,,,,,,TRUE,,,,,SCT,1500,,,,,,,VFR,,,,,,,,,,,,METAR,176.0
EBBR 160720Z 36009KT 9999 BKN029 10/05 Q1022 NOSIG,EBBR,2023-05-16T07:20:00Z,50.9,4.52,10.0,5.0,360,9,,6.21,30.177166,,,,,,TRUE,,,,,BKN,2900,,,,,,,MVFR,,,,,,,,,,,,METAR,49.0
EBAW 160720Z 33008KT 290V040 9999 BKN027 10/04 Q1022 NOSIG,EBAW,2023-05-16T07:20:00Z,51.2,4.47,10.0,4.0,330,8,,6.21,30.177166,,,,,,TRUE,,,,,BKN,2700,,,,,,,MVFR,,,,,,,,,,,,METAR,7.0
CYXR 160720Z AUTO 04004KT 7SM -RA FEW005 BKN014 BKN060 OVC080 08/07 A2971 RMK PCPN 0.8MM PAST HR SLP069,CYXR,2023-05-16T07:20:00Z,47.7,-79.85,8.0,7.0,40,4,,7.0,29.71063,1006.9,,TRUE,,,,,,,-RA,FEW,500,BKN,1400,BKN,6000,OVC,8000,MVFR,,,,,,,,,,,,SPECI,244.0
CYTL 160720Z AUTO 02007KT 4SM -SN BKN008 OVC014 M01/M02 A3017 RMK SLP234,CYTL,2023-05-16T07:20:00Z,53.82,-89.88,-1.0,-2.0,20,7,,4.0,30.171259,1023.4,,TRUE,,,,,,,-SN,BKN,800,OVC,1400,,,,,IFR,,,,,,,,,,,,METAR,218.0
CYNA 160720Z AUTO 00000KT 9SM BKN086 M01/M01 A2940 RMK SLP957,CYNA,2023-05-16T07:20:00Z,50.18,-61.78,-1.0,-1.0,0,0,,9.0,29.40059,995.7,,TRUE,,,,,,,,BKN,8600,,,,,,,VFR,,,,,,,,,,,,SPECI,9.0
PAVC 160719Z AUTO 32016G23KT 7SM -SN BKN024 OVC033 02/M01 A2994 RMK AO2 FZRANO PNO $,PAVC,2023-05-16T07:19:00Z,55.12,-162.27,2.0,-1.0,320,16,23,7.0,29.940945,,,TRUE,TRUE,TRUE,,,TRUE,,-SN,BKN,2400,OVC,3300,,,,,MVFR,,,,,,,,,,,,SPECI,48.0
KWLD 160719Z AUTO 32007KT 4SM BR BKN007 OVC011 14/13 A3016 RMK AO2 CIG 004V009 T01390133,KWLD,2023-05-16T07:19:00Z,37.17,-97.03,13.9,13.3,320,7,,4.0,30.159449,,,TRUE,TRUE,,,,,,BR,BKN,700,OVC,1100,,,,,IFR,,,,,,,,,,,,METAR,351.0
KRBD 160719Z AUTO 20004KT 10SM BKN016 19/18 A3008 RMK AO2 T01940183,KRBD,2023-05-16T07:19:00Z,32.68,-96.87,19.4,18.3,200,4,,10.0,30.079725,,,TRUE,TRUE,,,,,,,BKN,1600,,,,,,,MVFR,,,,,,,,,,,,METAR,200.0
KI35 160719Z AUTO 00000KT 10SM SCT026 OVC032 19/19 A3007 RMK AO2,KI35,2023-05-16T07:19:00Z,36.87,-83.37,19.0,19.0,0,0,,10.0,30.070866,,,TRUE,TRUE,,,,,,,SCT,2600,OVC,3200,,,,,VFR,,,,,,,,,,,,METAR,467.0
KCGI 160719Z AUTO 11005KT 10SM FEW037 BKN050 BKN065 19/19 A2996 RMK AO2 LTG DSNT NE AND E RAE10 P0002 T01940194,KCGI,2023-05-16T07:19:00Z,37.23,-89.58,19.4,19.4,110,5,,10.0,29.958662,,,TRUE,TRUE,,,,,,,FEW,3700,BKN,5000,BKN,6500,,,VFR,,,,,,0.02,,,,,,SPECI,103.0
KAVX 160719Z AUTO 00000KT M1/4SM FG VV001 12/11 A3006 RMK AO2 T01170111 $,KAVX,2023-05-16T07:19:00Z,33.4,-118.42,11.7,11.1,0,0,,0.25,30.059055,,,TRUE,TRUE,TRUE,,,,,FG,OVX,0,,,,,,,LIFR,,,,,,,,,,,100,METAR,482.0
K2V6 160719Z AUTO 22007KT 10SM 07/02 A3024 RMK AO2,K2V6,2023-05-16T07:19:00Z,40.1,-102.72,7.0,2.0,220,7,,10.0,30.239174,,,TRUE,TRUE,,,,,,,,,,,,,,,,,,,,,,,,,,,METAR,1257.0
EHLW 160719Z AUTO 33014KT 270V010 9999 SCT023 SCT027 BKN055 11/06 Q1020 WHT,EHLW,2023-05-16T07:19:00Z,53.22,5.75,11.0,6.0,330,14,,6.21,30.11811,,,TRUE,,,,,,,,SCT,2300,SCT,2700,BKN,5500,,,VFR,,,,,,,,,,,,SPECI,1.0
CYKP 160719Z AUTO 02010G16KT 340V040 9SM BKN011 BKN060 OVC076 01/00 A3000 RMK SLP169,CYKP,2023-05-16T07:19:00Z,51.67,-85.9,1.0,0.0,20,10,16,9.0,30.0,1016.9,,TRUE,,,,,,,,BKN,1100,BKN,6000,OVC,7600,,,MVFR,,,,,,,,,,,,SPECI,181.0
CYGW 160719Z AUTO 31012G18KT 6SM -SN FEW011 SCT024 OVC033 M03/M04 A2987 RMK SLP118,CYGW,2023-05-16T07:19:00Z,55.27,-77.77,-3.0,-4.0,310,12,18,6.0,29.870079,1011.8,,TRUE,,,,,,,-SN,FEW,1100,SCT,2400,OVC,3300,,,VFR,,,,,,,,,,,,SPECI,13.0
KSAW 160718Z AUTO 28005KT 10SM CLR 14/00 A2986 RMK AO2 T01420000,KSAW,2023-05-16T07:18:00Z,46.35,-87.4,14.2,0.0,280,5,,10.0,29.861221,,,TRUE,TRUE,,,,,,,CLR,,,,,,,,VFR,,,,,,,,,,,,METAR,359.0
KNIP 160718Z AUTO 26005KT 10SM BKN013 24/21 A3007 RMK AO2 T02390211,KNIP,2023-05-16T07:18:00Z,30.23,-81.67,23.9,21.1,260,5,,10.0,30.070866,,,TRUE,TRUE,,,,,,,BKN,1300,,,,,,,MVFR,,,,,,,,,,,,SPECI,3.0
KDAL 160718Z 00000KT 10SM SCT012 BKN022 BKN130 OVC250 22/19 A3008 RMK AO2 T02170194,KDAL,2023-05-16T07:18:00Z,32.85,-96.85,21.7,19.4,0,0,,10.0,30.079725,,,,TRUE,,,,,,,SCT,1200,BKN,2200,BKN,13000,OVC,25000,MVFR,,,,,,,,,,,,SPECI,148.0
KCLM 160718Z AUTO 26007KT 10SM SCT005 13/11 A3009 RMK AO2 T01330111,KCLM,2023-05-16T07:18:00Z,48.12,-123.5,13.3,11.1,260,7,,10.0,30.088583,,,TRUE,TRUE,,,,,,,SCT,500,,,,,,,VFR,,,,,,,,,,,,SPECI,81.0
KAPS 160718Z AUTO 00000KT 7SM CLR 21/21 A3006 RMK AO2,KAPS,2023-05-16T07:18:00Z,30.08,-90.58,21.0,21.0,0,0,,7.0,30.059055,,,TRUE,TRUE,,,,,,,CLR,,,,,,,,VFR,,,,,,,,,,,,METAR,1.0
PAIM 160717Z AUTO 00000KT 1 1/4SM -RA FG FEW004 BKN026 04/04 A3008 RMK AO2 SLP196,PAIM,2023-05-16T07:17:00Z,66.0,-153.7,4.0,4.0,0,0,,1.25,30.079725,1019.6,,TRUE,TRUE,,,,,,-RA FG,FEW,400,BKN,2600,,,,,IFR,,,,,,,,,,,,METAR,309.0
PAFM 160717Z AUTO 03009KT 8SM -RA BKN010 BKN018 OVC024 02/02 A3012 RMK AO2 P0001 FZRANO,PAFM,2023-05-16T07:17:00Z,67.1,-157.85,2.0,2.0,30,9,,8.0,30.121063,,,TRUE,TRUE,,,,TRUE,,-RA,BKN,1000,BKN,1800,OVC,2400,,,MVFR,,,,,,0.01,,,,,,METAR,79.0
KMDH 160717Z AUTO VRB04G21KT 3/4SM +TSRA BR FEW006 OVC024 19/19 A2998 RMK AO2 LTG DSNT ALQDS P0023 T01890189,KMDH,2023-05-16T07:17:00Z,37.78,-89.25,18.9,18.9,0,4,21,0.75,29.97933,,,TRUE,TRUE,,,,,,+TSRA BR,FEW,600,OVC,2400,,,,,LIFR,,,,,,0.23,,,,,,METAR,122.0
KMCN 160717Z AUTO 12003KT 8SM BKN011 BKN020 OVC050 22/21 A3008 RMK AO2 T02170206 $,KMCN,2023-05-16T07:17:00Z,32.68,-83.65,21.7,20.6,120,3,,8.0,30.079725,,,TRUE,TRUE,TRUE,,,,,,BKN,1100,BKN,2000,OVC,5000,,,MVFR,,,,,,,,,,,,METAR,104.0
KJYG 160717Z AUTO 24005KT 10SM 12/09 A3010 RMK AO2,KJYG,2023-05-16T07:17:00Z,43.98,-94.55,12.0,9.0,240,5,,10.0,30.100393,,,TRUE,TRUE,,,,,,,,,,,,,,,,,,,,,,,,,,,METAR,323.0
KHRO 160717Z AUTO 27003KT 10SM BKN011 BKN016 OVC033 20/19 A3004 RMK AO2 T02000194,KHRO,2023-05-16T07:17:00Z,36.27,-93.15,20.0,19.4,270,3,,10.0,30.041338,,,TRUE,TRUE,,,,,,,BKN,1100,BKN,1600,OVC,3300,,,MVFR,,,,,,,,,,,,METAR,417.0
KHQM 160717Z AUTO 22010KT 10SM OVC011 14/12 A3014 RMK AO2 T01440117,KHQM,2023-05-16T07:17:00Z,46.97,-123.93,14.4,11.7,220,10,,10.0,30.138779,,,TRUE,TRUE,,,,,,,OVC,1100,,,,,,,MVFR,,,,,,,,,,,,METAR,4.0
KDMO 160717Z AUTO 36007KT 2 1/2SM RA BR 16/15 A3006 RMK AO2 P0007 T01610150 $,KDMO,2023-05-16T07:17:00Z,38.72,-93.17,16.1,15.0,360,7,,2.5,30.059055,,,TRUE,TRUE,TRUE,,,,,RA BR,,,,,,,,,,,,,,,0.07,,,,,,METAR,271.0
KBBB 160717Z AUTO 29005KT 10SM CLR 12/06 A3009 RMK AO2,KBBB,2023-05-16T07:17:00Z,45.32,-95.65,12.0,6.0,290,5,,10.0,30.088583,,,TRUE,TRUE,,,,,,,CLR,,,,,,,,VFR,,,,,,,,,,,,SPECI,315.0
EHKD 160717Z AUTO 32011KT 280V010 9999 BKN022 11/06 Q1021 WHT TEMPO SCT020CB,EHKD,2023-05-16T07:17:00Z,52.92,4.77,11.0,6.0,320,11,,6.21,30.147638,,,TRUE,,,,,,,,BKN,2200,,,,,,,MVFR,,,,,,,,,,,,SPECI,1.0
SCAT 160716Z AUTO 11003KT 9999 BKN011/// 11/09 Q1016,SCAT,2023-05-16T07:16:00Z,-27.27,-70.77,11.0,9.0,110,3,,6.21,30.0,,,TRUE,,,,,,,,BKN,1100,,,,,,,MVFR,,,,,,,,,,,,SPECI,209.0
SARP 160716Z 00000KT 0800 FG NSC 15/14 Q1017,SARP,2023-05-16T07:16:00Z,-27.38,-55.97,15.0,14.0,0,0,,0.5,30.029528,,,,,,,,,,FG,CLR,,,,,,,,LIFR,,,,,,,,,,,,SPECI,123.0
PAMK 160716Z AUTO 06008KT 10SM -RA FEW024 OVC033 01/01 A2987 RMK AO2 P0001 FZRANO,PAMK,2023-05-16T07:16:00Z,63.48,-162.12,1.0,1.0,60,8,,10.0,29.870079,,,TRUE,TRUE,,,,TRUE,,-RA,FEW,2400,OVC,3300,,,,,VFR,,,,,,0.01,,,,,,METAR,31.0
PAKH 160716Z AUTO 10SM SCT007 SCT017 OVC023 06/05 A3009 RMK AO2 RAB0657E07 P0000 TSNO $,PAKH,2023-05-16T07:16:00Z,56.93,-154.18,6.0,5.0,,,,10.0,30.088583,,,TRUE,TRUE,TRUE,,TRUE,,,,SCT,700,SCT,1700,OVC,2300,,,MVFR,,,,,,0.005,,,,,,SPECI,15.0
KSHN 160716Z AUTO 24014G25KT 10SM OVC010 13/11 A3008 RMK AO2 T01330111 $,KSHN,2023-05-16T07:16:00Z,47.23,-123.13,13.3,11.1,240,14,25,10.0,30.079725,,,TRUE,TRUE,TRUE,,,,,,OVC,1000,,,,,,,MVFR,,,,,,,,,,,,METAR,84.0
KFAM 160716Z AUTO 02007KT 9SM SCT006 BKN012 OVC085 19/18 A2998 RMK AO2 RAE05 PNO $,KFAM,2023-05-16T07:16:00Z,37.77,-90.42,19.0,18.0,20,7,,9.0,29.97933,,,TRUE,TRUE,TRUE,,,,,,SCT,600,BKN,1200,OVC,8500,,,MVFR,,,,,,,,,,,,METAR,276.0
KCQM 160716Z AUTO 27003KT 10SM CLR 13/02 A2993 RMK AO2,KCQM,2023-05-16T07:16:00Z,47.82,-92.68,13.0,2.0,270,3,,10.0,29.929134,,,TRUE,TRUE,,,,,,,CLR,,,,,,,,VFR,,,,,,,,,,,,METAR,406.0
KCOU 160716Z AUTO 01006KT 2SM +RA BR FEW005 BKN009 OVC023 17/16 A3004 RMK AO2 P0033 T01670156,KCOU,2023-05-16T07:16:00Z,38.82,-92.22,16.7,15.6,10,6,,2.0,30.041338,,,TRUE,TRUE,,,,,,+RA BR,FEW,500,BKN,900,OVC,2300,,,IFR,,,,,,0.33,,,,,,METAR,272.0
KAUM 160716Z AUTO 25003KT 10SM CLR 12/08 A3010 RMK AO2,KAUM,2023-05-16T07:16:00Z,43.67,-92.92,12.0,8.0,250,3,,10.0,30.100393,,,TRUE,TRUE,,,,,,,CLR,,,,,,,,VFR,,,,,,,,,,,,METAR,376.0
K40B 160716Z AUTO VRB04KT 10/05 A2959 RMK AO1 SLP020 T00970048 58010,K40B,2023-05-16T07:16:00Z,46.62,-69.52,9.7,4.8,0,4,,,29.589567,1002.0,,TRUE,TRUE,,,,,,,,,,,,,,,,-1.0,,,,,,,,,,,METAR,344.0
EBDT 160716Z AUTO 01011KT 9999 SCT023/// 10/05 Q1022 WHT,EBDT,2023-05-16T07:16:00Z,51.02,5.07,10.0,5.0,10,11,,6.21,30.177166,,,TRUE,,,,,,,,SCT,2300,,,,,,,VFR,,,,,,,,,,,,SPECI,25.0
TJPS 160715Z AUTO 00000KT 10SM CLR 24/19 A2998 RMK AO2 TSNO,TJPS,2023-05-16T07:15:00Z,18.02,-66.57,24.0,19.0,0,0,,10.0,29.97933,,,TRUE,TRUE,,,TRUE,,,,CLR,,,,,,,,VFR,,,,,,,,,,,,METAR,12.0
PAAD 160715Z AUTO 28013KT 10SM OVC009 M05/M06 A3029 RMK AO2 T10461057 PWINO,PAAD,2023-05-16T07:15:00Z,70.13,-146.28,-4.6,-5.7,280,13,,10.0,30.28937,,,TRUE,TRUE,,,,,TRUE,,OVC,900,,,,,,,IFR,,,,,,,,,,,,METAR,8.0
LMML 160715Z 27019KT 220V300 9999 FEW017 18/14 Q1007 NOSIG,LMML,2023-05-16T07:15:00Z,35.85,14.47,18.0,14.0,270,19,,6.21,29.734253,,,,,,TRUE,,,,,FEW,1700,,,,,,,VFR,,,,,,,,,,,,METAR,78.0
LIRP 160715Z 04005KT 9999 SCT040 BKN080 15/11 Q0999 NOSIG,LIRP,2023-05-16T07:15:00Z,43.68,10.38,15.0,11.0,40,5,,6.21,29.498032,,,,,,TRUE,,,,,SCT,4000,BKN,8000,,,,,VFR,,,,,,,,,,,,METAR,1.0
LHSN 160715Z 05008KT 8000 -RA BKN004 OVC050 15/15 Q1010 TEMPO NSW RMK YLO,LHSN,2023-05-16T07:15:00Z,47.12,20.23,15.0,15.0,50,8,,4.97,29.822834,,,,,,,,,,-RA,BKN,400,OVC,5000,,,,,LIFR,,,,,,,,,,,,METAR,89.0
KZPH 160715Z AUTO 00000KT 10SM OVC070 21/19 A3007 RMK A02 T02120187,KZPH,2023-05-16T07:15:00Z,28.23,-82.15,21.2,18.7,0,0,,10.0,30.070866,,,TRUE,TRUE,,,,,,,OVC,7000,,,,,,,VFR,,,,,,,,,,,,METAR,26.0
KZER 160715Z AUTO 28006KT 10SM CLR 11/03 A2998 RMK AO2,KZER,2023-05-16T07:15:00Z,40.7,-76.37,11.0,3.0,280,6,,10.0,29.97933,,,TRUE,TRUE,,,,,,,CLR,,,,,,,,VFR,,,,,,,,,,,,METAR,518.0
KY70 160715Z AUTO 25005KT 10SM CLR 08/M02 A2999 RMK AO2 T00811023,KY70,2023-05-16T07:15:00Z,42.93,-85.07,8.1,-2.3,250,5,,10.0,29.991142,,,TRUE,TRUE,,,,,,,CLR,,,,,,,,VFR,,,,,,,,,,,,METAR,247.0
KY63 160715Z AUTO 27008KT 10SM CLR 12/07 A3008 RMK AO2 T01200065,KY63,2023-05-16T07:15:00Z,45.98,-96.0,12.0,6.5,270,8,,10.0,30.079725,,,TRUE,TRUE,,,,,,,CLR,,,,,,,,VFR,,,,,,,,,,,,METAR,367.0
KY51 160715Z AUTO 00000KT 10SM CLR 12/08 A3007 RMK AO1 T01160080,KY51,2023-05-16T07:15:00Z,43.58,-90.9,11.6,8.0,0,0,,10.0,30.070866,,,TRUE,TRUE,,,,,,,CLR,,,,,,,,VFR,,,,,,,,,,,,SPECI,390.0
KY49 160715Z AUTO 26006KT 10SM CLR 15/02 A3000 RMK AO2 T01540024,KY49,2023-05-16T07:15:00Z,47.15,-94.65,15.4,2.4,260,6,,10.0,30.0,,,TRUE,TRUE,,,,,,,CLR,,,,,,,,VFR,,,,,,,,,,,,METAR,413.0
KY31 160715Z AUTO 22004KT 10SM CLR 09/M02 A2992 RMK AO2 T00871020,KY31,2023-05-16T07:15:00Z,44.25,-84.18,8.7,-2.0,220,4,,10.0,29.920275,,,TRUE,TRUE,,,,,,,CLR,,,,,,,,VFR,,,,,,,,,,,,METAR,264.0
KY23 160715Z AUTO 00000KT 10SM CLR 12/08 A3002 RMK AO2 T01230080,KY23,2023-05-16T07:15:00Z,45.3,-91.63,12.3,8.0,0,0,,10.0,30.02067,,,TRUE,TRUE,,,,,,,CLR,,,,,,,,VFR,,,,,,,,,,,,METAR,322.0
KY19 160715Z AUTO 25007KT 10SM CLR 12/06 A3015 RMK AO2,KY19,2023-05-16T07:15:00Z,46.77,-100.9,12.0,6.0,250,7,,10.0,30.15059,,,TRUE,TRUE,,,,,,,CLR,,,,,,,,VFR,,,,,,,,,,,,METAR,591.0
KXSA 160715Z AUTO 00000KT 10SM OVC060 16/15 A3003 RMK AO2 T01590147,KXSA,2023-05-16T07:15:00Z,37.87,-76.9,15.9,14.7,0,0,,10.0,30.029528,,,TRUE,TRUE,,,,,,,OVC,6000,,,,,,,VFR,,,,,,,,,,,,METAR,41.0
KXNX 160715Z AUTO 00000KT 5SM BR CLR 20/20 A3006 RMK A01,KXNX,2023-05-16T07:15:00Z,36.38,-86.42,20.0,20.0,0,0,,5.0,30.059055,,,TRUE,TRUE,,,,,,BR,CLR,,,,,,,,MVFR,,,,,,,,,,,,SPECI,178.0
KXLL 160715Z AUTO 21005KT 10SM CLR 12/07 A2995 RMK AO2,KXLL,2023-05-16T07:15:00Z,40.57,-75.48,12.0,7.0,210,5,,10.0,29.949802,,,TRUE,TRUE,,,,,,,CLR,,,,,,,,VFR,,,,,,,,,,,,METAR,118.0
KX60 160715Z AUTO 00000KT 20/19 A3007 RMK AO2,KX60,2023-05-16T07:15:00Z,29.35,-82.47,20.0,19.0,0,0,,,30.070866,,,TRUE,TRUE,,,,,,,,,,,,,,,,,,,,,,,,,,,METAR,21.0
KX07 160715Z AUTO 00000KT 10SM BKN023 BKN029 BKN034 19/19 A3006 RMK A01,KX07,2023-05-16T07:15:00Z,27.9,-81.62,19.0,19.0,0,0,,10.0,30.059055,,,TRUE,TRUE,,,,,,,BKN,2300,BKN,2900,BKN,3400,,,MVFR,,,,,,,,,,,,METAR,36.0
KWYS 160715Z AUTO 00000KT 10SM BKN060 OVC070 05/06 A3033 RMK AO2,KWYS,2023-05-16T07:15:00Z,44.68,-111.12,5.0,6.0,0,0,,10.0,30.33071,,,TRUE,TRUE,,,,,,,BKN,6000,OVC,7000,,,,,VFR,,,,,,,,,,,,METAR,2025.0
KWWR 160715Z AUTO 01003KT 10SM OVC034 15/11 A3024 RMK AO2,KWWR,2023-05-16T07:15:00Z,36.45,-99.52,15.0,11.0,10,3,,10.0,30.239174,,,TRUE,TRUE,,,,,,,OVC,3400,,,,,,,VFR,,,,,,,,,,,,METAR,664.0
KWDR 160715Z AUTO 00000KT 10SM CLR 20/18 A3010 RMK AO2,KWDR,2023-05-16T07:15:00Z,33.98,-83.67,20.0,18.0,0,0,,10.0,30.100393,,,TRUE,TRUE,,,,,,,CLR,,,,,,,,VFR,,,,,,,,,,,,METAR,280.0
KWDG 160715Z AUTO 35006KT 15/14 A3015 RMK AO2 PWINO,KWDG,2023-05-16T07:15:00Z,36.37,-97.78,15.0,14.0,350,6,,,30.15059,,,TRUE,TRUE,,,,,TRUE,,,,,,,,,,,,,,,,,,,,,,SPECI,352.0
KW96 160715Z AUTO 00000KT 10SM OVC060 17/13 A3003 RMK AO1 T01680134,KW96,2023-05-16T07:15:00Z,37.5,-77.12,16.8,13.4,0,0,,10.0,30.029528,,,TRUE,TRUE,,,,,,,OVC,6000,,,,,,,VFR,,,,,,,,,,,,METAR,35.0
KW81 160715Z AUTO 00000KT 10SM BKN055 OVC075 15/13 A3005 RMK AO1 T01470133,KW81,2023-05-16T07:15:00Z,37.18,-78.1,14.7,13.3,0,0,,10.0,30.050198,,,TRUE,TRUE,,,,,,,BKN,5500,OVC,7500,,,,,VFR,,,,,,,,,,,,METAR,121.0
KW78 160715Z AUTO 00000KT 7SM BKN075 OVC080 16/15 A3006 RMK AO1 T01560147,KW78,2023-05-16T07:15:00Z,36.7,-78.85,15.6,14.7,0,0,,7.0,30.059055,,,TRUE,TRUE,,,,,,,BKN,7500,OVC,8000,,,,,VFR,,,,,,,,,,,,SPECI,120.0
KW75 160715Z AUTO 21003KT 10SM OVC055 17/13 A3003 RMK AO1 T01670125,KW75,2023-05-16T07:15:00Z,37.6,-76.45,16.7,12.5,210,3,,10.0,30.029528,,,TRUE,TRUE,,,,,,,OVC,5500,,,,,,,VFR,,,,,,,,,,,,METAR,8.0
KW63 160715Z AUTO 19003KT 10SM BKN055 BKN080 OVC110 16/16 A3006 RMK AO1,KW63,2023-05-16T07:15:00Z,36.6,-78.55,16.0,16.0,190,3,,10.0,30.059055,,,TRUE,TRUE,,,,,,,BKN,5500,BKN,8000,OVC,11000,,,VFR,,,,,,,,,,,,METAR,126.0
KW43 160715Z AUTO 00000KT 10SM CLR 11/06 A3020 RMK AO2,KW43,2023-05-16T07:15:00Z,44.67,-104.57,11.0,6.0,0,0,,10.0,30.200787,,,TRUE,TRUE,,,,,,,CLR,,,,,,,,VFR,,,,,,,,,,,,METAR,1292.0
KW31 160715Z AUTO 00000KT 10SM BKN055 OVC070 A3005 RMK AO1,KW31,2023-05-16T07:15:00Z,36.95,-78.18,,,0,0,,10.0,30.050198,,,TRUE,TRUE,,,,,,,BKN,5500,OVC,7000,,,,,VFR,,,,,,,,,,,,SPECI,159.0
KW22 160715Z AUTO 00000KT 10SM OVC065 13/13 A3004 RMK AO2,KW22,2023-05-16T07:15:00Z,39.0,-80.27,13.0,13.0,0,0,,10.0,30.041338,,,TRUE,TRUE,,,,,,,OVC,6500,,,,,,,VFR,,,,,,,,,,,,METAR,497.0
KW13 160715Z AUTO 25004KT 10SM BKN026 OVC065 16/12 A3005 RMK AO1 T01570123,KW13,2023-05-16T07:15:00Z,38.08,-78.95,15.7,12.3,250,4,,10.0,30.050198,,,TRUE,TRUE,,,,,,,BKN,2600,OVC,6500,,,,,MVFR,,,,,,,,,,,,METAR,440.0
KVYS 160715Z AUTO 00000KT 10SM CLR 14/11 A3005 RMK AO2 T01440106,KVYS,2023-05-16T07:15:00Z,41.35,-89.15,14.4,10.6,0,0,,10.0,30.050198,,,TRUE,TRUE,,,,,,,CLR,,,,,,,,VFR,,,,,,,,,,,,METAR,198.0
KVVV 160715Z AUTO 28005KT 10SM CLR 14/08 A3008 RMK AO2,KVVV,2023-05-16T07:15:00Z,45.3,-96.42,14.0,8.0,280,5,,10.0,30.079725,,,TRUE,TRUE,,,,,,,CLR,,,,,,,,VFR,,,,,,,,,,,,METAR,334.0
KVTP 160715Z AUTO 26010KT 10SM SCT080 04/M05 A3050 RMK AO2,KVTP,2023-05-16T07:15:00Z,37.5,-105.17,4.0,-5.0,260,10,,10.0,30.499016,,,TRUE,TRUE,,,,,,,SCT,8000,,,,,,,VFR,,,,,,,,,,,,METAR,3086.0
KVTI 160715Z AUTO 00000KT 10SM CLR 13/09 A3009 RMK AO2 T01320090,KVTI,2023-05-16T07:15:00Z,42.22,-92.02,13.2,9.0,0,0,,10.0,30.088583,,,TRUE,TRUE,,,,,,,CLR,,,,,,,,VFR,,,,,,,,,,,,METAR,256.0
KVQQ 160715Z AUTO 00000KT 5SM BR FEW003 BKN014 19/19 A3007 RMK AO2,KVQQ,2023-05-16T07:15:00Z,30.22,-81.88,19.0,19.0,0,0,,5.0,30.070866,,,TRUE,TRUE,,,,,,BR,FEW,300,BKN,1400,,,,,MVFR,,,,,,,,,,,,METAR,21.0
KVPC 160715Z AUTO 00000KT 8SM SCT018 20/19 A3007 RMK AO2,KVPC,2023-05-16T07:15:00Z,34.1,-84.85,20.0,19.0,0,0,,8.0,30.070866,,,TRUE,TRUE,,,,,,,SCT,1800,,,,,,,VFR,,,,,,,,,,,,SPECI,234.0
KVOA 160715Z AUTO 13006KT 6SM HZ CLR 27/23 A3004 RMK A01,KVOA,2023-05-16T07:15:00Z,29.23,-87.78,27.0,23.0,130,6,,6.0,30.041338,,,TRUE,TRUE,,,,,,HZ,CLR,,,,,,,,VFR,,,,,,,,,,,,METAR,53.0
KVNW 160715Z AUTO 00000KT 10SM CLR 11/07 A3003 RMK AO2,KVNW,2023-05-16T07:15:00Z,40.87,-84.62,11.0,7.0,0,0,,10.0,30.029528,,,TRUE,TRUE,,,,,,,CLR,,,,,,,,VFR,,,,,,,,,,,,METAR,238.0
KVNC 160715Z AUTO 06007KT 10SM CLR 23/20 A3004 RMK AO2,KVNC,2023-05-16T07:15:00Z,27.07,-82.43,23.0,20.0,60,7,,10.0,30.041338,,,TRUE,TRUE,,,,,,,CLR,,,,,,,,VFR,,,,,,,,,,,,METAR,4.0
KVLL 160715Z AUTO 24004KT 10SM CLR 12/04 A2999 RMK AO2 T01170035,KVLL,2023-05-16T07:15:00Z,42.55,-83.18,11.7,3.5,240,4,,10.0,29.991142,,,TRUE,TRUE,,,,,,,CLR,,,,,,,,VFR,,,,,,,,,,,,METAR,214.0
KVKY 160715Z AUTO 00000KT 10SM CLR A3006 RMK A01,KVKY,2023-05-16T07:15:00Z,29.25,-88.43,,,0,0,,10.0,30.059055,,,TRUE,TRUE,,,,,,,CLR,,,,,,,,VFR,,,,,,,,,,,,METAR,32.0
KVKS 160715Z AUTO 00000KT 10SM CLR 23/M37 A3002 RMK A01,KVKS,2023-05-16T07:15:00Z,32.23,-90.93,23.0,-37.0,0,0,,10.0,30.02067,,,TRUE,TRUE,,,,,,,CLR,,,,,,,,VFR,,,,,,,,,,,,METAR,31.0
KVJI 160715Z AUTO 00000KT 5SM BR OVC008 17/17 A3008 RMK AO2 T01720172,KVJI,2023-05-16T07:15:00Z,36.68,-82.03,17.2,17.2,0,0,,5.0,30.079725,,,TRUE,TRUE,,,,,,BR,OVC,800,,,,,,,IFR,,,,,,,,,,,,METAR,636.0
KVHN 160715Z AUTO 16005KT 10SM BKN050 OVC065 16/12 A3029 RMK AO2 T01630124,KVHN,2023-05-16T07:15:00Z,31.07,-104.78,16.3,12.4,160,5,,10.0,30.28937,,,TRUE,TRUE,,,,,,,BKN,5000,OVC,6500,,,,,VFR,,,,,,,,,,,,METAR,1200.0
KVGC 160715Z AUTO 00000KT 10SM CLR 05/00 A2990 RMK AO2,KVGC,2023-05-16T07:15:00Z,42.85,-75.57,5.0,0.0,0,0,,10.0,29.899607,,,TRUE,TRUE,,,,,,,CLR,,,,,,,,VFR,,,,,,,,,,,,METAR,346.0
KVER 160715Z AUTO 35004KT 5SM RA OVC015 17/17 A3006 RMK AO2 P0002 T01650165,KVER,2023-05-16T07:15:00Z,38.95,-92.68,16.5,16.5,350,4,,5.0,30.059055,,,TRUE,TRUE,,,,,,RA,OVC,1500,,,,,,,MVFR,,,,,,0.02,,,,,,METAR,209.0
KVDI 160715Z AUTO 00000KT 10SM BKN050 OVC055 20/19 A3009 RMK AO2,KVDI,2023-05-16T07:15:00Z,32.2,-82.37,20.0,19.0,0,0,,10.0,30.088583,,,TRUE,TRUE,,,,,,,BKN,5000,OVC,5500,,,,,VFR,,,,,,,,,,,,SPECI,81.0
KVDF 160715Z AUTO 00000KT 10SM BKN070 20/18 A3006 RMK AO2,KVDF,2023-05-16T07:15:00Z,28.02,-82.33,20.0,18.0,0,0,,10.0,30.059055,,,TRUE,TRUE,,,,,,,BKN,7000,,,,,,,VFR,,,,,,,,,,,,METAR,5.0
KVCV 160715Z AUTO 14007KT 10SM CLR 21/05 A3012 RMK AO2,KVCV,2023-05-16T07:15:00Z,34.58,-117.38,21.0,5.0,140,7,,10.0,30.121063,,,TRUE,TRUE,,,,,,,CLR,,,,,,,,VFR,,,,,,,,,,,,METAR,871.0
KVBW 160715Z AUTO 16004KT 10SM OVC080 15/15 A3003 RMK AO1 T01540154,KVBW,2023-05-16T07:15:00Z,38.37,-78.97,15.4,15.4,160,4,,10.0,30.029528,,,TRUE,TRUE,,,,,,,OVC,8000,,,,,,,VFR,,,,,,,,,,,,SPECI,362.0
KVBG 160715Z AUTO 32005KT 1SM R30/3500VP6000FT BR VV001 11/11 A3009 RMK AO2 VIS 3/8 RWY12 SLP193 TSNO $,KVBG,2023-05-16T07:15:00Z,34.73,-120.58,11.0,11.0,320,5,,1.0,30.088583,1019.3,,TRUE,TRUE,TRUE,,TRUE,,,BR,OVX,0,,,,,,,LIFR,,,,,,,,,,,100,METAR,96.0
KVAF 160715Z AUTO 08008KT 10SM FEW015 SCT020 SCT032 26/22 A3009 RMK A01,KVAF,2023-05-16T07:15:00Z,27.35,-94.63,26.0,22.0,80,8,,10.0,30.088583,,,TRUE,TRUE,,,,,,,FEW,1500,SCT,2000,SCT,3200,,,VFR,,,,,,,,,,,,METAR,38.0
KUYF 160715Z AUTO 26005KT 10SM CLR 13/10 A3002 RMK AO2,KUYF,2023-05-16T07:15:00Z,39.93,-83.47,13.0,10.0,260,5,,10.0,30.02067,,,TRUE,TRUE,,,,,,,CLR,,,,,,,,VFR,,,,,,,,,,,,METAR,326.0
KUXL 160715Z AUTO 32003KT 10SM CLR 22/21 A3006 RMK AO2 T02190206,KUXL,2023-05-16T07:15:00Z,30.13,-93.38,21.9,20.6,320,3,,10.0,30.059055,,,TRUE,TRUE,,,,,,,CLR,,,,,,,,VFR,,,,,,,,,,,,METAR,2.0
KUVA 160715Z AUTO 00000KT 10SM SCT120 19/19 A3014 RMK AO2 T01910191,KUVA,2023-05-16T07:15:00Z,29.22,-99.75,19.1,19.1,0,0,,10.0,30.138779,,,TRUE,TRUE,,,,,,,SCT,12000,,,,,,,VFR,,,,,,,,,,,,METAR,285.0
KUUV 160715Z AUTO 36004KT 4SM BR BKN004 BKN010 OVC016 17/17 A3002 RMK AO2,KUUV,2023-05-16T07:15:00Z,38.23,-91.17,17.0,17.0,360,4,,4.0,30.02067,,,TRUE,TRUE,,,,,,BR,BKN,400,BKN,1000,OVC,1600,,,LIFR,,,,,,,,,,,,METAR,284.0
KUTA 160715Z AUTO 24005KT 10SM CLR 23/22 A3000 RMK AO2 T02280218 $,KUTA,2023-05-16T07:15:00Z,34.68,-90.35,22.8,21.8,240,5,,10.0,30.0,,,TRUE,TRUE,TRUE,,,,,,CLR,,,,,,,,VFR,,,,,,,,,,,,METAR,58.0
KUSE 160715Z AUTO 00000KT 10SM FEW036 12/03 A3001 RMK AO2,KUSE,2023-05-16T07:15:00Z,41.62,-84.13,12.0,3.0,0,0,,10.0,30.008858,,,TRUE,TRUE,,,,,,,FEW,3600,,,,,,,VFR,,,,,,,,,,,,METAR,237.0
KUOX 160715Z AUTO 14005KT 10SM CLR 22/21 A3004 RMK AO2 LTG DSNT E,KUOX,2023-05-16T07:15:00Z,34.38,-89.53,22.0,21.0,140,5,,10.0,30.041338,,,TRUE,TRUE,,,,,,,CLR,,,,,,,,VFR,,,,,,,,,,,,METAR,123.0
KUNV 160715Z AUTO 00000KT 10SM SCT070 SCT080 09/00 A2999 RMK AO2 T00940000,KUNV,2023-05-16T07:15:00Z,40.85,-77.83,9.4,0.0,0,0,,10.0,29.991142,,,TRUE,TRUE,,,,,,,SCT,7000,SCT,8000,,,,,VFR,,,,,,,,,,,,METAR,365.0
KUNU 160715Z AUTO 00000KT 10SM CLR 10/04 A3004 RMK AO2 T00970043,KUNU,2023-05-16T07:15:00Z,43.42,-88.7,9.7,4.3,0,0,,10.0,30.041338,,,TRUE,TRUE,,,,,,,CLR,,,,,,,,VFR,,,,,,,,,,,,METAR,281.0
KUNI 160715Z AUTO 00000KT 10SM OVC060 12/11 A3002 RMK AO2 T01200110,KUNI,2023-05-16T07:15:00Z,39.22,-82.23,12.0,11.0,0,0,,10.0,30.02067,,,TRUE,TRUE,,,,,,,OVC,6000,,,,,,,VFR,,,,,,,,,,,,METAR,232.0
KUMP 160715Z AUTO 00000KT 10SM OVC110 16/15 A3003 RMK AO2 T01560153,KUMP,2023-05-16T07:15:00Z,39.93,-86.05,15.6,15.3,0,0,,10.0,30.029528,,,TRUE,TRUE,,,,,,,OVC,11000,,,,,,,VFR,,,,,,,,,,,,METAR,247.0
KULM 160715Z AUTO 24007KT 10SM CLR 13/08 A3009 RMK AO2,KULM,2023-05-16T07:15:00Z,44.32,-94.5,13.0,8.0,240,7,,10.0,30.088583,,,TRUE,TRUE,,,,,,,CLR,,,,,,,,VFR,,,,,,,,,,,,METAR,305.0
KUKT 160715Z AUTO 00000KT 10SM CLR 10/08 A2995 RMK A01,KUKT,2023-05-16T07:15:00Z,40.43,-75.38,10.0,8.0,0,0,,10.0,29.949802,,,TRUE,TRUE,,,,,,,CLR,,,,,,,,VFR,,,,,,,,,,,,METAR,156.0
KUKL 160715Z AUTO 34007KT 5SM BR OVC004 14/12 A3013 RMK AO2 T01350123,KUKL,2023-05-16T07:15:00Z,38.3,-95.73,13.5,12.3,340,7,,5.0,30.129921,,,TRUE,TRUE,,,,,,BR,OVC,400,,,,,,,LIFR,,,,,,,,,,,,METAR,357.0
KUES 160715Z AUTO 00000KT 10SM CLR 08/01 A3004 RMK AO2,KUES,2023-05-16T07:15:00Z,43.05,-88.25,8.0,1.0,0,0,,10.0,30.041338,,,TRUE,TRUE,,,,,,,CLR,,,,,,,,VFR,,,,,,,,,,,,METAR,273.0
KUCY 160715Z AUTO 20005KT 10SM SCT050 21/21 A2997 RMK A01,KUCY,2023-05-16T07:15:00Z,36.38,-88.98,21.0,21.0,200,5,,10.0,29.970472,,,TRUE,TRUE,,,,,,,SCT,5000,,,,,,,VFR,,,,,,,,,,,,SPECI,97.0
KUBE 160715Z AUTO 26007KT 10SM CLR 12/09 A3002 RMK AO2,KUBE,2023-05-16T07:15:00Z,45.5,-91.98,12.0,9.0,260,7,,10.0,30.02067,,,TRUE,TRUE,,,,,,,CLR,,,,,,,,VFR,,,,,,,,,,,,METAR,376.0
KU69 160715Z AUTO 28007KT 10SM CLR 10/04 A3034 RMK A01,KU69,2023-05-16T07:15:00Z,40.2,-110.38,10.0,4.0,280,7,,10.0,30.339567,,,TRUE,TRUE,,,,,,,CLR,,,,,,,,VFR,,,,,,,,,,,,METAR,1776.0
KU64 160715Z AUTO 24010KT 10SM CLR 09/04 A3039 RMK AO2 T00880041 $,KU64,2023-05-16T07:15:00Z,,,8.8,4.1,240,10,,10.0,30.389763,,,TRUE,TRUE,TRUE,,,,,,CLR,,,,,,,,VFR,,,,,,,,,,,,METAR,
KU42 160715Z AUTO 00000KT 10SM CLR 15/06 A3024 RMK AO1 T01520061,KU42,2023-05-16T07:15:00Z,40.62,-111.98,15.2,6.1,0,0,,10.0,30.239174,,,TRUE,TRUE,,,,,,,CLR,,,,,,,,VFR,,,,,,,,,,,,METAR,1399.0
KTZR 160715Z AUTO 25003KT 10SM CLR 12/10 A3002 RMK AO2 T01190100,KTZR,2023-05-16T07:15:00Z,39.9,-83.13,11.9,10.0,250,3,,10.0,30.02067,,,TRUE,TRUE,,,,,,,CLR,,,,,,,,VFR,,,,,,,,,,,,METAR,275.0
KTYQ 160715Z AUTO 00000KT 10SM OVC110 14/10 A3004 RMK AO2 T01400102,KTYQ,2023-05-16T07:15:00Z,40.03,-86.25,14.0,10.2,0,0,,10.0,30.041338,,,TRUE,TRUE,,,,,,,OVC,11000,,,,,,,VFR,,,,,,,,,,,,METAR,279.0
KTYL 160715Z AUTO 21007KT 10SM SCT110 13/07 A3032 RMK AO2,KTYL,2023-05-16T07:15:00Z,34.45,-110.12,13.0,7.0,210,7,,10.0,30.318897,,,TRUE,TRUE,,,,,,,SCT,11000,,,,,,,VFR,,,,,,,,,,,,METAR,1748.0
KTXW 160715Z AUTO 00000KT 10SM BKN065 20/20 A3008 RMK AO2 T02050197,KTXW,2023-05-16T07:15:00Z,26.18,-97.97,20.5,19.7,0,0,,10.0,30.079725,,,TRUE,TRUE,,,,,,,BKN,6500,,,,,,,VFR,,,,,,,,,,,,METAR,21.0
KTWT 160715Z AUTO 00000KT 10SM CLR 20/17 A2999 RMK AO2,KTWT,2023-05-16T07:15:00Z,37.55,-87.95,20.0,17.0,0,0,,10.0,29.991142,,,TRUE,TRUE,,,,,,,CLR,,,,,,,,VFR,,,,,,,,,,,,METAR,113.0
KTWM 160715Z AUTO 27006KT 10SM CLR 16/03 A2992 RMK AO2,KTWM,2023-05-16T07:15:00Z,47.05,-91.75,16.0,3.0,270,6,,10.0,29.920275,,,TRUE,TRUE,,,,,,,CLR,,,,,,,,VFR,,,,,,,,,,,,METAR,331.0
KTVY 160715Z AUTO 00000KT 10SM CLR 15/06 A3024 RMK AO2,KTVY,2023-05-16T07:15:00Z,40.62,-112.35,15.0,6.0,0,0,,10.0,30.239174,,,TRUE,TRUE,,,,,,,CLR,,,,,,,,VFR,,,,,,,,,,,,METAR,1310.0
KTVK 160715Z AUTO 00000KT 10SM FEW048 14/12 A3011 RMK AO2,KTVK,2023-05-16T07:15:00Z,40.68,-92.9,14.0,12.0,0,0,,10.0,30.109253,,,TRUE,TRUE,,,,,,,FEW,4800,,,,,,,VFR,,,,,,,,,,,,METAR,311.0
KTVI 160715Z AUTO 00000KT 7SM BKN002 20/20 A3008 RMK AO2,KTVI,2023-05-16T07:15:00Z,30.9,-83.88,20.0,20.0,0,0,,7.0,30.079725,,,TRUE,TRUE,,,,,,,BKN,200,,,,,,,LIFR,,,,,,,,,,,,METAR,74.0
KTTF 160715Z AUTO 00000KT 10SM CLR 09/04 A2999 RMK AO2 T00900043,KTTF,2023-05-16T07:15:00Z,41.93,-83.42,9.0,4.3,0,0,,10.0,29.991142,,,TRUE,TRUE,,,,,,,CLR,,,,,,,,VFR,,,,,,,,,,,,METAR,186.0
KTSP 160715Z AUTO 00000KT 10SM CLR 16/07 A3018 RMK AO2,KTSP,2023-05-16T07:15:00Z,35.13,-118.43,16.0,7.0,0,0,,10.0,30.180119,,,TRUE,TRUE,,,,,,,CLR,,,,,,,,VFR,,,,,,,,,,,,METAR,1209.0
KTQV 160715Z AUTO VRB06KT 10SM BKN070 OVC085 19/12 A3007 RMK A01,KTQV,2023-05-16T07:15:00Z,36.0,-78.93,19.0,12.0,0,6,,10.0,30.070866,,,TRUE,TRUE,,,,,,,BKN,7000,OVC,8500,,,,,VFR,,,,,,,,,,,,SPECI,230.0
KTQK 160715Z AUTO 32005KT 5SM BR CLR 08/08 A3025 RMK AO2 T00790076,KTQK,2023-05-16T07:15:00Z,38.47,-100.88,7.9,7.6,320,5,,5.0,30.250984,,,TRUE,TRUE,,,,,,BR,CLR,,,,,,,,MVFR,,,,,,,,,,,,METAR,906.0
KTQH 160715Z AUTO 29005KT 5SM BR OVC003 18/16 A3009 RMK AO2,KTQH,2023-05-16T07:15:00Z,35.93,-95.0,18.0,16.0,290,5,,5.0,30.088583,,,TRUE,TRUE,,,,,,BR,OVC,300,,,,,,,LIFR,,,,,,,,,,,,METAR,265.0
KTOC 160715Z AUTO 00000KT 10SM BKN037 BKN043 OVC065 20/18 A3009 RMK AO2 T01970182,KTOC,2023-05-16T07:15:00Z,34.6,-83.3,19.7,18.2,0,0,,10.0,30.088583,,,TRUE,TRUE,,,,,,,BKN,3700,BKN,4300,OVC,6500,,,VFR,,,,,,,,,,,,METAR,292.0
KTOB 160715Z AUTO 24007KT 10SM CLR 10/08 A3009 RMK AO2,KTOB,2023-05-16T07:15:00Z,44.02,-92.82,10.0,8.0,240,7,,10.0,30.088583,,,TRUE,TRUE,,,,,,,CLR,,,,,,,,VFR,,,,,,,,,,,,METAR,394.0
KTNU 160715Z AUTO 24005KT 10SM BKN065 OVC075 14/14 A3010 RMK A01,KTNU,2023-05-16T07:15:00Z,41.67,-93.02,14.0,14.0,240,5,,10.0,30.100393,,,TRUE,TRUE,,,,,,,BKN,6500,OVC,7500,,,,,VFR,,,,,,,,,,,,METAR,287.0
KTNB 160715Z AUTO 00000KT 4SM RA SCT011 SCT026 OVC032 15/15 A3013 RMK AO2 P0002 T01450145,KTNB,2023-05-16T07:15:00Z,36.2,-81.65,14.5,14.5,0,0,,4.0,30.129921,,,TRUE,TRUE,,,,,,RA,SCT,1100,SCT,2600,OVC,3200,,,MVFR,,,,,,0.02,,,,,,SPECI,958.0
KTMT 160715Z AUTO 14006KT 10SM CLR 07/03 A3031 RMK AO2 T00690031,KTMT,2023-05-16T07:15:00Z,39.47,-117.2,6.9,3.1,140,6,,10.0,30.31004,,,TRUE,TRUE,,,,,,,CLR,,,,,,,,VFR,,,,,,,,,,,,METAR,1748.0
KTMK 160715Z AUTO 00000KT 10SM OVC012 14/12 A3015 RMK AO2,KTMK,2023-05-16T07:15:00Z,45.42,-123.82,14.0,12.0,0,0,,10.0,30.15059,,,TRUE,TRUE,,,,,,,OVC,1200,,,,,,,MVFR,,,,,,,,,,,,METAR,8.0
KTME 160715Z AUTO 00000KT 10SM 22/21 A3008 RMK AO2,KTME,2023-05-16T07:15:00Z,29.8,-95.9,22.0,21.0,0,0,,10.0,30.079725,,,TRUE,TRUE,,,,,,,,,,,,,,,,,,,,,,,,,,,METAR,49.0
KTMA 160715Z AUTO 00000KT 6SM BR CLR 20/20 A3009 RMK AO2 T02030203 $,KTMA,2023-05-16T07:15:00Z,31.43,-83.48,20.3,20.3,0,0,,6.0,30.088583,,,TRUE,TRUE,TRUE,,,,,BR,CLR,,,,,,,,VFR,,,,,,,,,,,,METAR,105.0
KTKX 160715Z AUTO 22004KT 7SM FEW046 FEW065 FEW075 23/22 A2995 RMK AO2,KTKX,2023-05-16T07:15:00Z,36.22,-90.03,23.0,22.0,220,4,,7.0,29.949802,,,TRUE,TRUE,,,,,,,FEW,4600,FEW,6500,FEW,7500,,,VFR,,,,,,,,,,,,METAR,73.0
KTKV 160715Z AUTO 00000KT 10SM CLR 09/04 A2998 RMK AO2 T00860036 PWINO,KTKV,2023-05-16T07:15:00Z,45.47,-89.82,8.6,3.6,0,0,,10.0,29.97933,,,TRUE,TRUE,,,,,TRUE,,CLR,,,,,,,,VFR,,,,,,,,,,,,METAR,449.0
KTKC 160715Z AUTO 24012KT 10SM CLR 13/09 A3011 RMK AO2,KTKC,2023-05-16T07:15:00Z,44.25,-95.62,13.0,9.0,240,12,,10.0,30.109253,,,TRUE,TRUE,,,,,,,CLR,,,,,,,,VFR,,,,,,,,,,,,METAR,408.0
KTIP 160715Z AUTO 03003KT 10SM BKN085 OVC120 15/06 A3005 RMK AO2 T01480064,KTIP,2023-05-16T07:15:00Z,40.28,-88.15,14.8,6.4,30,3,,10.0,30.050198,,,TRUE,TRUE,,,,,,,BKN,8500,OVC,12000,,,,,VFR,,,,,,,,,,,,METAR,224.0
KTIF 160715Z AUTO 00000KT 4SM BR CLR 06/06 A3023 RMK AO2 T00640062,KTIF,2023-05-16T07:15:00Z,41.97,-100.57,6.4,6.2,0,0,,4.0,30.230314,,,TRUE,TRUE,,,,,,BR,CLR,,,,,,,,MVFR,,,,,,,,,,,,METAR,888.0
KTHA 160715Z AUTO 00000KT 5SM BR CLR 18/17 A3005 RMK A01,KTHA,2023-05-16T07:15:00Z,35.38,-86.25,18.0,17.0,0,0,,5.0,30.050198,,,TRUE,TRUE,,,,,,BR,CLR,,,,,,,,MVFR,,,,,,,,,,,,SPECI,333.0
KTEX 160715Z AUTO 13005KT 10SM CLR 05/01 A3053 RMK AO2,KTEX,2023-05-16T07:15:00Z,37.95,-107.9,5.0,1.0,130,5,,10.0,30.528543,,,TRUE,TRUE,,,,,,,CLR,,,,,,,,VFR,,,,,,,,,,,,METAR,2760.0
KTEW 160715Z AUTO 11004KT 10SM CLR 08/02 A2999 RMK AO2 T00830016,KTEW,2023-05-16T07:15:00Z,42.57,-84.42,8.3,1.6,110,4,,10.0,29.991142,,,TRUE,TRUE,,,,,,,CLR,,,,,,,,VFR,,,,,,,,,,,,METAR,281.0
KTCY 160715Z AUTO 34003KT 10SM CLR 19/14 A3001 RMK A01,KTCY,2023-05-16T07:15:00Z,37.68,-121.43,19.0,14.0,340,3,,10.0,30.008858,,,TRUE,TRUE,,,,,,,CLR,,,,,,,,VFR,,,,,,,,,,,,METAR,51.0
KTBX 160715Z AUTO 10SM CLR 11/04 A3040 RMK AO2,KTBX,2023-05-16T07:15:00Z,43.47,-108.23,11.0,4.0,,,,10.0,30.398623,,,TRUE,TRUE,,,,,,,CLR,,,,,,,,VFR,,,,,,,,,,,,METAR,2230.0
KTBR 160715Z AUTO 00000KT 2SM CLR 17/16 A3009 RMK AO2 VIS 1/2V5 T01650156 PWINO,KTBR,2023-05-16T07:15:00Z,32.48,-81.73,16.5,15.6,0,0,,2.0,30.088583,,,TRUE,TRUE,,,,,TRUE,,CLR,,,,,,,,IFR,,,,,,,,,,,,METAR,54.0
KTAZ 160715Z AUTO 00000KT 7SM SCT090 BKN120 17/16 A3002 RMK AO2 T01660161,KTAZ,2023-05-16T07:15:00Z,39.53,-89.33,16.6,16.1,0,0,,7.0,30.02067,,,TRUE,TRUE,,,,,,,SCT,9000,BKN,12000,,,,,VFR,,,,,,,,,,,,METAR,188.0
KT89 160715Z AUTO 00000KT 10SM CLR 19/15 A3017 RMK A01,KT89,2023-05-16T07:15:00Z,29.27,-103.68,19.0,15.0,0,0,,10.0,30.171259,,,TRUE,TRUE,,,,,,,CLR,,,,,,,,VFR,,,,,,,,,,,,METAR,801.0
KT82 160715Z AUTO 30003KT 10SM CLR 19/18 A3015 RMK AO2 T01850176,KT82,2023-05-16T07:15:00Z,30.25,-98.92,18.5,17.6,300,3,,10.0,30.15059,,,TRUE,TRUE,,,,,,,CLR,,,,,,,,VFR,,,,,,,,,,,,METAR,509.0
KT78 160715Z AUTO 00000KT 2SM BR BKN018 20/21 A3007 RMK AO2,KT78,2023-05-16T07:15:00Z,30.08,-94.7,20.0,21.0,0,0,,2.0,30.070866,,,TRUE,TRUE,,,,,,BR,BKN,1800,,,,,,,IFR,,,,,,,,,,,,METAR,21.0
KT74 160715Z AUTO 10SM BKN110 20/20 A3010 RMK AO2 T02050200,KT74,2023-05-16T07:15:00Z,30.57,-97.45,20.5,20.0,,,,10.0,30.100393,,,TRUE,TRUE,,,,,,,BKN,11000,,,,,,,VFR,,,,,,,,,,,,METAR,169.0
KT69 160715Z AUTO 00000KT 9SM CLR 23/23 A3009 RMK A01,KT69,2023-05-16T07:15:00Z,28.03,-97.55,23.0,23.0,0,0,,9.0,30.088583,,,TRUE,TRUE,,,,,,,CLR,,,,,,,,VFR,,,,,,,,,,,,METAR,15.0
KT41 160715Z AUTO 23005KT 10SM CLR 22/20 A3008 RMK AO2 T02220202,KT41,2023-05-16T07:15:00Z,29.67,-95.07,22.2,20.2,230,5,,10.0,30.079725,,,TRUE,TRUE,,,,,,,CLR,,,,,,,,VFR,,,,,,,,,,,,METAR,8.0
KT35 160715Z AUTO 00000KT 7SM BKN002 20/20 A3010 RMK AO2 T01980195,KT35,2023-05-16T07:15:00Z,30.88,-96.97,19.8,19.5,0,0,,7.0,30.100393,,,TRUE,TRUE,,,,,,,BKN,200,,,,,,,LIFR,,,,,,,,,,,,METAR,122.0
KT20 160715Z AUTO 00000KT 7SM CLR 21/21 A3008 RMK AO2 T02100206,KT20,2023-05-16T07:15:00Z,29.52,-97.47,21.0,20.6,0,0,,7.0,30.079725,,,TRUE,TRUE,,,,,,,CLR,,,,,,,,VFR,,,,,,,,,,,,METAR,107.0
KSZY 160715Z AUTO 00000KT 9SM CLR 19/19 A3002 RMK A01,KSZY,2023-05-16T07:15:00Z,35.2,-88.5,19.0,19.0,0,0,,9.0,30.02067,,,TRUE,TRUE,,,,,,,CLR,,,,,,,,VFR,,,,,,,,,,,,SPECI,184.0
KSZT 160715Z AUTO 20005KT 10SM OVC080 15/13 A3011 RMK AO2,KSZT,2023-05-16T07:15:00Z,48.3,-116.57,15.0,13.0,200,5,,10.0,30.109253,,,TRUE,TRUE,,,,,,,OVC,8000,,,,,,,VFR,,,,,,,,,,,,METAR,649.0
KSYN 160715Z AUTO 20004KT 10SM CLR 13/09 A3007 RMK AO2 T01250088,KSYN,2023-05-16T07:15:00Z,44.47,-93.02,12.5,8.8,200,4,,10.0,30.070866,,,TRUE,TRUE,,,,,,,CLR,,,,,,,,VFR,,,,,,,,,,,,METAR,280.0
KSYM 160715Z AUTO 00000KT 10SM OVC110 15/13 A3004 RMK AO2,KSYM,2023-05-16T07:15:00Z,38.22,-83.58,15.0,13.0,0,0,,10.0,30.041338,,,TRUE,TRUE,,,,,,,OVC,11000,,,,,,,VFR,,,,,,,,,,,,METAR,307.0
KSYI 160715Z AUTO 00000KT 10SM CLR 19/19 A3004 RMK A01,KSYI,2023-05-16T07:15:00Z,35.57,-86.45,19.0,19.0,0,0,,10.0,30.041338,,,TRUE,TRUE,,,,,,,CLR,,,,,,,,VFR,,,,,,,,,,,,SPECI,244.0
KSYF 160715Z AUTO 21003KT 10SM CLR A3025 RMK AO2 PWINO,KSYF,2023-05-16T07:15:00Z,39.77,-101.8,,,210,3,,10.0,30.250984,,,TRUE,TRUE,,,,,TRUE,,CLR,,,,,,,,VFR,,,,,,,,,,,,METAR,1041.0
KSXU 160715Z AUTO 00000KT 10SM CLR 13/10 A3032 RMK AO2 T01300095,KSXU,2023-05-16T07:15:00Z,34.93,-104.65,13.0,9.5,0,0,,10.0,30.318897,,,TRUE,TRUE,,,,,,,CLR,,,,,,,,VFR,,,,,,,,,,,,METAR,1465.0
KSXK 160715Z AUTO 28008KT 10SM FEW045 BKN120 12/08 A3014 RMK AO2,KSXK,2023-05-16T07:15:00Z,42.98,-96.17,12.0,8.0,280,8,,10.0,30.138779,,,TRUE,TRUE,,,,,,,FEW,4500,BKN,12000,,,,,VFR,,,,,,,,,,,,METAR,430.0
KSWW 160715Z AUTO 01004KT 10SM SCT021 18/16 A3022 RMK AO2 T01790157,KSWW,2023-05-16T07:15:00Z,32.47,-100.47,17.9,15.7,10,4,,10.0,30.221457,,,TRUE,TRUE,,,,,,,SCT,2100,,,,,,,VFR,,,,,,,,,,,,METAR,718.0
KSVE 160715Z AUTO 31005KT 10SM CLR 12/01 A3023 RMK AO2,KSVE,2023-05-16T07:15:00Z,40.37,-120.57,12.0,1.0,310,5,,10.0,30.230314,,,TRUE,TRUE,,,,,,,CLR,,,,,,,,VFR,,,,,,,,,,,,METAR,1263.0
KSVC 160715Z AUTO 11005KT 10SM BKN100 17/10 A3030 RMK AO2 T01700101,KSVC,2023-05-16T07:15:00Z,32.63,-108.15,17.0,10.1,110,5,,10.0,30.301182,,,TRUE,TRUE,,,,,,,BKN,10000,,,,,,,VFR,,,,,,,,,,,,METAR,1638.0
KSUZ 160715Z AUTO 00000KT 10SM CLR 22/22 A3001 RMK A01,KSUZ,2023-05-16T07:15:00Z,34.58,-92.48,22.0,22.0,0,0,,10.0,30.008858,,,TRUE,TRUE,,,,,,,CLR,,,,,,,,VFR,,,,,,,,,,,,METAR,114.0
KSUW 160715Z AUTO 22006KT 10SM CLR 12/03 A2995 RMK AO2 T01230027,KSUW,2023-05-16T07:15:00Z,46.68,-92.1,12.3,2.7,220,6,,10.0,29.949802,,,TRUE,TRUE,,,,,,,CLR,,,,,,,,VFR,,,,,,,,,,,,METAR,205.0
KSUN 160715Z AUTO 32010KT 10SM CLR 09/05 A3033 RMK AO2,KSUN,2023-05-16T07:15:00Z,43.5,-114.28,9.0,5.0,320,10,,10.0,30.33071,,,TRUE,TRUE,,,,,,,CLR,,,,,,,,VFR,,,,,,,,,,,,METAR,1619.0
KSUA 160715Z AUTO 26004KT 10SM SCT027 SCT034 22/19 A3004 RMK AO2 T02210192,KSUA,2023-05-16T07:15:00Z,27.18,-80.22,22.1,19.2,260,4,,10.0,30.041338,,,TRUE,TRUE,,,,,,,SCT,2700,SCT,3400,,,,,VFR,,,,,,,,,,,,METAR,4.0
KSTK 160715Z AUTO 21003KT 10SM CLR 08/08 A3022 RMK AO2,KSTK,2023-05-16T07:15:00Z,40.62,-103.27,8.0,8.0,210,3,,10.0,30.221457,,,TRUE,TRUE,,,,,,,CLR,,,,,,,,VFR,,,,,,,,,,,,METAR,1228.0
KSTF 160715Z AUTO 00000KT 10SM CLR 21/21 A3003 RMK AO2,KSTF,2023-05-16T07:15:00Z,33.43,-88.85,21.0,21.0,0,0,,10.0,30.029528,,,TRUE,TRUE,,,,,,,CLR,,,,,,,,VFR,,,,,,,,,,,,METAR,99.0
KSTE 160715Z AUTO 00000KT 10SM CLR 11/04 A3001 RMK AO2 T01100036,KSTE,2023-05-16T07:15:00Z,44.55,-89.53,11.0,3.6,0,0,,10.0,30.008858,,,TRUE,TRUE,,,,,,,CLR,,,,,,,,VFR,,,,,,,,,,,,METAR,335.0
KSRR 160715Z AUTO 20004KT 10SM BKN033 10/07 A3043 RMK AO2,KSRR,2023-05-16T07:15:00Z,33.47,-105.52,10.0,7.0,200,4,,10.0,30.431103,,,TRUE,TRUE,,,,,,,BKN,3300,,,,,,,VFR,,,,,,,,,,,,METAR,2063.0
KSRE 160715Z AUTO 32007KT 10SM OVC012 17/15 A3013 RMK AO2,KSRE,2023-05-16T07:15:00Z,35.27,-96.68,17.0,15.0,320,7,,10.0,30.129921,,,TRUE,TRUE,,,,,,,OVC,1200,,,,,,,MVFR,,,,,,,,,,,,SPECI,306.0
KSRB 160715Z AUTO 00000KT 2 1/2SM BR OVC038 17/17 A3006 RMK AO2 VIS 1/2V5,KSRB,2023-05-16T07:15:00Z,36.05,-85.53,17.0,17.0,0,0,,2.5,30.059055,,,TRUE,TRUE,,,,,,BR,OVC,3800,,,,,,,IFR,,,,,,,,,,,,SPECI,303.0
KSQL 160715Z AUTO 00000KT 8SM CLR 13/12 A3009 RMK AO2,KSQL,2023-05-16T07:15:00Z,37.52,-122.25,13.0,12.0,0,0,,8.0,30.088583,,,TRUE,TRUE,,,,,,,CLR,,,,,,,,VFR,,,,,,,,,,,,METAR,1.0
KSPK 160715Z AUTO 13014KT 10SM CLR 17/05 A3023 RMK AO2,KSPK,2023-05-16T07:15:00Z,40.15,-111.67,17.0,5.0,130,14,,10.0,30.230314,,,TRUE,TRUE,,,,,,,CLR,,,,,,,,VFR,,,,,,,,,,,,METAR,1381.0
KSPF 160715Z AUTO 00000KT 10SM CLR 10/06 A3019 RMK AO2,KSPF,2023-05-16T07:15:00Z,44.47,-103.78,10.0,6.0,0,0,,10.0,30.188976,,,TRUE,TRUE,,,,,,,CLR,,,,,,,,VFR,,,,,,,,,,,,METAR,1191.0
KSOW 160715Z AUTO 00000KT 10SM BKN110 11/06 A3035 RMK AO2,KSOW,2023-05-16T07:15:00Z,34.27,-110.0,11.0,6.0,0,0,,10.0,30.351377,,,TRUE,TRUE,,,,,,,BKN,11000,,,,,,,VFR,,,,,,,,,,,,METAR,1954.0
KSOA 160715Z AUTO 10SM 18/18 RMK AO2 PWINO,KSOA,2023-05-16T07:15:00Z,30.58,-100.65,18.0,18.0,,,,10.0,,,,TRUE,TRUE,,,,,TRUE,,,,,,,,,,,,,,,,,,,,,,METAR,654.0
KSNK 160715Z AUTO 03003KT 10SM CLR 18/16 A3022 RMK AO2 T01750158,KSNK,2023-05-16T07:15:00Z,32.7,-100.95,17.5,15.8,30,3,,10.0,30.221457,,,TRUE,TRUE,,,,,,,CLR,,,,,,,,VFR,,,,,,,,,,,,METAR,738.0
KSNC 160715Z AUTO 23006KT 10SM CLR A2986 RMK AO2,KSNC,2023-05-16T07:15:00Z,41.38,-72.5,,,230,6,,10.0,29.861221,,,TRUE,TRUE,,,,,,,CLR,,,,,,,,VFR,,,,,,,,,,,,METAR,114.0
KSMS 160715Z AUTO 00000KT 9SM CLR 15/15 A3010 RMK AO2,KSMS,2023-05-16T07:15:00Z,34.0,-80.37,15.0,15.0,0,0,,9.0,30.100393,,,TRUE,TRUE,,,,,,,CLR,,,,,,,,VFR,,,,,,,,,,,,METAR,53.0
KSME 160715Z AUTO 00000KT 7SM FEW015 SCT060 17/17 A3002 RMK AO2,KSME,2023-05-16T07:15:00Z,37.05,-84.62,17.0,17.0,0,0,,7.0,30.02067,,,TRUE,TRUE,,,,,,,FEW,1500,SCT,6000,,,,,VFR,,,,,,,,,,,,METAR,279.0
KSMD 160715Z AUTO 00000KT 10SM CLR 12/05 A3003 RMK A01,KSMD,2023-05-16T07:15:00Z,41.15,-85.15,12.0,5.0,0,0,,10.0,30.029528,,,TRUE,TRUE,,,,,,,CLR,,,,,,,,VFR,,,,,,,,,,,,METAR,252.0
KSLR 160715Z AUTO 00000KT 10SM CLR 21/21 A3009 RMK AO2 T02120205,KSLR,2023-05-16T07:15:00Z,33.17,-95.62,21.2,20.5,0,0,,10.0,30.088583,,,TRUE,TRUE,,,,,,,CLR,,,,,,,,VFR,,,,,,,,,,,,METAR,144.0
KSLO 160715Z AUTO 00000KT 10SM -DZ SCT048 BKN060 OVC075 19/16 A3001 RMK AO2 LTG DSNT S AND SW T01870161,KSLO,2023-05-16T07:15:00Z,38.65,-88.97,18.7,16.1,0,0,,10.0,30.008858,,,TRUE,TRUE,,,,,,-DZ,SCT,4800,BKN,6000,OVC,7500,,,VFR,,,,,,,,,,,,METAR,173.0
KSLH 160715Z AUTO 23011KT 10SM SCT120 13/03 A2983 RMK AO2,KSLH,2023-05-16T07:15:00Z,45.65,-84.52,13.0,3.0,230,11,,10.0,29.828741,,,TRUE,TRUE,,,,,,,SCT,12000,,,,,,,VFR,,,,,,,,,,,,METAR,193.0
KSLB 160715Z AUTO 28008KT 10SM SCT080 OVC120 12/07 A3014 RMK AO2,KSLB,2023-05-16T07:15:00Z,42.6,-95.23,12.0,7.0,280,8,,10.0,30.138779,,,TRUE,TRUE,,,,,,,SCT,8000,OVC,12000,,,,,VFR,,,,,,,,,,,,METAR,450.0
KSJX 160715Z AUTO 23010KT 10SM CLR 10/04 A2987 RMK AO2 T00970043,KSJX,2023-05-16T07:15:00Z,45.7,-85.57,9.7,4.3,230,10,,10.0,29.870079,,,TRUE,TRUE,,,,,,,CLR,,,,,,,,VFR,,,,,,,,,,,,METAR,202.0
KSJS 160715Z AUTO 00000KT 2 1/2SM BR SCT004 BKN042 OVC050 16/16 A3003 RMK AO2 T01560156,KSJS,2023-05-16T07:15:00Z,37.75,-82.63,15.6,15.6,0,0,,2.5,30.029528,,,TRUE,TRUE,,,,,,BR,SCT,400,BKN,4200,OVC,5000,,,IFR,,,,,,,,,,,,METAR,359.0
KSIK 160715Z AUTO 36005KT 10SM SCT012 SCT055 22/21 A2997 RMK AO2 P0001,KSIK,2023-05-16T07:15:00Z,36.9,-89.57,22.0,21.0,360,5,,10.0,29.970472,,,TRUE,TRUE,,,,,,,SCT,1200,SCT,5500,,,,,VFR,,,,,,0.01,,,,,,METAR,95.0
KSHL 160715Z AUTO 27003KT 10SM CLR 10/07 A3013 RMK AO2,KSHL,2023-05-16T07:15:00Z,43.22,-95.83,10.0,7.0,270,3,,10.0,30.129921,,,TRUE,TRUE,,,,,,,CLR,,,,,,,,VFR,,,,,,,,,,,,METAR,430.0
KSHD 160715Z AUTO 17003KT 10SM SCT080 OVC090 15/13 A3006 RMK AO2 T01500130,KSHD,2023-05-16T07:15:00Z,38.27,-78.9,15.0,13.0,170,3,,10.0,30.059055,,,TRUE,TRUE,,,,,,,SCT,8000,OVC,9000,,,,,VFR,,,,,,,,,,,,METAR,360.0
KSGS 160715Z AUTO 26006KT 10SM CLR 15/10 A3005 RMK AO2 T01520095,KSGS,2023-05-16T07:15:00Z,44.87,-93.03,15.2,9.5,260,6,,10.0,30.050198,,,TRUE,TRUE,,,,,,,CLR,,,,,,,,VFR,,,,,,,,,,,,METAR,250.0
KSFQ 160715Z AUTO 19003KT 10SM BKN060 OVC070 17/12 A3006 RMK AO2 T01700124,KSFQ,2023-05-16T07:15:00Z,36.68,-76.6,17.0,12.4,190,3,,10.0,30.059055,,,TRUE,TRUE,,,,,,,BKN,6000,OVC,7000,,,,,VFR,,,,,,,,,,,,METAR,19.0
KSEZ 160715Z AUTO 04009KT 10SM SCT120 20/07 A3023 RMK AO2,KSEZ,2023-05-16T07:15:00Z,34.85,-111.78,20.0,7.0,40,9,,10.0,30.230314,,,TRUE,TRUE,,,,,,,SCT,12000,,,,,,,VFR,,,,,,,,,,,,METAR,1455.0
KSET 160715Z AUTO 01006KT 10SM BKN025 OVC046 18/16 A3000 RMK AO2 T01780161,KSET,2023-05-16T07:15:00Z,38.93,-90.43,17.8,16.1,10,6,,10.0,30.0,,,TRUE,TRUE,,,,,,,BKN,2500,OVC,4600,,,,,MVFR,,,,,,,,,,,,METAR,133.0
KSEP 160715Z AUTO 00000KT 10SM CLR 20/18 A3015 RMK AO2 T01960182,KSEP,2023-05-16T07:15:00Z,32.22,-98.17,19.6,18.2,0,0,,10.0,30.15059,,,TRUE,TRUE,,,,,,,CLR,,,,,,,,VFR,,,,,,,,,,,,METAR,399.0
KSEM 160715Z AUTO 30004KT 10SM FEW023 SCT075 BKN120 22/21 A3003 RMK AO2,KSEM,2023-05-16T07:15:00Z,32.35,-86.98,22.0,21.0,300,4,,10.0,30.029528,,,TRUE,TRUE,,,,,,,FEW,2300,SCT,7500,BKN,12000,,,VFR,,,,,,,,,,,,SPECI,48.0
KSEF 160715Z AUTO 35003KT 10SM CLR 19/19 A3006 RMK AO2 T01940186,KSEF,2023-05-16T07:15:00Z,27.45,-81.35,19.4,18.6,350,3,,10.0,30.059055,,,TRUE,TRUE,,,,,,,CLR,,,,,,,,VFR,,,,,,,,,,,,METAR,17.0
KSEE 160715Z AUTO 28006KT 10SM CLR 13/12 A3003 RMK AO2,KSEE,2023-05-16T07:15:00Z,32.82,-116.97,13.0,12.0,280,6,,10.0,30.029528,,,TRUE,TRUE,,,,,,,CLR,,,,,,,,VFR,,,,,,,,,,,,METAR,113.0
KSDC 160715Z AUTO 24007KT 10SM CLR 12/M01 A2989 RMK AO2,KSDC,2023-05-16T07:15:00Z,43.23,-77.12,12.0,-1.0,240,7,,10.0,29.890747,,,TRUE,TRUE,,,,,,,CLR,,,,,,,,VFR,,,,,,,,,,,,METAR,127.0
KSDA 160715Z AUTO 00000KT 2SM -DZ FEW016 OVC028 13/13 A3013 RMK AO2,KSDA,2023-05-16T07:15:00Z,40.75,-95.42,13.0,13.0,0,0,,2.0,30.129921,,,TRUE,TRUE,,,,,,-DZ,FEW,1600,OVC,2800,,,,,IFR,,,,,,,,,,,,METAR,293.0
KSCX 160715Z AUTO 22006KT 10SM BKN004 OVC030 19/19 A3007 RMK A01,KSCX,2023-05-16T07:15:00Z,36.45,-84.58,19.0,19.0,220,6,,10.0,30.070866,,,TRUE,TRUE,,,,,,,BKN,400,OVC,3000,,,,,LIFR,,,,,,,,,,,,SPECI,462.0
KSCD 160715Z AUTO 00000KT 10SM BKN110 20/20 A3006 RMK AO2 T02010199,KSCD,2023-05-16T07:15:00Z,33.17,-86.3,20.1,19.9,0,0,,10.0,30.059055,,,TRUE,TRUE,,,,,,,BKN,11000,,,,,,,VFR,,,,,,,,,,,,METAR,164.0
KSBS 160715Z AUTO 06003KT 10SM CLR 05/05 A3038 RMK AO1 T00470047,KSBS,2023-05-16T07:15:00Z,40.52,-106.87,4.7,4.7,60,3,,10.0,30.380905,,,TRUE,TRUE,,,,,,,CLR,,,,,,,,VFR,,,,,,,,,,,,METAR,2097.0
KSBO 160715Z AUTO 00000KT 10SM OVC045 A3011 RMK AO2,KSBO,2023-05-16T07:15:00Z,32.62,-82.37,,,0,0,,10.0,30.109253,,,TRUE,TRUE,,,,,,,OVC,4500,,,,,,,VFR,,,,,,,,,,,,METAR,98.0
KSAZ 160715Z AUTO 25005KT 10SM CLR 16/04 A3004 RMK AO2,KSAZ,2023-05-16T07:15:00Z,46.37,-94.8,16.0,4.0,250,5,,10.0,30.041338,,,TRUE,TRUE,,,,,,,CLR,,,,,,,,VFR,,,,,,,,,,,,METAR,391.0
KSAR 160715Z AUTO 11007KT 7SM RA SCT027 BKN046 OVC080 18/18 A2999 RMK AO2 LTG DSNT SE P0004 T01760175,KSAR,2023-05-16T07:15:00Z,38.15,-89.7,17.6,17.5,110,7,,7.0,29.991142,,,TRUE,TRUE,,,,,,RA,SCT,2700,BKN,4600,OVC,8000,,,VFR,,,,,,0.04,,,,,,METAR,162.0
KSAA 160715Z AUTO 19004KT 10SM CLR 06/02 A3036 RMK AO2,KSAA,2023-05-16T07:15:00Z,41.45,-106.8,6.0,2.0,190,4,,10.0,30.360237,,,TRUE,TRUE,,,,,,,CLR,,,,,,,,VFR,,,,,,,,,,,,METAR,2093.0
KS71 160715Z AUTO 00000KT 10SM 16/12 A3004 ,KS71,2023-05-16T07:15:00Z,48.6,-109.25,16.0,12.0,0,0,,10.0,30.041338,,,TRUE,,,,,,,,,,,,,,,,,,,,,,,,,,,,METAR,736.0
KS52 160715Z AUTO 00000KT 10SM SCT100 SCT110 13/11 A3006 RMK AO2 T01320106,KS52,2023-05-16T07:15:00Z,48.42,-120.15,13.2,10.6,0,0,,10.0,30.059055,,,TRUE,TRUE,,,,,,,SCT,10000,SCT,11000,,,,,VFR,,,,,,,,,,,,METAR,517.0
KS39 160715Z AUTO 07005KT 10SM CLR 11/11 A3019 RMK AO2,KS39,2023-05-16T07:15:00Z,44.28,-120.9,11.0,11.0,70,5,,10.0,30.188976,,,TRUE,TRUE,,,,,,,CLR,,,,,,,,VFR,,,,,,,,,,,,METAR,987.0
KS33 160715Z AUTO 17005KT 10SM SCT110 A3016 RMK AO2,KS33,2023-05-16T07:15:00Z,44.67,-121.15,,,170,5,,10.0,30.159449,,,TRUE,TRUE,,,,,,,SCT,11000,,,,,,,VFR,,,,,,,,,,,,METAR,739.0
KS32 160715Z AUTO 27008KT 10SM OVC085 11/11 A3007 RMK AO2 TSNO,KS32,2023-05-16T07:15:00Z,47.42,-98.1,11.0,11.0,270,8,,10.0,30.070866,,,TRUE,TRUE,,,TRUE,,,,OVC,8500,,,,,,,VFR,,,,,,,,,,,,METAR,435.0
KS25 160715Z AUTO 00000KT 10SM FEW040 FEW046 BKN055 10/10 A3014 RMK AO2,KS25,2023-05-16T07:15:00Z,47.8,-103.25,10.0,10.0,0,0,,10.0,30.138779,,,TRUE,TRUE,,,,,,,FEW,4000,FEW,4600,BKN,5500,,,VFR,,,,,,,,,,,,METAR,632.0
KS24 160715Z AUTO 00000KT 10SM CLR 08/05 A3000 RMK AO2,KS24,2023-05-16T07:15:00Z,41.3,-83.03,8.0,5.0,0,0,,10.0,30.0,,,TRUE,TRUE,,,,,,,CLR,,,,,,,,VFR,,,,,,,,,,,,METAR,203.0
KS21 160715Z AUTO 24004KT 10SM FEW120 10/09 A3027 RMK AO2,KS21,2023-05-16T07:15:00Z,43.88,-121.45,10.0,9.0,240,4,,10.0,30.268702,,,TRUE,TRUE,,,,,,,FEW,12000,,,,,,,VFR,,,,,,,,,,,,METAR,1269.0
KS12 160715Z AUTO VRB03KT 10SM CLR 14/12 A3010 RMK AO2,KS12,2023-05-16T07:15:00Z,,,14.0,12.0,0,3,,10.0,30.100393,,,TRUE,TRUE,,,,,,,CLR,,,,,,,,VFR,,,,,,,,,,,,METAR,
KRZT 160715Z AUTO 00000KT 10SM CLR 13/13 A3003 RMK AO2 PWINO,KRZT,2023-05-16T07:15:00Z,39.43,-83.02,13.0,13.0,0,0,,10.0,30.029528,,,TRUE,TRUE,,,,,TRUE,,CLR,,,,,,,,VFR,,,,,,,,,,,,METAR,217.0
KRZR 160715Z AUTO 00000KT 1SM BR OVC004 19/19 A3005 RMK A01,KRZR,2023-05-16T07:15:00Z,35.22,-84.8,19.0,19.0,0,0,,1.0,30.050198,,,TRUE,TRUE,,,,,,BR,OVC,400,,,,,,,LIFR,,,,,,,,,,,,SPECI,259.0
KRZL 160715Z AUTO 00000KT 10SM OVC120 11/06 A3006 RMK AO2,KRZL,2023-05-16T07:15:00Z,40.95,-87.18,11.0,6.0,0,0,,10.0,30.059055,,,TRUE,TRUE,,,,,,,OVC,12000,,,,,,,VFR,,,,,,,,,,,,METAR,210.0
KRYN 160715Z AUTO VRB04KT 10SM FEW021 SCT032 BKN095 25/07 A3004 RMK AO2,KRYN,2023-05-16T07:15:00Z,32.15,-111.17,25.0,7.0,0,4,,10.0,30.041338,,,TRUE,TRUE,,,,,,,FEW,2100,SCT,3200,BKN,9500,,,VFR,,,,,,,,,,,,METAR,731.0
KRWV 160715Z AUTO 00000KT 10SM OVC003 20/19 A3010 RMK AO2 T02000194,KRWV,2023-05-16T07:15:00Z,30.52,-96.7,20.0,19.4,0,0,,10.0,30.100393,,,TRUE,TRUE,,,,,,,OVC,300,,,,,,,LIFR,,,,,,,,,,,,METAR,116.0
KRVL 160715Z AUTO 00000KT 10SM CLR 06/03 A2997 RMK AO2,KRVL,2023-05-16T07:15:00Z,40.68,-77.63,6.0,3.0,0,0,,10.0,29.970472,,,TRUE,TRUE,,,,,,,CLR,,,,,,,,VFR,,,,,,,,,,,,METAR,250.0
KRVJ 160715Z AUTO 00000KT 5SM HZ CLR 18/ A3009 RMK AO2 T0178////,KRVJ,2023-05-16T07:15:00Z,32.07,-82.15,17.8,,0,0,,5.0,30.088583,,,TRUE,TRUE,,,,,,HZ,CLR,,,,,,,,MVFR,,,,,,,,,,,,METAR,60.0
KRVF 160715Z AUTO 18004KT 10SM CLR 08/06 A3026 RMK AO2,KRVF,2023-05-16T07:15:00Z,45.53,-112.3,8.0,6.0,180,4,,10.0,30.259842,,,TRUE,TRUE,,,,,,,CLR,,,,,,,,VFR,,,,,,,,,,,,METAR,1445.0
KRUG 160715Z AUTO 26005KT 10SM CLR 11/08 A3007 RMK AO2,KRUG,2023-05-16T07:15:00Z,48.38,-100.02,11.0,8.0,260,5,,10.0,30.070866,,,TRUE,TRUE,,,,,,,CLR,,,,,,,,VFR,,,,,,,,,,,,METAR,469.0
KRTS 160715Z AUTO 35007KT 10SM CLR 09/02 A3027 RMK AO2,KRTS,2023-05-16T07:15:00Z,39.67,-119.88,9.0,2.0,350,7,,10.0,30.268702,,,TRUE,TRUE,,,,,,,CLR,,,,,,,,VFR,,,,,,,,,,,,METAR,1537.0
KRSN 160715Z AUTO 21005KT 9SM OVC220 22/22 A3004 RMK AO2 T02160216 $,KRSN,2023-05-16T07:15:00Z,32.52,-92.58,21.6,21.6,210,5,,9.0,30.041338,,,TRUE,TRUE,TRUE,,,,,,OVC,22000,,,,,,,VFR,,,,,,,,,,,,METAR,86.0
KRRT 160715Z AUTO 26005KT 10SM CLR 16/09 A2995 RMK AO2,KRRT,2023-05-16T07:15:00Z,48.93,-95.33,16.0,9.0,260,5,,10.0,29.949802,,,TRUE,TRUE,,,,,,,CLR,,,,,,,,VFR,,,,,,,,,,,,METAR,327.0
KRQO 160715Z AUTO 34006KT 7SM BR BKN019 OVC033 16/15 A3017 RMK AO2 T01650152,KRQO,2023-05-16T07:15:00Z,35.47,-98.0,16.5,15.2,340,6,,7.0,30.171259,,,TRUE,TRUE,,,,,,BR,BKN,1900,OVC,3300,,,,,MVFR,,,,,,,,,,,,METAR,431.0
KRQB 160715Z AUTO 00000KT 10SM CLR 04/01 A2998 RMK AO2 T00410008,KRQB,2023-05-16T07:15:00Z,43.72,-85.5,4.1,0.8,0,0,,10.0,29.97933,,,TRUE,TRUE,,,,,,,CLR,,,,,,,,VFR,,,,,,,,,,,,SPECI,282.0
KRPJ 160715Z AUTO 00000KT 10SM CLR 11/10 A3006 RMK AO2 T01060100 TSNO,KRPJ,2023-05-16T07:15:00Z,41.88,-89.08,10.6,10.0,0,0,,10.0,30.059055,,,TRUE,TRUE,,,TRUE,,,,CLR,,,,,,,,VFR,,,,,,,,,,,,METAR,234.0
KRPH 160715Z AUTO 36005KT 10SM FEW270 19/18 A3012 RMK AO2 T01890177 $,KRPH,2023-05-16T07:15:00Z,33.12,-98.55,18.9,17.7,360,5,,10.0,30.121063,,,TRUE,TRUE,TRUE,,,,,,FEW,27000,,,,,,,VFR,,,,,,,,,,,,METAR,341.0
KRPD 160715Z AUTO 25004KT 10SM CLR 13/09 A3003 RMK AO2 T01300091,KRPD,2023-05-16T07:15:00Z,45.42,-91.77,13.0,9.1,250,4,,10.0,30.029528,,,TRUE,TRUE,,,,,,,CLR,,,,,,,,VFR,,,,,,,,,,,,METAR,334.0
KROX 160715Z AUTO 27008KT 10SM CLR 17/06 A2995 RMK AO2,KROX,2023-05-16T07:15:00Z,48.85,-95.7,17.0,6.0,270,8,,10.0,29.949802,,,TRUE,TRUE,,,,,,,CLR,,,,,,,,VFR,,,,,,,,,,,,METAR,320.0
KROS 160715Z AUTO 24004KT 10SM BKN110 17/07 A3003 RMK AO2 T01710066,KROS,2023-05-16T07:15:00Z,45.7,-92.95,17.1,6.6,240,4,,10.0,30.029528,,,TRUE,TRUE,,,,,,,BKN,11000,,,,,,,VFR,,,,,,,,,,,,METAR,282.0
KRNP 160715Z AUTO 00000KT 10SM CLR 09/01 A2998 RMK AO2 T00850010,KRNP,2023-05-16T07:15:00Z,43.0,-84.13,8.5,1.0,0,0,,10.0,29.97933,,,TRUE,TRUE,,,,,,,CLR,,,,,,,,VFR,,,,,,,,,,,,METAR,224.0
KRNH 160715Z AUTO 22004KT 10SM CLR 12/11 A3004 RMK AO2 T01240111,KRNH,2023-05-16T07:15:00Z,45.15,-92.53,12.4,11.1,220,4,,10.0,30.041338,,,TRUE,TRUE,,,,,,,CLR,,,,,,,,VFR,,,,,,,,,,,,METAR,302.0
KRNC 160715Z AUTO 00000KT 1/4SM FG VV002 17/17 A3006 RMK A01,KRNC,2023-05-16T07:15:00Z,35.7,-85.85,17.0,17.0,0,0,,0.25,30.059055,,,TRUE,TRUE,,,,,,FG,OVX,0,,,,,,,LIFR,,,,,,,,,,,200,SPECI,310.0
KRMY 160715Z AUTO 00000KT 10SM CLR 09/02 A3001 RMK AO2 T00870021,KRMY,2023-05-16T07:15:00Z,42.25,-84.95,8.7,2.1,0,0,,10.0,30.008858,,,TRUE,TRUE,,,,,,,CLR,,,,,,,,VFR,,,,,,,,,,,,METAR,285.0
KRMN 160715Z AUTO 00000KT 10SM BKN100 20/15 A3001 RMK AO2 T01950152,KRMN,2023-05-16T07:15:00Z,38.4,-77.45,19.5,15.2,0,0,,10.0,30.008858,,,TRUE,TRUE,,,,,,,BKN,10000,,,,,,,VFR,,,,,,,,,,,,METAR,50.0
KRLD 160715Z AUTO 19006KT 10SM CLR 24/12 A3000 RMK AO2 T02350116,KRLD,2023-05-16T07:15:00Z,46.3,-119.3,23.5,11.6,190,6,,10.0,30.0,,,TRUE,TRUE,,,,,,,CLR,,,,,,,,VFR,,,,,,,,,,,,METAR,118.0
KRKW 160715Z AUTO 23006KT 7SM CLR 18/18 A3008 RMK A01,KRKW,2023-05-16T07:15:00Z,35.92,-84.68,18.0,18.0,230,6,,7.0,30.079725,,,TRUE,TRUE,,,,,,,CLR,,,,,,,,VFR,,,,,,,,,,,,SPECI,505.0
KRKR 160715Z AUTO 21004KT 10SM CLR 20/17 A3007 RMK AO2,KRKR,2023-05-16T07:15:00Z,35.02,-94.62,20.0,17.0,210,4,,10.0,30.070866,,,TRUE,TRUE,,,,,,,CLR,,,,,,,,VFR,,,,,,,,,,,,METAR,136.0
KRGK 160715Z AUTO 00000KT 10SM CLR 12/08 A3005 RMK AO2,KRGK,2023-05-16T07:15:00Z,44.58,-92.48,12.0,8.0,0,0,,10.0,30.050198,,,TRUE,TRUE,,,,,,,CLR,,,,,,,,VFR,,,,,,,,,,,,METAR,238.0
KRGA 160715Z AUTO 00000KT 10SM CLR 15/14 A3004 RMK AO2,KRGA,2023-05-16T07:15:00Z,37.63,-84.33,15.0,14.0,0,0,,10.0,30.041338,,,TRUE,TRUE,,,,,,,CLR,,,,,,,,VFR,,,,,,,,,,,,METAR,301.0
KREG 160715Z AUTO 00000KT 7SM CLR 21/20 A3005 RMK AO2 T02070203,KREG,2023-05-16T07:15:00Z,30.17,-90.93,20.7,20.3,0,0,,7.0,30.050198,,,TRUE,TRUE,,,,,,,CLR,,,,,,,,VFR,,,,,,,,,,,,METAR,3.0
KRDK 160715Z AUTO 00000KT 10SM FEW016 OVC025 13/12 A3014 RMK AO2,KRDK,2023-05-16T07:15:00Z,41.02,-95.27,13.0,12.0,0,0,,10.0,30.138779,,,TRUE,TRUE,,,,,,,FEW,1600,OVC,2500,,,,,MVFR,,,,,,,,,,,,METAR,317.0
KRCX 160715Z AUTO 24003KT 10SM CLR 13/08 A3002 RMK AO2 T01300075,KRCX,2023-05-16T07:15:00Z,45.5,-91.0,13.0,7.5,240,3,,10.0,30.02067,,,TRUE,TRUE,,,,,,,CLR,,,,,,,,VFR,,,,,,,,,,,,METAR,373.0
KRCV 160715Z AUTO 26011KT 10SM BKN110 09/04 A3044 RMK AO2 T00850040,KRCV,2023-05-16T07:15:00Z,37.72,-106.35,8.5,4.0,260,11,,10.0,30.43996,,,TRUE,TRUE,,,,,,,BKN,11000,,,,,,,VFR,,,,,,,,,,,,METAR,2418.0
KRCR 160715Z AUTO 00000KT 10SM CLR 11/07 A3004 RMK AO2,KRCR,2023-05-16T07:15:00Z,41.07,-86.18,11.0,7.0,0,0,,10.0,30.041338,,,TRUE,TRUE,,,,,,,CLR,,,,,,,,VFR,,,,,,,,,,,,METAR,240.0
KRCM 160715Z AUTO 34004KT 3SM BR OVC004 15/14 A3007 RMK AO2,KRCM,2023-05-16T07:15:00Z,38.78,-93.8,15.0,14.0,340,4,,3.0,30.070866,,,TRUE,TRUE,,,,,,BR,OVC,400,,,,,,,LIFR,,,,,,,,,,,,METAR,242.0
KRCE 160715Z AUTO 35007KT 10SM OVC035 16/15 A3015 RMK AO2,KRCE,2023-05-16T07:15:00Z,35.48,-97.82,16.0,15.0,350,7,,10.0,30.15059,,,TRUE,TRUE,,,,,,,OVC,3500,,,,,,,VFR,,,,,,,,,,,,METAR,412.0
KRBW 160715Z AUTO 00000KT 10SM CLR 16/16 A3009 RMK AO2,KRBW,2023-05-16T07:15:00Z,32.92,-80.63,16.0,16.0,0,0,,10.0,30.088583,,,TRUE,TRUE,,,,,,,CLR,,,,,,,,VFR,,,,,,,,,,,,METAR,30.0
KRBO 160715Z AUTO 00000KT 10SM CLR 23/22 A3010 RMK AO2 T02250222,KRBO,2023-05-16T07:15:00Z,27.78,-97.68,22.5,22.2,0,0,,10.0,30.100393,,,TRUE,TRUE,,,,,,,CLR,,,,,,,,VFR,,,,,,,,,,,,METAR,24.0
KRAW 160715Z AUTO 01005KT 2SM DZ OVC004 15/15 A3006 RMK AO2,KRAW,2023-05-16T07:15:00Z,38.35,-93.35,15.0,15.0,10,5,,2.0,30.059055,,,TRUE,TRUE,,,,,,DZ,OVC,400,,,,,,,LIFR,,,,,,,,,,,,METAR,285.0
KRAS 160715Z AUTO 00000KT 10SM OVC120 25/21 A3009 RMK AO2 T02510209,KRAS,2023-05-16T07:15:00Z,27.82,-97.08,25.1,20.9,0,0,,10.0,30.088583,,,TRUE,TRUE,,,,,,,OVC,12000,,,,,,,VFR,,,,,,,,,,,,METAR,3.0
KPZQ 160715Z AUTO 24009G18KT 10SM CLR 13/02 A2985 RMK AO2 T01320015,KPZQ,2023-05-16T07:15:00Z,45.4,-83.82,13.2,1.5,240,9,18,10.0,29.84941,,,TRUE,TRUE,,,,,,,CLR,,,,,,,,VFR,,,,,,,,,,,,METAR,199.0
KPYX 160715Z AUTO 00000KT 10SM CLR 10/09 A3024 RMK AO2 T00990087,KPYX,2023-05-16T07:15:00Z,36.42,-100.75,9.9,8.7,0,0,,10.0,30.239174,,,TRUE,TRUE,,,,,,,CLR,,,,,,,,VFR,,,,,,,,,,,,METAR,890.0
KPXE 160715Z AUTO 16005KT 10SM BKN019 OVC049 22/20 A3009 RMK AO2 T02150204,KPXE,2023-05-16T07:15:00Z,32.52,-83.77,21.5,20.4,160,5,,10.0,30.088583,,,TRUE,TRUE,,,,,,,BKN,1900,OVC,4900,,,,,MVFR,,,,,,,,,,,,METAR,126.0
KPWD 160715Z AUTO 12006KT 10SM CLR 14/04 A3012 RMK AO2,KPWD,2023-05-16T07:15:00Z,48.78,-104.52,14.0,4.0,120,6,,10.0,30.121063,,,TRUE,TRUE,,,,,,,CLR,,,,,,,,VFR,,,,,,,,,,,,METAR,690.0
KPWC 160715Z AUTO 00000KT 10SM CLR 11/05 A3005 RMK AO2,KPWC,2023-05-16T07:15:00Z,46.72,-94.38,11.0,5.0,0,0,,10.0,30.050198,,,TRUE,TRUE,,,,,,,CLR,,,,,,,,VFR,,,,,,,,,,,,SPECI,394.0
KPVW 160715Z AUTO 01003KT 10SM SCT037 13/12 A3027 RMK AO2 T01320115,KPVW,2023-05-16T07:15:00Z,34.17,-101.72,13.2,11.5,10,3,,10.0,30.268702,,,TRUE,TRUE,,,,,,,SCT,3700,,,,,,,VFR,,,,,,,,,,,,METAR,1029.0
KPVJ 160715Z AUTO 34003KT 10SM CLR 17/17 A3013 RMK AO2 T01710171,KPVJ,2023-05-16T07:15:00Z,34.72,-97.22,17.1,17.1,340,3,,10.0,30.129921,,,TRUE,TRUE,,,,,,,CLR,,,,,,,,VFR,,,,,,,,,,,,METAR,287.0
KPVF 160715Z AUTO 08008KT 10SM CLR 19/03 A3013 RMK AO1,KPVF,2023-05-16T07:15:00Z,38.72,-120.75,19.0,3.0,80,8,,10.0,30.129921,,,TRUE,TRUE,,,,,,,CLR,,,,,,,,VFR,,,,,,,,,,,,METAR,788.0
KPVE 160715Z AUTO 00000KT 8SM CLR 21/21 A3001 RMK A01,KPVE,2023-05-16T07:15:00Z,35.65,-88.2,21.0,21.0,0,0,,8.0,30.008858,,,TRUE,TRUE,,,,,,,CLR,,,,,,,,VFR,,,,,,,,,,,,SPECI,146.0
KPUJ 160715Z AUTO 00000KT 7SM CLR 18/18 A3007 RMK AO2,KPUJ,2023-05-16T07:15:00Z,33.92,-84.93,18.0,18.0,0,0,,7.0,30.070866,,,TRUE,TRUE,,,,,,,CLR,,,,,,,,VFR,,,,,,,,,,,,SPECI,385.0
KPTT 160715Z AUTO 35005KT 10SM BKN014 BKN019 OVC037 14/13 A3020 RMK AO2 T01350132,KPTT,2023-05-16T07:15:00Z,37.7,-98.75,13.5,13.2,350,5,,10.0,30.200787,,,TRUE,TRUE,,,,,,,BKN,1400,BKN,1900,OVC,3700,,,MVFR,,,,,,,,,,,,METAR,594.0
KPTS 160715Z AUTO 33006KT 5SM OVC004 16/16 A3007 RMK AO2 T01600160 PWINO,KPTS,2023-05-16T07:15:00Z,37.45,-94.73,16.0,16.0,330,6,,5.0,30.070866,,,TRUE,TRUE,,,,,TRUE,,OVC,400,,,,,,,LIFR,,,,,,,,,,,,METAR,286.0
KPTD 160715Z AUTO 21010KT 10SM BKN080 OVC090 13/01 A2976 RMK AO2,KPTD,2023-05-16T07:15:00Z,44.68,-74.95,13.0,1.0,210,10,,10.0,29.760826,,,TRUE,TRUE,,,,,,,BKN,8000,OVC,9000,,,,,VFR,,,,,,,,,,,,METAR,144.0
KPTB 160715Z AUTO 00000KT 10SM OVC055 16/15 A3006 RMK AO2 T01560147,KPTB,2023-05-16T07:15:00Z,37.17,-77.52,15.6,14.7,0,0,,10.0,30.059055,,,TRUE,TRUE,,,,,,,OVC,5500,,,,,,,VFR,,,,,,,,,,,,METAR,56.0
KPSO 160715Z AUTO 00000KT 10SM CLR 08/04 A3043 RMK AO2 T00760043,KPSO,2023-05-16T07:15:00Z,37.28,-107.05,7.6,4.3,0,0,,10.0,30.431103,,,TRUE,TRUE,,,,,,,CLR,,,,,,,,VFR,,,,,,,,,,,,METAR,2332.0
KPSN 160715Z AUTO 00000KT 1/4SM FG OVC006 20/20 A3007 RMK AO2,KPSN,2023-05-16T07:15:00Z,31.78,-95.7,20.0,20.0,0,0,,0.25,30.070866,,,TRUE,TRUE,,,,,,FG,OVC,600,,,,,,,LIFR,,,,,,,,,,,,METAR,124.0
KPSK 160715Z AUTO 00000KT 2SM BR SCT001 BKN013 OVC023 15/15 A3008 RMK AO2 T01450145,KPSK,2023-05-16T07:15:00Z,37.13,-80.67,14.5,14.5,0,0,,2.0,30.079725,,,TRUE,TRUE,,,,,,BR,SCT,100,BKN,1300,OVC,2300,,,IFR,,,,,,,,,,,,METAR,629.0
KPRS 160715Z AUTO 36004KT 10SM CLR 17/17 A3022 RMK AO2 T01720165,KPRS,2023-05-16T07:15:00Z,29.63,-104.35,17.2,16.5,360,4,,10.0,30.221457,,,TRUE,TRUE,,,,,,,CLR,,,,,,,,VFR,,,,,,,,,,,,METAR,890.0
KPRO 160715Z AUTO 31004KT 10SM OVC050 15/11 A3012 RMK AO2 T01460107,KPRO,2023-05-16T07:15:00Z,41.83,-94.17,14.6,10.7,310,4,,10.0,30.121063,,,TRUE,TRUE,,,,,,,OVC,5000,,,,,,,VFR,,,,,,,,,,,,METAR,308.0
KPRG 160715Z AUTO 01007KT 10SM OVC085 17/15 A3003 RMK AO2 T01650150,KPRG,2023-05-16T07:15:00Z,39.7,-87.67,16.5,15.0,10,7,,10.0,30.029528,,,TRUE,TRUE,,,,,,,OVC,8500,,,,,,,VFR,,,,,,,,,,,,METAR,197.0
KPPQ 160715Z AUTO 01004KT 10SM SCT038 BKN055 OVC070 17/13 A3005 RMK AO2 T01700130,KPPQ,2023-05-16T07:15:00Z,39.63,-90.78,17.0,13.0,10,4,,10.0,30.050198,,,TRUE,TRUE,,,,,,,SCT,3800,BKN,5500,OVC,7000,,,VFR,,,,,,,,,,,,METAR,215.0
KPPO 160715Z AUTO 00000KT 10SM CLR 07/06 A3004 RMK AO2 T00740058,KPPO,2023-05-16T07:15:00Z,41.57,-86.73,7.4,5.8,0,0,,10.0,30.041338,,,TRUE,TRUE,,,,,,,CLR,,,,,,,,VFR,,,,,,,,,,,,METAR,242.0
KPPA 160715Z AUTO 09004KT 10SM 13/13 A3026 RMK AO2 T01290125,KPPA,2023-05-16T07:15:00Z,35.62,-101.0,12.9,12.5,90,4,,10.0,30.259842,,,TRUE,TRUE,,,,,,,,,,,,,,,,,,,,,,,,,,,METAR,989.0
KPOY 160715Z AUTO 24004KT 10SM CLR 13/01 A3018 RMK AO2,KPOY,2023-05-16T07:15:00Z,44.87,-108.8,13.0,1.0,240,4,,10.0,30.180119,,,TRUE,TRUE,,,,,,,CLR,,,,,,,,VFR,,,,,,,,,,,,METAR,1547.0
KPOV 160715Z AUTO 00000KT 10SM CLR 06/00 A3000 RMK AO2 T00641003 PWINO,KPOV,2023-05-16T07:15:00Z,41.22,-81.25,6.4,-0.3,0,0,,10.0,30.0,,,TRUE,TRUE,,,,,TRUE,,CLR,,,,,,,,VFR,,,,,,,,,,,,METAR,363.0
KPNM 160715Z AUTO 00000KT 10SM CLR 14/07 A3004 RMK AO2,KPNM,2023-05-16T07:15:00Z,45.53,-93.6,14.0,7.0,0,0,,10.0,30.041338,,,TRUE,TRUE,,,,,,,CLR,,,,,,,,VFR,,,,,,,,,,,,METAR,298.0
KPNA 160715Z AUTO 00000KT 10SM CLR 06/01 A3038 RMK AO2,KPNA,2023-05-16T07:15:00Z,42.8,-109.8,6.0,1.0,0,0,,10.0,30.380905,,,TRUE,TRUE,,,,,,,CLR,,,,,,,,VFR,,,,,,,,,,,,METAR,2158.0
KPMV 160715Z AUTO 36004KT 10SM OVC035 12/10 A3015 RMK AO2 T01150103,KPMV,2023-05-16T07:15:00Z,40.95,-95.92,11.5,10.3,360,4,,10.0,30.15059,,,TRUE,TRUE,,,,,,,OVC,3500,,,,,,,VFR,,,,,,,,,,,,METAR,365.0
KPMU 160715Z AUTO 00000KT 3SM BR CLR 22/21 A3002 RMK AO2,KPMU,2023-05-16T07:15:00Z,34.37,-89.9,22.0,21.0,0,0,,3.0,30.02067,,,TRUE,TRUE,,,,,,BR,CLR,,,,,,,,MVFR,,,,,,,,,,,,METAR,67.0
KPLU 160715Z AUTO 00000KT 10SM FEW039 SCT065 BKN075 17/17 A3008 RMK AO2,KPLU,2023-05-16T07:15:00Z,47.1,-122.28,17.0,17.0,0,0,,10.0,30.079725,,,TRUE,TRUE,,,,,,,FEW,3900,SCT,6500,BKN,7500,,,VFR,,,,,,,,,,,,METAR,164.0
KPLR 160715Z AUTO 00000KT 6SM BR CLR 19/19 A3006 RMK A01,KPLR,2023-05-16T07:15:00Z,33.57,-86.25,19.0,19.0,0,0,,6.0,30.059055,,,TRUE,TRUE,,,,,,BR,CLR,,,,,,,,VFR,,,,,,,,,,,,METAR,145.0
KPKV 160715Z AUTO 00000KT 10SM CLR 24/22 A3008 RMK AO2 T02360223,KPKV,2023-05-16T07:15:00Z,28.65,-96.68,23.6,22.3,0,0,,10.0,30.079725,,,TRUE,TRUE,,,,,,,CLR,,,,,,,,VFR,,,,,,,,,,,,METAR,8.0
KPJC 160715Z AUTO 00000KT 10SM CLR 05/05 A3001 RMK AO2,KPJC,2023-05-16T07:15:00Z,40.8,-80.17,5.0,5.0,0,0,,10.0,30.008858,,,TRUE,TRUE,,,,,,,CLR,,,,,,,,VFR,,,,,,,,,,,,METAR,273.0
KPIM 160715Z AUTO 18004KT 10SM CLR 22/20 A3007 RMK AO2 T02200195,KPIM,2023-05-16T07:15:00Z,32.83,-84.88,22.0,19.5,180,4,,10.0,30.070866,,,TRUE,TRUE,,,,,,,CLR,,,,,,,,VFR,,,,,,,,,,,,METAR,274.0
KPHT 160715Z AUTO 19005KT 10SM BKN050 BKN055 20/20 A2999 RMK A01,KPHT,2023-05-16T07:15:00Z,36.33,-88.38,20.0,20.0,190,5,,10.0,29.991142,,,TRUE,TRUE,,,,,,,BKN,5000,BKN,5500,,,,,VFR,,,,,,,,,,,,SPECI,172.0
KPHN 160715Z AUTO 00000KT 10SM CLR 07/05 A2996 RMK AO2,KPHN,2023-05-16T07:15:00Z,42.92,-82.52,7.0,5.0,0,0,,10.0,29.958662,,,TRUE,TRUE,,,,,,,CLR,,,,,,,,VFR,,,,,,,,,,,,METAR,195.0
KPEZ 160715Z AUTO 00000KT 10SM CLR 20/19 A3011 RMK AO2 T02020192,KPEZ,2023-05-16T07:15:00Z,28.95,-98.52,20.2,19.2,0,0,,10.0,30.109253,,,TRUE,TRUE,,,,,,,CLR,,,,,,,,VFR,,,,,,,,,,,,METAR,126.0
KPEX 160715Z AUTO 26007KT 10SM CLR 11/06 A3007 RMK AO2,KPEX,2023-05-16T07:15:00Z,45.37,-94.73,11.0,6.0,260,7,,10.0,30.070866,,,TRUE,TRUE,,,,,,,CLR,,,,,,,,VFR,,,,,,,,,,,,METAR,359.0
KPEQ 160715Z AUTO 00000KT 10SM OVC110 19/15 A3020 RMK AO2 T01920148,KPEQ,2023-05-16T07:15:00Z,31.38,-103.52,19.2,14.8,0,0,,10.0,30.200787,,,TRUE,TRUE,,,,,,,OVC,11000,,,,,,,VFR,,,,,,,,,,,,METAR,794.0
KPEA 160715Z AUTO 00000KT 10SM -RA OVC065 15/12 A3011 RMK AO2 P0001 T01470121,KPEA,2023-05-16T07:15:00Z,41.4,-92.95,14.7,12.1,0,0,,10.0,30.109253,,,TRUE,TRUE,,,,,,-RA,OVC,6500,,,,,,,VFR,,,,,,0.01,,,,,,METAR,264.0
KPDC 160715Z AUTO 00000KT 10SM CLR 10/07 A3007 RMK AO2 T01010071,KPDC,2023-05-16T07:15:00Z,43.02,-91.12,10.1,7.1,0,0,,10.0,30.070866,,,TRUE,TRUE,,,,,,,CLR,,,,,,,,VFR,,,,,,,,,,,,METAR,201.0
KPCZ 160715Z AUTO 27007KT 10SM CLR 16/06 A3000 RMK AO2 T01550056,KPCZ,2023-05-16T07:15:00Z,44.33,-89.02,15.5,5.6,270,7,,10.0,30.0,,,TRUE,TRUE,,,,,,,CLR,,,,,,,,VFR,,,,,,,,,,,,METAR,248.0
KPCW 160715Z AUTO 00000KT 10SM FEW038 10/04 A2999 RMK AO2,KPCW,2023-05-16T07:15:00Z,41.52,-82.87,10.0,4.0,0,0,,10.0,29.991142,,,TRUE,TRUE,,,,,,,FEW,3800,,,,,,,VFR,,,,,,,,,,,,METAR,179.0
KPCM 160715Z AUTO 09003KT 10SM OVC075 A3008 RMK AO2,KPCM,2023-05-16T07:15:00Z,28.0,-82.17,,,90,3,,10.0,30.079725,,,TRUE,TRUE,,,,,,,OVC,7500,,,,,,,VFR,,,,,,,,,,,,METAR,43.0
KPCD 160715Z AUTO 12012G15KT 7SM -VCTSRA SCT005 BKN018 OVC085 19/19 A2996 RMK AO2 LTG DSNT NE THRU SE P0004 T01880188,KPCD,2023-05-16T07:15:00Z,37.87,-89.87,18.8,18.8,120,12,15,7.0,29.958662,,,TRUE,TRUE,,,,,,VCTS -RA,SCT,500,BKN,1800,OVC,8500,,,MVFR,,,,,,0.04,,,,,,METAR,112.0
KPBX 160715Z AUTO 00000KT 10SM OVC120 17/17 A3003 RMK AO2 T01700170,KPBX,2023-05-16T07:15:00Z,37.57,-82.57,17.0,17.0,0,0,,10.0,30.029528,,,TRUE,TRUE,,,,,,,OVC,12000,,,,,,,VFR,,,,,,,,,,,,METAR,447.0
KPBH 160715Z AUTO 00000KT 10SM CLR 13/04 A2999 RMK AO2 T01250035,KPBH,2023-05-16T07:15:00Z,45.7,-90.4,12.5,3.5,0,0,,10.0,29.991142,,,TRUE,TRUE,,,,,,,CLR,,,,,,,,VFR,,,,,,,,,,,,METAR,445.0
KPAN 160715Z AUTO 08004KT 10SM CLR 18/06 A3027 RMK AO2 PWINO TSNO,KPAN,2023-05-16T07:15:00Z,34.25,-111.33,18.0,6.0,80,4,,10.0,30.268702,,,TRUE,TRUE,,,TRUE,,TRUE,,CLR,,,,,,,,VFR,,,,,,,,,,,,METAR,1575.0
KP52 160715Z AUTO 22005KT 9SM -RA FEW006 SCT029 BKN075 20/11 A3016 RMK AO2,KP52,2023-05-16T07:15:00Z,34.73,-112.03,20.0,11.0,220,5,,9.0,30.159449,,,TRUE,TRUE,,,,,,-RA,FEW,600,SCT,2900,BKN,7500,,,VFR,,,,,,,,,,,,METAR,1085.0
KP08 160715Z AUTO 22006KT 10SM CLR 27/08 A2999 RMK AO2,KP08,2023-05-16T07:15:00Z,32.93,-111.43,27.0,8.0,220,6,,10.0,29.991142,,,TRUE,TRUE,,,,,,,CLR,,,,,,,,VFR,,,,,,,,,,,,METAR,477.0
KOZW 160715Z AUTO 00000KT 10SM CLR 08/03 A2999 RMK AO2 T00800026,KOZW,2023-05-16T07:15:00Z,42.62,-83.98,8.0,2.6,0,0,,10.0,29.991142,,,TRUE,TRUE,,,,,,,CLR,,,,,,,,VFR,,,,,,,,,,,,METAR,288.0
KOZS 160715Z AUTO 33008KT 1 1/2SM BR OVC002 17/17 A3004 RMK AO2,KOZS,2023-05-16T07:15:00Z,37.97,-92.68,17.0,17.0,330,8,,1.5,30.041338,,,TRUE,TRUE,,,,,,BR,OVC,200,,,,,,,LIFR,,,,,,,,,,,,METAR,321.0
KOZR 160715Z AUTO 08003KT 1 7/8SM BR FEW190 20/20 A3004 RMK AO2 VIS 1V1 7/8 SLP172,KOZR,2023-05-16T07:15:00Z,31.28,-85.72,20.0,20.0,80,3,,1.88,30.041338,1017.2,,TRUE,TRUE,,,,,,BR,FEW,19000,,,,,,,IFR,,,,,,,,,,,,METAR,90.0
KOZA 160715Z AUTO 30005KT 10SM OVC043 18/17 A3023 RMK AO2,KOZA,2023-05-16T07:15:00Z,30.73,-101.2,18.0,17.0,300,5,,10.0,30.230314,,,TRUE,TRUE,,,,,,,OVC,4300,,,,,,,VFR,,,,,,,,,,,,METAR,721.0
KOYM 160715Z AUTO 00000KT 10SM OVC100 08/M03 A3002 RMK AO2 PWINO,KOYM,2023-05-16T07:15:00Z,41.42,-78.5,8.0,-3.0,0,0,,10.0,30.02067,,,TRUE,TRUE,,,,,TRUE,,OVC,10000,,,,,,,VFR,,,,,,,,,,,,METAR,582.0
KOXV 160715Z AUTO 22004KT 10SM FEW046 OVC055 14/12 A3010 RMK AO2,KOXV,2023-05-16T07:15:00Z,41.28,-93.12,14.0,12.0,220,4,,10.0,30.100393,,,TRUE,TRUE,,,,,,,FEW,4600,OVC,5500,,,,,VFR,,,,,,,,,,,,METAR,280.0
KOXI 160715Z AUTO 00000KT 10SM CLR 08/08 A3004 RMK AO1,KOXI,2023-05-16T07:15:00Z,41.33,-86.67,8.0,8.0,0,0,,10.0,30.041338,,,TRUE,TRUE,,,,,,,CLR,,,,,,,,VFR,,,,,,,,,,,,METAR,208.0
KOXD 160715Z AUTO 00000KT 10SM BKN110 17/13 A3002 RMK AO2 T01720133,KOXD,2023-05-16T07:15:00Z,39.5,-84.78,17.2,13.3,0,0,,10.0,30.02067,,,TRUE,TRUE,,,,,,,BKN,11000,,,,,,,VFR,,,,,,,,,,,,METAR,317.0
KOWX 160715Z AUTO 00000KT 10SM CLR 10/04 A3003 RMK AO1,KOWX,2023-05-16T07:15:00Z,41.03,-83.98,10.0,4.0,0,0,,10.0,30.029528,,,TRUE,TRUE,,,,,,,CLR,,,,,,,,VFR,,,,,,,,,,,,METAR,232.0
KOWP 160715Z AUTO 33006KT 5SM OVC007 17/16 A3014 RMK AO2 T01710163,KOWP,2023-05-16T07:15:00Z,36.18,-96.15,17.1,16.3,330,6,,5.0,30.138779,,,TRUE,TRUE,,,,,,,OVC,700,,,,,,,IFR,,,,,,,,,,,,SPECI,267.0
KOWI 160715Z AUTO 32008KT 2SM BR BKN004 OVC009 15/15 A3009 RMK AO2,KOWI,2023-05-16T07:15:00Z,38.53,-95.25,15.0,15.0,320,8,,2.0,30.088583,,,TRUE,TRUE,,,,,,BR,BKN,400,OVC,900,,,,,LIFR,,,,,,,,,,,,SPECI,292.0
KOVL 160715Z AUTO 23003KT 10SM CLR 10/07 A3008 RMK AO2,KOVL,2023-05-16T07:15:00Z,44.78,-95.03,10.0,7.0,230,3,,10.0,30.079725,,,TRUE,TRUE,,,,,,,CLR,,,,,,,,VFR,,,,,,,,,,,,METAR,329.0
KOUN 160715Z AUTO 32009KT 10SM OVC014 17/15 A3013 RMK AO2 T01730152,KOUN,2023-05-16T07:15:00Z,35.25,-97.47,17.3,15.2,320,9,,10.0,30.129921,,,TRUE,TRUE,,,,,,,OVC,1400,,,,,,,MVFR,,,,,,,,,,,,METAR,359.0
KOSC 160715Z AUTO 23008KT 10SM CLR 10/M01 A2989 RMK AO2 T01001011,KOSC,2023-05-16T07:15:00Z,44.45,-83.4,10.0,-1.1,230,8,,10.0,29.890747,,,TRUE,TRUE,,,,,,,CLR,,,,,,,,VFR,,,,,,,,,,,,METAR,191.0
KOSA 160715Z AUTO 00000KT 5SM HZ CLR 21/ A3006 RMK AO2 T0206////,KOSA,2023-05-16T07:15:00Z,33.1,-94.97,20.6,,0,0,,5.0,30.059055,,,TRUE,TRUE,,,,,,HZ,CLR,,,,,,,,MVFR,,,,,,,,,,,,METAR,108.0
KORS 160715Z AUTO 16018G25KT 10SM CLR 18/12 A3000 RMK AO2,KORS,2023-05-16T07:15:00Z,48.7,-122.92,18.0,12.0,160,18,25,10.0,30.0,,,TRUE,TRUE,,,,,,,CLR,,,,,,,,VFR,,,,,,,,,,,,METAR,7.0
KORK 160715Z AUTO 24007KT 10SM CLR 23/20 A3001 RMK AO2,KORK,2023-05-16T07:15:00Z,34.83,-92.25,23.0,20.0,240,7,,10.0,30.008858,,,TRUE,TRUE,,,,,,,CLR,,,,,,,,VFR,,,,,,,,,,,,METAR,166.0
KORG 160715Z AUTO 00000KT 7SM SCT007 24/23 A3007 RMK AO2 T02350225,KORG,2023-05-16T07:15:00Z,30.07,-93.8,23.5,22.5,0,0,,7.0,30.070866,,,TRUE,TRUE,,,,,,,SCT,700,,,,,,,VFR,,,,,,,,,,,,METAR,2.0
KOQN 160715Z AUTO 24003KT 10SM CLR 13/08 A2997 RMK AO2,KOQN,2023-05-16T07:15:00Z,39.98,-75.58,13.0,8.0,240,3,,10.0,29.970472,,,TRUE,TRUE,,,,,,,CLR,,,,,,,,VFR,,,,,,,,,,,,SPECI,141.0
KOPN 160715Z AUTO 17004KT 10SM SCT034 SCT044 21/18 A3010 RMK AO2,KOPN,2023-05-16T07:15:00Z,32.95,-84.27,21.0,18.0,170,4,,10.0,30.100393,,,TRUE,TRUE,,,,,,,SCT,3400,SCT,4400,,,,,VFR,,,,,,,,,,,,METAR,241.0
KOPL 160715Z AUTO 00000KT 10SM CLR 20/20 A3006 RMK AO2 T02040198,KOPL,2023-05-16T07:15:00Z,30.55,-92.1,20.4,19.8,0,0,,10.0,30.059055,,,TRUE,TRUE,,,,,,,CLR,,,,,,,,VFR,,,,,,,,,,,,METAR,22.0
KOOA 160715Z AUTO 29005KT 10SM OVC065 16/12 A3010 RMK AO2 T01550119,KOOA,2023-05-16T07:15:00Z,41.23,-92.5,15.5,11.9,290,5,,10.0,30.100393,,,TRUE,TRUE,,,,,,,OVC,6500,,,,,,,VFR,,,,,,,,,,,,METAR,256.0
KONZ 160715Z AUTO 28003KT 10SM CLR 11/04 A2998 RMK AO2 T01050044,KONZ,2023-05-16T07:15:00Z,42.1,-83.15,10.5,4.4,280,3,,10.0,29.97933,,,TRUE,TRUE,,,,,,,CLR,,,,,,,,VFR,,,,,,,,,,,,METAR,179.0
KONP 160715Z AUTO 19007KT 10SM OVC015 12/10 A3017 RMK AO2,KONP,2023-05-16T07:15:00Z,44.57,-124.05,12.0,10.0,190,7,,10.0,30.171259,,,TRUE,TRUE,,,,,,,OVC,1500,,,,,,,MVFR,,,,,,,,,,,,METAR,43.0
KONM 160715Z AUTO 25005KT 10SM BKN100 16/09 A3029 RMK AO2 T01580092,KONM,2023-05-16T07:15:00Z,34.02,-106.9,15.8,9.2,250,5,,10.0,30.28937,,,TRUE,TRUE,,,,,,,BKN,10000,,,,,,,VFR,,,,,,,,,,,,METAR,1467.0
KONL 160715Z AUTO 25003KT 10SM CLR 09/07 A3020 RMK AO2 T00870071,KONL,2023-05-16T07:15:00Z,42.47,-98.68,8.7,7.1,250,3,,10.0,30.200787,,,TRUE,TRUE,,,,,,,CLR,,,,,,,,VFR,,,,,,,,,,,,METAR,619.0
KOMH 160715Z AUTO 22004KT 10SM OVC090 15/12 A3003 RMK AO2,KOMH,2023-05-16T07:15:00Z,38.25,-78.05,15.0,12.0,220,4,,10.0,30.029528,,,TRUE,TRUE,,,,,,,OVC,9000,,,,,,,VFR,,,,,,,,,,,,METAR,136.0
KOLZ 160715Z AUTO 31006KT 10SM BKN160 BKN180 OVC200 12/09 A3009 RMK A01,KOLZ,2023-05-16T07:15:00Z,42.67,-91.97,12.0,9.0,310,6,,10.0,30.088583,,,TRUE,TRUE,,,,,,,BKN,16000,BKN,18000,OVC,20000,,,VFR,,,,,,,,,,,,METAR,328.0
KOLV 160715Z AUTO 19005KT 10SM 22/20 A3000 RMK A01,KOLV,2023-05-16T07:15:00Z,34.98,-89.78,22.0,20.0,190,5,,10.0,30.0,,,TRUE,TRUE,,,,,,,,,,,,,,,,,,,,,,,,,,,METAR,124.0
KOLG 160715Z AUTO 22005KT 10SM CLR 11/01 A2997 RMK AO1,KOLG,2023-05-16T07:15:00Z,46.3,-91.82,11.0,1.0,220,5,,10.0,29.970472,,,TRUE,TRUE,,,,,,,CLR,,,,,,,,VFR,,,,,,,,,,,,METAR,334.0
KOKZ 160715Z AUTO 16003KT 10SM BKN040 OVC048 20/18 A3009 RMK AO2 T02000183,KOKZ,2023-05-16T07:15:00Z,32.97,-82.83,20.0,18.3,160,3,,10.0,30.088583,,,TRUE,TRUE,,,,,,,BKN,4000,OVC,4800,,,,,VFR,,,,,,,,,,,,METAR,128.0
KOKV 160715Z AUTO 23007KT 10SM CLR 15/12 A2999 RMK AO2,KOKV,2023-05-16T07:15:00Z,39.13,-78.15,15.0,12.0,230,7,,10.0,29.991142,,,TRUE,TRUE,,,,,,,CLR,,,,,,,,VFR,,,,,,,,,,,,METAR,213.0
KOKM 160715Z AUTO 34006KT 10SM OVC013 18/17 A3011 RMK AO2 T01800170,KOKM,2023-05-16T07:15:00Z,35.67,-95.95,18.0,17.0,340,6,,10.0,30.109253,,,TRUE,TRUE,,,,,,,OVC,1300,,,,,,,MVFR,,,,,,,,,,,,METAR,215.0
KOJA 160715Z AUTO 01009KT 10SM OVC039 17/14 A3018 RMK AO2 T01680140,KOJA,2023-05-16T07:15:00Z,35.55,-98.67,16.8,14.0,10,9,,10.0,30.180119,,,TRUE,TRUE,,,,,,,OVC,3900,,,,,,,VFR,,,,,,,,,,,,METAR,490.0
KOIN 160715Z AUTO 00000KT 10SM OVC016 11/11 A3028 RMK AO1 T01120112,KOIN,2023-05-16T07:15:00Z,39.83,-100.53,11.2,11.2,0,0,,10.0,30.280512,,,TRUE,TRUE,,,,,,,OVC,1600,,,,,,,MVFR,,,,,,,,,,,,METAR,810.0
KOIC 160715Z AUTO 00000KT 10SM CLR 04/02 A2994 RMK AO2 T00430016,KOIC,2023-05-16T07:15:00Z,42.57,-75.52,4.3,1.6,0,0,,10.0,29.940945,,,TRUE,TRUE,,,,,,,CLR,,,,,,,,VFR,,,,,,,,,,,,METAR,311.0
KOGS 160715Z AUTO 21010G16KT 10SM BKN080 OVC110 13/03 A2974 RMK AO2,KOGS,2023-05-16T07:15:00Z,44.67,-75.47,13.0,3.0,210,10,16,10.0,29.740158,,,TRUE,TRUE,,,,,,,BKN,8000,OVC,11000,,,,,VFR,,,,,,,,,,,,METAR,88.0
KOGA 160715Z AUTO 00000KT 5SM BR OVC003 09/09 A3024 RMK AO2 T00870087,KOGA,2023-05-16T07:15:00Z,41.12,-101.77,8.7,8.7,0,0,,5.0,30.239174,,,TRUE,TRUE,,,,,,BR,OVC,300,,,,,,,LIFR,,,,,,,,,,,,METAR,991.0
KOEO 160715Z AUTO 25003KT 10SM CLR 10/10 A3006 RMK AO2 T01030097,KOEO,2023-05-16T07:15:00Z,45.32,-92.7,10.3,9.7,250,3,,10.0,30.059055,,,TRUE,TRUE,,,,,,,CLR,,,,,,,,VFR,,,,,,,,,,,,METAR,269.0
KOEL 160715Z AUTO 30003KT 1/4SM FG VV002 08/07 A3024 RMK AO1 T00750065,KOEL,2023-05-16T07:15:00Z,39.12,-100.82,7.5,6.5,300,3,,0.25,30.239174,,,TRUE,TRUE,,,,,,FG,OVX,0,,,,,,,LIFR,,,,,,,,,,,200,SPECI,924.0
KOEB 160715Z AUTO 00000KT 10SM CLR 08/04 A3002 RMK AO2 T00820039,KOEB,2023-05-16T07:15:00Z,41.92,-85.05,8.2,3.9,0,0,,10.0,30.02067,,,TRUE,TRUE,,,,,,,CLR,,,,,,,,VFR,,,,,,,,,,,,SPECI,291.0
KOCQ 160715Z AUTO 27007KT 10SM CLR 13/05 A2993 RMK AO1 T01320054,KOCQ,2023-05-16T07:15:00Z,44.87,-87.92,13.2,5.4,270,7,,10.0,29.929134,,,TRUE,TRUE,,,,,,,CLR,,,,,,,,VFR,,,,,,,,,,,,METAR,181.0
KOBE 160715Z AUTO 00000KT 9SM BKN030 BKN035 18/18 A3003 RMK AO2,KOBE,2023-05-16T07:15:00Z,27.27,-80.85,18.0,18.0,0,0,,9.0,30.029528,,,TRUE,TRUE,,,,,,,BKN,3000,BKN,3500,,,,,MVFR,,,,,,,,,,,,METAR,11.0
KOAR 160715Z AUTO 00000KT 2 1/2SM OVC003 11/11 A3008 RMK AO2 PWINO,KOAR,2023-05-16T07:15:00Z,36.67,-121.77,11.0,11.0,0,0,,2.5,30.079725,,,TRUE,TRUE,,,,,TRUE,,OVC,300,,,,,,,LIFR,,,,,,,,,,,,METAR,41.0
KO86 160715Z AUTO 00000KT 10SM 12/07 A3016 RMK A01,KO86,2023-05-16T07:15:00Z,40.98,-122.7,12.0,7.0,0,0,,10.0,30.159449,,,TRUE,TRUE,,,,,,,,,,,,,,,,,,,,,,,,,,,METAR,729.0
KO69 160715Z AUTO 30004KT 10SM OVC005 11/11 A3010 RMK A01,KO69,2023-05-16T07:15:00Z,38.25,-122.6,11.0,11.0,300,4,,10.0,30.100393,,,TRUE,TRUE,,,,,,,OVC,500,,,,,,,IFR,,,,,,,,,,,,METAR,26.0
KO32 160715Z AUTO 35006KT 10SM CLR 21/14 A2994 RMK AO2 T02100136 $,KO32,2023-05-16T07:15:00Z,36.67,-119.45,21.0,13.6,350,6,,10.0,29.940945,,,TRUE,TRUE,TRUE,,,,,,CLR,,,,,,,,VFR,,,,,,,,,,,,METAR,117.0
KO22 160715Z AUTO 00000KT 10SM CLR 15/08 A3008 RMK A01,KO22,2023-05-16T07:15:00Z,38.03,-120.42,15.0,8.0,0,0,,10.0,30.079725,,,TRUE,TRUE,,,,,,,CLR,,,,,,,,VFR,,,,,,,,,,,,METAR,637.0
KO05 160715Z AUTO 34006KT 10SM FEW038 FEW045 09/01 A3025 RMK A01,KO05,2023-05-16T07:15:00Z,40.28,-121.23,9.0,1.0,340,6,,10.0,30.250984,,,TRUE,TRUE,,,,,,,FEW,3800,FEW,4500,,,,,VFR,,,,,,,,,,,,METAR,1380.0
KNUQ 160715Z AUTO 33003KT 10SM OVC009 14/12 A3008 RMK AO2,KNUQ,2023-05-16T07:15:00Z,37.4,-122.05,14.0,12.0,330,3,,10.0,30.079725,,,TRUE,TRUE,,,,,,,OVC,900,,,,,,,IFR,,,,,,,,,,,,METAR,9.0
KNRN 160715Z AUTO 33004KT 10SM OVC015 12/10 A3026 RMK AO2,KNRN,2023-05-16T07:15:00Z,39.85,-99.9,12.0,10.0,330,4,,10.0,30.259842,,,TRUE,TRUE,,,,,,,OVC,1500,,,,,,,MVFR,,,,,,,,,,,,METAR,726.0
KNOW 160715Z AUTO 28009KT 10SM SCT007 12/12 A3008 RMK AO2 T01190116,KNOW,2023-05-16T07:15:00Z,48.13,-123.4,11.9,11.6,280,9,,10.0,30.079725,,,TRUE,TRUE,,,,,,,SCT,700,,,,,,,VFR,,,,,,,,,,,,METAR,3.0
KN79 160715Z AUTO 00000KT 10SM CLR 10/07 A2996 RMK AO2 T01030069,KN79,2023-05-16T07:15:00Z,,,10.3,6.9,0,0,,10.0,29.958662,,,TRUE,TRUE,,,,,,,CLR,,,,,,,,VFR,,,,,,,,,,,,METAR,
KN38 160715Z AUTO 29006KT 10SM CLR 10/M03 A2996 RMK AO2,KN38,2023-05-16T07:15:00Z,41.73,-77.4,10.0,-3.0,290,6,,10.0,29.958662,,,TRUE,TRUE,,,,,,,CLR,,,,,,,,VFR,,,,,,,,,,,,METAR,576.0
KN03 160715Z AUTO 00000KT 10SM CLR 03/00 A2993 RMK AO2,KN03,2023-05-16T07:15:00Z,42.6,-76.22,3.0,0.0,0,0,,10.0,29.929134,,,TRUE,TRUE,,,,,,,CLR,,,,,,,,VFR,,,,,,,,,,,,METAR,361.0
KMZZ 160715Z AUTO 00000KT 10SM CLR 12/08 A3004 RMK AO2 T01220081,KMZZ,2023-05-16T07:15:00Z,40.48,-85.68,12.2,8.1,0,0,,10.0,30.041338,,,TRUE,TRUE,,,,,,,CLR,,,,,,,,VFR,,,,,,,,,,,,METAR,260.0
KMZH 160715Z AUTO 27005KT 10SM CLR 15/02 A2999 RMK AO2,KMZH,2023-05-16T07:15:00Z,46.42,-92.8,15.0,2.0,270,5,,10.0,29.991142,,,TRUE,TRUE,,,,,,,CLR,,,,,,,,VFR,,,,,,,,,,,,SPECI,331.0
KMYZ 160715Z AUTO 00000KT 5SM BR OVC005 12/12 A3015 RMK AO2,KMYZ,2023-05-16T07:15:00Z,39.85,-96.63,12.0,12.0,0,0,,5.0,30.15059,,,TRUE,TRUE,,,,,,BR,OVC,500,,,,,,,IFR,,,,,,,,,,,,METAR,388.0
KMYJ 160715Z AUTO 03004KT 5SM RA OVC018 15/14 A3005 RMK AO2 P0002,KMYJ,2023-05-16T07:15:00Z,39.15,-91.82,15.0,14.0,30,4,,5.0,30.050198,,,TRUE,TRUE,,,,,,RA,OVC,1800,,,,,,,MVFR,,,,,,0.02,,,,,,SPECI,249.0
KMWO 160715Z AUTO 00000KT 10SM BKN120 14/ A3003 RMK AO2 T0138////,KMWO,2023-05-16T07:15:00Z,39.53,-84.4,13.8,,0,0,,10.0,30.029528,,,TRUE,TRUE,,,,,,,BKN,12000,,,,,,,VFR,,,,,,,,,,,,METAR,197.0
KMWM 160715Z AUTO 22007KT 10SM CLR 12/08 A3012 RMK AO2,KMWM,2023-05-16T07:15:00Z,43.9,-95.1,12.0,8.0,220,7,,10.0,30.121063,,,TRUE,TRUE,,,,,,,CLR,,,,,,,,VFR,,,,,,,,,,,,SPECI,427.0
KMWC 160715Z AUTO 25005KT 10SM CLR 10/00 A3003 RMK AO2,KMWC,2023-05-16T07:15:00Z,43.12,-88.03,10.0,0.0,250,5,,10.0,30.029528,,,TRUE,TRUE,,,,,,,CLR,,,,,,,,VFR,,,,,,,,,,,,METAR,225.0
KMWA 160715Z AUTO 10008KT 10SM -RA SCT048 SCT075 OVC110 19/19 A2999 RMK AO2 P0002 T01870187,KMWA,2023-05-16T07:15:00Z,37.77,-89.02,18.7,18.7,100,8,,10.0,29.991142,,,TRUE,TRUE,,,,,,-RA,SCT,4800,SCT,7500,OVC,11000,,,VFR,,,,,,0.02,,,,,,SPECI,142.0
KMVE 160715Z AUTO 00000KT 10SM CLR 13/07 A3009 RMK AO2,KMVE,2023-05-16T07:15:00Z,44.97,-95.72,13.0,7.0,0,0,,10.0,30.088583,,,TRUE,TRUE,,,,,,,CLR,,,,,,,,VFR,,,,,,,,,,,,METAR,319.0
KMUT 160715Z AUTO 00000KT 10SM BKN055 OVC065 16/11 A3008 RMK AO2,KMUT,2023-05-16T07:15:00Z,41.37,-91.15,16.0,11.0,0,0,,10.0,30.079725,,,TRUE,TRUE,,,,,,,BKN,5500,OVC,6500,,,,,VFR,,,,,,,,,,,,METAR,166.0
KMTV 160715Z AUTO 21003KT 10SM OVC050 16/13 A3009 RMK AO2 T01550132,KMTV,2023-05-16T07:15:00Z,36.63,-80.02,15.5,13.2,210,3,,10.0,30.088583,,,TRUE,TRUE,,,,,,,OVC,5000,,,,,,,VFR,,,,,,,,,,,,METAR,276.0
KMRJ 160715Z AUTO 00000KT 10SM CLR 10/03 A3008 RMK AO2 PWINO,KMRJ,2023-05-16T07:15:00Z,42.88,-90.23,10.0,3.0,0,0,,10.0,30.079725,,,TRUE,TRUE,,,,,TRUE,,CLR,,,,,,,,VFR,,,,,,,,,,,,METAR,350.0
KMQW 160715Z AUTO 00000KT 10SM OVC045 20/19 A3010 RMK AO2,KMQW,2023-05-16T07:15:00Z,32.1,-82.88,20.0,19.0,0,0,,10.0,30.100393,,,TRUE,TRUE,,,,,,,OVC,4500,,,,,,,VFR,,,,,,,,,,,,METAR,62.0
KMQS 160715Z AUTO 25005KT 10SM CLR 13/10 A2997 RMK AO2,KMQS,2023-05-16T07:15:00Z,39.98,-75.87,13.0,10.0,250,5,,10.0,29.970472,,,TRUE,TRUE,,,,,,,CLR,,,,,,,,VFR,,,,,,,,,,,,METAR,200.0
KMQJ 160715Z AUTO 00000KT 10SM OVC110 15/15 A3003 RMK AO1,KMQJ,2023-05-16T07:15:00Z,39.85,-85.9,15.0,15.0,0,0,,10.0,30.029528,,,TRUE,TRUE,,,,,,,OVC,11000,,,,,,,VFR,,,,,,,,,,,,METAR,262.0
KMQB 160715Z AUTO 35003KT 10SM BKN060 BKN075 OVC110 16/12 A3009 RMK AO2 T01550122,KMQB,2023-05-16T07:15:00Z,40.52,-90.65,15.5,12.2,350,3,,10.0,30.088583,,,TRUE,TRUE,,,,,,,BKN,6000,BKN,7500,OVC,11000,,,VFR,,,,,,,,,,,,METAR,205.0
KMPZ 160715Z AUTO 32003KT 10SM DZ BKN011 OVC016 14/10 A3010 RMK AO2,KMPZ,2023-05-16T07:15:00Z,40.95,-91.52,14.0,10.0,320,3,,10.0,30.100393,,,TRUE,TRUE,,,,,,DZ,BKN,1100,OVC,1600,,,,,MVFR,,,,,,,,,,,,METAR,222.0
KMPR 160715Z AUTO 33008KT 10SM BKN012 BKN020 OVC055 13/11 A3016 RMK AO2 T01270111,KMPR,2023-05-16T07:15:00Z,38.35,-97.68,12.7,11.1,330,8,,10.0,30.159449,,,TRUE,TRUE,,,,,,,BKN,1200,BKN,2000,OVC,5500,,,MVFR,,,,,,,,,,,,METAR,455.0
KMOX 160715Z AUTO 29006KT 10SM 13/04 A3008 RMK AO2,KMOX,2023-05-16T07:15:00Z,45.57,-95.97,13.0,4.0,290,6,,10.0,30.079725,,,TRUE,TRUE,,,,,,,,,,,,,,,,,,,,,,,,,,,METAR,346.0
KMOP 160715Z AUTO 00000KT 10SM CLR 10/M03 A2996 RMK AO2 T00951030,KMOP,2023-05-16T07:15:00Z,43.62,-84.73,9.5,-3.0,0,0,,10.0,29.958662,,,TRUE,TRUE,,,,,,,CLR,,,,,,,,VFR,,,,,,,,,,,,METAR,229.0
KMNZ 160715Z AUTO 25004KT 10SM CLR 19/19 A3013 RMK AO2 T01890189,KMNZ,2023-05-16T07:15:00Z,31.67,-98.15,18.9,18.9,250,4,,10.0,30.129921,,,TRUE,TRUE,,,,,,,CLR,,,,,,,,VFR,,,,,,,,,,,,METAR,397.0
KMNV 160715Z AUTO 24005KT 1/4SM HZ 20/M40 A3006 RMK A01,KMNV,2023-05-16T07:15:00Z,35.55,-84.38,20.0,-40.0,240,5,,0.25,30.059055,,,TRUE,TRUE,,,,,,HZ,,,,,,,,,,,,,,,,,,,,,METAR,306.0
KMNI 160715Z AUTO 00000KT 10SM CLR 16/15 A3009 RMK AO2,KMNI,2023-05-16T07:15:00Z,33.58,-80.22,16.0,15.0,0,0,,10.0,30.088583,,,TRUE,TRUE,,,,,,,CLR,,,,,,,,VFR,,,,,,,,,,,,METAR,29.0
KMNH 160715Z AUTO 21012KT 10SM CLR 07/06 A3036 RMK AO2,KMNH,2023-05-16T07:15:00Z,39.22,-104.65,7.0,6.0,210,12,,10.0,30.360237,,,TRUE,TRUE,,,,,,,CLR,,,,,,,,VFR,,,,,,,,,,,,METAR,2152.0
KMMU 160715Z AUTO 00000KT 10SM CLR 08/07 A2992 RMK AO2,KMMU,2023-05-16T07:15:00Z,40.78,-74.42,8.0,7.0,0,0,,10.0,29.920275,,,TRUE,TRUE,,,,,,,CLR,,,,,,,,VFR,,,,,,,,,,,,METAR,55.0
KMMI 160715Z AUTO 00000KT M1/4SM FG OVC002 19/19 A3008 RMK A01,KMMI,2023-05-16T07:15:00Z,35.4,-84.57,19.0,19.0,0,0,,0.25,30.079725,,,TRUE,TRUE,,,,,,FG,OVC,200,,,,,,,LIFR,,,,,,,,,,,,METAR,252.0
KMMH 160715Z AUTO 30003KT 10SM CLR 09/M04 A3037 RMK AO2 T00941036,KMMH,2023-05-16T07:15:00Z,37.62,-118.83,9.4,-3.6,300,3,,10.0,30.369095,,,TRUE,TRUE,,,,,,,CLR,,,,,,,,VFR,,,,,,,,,,,,METAR,2167.0
KMLJ 160715Z AUTO VRB04G11KT 10SM FEW038 SCT046 BKN060 22/20 A3008 RMK AO2,KMLJ,2023-05-16T07:15:00Z,33.15,-83.25,22.0,20.0,0,4,11,10.0,30.079725,,,TRUE,TRUE,,,,,,,FEW,3800,SCT,4600,BKN,6000,,,VFR,,,,,,,,,,,,METAR,115.0
KMLE 160715Z AUTO 00000KT 10SM OVC035 14/10 A3015 RMK AO2 T01380095,KMLE,2023-05-16T07:15:00Z,41.2,-96.12,13.8,9.5,0,0,,10.0,30.15059,,,TRUE,TRUE,,,,,,,OVC,3500,,,,,,,VFR,,,,,,,,,,,,METAR,318.0
KMKS 160715Z AUTO 00000KT 10SM CLR 17/16 A3008 RMK AO2,KMKS,2023-05-16T07:15:00Z,33.18,-80.03,17.0,16.0,0,0,,10.0,30.079725,,,TRUE,TRUE,,,,,,,CLR,,,,,,,,VFR,,,,,,,,,,,,METAR,22.0
KMKN 160715Z AUTO 00000KT 10SM 19/19 A3014 RMK AO2 T01920192,KMKN,2023-05-16T07:15:00Z,31.92,-98.6,19.2,19.2,0,0,,10.0,30.138779,,,TRUE,TRUE,,,,,,,,,,,,,,,,,,,,,,,,,,,METAR,428.0
KMKJ 160715Z AUTO 00000KT 3SM BR SCT003 OVC011 14/14 A3012 RMK AO2 T01410137,KMKJ,2023-05-16T07:15:00Z,36.88,-81.33,14.1,13.7,0,0,,3.0,30.121063,,,TRUE,TRUE,,,,,,BR,SCT,300,OVC,1100,,,,,MVFR,,,,,,,,,,,,METAR,777.0
KMJD 160715Z AUTO 00000KT 2 1/2SM BR CLR 21/21 A3003 RMK AO2,KMJD,2023-05-16T07:15:00Z,30.48,-89.65,21.0,21.0,0,0,,2.5,30.029528,,,TRUE,TRUE,,,,,,BR,CLR,,,,,,,,IFR,,,,,,,,,,,,METAR,17.0
KMIO 160715Z AUTO 32005G11KT 1 1/4SM BR OVC003 18/18 A3007 RMK AO2,KMIO,2023-05-16T07:15:00Z,36.92,-94.88,18.0,18.0,320,5,11,1.25,30.070866,,,TRUE,TRUE,,,,,,BR,OVC,300,,,,,,,LIFR,,,,,,,,,,,,METAR,245.0
KMHR 160715Z AUTO 00000KT 10SM CLR 17/12 A3001 RMK A01,KMHR,2023-05-16T07:15:00Z,38.55,-121.28,17.0,12.0,0,0,,10.0,30.008858,,,TRUE,TRUE,,,,,,,CLR,,,,,,,,VFR,,,,,,,,,,,,METAR,30.0
KMHP 160715Z AUTO 00000KT 10SM OVC050 19/ A3009 RMK AO2 T0185////,KMHP,2023-05-16T07:15:00Z,32.37,-82.08,18.5,,0,0,,10.0,30.088583,,,TRUE,TRUE,,,,,,,OVC,5000,,,,,,,VFR,,,,,,,,,,,,METAR,60.0
KMHL 160715Z AUTO 35006KT 3SM +DZ OVC005 15/15 A3008 RMK AO2,KMHL,2023-05-16T07:15:00Z,39.1,-93.2,15.0,15.0,350,6,,3.0,30.079725,,,TRUE,TRUE,,,,,,+DZ,OVC,500,,,,,,,IFR,,,,,,,,,,,,METAR,236.0
KMGR 160715Z AUTO 00000KT 5SM BR CLR 21/21 A3008 RMK AO2 T02070207,KMGR,2023-05-16T07:15:00Z,31.08,-83.8,20.7,20.7,0,0,,5.0,30.079725,,,TRUE,TRUE,,,,,,BR,CLR,,,,,,,,MVFR,,,,,,,,,,,,METAR,86.0
KMGN 160715Z AUTO 00000KT 10SM CLR 10/00 A2988 RMK AO2 T00970005,KMGN,2023-05-16T07:15:00Z,45.43,-84.92,9.7,0.5,0,0,,10.0,29.878937,,,TRUE,TRUE,,,,,,,CLR,,,,,,,,VFR,,,,,,,,,,,,METAR,205.0
KMGG 160715Z AUTO 24004KT 10SM CLR 14/08 A3006 RMK AO2 T01380075,KMGG,2023-05-16T07:15:00Z,45.23,-93.98,13.8,7.5,240,4,,10.0,30.059055,,,TRUE,TRUE,,,,,,,CLR,,,,,,,,VFR,,,,,,,,,,,,METAR,310.0
KMGC 160715Z AUTO 00000KT 10SM CLR 06/05 A3004 RMK AO2,KMGC,2023-05-16T07:15:00Z,41.7,-86.82,6.0,5.0,0,0,,10.0,30.041338,,,TRUE,TRUE,,,,,,,CLR,,,,,,,,VFR,,,,,,,,,,,,METAR,199.0
KMFV 160715Z AUTO 00000KT 10SM CLR 13/12 A3004 RMK AO2 T01270116,KMFV,2023-05-16T07:15:00Z,37.63,-75.77,12.7,11.6,0,0,,10.0,30.041338,,,TRUE,TRUE,,,,,,,CLR,,,,,,,,VFR,,,,,,,,,,,,METAR,13.0
KMEZ 160715Z AUTO 23003KT 10SM CLR 20/20 A3004 RMK AO2 RAE0652 P0000 T01980198,KMEZ,2023-05-16T07:15:00Z,34.55,-94.2,19.8,19.8,230,3,,10.0,30.041338,,,TRUE,TRUE,,,,,,,CLR,,,,,,,,VFR,,,,,,0.005,,,,,,METAR,320.0
KMEV 160715Z AUTO 11007KT 10SM FEW045 BKN055 BKN065 09/04 A3026 RMK AO2,KMEV,2023-05-16T07:15:00Z,38.98,-119.75,9.0,4.0,110,7,,10.0,30.259842,,,TRUE,TRUE,,,,,,,FEW,4500,BKN,5500,BKN,6500,,,VFR,,,,,,,,,,,,METAR,1437.0
KMER 160715Z AUTO 33007KT 10SM CLR 19/09 A2999 RMK AO1,KMER,2023-05-16T07:15:00Z,37.38,-120.57,19.0,9.0,330,7,,10.0,29.991142,,,TRUE,TRUE,,,,,,,CLR,,,,,,,,VFR,,,,,,,,,,,,METAR,58.0
KMDZ 160715Z AUTO 26006KT 10SM CLR 13/06 A3001 RMK AO2 T01250056 PWINO,KMDZ,2023-05-16T07:15:00Z,45.1,-90.3,12.5,5.6,260,6,,10.0,30.008858,,,TRUE,TRUE,,,,,TRUE,,CLR,,,,,,,,VFR,,,,,,,,,,,,METAR,446.0
KMDS 160715Z AUTO 27009KT 10SM CLR 13/10 A3014 RMK AO2,KMDS,2023-05-16T07:15:00Z,44.02,-97.08,13.0,10.0,270,9,,10.0,30.138779,,,TRUE,TRUE,,,,,,,CLR,,,,,,,,VFR,,,,,,,,,,,,METAR,524.0
KMDQ 160715Z AUTO 2 1/2SM BR SCT002 19/18 A3006 RMK A02 T01870183,KMDQ,2023-05-16T07:15:00Z,34.87,-86.55,18.7,18.3,,,,2.5,30.059055,,,TRUE,TRUE,,,,,,BR,SCT,200,,,,,,,IFR,,,,,,,,,,,,METAR,221.0
KMDD 160715Z AUTO 09005KT 10SM CLR 19/15 A3024 RMK AO2 T01890148,KMDD,2023-05-16T07:15:00Z,32.03,-102.1,18.9,14.8,90,5,,10.0,30.239174,,,TRUE,TRUE,,,,,,,CLR,,,,,,,,VFR,,,,,,,,,,,,METAR,853.0
KMCJ 160715Z AUTO 00000KT 10SM OVC020 23/20 A3007 RMK A01,KMCJ,2023-05-16T07:15:00Z,29.72,-95.4,23.0,20.0,0,0,,10.0,30.070866,,,TRUE,TRUE,,,,,,,OVC,2000,,,,,,,MVFR,,,,,,,,,,,,METAR,70.0
KMCD 160715Z AUTO 24014G23KT 10SM CLR 09/03 A2983 RMK AO2 T00910025,KMCD,2023-05-16T07:15:00Z,45.85,-84.63,9.1,2.5,240,14,23,10.0,29.828741,,,TRUE,TRUE,,,,,,,CLR,,,,,,,,VFR,,,,,,,,,,,,SPECI,228.0
KMCC 160715Z AUTO 17005KT 10SM CLR 18/13 A3002 RMK AO2,KMCC,2023-05-16T07:15:00Z,38.67,-121.4,18.0,13.0,170,5,,10.0,30.02067,,,TRUE,TRUE,,,,,,,CLR,,,,,,,,VFR,,,,,,,,,,,,METAR,21.0
KMBY 160715Z AUTO 02006KT 7SM -RA SCT022 BKN028 OVC044 15/13 A3007 RMK AO2,KMBY,2023-05-16T07:15:00Z,39.47,-92.43,15.0,13.0,20,6,,7.0,30.070866,,,TRUE,TRUE,,,,,,-RA,SCT,2200,BKN,2800,OVC,4400,,,MVFR,,,,,,,,,,,,METAR,263.0
KMBT 160715Z AUTO 00000KT 10SM OVC060 20/19 A3002 RMK A01,KMBT,2023-05-16T07:15:00Z,35.88,-86.38,20.0,19.0,0,0,,10.0,30.02067,,,TRUE,TRUE,,,,,,,OVC,6000,,,,,,,VFR,,,,,,,,,,,,METAR,187.0
KMAW 160715Z AUTO 20004KT 10SM BKN050 BKN070 23/21 A2998 RMK AO1 LTG DSNT NE,KMAW,2023-05-16T07:15:00Z,36.6,-90.0,23.0,21.0,200,4,,10.0,29.97933,,,TRUE,TRUE,,,,,,,BKN,5000,BKN,7000,,,,,VFR,,,,,,,,,,,,METAR,88.0
KMAO 160715Z AUTO 00000KT 10SM OVC110 17/17 A3009 RMK AO2,KMAO,2023-05-16T07:15:00Z,34.18,-79.33,17.0,17.0,0,0,,10.0,30.088583,,,TRUE,TRUE,,,,,,,OVC,11000,,,,,,,VFR,,,,,,,,,,,,METAR,27.0
KMAN 160715Z AUTO 12006KT 10SM BKN100 BKN120 14/12 A3018 RMK A01,KMAN,2023-05-16T07:15:00Z,43.58,-116.52,14.0,12.0,120,6,,10.0,30.180119,,,TRUE,TRUE,,,,,,,BKN,10000,BKN,12000,,,,,VFR,,,,,,,,,,,,METAR,773.0
KM75 160715Z AUTO 04005KT 10SM CLR 15/13 A3002 RMK A01,KM75,2023-05-16T07:15:00Z,48.37,-107.92,15.0,13.0,40,5,,10.0,30.02067,,,TRUE,TRUE,,,,,,,CLR,,,,,,,,VFR,,,,,,,,,,,,METAR,687.0
KM40 160715Z AUTO 00000KT 4SM BR CLR 20/20 A3005 RMK AO2,KM40,2023-05-16T07:15:00Z,33.87,-88.48,20.0,20.0,0,0,,4.0,30.050198,,,TRUE,TRUE,,,,,,BR,CLR,,,,,,,,MVFR,,,,,,,,,,,,METAR,68.0
KM30 160715Z AUTO 00000KT 10SM BKN050 BKN065 BKN110 21/20 A2999 RMK AO2 LTG DSNT W T02050200,KM30,2023-05-16T07:15:00Z,37.18,-88.75,20.5,20.0,0,0,,10.0,29.991142,,,TRUE,TRUE,,,,,,,BKN,5000,BKN,6500,BKN,11000,,,VFR,,,,,,,,,,,,SPECI,116.0
KM25 160715Z AUTO 20005KT 10SM CLR 21/20 A2999 RMK AO2 PWINO,KM25,2023-05-16T07:15:00Z,36.77,-88.58,21.0,20.0,200,5,,10.0,29.991142,,,TRUE,TRUE,,,,,TRUE,,CLR,,,,,,,,VFR,,,,,,,,,,,,METAR,157.0
KM21 160715Z AUTO 00000KT 10SM CLR 18/18 A3001 RMK AO2 T01820177,KM21,2023-05-16T07:15:00Z,37.22,-87.15,18.2,17.7,0,0,,10.0,30.008858,,,TRUE,TRUE,,,,,,,CLR,,,,,,,,VFR,,,,,,,,,,,,METAR,127.0
KM08 160715Z AUTO 00000KT 10SM SCT046 21/20 A3000 RMK A01,KM08,2023-05-16T07:15:00Z,35.22,-89.05,21.0,20.0,0,0,,10.0,30.0,,,TRUE,TRUE,,,,,,,SCT,4600,,,,,,,VFR,,,,,,,,,,,,METAR,149.0
KM02 160715Z AUTO 21005KT 10SM SCT037 SCT045 OVC055 20/20 A3001 RMK A01,KM02,2023-05-16T07:15:00Z,36.13,-87.43,20.0,20.0,210,5,,10.0,30.008858,,,TRUE,TRUE,,,,,,,SCT,3700,SCT,4500,OVC,5500,,,VFR,,,,,,,,,,,,METAR,268.0
KM01 160715Z AUTO 22004KT 10SM CLR 24/21 A2997 RMK AO2 T02420209 $,KM01,2023-05-16T07:15:00Z,35.2,-90.05,24.2,20.9,220,4,,10.0,29.970472,,,TRUE,TRUE,TRUE,,,,,,CLR,,,,,,,,VFR,,,,,,,,,,,,METAR,68.0
KLYV 160715Z AUTO 27005KT 10SM CLR 10/06 A3015 RMK AO2,KLYV,2023-05-16T07:15:00Z,43.62,-96.22,10.0,6.0,270,5,,10.0,30.15059,,,TRUE,TRUE,,,,,,,CLR,,,,,,,,VFR,,,,,,,,,,,,METAR,435.0
KLYO 160715Z AUTO 31007KT 10SM OVC017 13/11 A3018 RMK AO2 T01270108,KLYO,2023-05-16T07:15:00Z,38.35,-98.23,12.7,10.8,310,7,,10.0,30.180119,,,TRUE,TRUE,,,,,,,OVC,1700,,,,,,,MVFR,,,,,,,,,,,,METAR,515.0
KLXY 160715Z AUTO 28007KT 10SM CLR 19/19 A3010 RMK AO2 T01940191,KLXY,2023-05-16T07:15:00Z,31.63,-96.52,19.4,19.1,280,7,,10.0,30.100393,,,TRUE,TRUE,,,,,,,CLR,,,,,,,,VFR,,,,,,,,,,,,METAR,164.0
KLXN 160715Z AUTO 00000KT 5SM BR BKN010 OVC027 11/11 A3022 RMK AO2 T01130110,KLXN,2023-05-16T07:15:00Z,40.78,-99.77,11.3,11.0,0,0,,5.0,30.221457,,,TRUE,TRUE,,,,,,BR,BKN,1000,OVC,2700,,,,,MVFR,,,,,,,,,,,,METAR,734.0
KLXL 160715Z AUTO 00000KT 10SM CLR 10/03 A3003 RMK AO2,KLXL,2023-05-16T07:15:00Z,45.95,-94.33,10.0,3.0,0,0,,10.0,30.029528,,,TRUE,TRUE,,,,,,,CLR,,,,,,,,VFR,,,,,,,,,,,,METAR,335.0
KLWB 160715Z AUTO 00000KT 5SM BR OVC002 14/13 A3008 RMK AO2 T01370133,KLWB,2023-05-16T07:15:00Z,37.87,-80.4,13.7,13.3,0,0,,5.0,30.079725,,,TRUE,TRUE,,,,,,BR,OVC,200,,,,,,,LIFR,,,,,,,,,,,,SPECI,702.0
KLWA 160715Z AUTO 00000KT 10SM CLR 04/03 A3003 RMK AO2 T00410030,KLWA,2023-05-16T07:15:00Z,42.35,-86.25,4.1,3.0,0,0,,10.0,30.029528,,,TRUE,TRUE,,,,,,,CLR,,,,,,,,VFR,,,,,,,,,,,,SPECI,199.0
KLVN 160715Z AUTO 26005KT 10SM CLR 13/08 A3007 RMK AO2,KLVN,2023-05-16T07:15:00Z,44.63,-93.23,13.0,8.0,260,5,,10.0,30.070866,,,TRUE,TRUE,,,,,,,CLR,,,,,,,,VFR,,,,,,,,,,,,SPECI,292.0
KLUX 160715Z AUTO 20005KT 10SM CLR 18/16 A3008 RMK AO2,KLUX,2023-05-16T07:15:00Z,34.5,-81.95,18.0,16.0,200,5,,10.0,30.079725,,,TRUE,TRUE,,,,,,,CLR,,,,,,,,VFR,,,,,,,,,,,,METAR,213.0
KLUV 160715Z AUTO 08004KT 10SM CLR 16/15 A3025 RMK AO2,KLUV,2023-05-16T07:15:00Z,32.75,-101.92,16.0,15.0,80,4,,10.0,30.250984,,,TRUE,TRUE,,,,,,,CLR,,,,,,,,VFR,,,,,,,,,,,,METAR,910.0
KLUM 160715Z 24004KT 10SM CLR 15/07 A3004 RMK AO2 T01450067 PWINO,KLUM,2023-05-16T07:15:00Z,44.9,-91.87,14.5,6.7,240,4,,10.0,30.041338,,,,TRUE,,,,,TRUE,,CLR,,,,,,,,VFR,,,,,,,,,,,,METAR,271.0
KLUL 160715Z AUTO 34003KT 10SM SCT055 SCT080 21/ A3005 RMK A02 T0207////,KLUL,2023-05-16T07:15:00Z,31.67,-89.17,20.7,,340,3,,10.0,30.050198,,,TRUE,TRUE,,,,,,,SCT,5500,SCT,8000,,,,,VFR,,,,,,,,,,,,METAR,74.0
KLUG 160715Z AUTO 00000KT 6SM BR BKN055 OVC070 18/18 A3004 RMK A01,KLUG,2023-05-16T07:15:00Z,35.52,-86.8,18.0,18.0,0,0,,6.0,30.041338,,,TRUE,TRUE,,,,,,BR,BKN,5500,OVC,7000,,,,,VFR,,,,,,,,,,,,METAR,218.0
KLUD 160715Z AUTO 36004KT 7SM CLR 19/18 A3011 RMK AO2 T01860176,KLUD,2023-05-16T07:15:00Z,33.25,-97.58,18.6,17.6,360,4,,7.0,30.109253,,,TRUE,TRUE,,,,,,,CLR,,,,,,,,VFR,,,,,,,,,,,,METAR,319.0
KLUA 160715Z AUTO 00000KT 10SM OVC090 13/11 A3002 RMK AO2,KLUA,2023-05-16T07:15:00Z,38.67,-78.5,13.0,11.0,0,0,,10.0,30.02067,,,TRUE,TRUE,,,,,,,OVC,9000,,,,,,,VFR,,,,,,,,,,,,METAR,273.0
KLRY 160715Z AUTO 01004KT 7SM OVC004 16/15 A3011 RMK AO2,KLRY,2023-05-16T07:15:00Z,38.62,-94.35,16.0,15.0,10,4,,7.0,30.109253,,,TRUE,TRUE,,,,,,,OVC,400,,,,,,,LIFR,,,,,,,,,,,,METAR,272.0
KLRU 160715Z AUTO 17005KT 10SM BKN085 21/10 A3027 RMK AO2 T02050101,KLRU,2023-05-16T07:15:00Z,32.28,-106.92,20.5,10.1,170,5,,10.0,30.268702,,,TRUE,TRUE,,,,,,,BKN,8500,,,,,,,VFR,,,,,,,,,,,,METAR,1355.0
KLRJ 160715Z AUTO 00000KT 10SM CLR 10/09 A3014 RMK AO2,KLRJ,2023-05-16T07:15:00Z,42.77,-96.2,10.0,9.0,0,0,,10.0,30.138779,,,TRUE,TRUE,,,,,,,CLR,,,,,,,,VFR,,,,,,,,,,,,METAR,363.0
KLQK 160715Z AUTO 00000KT 10SM SCT039 BKN070 18/18 A3007 RMK AO2 T01810181,KLQK,2023-05-16T07:15:00Z,34.82,-82.7,18.1,18.1,0,0,,10.0,30.070866,,,TRUE,TRUE,,,,,,,SCT,3900,BKN,7000,,,,,VFR,,,,,,,,,,,,METAR,291.0
KLOT 160715Z AUTO 00000KT 10SM CLR 11/05 A3006 RMK AO2,KLOT,2023-05-16T07:15:00Z,41.6,-88.1,11.0,5.0,0,0,,10.0,30.059055,,,TRUE,TRUE,,,,,,,CLR,,,,,,,,VFR,,,,,,,,,,,,METAR,205.0
KLOR 160715Z AUTO 07004KT 9SM CLR 20/19 A3004 RMK AO2 SLP154,KLOR,2023-05-16T07:15:00Z,31.35,-85.75,20.0,19.0,70,4,,9.0,30.041338,1015.4,,TRUE,TRUE,,,,,,,CLR,,,,,,,,VFR,,,,,,,,,,,,METAR,92.0
KLOM 160715Z AUTO 25003KT 10SM CLR 14/09 A2995 RMK AO2 T01410092,KLOM,2023-05-16T07:15:00Z,40.13,-75.27,14.1,9.2,250,3,,10.0,29.949802,,,TRUE,TRUE,,,,,,,CLR,,,,,,,,VFR,,,,,,,,,,,,METAR,87.0
KLNQ 160715Z AUTO 00000KT 10SM CLR 25/22 A3005 RMK AO2 T02450219,KLNQ,2023-05-16T07:15:00Z,29.35,-89.43,24.5,21.9,0,0,,10.0,30.050198,,,TRUE,TRUE,,,,,,,CLR,,,,,,,,VFR,,,,,,,,,,,,METAR,1.0
KLNP 160715Z AUTO 23007KT 7SM OVC004 17/17 A3010 RMK AO2,KLNP,2023-05-16T07:15:00Z,36.98,-82.52,17.0,17.0,230,7,,7.0,30.100393,,,TRUE,TRUE,,,,,,,OVC,400,,,,,,,LIFR,,,,,,,,,,,,METAR,817.0
KLNN 160715Z AUTO 00000KT 10SM CLR 06/M01 A2999 RMK AO1 T00581008,KLNN,2023-05-16T07:15:00Z,41.68,-81.38,5.8,-0.8,0,0,,10.0,29.991142,,,TRUE,TRUE,,,,,,,CLR,,,,,,,,VFR,,,,,,,,,,,,METAR,190.0
KLNL 160715Z AUTO 27008KT 10SM CLR 14/01 A2996 RMK AO2 T01400010,KLNL,2023-05-16T07:15:00Z,46.15,-89.22,14.0,1.0,270,8,,10.0,29.958662,,,TRUE,TRUE,,,,,,,CLR,,,,,,,,VFR,,,,,,,,,,,,METAR,517.0
KLNC 160715Z AUTO 00000KT 10SM SCT050 19/18 A3010 RMK AO2 T01880178,KLNC,2023-05-16T07:15:00Z,32.58,-96.72,18.8,17.8,0,0,,10.0,30.100393,,,TRUE,TRUE,,,,,,,SCT,5000,,,,,,,VFR,,,,,,,,,,,,METAR,152.0
KLNA 160715Z AUTO 00000KT 10SM CLR 22/20 A3003 RMK AO2 T02200201,KLNA,2023-05-16T07:15:00Z,26.6,-80.08,22.0,20.1,0,0,,10.0,30.029528,,,TRUE,TRUE,,,,,,,CLR,,,,,,,,VFR,,,,,,,,,,,,METAR,3.0
KLMS 160715Z AUTO 23004KT 8SM CLR 22/19 A3007 RMK AO2,KLMS,2023-05-16T07:15:00Z,,,22.0,19.0,230,4,,8.0,30.070866,,,TRUE,TRUE,,,,,,,CLR,,,,,,,,VFR,,,,,,,,,,,,METAR,
KLMO 160715Z AUTO 36005KT 10SM SCT120 12/10 A3028 RMK AO2 T01170097,KLMO,2023-05-16T07:15:00Z,40.17,-105.17,11.7,9.7,360,5,,10.0,30.280512,,,TRUE,TRUE,,,,,,,SCT,12000,,,,,,,VFR,,,,,,,,,,,,METAR,1535.0
KLLN 160715Z AUTO 03007KT 10SM OVC034 15/13 A3028 RMK AO2,KLLN,2023-05-16T07:15:00Z,33.55,-102.37,15.0,13.0,30,7,,10.0,30.280512,,,TRUE,TRUE,,,,,,,OVC,3400,,,,,,,VFR,,,,,,,,,,,,METAR,1071.0
KLKU 160715Z AUTO 21004KT 10SM SCT046 BKN090 OVC120 16/12 A3003 RMK AO2 T01570116,KLKU,2023-05-16T07:15:00Z,38.02,-77.97,15.7,11.6,210,4,,10.0,30.029528,,,TRUE,TRUE,,,,,,,SCT,4600,BKN,9000,OVC,12000,,,VFR,,,,,,,,,,,,METAR,146.0
KLKR 160715Z AUTO 00000KT 10SM BKN060 OVC095 18/14 A3009 RMK AO2,KLKR,2023-05-16T07:15:00Z,34.72,-80.85,18.0,14.0,0,0,,10.0,30.088583,,,TRUE,TRUE,,,,,,,BKN,6000,OVC,9500,,,,,VFR,,,,,,,,,,,,METAR,166.0
KLJF 160715Z AUTO 25004KT 10SM CLR 13/07 A3006 RMK AO2,KLJF,2023-05-16T07:15:00Z,45.1,-94.52,13.0,7.0,250,4,,10.0,30.059055,,,TRUE,TRUE,,,,,,,CLR,,,,,,,,VFR,,,,,,,,,,,,METAR,347.0
KLHM 160715Z AUTO 08004KT 10SM CLR 15/12 A3001 RMK AO1,KLHM,2023-05-16T07:15:00Z,38.92,-121.35,15.0,12.0,80,4,,10.0,30.008858,,,TRUE,TRUE,,,,,,,CLR,,,,,,,,VFR,,,,,,,,,,,,METAR,36.0
KLHB 160715Z AUTO 00000KT 7SM OVC003 20/20 A3010 RMK AO2 T02000195,KLHB,2023-05-16T07:15:00Z,30.87,-96.62,20.0,19.5,0,0,,7.0,30.100393,,,TRUE,TRUE,,,,,,,OVC,300,,,,,,,LIFR,,,,,,,,,,,,METAR,83.0
KLGC 160715Z AUTO 00000KT 7SM CLR 21/20 A3006 RMK AO2 T02050199,KLGC,2023-05-16T07:15:00Z,33.0,-85.07,20.5,19.9,0,0,,7.0,30.059055,,,TRUE,TRUE,,,,,,,CLR,,,,,,,,VFR,,,,,,,,,,,,METAR,209.0
KLDM 160715Z AUTO 25007KT 10SM CLR 13/00 A2997 RMK AO2 T01270003,KLDM,2023-05-16T07:15:00Z,43.97,-86.4,12.7,0.3,250,7,,10.0,29.970472,,,TRUE,TRUE,,,,,,,CLR,,,,,,,,VFR,,,,,,,,,,,,METAR,194.0
KLCQ 160715Z AUTO 00000KT 7SM OVC100 19/19 A3007 RMK AO2,KLCQ,2023-05-16T07:15:00Z,30.18,-82.58,19.0,19.0,0,0,,7.0,30.070866,,,TRUE,TRUE,,,,,,,OVC,10000,,,,,,,VFR,,,,,,,,,,,,METAR,59.0
KLCG 160715Z AUTO 00000KT 10SM OVC065 12/10 A3016 RMK AO2 T01150102,KLCG,2023-05-16T07:15:00Z,42.25,-96.98,11.5,10.2,0,0,,10.0,30.159449,,,TRUE,TRUE,,,,,,,OVC,6500,,,,,,,VFR,,,,,,,,,,,,METAR,434.0
KLBO 160715Z AUTO 34005KT 2SM BR OVC003 18/17 A3004 RMK AO2,KLBO,2023-05-16T07:15:00Z,37.65,-92.65,18.0,17.0,340,5,,2.0,30.041338,,,TRUE,TRUE,,,,,,BR,OVC,300,,,,,,,LIFR,,,,,,,,,,,,METAR,399.0
KLBE 160715Z AUTO 15004KT 10SM CLR 11/07 A3001 RMK AO2,KLBE,2023-05-16T07:15:00Z,40.27,-79.4,11.0,7.0,150,4,,10.0,30.008858,,,TRUE,TRUE,,,,,,,CLR,,,,,,,,VFR,,,,,,,,,,,,METAR,345.0
KLAM 160715Z AUTO 22005KT 10SM CLR 12/07 A3041 RMK AO2 T01170069 $,KLAM,2023-05-16T07:15:00Z,35.87,-106.27,11.7,6.9,220,5,,10.0,30.410433,,,TRUE,TRUE,TRUE,,,,,,CLR,,,,,,,,VFR,,,,,,,,,,,,METAR,2166.0
KLAL 160715Z AUTO 09003KT 10SM SCT070 23/18 A3006 RMK AO2 T02250176,KLAL,2023-05-16T07:15:00Z,27.98,-82.02,22.5,17.6,90,3,,10.0,30.059055,,,TRUE,TRUE,,,,,,,SCT,7000,,,,,,,VFR,,,,,,,,,,,,METAR,39.0
KL35 160715Z AUTO 00000KT 10SM CLR 08/00 A3033 RMK AO2,KL35,2023-05-16T07:15:00Z,34.27,-116.85,8.0,0.0,0,0,,10.0,30.33071,,,TRUE,TRUE,,,,,,,CLR,,,,,,,,VFR,,,,,,,,,,,,METAR,2062.0
KL18 160715Z AUTO 00000KT 5SM BR OVC003 14/14 A3005 RMK AO2,KL18,2023-05-16T07:15:00Z,33.35,-117.25,14.0,14.0,0,0,,5.0,30.050198,,,TRUE,TRUE,,,,,,BR,OVC,300,,,,,,,LIFR,,,,,,,,,,,,METAR,215.0
KL08 160715Z AUTO 28006KT 10SM FEW047 SCT055 24/05 A2993 RMK AO2,KL08,2023-05-16T07:15:00Z,33.27,-116.32,24.0,5.0,280,6,,10.0,29.929134,,,TRUE,TRUE,,,,,,,FEW,4700,SCT,5500,,,,,VFR,,,,,,,,,,,,METAR,156.0
KKY8 160715Z AUTO 00000KT 10SM BKN049 OVC055 17/17 A3000 RMK A01,KKY8,2023-05-16T07:15:00Z,37.95,-86.87,17.0,17.0,0,0,,10.0,30.0,,,TRUE,TRUE,,,,,,,BKN,4900,OVC,5500,,,,,VFR,,,,,,,,,,,,METAR,124.0
KKNB 160715Z AUTO 36005KT 10SM SCT095 18/08 A3030 RMK A01,KKNB,2023-05-16T07:15:00Z,37.02,-112.53,18.0,8.0,360,5,,10.0,30.301182,,,TRUE,TRUE,,,,,,,SCT,9500,,,,,,,VFR,,,,,,,,,,,,METAR,1476.0
KK88 160715Z AUTO 32008KT 4SM OVC003 14/14 A3012 RMK AO1 T01410140,KK88,2023-05-16T07:15:00Z,37.87,-95.38,14.1,14.0,320,8,,4.0,30.121063,,,TRUE,TRUE,,,,,,,OVC,300,,,,,,,LIFR,,,,,,,,,,,,METAR,308.0
KK82 160715Z AUTO 34005KT 4SM BR OVC006 12/11 A3020 RMK AO2 T01170109,KK82,2023-05-16T07:15:00Z,39.77,-98.8,11.7,10.9,340,5,,4.0,30.200787,,,TRUE,TRUE,,,,,,BR,OVC,600,,,,,,,IFR,,,,,,,,,,,,METAR,548.0
KK70 160715Z AUTO 00000KT 10SM SCT022 25/21 A2999 RMK AO2,KK70,2023-05-16T07:15:00Z,25.32,-80.28,25.0,21.0,0,0,,10.0,29.991142,,,TRUE,TRUE,,,,,,,SCT,2200,,,,,,,VFR,,,,,,,,,,,,METAR,20.0
KK62 160715Z AUTO 00000KT 10SM SCT095 13/13 A3002 RMK AO2,KK62,2023-05-16T07:15:00Z,38.7,-84.4,13.0,13.0,0,0,,10.0,30.02067,,,TRUE,TRUE,,,,,,,SCT,9500,,,,,,,VFR,,,,,,,,,,,,METAR,274.0
KJZP 160715Z AUTO 13004KT 10SM BKN020 21/18 A3010 RMK AO2 T02060179,KJZP,2023-05-16T07:15:00Z,34.45,-84.47,20.6,17.9,130,4,,10.0,30.100393,,,TRUE,TRUE,,,,,,,BKN,2000,,,,,,,MVFR,,,,,,,,,,,,METAR,462.0
KJZI 160715Z AUTO 00000KT 10SM BKN021 19/18 A3007 RMK AO2,KJZI,2023-05-16T07:15:00Z,32.7,-80.0,19.0,18.0,0,0,,10.0,30.070866,,,TRUE,TRUE,,,,,,,BKN,2100,,,,,,,MVFR,,,,,,,,,,,,METAR,5.0
KJYR 160715Z AUTO 00000KT 9SM FEW026 OVC035 12/11 A3018 RMK AO2,KJYR,2023-05-16T07:15:00Z,40.9,-97.62,12.0,11.0,0,0,,9.0,30.180119,,,TRUE,TRUE,,,,,,,FEW,2600,OVC,3500,,,,,VFR,,,,,,,,,,,,METAR,508.0
KJYO 160715Z AUTO 00000KT 10SM CLR 12/11 A3001 RMK AO2,KJYO,2023-05-16T07:15:00Z,39.07,-77.57,12.0,11.0,0,0,,10.0,30.008858,,,TRUE,TRUE,,,,,,,CLR,,,,,,,,VFR,,,,,,,,,,,,METAR,112.0
KJYM 160715Z AUTO 00000KT 10SM SCT120 10/06 A3001 RMK AO2 T00950062,KJYM,2023-05-16T07:15:00Z,41.92,-84.58,9.5,6.2,0,0,,10.0,30.008858,,,TRUE,TRUE,,,,,,,SCT,12000,,,,,,,VFR,,,,,,,,,,,,SPECI,357.0
KJYL 160715Z AUTO 00000KT 7SM CLR 18/17 A3010 RMK AO2 T01760170,KJYL,2023-05-16T07:15:00Z,32.65,-81.6,17.6,17.0,0,0,,7.0,30.100393,,,TRUE,TRUE,,,,,,,CLR,,,,,,,,VFR,,,,,,,,,,,,METAR,54.0
KJWY 160715Z AUTO 00000KT 7SM SCT120 19/18 A3013 RMK AO2 T01860180,KJWY,2023-05-16T07:15:00Z,32.45,-96.92,18.6,18.0,0,0,,7.0,30.129921,,,TRUE,TRUE,,,,,,,SCT,12000,,,,,,,VFR,,,,,,,,,,,,METAR,211.0
KJWN 160715Z AUTO 00000KT 10SM BKN050 BKN060 20/20 A3001 RMK AO2,KJWN,2023-05-16T07:15:00Z,36.18,-86.88,20.0,20.0,0,0,,10.0,30.008858,,,TRUE,TRUE,,,,,,,BKN,5000,BKN,6000,,,,,VFR,,,,,,,,,,,,METAR,149.0
KJWG 160715Z AUTO 34005KT 10SM OVC033 16/14 A3021 RMK AO2 T01630137,KJWG,2023-05-16T07:15:00Z,35.87,-98.42,16.3,13.7,340,5,,10.0,30.209646,,,TRUE,TRUE,,,,,,,OVC,3300,,,,,,,VFR,,,,,,,,,,,,METAR,469.0
KJVY 160715Z AUTO 03003KT 10SM CLR 15/15 A3000 RMK AO2 PWINO,KJVY,2023-05-16T07:15:00Z,38.37,-85.73,15.0,15.0,30,3,,10.0,30.0,,,TRUE,TRUE,,,,,TRUE,,CLR,,,,,,,,VFR,,,,,,,,,,,,SPECI,141.0
KJVW 160715Z AUTO 00000KT 10SM SCT050 SCT055 22/22 A3004 RMK AO2,KJVW,2023-05-16T07:15:00Z,32.3,-90.42,22.0,22.0,0,0,,10.0,30.041338,,,TRUE,TRUE,,,,,,,SCT,5000,SCT,5500,,,,,VFR,,,,,,,,,,,,METAR,73.0
KJVL 160715Z AUTO 00000KT 10SM CLR 09/06 A3004 RMK AO2,KJVL,2023-05-16T07:15:00Z,42.62,-89.05,9.0,6.0,0,0,,10.0,30.041338,,,TRUE,TRUE,,,,,,,CLR,,,,,,,,VFR,,,,,,,,,,,,METAR,244.0
KJTC 160715Z AUTO 23005KT 10SM BKN110 10/06 A3038 RMK AO2,KJTC,2023-05-16T07:15:00Z,34.13,-109.32,10.0,6.0,230,5,,10.0,30.380905,,,TRUE,TRUE,,,,,,,BKN,11000,,,,,,,VFR,,,,,,,,,,,,METAR,2148.0
KJSV 160715Z AUTO 31008KT 10SM OVC009 20/20 A3006 RMK AO2,KJSV,2023-05-16T07:15:00Z,35.43,-94.8,20.0,20.0,310,8,,10.0,30.059055,,,TRUE,TRUE,,,,,,,OVC,900,,,,,,,IFR,,,,,,,,,,,,METAR,158.0
KJSO 160715Z AUTO 00000KT 10SM CLR 19/19 A3010 RMK AO2 T01900187 TSNO,KJSO,2023-05-16T07:15:00Z,31.87,-95.22,19.0,18.7,0,0,,10.0,30.100393,,,TRUE,TRUE,,,TRUE,,,,CLR,,,,,,,,VFR,,,,,,,,,,,,METAR,204.0
KJRO 160715Z AUTO 00000KT 10SM SCT050 14/13 A3003 RMK AO2,KJRO,2023-05-16T07:15:00Z,38.98,-82.58,14.0,13.0,0,0,,10.0,30.029528,,,TRUE,TRUE,,,,,,,SCT,5000,,,,,,,VFR,,,,,,,,,,,,METAR,224.0
KJPX 160715Z AUTO 26008KT 10SM CLR 16/05 A2986 RMK AO2 T01550047,KJPX,2023-05-16T07:15:00Z,40.95,-72.25,15.5,4.7,260,8,,10.0,29.861221,,,TRUE,TRUE,,,,,,,CLR,,,,,,,,VFR,,,,,,,,,,,,METAR,10.0
KJOT 160715Z AUTO 00000KT 10SM CLR 10/08 A3006 RMK AO2 T00980075,KJOT,2023-05-16T07:15:00Z,41.52,-88.18,9.8,7.5,0,0,,10.0,30.059055,,,TRUE,TRUE,,,,,,,CLR,,,,,,,,VFR,,,,,,,,,,,,METAR,175.0
KJMR 160715Z AUTO 25003KT 10SM CLR 14/03 A3006 RMK AO2,KJMR,2023-05-16T07:15:00Z,45.88,-93.27,14.0,3.0,250,3,,10.0,30.059055,,,TRUE,TRUE,,,,,,,CLR,,,,,,,,VFR,,,,,,,,,,,,SPECI,301.0
KJKJ 160715Z AUTO 25006KT 10SM CLR 16/07 A3004 RMK AO2 TSNO,KJKJ,2023-05-16T07:15:00Z,46.83,-96.67,16.0,7.0,250,6,,10.0,30.041338,,,TRUE,TRUE,,,TRUE,,,,CLR,,,,,,,,VFR,,,,,,,,,,,,SPECI,280.0
KJKA 160715Z AUTO 03003KT 10SM CLR 23/22 A3003 RMK AO2,KJKA,2023-05-16T07:15:00Z,30.28,-87.67,23.0,22.0,30,3,,10.0,30.029528,,,TRUE,TRUE,,,,,,,CLR,,,,,,,,VFR,,,,,,,,,,,,METAR,5.0
KJHN 160715Z AUTO 24005KT 7SM CLR 11/11 A3026 RMK AO2 T01130111,KJHN,2023-05-16T07:15:00Z,37.58,-101.73,11.3,11.1,240,5,,7.0,30.259842,,,TRUE,TRUE,,,,,,,CLR,,,,,,,,VFR,,,,,,,,,,,,METAR,1013.0
KJFZ 160715Z AUTO 25004KT 10SM OVC007 17/17 A3009 RMK AO2 T01720172,KJFZ,2023-05-16T07:15:00Z,37.07,-81.8,17.2,17.2,250,4,,10.0,30.088583,,,TRUE,TRUE,,,,,,,OVC,700,,,,,,,IFR,,,,,,,,,,,,METAR,809.0
KJFX 160715Z AUTO 00000KT 1/4SM FG OVC001 19/19 A3005 RMK AO2,KJFX,2023-05-16T07:15:00Z,33.9,-87.32,19.0,19.0,0,0,,0.25,30.050198,,,TRUE,TRUE,,,,,,FG,OVC,100,,,,,,,LIFR,,,,,,,,,,,,SPECI,144.0
KJES 160715Z AUTO 00000KT 7SM CLR 18/17 A3010 RMK AO2,KJES,2023-05-16T07:15:00Z,31.55,-81.88,18.0,17.0,0,0,,7.0,30.100393,,,TRUE,TRUE,,,,,,,CLR,,,,,,,,VFR,,,,,,,,,,,,METAR,26.0
KJDD 160715Z AUTO 00000KT 10SM SCT120 21/20 A3008 RMK AO2,KJDD,2023-05-16T07:15:00Z,32.75,-95.5,21.0,20.0,0,0,,10.0,30.079725,,,TRUE,TRUE,,,,,,,SCT,12000,,,,,,,VFR,,,,,,,,,,,,METAR,127.0
KJCA 160715Z AUTO 00000KT 10SM BKN028 BKN034 19/19 A3009 RMK AO2 T0193////,KJCA,2023-05-16T07:15:00Z,34.18,-83.57,19.3,19.0,0,0,,10.0,30.088583,,,TRUE,TRUE,,,,,,,BKN,2800,BKN,3400,,,,,MVFR,,,,,,,,,,,,METAR,287.0
KJAS 160715Z AUTO 26003KT 2SM BR BKN039 BKN049 20/20 A3005 RMK AO2 VIS 2V2 1/2,KJAS,2023-05-16T07:15:00Z,30.88,-94.03,20.0,20.0,260,3,,2.0,30.050198,,,TRUE,TRUE,,,,,,BR,BKN,3900,BKN,4900,,,,,IFR,,,,,,,,,,,,METAR,60.0
KJAQ 160715Z AUTO 03004KT 10SM CLR 20/08 A3008 RMK AO1 T01980082,KJAQ,2023-05-16T07:15:00Z,38.37,-120.8,19.8,8.2,30,4,,10.0,30.079725,,,TRUE,TRUE,,,,,,,CLR,,,,,,,,VFR,,,,,,,,,,,,METAR,518.0
KIZA 160715Z AUTO 00000KT 1SM UP BR 11/11 A3007 RMK AO2 VIS 1/2V2,KIZA,2023-05-16T07:15:00Z,34.6,-120.07,11.0,11.0,0,0,,1.0,30.070866,,,TRUE,TRUE,,,,,,BR UP,,,,,,,,,,,,,,,,,,,,,METAR,200.0
KIYA 160715Z AUTO 24004KT 21/19 A3006 RMK AO2 T02090187 PWINO,KIYA,2023-05-16T07:15:00Z,29.98,-92.08,20.9,18.7,240,4,,,30.059055,,,TRUE,TRUE,,,,,TRUE,,,,,,,,,,,,,,,,,,,,,,METAR,4.0
KIWA 160715Z AUTO 11005KT 10SM CLR 28/08 A2998 RMK AO2 T02840083,KIWA,2023-05-16T07:15:00Z,33.3,-111.65,28.4,8.3,110,5,,10.0,29.97933,,,TRUE,TRUE,,,,,,,CLR,,,,,,,,VFR,,,,,,,,,,,,METAR,420.0
KIUA 160715Z AUTO 26011G15KT 10SM CLR 12/M01 A2990 RMK AO2 T01151010,KIUA,2023-05-16T07:15:00Z,42.92,-77.33,11.5,-1.0,260,11,15,10.0,29.899607,,,TRUE,TRUE,,,,,,,CLR,,,,,,,,VFR,,,,,,,,,,,,METAR,248.0
KISQ 160715Z AUTO 00000KT 10SM CLR 06/05 A2984 RMK AO2 T00620047,KISQ,2023-05-16T07:15:00Z,45.97,-86.17,6.2,4.7,0,0,,10.0,29.840551,,,TRUE,TRUE,,,,,,,CLR,,,,,,,,VFR,,,,,,,,,,,,SPECI,206.0
KIRS 160715Z AUTO 00000KT 10SM CLR 09/00 A3002 RMK AO2 T00871001,KIRS,2023-05-16T07:15:00Z,41.8,-85.43,8.7,-0.1,0,0,,10.0,30.02067,,,TRUE,TRUE,,,,,,,CLR,,,,,,,,VFR,,,,,,,,,,,,METAR,282.0
KIOB 160715Z AUTO 00000KT 10SM SCT075 13/13 A3005 RMK AO2 PWINO,KIOB,2023-05-16T07:15:00Z,38.05,-83.98,13.0,13.0,0,0,,10.0,30.050198,,,TRUE,TRUE,,,,,TRUE,,SCT,7500,,,,,,,VFR,,,,,,,,,,,,METAR,301.0
KINJ 160715Z AUTO 00000KT 10SM CLR 18/18 A3011 RMK AO2 T01820182,KINJ,2023-05-16T07:15:00Z,32.08,-97.1,18.2,18.2,0,0,,10.0,30.109253,,,TRUE,TRUE,,,,,,,CLR,,,,,,,,VFR,,,,,,,,,,,,METAR,208.0
KINF 160715Z AUTO 00000KT 7SM SCT070 21/20 A3006 RMK AO2,KINF,2023-05-16T07:15:00Z,28.8,-82.32,21.0,20.0,0,0,,7.0,30.059055,,,TRUE,TRUE,,,,,,,SCT,7000,,,,,,,VFR,,,,,,,,,,,,METAR,14.0
KIMS 160715Z AUTO 00000KT 10SM CLR 14/14 A3004 RMK AO2,KIMS,2023-05-16T07:15:00Z,38.75,-85.47,14.0,14.0,0,0,,10.0,30.041338,,,TRUE,TRUE,,,,,,,CLR,,,,,,,,VFR,,,,,,,,,,,,SPECI,244.0
KIMM 160715Z AUTO 00000KT 10SM OVC050 A3003 RMK AO2,KIMM,2023-05-16T07:15:00Z,26.43,-81.4,,,0,0,,10.0,30.029528,,,TRUE,TRUE,,,,,,,OVC,5000,,,,,,,VFR,,,,,,,,,,,,METAR,11.0
KIKW 160715Z AUTO 00000KT 10SM CLR 07/01 A2995 RMK AO2 T00730007,KIKW,2023-05-16T07:15:00Z,43.67,-84.27,7.3,0.7,0,0,,10.0,29.949802,,,TRUE,TRUE,,,,,,,CLR,,,,,,,,VFR,,,,,,,,,,,,METAR,190.0
KIKV 160715Z AUTO 29003KT 10SM OVC060 14/12 A3012 RMK AO2,KIKV,2023-05-16T07:15:00Z,41.68,-93.57,14.0,12.0,290,3,,10.0,30.121063,,,TRUE,TRUE,,,,,,,OVC,6000,,,,,,,VFR,,,,,,,,,,,,METAR,270.0
KIKK 160715Z AUTO 00000KT 10SM BKN120 12/06 A3006 RMK AO2 T01150057 PWINO,KIKK,2023-05-16T07:15:00Z,41.07,-87.85,11.5,5.7,0,0,,10.0,30.059055,,,TRUE,TRUE,,,,,TRUE,,BKN,12000,,,,,,,VFR,,,,,,,,,,,,METAR,188.0
KIKG 160715Z AUTO 00000KT 10SM BKN120 22/21 A3009 RMK AO2 T02180205,KIKG,2023-05-16T07:15:00Z,27.55,-98.03,21.8,20.5,0,0,,10.0,30.088583,,,TRUE,TRUE,,,,,,,BKN,12000,,,,,,,VFR,,,,,,,,,,,,METAR,37.0
KIJX 160715Z AUTO 36005KT 10SM OVC060 16/11 A3004 RMK AO2 T01610112,KIJX,2023-05-16T07:15:00Z,39.77,-90.25,16.1,11.2,360,5,,10.0,30.041338,,,TRUE,TRUE,,,,,,,OVC,6000,,,,,,,VFR,,,,,,,,,,,,METAR,187.0
KIIY 160715Z AUTO 17004KT 10SM SCT050 19/18 A3009 RMK AO2 T01950183,KIIY,2023-05-16T07:15:00Z,33.78,-82.82,19.5,18.3,170,4,,10.0,30.088583,,,TRUE,TRUE,,,,,,,SCT,5000,,,,,,,VFR,,,,,,,,,,,,METAR,192.0
KIIB 160715Z AUTO 00000KT 10SM CLR 13/07 A3011 RMK AO2 T01340069,KIIB,2023-05-16T07:15:00Z,42.45,-91.95,13.4,6.9,0,0,,10.0,30.109253,,,TRUE,TRUE,,,,,,,CLR,,,,,,,,VFR,,,,,,,,,,,,METAR,294.0
KIGQ 160715Z AUTO 00000KT 10SM CLR 08/06 A3005 RMK AO2 T00790056,KIGQ,2023-05-16T07:15:00Z,41.53,-87.53,7.9,5.6,0,0,,10.0,30.050198,,,TRUE,TRUE,,,,,,,CLR,,,,,,,,VFR,,,,,,,,,,,,SPECI,187.0
KIFP 160715Z AUTO 15005KT 10SM CLR 31/05 A2992 RMK AO2,KIFP,2023-05-16T07:15:00Z,35.15,-114.57,31.0,5.0,150,5,,10.0,29.920275,,,TRUE,TRUE,,,,,,,CLR,,,,,,,,VFR,,,,,,,,,,,,METAR,210.0
KIFA 160715Z AUTO 30003KT 10SM CLR 13/10 A3012 RMK AO2 T01280103,KIFA,2023-05-16T07:15:00Z,42.47,-93.27,12.8,10.3,300,3,,10.0,30.121063,,,TRUE,TRUE,,,,,,,CLR,,,,,,,,VFR,,,,,,,,,,,,SPECI,344.0
KIER 160715Z AUTO 13003KT 10SM CLR 21/21 A3007 RMK AO2 T02120205,KIER,2023-05-16T07:15:00Z,31.73,-93.1,21.2,20.5,130,3,,10.0,30.070866,,,TRUE,TRUE,,,,,,,CLR,,,,,,,,VFR,,,,,,,,,,,,METAR,35.0
KIDP 160715Z AUTO 33010KT 10SM OVC009 15/14 A3011 RMK AO2 T01540142,KIDP,2023-05-16T07:15:00Z,37.17,-95.78,15.4,14.2,330,10,,10.0,30.109253,,,TRUE,TRUE,,,,,,,OVC,900,,,,,,,IFR,,,,,,,,,,,,METAR,252.0
KIDI 160715Z AUTO 00000KT 10SM CLR 07/04 A3005 RMK A01,KIDI,2023-05-16T07:15:00Z,40.63,-79.1,7.0,4.0,0,0,,10.0,30.050198,,,TRUE,TRUE,,,,,,,CLR,,,,,,,,VFR,,,,,,,,,,,,METAR,425.0
KICL 160715Z AUTO 01003KT 10SM OVC023 13/13 A3015 RMK AO2,KICL,2023-05-16T07:15:00Z,40.72,-95.02,13.0,13.0,10,3,,10.0,30.15059,,,TRUE,TRUE,,,,,,,OVC,2300,,,,,,,MVFR,,,,,,,,,,,,METAR,299.0
KIBM 160715Z AUTO 18003KT 10SM CLR 08/07 A3024 RMK AO2 T00770069,KIBM,2023-05-16T07:15:00Z,41.18,-103.68,7.7,6.9,180,3,,10.0,30.239174,,,TRUE,TRUE,,,,,,,CLR,,,,,,,,VFR,,,,,,,,,,,,METAR,1494.0
KIAB 160715Z AUTO 32009KT 10SM OVC007 13/12 A3013 RMK AO2 SLP203,KIAB,2023-05-16T07:15:00Z,37.62,-97.27,13.0,12.0,320,9,,10.0,30.129921,1020.3,,TRUE,TRUE,,,,,,,OVC,700,,,,,,,IFR,,,,,,,,,,,,SPECI,413.0
KI95 160715Z AUTO 00000KT 10SM CLR 11/08 A3000 RMK A01,KI95,2023-05-16T07:15:00Z,,,11.0,8.0,0,0,,10.0,30.0,,,TRUE,TRUE,,,,,,,CLR,,,,,,,,VFR,,,,,,,,,,,,METAR,
KI75 160715Z AUTO 36004KT 10SM SCT037 OVC050 14/12 A3012 RMK AO2 T01410115,KI75,2023-05-16T07:15:00Z,41.05,-93.68,14.1,11.5,360,4,,10.0,30.121063,,,TRUE,TRUE,,,,,,,SCT,3700,OVC,5000,,,,,VFR,,,,,,,,,,,,METAR,336.0
KI74 160715Z AUTO 00000KT 10SM CLR 11/10 A3003 RMK AO2,KI74,2023-05-16T07:15:00Z,40.12,-83.75,11.0,10.0,0,0,,10.0,30.029528,,,TRUE,TRUE,,,,,,,CLR,,,,,,,,VFR,,,,,,,,,,,,SPECI,322.0
KI68 160715Z AUTO 00000KT 10SM 15/13 A3003 RMK AO1 T01480128,KI68,2023-05-16T07:15:00Z,39.47,-84.25,14.8,12.8,0,0,,10.0,30.029528,,,TRUE,TRUE,,,,,,,,,,,,,,,,,,,,,,,,,,,METAR,274.0
KI67 160715Z AUTO 00000KT 10SM BKN110 13/12 A3002 RMK AO1,KI67,2023-05-16T07:15:00Z,39.25,-84.78,13.0,12.0,0,0,,10.0,30.02067,,,TRUE,TRUE,,,,,,,BKN,11000,,,,,,,VFR,,,,,,,,,,,,SPECI,177.0
KI63 160715Z AUTO 36006KT 10SM -DZ SCT048 OVC065 15/12 A3005 RMK AO2 T01510120,KI63,2023-05-16T07:15:00Z,39.98,-90.8,15.1,12.0,360,6,,10.0,30.050198,,,TRUE,TRUE,,,,,,-DZ,SCT,4800,OVC,6500,,,,,VFR,,,,,,,,,,,,METAR,221.0
KI23 160715Z AUTO 00000KT 10SM CLR 14/11 A3002 RMK AO1,KI23,2023-05-16T07:15:00Z,39.57,-83.42,14.0,11.0,0,0,,10.0,30.02067,,,TRUE,TRUE,,,,,,,CLR,,,,,,,,VFR,,,,,,,,,,,,SPECI,298.0
KI19 160715Z AUTO 00000KT 10SM FEW120 14/13 A3001 RMK AO2,KI19,2023-05-16T07:15:00Z,39.7,-83.98,14.0,13.0,0,0,,10.0,30.008858,,,TRUE,TRUE,,,,,,,FEW,12000,,,,,,,VFR,,,,,,,,,,,,SPECI,285.0
KHZX 160715Z AUTO 26007KT 10SM CLR 16/03 A3000 RMK AO2,KHZX,2023-05-16T07:15:00Z,46.62,-93.32,16.0,3.0,260,7,,10.0,30.0,,,TRUE,TRUE,,,,,,,CLR,,,,,,,,VFR,,,,,,,,,,,,METAR,374.0
KHZR 160715Z AUTO 00000KT 7SM CLR 21/21 A3006 RMK AO2 T02100210,KHZR,2023-05-16T07:15:00Z,30.72,-91.48,21.0,21.0,0,0,,7.0,30.059055,,,TRUE,TRUE,,,,,,,CLR,,,,,,,,VFR,,,,,,,,,,,,METAR,11.0
KHZL 160715Z AUTO 00000KT 10SM CLR 05/03 A2999 RMK AO2,KHZL,2023-05-16T07:15:00Z,40.98,-76.0,5.0,3.0,0,0,,10.0,29.991142,,,TRUE,TRUE,,,,,,,CLR,,,,,,,,VFR,,,,,,,,,,,,SPECI,481.0
KHZE 160715Z AUTO 00000KT 10SM CLR 07/06 A3015 RMK AO2,KHZE,2023-05-16T07:15:00Z,47.28,-101.58,7.0,6.0,0,0,,10.0,30.15059,,,TRUE,TRUE,,,,,,,CLR,,,,,,,,VFR,,,,,,,,,,,,METAR,542.0
KHZD 160715Z AUTO 17004KT 10SM BKN044 BKN050 OVC055 21/20 A2999 RMK A01,KHZD,2023-05-16T07:15:00Z,36.08,-88.47,21.0,20.0,170,4,,10.0,29.991142,,,TRUE,TRUE,,,,,,,BKN,4400,BKN,5000,OVC,5500,,,VFR,,,,,,,,,,,,METAR,147.0
KHYX 160715Z AUTO 22006KT 10SM CLR 09/03 A2996 RMK AO2 T00880033,KHYX,2023-05-16T07:15:00Z,43.43,-83.87,8.8,3.3,220,6,,10.0,29.958662,,,TRUE,TRUE,,,,,,,CLR,,,,,,,,VFR,,,,,,,,,,,,METAR,181.0
KHYW 160715Z AUTO 00000KT 10SM CLR 13/13 A3009 RMK AO2,KHYW,2023-05-16T07:15:00Z,33.83,-79.12,13.0,13.0,0,0,,10.0,30.088583,,,TRUE,TRUE,,,,,,,CLR,,,,,,,,VFR,,,,,,,,,,,,METAR,10.0
KHXD 160715Z AUTO 00000KT 10SM CLR 22/20 A3008 RMK AO2,KHXD,2023-05-16T07:15:00Z,32.22,-80.7,22.0,20.0,0,0,,10.0,30.079725,,,TRUE,TRUE,,,,,,,CLR,,,,,,,,VFR,,,,,,,,,,,,METAR,5.0
KHWY 160715Z AUTO 00000KT 10SM BKN100 11/10 A3000 RMK AO2 T01130099,KHWY,2023-05-16T07:15:00Z,38.58,-77.72,11.3,9.9,0,0,,10.0,30.0,,,TRUE,TRUE,,,,,,,BKN,10000,,,,,,,VFR,,,,,,,,,,,,METAR,93.0
KHVS 160715Z AUTO 00000KT 9SM 16/15 A3009 RMK AO2,KHVS,2023-05-16T07:15:00Z,34.4,-80.12,16.0,15.0,0,0,,9.0,30.088583,,,TRUE,TRUE,,,,,,,,,,,,,,,,,,,,,,,,,,,METAR,110.0
KHVE 160715Z AUTO 33004KT 10SM CLR 16/08 A3027 RMK AO2,KHVE,2023-05-16T07:15:00Z,38.42,-110.7,16.0,8.0,330,4,,10.0,30.268702,,,TRUE,TRUE,,,,,,,CLR,,,,,,,,VFR,,,,,,,,,,,,METAR,1351.0
KHVC 160715Z AUTO 00000KT 5SM BR BKN055 19/19 A3000 RMK AO2,KHVC,2023-05-16T07:15:00Z,,,19.0,19.0,0,0,,5.0,30.0,,,TRUE,TRUE,,,,,,BR,BKN,5500,,,,,,,MVFR,,,,,,,,,,,,METAR,
KHUM 160715Z AUTO 00000KT 5SM BR CLR 21/20 A3006 RMK AO2 T02120203,KHUM,2023-05-16T07:15:00Z,29.57,-90.67,21.2,20.3,0,0,,5.0,30.059055,,,TRUE,TRUE,,,,,,BR,CLR,,,,,,,,MVFR,,,,,,,,,,,,METAR,1.0
KHTH 160715Z AUTO 23006KT 10SM CLR 16/02 A3022 RMK A01,KHTH,2023-05-16T07:15:00Z,38.55,-118.63,16.0,2.0,230,6,,10.0,30.221457,,,TRUE,TRUE,,,,,,,CLR,,,,,,,,VFR,,,,,,,,,,,,METAR,1281.0
KHSG 160715Z AUTO 23011KT 10SM CLR 10/04 A3020 RMK AO2 T00960043,KHSG,2023-05-16T07:15:00Z,43.72,-108.38,9.6,4.3,230,11,,10.0,30.200787,,,TRUE,TRUE,,,,,,,CLR,,,,,,,,VFR,,,,,,,,,,,,METAR,1497.0
KHSD 160715Z AUTO 34007KT 10SM OVC037 16/15 A3015 RMK A01,KHSD,2023-05-16T07:15:00Z,35.6,-97.72,16.0,15.0,340,7,,10.0,30.15059,,,TRUE,TRUE,,,,,,,OVC,3700,,,,,,,VFR,,,,,,,,,,,,METAR,358.0
KHSB 160715Z AUTO 00000KT 10SM SCT027 BKN100 19/19 A3000 RMK AO2 LTG DSNT NW T01920192,KHSB,2023-05-16T07:15:00Z,37.82,-88.55,19.2,19.2,0,0,,10.0,30.0,,,TRUE,TRUE,,,,,,,SCT,2700,BKN,10000,,,,,VFR,,,,,,,,,,,,SPECI,118.0
KHRX 160715Z AUTO 32004KT 10SM CLR 12/11 A3030 RMK AO2 T01190109,KHRX,2023-05-16T07:15:00Z,34.87,-102.33,11.9,10.9,320,4,,10.0,30.301182,,,TRUE,TRUE,,,,,,,CLR,,,,,,,,VFR,,,,,,,,,,,,METAR,1153.0
KHQZ 160715Z AUTO 23004KT 10SM SCT020 SCT029 20/19 A3009 RMK AO1 T01970185,KHQZ,2023-05-16T07:15:00Z,32.75,-96.53,19.7,18.5,230,4,,10.0,30.088583,,,TRUE,TRUE,,,,,,,SCT,2000,SCT,2900,,,,,VFR,,,,,,,,,,,,METAR,136.0
KHQU 160715Z AUTO 17003KT 10SM CLR 20/18 A3009 RMK AO2 T01960179,KHQU,2023-05-16T07:15:00Z,33.53,-82.52,19.6,17.9,170,3,,10.0,30.088583,,,TRUE,TRUE,,,,,,,CLR,,,,,,,,VFR,,,,,,,,,,,,METAR,141.0
KHQG 160715Z AUTO 29003KT 4SM CLR 11/10 A3025 RMK AO2 T01050100 PWINO,KHQG,2023-05-16T07:15:00Z,37.17,-101.37,10.5,10.0,290,3,,4.0,30.250984,,,TRUE,TRUE,,,,,TRUE,,CLR,,,,,,,,MVFR,,,,,,,,,,,,METAR,956.0
KHQG 160715Z AUTO 29003KT 4SM CLR 11/10 A3025 RMK AO2 T01050100 PWINO,KHQG,2023-05-16T07:15:00Z,37.17,-101.37,10.5,10.0,290,3,,4.0,30.250984,,,TRUE,TRUE,,,,,TRUE,,CLR,,,,,,,,MVFR,,,,,,,,,,,,METAR,956.0
KHPT 160715Z AUTO 30005KT 10SM CLR 12/08 A3011 RMK AO2,KHPT,2023-05-16T07:15:00Z,42.72,-93.23,12.0,8.0,300,5,,10.0,30.109253,,,TRUE,TRUE,,,,,,,CLR,,,,,,,,VFR,,,,,,,,,,,,METAR,354.0
KHOE 160715Z AUTO 00000KT 5SM BR CLR 20/18 A3008 RMK AO2 T01990190,KHOE,2023-05-16T07:15:00Z,31.05,-82.78,19.9,19.0,0,0,,5.0,30.079725,,,TRUE,TRUE,,,,,,BR,CLR,,,,,,,,MVFR,,,,,,,,,,,,METAR,56.0
KHNR 160715Z AUTO 00000KT 10SM OVC043 13/12 A3014 RMK A01,KHNR,2023-05-16T07:15:00Z,41.58,-95.33,13.0,12.0,0,0,,10.0,30.138779,,,TRUE,TRUE,,,,,,,OVC,4300,,,,,,,VFR,,,,,,,,,,,,METAR,364.0
KHMZ 160715Z AUTO 00000KT 10SM CLR 06/06 A3001 RMK AO2 T00600055,KHMZ,2023-05-16T07:15:00Z,40.08,-78.52,6.0,5.5,0,0,,10.0,30.008858,,,TRUE,TRUE,,,,,,,CLR,,,,,,,,VFR,,,,,,,,,,,,METAR,351.0
KHMT 160715Z AUTO 00000KT 10SM CLR 15/14 A3005 RMK AO2 T01510138,KHMT,2023-05-16T07:15:00Z,33.73,-117.02,15.1,13.8,0,0,,10.0,30.050198,,,TRUE,TRUE,,,,,,,CLR,,,,,,,,VFR,,,,,,,,,,,,METAR,462.0
KHMP 160715Z AUTO 00000KT 10SM OVC017 21/20 A3011 RMK AO2 T02110196,KHMP,2023-05-16T07:15:00Z,33.38,-84.33,21.1,19.6,0,0,,10.0,30.109253,,,TRUE,TRUE,,,,,,,OVC,1700,,,,,,,MVFR,,,,,,,,,,,,METAR,263.0
KHLX 160715Z AUTO 19004KT 7SM -RA SCT006 OVC028 14/14 A3010 RMK AO2 T01400135,KHLX,2023-05-16T07:15:00Z,36.77,-80.82,14.0,13.5,190,4,,7.0,30.100393,,,TRUE,TRUE,,,,,,-RA,SCT,600,OVC,2800,,,,,MVFR,,,,,,,,,,,,METAR,819.0
KHLB 160715Z AUTO 00000KT 10SM FEW100 14/14 A3002 RMK A01,KHLB,2023-05-16T07:15:00Z,39.35,-85.27,14.0,14.0,0,0,,10.0,30.02067,,,TRUE,TRUE,,,,,,,FEW,10000,,,,,,,VFR,,,,,,,,,,,,METAR,297.0
KHJH 160715Z AUTO 32003KT 7SM OVC016 13/12 A3017 RMK AO2 T01300120,KHJH,2023-05-16T07:15:00Z,40.15,-97.58,13.0,12.0,320,3,,7.0,30.171259,,,TRUE,TRUE,,,,,,,OVC,1600,,,,,,,MVFR,,,,,,,,,,,,METAR,449.0
KHHG 160715Z AUTO 00000KT 10SM CLR 11/08 A3003 RMK AO2 T01050077,KHHG,2023-05-16T07:15:00Z,40.85,-85.45,10.5,7.7,0,0,,10.0,30.029528,,,TRUE,TRUE,,,,,,,CLR,,,,,,,,VFR,,,,,,,,,,,,METAR,247.0
KHHF 160715Z AUTO 00000KT 10SM BKN048 15/12 A3022 RMK AO2 T01450121,KHHF,2023-05-16T07:15:00Z,35.9,-100.4,14.5,12.1,0,0,,10.0,30.221457,,,TRUE,TRUE,,,,,,,BKN,4800,,,,,,,VFR,,,,,,,,,,,,METAR,729.0
KHFY 160715Z AUTO 00000KT 10SM BKN085 OVC120 17/16 A3003 RMK AO2 T01720157,KHFY,2023-05-16T07:15:00Z,39.63,-86.08,17.2,15.7,0,0,,10.0,30.029528,,,TRUE,TRUE,,,,,,,BKN,8500,OVC,12000,,,,,VFR,,,,,,,,,,,,METAR,250.0
KHEQ 160715Z AUTO 15003KT 1SM BR VV007 08/06 A3024 RMK AO2 VIS 1/2V2 1/2,KHEQ,2023-05-16T07:15:00Z,40.57,-102.28,8.0,6.0,150,3,,1.0,30.239174,,,TRUE,TRUE,,,,,,BR,OVX,0,,,,,,,LIFR,,,,,,,,,,,700,METAR,1136.0
KHEG 160715Z AUTO 00000KT 1 1/2SM BR BKN014 19/19 A3009 RMK AO2,KHEG,2023-05-16T07:15:00Z,30.28,-81.8,19.0,19.0,0,0,,1.5,30.088583,,,TRUE,TRUE,,,,,,BR,BKN,1400,,,,,,,IFR,,,,,,,,,,,,METAR,25.0
KHDL 160715Z AUTO 00000KT 8SM FEW038 FEW044 SCT050 21/21 A3005 RMK AO2,KHDL,2023-05-16T07:15:00Z,31.37,-85.32,21.0,21.0,0,0,,8.0,30.050198,,,TRUE,TRUE,,,,,,,FEW,3800,FEW,4400,SCT,5000,,,VFR,,,,,,,,,,,,METAR,109.0
KHDE 160715Z AUTO 00000KT 5SM BR BKN010 BKN020 OVC028 11/10 A3020 RMK AO2 T01080101,KHDE,2023-05-16T07:15:00Z,40.45,-99.33,10.8,10.1,0,0,,5.0,30.200787,,,TRUE,TRUE,,,,,,BR,BKN,1000,BKN,2000,OVC,2800,,,MVFR,,,,,,,,,,,,METAR,703.0
KHDC 160715Z AUTO 00000KT 10SM CLR 21/20 A3004 RMK AO2 T02070202,KHDC,2023-05-16T07:15:00Z,30.52,-90.42,20.7,20.2,0,0,,10.0,30.041338,,,TRUE,TRUE,,,,,,,CLR,,,,,,,,VFR,,,,,,,,,,,,METAR,12.0
KHCR 160715Z AUTO 10SM CLR 07/03 A3030 RMK AO2,KHCR,2023-05-16T07:15:00Z,40.48,-111.43,7.0,3.0,,,,10.0,30.301182,,,TRUE,TRUE,,,,,,,CLR,,,,,,,,VFR,,,,,,,,,,,,METAR,1708.0
KHCO 160715Z AUTO 28004KT 10SM 15/04 A2996 RMK AO2,KHCO,2023-05-16T07:15:00Z,48.75,-96.93,15.0,4.0,280,4,,10.0,29.958662,,,TRUE,TRUE,,,,,,,,,,,,,,,,,,,,,,,,,,,METAR,250.0
KHCD 160715Z AUTO 24005KT 10SM CLR 13/09 A3009 RMK AO2 T01310085,KHCD,2023-05-16T07:15:00Z,44.87,-94.38,13.1,8.5,240,5,,10.0,30.088583,,,TRUE,TRUE,,,,,,,CLR,,,,,,,,VFR,,,,,,,,,,,,METAR,320.0
KHBV 160715Z AUTO 00000KT 10SM CLR 21/19 A3010 RMK AO2 T02090190,KHBV,2023-05-16T07:15:00Z,27.35,-98.73,20.9,19.0,0,0,,10.0,30.100393,,,TRUE,TRUE,,,,,,,CLR,,,,,,,,VFR,,,,,,,,,,,,METAR,200.0
KHAI 160715Z AUTO 00000KT 10SM CLR 08/02 A3003 RMK AO2 T00800020,KHAI,2023-05-16T07:15:00Z,41.97,-85.6,8.0,2.0,0,0,,10.0,30.029528,,,TRUE,TRUE,,,,,,,CLR,,,,,,,,VFR,,,,,,,,,,,,SPECI,250.0
KHAF 160715Z AUTO 34005G11KT 10SM OVC007 12/11 A3009 RMK AO2,KHAF,2023-05-16T07:15:00Z,37.52,-122.5,12.0,11.0,340,5,11,10.0,30.088583,,,TRUE,TRUE,,,,,,,OVC,700,,,,,,,IFR,,,,,,,,,,,,METAR,11.0
KHAE 160715Z AUTO 02006KT 10SM OVC033 17/10 A3006 RMK AO2,KHAE,2023-05-16T07:15:00Z,39.73,-91.45,17.0,10.0,20,6,,10.0,30.059055,,,TRUE,TRUE,,,,,,,OVC,3300,,,,,,,VFR,,,,,,,,,,,,METAR,230.0
KGZS 160715Z AUTO 00000KT 18/18 RMK A01,KGZS,2023-05-16T07:15:00Z,35.15,-87.05,18.0,18.0,0,0,,,,,,TRUE,TRUE,,,,,,,,,,,,,,,,,,,,,,,,,,,METAR,198.0
KGZL 160715Z AUTO 31006KT 10SM FEW017 OVC024 20/18 A3007 RMK AO2,KGZL,2023-05-16T07:15:00Z,35.28,-95.1,20.0,18.0,310,6,,10.0,30.070866,,,TRUE,TRUE,,,,,,,FEW,1700,OVC,2400,,,,,MVFR,,,,,,,,,,,,METAR,176.0
KGYI 160715Z AUTO 02005KT 10SM BKN110 19/18 A3010 RMK AO2 T01900180 TSNO,KGYI,2023-05-16T07:15:00Z,33.72,-96.67,19.0,18.0,20,5,,10.0,30.100393,,,TRUE,TRUE,,,TRUE,,,,BKN,11000,,,,,,,VFR,,,,,,,,,,,,METAR,227.0
KGYH 160715Z AUTO 22005KT 10SM OVC070 20/14 A3008 RMK A02 T01970143,KGYH,2023-05-16T07:15:00Z,34.75,-82.38,19.7,14.3,220,5,,10.0,30.079725,,,TRUE,TRUE,,,,,,,OVC,7000,,,,,,,VFR,,,,,,,,,,,,METAR,283.0
KGYF 160715Z AUTO 11010KT 10SM VCTS SCT016 BKN021 BKN041 A3005 RMK AO2 LTG DSNT W,KGYF,2023-05-16T07:15:00Z,26.13,-94.9,,,110,10,,10.0,30.050198,,,TRUE,TRUE,,,,,,VCTS,SCT,1600,BKN,2100,BKN,4100,,,MVFR,,,,,,,,,,,,METAR,65.0
KGYB 160715Z AUTO 00000KT 10SM CLR 21/20 A3010 RMK AO2 T02080201,KGYB,2023-05-16T07:15:00Z,30.17,-96.98,20.8,20.1,0,0,,10.0,30.100393,,,TRUE,TRUE,,,,,,,CLR,,,,,,,,VFR,,,,,,,,,,,,METAR,140.0
KGWR 160715Z AUTO 26009KT 10SM CLR 13/13 A3009 RMK A01,KGWR,2023-05-16T07:15:00Z,46.22,-97.65,13.0,13.0,260,9,,10.0,30.088583,,,TRUE,TRUE,,,,,,,CLR,,,,,,,,VFR,,,,,,,,,,,,METAR,381.0
KGWB 160715Z AUTO 00000KT 10SM CLR 10/06 A3004 RMK AO2,KGWB,2023-05-16T07:15:00Z,41.3,-85.07,10.0,6.0,0,0,,10.0,30.041338,,,TRUE,TRUE,,,,,,,CLR,,,,,,,,VFR,,,,,,,,,,,,METAR,268.0
KGVT 160715Z AUTO 19004KT 10SM SCT017 20/20 A3009 RMK AO2 TSNO T01980195,KGVT,2023-05-16T07:15:00Z,33.07,-96.07,19.8,19.5,190,4,,10.0,30.088583,,,TRUE,TRUE,,,TRUE,,,,SCT,1700,,,,,,,VFR,,,,,,,,,,,,METAR,165.0
KGVE 160715Z AUTO 22005KT 10SM BKN090 OVC110 15/12 A3002 RMK AO1 T01530123,KGVE,2023-05-16T07:15:00Z,38.15,-78.17,15.3,12.3,220,5,,10.0,30.02067,,,TRUE,TRUE,,,,,,,BKN,9000,OVC,11000,,,,,VFR,,,,,,,,,,,,METAR,138.0
KGRY 160715Z AUTO 00000KT 10SM FEW022 FEW037 SCT042 27/23 A3006 RMK A01,KGRY,2023-05-16T07:15:00Z,27.63,-90.45,27.0,23.0,0,0,,10.0,30.059055,,,TRUE,TRUE,,,,,,,FEW,2200,FEW,3700,SCT,4200,,,VFR,,,,,,,,,,,,METAR,58.0
KGRN 160715Z AUTO 00000KT 10SM CLR 09/07 A3021 RMK AO2 T00900073,KGRN,2023-05-16T07:15:00Z,42.8,-102.17,9.0,7.3,0,0,,10.0,30.209646,,,TRUE,TRUE,,,,,,,CLR,,,,,,,,VFR,,,,,,,,,,,,METAR,1080.0
KGPM 160715Z AUTO 00000KT 10SM BKN015 21/19 A3011 RMK AO2 T02100190,KGPM,2023-05-16T07:15:00Z,32.7,-97.05,21.0,19.0,0,0,,10.0,30.109253,,,TRUE,TRUE,,,,,,,BKN,1500,,,,,,,MVFR,,,,,,,,,,,,METAR,178.0
KGPH 160715Z AUTO 00000KT 7SM SCT008 OVC012 15/14 A3009 RMK AO2,KGPH,2023-05-16T07:15:00Z,39.33,-94.32,15.0,14.0,0,0,,7.0,30.088583,,,TRUE,TRUE,,,,,,,SCT,800,OVC,1200,,,,,MVFR,,,,,,,,,,,,METAR,233.0
KGPC 160715Z AUTO 00000KT 7SM -RA SCT080 OVC090 16/15 A3003 RMK AO2 T01590152,KGPC,2023-05-16T07:15:00Z,39.63,-86.82,15.9,15.2,0,0,,7.0,30.029528,,,TRUE,TRUE,,,,,,-RA,SCT,8000,OVC,9000,,,,,VFR,,,,,,,,,,,,METAR,254.0
KGOP 160715Z AUTO 00000KT 10SM CLR 19/19 A3011 RMK AO2,KGOP,2023-05-16T07:15:00Z,31.42,-97.8,19.0,19.0,0,0,,10.0,30.109253,,,TRUE,TRUE,,,,,,,CLR,,,,,,,,VFR,,,,,,,,,,,,METAR,272.0
KGOO 160715Z AUTO 11004KT 10SM CLR 20/03 A3015 RMK A01,KGOO,2023-05-16T07:15:00Z,39.22,-121.0,20.0,3.0,110,4,,10.0,30.15059,,,TRUE,TRUE,,,,,,,CLR,,,,,,,,VFR,,,,,,,,,,,,METAR,950.0
KGNT 160715Z AUTO 00000KT 10SM SCT110 09/07 A3041 RMK AO2 T00880072,KGNT,2023-05-16T07:15:00Z,35.17,-107.9,8.8,7.2,0,0,,10.0,30.410433,,,TRUE,TRUE,,,,,,,SCT,11000,,,,,,,VFR,,,,,,,,,,,,METAR,1988.0
KGNB 160715Z AUTO 09003KT 10SM SCT060 04/02 A3045 RMK AO2 T00440024,KGNB,2023-05-16T07:15:00Z,40.08,-105.92,4.4,2.4,90,3,,10.0,30.448818,,,TRUE,TRUE,,,,,,,SCT,6000,,,,,,,VFR,,,,,,,,,,,,METAR,2500.0
KGMJ 160715Z AUTO 32006KT 1 3/4SM UP BR OVC004 19/19 A3007 RMK AO2,KGMJ,2023-05-16T07:15:00Z,36.6,-94.73,19.0,19.0,320,6,,1.75,30.070866,,,TRUE,TRUE,,,,,,BR UP,OVC,400,,,,,,,LIFR,,,,,,,,,,,,METAR,251.0
KGLY 160715Z AUTO 36005KT 4SM BR OVC005 17/17 A3005 RMK AO2,KGLY,2023-05-16T07:15:00Z,38.35,-93.68,17.0,17.0,360,5,,4.0,30.050198,,,TRUE,TRUE,,,,,,BR,OVC,500,,,,,,,IFR,,,,,,,,,,,,METAR,247.0
KGLW 160715Z AUTO 00000KT 10SM CLR 17/17 A3001 RMK AO2 T01740174,KGLW,2023-05-16T07:15:00Z,37.03,-85.95,17.4,17.4,0,0,,10.0,30.008858,,,TRUE,TRUE,,,,,,,CLR,,,,,,,,VFR,,,,,,,,,,,,METAR,216.0
KGLE 160715Z AUTO 34005KT 10SM CLR 18/18 A3012 RMK AO2 T01820182 PWINO,KGLE,2023-05-16T07:15:00Z,33.65,-97.2,18.2,18.2,340,5,,10.0,30.121063,,,TRUE,TRUE,,,,,TRUE,,CLR,,,,,,,,VFR,,,,,,,,,,,,METAR,250.0
KGKY 160715Z AUTO 00000KT 10SM BKN015 21/18 A3009 RMK AO2 T02060183 $,KGKY,2023-05-16T07:15:00Z,32.67,-97.1,20.6,18.3,0,0,,10.0,30.088583,,,TRUE,TRUE,TRUE,,,,,,BKN,1500,,,,,,,MVFR,,,,,,,,,,,,METAR,189.0
KGKT 160715Z AUTO 00000KT 9SM OVC043 19/19 A3006 RMK A01,KGKT,2023-05-16T07:15:00Z,35.85,-83.53,19.0,19.0,0,0,,9.0,30.059055,,,TRUE,TRUE,,,,,,,OVC,4300,,,,,,,VFR,,,,,,,,,,,,METAR,305.0
KGIC 160715Z AUTO 00000KT 10SM OVC100 16/09 A3015 RMK AO1,KGIC,2023-05-16T07:15:00Z,45.95,-116.12,16.0,9.0,0,0,,10.0,30.15059,,,TRUE,TRUE,,,,,,,OVC,10000,,,,,,,VFR,,,,,,,,,,,,METAR,1002.0
KGHW 160715Z AUTO 27009KT 10SM CLR 14/06 A3008 RMK AO2,KGHW,2023-05-16T07:15:00Z,45.63,-95.32,14.0,6.0,270,9,,10.0,30.079725,,,TRUE,TRUE,,,,,,,CLR,,,,,,,,VFR,,,,,,,,,,,,METAR,423.0
KGHG 160715Z AUTO 24007KT 10SM OVC090 14/05 A2978 RMK AO2,KGHG,2023-05-16T07:15:00Z,42.1,-70.67,14.0,5.0,240,7,,10.0,29.778543,,,TRUE,TRUE,,,,,,,OVC,9000,,,,,,,VFR,,,,,,,,,,,,METAR,3.0
KGGI 160715Z AUTO 33004KT 10SM BKN070 BKN085 BKN120 15/13 A3011 RMK AO2 T01470125,KGGI,2023-05-16T07:15:00Z,41.72,-92.73,14.7,12.5,330,4,,10.0,30.109253,,,TRUE,TRUE,,,,,,,BKN,7000,BKN,8500,BKN,12000,,,VFR,,,,,,,,,,,,SPECI,305.0
KGGF 160715Z AUTO 00000KT M1/4SM FG BKN001 08/08 A3024 RMK AO2,KGGF,2023-05-16T07:15:00Z,40.87,-101.73,8.0,8.0,0,0,,0.25,30.239174,,,TRUE,TRUE,,,,,,FG,BKN,100,,,,,,,LIFR,,,,,,,,,,,,METAR,1044.0
KGGE 160715Z AUTO 00000KT 10SM CLR 17/16 A3009 RMK AO2,KGGE,2023-05-16T07:15:00Z,33.32,-79.32,17.0,16.0,0,0,,10.0,30.088583,,,TRUE,TRUE,,,,,,,CLR,,,,,,,,VFR,,,,,,,,,,,,METAR,9.0
KGDJ 160715Z AUTO 00000KT 10SM SCT012 SCT085 OVC090 20/19 A3012 RMK AO2 T02000192,KGDJ,2023-05-16T07:15:00Z,32.45,-97.82,20.0,19.2,0,0,,10.0,30.121063,,,TRUE,TRUE,,,,,,,SCT,1200,SCT,8500,OVC,9000,,,VFR,,,,,,,,,,,,METAR,235.0
KGDB 160715Z AUTO 24006KT 10SM CLR 12/09 A3010 RMK AO2 T01170089,KGDB,2023-05-16T07:15:00Z,44.75,-95.55,11.7,8.9,240,6,,10.0,30.100393,,,TRUE,TRUE,,,,,,,CLR,,,,,,,,VFR,,,,,,,,,,,,METAR,316.0
KGDA 160715Z AUTO 00000KT 10SM CLR 18/17 A3000 RMK AO2 T01830172 PWINO,KGDA,2023-05-16T07:15:00Z,37.33,-88.1,18.3,17.2,0,0,,10.0,30.0,,,TRUE,TRUE,,,,,TRUE,,CLR,,,,,,,,VFR,,,,,,,,,,,,METAR,199.0
KGCY 160715Z AUTO 00000KT 10SM OVC011 19/17 A3006 RMK A01,KGCY,2023-05-16T07:15:00Z,36.2,-82.82,19.0,17.0,0,0,,10.0,30.059055,,,TRUE,TRUE,,,,,,,OVC,1100,,,,,,,MVFR,,,,,,,,,,,,METAR,488.0
KGCM 160715Z AUTO 30005G10KT 9SM OVC006 18/18 A3009 RMK AO2,KGCM,2023-05-16T07:15:00Z,36.3,-95.48,18.0,18.0,300,5,10,9.0,30.088583,,,TRUE,TRUE,,,,,,,OVC,600,,,,,,,IFR,,,,,,,,,,,,METAR,215.0
KGCD 160715Z AUTO 22005KT 10SM BKN100 OVC120 14/07 A3020 RMK AO2 T01440072,KGCD,2023-05-16T07:15:00Z,44.4,-118.97,14.4,7.2,220,5,,10.0,30.200787,,,TRUE,TRUE,,,,,,,BKN,10000,OVC,12000,,,,,VFR,,,,,,,,,,,,METAR,1122.0
KGBG 160715Z AUTO 00000KT 10SM DZ OVC070 14/12 A3008 RMK AO2 T01410115,KGBG,2023-05-16T07:15:00Z,40.93,-90.43,14.1,11.5,0,0,,10.0,30.079725,,,TRUE,TRUE,,,,,,DZ,OVC,7000,,,,,,,VFR,,,,,,,,,,,,METAR,230.0
KGAO 160715Z AUTO 00000KT 5SM BR CLR 22/20 A3005 RMK AO2 T02180204,KGAO,2023-05-16T07:15:00Z,29.45,-90.27,21.8,20.4,0,0,,5.0,30.050198,,,TRUE,TRUE,,,,,,BR,CLR,,,,,,,,MVFR,,,,,,,,,,,,METAR,0.0
KGAF 160715Z AUTO 27008KT 10SM CLR 18/07 A2999 RMK AO2,KGAF,2023-05-16T07:15:00Z,48.4,-97.37,18.0,7.0,270,8,,10.0,29.991142,,,TRUE,TRUE,,,,,,,CLR,,,,,,,,VFR,,,,,,,,,,,,METAR,250.0
KFZG 160715Z AUTO 00000KT 10SM SCT039 OVC048 21/20 A3009 RMK AO2 T02110202,KFZG,2023-05-16T07:15:00Z,31.68,-83.27,21.1,20.2,0,0,,10.0,30.088583,,,TRUE,TRUE,,,,,,,SCT,3900,OVC,4800,,,,,VFR,,,,,,,,,,,,METAR,105.0
KFYM 160715Z AUTO 18003KT 10SM FEW070 18/18 A3007 RMK A01,KFYM,2023-05-16T07:15:00Z,35.07,-86.57,18.0,18.0,180,3,,10.0,30.070866,,,TRUE,TRUE,,,,,,,FEW,7000,,,,,,,VFR,,,,,,,,,,,,METAR,297.0
KFYJ 160715Z AUTO 00000KT 10SM BKN060 OVC070 16/14 A3004 RMK AO1 T01570136,KFYJ,2023-05-16T07:15:00Z,37.52,-76.77,15.7,13.6,0,0,,10.0,30.041338,,,TRUE,TRUE,,,,,,,BKN,6000,OVC,7000,,,,,VFR,,,,,,,,,,,,METAR,3.0
KFYG 160715Z AUTO 00000KT 10SM SCT020 SCT024 BKN065 19/19 A3000 RMK AO2,KFYG,2023-05-16T07:15:00Z,38.58,-91.0,19.0,19.0,0,0,,10.0,30.0,,,TRUE,TRUE,,,,,,,SCT,2000,SCT,2400,BKN,6500,,,VFR,,,,,,,,,,,,METAR,147.0
KFYE 160715Z AUTO 00000KT 10SM FEW046 22/20 A3000 RMK A01,KFYE,2023-05-16T07:15:00Z,35.2,-89.38,22.0,20.0,0,0,,10.0,30.0,,,TRUE,TRUE,,,,,,,FEW,4600,,,,,,,VFR,,,,,,,,,,,,METAR,133.0
KFXY 160715Z AUTO 00000KT 2SM BR CLR 07/07 A3012 RMK AO2 VIS 1V5,KFXY,2023-05-16T07:15:00Z,43.23,-93.62,7.0,7.0,0,0,,2.0,30.121063,,,TRUE,TRUE,,,,,,BR,CLR,,,,,,,,IFR,,,,,,,,,,,,METAR,366.0
KFWS 160715Z AUTO 16003KT 10SM CLR 20/18 A3011 RMK AO2 T02000185,KFWS,2023-05-16T07:15:00Z,32.57,-97.3,20.0,18.5,160,3,,10.0,30.109253,,,TRUE,TRUE,,,,,,,CLR,,,,,,,,VFR,,,,,,,,,,,,METAR,211.0
KFWC 160715Z AUTO 00000KT 10SM -RA SCT120 18/16 A3000 RMK AO1 LTG DSNT SW AND W T01780156,KFWC,2023-05-16T07:15:00Z,38.38,-88.42,17.8,15.6,0,0,,10.0,30.0,,,TRUE,TRUE,,,,,,-RA,SCT,12000,,,,,,,VFR,,,,,,,,,,,,METAR,131.0
KFWB 160715Z AUTO 32004KT 5SM BR OVC003 20/20 A3004 RMK AO2,KFWB,2023-05-16T07:15:00Z,36.7,-93.4,20.0,20.0,320,4,,5.0,30.041338,,,TRUE,TRUE,,,,,,BR,OVC,300,,,,,,,LIFR,,,,,,,,,,,,METAR,392.0
KFVX 160715Z AUTO 00000KT 10SM OVC050 15/14 A3004 RMK AO2 T01540142,KFVX,2023-05-16T07:15:00Z,37.35,-78.43,15.4,14.2,0,0,,10.0,30.041338,,,TRUE,TRUE,,,,,,,OVC,5000,,,,,,,VFR,,,,,,,,,,,,SPECI,129.0
KFTN 160715Z AUTO 00000KT 10SM OVC022 20/19 A3012 RMK A01,KFTN,2023-05-16T07:15:00Z,28.22,-100.02,20.0,19.0,0,0,,10.0,30.121063,,,TRUE,TRUE,,,,,,,OVC,2200,,,,,,,MVFR,,,,,,,,,,,,METAR,236.0
KFSW 160715Z AUTO 00000KT 10SM -DZ 15/12 A3008 RMK AO2,KFSW,2023-05-16T07:15:00Z,40.67,-91.32,15.0,12.0,0,0,,10.0,30.079725,,,TRUE,TRUE,,,,,,-DZ,,,,,,,,,,,,,,,,,,,,,METAR,219.0
KFSE 160715Z AUTO 19004KT 10SM CLR 09/03 A3002 RMK AO2,KFSE,2023-05-16T07:15:00Z,47.58,-95.77,9.0,3.0,190,4,,10.0,30.02067,,,TRUE,TRUE,,,,,,,CLR,,,,,,,,VFR,,,,,,,,,,,,METAR,389.0
KFRI 160715Z 33005KT 5SM BR BKN010 OVC018 13/13 A3015 RMK AO2A CIG 010V018 SLP207 $,KFRI,2023-05-16T07:15:00Z,39.05,-96.77,13.0,13.0,330,5,,5.0,30.15059,1020.7,,,TRUE,TRUE,,,,,BR,BKN,1000,OVC,1800,,,,,MVFR,,,,,,,,,,,,METAR,232.0
KFRH 160715Z AUTO 00000KT 10SM CLR 15/11 A3001 RMK AO1,KFRH,2023-05-16T07:15:00Z,38.5,-86.63,15.0,11.0,0,0,,10.0,30.008858,,,TRUE,TRUE,,,,,,,CLR,,,,,,,,VFR,,,,,,,,,,,,METAR,241.0
KFPY 160715Z AUTO 06003KT 10SM OVC100 23/21 A3008 RMK AO2 T02250213,KFPY,2023-05-16T07:15:00Z,30.07,-83.57,22.5,21.3,60,3,,10.0,30.079725,,,TRUE,TRUE,,,,,,,OVC,10000,,,,,,,VFR,,,,,,,,,,,,METAR,12.0
KFPK 160715Z AUTO 00000KT 10SM CLR 06/02 A2999 RMK AO2 T00590015,KFPK,2023-05-16T07:15:00Z,42.57,-84.82,5.9,1.5,0,0,,10.0,29.991142,,,TRUE,TRUE,,,,,,,CLR,,,,,,,,VFR,,,,,,,,,,,,METAR,269.0
KFOT 160715Z AUTO 00000KT 10SM OVC006 12/12 A3013 RMK AO1,KFOT,2023-05-16T07:15:00Z,40.55,-124.13,12.0,12.0,0,0,,10.0,30.129921,,,TRUE,TRUE,,,,,,,OVC,600,,,,,,,IFR,,,,,,,,,,,,METAR,118.0
KFOA 160715Z AUTO 00000KT 10SM SCT100 18/16 A3001 RMK AO2,KFOA,2023-05-16T07:15:00Z,38.67,-88.45,18.0,16.0,0,0,,10.0,30.008858,,,TRUE,TRUE,,,,,,,SCT,10000,,,,,,,VFR,,,,,,,,,,,,METAR,141.0
KFMM 160715Z AUTO 18003KT 10SM CLR 10/10 A3025 RMK AO2,KFMM,2023-05-16T07:15:00Z,40.33,-103.8,10.0,10.0,180,3,,10.0,30.250984,,,TRUE,TRUE,,,,,,,CLR,,,,,,,,VFR,,,,,,,,,,,,METAR,1376.0
KFLY 160715Z AUTO 25005KT 10SM SCT120 08/06 A3037 RMK AO2 T00750064,KFLY,2023-05-16T07:15:00Z,38.95,-104.57,7.5,6.4,250,5,,10.0,30.369095,,,TRUE,TRUE,,,,,,,SCT,12000,,,,,,,VFR,,,,,,,,,,,,METAR,2096.0
KFKS 160715Z AUTO 24005KT 10SM CLR 12/03 A2993 RMK AO2 T01160030,KFKS,2023-05-16T07:15:00Z,44.63,-86.2,11.6,3.0,240,5,,10.0,29.929134,,,TRUE,TRUE,,,,,,,CLR,,,,,,,,VFR,,,,,,,,,,,,METAR,189.0
KFKR 160715Z AUTO 00000KT 10SM FEW080 OVC110 14/08 A3003 RMK AO2,KFKR,2023-05-16T07:15:00Z,40.27,-86.57,14.0,8.0,0,0,,10.0,30.029528,,,TRUE,TRUE,,,,,,,FEW,8000,OVC,11000,,,,,VFR,,,,,,,,,,,,METAR,260.0
KFKN 160715Z AUTO 18004KT 10SM OVC060 18/10 A3006 RMK AO2 T01770096,KFKN,2023-05-16T07:15:00Z,36.7,-76.9,17.7,9.6,180,4,,10.0,30.059055,,,TRUE,TRUE,,,,,,,OVC,6000,,,,,,,VFR,,,,,,,,,,,,METAR,9.0
KFKA 160715Z AUTO 29009KT 10SM CLR 12/08 A3008 RMK AO2,KFKA,2023-05-16T07:15:00Z,43.68,-92.17,12.0,8.0,290,9,,10.0,30.079725,,,TRUE,TRUE,,,,,,,CLR,,,,,,,,VFR,,,,,,,,,,,,METAR,388.0
KFIN 160715Z AUTO 00000KT 7SM CLR 20/20 A3006 RMK AO2 T02000200,KFIN,2023-05-16T07:15:00Z,29.47,-81.2,20.0,20.0,0,0,,7.0,30.059055,,,TRUE,TRUE,,,,,,,CLR,,,,,,,,VFR,,,,,,,,,,,,METAR,10.0
KFHB 160715Z AUTO 00000KT 10SM SCT015 21/ A3006 RMK AO2,KFHB,2023-05-16T07:15:00Z,30.62,-81.47,21.0,,0,0,,10.0,30.059055,,,TRUE,TRUE,,,,,,,SCT,1500,,,,,,,VFR,,,,,,,,,,,,METAR,4.0
KFGX 160715Z AUTO 00000KT 10SM OVC110 14/13 A3004 RMK AO2 T01430132,KFGX,2023-05-16T07:15:00Z,38.55,-83.75,14.3,13.2,0,0,,10.0,30.041338,,,TRUE,TRUE,,,,,,,OVC,11000,,,,,,,VFR,,,,,,,,,,,,METAR,279.0
KFGN 160715Z AUTO 31009KT 10SM CLR 17/07 A2993 RMK AO2,KFGN,2023-05-16T07:15:00Z,49.32,-94.9,17.0,7.0,310,9,,10.0,29.929134,,,TRUE,TRUE,,,,,,,CLR,,,,,,,,VFR,,,,,,,,,,,,METAR,327.0
KFFX 160715Z AUTO 00000KT 10SM CLR 03/00 A3000 RMK AO2 T00270001,KFFX,2023-05-16T07:15:00Z,43.43,-86.0,2.7,0.1,0,0,,10.0,30.0,,,TRUE,TRUE,,,,,,,CLR,,,,,,,,VFR,,,,,,,,,,,,SPECI,234.0
KFFM 160715Z AUTO 26003KT 10SM CLR 12/08 A3006 RMK AO2,KFFM,2023-05-16T07:15:00Z,46.28,-96.15,12.0,8.0,260,3,,10.0,30.059055,,,TRUE,TRUE,,,,,,,CLR,,,,,,,,VFR,,,,,,,,,,,,METAR,362.0
KFFL 160715Z AUTO 25003KT 10SM FEW040 SCT065 BKN075 14/13 A3009 RMK A01,KFFL,2023-05-16T07:15:00Z,41.05,-91.97,14.0,13.0,250,3,,10.0,30.088583,,,TRUE,TRUE,,,,,,,FEW,4000,SCT,6500,BKN,7500,,,VFR,,,,,,,,,,,,METAR,240.0
KFET 160715Z AUTO 00000KT 10SM OVC050 13/11 A3016 RMK AO2 T01330106,KFET,2023-05-16T07:15:00Z,41.45,-96.52,13.3,10.6,0,0,,10.0,30.159449,,,TRUE,TRUE,,,,,,,OVC,5000,,,,,,,VFR,,,,,,,,,,,,METAR,366.0
KFEP 160715Z AUTO 26004KT 10SM CLR 12/08 A3007 RMK AO2 T01180077,KFEP,2023-05-16T07:15:00Z,42.25,-89.58,11.8,7.7,260,4,,10.0,30.070866,,,TRUE,TRUE,,,,,,,CLR,,,,,,,,VFR,,,,,,,,,,,,METAR,255.0
KFDW 160715Z AUTO 16004KT 10SM CLR 17/15 A3009 RMK AO1,KFDW,2023-05-16T07:15:00Z,34.32,-81.12,17.0,15.0,160,4,,10.0,30.088583,,,TRUE,TRUE,,,,,,,CLR,,,,,,,,VFR,,,,,,,,,,,,METAR,174.0
KFDK 160715Z AUTO 17003KT 10SM CLR 12/12 A3000 RMK AO2,KFDK,2023-05-16T07:15:00Z,39.42,-77.37,12.0,12.0,170,3,,10.0,30.0,,,TRUE,TRUE,,,,,,,CLR,,,,,,,,VFR,,,,,,,,,,,,METAR,82.0
KFBR 160715Z AUTO 25008KT 10SM CLR 11/01 A3038 RMK AO2 T01050010,KFBR,2023-05-16T07:15:00Z,41.4,-110.4,10.5,1.0,250,8,,10.0,30.380905,,,TRUE,TRUE,,,,,,,CLR,,,,,,,,VFR,,,,,,,,,,,,METAR,2140.0
KFBL 160715Z AUTO 21004KT 10SM CLR 12/09 A3008 RMK AO2,KFBL,2023-05-16T07:15:00Z,44.33,-93.32,12.0,9.0,210,4,,10.0,30.079725,,,TRUE,TRUE,,,,,,,CLR,,,,,,,,VFR,,,,,,,,,,,,METAR,318.0
KF70 160715Z AUTO 00000KT 10SM CLR 16/13 A3005 RMK AO2,KF70,2023-05-16T07:15:00Z,33.57,-117.13,16.0,13.0,0,0,,10.0,30.050198,,,TRUE,TRUE,,,,,,,CLR,,,,,,,,VFR,,,,,,,,,,,,METAR,406.0
KF46 160715Z AUTO 00000KT 10SM OVC016 22/22 A3010 RMK AO2 T02150215,KF46,2023-05-16T07:15:00Z,32.93,-96.43,21.5,21.5,0,0,,10.0,30.100393,,,TRUE,TRUE,,,,,,,OVC,1600,,,,,,,MVFR,,,,,,,,,,,,METAR,175.0
KF44 160715Z AUTO 00000KT 10SM CLR 20/20 A3008 RMK AO2,KF44,2023-05-16T07:15:00Z,32.17,-95.83,20.0,20.0,0,0,,10.0,30.079725,,,TRUE,TRUE,,,,,,,CLR,,,,,,,,VFR,,,,,,,,,,,,METAR,137.0
KF05 160715Z AUTO 00000KT 10SM CLR 18/17 A3018 RMK AO2 T01760165,KF05,2023-05-16T07:15:00Z,34.23,-99.28,17.6,16.5,0,0,,10.0,30.180119,,,TRUE,TRUE,,,,,,,CLR,,,,,,,,VFR,,,,,,,,,,,,METAR,384.0
KF00 160715Z AUTO 35004KT 10SM SCT005 SCT033 SCT120 19/19 A3009 RMK AO2 T01910189,KF00,2023-05-16T07:15:00Z,33.62,-96.18,19.1,18.9,350,4,,10.0,30.088583,,,TRUE,TRUE,,,,,,,SCT,500,SCT,3300,SCT,12000,,,VFR,,,,,,,,,,,,METAR,189.0
KEZZ 160715Z AUTO 36008KT 7SM SCT004 OVC021 14/14 A3011 RMK AO2 T01410140,KEZZ,2023-05-16T07:15:00Z,39.72,-94.28,14.1,14.0,360,8,,7.0,30.109253,,,TRUE,TRUE,,,,,,,SCT,400,OVC,2100,,,,,MVFR,,,,,,,,,,,,METAR,317.0
KEZM 160715Z AUTO 00000KT 10SM BKN039 OVC045 20/19 A3010 RMK AO2,KEZM,2023-05-16T07:15:00Z,32.22,-83.13,20.0,19.0,0,0,,10.0,30.100393,,,TRUE,TRUE,,,,,,,BKN,3900,OVC,4500,,,,,VFR,,,,,,,,,,,,METAR,86.0
KEZF 160715Z AUTO 21004KT 10SM BKN110 16/12 A3000 RMK AO2 T01550118,KEZF,2023-05-16T07:15:00Z,38.27,-77.45,15.5,11.8,210,4,,10.0,30.0,,,TRUE,TRUE,,,,,,,BKN,11000,,,,,,,VFR,,,,,,,,,,,,METAR,26.0
KEVU 160715Z AUTO 35004KT 7SM OVC021 13/12 A3013 RMK AO2 T01400125,KEVU,2023-05-16T07:15:00Z,40.35,-94.92,14.0,12.5,350,4,,7.0,30.129921,,,TRUE,TRUE,,,,,,,OVC,2100,,,,,,,MVFR,,,,,,,,,,,,METAR,351.0
KETB 160715Z AUTO 26004KT 10SM CLR 12/03 A3001 RMK AO2,KETB,2023-05-16T07:15:00Z,43.42,-88.13,12.0,3.0,260,4,,10.0,30.008858,,,TRUE,TRUE,,,,,,,CLR,,,,,,,,VFR,,,,,,,,,,,,METAR,269.0
KERY 160715Z AUTO 22009KT 10SM CLR 09/02 A2981 RMK AO2 T00940018,KERY,2023-05-16T07:15:00Z,46.3,-85.45,9.4,1.8,220,9,,10.0,29.811024,,,TRUE,TRUE,,,,,,,CLR,,,,,,,,VFR,,,,,,,,,,,,SPECI,261.0
KERV 160715Z AUTO 00000KT 10SM CLR 18/17 A3015 RMK AO2 T01820173,KERV,2023-05-16T07:15:00Z,29.98,-99.08,18.2,17.3,0,0,,10.0,30.15059,,,TRUE,TRUE,,,,,,,CLR,,,,,,,,VFR,,,,,,,,,,,,METAR,483.0
KEQA 160715Z AUTO 33009KT 5SM BR BKN003 OVC007 14/13 A3015 RMK AO2,KEQA,2023-05-16T07:15:00Z,37.78,-96.82,14.0,13.0,330,9,,5.0,30.15059,,,TRUE,TRUE,,,,,,BR,BKN,300,OVC,700,,,,,LIFR,,,,,,,,,,,,METAR,422.0
KEOK 160715Z AUTO 35003KT 8SM BKN042 OVC048 15/13 A3008 RMK A01,KEOK,2023-05-16T07:15:00Z,40.47,-91.42,15.0,13.0,350,3,,8.0,30.079725,,,TRUE,TRUE,,,,,,,BKN,4200,OVC,4800,,,,,VFR,,,,,,,,,,,,METAR,206.0
KEOE 160715Z AUTO 00000KT 10SM CLR 18/17 A3011 RMK AO2,KEOE,2023-05-16T07:15:00Z,34.32,-81.63,18.0,17.0,0,0,,10.0,30.109253,,,TRUE,TRUE,,,,,,,CLR,,,,,,,,VFR,,,,,,,,,,,,SPECI,166.0
KEMV 160715Z AUTO 00000KT 10SM SCT080 BKN100 17/15 A3007 RMK AO2 T01670146,KEMV,2023-05-16T07:15:00Z,36.68,-77.48,16.7,14.6,0,0,,10.0,30.070866,,,TRUE,TRUE,,,,,,,SCT,8000,BKN,10000,,,,,VFR,,,,,,,,,,,,SPECI,35.0
KEMM 160715Z AUTO 01012KT 10SM CLR 06/01 A3038 RMK AO2 TSNO,KEMM,2023-05-16T07:15:00Z,41.82,-110.55,6.0,1.0,10,12,,10.0,30.380905,,,TRUE,TRUE,,,TRUE,,,,CLR,,,,,,,,VFR,,,,,,,,,,,,METAR,2219.0
KELO 160715Z AUTO 26004KT 10SM CLR 13/02 A2992 RMK AO2,KELO,2023-05-16T07:15:00Z,47.82,-91.83,13.0,2.0,260,4,,10.0,29.920275,,,TRUE,TRUE,,,,,,,CLR,,,,,,,,VFR,,,,,,,,,,,,SPECI,438.0
KELK 160715Z AUTO 33006KT 10SM CLR 14/14 A3019 RMK AO2 SLP506 T01400140 $,KELK,2023-05-16T07:15:00Z,35.43,-99.4,14.0,14.0,330,6,,10.0,30.188976,1050.6,,TRUE,TRUE,TRUE,,,,,,CLR,,,,,,,,VFR,,,,,,,,,,,,METAR,603.0
KELA 160715Z AUTO 10SM CLR 22/21 A3008 RMK AO2 T02240211,KELA,2023-05-16T07:15:00Z,29.6,-96.32,22.4,21.1,,,,10.0,30.079725,,,TRUE,TRUE,,,,,,,CLR,,,,,,,,VFR,,,,,,,,,,,,METAR,56.0
KEKX 160715Z AUTO 00000KT 10SM BKN050 16/16 A3002 RMK AO2 T01630155,KEKX,2023-05-16T07:15:00Z,37.68,-85.92,16.3,15.5,0,0,,10.0,30.02067,,,TRUE,TRUE,,,,,,,BKN,5000,,,,,,,VFR,,,,,,,,,,,,METAR,234.0
KEKS 160715Z AUTO 18008KT 10SM FEW120 10/05 A3029 RMK AO2,KEKS,2023-05-16T07:15:00Z,45.27,-111.65,10.0,5.0,180,8,,10.0,30.28937,,,TRUE,TRUE,,,,,,,FEW,12000,,,,,,,VFR,,,,,,,,,,,,METAR,1636.0
KEKE 160715Z AUTO 27004KT 10SM CLR 26/23 A2999 RMK A01,KEKE,2023-05-16T07:15:00Z,28.5,-91.58,26.0,23.0,270,4,,10.0,29.991142,,,TRUE,TRUE,,,,,,,CLR,,,,,,,,VFR,,,,,,,,,,,,METAR,31.0
KEIK 160715Z AUTO 00000KT 10SM CLR 09/08 A3026 RMK AO2 T00940081,KEIK,2023-05-16T07:15:00Z,40.02,-105.05,9.4,8.1,0,0,,10.0,30.259842,,,TRUE,TRUE,,,,,,,CLR,,,,,,,,VFR,,,,,,,,,,,,METAR,1551.0
KEHA 160715Z AUTO 00000KT 7SM CLR 12/11 A3029 RMK AO2 T01160111,KEHA,2023-05-16T07:15:00Z,37.0,-101.87,11.6,11.1,0,0,,7.0,30.28937,,,TRUE,TRUE,,,,,,,CLR,,,,,,,,VFR,,,,,,,,,,,,METAR,1103.0
KEGV 160715Z AUTO 26005KT 10SM CLR 11/02 A2995 RMK AO2 T01100018,KEGV,2023-05-16T07:15:00Z,45.93,-89.27,11.0,1.8,260,5,,10.0,29.949802,,,TRUE,TRUE,,,,,,,CLR,,,,,,,,VFR,,,,,,,,,,,,SPECI,499.0
KEGT 160715Z AUTO 35005KT 10SM OVC011 14/12 A3017 RMK AO2 P0001 T01360119,KEGT,2023-05-16T07:15:00Z,37.32,-97.38,13.6,11.9,350,5,,10.0,30.171259,,,TRUE,TRUE,,,,,,,OVC,1100,,,,,,,MVFR,,,,,,0.01,,,,,,METAR,387.0
KEFT 160715Z AUTO 29008KT 10SM CLR 14/04 A3005 RMK AO2 T01360036,KEFT,2023-05-16T07:15:00Z,42.62,-89.6,13.6,3.6,290,8,,10.0,30.050198,,,TRUE,TRUE,,,,,,,CLR,,,,,,,,VFR,,,,,,,,,,,,METAR,332.0
KEFK 160715Z AUTO 24010G14KT 10SM CLR 15/M01 A2972 RMK AO2 T01451010,KEFK,2023-05-16T07:15:00Z,44.88,-72.23,14.5,-1.0,240,10,14,10.0,29.719488,,,TRUE,TRUE,,,,,,,CLR,,,,,,,,VFR,,,,,,,,,,,,METAR,282.0
KEDU 160715Z AUTO 00000KT 10SM CLR 15/12 A3002 RMK AO1,KEDU,2023-05-16T07:15:00Z,38.53,-121.78,15.0,12.0,0,0,,10.0,30.02067,,,TRUE,TRUE,,,,,,,CLR,,,,,,,,VFR,,,,,,,,,,,,METAR,20.0
KEDN 160715Z AUTO 00000KT 7SM CLR 20/20 A3004 RMK AO2 T02000200 PWINO,KEDN,2023-05-16T07:15:00Z,31.3,-85.9,20.0,20.0,0,0,,7.0,30.041338,,,TRUE,TRUE,,,,,TRUE,,CLR,,,,,,,,VFR,,,,,,,,,,,,SPECI,103.0
KEDJ 160715Z AUTO 19003KT 10SM FEW029 BKN039 BKN050 12/08 A3003 RMK A01,KEDJ,2023-05-16T07:15:00Z,40.37,-83.82,12.0,8.0,190,3,,10.0,30.029528,,,TRUE,TRUE,,,,,,,FEW,2900,BKN,3900,BKN,5000,,,VFR,,,,,,,,,,,,METAR,341.0
KECU 160715Z AUTO 00000KT 10SM FEW036 BKN047 19/17 A3023 RMK AO2,KECU,2023-05-16T07:15:00Z,29.95,-100.17,19.0,17.0,0,0,,10.0,30.230314,,,TRUE,TRUE,,,,,,,FEW,3600,BKN,4700,,,,,VFR,,,,,,,,,,,,METAR,725.0
KECS 160715Z AUTO 10006KT 10SM CLR 11/05 A3021 RMK AO2,KECS,2023-05-16T07:15:00Z,43.88,-104.32,11.0,5.0,100,6,,10.0,30.209646,,,TRUE,TRUE,,,,,,,CLR,,,,,,,,VFR,,,,,,,,,,,,METAR,1273.0
KEBS 160715Z AUTO 31004KT 10SM CLR 11/07 A3010 RMK AO2,KEBS,2023-05-16T07:15:00Z,42.43,-93.87,11.0,7.0,310,4,,10.0,30.100393,,,TRUE,TRUE,,,,,,,CLR,,,,,,,,VFR,,,,,,,,,,,,METAR,340.0
KEBG 160715Z AUTO 00000KT 10SM CLR 21/20 A3008 RMK AO2 T02050200,KEBG,2023-05-16T07:15:00Z,26.45,-98.13,20.5,20.0,0,0,,10.0,30.079725,,,TRUE,TRUE,,,,,,,CLR,,,,,,,,VFR,,,,,,,,,,,,METAR,21.0
KEBA 160715Z AUTO 19003KT 10SM SCT060 20/18 A3008 RMK AO2 T02010179,KEBA,2023-05-16T07:15:00Z,34.1,-82.82,20.1,17.9,190,3,,10.0,30.079725,,,TRUE,TRUE,,,,,,,SCT,6000,,,,,,,VFR,,,,,,,,,,,,METAR,180.0
KE42 160715Z AUTO 36003KT 10SM SCT032 12/11 A3026 RMK AO2 T01170111,KE42,2023-05-16T07:15:00Z,36.22,-101.2,11.7,11.1,360,3,,10.0,30.259842,,,TRUE,TRUE,,,,,,,SCT,3200,,,,,,,VFR,,,,,,,,,,,,METAR,942.0
KE41 160715Z AUTO 00000KT 10SM SCT025 BKN030 OVC120 17/16 A3022 RMK AO2 T01740163,KE41,2023-05-16T07:15:00Z,31.2,-101.47,17.4,16.3,0,0,,10.0,30.221457,,,TRUE,TRUE,,,,,,,SCT,2500,BKN,3000,OVC,12000,,,MVFR,,,,,,,,,,,,METAR,825.0
KE38 160715Z AUTO 00000KT 10SM SCT075 14/12 A3032 RMK AO2 T01410123,KE38,2023-05-16T07:15:00Z,30.38,-103.68,14.1,12.3,0,0,,10.0,30.318897,,,TRUE,TRUE,,,,,,,SCT,7500,,,,,,,VFR,,,,,,,,,,,,METAR,1372.0
KE16 160715Z AUTO 00000KT 10SM CLR 14/12 A3009 RMK AO2 PWINO PNO,KE16,2023-05-16T07:15:00Z,37.08,-121.6,14.0,12.0,0,0,,10.0,30.088583,,,TRUE,TRUE,,,,,TRUE,,CLR,,,,,,,,VFR,,,,,,,,,,,,METAR,84.0
KE11 160715Z AUTO 09009KT 10SM OVC043 19/14 A3025 RMK AO2 T01880135,KE11,2023-05-16T07:15:00Z,32.33,-102.53,18.8,13.5,90,9,,10.0,30.250984,,,TRUE,TRUE,,,,,,,OVC,4300,,,,,,,VFR,,,,,,,,,,,,METAR,966.0
KDZJ 160715Z AUTO 00000KT 10SM BKN023 BKN027 OVC045 17/16 A3013 RMK AO2 T01670164,KDZJ,2023-05-16T07:15:00Z,34.85,-84.0,16.7,16.4,0,0,,10.0,30.129921,,,TRUE,TRUE,,,,,,,BKN,2300,BKN,2700,OVC,4500,,,MVFR,,,,,,,,,,,,METAR,578.0
KDZB 160715Z AUTO 33004KT 7SM CLR 20/19 A3012 RMK AO2 T01950192,KDZB,2023-05-16T07:15:00Z,30.53,-98.37,19.5,19.2,330,4,,7.0,30.121063,,,TRUE,TRUE,,,,,,,CLR,,,,,,,,VFR,,,,,,,,,,,,METAR,329.0
KDYT 160715Z AUTO 23008KT 10SM FEW039 BKN046 OVC055 15/06 A2993 RMK AO2,KDYT,2023-05-16T07:15:00Z,46.72,-92.03,15.0,6.0,230,8,,10.0,29.929134,,,TRUE,TRUE,,,,,,,FEW,3900,BKN,4600,OVC,5500,,,VFR,,,,,,,,,,,,METAR,185.0
KDYB 160715Z AUTO 00000KT 7SM SCT023 17/17 A3007 RMK AO2,KDYB,2023-05-16T07:15:00Z,33.07,-80.28,17.0,17.0,0,0,,7.0,30.070866,,,TRUE,TRUE,,,,,,,SCT,2300,,,,,,,VFR,,,,,,,,,,,,METAR,15.0
KDYA 160715Z AUTO 00000KT 10SM SCT060 SCT070 SCT080 21/19 A3004 RMK AO2 T02110193,KDYA,2023-05-16T07:15:00Z,32.47,-87.95,21.1,19.3,0,0,,10.0,30.041338,,,TRUE,TRUE,,,,,,,SCT,6000,SCT,7000,SCT,8000,,,VFR,,,,,,,,,,,,METAR,33.0
KDXX 160715Z AUTO 27006KT 10SM CLR 13/07 A3010 RMK AO2,KDXX,2023-05-16T07:15:00Z,44.98,-96.18,13.0,7.0,270,6,,10.0,30.100393,,,TRUE,TRUE,,,,,,,CLR,,,,,,,,VFR,,,,,,,,,,,,SPECI,327.0
KDWX 160715Z AUTO 02003KT 10SM CLR 05/03 A3040 RMK AO2 T00500031,KDWX,2023-05-16T07:15:00Z,41.03,-107.5,5.0,3.1,20,3,,10.0,30.398623,,,TRUE,TRUE,,,,,,,CLR,,,,,,,,VFR,,,,,,,,,,,,METAR,1974.0
KDWA 160715Z AUTO 00000KT 10SM BKN040 OVC049 16/13 A3003 RMK AO2,KDWA,2023-05-16T07:15:00Z,38.58,-121.85,16.0,13.0,0,0,,10.0,30.029528,,,TRUE,TRUE,,,,,,,BKN,4000,OVC,4900,,,,,VFR,,,,,,,,,,,,METAR,28.0
KDVO 160715Z AUTO 00000KT 10SM FEW010 11/11 A3008 RMK AO2,KDVO,2023-05-16T07:15:00Z,38.15,-122.55,11.0,11.0,0,0,,10.0,30.079725,,,TRUE,TRUE,,,,,,,FEW,1000,,,,,,,VFR,,,,,,,,,,,,METAR,1.0
KDUX 160715Z AUTO 25005KT 7SM CLR 10/09 A3028 RMK AO2 T00980088,KDUX,2023-05-16T07:15:00Z,35.85,-102.02,9.8,8.8,250,5,,7.0,30.280512,,,TRUE,TRUE,,,,,,,CLR,,,,,,,,VFR,,,,,,,,,,,,METAR,1129.0
KDUH 160715Z AUTO 00000KT 10SM CLR 09/04 A3000 RMK AO2 T00880039,KDUH,2023-05-16T07:15:00Z,41.73,-83.65,8.8,3.9,0,0,,10.0,30.0,,,TRUE,TRUE,,,,,,,CLR,,,,,,,,VFR,,,,,,,,,,,,METAR,203.0
KDUC 160715Z AUTO 31004KT 10SM OVC033 18/17 A3016 RMK AO2 T01830168,KDUC,2023-05-16T07:15:00Z,34.47,-97.97,18.3,16.8,310,4,,10.0,30.159449,,,TRUE,TRUE,,,,,,,OVC,3300,,,,,,,VFR,,,,,,,,,,,,METAR,339.0
KDUA 160715Z AUTO 34005KT 10SM CLR 19/18 A3010 RMK AO2,KDUA,2023-05-16T07:15:00Z,33.95,-96.4,19.0,18.0,340,5,,10.0,30.100393,,,TRUE,TRUE,,,,,,,CLR,,,,,,,,VFR,,,,,,,,,,,,METAR,209.0
KDTL 160715Z AUTO 00000KT 10SM OVC090 15/06 A3004 RMK AO2,KDTL,2023-05-16T07:15:00Z,46.82,-95.88,15.0,6.0,0,0,,10.0,30.041338,,,TRUE,TRUE,,,,,,,OVC,9000,,,,,,,VFR,,,,,,,,,,,,SPECI,425.0
KDTA 160715Z AUTO 19008KT 10SM CLR 11/05 A3023 RMK AO1,KDTA,2023-05-16T07:15:00Z,39.38,-112.5,11.0,5.0,190,8,,10.0,30.230314,,,TRUE,TRUE,,,,,,,CLR,,,,,,,,VFR,,,,,,,,,,,,METAR,1452.0
KDRM 160715Z AUTO 24006KT 10SM OVC110 13/03 A2981 RMK AO2 T01320026,KDRM,2023-05-16T07:15:00Z,46.0,-83.75,13.2,2.6,240,6,,10.0,29.811024,,,TRUE,TRUE,,,,,,,OVC,11000,,,,,,,VFR,,,,,,,,,,,,METAR,201.0
KDRI 160715Z AUTO 00000KT 10SM CLR 22/21 A3006 RMK AO2 T02160213 $,KDRI,2023-05-16T07:15:00Z,30.83,-93.33,21.6,21.3,0,0,,10.0,30.059055,,,TRUE,TRUE,TRUE,,,,,,CLR,,,,,,,,VFR,,,,,,,,,,,,METAR,59.0
KDQH 160715Z AUTO 00000KT 10SM BKN050 20/20 A3010 RMK AO2 T02040199,KDQH,2023-05-16T07:15:00Z,31.48,-82.87,20.4,19.9,0,0,,10.0,30.100393,,,TRUE,TRUE,,,,,,,BKN,5000,,,,,,,VFR,,,,,,,,,,,,METAR,76.0
KDNV 160715Z AUTO 36004KT 10SM OVC110 14/10 A3005 RMK AO2 T01430096,KDNV,2023-05-16T07:15:00Z,40.2,-87.6,14.3,9.6,360,4,,10.0,30.050198,,,TRUE,TRUE,,,,,,,OVC,11000,,,,,,,VFR,,,,,,,,,,,,METAR,208.0
KDNS 160715Z AUTO 00000KT 10SM OVC060 14/14 A3016 RMK AO2,KDNS,2023-05-16T07:15:00Z,41.98,-95.37,14.0,14.0,0,0,,10.0,30.159449,,,TRUE,TRUE,,,,,,,OVC,6000,,,,,,,VFR,,,,,,,,,,,,METAR,382.0
KDNN 160715Z AUTO 00000KT 9SM BKN027 20/20 A3007 RMK AO2 BKN V SCT T01980197,KDNN,2023-05-16T07:15:00Z,34.72,-84.87,19.8,19.7,0,0,,9.0,30.070866,,,TRUE,TRUE,,,,,,,BKN,2700,,,,,,,MVFR,,,,,,,,,,,,METAR,216.0
KDNA 160715Z AUTO 17004KT 10SM CLR 20/10 A3025 RMK AO2,KDNA,2023-05-16T07:15:00Z,31.88,-106.7,20.0,10.0,170,4,,10.0,30.250984,,,TRUE,TRUE,,,,,,,CLR,,,,,,,,VFR,,,,,,,,,,,,METAR,1254.0
KDLZ 160715Z AUTO 00000KT 10SM CLR 10/08 A3002 RMK AO2,KDLZ,2023-05-16T07:15:00Z,40.28,-83.12,10.0,8.0,0,0,,10.0,30.02067,,,TRUE,TRUE,,,,,,,CLR,,,,,,,,VFR,,,,,,,,,,,,SPECI,287.0
KDLP 160715Z AUTO 01004KT 10SM FEW038 28/23 A2995 RMK A01,KDLP,2023-05-16T07:15:00Z,29.12,-89.55,28.0,23.0,10,4,,10.0,29.949802,,,TRUE,TRUE,,,,,,,FEW,3800,,,,,,,VFR,,,,,,,,,,,,METAR,31.0
KDLO 160715Z AUTO 17004KT 10SM CLR 20/13 A2998 RMK AO2 T01990125,KDLO,2023-05-16T07:15:00Z,35.75,-119.23,19.9,12.5,170,4,,10.0,29.97933,,,TRUE,TRUE,,,,,,,CLR,,,,,,,,VFR,,,,,,,,,,,,METAR,97.0
KDLL 160715Z AUTO 00000KT 10SM CLR 12/07 A3004 RMK AO2 T01190065,KDLL,2023-05-16T07:15:00Z,43.52,-89.77,11.9,6.5,0,0,,10.0,30.041338,,,TRUE,TRUE,,,,,,,CLR,,,,,,,,VFR,,,,,,,,,,,,METAR,297.0
KDKX 160715Z AUTO 00000KT 10SM FEW043 BKN100 20/19 A3005 RMK A01,KDKX,2023-05-16T07:15:00Z,35.97,-83.87,20.0,19.0,0,0,,10.0,30.050198,,,TRUE,TRUE,,,,,,,FEW,4300,BKN,10000,,,,,VFR,,,,,,,,,,,,SPECI,253.0
KDKR 160715Z AUTO 00000KT 10SM OVC140 20/20 A3007 RMK AO2,KDKR,2023-05-16T07:15:00Z,31.3,-95.4,20.0,20.0,0,0,,10.0,30.070866,,,TRUE,TRUE,,,,,,,OVC,14000,,,,,,,VFR,,,,,,,,,,,,METAR,105.0
KDKB 160715Z AUTO 22004KT 10SM CLR 11/05 A3006 RMK AO2 T01080048,KDKB,2023-05-16T07:15:00Z,41.93,-88.7,10.8,4.8,220,4,,10.0,30.059055,,,TRUE,TRUE,,,,,,,CLR,,,,,,,,VFR,,,,,,,,,,,,METAR,277.0
KDEH 160715Z AUTO 00000KT 10SM CLR 12/09 A3007 RMK AO2,KDEH,2023-05-16T07:15:00Z,43.27,-91.73,12.0,9.0,0,0,,10.0,30.070866,,,TRUE,TRUE,,,,,,,CLR,,,,,,,,VFR,,,,,,,,,,,,METAR,348.0
KDCY 160715Z AUTO 00000KT 10SM CLR 16/16 A3001 RMK AO2 T01620161,KDCY,2023-05-16T07:15:00Z,38.7,-87.13,16.2,16.1,0,0,,10.0,30.008858,,,TRUE,TRUE,,,,,,,CLR,,,,,,,,VFR,,,,,,,,,,,,METAR,143.0
KDCM 160715Z AUTO 20003KT 10SM SCT060 18/13 A3010 RMK AO2,KDCM,2023-05-16T07:15:00Z,34.78,-81.2,18.0,13.0,200,3,,10.0,30.100393,,,TRUE,TRUE,,,,,,,SCT,6000,,,,,,,VFR,,,,,,,,,,,,METAR,191.0
KDBN 160715Z AUTO 00000KT 10SM OVC045 21/18 A3012 RMK AO2,KDBN,2023-05-16T07:15:00Z,32.57,-82.98,21.0,18.0,0,0,,10.0,30.121063,,,TRUE,TRUE,,,,,,,OVC,4500,,,,,,,VFR,,,,,,,,,,,,METAR,90.0
KD95 160715Z AUTO 00000KT 10SM CLR 06/03 A2997 RMK AO2 T00590027,KD95,2023-05-16T07:15:00Z,43.07,-83.27,5.9,2.7,0,0,,10.0,29.970472,,,TRUE,TRUE,,,,,,,CLR,,,,,,,,VFR,,,,,,,,,,,,METAR,253.0
KD73 160715Z AUTO 35004KT 10SM SCT024 SCT029 SCT047 21/ A3009 RMK AO2 T0208////,KD73,2023-05-16T07:15:00Z,33.78,-83.7,20.8,,350,4,,10.0,30.088583,,,TRUE,TRUE,,,,,,,SCT,2400,SCT,2900,SCT,4700,,,VFR,,,,,,,,,,,,METAR,254.0
KD60 160715Z AUTO 00000KT 10SM CLR 10/09 A3015 RMK AO2,KD60,2023-05-16T07:15:00Z,48.38,-102.9,10.0,9.0,0,0,,10.0,30.15059,,,TRUE,TRUE,,,,,,,CLR,,,,,,,,VFR,,,,,,,,,,,,SPECI,682.0
KD57 160715Z AUTO 00000KT 10SM CLR 10/05 A3015 RMK AO2,KD57,2023-05-16T07:15:00Z,46.82,-101.87,10.0,5.0,0,0,,10.0,30.15059,,,TRUE,TRUE,,,,,,,CLR,,,,,,,,VFR,,,,,,,,,,,,METAR,636.0
KD50 160715Z AUTO 20006KT 10SM CLR 10/09 A3012 RMK AO2,KD50,2023-05-16T07:15:00Z,48.93,-103.3,10.0,9.0,200,6,,10.0,30.121063,,,TRUE,TRUE,,,,,,,CLR,,,,,,,,VFR,,,,,,,,,,,,METAR,591.0
KD39 160715Z AUTO 27008KT 10SM CLR 13/05 A3006 RMK AO2 T01280053,KD39,2023-05-16T07:15:00Z,45.7,-94.93,12.8,5.3,270,8,,10.0,30.059055,,,TRUE,TRUE,,,,,,,CLR,,,,,,,,VFR,,,,,,,,,,,,METAR,378.0
KD25 160715Z AUTO 25003KT 10SM CLR 13/03 A2996 RMK AO2 T01250031,KD25,2023-05-16T07:15:00Z,46.12,-89.88,12.5,3.1,250,3,,10.0,29.958662,,,TRUE,TRUE,,,,,,,CLR,,,,,,,,VFR,,,,,,,,,,,,METAR,490.0
KCZT 160715Z AUTO 10SM SCT120 19/19 A3010 RMK AO2,KCZT,2023-05-16T07:15:00Z,28.52,-99.82,19.0,19.0,,,,10.0,30.100393,,,TRUE,TRUE,,,,,,,SCT,12000,,,,,,,VFR,,,,,,,,,,,,METAR,176.0
KCZL 160715Z AUTO 00000KT 1 1/4SM BR VV007 20/19 A3008 RMK AO2,KCZL,2023-05-16T07:15:00Z,34.47,-84.93,20.0,19.0,0,0,,1.25,30.079725,,,TRUE,TRUE,,,,,,BR,OVX,0,,,,,,,LIFR,,,,,,,,,,,700,METAR,197.0
KCXU 160715Z AUTO 00000KT 3SM 21/20 A3007 RMK AO1 SKY OBSCURED T02110203,KCXU,2023-05-16T07:15:00Z,31.22,-84.23,21.1,20.3,0,0,,3.0,30.070866,,,TRUE,TRUE,,,,,,,,,,,,,,,,,,,,,,,,,,,SPECI,48.0
KCXP 160715Z AUTO 00000KT 10SM CLR 12/M01 A3027 RMK AO2,KCXP,2023-05-16T07:15:00Z,39.18,-119.73,12.0,-1.0,0,0,,10.0,30.268702,,,TRUE,TRUE,,,,,,,CLR,,,,,,,,VFR,,,,,,,,,,,,METAR,1431.0
KCXE 160715Z AUTO 10SM OVC060 17/13 A3006 RMK AO1 T01690134,KCXE,2023-05-16T07:15:00Z,36.78,-78.5,16.9,13.4,,,,10.0,30.059055,,,TRUE,TRUE,,,,,,,OVC,6000,,,,,,,VFR,,,,,,,,,,,,SPECI,154.0
KCWV 160715Z AUTO 00000KT 5SM BR CLR 18/17 A3009 RMK AO2 T01750168,KCWV,2023-05-16T07:15:00Z,32.2,-81.87,17.5,16.8,0,0,,5.0,30.088583,,,TRUE,TRUE,,,,,,BR,CLR,,,,,,,,MVFR,,,,,,,,,,,,METAR,32.0
KCWF 160715Z AUTO 09003KT 10SM CLR 22/20 A3005 RMK AO2 T02180202,KCWF,2023-05-16T07:15:00Z,30.22,-93.15,21.8,20.2,90,3,,10.0,30.050198,,,TRUE,TRUE,,,,,,,CLR,,,,,,,,VFR,,,,,,,,,,,,METAR,4.0
KCWC 160715Z AUTO 00000KT 10SM BKN041 19/17 A3016 RMK AO2 T01910165,KCWC,2023-05-16T07:15:00Z,33.85,-98.48,19.1,16.5,0,0,,10.0,30.159449,,,TRUE,TRUE,,,,,,,BKN,4100,,,,,,,VFR,,,,,,,,,,,,METAR,304.0
KCWA 160715Z AUTO 26007KT 10SM CLR 11/05 A3001 RMK AO2,KCWA,2023-05-16T07:15:00Z,44.78,-89.67,11.0,5.0,260,7,,10.0,30.008858,,,TRUE,TRUE,,,,,,,CLR,,,,,,,,VFR,,,,,,,,,,,,METAR,387.0
KCVX 160715Z AUTO 21008KT 10SM SCT110 13/M03 A2988 RMK AO2 T01311028,KCVX,2023-05-16T07:15:00Z,45.3,-85.27,13.1,-2.8,210,8,,10.0,29.878937,,,TRUE,TRUE,,,,,,,SCT,11000,,,,,,,VFR,,,,,,,,,,,,SPECI,196.0
KCVH 160715Z AUTO 00000KT 10SM CLR 12/11 A3008 RMK A01,KCVH,2023-05-16T07:15:00Z,36.9,-121.42,12.0,11.0,0,0,,10.0,30.079725,,,TRUE,TRUE,,,,,,,CLR,,,,,,,,VFR,,,,,,,,,,,,METAR,68.0
KCVC 160715Z AUTO 00000KT 10SM BKN027 BKN038 OVC048 21/20 A3008 RMK AO2,KCVC,2023-05-16T07:15:00Z,33.63,-83.85,21.0,20.0,0,0,,10.0,30.079725,,,TRUE,TRUE,,,,,,,BKN,2700,BKN,3800,OVC,4800,,,MVFR,,,,,,,,,,,,METAR,240.0
KCUH 160715Z AUTO 34006KT 10SM OVC015 16/15 A3012 RMK AO2 T01640146,KCUH,2023-05-16T07:15:00Z,35.95,-96.77,16.4,14.6,340,6,,10.0,30.121063,,,TRUE,TRUE,,,,,,,OVC,1500,,,,,,,MVFR,,,,,,,,,,,,SPECI,274.0
KCTY 160715Z AUTO 00000KT 7SM BR OVC100 21/21 A3007 RMK AO2,KCTY,2023-05-16T07:15:00Z,29.63,-83.1,21.0,21.0,0,0,,7.0,30.070866,,,TRUE,TRUE,,,,,,BR,OVC,10000,,,,,,,VFR,,,,,,,,,,,,METAR,12.0
KCTJ 160715Z AUTO 00000KT 7SM CLR 18/18 A3011 RMK AO2 T01800180,KCTJ,2023-05-16T07:15:00Z,33.63,-85.15,18.0,18.0,0,0,,7.0,30.109253,,,TRUE,TRUE,,,,,,,CLR,,,,,,,,VFR,,,,,,,,,,,,METAR,351.0
KCSQ 160715Z AUTO 35005KT 10SM OVC031 13/13 A3012 RMK AO2,KCSQ,2023-05-16T07:15:00Z,41.02,-94.37,13.0,13.0,350,5,,10.0,30.121063,,,TRUE,TRUE,,,,,,,OVC,3100,,,,,,,VFR,,,,,,,,,,,,SPECI,394.0
KCRX 160715Z AUTO 16005KT 10SM CLR 21/20 A3002 RMK AO2,KCRX,2023-05-16T07:15:00Z,34.92,-88.6,21.0,20.0,160,5,,10.0,30.02067,,,TRUE,TRUE,,,,,,,CLR,,,,,,,,VFR,,,,,,,,,,,,SPECI,128.0
KCQW 160715Z AUTO 26004KT 10SM CLR 17/14 A3008 RMK AO2,KCQW,2023-05-16T07:15:00Z,34.72,-79.95,17.0,14.0,260,4,,10.0,30.079725,,,TRUE,TRUE,,,,,,,CLR,,,,,,,,VFR,,,,,,,,,,,,METAR,67.0
KCQF 160715Z AUTO 00000KT 10SM BKN110 21/21 A3003 RMK AO2,KCQF,2023-05-16T07:15:00Z,30.47,-87.88,21.0,21.0,0,0,,10.0,30.029528,,,TRUE,TRUE,,,,,,,BKN,11000,,,,,,,VFR,,,,,,,,,,,,METAR,21.0
KCQB 160715Z AUTO 33009KT 10SM OVC015 17/15 A3014 RMK AO2 T01670147,KCQB,2023-05-16T07:15:00Z,35.72,-96.82,16.7,14.7,330,9,,10.0,30.138779,,,TRUE,TRUE,,,,,,,OVC,1500,,,,,,,MVFR,,,,,,,,,,,,METAR,298.0
KCPW 160715Z AUTO 28005KT 10SM BKN041 OVC050 02/00 A3067 RMK AO2,KCPW,2023-05-16T07:15:00Z,37.45,-106.8,2.0,0.0,280,5,,10.0,30.670275,,,TRUE,TRUE,,,,,,,BKN,4100,OVC,5000,,,,,VFR,,,,,,,,,,,,METAR,3570.0
KCPU 160715Z AUTO 00000KT 10SM CLR 18/11 A3007 RMK AO2 T01810110,KCPU,2023-05-16T07:15:00Z,38.15,-120.65,18.1,11.0,0,0,,10.0,30.070866,,,TRUE,TRUE,,,,,,,CLR,,,,,,,,VFR,,,,,,,,,,,,METAR,400.0
KCPT 160715Z AUTO 12003KT 10SM SCT012 19/19 A3012 RMK A01,KCPT,2023-05-16T07:15:00Z,32.35,-97.43,19.0,19.0,120,3,,10.0,30.121063,,,TRUE,TRUE,,,,,,,SCT,1200,,,,,,,VFR,,,,,,,,,,,,METAR,260.0
KCPF 160715Z AUTO 00000KT 7SM SCT120 15/14 A3004 RMK AO2,KCPF,2023-05-16T07:15:00Z,37.38,-83.27,15.0,14.0,0,0,,7.0,30.041338,,,TRUE,TRUE,,,,,,,SCT,12000,,,,,,,VFR,,,,,,,,,,,,SPECI,382.0
KCOQ 160715Z AUTO 26008KT 10SM CLR 16/01 A2996 RMK AO2 TSNO,KCOQ,2023-05-16T07:15:00Z,46.7,-92.5,16.0,1.0,260,8,,10.0,29.958662,,,TRUE,TRUE,,,TRUE,,,,CLR,,,,,,,,VFR,,,,,,,,,,,,METAR,390.0
KCOM 160715Z AUTO 35004KT 10SM OVC030 20/17 A3016 RMK AO2 T01970170,KCOM,2023-05-16T07:15:00Z,31.83,-99.4,19.7,17.0,350,4,,10.0,30.159449,,,TRUE,TRUE,,,,,,,OVC,3000,,,,,,,MVFR,,,,,,,,,,,,METAR,516.0
KCNI 160715Z AUTO 08003KT 10SM BKN022 20/18 A3009 RMK AO2 T01960184,KCNI,2023-05-16T07:15:00Z,34.32,-84.42,19.6,18.4,80,3,,10.0,30.088583,,,TRUE,TRUE,,,,,,,BKN,2200,,,,,,,MVFR,,,,,,,,,,,,METAR,371.0
KCNC 160715Z AUTO 00000KT 10SM FEW037 BKN050 OVC055 14/13 A3010 RMK AO2,KCNC,2023-05-16T07:15:00Z,41.02,-93.37,14.0,13.0,0,0,,10.0,30.100393,,,TRUE,TRUE,,,,,,,FEW,3700,BKN,5000,OVC,5500,,,VFR,,,,,,,,,,,,METAR,319.0
KCNB 160715Z AUTO 22007KT 200V320 10SM CLR 14/07 A3011 RMK AO2 T01400070,KCNB,2023-05-16T07:15:00Z,44.73,-96.27,14.0,7.0,220,7,,10.0,30.109253,,,TRUE,TRUE,,,,,,,CLR,,,,,,,,VFR,,,,,,,,,,,,METAR,363.0
KCMR 160715Z AUTO 14006KT 10SM SCT065 BKN075 OVC100 11/07 A3035 RMK AO2,KCMR,2023-05-16T07:15:00Z,35.3,-112.2,11.0,7.0,140,6,,10.0,30.351377,,,TRUE,TRUE,,,,,,,SCT,6500,BKN,7500,OVC,10000,,,VFR,,,,,,,,,,,,METAR,2039.0
KCMD 160715Z AUTO 20004KT 10SM CLR 19/19 A3007 RMK AO2,KCMD,2023-05-16T07:15:00Z,34.27,-86.85,19.0,19.0,200,4,,10.0,30.070866,,,TRUE,TRUE,,,,,,,CLR,,,,,,,,VFR,,,,,,,,,,,,SPECI,294.0
KCLW 160715Z AUTO 12005KT 10SM CLR 24/17 A3005 RMK AO2,KCLW,2023-05-16T07:15:00Z,27.98,-82.75,24.0,17.0,120,5,,10.0,30.050198,,,TRUE,TRUE,,,,,,,CLR,,,,,,,,VFR,,,,,,,,,,,,METAR,21.0
KCLS 160715Z AUTO 03005KT 10SM SCT095 BKN120 15/14 A3010 RMK AO2,KCLS,2023-05-16T07:15:00Z,46.68,-122.98,15.0,14.0,30,5,,10.0,30.100393,,,TRUE,TRUE,,,,,,,SCT,9500,BKN,12000,,,,,VFR,,,,,,,,,,,,METAR,52.0
KCLK 160715Z AUTO 35005KT 10SM OVC046 17/13 A3020 RMK AO2,KCLK,2023-05-16T07:15:00Z,35.53,-98.93,17.0,13.0,350,5,,10.0,30.200787,,,TRUE,TRUE,,,,,,,OVC,4600,,,,,,,VFR,,,,,,,,,,,,METAR,489.0
KCLI 160715Z AUTO 27008KT 10SM CLR 13/06 A2998 RMK AO2 T01300059,KCLI,2023-05-16T07:15:00Z,44.62,-88.73,13.0,5.9,270,8,,10.0,29.97933,,,TRUE,TRUE,,,,,,,CLR,,,,,,,,VFR,,,,,,,,,,,,METAR,248.0
KCKZ 160715Z AUTO 25004KT 10SM CLR 12/08 A2995 RMK AO2,KCKZ,2023-05-16T07:15:00Z,40.38,-75.28,12.0,8.0,250,4,,10.0,29.949802,,,TRUE,TRUE,,,,,,,CLR,,,,,,,,VFR,,,,,,,,,,,,METAR,160.0
KCKP 160715Z AUTO 00000KT 10SM OVC120 10/10 A3015 RMK AO2 T00970095,KCKP,2023-05-16T07:15:00Z,42.73,-95.55,9.7,9.5,0,0,,10.0,30.15059,,,TRUE,TRUE,,,,,,,OVC,12000,,,,,,,VFR,,,,,,,,,,,,METAR,369.0
KCKN 160715Z AUTO 27007KT 10SM CLR 14/05 A2999 RMK AO2,KCKN,2023-05-16T07:15:00Z,47.85,-96.62,14.0,5.0,270,7,,10.0,29.991142,,,TRUE,TRUE,,,,,,,CLR,,,,,,,,VFR,,,,,,,,,,,,METAR,272.0
KCKM 160715Z AUTO 24005KT 10SM 24/21 A3002 RMK A01,KCKM,2023-05-16T07:15:00Z,34.3,-90.52,24.0,21.0,240,5,,10.0,30.02067,,,TRUE,TRUE,,,,,,,,,,,,,,,,,,,,,,,,,,,METAR,52.0
KCKI 160715Z AUTO 00000KT 10SM SCT095 15/12 A3009 RMK AO2,KCKI,2023-05-16T07:15:00Z,33.72,-79.85,15.0,12.0,0,0,,10.0,30.088583,,,TRUE,TRUE,,,,,,,SCT,9500,,,,,,,VFR,,,,,,,,,,,,METAR,19.0
KCKF 160715Z AUTO 15004KT 10SM BKN050 OVC060 22/20 A3009 RMK AO2 T02180196,KCKF,2023-05-16T07:15:00Z,31.98,-83.77,21.8,19.6,150,4,,10.0,30.088583,,,TRUE,TRUE,,,,,,,BKN,5000,OVC,6000,,,,,VFR,,,,,,,,,,,,METAR,92.0
KCKC 160715Z AUTO 27008KT 230V300 10SM CLR 15/M01 A2986 RMK AO2,KCKC,2023-05-16T07:15:00Z,47.83,-90.38,15.0,-1.0,270,8,,10.0,29.861221,,,TRUE,TRUE,,,,,,,CLR,,,,,,,,VFR,,,,,,,,,,,,METAR,544.0
KCJR 160715Z AUTO 00000KT 10SM OVC100 12/11 A3001 RMK AO2 T01230114,KCJR,2023-05-16T07:15:00Z,38.53,-77.87,12.3,11.4,0,0,,10.0,30.008858,,,TRUE,TRUE,,,,,,,OVC,10000,,,,,,,VFR,,,,,,,,,,,,METAR,90.0
KCIN 160715Z AUTO 30005KT 10SM OVC065 14/11 A3012 RMK AO2,KCIN,2023-05-16T07:15:00Z,42.03,-94.78,14.0,11.0,300,5,,10.0,30.121063,,,TRUE,TRUE,,,,,,,OVC,6500,,,,,,,VFR,,,,,,,,,,,,METAR,365.0
KCIC 160715Z AUTO 00000KT 10SM CLR 22/08 A3003 RMK AO1,KCIC,2023-05-16T07:15:00Z,39.78,-121.85,22.0,8.0,0,0,,10.0,30.029528,,,TRUE,TRUE,,,,,,,CLR,,,,,,,,VFR,,,,,,,,,,,,METAR,72.0
KCHK 160715Z AUTO 36009KT 10SM OVC035 17/16 A3013 RMK AO2 T01720157,KCHK,2023-05-16T07:15:00Z,35.1,-97.97,17.2,15.7,360,9,,10.0,30.129921,,,TRUE,TRUE,,,,,,,OVC,3500,,,,,,,VFR,,,,,,,,,,,,METAR,346.0
KCGF 160715Z AUTO 00000KT 10SM CLR 04/02 A3001 RMK AO2 T00430015,KCGF,2023-05-16T07:15:00Z,41.57,-81.47,4.3,1.5,0,0,,10.0,30.008858,,,TRUE,TRUE,,,,,,,CLR,,,,,,,,VFR,,,,,,,,,,,,METAR,265.0
KCGC 160715Z AUTO 00000KT 10SM CLR 20/18 A3006 RMK AO2,KCGC,2023-05-16T07:15:00Z,28.87,-82.57,20.0,18.0,0,0,,10.0,30.059055,,,TRUE,TRUE,,,,,,,CLR,,,,,,,,VFR,,,,,,,,,,,,METAR,3.0
KCFS 160715Z AUTO 00000KT 10SM CLR 06/03 A2995 RMK AO2 T00560027,KCFS,2023-05-16T07:15:00Z,43.47,-83.45,5.6,2.7,0,0,,10.0,29.949802,,,TRUE,TRUE,,,,,,,CLR,,,,,,,,VFR,,,,,,,,,,,,SPECI,214.0
KCFO 160715Z AUTO 19006KT 10SM CLR 12/09 A3027 RMK AO2 T01190088,KCFO,2023-05-16T07:15:00Z,39.78,-104.55,11.9,8.8,190,6,,10.0,30.268702,,,TRUE,TRUE,,,,,,,CLR,,,,,,,,VFR,,,,,,,,,,,,METAR,1672.0
KCFJ 160715Z AUTO 00000KT 10SM OVC100 14/06 A3003 RMK AO2 T01370058,KCFJ,2023-05-16T07:15:00Z,39.98,-86.92,13.7,5.8,0,0,,10.0,30.029528,,,TRUE,TRUE,,,,,,,OVC,10000,,,,,,,VFR,,,,,,,,,,,,METAR,243.0
KCFE 160715Z AUTO 24006KT 10SM FEW041 BKN048 OVC055 13/09 A3005 RMK AO2,KCFE,2023-05-16T07:15:00Z,45.17,-93.85,13.0,9.0,240,6,,10.0,30.050198,,,TRUE,TRUE,,,,,,,FEW,4100,BKN,4800,OVC,5500,,,VFR,,,,,,,,,,,,METAR,292.0
KCFD 160715Z AUTO 00000KT 5SM BR CLR 19/19 A3011 RMK AO2 T01900190,KCFD,2023-05-16T07:15:00Z,30.72,-96.33,19.0,19.0,0,0,,5.0,30.109253,,,TRUE,TRUE,,,,,,BR,CLR,,,,,,,,MVFR,,,,,,,,,,,,METAR,106.0
KCEY 160715Z AUTO 16004KT 10SM FEW050 21/21 A2999 RMK A01,KCEY,2023-05-16T07:15:00Z,36.67,-88.37,21.0,21.0,160,4,,10.0,29.991142,,,TRUE,TRUE,,,,,,,FEW,5000,,,,,,,VFR,,,,,,,,,,,,METAR,172.0
KCDN 160715Z AUTO 00000KT 10SM CLR 17/14 A3010 RMK AO2,KCDN,2023-05-16T07:15:00Z,34.28,-80.57,17.0,14.0,0,0,,10.0,30.100393,,,TRUE,TRUE,,,,,,,CLR,,,,,,,,VFR,,,,,,,,,,,,METAR,90.0
KCDI 160715Z AUTO 00000KT 10SM CLR 09/09 A3003 RMK AO2 T00860085,KCDI,2023-05-16T07:15:00Z,39.97,-81.58,8.6,8.5,0,0,,10.0,30.029528,,,TRUE,TRUE,,,,,,,CLR,,,,,,,,VFR,,,,,,,,,,,,METAR,241.0
KCDH 160715Z AUTO 00000KT 7SM CLR 22/22 A3002 RMK AO2,KCDH,2023-05-16T07:15:00Z,33.62,-92.77,22.0,22.0,0,0,,7.0,30.02067,,,TRUE,TRUE,,,,,,,CLR,,,,,,,,VFR,,,,,,,,,,,,METAR,38.0
KCDA 160715Z AUTO 00000KT 10SM BKN100 12/00 A2974 RMK AO2 T01191004,KCDA,2023-05-16T07:15:00Z,44.57,-72.02,11.9,-0.4,0,0,,10.0,29.740158,,,TRUE,TRUE,,,,,,,BKN,10000,,,,,,,VFR,,,,,,,,,,,,METAR,357.0
KCCY 160715Z AUTO 29005KT 10SM FEW210 10/10 A3010 RMK AO2,KCCY,2023-05-16T07:15:00Z,43.07,-92.62,10.0,10.0,290,5,,10.0,30.100393,,,TRUE,TRUE,,,,,,,FEW,21000,,,,,,,VFR,,,,,,,,,,,,METAR,340.0
KCCU 160715Z AUTO 26010KT 10SM SCT008 SCT023 BKN030 03/01 A3063 RMK AO2,KCCU,2023-05-16T07:15:00Z,39.48,-106.15,3.0,1.0,260,10,,10.0,30.628937,,,TRUE,TRUE,,,,,,,SCT,800,SCT,2300,BKN,3000,,,MVFR,,,,,,,,,,,,METAR,3672.0
KCCO 160715Z AUTO 00000KT 10SM CLR 19/19 A3008 RMK AO2 T01920187,KCCO,2023-05-16T07:15:00Z,33.32,-84.77,19.2,18.7,0,0,,10.0,30.079725,,,TRUE,TRUE,,,,,,,CLR,,,,,,,,VFR,,,,,,,,,,,,METAR,290.0
KCCB 160715Z AUTO 00000KT 6SM BR 16/14 A3004 RMK AO2,KCCB,2023-05-16T07:15:00Z,34.12,-117.68,16.0,14.0,0,0,,6.0,30.041338,,,TRUE,TRUE,,,,,,BR,,,,,,,,,,,,,,,,,,,,,METAR,440.0
KCCA 160715Z AUTO 00000KT 10SM SCT075 20/20 A3002 RMK AO2,KCCA,2023-05-16T07:15:00Z,35.6,-92.45,20.0,20.0,0,0,,10.0,30.02067,,,TRUE,TRUE,,,,,,,SCT,7500,,,,,,,VFR,,,,,,,,,,,,METAR,152.0
KCBG 160715Z AUTO 23003KT 10SM CLR 14/04 A3003 RMK AO2,KCBG,2023-05-16T07:15:00Z,45.57,-93.27,14.0,4.0,230,3,,10.0,30.029528,,,TRUE,TRUE,,,,,,,CLR,,,,,,,,VFR,,,,,,,,,,,,METAR,285.0
KCBF 160715Z AUTO 00000KT 10SM OVC035 13/11 A3013 RMK AO2,KCBF,2023-05-16T07:15:00Z,41.27,-95.77,13.0,11.0,0,0,,10.0,30.129921,,,TRUE,TRUE,,,,,,,OVC,3500,,,,,,,VFR,,,,,,,,,,,,METAR,379.0
KCAV 160715Z AUTO 00000KT 10SM FEW026 FEW037 10/08 A3012 RMK A01,KCAV,2023-05-16T07:15:00Z,42.75,-93.77,10.0,8.0,0,0,,10.0,30.121063,,,TRUE,TRUE,,,,,,,FEW,2600,FEW,3700,,,,,VFR,,,,,,,,,,,,METAR,352.0
KCAD 160715Z AUTO 22003KT 10SM CLR 09/M04 A2995 RMK AO2 T00861040,KCAD,2023-05-16T07:15:00Z,44.27,-85.42,8.6,-4.0,220,3,,10.0,29.949802,,,TRUE,TRUE,,,,,,,CLR,,,,,,,,VFR,,,,,,,,,,,,SPECI,397.0
KC99 160715Z AUTO 30015G25KT 10SM CLR 02/00 A3051 RMK AO2,KC99,2023-05-16T07:15:00Z,39.87,-105.55,2.0,0.0,300,15,25,10.0,30.510826,,,TRUE,TRUE,,,,,,,CLR,,,,,,,,VFR,,,,,,,,,,,,METAR,3334.0
KC83 160715Z AUTO 24012KT 10SM CLR 19/10 A3002 RMK AO2,KC83,2023-05-16T07:15:00Z,37.83,-121.62,19.0,10.0,240,12,,10.0,30.02067,,,TRUE,TRUE,,,,,,,CLR,,,,,,,,VFR,,,,,,,,,,,,METAR,16.0
KC75 160715Z AUTO 00000KT 10SM OVC080 14/13 A3005 RMK AO2 T01400129,KC75,2023-05-16T07:15:00Z,41.02,-89.38,14.0,12.9,0,0,,10.0,30.050198,,,TRUE,TRUE,,,,,,,OVC,8000,,,,,,,VFR,,,,,,,,,,,,METAR,166.0
KC65 160715Z AUTO 00000KT 10SM FEW026 SCT032 08/05 A3004 RMK A01,KC65,2023-05-16T07:15:00Z,41.37,-86.3,8.0,5.0,0,0,,10.0,30.041338,,,TRUE,TRUE,,,,,,,FEW,2600,SCT,3200,,,,,VFR,,,,,,,,,,,,METAR,241.0
KC62 160715Z AUTO 00000KT 10SM CLR 08/07 A3004 RMK AO2 T00910070,KC62,2023-05-16T07:15:00Z,41.47,-85.25,8.0,7.0,0,0,,10.0,30.041338,,,TRUE,TRUE,,,,,,,CLR,,,,,,,,VFR,,,,,,,,,,,,METAR,304.0
KC35 160715Z AUTO 00000KT 10SM CLR 09/07 A3004 RMK AO2 T00860072 PWINO,KC35,2023-05-16T07:15:00Z,43.53,-89.98,8.6,7.2,0,0,,10.0,30.041338,,,TRUE,TRUE,,,,,TRUE,,CLR,,,,,,,,VFR,,,,,,,,,,,,METAR,272.0
KC29 160715Z AUTO 00000KT 10SM CLR 11/04 A3005 RMK AO1 T01070040,KC29,2023-05-16T07:15:00Z,43.12,-89.53,10.7,4.0,0,0,,10.0,30.050198,,,TRUE,TRUE,,,,,,,CLR,,,,,,,,VFR,,,,,,,,,,,,METAR,282.0
KC09 160715Z AUTO 00000KT 10SM CLR 12/08 A3004 RMK AO2 T01210081,KC09,2023-05-16T07:15:00Z,41.43,-88.42,12.1,8.1,0,0,,10.0,30.041338,,,TRUE,TRUE,,,,,,,CLR,,,,,,,,VFR,,,,,,,,,,,,METAR,179.0
KC07 160715Z AUTO 25004KT 10SM SCT080 02/02 A3054 RMK AO2,KC07,2023-05-16T07:15:00Z,40.35,-106.7,2.0,2.0,250,4,,10.0,30.540354,,,TRUE,TRUE,,,,,,,SCT,8000,,,,,,,VFR,,,,,,,,,,,,METAR,3224.0
KBYY 160715Z AUTO 00000KT 10SM BKN016 21/20 A3008 RMK AO2 T02150205,KBYY,2023-05-16T07:15:00Z,28.97,-95.87,21.5,20.5,0,0,,10.0,30.079725,,,TRUE,TRUE,,,,,,,BKN,1600,,,,,,,MVFR,,,,,,,,,,,,METAR,12.0
KBYL 160715Z AUTO 00000KT 10SM OVC024 18/18 A3006 RMK AO1,KBYL,2023-05-16T07:15:00Z,36.8,-84.2,18.0,18.0,0,0,,10.0,30.059055,,,TRUE,TRUE,,,,,,,OVC,2400,,,,,,,MVFR,,,,,,,,,,,,METAR,355.0
KBXK 160715Z AUTO 00000KT 10SM CLR 27/09 A2995 RMK A01,KBXK,2023-05-16T07:15:00Z,33.42,-112.68,27.0,9.0,0,0,,10.0,29.949802,,,TRUE,TRUE,,,,,,,CLR,,,,,,,,VFR,,,,,,,,,,,,METAR,303.0
KBXA 160715Z AUTO 00000KT 10SM CLR 21/20 A3005 RMK AO2 T02120199,KBXA,2023-05-16T07:15:00Z,30.82,-89.87,21.2,19.9,0,0,,10.0,30.050198,,,TRUE,TRUE,,,,,,,CLR,,,,,,,,VFR,,,,,,,,,,,,METAR,35.0
KBWW 160715Z AUTO 17005KT 10SM CLR 10/07 A3017 RMK AO2,KBWW,2023-05-16T07:15:00Z,46.17,-103.3,10.0,7.0,170,5,,10.0,30.171259,,,TRUE,TRUE,,,,,,,CLR,,,,,,,,VFR,,,,,,,,,,,,METAR,911.0
KBWP 160715Z AUTO 26008KT 9SM OVC090 12/10 A3005 RMK AO2,KBWP,2023-05-16T07:15:00Z,46.25,-96.62,12.0,10.0,260,8,,9.0,30.050198,,,TRUE,TRUE,,,,,,,OVC,9000,,,,,,,VFR,,,,,,,,,,,,SPECI,294.0
KBVU 160715Z AUTO 11007KT 10SM CLR 30/04 A3002 RMK AO2,KBVU,2023-05-16T07:15:00Z,35.95,-114.87,30.0,4.0,110,7,,10.0,30.02067,,,TRUE,TRUE,,,,,,,CLR,,,,,,,,VFR,,,,,,,,,,,,METAR,654.0
KBVS 160715Z AUTO 18004KT 10SM CLR 18/15 A3005 RMK A01,KBVS,2023-05-16T07:15:00Z,48.47,-122.42,18.0,15.0,180,4,,10.0,30.050198,,,TRUE,TRUE,,,,,,,CLR,,,,,,,,VFR,,,,,,,,,,,,METAR,31.0
KBVN 160715Z AUTO 00000KT 10SM OVC065 12/11 A3018 RMK AO2 T01170111,KBVN,2023-05-16T07:15:00Z,41.73,-98.05,11.7,11.1,0,0,,10.0,30.180119,,,TRUE,TRUE,,,,,,,OVC,6500,,,,,,,VFR,,,,,,,,,,,,METAR,547.0
KBVI 160715Z AUTO 00000KT 10SM CLR 12/03 A3001 RMK AO2 T01190028,KBVI,2023-05-16T07:15:00Z,40.77,-80.37,11.9,2.8,0,0,,10.0,30.008858,,,TRUE,TRUE,,,,,,,CLR,,,,,,,,VFR,,,,,,,,,,,,METAR,387.0
KBUU 160715Z AUTO 21003KT 10SM CLR 08/05 A3003 RMK AO2 T00760047 PWINO,KBUU,2023-05-16T07:15:00Z,42.68,-88.3,7.6,4.7,210,3,,10.0,30.029528,,,TRUE,TRUE,,,,,TRUE,,CLR,,,,,,,,VFR,,,,,,,,,,,,METAR,238.0
KBTN 160715Z AUTO 18008KT 10SM CLR 11/11 A3010 RMK AO2,KBTN,2023-05-16T07:15:00Z,45.82,-97.75,11.0,11.0,180,8,,10.0,30.100393,,,TRUE,TRUE,,,,,,,CLR,,,,,,,,VFR,,,,,,,,,,,,METAR,400.0
KBTA 160715Z AUTO 00000KT 10SM OVC044 13/11 A3015 RMK AO2 T01330105,KBTA,2023-05-16T07:15:00Z,41.42,-96.12,13.3,10.5,0,0,,10.0,30.15059,,,TRUE,TRUE,,,,,,,OVC,4400,,,,,,,VFR,,,,,,,,,,,,METAR,400.0
KBRY 160715Z AUTO 00000KT 9SM FEW150 16/16 A2999 RMK AO2 T01650165 $,KBRY,2023-05-16T07:15:00Z,37.82,-85.5,16.5,16.5,0,0,,9.0,29.991142,,,TRUE,TRUE,TRUE,,,,,,FEW,15000,,,,,,,VFR,,,,,,,,,,,,METAR,192.0
KBRG 160715Z AUTO 00000KT 10SM CLR 17/07 A3032 RMK AO2 T01670066,KBRG,2023-05-16T07:15:00Z,34.65,-106.83,16.7,6.6,0,0,,10.0,30.318897,,,TRUE,TRUE,,,,,,,CLR,,,,,,,,VFR,,,,,,,,,,,,METAR,1585.0
KBQX 160715Z AUTO 13008KT 10SM FEW014 FEW021 BKN032 26/23 A3009 RMK A01,KBQX,2023-05-16T07:15:00Z,28.5,-95.72,26.0,23.0,130,8,,10.0,30.088583,,,TRUE,TRUE,,,,,,,FEW,1400,FEW,2100,BKN,3200,,,VFR,,,,,,,,,,,,METAR,34.0
KBQP 160715Z AUTO 00000KT 10SM CLR 22/22 A3004 RMK AO2 T02220218,KBQP,2023-05-16T07:15:00Z,32.75,-91.88,22.2,21.8,0,0,,10.0,30.041338,,,TRUE,TRUE,,,,,,,CLR,,,,,,,,VFR,,,,,,,,,,,,METAR,50.0
KBQK 160715Z AUTO 29004KT 7SM CLR 20/19 A3007 RMK AO2 T01960192,KBQK,2023-05-16T07:15:00Z,31.25,-81.47,19.6,19.2,290,4,,7.0,30.070866,,,TRUE,TRUE,,,,,,,CLR,,,,,,,,VFR,,,,,,,,,,,,METAR,7.0
KBPG 160715Z AUTO 06005KT 10SM CLR 18/15 A3022 RMK AO2 T01830148,KBPG,2023-05-16T07:15:00Z,32.22,-101.52,18.3,14.8,60,5,,10.0,30.221457,,,TRUE,TRUE,,,,,,,CLR,,,,,,,,VFR,,,,,,,,,,,,METAR,782.0
KBPC 160715Z AUTO 00000KT 10SM BKN044 13/12 A3025 RMK AO2,KBPC,2023-05-16T07:15:00Z,35.88,-101.03,13.0,12.0,0,0,,10.0,30.250984,,,TRUE,TRUE,,,,,,,BKN,4400,,,,,,,VFR,,,,,,,,,,,,METAR,844.0
KBOW 160715Z AUTO 00000KT 10SM CLR 20/17 A3006 RMK AO2,KBOW,2023-05-16T07:15:00Z,27.93,-81.77,20.0,17.0,0,0,,10.0,30.059055,,,TRUE,TRUE,,,,,,,CLR,,,,,,,,VFR,,,,,,,,,,,,METAR,38.0
KBNW 160715Z AUTO 33005KT 10SM OVC070 14/09 A3010 RMK AO2,KBNW,2023-05-16T07:15:00Z,42.03,-93.83,14.0,9.0,330,5,,10.0,30.100393,,,TRUE,TRUE,,,,,,,OVC,7000,,,,,,,VFR,,,,,,,,,,,,METAR,350.0
KBNL 160715Z AUTO 00000KT 10SM CLR 18/16 A3009 RMK AO2,KBNL,2023-05-16T07:15:00Z,33.25,-81.38,18.0,16.0,0,0,,10.0,30.088583,,,TRUE,TRUE,,,,,,,CLR,,,,,,,,VFR,,,,,,,,,,,,METAR,76.0
KBMT 160715Z AUTO 22003KT 10SM CLR 22/22 A3007 RMK AO2 T02200215,KBMT,2023-05-16T07:15:00Z,30.07,-94.22,22.0,21.5,220,3,,10.0,30.070866,,,TRUE,TRUE,,,,,,,CLR,,,,,,,,VFR,,,,,,,,,,,,METAR,8.0
KBKT 160715Z AUTO 00000KT 10SM SCT065 OVC080 16/13 A3005 RMK AO1 T01600131,KBKT,2023-05-16T07:15:00Z,37.07,-77.95,16.0,13.1,0,0,,10.0,30.050198,,,TRUE,TRUE,,,,,,,SCT,6500,OVC,8000,,,,,VFR,,,,,,,,,,,,METAR,134.0
KBKS 160715Z AUTO 00000KT 10SM BKN065 OVC090 23/22 A3008 RMK AO2 SLP146 T02270220 $,KBKS,2023-05-16T07:15:00Z,27.2,-98.12,22.7,22.0,0,0,,10.0,30.079725,1014.6,,TRUE,TRUE,TRUE,,,,,,BKN,6500,OVC,9000,,,,,VFR,,,,,,,,,,,,METAR,34.0
KBKN 160715Z AUTO 32008KT 15/14 A3016 RMK AO2,KBKN,2023-05-16T07:15:00Z,36.75,-97.35,15.0,14.0,320,8,,,30.159449,,,TRUE,TRUE,,,,,,,,,,,,,,,,,,,,,,,,,,,METAR,208.0
KBKD 160715Z AUTO 03003KT 10SM CLR 21/18 A3015 RMK AO2 T02050175,KBKD,2023-05-16T07:15:00Z,32.72,-98.88,20.5,17.5,30,3,,10.0,30.15059,,,TRUE,TRUE,,,,,,,CLR,,,,,,,,VFR,,,,,,,,,,,,METAR,383.0
KBJI 160715Z AUTO 25005KT 10SM CLR 14/03 A3000 RMK AO2 T01410025,KBJI,2023-05-16T07:15:00Z,47.5,-94.92,14.1,2.5,250,5,,10.0,30.0,,,TRUE,TRUE,,,,,,,CLR,,,,,,,,VFR,,,,,,,,,,,,SPECI,422.0
KBJC 160715Z AUTO 14003KT 10SM SCT110 11/07 A3027 RMK AO2,KBJC,2023-05-16T07:15:00Z,39.9,-105.1,11.0,7.0,140,3,,10.0,30.268702,,,TRUE,TRUE,,,,,,,SCT,11000,,,,,,,VFR,,,,,,,,,,,,METAR,1694.0
KBIJ 160715Z AUTO 00000KT 5SM BR OVC005 20/18 A3007 RMK AO2,KBIJ,2023-05-16T07:15:00Z,31.4,-84.9,20.0,18.0,0,0,,5.0,30.070866,,,TRUE,TRUE,,,,,,BR,OVC,500,,,,,,,IFR,,,,,,,,,,,,SPECI,63.0
KBIE 160715Z AUTO 34003KT 5SM BR SCT015 OVC030 12/11 A3016 RMK AO2 T01220112,KBIE,2023-05-16T07:15:00Z,40.28,-96.75,12.2,11.2,340,3,,5.0,30.159449,,,TRUE,TRUE,,,,,,BR,SCT,1500,OVC,3000,,,,,MVFR,,,,,,,,,,,,METAR,398.0
KBHC 160715Z AUTO 00000KT 7SM OVC060 19/18 A3009 RMK AO2,KBHC,2023-05-16T07:15:00Z,31.72,-82.4,19.0,18.0,0,0,,7.0,30.088583,,,TRUE,TRUE,,,,,,,OVC,6000,,,,,,,VFR,,,,,,,,,,,,METAR,61.0
KBGF 160715Z AUTO 13004KT 10SM CLR 18/18 A3005 RMK A01,KBGF,2023-05-16T07:15:00Z,35.18,-86.07,18.0,18.0,130,4,,10.0,30.050198,,,TRUE,TRUE,,,,,,,CLR,,,,,,,,VFR,,,,,,,,,,,,SPECI,295.0
KBGE 160715Z AUTO 13003KT 5SM BR OVC004 22/21 A3007 RMK AO2 T02180214,KBGE,2023-05-16T07:15:00Z,30.97,-84.63,21.8,21.4,130,3,,5.0,30.070866,,,TRUE,TRUE,,,,,,BR,OVC,400,,,,,,,LIFR,,,,,,,,,,,,METAR,40.0
KBFR 160715Z AUTO 00000KT 10SM CLR 16/13 A3001 RMK AO2,KBFR,2023-05-16T07:15:00Z,38.83,-86.45,16.0,13.0,0,0,,10.0,30.008858,,,TRUE,TRUE,,,,,,,CLR,,,,,,,,VFR,,,,,,,,,,,,METAR,223.0
KBEC 160715Z AUTO 33004KT 10SM OVC008 13/13 A3016 RMK AO2 T01300130,KBEC,2023-05-16T07:15:00Z,37.7,-97.22,13.0,13.0,330,4,,10.0,30.159449,,,TRUE,TRUE,,,,,,,OVC,800,,,,,,,IFR,,,,,,,,,,,,METAR,421.0
KBEA 160715Z AUTO 20003KT 10SM CLR 21/20 A3010 RMK AO2 T02110203,KBEA,2023-05-16T07:15:00Z,28.37,-97.78,21.1,20.3,200,3,,10.0,30.100393,,,TRUE,TRUE,,,,,,,CLR,,,,,,,,VFR,,,,,,,,,,,,METAR,83.0
KBDU 160715Z AUTO 36003KT 10SM BKN120 10/09 A3026 RMK AO2,KBDU,2023-05-16T07:15:00Z,40.03,-105.23,10.0,9.0,360,3,,10.0,30.259842,,,TRUE,TRUE,,,,,,,BKN,12000,,,,,,,VFR,,,,,,,,,,,,METAR,1614.0
KBDN 160715Z AUTO 22008KT 10SM CLR 13/09 A3018 RMK AO2,KBDN,2023-05-16T07:15:00Z,44.1,-121.2,13.0,9.0,220,8,,10.0,30.180119,,,TRUE,TRUE,,,,,,,CLR,,,,,,,,VFR,,,,,,,,,,,,METAR,1044.0
KBDH 160715Z AUTO 26003KT 10SM CLR 12/07 A3011 RMK AO2,KBDH,2023-05-16T07:15:00Z,45.12,-95.13,12.0,7.0,260,3,,10.0,30.109253,,,TRUE,TRUE,,,,,,,CLR,,,,,,,,VFR,,,,,,,,,,,,METAR,341.0
KBDG 160715Z AUTO 01005KT 10SM 11/03 A3039 RMK AO1 T01070033,KBDG,2023-05-16T07:15:00Z,37.58,-109.47,10.7,3.3,10,5,,10.0,30.389763,,,TRUE,TRUE,,,,,,,,,,,,,,,,,,,,,,,,,,,METAR,1778.0
KBCK 160715Z AUTO 19004KT 10SM CLR 08/07 A3004 RMK AO2 T00770071,KBCK,2023-05-16T07:15:00Z,44.25,-90.85,7.7,7.1,190,4,,10.0,30.041338,,,TRUE,TRUE,,,,,,,CLR,,,,,,,,VFR,,,,,,,,,,,,METAR,256.0
KBCB 160715Z AUTO 00000KT 4SM -RA SCT004 BKN007 OVC014 15/15 A3012 RMK AO2 P0003 T01470147,KBCB,2023-05-16T07:15:00Z,37.22,-80.42,14.7,14.7,0,0,,4.0,30.121063,,,TRUE,TRUE,,,,,,-RA,SCT,400,BKN,700,OVC,1400,,,IFR,,,,,,0.03,,,,,,METAR,642.0
KBBP 160715Z AUTO 00000KT 10SM SCT080 17/15 A3008 RMK AO2,KBBP,2023-05-16T07:15:00Z,34.62,-79.73,17.0,15.0,0,0,,10.0,30.079725,,,TRUE,TRUE,,,,,,,SCT,8000,,,,,,,VFR,,,,,,,,,,,,METAR,44.0
KBBG 160715Z AUTO 00000KT 6SM BR BKN003 OVC007 19/19 A3005 RMK AO2,KBBG,2023-05-16T07:15:00Z,36.53,-93.2,19.0,19.0,0,0,,6.0,30.050198,,,TRUE,TRUE,,,,,,BR,BKN,300,OVC,700,,,,,LIFR,,,,,,,,,,,,METAR,403.0
KBBD 160715Z AUTO 27004KT 4SM BR FEW050 18/17 A3015 RMK AO2,KBBD,2023-05-16T07:15:00Z,31.18,-99.32,18.0,17.0,270,4,,4.0,30.15059,,,TRUE,TRUE,,,,,,BR,FEW,5000,,,,,,,MVFR,,,,,,,,,,,,METAR,554.0
KBAX 160715Z AUTO 00000KT 10SM CLR 09/04 A2993 RMK AO2 T00850038,KBAX,2023-05-16T07:15:00Z,43.78,-82.98,8.5,3.8,0,0,,10.0,29.929134,,,TRUE,TRUE,,,,,,,CLR,,,,,,,,VFR,,,,,,,,,,,,SPECI,229.0
KBAM 160715Z AUTO 22003KT 10SM OVC120 13/05 A3023 RMK AO1,KBAM,2023-05-16T07:15:00Z,40.6,-116.87,13.0,5.0,220,3,,10.0,30.230314,,,TRUE,TRUE,,,,,,,OVC,12000,,,,,,,VFR,,,,,,,,,,,,METAR,1381.0
KBAC 160715Z AUTO 28012KT 10SM CLR 15/10 A3008 RMK AO2,KBAC,2023-05-16T07:15:00Z,46.93,-98.02,15.0,10.0,280,12,,10.0,30.079725,,,TRUE,TRUE,,,,,,,CLR,,,,,,,,VFR,,,,,,,,,,,,METAR,423.0
KAZE 160715Z AUTO 00000KT 7SM BKN049 BKN060 20/19 A3009 RMK AO2 T01970191,KAZE,2023-05-16T07:15:00Z,31.88,-82.65,19.7,19.1,0,0,,7.0,30.088583,,,TRUE,TRUE,,,,,,,BKN,4900,BKN,6000,,,,,VFR,,,,,,,,,,,,METAR,78.0
KAYS 160715Z AUTO 00000KT 7SM SCT015 19/18 A3008 RMK AO2 T01910184,KAYS,2023-05-16T07:15:00Z,31.25,-82.4,19.1,18.4,0,0,,7.0,30.079725,,,TRUE,TRUE,,,,,,,SCT,1500,,,,,,,VFR,,,,,,,,,,,,METAR,42.0
KAXX 160715Z AUTO 00000KT 10SM OVC048 06/05 A3048 RMK AO2 T00570049,KAXX,2023-05-16T07:15:00Z,36.42,-105.28,5.7,4.9,0,0,,10.0,30.481298,,,TRUE,TRUE,,,,,,,OVC,4800,,,,,,,VFR,,,,,,,,,,,,METAR,2543.0
KAXV 160715Z AUTO 00000KT 10SM CLR 11/08 A3002 RMK AO2,KAXV,2023-05-16T07:15:00Z,40.5,-84.3,11.0,8.0,0,0,,10.0,30.02067,,,TRUE,TRUE,,,,,,,CLR,,,,,,,,VFR,,,,,,,,,,,,METAR,278.0
KAXS 160715Z AUTO 34006KT 10SM BKN049 17/15 A3020 RMK AO2 T01710148,KAXS,2023-05-16T07:15:00Z,34.7,-99.33,17.1,14.8,340,6,,10.0,30.200787,,,TRUE,TRUE,,,,,,,BKN,4900,,,,,,,VFR,,,,,,,,,,,,METAR,433.0
KAXH 160715Z AUTO 00000KT 10SM OVC019 22/21 A3010 RMK AO2 T02210213,KAXH,2023-05-16T07:15:00Z,29.52,-95.48,22.1,21.3,0,0,,10.0,30.100393,,,TRUE,TRUE,,,,,,,OVC,1900,,,,,,,MVFR,,,,,,,,,,,,METAR,18.0
KAXA 160715Z AUTO 27004KT 10SM SCT120 10/09 A3011 RMK A01,KAXA,2023-05-16T07:15:00Z,43.07,-94.27,10.0,9.0,270,4,,10.0,30.109253,,,TRUE,TRUE,,,,,,,SCT,12000,,,,,,,VFR,,,,,,,,,,,,METAR,371.0
KAWG 160715Z AUTO 31004KT 10SM FEW065 SCT075 BKN100 15/14 A3007 RMK AO2,KAWG,2023-05-16T07:15:00Z,41.27,-91.67,15.0,14.0,310,4,,10.0,30.070866,,,TRUE,TRUE,,,,,,,FEW,6500,SCT,7500,BKN,10000,,,VFR,,,,,,,,,,,,METAR,229.0
KAVQ 160715Z AUTO 09004KT 10SM 27/10 A3002 RMK AO2 T02710097,KAVQ,2023-05-16T07:15:00Z,32.4,-111.22,27.1,9.7,90,4,,10.0,30.02067,,,TRUE,TRUE,,,,,,,,,,,,,,,,,,,,,,,,,,,METAR,618.0
KAVC 160715Z AUTO 19004KT 10SM BKN075 OVC085 17/15 A3011 RMK AO2 T01650149,KAVC,2023-05-16T07:15:00Z,36.68,-78.05,16.5,14.9,190,4,,10.0,30.109253,,,TRUE,TRUE,,,,,,,BKN,7500,OVC,8500,,,,,VFR,,,,,,,,,,,,METAR,119.0
KAUN 160715Z AUTO 11003KT 10SM CLR 18/11 A3008 RMK A01,KAUN,2023-05-16T07:15:00Z,38.95,-121.08,18.0,11.0,110,3,,10.0,30.079725,,,TRUE,TRUE,,,,,,,CLR,,,,,,,,VFR,,,,,,,,,,,,METAR,453.0
KAUH 160715Z AUTO 32005KT 10SM OVC034 12/10 A3018 RMK AO2 T01190099,KAUH,2023-05-16T07:15:00Z,40.88,-98.0,11.9,9.9,320,5,,10.0,30.180119,,,TRUE,TRUE,,,,,,,OVC,3400,,,,,,,VFR,,,,,,,,,,,,METAR,549.0
KATW 160715Z AUTO 25009KT 10SM CLR 12/05 A2998 RMK AO2,KATW,2023-05-16T07:15:00Z,44.27,-88.52,12.0,5.0,250,9,,10.0,29.97933,,,TRUE,TRUE,,,,,,,CLR,,,,,,,,VFR,,,,,,,,,,,,METAR,266.0
KATS 160715Z AUTO 21005KT 10SM CLR 16/10 A3028 RMK AO2,KATS,2023-05-16T07:15:00Z,32.85,-104.47,16.0,10.0,210,5,,10.0,30.280512,,,TRUE,TRUE,,,,,,,CLR,,,,,,,,VFR,,,,,,,,,,,,METAR,1073.0
KATA 160715Z AUTO 00000KT 10SM CLR 20/20 A3005 RMK AO2 SLP073 T02030201 $,KATA,2023-05-16T07:15:00Z,33.1,-94.2,20.3,20.1,0,0,,10.0,30.050198,1007.3,,TRUE,TRUE,TRUE,,,,,,CLR,,,,,,,,VFR,,,,,,,,,,,,METAR,85.0
KASW 160715Z AUTO 00000KT 10SM CLR 08/06 A3004 RMK AO2 T00900066,KASW,2023-05-16T07:15:00Z,41.27,-85.83,9.0,6.6,0,0,,10.0,30.041338,,,TRUE,TRUE,,,,,,,CLR,,,,,,,,VFR,,,,,,,,,,,,METAR,253.0
KASN 160715Z AUTO 00000KT 10SM CLR 19/19 A3007 RMK AO2 T01930191,KASN,2023-05-16T07:15:00Z,33.57,-86.05,19.3,19.1,0,0,,10.0,30.070866,,,TRUE,TRUE,,,,,,,CLR,,,,,,,,VFR,,,,,,,,,,,,METAR,159.0
KASL 160715Z AUTO 27004KT 10SM 21/20 A3005 RMK AO2 T02090199 $,KASL,2023-05-16T07:15:00Z,32.52,-94.3,20.9,19.9,270,4,,10.0,30.050198,,,TRUE,TRUE,TRUE,,,,,,,,,,,,,,,,,,,,,,,,,,METAR,104.0
KARW 160715Z AUTO 00000KT 10SM BKN020 21/18 A3007 RMK AO2,KARW,2023-05-16T07:15:00Z,32.42,-80.63,21.0,18.0,0,0,,10.0,30.070866,,,TRUE,TRUE,,,,,,,BKN,2000,,,,,,,MVFR,,,,,,,,,,,,METAR,2.0
KARV 160715Z AUTO 27006KT 10SM CLR 14/03 A2996 RMK AO2 T01440033,KARV,2023-05-16T07:15:00Z,45.92,-89.72,14.4,3.3,270,6,,10.0,29.958662,,,TRUE,TRUE,,,,,,,CLR,,,,,,,,VFR,,,,,,,,,,,,METAR,494.0
KARM 160715Z AUTO 14003KT 7SM CLR 21/21 A3009 RMK AO2 T02100210 TSNO,KARM,2023-05-16T07:15:00Z,29.25,-96.15,21.0,21.0,140,3,,7.0,30.088583,,,TRUE,TRUE,,,TRUE,,,,CLR,,,,,,,,VFR,,,,,,,,,,,,METAR,29.0
KAQX 160715Z AUTO 00000KT 10SM CLR 17/16 A3008 RMK AO2,KAQX,2023-05-16T07:15:00Z,32.98,-81.27,17.0,16.0,0,0,,10.0,30.079725,,,TRUE,TRUE,,,,,,,CLR,,,,,,,,VFR,,,,,,,,,,,,METAR,48.0
KAQO 160715Z AUTO 00000KT 10SM FEW047 SCT060 SCT095 19/18 A3012 RMK AO2,KAQO,2023-05-16T07:15:00Z,30.78,-98.67,19.0,18.0,0,0,,10.0,30.121063,,,TRUE,TRUE,,,,,,,FEW,4700,SCT,6000,SCT,9500,,,VFR,,,,,,,,,,,,METAR,334.0
KAPY 160715Z AUTO 00000KT 10SM CLR 21/18 A3009 RMK AO2 T02130180 TSNO,KAPY,2023-05-16T07:15:00Z,26.97,-99.25,21.3,18.0,0,0,,10.0,30.088583,,,TRUE,TRUE,,,TRUE,,,,CLR,,,,,,,,VFR,,,,,,,,,,,,METAR,129.0
KANW 160715Z AUTO 26005KT 10SM CLR 08/07 A3022 RMK AO2 T00820074,KANW,2023-05-16T07:15:00Z,42.57,-100.0,8.2,7.4,260,5,,10.0,30.221457,,,TRUE,TRUE,,,,,,,CLR,,,,,,,,VFR,,,,,,,,,,,,METAR,788.0
KANQ 160715Z AUTO 00000KT 10SM FEW029 FEW041 09/06 A3002 RMK AO2,KANQ,2023-05-16T07:15:00Z,41.63,-85.08,9.0,6.0,0,0,,10.0,30.02067,,,TRUE,TRUE,,,,,,,FEW,2900,FEW,4100,,,,,VFR,,,,,,,,,,,,METAR,299.0
KANE 160715Z AUTO 24005KT 10SM CLR 16/08 A3004 RMK AO2,KANE,2023-05-16T07:15:00Z,45.15,-93.22,16.0,8.0,240,5,,10.0,30.041338,,,TRUE,TRUE,,,,,,,CLR,,,,,,,,VFR,,,,,,,,,,,,METAR,276.0
KAMN 160715Z AUTO 00000KT 10SM CLR 06/00 A2998 RMK AO2 T00560002,KAMN,2023-05-16T07:15:00Z,43.32,-84.68,5.6,0.2,0,0,,10.0,29.97933,,,TRUE,TRUE,,,,,,,CLR,,,,,,,,VFR,,,,,,,,,,,,SPECI,228.0
KALX 160715Z AUTO 00000KT 10SM CLR 21/21 A3005 RMK AO2 T02100207,KALX,2023-05-16T07:15:00Z,32.92,-85.97,21.0,20.7,0,0,,10.0,30.050198,,,TRUE,TRUE,,,,,,,CLR,,,,,,,,VFR,,,,,,,,,,,,METAR,198.0
KALN 160715Z AUTO 35004KT 10SM SCT049 SCT065 OVC120 18/16 A3001 RMK AO2 LTG DSNT SE T01770159,KALN,2023-05-16T07:15:00Z,38.88,-90.03,17.7,15.9,350,4,,10.0,30.008858,,,TRUE,TRUE,,,,,,,SCT,4900,SCT,6500,OVC,12000,,,VFR,,,,,,,,,,,,METAR,159.0
KALM 160715Z AUTO 29006KT 10SM OVC080 20/08 A3024 RMK AO2,KALM,2023-05-16T07:15:00Z,32.83,-105.98,20.0,8.0,290,6,,10.0,30.239174,,,TRUE,TRUE,,,,,,,OVC,8000,,,,,,,VFR,,,,,,,,,,,,METAR,1267.0
KAJZ 160715Z AUTO 04007KT 10SM CLR 13/05 A3033 RMK AO2 T01330053 PWINO,KAJZ,2023-05-16T07:15:00Z,38.78,-108.07,13.3,5.3,40,7,,10.0,30.33071,,,TRUE,TRUE,,,,,TRUE,,CLR,,,,,,,,VFR,,,,,,,,,,,,METAR,1583.0
KAJR 160715Z AUTO 00000KT 10SM BKN027 BKN033 OVC065 21/19 A3010 RMK AO2 T02060192,KAJR,2023-05-16T07:15:00Z,34.5,-83.55,20.6,19.2,0,0,,10.0,30.100393,,,TRUE,TRUE,,,,,,,BKN,2700,BKN,3300,OVC,6500,,,MVFR,,,,,,,,,,,,METAR,441.0
KAJG 160715Z AUTO 00000KT 10SM SCT100 BKN120 18/16 A3001 RMK AO2 T01770163,KAJG,2023-05-16T07:15:00Z,38.62,-87.73,17.7,16.3,0,0,,10.0,30.008858,,,TRUE,TRUE,,,,,,,SCT,10000,BKN,12000,,,,,VFR,,,,,,,,,,,,METAR,130.0
KAIT 160715Z AUTO 00000KT 10SM CLR 15/04 A3001 RMK AO2,KAIT,2023-05-16T07:15:00Z,46.53,-93.67,15.0,4.0,0,0,,10.0,30.008858,,,TRUE,TRUE,,,,,,,CLR,,,,,,,,VFR,,,,,,,,,,,,METAR,367.0
KAIO 160715Z AUTO 00000KT 10SM OVC040 13/13 A3013 RMK AO2,KAIO,2023-05-16T07:15:00Z,41.4,-95.03,13.0,13.0,0,0,,10.0,30.129921,,,TRUE,TRUE,,,,,,,OVC,4000,,,,,,,VFR,,,,,,,,,,,,METAR,349.0
KAIK 160715Z AUTO 00000KT 10SM CLR 18/16 A3009 RMK AO2 T01780162,KAIK,2023-05-16T07:15:00Z,33.65,-81.68,17.8,16.2,0,0,,10.0,30.088583,,,TRUE,TRUE,,,,,,,CLR,,,,,,,,VFR,,,,,,,,,,,,METAR,155.0
KAIG 160715Z AUTO 26004KT 10SM CLR 10/04 A2998 RMK AO2 T01020042,KAIG,2023-05-16T07:15:00Z,45.15,-89.12,10.2,4.2,260,4,,10.0,29.97933,,,TRUE,TRUE,,,,,,,CLR,,,,,,,,VFR,,,,,,,,,,,,METAR,462.0
KAID 160715Z AUTO 00000KT 10SM CLR 13/10 A3004 RMK AO2 T01270095,KAID,2023-05-16T07:15:00Z,40.12,-85.62,12.7,9.5,0,0,,10.0,30.041338,,,TRUE,TRUE,,,,,,,CLR,,,,,,,,VFR,,,,,,,,,,,,METAR,277.0
KAHQ 160715Z AUTO 32003KT 10SM OVC041 A3016 RMK AO2,KAHQ,2023-05-16T07:15:00Z,41.23,-96.6,,,320,3,,10.0,30.159449,,,TRUE,TRUE,,,,,,,OVC,4100,,,,,,,VFR,,,,,,,,,,,,METAR,372.0
KAGO 160715Z AUTO 00000KT 4SM BR CLR 21/20 A3002 RMK A01,KAGO,2023-05-16T07:15:00Z,33.23,-93.22,21.0,20.0,0,0,,4.0,30.02067,,,TRUE,TRUE,,,,,,BR,CLR,,,,,,,,MVFR,,,,,,,,,,,,METAR,91.0
KAGI 160715Z AUTO 03003KT 10SM CLR 25/21 A3006 RMK AO2 LTG DSNT SW T02490207,KAGI,2023-05-16T07:15:00Z,27.55,-92.45,24.9,20.7,30,3,,10.0,30.059055,,,TRUE,TRUE,,,,,,,CLR,,,,,,,,VFR,,,,,,,,,,,,SPECI,41.0
KAFO 160715Z AUTO 27007KT 10SM SCT100 06/04 A3032 RMK AO2,KAFO,2023-05-16T07:15:00Z,42.72,-110.95,6.0,4.0,270,7,,10.0,30.318897,,,TRUE,TRUE,,,,,,,SCT,10000,,,,,,,VFR,,,,,,,,,,,,METAR,1881.0
KAFK 160715Z AUTO 04003KT 10SM OVC017 13/11 A3015 RMK AO2 T01250105,KAFK,2023-05-16T07:15:00Z,40.6,-95.85,12.5,10.5,40,3,,10.0,30.15059,,,TRUE,TRUE,,,,,,,OVC,1700,,,,,,,MVFR,,,,,,,,,,,,METAR,353.0
KAEL 160715Z AUTO 00000KT 10SM 12/08 A3010 RMK AO2,KAEL,2023-05-16T07:15:00Z,43.68,-93.37,12.0,8.0,0,0,,10.0,30.100393,,,TRUE,TRUE,,,,,,,,,,,,,,,,,,,,,,,,,,,METAR,382.0
KAEJ 160715Z AUTO 00000KT 10SM BKN031 09/07 A3044 RMK AO2 T00910069,KAEJ,2023-05-16T07:15:00Z,38.82,-106.12,9.1,6.9,0,0,,10.0,30.43996,,,TRUE,TRUE,,,,,,,BKN,3100,,,,,,,VFR,,,,,,,,,,,,METAR,2420.0
KAEG 160715Z AUTO 25005KT 10SM -DZ SCT048 BKN065 OVC100 14/11 A3034 RMK AO2 T01400106,KAEG,2023-05-16T07:15:00Z,35.13,-106.8,14.0,10.6,250,5,,10.0,30.339567,,,TRUE,TRUE,,,,,,-DZ,SCT,4800,BKN,6500,OVC,10000,,,VFR,,,,,,,,,,,,METAR,1771.0
KADU 160715Z AUTO 00000KT 10SM OVC050 13/11 A3014 RMK AO2 PWINO,KADU,2023-05-16T07:15:00Z,41.7,-94.92,13.0,11.0,0,0,,10.0,30.138779,,,TRUE,TRUE,,,,,TRUE,,OVC,5000,,,,,,,VFR,,,,,,,,,,,,METAR,391.0
KADT 160715Z AUTO 00000KT 10SM CLR 08/07 A3030 RMK AO2 T00780065,KADT,2023-05-16T07:15:00Z,39.83,-101.05,7.8,6.5,0,0,,10.0,30.301182,,,TRUE,TRUE,,,,,,,CLR,,,,,,,,VFR,,,,,,,,,,,,METAR,899.0
KADS 160715Z AUTO 00000KT 10SM SCT010 SCT100 21/20 A3010 RMK AO2 T02080202,KADS,2023-05-16T07:15:00Z,32.97,-96.83,20.8,20.2,0,0,,10.0,30.100393,,,TRUE,TRUE,,,,,,,SCT,1000,SCT,10000,,,,,VFR,,,,,,,,,,,,METAR,198.0
KADM 160715Z AUTO 35004KT 1 1/2SM BR CLR 18/16 A3011 RMK AO2,KADM,2023-05-16T07:15:00Z,34.3,-97.02,18.0,16.0,350,4,,1.5,30.109253,,,TRUE,TRUE,,,,,,BR,CLR,,,,,,,,IFR,,,,,,,,,,,,METAR,223.0
KADH 160715Z AUTO 33005KT 10SM SCT009 OVC014 17/17 A3013 RMK AO2,KADH,2023-05-16T07:15:00Z,34.8,-96.67,17.0,17.0,330,5,,10.0,30.129921,,,TRUE,TRUE,,,,,,,SCT,900,OVC,1400,,,,,MVFR,,,,,,,,,,,,METAR,301.0
KADC 160715Z AUTO 26006KT 10SM CLR 13/06 A3004 RMK AO2 PWINO TSNO,KADC,2023-05-16T07:15:00Z,46.45,-95.22,13.0,6.0,260,6,,10.0,30.041338,,,TRUE,TRUE,,,TRUE,,TRUE,,CLR,,,,,,,,VFR,,,,,,,,,,,,SPECI,416.0
KACQ 160715Z AUTO 22003KT 10SM CLR 11/08 A3011 RMK AO2,KACQ,2023-05-16T07:15:00Z,44.07,-93.55,11.0,8.0,220,3,,10.0,30.109253,,,TRUE,TRUE,,,,,,,CLR,,,,,,,,VFR,,,,,,,,,,,,METAR,339.0
KACP 160715Z AUTO 00000KT 5SM BR CLR 20/18 A3005 RMK AO2,KACP,2023-05-16T07:15:00Z,30.75,-92.68,20.0,18.0,0,0,,5.0,30.050198,,,TRUE,TRUE,,,,,,BR,CLR,,,,,,,,MVFR,,,,,,,,,,,,SPECI,31.0
KACJ 160715Z AUTO 12003KT 10SM CLR 21/21 A3008 RMK AO2 T02140211,KACJ,2023-05-16T07:15:00Z,32.12,-84.18,21.4,21.1,120,3,,10.0,30.079725,,,TRUE,TRUE,,,,,,,CLR,,,,,,,,VFR,,,,,,,,,,,,METAR,140.0
KACB 160715Z AUTO 00000KT 10SM CLR 06/01 A2991 RMK AO2 T00630014,KACB,2023-05-16T07:15:00Z,44.98,-85.2,6.3,1.4,0,0,,10.0,29.911417,,,TRUE,TRUE,,,,,,,CLR,,,,,,,,VFR,,,,,,,,,,,,METAR,189.0
KAAS 160715Z AUTO 09003KT 10SM CLR 17/15 A3006 RMK AO1,KAAS,2023-05-16T07:15:00Z,37.35,-85.32,17.0,15.0,90,3,,10.0,30.059055,,,TRUE,TRUE,,,,,,,CLR,,,,,,,,VFR,,,,,,,,,,,,METAR,270.0
KAAA 160715Z AUTO 04003KT 10SM OVC060 17/11 A3004 RMK AO2 T01700105,KAAA,2023-05-16T07:15:00Z,40.17,-89.33,17.0,10.5,40,3,,10.0,30.041338,,,TRUE,TRUE,,,,,,,OVC,6000,,,,,,,VFR,,,,,,,,,,,,METAR,179.0
KA39 160715Z AUTO 21008KT 10SM SCT110 29/03 A3000 RMK AO2,KA39,2023-05-16T07:15:00Z,32.98,-111.92,29.0,3.0,210,8,,10.0,30.0,,,TRUE,TRUE,,,,,,,SCT,11000,,,,,,,VFR,,,,,,,,,,,,METAR,391.0
K9V9 160715Z AUTO 25005KT 10SM CLR 10/10 A3017 RMK AO2 T01010101,K9V9,2023-05-16T07:15:00Z,43.77,-99.32,10.1,10.1,250,5,,10.0,30.171259,,,TRUE,TRUE,,,,,,,CLR,,,,,,,,VFR,,,,,,,,,,,,METAR,511.0
K9S9 160715Z AUTO 11008KT 10SM CLR 17/11 A3011 RMK AO2 PWINO,K9S9,2023-05-16T07:15:00Z,45.45,-119.68,17.0,11.0,110,8,,10.0,30.109253,,,TRUE,TRUE,,,,,TRUE,,CLR,,,,,,,,VFR,,,,,,,,,,,,METAR,498.0
K9MN 160715Z AUTO 25005KT 10SM CLR 13/08 A3008 RMK AO1 T01340075,K9MN,2023-05-16T07:15:00Z,44.02,-92.48,13.4,7.5,250,5,,10.0,30.079725,,,TRUE,TRUE,,,,,,,CLR,,,,,,,,VFR,,,,,,,,,,,,METAR,308.0
K9D7 160715Z AUTO 26007KT 10SM CLR 11/09 A3007 RMK AO2 TSNO,K9D7,2023-05-16T07:15:00Z,48.48,-99.23,11.0,9.0,260,7,,10.0,30.070866,,,TRUE,TRUE,,,TRUE,,,,CLR,,,,,,,,VFR,,,,,,,,,,,,METAR,451.0
K9A5 160715Z AUTO 00000KT 1/4SM OVC002 18/18 A3007 RMK AO2 T01820182,K9A5,2023-05-16T07:15:00Z,34.68,-85.28,18.2,18.2,0,0,,0.25,30.070866,,,TRUE,TRUE,,,,,,,OVC,200,,,,,,,LIFR,,,,,,,,,,,,SPECI,234.0
K96D 160715Z AUTO 29006KT 10SM OVC110 19/07 A2999 RMK AO2,K96D,2023-05-16T07:15:00Z,48.93,-97.9,19.0,7.0,290,6,,10.0,29.991142,,,TRUE,TRUE,,,,,,,OVC,11000,,,,,,,VFR,,,,,,,,,,,,METAR,290.0
K8W2 160715Z AUTO 23003KT 10SM OVC095 A3003 RMK AO1,K8W2,2023-05-16T07:15:00Z,38.65,-78.7,,,230,3,,10.0,30.029528,,,TRUE,TRUE,,,,,,,OVC,9500,,,,,,,VFR,,,,,,,,,,,,METAR,295.0
K8T6 160715Z AUTO 13005KT 10SM FEW027 FEW034 FEW042 22/22 A3009 RMK AO2,K8T6,2023-05-16T07:15:00Z,28.37,-98.12,22.0,22.0,130,5,,10.0,30.088583,,,TRUE,TRUE,,,,,,,FEW,2700,FEW,3400,FEW,4200,,,VFR,,,,,,,,,,,,METAR,39.0
K8B0 160715Z AUTO 26003KT 10SM FEW040 BKN047 BKN055 11/01 A2969 RMK AO2,K8B0,2023-05-16T07:15:00Z,44.98,-70.65,11.0,1.0,260,3,,10.0,29.68996,,,TRUE,TRUE,,,,,,,FEW,4000,BKN,4700,BKN,5500,,,VFR,,,,,,,,,,,,METAR,552.0
K8A3 160715Z AUTO 23006KT 10SM CLR 19/18 A3005 RMK A01,K8A3,2023-05-16T07:15:00Z,36.42,-85.32,19.0,18.0,230,6,,10.0,30.050198,,,TRUE,TRUE,,,,,,,CLR,,,,,,,,VFR,,,,,,,,,,,,SPECI,413.0
K8A0 160715Z AUTO 00000KT 10SM CLR 18/17 A3006 RMK AO2,K8A0,2023-05-16T07:15:00Z,34.23,-86.25,18.0,17.0,0,0,,10.0,30.059055,,,TRUE,TRUE,,,,,,,CLR,,,,,,,,VFR,,,,,,,,,,,,METAR,313.0
K82V 160715Z AUTO 20007KT 7SM 07/07 A3024 RMK AO2,K82V,2023-05-16T07:15:00Z,41.15,-104.13,7.0,7.0,200,7,,7.0,30.239174,,,TRUE,TRUE,,,,,,,,,,,,,,,,,,,,,,,,,,,METAR,1563.0
K82C 160715Z AUTO 29004KT 10SM CLR 13/07 A3003 RMK AO2 T01250069,K82C,2023-05-16T07:15:00Z,43.83,-90.13,12.5,6.9,290,4,,10.0,30.029528,,,TRUE,TRUE,,,,,,,CLR,,,,,,,,VFR,,,,,,,,,,,,SPECI,273.0
K81R 160715Z AUTO 00000KT 10SM CLR 19/19 A3014 RMK AO2 T01910186,K81R,2023-05-16T07:15:00Z,31.23,-98.72,19.1,18.6,0,0,,10.0,30.138779,,,TRUE,TRUE,,,,,,,CLR,,,,,,,,VFR,,,,,,,,,,,,METAR,381.0
K7W4 160715Z AUTO 10SM OVC100 16/12 A3003 RMK AO1 T01570123,K7W4,2023-05-16T07:15:00Z,37.97,-77.75,15.7,12.3,,,,10.0,30.029528,,,TRUE,TRUE,,,,,,,OVC,10000,,,,,,,VFR,,,,,,,,,,,,METAR,115.0
K7L2 160715Z AUTO 00000KT 10SM CLR 11/07 A3016 RMK AO2,K7L2,2023-05-16T07:15:00Z,46.22,-100.25,11.0,7.0,0,0,,10.0,30.159449,,,TRUE,TRUE,,,,,,,CLR,,,,,,,,VFR,,,,,,,,,,,,METAR,541.0
K7BM 160715Z AUTO 29003KT 10SM CLR 06/02 A3052 RMK AO2,K7BM,2023-05-16T07:15:00Z,38.78,-106.22,6.0,2.0,290,3,,10.0,30.519686,,,TRUE,TRUE,,,,,,,CLR,,,,,,,,VFR,,,,,,,,,,,,METAR,2996.0
K77S 160715Z AUTO 00000KT 10SM CLR 13/11 A3011 RMK A01,K77S,2023-05-16T07:15:00Z,43.93,-123.0,13.0,11.0,0,0,,10.0,30.109253,,,TRUE,TRUE,,,,,,,CLR,,,,,,,,VFR,,,,,,,,,,,,METAR,161.0
K6S2 160715Z AUTO 00000KT 10SM OVC012 14/13 A3015 RMK AO2,K6S2,2023-05-16T07:15:00Z,43.98,-124.12,14.0,13.0,0,0,,10.0,30.15059,,,TRUE,TRUE,,,,,,,OVC,1200,,,,,,,MVFR,,,,,,,,,,,,METAR,16.0
K6S0 160715Z AUTO 25009KT 10SM SCT120 14/08 A3017 RMK A01,K6S0,2023-05-16T07:15:00Z,45.8,-109.97,14.0,8.0,250,9,,10.0,30.171259,,,TRUE,TRUE,,,,,,,SCT,12000,,,,,,,VFR,,,,,,,,,,,,METAR,1364.0
K6R3 160715Z AUTO 00000KT 7SM CLR 21/20 A3009 RMK AO2 T02060201,K6R3,2023-05-16T07:15:00Z,30.35,-95.0,20.6,20.1,0,0,,7.0,30.088583,,,TRUE,TRUE,,,,,,,CLR,,,,,,,,VFR,,,,,,,,,,,,METAR,44.0
K6P9 160715Z AUTO 01006KT 10SM SCT026 BKN120 18/18 A3014 RMK AO2 T01840177,K6P9,2023-05-16T07:15:00Z,32.43,-98.6,18.4,17.7,10,6,,10.0,30.138779,,,TRUE,TRUE,,,,,,,SCT,2600,BKN,12000,,,,,VFR,,,,,,,,,,,,METAR,451.0
K6L4 160715Z AUTO 00000KT 10SM OVC055 17/17 A3003 RMK AO2,K6L4,2023-05-16T07:15:00Z,37.85,-81.92,17.0,17.0,0,0,,10.0,30.029528,,,TRUE,TRUE,,,,,,,OVC,5500,,,,,,,VFR,,,,,,,,,,,,METAR,504.0
K6I2 160715Z AUTO 00000KT 10SM CLR 17/17 A3002 RMK AO2,K6I2,2023-05-16T07:15:00Z,37.63,-85.25,17.0,17.0,0,0,,10.0,30.02067,,,TRUE,TRUE,,,,,,,CLR,,,,,,,,VFR,,,,,,,,,,,,METAR,258.0
K6B9 160715Z AUTO 23005KT 10SM SCT045 11/M00 A2990 RMK AO2,K6B9,2023-05-16T07:15:00Z,42.92,-76.43,11.0,0.0,230,5,,10.0,29.899607,,,TRUE,TRUE,,,,,,,SCT,4500,,,,,,,VFR,,,,,,,,,,,,METAR,306.0
K6B0 160715Z AUTO 00000KT 10SM OVC100 13/01 A2977 RMK AO2 T01260006,K6B0,2023-05-16T07:15:00Z,43.98,-73.1,12.6,0.6,0,0,,10.0,29.769686,,,TRUE,TRUE,,,,,,,OVC,10000,,,,,,,VFR,,,,,,,,,,,,METAR,149.0
K6A2 160715Z AUTO 18003KT 10SM SCT011 BKN019 OVC039 21/21 A3009 RMK AO2,K6A2,2023-05-16T07:15:00Z,33.23,-84.27,21.0,21.0,180,3,,10.0,30.088583,,,TRUE,TRUE,,,,,,,SCT,1100,BKN,1900,OVC,3900,,,MVFR,,,,,,,,,,,,METAR,290.0
K6A1 160715Z AUTO 35004KT 10SM SCT045 SCT050 22/20 A3008 RMK AO2 T02160202,K6A1,2023-05-16T07:15:00Z,32.57,-84.25,21.6,20.2,350,4,,10.0,30.079725,,,TRUE,TRUE,,,,,,,SCT,4500,SCT,5000,,,,,VFR,,,,,,,,,,,,METAR,198.0
K66R 160715Z AUTO 00000KT 10SM CLR 21/21 A3010 RMK AO2 T02110211,K66R,2023-05-16T07:15:00Z,29.65,-96.52,21.1,21.1,0,0,,10.0,30.100393,,,TRUE,TRUE,,,,,,,CLR,,,,,,,,VFR,,,,,,,,,,,,METAR,70.0
K65S 160715Z AUTO 00000KT 10SM FEW070 BKN075 OVC100 15/13 A3009 RMK AO2,K65S,2023-05-16T07:15:00Z,48.73,-116.3,15.0,13.0,0,0,,10.0,30.088583,,,TRUE,TRUE,,,,,,,FEW,7000,BKN,7500,OVC,10000,,,VFR,,,,,,,,,,,,METAR,708.0
K63S 160715Z AUTO 00000KT 10SM FEW075 BKN110 18/13 A3005 RMK A01,K63S,2023-05-16T07:15:00Z,48.53,-117.88,18.0,13.0,0,0,,10.0,30.050198,,,TRUE,TRUE,,,,,,,FEW,7500,BKN,11000,,,,,VFR,,,,,,,,,,,,METAR,571.0
K5T9 160715Z AUTO 00000KT 10SM OVC049 19/19 A3011 RMK A01,K5T9,2023-05-16T07:15:00Z,28.85,-100.52,19.0,19.0,0,0,,10.0,30.109253,,,TRUE,TRUE,,,,,,,OVC,4900,,,,,,,VFR,,,,,,,,,,,,METAR,269.0
K5SM 160715Z AUTO 33006KT 10SM SCT070 04/00 A3060 RMK AO2,K5SM,2023-05-16T07:15:00Z,39.43,-107.38,4.0,0.0,330,6,,10.0,30.59941,,,TRUE,TRUE,,,,,,,SCT,7000,,,,,,,VFR,,,,,,,,,,,,METAR,3229.0
K5R8 160715Z AUTO 00000KT 10SM CLR 21/20 A3005 RMK AO2 T02100201,K5R8,2023-05-16T07:15:00Z,30.43,-93.47,21.0,20.1,0,0,,10.0,30.050198,,,TRUE,TRUE,,,,,,,CLR,,,,,,,,VFR,,,,,,,,,,,,METAR,26.0
K5H4 160715Z AUTO 23005KT 10SM CLR 12/09 A3011 RMK AO2,K5H4,2023-05-16T07:15:00Z,47.78,-99.93,12.0,9.0,230,5,,10.0,30.109253,,,TRUE,TRUE,,,,,,,CLR,,,,,,,,VFR,,,,,,,,,,,,METAR,490.0
K5C1 160715Z AUTO 00000KT 10SM CLR 17/17 A3013 RMK AO1,K5C1,2023-05-16T07:15:00Z,29.72,-98.7,17.0,17.0,0,0,,10.0,30.129921,,,TRUE,TRUE,,,,,,,CLR,,,,,,,,VFR,,,,,,,,,,,,METAR,422.0
K5A6 160715Z AUTO 00000KT 10SM 22/21 A3003 RMK AO2 LTG DSNT NE T02150205,K5A6,2023-05-16T07:15:00Z,33.47,-89.73,21.5,20.5,0,0,,10.0,30.029528,,,TRUE,TRUE,,,,,,,,,,,,,,,,,,,,,,,,,,,SPECI,109.0
K57C 160715Z AUTO 27003KT 10SM CLR 09/03 A3003 RMK AO2 T00900025,K57C,2023-05-16T07:15:00Z,42.8,-88.37,9.0,2.5,270,3,,10.0,30.029528,,,TRUE,TRUE,,,,,,,CLR,,,,,,,,VFR,,,,,,,,,,,,METAR,454.0
K54J 160715Z AUTO 00000KT 4SM BR BKN002 21/20 A3007 RMK AO2 T02050200,K54J,2023-05-16T07:15:00Z,30.73,-86.15,20.5,20.0,0,0,,4.0,30.070866,,,TRUE,TRUE,,,,,,BR,BKN,200,,,,,,,LIFR,,,,,,,,,,,,METAR,87.0
K4V1 160715Z AUTO 00000KT 10SM CLR 11/09 A3034 RMK AO2 T01060093,K4V1,2023-05-16T07:15:00Z,37.7,-104.78,10.6,9.3,0,0,,10.0,30.339567,,,TRUE,TRUE,,,,,,,CLR,,,,,,,,VFR,,,,,,,,,,,,METAR,1847.0
K4V0 160715Z AUTO 00000KT 10SM CLR 08/05 A3031 RMK AO2 T00800051,K4V0,2023-05-16T07:15:00Z,40.1,-108.77,8.0,5.1,0,0,,10.0,30.31004,,,TRUE,TRUE,,,,,,,CLR,,,,,,,,VFR,,,,,,,,,,,,METAR,1602.0
K4S2 160715Z AUTO 19003KT 10SM CLR 17/12 A3005 RMK AO2,K4S2,2023-05-16T07:15:00Z,45.68,-121.55,17.0,12.0,190,3,,10.0,30.050198,,,TRUE,TRUE,,,,,,,CLR,,,,,,,,VFR,,,,,,,,,,,,METAR,183.0
K4S1 160715Z AUTO 00000KT 5SM BR CLR 12/12 A3014 RMK AO2,K4S1,2023-05-16T07:15:00Z,42.42,-124.42,12.0,12.0,0,0,,5.0,30.138779,,,TRUE,TRUE,,,,,,BR,CLR,,,,,,,,MVFR,,,,,,,,,,,,METAR,7.0
K4R5 160715Z AUTO 24005KT 10SM BKN110 14/03 A2990 RMK AO2 T01380028,K4R5,2023-05-16T07:15:00Z,46.78,-90.77,13.8,2.8,240,5,,10.0,29.899607,,,TRUE,TRUE,,,,,,,BKN,11000,,,,,,,VFR,,,,,,,,,,,,METAR,195.0
K4O4 160715Z AUTO 21003KT 8SM FEW039 SCT044 SCT060 21/21 A3005 RMK AO2,K4O4,2023-05-16T07:15:00Z,33.92,-94.87,21.0,21.0,210,3,,8.0,30.050198,,,TRUE,TRUE,,,,,,,FEW,3900,SCT,4400,SCT,6000,,,VFR,,,,,,,,,,,,METAR,148.0
K4M9 160715Z AUTO 22003KT 10SM FEW065 23/23 A2997 RMK AO2 PWINO,K4M9,2023-05-16T07:15:00Z,36.4,-90.65,23.0,23.0,220,3,,10.0,29.970472,,,TRUE,TRUE,,,,,TRUE,,FEW,6500,,,,,,,VFR,,,,,,,,,,,,METAR,86.0
K4F2 160715Z AUTO 00000KT 10SM CLR 19/19 A3007 RMK AO2 T01920190,K4F2,2023-05-16T07:15:00Z,32.18,-94.3,19.2,19.0,0,0,,10.0,30.070866,,,TRUE,TRUE,,,,,,,CLR,,,,,,,,VFR,,,,,,,,,,,,METAR,76.0
K4BM 160715Z AUTO 21006KT 10SM CLR 02/00 A3060 RMK AO2,K4BM,2023-05-16T07:15:00Z,39.05,-105.52,2.0,0.0,210,6,,10.0,30.59941,,,TRUE,TRUE,,,,,,,CLR,,,,,,,,VFR,,,,,,,,,,,,METAR,3432.0
K4A9 160715Z AUTO 00000KT M1/4SM FG OVC001 18/18 A3006 RMK AO2 T01760175,K4A9,2023-05-16T07:15:00Z,34.47,-85.72,17.6,17.5,0,0,,0.25,30.059055,,,TRUE,TRUE,,,,,,FG,OVC,100,,,,,,,LIFR,,,,,,,,,,,,METAR,273.0
K4A6 160715Z AUTO 02003KT 1/4SM FG OVC002 19/19 A3007 RMK AO2,K4A6,2023-05-16T07:15:00Z,34.68,-86.0,19.0,19.0,20,3,,0.25,30.070866,,,TRUE,TRUE,,,,,,FG,OVC,200,,,,,,,LIFR,,,,,,,,,,,,METAR,191.0
K49A 160715Z AUTO 00000KT 2SM BR SCT021 BKN028 OVC044 18/18 A3009 RMK AO2,K49A,2023-05-16T07:15:00Z,34.63,-84.53,18.0,18.0,0,0,,2.0,30.088583,,,TRUE,TRUE,,,,,,BR,SCT,2100,BKN,2800,OVC,4400,,,IFR,,,,,,,,,,,,METAR,449.0
K48A 160715Z AUTO 15003KT 10SM OVC041 20/19 A3010 RMK AO2 T02030194,K48A,2023-05-16T07:15:00Z,32.4,-83.27,20.3,19.4,150,3,,10.0,30.100393,,,TRUE,TRUE,,,,,,,OVC,4100,,,,,,,VFR,,,,,,,,,,,,METAR,115.0
K46U 160715Z AUTO 07004KT 10SM FEW060 BKN080 BKN110 08/05 A3034 RMK A01,K46U,2023-05-16T07:15:00Z,43.18,-111.05,8.0,5.0,70,4,,10.0,30.339567,,,TRUE,TRUE,,,,,,,FEW,6000,BKN,8000,BKN,11000,,,VFR,,,,,,,,,,,,METAR,1718.0
K46D 160715Z AUTO 25009KT 10SM CLR 14/09 A3011 RMK AO2,K46D,2023-05-16T07:15:00Z,47.45,-99.15,14.0,9.0,250,9,,10.0,30.109253,,,TRUE,TRUE,,,,,,,CLR,,,,,,,,VFR,,,,,,,,,,,,METAR,488.0
K42J 160715Z AUTO 00000KT 4SM BR 19/19 A3006 RMK A01,K42J,2023-05-16T07:15:00Z,29.85,-82.05,19.0,19.0,0,0,,4.0,30.059055,,,TRUE,TRUE,,,,,,BR,,,,,,,,,,,,,,,,,,,,,METAR,57.0
K41U 160715Z AUTO 00000KT 10SM CLR 10/07 A3031 RMK AO1 T00980065,K41U,2023-05-16T07:15:00Z,39.33,-111.6,9.8,6.5,0,0,,10.0,30.31004,,,TRUE,TRUE,,,,,,,CLR,,,,,,,,VFR,,,,,,,,,,,,METAR,1676.0
K40U 160715Z AUTO 00000KT 10SM CLR 06/04 A3035 RMK AO2 T00580043,K40U,2023-05-16T07:15:00Z,40.98,-109.68,5.8,4.3,0,0,,10.0,30.351377,,,TRUE,TRUE,,,,,,,CLR,,,,,,,,VFR,,,,,,,,,,,,METAR,1882.0
K3U3 160715Z AUTO 00000KT 10SM 09/05 A3023 ,K3U3,2023-05-16T07:15:00Z,46.15,-112.87,9.0,5.0,0,0,,10.0,30.230314,,,TRUE,,,,,,,,,,,,,,,,,,,,,,,,,,,,METAR,1534.0
K3T5 160715Z AUTO 00000KT 10SM OVC160 22/22 A3007 RMK AO2 T02160216 $,K3T5,2023-05-16T07:15:00Z,29.9,-96.95,21.6,21.6,0,0,,10.0,30.070866,,,TRUE,TRUE,TRUE,,,,,,OVC,16000,,,,,,,VFR,,,,,,,,,,,,METAR,96.0
K3S8 160715Z AUTO 00000KT 10SM CLR 18/06 A3012 RMK AO2,K3S8,2023-05-16T07:15:00Z,42.5,-123.4,18.0,6.0,0,0,,10.0,30.121063,,,TRUE,TRUE,,,,,,,CLR,,,,,,,,VFR,,,,,,,,,,,,METAR,339.0
K3R7 160715Z AUTO 00000KT 10SM CLR 22/22 A3006 RMK AO2 T02230221,K3R7,2023-05-16T07:15:00Z,30.25,-92.67,22.3,22.1,0,0,,10.0,30.059055,,,TRUE,TRUE,,,,,,,CLR,,,,,,,,VFR,,,,,,,,,,,,SPECI,5.0
K3N8 160715Z AUTO 21005KT 10SM CLR 12/05 A3002 RMK AO2 T01210045,K3N8,2023-05-16T07:15:00Z,47.25,-95.92,12.1,4.5,210,5,,10.0,30.02067,,,TRUE,TRUE,,,,,,,CLR,,,,,,,,VFR,,,,,,,,,,,,METAR,379.0
K3LF 160715Z AUTO 02004KT 10SM OVC100 17/16 A3003 RMK AO2 T01690162,K3LF,2023-05-16T07:15:00Z,39.17,-89.67,16.9,16.2,20,4,,10.0,30.029528,,,TRUE,TRUE,,,,,,,OVC,10000,,,,,,,VFR,,,,,,,,,,,,METAR,207.0
K3L4 160715Z AUTO 25004KT 8SM CLR 25/24 A3004 RMK A01,K3L4,2023-05-16T07:15:00Z,29.8,-92.8,25.0,24.0,250,4,,8.0,30.041338,,,TRUE,TRUE,,,,,,,CLR,,,,,,,,VFR,,,,,,,,,,,,SPECI,1.0
K3K3 160715Z AUTO 00000KT 1 3/4SM BR SCT001 08/08 A3027 RMK AO2,K3K3,2023-05-16T07:15:00Z,38.0,-101.75,8.0,8.0,0,0,,1.75,30.268702,,,TRUE,TRUE,,,,,,BR,SCT,100,,,,,,,IFR,,,,,,,,,,,,METAR,1010.0
K3F3 160715Z AUTO 00000KT 10SM CLR 21/20 A3010 RMK AO2 T02080200,K3F3,2023-05-16T07:15:00Z,32.07,-93.77,20.8,20.0,0,0,,10.0,30.100393,,,TRUE,TRUE,,,,,,,CLR,,,,,,,,VFR,,,,,,,,,,,,METAR,96.0
K3D2 160715Z AUTO 25006KT 10SM CLR 13/06 A2990 RMK AO2 T01340055,K3D2,2023-05-16T07:15:00Z,45.13,-87.18,13.4,5.5,250,6,,10.0,29.899607,,,TRUE,TRUE,,,,,,,CLR,,,,,,,,VFR,,,,,,,,,,,,METAR,233.0
K3AU 160715Z AUTO 32007KT 10SM BKN008 BKN015 OVC033 13/12 A3016 RMK AO2,K3AU,2023-05-16T07:15:00Z,37.67,-97.08,13.0,12.0,320,7,,10.0,30.159449,,,TRUE,TRUE,,,,,,,BKN,800,BKN,1500,OVC,3300,,,IFR,,,,,,,,,,,,SPECI,403.0
K38S 160715Z AUTO 00000KT 10SM 10/09 A3024 ,K38S,2023-05-16T07:15:00Z,46.38,-112.77,10.0,9.0,0,0,,10.0,30.239174,,,TRUE,,,,,,,,,,,,,,,,,,,,,,,,,,,,METAR,1430.0
K35A 160715Z AUTO 00000KT 10SM OVC055 19/15 A3012 RMK A02 T01950146,K35A,2023-05-16T07:15:00Z,34.68,-81.63,19.5,14.6,0,0,,10.0,30.121063,,,TRUE,TRUE,,,,,,,OVC,5500,,,,,,,VFR,,,,,,,,,,,,METAR,186.0
K33V 160715Z AUTO 14004KT 10SM CLR 02/00 A3044 RMK AO1,K33V,2023-05-16T07:15:00Z,40.75,-106.28,2.0,0.0,140,4,,10.0,30.43996,,,TRUE,TRUE,,,,,,,CLR,,,,,,,,VFR,,,,,,,,,,,,METAR,2486.0
K33N 160715Z AUTO 24007KT 10SM FEW050 14/12 A2997 RMK A01,K33N,2023-05-16T07:15:00Z,39.22,-75.6,14.0,12.0,240,7,,10.0,29.970472,,,TRUE,TRUE,,,,,,,FEW,5000,,,,,,,VFR,,,,,,,,,,,,METAR,17.0
K2V5 160715Z AUTO 00000KT 10SM CLR 07/07 A3025 RMK AO2,K2V5,2023-05-16T07:15:00Z,40.1,-102.25,7.0,7.0,0,0,,10.0,30.250984,,,TRUE,TRUE,,,,,,,CLR,,,,,,,,VFR,,,,,,,,,,,,METAR,1117.0
K2R9 160715Z AUTO 00000KT 10SM CLR 21/21 A3010 RMK AO2 T02150207,K2R9,2023-05-16T07:15:00Z,28.82,-97.87,21.5,20.7,0,0,,10.0,30.100393,,,TRUE,TRUE,,,,,,,CLR,,,,,,,,VFR,,,,,,,,,,,,METAR,88.0
K2P2 160715Z AUTO 24008KT 10SM BKN110 12/06 A2989 RMK AO2 T01190061,K2P2,2023-05-16T07:15:00Z,45.38,-86.92,11.9,6.1,240,8,,10.0,29.890747,,,TRUE,TRUE,,,,,,,BKN,11000,,,,,,,VFR,,,,,,,,,,,,METAR,182.0
K2J9 160715Z AUTO 00000KT 2 1/2SM BR OVC003 22/22 A3008 RMK AO2,K2J9,2023-05-16T07:15:00Z,30.6,-84.55,22.0,22.0,0,0,,2.5,30.079725,,,TRUE,TRUE,,,,,,BR,OVC,300,,,,,,,LIFR,,,,,,,,,,,,METAR,62.0
K2J5 160715Z AUTO 00000KT 10SM BKN047 17/17 A3010 RMK AO2 T01750169,K2J5,2023-05-16T07:15:00Z,32.9,-81.97,17.5,16.9,0,0,,10.0,30.100393,,,TRUE,TRUE,,,,,,,BKN,4700,,,,,,,VFR,,,,,,,,,,,,METAR,72.0
K2IS 160715Z AUTO 00000KT 10SM CLR 20/19 A3004 RMK AO2 T01990188,K2IS,2023-05-16T07:15:00Z,26.73,-81.05,19.9,18.8,0,0,,10.0,30.041338,,,TRUE,TRUE,,,,,,,CLR,,,,,,,,VFR,,,,,,,,,,,,METAR,5.0
K2I0 160715Z AUTO 00000KT 10SM CLR 21/19 A3001 RMK AO2 T02060187,K2I0,2023-05-16T07:15:00Z,37.35,-87.4,20.6,18.7,0,0,,10.0,30.008858,,,TRUE,TRUE,,,,,,,CLR,,,,,,,,VFR,,,,,,,,,,,,METAR,127.0
K2G9 160715Z AUTO 22006KT 10SM CLR 10/07 A3003 RMK AO2,K2G9,2023-05-16T07:15:00Z,40.03,-79.02,10.0,7.0,220,6,,10.0,30.029528,,,TRUE,TRUE,,,,,,,CLR,,,,,,,,VFR,,,,,,,,,,,,METAR,677.0
K2G4 160715Z AUTO 25007KT 220V280 10SM CLR 12/12 A3006 RMK AO2,K2G4,2023-05-16T07:15:00Z,39.58,-79.33,12.0,12.0,250,7,,10.0,30.059055,,,TRUE,TRUE,,,,,,,CLR,,,,,,,,VFR,,,,,,,,,,,,METAR,908.0
K2G2 160715Z AUTO 00000KT 10SM 10/08 A3000 RMK A01,K2G2,2023-05-16T07:15:00Z,40.37,-80.7,10.0,8.0,0,0,,10.0,30.0,,,TRUE,TRUE,,,,,,,,,,,,,,,,,,,,,,,,,,,METAR,365.0
K2D5 160715Z AUTO 29008KT 10SM FEW038 SCT049 BKN060 13/10 A3011 RMK AO2,K2D5,2023-05-16T07:15:00Z,46.17,-98.08,13.0,10.0,290,8,,10.0,30.109253,,,TRUE,TRUE,,,,,,,FEW,3800,SCT,4900,BKN,6000,,,VFR,,,,,,,,,,,,SPECI,407.0
K2C8 160715Z AUTO 29010KT 10SM OVC120 19/07 A2997 RMK AO2,K2C8,2023-05-16T07:15:00Z,48.78,-97.63,19.0,7.0,290,10,,10.0,29.970472,,,TRUE,TRUE,,,,,,,OVC,12000,,,,,,,VFR,,,,,,,,,,,,METAR,271.0
K2A0 160715Z AUTO 00000KT 7SM BKN009 OVC012 21/21 A3005 RMK A01,K2A0,2023-05-16T07:15:00Z,35.48,-84.93,21.0,21.0,0,0,,7.0,30.050198,,,TRUE,TRUE,,,,,,,BKN,900,OVC,1200,,,,,IFR,,,,,,,,,,,,SPECI,219.0
K28J 160715Z AUTO 00000KT 7SM BKN023 BKN029 BKN050 17/17 A3007 RMK AO2,K28J,2023-05-16T07:15:00Z,29.65,-81.68,17.0,17.0,0,0,,7.0,30.070866,,,TRUE,TRUE,,,,,,,BKN,2300,BKN,2900,BKN,5000,,,MVFR,,,,,,,,,,,,METAR,9.0
K24J 160715Z AUTO 00000KT 7SM SCT075 OVC095 21/21 A3007 RMK A01,K24J,2023-05-16T07:15:00Z,30.3,-83.03,21.0,21.0,0,0,,7.0,30.070866,,,TRUE,TRUE,,,,,,,SCT,7500,OVC,9500,,,,,VFR,,,,,,,,,,,,METAR,30.0
K22N 160715Z AUTO 00000KT 10SM CLR 03/02 A2997 RMK AO2,K22N,2023-05-16T07:15:00Z,40.8,-75.77,3.0,2.0,0,0,,10.0,29.970472,,,TRUE,TRUE,,,,,,,CLR,,,,,,,,VFR,,,,,,,,,,,,METAR,159.0
K21D 160715Z AUTO 26004KT 10SM CLR 13/08 A3006 RMK AO2,K21D,2023-05-16T07:15:00Z,45.0,-92.85,13.0,8.0,260,4,,10.0,30.059055,,,TRUE,TRUE,,,,,,,CLR,,,,,,,,VFR,,,,,,,,,,,,METAR,281.0
K20V 160715Z AUTO 00000KT 10SM BKN065 05/04 A3044 RMK AO2,K20V,2023-05-16T07:15:00Z,40.05,-106.37,5.0,4.0,0,0,,10.0,30.43996,,,TRUE,TRUE,,,,,,,BKN,6500,,,,,,,VFR,,,,,,,,,,,,METAR,2259.0
K20U 160715Z AUTO 17004KT 10SM CLR 09/05 A3016 RMK AO2,K20U,2023-05-16T07:15:00Z,46.93,-103.98,9.0,5.0,170,4,,10.0,30.159449,,,TRUE,TRUE,,,,,,,CLR,,,,,,,,VFR,,,,,,,,,,,,METAR,839.0
K1V6 160715Z AUTO 29006KT 10SM CLR 11/10 A3030 RMK AO2,K1V6,2023-05-16T07:15:00Z,38.43,-105.1,11.0,10.0,290,6,,10.0,30.301182,,,TRUE,TRUE,,,,,,,CLR,,,,,,,,VFR,,,,,,,,,,,,METAR,1658.0
K1U7 160715Z AUTO 00000KT 10SM FEW055 SCT090 BKN110 09/09 A3031 RMK A01,K1U7,2023-05-16T07:15:00Z,42.25,-111.33,9.0,9.0,0,0,,10.0,30.31004,,,TRUE,TRUE,,,,,,,FEW,5500,SCT,9000,BKN,11000,,,VFR,,,,,,,,,,,,METAR,1808.0
K1S5 160715Z AUTO 08007KT 10SM CLR 20/12 A3001 RMK AO2 T01990120,K1S5,2023-05-16T07:15:00Z,46.33,-119.97,19.9,12.0,80,7,,10.0,30.008858,,,TRUE,TRUE,,,,,,,CLR,,,,,,,,VFR,,,,,,,,,,,,SPECI,228.0
K1S3 160715Z AUTO 10003KT 10SM 16/11 A3008 ,K1S3,2023-05-16T07:15:00Z,46.27,-106.62,16.0,11.0,100,3,,10.0,30.079725,,,TRUE,,,,,,,,,,,,,,,,,,,,,,,,,,,,METAR,831.0
K1R8 160715Z AUTO 00000KT 10SM FEW049 SCT060 22/22 A3003 RMK AO2,K1R8,2023-05-16T07:15:00Z,30.87,-87.82,22.0,22.0,0,0,,10.0,30.029528,,,TRUE,TRUE,,,,,,,FEW,4900,SCT,6000,,,,,VFR,,,,,,,,,,,,METAR,76.0
K1R7 160715Z AUTO 00000KT 2 1/2SM BR CLR 20/20 A3006 RMK AO2 VIS 2V5 PWINO,K1R7,2023-05-16T07:15:00Z,31.6,-90.42,20.0,20.0,0,0,,2.5,30.059055,,,TRUE,TRUE,,,,,TRUE,BR,CLR,,,,,,,,IFR,,,,,,,,,,,,METAR,142.0
K1P1 160715Z AUTO 01003KT 10SM CLR 15/M02 A2974 RMK AO2 T01471019,K1P1,2023-05-16T07:15:00Z,43.78,-71.75,14.7,-1.9,10,3,,10.0,29.740158,,,TRUE,TRUE,,,,,,,CLR,,,,,,,,VFR,,,,,,,,,,,,SPECI,155.0
K1M5 160715Z AUTO 21005KT 10SM BKN036 BKN043 20/20 A3001 RMK A01,K1M5,2023-05-16T07:15:00Z,36.6,-86.48,20.0,20.0,210,5,,10.0,30.008858,,,TRUE,TRUE,,,,,,,BKN,3600,BKN,4300,,,,,VFR,,,,,,,,,,,,SPECI,239.0
K1H2 160715Z AUTO 00000KT 10SM SCT090 OVC110 17/16 A3003 RMK AO2 LTG DSNT SW T01670157,K1H2,2023-05-16T07:15:00Z,39.07,-88.53,16.7,15.7,0,0,,10.0,30.029528,,,TRUE,TRUE,,,,,,,SCT,9000,OVC,11000,,,,,VFR,,,,,,,,,,,,METAR,174.0
K1F0 160715Z AUTO 00000KT 10SM CLR 19/17 A3012 RMK AO2 T01890166,K1F0,2023-05-16T07:15:00Z,34.15,-97.12,18.9,16.6,0,0,,10.0,30.121063,,,TRUE,TRUE,,,,,,,CLR,,,,,,,,VFR,,,,,,,,,,,,METAR,256.0
K1A9 160715Z AUTO 00000KT 10SM CLR 22/20 A3003 RMK AO2 T02150201,K1A9,2023-05-16T07:15:00Z,32.43,-86.52,21.5,20.1,0,0,,10.0,30.029528,,,TRUE,TRUE,,,,,,,CLR,,,,,,,,VFR,,,,,,,,,,,,METAR,65.0
K1A6 160715Z AUTO 00000KT 10SM OVC044 18/18 A3007 RMK AO2 T01780178,K1A6,2023-05-16T07:15:00Z,36.62,-83.73,17.8,17.8,0,0,,10.0,30.070866,,,TRUE,TRUE,,,,,,,OVC,4400,,,,,,,VFR,,,,,,,,,,,,METAR,348.0
K18H 160715Z AUTO 05006KT 8SM SCT018 SCT024 26/21 A3005 RMK A01,K18H,2023-05-16T07:15:00Z,26.13,-92.03,26.0,21.0,50,6,,8.0,30.050198,,,TRUE,TRUE,,,,,,,SCT,1800,SCT,2400,,,,,VFR,,,,,,,,,,,,METAR,30.0
K18A 160715Z AUTO 21004KT 10SM OVC060 20/17 A3015 RMK AO2 T01990172,K18A,2023-05-16T07:15:00Z,34.35,-83.13,19.9,17.2,210,4,,10.0,30.15059,,,TRUE,TRUE,,,,,,,OVC,6000,,,,,,,VFR,,,,,,,,,,,,METAR,260.0
K17J 160715Z AUTO 00000KT 1/4SM FG OVC001 21/20 A3006 RMK AO2 T02110202,K17J,2023-05-16T07:15:00Z,31.0,-84.87,21.1,20.2,0,0,,0.25,30.059055,,,TRUE,TRUE,,,,,,FG,OVC,100,,,,,,,LIFR,,,,,,,,,,,,METAR,42.0
K15M 160715Z AUTO 00000KT 5SM BR BKN220 20/20 A3006 RMK AO2 P0001 T01990197 $,K15M,2023-05-16T07:15:00Z,34.77,-88.17,19.9,19.7,0,0,,5.0,30.059055,,,TRUE,TRUE,TRUE,,,,,BR,BKN,22000,,,,,,,MVFR,,,,,,0.01,,,,,,METAR,192.0
K14Y 160715Z AUTO 28008KT 10SM CLR 16/04 A3006 RMK AO2,K14Y,2023-05-16T07:15:00Z,45.9,-94.87,16.0,4.0,280,8,,10.0,30.059055,,,TRUE,TRUE,,,,,,,CLR,,,,,,,,VFR,,,,,,,,,,,,METAR,404.0
K13K 160715Z AUTO 33010KT 10SM BKN008 BKN012 OVC021 14/13 A3014 RMK AO2 T01360131,K13K,2023-05-16T07:15:00Z,37.85,-96.3,13.6,13.1,330,10,,10.0,30.138779,,,TRUE,TRUE,,,,,,,BKN,800,BKN,1200,OVC,2100,,,IFR,,,,,,,,,,,,METAR,367.0
K10G 160715Z AUTO 00000KT 10SM CLR 13/02 A3002 RMK AO2,K10G,2023-05-16T07:15:00Z,40.53,-81.95,13.0,2.0,0,0,,10.0,30.02067,,,TRUE,TRUE,,,,,,,CLR,,,,,,,,VFR,,,,,,,,,,,,METAR,371.0
K0V4 160715Z AUTO 17005KT 10SM BKN050 OVC070 16/14 A3006 RMK AO1,K0V4,2023-05-16T07:15:00Z,37.15,-79.02,16.0,14.0,170,5,,10.0,30.059055,,,TRUE,TRUE,,,,,,,BKN,5000,OVC,7000,,,,,VFR,,,,,,,,,,,,METAR,186.0
K0S9 160715Z AUTO 10004KT 10SM CLR 16/13 A3006 RMK AO2,K0S9,2023-05-16T07:15:00Z,48.05,-122.82,16.0,13.0,100,4,,10.0,30.059055,,,TRUE,TRUE,,,,,,,CLR,,,,,,,,VFR,,,,,,,,,,,,METAR,33.0
K0F2 160715Z AUTO 10SM CLR 18/17 A3013 RMK AO2 T01810165,K0F2,2023-05-16T07:15:00Z,33.6,-97.78,18.1,16.5,,,,10.0,30.129921,,,TRUE,TRUE,,,,,,,CLR,,,,,,,,VFR,,,,,,,,,,,,METAR,330.0
K0E0 160715Z AUTO 00000KT 10SM CLR 05/04 A3040 RMK AO2 T00480041,K0E0,2023-05-16T07:15:00Z,34.98,-106.0,4.8,4.1,0,0,,10.0,30.398623,,,TRUE,TRUE,,,,,,,CLR,,,,,,,,VFR,,,,,,,,,,,,METAR,1887.0
K0A9 160715Z AUTO 00000KT 5SM -RA FEW005 OVC020 18/18 A3006 RMK AO2,K0A9,2023-05-16T07:15:00Z,36.37,-82.17,18.0,18.0,0,0,,5.0,30.059055,,,TRUE,TRUE,,,,,,-RA,FEW,500,OVC,2000,,,,,MVFR,,,,,,,,,,,,SPECI,479.0
K0A0 160715Z AUTO 22005KT 10SM SCT080 BKN090 BKN120 20/10 A3027 RMK AO2,K0A0,2023-05-16T07:15:00Z,32.98,-106.97,20.0,10.0,220,5,,10.0,30.268702,,,TRUE,TRUE,,,,,,,SCT,8000,BKN,9000,BKN,12000,,,VFR,,,,,,,,,,,,METAR,1401.0
K08D 160715Z AUTO 22006KT 10SM SCT032 BKN038 OVC050 11/07 A3014 RMK AO2,K08D,2023-05-16T07:15:00Z,48.3,-102.4,11.0,7.0,220,6,,10.0,30.138779,,,TRUE,TRUE,,,,,,,SCT,3200,BKN,3800,OVC,5000,,,VFR,,,,,,,,,,,,METAR,683.0
K06D 160715Z AUTO 28011KT 10SM CLR 18/06 A3006 RMK AO2,K06D,2023-05-16T07:15:00Z,48.88,-99.62,18.0,6.0,280,11,,10.0,30.059055,,,TRUE,TRUE,,,,,,,CLR,,,,,,,,VFR,,,,,,,,,,,,METAR,554.0
K06C 160715Z AUTO 00000KT 10SM CLR 10/05 A3004 RMK AO2 T01040050,K06C,2023-05-16T07:15:00Z,41.98,-88.1,10.4,5.0,0,0,,10.0,30.041338,,,TRUE,TRUE,,,,,,,CLR,,,,,,,,VFR,,,,,,,,,,,,METAR,243.0
K04V 160715Z AUTO 34004KT 10SM 07/05 A3045 RMK AO2,K04V,2023-05-16T07:15:00Z,38.1,-106.17,7.0,5.0,340,4,,10.0,30.448818,,,TRUE,TRUE,,,,,,,,,,,,,,,,,,,,,,,,,,,METAR,2389.0
CWPF 160715Z AUTO 18019KT 15/09 RMK AO1 PK WND 18022/0713 SLP159 T01540092 53024,CWPF,2023-05-16T07:15:00Z,48.43,-123.43,15.4,9.2,180,19,,,,1015.9,,TRUE,TRUE,,,,,,,,,,,,,,,,2.4,,,,,,,,,,,METAR,5.0
PATC 160714Z AUTO 04036KT 1 1/4SM -SN BR BKN012 M08/M09 A3007 RMK AO2 PK WND 04038/0656 SLP190,PATC,2023-05-16T07:14:00Z,65.57,-167.92,-8.0,-9.0,40,36,,1.25,30.070866,1019.0,,TRUE,TRUE,,,,,,-SN BR,BKN,1200,,,,,,,IFR,,,,,,,,,,,,METAR,77.0
KXNA 160714Z AUTO 28004KT 10SM BKN010 BKN013 OVC025 20/19 A3007 RMK AO2 CIG 006V012 T02000194,KXNA,2023-05-16T07:14:00Z,36.28,-94.3,20.0,19.4,280,4,,10.0,30.070866,,,TRUE,TRUE,,,,,,,BKN,1000,BKN,1300,OVC,2500,,,MVFR,,,,,,,,,,,,METAR,390.0
KTMB 160714Z 00000KT 1/2SM FG CLR 22/22 A3001 RMK AO2 T02170217,KTMB,2023-05-16T07:14:00Z,25.65,-80.43,21.7,21.7,0,0,,0.5,30.008858,,,,TRUE,,,,,,FG,CLR,,,,,,,,LIFR,,,,,,,,,,,,METAR,2.0
KRYY 160714Z AUTO 22003KT 10SM BKN010 22/20 A3008 RMK AO2 $,KRYY,2023-05-16T07:14:00Z,34.02,-84.6,22.0,20.0,220,3,,10.0,30.079725,,,TRUE,TRUE,TRUE,,,,,,BKN,1000,,,,,,,MVFR,,,,,,,,,,,,SPECI,306.0
KNY0 160714Z AUTO 30005KT 10SM CLR 11/00 A2985 RMK AO2,KNY0,2023-05-16T07:14:00Z,42.98,-74.33,11.0,0.0,300,5,,10.0,29.84941,,,TRUE,TRUE,,,,,,,CLR,,,,,,,,VFR,,,,,,,,,,,,METAR,266.0
KMNE 160714Z AUTO 12003KT 10SM CLR 19/19 A3006 RMK AO2,KMNE,2023-05-16T07:14:00Z,32.65,-93.3,19.0,19.0,120,3,,10.0,30.059055,,,TRUE,TRUE,,,,,,,CLR,,,,,,,,VFR,,,,,,,,,,,,METAR,84.0
KHHW 160714Z AUTO 34006KT 10SM -RA CLR 20/18 A3006 RMK AO2,KHHW,2023-05-16T07:14:00Z,34.03,-95.55,20.0,18.0,340,6,,10.0,30.059055,,,TRUE,TRUE,,,,,,-RA,CLR,,,,,,,,VFR,,,,,,,,,,,,METAR,178.0
KCDD 160714Z AUTO 00000KT 10SM CLR 08/04 A2992 RMK AO2 PWINO,KCDD,2023-05-16T07:14:00Z,48.27,-92.48,8.0,4.0,0,0,,10.0,29.920275,,,TRUE,TRUE,,,,,TRUE,,CLR,,,,,,,,VFR,,,,,,,,,,,,METAR,344.0
EHVL 160714Z AUTO 32019KT 9999 FEW022 BKN025 BKN035 10/06 Q1020 BLACKBLU,EHVL,2023-05-16T07:14:00Z,53.28,5.08,10.0,6.0,320,19,,6.21,30.11811,,,TRUE,,,,,,,,FEW,2200,BKN,2500,BKN,3500,,,MVFR,,,,,,,,,,,,METAR,2.0
CYLH 160714Z AUTO 02009G17KT 9SM FEW015 SCT021 OVC066 01/M01 A3005 RMK SLP194,CYLH,2023-05-16T07:14:00Z,52.2,-87.93,1.0,-1.0,20,9,17,9.0,30.050198,1019.4,,TRUE,,,,,,,,FEW,1500,SCT,2100,OVC,6600,,,VFR,,,,,,,,,,,,SPECI,245.0
SARI 160713Z 07003KT 1000 R31/P2000N BCFG NSC 13/13 Q1019,SARI,2023-05-16T07:13:00Z,-25.73,-54.47,13.0,13.0,70,3,,0.62,30.088583,,,,,,,,,,BCFG,CLR,,,,,,,,LIFR,,,,,,,,,,,,SPECI,268.0
PASV 160713Z AUTO 14008KT 110V170 10SM -RA OVC029 06/02 A2991 RMK AO2 SLP136,PASV,2023-05-16T07:13:00Z,61.1,-155.57,6.0,2.0,140,8,,10.0,29.911417,1013.6,,TRUE,TRUE,,,,,,-RA,OVC,2900,,,,,,,MVFR,,,,,,,,,,,,METAR,462.0
KXVG 160713Z AUTO 24003KT 10SM CLR 13/08 A3000 RMK AO2,KXVG,2023-05-16T07:13:00Z,46.98,-94.2,13.0,8.0,240,3,,10.0,30.0,,,TRUE,TRUE,,,,,,,CLR,,,,,,,,VFR,,,,,,,,,,,,METAR,407.0
KOWA 160713Z AUTO 23005KT 10SM CLR 12/09 A3009 RMK AO2,KOWA,2023-05-16T07:13:00Z,44.12,-93.25,12.0,9.0,230,5,,10.0,30.088583,,,TRUE,TRUE,,,,,,,CLR,,,,,,,,VFR,,,,,,,,,,,,METAR,345.0
KORB 160713Z AUTO 28004KT 10SM CLR 16/02 A2992 RMK AO2,KORB,2023-05-16T07:13:00Z,48.02,-92.87,16.0,2.0,280,4,,10.0,29.920275,,,TRUE,TRUE,,,,,,,CLR,,,,,,,,VFR,,,,,,,,,,,,METAR,407.0
KODO 160713Z AUTO 11008KT 8SM -RA SCT022 BKN030 BKN041 19/17 A3023 RMK AO2 RAB0655 P0001 T01890167,KODO,2023-05-16T07:13:00Z,31.92,-102.4,18.9,16.7,110,8,,8.0,30.230314,,,TRUE,TRUE,,,,,,-RA,SCT,2200,BKN,3000,BKN,4100,,,MVFR,,,,,,0.01,,,,,,METAR,912.0
KLWD 160713Z AUTO 00000KT 9SM OVC030 13/12 A3011 RMK AO2 T01280117,KLWD,2023-05-16T07:13:00Z,40.63,-93.9,12.8,11.7,0,0,,9.0,30.109253,,,TRUE,TRUE,,,,,,,OVC,3000,,,,,,,MVFR,,,,,,,,,,,,METAR,345.0
KFOZ 160713Z AUTO 25005KT 10SM CLR 16/03 A3000 RMK AO2,KFOZ,2023-05-16T07:13:00Z,47.77,-93.65,16.0,3.0,250,5,,10.0,30.0,,,TRUE,TRUE,,,,,,,CLR,,,,,,,,VFR,,,,,,,,,,,,METAR,412.0
KDVP 160713Z AUTO 25009KT 10SM CLR 13/07 A3014 RMK AO2 T01300068,KDVP,2023-05-16T07:13:00Z,43.98,-95.78,13.0,6.8,250,9,,10.0,30.138779,,,TRUE,TRUE,,,,,,,CLR,,,,,,,,VFR,,,,,,,,,,,,METAR,493.0
KDUB 160713Z AUTO 29011KT 10SM CLR 06/01 A3033 RMK AO2,KDUB,2023-05-16T07:13:00Z,43.55,-109.68,6.0,1.0,290,11,,10.0,30.33071,,,TRUE,TRUE,,,,,,,CLR,,,,,,,,VFR,,,,,,,,,,,,METAR,2205.0
KAQP 160713Z AUTO 30006KT 10SM 12/07 A3008 RMK AO2,KAQP,2023-05-16T07:13:00Z,45.22,-96.0,12.0,7.0,300,6,,10.0,30.079725,,,TRUE,TRUE,,,,,,,,,,,,,,,,,,,,,,,,,,,METAR,312.0
CYAH 160713Z AUTO 34007G15KT 7SM -SN OVC021 M04/M07 A2968 RMK SLP074,CYAH,2023-05-16T07:13:00Z,53.75,-73.67,-4.0,-7.0,340,7,15,7.0,29.681103,1007.4,,TRUE,,,,,,,-SN,OVC,2100,,,,,,,MVFR,,,,,,,,,,,,SPECI,298.0
YLHI 160712Z AUTO 05020KT 7000 // BKN016 BKN029 OVC084 19/18 Q1014,YLHI,2023-05-16T07:12:00Z,-31.53,159.07,19.0,18.0,50,20,,4.35,29.940945,,,TRUE,,,,,,,,BKN,1600,BKN,2900,OVC,8400,,,MVFR,,,,,,,,,,,,SPECI,2.0
PHBK 160712Z AUTO 00000KT 10SM BKN055 22/16 A3005 RMK AO2 T02220156,PHBK,2023-05-16T07:12:00Z,22.03,-159.78,22.2,15.6,0,0,,10.0,30.050198,,,TRUE,TRUE,,,,,,,BKN,5500,,,,,,,VFR,,,,,,,,,,,,METAR,5.0
KTKI 160712Z AUTO 33004KT 10SM BKN010 21/19 A3009 RMK AO2 T02110194,KTKI,2023-05-16T07:12:00Z,33.18,-96.58,21.1,19.4,330,4,,10.0,30.088583,,,TRUE,TRUE,,,,,,,BKN,1000,,,,,,,MVFR,,,,,,,,,,,,METAR,173.0
KFTY 160712Z 00000KT 8SM SCT005 22/21 A3006 RMK AO2 T02170211,KFTY,2023-05-16T07:12:00Z,33.78,-84.52,21.7,21.1,0,0,,8.0,30.059055,,,,TRUE,,,,,,,SCT,500,,,,,,,VFR,,,,,,,,,,,,SPECI,245.0
CYPX 160712Z AUTO 34022G31KT 9SM OVC023 M04/M09 A2980 RMK SLP097,CYPX,2023-05-16T07:12:00Z,60.03,-77.27,-4.0,-9.0,340,22,31,9.0,29.799213,1009.7,,TRUE,,,,,,,,OVC,2300,,,,,,,MVFR,,,,,,,,,,,,SPECI,10.0
CYMO 160712Z AUTO 02008G17KT 9SM OVC014 M02/M05 A2995 RMK SLP143,CYMO,2023-05-16T07:12:00Z,51.28,-80.62,-2.0,-5.0,20,8,17,9.0,29.949802,1014.3,,TRUE,,,,,,,,OVC,1400,,,,,,,MVFR,,,,,,,,,,,,SPECI,8.0
KUTS 160711Z AUTO 00000KT 10SM SCT001 21/19 A3007 RMK AO2 T02060194,KUTS,2023-05-16T07:11:00Z,30.75,-95.58,20.6,19.4,0,0,,10.0,30.070866,,,TRUE,TRUE,,,,,,,SCT,100,,,,,,,VFR,,,,,,,,,,,,SPECI,103.0
KSDM 160711Z AUTO 00000KT 7SM BKN009 13/12 A3004 RMK AO2 T01330117,KSDM,2023-05-16T07:11:00Z,32.58,-117.0,13.3,11.7,0,0,,7.0,30.041338,,,TRUE,TRUE,,,,,,,BKN,900,,,,,,,IFR,,,,,,,,,,,,SPECI,161.0
KEGI 160711Z AUTO 01003KT 10SM BKN005 BKN150 OVC170 22/21 A3006 RMK AO2 CIG 005V150 BKN005 V SCT SLP178 TSNO $,KEGI,2023-05-16T07:11:00Z,30.65,-86.52,22.0,21.0,10,3,,10.0,30.059055,1017.8,,TRUE,TRUE,TRUE,,TRUE,,,,BKN,500,BKN,15000,OVC,17000,,,IFR,,,,,,,,,,,,SPECI,59.0
KCPS 160711Z AUTO 36006KT 2SM +RA BR BKN025 OVC036 18/16 A2999 RMK AO2 P0012 T01780156,KCPS,2023-05-16T07:11:00Z,38.53,-90.15,17.8,15.6,360,6,,2.0,29.991142,,,TRUE,TRUE,,,,,,+RA BR,BKN,2500,OVC,3600,,,,,IFR,,,,,,0.12,,,,,,SPECI,125.0
KBPK 160711Z AUTO 00000KT 10SM BKN012 BKN021 OVC042 20/19 A3002 RMK AO2 T02000194,KBPK,2023-05-16T07:11:00Z,36.37,-92.47,20.0,19.4,0,0,,10.0,30.02067,,,TRUE,TRUE,,,,,,,BKN,1200,BKN,2100,OVC,4200,,,MVFR,,,,,,,,,,,,SPECI,279.0
KAGS 160711Z AUTO 00000KT 6SM BR CLR 17/17 A3007 RMK AO2 T01720167,KAGS,2023-05-16T07:11:00Z,33.37,-81.97,17.2,16.7,0,0,,6.0,30.070866,,,TRUE,TRUE,,,,,,BR,CLR,,,,,,,,VFR,,,,,,,,,,,,SPECI,40.0
K0J4 160711Z AUTO 00000KT 2SM BR OVC001 22/20 A3007 RMK AO2 T02220200,K0J4,2023-05-16T07:11:00Z,31.05,-86.32,22.2,20.0,0,0,,2.0,30.070866,,,TRUE,TRUE,,,,,,BR,OVC,100,,,,,,,LIFR,,,,,,,,,,,,SPECI,96.0
VCRI 160710Z 23005KT 180V280 9999 FEW018 34/27 Q1009 NOSIG,VCRI,2023-05-16T07:10:00Z,6.28,81.13,34.0,27.0,230,5,,6.21,29.793306,,,,,,TRUE,,,,,FEW,1800,,,,,,,VFR,,,,,,,,,,,,METAR,50.0
VCBI 160710Z 25007KT 210V290 9999 SCT017 32/27 Q1010 NOSIG,VCBI,2023-05-16T07:10:00Z,7.17,79.88,32.0,27.0,250,7,,6.21,29.822834,,,,,,TRUE,,,,,SCT,1700,,,,,,,VFR,,,,,,,,,,,,METAR,10.0
KXBP 160710Z AUTO 35005KT 10SM CLR 20/17 A3013 RMK AO2 T01950170,KXBP,2023-05-16T07:10:00Z,33.18,-97.83,19.5,17.0,350,5,,10.0,30.129921,,,TRUE,TRUE,,,,,,,CLR,,,,,,,,VFR,,,,,,,,,,,,METAR,256.0
KX26 160710Z AUTO 29003KT 10SM CLR 20/18 A3004 RMK AO2 TSNO T01970184,KX26,2023-05-16T07:10:00Z,27.82,-80.5,19.7,18.4,290,3,,10.0,30.041338,,,TRUE,TRUE,,,TRUE,,,,CLR,,,,,,,,VFR,,,,,,,,,,,,METAR,5.0
KVVS 160710Z AUTO 27003KT 10SM CLR 12/10 A3002 RMK AO2 T01240103,KVVS,2023-05-16T07:10:00Z,39.95,-79.65,12.4,10.3,270,3,,10.0,30.02067,,,TRUE,TRUE,,,,,,,CLR,,,,,,,,VFR,,,,,,,,,,,,METAR,386.0
KVES 160710Z AUTO 00000KT 10SM CLR 12/06 A3002 RMK AO2,KVES,2023-05-16T07:10:00Z,40.2,-84.53,12.0,6.0,0,0,,10.0,30.02067,,,TRUE,TRUE,,,,,,,CLR,,,,,,,,VFR,,,,,,,,,,,,METAR,308.0
KULS 160710Z AUTO 26005KT 7SM CLR 10/09 A3023 RMK AO2,KULS,2023-05-16T07:10:00Z,37.6,-101.37,10.0,9.0,260,5,,7.0,30.230314,,,TRUE,TRUE,,,,,,,CLR,,,,,,,,VFR,,,,,,,,,,,,METAR,934.0
KU68 160710Z AUTO 00000KT 10SM SCT110 13/03 A3016 RMK AO2,KU68,2023-05-16T07:10:00Z,44.92,-108.45,13.0,3.0,0,0,,10.0,30.159449,,,TRUE,TRUE,,,,,,,SCT,11000,,,,,,,VFR,,,,,,,,,,,,METAR,1244.0
KU55 160710Z AUTO 15008KT 10SM SCT075 OVC100 11/07 A3040 RMK A01,KU55,2023-05-16T07:10:00Z,37.85,-112.38,11.0,7.0,150,8,,10.0,30.398623,,,TRUE,TRUE,,,,,,,SCT,7500,OVC,10000,,,,,VFR,,,,,,,,,,,,METAR,2060.0
KTYR 160710Z AUTO 00000KT 10SM BKN005 21/19 A3008 RMK AO2 T02060194,KTYR,2023-05-16T07:10:00Z,32.37,-95.4,20.6,19.4,0,0,,10.0,30.079725,,,TRUE,TRUE,,,,,,,BKN,500,,,,,,,IFR,,,,,,,,,,,,SPECI,161.0
KSZL 160710Z 35006KT 2SM BR OVC004 16/15 A3005 RMK AO2A TWR VIS 1 1/4SM DZE09 SLP176 $,KSZL,2023-05-16T07:10:00Z,38.73,-93.53,16.0,15.0,350,6,,2.0,30.050198,1017.6,,,TRUE,TRUE,,,,,BR,OVC,400,,,,,,,LIFR,,,,,,,,,,,,METAR,259.0
KSUT 160710Z AUTO 17003KT 10SM OVC110 18/16 A3009 RMK AO2 T01810157,KSUT,2023-05-16T07:10:00Z,33.93,-78.08,18.1,15.7,170,3,,10.0,30.088583,,,TRUE,TRUE,,,,,,,OVC,11000,,,,,,,VFR,,,,,,,,,,,,METAR,6.0
KSNH 160710Z AUTO 00000KT 10SM FEW043 FEW050 22/21 A3002 RMK A01,KSNH,2023-05-16T07:10:00Z,35.17,-88.22,22.0,21.0,0,0,,10.0,30.02067,,,TRUE,TRUE,,,,,,,FEW,4300,FEW,5000,,,,,VFR,,,,,,,,,,,,SPECI,142.0
KS85 160710Z AUTO 06004KT 10SM 09/08 A3010 RMK A01 Culbertson ,KS85,2023-05-16T07:10:00Z,48.15,-104.5,9.0,8.0,60,4,,10.0,30.100393,,,TRUE,TRUE,,,,,,,,,,,,,,,,,,,,,,,,,,,METAR,596.0
KRHP 160710Z AUTO 00000KT 10SM BKN003 OVC029 17/16 A3012 RMK AO2 T01700162,KRHP,2023-05-16T07:10:00Z,35.18,-83.85,17.0,16.2,0,0,,10.0,30.121063,,,TRUE,TRUE,,,,,,,BKN,300,OVC,2900,,,,,LIFR,,,,,,,,,,,,METAR,515.0
KRCZ 160710Z AUTO 20005KT 10SM SCT070 18/14 A3009 RMK AO2 T01800138,KRCZ,2023-05-16T07:10:00Z,34.88,-79.77,18.0,13.8,200,5,,10.0,30.088583,,,TRUE,TRUE,,,,,,,SCT,7000,,,,,,,VFR,,,,,,,,,,,,METAR,110.0
KQER 160710Z AUTO 18007G13KT 9999 CLR 29/12 A2976 RMK A02 TSNO,KQER,2023-05-16T07:10:00Z,,,29.0,12.0,180,7,13,6.21,29.760826,,,TRUE,TRUE,,,TRUE,,,,CLR,,,,,,,,VFR,,,,,,,,,,,,METAR,
KOLY 160710Z AUTO 06004KT 10SM BKN100 18/17 A3001 RMK AO2 LTG DSNT W T01770171 PWINO,KOLY,2023-05-16T07:10:00Z,38.72,-88.18,17.7,17.1,60,4,,10.0,30.008858,,,TRUE,TRUE,,,,,TRUE,,BKN,10000,,,,,,,VFR,,,,,,,,,,,,METAR,144.0
KMRC 160710Z AUTO 00000KT 9SM FEW003 BKN055 OVC110 20/20 A3003 RMK A01,KMRC,2023-05-16T07:10:00Z,35.55,-87.18,20.0,20.0,0,0,,9.0,30.029528,,,TRUE,TRUE,,,,,,,FEW,300,BKN,5500,OVC,11000,,,VFR,,,,,,,,,,,,SPECI,205.0
KMQI 160710Z AUTO 21008KT 10SM CLR 20/11 A3008 RMK AO2 T01960113,KMQI,2023-05-16T07:10:00Z,35.92,-75.7,19.6,11.3,210,8,,10.0,30.079725,,,TRUE,TRUE,,,,,,,CLR,,,,,,,,VFR,,,,,,,,,,,,METAR,3.0
KM91 160710Z AUTO 17005KT 5SM BR FEW050 BKN075 19/19 A3001 RMK A01,KM91,2023-05-16T07:10:00Z,36.53,-86.92,19.0,19.0,170,5,,5.0,30.008858,,,TRUE,TRUE,,,,,,BR,FEW,5000,BKN,7500,,,,,MVFR,,,,,,,,,,,,METAR,214.0
KM54 160710Z AUTO 20004KT 10SM CLR 20/20 A3002 RMK A01,KM54,2023-05-16T07:10:00Z,36.18,-86.32,20.0,20.0,200,4,,10.0,30.02067,,,TRUE,TRUE,,,,,,,CLR,,,,,,,,VFR,,,,,,,,,,,,METAR,168.0
KM04 160710Z AUTO 21006KT 10SM CLR 22/21 A2999 RMK A01,KM04,2023-05-16T07:10:00Z,35.58,-89.58,22.0,21.0,210,6,,10.0,29.991142,,,TRUE,TRUE,,,,,,,CLR,,,,,,,,VFR,,,,,,,,,,,,METAR,83.0
KLXT 160710Z AUTO 34006KT 3SM BR OVC003 14/14 A3009 RMK AO2 T01440144,KLXT,2023-05-16T07:10:00Z,38.97,-94.37,14.4,14.4,340,6,,3.0,30.088583,,,TRUE,TRUE,,,,,,BR,OVC,300,,,,,,,LIFR,,,,,,,,,,,,SPECI,306.0
KLTS 160710Z AUTO 34009KT 10SM BKN049 17/14 A3015 RMK AO2 SLP200,KLTS,2023-05-16T07:10:00Z,34.67,-99.27,17.0,14.0,340,9,,10.0,30.15059,1020.0,,TRUE,TRUE,,,,,,,BKN,4900,,,,,,,VFR,,,,,,,,,,,,SPECI,416.0
KLHZ 160710Z AUTO 20004KT 10SM OVC065 17/13 A3010 RMK AO2,KLHZ,2023-05-16T07:10:00Z,36.02,-78.33,17.0,13.0,200,4,,10.0,30.100393,,,TRUE,TRUE,,,,,,,OVC,6500,,,,,,,VFR,,,,,,,,,,,,METAR,104.0
KIXA 160710Z AUTO 23003KT 10SM BKN070 OVC110 16/16 A3008 RMK AO2,KIXA,2023-05-16T07:10:00Z,36.33,-77.63,16.0,16.0,230,3,,10.0,30.079725,,,TRUE,TRUE,,,,,,,BKN,7000,OVC,11000,,,,,VFR,,,,,,,,,,,,SPECI,43.0
KHNZ 160710Z AUTO 20003KT 10SM -RA SCT003 SCT015 SCT047 15/14 A3007 RMK AO2 T01510136,KHNZ,2023-05-16T07:10:00Z,36.37,-78.53,15.1,13.6,200,3,,10.0,30.070866,,,TRUE,TRUE,,,,,,-RA,SCT,300,SCT,1500,SCT,4700,,,VFR,,,,,,,,,,,,SPECI,158.0
KHEY 160710Z AUTO 00000KT 5SM BR CLR 21/20 A3002 RMK AO2 PRESFR SLP165,KHEY,2023-05-16T07:10:00Z,31.35,-85.65,21.0,20.0,0,0,,5.0,30.02067,1016.5,,TRUE,TRUE,,,,,,BR,CLR,,,,,,,,MVFR,,,,,,,,,,,,METAR,95.0
KGWW 160710Z AUTO 18003KT 10SM OVC080 18/14 A3009 RMK AO2 T01810137,KGWW,2023-05-16T07:10:00Z,35.47,-77.97,18.1,13.7,180,3,,10.0,30.088583,,,TRUE,TRUE,,,,,,,OVC,8000,,,,,,,VFR,,,,,,,,,,,,SPECI,40.0
KGNC 160710Z AUTO 09004KT 10SM CLR 16/13 A3030 RMK AO2 T01640132,KGNC,2023-05-16T07:10:00Z,32.68,-102.65,16.4,13.2,90,4,,10.0,30.301182,,,TRUE,TRUE,,,,,,,CLR,,,,,,,,VFR,,,,,,,,,,,,METAR,1002.0
KFSK 160710Z AUTO 32005KT 4SM BR OVC004 16/15 A3009 RMK AO2 T01560153,KFSK,2023-05-16T07:10:00Z,37.8,-94.77,15.6,15.3,320,5,,4.0,30.088583,,,TRUE,TRUE,,,,,,BR,OVC,400,,,,,,,LIFR,,,,,,,,,,,,METAR,276.0
KFFA 160710Z AUTO 00000KT 10SM SCT110 19/10 A3007 RMK AO2 T01850098,KFFA,2023-05-16T07:10:00Z,36.02,-75.67,18.5,9.8,0,0,,10.0,30.070866,,,TRUE,TRUE,,,,,,,SCT,11000,,,,,,,VFR,,,,,,,,,,,,SPECI,2.0
KEYF 160710Z AUTO 20004KT 10SM OVC090 19/15 A3009 RMK AO2 T01920153,KEYF,2023-05-16T07:10:00Z,34.6,-78.58,19.2,15.3,200,4,,10.0,30.088583,,,TRUE,TRUE,,,,,,,OVC,9000,,,,,,,VFR,,,,,,,,,,,,SPECI,39.0
KEXX 160710Z AUTO 20006KT 10SM BKN060 OVC075 20/12 A3008 RMK AO2 T01950121,KEXX,2023-05-16T07:10:00Z,35.78,-80.3,19.5,12.1,200,6,,10.0,30.079725,,,TRUE,TRUE,,,,,,,BKN,6000,OVC,7500,,,,,VFR,,,,,,,,,,,,SPECI,221.0
KETN 160710Z AUTO 36005KT 10SM SCT031 18/17 A3014 RMK AO2 T01850165,KETN,2023-05-16T07:10:00Z,32.42,-98.82,18.5,16.5,360,5,,10.0,30.138779,,,TRUE,TRUE,,,,,,,SCT,3100,,,,,,,VFR,,,,,,,,,,,,METAR,445.0
KEDE 160710Z AUTO 00000KT 10SM OVC085 20/15 A3009 RMK AO2 T02000153,KEDE,2023-05-16T07:10:00Z,36.03,-76.57,20.0,15.3,0,0,,10.0,30.088583,,,TRUE,TRUE,,,,,,,OVC,8500,,,,,,,VFR,,,,,,,,,,,,SPECI,4.0
KEAN 160710Z AUTO 19004KT 10SM BKN110 11/09 A3020 RMK AO2 T01050087,KEAN,2023-05-16T07:10:00Z,42.05,-104.93,10.5,8.7,190,4,,10.0,30.200787,,,TRUE,TRUE,,,,,,,BKN,11000,,,,,,,VFR,,,,,,,,,,,,METAR,1452.0
KDVK 160710Z AUTO 00000KT 10SM SCT037 15/14 A3004 RMK AO2,KDVK,2023-05-16T07:10:00Z,37.58,-84.77,15.0,14.0,0,0,,10.0,30.041338,,,TRUE,TRUE,,,,,,,SCT,3700,,,,,,,VFR,,,,,,,,,,,,METAR,309.0
KDED 160710Z AUTO 00000KT 10SM CLR 20/19 A3006 RMK AO2 T01990186,KDED,2023-05-16T07:10:00Z,29.07,-81.28,19.9,18.6,0,0,,10.0,30.059055,,,TRUE,TRUE,,,,,,,CLR,,,,,,,,VFR,,,,,,,,,,,,METAR,21.0
KCXW 160710Z AUTO 30005KT 10SM BKN037 OVC043 23/M37 A3001 RMK A01,KCXW,2023-05-16T07:10:00Z,35.02,-92.55,23.0,-37.0,300,5,,10.0,30.008858,,,TRUE,TRUE,,,,,,,BKN,3700,OVC,4300,,,,,VFR,,,,,,,,,,,,SPECI,84.0
KCNU 160710Z AUTO 33008KT 4SM BR OVC004 16/14 A3011 RMK AO2 T01560144,KCNU,2023-05-16T07:10:00Z,37.67,-95.48,15.6,14.4,330,8,,4.0,30.109253,,,TRUE,TRUE,,,,,,BR,OVC,400,,,,,,,LIFR,,,,,,,,,,,,SPECI,301.0
KCGS 160710Z AUTO 21004KT 10SM CLR 16/11 A3001 RMK AO2 T01590113,KCGS,2023-05-16T07:10:00Z,38.98,-76.92,15.9,11.3,210,4,,10.0,30.008858,,,TRUE,TRUE,,,,,,,CLR,,,,,,,,VFR,,,,,,,,,,,,METAR,15.0
KBMC 160710Z AUTO 35004KT 10SM OVC100 20/03 A3024 RMK AO1 T01950029,KBMC,2023-05-16T07:10:00Z,41.55,-112.07,19.5,2.9,350,4,,10.0,30.239174,,,TRUE,TRUE,,,,,,,OVC,10000,,,,,,,VFR,,,,,,,,,,,,METAR,1289.0
KANK 160710Z AUTO 10SM CLR 09/05 A3050 RMK AO1 T00870049,KANK,2023-05-16T07:10:00Z,38.53,-106.05,8.7,4.9,,,,10.0,30.499016,,,TRUE,TRUE,,,,,,,CLR,,,,,,,,VFR,,,,,,,,,,,,METAR,2293.0
KAFP 160710Z AUTO 00000KT 10SM SCT070 SCT110 19/13 A3009 RMK AO2 T01860130,KAFP,2023-05-16T07:10:00Z,35.02,-80.08,18.6,13.0,0,0,,10.0,30.088583,,,TRUE,TRUE,,,,,,,SCT,7000,SCT,11000,,,,,VFR,,,,,,,,,,,,SPECI,91.0
K6S8 160710Z AUTO 20003KT 5SM BR 13/12 A3013 RMK A01 LAUREL,K6S8,2023-05-16T07:10:00Z,45.7,-108.77,13.0,12.0,200,3,,5.0,30.129921,,,TRUE,TRUE,,,,,,BR,,,,,,,,,,,,,,,,,,,,,METAR,1072.0
K54A 160710Z AUTO 09005KT 10SM SCT048 24/21 A3002 RMK AO2,K54A,2023-05-16T07:10:00Z,26.85,-82.25,24.0,21.0,90,5,,10.0,30.02067,,,TRUE,TRUE,,,,,,,SCT,4800,,,,,,,VFR,,,,,,,,,,,,SPECI,2.0
K4U6 160710Z AUTO VRB06G14KT 10SM 15/08 A3008 RMK A01 Circle ,K4U6,2023-05-16T07:10:00Z,47.42,-105.57,15.0,8.0,0,6,14,10.0,30.079725,,,TRUE,TRUE,,,,,,,,,,,,,,,,,,,,,,,,,,,METAR,739.0
K2M2 160710Z AUTO 00000KT 7SM SCT045 BKN075 OVC100 19/19 A3005 RMK A01,K2M2,2023-05-16T07:10:00Z,35.23,-87.25,19.0,19.0,0,0,,7.0,30.050198,,,TRUE,TRUE,,,,,,,SCT,4500,BKN,7500,OVC,10000,,,VFR,,,,,,,,,,,,SPECI,286.0
K1A5 160710Z AUTO 00000KT 3SM BR SCT003 SCT031 SCT037 17/16 A3016 RMK AO2 T01660164,K1A5,2023-05-16T07:10:00Z,35.22,-83.42,16.6,16.4,0,0,,3.0,30.159449,,,TRUE,TRUE,,,,,,BR,SCT,300,SCT,3100,SCT,3700,,,MVFR,,,,,,,,,,,,SPECI,611.0
K19S 160710Z AUTO 32005KT 4SM BR CLR 11/ A3024 RMK AO2 T0107////,K19S,2023-05-16T07:10:00Z,37.48,-100.83,10.7,,320,5,,4.0,30.239174,,,TRUE,TRUE,,,,,,BR,CLR,,,,,,,,MVFR,,,,,,,,,,,,METAR,886.0
K05U 160710Z AUTO 00000KT 10SM OVC110 10/04 A3032 RMK A01,K05U,2023-05-16T07:10:00Z,39.6,-116.0,10.0,4.0,0,0,,10.0,30.318897,,,TRUE,TRUE,,,,,,,OVC,11000,,,,,,,VFR,,,,,,,,,,,,METAR,1813.0
ETOU 160710Z AUTO 36008G17KT 9999 SCT027 OVC043 11/11 A3002 RMK AO2 SLP169 $,ETOU,2023-05-16T07:10:00Z,50.03,8.32,11.0,11.0,360,8,17,6.21,30.02067,1016.9,,TRUE,TRUE,TRUE,,,,,,SCT,2700,OVC,4300,,,,,VFR,,,,,,,,,,,,SPECI,141.0
CYPH 160710Z AUTO 35018G26KT 9SM -SN SCT023 OVC032 M04/M07 A2982 RMK SLP103,CYPH,2023-05-16T07:10:00Z,58.47,-78.08,-4.0,-7.0,350,18,26,9.0,29.819881,1010.3,,TRUE,,,,,,,-SN,SCT,2300,OVC,3200,,,,,VFR,,,,,,,,,,,,SPECI,24.0
PAWI 160709Z AUTO 33010KT 10SM SCT021 M07/M12 A3031 RMK AO2 T10721122 TSNO $,PAWI,2023-05-16T07:09:00Z,70.63,-160.02,-7.2,-12.2,330,10,,10.0,30.31004,,,TRUE,TRUE,TRUE,,TRUE,,,,SCT,2100,,,,,,,VFR,,,,,,,,,,,,SPECI,12.0
PAOM 160709Z AUTO 03020KT 2 1/2SM -SN BR OVC028 M01/M03 A2994 RMK AO2 PK WND 04026/0655 P0000 T10111033 TSNO,PAOM,2023-05-16T07:09:00Z,64.5,-165.43,-1.1,-3.3,30,20,,2.5,29.940945,,,TRUE,TRUE,,,TRUE,,,-SN BR,OVC,2800,,,,,,,IFR,,,,,,0.005,,,,,,SPECI,6.0
KMTN 160709Z AUTO 20003KT 10SM CLR 16/11 A3000 RMK AO2,KMTN,2023-05-16T07:09:00Z,39.32,-76.42,16.0,11.0,200,3,,10.0,30.0,,,TRUE,TRUE,,,,,,,CLR,,,,,,,,VFR,,,,,,,,,,,,METAR,2.0
KFME 160709Z AUTO 00000KT 10/10 A3002 RMK AO1,KFME,2023-05-16T07:09:00Z,39.08,-76.77,10.0,10.0,0,0,,,30.02067,,,TRUE,TRUE,,,,,,,,,,,,,,,,,,,,,,,,,,,METAR,43.0
KEAR 160709Z AUTO 31003KT 7SM OVC014 12/11 A3021 RMK AO2,KEAR,2023-05-16T07:09:00Z,40.72,-99.0,12.0,11.0,310,3,,7.0,30.209646,,,TRUE,TRUE,,,,,,,OVC,1400,,,,,,,MVFR,,,,,,,,,,,,SPECI,649.0
K2W6 160709Z AUTO 23008KT 10SM CLR 16/13 A3003 RMK AO1,K2W6,2023-05-16T07:09:00Z,38.32,-76.55,16.0,13.0,230,8,,10.0,30.029528,,,TRUE,TRUE,,,,,,,CLR,,,,,,,,VFR,,,,,,,,,,,,METAR,40.0
KFFC 160708Z AUTO 13006KT 10SM SCT021 BKN028 19/19 A3008 RMK AO2 T01940189,KFFC,2023-05-16T07:08:00Z,33.35,-84.57,19.4,18.9,130,6,,10.0,30.079725,,,TRUE,TRUE,,,,,,,SCT,2100,BKN,2800,,,,,MVFR,,,,,,,,,,,,SPECI,242.0
KCNK 160708Z AUTO 32005KT 6SM BR OVC007 13/11 A3017 RMK AO2 CIG 005V010 T01280111,KCNK,2023-05-16T07:08:00Z,39.55,-97.65,12.8,11.1,320,5,,6.0,30.171259,,,TRUE,TRUE,,,,,,BR,OVC,700,,,,,,,IFR,,,,,,,,,,,,SPECI,445.0
ETHF 160708Z 34010KT 9999 FEW012 SCT029 BKN070 10/05 Q1017 BLU BLU TEMPO WHT,ETHF,2023-05-16T07:08:00Z,51.12,9.28,10.0,5.0,340,10,,6.21,30.029528,,,,,,,,,,,FEW,1200,SCT,2900,BKN,7000,,,VFR,,,,,,,,,,,,SPECI,171.0
EHWO 160708Z AUTO 31008KT 310V080 9999 SCT027 BKN030 BKN034 11/05 Q1022 BLU NOSIG,EHWO,2023-05-16T07:08:00Z,51.45,4.33,11.0,5.0,310,8,,6.21,30.177166,,,TRUE,,,TRUE,,,,,SCT,2700,BKN,3000,BKN,3400,,,MVFR,,,,,,,,,,,,SPECI,15.0
CYYT 160708Z 24009G16KT 15SM -SHRA SCT096 BKN130 07/02 A2947 RMK AC3AC4 CVCTV CLD EMBD SLP987,CYYT,2023-05-16T07:08:00Z,47.62,-52.73,7.0,2.0,240,9,16,15.0,29.471457,998.7,,,,,,,,,-SHRA,SCT,9600,BKN,13000,,,,,VFR,,,,,,,,,,,,SPECI,128.0
CWKM 160708Z AUTO 26012G18KT ////SM SCT009 BKN012 OVC023 01/M00 A3027,CWKM,2023-05-16T07:08:00Z,69.6,-140.17,1.0,0.0,260,12,18,,30.268702,,,TRUE,,,,,,,,SCT,900,BKN,1200,OVC,2300,,,,,,,,,,,,,,,SPECI,8.0
KGRF 160707Z 21007KT 10SM -RA BKN085 OVC110 16/11 A3006 RMK AO2A LTG DSNT SE RAB07 PRESFR SLP181 $,KGRF,2023-05-16T07:07:00Z,47.07,-122.57,16.0,11.0,210,7,,10.0,30.059055,1018.1,,,TRUE,TRUE,,,,,-RA,BKN,8500,OVC,11000,,,,,VFR,,,,,,,,,,,,SPECI,91.0
CZUM 160707Z AUTO 30010KT 9SM -SN BKN021 OVC029 M02/M05 A2938 RMK SLP975,CZUM,2023-05-16T07:07:00Z,53.55,-64.1,-2.0,-5.0,300,10,,9.0,29.379921,997.5,,TRUE,,,,,,,-SN,BKN,2100,OVC,2900,,,,,MVFR,,,,,,,,,,,,SPECI,431.0
YPCC 160706Z AUTO 12011KT 9999 -SHRA SCT027 BKN039 OVC047 27/23 Q1013,YPCC,2023-05-16T07:06:00Z,-12.18,96.83,27.0,23.0,120,11,,6.21,29.911417,,,TRUE,,,,,,,-SHRA,SCT,2700,BKN,3900,OVC,4700,,,VFR,,,,,,,,,,,,SPECI,3.0
PAPN 160706Z AUTO 18025G29KT 8SM SCT028 BKN037 05/01 A2981 RMK AO2 PK WND 17029/0706,PAPN,2023-05-16T07:06:00Z,57.58,-157.57,5.0,1.0,180,25,29,8.0,29.811024,,,TRUE,TRUE,,,,,,,SCT,2800,BKN,3700,,,,,VFR,,,,,,,,,,,,SPECI,19.0
CYZF 160706Z 35010KT 8SM OVC040 09/08 A3005 RMK SC8 SLP186,CYZF,2023-05-16T07:06:00Z,62.47,-114.45,9.0,8.0,350,10,,8.0,30.050198,1018.6,,,,,,,,,,OVC,4000,,,,,,,VFR,,,,,,,,,,,,SPECI,202.0
LHPP 160705Z AUTO 08010KT 050V110 9999 -SHRA BKN005 OVC028 //////TCU 14/14 Q1008,LHPP,2023-05-16T07:05:00Z,45.98,18.23,14.0,14.0,80,10,,6.21,29.763779,,,TRUE,,,,,,,-SHRA,BKN,500,OVC,2800,,,,,IFR,,,,,,,,,,,,SPECI,193.0
KW40 160705Z AUTO 19005KT 10SM SCT060 OVC070 18/14 A3009 RMK AO2 T01760145,KW40,2023-05-16T07:05:00Z,35.22,-78.03,17.6,14.5,190,5,,10.0,30.088583,,,TRUE,TRUE,,,,,,,SCT,6000,OVC,7000,,,,,VFR,,,,,,,,,,,,METAR,50.0
KW29 160705Z AUTO 23007KT 10SM CLR 16/13 A3000 RMK AO2 T01630134,KW29,2023-05-16T07:05:00Z,38.98,-76.33,16.3,13.4,230,7,,10.0,30.0,,,TRUE,TRUE,,,,,,,CLR,,,,,,,,VFR,,,,,,,,,,,,METAR,1.0
KVUJ 160705Z AUTO 20007KT 10SM OVC090 19/13 A3013 RMK AO2 T01890130,KVUJ,2023-05-16T07:05:00Z,35.42,-80.15,18.9,13.0,200,7,,10.0,30.129921,,,TRUE,TRUE,,,,,,,OVC,9000,,,,,,,VFR,,,,,,,,,,,,METAR,174.0
KUKF 160705Z AUTO 00000KT 5SM BR OVC003 16/16 A3014 RMK AO2,KUKF,2023-05-16T07:05:00Z,36.22,-81.1,16.0,16.0,0,0,,5.0,30.138779,,,TRUE,TRUE,,,,,,BR,OVC,300,,,,,,,LIFR,,,,,,,,,,,,METAR,383.0
KTTA 160705Z AUTO 00000KT 10SM SCT065 OVC100 17/15 A3009 RMK AO2 T01650148,KTTA,2023-05-16T07:05:00Z,35.58,-79.1,16.5,14.8,0,0,,10.0,30.088583,,,TRUE,TRUE,,,,,,,SCT,6500,OVC,10000,,,,,VFR,,,,,,,,,,,,METAR,71.0
KTDF 160705Z AUTO 19004KT 10SM -RA SCT050 BKN090 OVC095 17/11 A3009 RMK AO2,KTDF,2023-05-16T07:05:00Z,36.28,-78.98,17.0,11.0,190,4,,10.0,30.088583,,,TRUE,TRUE,,,,,,-RA,SCT,5000,BKN,9000,OVC,9500,,,VFR,,,,,,,,,,,,METAR,180.0
KSVH 160705Z AUTO 00000KT 10SM -RA OVC055 18/16 A3007 RMK AO2 T01820155,KSVH,2023-05-16T07:05:00Z,35.75,-80.95,18.2,15.5,0,0,,10.0,30.070866,,,TRUE,TRUE,,,,,,-RA,OVC,5500,,,,,,,VFR,,,,,,,,,,,,METAR,286.0
KSIF 160705Z AUTO 00000KT 10SM OVC060 16/15 A3008 RMK AO2 T01580150,KSIF,2023-05-16T07:05:00Z,36.43,-79.85,15.8,15.0,0,0,,10.0,30.079725,,,TRUE,TRUE,,,,,,,OVC,6000,,,,,,,VFR,,,,,,,,,,,,METAR,206.0
KSCR 160705Z AUTO 19004KT 10SM SCT080 BKN110 18/14 A3009 RMK AO2 T01800144,KSCR,2023-05-16T07:05:00Z,35.7,-79.5,18.0,14.4,190,4,,10.0,30.088583,,,TRUE,TRUE,,,,,,,SCT,8000,BKN,11000,,,,,VFR,,,,,,,,,,,,METAR,182.0
KRUQ 160705Z AUTO 19006KT 10SM OVC065 19/11 A3008 RMK AO2 T01940105,KRUQ,2023-05-16T07:05:00Z,35.65,-80.52,19.4,10.5,190,6,,10.0,30.079725,,,TRUE,TRUE,,,,,,,OVC,6500,,,,,,,VFR,,,,,,,,,,,,METAR,231.0
KPGV 160705Z AUTO 00000KT 10SM OVC080 18/13 A3008 RMK AO2,KPGV,2023-05-16T07:05:00Z,35.63,-77.4,18.0,13.0,0,0,,10.0,30.079725,,,TRUE,TRUE,,,,,,,OVC,8000,,,,,,,VFR,,,,,,,,,,,,METAR,6.0
KONX 160705Z AUTO 00000KT 10SM BKN090 17/10 A3008 RMK AO2 T01690104,KONX,2023-05-16T07:05:00Z,36.4,-76.02,16.9,10.4,0,0,,10.0,30.079725,,,TRUE,TRUE,,,,,,,BKN,9000,,,,,,,VFR,,,,,,,,,,,,METAR,4.0
KOCW 160705Z AUTO 00000KT 10SM OVC090 18/12 A3010 RMK AO2 T01820115,KOCW,2023-05-16T07:05:00Z,35.57,-77.05,18.2,11.5,0,0,,10.0,30.100393,,,TRUE,TRUE,,,,,,,OVC,9000,,,,,,,VFR,,,,,,,,,,,,METAR,10.0
KMWK 160705Z AUTO 00000KT 5SM +RA BKN042 OVC048 15/15 A3012 RMK AO2 P0003 T01500145,KMWK,2023-05-16T07:05:00Z,36.47,-80.55,15.0,14.5,0,0,,5.0,30.121063,,,TRUE,TRUE,,,,,,+RA,BKN,4200,OVC,4800,,,,,MVFR,,,,,,0.03,,,,,,METAR,374.0
KMRN 160705Z AUTO 00000KT 5SM BR OVC044 19/19 A3008 RMK AO2 T01900185,KMRN,2023-05-16T07:05:00Z,35.82,-81.62,19.0,18.5,0,0,,5.0,30.079725,,,TRUE,TRUE,,,,,,BR,OVC,4400,,,,,,,MVFR,,,,,,,,,,,,METAR,375.0
KMKC 160705Z 35006KT 10SM OVC009 15/14 A3008 RMK AO2 CIG 006V012 T01500144,KMKC,2023-05-16T07:05:00Z,39.12,-94.6,15.0,14.4,350,6,,10.0,30.079725,,,,TRUE,,,,,,,OVC,900,,,,,,,IFR,,,,,,,,,,,,SPECI,228.0
KJNX 160705Z AUTO 00000KT 10SM SCT070 OVC085 16/15 A3008 RMK AO2,KJNX,2023-05-16T07:05:00Z,35.53,-78.38,16.0,15.0,0,0,,10.0,30.079725,,,TRUE,TRUE,,,,,,,SCT,7000,OVC,8500,,,,,VFR,,,,,,,,,,,,SPECI,41.0
KISO 160705Z AUTO 00000KT 10SM OVC080 18/13 A3009 RMK AO2 T01780133,KISO,2023-05-16T07:05:00Z,35.32,-77.62,17.8,13.3,0,0,,10.0,30.088583,,,TRUE,TRUE,,,,,,,OVC,8000,,,,,,,VFR,,,,,,,,,,,,METAR,27.0
KIPJ 160705Z AUTO 19004KT 10SM OVC050 20/14 A3008 RMK AO2 T01960140,KIPJ,2023-05-16T07:05:00Z,35.48,-81.17,19.6,14.0,190,4,,10.0,30.079725,,,TRUE,TRUE,,,,,,,OVC,5000,,,,,,,VFR,,,,,,,,,,,,SPECI,266.0
KI69 160705Z AUTO 00000KT 10SM BKN120 14/14 A3004 RMK AO1,KI69,2023-05-16T07:05:00Z,39.08,-84.22,14.0,14.0,0,0,,10.0,30.041338,,,TRUE,TRUE,,,,,,,BKN,12000,,,,,,,VFR,,,,,,,,,,,,SPECI,238.0
KHRJ 160705Z AUTO 17003KT 10SM SCT070 BKN120 18/13 A3010 RMK AO2 T01780127,KHRJ,2023-05-16T07:05:00Z,35.38,-78.73,17.8,12.7,170,3,,10.0,30.100393,,,TRUE,TRUE,,,,,,,SCT,7000,BKN,12000,,,,,VFR,,,,,,,,,,,,SPECI,55.0
KHBI 160705Z AUTO 20006KT 10SM SCT075 OVC100 19/12 A3011 RMK AO2 T01930121,KHBI,2023-05-16T07:05:00Z,35.65,-79.9,19.3,12.1,200,6,,10.0,30.109253,,,TRUE,TRUE,,,,,,,SCT,7500,OVC,10000,,,,,VFR,,,,,,,,,,,,SPECI,199.0
KGEV 160705Z AUTO 00000KT 10SM SCT014 OVC021 14/14 A3013 RMK AO2 T01420136,KGEV,2023-05-16T07:05:00Z,36.43,-81.42,14.2,13.6,0,0,,10.0,30.129921,,,TRUE,TRUE,,,,,,,SCT,1400,OVC,2100,,,,,MVFR,,,,,,,,,,,,SPECI,961.0
KFQD 160705Z AUTO 18003KT 7SM SCT050 BKN055 OVC070 18/18 A3009 RMK AO2,KFQD,2023-05-16T07:05:00Z,35.42,-81.93,18.0,18.0,180,3,,7.0,30.088583,,,TRUE,TRUE,,,,,,,SCT,5000,BKN,5500,OVC,7000,,,VFR,,,,,,,,,,,,SPECI,325.0
KFOE 160705Z AUTO 3SM BR OVC003 14/14 A3012 RMK AO2 T01390139 $,KFOE,2023-05-16T07:05:00Z,38.93,-95.65,13.9,13.9,,,,3.0,30.121063,,,TRUE,TRUE,TRUE,,,,,BR,OVC,300,,,,,,,LIFR,,,,,,,,,,,,SPECI,315.0
KESN 160705Z AUTO 23006KT 10SM CLR 16/13 A3000 RMK AO2 T01640128,KESN,2023-05-16T07:05:00Z,38.8,-76.07,16.4,12.8,230,6,,10.0,30.0,,,TRUE,TRUE,,,,,,,CLR,,,,,,,,VFR,,,,,,,,,,,,METAR,14.0
KEHO 160705Z AUTO 17004KT 10SM BKN050 OVC065 20/17 A3008 RMK AO2 T01970165,KEHO,2023-05-16T07:05:00Z,35.25,-81.6,19.7,16.5,170,4,,10.0,30.079725,,,TRUE,TRUE,,,,,,,BKN,5000,OVC,6500,,,,,VFR,,,,,,,,,,,,SPECI,261.0
KDPL 160705Z AUTO 00000KT 10SM OVC080 18/15 A3010 RMK AO2,KDPL,2023-05-16T07:05:00Z,35.0,-77.97,18.0,15.0,0,0,,10.0,30.100393,,,TRUE,TRUE,,,,,,,OVC,8000,,,,,,,VFR,,,,,,,,,,,,SPECI,39.0
KDMW 160705Z AUTO 22005KT 10SM CLR 14/11 A2999 RMK AO2,KDMW,2023-05-16T07:05:00Z,39.6,-77.0,14.0,11.0,220,5,,10.0,29.991142,,,TRUE,TRUE,,,,,,,CLR,,,,,,,,VFR,,,,,,,,,,,,METAR,239.0
KCTZ 160705Z AUTO 00000KT 10SM OVC080 19/16 A3010 RMK AO2 T01860156,KCTZ,2023-05-16T07:05:00Z,34.98,-78.37,18.6,15.6,0,0,,10.0,30.100393,,,TRUE,TRUE,,,,,,,OVC,8000,,,,,,,VFR,,,,,,,,,,,,SPECI,43.0
KCPC 160705Z AUTO 00000KT 10SM OVC100 19/15 A3010 RMK AO2 T01870153,KCPC,2023-05-16T07:05:00Z,34.28,-78.72,18.7,15.3,0,0,,10.0,30.100393,,,TRUE,TRUE,,,,,,,OVC,10000,,,,,,,VFR,,,,,,,,,,,,SPECI,27.0
KCMA 160705Z AUTO 27003KT 7SM OVC006 16/14 A3005 RMK AO2 T01560139 $,KCMA,2023-05-16T07:05:00Z,34.22,-119.1,15.6,13.9,270,3,,7.0,30.050198,,,TRUE,TRUE,TRUE,,,,,,OVC,600,,,,,,,IFR,,,,,,,,,,,,METAR,20.0
KCGE 160705Z AUTO 00000KT 10SM CLR 15/15 A3001 RMK A01,KCGE,2023-05-16T07:05:00Z,38.53,-76.03,15.0,15.0,0,0,,10.0,30.008858,,,TRUE,TRUE,,,,,,,CLR,,,,,,,,VFR,,,,,,,,,,,,METAR,5.0
KCBE 160705Z AUTO 00000KT 10SM CLR 10/10 A3005 RMK AO2 T01020095,KCBE,2023-05-16T07:05:00Z,39.62,-78.77,10.2,9.5,0,0,,10.0,30.050198,,,TRUE,TRUE,,,,,,,CLR,,,,,,,,VFR,,,,,,,,,,,,METAR,226.0
KASJ 160705Z AUTO 18004KT 10SM SCT070 OVC090 17/11 A3007 RMK AO2 T01650109,KASJ,2023-05-16T07:05:00Z,36.28,-77.17,16.5,10.9,180,4,,10.0,30.070866,,,TRUE,TRUE,,,,,,,SCT,7000,OVC,9000,,,,,VFR,,,,,,,,,,,,SPECI,20.0
KACZ 160705Z AUTO 00000KT 10SM OVC090 17/15 A3009 RMK AO2 T01730152,KACZ,2023-05-16T07:05:00Z,,,17.3,15.2,0,0,,10.0,30.088583,,,TRUE,TRUE,,,,,,,OVC,9000,,,,,,,VFR,,,,,,,,,,,,SPECI,
K7W6 160705Z AUTO 00000KT 10SM SCT110 16/14 A3008 RMK AO2 T01550136,K7W6,2023-05-16T07:05:00Z,35.55,-75.95,15.5,13.6,0,0,,10.0,30.079725,,,TRUE,TRUE,,,,,,,SCT,11000,,,,,,,VFR,,,,,,,,,,,,SPECI,1.0
K24A 160705Z AUTO 00000KT 10SM SCT002 BKN021 OVC026 16/16 A3017 RMK AO2 T01620157,K24A,2023-05-16T07:05:00Z,35.32,-83.2,16.2,15.7,0,0,,10.0,30.171259,,,TRUE,TRUE,,,,,,,SCT,200,BKN,2100,OVC,2600,,,MVFR,,,,,,,,,,,,SPECI,864.0
PAKP 160704Z AUTO 05010KT 8SM -SN SCT022 BKN031 OVC049 M03/M05 A3011 RMK AO2 P0000 FZRANO,PAKP,2023-05-16T07:04:00Z,68.13,-151.73,-3.0,-5.0,50,10,,8.0,30.109253,,,TRUE,TRUE,,,,TRUE,,-SN,SCT,2200,BKN,3100,OVC,4900,,,VFR,,,,,,0.005,,,,,,SPECI,649.0
KRNM 160704Z AUTO 28003KT 1/2SM FG VV005 11/11 A3004 RMK AO2 T01110106,KRNM,2023-05-16T07:04:00Z,33.03,-116.92,11.1,10.6,280,3,,0.5,30.041338,,,TRUE,TRUE,,,,,,FG,OVX,0,,,,,,,LIFR,,,,,,,,,,,500,METAR,423.0
KFSM 160704Z AUTO 26009KT 10SM SCT008 OVC014 22/20 A3005 RMK AO2 T02170200,KFSM,2023-05-16T07:04:00Z,35.33,-94.37,21.7,20.0,260,9,,10.0,30.050198,,,TRUE,TRUE,,,,,,,SCT,800,OVC,1400,,,,,MVFR,,,,,,,,,,,,SPECI,136.0
CYSC 160704Z AUTO 24005KT 9SM -RA CLR 12/04 A2967 RMK SLP053 DENSITY ALT 1000FT,CYSC,2023-05-16T07:04:00Z,45.43,-71.68,12.0,4.0,240,5,,9.0,29.66929,1005.3,,TRUE,,,,,,,-RA,CLR,,,,,,,,VFR,,,,,,,,,,,,SPECI,236.0
CYRQ 160704Z AUTO 27005KT 9SM -RA BKN060 OVC077 12/10 A2965 RMK SLP045,CYRQ,2023-05-16T07:04:00Z,46.35,-72.68,12.0,10.0,270,5,,9.0,29.648623,1004.5,,TRUE,,,,,,,-RA,BKN,6000,OVC,7700,,,,,VFR,,,,,,,,,,,,SPECI,58.0
KSXS 160703Z AUTO 00000KT 10SM CLR 21/20 A3003 RMK AO2 PRESFR SLP167,KSXS,2023-05-16T07:03:00Z,31.37,-85.85,21.0,20.0,0,0,,10.0,30.029528,1016.7,,TRUE,TRUE,,,,,,,CLR,,,,,,,,VFR,,,,,,,,,,,,METAR,120.0
KRSL 160703Z AUTO 32005KT 10SM BKN013 OVC028 13/11 A3019 RMK AO2 T01280106,KRSL,2023-05-16T07:03:00Z,38.87,-98.82,12.8,10.6,320,5,,10.0,30.188976,,,TRUE,TRUE,,,,,,,BKN,1300,OVC,2800,,,,,MVFR,,,,,,,,,,,,SPECI,569.0
KPWA 160703Z AUTO 35006KT 10SM BKN014 16/14 A3014 RMK AO2 T01610144,KPWA,2023-05-16T07:03:00Z,35.53,-97.65,16.1,14.4,350,6,,10.0,30.138779,,,TRUE,TRUE,,,,,,,BKN,1400,,,,,,,MVFR,,,,,,,,,,,,SPECI,390.0
KLVJ 160703Z AUTO 32005KT 9SM FEW009 SCT025 23/21 A3009 RMK AO2 T02330211,KLVJ,2023-05-16T07:03:00Z,29.52,-95.25,23.3,21.1,320,5,,9.0,30.088583,,,TRUE,TRUE,,,,,,,FEW,900,SCT,2500,,,,,VFR,,,,,,,,,,,,SPECI,11.0
KEWK 160703Z AUTO 33010KT 10SM OVC005 13/13 A3017 RMK AO2 CIG 003V007,KEWK,2023-05-16T07:03:00Z,38.05,-97.27,13.0,13.0,330,10,,10.0,30.171259,,,TRUE,TRUE,,,,,,,OVC,500,,,,,,,IFR,,,,,,,,,,,,METAR,468.0
KCLL 160703Z AUTO 16003KT 10SM SCT001 21/19 A3008 RMK AO2 T02060194,KCLL,2023-05-16T07:03:00Z,30.58,-96.37,20.6,19.4,160,3,,10.0,30.079725,,,TRUE,TRUE,,,,,,,SCT,100,,,,,,,VFR,,,,,,,,,,,,SPECI,96.0
KBLF 160703Z AUTO 25003KT 10SM SCT014 BKN060 OVC075 14/14 A3009 RMK AO2 T01440139,KBLF,2023-05-16T07:03:00Z,37.3,-81.2,14.4,13.9,250,3,,10.0,30.088583,,,TRUE,TRUE,,,,,,,SCT,1400,BKN,6000,OVC,7500,,,VFR,,,,,,,,,,,,SPECI,871.0
PAYA 160702Z AUTO 29005KT 1 1/4SM BR OVC002 06/06 A3031 RMK AO2 T00610056 TSNO $,PAYA,2023-05-16T07:02:00Z,59.52,-139.67,6.1,5.6,290,5,,1.25,30.31004,,,TRUE,TRUE,TRUE,,TRUE,,,BR,OVC,200,,,,,,,LIFR,,,,,,,,,,,,SPECI,9.0
GMMN 160702Z 18004KT 3000 BR BKN008 13/12 Q1015 NOSIG,GMMN,2023-05-16T07:02:00Z,33.37,-7.58,13.0,12.0,180,4,,1.86,29.970472,,,,,,TRUE,,,,BR,BKN,800,,,,,,,IFR,,,,,,,,,,,,METAR,196.0
VIDN 160701Z 31005KT 6000 BKN080 36/02 Q1006,VIDN,2023-05-16T07:01:00Z,30.2,78.18,36.0,2.0,310,5,,3.73,29.704725,,,,,,,,,,,BKN,8000,,,,,,,MVFR,,,,,,,,,,,,METAR,550.0
PAFS 160701Z AUTO 12007KT 080V170 10SM CLR 10/M01 A2999 RMK AO2 SLP162 T01001006,PAFS,2023-05-16T07:01:00Z,63.02,-154.35,10.0,-0.6,120,7,,10.0,29.991142,1016.2,,TRUE,TRUE,,,,,,,CLR,,,,,,,,VFR,,,,,,,,,,,,SPECI,131.0
ORBI 160701Z 30007KT 260V340 CAVOK 28/07 Q1010,ORBI,2023-05-16T07:01:00Z,33.27,44.23,28.0,7.0,300,7,,6.21,29.822834,,,,,,,,,,,CAVOK,,,,,,,,VFR,,,,,,,,,,,,METAR,37.0
KMHK 160701Z AUTO 00000KT 5SM BR BKN023 OVC036 13/12 A3015 RMK AO2 T01330117,KMHK,2023-05-16T07:01:00Z,39.13,-96.68,13.3,11.7,0,0,,5.0,30.15059,,,TRUE,TRUE,,,,,,BR,BKN,2300,OVC,3600,,,,,MVFR,,,,,,,,,,,,METAR,320.0
ZYTX 160700Z 20010MPS 160V220 CAVOK 30/16 Q0997 NOSIG,ZYTX,2023-05-16T07:00:00Z,41.63,123.48,30.0,16.0,200,19,,6.21,29.438976,,,,,,TRUE,,,,,CAVOK,,,,,,,,VFR,,,,,,,,,,,,METAR,56.0
ZYTL 160700Z 17005MPS 120V210 CAVOK 29/13 Q1001 NOSIG,ZYTL,2023-05-16T07:00:00Z,38.97,121.55,29.0,13.0,170,10,,6.21,29.557087,,,,,,TRUE,,,,,CAVOK,,,,,,,,VFR,,,,,,,,,,,,METAR,33.0
ZYHB 160700Z 04005MPS 9999 -SHRA BKN040 12/00 Q0999 NOSIG,ZYHB,2023-05-16T07:00:00Z,45.62,126.25,12.0,0.0,40,10,,6.21,29.498032,,,,,,TRUE,,,,-SHRA,BKN,4000,,,,,,,VFR,,,,,,,,,,,,METAR,134.0
ZYCC 160700Z 33002MPS 270V010 6000 -TSRA FEW026CB BKN026 20/16 Q0994 BECMG TL0830 NSW,ZYCC,2023-05-16T07:00:00Z,43.98,125.68,20.0,16.0,330,4,,3.73,29.350393,,,,,,,,,,-TSRA,FEW,2600,BKN,2600,,,,,MVFR,,,,,,,,,,,,SPECI,211.0
ZWWW 160700Z 04003MPS 350V080 CAVOK 20/06 Q1014 NOSIG,ZWWW,2023-05-16T07:00:00Z,43.9,87.47,20.0,6.0,40,6,,6.21,29.940945,,,,,,TRUE,,,,,CAVOK,,,,,,,,VFR,,,,,,,,,,,,METAR,654.0
ZWSH 160700Z 18005MPS 120V260 CAVOK 31/M07 Q1009 NOSIG,ZWSH,2023-05-16T07:00:00Z,39.55,76.02,31.0,-7.0,180,10,,6.21,29.793306,,,,,,TRUE,,,,,CAVOK,,,,,,,,VFR,,,,,,,,,,,,METAR,1374.0
ZUUU 160700Z 09002MPS 340V150 7000 SCT030 30/15 Q1002 NOSIG,ZUUU,2023-05-16T07:00:00Z,30.58,103.95,30.0,15.0,90,4,,4.35,29.586615,,,,,,TRUE,,,,,SCT,3000,,,,,,,MVFR,,,,,,,,,,,,METAR,494.0
ZUTF 160700Z VRB01MPS 9999 SCT026 31/14 Q1002 NOSIG,ZUTF,2023-05-16T07:00:00Z,30.3,104.43,31.0,14.0,0,2,,6.21,29.586615,,,,,,TRUE,,,,,SCT,2600,,,,,,,VFR,,,,,,,,,,,,METAR,443.0
ZUGY 160700Z 20004MPS 9999 FEW033TCU BKN040 28/17 Q1005 NOSIG,ZUGY,2023-05-16T07:00:00Z,26.53,106.8,28.0,17.0,200,8,,6.21,29.675198,,,,,,TRUE,,,,,FEW,3300,BKN,4000,,,,,VFR,,,,,,,,,,,,METAR,1130.0
ZUCK 160700Z VRB02MPS 9999 SCT033 26/18 Q1002 NOSIG,ZUCK,2023-05-16T07:00:00Z,29.72,106.63,26.0,18.0,0,4,,6.21,29.586615,,,,,,TRUE,,,,,SCT,3300,,,,,,,VFR,,,,,,,,,,,,METAR,416.0
ZSSS 160700Z 15008MPS CAVOK 30/18 Q1007 NOSIG,ZSSS,2023-05-16T07:00:00Z,31.2,121.33,30.0,18.0,150,16,,6.21,29.734253,,,,,,TRUE,,,,,CAVOK,,,,,,,,VFR,,,,,,,,,,,,METAR,2.0
ZSQD 160700Z 16008MPS CAVOK 30/15 Q1002 NOSIG,ZSQD,2023-05-16T07:00:00Z,36.27,120.38,30.0,15.0,160,16,,6.21,29.586615,,,,,,TRUE,,,,,CAVOK,,,,,,,,VFR,,,,,,,,,,,,METAR,8.0
ZSPD 160700Z 17010MPS CAVOK 28/19 Q1008 NOSIG,ZSPD,2023-05-16T07:00:00Z,31.15,121.8,28.0,19.0,170,19,,6.21,29.763779,,,,,,TRUE,,,,,CAVOK,,,,,,,,VFR,,,,,,,,,,,,METAR,4.0
ZSOF 160700Z 16007MPS CAVOK 30/16 Q1003 NOSIG,ZSOF,2023-05-16T07:00:00Z,31.98,116.97,30.0,16.0,160,14,,6.21,29.616142,,,,,,TRUE,,,,,CAVOK,,,,,,,,VFR,,,,,,,,,,,,METAR,23.0
ZSNJ 160700Z 20004MPS 170V240 CAVOK 32/15 Q1004 NOSIG,ZSNJ,2023-05-16T07:00:00Z,31.75,118.87,32.0,15.0,200,8,,6.21,29.64567,,,,,,TRUE,,,,,CAVOK,,,,,,,,VFR,,,,,,,,,,,,METAR,27.0
ZSNB 160700Z 16009MPS 9999 FEW030 30/19 Q1008 NOSIG,ZSNB,2023-05-16T07:00:00Z,29.83,121.47,30.0,19.0,160,17,,6.21,29.763779,,,,,,TRUE,,,,,FEW,3000,,,,,,,VFR,,,,,,,,,,,,METAR,5.0
ZSHC 160700Z 19006MPS 160V230 CAVOK 32/12 Q1006 NOSIG,ZSHC,2023-05-16T07:00:00Z,30.22,120.43,32.0,12.0,190,12,,6.21,29.704725,,,,,,TRUE,,,,,CAVOK,,,,,,,,VFR,,,,,,,,,,,,METAR,8.0
ZSFZ 160700Z 08003MPS CAVOK 25/21 Q1009 NOSIG,ZSFZ,2023-05-16T07:00:00Z,25.93,119.67,25.0,21.0,80,6,,6.21,29.793306,,,,,,TRUE,,,,,CAVOK,,,,,,,,VFR,,,,,,,,,,,,METAR,14.0
ZSAM 160700Z 12004MPS 9999 SCT033 28/22 Q1008 NOSIG,ZSAM,2023-05-16T07:00:00Z,24.53,118.13,28.0,22.0,120,8,,6.21,29.763779,,,,,,TRUE,,,,,SCT,3300,,,,,,,VFR,,,,,,,,,,,,METAR,13.0
ZPPP 160700Z 25009G14MPS 220V280 9999 BKN030 24/09 Q1015 NOSIG,ZPPP,2023-05-16T07:00:00Z,25.0,102.65,24.0,9.0,250,17,27,6.21,29.970472,,,,,,TRUE,,,,,BKN,3000,,,,,,,MVFR,,,,,,,,,,,,METAR,1885.0
ZMUB 160700Z 35007MPS 310V030 9999 FEW030CB 08/M08 Q1009 NOSIG RMK QFE650.6 30 MOP,ZMUB,2023-05-16T07:00:00Z,47.83,106.75,8.0,-8.0,350,14,,6.21,29.793306,,,,,,TRUE,,,,,FEW,3000,,,,,,,VFR,,,,,,,,,,,,METAR,1300.0
ZMCK 160700Z 34007G12MPS 310V020 9999 SCT033 09/M04 Q1009 NOSIG RMK QFE642.3 40 MOP,ZMCK,2023-05-16T07:00:00Z,47.65,106.82,9.0,-4.0,340,14,23,6.21,29.793306,,,,,,TRUE,,,,,SCT,3300,,,,,,,VFR,,,,,,,,,,,,METAR,1366.0
ZLXY 160700Z VRB02G07MPS CAVOK 32/14 Q0999 NOSIG,ZLXY,2023-05-16T07:00:00Z,34.43,108.75,32.0,14.0,0,4,14,6.21,29.498032,,,,,,TRUE,,,,,CAVOK,,,,,,,,VFR,,,,,,,,,,,,METAR,478.0
ZLLL 160700Z 07006MPS 040V110 7000 NSC 25/M01 Q1010 NOSIG,ZLLL,2023-05-16T07:00:00Z,36.52,103.62,25.0,-1.0,70,12,,4.35,29.822834,,,,,,TRUE,,,,,CLR,,,,,,,,MVFR,,,,,,,,,,,,METAR,1939.0
ZJSY 160700Z 19002MPS 140V270 9999 SCT013 SCT023 31/26 Q1007 NOSIG,ZJSY,2023-05-16T07:00:00Z,18.3,109.42,31.0,26.0,190,4,,6.21,29.734253,,,,,,TRUE,,,,,SCT,1300,SCT,2300,,,,,VFR,,,,,,,,,,,,METAR,27.0
ZJHK 160700Z 18002MPS 120V230 9999 FEW033 35/25 Q1005 NOSIG,ZJHK,2023-05-16T07:00:00Z,19.93,110.43,35.0,25.0,180,4,,6.21,29.675198,,,,,,TRUE,,,,,FEW,3300,,,,,,,VFR,,,,,,,,,,,,METAR,21.0
ZHHH 160700Z 11002MPS 010V140 CAVOK 25/18 Q1003 NOSIG,ZHHH,2023-05-16T07:00:00Z,30.78,114.22,25.0,18.0,110,4,,6.21,29.616142,,,,,,TRUE,,,,,CAVOK,,,,,,,,VFR,,,,,,,,,,,,METAR,33.0
ZHCC 160700Z 18004MPS 140V220 CAVOK 30/19 Q1000 NOSIG,ZHCC,2023-05-16T07:00:00Z,34.52,113.83,30.0,19.0,180,8,,6.21,29.52756,,,,,,TRUE,,,,,CAVOK,,,,,,,,VFR,,,,,,,,,,,,METAR,149.0
ZGSZ 160700Z 18006MPS 9999 FEW020 BKN050 27/24 Q1007 NOSIG,ZGSZ,2023-05-16T07:00:00Z,22.63,113.8,27.0,24.0,180,12,,6.21,29.734253,,,,,,TRUE,,,,,FEW,2000,BKN,5000,,,,,VFR,,,,,,,,,,,,METAR,18.0
ZGOW 160700Z 15003MPS 120V190 6000 -SHRA SCT015 OVC026 26/24 Q1008 NOSIG,ZGOW,2023-05-16T07:00:00Z,23.55,116.5,26.0,24.0,150,6,,3.73,29.763779,,,,,,TRUE,,,,-SHRA,SCT,1500,OVC,2600,,,,,MVFR,,,,,,,,,,,,METAR,4.0
ZGNN 160700Z 17004MPS 140V210 9999 FEW033TCU SCT033 32/24 Q1003 NOSIG,ZGNN,2023-05-16T07:00:00Z,22.62,108.17,32.0,24.0,170,8,,6.21,29.616142,,,,,,TRUE,,,,,FEW,3300,SCT,3300,,,,,VFR,,,,,,,,,,,,METAR,128.0
ZGKL 160700Z 19004MPS 9000 -RA SCT026 OVC043 27/23 Q1004 NOSIG,ZGKL,2023-05-16T07:00:00Z,25.22,110.03,27.0,23.0,190,8,,5.59,29.64567,,,,,,TRUE,,,,-RA,SCT,2600,OVC,4300,,,,,VFR,,,,,,,,,,,,METAR,151.0
ZGHA 160700Z 16005MPS CAVOK 26/21 Q1002 NOSIG,ZGHA,2023-05-16T07:00:00Z,28.18,113.22,26.0,21.0,160,10,,6.21,29.586615,,,,,,TRUE,,,,,CAVOK,,,,,,,,VFR,,,,,,,,,,,,METAR,61.0
ZGGG 160700Z 17006MPS 9999 BKN030 28/23 Q1007 NOSIG,ZGGG,2023-05-16T07:00:00Z,23.4,113.3,28.0,23.0,170,12,,6.21,29.734253,,,,,,TRUE,,,,,BKN,3000,,,,,,,MVFR,,,,,,,,,,,,METAR,11.0
ZBYN 160700Z 27005MPS 230V300 9999 FEW040CB 32/04 Q0999 NOSIG,ZBYN,2023-05-16T07:00:00Z,37.73,112.63,32.0,4.0,270,10,,6.21,29.498032,,,,,,TRUE,,,,,FEW,4000,,,,,,,VFR,,,,,,,,,,,,METAR,778.0
ZBTJ 160700Z 20005MPS 170V240 CAVOK 34/19 Q0995 NOSIG,ZBTJ,2023-05-16T07:00:00Z,39.12,117.35,34.0,19.0,200,10,,6.21,29.379921,,,,,,TRUE,,,,,CAVOK,,,,,,,,VFR,,,,,,,,,,,,METAR,4.0
ZBSJ 160700Z 16006MPS CAVOK 33/22 Q0994 NOSIG,ZBSJ,2023-05-16T07:00:00Z,38.28,114.7,33.0,22.0,160,12,,6.21,29.350393,,,,,,TRUE,,,,,CAVOK,,,,,,,,VFR,,,,,,,,,,,,METAR,70.0
ZBHH 160700Z 33007MPS 9999 FEW040 FEW040CB 23/07 Q1003 RETS NOSIG,ZBHH,2023-05-16T07:00:00Z,40.85,111.82,23.0,7.0,330,14,,6.21,29.616142,,,,,,TRUE,,,,,FEW,4000,FEW,4000,,,,,VFR,,,,,,,,,,,,METAR,1081.0
ZBAD 160700Z 19006MPS 150V220 CAVOK 34/21 Q0995 NOSIG,ZBAD,2023-05-16T07:00:00Z,39.5,116.42,34.0,21.0,190,12,,6.21,29.379921,,,,,,TRUE,,,,,CAVOK,,,,,,,,VFR,,,,,,,,,,,,METAR,25.0
ZBAA 160700Z 18006MPS 140V200 CAVOK 34/18 Q0994 NOSIG,ZBAA,2023-05-16T07:00:00Z,40.07,116.6,34.0,18.0,180,12,,6.21,29.350393,,,,,,TRUE,,,,,CAVOK,,,,,,,,VFR,,,,,,,,,,,,METAR,31.0
YWLM 160700Z 19007KT 9999 FEW030 18/14 Q1017,YWLM,2023-05-16T07:00:00Z,-32.8,151.83,18.0,14.0,190,7,,6.21,30.029528,,,,,,,,,,,FEW,3000,,,,,,,VFR,,,,,,,,,,,,METAR,7.0
YSTW 160700Z AUTO 17008KT 9999 // NCD 17/07 Q1017 RF00.0/000.0,YSTW,2023-05-16T07:00:00Z,-31.08,150.85,17.0,7.0,170,8,,6.21,30.029528,,,TRUE,,,,,,,,CLR,,,,,,,,VFR,,,,,,,,,,,,SPECI,404.0
YSSY 160700Z 15011KT CAVOK 19/10 Q1018,YSSY,2023-05-16T07:00:00Z,-33.95,151.17,19.0,10.0,150,11,,6.21,30.059055,,,,,,,,,,,CAVOK,,,,,,,,VFR,,,,,,,,,,,,METAR,3.0
YSRI 160700Z AUTO 19003KT 9999 // NCD 19/08 Q1017 RF00.0/000.2,YSRI,2023-05-16T07:00:00Z,-33.6,150.77,19.0,8.0,190,3,,6.21,30.029528,,,TRUE,,,,,,,,CLR,,,,,,,,VFR,,,,,,,,,,,,METAR,19.0
YSNF 160700Z AUTO 09009KT 9999 // NCD 17/09 Q1020 RF00.0/000.0,YSNF,2023-05-16T07:00:00Z,-29.03,167.93,17.0,9.0,90,9,,6.21,30.11811,,,TRUE,,,,,,,,CLR,,,,,,,,VFR,,,,,,,,,,,,METAR,113.0
YSDU 160700Z AUTO 19009KT 9999 // NCD 17/04 Q1019 RF00.0/000.0,YSDU,2023-05-16T07:00:00Z,-32.22,148.57,17.0,4.0,190,9,,6.21,30.088583,,,TRUE,,,,,,,,CLR,,,,,,,,VFR,,,,,,,,,,,,METAR,285.0
YSCB 160700Z AUTO 24008KT 9999 // NCD 14/02 Q1019 RF00.0/000.0,YSCB,2023-05-16T07:00:00Z,-35.3,149.18,14.0,2.0,240,8,,6.21,30.088583,,,TRUE,,,,,,,,CLR,,,,,,,,VFR,,,,,,,,,,,,METAR,577.0
YPXM 160700Z AUTO 09009KT 9999 // BKN024 BKN032 BKN041 27/21 Q1014,YPXM,2023-05-16T07:00:00Z,-10.45,105.68,27.0,21.0,90,9,,6.21,29.940945,,,TRUE,,,,,,,,BKN,2400,BKN,3200,BKN,4100,,,MVFR,,,,,,,,,,,,METAR,262.0
YPWR 160700Z AUTO 19013KT 9999 // NCD 20/07 Q1025 RF00.0/000.0,YPWR,2023-05-16T07:00:00Z,-31.15,136.82,20.0,7.0,190,13,,6.21,30.265747,,,TRUE,,,,,,,,CLR,,,,,,,,VFR,,,,,,,,,,,,METAR,169.0
YPTN 160700Z AUTO 15011KT 9999 // SCT080 32/14 Q1013 RF00.0/000.0,YPTN,2023-05-16T07:00:00Z,-14.52,132.38,32.0,14.0,150,11,,6.21,29.911417,,,TRUE,,,,,,,,SCT,8000,,,,,,,VFR,,,,,,,,,,,,METAR,135.0
YPPH 160700Z 09008KT CAVOK 22/09 Q1024,YPPH,2023-05-16T07:00:00Z,-31.93,115.98,22.0,9.0,90,8,,6.21,30.236221,,,,,,,,,,,CAVOK,,,,,,,,VFR,,,,,,,,,,,,METAR,16.0
YPPD 160700Z AUTO 34010KT 9999 // NCD 30/04 Q1015 RF00.0/000.0,YPPD,2023-05-16T07:00:00Z,-20.37,118.62,30.0,4.0,340,10,,6.21,29.970472,,,TRUE,,,,,,,,CLR,,,,,,,,VFR,,,,,,,,,,,,METAR,6.0
YPLM 160700Z AUTO 03009KT 9999 // NCD 26/08 Q1016 RF00.0/000.0,YPLM,2023-05-16T07:00:00Z,-22.23,114.08,26.0,8.0,30,9,,6.21,30.0,,,TRUE,,,,,,,,CLR,,,,,,,,VFR,,,,,,,,,,,,METAR,5.0
YPKU 160700Z AUTO 15010KT 9999 // ////// 32/13 Q1013 RF00.0/000.0,YPKU,2023-05-16T07:00:00Z,-15.77,128.7,32.0,13.0,150,10,,6.21,29.911417,,,TRUE,,,,,,,,,,,,,,,,,,,,,,,,,,,,SPECI,42.0
YPKG 160700Z AUTO 11010KT 9999 // NCD 21/09 Q1025 RF00.0/000.0,YPKG,2023-05-16T07:00:00Z,-30.78,121.45,21.0,9.0,110,10,,6.21,30.265747,,,TRUE,,,,,,,,CLR,,,,,,,,VFR,,,,,,,,,,,,SPECI,372.0
YPJT 160700Z AUTO 06007KT 9999 // SCT071 24/10 Q1024 RF00.0/000.0,YPJT,2023-05-16T07:00:00Z,-32.1,115.88,24.0,10.0,60,7,,6.21,30.236221,,,TRUE,,,,,,,,SCT,7100,,,,,,,VFR,,,,,,,,,,,,METAR,29.0
YPGV 160700Z AUTO 16012KT 9999 // SCT017 BKN031 BKN066 28/24 Q1012,YPGV,2023-05-16T07:00:00Z,-12.27,136.82,28.0,24.0,160,12,,6.21,29.88189,,,TRUE,,,,,,,,SCT,1700,BKN,3100,BKN,6600,,,VFR,,,,,,,,,,,,SPECI,53.0
YPEA 160700Z 09007KT CAVOK 22/08 Q1023,YPEA,2023-05-16T07:00:00Z,-31.67,116.02,22.0,8.0,90,7,,6.21,30.206694,,,,,,,,,,,CAVOK,,,,,,,,VFR,,,,,,,,,,,,METAR,38.0
YPDN 160700Z 35007KT CAVOK 32/20 Q1011,YPDN,2023-05-16T07:00:00Z,-12.42,130.9,32.0,20.0,350,7,,6.21,29.852362,,,,,,,,,,,CAVOK,,,,,,,,VFR,,,,,,,,,,,,METAR,32.0
YPAD 160700Z 15009KT 9999 FEW017 BKN050 15/10 Q1026 RF00.0/001.0,YPAD,2023-05-16T07:00:00Z,-34.95,138.52,15.0,10.0,150,9,,6.21,30.295275,,,,,,,,,,,FEW,1700,BKN,5000,,,,,VFR,,,,,,,,,,,,METAR,2.0
YMML 160700Z 19009KT 9999 FEW024 11/04 Q1025,YMML,2023-05-16T07:00:00Z,-37.67,144.82,11.0,4.0,190,9,,6.21,30.265747,,,,,,,,,,,FEW,2400,,,,,,,VFR,,,,,,,,,,,,METAR,115.0
YMLT 160700Z AUTO 22007KT 9999 // NCD 08/M01 Q1023 RF00.0/000.0,YMLT,2023-05-16T07:00:00Z,-41.53,147.2,8.0,-1.0,220,7,,6.21,30.206694,,,TRUE,,,,,,,,CLR,,,,,,,,VFR,,,,,,,,,,,,SPECI,167.0
YMAV 160700Z AUTO 19010KT 9999 // SCT072 11/05 Q1025 RF00.0/000.0,YMAV,2023-05-16T07:00:00Z,-38.03,144.48,11.0,5.0,190,10,,6.21,30.265747,,,TRUE,,,,,,,,SCT,7200,,,,,,,VFR,,,,,,,,,,,,SPECI,11.0
YHID 160700Z AUTO 12008KT 9999 // NCD 28/24 Q1010 RF00.0/000.0 DL-W/DL-NW,YHID,2023-05-16T07:00:00Z,-10.58,142.3,28.0,24.0,120,8,,6.21,29.822834,,,TRUE,,,,,,,,CLR,,,,,,,,VFR,,,,,,,,,,,,METAR,5.0
YGLA 160700Z AUTO 23008KT 9999 // NCD 24/12 Q1013 RF00.0/000.0,YGLA,2023-05-16T07:00:00Z,-23.87,151.22,24.0,12.0,230,8,,6.21,29.911417,,,TRUE,,,,,,,,CLR,,,,,,,,VFR,,,,,,,,,,,,METAR,17.0
YGEL 160700Z AUTO 16010G21KT 9999 // NCD 26/08 Q1020 RF00.0/000.0,YGEL,2023-05-16T07:00:00Z,-28.8,114.7,26.0,8.0,160,10,21,6.21,30.11811,,,TRUE,,,,,,,,CLR,,,,,,,,VFR,,,,,,,,,,,,METAR,32.0
YFRT 160700Z AUTO 17009KT 9999 // SCT049 20/08 Q1027 RF00.0/000.0,YFRT,2023-05-16T07:00:00Z,-30.83,128.12,20.0,8.0,170,9,,6.21,30.324802,,,TRUE,,,,,,,,SCT,4900,,,,,,,VFR,,,,,,,,,,,,SPECI,159.0
YCIN 160700Z AUTO 05008KT 030V090 9999 // NCD 33/08 Q1012 RF00.0/000.0,YCIN,2023-05-16T07:00:00Z,-17.58,123.83,33.0,8.0,50,8,,6.21,29.88189,,,TRUE,,,,,,,,CLR,,,,,,,,VFR,,,,,,,,,,,,SPECI,83.0
YCFS 160700Z AUTO 22011KT 9999 // ////// 18/14 Q1015 RF00.0/005.0,YCFS,2023-05-16T07:00:00Z,-30.32,153.12,18.0,14.0,220,11,,6.21,29.970472,,,TRUE,,,,,,,,,,,,,,,,,,,,,,,,,,,,METAR,2.0
YBWW 160700Z AUTO 22008KT 9999 // NCD 16/12 Q1015 RF00.0/000.4,YBWW,2023-05-16T07:00:00Z,-27.55,151.8,16.0,12.0,220,8,,6.21,29.970472,,,TRUE,,,,,,,,CLR,,,,,,,,VFR,,,,,,,,,,,,METAR,460.0
YBTL 160700Z 31005KT 9999 FEW040 28/22 Q1012,YBTL,2023-05-16T07:00:00Z,-19.25,146.75,28.0,22.0,310,5,,6.21,29.88189,,,,,,,,,,,FEW,4000,,,,,,,VFR,,,,,,,,,,,,METAR,4.0
YBSU 160700Z AUTO 19011KT 9999 // SCT039 OVC058 18/13 Q1014,YBSU,2023-05-16T07:00:00Z,-26.6,153.08,18.0,13.0,190,11,,6.21,29.940945,,,TRUE,,,,,,,,SCT,3900,OVC,5800,,,,,VFR,,,,,,,,,,,,METAR,4.0
YBRM 160700Z AUTO 11007KT 9999 // NCD 32/08 Q1013 RF00.0/000.0,YBRM,2023-05-16T07:00:00Z,-17.93,122.23,32.0,8.0,110,7,,6.21,29.911417,,,TRUE,,,,,,,,CLR,,,,,,,,VFR,,,,,,,,,,,,METAR,11.0
YBRK 160700Z AUTO 22011KT 9999 // NCD 25/13 Q1014 RF00.0/001.4,YBRK,2023-05-16T07:00:00Z,-23.37,150.47,25.0,13.0,220,11,,6.21,29.940945,,,TRUE,,,,,,,,CLR,,,,,,,,VFR,,,,,,,,,,,,METAR,10.0
YBMA 160700Z AUTO 19012KT 9999 // SCT075 27/09 Q1017 RF00.0/000.0,YBMA,2023-05-16T07:00:00Z,-20.67,139.48,27.0,9.0,190,12,,6.21,30.029528,,,TRUE,,,,,,,,SCT,7500,,,,,,,VFR,,,,,,,,,,,,METAR,346.0
YBLN 160700Z AUTO 34006KT 300V360 9999 // NCD 21/10 Q1025 RF00.0/000.0,YBLN,2023-05-16T07:00:00Z,-33.68,115.4,21.0,10.0,340,6,,6.21,30.265747,,,TRUE,,,,,,,,CLR,,,,,,,,VFR,,,,,,,,,,,,METAR,17.0
YBHM 160700Z AUTO 10009KT 9999 // NCD 24/21 Q1013 RF00.0/000.0,YBHM,2023-05-16T07:00:00Z,-20.35,148.95,24.0,21.0,100,9,,6.21,29.911417,,,TRUE,,,,,,,,CLR,,,,,,,,VFR,,,,,,,,,,,,SPECI,4.0
YBCS 160700Z AUTO 13008KT 9999 // SCT034 28/21 Q1012 RF00.0/000.0,YBCS,2023-05-16T07:00:00Z,-16.87,145.75,28.0,21.0,130,8,,6.21,29.88189,,,TRUE,,,,,,,,SCT,3400,,,,,,,VFR,,,,,,,,,,,,METAR,2.0
YBCG 160700Z AUTO 19009KT 9999 -RA BKN094 BKN110 16/14 Q1013 RERA,YBCG,2023-05-16T07:00:00Z,-28.17,153.5,16.0,14.0,190,9,,6.21,29.911417,,,TRUE,,,,,,,-RA,BKN,9400,BKN,11000,,,,,VFR,,,,,,,,,,,,METAR,5.0
YBAS 160700Z AUTO 14012KT 9999 // SCT061 20/05 Q1022 RF00.0/000.0,YBAS,2023-05-16T07:00:00Z,-23.8,133.9,20.0,5.0,140,12,,6.21,30.177166,,,TRUE,,,,,,,,SCT,6100,,,,,,,VFR,,,,,,,,,,,,METAR,549.0
YAMB 160700Z 18006KT 9999 SCT040 SCT100 18/13 Q1014 RF00.0/001.0,YAMB,2023-05-16T07:00:00Z,-27.63,152.72,18.0,13.0,180,6,,6.21,29.940945,,,,,,,,,,,SCT,4000,SCT,10000,,,,,VFR,,,,,,,,,,,,SPECI,26.0
WSSS 160700Z 15007KT 9999 FEW020TCU BKN160 28/24 Q1010 NOSIG,WSSS,2023-05-16T07:00:00Z,1.37,103.97,28.0,24.0,150,7,,6.21,29.822834,,,,,,TRUE,,,,,FEW,2000,BKN,16000,,,,,VFR,,,,,,,,,,,,METAR,17.0
WSSL 160700Z 17005KT 110V200 9999 FEW018 BKN160 29/24 Q1010,WSSL,2023-05-16T07:00:00Z,1.42,103.87,29.0,24.0,170,5,,6.21,29.822834,,,,,,,,,,,FEW,1800,BKN,16000,,,,,VFR,,,,,,,,,,,,METAR,11.0
WSAP 160700Z 09004KT 9999 FEW018 BKN150 29/23 Q1011,WSAP,2023-05-16T07:00:00Z,1.37,103.92,29.0,23.0,90,4,,6.21,29.852362,,,,,,,,,,,FEW,1800,BKN,15000,,,,,VFR,,,,,,,,,,,,METAR,20.0
WMSA 160700Z 15007KT 100V190 9999 FEW018 34/24 Q1010,WMSA,2023-05-16T07:00:00Z,3.13,101.55,34.0,24.0,150,7,,6.21,29.822834,,,,,,,,,,,FEW,1800,,,,,,,VFR,,,,,,,,,,,,METAR,19.0
WMKP 160700Z 21007KT 170V260 9999 FEW020 33/26 Q1009 NOSIG,WMKP,2023-05-16T07:00:00Z,5.28,100.27,33.0,26.0,210,7,,6.21,29.793306,,,,,,TRUE,,,,,FEW,2000,,,,,,,VFR,,,,,,,,,,,,METAR,4.0
WMKN 160700Z 06006KT 350V160 9999 FEW020 33/26 Q1009,WMKN,2023-05-16T07:00:00Z,5.37,103.1,33.0,26.0,60,6,,6.21,29.793306,,,,,,,,,,,FEW,2000,,,,,,,VFR,,,,,,,,,,,,METAR,12.0
WMKM 160700Z 26004KT 170V340 9999 FEW020 34/24 Q1010,WMKM,2023-05-16T07:00:00Z,2.27,102.25,34.0,24.0,260,4,,6.21,29.822834,,,,,,,,,,,FEW,2000,,,,,,,VFR,,,,,,,,,,,,METAR,9.0
WMKL 160700Z 05003KT 350V100 9999 FEW017CB SCT020 29/24 Q1010 RETS,WMKL,2023-05-16T07:00:00Z,6.32,99.72,29.0,24.0,50,3,,6.21,29.822834,,,,,,,,,,,FEW,1700,SCT,2000,,,,,VFR,,,,,,,,,,,,METAR,4.0
WMKK 160700Z VRB04KT 9999 FEW017CB 33/24 Q1010 NOSIG,WMKK,2023-05-16T07:00:00Z,2.75,101.72,33.0,24.0,0,4,,6.21,29.822834,,,,,,TRUE,,,,,FEW,1700,,,,,,,VFR,,,,,,,,,,,,METAR,21.0
WMKJ 160700Z VRB04KT 9999 FEW018 31/25 Q1010,WMKJ,2023-05-16T07:00:00Z,1.63,103.67,31.0,25.0,0,4,,6.21,29.822834,,,,,,,,,,,FEW,1800,,,,,,,VFR,,,,,,,,,,,,METAR,38.0
WMKI 160700Z 23007G17KT 160V290 9000 FEW017CB 35/25 Q1009,WMKI,2023-05-16T07:00:00Z,4.57,101.08,35.0,25.0,230,7,17,5.59,29.793306,,,,,,,,,,,FEW,1700,,,,,,,VFR,,,,,,,,,,,,METAR,37.0
WMKE 160700Z 12007KT 030V190 9999 FEW014CB 32/26 Q1009,WMKE,2023-05-16T07:00:00Z,4.53,103.43,32.0,26.0,120,7,,6.21,29.793306,,,,,,,,,,,FEW,1400,,,,,,,VFR,,,,,,,,,,,,METAR,5.0
WMKD 160700Z 17004KT 090V260 9999 FEW020 34/24 Q1009 NOSIG,WMKD,2023-05-16T07:00:00Z,3.77,103.22,34.0,24.0,170,4,,6.21,29.793306,,,,,,TRUE,,,,,FEW,2000,,,,,,,VFR,,,,,,,,,,,,METAR,18.0
WMKC 160700Z 04008KT 010V100 9999 FEW018 33/26 Q1009,WMKC,2023-05-16T07:00:00Z,6.17,102.28,33.0,26.0,40,8,,6.21,29.793306,,,,,,,,,,,FEW,1800,,,,,,,VFR,,,,,,,,,,,,METAR,7.0
WMKB 160700Z 27006KT 190V340 9000 FEW020 34/27 Q1009 NOSIG,WMKB,2023-05-16T07:00:00Z,5.47,100.38,34.0,27.0,270,6,,5.59,29.793306,,,,,,TRUE,,,,,FEW,2000,,,,,,,VFR,,,,,,,,,,,,METAR,4.0
WMKA 160700Z 27005KT 200V320 9999 FEW020 33/27 Q1009,WMKA,2023-05-16T07:00:00Z,6.2,100.4,33.0,27.0,270,5,,6.21,29.793306,,,,,,,,,,,FEW,2000,,,,,,,VFR,,,,,,,,,,,,METAR,5.0
WMBA 160700Z VRB03KT 9999 FEW021 34/24 Q1009,WMBA,2023-05-16T07:00:00Z,4.22,100.7,34.0,24.0,0,3,,6.21,29.793306,,,,,,,,,,,FEW,2100,,,,,,,VFR,,,,,,,,,,,,METAR,9.0
WMAU 160700Z 13007KT 110V240 9000 TS FEW017CB 30/25 Q1011,WMAU,2023-05-16T07:00:00Z,2.38,103.88,30.0,25.0,130,7,,5.59,29.852362,,,,,,,,,,TS,FEW,1700,,,,,,,VFR,,,,,,,,,,,,METAR,5.0
WIPP 160700Z 16003KT 060V220 9999 BKN010 SCT036 31/25 Q1009 NOSIG,WIPP,2023-05-16T07:00:00Z,-2.88,104.7,31.0,25.0,160,3,,6.21,29.793306,,,,,,TRUE,,,,,BKN,1000,SCT,3600,,,,,MVFR,,,,,,,,,,,,METAR,7.0
WIOO 160700Z 28013KT 8000 -RA FEW011CB BKN012 30/23 Q1010 NOSIG,WIOO,2023-05-16T07:00:00Z,-0.15,109.4,30.0,23.0,280,13,,4.97,29.822834,,,,,,TRUE,,,,-RA,FEW,1100,BKN,1200,,,,,MVFR,,,,,,,,,,,,METAR,4.0
WIMM 160700Z 03009KT 9999 SCT017 33/25 Q1009 NOSIG,WIMM,2023-05-16T07:00:00Z,3.57,98.67,33.0,25.0,30,9,,6.21,29.793306,,,,,,TRUE,,,,,SCT,1700,,,,,,,VFR,,,,,,,,,,,,METAR,27.0
WIII 160700Z 03010KT 9999 FEW020 33/22 Q1010 NOSIG,WIII,2023-05-16T07:00:00Z,-6.13,106.67,33.0,22.0,30,10,,6.21,29.822834,,,,,,TRUE,,,,,FEW,2000,,,,,,,VFR,,,,,,,,,,,,METAR,9.0
WIHH 160700Z 04009KT 6000 SCT020 33/21 Q1009 NOSIG METAR ,WIHH,2023-05-16T07:00:00Z,-6.27,106.88,33.0,21.0,40,9,,3.73,29.793306,,,,,,TRUE,,,,,SCT,2000,,,,,,,MVFR,,,,,,,,,,,,METAR,26.0
WIEE 160700Z 22004KT 150V290 9999 FEW020 32/26 Q1009,WIEE,2023-05-16T07:00:00Z,-0.78,100.28,32.0,26.0,220,4,,6.21,29.793306,,,,,,,,,,,FEW,2000,,,,,,,VFR,,,,,,,,,,,,METAR,5.0
WIDN 160700Z 00000KT 8000 -RA BKN015 24/24 Q1011,WIDN,2023-05-16T07:00:00Z,0.92,104.53,24.0,24.0,0,0,,4.97,29.852362,,,,,,,,,,-RA,BKN,1500,,,,,,,MVFR,,,,,,,,,,,,METAR,18.0
WIDD 160700Z 18004KT 9999 -RA SCT014 25/24 Q1012 RETS NOSIG,WIDD,2023-05-16T07:00:00Z,1.12,104.12,25.0,24.0,180,4,,6.21,29.88189,,,,,,TRUE,,,,-RA,SCT,1400,,,,,,,VFR,,,,,,,,,,,,METAR,26.0
WBSB 160700Z 33008KT 9999 FEW015 FEW016CB BKN300 32/27 Q1010 NOSIG,WBSB,2023-05-16T07:00:00Z,4.93,114.92,32.0,27.0,330,8,,6.21,29.822834,,,,,,TRUE,,,,,FEW,1500,FEW,1600,BKN,30000,,,VFR,,,,,,,,,,,,METAR,15.0
WBKW 160700Z 16007KT 130V210 9999 VCSH FEW016CB 32/26 Q1009,WBKW,2023-05-16T07:00:00Z,4.32,118.12,32.0,26.0,160,7,,6.21,29.793306,,,,,,,,,,VCSH,FEW,1600,,,,,,,VFR,,,,,,,,,,,,METAR,17.0
WBKT 160700Z 29010KT 240V320 9999 FEW015 32/25 Q1009,WBKT,2023-05-16T07:00:00Z,6.92,116.83,32.0,25.0,290,10,,6.21,29.793306,,,,,,,,,,,FEW,1500,,,,,,,VFR,,,,,,,,,,,,METAR,11.0
WBKS 160700Z 04009KT 9999 FEW016 FEW017CB 32/25 Q1008,WBKS,2023-05-16T07:00:00Z,5.9,118.07,32.0,25.0,40,9,,6.21,29.763779,,,,,,,,,,,FEW,1600,FEW,1700,,,,,VFR,,,,,,,,,,,,METAR,13.0
WBKL 160700Z VRB04KT 9999 FEW015 32/24 Q1010,WBKL,2023-05-16T07:00:00Z,5.3,115.25,32.0,24.0,0,4,,6.21,29.822834,,,,,,,,,,,FEW,1500,,,,,,,VFR,,,,,,,,,,,,METAR,29.0
WBKK 160700Z VRB04KT 9999 FEW015 33/26 Q1009 NOSIG,WBKK,2023-05-16T07:00:00Z,5.93,116.05,33.0,26.0,0,4,,6.21,29.793306,,,,,,TRUE,,,,,FEW,1500,,,,,,,VFR,,,,,,,,,,,,METAR,9.0
WBGY 160700Z VRB03KT 9999 SCT023 34/27 Q1009,WBGY,2023-05-16T07:00:00Z,1.22,111.45,34.0,27.0,0,3,,6.21,29.793306,,,,,,,,,,,SCT,2300,,,,,,,VFR,,,,,,,,,,,,METAR,13.0
WBGS 160700Z 31005KT 260V020 9999 SCT018 33/25 Q1009,WBGS,2023-05-16T07:00:00Z,2.27,111.98,33.0,25.0,310,5,,6.21,29.793306,,,,,,,,,,,SCT,1800,,,,,,,VFR,,,,,,,,,,,,METAR,26.0
WBGR 160700Z 27007KT 200V340 9999 SCT016 30/26 Q1010,WBGR,2023-05-16T07:00:00Z,4.32,113.98,30.0,26.0,270,7,,6.21,29.822834,,,,,,,,,,,SCT,1600,,,,,,,VFR,,,,,,,,,,,,METAR,18.0
WBGG 160700Z 24006KT 170V310 9999 SCT020 35/23 Q1009 NOSIG,WBGG,2023-05-16T07:00:00Z,1.48,110.35,35.0,23.0,240,6,,6.21,29.793306,,,,,,TRUE,,,,,SCT,2000,,,,,,,VFR,,,,,,,,,,,,METAR,26.0
WBGB 160700Z VRB06KT 9999 FEW016 33/27 Q1010,WBGB,2023-05-16T07:00:00Z,3.12,113.02,33.0,27.0,0,6,,6.21,29.822834,,,,,,,,,,,FEW,1600,,,,,,,VFR,,,,,,,,,,,,METAR,34.0
WAYY 160700Z 21003KT 9999 FEW017 30/26 Q1009 NOSIG,WAYY,2023-05-16T07:00:00Z,-4.53,136.88,30.0,26.0,210,3,,6.21,29.793306,,,,,,TRUE,,,,,FEW,1700,,,,,,,VFR,,,,,,,,,,,,METAR,32.0
WATT 160700Z 10007KT 9999 SCT017 29/23 Q1011 NOSIG,WATT,2023-05-16T07:00:00Z,-10.17,123.67,29.0,23.0,100,7,,6.21,29.852362,,,,,,TRUE,,,,,SCT,1700,,,,,,,VFR,,,,,,,,,,,,METAR,104.0
WARR 160700Z 07008KT 9999 SCT020 31/22 Q1010 NOSIG ,WARR,2023-05-16T07:00:00Z,-7.37,112.78,31.0,22.0,70,8,,6.21,29.822834,,,,,,TRUE,,,,,SCT,2000,,,,,,,VFR,,,,,,,,,,,,METAR,3.0
WAQQ 160700Z 06004KT 9999 FEW033 35/24 Q1008,WAQQ,2023-05-16T07:00:00Z,3.33,117.57,35.0,24.0,60,4,,6.21,29.763779,,,,,,,,,,,FEW,3300,,,,,,,VFR,,,,,,,,,,,,METAR,6.0
WAPP 160700Z VRB03KT 9999 FEW017 29/24 Q1010 NOSIG,WAPP,2023-05-16T07:00:00Z,-3.7,128.08,29.0,24.0,0,3,,6.21,29.822834,,,,,,TRUE,,,,,FEW,1700,,,,,,,VFR,,,,,,,,,,,,METAR,20.0
WAOO 160700Z 27008KT 9999 FEW018 34/21 Q1009 NOSIG,WAOO,2023-05-16T07:00:00Z,-3.45,114.77,34.0,21.0,270,8,,6.21,29.793306,,,,,,TRUE,,,,,FEW,1800,,,,,,,VFR,,,,,,,,,,,,METAR,23.0
WAMM 160700Z VRB06KT 9999 FEW019 33/24 Q1009 NOSIG,WAMM,2023-05-16T07:00:00Z,1.55,124.92,33.0,24.0,0,6,,6.21,29.793306,,,,,,TRUE,,,,,FEW,1900,,,,,,,VFR,,,,,,,,,,,,METAR,86.0
WALL 160700Z 20004KT 9999 FEW017 29/26 Q1010 NOSIG,WALL,2023-05-16T07:00:00Z,-1.27,116.9,29.0,26.0,200,4,,6.21,29.822834,,,,,,TRUE,,,,,FEW,1700,,,,,,,VFR,,,,,,,,,,,,METAR,3.0
WAKK 160700Z 26004KT 5000 -RA BKN015 26/25 Q1011 NOSIG,WAKK,2023-05-16T07:00:00Z,-8.52,140.42,26.0,25.0,260,4,,3.11,29.852362,,,,,,TRUE,,,,-RA,BKN,1500,,,,,,,MVFR,,,,,,,,,,,,METAR,5.0
WAJJ 160700Z 30004KT 9999 FEW013 31/24 Q1006 NOSIG,WAJJ,2023-05-16T07:00:00Z,-2.58,140.52,31.0,24.0,300,4,,6.21,29.704725,,,,,,TRUE,,,,,FEW,1300,,,,,,,VFR,,,,,,,,,,,,METAR,93.0
WAHS 160700Z 36010KT 9000 FEW014 32/20 Q1009 NOSIG,WAHS,2023-05-16T07:00:00Z,-6.98,110.38,32.0,20.0,360,10,,5.59,29.793306,,,,,,TRUE,,,,,FEW,1400,,,,,,,VFR,,,,,,,,,,,,METAR,3.0
WADL 160700Z 17009KT 130V210 8000 BKN016 29/21 Q1012 NOSIG,WADL,2023-05-16T07:00:00Z,-8.75,116.28,29.0,21.0,170,9,,4.97,29.88189,,,,,,TRUE,,,,,BKN,1600,,,,,,,MVFR,,,,,,,,,,,,METAR,97.0
WADD 160700Z 16012KT 9999 SCT017 29/22 Q1012 NOSIG,WADD,2023-05-16T07:00:00Z,-8.73,115.17,29.0,22.0,160,12,,6.21,29.88189,,,,,,TRUE,,,,,SCT,1700,,,,,,,VFR,,,,,,,,,,,,METAR,3.0
WABB 160700Z 29011KT 090V290 9999 SCT018 31/25 Q1008 NOSIG,WABB,2023-05-16T07:00:00Z,-1.18,136.12,31.0,25.0,290,11,,6.21,29.763779,,,,,,TRUE,,,,,SCT,1800,,,,,,,VFR,,,,,,,,,,,,METAR,12.0
WAAA 160700Z 19006KT 160V220 9000 VCSH FEW018CB SCT019 29/24 Q1010 NOSIG RMK CB IN APCH,WAAA,2023-05-16T07:00:00Z,-5.07,119.55,29.0,24.0,190,6,,5.59,29.822834,,,,,,TRUE,,,,VCSH,FEW,1800,SCT,1900,,,,,VFR,,,,,,,,,,,,METAR,13.0
VYYY 160700Z 27006KT 7000 BKN015 FEW020CB BKN100 33/25 Q1010 NOSIG,VYYY,2023-05-16T07:00:00Z,16.9,96.13,33.0,25.0,270,6,,4.35,29.822834,,,,,,TRUE,,,,,BKN,1500,FEW,2000,BKN,10000,,,MVFR,,,,,,,,,,,,METAR,31.0
VYNT 160700Z 15006KT 7000 BKN020 FEW024CB BKN110 31/24 Q1009 NOSIG,VYNT,2023-05-16T07:00:00Z,19.62,96.2,31.0,24.0,150,6,,4.35,29.793306,,,,,,TRUE,,,,,BKN,2000,FEW,2400,BKN,11000,,,MVFR,,,,,,,,,,,,METAR,610.0
VVVD 160700Z 21011KT 9999 SCT018 BKN027 30/26 Q1005 NOSIG,VVVD,2023-05-16T07:00:00Z,21.12,107.42,30.0,26.0,210,11,,6.21,29.675198,,,,,,TRUE,,,,,SCT,1800,BKN,2700,,,,,MVFR,,,,,,,,,,,,METAR,8.0
VVTS 160700Z 10005KT 080V140 9999 -SHRA SCT017 FEW020CB 31/28 Q1008 TEMPO TL0725 5000 TSRA,VVTS,2023-05-16T07:00:00Z,10.82,106.67,31.0,28.0,100,5,,6.21,29.763779,,,,,,,,,,-SHRA,SCT,1700,FEW,2000,,,,,VFR,,,,,,,,,,,,SPECI,10.0
VVPQ 160700Z 25007KT 220V290 9999 SCT015 34/25 Q1009 NOSIG,VVPQ,2023-05-16T07:00:00Z,10.23,103.97,34.0,25.0,250,7,,6.21,29.793306,,,,,,TRUE,,,,,SCT,1500,,,,,,,VFR,,,,,,,,,,,,METAR,8.0
VVPB 160700Z 07008KT 9999 FEW015 34/25 Q1007 NOSIG,VVPB,2023-05-16T07:00:00Z,16.38,107.7,34.0,25.0,70,8,,6.21,29.734253,,,,,,TRUE,,,,,FEW,1500,,,,,,,VFR,,,,,,,,,,,,METAR,15.0
VVNB 160700Z 15004KT 080V240 CAVOK 35/24 Q1003 NOSIG,VVNB,2023-05-16T07:00:00Z,21.22,105.8,35.0,24.0,150,4,,6.21,29.616142,,,,,,TRUE,,,,,CAVOK,,,,,,,,VFR,,,,,,,,,,,,METAR,6.0
VVDN 160700Z 09007KT 030V150 9999 FEW015 33/25 Q1006 NOSIG,VVDN,2023-05-16T07:00:00Z,16.03,108.2,33.0,25.0,90,7,,6.21,29.704725,,,,,,TRUE,,,,,FEW,1500,,,,,,,VFR,,,,,,,,,,,,METAR,7.0
VVCT 160700Z 28004KT 220V340 9999 SCT015 FEW017CB 32/24 Q1008 NOSIG,VVCT,2023-05-16T07:00:00Z,10.08,105.72,32.0,24.0,280,4,,6.21,29.763779,,,,,,TRUE,,,,,SCT,1500,FEW,1700,,,,,VFR,,,,,,,,,,,,METAR,6.0
VVCR 160700Z VRB05KT 9999 FEW015 FEW017CB SCT040 34/23 Q1008 NOSIG,VVCR,2023-05-16T07:00:00Z,12.0,109.22,34.0,23.0,0,5,,6.21,29.763779,,,,,,TRUE,,,,,FEW,1500,FEW,1700,SCT,4000,,,VFR,,,,,,,,,,,,METAR,12.0
VVCI 160700Z 16010KT 9999 BKN014 30/26 Q1004 NOSIG,VVCI,2023-05-16T07:00:00Z,20.82,106.73,30.0,26.0,160,10,,6.21,29.64567,,,,,,TRUE,,,,,BKN,1400,,,,,,,MVFR,,,,,,,,,,,,METAR,6.0
VTUW 160700Z 29008KT 250V320 8000 SCT040 36/22 Q1007 NOSIG,VTUW,2023-05-16T07:00:00Z,17.38,104.63,36.0,22.0,290,8,,4.97,29.734253,,,,,,TRUE,,,,,SCT,4000,,,,,,,MVFR,,,,,,,,,,,,METAR,167.0
VTUV 160700Z 22009KT 190V250 9000 SCT030 36/21 Q1008 NOSIG,VTUV,2023-05-16T07:00:00Z,16.12,103.78,36.0,21.0,220,9,,5.59,29.763779,,,,,,TRUE,,,,,SCT,3000,,,,,,,VFR,,,,,,,,,,,,METAR,136.0
VTUU 160700Z 26008G18KT 200V320 9999 FEW040 36/23 Q1008 NOSIG,VTUU,2023-05-16T07:00:00Z,15.25,104.87,36.0,23.0,260,8,18,6.21,29.763779,,,,,,TRUE,,,,,FEW,4000,,,,,,,VFR,,,,,,,,,,,,METAR,119.0
VTUQ 160700Z 26005KT 150V320 9999 SCT035 37/17 Q1009 NOSIG,VTUQ,2023-05-16T07:00:00Z,14.95,102.32,37.0,17.0,260,5,,6.21,29.793306,,,,,,TRUE,,,,,SCT,3500,,,,,,,VFR,,,,,,,,,,,,METAR,225.0
VTUO 160700Z 24005KT 170V310 9000 FEW035 35/19 Q1009 NOSIG,VTUO,2023-05-16T07:00:00Z,15.23,103.25,35.0,19.0,240,5,,5.59,29.793306,,,,,,TRUE,,,,,FEW,3500,,,,,,,VFR,,,,,,,,,,,,METAR,182.0
VTUL 160700Z 27009KT 230V310 9999 BKN030 35/22 Q1008 NOSIG,VTUL,2023-05-16T07:00:00Z,17.43,101.72,35.0,22.0,270,9,,6.21,29.763779,,,,,,TRUE,,,,,BKN,3000,,,,,,,MVFR,,,,,,,,,,,,METAR,257.0
VTUK 160700Z VRB06KT 9999 SCT030 35/21 Q1009 NOSIG,VTUK,2023-05-16T07:00:00Z,16.47,102.78,35.0,21.0,0,6,,6.21,29.793306,,,,,,TRUE,,,,,SCT,3000,,,,,,,VFR,,,,,,,,,,,,METAR,190.0
VTUI 160700Z 24007KT 190V290 9999 FEW040 36/17 Q1007 NOSIG,VTUI,2023-05-16T07:00:00Z,17.2,104.12,36.0,17.0,240,7,,6.21,29.734253,,,,,,TRUE,,,,,FEW,4000,,,,,,,VFR,,,,,,,,,,,,METAR,162.0
VTUD 160700Z 31009KT 280V340 9999 FEW035 35/21 Q1008 NOSIG,VTUD,2023-05-16T07:00:00Z,17.37,102.78,35.0,21.0,310,9,,6.21,29.763779,,,,,,TRUE,,,,,FEW,3500,,,,,,,VFR,,,,,,,,,,,,METAR,177.0
VTSY 160700Z 25007KT 220V300 9999 SCT030 34/24 Q1010 NOSIG,VTSY,2023-05-16T07:00:00Z,5.78,101.15,34.0,24.0,250,7,,6.21,29.822834,,,,,,TRUE,,,,,SCT,3000,,,,,,,VFR,,,,,,,,,,,,METAR,225.0
VTST 160700Z VRB02KT 9999 VCSH FEW030 SCT080 32/25 Q1009 NOSIG,VTST,2023-05-16T07:00:00Z,7.52,99.62,32.0,25.0,0,2,,6.21,29.793306,,,,,,TRUE,,,,VCSH,FEW,3000,SCT,8000,,,,,VFR,,,,,,,,,,,,METAR,17.0
VTSS 160700Z 29003KT 250V310 9999 VCSH FEW018CB SCT020 35/25 Q1009 NOSIG,VTSS,2023-05-16T07:00:00Z,6.92,100.38,35.0,25.0,290,3,,6.21,29.793306,,,,,,TRUE,,,,VCSH,FEW,1800,SCT,2000,,,,,VFR,,,,,,,,,,,,METAR,28.0
VTSR 160700Z 22010KT 9999 SCT025 32/25 Q1010 NOSIG,VTSR,2023-05-16T07:00:00Z,9.78,98.58,32.0,25.0,220,10,,6.21,29.822834,,,,,,TRUE,,,,,SCT,2500,,,,,,,VFR,,,,,,,,,,,,METAR,23.0
VTSP 160700Z 28010KT 250V320 9999 FEW020 33/24 Q1010 NOSIG,VTSP,2023-05-16T07:00:00Z,8.12,98.32,33.0,24.0,280,10,,6.21,29.822834,,,,,,TRUE,,,,,FEW,2000,,,,,,,VFR,,,,,,,,,,,,METAR,12.0
VTSM 160700Z 14008KT 9999 FEW020 34/25 Q1010 NOSIG,VTSM,2023-05-16T07:00:00Z,9.55,100.07,34.0,25.0,140,8,,6.21,29.822834,,,,,,TRUE,,,,,FEW,2000,,,,,,,VFR,,,,,,,,,,,,METAR,12.0
VTSG 160700Z 25007KT 200V290 9999 -RA FEW018CB BKN020 32/26 Q1010 NOSIG,VTSG,2023-05-16T07:00:00Z,8.1,98.98,32.0,26.0,250,7,,6.21,29.822834,,,,,,TRUE,,,,-RA,FEW,1800,BKN,2000,,,,,MVFR,,,,,,,,,,,,METAR,32.0
VTSF 160700Z VRB06KT 9999 TS FEW016CB 36/26 Q1009 NOSIG,VTSF,2023-05-16T07:00:00Z,8.53,99.95,36.0,26.0,0,6,,6.21,29.793306,,,,,,TRUE,,,,TS,FEW,1600,,,,,,,VFR,,,,,,,,,,,,METAR,6.0
VTSE 160700Z 13007KT 100V170 9999 FEW020 33/26 Q1008 NOSIG,VTSE,2023-05-16T07:00:00Z,10.72,99.37,33.0,26.0,130,7,,6.21,29.763779,,,,,,TRUE,,,,,FEW,2000,,,,,,,VFR,,,,,,,,,,,,METAR,8.0
VTSC 160700Z 03010KT 9999 FEW022 33/23 Q1009 NOSIG,VTSC,2023-05-16T07:00:00Z,6.52,101.75,33.0,23.0,30,10,,6.21,29.793306,,,,,,TRUE,,,,,FEW,2200,,,,,,,VFR,,,,,,,,,,,,METAR,5.0
VTSB 160700Z 26005KT 200V340 9999 VCSH FEW018CB SCT020 36/23 Q1008 TEMPO FM0720 TL0740 3000 TSRA,VTSB,2023-05-16T07:00:00Z,9.12,99.15,36.0,23.0,260,5,,6.21,29.763779,,,,,,,,,,VCSH,FEW,1800,SCT,2000,,,,,VFR,,,,,,,,,,,,SPECI,10.0
VTPT 160700Z /////KT 9999 BKN026 31/23 Q1011 NOSIG,VTPT,2023-05-16T07:00:00Z,16.88,99.25,31.0,23.0,,,,6.21,29.852362,,,,,,TRUE,,,,,BKN,2600,,,,,,,MVFR,,,,,,,,,,,,METAR,148.0
VTPP 160700Z 25004KT 170V310 9999 SCT030 35/23 Q1008 NOSIG,VTPP,2023-05-16T07:00:00Z,16.78,100.28,35.0,23.0,250,4,,6.21,29.763779,,,,,,TRUE,,,,,SCT,3000,,,,,,,VFR,,,,,,,,,,,,METAR,45.0
VTPO 160700Z 25009KT 9999 FEW025 BKN100 31/23 Q1009 NOSIG,VTPO,2023-05-16T07:00:00Z,17.23,99.82,31.0,23.0,250,9,,6.21,29.793306,,,,,,TRUE,,,,,FEW,2500,BKN,10000,,,,,VFR,,,,,,,,,,,,METAR,58.0
VTPM 160700Z VRB02KT 9999 SCT025 OVC090 26/24 Q1012 NOSIG,VTPM,2023-05-16T07:00:00Z,16.7,98.53,26.0,24.0,0,2,,6.21,29.88189,,,,,,TRUE,,,,,SCT,2500,OVC,9000,,,,,VFR,,,,,,,,,,,,METAR,211.0
VTPH 160700Z 13007KT 9999 FEW030 33/24 Q1009 NOSIG,VTPH,2023-05-16T07:00:00Z,12.63,99.95,33.0,24.0,130,7,,6.21,29.793306,,,,,,TRUE,,,,,FEW,3000,,,,,,,VFR,,,,,,,,,,,,METAR,12.0
VTPB 160700Z 17003KT 140V220 9999 SCT030 SCT100 34/24 Q1008 NOSIG,VTPB,2023-05-16T07:00:00Z,16.67,101.2,34.0,24.0,170,3,,6.21,29.763779,,,,,,TRUE,,,,,SCT,3000,SCT,10000,,,,,VFR,,,,,,,,,,,,METAR,134.0
VTCT 160700Z 19007KT 150V220 9999 FEW035 32/22 Q1010 NOSIG,VTCT,2023-05-16T07:00:00Z,19.95,99.88,32.0,22.0,190,7,,6.21,29.822834,,,,,,TRUE,,,,,FEW,3500,,,,,,,VFR,,,,,,,,,,,,METAR,389.0
VTCP 160700Z 23007KT 150V260 9999 SCT040 35/23 Q1009 NOSIG,VTCP,2023-05-16T07:00:00Z,18.13,100.17,35.0,23.0,230,7,,6.21,29.793306,,,,,,TRUE,,,,,SCT,4000,,,,,,,VFR,,,,,,,,,,,,METAR,166.0
VTCN 160700Z 21006KT 160V280 9999 FEW030 35/21 Q1008 NOSIG,VTCN,2023-05-16T07:00:00Z,18.82,100.78,35.0,21.0,210,6,,6.21,29.763779,,,,,,TRUE,,,,,FEW,3000,,,,,,,VFR,,,,,,,,,,,,METAR,211.0
VTCL 160700Z 26006KT 190V350 9999 SCT025 34/22 Q1009 NOSIG,VTCL,2023-05-16T07:00:00Z,18.27,99.52,34.0,22.0,260,6,,6.21,29.793306,,,,,,TRUE,,,,,SCT,2500,,,,,,,VFR,,,,,,,,,,,,METAR,240.0
VTCH 160700Z VRB03KT 9999 VCSH FEW020TCU SCT025 33/22 Q1010 NOSIG,VTCH,2023-05-16T07:00:00Z,19.3,97.98,33.0,22.0,0,3,,6.21,29.822834,,,,,,TRUE,,,,VCSH,FEW,2000,SCT,2500,,,,,VFR,,,,,,,,,,,,METAR,266.0
VTCC 160700Z 19007KT 150V220 9999 -RA FEW025CB SCT035 33/21 Q1009 TEMPO 4000 TSRA,VTCC,2023-05-16T07:00:00Z,18.77,98.97,33.0,21.0,190,7,,6.21,29.793306,,,,,,,,,,-RA,FEW,2500,SCT,3500,,,,,VFR,,,,,,,,,,,,SPECI,308.0
VTBU 160700Z 18010KT 8000 FEW020 32/26 Q1010 NOSIG,VTBU,2023-05-16T07:00:00Z,12.68,101.0,32.0,26.0,180,10,,4.97,29.822834,,,,,,TRUE,,,,,FEW,2000,,,,,,,MVFR,,,,,,,,,,,,METAR,12.0
VTBS 160700Z 21007KT 170V240 9999 FEW020 35/20 Q1009 NOSIG,VTBS,2023-05-16T07:00:00Z,13.68,100.75,35.0,20.0,210,7,,6.21,29.793306,,,,,,TRUE,,,,,FEW,2000,,,,,,,VFR,,,,,,,,,,,,METAR,1.0
VTBO 160700Z 24007KT 9000 FEW020 32/26 Q1009,VTBO,2023-05-16T07:00:00Z,12.28,102.32,32.0,26.0,240,7,,5.59,29.793306,,,,,,,,,,,FEW,2000,,,,,,,VFR,,,,,,,,,,,,METAR,25.0
VTBD 160700Z VRB05G21KT 9999 FEW020 37/21 Q1009 NOSIG,VTBD,2023-05-16T07:00:00Z,13.92,100.6,37.0,21.0,0,5,21,6.21,29.793306,,,,,,TRUE,,,,,FEW,2000,,,,,,,VFR,,,,,,,,,,,,METAR,6.0
VRMM 160700Z 29015KT 9999 FEW018 BKN280 31/26 Q1011 NOSIG,VRMM,2023-05-16T07:00:00Z,4.2,73.52,31.0,26.0,290,15,,6.21,29.852362,,,,,,TRUE,,,,,FEW,1800,BKN,28000,,,,,VFR,,,,,,,,,,,,METAR,2.0
VRMH 160700Z 29008KT 9999 FEW018TCU SCT120 BKN250 31/26 Q1012,VRMH,2023-05-16T07:00:00Z,6.75,73.17,31.0,26.0,290,8,,6.21,29.88189,,,,,,,,,,,FEW,1800,SCT,12000,BKN,25000,,,VFR,,,,,,,,,,,,METAR,1.0
VRMG 160700Z 28017KT 9999 FEW017 FEW018CB BKN260 32/26 Q1011 CB NW NOSIG,VRMG,2023-05-16T07:00:00Z,-0.7,73.15,32.0,26.0,280,17,,6.21,29.852362,,,,,,TRUE,,,,,FEW,1700,FEW,1800,BKN,26000,,,VFR,,,,,,,,,,,,METAR,2.0
VQPR 160700Z 15014KT 9999 SCT040 BKN080 24/06 Q1016,VQPR,2023-05-16T07:00:00Z,27.4,89.43,24.0,6.0,150,14,,6.21,30.0,,,,,,,,,,,SCT,4000,BKN,8000,,,,,VFR,,,,,,,,,,,,METAR,2227.0
VOTV 160700Z 29012KT 6000 FEW015 34/26 Q1009 NOSIG,VOTV,2023-05-16T07:00:00Z,8.48,76.92,34.0,26.0,290,12,,3.73,29.793306,,,,,,TRUE,,,,,FEW,1500,,,,,,,MVFR,,,,,,,,,,,,METAR,9.0
VOTK 160700Z 32004KT 6000 FEW020 36/22 Q1008 NOSIG,VOTK,2023-05-16T07:00:00Z,8.72,78.02,36.0,22.0,320,4,,3.73,29.763779,,,,,,TRUE,,,,,FEW,2000,,,,,,,MVFR,,,,,,,,,,,,METAR,25.0
VOSR 160700Z 30015KT 5000 FU FEW020 34/22 Q1011 NOSIG,VOSR,2023-05-16T07:00:00Z,16.0,73.53,34.0,22.0,300,15,,3.11,29.852362,,,,,,TRUE,,,,FU,FEW,2000,,,,,,,MVFR,,,,,,,,,,,,METAR,62.0
VOSM 160700Z 27004KT 7000 FEW020 34/23 Q1010 NOSIG,VOSM,2023-05-16T07:00:00Z,11.78,78.07,34.0,23.0,270,4,,4.35,29.822834,,,,,,TRUE,,,,,FEW,2000,,,,,,,MVFR,,,,,,,,,,,,METAR,301.0
VORY 160700Z 32013KT 6000 NSC 44/22 Q1004 NOSIG,VORY,2023-05-16T07:00:00Z,17.1,81.82,44.0,22.0,320,13,,3.73,29.64567,,,,,,TRUE,,,,,CLR,,,,,,,,MVFR,,,,,,,,,,,,METAR,47.0
VOPC 160700Z 29004KT 6000 FEW020 38/26 Q1008 NOSIG,VOPC,2023-05-16T07:00:00Z,11.97,79.82,38.0,26.0,290,4,,3.73,29.763779,,,,,,TRUE,,,,,FEW,2000,,,,,,,MVFR,,,,,,,,,,,,METAR,43.0
VOMM 160700Z 28008KT 6000 FEW020 39/26 Q1006 NOSIG,VOMM,2023-05-16T07:00:00Z,13.0,80.17,39.0,26.0,280,8,,3.73,29.704725,,,,,,TRUE,,,,,FEW,2000,,,,,,,MVFR,,,,,,,,,,,,METAR,7.0
VOML 160700Z 28012KT 9999 SCT012 33/23 Q1011 NOSIG,VOML,2023-05-16T07:00:00Z,12.97,74.88,33.0,23.0,280,12,,6.21,29.852362,,,,,,TRUE,,,,,SCT,1200,,,,,,,VFR,,,,,,,,,,,,METAR,100.0
VOMD 160700Z 28006KT 7000 NSC 39/23 Q1009 NOSIG,VOMD,2023-05-16T07:00:00Z,9.83,78.08,39.0,23.0,280,6,,4.35,29.793306,,,,,,TRUE,,,,,CLR,,,,,,,,MVFR,,,,,,,,,,,,METAR,135.0
VOKN 160700Z 31007KT 6000 SCT012 34/25 Q1010 NOSIG,VOKN,2023-05-16T07:00:00Z,11.92,75.55,34.0,25.0,310,7,,3.73,29.822834,,,,,,TRUE,,,,,SCT,1200,,,,,,,MVFR,,,,,,,,,,,,METAR,105.0
VOJV 160700Z 30008KT 8000 NSC 34/18 Q1014,VOJV,2023-05-16T07:00:00Z,15.17,76.63,34.0,18.0,300,8,,4.97,29.940945,,,,,,,,,,,CLR,,,,,,,,MVFR,,,,,,,,,,,,METAR,508.0
VOHY 160700Z 30009KT 6000 NSC 36/14 Q1012 NOSIG,VOHY,2023-05-16T07:00:00Z,17.45,78.47,36.0,14.0,300,9,,3.73,29.88189,,,,,,TRUE,,,,,CLR,,,,,,,,MVFR,,,,,,,,,,,,METAR,540.0
VOHS 160700Z 32011G21KT 6000 NSC 36/15 Q1013 NOSIG,VOHS,2023-05-16T07:00:00Z,17.23,78.43,36.0,15.0,320,11,21,3.73,29.911417,,,,,,TRUE,,,,,CLR,,,,,,,,MVFR,,,,,,,,,,,,METAR,607.0
VOHB 160700Z 28006KT CAVOK 34/15 Q1014,VOHB,2023-05-16T07:00:00Z,15.37,75.08,34.0,15.0,280,6,,6.21,29.940945,,,,,,,,,,,CAVOK,,,,,,,,VFR,,,,,,,,,,,,METAR,661.0
VOGO 160700Z 32012KT 6000 FEW020 32/23 Q1011 NOSIG,VOGO,2023-05-16T07:00:00Z,15.38,73.83,32.0,23.0,320,12,,3.73,29.852362,,,,,,TRUE,,,,,FEW,2000,,,,,,,MVFR,,,,,,,,,,,,METAR,56.0
VOGA 160700Z 32009KT 5000 HZ FEW020 34/20 Q1012 BECMG 6000,VOGA,2023-05-16T07:00:00Z,,,34.0,20.0,320,9,,3.11,29.88189,,,,,,,,,,HZ,FEW,2000,,,,,,,MVFR,,,,,,,,,,,,METAR,
VOCP 160700Z 26018KT 6000 FEW020 38/19 Q1008 NOSIG,VOCP,2023-05-16T07:00:00Z,14.5,78.77,38.0,19.0,260,18,,3.73,29.763779,,,,,,TRUE,,,,,FEW,2000,,,,,,,MVFR,,,,,,,,,,,,METAR,134.0
VOCL 160700Z 25010KT 6000 FEW015 33/21 Q1010 NOSIG,VOCL,2023-05-16T07:00:00Z,11.13,75.95,33.0,21.0,250,10,,3.73,29.822834,,,,,,TRUE,,,,,FEW,1500,,,,,,,MVFR,,,,,,,,,,,,METAR,104.0
VOCI 160700Z 31005KT 5000 HZ SCT020 35/25 Q1010 NOSIG,VOCI,2023-05-16T07:00:00Z,10.15,76.4,35.0,25.0,310,5,,3.11,29.822834,,,,,,TRUE,,,,HZ,SCT,2000,,,,,,,MVFR,,,,,,,,,,,,METAR,8.0
VOCB 160700Z 19010KT 6000 FEW015 34/23 Q1011 NOSIG,VOCB,2023-05-16T07:00:00Z,11.02,77.03,34.0,23.0,190,10,,3.73,29.852362,,,,,,TRUE,,,,,FEW,1500,,,,,,,MVFR,,,,,,,,,,,,METAR,394.0
VOBZ 160700Z 34007KT 6000 NSC 42/20 Q1004 NOSIG,VOBZ,2023-05-16T07:00:00Z,16.52,80.78,42.0,20.0,340,7,,3.73,29.64567,,,,,,TRUE,,,,,CLR,,,,,,,,MVFR,,,,,,,,,,,,METAR,26.0
VOBM 160700Z 02005KT CAVOK 34/15 Q1016,VOBM,2023-05-16T07:00:00Z,15.85,74.62,34.0,15.0,20,5,,6.21,30.0,,,,,,,,,,,CAVOK,,,,,,,,VFR,,,,,,,,,,,,METAR,758.0
VOBL 160700Z 28008KT 8000 FEW015 32/19 Q1015 NOSIG,VOBL,2023-05-16T07:00:00Z,13.2,77.7,32.0,19.0,280,8,,4.97,29.970472,,,,,,TRUE,,,,,FEW,1500,,,,,,,MVFR,,,,,,,,,,,,METAR,908.0
VOBG 160700Z 29004KT 8000 NSC 33/21 Q1016 NOSIG,VOBG,2023-05-16T07:00:00Z,12.95,77.65,33.0,21.0,290,4,,4.97,30.0,,,,,,TRUE,,,,,CLR,,,,,,,,MVFR,,,,,,,,,,,,METAR,884.0
VOAT 160700Z 32009KT 6000 FEW015 SCT020 33/26 Q1012 NOSIG,VOAT,2023-05-16T07:00:00Z,10.82,72.18,33.0,26.0,320,9,,3.73,29.88189,,,,,,TRUE,,,,,FEW,1500,SCT,2000,,,,,MVFR,,,,,,,,,,,,METAR,5.0
VNKT 160700Z 27005KT 7000 FEW015 FEW025TCU SCT040 26/14 Q1013 NOSIG,VNKT,2023-05-16T07:00:00Z,27.68,85.37,26.0,14.0,270,5,,4.35,29.911417,,,,,,TRUE,,,,,FEW,1500,FEW,2500,SCT,4000,,,MVFR,,,,,,,,,,,,METAR,1334.0
VMMC 160700Z 18008KT 9999 FEW010 SCT025 26/24 Q1008 NOSIG,VMMC,2023-05-16T07:00:00Z,22.15,113.58,26.0,24.0,180,8,,6.21,29.763779,,,,,,TRUE,,,,,FEW,1000,SCT,2500,,,,,VFR,,,,,,,,,,,,METAR,1.0
VLVT 160700Z 22004KT 8000 BKN020 36/26 Q1007 NOSIG,VLVT,2023-05-16T07:00:00Z,17.98,102.57,36.0,26.0,220,4,,4.97,29.734253,,,,,,TRUE,,,,,BKN,2000,,,,,,,MVFR,,,,,,,,,,,,METAR,171.0
VLSK 160700Z 22006KT 9999 SCT020 BKN100 35/22 Q1010 NOSIG,VLSK,2023-05-16T07:00:00Z,16.55,104.75,35.0,22.0,220,6,,6.21,29.822834,,,,,,TRUE,,,,,SCT,2000,BKN,10000,,,,,VFR,,,,,,,,,,,,METAR,148.0
VLLN 160700Z 22006KT 9999 SCT020 32/22 Q1009 NOSIG,VLLN,2023-05-16T07:00:00Z,20.97,101.4,32.0,22.0,220,6,,6.21,29.793306,,,,,,TRUE,,,,,SCT,2000,,,,,,,VFR,,,,,,,,,,,,METAR,548.0
VLLB 160700Z 27004KT 9999 SCT020 FEW060 35/21 Q1007 NOSIG,VLLB,2023-05-16T07:00:00Z,19.9,102.17,35.0,21.0,270,4,,6.21,29.734253,,,,,,TRUE,,,,,SCT,2000,FEW,6000,,,,,VFR,,,,,,,,,,,,METAR,297.0
VISM 160700Z 32004KT 6000 SCT100 28/07 Q1015,VISM,2023-05-16T07:00:00Z,31.08,77.07,28.0,7.0,320,4,,3.73,29.970472,,,,,,,,,,,SCT,10000,,,,,,,MVFR,,,,,,,,,,,,METAR,1537.0
VIPT 160700Z 12003KT 5000 HZ NSC 35/17 Q1004,VIPT,2023-05-16T07:00:00Z,29.03,79.47,35.0,17.0,120,3,,3.11,29.64567,,,,,,,,,,HZ,CLR,,,,,,,,MVFR,,,,,,,,,,,,METAR,236.0
VILK 160700Z 34004KT 5000 HZ NSC 37/18 Q1004 NOSIG,VILK,2023-05-16T07:00:00Z,26.75,80.88,37.0,18.0,340,4,,3.11,29.64567,,,,,,TRUE,,,,HZ,CLR,,,,,,,,MVFR,,,,,,,,,,,,METAR,121.0
VIJP 160700Z 26012KT 5000 HZ FEW030 SCT100 37/15 Q1008 NOSIG,VIJP,2023-05-16T07:00:00Z,26.82,75.8,37.0,15.0,260,12,,3.11,29.763779,,,,,,TRUE,,,,HZ,FEW,3000,SCT,10000,,,,,MVFR,,,,,,,,,,,,METAR,383.0
VIGG 160700Z 00000KT 6000 FEW040 SCT080 33/12 Q1009,VIGG,2023-05-16T07:00:00Z,32.17,76.25,33.0,12.0,0,0,,3.73,29.793306,,,,,,,,,,,FEW,4000,SCT,8000,,,,,MVFR,,,,,,,,,,,,METAR,760.0
VIDP 160700Z 31004KT 1800 R28/2000 R29L/2000 DU SCT100 37/12 Q1006 NOSIG,VIDP,2023-05-16T07:00:00Z,28.57,77.12,37.0,12.0,310,4,,1.12,29.704725,,,,,,TRUE,,,,DU,SCT,10000,,,,,,,IFR,,,,,,,,,,,,SPECI,236.0
VIAR 160700Z 01009KT 5000 HZ FEW040 SCT100 37/09 Q1005 NOSIG,VIAR,2023-05-16T07:00:00Z,31.7,74.8,37.0,9.0,10,9,,3.11,29.675198,,,,,,TRUE,,,,HZ,FEW,4000,SCT,10000,,,,,MVFR,,,,,,,,,,,,METAR,226.0
VHHH 160700Z 15007KT 090V190 9999 FEW010 SCT025 28/23 Q1008 NOSIG,VHHH,2023-05-16T07:00:00Z,22.32,113.92,28.0,23.0,150,7,,6.21,29.763779,,,,,,TRUE,,,,,FEW,1000,SCT,2500,,,,,VFR,,,,,,,,,,,,METAR,9.0
VGHS 160700Z 19010KT 4000 HZ SCT025 32/21 Q1007 NOSIG,VGHS,2023-05-16T07:00:00Z,23.85,90.4,32.0,21.0,190,10,,2.49,29.734253,,,,,,TRUE,,,,HZ,SCT,2500,,,,,,,IFR,,,,,,,,,,,,METAR,11.0
VGEG 160700Z 21012KT 6000 SCT018 32/22 Q1008 NOSIG,VGEG,2023-05-16T07:00:00Z,22.23,91.82,32.0,22.0,210,12,,3.73,29.763779,,,,,,TRUE,,,,,SCT,1800,,,,,,,MVFR,,,,,,,,,,,,METAR,7.0
VERU 160700Z 07007KT 6000 NSW SCT020 BKN100 28/22 Q1006 NOSIG,VERU,2023-05-16T07:00:00Z,26.13,89.92,28.0,22.0,70,7,,3.73,29.704725,,,,,,TRUE,,,,,SCT,2000,BKN,10000,,,,,MVFR,,,,,,,,,,,,METAR,45.0
VERP 160700Z 25011KT 4000 HZ FEW025 40/14 Q1007 NOSIG,VERP,2023-05-16T07:00:00Z,21.18,81.73,40.0,14.0,250,11,,2.49,29.734253,,,,,,TRUE,,,,HZ,FEW,2500,,,,,,,IFR,,,,,,,,,,,,METAR,318.0
VERC 160700Z 29005KT 6000 SCT020 SCT025 39/14 Q1008 NOSIG,VERC,2023-05-16T07:00:00Z,23.32,85.32,39.0,14.0,290,5,,3.73,29.763779,,,,,,TRUE,,,,,SCT,2000,SCT,2500,,,,,MVFR,,,,,,,,,,,,METAR,646.0
VEPT 160700Z 06003KT 6000 FEW100 39/23 Q1003 NOSIG,VEPT,2023-05-16T07:00:00Z,25.6,85.08,39.0,23.0,60,3,,3.73,29.616142,,,,,,TRUE,,,,,FEW,10000,,,,,,,MVFR,,,,,,,,,,,,METAR,53.0
VEMR 160700Z 34003KT 6000 SCT018 BKN100 31/23 Q1008 NOSIG,VEMR,2023-05-16T07:00:00Z,25.88,93.77,31.0,23.0,340,3,,3.73,29.763779,,,,,,TRUE,,,,,SCT,1800,BKN,10000,,,,,MVFR,,,,,,,,,,,,METAR,147.0
VEMN 160700Z 09006KT 2000 -RA FEW008 SCT018 FEW025CB OVC090 22/21 Q1009 NOSIG,VEMN,2023-05-16T07:00:00Z,27.47,95.02,22.0,21.0,90,6,,1.24,29.793306,,,,,,TRUE,,,,-RA,FEW,800,SCT,1800,FEW,2500,OVC,9000,IFR,,,,,,,,,,,,METAR,111.0
VELR 160700Z 05006KT 6000 SCT008 BKN016 OVC080 25/22 Q1009,VELR,2023-05-16T07:00:00Z,27.3,94.1,25.0,22.0,50,6,,3.73,29.793306,,,,,,,,,,,SCT,800,BKN,1600,OVC,8000,,,MVFR,,,,,,,,,,,,METAR,101.0
VELP 160700Z 23007KT 5000 HZ FEW020 33/17 Q1009 NOSIG,VELP,2023-05-16T07:00:00Z,23.83,92.62,33.0,17.0,230,7,,3.11,29.793306,,,,,,TRUE,,,,HZ,FEW,2000,,,,,,,MVFR,,,,,,,,,,,,METAR,429.0
VEKO 160700Z 02004KT 6000 NSC 41/12 Q1005,VEKO,2023-05-16T07:00:00Z,24.82,79.92,41.0,12.0,20,4,,3.73,29.675198,,,,,,,,,,,CLR,,,,,,,,MVFR,,,,,,,,,,,,METAR,222.0
VEKI 160700Z 12008KT 5000 HZ NSC 36/18 Q1004 NOSIG,VEKI,2023-05-16T07:00:00Z,26.78,83.88,36.0,18.0,120,8,,3.11,29.64567,,,,,,TRUE,,,,HZ,CLR,,,,,,,,MVFR,,,,,,,,,,,,METAR,81.0
VEJS 160700Z 29004KT 5000 HZ NSC 39/23 Q1004,VEJS,2023-05-16T07:00:00Z,22.82,86.17,39.0,23.0,290,4,,3.11,29.64567,,,,,,,,,,HZ,CLR,,,,,,,,MVFR,,,,,,,,,,,,METAR,151.0
VEJR 160700Z 23007KT 6000 FEW030 38/17 Q1009,VEJR,2023-05-16T07:00:00Z,19.07,82.03,38.0,17.0,230,7,,3.73,29.793306,,,,,,,,,,,FEW,3000,,,,,,,MVFR,,,,,,,,,,,,METAR,555.0
VEJH 160700Z 27006KT 4000 HZ FEW020 42/15 Q1005,VEJH,2023-05-16T07:00:00Z,21.92,84.03,42.0,15.0,270,6,,2.49,29.675198,,,,,,,,,,HZ,FEW,2000,,,,,,,IFR,,,,,,,,,,,,METAR,231.0
VEHO 160700Z 07004KT 4000 HZ SCT020 BKN090 26/22 Q1008 NOSIG,VEHO,2023-05-16T07:00:00Z,,,26.0,22.0,70,4,,2.49,29.763779,,,,,,TRUE,,,,HZ,SCT,2000,BKN,9000,,,,,IFR,,,,,,,,,,,,METAR,
VEGY 160700Z 28008KT 6000 NSC 42/17 Q1003 NOSIG,VEGY,2023-05-16T07:00:00Z,24.75,84.95,42.0,17.0,280,8,,3.73,29.616142,,,,,,TRUE,,,,,CLR,,,,,,,,MVFR,,,,,,,,,,,,METAR,115.0
VEGT 160700Z 01006KT 5000 HZ SCT018 BKN100 30/26 Q1006 NOSIG,VEGT,2023-05-16T07:00:00Z,26.1,91.58,30.0,26.0,10,6,,3.11,29.704725,,,,,,TRUE,,,,HZ,SCT,1800,BKN,10000,,,,,MVFR,,,,,,,,,,,,METAR,50.0
VEDO 160700Z 26008KT 6000 SCT020 39/10 Q1005 NOSIG,VEDO,2023-05-16T07:00:00Z,24.45,86.7,39.0,10.0,260,8,,3.73,29.675198,,,,,,TRUE,,,,,SCT,2000,,,,,,,MVFR,,,,,,,,,,,,METAR,244.0
VEDG 160700Z 20008KT 5000 HZ FEW100 38/23 Q1004 NOSIG,VEDG,2023-05-16T07:00:00Z,23.62,87.25,38.0,23.0,200,8,,3.11,29.64567,,,,,,TRUE,,,,HZ,FEW,10000,,,,,,,MVFR,,,,,,,,,,,,METAR,88.0
VECO 160700Z 09004KT 5000 HZ OVC025 30/23 Q1006 NOSIG,VECO,2023-05-16T07:00:00Z,26.33,89.47,30.0,23.0,90,4,,3.11,29.704725,,,,,,TRUE,,,,HZ,OVC,2500,,,,,,,MVFR,,,,,,,,,,,,METAR,48.0
VECC 160700Z 19012KT 4000 HZ SCT020 SCT100 35/27 Q1005 NOSIG,VECC,2023-05-16T07:00:00Z,22.65,88.43,35.0,27.0,190,12,,2.49,29.675198,,,,,,TRUE,,,,HZ,SCT,2000,SCT,10000,,,,,IFR,,,,,,,,,,,,METAR,11.0
VEBS 160700Z 15008KT 4000 HZ SCT016 BKN100 36/33 Q1007 NOSIG,VEBS,2023-05-16T07:00:00Z,20.25,85.82,36.0,33.0,150,8,,2.49,29.734253,,,,,,TRUE,,,,HZ,SCT,1600,BKN,10000,,,,,IFR,,,,,,,,,,,,METAR,42.0
VEBN 160700Z 29009KT 4500 HZ NSC 41/14 Q1004 BECMG 5000 HZ,VEBN,2023-05-16T07:00:00Z,25.45,82.85,41.0,14.0,290,9,,2.8,29.64567,,,,,,,,,,HZ,CLR,,,,,,,,IFR,,,,,,,,,,,,METAR,81.0
VEBI 160700Z 02006KT 5000 HZ SCT020 SCT090 28/16 Q1011 NOSIG,VEBI,2023-05-16T07:00:00Z,25.7,91.98,28.0,16.0,20,6,,3.11,29.852362,,,,,,TRUE,,,,HZ,SCT,2000,SCT,9000,,,,,MVFR,,,,,,,,,,,,METAR,892.0
VEAT 160700Z 19008KT 6000 SCT020 36/21 Q1007 NOSIG,VEAT,2023-05-16T07:00:00Z,23.88,91.25,36.0,21.0,190,8,,3.73,29.734253,,,,,,TRUE,,,,,SCT,2000,,,,,,,MVFR,,,,,,,,,,,,METAR,20.0
VDSV 160700Z 27011KT 9999 SCT015 FEW017CB 33/26 Q1008 RMK CB:E,VDSV,2023-05-16T07:00:00Z,10.58,103.63,33.0,26.0,270,11,,6.21,29.763779,,,,,,,,,,,SCT,1500,FEW,1700,,,,,VFR,,,,,,,,,,,,METAR,1.0
VDSR 160700Z 28006KT 200V330 9999 SCT015 36/23 Q1008,VDSR,2023-05-16T07:00:00Z,13.42,103.8,36.0,23.0,280,6,,6.21,29.763779,,,,,,,,,,,SCT,1500,,,,,,,VFR,,,,,,,,,,,,METAR,16.0
VDPP 160700Z 24005KT 9999 SCT015 FEW017CB 37/21 Q1007 RMK CB NE,VDPP,2023-05-16T07:00:00Z,11.55,104.83,37.0,21.0,240,5,,6.21,29.734253,,,,,,,,,,,SCT,1500,FEW,1700,,,,,VFR,,,,,,,,,,,,SPECI,10.0
VAUD 160700Z 19008KT 6000 FEW030 35/21 Q1010 NOSIG,VAUD,2023-05-16T07:00:00Z,24.62,73.9,35.0,21.0,190,8,,3.73,29.822834,,,,,,TRUE,,,,,FEW,3000,,,,,,,MVFR,,,,,,,,,,,,METAR,506.0
VASU 160700Z 22012KT 6000 FEW025 SCT030 34/25 Q1010 NOSIG,VASU,2023-05-16T07:00:00Z,21.12,72.73,34.0,25.0,220,12,,3.73,29.822834,,,,,,TRUE,,,,,FEW,2500,SCT,3000,,,,,MVFR,,,,,,,,,,,,METAR,6.0
VASD 160700Z 30014KT 6000 FEW025 34/13 Q1013 NOSIG,VASD,2023-05-16T07:00:00Z,19.68,74.38,34.0,13.0,300,14,,3.73,29.911417,,,,,,TRUE,,,,,FEW,2500,,,,,,,MVFR,,,,,,,,,,,,METAR,587.0
VARK 160700Z 27014KT 6000 SCT020 38/22 Q1009 NOSIG,VARK,2023-05-16T07:00:00Z,22.3,70.77,38.0,22.0,270,14,,3.73,29.793306,,,,,,TRUE,,,,,SCT,2000,,,,,,,MVFR,,,,,,,,,,,,METAR,125.0
VAOZ 160700Z 29012KT 8000 SCT030 33/16 Q1014 TEMPO 30015G25KT,VAOZ,2023-05-16T07:00:00Z,20.12,73.92,33.0,16.0,290,12,,4.97,29.940945,,,,,,,,,,,SCT,3000,,,,,,,MVFR,,,,,,,,,,,,METAR,598.0
VANP 160700Z 24010G20KT 5000 HZ FEW020 SCT025 39/20 Q1009 NOSIG,VANP,2023-05-16T07:00:00Z,21.08,79.05,39.0,20.0,240,10,20,3.11,29.793306,,,,,,TRUE,,,,HZ,FEW,2000,SCT,2500,,,,,MVFR,,,,,,,,,,,,METAR,309.0
VAKP 160700Z 28008KT 8000 NSC 33/16 Q1015,VAKP,2023-05-16T07:00:00Z,16.65,74.28,33.0,16.0,280,8,,4.97,29.970472,,,,,,,,,,,CLR,,,,,,,,MVFR,,,,,,,,,,,,METAR,612.0
VAJL 160700Z 28010KT 7000 FEW020 37/22 Q1009 NOSIG,VAJL,2023-05-16T07:00:00Z,20.97,75.63,37.0,22.0,280,10,,4.35,29.793306,,,,,,TRUE,,,,,FEW,2000,,,,,,,MVFR,,,,,,,,,,,,METAR,257.0
VAJJ 160700Z 24008KT 5000 FU FEW020 SCT025 33/26 Q1011 NOSIG,VAJJ,2023-05-16T07:00:00Z,19.08,72.83,33.0,26.0,240,8,,3.11,29.852362,,,,,,TRUE,,,,FU,FEW,2000,SCT,2500,,,,,MVFR,,,,,,,,,,,,METAR,1.0
VAJB 160700Z 35009KT 6000 NSC 38/15 Q1009 NOSIG,VAJB,2023-05-16T07:00:00Z,23.18,80.05,38.0,15.0,350,9,,3.73,29.793306,,,,,,TRUE,,,,,CLR,,,,,,,,MVFR,,,,,,,,,,,,METAR,489.0
VADU 160700Z 24013KT 6000 SCT020 33/28 Q1010 NOSIG,VADU,2023-05-16T07:00:00Z,21.72,70.92,33.0,28.0,240,13,,3.73,29.822834,,,,,,TRUE,,,,,SCT,2000,,,,,,,MVFR,,,,,,,,,,,,METAR,10.0
VABV 160700Z 10014KT 6000 SCT025 36/23 Q1009 NOSIG,VABV,2023-05-16T07:00:00Z,21.75,72.2,36.0,23.0,100,14,,3.73,29.793306,,,,,,TRUE,,,,,SCT,2500,,,,,,,MVFR,,,,,,,,,,,,METAR,8.0
VABP 160700Z 21005KT 6000 SCT030 35/15 Q1010 NOSIG,VABP,2023-05-16T07:00:00Z,23.28,77.33,35.0,15.0,210,5,,3.73,29.822834,,,,,,TRUE,,,,,SCT,3000,,,,,,,MVFR,,,,,,,,,,,,METAR,520.0
VABO 160700Z 24009KT 6000 FEW020 36/21 Q1009 NOSIG,VABO,2023-05-16T07:00:00Z,22.33,73.22,36.0,21.0,240,9,,3.73,29.793306,,,,,,TRUE,,,,,FEW,2000,,,,,,,MVFR,,,,,,,,,,,,METAR,36.0
VABB 160700Z 25012KT 5000 HZ FEW020 SCT025 33/25 Q1011 NOSIG,VABB,2023-05-16T07:00:00Z,19.1,72.87,33.0,25.0,250,12,,3.11,29.852362,,,,,,TRUE,,,,HZ,FEW,2000,SCT,2500,,,,,MVFR,,,,,,,,,,,,METAR,14.0
VAAH 160700Z 25006KT 6000 SCT025 35/20 Q1008 NOSIG,VAAH,2023-05-16T07:00:00Z,23.07,72.63,35.0,20.0,250,6,,3.73,29.763779,,,,,,TRUE,,,,,SCT,2500,,,,,,,MVFR,,,,,,,,,,,,METAR,52.0
UWWW 160700Z 05003MPS 360V140 CAVOK 20/07 Q1021 R33/CLRD60 NOSIG RMK QFE755/1006,UWWW,2023-05-16T07:00:00Z,53.5,50.17,20.0,7.0,50,6,,6.21,30.147638,,,,,,TRUE,,,,,CAVOK,,,,,,,,VFR,,,,,,,,,,,,METAR,124.0
UWUU 160700Z 06002MPS CAVOK 21/07 Q1021 R32L/0///60 NOSIG,UWUU,2023-05-16T07:00:00Z,54.57,55.87,21.0,7.0,60,4,,6.21,30.147638,,,,,,TRUE,,,,,CAVOK,,,,,,,,VFR,,,,,,,,,,,,METAR,137.0
UWSG 160700Z 06005MPS 9999 BKN020CB 14/11 Q1019 R08/CLRD70 NOSIG RMK QFE762/1016,UWSG,2023-05-16T07:00:00Z,51.72,46.17,14.0,11.0,60,10,,6.21,30.088583,,,,,,TRUE,,,,,BKN,2000,,,,,,,MVFR,,,,,,,,,,,,METAR,31.0
UWPS 160700Z 06005MPS 030V100 9999 SCT026 18/09 Q1022 R02/CLRD60 NOSIG RMK QFE747,UWPS,2023-05-16T07:00:00Z,54.12,45.2,18.0,9.0,60,10,,6.21,30.177166,,,,,,TRUE,,,,,SCT,2600,,,,,,,VFR,,,,,,,,,,,,METAR,206.0
UWOR 160700Z 09011MPS CAVOK 20/04 Q1017 R07/CLRD65 NOSIG RMK QFE738/0984,UWOR,2023-05-16T07:00:00Z,51.07,58.6,20.0,4.0,90,21,,6.21,30.029528,,,,,,TRUE,,,,,CAVOK,,,,,,,,VFR,,,,,,,,,,,,SPECI,270.0
UWOO 160700Z 11006MPS 070V140 9999 FEW040 21/02 Q1018 R08/60D NOSIG RMK QFE753/1004,UWOO,2023-05-16T07:00:00Z,51.8,55.47,21.0,2.0,110,12,,6.21,30.059055,,,,,,TRUE,,,,,FEW,4000,,,,,,,VFR,,,,,,,,,,,,METAR,90.0
UWLW 160700Z 01004MPS 330V070 CAVOK 20/11 Q1022 R02/CLRD60 NOSIG RMK QFE759/1012,UWLW,2023-05-16T07:00:00Z,54.4,48.8,20.0,11.0,10,8,,6.21,30.177166,,,,,,TRUE,,,,,CAVOK,,,,,,,,VFR,,,,,,,,,,,,METAR,67.0
UWLL 160700Z 03004MPS CAVOK 18/09 Q1022 R02/090065 NOSIG RMK QFE754/1006,UWLL,2023-05-16T07:00:00Z,54.27,48.23,18.0,9.0,30,8,,6.21,30.177166,,,,,,TRUE,,,,,CAVOK,,,,,,,,VFR,,,,,,,,,,,,SPECI,119.0
UWKS 160700Z 07003MPS 010V090 CAVOK 19/05 Q1024 R06/010060 NOSIG RMK QFE753,UWKS,2023-05-16T07:00:00Z,56.08,47.35,19.0,5.0,70,6,,6.21,30.236221,,,,,,TRUE,,,,,CAVOK,,,,,,,,VFR,,,,,,,,,,,,METAR,165.0
UWKE 160700Z 02003MPS 330V070 9999 SCT046 20/08 Q1023 R03/090070 NOSIG RMK QFE750/1000,UWKE,2023-05-16T07:00:00Z,55.57,52.08,20.0,8.0,20,6,,6.21,30.206694,,,,,,TRUE,,,,,SCT,4600,,,,,,,VFR,,,,,,,,,,,,METAR,193.0
UWKD 160700Z 06004MPS 020V090 CAVOK 19/07 Q1023 R11/70D NOSIG RMK QFE757/1010,UWKD,2023-05-16T07:00:00Z,55.62,49.28,19.0,7.0,60,8,,6.21,30.206694,,,,,,TRUE,,,,,CAVOK,,,,,,,,VFR,,,,,,,,,,,,METAR,114.0
UWGG 160700Z 08003MPS 020V110 CAVOK 18/04 Q1024 R36R/090070 NOSIG,UWGG,2023-05-16T07:00:00Z,56.23,43.78,18.0,4.0,80,6,,6.21,30.236221,,,,,,TRUE,,,,,CAVOK,,,,,,,,VFR,,,,,,,,,,,,METAR,73.0
UUYY 160700Z 22002MPS 180V250 CAVOK 19/05 Q1024 R18/CLRD61 NOSIG RMK QFE759/1012,UUYY,2023-05-16T07:00:00Z,61.65,50.83,19.0,5.0,220,4,,6.21,30.236221,,,,,,TRUE,,,,,CAVOK,,,,,,,,VFR,,,,,,,,,,,,METAR,107.0
UUWW 160700Z 11006MPS CAVOK 17/02 Q1023 R06/000070 NOSIG,UUWW,2023-05-16T07:00:00Z,55.6,37.27,17.0,2.0,110,12,,6.21,30.206694,,,,,,TRUE,,,,,CAVOK,,,,,,,,VFR,,,,,,,,,,,,METAR,195.0
UUOO 160700Z 07003MPS 030V120 CAVOK 17/04 Q1021 R30/010070 NOSIG RMK QFE752,UUOO,2023-05-16T07:00:00Z,51.82,39.23,17.0,4.0,70,6,,6.21,30.147638,,,,,,TRUE,,,,,CAVOK,,,,,,,,VFR,,,,,,,,,,,,METAR,154.0
UUOL 160700Z 06005MPS CAVOK 17/05 Q1022 R33/////// NOSIG,UUOL,2023-05-16T07:00:00Z,52.7,39.53,17.0,5.0,60,10,,6.21,30.177166,,,,,,TRUE,,,,,CAVOK,,,,,,,,VFR,,,,,,,,,,,,METAR,176.0
UUOK 160700Z 14003MPS 080V190 9999 FEW/// 19/04 Q1021 R12/090060 NOSIG RMK QFE748/0997,UUOK,2023-05-16T07:00:00Z,51.75,36.28,19.0,4.0,140,6,,6.21,30.147638,,,,,,TRUE,,,,,,,,,,,,,,,,,,,,,,,,,METAR,203.0
UUOB 160700Z 07004MPS 030V130 CAVOK 20/04 Q1021 R11/010070 NOSIG,UUOB,2023-05-16T07:00:00Z,50.65,36.58,20.0,4.0,70,8,,6.21,30.147638,,,,,,TRUE,,,,,CAVOK,,,,,,,,VFR,,,,,,,,,,,,METAR,218.0
UUMO 160700Z 13004MPS 090V170 CAVOK 18/04 Q1023 R07/CLRD60 NOSIG RMK QFE753/1004,UUMO,2023-05-16T07:00:00Z,55.52,37.5,18.0,4.0,130,8,,6.21,30.206694,,,,,,TRUE,,,,,CAVOK,,,,,,,,VFR,,,,,,,,,,,,METAR,167.0
UUEE 160700Z 12007MPS CAVOK 18/02 Q1023 R06R/CLRD62 R06C/CLRD62 NOSIG,UUEE,2023-05-16T07:00:00Z,55.97,37.42,18.0,2.0,120,14,,6.21,30.206694,,,,,,TRUE,,,,,CAVOK,,,,,,,,VFR,,,,,,,,,,,,METAR,186.0
UUDL 160700Z 20002MPS CAVOK 20/04 Q1024 R23/010060 NOSIG RMK QFE759,UUDL,2023-05-16T07:00:00Z,57.57,40.17,20.0,4.0,200,4,,6.21,30.236221,,,,,,TRUE,,,,,CAVOK,,,,,,,,VFR,,,,,,,,,,,,METAR,88.0
UUDD 160700Z 14005MPS 100V180 CAVOK 17/03 Q1024 R88/60D NOSIG,UUDD,2023-05-16T07:00:00Z,55.4,37.9,17.0,3.0,140,10,,6.21,30.236221,,,,,,TRUE,,,,,CAVOK,,,,,,,,VFR,,,,,,,,,,,,METAR,165.0
UUBW 160700Z 11004MPS 080V160 CAVOK 17/04 Q1024 R30/010060 NOSIG,UUBW,2023-05-16T07:00:00Z,55.55,38.15,17.0,4.0,110,8,,6.21,30.236221,,,,,,TRUE,,,,,CAVOK,,,,,,,,VFR,,,,,,,,,,,,METAR,111.0
UUBP 160700Z 13005MPS CAVOK 20/04 Q1020 R34/////// NOSIG RMK QFE747/0996,UUBP,2023-05-16T07:00:00Z,53.22,34.18,20.0,4.0,130,10,,6.21,30.11811,,,,,,TRUE,,,,,CAVOK,,,,,,,,VFR,,,,,,,,,,,,METAR,197.0
UUBC 160700Z 14003MPS 070V180 CAVOK 19/05 Q1022 R13/CLRD60 NOSIG RMK QFE748/0998,UUBC,2023-05-16T07:00:00Z,54.55,36.37,19.0,5.0,140,6,,6.21,30.177166,,,,,,TRUE,,,,,CAVOK,,,,,,,,VFR,,,,,,,,,,,,METAR,198.0
UTTT 160700Z 18006KT 130V210 7000 FEW066CB 30/08 Q1009 R26R/CLRD70 NOSIG,UTTT,2023-05-16T07:00:00Z,41.27,69.27,30.0,8.0,180,6,,4.35,29.793306,,,,,,TRUE,,,,,FEW,6600,,,,,,,MVFR,,,,,,,,,,,,METAR,429.0
UTST 160700Z 27012KT 240V300 6000 -DS NSC 28/12 Q1010 R25/CLRD70 NOSIG,UTST,2023-05-16T07:00:00Z,37.28,67.32,28.0,12.0,270,12,,3.73,29.822834,,,,,,TRUE,,,,-DS,CLR,,,,,,,,MVFR,,,,,,,,,,,,METAR,311.0
UTSS 160700Z 29010KT 240V330 9999 NSC 27/10 Q1010 R27/70D NOSIG,UTSS,2023-05-16T07:00:00Z,39.7,66.98,27.0,10.0,290,10,,6.21,29.822834,,,,,,TRUE,,,,,CLR,,,,,,,,VFR,,,,,,,,,,,,METAR,665.0
UTSK 160700Z 28012KT CAVOK 25/12 Q1012 R16/CLRD70,UTSK,2023-05-16T07:00:00Z,38.8,65.77,25.0,12.0,280,12,,6.21,29.88189,,,,,,,,,,,CAVOK,,,,,,,,VFR,,,,,,,,,,,,METAR,399.0
UTSB 160700Z 27014G24KT CAVOK 23/09 Q1012 R01/CLRD70 NOSIG,UTSB,2023-05-16T07:00:00Z,39.77,64.48,23.0,9.0,270,14,24,6.21,29.88189,,,,,,TRUE,,,,,CAVOK,,,,,,,,VFR,,,,,,,,,,,,METAR,225.0
UTSA 160700Z 28010KT 210V320 9999 BKN040 23/10 Q1012 R25/CLRD70 NOSIG,UTSA,2023-05-16T07:00:00Z,40.12,65.17,23.0,10.0,280,10,,6.21,29.88189,,,,,,TRUE,,,,,BKN,4000,,,,,,,VFR,,,,,,,,,,,,METAR,346.0
UTNU 160700Z 22018KT 9999 OVC032CB 18/09 Q1009 R31/CLRD70 NOSIG,UTNU,2023-05-16T07:00:00Z,41.58,60.63,18.0,9.0,220,18,,6.21,29.793306,,,,,,TRUE,,,,,OVC,3200,,,,,,,VFR,,,,,,,,,,,,METAR,97.0
UTNN 160700Z 20016KT 9999 OVC029 18/10 Q1007 R15/CLRD60 NOSIG,UTNN,2023-05-16T07:00:00Z,42.48,59.63,18.0,10.0,200,16,,6.21,29.734253,,,,,,TRUE,,,,,OVC,2900,,,,,,,MVFR,,,,,,,,,,,,METAR,76.0
UTFN 160700Z 13004KT 070V210 9999 NSC 29/08 Q1009 R28/CLRD70 NOSIG,UTFN,2023-05-16T07:00:00Z,40.98,71.57,29.0,8.0,130,4,,6.21,29.793306,,,,,,TRUE,,,,,CLR,,,,,,,,VFR,,,,,,,,,,,,METAR,477.0
UTFF 160700Z 35004KT 300V360 9999 NSC 30/06 Q1010 R18/CLRD70,UTFF,2023-05-16T07:00:00Z,40.37,71.73,30.0,6.0,350,4,,6.21,29.822834,,,,,,,,,,,CLR,,,,,,,,VFR,,,,,,,,,,,,METAR,612.0
UTDT 160700Z 23003MPS 190V280 2600 HZ OVC066 31/10 Q1009 R35/CLRD70 RMK QFE718/0957,UTDT,2023-05-16T07:00:00Z,37.87,68.87,31.0,10.0,230,6,,1.62,29.793306,,,,,,,,,,HZ,OVC,6600,,,,,,,IFR,,,,,,,,,,,,METAR,443.0
UTDL 160700Z 26004MPS 9999 SCT086 31/10 Q1009 R26/CLRD70 NOSIG RMK QFE719/0959,UTDL,2023-05-16T07:00:00Z,40.22,69.7,31.0,10.0,260,8,,6.21,29.793306,,,,,,TRUE,,,,,SCT,8600,,,,,,,VFR,,,,,,,,,,,,METAR,436.0
UTDK 160700Z 21004MPS 170V260 2900 HZ FEW015 BKN018 OVC027 29/10 Q1012 R01/09//70 RMK QFE701/0935,UTDK,2023-05-16T07:00:00Z,37.98,69.8,29.0,10.0,210,8,,1.8,29.88189,,,,,,,,,,HZ,FEW,1500,BKN,1800,OVC,2700,,,IFR,,,,,,,,,,,,METAR,675.0
UTDD 160700Z VRB02MPS 2400 HZ SCT015 SCT066CB 28/11 Q1012 R09/D TEMPO 27006MPS RMK QFE691/0922,UTDD,2023-05-16T07:00:00Z,38.53,68.82,28.0,11.0,0,4,,1.49,29.88189,,,,,,,,,,HZ,SCT,1500,SCT,6600,,,,,IFR,,,,,,,,,,,,METAR,785.0
UTAV 160700Z 29018KT CAVOK 22/09 Q1014 R31/CLRD70 NOSIG,UTAV,2023-05-16T07:00:00Z,39.08,63.62,22.0,9.0,290,18,,6.21,29.940945,,,,,,TRUE,,,,,CAVOK,,,,,,,,VFR,,,,,,,,,,,,METAR,187.0
UTAT 160700Z 22014G24KT 6000 OVC025 20/11 Q1008 R26/CLRD70 NOSIG,UTAT,2023-05-16T07:00:00Z,41.77,59.83,20.0,11.0,220,14,24,3.73,29.763779,,,,,,TRUE,,,,,OVC,2500,,,,,,,MVFR,,,,,,,,,,,,METAR,84.0
UTAM 160700Z 33008G18KT CAVOK 17/09 Q1017 R88/CLRD70 NOSIG,UTAM,2023-05-16T07:00:00Z,37.62,61.9,17.0,9.0,330,8,18,6.21,30.029528,,,,,,TRUE,,,,,CAVOK,,,,,,,,VFR,,,,,,,,,,,,METAR,218.0
UTAK 160700Z 30017KT 9999 SCT016 SCT100 OVC200 17/12 Q1017 R34L/19//60 NOSIG,UTAK,2023-05-16T07:00:00Z,40.05,53.0,17.0,12.0,300,17,,6.21,30.029528,,,,,,TRUE,,,,,SCT,1600,SCT,10000,OVC,20000,,,VFR,,,,,,,,,,,,METAR,83.0
UTAA 160700Z 14006KT 9999 SCT050 BKN100 18/12 Q1015 R88/70D NOSIG,UTAA,2023-05-16T07:00:00Z,37.98,58.37,18.0,12.0,140,6,,6.21,29.970472,,,,,,TRUE,,,,,SCT,5000,BKN,10000,,,,,VFR,,,,,,,,,,,,METAR,207.0
USTR 160700Z 34007G12MPS 310V020 CAVOK 19/01 Q1019 R03/090065 R30/090065 NOSIG,USTR,2023-05-16T07:00:00Z,57.18,65.32,19.0,1.0,340,14,23,6.21,30.088583,,,,,,TRUE,,,,,CAVOK,,,,,,,,VFR,,,,,,,,,,,,METAR,93.0
USSS 160700Z 04003MPS 360V100 CAVOK 19/00 Q1022 R26R/010060 NOSIG RMK QFE745/0994,USSS,2023-05-16T07:00:00Z,56.75,60.78,19.0,0.0,40,6,,6.21,30.177166,,,,,,TRUE,,,,,CAVOK,,,,,,,,VFR,,,,,,,,,,,,METAR,222.0
USRR 160700Z 35007MPS 320V020 9999 -SHSN SCT028CB 03/M03 Q1016 R25/CLRD60 NOSIG RMK QFE757,USRR,2023-05-16T07:00:00Z,61.33,73.42,3.0,-3.0,350,14,,6.21,30.0,,,,,,TRUE,,,,-SHSN,SCT,2800,,,,,,,VFR,,,,,,,,,,,,METAR,52.0
USPP 160700Z 31003MPS 280V040 CAVOK 20/01 Q1023 R21/090060 NOSIG RMK QFE756,USPP,2023-05-16T07:00:00Z,57.92,56.02,20.0,1.0,310,6,,6.21,30.206694,,,,,,TRUE,,,,,CAVOK,,,,,,,,VFR,,,,,,,,,,,,METAR,120.0
USNN 160700Z 33006G13MPS 9999 BKN034CB 05/M05 Q1012 R03/0///65 NOSIG RMK QFE755,USNN,2023-05-16T07:00:00Z,60.95,76.48,5.0,-5.0,330,12,25,6.21,29.88189,,,,,,TRUE,,,,,BKN,3400,,,,,,,VFR,,,,,,,,,,,,METAR,52.0
USHH 160700Z 36005G10MPS 310V040 CAVOK 08/M04 Q1019 R06/010060 NOSIG,USHH,2023-05-16T07:00:00Z,61.03,69.08,8.0,-4.0,360,10,19,6.21,30.088583,,,,,,TRUE,,,,,CAVOK,,,,,,,,VFR,,,,,,,,,,,,METAR,46.0
USDA 160700Z 35010MPS 9999 SCT011 M06/M08 Q1018 R04/510158 NOSIG RMK QFE762/1016,USDA,2023-05-16T07:00:00Z,71.2,72.05,-6.0,-8.0,350,19,,6.21,30.059055,,,,,,TRUE,,,,,SCT,1100,,,,,,,VFR,,,,,,,,,,,,METAR,5.0
USCM 160700Z 03005MPS 360V080 9999 BKN040 19/05 Q1021 R36/090060 NOSIG RMK QFE727,USCM,2023-05-16T07:00:00Z,53.4,58.75,19.0,5.0,30,10,,6.21,30.147638,,,,,,TRUE,,,,,BKN,4000,,,,,,,VFR,,,,,,,,,,,,METAR,425.0
USCC 160700Z 35004MPS 290V030 CAVOK 20/M01 Q1020 R27/000060 NOSIG RMK QFE745,USCC,2023-05-16T07:00:00Z,55.3,61.5,20.0,-1.0,350,8,,6.21,30.11811,,,,,,TRUE,,,,,CAVOK,,,,,,,,VFR,,,,,,,,,,,,METAR,227.0
URWW 160700Z 04005MPS 340V090 9999 BKN043 19/07 Q1018 R05/010070 NOSIG,URWW,2023-05-16T07:00:00Z,48.78,44.33,19.0,7.0,40,10,,6.21,30.059055,,,,,,TRUE,,,,,BKN,4300,,,,,,,VFR,,,,,,,,,,,,METAR,131.0
URWI 160700Z 34003MPS 300V360 CAVOK 19/07 Q1017 R09/010065 NOSIG,URWI,2023-05-16T07:00:00Z,46.37,44.33,19.0,7.0,340,6,,6.21,30.029528,,,,,,TRUE,,,,,CAVOK,,,,,,,,VFR,,,,,,,,,,,,METAR,145.0
URWA 160700Z 34005MPS 290V040 CAVOK 22/09 Q1015 R27/010070 NOSIG RMK QFE763/1017,URWA,2023-05-16T07:00:00Z,46.28,47.98,22.0,9.0,340,10,,6.21,29.970472,,,,,,TRUE,,,,,CAVOK,,,,,,,,VFR,,,,,,,,,,,,METAR,-19.0
URSS 160700Z 21001MPS 9999 FEW013 16/12 Q1019 R02/010070 R06/010070 NOSIG RMK R06/25002MPS MT OBSC QFE763,URSS,2023-05-16T07:00:00Z,43.45,39.92,16.0,12.0,210,2,,6.21,30.088583,,,,,,TRUE,,,,,FEW,1300,,,,,,,VFR,,,,,,,,,,,,METAR,4.0
URRP 160700Z 04004MPS CAVOK 21/08 Q1019 R23/CLRD70 NOSIG RMK QFE756/1008,URRP,2023-05-16T07:00:00Z,47.5,39.92,21.0,8.0,40,8,,6.21,30.088583,,,,,,TRUE,,,,,CAVOK,,,,,,,,VFR,,,,,,,,,,,,METAR,73.0
URMT 160700Z 33003MPS CAVOK 19/07 Q1019 R25/010070 NOSIG RMK QFE725,URMT,2023-05-16T07:00:00Z,45.12,42.12,19.0,7.0,330,6,,6.21,30.088583,,,,,,TRUE,,,,,CAVOK,,,,,,,,VFR,,,,,,,,,,,,METAR,448.0
URMO 160700Z 31003MPS 270V360 9999 FEW/// 19/07 Q1019 R09/010070 NOSIG RMK QFE719/0959,URMO,2023-05-16T07:00:00Z,43.2,44.6,19.0,7.0,310,6,,6.21,30.088583,,,,,,TRUE,,,,,,,,,,,,,,,,,,,,,,,,,METAR,505.0
URMN 160700Z 04002MPS 9999 SCT/// BKN086 20/07 Q1017 R24/010070 TEMPO -TSRA BKN016CB RMK QFE727,URMN,2023-05-16T07:00:00Z,43.52,43.63,20.0,7.0,40,4,,6.21,30.029528,,,,,,,,,,,BKN,8600,,,,,,,VFR,,,,,,,,,,,,METAR,424.0
URMM 160700Z 31004MPS 9999 NSC 20/10 Q1019 R30/090070 NOSIG RMK QFE736/0981,URMM,2023-05-16T07:00:00Z,44.22,43.07,20.0,10.0,310,8,,6.21,30.088583,,,,,,TRUE,,,,,CLR,,,,,,,,VFR,,,,,,,,,,,,METAR,318.0
URML 160700Z 33009MPS 9999 FEW062 23/08 Q1017 R32/01//70 NOSIG RMK QFE762/1016,URML,2023-05-16T07:00:00Z,42.82,47.65,23.0,8.0,330,17,,6.21,30.029528,,,,,,TRUE,,,,,FEW,6200,,,,,,,VFR,,,,,,,,,,,,SPECI,4.0
URMG 160700Z 23003MPS 190V280 CAVOK 21/11 Q1018 R26/090070 NOSIG RMK QFE749/0998,URMG,2023-05-16T07:00:00Z,43.38,45.7,21.0,11.0,230,6,,6.21,30.059055,,,,,,TRUE,,,,,CAVOK,,,,,,,,VFR,,,,,,,,,,,,METAR,160.0
URKK 160700Z 19002MPS 140V240 CAVOK 19/12 Q1019 R23L/CLRD70 TEMPO SCT020 RMK QFE761,URKK,2023-05-16T07:00:00Z,45.03,39.15,19.0,12.0,190,4,,6.21,30.088583,,,,,,,,,,,CAVOK,,,,,,,,VFR,,,,,,,,,,,,METAR,29.0
URKA 160700Z 23004MPS 200V260 CAVOK 18/13 Q1019 R22/010070 NOSIG RMK QFE759/1013,URKA,2023-05-16T07:00:00Z,45.0,37.35,18.0,13.0,230,8,,6.21,30.088583,,,,,,TRUE,,,,,CAVOK,,,,,,,,VFR,,,,,,,,,,,,METAR,41.0
UOOO 160700Z 16005MPS CAVOK M00/M04 Q1008 R19/510560 NOSIG RMK QFE739/0986,UOOO,2023-05-16T07:00:00Z,69.32,87.33,0.0,-4.0,160,10,,6.21,29.763779,,,,,,TRUE,,,,,CAVOK,,,,,,,,VFR,,,,,,,,,,,,METAR,177.0
UNWW 160700Z 25008MPS 9999 SCT040 15/M03 Q1010 R19/09//60 NOSIG RMK QFE731,UNWW,2023-05-16T07:00:00Z,53.82,86.88,15.0,-3.0,250,16,,6.21,29.822834,,,,,,TRUE,,,,,SCT,4000,,,,,,,VFR,,,,,,,,,,,,SPECI,307.0
UNTT 160700Z 26006MPS CAVOK 12/M04 Q1008 R21/090060 NOSIG RMK QFE740,UNTT,2023-05-16T07:00:00Z,56.38,85.22,12.0,-4.0,260,12,,6.21,29.763779,,,,,,TRUE,,,,,CAVOK,,,,,,,,VFR,,,,,,,,,,,,METAR,179.0
UNOO 160700Z 30007MPS 9999 BKN040 18/M02 Q1015 R25/CLRD60 NOSIG RMK QFE753,UNOO,2023-05-16T07:00:00Z,54.97,73.32,18.0,-2.0,300,14,,6.21,29.970472,,,,,,TRUE,,,,,BKN,4000,,,,,,,VFR,,,,,,,,,,,,SPECI,85.0
UNNT 160700Z 30006MPS 260V330 9999 SCT040 17/M04 Q1010 WS R25 R25/090070 R34/090070 NOSIG RMK QFE748/0997,UNNT,2023-05-16T07:00:00Z,55.02,82.65,17.0,-4.0,300,12,,6.21,29.822834,,,,,,TRUE,,,,,SCT,4000,,,,,,,VFR,,,,,,,,,,,,METAR,106.0
UNKL 160700Z 29005MPS 9999 -SHRA BKN021CB 06/04 Q1008 R29/190060 NOSIG RMK QFE730,UNKL,2023-05-16T07:00:00Z,56.17,92.48,6.0,4.0,290,10,,6.21,29.763779,,,,,,TRUE,,,,-SHRA,BKN,2100,,,,,,,MVFR,,,,,,,,,,,,SPECI,278.0
UNEE 160700Z 27007G12MPS 230V310 CAVOK 15/M06 Q1009 R23/CLRD60 NOSIG RMK QFE734,UNEE,2023-05-16T07:00:00Z,55.27,86.1,15.0,-6.0,270,14,23,6.21,29.793306,,,,,,TRUE,,,,,CAVOK,,,,,,,,VFR,,,,,,,,,,,,SPECI,261.0
UNBB 160700Z 27007MPS 9999 SCT040 15/M05 Q1012 R24/CLRD66 NOSIG RMK QFE737,UNBB,2023-05-16T07:00:00Z,53.37,83.53,15.0,-5.0,270,14,,6.21,29.88189,,,,,,TRUE,,,,,SCT,4000,,,,,,,VFR,,,,,,,,,,,,SPECI,249.0
UNAA 160700Z 19009MPS 9999 SCT047CB 13/01 Q1010 R20/CLRD64 NOSIG RMK QFE735,UNAA,2023-05-16T07:00:00Z,53.75,91.4,13.0,1.0,190,17,,6.21,29.822834,,,,,,TRUE,,,,,SCT,4700,,,,,,,VFR,,,,,,,,,,,,METAR,249.0
UMOO 160700Z 14006MPS CAVOK 15/06 Q1016 NOSIG,UMOO,2023-05-16T07:00:00Z,53.95,30.1,15.0,6.0,140,12,,6.21,30.0,,,,,,TRUE,,,,,CAVOK,,,,,,,,VFR,,,,,,,,,,,,METAR,188.0
UMMS 160700Z 17007MPS CAVOK 15/08 Q1013 NOSIG,UMMS,2023-05-16T07:00:00Z,53.88,28.03,15.0,8.0,170,14,,6.21,29.911417,,,,,,TRUE,,,,,CAVOK,,,,,,,,VFR,,,,,,,,,,,,METAR,196.0
UMMG 160700Z 20005G08MPS 9000 BKN014 BKN030 15/11 Q1008 NOSIG,UMMG,2023-05-16T07:00:00Z,53.6,24.05,15.0,11.0,200,10,16,5.59,29.763779,,,,,,TRUE,,,,,BKN,1400,BKN,3000,,,,,MVFR,,,,,,,,,,,,METAR,125.0
UMKK 160700Z 19004MPS 150V220 9999 FEW010 BKN014CB 14/12 Q1004 R24/290095 NOSIG RMK QFE752/1002,UMKK,2023-05-16T07:00:00Z,54.88,20.57,14.0,12.0,190,8,,6.21,29.64567,,,,,,TRUE,,,,,FEW,1000,BKN,1400,,,,,MVFR,,,,,,,,,,,,METAR,6.0
UMIO 160700Z 16006G09MPS CAVOK 17/06 Q1015 NOSIG RMK QFE743/0991,UMIO,2023-05-16T07:00:00Z,54.43,30.3,17.0,6.0,160,12,17,6.21,29.970472,,,,,,TRUE,,,,,CAVOK,,,,,,,,VFR,,,,,,,,,,,,METAR,189.0
UMII 160700Z 14007G11MPS CAVOK 19/05 Q1014 NOSIG,UMII,2023-05-16T07:00:00Z,55.13,30.35,19.0,5.0,140,14,21,6.21,29.940945,,,,,,TRUE,,,,,CAVOK,,,,,,,,VFR,,,,,,,,,,,,METAR,208.0
UMGG 160700Z 12006MPS CAVOK 16/09 Q1016 NOSIG,UMGG,2023-05-16T07:00:00Z,52.53,31.02,16.0,9.0,120,12,,6.21,30.0,,,,,,TRUE,,,,,CAVOK,,,,,,,,VFR,,,,,,,,,,,,METAR,135.0
UMBB 160700Z 24004G07MPS 7000 BKN018 15/11 Q1011 NOSIG,UMBB,2023-05-16T07:00:00Z,52.12,23.9,15.0,11.0,240,8,14,4.35,29.852362,,,,,,TRUE,,,,,BKN,1800,,,,,,,MVFR,,,,,,,,,,,,METAR,138.0
ULWC 160700Z 18003MPS 9999 FEW026 21/03 Q1023 R21/010060 NOSIG RMK QFE757/1009,ULWC,2023-05-16T07:00:00Z,59.28,38.02,21.0,3.0,180,6,,6.21,30.206694,,,,,,TRUE,,,,,FEW,2600,,,,,,,VFR,,,,,,,,,,,,METAR,113.0
ULPB 160700Z 19004MPS CAVOK 22/03 Q1019 R19/09//60 NOSIG RMK QFE761/1014,ULPB,2023-05-16T07:00:00Z,61.88,34.15,22.0,3.0,190,8,,6.21,30.088583,,,,,,TRUE,,,,,CAVOK,,,,,,,,VFR,,,,,,,,,,,,METAR,41.0
ULOO 160700Z 13002MPS 100V170 9999 -SHRA BKN051CB 14/08 Q1014 R19/090060 NOSIG RMK QFE756,ULOO,2023-05-16T07:00:00Z,57.78,28.4,14.0,8.0,130,4,,6.21,29.940945,,,,,,TRUE,,,,-SHRA,BKN,5100,,,,,,,VFR,,,,,,,,,,,,METAR,46.0
ULMM 160700Z 19005MPS 150V220 CAVOK 19/04 Q1011 R13/090070 NOSIG RMK QFE751,ULMM,2023-05-16T07:00:00Z,68.78,32.75,19.0,4.0,190,10,,6.21,29.852362,,,,,,TRUE,,,,,CAVOK,,,,,,,,VFR,,,,,,,,,,,,METAR,79.0
ULLI 160700Z 13007MPS CAVOK 21/06 Q1016 R88/090060 NOSIG,ULLI,2023-05-16T07:00:00Z,59.8,30.27,21.0,6.0,130,14,,6.21,30.0,,,,,,TRUE,,,,,CAVOK,,,,,,,,VFR,,,,,,,,,,,,METAR,25.0
UIUU 160700Z 32008G13MPS 9999 FEW050 17/M09 Q1009 R26/60D NOSIG RMK QFE712/0950,UIUU,2023-05-16T07:00:00Z,51.8,107.45,17.0,-9.0,320,16,25,6.21,29.793306,,,,,,TRUE,,,,,FEW,5000,,,,,,,VFR,,,,,,,,,,,,METAR,508.0
UIII 160700Z 18002MPS 9999 FEW050CB 15/M05 Q1009 R12/60D NOSIG RMK QFE715/0953,UIII,2023-05-16T07:00:00Z,52.27,104.37,15.0,-5.0,180,4,,6.21,29.793306,,,,,,TRUE,,,,,FEW,5000,,,,,,,VFR,,,,,,,,,,,,METAR,480.0
UIBB 160700Z 25005MPS 170V290 9999 NSC 11/M09 Q1007 R30/60D NOSIG RMK QFE713/0950,UIBB,2023-05-16T07:00:00Z,56.37,101.7,11.0,-9.0,250,10,,6.21,29.734253,,,,,,TRUE,,,,,CLR,,,,,,,,VFR,,,,,,,,,,,,METAR,485.0
UIAA 160700Z 30007G12MPS 9999 NSC 16/M14 Q1003 R29/70D NOSIG RMK QFE694/0926,UIAA,2023-05-16T07:00:00Z,52.02,113.32,16.0,-14.0,300,14,23,6.21,29.616142,,,,,,TRUE,,,,,CLR,,,,,,,,VFR,,,,,,,,,,,,METAR,650.0
UHWW 160700Z 25006MPS 9999 NSC 16/12 Q1002 R25L/0///70 NOSIG RMK QFE750,UHWW,2023-05-16T07:00:00Z,43.4,132.15,16.0,12.0,250,12,,6.21,29.586615,,,,,,TRUE,,,,,CLR,,,,,,,,VFR,,,,,,,,,,,,METAR,11.0
UHSS 160700Z 20004MPS 9999 SCT040 12/08 Q1010 R19/70D NOSIG RMK QFE756/1008,UHSS,2023-05-16T07:00:00Z,46.88,142.72,12.0,8.0,200,8,,6.21,29.822834,,,,,,TRUE,,,,,SCT,4000,,,,,,,VFR,,,,,,,,,,,,METAR,14.0
UHPP 160700Z 17007MPS CAVOK 10/03 Q1028 R16R/CLRD65 NOSIG RMK QFE768/1024,UHPP,2023-05-16T07:00:00Z,53.17,158.45,10.0,3.0,170,14,,6.21,30.35433,,,,,,TRUE,,,,,CAVOK,,,,,,,,VFR,,,,,,,,,,,,METAR,33.0
UHMM 160700Z 10008MPS 9999 -SHRASN BKN040CB 03/01 Q1022 R10/290255 TEMPO 3100 -SHRASN RMK QFE752 R28/12007MPS,UHMM,2023-05-16T07:00:00Z,59.92,150.72,3.0,1.0,100,16,,6.21,30.177166,,,,,,,,,,-SHRA -SHSN,BKN,4000,,,,,,,VFR,,,,,,,,,,,,METAR,175.0
UHMA 160700Z 35004MPS CAVOK M03/M06 Q1028 R01/////// NOSIG RMK MID 34004MPS END R01/34004MPS QFE767/1023,UHMA,2023-05-16T07:00:00Z,64.73,177.73,-3.0,-6.0,350,8,,6.21,30.35433,,,,,,TRUE,,,,,CAVOK,,,,,,,,VFR,,,,,,,,,,,,METAR,53.0
UHHH 160700Z 22006MPS 9999 -SHRA SCT036CB 13/10 Q1000 R88/290045 NOSIG RMK QFE744/0992,UHHH,2023-05-16T07:00:00Z,48.52,135.18,13.0,10.0,220,12,,6.21,29.52756,,,,,,TRUE,,,,-SHRA,SCT,3600,,,,,,,VFR,,,,,,,,,,,,METAR,74.0
UHBB 160700Z 28005MPS 250V320 9999 BKN033CB 16/M02 Q0995 R36/090060 TEMPO 27006G11MPS RMK QFE729/0972,UHBB,2023-05-16T07:00:00Z,50.43,127.42,16.0,-2.0,280,10,,6.21,29.379921,,,,,,,,,,,BKN,3300,,,,,,,VFR,,,,,,,,,,,,METAR,185.0
UGTB 160700Z 28003KT 210V360 CAVOK 17/07 Q1019 NOSIG,UGTB,2023-05-16T07:00:00Z,41.67,44.95,17.0,7.0,280,3,,6.21,30.088583,,,,,,TRUE,,,,,CAVOK,,,,,,,,VFR,,,,,,,,,,,,METAR,468.0
UGSB 160700Z 36011KT CAVOK 16/12 Q1019 NOSIG,UGSB,2023-05-16T07:00:00Z,41.62,41.6,16.0,12.0,360,11,,6.21,30.088583,,,,,,TRUE,,,,,CAVOK,,,,,,,,VFR,,,,,,,,,,,,METAR,32.0
UGMS 160700Z 23004KT 140V290 9999 FEW100 13/M01 Q1021,UGMS,2023-05-16T07:00:00Z,43.05,42.75,13.0,-1.0,230,4,,6.21,30.147638,,,,,,,,,,,FEW,10000,,,,,,,VFR,,,,,,,,,,,,METAR,1442.0
UGKO 160700Z 10007KT 070V130 CAVOK 18/10 Q1018 NOSIG,UGKO,2023-05-16T07:00:00Z,42.18,42.48,18.0,10.0,100,7,,6.21,30.059055,,,,,,TRUE,,,,,CAVOK,,,,,,,,VFR,,,,,,,,,,,,METAR,44.0
UGAM 160700Z 27006KT CAVOK 15/09 Q1019,UGAM,2023-05-16T07:00:00Z,42.53,43.13,15.0,9.0,270,6,,6.21,30.088583,,,,,,,,,,,CAVOK,,,,,,,,VFR,,,,,,,,,,,,METAR,544.0
UERR 160700Z VRB01MPS 9999 SKT013 BKN040CB 09/M08 Q1000 R25/CLRD60 NOSIG RMK QFE719/0959,UERR,2023-05-16T07:00:00Z,62.53,114.05,9.0,-8.0,0,2,,6.21,29.52756,,,,,,TRUE,,,,,BKN,4000,,,,,,,VFR,,,,,,,,,,,,SPECI,352.0
UERP 160700Z VRB01MPS 9999 SCT033CB SCT100 07/M07 Q1003 R35/090060 NOSIG RMK QFE708,UERP,2023-05-16T07:00:00Z,66.4,112.03,7.0,-7.0,0,2,,6.21,29.616142,,,,,,TRUE,,,,,SCT,3300,SCT,10000,,,,,VFR,,,,,,,,,,,,SPECI,514.0
UEEE 160700Z 35003MPS 9999 SCT050CB 13/05 Q0997 R05/09//60 NOSIG RMK QFE739,UEEE,2023-05-16T07:00:00Z,62.08,129.77,13.0,5.0,350,6,,6.21,29.438976,,,,,,TRUE,,,,,SCT,5000,,,,,,,VFR,,,,,,,,,,,,METAR,106.0
UDYZ 160700Z 18003KT 9999 NSC 17/00 Q1019 NOSIG,UDYZ,2023-05-16T07:00:00Z,40.15,44.4,17.0,0.0,180,3,,6.21,30.088583,,,,,,TRUE,,,,,CLR,,,,,,,,VFR,,,,,,,,,,,,METAR,851.0
UDSG 160700Z VRB02KT 9999 NSC 12/01 Q1021 NOSIG,UDSG,2023-05-16T07:00:00Z,40.75,43.87,12.0,1.0,0,2,,6.21,30.147638,,,,,,TRUE,,,,,CLR,,,,,,,,VFR,,,,,,,,,,,,METAR,1515.0
UCFO 160700Z 29004MPS 260V340 9999 FEW050 29/08 Q1012 NOSIG,UCFO,2023-05-16T07:00:00Z,40.6,72.8,29.0,8.0,290,8,,6.21,29.88189,,,,,,TRUE,,,,,FEW,5000,,,,,,,VFR,,,,,,,,,,,,METAR,881.0
UCFM 160700Z 27004MPS 240V320 CAVOK 28/08 Q1010 NOSIG,UCFM,2023-05-16T07:00:00Z,43.07,74.48,28.0,8.0,270,8,,6.21,29.822834,,,,,,TRUE,,,,,CAVOK,,,,,,,,VFR,,,,,,,,,,,,METAR,632.0
UCFL 160700Z 15004MPS 9999 FEW030 19/01 Q1015,UCFL,2023-05-16T07:00:00Z,42.58,76.7,19.0,1.0,150,8,,6.21,29.970472,,,,,,,,,,,FEW,3000,,,,,,,VFR,,,,,,,,,,,,METAR,1654.0
UBEE 160700Z 02003KT 9999 BKN020 19/13 Q1019 NOSIG,UBEE,2023-05-16T07:00:00Z,40.63,47.13,19.0,13.0,20,3,,6.21,30.088583,,,,,,TRUE,,,,,BKN,2000,,,,,,,MVFR,,,,,,,,,,,,METAR,14.0
UBBZ 160700Z 02004KT 310V120 9999 SCT050 17/10 Q1021 NOSIG RMK MT OP,UBBZ,2023-05-16T07:00:00Z,39.1,46.73,17.0,10.0,20,4,,6.21,30.147638,,,,,,TRUE,,,,,SCT,5000,,,,,,,VFR,,,,,,,,,,,,METAR,489.0
UBBY 160700Z 28004KT 9999 BKN025 17/10 Q1022 NOSIG RMK MT PT OBSC,UBBY,2023-05-16T07:00:00Z,41.57,46.67,17.0,10.0,280,4,,6.21,30.177166,,,,,,TRUE,,,,,BKN,2500,,,,,,,MVFR,,,,,,,,,,,,METAR,383.0
UBBQ 160700Z 29004KT 9999 BKN030 17/10 Q1020 NOSIG RMK MT OBSC,UBBQ,2023-05-16T07:00:00Z,40.82,47.72,17.0,10.0,290,4,,6.21,30.11811,,,,,,TRUE,,,,,BKN,3000,,,,,,,MVFR,,,,,,,,,,,,METAR,339.0
UBBN 160700Z 21004KT 9999 FEW046 16/05 Q1018 NOSIG RMK MT OP QFE689,UBBN,2023-05-16T07:00:00Z,39.18,45.45,16.0,5.0,210,4,,6.21,30.059055,,,,,,TRUE,,,,,FEW,4600,,,,,,,VFR,,,,,,,,,,,,SPECI,857.0
UBBL 160700Z VRB02KT 9999 SCT100 21/10 Q1020 NOSIG RMK MT OP,UBBL,2023-05-16T07:00:00Z,38.75,48.82,21.0,10.0,0,2,,6.21,30.11811,,,,,,TRUE,,,,,SCT,10000,,,,,,,VFR,,,,,,,,,,,,METAR,-11.0
UBBG 160700Z 35006KT 250V030 9999 FEW015 SCT100 17/10 Q1019 NOSIG,UBBG,2023-05-16T07:00:00Z,40.73,46.32,17.0,10.0,350,6,,6.21,30.088583,,,,,,TRUE,,,,,FEW,1500,SCT,10000,,,,,VFR,,,,,,,,,,,,METAR,333.0
UBBF 160700Z 17004KT 9999 SCT025 BKN080 18/09 Q1020 NOSIG RMK MT OP,UBBF,2023-05-16T07:00:00Z,39.6,47.2,18.0,9.0,170,4,,6.21,30.11811,,,,,,TRUE,,,,,SCT,2500,BKN,8000,,,,,VFR,,,,,,,,,,,,METAR,370.0
UBBB 160700Z 31014KT CAVOK 21/08 Q1018 NOSIG,UBBB,2023-05-16T07:00:00Z,40.47,50.07,21.0,8.0,310,14,,6.21,30.059055,,,,,,TRUE,,,,,CAVOK,,,,,,,,VFR,,,,,,,,,,,,METAR,94.0
UAUU 160700Z 04005MPS 010V080 8000 NSC 20/02 Q1019 NOSIG RMK QFE749/0998,UAUU,2023-05-16T07:00:00Z,53.2,63.55,20.0,2.0,40,10,,4.97,30.088583,,,,,,TRUE,,,,,CLR,,,,,,,,MVFR,,,,,,,,,,,,METAR,177.0
UATT 160700Z 07009MPS CAVOK 19/M02 Q1015 NOSIG RMK QFE742/0989,UATT,2023-05-16T07:00:00Z,50.25,57.2,19.0,-2.0,70,17,,6.21,29.970472,,,,,,TRUE,,,,,CAVOK,,,,,,,,VFR,,,,,,,,,,,,METAR,217.0
UATG 160700Z 04006MPS 010V070 CAVOK 22/00 Q1012 NOSIG RMK QFE761/1014,UATG,2023-05-16T07:00:00Z,47.12,51.83,22.0,0.0,40,12,,6.21,29.88189,,,,,,TRUE,,,,,CAVOK,,,,,,,,VFR,,,,,,,,,,,,METAR,-23.0
UATE 160700Z 29007MPS 260V330 9999 FEW026TCU 18/15 Q1013 NOSIG RMK QFE758/1011,UATE,2023-05-16T07:00:00Z,43.87,51.1,18.0,15.0,290,14,,6.21,29.911417,,,,,,TRUE,,,,,FEW,2600,,,,,,,VFR,,,,,,,,,,,,METAR,21.0
UASS 160700Z 24006MPS 210V300 CAVOK 21/M01 Q1016 NOSIG RMK QFE744/0992,UASS,2023-05-16T07:00:00Z,50.35,80.23,21.0,-1.0,240,12,,6.21,30.0,,,,,,TRUE,,,,,CAVOK,,,,,,,,VFR,,,,,,,,,,,,METAR,215.0
UASP 160700Z 29009G15MPS 9999 SCT048CB 20/03 Q1015 NOSIG RMK QFE750/1000,UASP,2023-05-16T07:00:00Z,52.2,77.07,20.0,3.0,290,17,29,6.21,29.970472,,,,,,TRUE,,,,,SCT,4800,,,,,,,VFR,,,,,,,,,,,,METAR,122.0
UASK 160700Z 31003MPS 250V350 9999 SCT100 18/03 Q1016 NOSIG RMK QFE737/0983,UASK,2023-05-16T07:00:00Z,50.03,82.5,18.0,3.0,310,6,,6.21,30.0,,,,,,TRUE,,,,,SCT,10000,,,,,,,VFR,,,,,,,,,,,,METAR,285.0
UARR 160700Z 09007G12MPS 060V120 CAVOK 20/03 Q1018 NOSIG RMK QFE760/1013,UARR,2023-05-16T07:00:00Z,51.15,51.53,20.0,3.0,90,14,23,6.21,30.059055,,,,,,TRUE,,,,,CAVOK,,,,,,,,VFR,,,,,,,,,,,,METAR,33.0
UAOO 160700Z 23009MPS CAVOK 28/07 Q1005 NOSIG RMK QFE742/0990,UAOO,2023-05-16T07:00:00Z,44.7,65.6,28.0,7.0,230,17,,6.21,29.675198,,,,,,TRUE,,,,,CAVOK,,,,,,,,VFR,,,,,,,,,,,,METAR,130.0
UAKK 160700Z 07004MPS 350V140 CAVOK 19/M07 Q1017 NOSIG RMK QFE716/0954,UAKK,2023-05-16T07:00:00Z,49.68,73.35,19.0,-7.0,70,8,,6.21,30.029528,,,,,,TRUE,,,,,CAVOK,,,,,,,,VFR,,,,,,,,,,,,METAR,532.0
UAIT 160700Z 23005MPS 200V270 CAVOK 31/08 Q1008 NOSIG RMK QFE729/0972,UAIT,2023-05-16T07:00:00Z,43.32,68.55,31.0,8.0,230,10,,6.21,29.763779,,,,,,TRUE,,,,,CAVOK,,,,,,,,VFR,,,,,,,,,,,,METAR,301.0
UAII 160700Z 29005MPS 9999 SCT050CB 31/06 Q1008 NOSIG RMK QFE719/0959,UAII,2023-05-16T07:00:00Z,42.37,69.48,31.0,6.0,290,10,,6.21,29.763779,,,,,,TRUE,,,,,SCT,5000,,,,,,,VFR,,,,,,,,,,,,METAR,410.0
UADD 160700Z 18002MPS 9999 SCT050CB OVC100 30/07 Q1010 NOSIG RMK QFE700/0934,UADD,2023-05-16T07:00:00Z,42.85,71.3,30.0,7.0,180,4,,6.21,29.822834,,,,,,TRUE,,,,,SCT,5000,OVC,10000,,,,,VFR,,,,,,,,,,,,METAR,663.0
UACP 160700Z 28004MPS 240V320 CAVOK 19/01 Q1017 NOSIG RMK QFE750/1001,UACP,2023-05-16T07:00:00Z,54.78,69.18,19.0,1.0,280,8,,6.21,30.029528,,,,,,TRUE,,,,,CAVOK,,,,,,,,VFR,,,,,,,,,,,,METAR,134.0
UACK 160700Z 26004MPS 200V320 CAVOK 20/02 Q1018 NOSIG RMK QFE739/0986,UACK,2023-05-16T07:00:00Z,53.32,69.58,20.0,2.0,260,8,,6.21,30.059055,,,,,,TRUE,,,,,CAVOK,,,,,,,,VFR,,,,,,,,,,,,SPECI,261.0
UACC 160700Z 12005MPS 080V160 CAVOK 19/M03 Q1017 WS R04 NOSIG RMK QFE732/0976,UACC,2023-05-16T07:00:00Z,51.02,71.47,19.0,-3.0,120,10,,6.21,30.029528,,,,,,TRUE,,,,,CAVOK,,,,,,,,VFR,,,,,,,,,,,,METAR,354.0
UAAT 160700Z 02006MPS 9999 FEW200 22/05 Q1011 NOSIG RMK QFE707/0943,UAAT,2023-05-16T07:00:00Z,45.12,78.45,22.0,5.0,20,12,,6.21,29.852362,,,,,,TRUE,,,,,FEW,20000,,,,,,,VFR,,,,,,,,,,,,METAR,588.0
UAAH 160700Z 10008MPS 070V130 CAVOK 21/M08 Q1015 NOSIG RMK QFE724/0965,UAAH,2023-05-16T07:00:00Z,46.9,75.0,21.0,-8.0,100,16,,6.21,29.970472,,,,,,TRUE,,,,,CAVOK,,,,,,,,VFR,,,,,,,,,,,,METAR,427.0
UAAA 160700Z 01002MPS 9999 FEW050 SCT200 23/03 Q1011 NOSIG,UAAA,2023-05-16T07:00:00Z,43.35,77.03,23.0,3.0,10,4,,6.21,29.852362,,,,,,TRUE,,,,,FEW,5000,SCT,20000,,,,,VFR,,,,,,,,,,,,METAR,673.0
TTPP 160700Z 11005KT 9999 FEW018 26/24 Q1013 NOSIG,TTPP,2023-05-16T07:00:00Z,10.58,-61.35,26.0,24.0,110,5,,6.21,29.911417,,,,,,TRUE,,,,,FEW,1800,,,,,,,VFR,,,,,,,,,,,,METAR,11.0
TTCP 160700Z 10008KT 9999 FEW016 27/24 Q1013 NOSIG,TTCP,2023-05-16T07:00:00Z,11.15,-60.85,27.0,24.0,100,8,,6.21,29.911417,,,,,,TRUE,,,,,FEW,1600,,,,,,,VFR,,,,,,,,,,,,METAR,13.0
TNCM 160700Z 10005KT 060V130 9999 SCT018 27/24 Q1016 ,TNCM,2023-05-16T07:00:00Z,18.05,-63.12,27.0,24.0,100,5,,6.21,30.0,,,,,,,,,,,SCT,1800,,,,,,,VFR,,,,,,,,,,,,METAR,9.0
TNCC 160700Z 11011KT 9999 FEW015 26/24 Q1012 NOSIG,TNCC,2023-05-16T07:00:00Z,12.2,-68.97,26.0,24.0,110,11,,6.21,29.88189,,,,,,TRUE,,,,,FEW,1500,,,,,,,VFR,,,,,,,,,,,,METAR,10.0
TNCA 160700Z 11014KT 9999 FEW018 27/24 Q1013 NOSIG,TNCA,2023-05-16T07:00:00Z,12.5,-70.0,27.0,24.0,110,14,,6.21,29.911417,,,,,,TRUE,,,,,FEW,1800,,,,,,,VFR,,,,,,,,,,,,METAR,7.0
TGPY 160700Z 09014KT 9999 FEW018 27/24 Q1013 NOSIG,TGPY,2023-05-16T07:00:00Z,12.0,-61.78,27.0,24.0,90,14,,6.21,29.911417,,,,,,TRUE,,,,,FEW,1800,,,,,,,VFR,,,,,,,,,,,,METAR,12.0
TFFR 160700Z AUTO 00000KT 9999 FEW058 SCT190 24/22 Q1014,TFFR,2023-05-16T07:00:00Z,16.27,-61.53,24.0,22.0,0,0,,6.21,29.940945,,,TRUE,,,,,,,,FEW,5800,SCT,19000,,,,,VFR,,,,,,,,,,,,METAR,6.0
TFFF 160700Z AUTO 07003KT 040V100 9999 FEW021 SCT240 26/23 Q1015,TFFF,2023-05-16T07:00:00Z,14.6,-61.0,26.0,23.0,70,3,,6.21,29.970472,,,TRUE,,,,,,,,FEW,2100,SCT,24000,,,,,VFR,,,,,,,,,,,,METAR,3.0
TBPB 160700Z 10007KT 9999 SCT020 SCT046 27/23 Q1014 NOSIG,TBPB,2023-05-16T07:00:00Z,13.07,-59.48,27.0,23.0,100,7,,6.21,29.940945,,,,,,TRUE,,,,,SCT,2000,SCT,4600,,,,,VFR,,,,,,,,,,,,METAR,55.0
TAPA 160700Z 09006KT 050V140 9999 SCT020 26/23 Q1015 NOSIG,TAPA,2023-05-16T07:00:00Z,17.13,-61.78,26.0,23.0,90,6,,6.21,29.970472,,,,,,TRUE,,,,,SCT,2000,,,,,,,VFR,,,,,,,,,,,,METAR,15.0
SVMI 160700Z 09004KT 9999 FEW016 SCT080 24/22 Q1013,SVMI,2023-05-16T07:00:00Z,10.6,-67.0,24.0,22.0,90,4,,6.21,29.911417,,,,,,,,,,,FEW,1600,SCT,8000,,,,,VFR,,,,,,,,,,,,METAR,48.0
SUMU 160700Z 04003KT CAVOK 13/12 Q1019 NOSIG,SUMU,2023-05-16T07:00:00Z,-34.83,-56.02,13.0,12.0,40,3,,6.21,30.088583,,,,,,TRUE,,,,,CAVOK,,,,,,,,VFR,,,,,,,,,,,,METAR,32.0
SPUR 160700Z 16004KT CAVOK 23/21 Q1015 RMK PP000,SPUR,2023-05-16T07:00:00Z,-5.17,-80.58,23.0,21.0,160,4,,6.21,29.970472,,,,,,,,,,,CAVOK,,,,,,,,VFR,,,,,,,,,,,,METAR,55.0
SPSO 160700Z 23010KT 8000 OVC023 21/17 Q1015 RMK PP000,SPSO,2023-05-16T07:00:00Z,-13.73,-76.22,21.0,17.0,230,10,,4.97,29.970472,,,,,,,,,,,OVC,2300,,,,,,,MVFR,,,,,,,,,,,,METAR,8.0
SPRU 160700Z 18005KT 4500 BR SCT030 23/21 Q1015 RMK PP000,SPRU,2023-05-16T07:00:00Z,-8.08,-79.12,23.0,21.0,180,5,,2.8,29.970472,,,,,,,,,,BR,SCT,3000,,,,,,,IFR,,,,,,,,,,,,METAR,23.0
SPQT 160700Z 00000KT 9999 FEW005 SCT100 23/22 Q1013 NOSIG RMK PP000,SPQT,2023-05-16T07:00:00Z,-3.78,-73.32,23.0,22.0,0,0,,6.21,29.911417,,,,,,TRUE,,,,,FEW,500,SCT,10000,,,,,VFR,,,,,,,,,,,,METAR,92.0
SPJC 160700Z 16008KT 9999 OVC028 22/19 Q1015 NOSIG RMK PP000,SPJC,2023-05-16T07:00:00Z,-12.02,-77.12,22.0,19.0,160,8,,6.21,29.970472,,,,,,TRUE,,,,,OVC,2800,,,,,,,MVFR,,,,,,,,,,,,METAR,26.0
SPHI 160700Z 18007KT 9999 BKN040 24/21 Q1014 RMK BIRD HAZARD RWY 19/01 PP000,SPHI,2023-05-16T07:00:00Z,-6.78,-79.82,24.0,21.0,180,7,,6.21,29.940945,,,,,,,,,,,BKN,4000,,,,,,,VFR,,,,,,,,,,,,METAR,33.0
SOCA 160700Z AUTO 00000KT 9999 BKN014 BKN022 BKN046 24/24 Q1011,SOCA,2023-05-16T07:00:00Z,4.82,-52.37,24.0,24.0,0,0,,6.21,29.852362,,,TRUE,,,,,,,,BKN,1400,BKN,2200,BKN,4600,,,MVFR,,,,,,,,,,,,METAR,7.0
SMJP 160700Z 01001KT 9999 FEW008 25/24 Q1012 NOSIG,SMJP,2023-05-16T07:00:00Z,5.45,-55.18,25.0,24.0,10,1,,6.21,29.88189,,,,,,TRUE,,,,,FEW,800,,,,,,,VFR,,,,,,,,,,,,METAR,14.0
SLVR 160700Z 00000KT 9999 NSC 18/16 Q1015,SLVR,2023-05-16T07:00:00Z,-17.63,-63.13,18.0,16.0,0,0,,6.21,29.970472,,,,,,,,,,,CLR,,,,,,,,VFR,,,,,,,,,,,,METAR,377.0
SLLP 160700Z VRB02KT 9999 NSC 04/M00 Q1040,SLLP,2023-05-16T07:00:00Z,-16.52,-68.17,4.0,0.0,0,2,,6.21,30.708662,,,,,,,,,,,CLR,,,,,,,,VFR,,,,,,,,,,,,METAR,4061.0
SLCB 160700Z 00000KT 9999 NSC 09/03 Q1027,SLCB,2023-05-16T07:00:00Z,-17.42,-66.18,9.0,3.0,0,0,,6.21,30.324802,,,,,,,,,,,CLR,,,,,,,,VFR,,,,,,,,,,,,METAR,2560.0
SKSP 160700Z 06007KT 040V100 9999 FEW017 28/25 1013 RMK A2993,SKSP,2023-05-16T07:00:00Z,12.58,-81.72,28.0,25.0,60,7,,6.21,,,,,,,,,,,,FEW,1700,,,,,,,VFR,,,,,,,,,,,,METAR,6.0
SKRG 160700Z 33003KT 7000 VCFG BKN008 SCT080 14/14 Q1028 NOSIG RMK VCFG/S A3036,SKRG,2023-05-16T07:00:00Z,6.17,-75.42,14.0,14.0,330,3,,4.35,30.35433,,,,,,TRUE,,,,VCFG,BKN,800,SCT,8000,,,,,IFR,,,,,,,,,,,,METAR,2132.0
SKLT 160700Z 19004KT 9999 -DZ BKN005 24/24 Q1012 RMK A2991,SKLT,2023-05-16T07:00:00Z,-4.2,-69.93,24.0,24.0,190,4,,6.21,29.88189,,,,,,,,,,-DZ,BKN,500,,,,,,,IFR,,,,,,,,,,,,METAR,78.0
SKCL 160700Z VRB02KT 8000 VCFG FEW030 SCT100 20/19 Q1018 NOSIG RMK A3007,SKCL,2023-05-16T07:00:00Z,3.53,-76.37,20.0,19.0,0,2,,4.97,30.059055,,,,,,TRUE,,,,VCFG,FEW,3000,SCT,10000,,,,,MVFR,,,,,,,,,,,,METAR,967.0
SKCG 160700Z 33007KT 9999 BKN015 29/26 Q1012 RMK A2988,SKCG,2023-05-16T07:00:00Z,10.43,-75.52,29.0,26.0,330,7,,6.21,29.88189,,,,,,,,,,,BKN,1500,,,,,,,MVFR,,,,,,,,,,,,METAR,6.0
SKBQ 160700Z 36003KT 280V040 8000 VCFG SCT012 28/26 Q1012 NOSIG RMK A2991,SKBQ,2023-05-16T07:00:00Z,10.87,-74.77,28.0,26.0,360,3,,4.97,29.88189,,,,,,TRUE,,,,VCFG,SCT,1200,,,,,,,MVFR,,,,,,,,,,,,METAR,23.0
SKBO 160700Z VRB02KT 9999 FEW057 BKN070 21/11 Q1029 NOSIG RMK A3040,SKBO,2023-05-16T07:00:00Z,4.7,-74.15,21.0,11.0,0,2,,6.21,30.383858,,,,,,TRUE,,,,,FEW,5700,BKN,7000,,,,,VFR,,,,,,,,,,,,METAR,2547.0
SGES 160700Z 16006KT 6000 NSC 10/10 Q1018,SGES,2023-05-16T07:00:00Z,-25.45,-54.85,10.0,10.0,160,6,,3.73,30.059055,,,,,,,,,,,CLR,,,,,,,,MVFR,,,,,,,,,,,,METAR,256.0
SGAS 160700Z 00000KT CAVOK 12/11 Q1017,SGAS,2023-05-16T07:00:00Z,-25.25,-57.52,12.0,11.0,0,0,,6.21,30.029528,,,,,,,,,,,CAVOK,,,,,,,,VFR,,,,,,,,,,,,METAR,83.0
SEQM 160700Z 31006KT 9999 -RA FEW003 SCT010 OVC080 13/13 Q1030 NOSIG RMK A3043,SEQM,2023-05-16T07:00:00Z,-0.12,-78.35,13.0,13.0,310,6,,6.21,30.413385,,,,,,TRUE,,,,-RA,FEW,300,SCT,1000,OVC,8000,,,VFR,,,,,,,,,,,,METAR,2386.0
SEMT 160700Z 10002KT 9999 SCT023 25/23 Q1014 RMK A2995,SEMT,2023-05-16T07:00:00Z,-0.95,-80.67,25.0,23.0,100,2,,6.21,29.940945,,,,,,,,,,,SCT,2300,,,,,,,VFR,,,,,,,,,,,,SPECI,13.0
SEGU 160700Z 27004KT 9999 SCT023 BKN100 26/24 Q1013 NOSIG RMK A2992,SEGU,2023-05-16T07:00:00Z,-2.15,-79.88,26.0,24.0,270,4,,6.21,29.911417,,,,,,TRUE,,,,,SCT,2300,BKN,10000,,,,,VFR,,,,,,,,,,,,METAR,6.0
SCVM 160700Z 00000KT 9999 BKN020 14/11 Q1017,SCVM,2023-05-16T07:00:00Z,-32.95,-71.48,14.0,11.0,0,0,,6.21,30.029528,,,,,,,,,,,BKN,2000,,,,,,,MVFR,,,,,,,,,,,,METAR,136.0
SCVD 160700Z AUTO 00000KT //// R35///// OVC046 11/11 Q1017,SCVD,2023-05-16T07:00:00Z,-39.65,-73.08,11.0,11.0,0,0,,,30.029528,,,TRUE,,,,,,,,OVC,4600,,,,,,,,,,,,,,,,,,,METAR,19.0
SCTN 160700Z AUTO 36007KT CAVOK 10/10 Q1016,SCTN,2023-05-16T07:00:00Z,-42.92,-72.7,10.0,10.0,360,7,,6.21,30.0,,,TRUE,,,,,,,,CAVOK,,,,,,,,VFR,,,,,,,,,,,,METAR,8.0
SCTE 160700Z VRB01KT 9999 SCT021 BKN038 09/09 Q1017 NOSIG,SCTE,2023-05-16T07:00:00Z,-41.43,-73.08,9.0,9.0,0,1,,6.21,30.029528,,,,,,TRUE,,,,,SCT,2100,BKN,3800,,,,,VFR,,,,,,,,,,,,METAR,85.0
SCSN 160700Z AUTO 00000KT //// R/////// // OVC034 14/14 Q1017,SCSN,2023-05-16T07:00:00Z,-33.65,-71.62,14.0,14.0,0,0,,,30.029528,,,TRUE,,,,,,,,OVC,3400,,,,,,,,,,,,,,,,,,,METAR,73.0
SCSE 160700Z AUTO 09005KT 9999 BKN026/// 11/09 Q1016,SCSE,2023-05-16T07:00:00Z,-29.92,-71.2,11.0,9.0,90,5,,6.21,30.0,,,TRUE,,,,,,,,BKN,2600,,,,,,,MVFR,,,,,,,,,,,,METAR,141.0
SCQP 160700Z VRB02KT 5000 -DZ BR SCT016 OVC030 13/13 Q1017,SCQP,2023-05-16T07:00:00Z,-38.92,-72.65,13.0,13.0,0,2,,3.11,30.029528,,,,,,,,,,-DZ BR,SCT,1600,OVC,3000,,,,,MVFR,,,,,,,,,,,,METAR,97.0
SCPQ 160700Z AUTO 34004KT 9999 FEW038 07/05 Q1015,SCPQ,2023-05-16T07:00:00Z,-42.33,-73.72,7.0,5.0,340,4,,6.21,29.970472,,,TRUE,,,,,,,,FEW,3800,,,,,,,VFR,,,,,,,,,,,,METAR,166.0
SCON 160700Z AUTO 34007KT 300V010 CAVOK 09/07 Q1015,SCON,2023-05-16T07:00:00Z,-43.13,-73.62,9.0,7.0,340,7,,6.21,29.970472,,,TRUE,,,,,,,,CAVOK,,,,,,,,VFR,,,,,,,,,,,,METAR,11.0
SCMK 160700Z AUTO 31010KT 250V340 //// // FEW013/// SCT055/// 10/09 Q1012,SCMK,2023-05-16T07:00:00Z,-43.9,-73.73,10.0,9.0,310,10,,,29.88189,,,TRUE,,,,,,,,FEW,1300,SCT,5500,,,,,,,,,,,,,,,,,METAR,22.0
SCIP 160700Z 10010KT 9999 OVC045 20/12 Q1028 NOSIG,SCIP,2023-05-16T07:00:00Z,-27.17,-109.43,20.0,12.0,100,10,,6.21,30.35433,,,,,,TRUE,,,,,OVC,4500,,,,,,,VFR,,,,,,,,,,,,METAR,48.0
SCIE 160700Z 36003KT 320V040 9999 OVC007 14/13 Q1017,SCIE,2023-05-16T07:00:00Z,-36.77,-73.07,14.0,13.0,360,3,,6.21,30.029528,,,,,,,,,,,OVC,700,,,,,,,IFR,,,,,,,,,,,,METAR,8.0
SCIC 160700Z AUTO 33002KT //// R/////// // NCD 12/12 Q1017,SCIC,2023-05-16T07:00:00Z,-34.97,-71.22,12.0,12.0,330,2,,,30.029528,,,TRUE,,,,,,,,CLR,,,,,,,,,,,,,,,,,,,,METAR,230.0
SCFA 160700Z 08004KT 9999 BKN011 16/14 Q1017 NOSIG,SCFA,2023-05-16T07:00:00Z,-23.43,-70.43,16.0,14.0,80,4,,6.21,30.029528,,,,,,TRUE,,,,,BKN,1100,,,,,,,MVFR,,,,,,,,,,,,METAR,113.0
SCEL 160700Z AUTO 14005KT 7000 OVC017/// 11/09 Q1017,SCEL,2023-05-16T07:00:00Z,-33.38,-70.78,11.0,9.0,140,5,,4.35,30.029528,,,TRUE,,,,,,,,OVC,1700,,,,,,,MVFR,,,,,,,,,,,,METAR,478.0
SCDA 160700Z 00000KT CAVOK 17/13 Q1016,SCDA,2023-05-16T07:00:00Z,-20.53,-70.17,17.0,13.0,0,0,,6.21,30.0,,,,,,,,,,,CAVOK,,,,,,,,VFR,,,,,,,,,,,,METAR,41.0
SCCY 160700Z AUTO 20006KT 170V230 9999 -RA SCT034 OVC041 07/03 Q1006,SCCY,2023-05-16T07:00:00Z,-45.58,-72.1,7.0,3.0,200,6,,6.21,29.704725,,,TRUE,,,,,,,-RA,SCT,3400,OVC,4100,,,,,VFR,,,,,,,,,,,,METAR,301.0
SCCI 160700Z 28005KT 9999 FEW036 OVC066 03/01 Q0990 NOSIG,SCCI,2023-05-16T07:00:00Z,-53.0,-70.85,3.0,1.0,280,5,,6.21,29.232283,,,,,,TRUE,,,,,FEW,3600,OVC,6600,,,,,VFR,,,,,,,,,,,,METAR,37.0
SCCF 160700Z 13016KT CAVOK 10/M09 Q1029,SCCF,2023-05-16T07:00:00Z,-22.5,-68.9,10.0,-9.0,130,16,,6.21,30.383858,,,,,,,,,,,CAVOK,,,,,,,,VFR,,,,,,,,,,,,METAR,2290.0
SCBA 160700Z AUTO 28018KT 9999 -RA FEW037/// OVC068/// 05/03 Q1003,SCBA,2023-05-16T07:00:00Z,-45.92,-71.68,5.0,3.0,280,18,,6.21,29.616142,,,TRUE,,,,,,,-RA,FEW,3700,OVC,6800,,,,,VFR,,,,,,,,,,,,METAR,516.0
SCAR 160700Z 00000KT 9999 OVC022 20/15 Q1015,SCAR,2023-05-16T07:00:00Z,-18.35,-70.33,20.0,15.0,0,0,,6.21,29.970472,,,,,,,,,,,OVC,2200,,,,,,,MVFR,,,,,,,,,,,,METAR,57.0
SCAP 160700Z AUTO /////KT ///V/// //// // ////// ///// Q////,SCAP,2023-05-16T07:00:00Z,-43.62,-71.8,,,,,,,,,,TRUE,,,,,,,,,,,,,,,,,,,,,,,,,,,,METAR,252.0
SBVT 160700Z 22004KT CAVOK 22/19 Q1015,SBVT,2023-05-16T07:00:00Z,-20.25,-40.28,22.0,19.0,220,4,,6.21,29.970472,,,,,,,,,,,CAVOK,,,,,,,,VFR,,,,,,,,,,,,METAR,4.0
SBUR 160700Z 00000KT CAVOK 14/10 Q1020,SBUR,2023-05-16T07:00:00Z,-19.77,-47.97,14.0,10.0,0,0,,6.21,30.11811,,,,,,,,,,,CAVOK,,,,,,,,VFR,,,,,,,,,,,,METAR,807.0
SBUL 160700Z 14008KT CAVOK 16/05 Q1020,SBUL,2023-05-16T07:00:00Z,-18.87,-48.22,16.0,5.0,140,8,,6.21,30.11811,,,,,,,,,,,CAVOK,,,,,,,,VFR,,,,,,,,,,,,METAR,945.0
SBTU 160700Z AUTO 22003KT 9999 // FEW078/// OVC088/// 24/24 Q1014,SBTU,2023-05-16T07:00:00Z,-3.78,-49.72,24.0,24.0,220,3,,6.21,29.940945,,,TRUE,,,,,,,,FEW,7800,OVC,8800,,,,,VFR,,,,,,,,,,,,METAR,250.0
SBTE 160700Z 00000KT CAVOK 26/24 Q1011,SBTE,2023-05-16T07:00:00Z,-5.05,-42.82,26.0,24.0,0,0,,6.21,29.852362,,,,,,,,,,,CAVOK,,,,,,,,VFR,,,,,,,,,,,,METAR,60.0
SBSV 160700Z 27003KT 9999 SCT020 25/24 Q1014,SBSV,2023-05-16T07:00:00Z,-12.9,-38.32,25.0,24.0,270,3,,6.21,29.940945,,,,,,,,,,,SCT,2000,,,,,,,VFR,,,,,,,,,,,,METAR,9.0
SBSR 160700Z 13002KT CAVOK 17/06 Q1018,SBSR,2023-05-16T07:00:00Z,-20.8,-49.4,17.0,6.0,130,2,,6.21,30.059055,,,,,,,,,,,CAVOK,,,,,,,,VFR,,,,,,,,,,,,METAR,537.0
SBSP 160700Z AUTO 32004KT CAVOK 13/10 Q1020,SBSP,2023-05-16T07:00:00Z,-23.62,-46.65,13.0,10.0,320,4,,6.21,30.11811,,,TRUE,,,,,,,,CAVOK,,,,,,,,VFR,,,,,,,,,,,,METAR,802.0
SBSN 160700Z 24007KT 3000 TSRA SCT013 BKN015 FEW023CB OVC100 25/25 Q1012,SBSN,2023-05-16T07:00:00Z,-2.42,-54.78,25.0,25.0,240,7,,1.86,29.88189,,,,,,,,,,TSRA,SCT,1300,BKN,1500,FEW,2300,OVC,10000,IFR,,,,,,,,,,,,METAR,57.0
SBSL 160700Z 06004KT 9999 SCT017 FEW020TCU 27/26 Q1018,SBSL,2023-05-16T07:00:00Z,-2.58,-44.23,27.0,26.0,60,4,,6.21,30.059055,,,,,,,,,,,SCT,1700,FEW,2000,,,,,VFR,,,,,,,,,,,,METAR,53.0
SBSG 160700Z 19003KT 9999 FEW021 23/22 Q1013,SBSG,2023-05-16T07:00:00Z,-5.77,-35.37,23.0,22.0,190,3,,6.21,29.911417,,,,,,,,,,,FEW,2100,,,,,,,VFR,,,,,,,,,,,,METAR,83.0
SBSC 160700Z 35005KT CAVOK 16/15 Q1017,SBSC,2023-05-16T07:00:00Z,-22.92,-43.72,16.0,15.0,350,5,,6.21,30.029528,,,,,,,,,,,CAVOK,,,,,,,,VFR,,,,,,,,,,,,METAR,6.0
SBRP 160700Z 08002KT CAVOK 10/07 Q1019,SBRP,2023-05-16T07:00:00Z,-21.13,-47.77,10.0,7.0,80,2,,6.21,30.088583,,,,,,,,,,,CAVOK,,,,,,,,VFR,,,,,,,,,,,,METAR,550.0
SBRJ 160700Z 29004KT CAVOK 20/16 Q1016,SBRJ,2023-05-16T07:00:00Z,-22.9,-43.17,20.0,16.0,290,4,,6.21,30.0,,,,,,,,,,,CAVOK,,,,,,,,VFR,,,,,,,,,,,,METAR,6.0
SBRF 160700Z 21005KT 9000 VCSH SCT021 SCT050 24/22 Q1013,SBRF,2023-05-16T07:00:00Z,-8.13,-34.92,24.0,22.0,210,5,,5.59,29.911417,,,,,,,,,,VCSH,SCT,2100,SCT,5000,,,,,VFR,,,,,,,,,,,,METAR,10.0
SBRB 160700Z 21002KT CAVOK 22/22 Q1014,SBRB,2023-05-16T07:00:00Z,-9.87,-67.88,22.0,22.0,210,2,,6.21,29.940945,,,,,,,,,,,CAVOK,,,,,,,,VFR,,,,,,,,,,,,METAR,190.0
SBPV 160700Z 20001KT 9999 FEW040 25/23 Q1013,SBPV,2023-05-16T07:00:00Z,-8.72,-63.9,25.0,23.0,200,1,,6.21,29.911417,,,,,,,,,,,FEW,4000,,,,,,,VFR,,,,,,,,,,,,METAR,89.0
SBPS 160700Z 25004KT 4000 BR FEW015 22/21 Q1014,SBPS,2023-05-16T07:00:00Z,-16.43,-39.07,22.0,21.0,250,4,,2.49,29.940945,,,,,,,,,,BR,FEW,1500,,,,,,,IFR,,,,,,,,,,,,METAR,44.0
SBPL 160700Z 16008KT CAVOK 24/21 Q1015,SBPL,2023-05-16T07:00:00Z,-9.37,-40.57,24.0,21.0,160,8,,6.21,29.970472,,,,,,,,,,,CAVOK,,,,,,,,VFR,,,,,,,,,,,,METAR,386.0
SBPJ 160700Z 00000KT 9999 FEW045 25/23 Q1013,SBPJ,2023-05-16T07:00:00Z,-10.28,-48.37,25.0,23.0,0,0,,6.21,29.911417,,,,,,,,,,,FEW,4500,,,,,,,VFR,,,,,,,,,,,,METAR,226.0
SBPA 160700Z 27002KT CAVOK 13/12 Q1019,SBPA,2023-05-16T07:00:00Z,-30.0,-51.17,13.0,12.0,270,2,,6.21,30.088583,,,,,,,,,,,CAVOK,,,,,,,,VFR,,,,,,,,,,,,METAR,3.0
SBNT 160700Z 20004KT 9999 FEW020 23/23 Q1013,SBNT,2023-05-16T07:00:00Z,-5.92,-35.25,23.0,23.0,200,4,,6.21,29.911417,,,,,,,,,,,FEW,2000,,,,,,,VFR,,,,,,,,,,,,METAR,51.0
SBMQ 160700Z 32002KT CAVOK 25/25 Q1012,SBMQ,2023-05-16T07:00:00Z,0.05,-51.07,25.0,25.0,320,2,,6.21,29.88189,,,,,,,,,,,CAVOK,,,,,,,,VFR,,,,,,,,,,,,METAR,15.0
SBMO 160700Z 31003KT 9999 FEW021 22/22 Q1014,SBMO,2023-05-16T07:00:00Z,-9.52,-35.78,22.0,22.0,310,3,,6.21,29.940945,,,,,,,,,,,FEW,2100,,,,,,,VFR,,,,,,,,,,,,METAR,116.0
SBMN 160700Z 10001KT 9999 FEW007 SCT020 FEW025TCU BKN100 25/24 Q1012 RESHRA,SBMN,2023-05-16T07:00:00Z,-3.13,-59.98,25.0,24.0,100,1,,6.21,29.88189,,,,,,,,,,,FEW,700,SCT,2000,FEW,2500,BKN,10000,VFR,,,,,,,,,,,,METAR,71.0
SBMG 160700Z 00000KT CAVOK 14/09 Q1018,SBMG,2023-05-16T07:00:00Z,-23.48,-52.02,14.0,9.0,0,0,,6.21,30.059055,,,,,,,,,,,CAVOK,,,,,,,,VFR,,,,,,,,,,,,METAR,543.0
SBME 160700Z 32003KT CAVOK 15/15 Q1016,SBME,2023-05-16T07:00:00Z,-22.35,-41.77,15.0,15.0,320,3,,6.21,30.0,,,,,,,,,,,CAVOK,,,,,,,,VFR,,,,,,,,,,,,METAR,2.0
SBMA 160700Z 00000KT CAVOK 24/24 Q1012,SBMA,2023-05-16T07:00:00Z,-5.37,-49.13,24.0,24.0,0,0,,6.21,29.88189,,,,,,,,,,,CAVOK,,,,,,,,VFR,,,,,,,,,,,,METAR,110.0
SBLO 160700Z 21003KT CAVOK 13/09 Q1019,SBLO,2023-05-16T07:00:00Z,-23.33,-51.12,13.0,9.0,210,3,,6.21,30.088583,,,,,,,,,,,CAVOK,,,,,,,,VFR,,,,,,,,,,,,METAR,563.0
SBLE 160700Z AUTO 06005KT 9999 OVC013 22/21 Q1017,SBLE,2023-05-16T07:00:00Z,-12.48,-41.28,22.0,21.0,60,5,,6.21,30.029528,,,TRUE,,,,,,,,OVC,1300,,,,,,,MVFR,,,,,,,,,,,,METAR,495.0
SBLB 160700Z AUTO 24017KT 9999 NCD 24/16 Q1015 W///S4,SBLB,2023-05-16T07:00:00Z,-22.1,-39.92,24.0,16.0,240,17,,6.21,29.970472,,,TRUE,,,,,,,,CLR,,,,,,,,VFR,,,,,,,,,,,,SPECI,10.0
SBKP 160700Z 13005KT CAVOK 11/08 Q1020,SBKP,2023-05-16T07:00:00Z,-23.0,-47.13,11.0,8.0,130,5,,6.21,30.11811,,,,,,,,,,,CAVOK,,,,,,,,VFR,,,,,,,,,,,,METAR,659.0
SBKG 160700Z 16004KT 9999 SCT008 SCT070 22/20 Q1016,SBKG,2023-05-16T07:00:00Z,-7.27,-35.88,22.0,20.0,160,4,,6.21,30.0,,,,,,,,,,,SCT,800,SCT,7000,,,,,VFR,,,,,,,,,,,,METAR,499.0
SBJU 160700Z 00000KT CAVOK 23/23 Q1017,SBJU,2023-05-16T07:00:00Z,-7.22,-39.27,23.0,23.0,0,0,,6.21,30.029528,,,,,,,,,,,CAVOK,,,,,,,,VFR,,,,,,,,,,,,METAR,407.0
SBJP 160700Z 18004KT 9999 FEW015 24/23 Q1014,SBJP,2023-05-16T07:00:00Z,-7.15,-34.95,24.0,23.0,180,4,,6.21,29.940945,,,,,,,,,,,FEW,1500,,,,,,,VFR,,,,,,,,,,,,METAR,66.0
SBIZ 160700Z 02002KT CAVOK 25/24 Q1012,SBIZ,2023-05-16T07:00:00Z,-5.52,-47.45,25.0,24.0,20,2,,6.21,29.88189,,,,,,,,,,,CAVOK,,,,,,,,VFR,,,,,,,,,,,,METAR,131.0
SBIP 160700Z AUTO 23005KT CAVOK 19/16 Q1016,SBIP,2023-05-16T07:00:00Z,-19.47,-42.48,19.0,16.0,230,5,,6.21,30.0,,,TRUE,,,,,,,,CAVOK,,,,,,,,VFR,,,,,,,,,,,,METAR,240.0
SBIH 160700Z 00000KT 9999 SCT010 26/25 Q1011,SBIH,2023-05-16T07:00:00Z,-4.25,-56.0,26.0,25.0,0,0,,6.21,29.852362,,,,,,,,,,,SCT,1000,,,,,,,VFR,,,,,,,,,,,,METAR,30.0
SBGR 160700Z 09003KT CAVOK 08/07 Q1020,SBGR,2023-05-16T07:00:00Z,-23.42,-46.47,8.0,7.0,90,3,,6.21,30.11811,,,,,,,,,,,CAVOK,,,,,,,,VFR,,,,,,,,,,,,METAR,745.0
SBGO 160700Z 12003KT CAVOK 16/14 Q1019,SBGO,2023-05-16T07:00:00Z,-16.62,-49.22,16.0,14.0,120,3,,6.21,30.088583,,,,,,,,,,,CAVOK,,,,,,,,VFR,,,,,,,,,,,,METAR,740.0
SBGL 160700Z 31005KT CAVOK 18/15 Q1016,SBGL,2023-05-16T07:00:00Z,-22.82,-43.25,18.0,15.0,310,5,,6.21,30.0,,,,,,,,,,,CAVOK,,,,,,,,VFR,,,,,,,,,,,,METAR,3.0
SBFZ 160700Z 19004KT 9999 SCT020 26/25 Q1012,SBFZ,2023-05-16T07:00:00Z,-3.77,-38.52,26.0,25.0,190,4,,6.21,29.88189,,,,,,,,,,,SCT,2000,,,,,,,VFR,,,,,,,,,,,,METAR,32.0
SBFL 160700Z 25003KT CAVOK 14/14 Q1017,SBFL,2023-05-16T07:00:00Z,-27.67,-48.53,14.0,14.0,250,3,,6.21,30.029528,,,,,,,,,,,CAVOK,,,,,,,,VFR,,,,,,,,,,,,METAR,5.0
SBFI 160700Z 13006KT 7000 NSC 13/13 Q1019,SBFI,2023-05-16T07:00:00Z,-25.6,-54.48,13.0,13.0,130,6,,4.35,30.088583,,,,,,,,,,,CLR,,,,,,,,MVFR,,,,,,,,,,,,METAR,233.0
SBEG 160700Z 22001KT 9999 SCT007 BKN080 25/24 Q1012,SBEG,2023-05-16T07:00:00Z,-3.03,-60.03,25.0,24.0,220,1,,6.21,29.88189,,,,,,,,,,,SCT,700,BKN,8000,,,,,VFR,,,,,,,,,,,,METAR,69.0
SBDN 160700Z 15004KT CAVOK 14/11 Q1018,SBDN,2023-05-16T07:00:00Z,-22.18,-51.43,14.0,11.0,150,4,,6.21,30.059055,,,,,,,,,,,CAVOK,,,,,,,,VFR,,,,,,,,,,,,METAR,438.0
SBCZ 160700Z 27001KT 9999 FEW025 24/24 Q1014,SBCZ,2023-05-16T07:00:00Z,-7.58,-72.77,24.0,24.0,270,1,,6.21,29.940945,,,,,,,,,,,FEW,2500,,,,,,,VFR,,,,,,,,,,,,METAR,193.0
SBCY 160700Z 00000KT CAVOK 18/17 Q1015,SBCY,2023-05-16T07:00:00Z,-15.65,-56.12,18.0,17.0,0,0,,6.21,29.970472,,,,,,,,,,,CAVOK,,,,,,,,VFR,,,,,,,,,,,,METAR,182.0
SBCT 160700Z 27003KT 5000 BR NSC 08/07 Q1021,SBCT,2023-05-16T07:00:00Z,-25.52,-49.17,8.0,7.0,270,3,,3.11,30.147638,,,,,,,,,,BR,CLR,,,,,,,,MVFR,,,,,,,,,,,,METAR,914.0
SBCG 160700Z 09005KT CAVOK 15/11 Q1018,SBCG,2023-05-16T07:00:00Z,-20.47,-54.67,15.0,11.0,90,5,,6.21,30.059055,,,,,,,,,,,CAVOK,,,,,,,,VFR,,,,,,,,,,,,METAR,556.0
SBCF 160700Z 15004KT CAVOK 15/12 Q1019,SBCF,2023-05-16T07:00:00Z,-19.63,-43.97,15.0,12.0,150,4,,6.21,30.088583,,,,,,,,,,,CAVOK,,,,,,,,VFR,,,,,,,,,,,,METAR,825.0
SBCB 160700Z 28013KT CAVOK 21/18 Q1016,SBCB,2023-05-16T07:00:00Z,-22.92,-42.08,21.0,18.0,280,13,,6.21,30.0,,,,,,,,,,,CAVOK,,,,,,,,VFR,,,,,,,,,,,,METAR,3.0
SBBV 160700Z 36004KT 9999 BKN015 FEW030TCU SCT080 24/22 Q1012,SBBV,2023-05-16T07:00:00Z,2.85,-60.7,24.0,22.0,360,4,,6.21,29.88189,,,,,,,,,,,BKN,1500,FEW,3000,SCT,8000,,,MVFR,,,,,,,,,,,,METAR,80.0
SBBR 160700Z 27003KT CAVOK 16/13 Q1020,SBBR,2023-05-16T07:00:00Z,-15.87,-47.92,16.0,13.0,270,3,,6.21,30.11811,,,,,,,,,,,CAVOK,,,,,,,,VFR,,,,,,,,,,,,METAR,1051.0
SBBH 160700Z 00000KT CAVOK 15/12 Q1019,SBBH,2023-05-16T07:00:00Z,-19.85,-43.95,15.0,12.0,0,0,,6.21,30.088583,,,,,,,,,,,CAVOK,,,,,,,,VFR,,,,,,,,,,,,METAR,799.0
SBBG 160700Z AUTO 02004KT CAVOK ///// Q////,SBBG,2023-05-16T07:00:00Z,-31.38,-54.12,,,20,4,,6.21,,,,TRUE,,,,,,,,CAVOK,,,,,,,,VFR,,,,,,,,,,,,METAR,182.0
SBBE 160700Z 18005KT 9999 BKN010 BKN020 BKN070 26/24 Q1012,SBBE,2023-05-16T07:00:00Z,-1.37,-48.47,26.0,24.0,180,5,,6.21,29.88189,,,,,,,,,,,BKN,1000,BKN,2000,BKN,7000,,,MVFR,,,,,,,,,,,,METAR,16.0
SBAR 160700Z 09006KT 9999 FEW020 26/23 Q1013,SBAR,2023-05-16T07:00:00Z,-10.98,-37.07,26.0,23.0,90,6,,6.21,29.911417,,,,,,,,,,,FEW,2000,,,,,,,VFR,,,,,,,,,,,,METAR,4.0
SBAN 160700Z 17006KT CAVOK 16/13 Q1021,SBAN,2023-05-16T07:00:00Z,-16.22,-48.97,16.0,13.0,170,6,,6.21,30.147638,,,,,,,,,,,CAVOK,,,,,,,,VFR,,,,,,,,,,,,METAR,1131.0
SAZS 160700Z 31017KT 9999 SCT038 BKN049 11/05 Q1012 RMK PP///,SAZS,2023-05-16T07:00:00Z,-41.15,-71.17,11.0,5.0,310,17,,6.21,29.88189,,,,,,,,,,,SCT,3800,BKN,4900,,,,,VFR,,,,,,,,,,,,METAR,843.0
SAZN 160700Z 29006KT CAVOK 06/04 Q1012,SAZN,2023-05-16T07:00:00Z,-38.95,-68.15,6.0,4.0,290,6,,6.21,29.88189,,,,,,,,,,,CAVOK,,,,,,,,VFR,,,,,,,,,,,,METAR,273.0
SAWH 160700Z 08008KT 9999 -DZ OVC010 04/02 Q0989 RMK PP999,SAWH,2023-05-16T07:00:00Z,-54.85,-68.3,4.0,2.0,80,8,,6.21,29.202755,,,,,,,,,,-DZ,OVC,1000,,,,,,,MVFR,,,,,,,,,,,,METAR,22.0
SAWG 160700Z 20012KT 9999 RA FEW009 SCT020 BKN060 05/04 Q0990,SAWG,2023-05-16T07:00:00Z,-51.62,-69.27,5.0,4.0,200,12,,6.21,29.232283,,,,,,,,,,RA,FEW,900,SCT,2000,BKN,6000,,,VFR,,,,,,,,,,,,METAR,15.0
SAWE 160700Z 12018KT 7000 -RA SCT003 BKN006 OVC020 04/03 Q0988 RERA RMK PP001,SAWE,2023-05-16T07:00:00Z,-53.78,-67.75,4.0,3.0,120,18,,4.35,29.17323,,,,,,,,,,-RA,SCT,300,BKN,600,OVC,2000,,,IFR,,,,,,,,,,,,SPECI,22.0
SAVC 160700Z 27020G30KT CAVOK 15/03 Q1004 RMK PP000,SAVC,2023-05-16T07:00:00Z,-45.78,-67.47,15.0,3.0,270,20,30,6.21,29.64567,,,,,,,,,,,CAVOK,,,,,,,,VFR,,,,,,,,,,,,METAR,58.0
SASJ 160700Z 28005KT 9999 FEW050 15/14 Q1016 RMK PP000,SASJ,2023-05-16T07:00:00Z,-24.38,-65.1,15.0,14.0,280,5,,6.21,30.0,,,,,,,,,,,FEW,5000,,,,,,,VFR,,,,,,,,,,,,METAR,913.0
SASA 160700Z VRB02KT 9999 BKN040 14/13 Q1018 RMK PP000,SASA,2023-05-16T07:00:00Z,-24.85,-65.48,14.0,13.0,0,2,,6.21,30.059055,,,,,,,,,,,BKN,4000,,,,,,,VFR,,,,,,,,,,,,SPECI,1235.0
SARL 160700Z 09003KT CAVOK 13/12 Q1018,SARL,2023-05-16T07:00:00Z,-29.68,-57.15,13.0,12.0,90,3,,6.21,30.059055,,,,,,,,,,,CAVOK,,,,,,,,VFR,,,,,,,,,,,,METAR,70.0
SARF 160700Z 00000KT CAVOK 13/12 Q1016,SARF,2023-05-16T07:00:00Z,-26.22,-58.22,13.0,12.0,0,0,,6.21,30.0,,,,,,,,,,,CAVOK,,,,,,,,VFR,,,,,,,,,,,,METAR,65.0
SARE 160700Z 03004KT CAVOK 12/11 Q1016 RMK PP///,SARE,2023-05-16T07:00:00Z,-27.43,-59.05,12.0,11.0,30,4,,6.21,30.0,,,,,,,,,,,CAVOK,,,,,,,,VFR,,,,,,,,,,,,SPECI,52.0
SARC 160700Z 09002KT CAVOK 15/12 Q1016,SARC,2023-05-16T07:00:00Z,-27.43,-58.77,15.0,12.0,90,2,,6.21,30.0,,,,,,,,,,,CAVOK,,,,,,,,VFR,,,,,,,,,,,,METAR,60.0
SANT 160700Z 02005KT CAVOK 13/12 Q1012 RMK PP000,SANT,2023-05-16T07:00:00Z,-26.85,-65.1,13.0,12.0,20,5,,6.21,29.88189,,,,,,,,,,,CAVOK,,,,,,,,VFR,,,,,,,,,,,,METAR,446.0
SAME 160700Z 23003KT CAVOK 14/09 Q1011,SAME,2023-05-16T07:00:00Z,-32.82,-68.78,14.0,9.0,230,3,,6.21,29.852362,,,,,,,,,,,CAVOK,,,,,,,,VFR,,,,,,,,,,,,METAR,709.0
SADF 160700Z 06005KT CAVOK 12/11 Q1017 RMK PP000,SADF,2023-05-16T07:00:00Z,-34.45,-58.58,12.0,11.0,60,5,,6.21,30.029528,,,,,,,,,,,CAVOK,,,,,,,,VFR,,,,,,,,,,,,METAR,4.0
SABE 160700Z 34005KT CAVOK 18/15 Q1017 NOSIG RMK PP000,SABE,2023-05-16T07:00:00Z,-34.57,-58.42,18.0,15.0,340,5,,6.21,30.029528,,,,,,TRUE,,,,,CAVOK,,,,,,,,VFR,,,,,,,,,,,,SPECI,3.0
SAAR 160700Z 04003KT CAVOK 12/11 Q1015 RMK PP000,SAAR,2023-05-16T07:00:00Z,-32.92,-60.77,12.0,11.0,40,3,,6.21,29.970472,,,,,,,,,,,CAVOK,,,,,,,,VFR,,,,,,,,,,,,SPECI,24.0
RPVP 160700Z 18010KT 9999 FEW017CB 32/26 Q1009 RMK A2980 CB N/NW,RPVP,2023-05-16T07:00:00Z,9.75,118.75,32.0,26.0,180,10,,6.21,29.793306,,,,,,,,,,,FEW,1700,,,,,,,VFR,,,,,,,,,,,,METAR,15.0
RPVM 160700Z 26008KT 9999 FEW018CB BKN300 30/24 Q1009 NOSIG RMK A2980 CB N/S,RPVM,2023-05-16T07:00:00Z,10.32,123.98,30.0,24.0,260,8,,6.21,29.793306,,,,,,TRUE,,,,,FEW,1800,BKN,30000,,,,,VFR,,,,,,,,,,,,METAR,9.0
"RPVD 160700Z 14008KT 9999 VCSH FEW014CB 33/25 Q1008 RMK A2977 CB NE/NW, VCSH NE",RPVD,2023-05-16T07:00:00Z,9.33,123.3,33.0,25.0,140,8,,6.21,29.763779,,,,,,,,,,VCSH,FEW,1400,,,,,,,VFR,,,,,,,,,,,,METAR,11.0
RPMZ 160700Z 27015KT 9999 FEW016CB FEW017 SCT090 31/26 Q1009 RMK A2980 CB NW/S,RPMZ,2023-05-16T07:00:00Z,6.92,122.07,31.0,26.0,270,15,,6.21,29.793306,,,,,,,,,,,FEW,1600,FEW,1700,SCT,9000,,,VFR,,,,,,,,,,,,METAR,8.0
"RPMR 160700Z 15009KT 9999 VCSH FEW018CB BKN080 30/25 Q1009 RMK A2980 VCSH W/NW, CB SW/SE",RPMR,2023-05-16T07:00:00Z,6.05,125.1,30.0,25.0,150,9,,6.21,29.793306,,,,,,,,,,VCSH,FEW,1800,BKN,8000,,,,,VFR,,,,,,,,,,,,METAR,47.0
RPMD 160700Z 18008KT 130V210 9999 FEW015CB SCT020 33/23 Q1008 RMK A2977 CB NE/E,RPMD,2023-05-16T07:00:00Z,7.12,125.65,33.0,23.0,180,8,,6.21,29.763779,,,,,,,,,,,FEW,1500,SCT,2000,,,,,VFR,,,,,,,,,,,,METAR,19.0
RPLL 160700Z 27015KT 9999 FEW023CB SCT300 31/26 Q1008 NOSIG RMK A2977 CB N,RPLL,2023-05-16T07:00:00Z,14.52,121.0,31.0,26.0,270,15,,6.21,29.763779,,,,,,TRUE,,,,,FEW,2300,SCT,30000,,,,,VFR,,,,,,,,,,,,METAR,15.0
RPLI 160700Z 23012KT 9999 FEW018 BKN290 33/26 Q1007 NOSIG RMK A2974,RPLI,2023-05-16T07:00:00Z,18.17,120.52,33.0,26.0,230,12,,6.21,29.734253,,,,,,TRUE,,,,,FEW,1800,BKN,29000,,,,,VFR,,,,,,,,,,,,SPECI,5.0
RPLC 160700Z 02006KT 6000 FEW015CB SCT020 BKN100 33/25 Q1008 RMK A2977 CB N,RPLC,2023-05-16T07:00:00Z,15.18,120.55,33.0,25.0,20,6,,3.73,29.763779,,,,,,,,,,,FEW,1500,SCT,2000,BKN,10000,,,MVFR,,,,,,,,,,,,METAR,138.0
RPLB 160700Z 21010KT 9999 SCT018 BKN080 30/26 Q1009 NOSIG RMK A2980,RPLB,2023-05-16T07:00:00Z,14.8,120.27,30.0,26.0,210,10,,6.21,29.793306,,,,,,TRUE,,,,,SCT,1800,BKN,8000,,,,,VFR,,,,,,,,,,,,METAR,19.0
ROYN 160700Z AUTO 16015KT 9999 FEW019 SCT030 BKN130 26/22 Q1011,ROYN,2023-05-16T07:00:00Z,24.47,122.97,26.0,22.0,160,15,,6.21,29.852362,,,TRUE,,,,,,,,FEW,1900,SCT,3000,BKN,13000,,,VFR,,,,,,,,,,,,METAR,21.0
RORY 160700Z AUTO 12010KT 090V160 9999 SCT016 25/21 Q1014,RORY,2023-05-16T07:00:00Z,27.05,128.4,25.0,21.0,120,10,,6.21,29.940945,,,TRUE,,,,,,,,SCT,1600,,,,,,,VFR,,,,,,,,,,,,METAR,13.0
RORT 160700Z AUTO 15008KT 120V180 9999 FEW021 BKN180 27/22 Q1011,RORT,2023-05-16T07:00:00Z,24.63,124.7,27.0,22.0,150,8,,6.21,29.852362,,,TRUE,,,,,,,,FEW,2100,BKN,18000,,,,,VFR,,,,,,,,,,,,METAR,9.0
RORS 160700Z 16012KT 120V190 9999 FEW021 BKN170 28/21 Q1012,RORS,2023-05-16T07:00:00Z,24.82,125.15,28.0,21.0,160,12,,6.21,29.88189,,,,,,,,,,,FEW,2100,BKN,17000,,,,,VFR,,,,,,,,,,,,METAR,13.0
RORK 160700Z AUTO 09008KT 9999 FEW021 24/18 Q1014,RORK,2023-05-16T07:00:00Z,25.93,131.32,24.0,18.0,90,8,,6.21,29.940945,,,TRUE,,,,,,,,FEW,2100,,,,,,,VFR,,,,,,,,,,,,METAR,11.0
ROMY 160700Z 14010KT 110V180 9999 SCT022 SCT042 26/21 Q1012,ROMY,2023-05-16T07:00:00Z,24.78,125.27,26.0,21.0,140,10,,6.21,29.88189,,,,,,,,,,,SCT,2200,SCT,4200,,,,,VFR,,,,,,,,,,,,METAR,38.0
ROMD 160700Z AUTO 07005KT 360V180 9999 NCD 24/19 Q1014,ROMD,2023-05-16T07:00:00Z,25.83,131.25,24.0,19.0,70,5,,6.21,29.940945,,,TRUE,,,,,,,,CLR,,,,,,,,VFR,,,,,,,,,,,,METAR,45.0
ROIG 160700Z 15012KT 9999 FEW020 27/21 Q1011,ROIG,2023-05-16T07:00:00Z,24.38,124.23,27.0,21.0,150,12,,6.21,29.852362,,,,,,,,,,,FEW,2000,,,,,,,VFR,,,,,,,,,,,,METAR,37.0
ROAH 160700Z 12011KT 9999 FEW035 SCT/// 27/19 Q1013,ROAH,2023-05-16T07:00:00Z,26.18,127.65,27.0,19.0,120,11,,6.21,29.911417,,,,,,,,,,,FEW,3500,,,,,,,VFR,,,,,,,,,,,,METAR,6.0
RKTU 160700Z 24012KT CAVOK 31/15 Q1009,RKTU,2023-05-16T07:00:00Z,36.7,127.5,31.0,15.0,240,12,,6.21,29.793306,,,,,,,,,,,CAVOK,,,,,,,,VFR,,,,,,,,,,,,METAR,46.0
RKTN 160700Z 30007KT CAVOK 33/11 Q1009,RKTN,2023-05-16T07:00:00Z,35.88,128.65,33.0,11.0,300,7,,6.21,29.793306,,,,,,,,,,,CAVOK,,,,,,,,VFR,,,,,,,,,,,,METAR,25.0
RKSS 160700Z 23011KT CAVOK 29/13 Q1009 NOSIG,RKSS,2023-05-16T07:00:00Z,37.55,126.78,29.0,13.0,230,11,,6.21,29.793306,,,,,,TRUE,,,,,CAVOK,,,,,,,,VFR,,,,,,,,,,,,METAR,18.0
RKSM 160700Z 26009KT 9999 SKC 31/12 A2980,RKSM,2023-05-16T07:00:00Z,37.43,127.12,31.0,12.0,260,9,,6.21,29.799213,,,,,,,,,,,SKC,,,,,,,,VFR,,,,,,,,,,,,METAR,18.0
RKSI 160700Z 20013KT CAVOK 25/12 Q1009 NOSIG,RKSI,2023-05-16T07:00:00Z,37.47,126.45,25.0,12.0,200,13,,6.21,29.793306,,,,,,TRUE,,,,,CAVOK,,,,,,,,VFR,,,,,,,,,,,,METAR,7.0
RKPK 160700Z 20012KT 8000 NSC 23/15 Q1010,RKPK,2023-05-16T07:00:00Z,35.17,128.93,23.0,15.0,200,12,,4.97,29.822834,,,,,,,,,,,CLR,,,,,,,,MVFR,,,,,,,,,,,,METAR,3.0
RKPC 160700Z 04007KT 010V070 CAVOK 23/17 Q1012 NOSIG,RKPC,2023-05-16T07:00:00Z,33.5,126.48,23.0,17.0,40,7,,6.21,29.88189,,,,,,TRUE,,,,,CAVOK,,,,,,,,VFR,,,,,,,,,,,,METAR,23.0
RKNY 160700Z 26019G30KT 230V290 CAVOK 32/09 Q1005 NOSIG,RKNY,2023-05-16T07:00:00Z,38.07,128.67,32.0,9.0,260,19,30,6.21,29.675198,,,,,,TRUE,,,,,CAVOK,,,,,,,,VFR,,,,,,,,,,,,METAR,76.0
RKJB 160700Z 22009KT CAVOK 27/11 Q1011 NOSIG,RKJB,2023-05-16T07:00:00Z,34.98,126.38,27.0,11.0,220,9,,6.21,29.852362,,,,,,TRUE,,,,,CAVOK,,,,,,,,VFR,,,,,,,,,,,,METAR,16.0
RJTT 160700Z 20010KT 9999 FEW030 SCT/// 25/09 Q1009 NOSIG,RJTT,2023-05-16T07:00:00Z,35.55,139.77,25.0,9.0,200,10,,6.21,29.793306,,,,,,TRUE,,,,,FEW,3000,,,,,,,VFR,,,,,,,,,,,,METAR,5.0
RJTO 160700Z 22011KT 9999 FEW025 22/15 Q1011,RJTO,2023-05-16T07:00:00Z,34.77,139.37,22.0,15.0,220,11,,6.21,29.852362,,,,,,,,,,,FEW,2500,,,,,,,VFR,,,,,,,,,,,,METAR,37.0
RJTI 160700Z 20009KT 9999 FEW030 SCT/// 24/10 Q1009,RJTI,2023-05-16T07:00:00Z,35.63,139.83,24.0,10.0,200,9,,6.21,29.793306,,,,,,,,,,,FEW,3000,,,,,,,VFR,,,,,,,,,,,,METAR,4.0
RJTF 160700Z 19010KT 150V220 CAVOK 25/11 Q1009,RJTF,2023-05-16T07:00:00Z,35.67,139.52,25.0,11.0,190,10,,6.21,29.793306,,,,,,,,,,,CAVOK,,,,,,,,VFR,,,,,,,,,,,,METAR,37.0
RJSY 160700Z 28007KT 250V310 9999 FEW005 18/15 Q1012,RJSY,2023-05-16T07:00:00Z,38.82,139.78,18.0,15.0,280,7,,6.21,29.88189,,,,,,,,,,,FEW,500,,,,,,,VFR,,,,,,,,,,,,METAR,17.0
RJSS 160700Z 12009KT 9999 FEW030 BKN/// 17/13 Q1010,RJSS,2023-05-16T07:00:00Z,38.13,140.92,17.0,13.0,120,9,,6.21,29.822834,,,,,,,,,,,FEW,3000,,,,,,,VFR,,,,,,,,,,,,METAR,5.0
RJSR 160700Z 28011KT 250V310 9999 FEW030 SCT050 19/14 Q1011,RJSR,2023-05-16T07:00:00Z,40.18,140.37,19.0,14.0,280,11,,6.21,29.852362,,,,,,,,,,,FEW,3000,SCT,5000,,,,,VFR,,,,,,,,,,,,METAR,83.0
RJSN 160700Z 35006KT 9999 FEW030 19/14 Q1012,RJSN,2023-05-16T07:00:00Z,37.95,139.12,19.0,14.0,350,6,,6.21,29.88189,,,,,,,,,,,FEW,3000,,,,,,,VFR,,,,,,,,,,,,METAR,4.0
RJSM 160700Z 10009KT 9999 FEW004 SCT006 BKN040 14/11 Q1012,RJSM,2023-05-16T07:00:00Z,40.7,141.37,14.0,11.0,100,9,,6.21,29.88189,,,,,,,,,,,FEW,400,SCT,600,BKN,4000,,,VFR,,,,,,,,,,,,METAR,31.0
RJSK 160700Z 29014KT 9999 FEW015 18/13 Q1011,RJSK,2023-05-16T07:00:00Z,39.62,140.22,18.0,13.0,290,14,,6.21,29.852362,,,,,,,,,,,FEW,1500,,,,,,,VFR,,,,,,,,,,,,METAR,95.0
RJSI 160700Z 28005KT 210V320 9999 FEW050 BKN060 BKN070 23/13 Q1009,RJSI,2023-05-16T07:00:00Z,39.42,141.13,23.0,13.0,280,5,,6.21,29.793306,,,,,,,,,,,FEW,5000,BKN,6000,BKN,7000,,,VFR,,,,,,,,,,,,METAR,89.0
RJSF 160700Z 32012KT 9999 FEW050 SCT130 BKN/// 22/08 Q1010,RJSF,2023-05-16T07:00:00Z,37.22,140.42,22.0,8.0,320,12,,6.21,29.822834,,,,,,,,,,,FEW,5000,SCT,13000,,,,,VFR,,,,,,,,,,,,METAR,373.0
RJSC 160700Z 01014KT 9999 FEW050 BKN130 23/10 Q1010,RJSC,2023-05-16T07:00:00Z,38.42,140.37,23.0,10.0,10,14,,6.21,29.822834,,,,,,,,,,,FEW,5000,BKN,13000,,,,,VFR,,,,,,,,,,,,METAR,104.0
RJSA 160700Z 05005KT 9999 FEW025 18/13 Q1011,RJSA,2023-05-16T07:00:00Z,40.72,140.68,18.0,13.0,50,5,,6.21,29.852362,,,,,,,,,,,FEW,2500,,,,,,,VFR,,,,,,,,,,,,METAR,196.0
RJOY 160700Z 25008KT 220V280 CAVOK 26/12 Q1011,RJOY,2023-05-16T07:00:00Z,34.6,135.6,26.0,12.0,250,8,,6.21,29.852362,,,,,,,,,,,CAVOK,,,,,,,,VFR,,,,,,,,,,,,METAR,10.0
RJOW 160700Z 29009KT CAVOK 26/16 Q1011,RJOW,2023-05-16T07:00:00Z,34.67,131.8,26.0,16.0,290,9,,6.21,29.852362,,,,,,,,,,,CAVOK,,,,,,,,VFR,,,,,,,,,,,,METAR,54.0
RJOT 160700Z 25009KT 210V290 CAVOK 27/12 Q1012,RJOT,2023-05-16T07:00:00Z,34.22,134.02,27.0,12.0,250,9,,6.21,29.88189,,,,,,,,,,,CAVOK,,,,,,,,VFR,,,,,,,,,,,,METAR,181.0
RJOS 160700Z 12006KT 9999 FEW030 25/14 Q1012,RJOS,2023-05-16T07:00:00Z,34.12,134.62,25.0,14.0,120,6,,6.21,29.88189,,,,,,,,,,,FEW,3000,,,,,,,VFR,,,,,,,,,,,,METAR,3.0
RJOR 160700Z 05006KT 9999 FEW040 23/12 Q1011,RJOR,2023-05-16T07:00:00Z,35.52,134.17,23.0,12.0,50,6,,6.21,29.852362,,,,,,,,,,,FEW,4000,,,,,,,VFR,,,,,,,,,,,,METAR,11.0
RJOO 160700Z 18008KT 150V220 9999 FEW035 27/12 Q1011,RJOO,2023-05-16T07:00:00Z,34.78,135.43,27.0,12.0,180,8,,6.21,29.852362,,,,,,,,,,,FEW,3500,,,,,,,VFR,,,,,,,,,,,,METAR,11.0
RJOM 160700Z 24003KT 210V270 9999 FEW030 24/14 Q1012,RJOM,2023-05-16T07:00:00Z,33.82,132.68,24.0,14.0,240,3,,6.21,29.88189,,,,,,,,,,,FEW,3000,,,,,,,VFR,,,,,,,,,,,,METAR,3.0
RJOK 160700Z 16004KT 090V220 9999 FEW035 SCT/// 21/18 Q1013,RJOK,2023-05-16T07:00:00Z,33.53,133.67,21.0,18.0,160,4,,6.21,29.911417,,,,,,,,,,,FEW,3500,,,,,,,VFR,,,,,,,,,,,,METAR,7.0
RJOH 160700Z 25012KT 9999 FEW035 SCT300 26/14 Q1010,RJOH,2023-05-16T07:00:00Z,35.48,133.25,26.0,14.0,250,12,,6.21,29.822834,,,,,,,,,,,FEW,3500,SCT,30000,,,,,VFR,,,,,,,,,,,,METAR,6.0
RJOC 160700Z 26016KT CAVOK 25/16 Q1010,RJOC,2023-05-16T07:00:00Z,35.42,132.88,25.0,16.0,260,16,,6.21,29.822834,,,,,,,,,,,CAVOK,,,,,,,,VFR,,,,,,,,,,,,METAR,2.0
RJOB 160700Z 17006KT 130V230 CAVOK 26/15 Q1012,RJOB,2023-05-16T07:00:00Z,34.75,133.85,26.0,15.0,170,6,,6.21,29.88189,,,,,,,,,,,CAVOK,,,,,,,,VFR,,,,,,,,,,,,METAR,242.0
RJOA 160700Z 16004KT 100V240 CAVOK 25/13 Q1012,RJOA,2023-05-16T07:00:00Z,34.43,132.92,25.0,13.0,160,4,,6.21,29.88189,,,,,,,,,,,CAVOK,,,,,,,,VFR,,,,,,,,,,,,METAR,318.0
RJNW 160700Z 24010KT CAVOK 23/07 Q1012,RJNW,2023-05-16T07:00:00Z,37.3,136.97,23.0,7.0,240,10,,6.21,29.88189,,,,,,,,,,,CAVOK,,,,,,,,VFR,,,,,,,,,,,,METAR,222.0
RJNT 160700Z 01010KT 9999 FEW090 26/10 Q1011,RJNT,2023-05-16T07:00:00Z,36.63,137.18,26.0,10.0,10,10,,6.21,29.852362,,,,,,,,,,,FEW,9000,,,,,,,VFR,,,,,,,,,,,,METAR,30.0
RJNS 160700Z 21007KT 160V230 9999 FEW025 24/07 Q1011,RJNS,2023-05-16T07:00:00Z,34.8,138.18,24.0,7.0,210,7,,6.21,29.852362,,,,,,,,,,,FEW,2500,,,,,,,VFR,,,,,,,,,,,,METAR,133.0
RJNK 160700Z 28009KT 9999 NSC 23/11 Q1012,RJNK,2023-05-16T07:00:00Z,36.38,136.42,23.0,11.0,280,9,,6.21,29.88189,,,,,,,,,,,CLR,,,,,,,,VFR,,,,,,,,,,,,METAR,7.0
RJKI 160700Z AUTO 20007KT 150V240 9999 FEW023 SCT029 26/20 Q1014,RJKI,2023-05-16T07:00:00Z,28.32,129.92,26.0,20.0,200,7,,6.21,29.940945,,,TRUE,,,,,,,,FEW,2300,SCT,2900,,,,,VFR,,,,,,,,,,,,METAR,6.0
RJKA 160700Z 20009KT 9999 FEW025 BKN/// 26/20 Q1014,RJKA,2023-05-16T07:00:00Z,28.42,129.72,26.0,20.0,200,9,,6.21,29.940945,,,,,,,,,,,FEW,2500,,,,,,,VFR,,,,,,,,,,,,METAR,7.0
RJGG 160700Z 18009KT 9999 FEW030 24/18 Q1010 BECMG 30006KT,RJGG,2023-05-16T07:00:00Z,34.87,136.8,24.0,18.0,180,9,,6.21,29.822834,,,,,,,,,,,FEW,3000,,,,,,,VFR,,,,,,,,,,,,METAR,5.0
RJFU 160700Z 24015KT 9999 FEW030 24/19 Q1013,RJFU,2023-05-16T07:00:00Z,32.92,129.92,24.0,19.0,240,15,,6.21,29.911417,,,,,,,,,,,FEW,3000,,,,,,,VFR,,,,,,,,,,,,METAR,2.0
RJFT 160700Z 22009KT 9999 FEW040 27/15 Q1013,RJFT,2023-05-16T07:00:00Z,32.83,130.85,27.0,15.0,220,9,,6.21,29.911417,,,,,,,,,,,FEW,4000,,,,,,,VFR,,,,,,,,,,,,METAR,188.0
RJFS 160700Z 18012KT CAVOK 24/20 Q1012,RJFS,2023-05-16T07:00:00Z,33.15,130.3,24.0,20.0,180,12,,6.21,29.88189,,,,,,,,,,,CAVOK,,,,,,,,VFR,,,,,,,,,,,,METAR,2.0
RJFR 160700Z 13003KT 100V170 CAVOK 21/17 Q1012,RJFR,2023-05-16T07:00:00Z,33.83,131.03,21.0,17.0,130,3,,6.21,29.88189,,,,,,,,,,,CAVOK,,,,,,,,VFR,,,,,,,,,,,,METAR,9.0
RJFO 160700Z VRB02KT CAVOK 20/17 Q1012,RJFO,2023-05-16T07:00:00Z,33.47,131.73,20.0,17.0,0,2,,6.21,29.88189,,,,,,,,,,,CAVOK,,,,,,,,VFR,,,,,,,,,,,,METAR,3.0
RJFM 160700Z 15016KT 9999 FEW030 25/19 Q1011,RJFM,2023-05-16T07:00:00Z,31.87,131.43,25.0,19.0,150,16,,6.21,29.852362,,,,,,,,,,,FEW,3000,,,,,,,VFR,,,,,,,,,,,,METAR,10.0
RJFK 160700Z 27011KT 230V310 9999 FEW020 27/16 Q1013,RJFK,2023-05-16T07:00:00Z,31.8,130.72,27.0,16.0,270,11,,6.21,29.911417,,,,,,,,,,,FEW,2000,,,,,,,VFR,,,,,,,,,,,,METAR,271.0
RJFG 160700Z 25011KT CAVOK 24/18 Q1014,RJFG,2023-05-16T07:00:00Z,30.62,130.98,24.0,18.0,250,11,,6.21,29.940945,,,,,,,,,,,CAVOK,,,,,,,,VFR,,,,,,,,,,,,METAR,234.0
RJFF 160700Z 32010KT 290V350 9999 FEW040 29/14 Q1012 NOSIG,RJFF,2023-05-16T07:00:00Z,33.58,130.45,29.0,14.0,320,10,,6.21,29.88189,,,,,,TRUE,,,,,FEW,4000,,,,,,,VFR,,,,,,,,,,,,METAR,7.0
RJFE 160700Z 20008KT 160V250 CAVOK 23/19 Q1013,RJFE,2023-05-16T07:00:00Z,32.67,128.82,23.0,19.0,200,8,,6.21,29.911417,,,,,,,,,,,CAVOK,,,,,,,,VFR,,,,,,,,,,,,METAR,80.0
RJEC 160700Z 35004KT 270V060 9999 FEW025 SCT050 21/12 Q1009,RJEC,2023-05-16T07:00:00Z,43.67,142.43,21.0,12.0,350,4,,6.21,29.793306,,,,,,,,,,,FEW,2500,SCT,5000,,,,,VFR,,,,,,,,,,,,METAR,209.0
RJEB 160700Z 10008KT 9999 FEW030 SCT060 BKN120 18/11 Q1008,RJEB,2023-05-16T07:00:00Z,44.3,143.4,18.0,11.0,100,8,,6.21,29.763779,,,,,,,,,,,FEW,3000,SCT,6000,BKN,12000,,,VFR,,,,,,,,,,,,METAR,24.0
RJDT 160700Z VRB04KT CAVOK 24/19 Q1011,RJDT,2023-05-16T07:00:00Z,34.28,129.32,24.0,19.0,0,4,,6.21,29.852362,,,,,,,,,,,CAVOK,,,,,,,,VFR,,,,,,,,,,,,METAR,61.0
RJDC 160700Z 10004KT 070V130 CAVOK 22/17 Q1012,RJDC,2023-05-16T07:00:00Z,33.92,131.27,22.0,17.0,100,4,,6.21,29.88189,,,,,,,,,,,CAVOK,,,,,,,,VFR,,,,,,,,,,,,METAR,5.0
RJDB 160700Z AUTO 22008KT 190V260 9999 NCD 24/19 Q1012,RJDB,2023-05-16T07:00:00Z,33.75,129.78,24.0,19.0,220,8,,6.21,29.88189,,,TRUE,,,,,,,,CLR,,,,,,,,VFR,,,,,,,,,,,,METAR,13.0
RJCW 160700Z 20015KT 9999 FEW030 BKN080 19/10 Q1008,RJCW,2023-05-16T07:00:00Z,45.4,141.8,19.0,10.0,200,15,,6.21,29.763779,,,,,,,,,,,FEW,3000,BKN,8000,,,,,VFR,,,,,,,,,,,,METAR,11.0
RJCO 160700Z 13016KT 9999 FEW010 19/13 Q1010,RJCO,2023-05-16T07:00:00Z,43.12,141.37,19.0,13.0,130,16,,6.21,29.822834,,,,,,,,,,,FEW,1000,,,,,,,VFR,,,,,,,,,,,,METAR,7.0
RJCN 160700Z 08009KT 9999 FEW010 BKN015 13/10 Q1012,RJCN,2023-05-16T07:00:00Z,43.57,144.97,13.0,10.0,80,9,,6.21,29.88189,,,,,,,,,,,FEW,1000,BKN,1500,,,,,MVFR,,,,,,,,,,,,METAR,62.0
RJCM 160700Z 17016KT 9999 FEW020 SCT/// 19/09 Q1010,RJCM,2023-05-16T07:00:00Z,43.88,144.17,19.0,9.0,170,16,,6.21,29.822834,,,,,,,,,,,FEW,2000,,,,,,,VFR,,,,,,,,,,,,METAR,30.0
RJCK 160700Z 20007KT 9999 FEW020 BKN040 12/10 Q1012,RJCK,2023-05-16T07:00:00Z,43.03,144.18,12.0,10.0,200,7,,6.21,29.88189,,,,,,,,,,,FEW,2000,BKN,4000,,,,,VFR,,,,,,,,,,,,METAR,94.0
RJCH 160700Z 14012KT 9999 FEW003 16/12 Q1011,RJCH,2023-05-16T07:00:00Z,41.77,140.82,16.0,12.0,140,12,,6.21,29.852362,,,,,,,,,,,FEW,300,,,,,,,VFR,,,,,,,,,,,,METAR,36.0
RJCC 160700Z 16014KT 9999 FEW005 BKN007 13/11 Q1011,RJCC,2023-05-16T07:00:00Z,42.77,141.68,13.0,11.0,160,14,,6.21,29.852362,,,,,,,,,,,FEW,500,BKN,700,,,,,IFR,,,,,,,,,,,,METAR,19.0
RJCB 160700Z 17007KT 140V200 9999 FEW009 SCT020 BKN030 14/10 Q1012,RJCB,2023-05-16T07:00:00Z,42.72,143.22,14.0,10.0,170,7,,6.21,29.88189,,,,,,,,,,,FEW,900,SCT,2000,BKN,3000,,,MVFR,,,,,,,,,,,,METAR,149.0
RJBT 160700Z 02009KT 340V060 9999 FEW035 25/09 Q1011,RJBT,2023-05-16T07:00:00Z,35.5,134.8,25.0,9.0,20,9,,6.21,29.852362,,,,,,,,,,,FEW,3500,,,,,,,VFR,,,,,,,,,,,,METAR,172.0
RJBE 160700Z 21006KT CAVOK 24/16 Q1011,RJBE,2023-05-16T07:00:00Z,34.63,135.23,24.0,16.0,210,6,,6.21,29.852362,,,,,,,,,,,CAVOK,,,,,,,,VFR,,,,,,,,,,,,METAR,5.0
RJBD 160700Z 27006KT 220V300 CAVOK 23/14 Q1012,RJBD,2023-05-16T07:00:00Z,33.67,135.37,23.0,14.0,270,6,,6.21,29.88189,,,,,,,,,,,CAVOK,,,,,,,,VFR,,,,,,,,,,,,METAR,91.0
RJBB 160700Z 25004KT 190V280 CAVOK 24/15 Q1012 NOSIG,RJBB,2023-05-16T07:00:00Z,34.43,135.25,24.0,15.0,250,4,,6.21,29.88189,,,,,,TRUE,,,,,CAVOK,,,,,,,,VFR,,,,,,,,,,,,METAR,8.0
RJAW 160700Z 33010KT 9999 FEW020 BKN/// 24/18 Q1012 RMK 2CU020 A2990 WIND BY EQPT/25,RJAW,2023-05-16T07:00:00Z,24.78,141.32,24.0,18.0,330,10,,6.21,29.88189,,,,,,,,,,,FEW,2000,,,,,,,VFR,,,,,,,,,,,,SPECI,116.0
RJAH 160700Z 09009KT 040V120 9999 FEW050 BKN250 20/12 Q1010,RJAH,2023-05-16T07:00:00Z,36.17,140.42,20.0,12.0,90,9,,6.21,29.822834,,,,,,,,,,,FEW,5000,BKN,25000,,,,,VFR,,,,,,,,,,,,METAR,31.0
RJAF 160700Z 33005KT 280V020 9999 FEW060 23/08 Q1011,RJAF,2023-05-16T07:00:00Z,36.17,137.92,23.0,8.0,330,5,,6.21,29.852362,,,,,,,,,,,FEW,6000,,,,,,,VFR,,,,,,,,,,,,METAR,652.0
RJAA 160700Z 11010KT 080V150 CAVOK 22/15 Q1010 NOSIG,RJAA,2023-05-16T07:00:00Z,35.77,140.38,22.0,15.0,110,10,,6.21,29.822834,,,,,,TRUE,,,,,CAVOK,,,,,,,,VFR,,,,,,,,,,,,METAR,36.0
RCTP 160700Z 32007KT 300V360 9999 FEW020 BKN160 28/23 Q1009 NOSIG RMK A2981,RCTP,2023-05-16T07:00:00Z,25.07,121.22,28.0,23.0,320,7,,6.21,29.793306,,,,,,TRUE,,,,,FEW,2000,BKN,16000,,,,,VFR,,,,,,,,,,,,METAR,33.0
RCSS 160700Z 11012KT 070V140 9999 FEW025 SCT160 BKN220 31/20 Q1008 NOSIG RMK A2978,RCSS,2023-05-16T07:00:00Z,25.07,121.55,31.0,20.0,110,12,,6.21,29.763779,,,,,,TRUE,,,,,FEW,2500,SCT,16000,BKN,22000,,,VFR,,,,,,,,,,,,SPECI,8.0
RCNN 160700Z 29008KT 9000 FEW010 BKN025 OVC050 27/22 Q1008 NOSIG RMK A2978,RCNN,2023-05-16T07:00:00Z,22.93,120.2,27.0,22.0,290,8,,5.59,29.763779,,,,,,TRUE,,,,,FEW,1000,BKN,2500,OVC,5000,,,MVFR,,,,,,,,,,,,SPECI,15.0
RCMQ 160700Z 33010KT 9999 FEW008 SCT060 BKN200 27/17 Q1009 NOSIG RMK A2981,RCMQ,2023-05-16T07:00:00Z,24.27,120.62,27.0,17.0,330,10,,6.21,29.793306,,,,,,TRUE,,,,,FEW,800,SCT,6000,BKN,20000,,,VFR,,,,,,,,,,,,SPECI,202.0
RCKH 160700Z 27010KT 8000 FEW020 SCT045 BKN180 28/22 Q1007 NOSIG RMK A2976,RCKH,2023-05-16T07:00:00Z,22.57,120.33,28.0,22.0,270,10,,4.97,29.734253,,,,,,TRUE,,,,,FEW,2000,SCT,4500,BKN,18000,,,MVFR,,,,,,,,,,,,METAR,6.0
RCFN 160700Z 07007KT 010V110 9999 -RA FEW010 SCT013 BKN030 25/22 Q1011 NOSIG RMK A2988,RCFN,2023-05-16T07:00:00Z,22.77,121.1,25.0,22.0,70,7,,6.21,29.852362,,,,,,TRUE,,,,-RA,FEW,1000,SCT,1300,BKN,3000,,,MVFR,,,,,,,,,,,,SPECI,42.0
PLCH 160700Z VRB02KT 9999 FEW020 28/25 Q1009,PLCH,2023-05-16T07:00:00Z,1.98,-157.35,28.0,25.0,0,2,,6.21,29.793306,,,,,,,,,,,FEW,2000,,,,,,,VFR,,,,,,,,,,,,METAR,5.0
OTHH 160700Z 35013KT CAVOK 33/13 Q1008 NOSIG,OTHH,2023-05-16T07:00:00Z,25.27,51.6,33.0,13.0,350,13,,6.21,29.763779,,,,,,TRUE,,,,,CAVOK,,,,,,,,VFR,,,,,,,,,,,,METAR,3.0
OTBD 160700Z 36016KT CAVOK 34/11 Q1008 NOSIG,OTBD,2023-05-16T07:00:00Z,25.25,51.57,34.0,11.0,360,16,,6.21,29.763779,,,,,,TRUE,,,,,CAVOK,,,,,,,,VFR,,,,,,,,,,,,METAR,13.0
OSLK 160700Z VRB03KT CAVOK 31/07 Q1010,OSLK,2023-05-16T07:00:00Z,35.4,35.95,31.0,7.0,0,3,,6.21,29.822834,,,,,,,,,,,CAVOK,,,,,,,,VFR,,,,,,,,,,,,SPECI,47.0
OSKL 160700Z 09010KT CAVOK 26/00 Q1012,OSKL,2023-05-16T07:00:00Z,37.03,41.2,26.0,0.0,90,10,,6.21,29.88189,,,,,,,,,,,CAVOK,,,,,,,,VFR,,,,,,,,,,,,SPECI,443.0
OSDI 160700Z 05008KT CAVOK 25/M07 Q1015,OSDI,2023-05-16T07:00:00Z,33.42,36.52,25.0,-7.0,50,8,,6.21,29.970472,,,,,,,,,,,CAVOK,,,,,,,,VFR,,,,,,,,,,,,SPECI,614.0
ORSU 160700Z 04016KT CAVOK 24/03 Q1016,ORSU,2023-05-16T07:00:00Z,35.57,45.32,24.0,3.0,40,16,,6.21,30.0,,,,,,,,,,,CAVOK,,,,,,,,VFR,,,,,,,,,,,,METAR,760.0
ORNI 160700Z 31008KT 8000 NSC 30/01 Q1010,ORNI,2023-05-16T07:00:00Z,31.98,44.4,30.0,1.0,310,8,,4.97,29.822834,,,,,,,,,,,CLR,,,,,,,,MVFR,,,,,,,,,,,,METAR,33.0
ORMM 160700Z 25006KT CAVOK 34/M04 Q1009 NOSIG,ORMM,2023-05-16T07:00:00Z,30.53,47.67,34.0,-4.0,250,6,,6.21,29.793306,,,,,,TRUE,,,,,CAVOK,,,,,,,,VFR,,,,,,,,,,,,METAR,2.0
ORER 160700Z VRB04KT CAVOK 28/01 Q1014,ORER,2023-05-16T07:00:00Z,36.23,43.97,28.0,1.0,0,4,,6.21,29.940945,,,,,,,,,,,CAVOK,,,,,,,,VFR,,,,,,,,,,,,METAR,399.0
OPST 160700Z 05008KT 4000 HZ FEW040 SCT100 35/12 Q1006 NOSIG 26%,OPST,2023-05-16T07:00:00Z,32.53,74.37,35.0,12.0,50,8,,2.49,29.704725,,,,,,TRUE,,,,HZ,FEW,4000,SCT,10000,,,,,IFR,,,,,,,,,,,,METAR,234.0
OPSK 160700Z 27008KT 5000 HZ NSC 35/22 Q1003 NOSIG,OPSK,2023-05-16T07:00:00Z,27.72,68.8,35.0,22.0,270,8,,3.11,29.616142,,,,,,TRUE,,,,HZ,CLR,,,,,,,,MVFR,,,,,,,,,,,,METAR,62.0
OPPS 160700Z 13012KT 5000 HZ FEW040 SCT100 35/13 Q1007,OPPS,2023-05-16T07:00:00Z,33.98,71.52,35.0,13.0,130,12,,3.11,29.734253,,,,,,,,,,HZ,FEW,4000,SCT,10000,,,,,MVFR,,,,,,,,,,,,METAR,356.0
OPNH 160700Z 18010KT 7000 NSC 38/22 Q1003,OPNH,2023-05-16T07:00:00Z,26.22,68.38,38.0,22.0,180,10,,4.35,29.616142,,,,,,,,,,,CLR,,,,,,,,MVFR,,,,,,,,,,,,METAR,30.0
OPMT 160700Z 23014KT 3000 DRDU NSC 35/20 Q1004 TEMPO 23020KT 1500 BLDU,OPMT,2023-05-16T07:00:00Z,30.2,71.42,35.0,20.0,230,14,,1.86,29.64567,,,,,,,,,,DRDU,CLR,,,,,,,,IFR,,,,,,,,,,,,METAR,122.0
OPIS 160700Z 03010KT 6000 SCT040 BKN100 31/11 Q1008 TEMPO 05020G30KT 2000 TSRA FEW030CB,OPIS,2023-05-16T07:00:00Z,33.55,72.83,31.0,11.0,30,10,,3.73,29.763779,,,,,,,,,,,SCT,4000,BKN,10000,,,,,MVFR,,,,,,,,,,,,METAR,542.0
OMSJ 160700Z 20008KT 160V240 CAVOK 34/14 Q1007 NOSIG,OMSJ,2023-05-16T07:00:00Z,25.32,55.52,34.0,14.0,200,8,,6.21,29.734253,,,,,,TRUE,,,,,CAVOK,,,,,,,,VFR,,,,,,,,,,,,METAR,33.0
OMRK 160700Z 19005KT 110V250 CAVOK 34/17 Q1007 A2974,OMRK,2023-05-16T07:00:00Z,25.62,55.93,34.0,17.0,190,5,,6.21,29.734253,,,,,,,,,,,CAVOK,,,,,,,,VFR,,,,,,,,,,,,METAR,18.0
OMFJ 160700Z 28024KT 8000 NSC 35/09 Q1005 A2969,OMFJ,2023-05-16T07:00:00Z,25.1,56.32,35.0,9.0,280,24,,4.97,29.675198,,,,,,,,,,,CLR,,,,,,,,MVFR,,,,,,,,,,,,METAR,27.0
OMDW 160700Z 24007KT 220V280 CAVOK 34/12 Q1008 NOSIG,OMDW,2023-05-16T07:00:00Z,24.9,55.17,34.0,12.0,240,7,,6.21,29.763779,,,,,,TRUE,,,,,CAVOK,,,,,,,,VFR,,,,,,,,,,,,METAR,34.0
OMDB 160700Z 23007KT 150V290 CAVOK 34/18 Q1007 NOSIG,OMDB,2023-05-16T07:00:00Z,25.25,55.37,34.0,18.0,230,7,,6.21,29.734253,,,,,,TRUE,,,,,CAVOK,,,,,,,,VFR,,,,,,,,,,,,METAR,5.0
OMAL 160700Z 31006KT 260V360 CAVOK 34/10 Q1010 NOSIG,OMAL,2023-05-16T07:00:00Z,24.25,55.6,34.0,10.0,310,6,,6.21,29.822834,,,,,,TRUE,,,,,CAVOK,,,,,,,,VFR,,,,,,,,,,,,METAR,247.0
OMAD 160700Z 35004KT 320V050 CAVOK 34/11 Q1007 NOSIG,OMAD,2023-05-16T07:00:00Z,24.42,54.47,34.0,11.0,350,4,,6.21,29.734253,,,,,,TRUE,,,,,CAVOK,,,,,,,,VFR,,,,,,,,,,,,METAR,9.0
OMAA 160700Z VRB03KT CAVOK 34/14 Q1007 BECMG 30012KT,OMAA,2023-05-16T07:00:00Z,24.42,54.65,34.0,14.0,0,3,,6.21,29.734253,,,,,,,,,,,CAVOK,,,,,,,,VFR,,,,,,,,,,,,METAR,13.0
OLBA 160700Z 28005KT 5000 BR NSC 24/18 Q1011 NOSIG,OLBA,2023-05-16T07:00:00Z,33.82,35.48,24.0,18.0,280,5,,3.11,29.852362,,,,,,TRUE,,,,BR,CLR,,,,,,,,MVFR,,,,,,,,,,,,METAR,29.0
OKKK 160700Z 02005KT CAVOK 35/04 Q1010 NOSIG,OKKK,2023-05-16T07:00:00Z,,,35.0,4.0,20,5,,6.21,29.822834,,,,,,TRUE,,,,,CAVOK,,,,,,,,VFR,,,,,,,,,,,,METAR,
OJAQ 160700Z 01010KT 6000 NSC 30/13 Q1006 NOSIG,OJAQ,2023-05-16T07:00:00Z,29.62,35.02,30.0,13.0,10,10,,3.73,29.704725,,,,,,TRUE,,,,,CLR,,,,,,,,MVFR,,,,,,,,,,,,METAR,45.0
OJAM 160700Z 08009KT 4000 HZ NSC 26/M07 Q1015 NOSIG,OJAM,2023-05-16T07:00:00Z,31.98,35.98,26.0,-7.0,80,9,,2.49,29.970472,,,,,,TRUE,,,,HZ,CLR,,,,,,,,IFR,,,,,,,,,,,,METAR,765.0
OJAI 160700Z 09020KT 4000 BLDU NSC 26/M04 Q1014 NOSIG,OJAI,2023-05-16T07:00:00Z,31.72,36.0,26.0,-4.0,90,20,,2.49,29.940945,,,,,,TRUE,,,,BLDU,CLR,,,,,,,,IFR,,,,,,,,,,,,METAR,723.0
OIZJ 160700Z 29008KT CAVOK 34/22 Q1004,OIZJ,2023-05-16T07:00:00Z,25.65,57.8,34.0,22.0,290,8,,6.21,29.64567,,,,,,,,,,,CAVOK,,,,,,,,VFR,,,,,,,,,,,,METAR,6.0
OIZI 160700Z 25008KT CAVOK 38/M09 Q1008,OIZI,2023-05-16T07:00:00Z,27.23,60.72,38.0,-9.0,250,8,,6.21,29.763779,,,,,,,,,,,CAVOK,,,,,,,,VFR,,,,,,,,,,,,METAR,622.0
OIZH 160700Z 22014KT CAVOK 34/M09 Q1011 A2988 NOSIG,OIZH,2023-05-16T07:00:00Z,29.47,60.92,34.0,-9.0,220,14,,6.21,29.852362,,,,,,TRUE,,,,,CAVOK,,,,,,,,VFR,,,,,,,,,,,,METAR,1378.0
OIZC 160700Z 23014KT 7000 NSC 37/22 Q1003 A2963,OIZC,2023-05-16T07:00:00Z,25.45,60.38,37.0,22.0,230,14,,4.35,29.616142,,,,,,,,,,,CLR,,,,,,,,MVFR,,,,,,,,,,,,METAR,13.0
OIZB 160700Z 08006KT 4000 DU NSC 36/06 Q1005,OIZB,2023-05-16T07:00:00Z,31.1,61.55,36.0,6.0,80,6,,2.49,29.675198,,,,,,,,,,DU,CLR,,,,,,,,IFR,,,,,,,,,,,,METAR,483.0
OIYY 160700Z 28004KT 8000 NSC 24/M01 Q1015 NOSIG,OIYY,2023-05-16T07:00:00Z,31.9,54.28,24.0,-1.0,280,4,,4.97,29.970472,,,,,,TRUE,,,,,CLR,,,,,,,,MVFR,,,,,,,,,,,,METAR,1226.0
OITZ 160700Z 27002KT 9999 SCT025 10/01 Q1019 A3011,OITZ,2023-05-16T07:00:00Z,36.77,48.37,10.0,1.0,270,2,,6.21,30.088583,,,,,,,,,,,SCT,2500,,,,,,,VFR,,,,,,,,,,,,METAR,1630.0
OITT 160700Z 07010KT 9999 FEW030 14/00 Q1020 A3013,OITT,2023-05-16T07:00:00Z,38.13,46.23,14.0,0.0,70,10,,6.21,30.11811,,,,,,,,,,,FEW,3000,,,,,,,VFR,,,,,,,,,,,,METAR,1353.0
OITR 160700Z 03006KT 9999 FEW035CB SCT040 14/01 Q1019 A3010,OITR,2023-05-16T07:00:00Z,37.67,45.07,14.0,1.0,30,6,,6.21,30.088583,,,,,,,,,,,FEW,3500,SCT,4000,,,,,VFR,,,,,,,,,,,,METAR,1312.0
OITP 160700Z 31004KT 9999 FEW040 20/16 Q1018,OITP,2023-05-16T07:00:00Z,39.6,47.88,20.0,16.0,310,4,,6.21,30.059055,,,,,,,,,,,FEW,4000,,,,,,,VFR,,,,,,,,,,,,METAR,72.0
OITM 160700Z 13008KT 9999 FEW035 15/01 Q1019,OITM,2023-05-16T07:00:00Z,37.35,46.15,15.0,1.0,130,8,,6.21,30.088583,,,,,,,,,,,FEW,3500,,,,,,,VFR,,,,,,,,,,,,METAR,1340.0
OITL 160700Z 04004KT 9999 FEW035 BKN080 11/03 Q1020 NOSIG,OITL,2023-05-16T07:00:00Z,38.33,48.42,11.0,3.0,40,4,,6.21,30.11811,,,,,,TRUE,,,,,FEW,3500,BKN,8000,,,,,VFR,,,,,,,,,,,,METAR,1314.0
OITK 160700Z 04006KT 9999 FEW040 16/04 Q1019 A3011,OITK,2023-05-16T07:00:00Z,38.42,44.98,16.0,4.0,40,6,,6.21,30.088583,,,,,,,,,,,FEW,4000,,,,,,,VFR,,,,,,,,,,,,METAR,1192.0
OISY 160700Z 30010KT 9999 FEW040 22/M16 Q1021,OISY,2023-05-16T07:00:00Z,30.7,51.55,22.0,-16.0,300,10,,6.21,30.147638,,,,,,,,,,,FEW,4000,,,,,,,VFR,,,,,,,,,,,,METAR,1800.0
OISS 160700Z 28008KT CAVOK 26/M06 Q1016 A3001,OISS,2023-05-16T07:00:00Z,29.53,52.58,26.0,-6.0,280,8,,6.21,30.0,,,,,,,,,,,CAVOK,,,,,,,,VFR,,,,,,,,,,,,METAR,1484.0
OISR 160700Z 29016KT CAVOK 35/08 Q1009 A2982 NOSIG,OISR,2023-05-16T07:00:00Z,27.37,53.2,35.0,8.0,290,16,,6.21,29.793306,,,,,,TRUE,,,,,CAVOK,,,,,,,,VFR,,,,,,,,,,,,METAR,402.0
OISL 160700Z 29006KT CAVOK 33/01 Q1009 A2982 NOSIG,OISL,2023-05-16T07:00:00Z,27.67,54.37,33.0,1.0,290,6,,6.21,29.793306,,,,,,TRUE,,,,,CAVOK,,,,,,,,VFR,,,,,,,,,,,,METAR,804.0
OISF 160700Z 23006KT CAVOK 30/M09 Q1014 A2996,OISF,2023-05-16T07:00:00Z,28.9,53.72,30.0,-9.0,230,6,,6.21,29.940945,,,,,,,,,,,CAVOK,,,,,,,,VFR,,,,,,,,,,,,METAR,1305.0
OINZ 160700Z 24006KT 9999 FEW020 SCT030 20/12 Q1019,OINZ,2023-05-16T07:00:00Z,36.63,53.2,20.0,12.0,240,6,,6.21,30.088583,,,,,,,,,,,FEW,2000,SCT,3000,,,,,VFR,,,,,,,,,,,,METAR,8.0
OINR 160700Z 05006KT 9999 FEW027CB SCT090 19/13 Q1018,OINR,2023-05-16T07:00:00Z,36.9,50.67,19.0,13.0,50,6,,6.21,30.059055,,,,,,,,,,,FEW,2700,SCT,9000,,,,,VFR,,,,,,,,,,,,METAR,-19.0
OINN 160700Z 02006KT 9999 FEW022TCU 18/13 Q1018,OINN,2023-05-16T07:00:00Z,36.67,51.47,18.0,13.0,20,6,,6.21,30.059055,,,,,,,,,,,FEW,2200,,,,,,,VFR,,,,,,,,,,,,METAR,-25.0
OING 160700Z 27004KT 9999 FEW030TCU 19/14 Q1021 NOSIG,OING,2023-05-16T07:00:00Z,36.9,54.4,19.0,14.0,270,4,,6.21,30.147638,,,,,,TRUE,,,,,FEW,3000,,,,,,,VFR,,,,,,,,,,,,METAR,0.0
OINE 160700Z 19004KT 8000 RA BKN020 OVC070 15/12 Q1018,OINE,2023-05-16T07:00:00Z,37.38,55.45,15.0,12.0,190,4,,4.97,30.059055,,,,,,,,,,RA,BKN,2000,OVC,7000,,,,,MVFR,,,,,,,,,,,,METAR,125.0
OIMT 160700Z AUTO 34008KT //// // ////// 28/06 Q1009,OIMT,2023-05-16T07:00:00Z,33.67,56.88,28.0,6.0,340,8,,,29.793306,,,TRUE,,,,,,,,,,,,,,,,,,,,,,,,,,,,METAR,693.0
OIMS 160700Z 36024KT 9999 FEW030CB BKN035 18/03 Q1016,OIMS,2023-05-16T07:00:00Z,36.17,57.6,18.0,3.0,360,24,,6.21,30.0,,,,,,,,,,,FEW,3000,BKN,3500,,,,,VFR,,,,,,,,,,,,METAR,920.0
OIMQ 160700Z 12008KT 9999 FEW040 24/08 Q1011,OIMQ,2023-05-16T07:00:00Z,35.27,58.47,24.0,8.0,120,8,,6.21,29.852362,,,,,,,,,,,FEW,4000,,,,,,,VFR,,,,,,,,,,,,METAR,1101.0
OIMN 160700Z 30010KT 9999 FEW015 BKN025 BKN080 10/05 Q1019,OIMN,2023-05-16T07:00:00Z,37.48,57.3,10.0,5.0,300,10,,6.21,30.088583,,,,,,,,,,,FEW,1500,BKN,2500,BKN,8000,,,MVFR,,,,,,,,,,,,METAR,1065.0
OIMM 160700Z 34014KT 9999 FEW025 FEW030CB BKN035 OVC060 12/07 Q1017 A3005,OIMM,2023-05-16T07:00:00Z,36.23,59.63,12.0,7.0,340,14,,6.21,30.029528,,,,,,,,,,,FEW,2500,FEW,3000,BKN,3500,OVC,6000,VFR,,,,,,,,,,,,METAR,995.0
OIMJ 160700Z 02025KT 9999 FEW020 16/02 Q1015,OIMJ,2023-05-16T07:00:00Z,36.43,55.1,16.0,2.0,20,25,,6.21,29.970472,,,,,,,,,,,FEW,2000,,,,,,,VFR,,,,,,,,,,,,METAR,1285.0
OIMD 160700Z 03004KT 6000 NSC 26/08 Q1007,OIMD,2023-05-16T07:00:00Z,34.38,58.63,26.0,8.0,30,4,,3.73,29.734253,,,,,,,,,,,CLR,,,,,,,,MVFR,,,,,,,,,,,,METAR,1097.0
OIMB 160700Z 32016KT 8000 NSC 29/M12 Q1012 A2988,OIMB,2023-05-16T07:00:00Z,32.9,59.28,29.0,-12.0,320,16,,4.97,29.88189,,,,,,,,,,,CLR,,,,,,,,MVFR,,,,,,,,,,,,METAR,1512.0
OIKQ 160700Z 21016KT 5000 SA NSC 30/26 Q1005 NOSIG,OIKQ,2023-05-16T07:00:00Z,26.75,55.9,30.0,26.0,210,16,,3.11,29.675198,,,,,,TRUE,,,,SA,CLR,,,,,,,,MVFR,,,,,,,,,,,,METAR,9.0
OIKK 160700Z 32008KT 4000 DU NSC 25/M04 Q1015 A3000,OIKK,2023-05-16T07:00:00Z,30.25,56.97,25.0,-4.0,320,8,,2.49,29.970472,,,,,,,,,,DU,CLR,,,,,,,,IFR,,,,,,,,,,,,METAR,1749.0
OIKB 160700Z 24010KT 5000 HZ FEW030 SCT190 32/22 Q1005 A2970 NOSIG,OIKB,2023-05-16T07:00:00Z,27.22,56.37,32.0,22.0,240,10,,3.11,29.675198,,,,,,TRUE,,,,HZ,FEW,3000,SCT,19000,,,,,MVFR,,,,,,,,,,,,METAR,6.0
OIIP 160700Z 28016KT 9999 FEW040 16/M01 Q1014 A2997,OIIP,2023-05-16T07:00:00Z,35.78,50.83,16.0,-1.0,280,16,,6.21,29.940945,,,,,,,,,,,FEW,4000,,,,,,,VFR,,,,,,,,,,,,METAR,1270.0
OIIK 160700Z 35006KT CAVOK 19/01 Q1016,OIIK,2023-05-16T07:00:00Z,36.25,50.05,19.0,1.0,350,6,,6.21,30.0,,,,,,,,,,,CAVOK,,,,,,,,VFR,,,,,,,,,,,,METAR,1278.0
OIII 160700Z 25010KT 9999 FEW035 18/M05 Q1014 A2997 NOSIG,OIII,2023-05-16T07:00:00Z,35.68,51.3,18.0,-5.0,250,10,,6.21,29.940945,,,,,,TRUE,,,,,FEW,3500,,,,,,,VFR,,,,,,,,,,,,METAR,1182.0
OIIE 160700Z 31016KT CAVOK 19/M01 Q1014,OIIE,2023-05-16T07:00:00Z,35.42,51.15,19.0,-1.0,310,16,,6.21,29.940945,,,,,,,,,,,CAVOK,,,,,,,,VFR,,,,,,,,,,,,METAR,993.0
OIHR 160700Z 32016KT 9999 FEW035 16/M02 Q1017,OIHR,2023-05-16T07:00:00Z,34.13,49.85,16.0,-2.0,320,16,,6.21,30.029528,,,,,,,,,,,FEW,3500,,,,,,,VFR,,,,,,,,,,,,METAR,1658.0
OIHH 160700Z 32008KT 9999 FEW035 14/M02 Q1018 A3006,OIHH,2023-05-16T07:00:00Z,34.87,48.55,14.0,-2.0,320,8,,6.21,30.059055,,,,,,,,,,,FEW,3500,,,,,,,VFR,,,,,,,,,,,,METAR,1742.0
OIGG 160700Z 09004KT 9999 FEW030TCU 21/09 Q1019,OIGG,2023-05-16T07:00:00Z,37.33,49.6,21.0,9.0,90,4,,6.21,30.088583,,,,,,,,,,,FEW,3000,,,,,,,VFR,,,,,,,,,,,,METAR,-16.0
OIFS 160700Z 22010KT CAVOK 21/M10 Q1017,OIFS,2023-05-16T07:00:00Z,32.28,50.85,21.0,-10.0,220,10,,6.21,30.029528,,,,,,,,,,,CAVOK,,,,,,,,VFR,,,,,,,,,,,,METAR,2042.0
OIFM 160700Z 17004KT 6000 NSC 22/M02 Q1015 A2999,OIFM,2023-05-16T07:00:00Z,32.75,51.87,22.0,-2.0,170,4,,3.73,29.970472,,,,,,,,,,,CLR,,,,,,,,MVFR,,,,,,,,,,,,METAR,1539.0
OICS 160700Z 36006KT 9999 FEW035 16/M01 Q1018 A3006,OICS,2023-05-16T07:00:00Z,35.25,47.02,16.0,-1.0,360,6,,6.21,30.059055,,,,,,,,,,,FEW,3500,,,,,,,VFR,,,,,,,,,,,,METAR,1369.0
OICM 160700Z 27008KT CAVOK 30/01 Q1008,OICM,2023-05-16T07:00:00Z,,,30.0,1.0,270,8,,6.21,29.763779,,,,,,,,,,,CAVOK,,,,,,,,VFR,,,,,,,,,,,,METAR,
OICK 160700Z 27004KT CAVOK 22/M02 Q1014,OICK,2023-05-16T07:00:00Z,33.43,48.28,22.0,-2.0,270,4,,6.21,29.940945,,,,,,,,,,,CAVOK,,,,,,,,VFR,,,,,,,,,,,,METAR,1156.0
OICI 160700Z 04002KT 9000 NSC 22/M08 Q1016 A3002,OICI,2023-05-16T07:00:00Z,33.58,46.4,22.0,-8.0,40,2,,5.59,30.0,,,,,,,,,,,CLR,,,,,,,,VFR,,,,,,,,,,,,METAR,1323.0
OICC 160700Z 20010KT CAVOK 19/M01 Q1016 A3001,OICC,2023-05-16T07:00:00Z,34.35,47.17,19.0,-1.0,200,10,,6.21,30.0,,,,,,,,,,,CAVOK,,,,,,,,VFR,,,,,,,,,,,,METAR,1310.0
OIBV 160700Z 31012KT 8000 NSC 31/19 Q1005,OIBV,2023-05-16T07:00:00Z,26.82,53.35,31.0,19.0,310,12,,4.97,29.675198,,,,,,,,,,,CLR,,,,,,,,MVFR,,,,,,,,,,,,METAR,23.0
OIBS 160700Z 30012KT 5000 HZ NSC 31/21 Q1006,OIBS,2023-05-16T07:00:00Z,25.9,54.55,31.0,21.0,300,12,,3.11,29.704725,,,,,,,,,,HZ,CLR,,,,,,,,MVFR,,,,,,,,,,,,METAR,4.0
OIBQ 160700Z 32008KT CAVOK 29/21 Q1008,OIBQ,2023-05-16T07:00:00Z,29.27,50.32,29.0,21.0,320,8,,6.21,29.763779,,,,,,,,,,,CAVOK,,,,,,,,VFR,,,,,,,,,,,,METAR,3.0
OIBP 160700Z 31010KT CAVOK 36/13 Q1005 A2969,OIBP,2023-05-16T07:00:00Z,27.38,52.73,36.0,13.0,310,10,,6.21,29.675198,,,,,,,,,,,CAVOK,,,,,,,,VFR,,,,,,,,,,,,METAR,13.0
OIBL 160700Z 20008KT CAVOK 31/24 Q1005,OIBL,2023-05-16T07:00:00Z,26.53,54.82,31.0,24.0,200,8,,6.21,29.675198,,,,,,,,,,,CAVOK,,,,,,,,VFR,,,,,,,,,,,,METAR,25.0
OIBK 160700Z 29016KT CAVOK 31/22 Q1005 NOSIG,OIBK,2023-05-16T07:00:00Z,26.53,53.98,31.0,22.0,290,16,,6.21,29.675198,,,,,,TRUE,,,,,CAVOK,,,,,,,,VFR,,,,,,,,,,,,METAR,27.0
OIBJ 160700Z AUTO 35006KT //// // ////// 33/00 Q1012,OIBJ,2023-05-16T07:00:00Z,27.82,52.35,33.0,0.0,350,6,,,29.88189,,,TRUE,,,,,,,,,,,,,,,,,,,,,,,,,,,,METAR,647.0
OIBH 160700Z 27008KT CAVOK 33/15 Q1008 A2978,OIBH,2023-05-16T07:00:00Z,27.2,54.32,33.0,15.0,270,8,,6.21,29.763779,,,,,,,,,,,CAVOK,,,,,,,,VFR,,,,,,,,,,,,METAR,412.0
OIBB 160700Z 30006KT CAVOK 30/15 Q1007 A2976 NOSIG,OIBB,2023-05-16T07:00:00Z,28.93,50.83,30.0,15.0,300,6,,6.21,29.734253,,,,,,TRUE,,,,,CAVOK,,,,,,,,VFR,,,,,,,,,,,,METAR,15.0
OIBA 160700Z 25010KT 5000 HZ FEW030 31/23 Q1005,OIBA,2023-05-16T07:00:00Z,25.88,55.03,31.0,23.0,250,10,,3.11,29.675198,,,,,,,,,,HZ,FEW,3000,,,,,,,MVFR,,,,,,,,,,,,METAR,7.0
OIAW 160700Z 29006KT CAVOK 34/01 Q1008,OIAW,2023-05-16T07:00:00Z,31.33,48.77,34.0,1.0,290,6,,6.21,29.763779,,,,,,,,,,,CAVOK,,,,,,,,VFR,,,,,,,,,,,,METAR,25.0
OIAM 160700Z 24008KT CAVOK 34/06 Q1008,OIAM,2023-05-16T07:00:00Z,30.55,49.15,34.0,6.0,240,8,,6.21,29.763779,,,,,,,,,,,CAVOK,,,,,,,,VFR,,,,,,,,,,,,METAR,7.0
OIAH 160700Z 30012KT CAVOK 30/M00 Q1013,OIAH,2023-05-16T07:00:00Z,30.33,50.83,30.0,0.0,300,12,,6.21,29.911417,,,,,,,,,,,CAVOK,,,,,,,,VFR,,,,,,,,,,,,METAR,730.0
OIAG 160700Z 34012KT CAVOK 36/03 Q1009,OIAG,2023-05-16T07:00:00Z,30.73,49.68,36.0,3.0,340,12,,6.21,29.793306,,,,,,,,,,,CAVOK,,,,,,,,VFR,,,,,,,,,,,,METAR,17.0
OIAA 160700Z 31004KT CAVOK 33/02 Q1009,OIAA,2023-05-16T07:00:00Z,30.35,48.22,33.0,2.0,310,4,,6.21,29.793306,,,,,,,,,,,CAVOK,,,,,,,,VFR,,,,,,,,,,,,METAR,4.0
OEYN 160700Z 12006KT CAVOK 34/18 Q1005 NOSIG,OEYN,2023-05-16T07:00:00Z,24.13,38.07,34.0,18.0,120,6,,6.21,29.675198,,,,,,TRUE,,,,,CAVOK,,,,,,,,VFR,,,,,,,,,,,,METAR,20.0
OEWJ 160700Z 22005KT CAVOK 29/18 Q1007 NOSIG,OEWJ,2023-05-16T07:00:00Z,26.18,36.47,29.0,18.0,220,5,,6.21,29.734253,,,,,,TRUE,,,,,CAVOK,,,,,,,,VFR,,,,,,,,,,,,METAR,8.0
OEWD 160700Z 12006KT CAVOK 36/M01 Q1011,OEWD,2023-05-16T07:00:00Z,20.5,45.2,36.0,-1.0,120,6,,6.21,29.852362,,,,,,,,,,,CAVOK,,,,,,,,VFR,,,,,,,,,,,,METAR,629.0
OETR 160700Z 08016KT CAVOK 26/M09 Q1015 NOSIG,OETR,2023-05-16T07:00:00Z,31.7,38.73,26.0,-9.0,80,16,,6.21,29.970472,,,,,,TRUE,,,,,CAVOK,,,,,,,,VFR,,,,,,,,,,,,METAR,854.0
OETF 160700Z 25008KT CAVOK 32/M03 Q1019 NOSIG,OETF,2023-05-16T07:00:00Z,21.47,40.53,32.0,-3.0,250,8,,6.21,30.088583,,,,,,TRUE,,,,,CAVOK,,,,,,,,VFR,,,,,,,,,,,,METAR,1460.0
OETB 160700Z 00000KT CAVOK 30/M03 Q1011 NOSIG,OETB,2023-05-16T07:00:00Z,28.37,36.62,30.0,-3.0,0,0,,6.21,29.852362,,,,,,TRUE,,,,,CAVOK,,,,,,,,VFR,,,,,,,,,,,,METAR,770.0
OESK 160700Z 09011KT CAVOK 28/M06 Q1016 NOSIG,OESK,2023-05-16T07:00:00Z,29.78,40.1,28.0,-6.0,90,11,,6.21,30.0,,,,,,TRUE,,,,,CAVOK,,,,,,,,VFR,,,,,,,,,,,,METAR,671.0
OESH 160700Z 19014KT CAVOK 38/10 Q1012 NOSIG,OESH,2023-05-16T07:00:00Z,17.47,47.12,38.0,10.0,190,14,,6.21,29.88189,,,,,,TRUE,,,,,CAVOK,,,,,,,,VFR,,,,,,,,,,,,METAR,720.0
OERR 160700Z 03010KT CAVOK 27/M09 Q1013 NOSIG,OERR,2023-05-16T07:00:00Z,30.9,41.13,27.0,-9.0,30,10,,6.21,29.911417,,,,,,TRUE,,,,,CAVOK,,,,,,,,VFR,,,,,,,,,,,,METAR,554.0
OERK 160700Z 17010KT CAVOK 33/04 Q1013 NOSIG,OERK,2023-05-16T07:00:00Z,24.95,46.72,33.0,4.0,170,10,,6.21,29.911417,,,,,,TRUE,,,,,CAVOK,,,,,,,,VFR,,,,,,,,,,,,METAR,618.0
OERF 160700Z 07010KT CAVOK 30/M07 Q1012 NOSIG,OERF,2023-05-16T07:00:00Z,29.62,43.48,30.0,-7.0,70,10,,6.21,29.88189,,,,,,TRUE,,,,,CAVOK,,,,,,,,VFR,,,,,,,,,,,,METAR,441.0
OEPA 160700Z 12010KT CAVOK 35/08 Q1010 NOSIG,OEPA,2023-05-16T07:00:00Z,28.33,46.12,35.0,8.0,120,10,,6.21,29.822834,,,,,,TRUE,,,,,CAVOK,,,,,,,,VFR,,,,,,,,,,,,METAR,361.0
OENG 160700Z 22002KT CAVOK 35/02 Q1015 NOSIG,OENG,2023-05-16T07:00:00Z,17.62,44.42,35.0,2.0,220,2,,6.21,29.970472,,,,,,TRUE,,,,,CAVOK,,,,,,,,VFR,,,,,,,,,,,,METAR,1210.0
OEMN 160700Z 17002KT CAVOK 36/18 Q1010,OEMN,2023-05-16T07:00:00Z,,,36.0,18.0,170,2,,6.21,29.822834,,,,,,,,,,,CAVOK,,,,,,,,VFR,,,,,,,,,,,,METAR,
OEMA 160700Z 23004KT CAVOK 36/M02 Q1012 NOSIG,OEMA,2023-05-16T07:00:00Z,24.55,39.7,36.0,-2.0,230,4,,6.21,29.88189,,,,,,TRUE,,,,,CAVOK,,,,,,,,VFR,,,,,,,,,,,,METAR,639.0
OEKM 160700Z 24006KT CAVOK 28/M01 Q1024 NOSIG,OEKM,2023-05-16T07:00:00Z,18.3,42.78,28.0,-1.0,240,6,,6.21,30.236221,,,,,,TRUE,,,,,CAVOK,,,,,,,,VFR,,,,,,,,,,,,METAR,2038.0
OEKJ 160700Z 09010KT CAVOK 34/01 Q1014,OEKJ,2023-05-16T07:00:00Z,24.07,47.58,34.0,1.0,90,10,,6.21,29.940945,,,,,,,,,,,CAVOK,,,,,,,,VFR,,,,,,,,,,,,METAR,487.0
OEJN 160700Z VRB02KT 4000 DU NSC 36/16 Q1007 NOSIG,OEJN,2023-05-16T07:00:00Z,21.68,39.15,36.0,16.0,0,2,,2.49,29.734253,,,,,,TRUE,,,,DU,CLR,,,,,,,,IFR,,,,,,,,,,,,METAR,8.0
OEHL 160700Z 24004KT CAVOK 31/05 Q1014,OEHL,2023-05-16T07:00:00Z,27.43,41.68,31.0,5.0,240,4,,6.21,29.940945,,,,,,,,,,,CAVOK,,,,,,,,VFR,,,,,,,,,,,,METAR,1002.0
OEGT 160700Z 14012KT 8000 NSC 28/M09 Q1013 NOSIG,OEGT,2023-05-16T07:00:00Z,31.42,37.27,28.0,-9.0,140,12,,4.97,29.911417,,,,,,TRUE,,,,,CLR,,,,,,,,MVFR,,,,,,,,,,,,METAR,512.0
OEGS 160700Z 12004KT 9999 FEW040 32/11 Q1010 TEMPO 5000 TSRA,OEGS,2023-05-16T07:00:00Z,26.3,43.77,32.0,11.0,120,4,,6.21,29.822834,,,,,,,,,,,FEW,4000,,,,,,,VFR,,,,,,,,,,,,METAR,647.0
OEGN 160700Z 18006KT 9000 NSC 38/21 Q1008 NOSIG,OEGN,2023-05-16T07:00:00Z,16.9,42.58,38.0,21.0,180,6,,5.59,29.763779,,,,,,TRUE,,,,,CLR,,,,,,,,VFR,,,,,,,,,,,,METAR,5.0
OEDR 160700Z 36010KT 7000 FEW040 BKN080 34/03 Q1007,OEDR,2023-05-16T07:00:00Z,26.27,50.17,34.0,3.0,360,10,,4.35,29.734253,,,,,,,,,,,FEW,4000,BKN,8000,,,,,MVFR,,,,,,,,,,,,METAR,17.0
OEDM 160700Z 22012KT 9999 SCT040 35/03 Q1012,OEDM,2023-05-16T07:00:00Z,24.45,44.12,35.0,3.0,220,12,,6.21,29.88189,,,,,,,,,,,SCT,4000,,,,,,,VFR,,,,,,,,,,,,METAR,922.0
OEDF 160700Z 05011KT 9999 FEW040 BKN100 35/04 Q1008 NOSIG,OEDF,2023-05-16T07:00:00Z,26.43,49.82,35.0,4.0,50,11,,6.21,29.763779,,,,,,TRUE,,,,,FEW,4000,BKN,10000,,,,,VFR,,,,,,,,,,,,METAR,15.0
OEBH 160700Z 10003KT CAVOK 33/16 Q1015 NOSIG,OEBH,2023-05-16T07:00:00Z,19.98,42.62,33.0,16.0,100,3,,6.21,29.970472,,,,,,TRUE,,,,,CAVOK,,,,,,,,VFR,,,,,,,,,,,,METAR,1167.0
OEBA 160700Z 30002KT CAVOK 31/03 Q1020 NOSIG,OEBA,2023-05-16T07:00:00Z,20.3,41.63,31.0,3.0,300,2,,6.21,30.11811,,,,,,TRUE,,,,,CAVOK,,,,,,,,VFR,,,,,,,,,,,,METAR,1659.0
OEAO 160700Z 23004KT CAVOK 33/M03 Q1011 NOSIG,OEAO,2023-05-16T07:00:00Z,26.48,38.12,33.0,-3.0,230,4,,6.21,29.852362,,,,,,TRUE,,,,,CAVOK,,,,,,,,VFR,,,,,,,,,,,,METAR,615.0
OEAH 160700Z 14005KT 9999 SCT040 SCT100 33/01 Q1009 NOSIG,OEAH,2023-05-16T07:00:00Z,25.28,49.48,33.0,1.0,140,5,,6.21,29.793306,,,,,,TRUE,,,,,SCT,4000,SCT,10000,,,,,VFR,,,,,,,,,,,,METAR,180.0
OEAB 160700Z 18005KT CAVOK 27/00 Q1025 NOSIG,OEAB,2023-05-16T07:00:00Z,18.23,42.65,27.0,0.0,180,5,,6.21,30.265747,,,,,,TRUE,,,,,CAVOK,,,,,,,,VFR,,,,,,,,,,,,METAR,2092.0
OBBI 160700Z 33009KT 310V010 CAVOK 32/15 Q1009 NOSIG,OBBI,2023-05-16T07:00:00Z,26.27,50.63,32.0,15.0,330,9,,6.21,29.793306,,,,,,TRUE,,,,,CAVOK,,,,,,,,VFR,,,,,,,,,,,,METAR,6.0
NZWN 160700Z AUTO 02004KT 9999 NCD 10/08 Q1018,NZWN,2023-05-16T07:00:00Z,-41.32,174.8,10.0,8.0,20,4,,6.21,30.059055,,,TRUE,,,,,,,,CLR,,,,,,,,VFR,,,,,,,,,,,,METAR,12.0
NZCH 160700Z AUTO 07010KT 9999 NCD 10/08 Q1016,NZCH,2023-05-16T07:00:00Z,-43.48,172.52,10.0,8.0,70,10,,6.21,30.0,,,TRUE,,,,,,,,CLR,,,,,,,,VFR,,,,,,,,,,,,METAR,36.0
NZAA 160700Z AUTO 26006KT 9999 FEW029/// 13/11 Q1019,NZAA,2023-05-16T07:00:00Z,-37.02,174.8,13.0,11.0,260,6,,6.21,30.088583,,,TRUE,,,,,,,,FEW,2900,,,,,,,VFR,,,,,,,,,,,,METAR,7.0
NWWW 160700Z AUTO VRB03KT CAVOK 23/16 Q1014 NOSIG,NWWW,2023-05-16T07:00:00Z,-22.02,166.22,23.0,16.0,0,3,,6.21,29.940945,,,TRUE,,,TRUE,,,,,CAVOK,,,,,,,,VFR,,,,,,,,,,,,METAR,16.0
NVVV 160700Z 10008KT 9999 -SHRA FEW012 SCT020 OVC040 24/22 Q1012,NVVV,2023-05-16T07:00:00Z,-17.68,168.3,24.0,22.0,100,8,,6.21,29.88189,,,,,,,,,,-SHRA,FEW,1200,SCT,2000,OVC,4000,,,VFR,,,,,,,,,,,,METAR,23.0
NVSS 160700Z 13008KT 9999 SCT018 BKN040 26/24 Q1010,NVSS,2023-05-16T07:00:00Z,-15.52,167.22,26.0,24.0,130,8,,6.21,29.822834,,,,,,,,,,,SCT,1800,BKN,4000,,,,,VFR,,,,,,,,,,,,METAR,47.0
NTAA 160700Z 09003KT 050V110 9999 SCT028 26/22 Q1014 NOSIG,NTAA,2023-05-16T07:00:00Z,-17.55,-149.62,26.0,22.0,90,3,,6.21,29.940945,,,,,,TRUE,,,,,SCT,2800,,,,,,,VFR,,,,,,,,,,,,METAR,2.0
NSFA 160700Z 00000KT 9999 SCT022 BKN180 26/25 Q1012,NSFA,2023-05-16T07:00:00Z,-13.83,-172.0,26.0,25.0,0,0,,6.21,29.88189,,,,,,,,,,,SCT,2200,BKN,18000,,,,,VFR,,,,,,,,,,,,METAR,6.0
NLWW 160700Z AUTO VRB03KT 9999 NCD 27/25 Q1010 TEMPO VRB15G25KT 4500 SHRA BKN014 FEW020CB,NLWW,2023-05-16T07:00:00Z,-13.23,-176.18,27.0,25.0,0,3,,6.21,29.822834,,,TRUE,,,,,,,,CLR,,,,,,,,VFR,,,,,,,,,,,,METAR,24.0
NIUE 160700Z AUTO 12006KT NCD 20/18 Q1015,NIUE,2023-05-16T07:00:00Z,-19.07,-169.92,20.0,18.0,120,6,,,29.970472,,,TRUE,,,,,,,,CLR,,,,,,,,,,,,,,,,,,,,METAR,22.0
NGTA 160700Z 06006KT 9999 FEW018TCU SCT040 28/24 Q1009,NGTA,2023-05-16T07:00:00Z,1.37,173.13,28.0,24.0,60,6,,6.21,29.793306,,,,,,,,,,,FEW,1800,SCT,4000,,,,,VFR,,,,,,,,,,,,METAR,8.0
NGFU 160700Z 00000KT 9999 -SHRA FEW016CB BKN110 29/27 Q1009,NGFU,2023-05-16T07:00:00Z,-8.52,179.18,29.0,27.0,0,0,,6.21,29.793306,,,,,,,,,,-SHRA,FEW,1600,BKN,11000,,,,,VFR,,,,,,,,,,,,METAR,2.0
NFTF 160700Z 15008KT 9999 FEW016 22/20 Q1015,NFTF,2023-05-16T07:00:00Z,-21.23,-175.15,22.0,20.0,150,8,,6.21,29.970472,,,,,,,,,,,FEW,1600,,,,,,,VFR,,,,,,,,,,,,METAR,38.0
NFNA 160700Z 13004KT 9999 SCT018 BKN045 BKN110 25/21 Q1012,NFNA,2023-05-16T07:00:00Z,-18.05,178.57,25.0,21.0,130,4,,6.21,29.88189,,,,,,,,,,,SCT,1800,BKN,4500,BKN,11000,,,VFR,,,,,,,,,,,,METAR,6.0
NFFN 160700Z 35004KT 9999 FEW026 SCT048 BKN110 26/22 Q1012 NOSIG,NFFN,2023-05-16T07:00:00Z,-17.75,177.45,26.0,22.0,350,4,,6.21,29.88189,,,,,,TRUE,,,,,FEW,2600,SCT,4800,BKN,11000,,,VFR,,,,,,,,,,,,METAR,14.0
NCSW 160700Z AUTO NIL,NCSW,2023-05-16T07:00:00Z,,,,,,,,,,,,TRUE,,,,,,,,,,,,,,,,,,,,,,,,,,,,METAR,
NCRK 160700Z AUTO NIL,NCRK,2023-05-16T07:00:00Z,-10.02,-161.1,,,,,,,,,,TRUE,,,,,,,,,,,,,,,,,,,,,,,,,,,,METAR,7.0
NCRG 160700Z AUTO 13006KT 080V180 9999 SCT024/// SCT029/// BKN034/// 24/20 Q1015,NCRG,2023-05-16T07:00:00Z,-21.2,-159.82,24.0,20.0,130,6,,6.21,29.970472,,,TRUE,,,,,,,,SCT,2400,SCT,2900,BKN,3400,,,VFR,,,,,,,,,,,,METAR,7.0
NCPY 160700Z AUTO NIL,NCPY,2023-05-16T07:00:00Z,-9.02,-158.03,,,,,,,,,,TRUE,,,,,,,,,,,,,,,,,,,,,,,,,,,,METAR,2.0
NCPL 160700Z AUTO NIL,NCPL,2023-05-16T07:00:00Z,1.98,-157.48,,,,,,,,,,TRUE,,,,,,,,,,,,,,,,,,,,,,,,,,,,METAR,3.0
NCPK 160700Z AUTO NIL,NCPK,2023-05-16T07:00:00Z,-10.9,-165.83,,,,,,,,,,TRUE,,,,,,,,,,,,,,,,,,,,,,,,,,,,METAR,5.0
NCNS 160700Z AUTO NIL,NCNS,2023-05-16T07:00:00Z,,,,,,,,,,,,TRUE,,,,,,,,,,,,,,,,,,,,,,,,,,,,METAR,
NCMR 160700Z AUTO 09003KT //// ////// ///// Q1014,NCMR,2023-05-16T07:00:00Z,-19.85,-157.7,,,90,3,,,29.940945,,,TRUE,,,,,,,,,,,,,,,,,,,,,,,,,,,,METAR,8.0
NCMK 160700Z AUTO 13003KT //// ////// 24/20 Q1013,NCMK,2023-05-16T07:00:00Z,-20.15,-157.33,24.0,20.0,130,3,,,29.911417,,,TRUE,,,,,,,,,,,,,,,,,,,,,,,,,,,,METAR,13.0
NCMH 160700Z AUTO NIL,NCMH,2023-05-16T07:00:00Z,-10.38,-161.0,,,,,,,,,,TRUE,,,,,,,,,,,,,,,,,,,,,,,,,,,,METAR,1.0
NCMG 160700Z AUTO 12005KT //// ////// ///// Q////,NCMG,2023-05-16T07:00:00Z,-21.88,-157.9,,,120,5,,,,,,TRUE,,,,,,,,,,,,,,,,,,,,,,,,,,,,METAR,14.0
NCAT 160700Z AUTO NIL,NCAT,2023-05-16T07:00:00Z,-19.97,-158.12,,,,,,,,,,TRUE,,,,,,,,,,,,,,,,,,,,,,,,,,,,METAR,11.0
NCAI 160700Z AUTO 16008KT //// ////// 25/22 Q1013,NCAI,2023-05-16T07:00:00Z,-18.82,-159.77,25.0,22.0,160,8,,,29.911417,,,TRUE,,,,,,,,,,,,,,,,,,,,,,,,,,,,METAR,7.0
MYNN 160700Z 07003KT 9999 FEW018 22/21 A3000,MYNN,2023-05-16T07:00:00Z,25.03,-77.47,22.0,21.0,70,3,,6.21,30.0,,,,,,,,,,,FEW,1800,,,,,,,VFR,,,,,,,,,,,,METAR,5.0
MYGF 160700Z AUTO VRB01KT //// R06///// // NCD 19/18 A3001,MYGF,2023-05-16T07:00:00Z,26.55,-78.7,19.0,18.0,0,1,,,30.008858,,,TRUE,,,,,,,,CLR,,,,,,,,,,,,,,,,,,,,METAR,2.0
MROC 160700Z 29004KT 250V340 9999 4500SW BCFG SCT005 22/20 A3012 NOSIG,MROC,2023-05-16T07:00:00Z,10.0,-84.22,22.0,20.0,290,4,,6.21,30.121063,,,,,,TRUE,,,,BCFG,SCT,500,,,,,,,VFR,,,,,,,,,,,,METAR,900.0
MPTO 160700Z VRB01KT 9999 FEW018CB BKN080 25/25 Q1013 NOSIG,MPTO,2023-05-16T07:00:00Z,9.05,-79.38,25.0,25.0,0,1,,6.21,29.911417,,,,,,TRUE,,,,,FEW,1800,BKN,8000,,,,,VFR,,,,,,,,,,,,METAR,7.0
MPMG 160700Z AUTO 31005KT //// R01///// // BKN060/// OVC210/// 27/25 Q1012,MPMG,2023-05-16T07:00:00Z,8.98,-79.57,27.0,25.0,310,5,,,29.88189,,,TRUE,,,,,,,,BKN,6000,OVC,21000,,,,,,,,,,,,,,,,,METAR,6.0
MNMG 160700Z 12010KT 9999 FEW020 SCT300 29/24 Q1012 A2991 NOSIG,MNMG,2023-05-16T07:00:00Z,12.15,-86.17,29.0,24.0,120,10,,6.21,29.88189,,,,,,TRUE,,,,,FEW,2000,SCT,30000,,,,,VFR,,,,,,,,,,,,METAR,59.0
MKJS 160700Z 05015KT 9999 VCTS SCT020 FEW022CB 26/23 Q1014,MKJS,2023-05-16T07:00:00Z,18.5,-77.92,26.0,23.0,50,15,,6.21,29.940945,,,,,,,,,,VCTS,SCT,2000,FEW,2200,,,,,VFR,,,,,,,,,,,,METAR,3.0
MKJP 160700Z 11003KT 9999 FEW022 28/23 Q1014,MKJP,2023-05-16T07:00:00Z,17.93,-76.78,28.0,23.0,110,3,,6.21,29.940945,,,,,,,,,,,FEW,2200,,,,,,,VFR,,,,,,,,,,,,METAR,3.0
MHTG 160700Z 00000KT 8000 VCSH BKN034 FEW036CB 22/19 Q1021 A3015 NOSIG,MHTG,2023-05-16T07:00:00Z,14.07,-87.22,22.0,19.0,0,0,,4.97,30.147638,,,,,,TRUE,,,,VCSH,BKN,3400,FEW,3600,,,,,MVFR,,,,,,,,,,,,METAR,1001.0
MHPR 160700Z 33006KT 8000 SCT046 23/20 Q1019 A3010 NOSIG,MHPR,2023-05-16T07:00:00Z,14.38,-87.62,23.0,20.0,330,6,,4.97,30.088583,,,,,,TRUE,,,,,SCT,4600,,,,,,,MVFR,,,,,,,,,,,,METAR,628.0
MHLM 160700Z VRB02KT 9999 BKN018 25/24 Q1015 A2997 NOSIG,MHLM,2023-05-16T07:00:00Z,15.45,-87.93,25.0,24.0,0,2,,6.21,29.970472,,,,,,TRUE,,,,,BKN,1800,,,,,,,MVFR,,,,,,,,,,,,METAR,32.0
MGPB 160700Z 00000KT 9999 SCT017 24/23 Q1014 A2994,MGPB,2023-05-16T07:00:00Z,15.73,-88.58,24.0,23.0,0,0,,6.21,29.940945,,,,,,,,,,,SCT,1700,,,,,,,VFR,,,,,,,,,,,,METAR,6.0
MGMM 160700Z 00000KT CAVOK 24/22 Q1017 A3003,MGMM,2023-05-16T07:00:00Z,16.9,-89.87,24.0,22.0,0,0,,6.21,30.029528,,,,,,,,,,,CAVOK,,,,,,,,VFR,,,,,,,,,,,,METAR,105.0
MGHT 160700Z 00000KT 9999 BKN022 15/13,MGHT,2023-05-16T07:00:00Z,15.32,-91.5,15.0,13.0,0,0,,6.21,,,,,,,,,,,,BKN,2200,,,,,,,MVFR,,,,,,,,,,,,METAR,1875.0
MGGT 160700Z 03010KT 9999 OVC016 17/15 Q1024 A3024,MGGT,2023-05-16T07:00:00Z,14.58,-90.53,17.0,15.0,30,10,,6.21,30.236221,,,,,,,,,,,OVC,1600,,,,,,,MVFR,,,,,,,,,,,,METAR,1497.0
MDST 160700Z 00000KT 3000 BR SCT014 SCT070 22/22 Q1015 BR/ALLQDS,MDST,2023-05-16T07:00:00Z,19.4,-70.6,22.0,22.0,0,0,,1.86,29.970472,,,,,,,,,,BR BR,SCT,1400,SCT,7000,,,,,IFR,,,,,,,,,,,,METAR,175.0
MDSD 160700Z 00000KT 9999 BKN015 BKN300 23/22 Q1015,MDSD,2023-05-16T07:00:00Z,18.42,-69.67,23.0,22.0,0,0,,6.21,29.970472,,,,,,,,,,,BKN,1500,BKN,30000,,,,,MVFR,,,,,,,,,,,,METAR,18.0
MDPC 160700Z 00000KT 9999 SCT018 27/23 Q1015,MDPC,2023-05-16T07:00:00Z,18.57,-68.37,27.0,23.0,0,0,,6.21,29.970472,,,,,,,,,,,SCT,1800,,,,,,,VFR,,,,,,,,,,,,METAR,10.0
LZZI 160700Z 07003KT 030V120 9999 FEW002 12/10 Q1012,LZZI,2023-05-16T07:00:00Z,49.23,18.62,12.0,10.0,70,3,,6.21,29.88189,,,,,,,,,,,FEW,200,,,,,,,VFR,,,,,,,,,,,,METAR,311.0
LZTT 160700Z VRB01KT 9999 FEW016 11/07 Q1013 NOSIG,LZTT,2023-05-16T07:00:00Z,49.07,20.25,11.0,7.0,0,1,,6.21,29.911417,,,,,,TRUE,,,,,FEW,1600,,,,,,,VFR,,,,,,,,,,,,METAR,693.0
LZPP 160700Z 02003KT 310V070 CAVOK 13/11 Q1012,LZPP,2023-05-16T07:00:00Z,48.62,17.83,13.0,11.0,20,3,,6.21,29.88189,,,,,,,,,,,CAVOK,,,,,,,,VFR,,,,,,,,,,,,METAR,160.0
LZKZ 160700Z 04007KT 9000 FEW009 BKN016 14/13 Q1013 NOSIG,LZKZ,2023-05-16T07:00:00Z,48.67,21.23,14.0,13.0,40,7,,5.59,29.911417,,,,,,TRUE,,,,,FEW,900,BKN,1600,,,,,MVFR,,,,,,,,,,,,METAR,227.0
LZIB 160700Z 34003KT CAVOK 12/10 Q1011 NOSIG,LZIB,2023-05-16T07:00:00Z,48.17,17.22,12.0,10.0,340,3,,6.21,29.852362,,,,,,TRUE,,,,,CAVOK,,,,,,,,VFR,,,,,,,,,,,,METAR,129.0
LYVR 160700Z 11014KT CAVOK 19/13 Q1007 NOSIG,LYVR,2023-05-16T07:00:00Z,45.13,21.32,19.0,13.0,110,14,,6.21,29.734253,,,,,,TRUE,,,,,CAVOK,,,,,,,,VFR,,,,,,,,,,,,METAR,82.0
LYTV 160700Z 31003KT 260V030 9999 FEW036 BKN046 OVC080 19/15 Q1004 NOSIG,LYTV,2023-05-16T07:00:00Z,42.4,18.72,19.0,15.0,310,3,,6.21,29.64567,,,,,,TRUE,,,,,FEW,3600,BKN,4600,OVC,8000,,,VFR,,,,,,,,,,,,METAR,3.0
LYPG 160700Z 33006KT 280V020 9999 FEW030 SCT040 BKN090 19/17 Q1005 NOSIG,LYPG,2023-05-16T07:00:00Z,42.37,19.25,19.0,17.0,330,6,,6.21,29.675198,,,,,,TRUE,,,,,FEW,3000,SCT,4000,BKN,9000,,,VFR,,,,,,,,,,,,METAR,32.0
LYNI 160700Z 18005KT 120V240 CAVOK 17/13 Q1008 TEMPO 09012KT,LYNI,2023-05-16T07:00:00Z,43.33,21.85,17.0,13.0,180,5,,6.21,29.763779,,,,,,,,,,,CAVOK,,,,,,,,VFR,,,,,,,,,,,,METAR,197.0
LYKV 160700Z 20003KT 140V260 9999 FEW027 18/14 Q1007 NOSIG,LYKV,2023-05-16T07:00:00Z,43.82,20.58,18.0,14.0,200,3,,6.21,29.734253,,,,,,TRUE,,,,,FEW,2700,,,,,,,VFR,,,,,,,,,,,,METAR,209.0
LYBT 160700Z 12014KT 9999 SCT040 16/13 Q1007 NOSIG,LYBT,2023-05-16T07:00:00Z,44.93,20.25,16.0,13.0,120,14,,6.21,29.734253,,,,,,TRUE,,,,,SCT,4000,,,,,,,VFR,,,,,,,,,,,,METAR,78.0
LYBE 160700Z 12014KT CAVOK 16/12 Q1007 NOSIG,LYBE,2023-05-16T07:00:00Z,44.82,20.28,16.0,12.0,120,14,,6.21,29.734253,,,,,,TRUE,,,,,CAVOK,,,,,,,,VFR,,,,,,,,,,,,METAR,93.0
LWSK 160700Z 00000KT 9999 SCT100 16/14 Q1010 NOSIG,LWSK,2023-05-16T07:00:00Z,41.97,21.63,16.0,14.0,0,0,,6.21,29.822834,,,,,,TRUE,,,,,SCT,10000,,,,,,,VFR,,,,,,,,,,,,METAR,232.0
LWOH 160700Z 22002KT 9999 SCT033 OVC070 14/11 Q1009,LWOH,2023-05-16T07:00:00Z,41.18,20.75,14.0,11.0,220,2,,6.21,29.793306,,,,,,,,,,,SCT,3300,OVC,7000,,,,,VFR,,,,,,,,,,,,METAR,700.0
LUKK 160700Z 23017KT CAVOK 19/07 Q1016 NOSIG,LUKK,2023-05-16T07:00:00Z,46.93,28.93,19.0,7.0,230,17,,6.21,30.0,,,,,,TRUE,,,,,CAVOK,,,,,,,,VFR,,,,,,,,,,,,METAR,102.0
LRTR 160700Z 09018KT 9999 -RA NSC 16/15 Q1008,LRTR,2023-05-16T07:00:00Z,45.82,21.33,16.0,15.0,90,18,,6.21,29.763779,,,,,,,,,,-RA,CLR,,,,,,,,VFR,,,,,,,,,,,,METAR,104.0
LRTM 160700Z 04001KT CAVOK 17/13 Q1013,LRTM,2023-05-16T07:00:00Z,46.47,24.42,17.0,13.0,40,1,,6.21,29.911417,,,,,,,,,,,CAVOK,,,,,,,,VFR,,,,,,,,,,,,METAR,289.0
LRTC 160700Z 13013KT CAVOK 19/07 Q1016,LRTC,2023-05-16T07:00:00Z,45.07,28.72,19.0,7.0,130,13,,6.21,30.0,,,,,,,,,,,CAVOK,,,,,,,,VFR,,,,,,,,,,,,METAR,52.0
LRSV 160700Z 19005KT CAVOK 18/12 Q1013,LRSV,2023-05-16T07:00:00Z,47.68,26.35,18.0,12.0,190,5,,6.21,29.911417,,,,,,,,,,,CAVOK,,,,,,,,VFR,,,,,,,,,,,,METAR,406.0
LRSM 160700Z 07006KT CAVOK 16/16 Q1012,LRSM,2023-05-16T07:00:00Z,47.7,22.88,16.0,16.0,70,6,,6.21,29.88189,,,,,,,,,,,CAVOK,,,,,,,,VFR,,,,,,,,,,,,METAR,123.0
LRSB 160700Z 00000KT 9999 SCT085 16/12 Q1013 NOSIG,LRSB,2023-05-16T07:00:00Z,45.78,24.08,16.0,12.0,0,0,,6.21,29.911417,,,,,,TRUE,,,,,SCT,8500,,,,,,,VFR,,,,,,,,,,,,METAR,442.0
LROP 160700Z 07009KT CAVOK 17/11 Q1013 NOSIG,LROP,2023-05-16T07:00:00Z,44.57,26.1,17.0,11.0,70,9,,6.21,29.911417,,,,,,TRUE,,,,,CAVOK,,,,,,,,VFR,,,,,,,,,,,,METAR,92.0
LROD 160700Z 09006KT 9999 -RA FEW037 16/14 Q1011,LROD,2023-05-16T07:00:00Z,47.03,21.88,16.0,14.0,90,6,,6.21,29.852362,,,,,,,,,,-RA,FEW,3700,,,,,,,VFR,,,,,,,,,,,,METAR,132.0
LRIA 160700Z 14008KT CAVOK 19/07 Q1015,LRIA,2023-05-16T07:00:00Z,47.17,27.62,19.0,7.0,140,8,,6.21,29.970472,,,,,,,,,,,CAVOK,,,,,,,,VFR,,,,,,,,,,,,METAR,71.0
LRCV 160700Z 06013KT CAVOK 15/07 Q1011,LRCV,2023-05-16T07:00:00Z,44.32,23.88,15.0,7.0,60,13,,6.21,29.852362,,,,,,,,,,,CAVOK,,,,,,,,VFR,,,,,,,,,,,,METAR,192.0
LRCL 160700Z 06005KT 9999 -RA NSC 14/13 Q1013,LRCL,2023-05-16T07:00:00Z,46.78,23.68,14.0,13.0,60,5,,6.21,29.911417,,,,,,,,,,-RA,CLR,,,,,,,,VFR,,,,,,,,,,,,METAR,313.0
LRCK 160700Z 11015KT CAVOK 17/11 Q1016 NOSIG,LRCK,2023-05-16T07:00:00Z,44.37,28.48,17.0,11.0,110,15,,6.21,30.0,,,,,,TRUE,,,,,CAVOK,,,,,,,,VFR,,,,,,,,,,,,METAR,108.0
LRBS 160700Z 06011KT CAVOK 17/11 Q1013 NOSIG,LRBS,2023-05-16T07:00:00Z,44.5,26.08,17.0,11.0,60,11,,6.21,29.911417,,,,,,TRUE,,,,,CAVOK,,,,,,,,VFR,,,,,,,,,,,,METAR,91.0
LRBM 160700Z 07003KT CAVOK 18/16 Q1012,LRBM,2023-05-16T07:00:00Z,47.67,23.47,18.0,16.0,70,3,,6.21,29.88189,,,,,,,,,,,CAVOK,,,,,,,,VFR,,,,,,,,,,,,METAR,180.0
LRBC 160700Z 16016KT CAVOK 16/08 Q1014,LRBC,2023-05-16T07:00:00Z,46.52,26.92,16.0,8.0,160,16,,6.21,29.940945,,,,,,,,,,,CAVOK,,,,,,,,VFR,,,,,,,,,,,,METAR,183.0
LRAR 160700Z 08012KT 9999 -RA SCT009 BKN017 16/14 Q1009,LRAR,2023-05-16T07:00:00Z,46.18,21.27,16.0,14.0,80,12,,6.21,29.793306,,,,,,,,,,-RA,SCT,900,BKN,1700,,,,,MVFR,,,,,,,,,,,,METAR,102.0
LQTZ 160700Z 05008KT 6000 -RA FEW003 BKN025 15/14 Q1005,LQTZ,2023-05-16T07:00:00Z,44.47,18.73,15.0,14.0,50,8,,3.73,29.675198,,,,,,,,,,-RA,FEW,300,BKN,2500,,,,,MVFR,,,,,,,,,,,,METAR,242.0
LQSA 160700Z VRB02KT 5000 BR FEW005 SCT012 BKN030 14/14 Q1005 NOSIG,LQSA,2023-05-16T07:00:00Z,43.82,18.32,14.0,14.0,0,2,,3.11,29.675198,,,,,,TRUE,,,,BR,FEW,500,SCT,1200,BKN,3000,,,MVFR,,,,,,,,,,,,METAR,505.0
LQMO 160700Z 34004KT 9999 FEW007 FEW035TCU BKN040 17/15 Q1002,LQMO,2023-05-16T07:00:00Z,43.28,17.83,17.0,15.0,340,4,,6.21,29.586615,,,,,,,,,,,FEW,700,FEW,3500,BKN,4000,,,VFR,,,,,,,,,,,,METAR,49.0
LQBK 160700Z 08006KT 030V120 6000 -RA FEW007 BKN012 OVC033 14/14 Q1006 NOSIG,LQBK,2023-05-16T07:00:00Z,44.93,17.3,14.0,14.0,80,6,,3.73,29.704725,,,,,,TRUE,,,,-RA,FEW,700,BKN,1200,OVC,3300,,,MVFR,,,,,,,,,,,,METAR,114.0
LPST 160700Z 34006KT 320V020 9999 SCT009 14/13 Q1017,LPST,2023-05-16T07:00:00Z,38.82,-9.33,14.0,13.0,340,6,,6.21,30.029528,,,,,,,,,,,SCT,900,,,,,,,VFR,,,,,,,,,,,,METAR,129.0
LPPT 160700Z 33010KT 9999 FEW012 16/12 Q1016,LPPT,2023-05-16T07:00:00Z,38.77,-9.13,16.0,12.0,330,10,,6.21,30.0,,,,,,,,,,,FEW,1200,,,,,,,VFR,,,,,,,,,,,,METAR,98.0
LPPS 160700Z 01013KT 9999 SCT015 BKN030 18/13 Q1021,LPPS,2023-05-16T07:00:00Z,33.07,-16.35,18.0,13.0,10,13,,6.21,30.147638,,,,,,,,,,,SCT,1500,BKN,3000,,,,,MVFR,,,,,,,,,,,,METAR,89.0
LPPR 160700Z VRB05KT CAVOK 16/07 Q1018,LPPR,2023-05-16T07:00:00Z,41.23,-8.68,16.0,7.0,0,5,,6.21,30.059055,,,,,,,,,,,CAVOK,,,,,,,,VFR,,,,,,,,,,,,METAR,64.0
LPPD 160700Z 29006KT 9999 FEW015 17/15 Q1027,LPPD,2023-05-16T07:00:00Z,37.73,-25.68,17.0,15.0,290,6,,6.21,30.324802,,,,,,,,,,,FEW,1500,,,,,,,VFR,,,,,,,,,,,,METAR,62.0
LPOV 160700Z VRB01KT CAVOK 12/12 Q1018,LPOV,2023-05-16T07:00:00Z,40.92,-8.65,12.0,12.0,0,1,,6.21,30.059055,,,,,,,,,,,CAVOK,,,,,,,,VFR,,,,,,,,,,,,METAR,16.0
LPMT 160700Z 02005KT 330V040 CAVOK 15/13 Q1016,LPMT,2023-05-16T07:00:00Z,38.7,-9.05,15.0,13.0,20,5,,6.21,30.0,,,,,,,,,,,CAVOK,,,,,,,,VFR,,,,,,,,,,,,METAR,4.0
LPMR 160700Z VRB01KT 7000 NSC 12/12 Q1017,LPMR,2023-05-16T07:00:00Z,39.82,-8.88,12.0,12.0,0,1,,4.35,30.029528,,,,,,,,,,,CLR,,,,,,,,MVFR,,,,,,,,,,,,METAR,50.0
LPMA 160700Z 36012KT 330V030 9999 BKN015 18/13 Q1021,LPMA,2023-05-16T07:00:00Z,32.7,-16.77,18.0,13.0,360,12,,6.21,30.147638,,,,,,,,,,,BKN,1500,,,,,,,MVFR,,,,,,,,,,,,METAR,54.0
LPLA 160700Z /////KT 9999 SCT030 17/15 Q1026,LPLA,2023-05-16T07:00:00Z,38.77,-27.1,17.0,15.0,,,,6.21,30.295275,,,,,,,,,,,SCT,3000,,,,,,,VFR,,,,,,,,,,,,METAR,60.0
LPHR 160700Z 27005KT 9999 FEW004 SCT008 BKN010 18/17 Q1026,LPHR,2023-05-16T07:00:00Z,38.52,-28.72,18.0,17.0,270,5,,6.21,30.295275,,,,,,,,,,,FEW,400,SCT,800,BKN,1000,,,MVFR,,,,,,,,,,,,METAR,39.0
LPFR 160700Z 00000KT CAVOK 20/13 Q1014,LPFR,2023-05-16T07:00:00Z,37.02,-7.97,20.0,13.0,0,0,,6.21,29.940945,,,,,,,,,,,CAVOK,,,,,,,,VFR,,,,,,,,,,,,METAR,3.0
LPCS 160700Z 01015KT 9999 FEW014 15/12 Q1016,LPCS,2023-05-16T07:00:00Z,38.73,-9.35,15.0,12.0,10,15,,6.21,30.0,,,,,,,,,,,FEW,1400,,,,,,,VFR,,,,,,,,,,,,METAR,99.0
LPBJ 160700Z VRB02KT 7000 BCFG FEW003 13/11 Q1016,LPBJ,2023-05-16T07:00:00Z,38.08,-7.93,13.0,11.0,0,2,,4.35,30.0,,,,,,,,,,BCFG,FEW,300,,,,,,,MVFR,,,,,,,,,,,,METAR,196.0
LPAZ 160700Z 33007KT 9999 FEW017 16/14 Q1027,LPAZ,2023-05-16T07:00:00Z,36.97,-25.17,16.0,14.0,330,7,,6.21,30.324802,,,,,,,,,,,FEW,1700,,,,,,,VFR,,,,,,,,,,,,METAR,96.0
LOAV 160700Z VRB02KT 9999 SCT050 13/10,LOAV,2023-05-16T07:00:00Z,47.97,16.27,13.0,10.0,0,2,,6.21,,,,,,,,,,,,SCT,5000,,,,,,,VFR,,,,,,,,,,,,METAR,232.0
LOAN 160700Z 36004KT 9999 -SHRA FEW035,LOAN,2023-05-16T07:00:00Z,47.85,16.25,,,360,4,,6.21,,,,,,,,,,,-SHRA,FEW,3500,,,,,,,VFR,,,,,,,,,,,,METAR,266.0
LKVO 160700Z 33004KT 260V010 CAVOK 14/09 Q1013,LKVO,2023-05-16T07:00:00Z,50.22,14.4,14.0,9.0,330,4,,6.21,29.911417,,,,,,,,,,,CAVOK,,,,,,,,VFR,,,,,,,,,,,,METAR,275.0
LKTB 160700Z 11003KT 050V190 CAVOK 14/10 Q1012 NOSIG,LKTB,2023-05-16T07:00:00Z,49.15,16.68,14.0,10.0,110,3,,6.21,29.88189,,,,,,TRUE,,,,,CAVOK,,,,,,,,VFR,,,,,,,,,,,,METAR,233.0
LKPR 160700Z 33006KT 300V010 9999 FEW018 14/09 Q1013 NOSIG,LKPR,2023-05-16T07:00:00Z,50.1,14.27,14.0,9.0,330,6,,6.21,29.911417,,,,,,TRUE,,,,,FEW,1800,,,,,,,VFR,,,,,,,,,,,,METAR,364.0
LKPD 160700Z 28005KT 260V330 CAVOK 13/09 Q1012 NOSIG RMK BLU BLU,LKPD,2023-05-16T07:00:00Z,50.02,15.73,13.0,9.0,280,5,,6.21,29.88189,,,,,,TRUE,,,,,CAVOK,,,,,,,,VFR,,,,,,,,,,,,SPECI,226.0
LKNA 160700Z 34005KT 300V040 CAVOK 13/09 Q1012 RMK BLACK,LKNA,2023-05-16T07:00:00Z,49.17,16.12,13.0,9.0,340,5,,6.21,29.88189,,,,,,,,,,,CAVOK,,,,,,,,VFR,,,,,,,,,,,,SPECI,460.0
LKMT 160700Z VRB01KT CAVOK 14/10 Q1012 NOSIG,LKMT,2023-05-16T07:00:00Z,49.68,18.12,14.0,10.0,0,1,,6.21,29.88189,,,,,,TRUE,,,,,CAVOK,,,,,,,,VFR,,,,,,,,,,,,METAR,251.0
LKLN 160700Z AUTO VRB02KT CAVOK 12/08 Q1013,LKLN,2023-05-16T07:00:00Z,49.68,13.27,12.0,8.0,0,2,,6.21,29.911417,,,TRUE,,,,,,,,CAVOK,,,,,,,,VFR,,,,,,,,,,,,METAR,353.0
LKKV 160700Z 29006KT 260V320 CAVOK 11/06 Q1013,LKKV,2023-05-16T07:00:00Z,50.2,12.92,11.0,6.0,290,6,,6.21,29.911417,,,,,,,,,,,CAVOK,,,,,,,,VFR,,,,,,,,,,,,METAR,600.0
LKKU 160700Z 05002KT CAVOK 14/10 Q1012,LKKU,2023-05-16T07:00:00Z,49.05,17.45,14.0,10.0,50,2,,6.21,29.88189,,,,,,,,,,,CAVOK,,,,,,,,VFR,,,,,,,,,,,,METAR,176.0
LKKB 160700Z 34006KT CAVOK 14/09 Q1013 NOSIG,LKKB,2023-05-16T07:00:00Z,50.12,14.53,14.0,9.0,340,6,,6.21,29.911417,,,,,,TRUE,,,,,CAVOK,,,,,,,,VFR,,,,,,,,,,,,METAR,281.0
LKCV 160700Z 32006KT CAVOK 13/10 Q1012 NOSIG RMK BLU BLU,LKCV,2023-05-16T07:00:00Z,49.93,15.38,13.0,10.0,320,6,,6.21,29.88189,,,,,,TRUE,,,,,CAVOK,,,,,,,,VFR,,,,,,,,,,,,SPECI,234.0
LJPZ 160700Z 08023KT 040V120 9999 FEW060 SCT140 BKN180 17/08 Q1001,LJPZ,2023-05-16T07:00:00Z,45.47,13.62,17.0,8.0,80,23,,6.21,29.557087,,,,,,,,,,,FEW,6000,SCT,14000,BKN,18000,,,VFR,,,,,,,,,,,,METAR,2.0
LJMB 160700Z 36010KT 9999 -RA BKN027 OVC044 12/10 Q1010 RERA,LJMB,2023-05-16T07:00:00Z,46.47,15.67,12.0,10.0,360,10,,6.21,29.822834,,,,,,,,,,-RA,BKN,2700,OVC,4400,,,,,MVFR,,,,,,,,,,,,METAR,263.0
LJLJ 160700Z 24003KT 190V280 9999 -RA FEW003 SCT020 BKN070 11/11 Q1008 NOSIG,LJLJ,2023-05-16T07:00:00Z,46.22,14.47,11.0,11.0,240,3,,6.21,29.763779,,,,,,TRUE,,,,-RA,FEW,300,SCT,2000,BKN,7000,,,VFR,,,,,,,,,,,,METAR,363.0
LJCE 160700Z 10005KT 030V140 4000 RA BR FEW017 BKN037 OVC057 12/10 Q1009 RMK GRN,LJCE,2023-05-16T07:00:00Z,45.9,15.52,12.0,10.0,100,5,,2.49,29.793306,,,,,,,,,,RA BR,FEW,1700,BKN,3700,OVC,5700,,,IFR,,,,,,,,,,,,METAR,153.0
LHBP 160700Z 06004KT 020V100 8000 -RA BKN008 OVC044 14/13 Q1011 TEMPO 4000 RA SCT008 OVC050,LHBP,2023-05-16T07:00:00Z,47.43,19.27,14.0,13.0,60,4,,4.97,29.852362,,,,,,,,,,-RA,BKN,800,OVC,4400,,,,,IFR,,,,,,,,,,,,METAR,141.0
LFYR 160700Z AUTO VRB06KT 9999 OVC012 08/06 Q1022 BECMG NSC,LFYR,2023-05-16T07:00:00Z,47.32,1.68,8.0,6.0,0,6,,6.21,30.177166,,,TRUE,,,,,,,,OVC,1200,,,,,,,MVFR,,,,,,,,,,,,METAR,83.0
LFVP 160700Z AUTO 22020KT 9000 -DZ NSC 05/05 Q0999,LFVP,2023-05-16T07:00:00Z,46.77,-56.18,5.0,5.0,220,20,,5.59,29.498032,,,TRUE,,,,,,,-DZ,CLR,,,,,,,,VFR,,,,,,,,,,,,METAR,5.0
LFTW 160700Z AUTO 35019G30KT 310V020 CAVOK 17/06 Q1009 NOSIG,LFTW,2023-05-16T07:00:00Z,43.75,4.42,17.0,6.0,350,19,30,6.21,29.793306,,,TRUE,,,TRUE,,,,,CAVOK,,,,,,,,VFR,,,,,,,,,,,,METAR,91.0
LFTH 160700Z AUTO 32007KT 290V360 CAVOK 20/08 Q1003 NOSIG,LFTH,2023-05-16T07:00:00Z,43.1,6.15,20.0,8.0,320,7,,6.21,29.616142,,,TRUE,,,TRUE,,,,,CAVOK,,,,,,,,VFR,,,,,,,,,,,,METAR,3.0
LFSX 160700Z AUTO 01010KT 340V040 9999 OVC013/// ///TCU 10/08 Q1016,LFSX,2023-05-16T07:00:00Z,47.77,6.35,10.0,8.0,10,10,,6.21,30.0,,,TRUE,,,,,,,,OVC,1300,,,,,,,MVFR,,,,,,,,,,,,METAR,266.0
LFST 160700Z AUTO 34009KT 9999 OVC027 12/09 Q1016 TEMPO 4000 SHRA BKN014 SCT020TCU,LFST,2023-05-16T07:00:00Z,48.53,7.63,12.0,9.0,340,9,,6.21,30.0,,,TRUE,,,,,,,,OVC,2700,,,,,,,MVFR,,,,,,,,,,,,METAR,149.0
LFSO 160700Z AUTO 34013KT 9999 OVC012 09/06 Q1017 BECMG BKN030,LFSO,2023-05-16T07:00:00Z,48.57,5.97,9.0,6.0,340,13,,6.21,30.029528,,,TRUE,,,,,,,,OVC,1200,,,,,,,MVFR,,,,,,,,,,,,METAR,328.0
LFSN 160700Z AUTO 35010KT 9999 BKN015 OVC020 10/07 Q1018,LFSN,2023-05-16T07:00:00Z,48.68,6.22,10.0,7.0,350,10,,6.21,30.059055,,,TRUE,,,,,,,,BKN,1500,OVC,2000,,,,,MVFR,,,,,,,,,,,,METAR,214.0
LFSM 160700Z AUTO VRB02KT 6000 -RA OVC007/// ///TCU 11/10 Q1015,LFSM,2023-05-16T07:00:00Z,47.48,6.78,11.0,10.0,0,2,,3.73,29.970472,,,TRUE,,,,,,,-RA,OVC,700,,,,,,,IFR,,,,,,,,,,,,METAR,317.0
LFSL 160700Z AUTO 34015KT 9999 FEW018 11/07 Q1017 TEMPO 4000 BR BKN005,LFSL,2023-05-16T07:00:00Z,45.03,1.48,11.0,7.0,340,15,,6.21,30.029528,,,TRUE,,,,,,,,FEW,1800,,,,,,,VFR,,,,,,,,,,,,METAR,300.0
LFSI 160700Z AUTO 36011KT 9999 SCT019 BKN026 OVC038 10/06 Q1019,LFSI,2023-05-16T07:00:00Z,48.62,4.9,10.0,6.0,360,11,,6.21,30.088583,,,TRUE,,,,,,,,SCT,1900,BKN,2600,OVC,3800,,,MVFR,,,,,,,,,,,,METAR,136.0
LFSG 160700Z AUTO 35013KT 9999 OVC016 09/07 Q1017,LFSG,2023-05-16T07:00:00Z,48.33,6.07,9.0,7.0,350,13,,6.21,30.029528,,,TRUE,,,,,,,,OVC,1600,,,,,,,MVFR,,,,,,,,,,,,METAR,320.0
LFSD 160700Z AUTO 35010KT 9999 BKN015 OVC020 11/08 Q1017,LFSD,2023-05-16T07:00:00Z,47.27,5.08,11.0,8.0,350,10,,6.21,30.029528,,,TRUE,,,,,,,,BKN,1500,OVC,2000,,,,,MVFR,,,,,,,,,,,,METAR,218.0
LFSB 160700Z AUTO 34009KT 7000 BKN007/// BKN052/// BKN062/// ///TCU 11/10 Q1015 TEMPO 1500 RA BKN005 FEW020CB,LFSB,2023-05-16T07:00:00Z,47.6,7.52,11.0,10.0,340,9,,4.35,29.970472,,,TRUE,,,,,,,,BKN,700,BKN,5200,BKN,6200,,,IFR,,,,,,,,,,,,METAR,262.0
LFRZ 160700Z AUTO 01006KT 340V040 9999 FEW014 11/09 Q1024 NOSIG,LFRZ,2023-05-16T07:00:00Z,47.32,-2.17,11.0,9.0,10,6,,6.21,30.236221,,,TRUE,,,TRUE,,,,,FEW,1400,,,,,,,VFR,,,,,,,,,,,,METAR,2.0
LFRV 160700Z AUTO 01007KT CAVOK 11/08 Q1025,LFRV,2023-05-16T07:00:00Z,47.72,-2.72,11.0,8.0,10,7,,6.21,30.265747,,,TRUE,,,,,,,,CAVOK,,,,,,,,VFR,,,,,,,,,,,,METAR,132.0
LFRU 160700Z AUTO 25002KT CAVOK 11/09 Q1026,LFRU,2023-05-16T07:00:00Z,48.6,-3.82,11.0,9.0,250,2,,6.21,30.295275,,,TRUE,,,,,,,,CAVOK,,,,,,,,VFR,,,,,,,,,,,,METAR,85.0
LFRT 160700Z AUTO VRB02KT 9999 FEW017 11/09 Q1025,LFRT,2023-05-16T07:00:00Z,48.53,-2.85,11.0,9.0,0,2,,6.21,30.265747,,,TRUE,,,,,,,,FEW,1700,,,,,,,VFR,,,,,,,,,,,,METAR,134.0
LFRS 160700Z AUTO 03005KT 350V090 CAVOK 11/06 Q1024 NOSIG,LFRS,2023-05-16T07:00:00Z,47.17,-1.6,11.0,6.0,30,5,,6.21,30.236221,,,TRUE,,,TRUE,,,,,CAVOK,,,,,,,,VFR,,,,,,,,,,,,METAR,26.0
LFRQ 160700Z AUTO 03007KT CAVOK 12/09 Q1026 NOSIG,LFRQ,2023-05-16T07:00:00Z,47.97,-4.17,12.0,9.0,30,7,,6.21,30.295275,,,TRUE,,,TRUE,,,,,CAVOK,,,,,,,,VFR,,,,,,,,,,,,METAR,94.0
LFRO 160700Z AUTO 02005KT 350V060 CAVOK 13/08 Q1026,LFRO,2023-05-16T07:00:00Z,48.75,-3.47,13.0,8.0,20,5,,6.21,30.295275,,,TRUE,,,,,,,,CAVOK,,,,,,,,VFR,,,,,,,,,,,,METAR,86.0
LFRN 160700Z AUTO VRB03KT CAVOK 10/09 Q1025 NOSIG,LFRN,2023-05-16T07:00:00Z,48.07,-1.73,10.0,9.0,0,3,,6.21,30.265747,,,TRUE,,,TRUE,,,,,CAVOK,,,,,,,,VFR,,,,,,,,,,,,METAR,35.0
LFRM 160700Z AUTO 01009KT 330V040 CAVOK 11/06 Q1024 NOSIG,LFRM,2023-05-16T07:00:00Z,47.95,0.2,11.0,6.0,10,9,,6.21,30.236221,,,TRUE,,,TRUE,,,,,CAVOK,,,,,,,,VFR,,,,,,,,,,,,METAR,51.0
LFRL 160700Z AUTO 01006KT CAVOK 12/09 Q1026 NOSIG,LFRL,2023-05-16T07:00:00Z,48.27,-4.43,12.0,9.0,10,6,,6.21,30.295275,,,TRUE,,,TRUE,,,,,CAVOK,,,,,,,,VFR,,,,,,,,,,,,METAR,80.0
LFRK 160700Z AUTO 33005KT CAVOK 12/09 Q1025 NOSIG,LFRK,2023-05-16T07:00:00Z,49.17,-0.45,12.0,9.0,330,5,,6.21,30.265747,,,TRUE,,,TRUE,,,,,CAVOK,,,,,,,,VFR,,,,,,,,,,,,METAR,66.0
LFRJ 160700Z AUTO 36003KT 330V040 CAVOK 11/08 Q1026 NOSIG,LFRJ,2023-05-16T07:00:00Z,48.52,-4.15,11.0,8.0,360,3,,6.21,30.295275,,,TRUE,,,TRUE,,,,,CAVOK,,,,,,,,VFR,,,,,,,,,,,,METAR,109.0
LFRI 160700Z AUTO 03011KT CAVOK 10/05 Q1023 NOSIG,LFRI,2023-05-16T07:00:00Z,46.7,-1.37,10.0,5.0,30,11,,6.21,30.206694,,,TRUE,,,TRUE,,,,,CAVOK,,,,,,,,VFR,,,,,,,,,,,,METAR,89.0
LFRH 160700Z AUTO 36007KT 330V040 CAVOK 11/09 Q1025 NOSIG,LFRH,2023-05-16T07:00:00Z,47.77,-3.45,11.0,9.0,360,7,,6.21,30.265747,,,TRUE,,,TRUE,,,,,CAVOK,,,,,,,,VFR,,,,,,,,,,,,METAR,46.0
LFRG 160700Z AUTO 36006KT 320V030 CAVOK 12/08 Q1024 NOSIG,LFRG,2023-05-16T07:00:00Z,49.37,0.15,12.0,8.0,360,6,,6.21,30.236221,,,TRUE,,,TRUE,,,,,CAVOK,,,,,,,,VFR,,,,,,,,,,,,METAR,146.0
LFRD 160700Z AUTO VRB02KT CAVOK 13/10 Q1025 NOSIG,LFRD,2023-05-16T07:00:00Z,48.58,-2.07,13.0,10.0,0,2,,6.21,30.265747,,,TRUE,,,TRUE,,,,,CAVOK,,,,,,,,VFR,,,,,,,,,,,,METAR,56.0
LFRC 160700Z AUTO 36010KT CAVOK 11/08 Q1025 NOSIG,LFRC,2023-05-16T07:00:00Z,49.63,-1.47,11.0,8.0,360,10,,6.21,30.265747,,,TRUE,,,TRUE,,,,,CAVOK,,,,,,,,VFR,,,,,,,,,,,,METAR,137.0
LFRB 160700Z AUTO 01005KT 340V050 CAVOK 12/09 Q1026 NOSIG,LFRB,2023-05-16T07:00:00Z,48.45,-4.42,12.0,9.0,10,5,,6.21,30.295275,,,TRUE,,,TRUE,,,,,CAVOK,,,,,,,,VFR,,,,,,,,,,,,METAR,91.0
LFQQ 160700Z AUTO 35008KT CAVOK 10/05 Q1023 NOSIG,LFQQ,2023-05-16T07:00:00Z,50.57,3.1,10.0,5.0,350,8,,6.21,30.206694,,,TRUE,,,TRUE,,,,,CAVOK,,,,,,,,VFR,,,,,,,,,,,,METAR,43.0
LFQB 160700Z AUTO 01014KT 330V040 9999 BKN019 OVC028 09/05 Q1020,LFQB,2023-05-16T07:00:00Z,48.32,4.02,9.0,5.0,10,14,,6.21,30.11811,,,TRUE,,,,,,,,BKN,1900,OVC,2800,,,,,MVFR,,,,,,,,,,,,METAR,107.0
LFQA 160700Z AUTO 36011KT 310V030 9999 BKN018 BKN026 09/06 Q1021,LFQA,2023-05-16T07:00:00Z,49.2,4.15,9.0,6.0,360,11,,6.21,30.147638,,,TRUE,,,,,,,,BKN,1800,BKN,2600,,,,,MVFR,,,,,,,,,,,,METAR,92.0
LFPV 160700Z AUTO 36009KT 330V040 9999 SCT020 09/06 Q1023 NOSIG,LFPV,2023-05-16T07:00:00Z,48.77,2.2,9.0,6.0,360,9,,6.21,30.206694,,,TRUE,,,TRUE,,,,,SCT,2000,,,,,,,VFR,,,,,,,,,,,,METAR,171.0
LFPT 160700Z AUTO 02013KT 9999 NCD 10/06 Q1023,LFPT,2023-05-16T07:00:00Z,49.1,2.03,10.0,6.0,20,13,,6.21,30.206694,,,TRUE,,,,,,,,CLR,,,,,,,,VFR,,,,,,,,,,,,METAR,91.0
LFPO 160700Z 02015KT 350V050 9999 FEW023 10/05 Q1023 NOSIG,LFPO,2023-05-16T07:00:00Z,48.72,2.38,10.0,5.0,20,15,,6.21,30.206694,,,,,,TRUE,,,,,FEW,2300,,,,,,,VFR,,,,,,,,,,,,METAR,88.0
LFPN 160700Z AUTO 03013KT 360V060 CAVOK 10/06 Q1022 NOSIG,LFPN,2023-05-16T07:00:00Z,48.75,2.12,10.0,6.0,30,13,,6.21,30.177166,,,TRUE,,,TRUE,,,,,CAVOK,,,,,,,,VFR,,,,,,,,,,,,METAR,152.0
LFPM 160700Z AUTO 01014KT 340V040 CAVOK 10/05 Q1022,LFPM,2023-05-16T07:00:00Z,48.62,2.67,10.0,5.0,10,14,,6.21,30.177166,,,TRUE,,,,,,,,CAVOK,,,,,,,,VFR,,,,,,,,,,,,METAR,91.0
LFPG 160700Z 01012KT 350V070 9999 FEW016 09/06 Q1023 NOSIG,LFPG,2023-05-16T07:00:00Z,49.02,2.53,9.0,6.0,10,12,,6.21,30.206694,,,,,,TRUE,,,,,FEW,1600,,,,,,,VFR,,,,,,,,,,,,METAR,107.0
LFPB 160700Z AUTO 35009KT 320V030 CAVOK 10/06 Q1023 NOSIG,LFPB,2023-05-16T07:00:00Z,48.97,2.42,10.0,6.0,350,9,,6.21,30.206694,,,TRUE,,,TRUE,,,,,CAVOK,,,,,,,,VFR,,,,,,,,,,,,METAR,50.0
LFOZ 160700Z AUTO 03010G21KT 340V080 9999 OVC014 08/06 Q1022,LFOZ,2023-05-16T07:00:00Z,47.9,2.17,8.0,6.0,30,10,21,6.21,30.177166,,,TRUE,,,,,,,,OVC,1400,,,,,,,MVFR,,,,,,,,,,,,METAR,121.0
LFOV 160700Z AUTO 36008KT 330V030 CAVOK 11/07 Q1024,LFOV,2023-05-16T07:00:00Z,48.03,-0.75,11.0,7.0,360,8,,6.21,30.236221,,,TRUE,,,,,,,,CAVOK,,,,,,,,VFR,,,,,,,,,,,,METAR,99.0
LFOT 160700Z AUTO 02010KT 340V050 9999 FEW014 09/06 Q1023 NOSIG,LFOT,2023-05-16T07:00:00Z,47.43,0.72,9.0,6.0,20,10,,6.21,30.206694,,,TRUE,,,TRUE,,,,,FEW,1400,,,,,,,VFR,,,,,,,,,,,,METAR,107.0
LFOP 160700Z AUTO 36007KT CAVOK 10/07 Q1023 NOSIG,LFOP,2023-05-16T07:00:00Z,49.37,1.17,10.0,7.0,360,7,,6.21,30.206694,,,TRUE,,,TRUE,,,,,CAVOK,,,,,,,,VFR,,,,,,,,,,,,METAR,149.0
LFOK 160700Z AUTO 36020KT 9999 BKN015 BKN029 09/05 Q1020 TEMPO 35015G25KT BKN013,LFOK,2023-05-16T07:00:00Z,48.78,4.15,9.0,5.0,360,20,,6.21,30.11811,,,TRUE,,,,,,,,BKN,1500,BKN,2900,,,,,MVFR,,,,,,,,,,,,SPECI,166.0
LFOJ 160700Z AUTO 01014KT 9999 BKN012 08/06 Q1022 BECMG NSC,LFOJ,2023-05-16T07:00:00Z,47.98,1.75,8.0,6.0,10,14,,6.21,30.177166,,,TRUE,,,,,,,,BKN,1200,,,,,,,MVFR,,,,,,,,,,,,SPECI,122.0
LFOH 160700Z AUTO 36008KT 330V040 CAVOK 12/09 Q1024 TEMPO BKN010,LFOH,2023-05-16T07:00:00Z,49.52,0.08,12.0,9.0,360,8,,6.21,30.236221,,,TRUE,,,,,,,,CAVOK,,,,,,,,VFR,,,,,,,,,,,,METAR,87.0
LFOE 160700Z AUTO 02005KT 9999 FEW021 09/07 Q1024 NOSIG,LFOE,2023-05-16T07:00:00Z,49.02,1.22,9.0,7.0,20,5,,6.21,30.236221,,,TRUE,,,TRUE,,,,,FEW,2100,,,,,,,VFR,,,,,,,,,,,,METAR,132.0
LFOB 160700Z AUTO 36009KT 9999 FEW015 10/06 Q1023 NOSIG,LFOB,2023-05-16T07:00:00Z,49.47,2.12,10.0,6.0,360,9,,6.21,30.206694,,,TRUE,,,TRUE,,,,,FEW,1500,,,,,,,VFR,,,,,,,,,,,,METAR,99.0
LFOA 160700Z AUTO 36011KT 9999 BKN016 OVC029 09/06 Q1020 NOSIG,LFOA,2023-05-16T07:00:00Z,47.05,2.63,9.0,6.0,360,11,,6.21,30.11811,,,TRUE,,,TRUE,,,,,BKN,1600,OVC,2900,,,,,MVFR,,,,,,,,,,,,METAR,174.0
LFMY 160700Z AUTO 34016G28KT 310V010 CAVOK 17/09 Q1006 BECMG 34025G40KT,LFMY,2023-05-16T07:00:00Z,43.6,5.1,17.0,9.0,340,16,28,6.21,29.704725,,,TRUE,,,,,,,,CAVOK,,,,,,,,VFR,,,,,,,,,,,,METAR,57.0
LFMV 160700Z AUTO 34031G45KT 8000 NSC 16/09 Q1007 NOSIG,LFMV,2023-05-16T07:00:00Z,43.9,4.9,16.0,9.0,340,31,45,4.97,29.734253,,,TRUE,,,TRUE,,,,,CLR,,,,,,,,MVFR,,,,,,,,,,,,METAR,33.0
LFMU 160700Z AUTO 32018KT CAVOK 18/07 Q1012 BECMG 32020G33KT,LFMU,2023-05-16T07:00:00Z,43.32,3.35,18.0,7.0,320,18,,6.21,29.88189,,,TRUE,,,,,,,,CAVOK,,,,,,,,VFR,,,,,,,,,,,,SPECI,14.0
LFMT 160700Z AUTO 33016KT CAVOK 19/04 Q1009 BECMG 01020G30KT,LFMT,2023-05-16T07:00:00Z,43.57,3.97,19.0,4.0,330,16,,6.21,29.793306,,,TRUE,,,,,,,,CAVOK,,,,,,,,VFR,,,,,,,,,,,,METAR,1.0
LFMP 160700Z AUTO 30019G30KT 270V330 9999 BKN037 BKN045 15/07 Q1014 BECMG 31028G46KT,LFMP,2023-05-16T07:00:00Z,42.73,2.87,15.0,7.0,300,19,30,6.21,29.940945,,,TRUE,,,,,,,,BKN,3700,BKN,4500,,,,,VFR,,,,,,,,,,,,METAR,41.0
LFMO 160700Z AUTO 36027G41KT 6000 BKN027 16/09 Q1009 NOSIG,LFMO,2023-05-16T07:00:00Z,44.13,4.87,16.0,9.0,360,27,41,3.73,29.793306,,,TRUE,,,TRUE,,,,,BKN,2700,,,,,,,MVFR,,,,,,,,,,,,METAR,56.0
LFMN 160700Z 34010KT 320V020 CAVOK 19/07 Q1003 NOSIG,LFMN,2023-05-16T07:00:00Z,43.65,7.2,19.0,7.0,340,10,,6.21,29.616142,,,,,,TRUE,,,,,CAVOK,,,,,,,,VFR,,,,,,,,,,,,METAR,4.0
LFML 160700Z AUTO 33022KT CAVOK 18/10 Q1006 BECMG 34020G30KT,LFML,2023-05-16T07:00:00Z,43.45,5.22,18.0,10.0,330,22,,6.21,29.704725,,,TRUE,,,,,,,,CAVOK,,,,,,,,VFR,,,,,,,,,,,,METAR,20.0
LFMK 160700Z AUTO 27012KT 230V290 9999 BKN014/// OVC021/// ///TCU 12/10 Q1016 TEMPO 28016G27KT BECMG BKN020,LFMK,2023-05-16T07:00:00Z,43.22,2.32,12.0,10.0,270,12,,6.21,30.0,,,TRUE,,,,,,,,BKN,1400,OVC,2100,,,,,MVFR,,,,,,,,,,,,SPECI,124.0
LFMI 160700Z AUTO 35028G42KT CAVOK 17/09 Q1007 NOSIG,LFMI,2023-05-16T07:00:00Z,43.52,4.93,17.0,9.0,350,28,42,6.21,29.734253,,,TRUE,,,TRUE,,,,,CAVOK,,,,,,,,VFR,,,,,,,,,,,,METAR,20.0
LFMH 160700Z AUTO 34011KT 310V010 9999 OVC006 10/08 Q1015,LFMH,2023-05-16T07:00:00Z,45.52,4.28,10.0,8.0,340,11,,6.21,29.970472,,,TRUE,,,,,,,,OVC,600,,,,,,,IFR,,,,,,,,,,,,METAR,400.0
LFMD 160700Z AUTO 35003KT 320V030 CAVOK 18/10 Q1003 NOSIG,LFMD,2023-05-16T07:00:00Z,43.53,6.95,18.0,10.0,350,3,,6.21,29.616142,,,TRUE,,,TRUE,,,,,CAVOK,,,,,,,,VFR,,,,,,,,,,,,METAR,2.0
LFMC 160700Z AUTO 27007KT 230V300 9999 ////// 18/09 Q1004,LFMC,2023-05-16T07:00:00Z,43.37,6.38,18.0,9.0,270,7,,6.21,29.64567,,,TRUE,,,,,,,,,,,,,,,,,,,,,,,,,,,,METAR,79.0
LFLY 160700Z AUTO 35016KT 9999 OVC017 12/09 Q1014 TEMPO BKN012,LFLY,2023-05-16T07:00:00Z,45.72,4.95,12.0,9.0,350,16,,6.21,29.940945,,,TRUE,,,,,,,,OVC,1700,,,,,,,MVFR,,,,,,,,,,,,METAR,197.0
LFLX 160700Z AUTO 01012KT 9999 BKN010 OVC014 08/06 Q1021 BECMG BKN020,LFLX,2023-05-16T07:00:00Z,46.87,1.73,8.0,6.0,10,12,,6.21,30.147638,,,TRUE,,,,,,,,BKN,1000,OVC,1400,,,,,MVFR,,,,,,,,,,,,SPECI,157.0
LFLV 160700Z AUTO 35008KT 310V020 9999 -RA OVC010 09/08 Q1017,LFLV,2023-05-16T07:00:00Z,46.17,3.38,9.0,8.0,350,8,,6.21,30.029528,,,TRUE,,,,,,,-RA,OVC,1000,,,,,,,MVFR,,,,,,,,,,,,METAR,248.0
LFLU 160700Z AUTO 01018KT 9999 OVC022 13/09 Q1012,LFLU,2023-05-16T07:00:00Z,44.92,4.98,13.0,9.0,10,18,,6.21,29.88189,,,TRUE,,,,,,,,OVC,2200,,,,,,,MVFR,,,,,,,,,,,,METAR,162.0
LFLS 160700Z AUTO 35018KT 9999 SCT013 OVC060 11/09 Q1012 TEMPO BKN012,LFLS,2023-05-16T07:00:00Z,45.37,5.32,11.0,9.0,350,18,,6.21,29.88189,,,TRUE,,,,,,,,SCT,1300,OVC,6000,,,,,VFR,,,,,,,,,,,,METAR,386.0
LFLP 160700Z AUTO 02012KT 340V040 9999 FEW001 BKN041 OVC052 13/08 Q1013 NOSIG,LFLP,2023-05-16T07:00:00Z,45.92,6.1,13.0,8.0,20,12,,6.21,29.911417,,,TRUE,,,TRUE,,,,,FEW,100,BKN,4100,OVC,5200,,,VFR,,,,,,,,,,,,METAR,460.0
LFLN 160700Z AUTO 34007KT 9999 OVC013 10/09 Q1017 TEMPO BKN009,LFLN,2023-05-16T07:00:00Z,46.42,4.02,10.0,9.0,340,7,,6.21,30.029528,,,TRUE,,,,,,,,OVC,1300,,,,,,,MVFR,,,,,,,,,,,,METAR,238.0
LFLL 160700Z 35016KT 9999 -DZ BKN011 BKN019 12/09 Q1014 NOSIG,LFLL,2023-05-16T07:00:00Z,45.72,5.07,12.0,9.0,350,16,,6.21,29.940945,,,,,,TRUE,,,,-DZ,BKN,1100,BKN,1900,,,,,MVFR,,,,,,,,,,,,METAR,234.0
LFLH 160700Z AUTO 35011KT 9999 OVC022 12/08 Q1016,LFLH,2023-05-16T07:00:00Z,46.83,4.82,12.0,8.0,350,11,,6.21,30.0,,,TRUE,,,,,,,,OVC,2200,,,,,,,MVFR,,,,,,,,,,,,METAR,190.0
LFLC 160700Z AUTO 36010KT 9999 -RADZ OVC010 09/07 Q1017 TEMPO 2000 -DZ,LFLC,2023-05-16T07:00:00Z,45.78,3.17,9.0,7.0,360,10,,6.21,30.029528,,,TRUE,,,,,,,-RA -DZ,OVC,1000,,,,,,,MVFR,,,,,,,,,,,,METAR,325.0
LFLB 160700Z AUTO 36009KT 9999 BKN033 OVC040 14/09 Q1012 BECMG 34015G30KT,LFLB,2023-05-16T07:00:00Z,45.63,5.87,14.0,9.0,360,9,,6.21,29.88189,,,TRUE,,,,,,,,BKN,3300,OVC,4000,,,,,VFR,,,,,,,,,,,,METAR,234.0
LFKS 160700Z AUTO 25004KT 220V310 9999 FEW074 BKN094 BKN130 19/10 Q1000,LFKS,2023-05-16T07:00:00Z,41.92,9.4,19.0,10.0,250,4,,6.21,29.52756,,,TRUE,,,,,,,,FEW,7400,BKN,9400,BKN,13000,,,VFR,,,,,,,,,,,,METAR,22.0
LFKJ 160700Z AUTO 20004KT 170V250 CAVOK 18/11 Q1001 NOSIG,LFKJ,2023-05-16T07:00:00Z,41.92,8.8,18.0,11.0,200,4,,6.21,29.557087,,,TRUE,,,TRUE,,,,,CAVOK,,,,,,,,VFR,,,,,,,,,,,,METAR,9.0
LFKF 160700Z AUTO 19003KT 120V240 CAVOK 20/13 Q1001 BECMG 32012KT,LFKF,2023-05-16T07:00:00Z,41.5,9.08,20.0,13.0,190,3,,6.21,29.557087,,,TRUE,,,,,,,,CAVOK,,,,,,,,VFR,,,,,,,,,,,,METAR,15.0
LFKC 160700Z AUTO 00000KT 9999 SCT092 BKN130 18/11 Q1002 BECMG 01015G25KT,LFKC,2023-05-16T07:00:00Z,42.52,8.8,18.0,11.0,0,0,,6.21,29.586615,,,TRUE,,,,,,,,SCT,9200,BKN,13000,,,,,VFR,,,,,,,,,,,,METAR,38.0
LFKB 160700Z AUTO 30014KT 9999 FEW044/// BKN066/// BKN080/// ///CB 19/12 Q1000 TEMPO FEW030 SCT080 BKN210 BECMG 01017G27KT,LFKB,2023-05-16T07:00:00Z,42.55,9.48,19.0,12.0,300,14,,6.21,29.52756,,,TRUE,,,,,,,,FEW,4400,BKN,6600,BKN,8000,,,VFR,,,,,,,,,,,,METAR,7.0
LFJR 160700Z AUTO 02008KT CAVOK 10/05 Q1024,LFJR,2023-05-16T07:00:00Z,47.57,-0.32,10.0,5.0,20,8,,6.21,30.236221,,,TRUE,,,,,,,,CAVOK,,,,,,,,VFR,,,,,,,,,,,,METAR,50.0
LFJL 160700Z AUTO 35013KT 9999 OVC013/// 09/06 Q1018 TEMPO BKN009,LFJL,2023-05-16T07:00:00Z,48.97,6.25,9.0,6.0,350,13,,6.21,30.059055,,,TRUE,,,,,,,,OVC,1300,,,,,,,MVFR,,,,,,,,,,,,SPECI,259.0
LFGJ 160700Z AUTO 36010KT 9999 FEW015 BKN021 OVC034 11/09 Q1016 TEMPO BKN014,LFGJ,2023-05-16T07:00:00Z,47.05,5.43,11.0,9.0,360,10,,6.21,30.0,,,TRUE,,,,,,,,FEW,1500,BKN,2100,OVC,3400,,,MVFR,,,,,,,,,,,,METAR,191.0
LFGA 160700Z AUTO 03006KT 9999 OVC025/// ///TCU 12/10 Q1015,LFGA,2023-05-16T07:00:00Z,48.1,7.35,12.0,10.0,30,6,,6.21,29.970472,,,TRUE,,,,,,,,OVC,2500,,,,,,,MVFR,,,,,,,,,,,,METAR,191.0
LFCR 160700Z AUTO 30011KT 9999 SCT014 11/08 Q1015 NOSIG,LFCR,2023-05-16T07:00:00Z,44.4,2.47,11.0,8.0,300,11,,6.21,29.970472,,,TRUE,,,TRUE,,,,,SCT,1400,,,,,,,VFR,,,,,,,,,,,,METAR,576.0
LFCK 160700Z AUTO 30012KT 9999 FEW008 OVC015 12/11 Q1016 TEMPO BKN006,LFCK,2023-05-16T07:00:00Z,43.55,2.28,12.0,11.0,300,12,,6.21,30.0,,,TRUE,,,,,,,,FEW,800,OVC,1500,,,,,MVFR,,,,,,,,,,,,METAR,223.0
LFBZ 160700Z AUTO 36008KT 310V030 9999 BKN015 BKN020 BKN025 14/11 Q1021 TEMPO 4000 SHRA BKN012 FEW020CB BKN025TCU,LFBZ,2023-05-16T07:00:00Z,43.47,-1.53,14.0,11.0,360,8,,6.21,30.147638,,,TRUE,,,,,,,,BKN,1500,BKN,2000,BKN,2500,,,MVFR,,,,,,,,,,,,METAR,70.0
LFBY 160700Z AUTO 01005KT 310V050 //// // ////// 13/11 Q1020,LFBY,2023-05-16T07:00:00Z,43.68,-1.07,13.0,11.0,10,5,,,30.11811,,,TRUE,,,,,,,,,,,,,,,,,,,,,,,,,,,,METAR,32.0
LFBX 160700Z AUTO 35005KT 290V040 9999 BKN020 OVC026 12/08 Q1019,LFBX,2023-05-16T07:00:00Z,45.2,0.82,12.0,8.0,350,5,,6.21,30.088583,,,TRUE,,,,,,,,BKN,2000,OVC,2600,,,,,MVFR,,,,,,,,,,,,METAR,97.0
LFBU 160700Z AUTO 01011KT 9999 OVC014 09/06 Q1020 BECMG SCT020,LFBU,2023-05-16T07:00:00Z,45.72,0.22,9.0,6.0,10,11,,6.21,30.11811,,,TRUE,,,,,,,,OVC,1400,,,,,,,MVFR,,,,,,,,,,,,METAR,124.0
LFBT 160700Z AUTO 21006KT 9999 BKN008/// OVC032/// //////TCU 10/09 Q1019 TEMPO 4000 -RA,LFBT,2023-05-16T07:00:00Z,43.18,0.0,10.0,9.0,210,6,,6.21,30.088583,,,TRUE,,,,,,,,BKN,800,OVC,3200,,,,,IFR,,,,,,,,,,,,METAR,359.0
LFBP 160700Z AUTO 32005KT 300V360 9999 BKN007/// BKN014/// BKN029/// ///CB 12/11 Q1020 TEMPO 4000 -RA,LFBP,2023-05-16T07:00:00Z,43.38,-0.42,12.0,11.0,320,5,,6.21,30.11811,,,TRUE,,,,,,,,BKN,700,BKN,1400,BKN,2900,,,IFR,,,,,,,,,,,,METAR,182.0
LFBO 160700Z AUTO 29011KT 9999 OVC014 12/11 Q1017 TEMPO 4000 -RADZ BKN012 SCT015TCU,LFBO,2023-05-16T07:00:00Z,43.62,1.37,12.0,11.0,290,11,,6.21,30.029528,,,TRUE,,,,,,,,OVC,1400,,,,,,,MVFR,,,,,,,,,,,,METAR,150.0
LFBM 160700Z AUTO 32006KT 290V360 9999 BKN009 OVC016 12/12 Q1020 BECMG BKN020,LFBM,2023-05-16T07:00:00Z,43.92,-0.5,12.0,12.0,320,6,,6.21,30.11811,,,TRUE,,,,,,,,BKN,900,OVC,1600,,,,,IFR,,,,,,,,,,,,METAR,56.0
LFBL 160700Z AUTO 01008KT 340V040 9999 BKN015 BKN020 OVC025 08/05 Q1019 TEMPO 4000 BR BKN004,LFBL,2023-05-16T07:00:00Z,45.87,1.17,8.0,5.0,10,8,,6.21,30.088583,,,TRUE,,,,,,,,BKN,1500,BKN,2000,OVC,2500,,,MVFR,,,,,,,,,,,,METAR,402.0
LFBI 160700Z AUTO 02011KT 9999 FEW016 09/06 Q1022 NOSIG,LFBI,2023-05-16T07:00:00Z,46.58,0.32,9.0,6.0,20,11,,6.21,30.177166,,,TRUE,,,TRUE,,,,,FEW,1600,,,,,,,VFR,,,,,,,,,,,,METAR,117.0
LFBH 160700Z AUTO 02012KT CAVOK 10/07 Q1023 NOSIG,LFBH,2023-05-16T07:00:00Z,46.18,-1.2,10.0,7.0,20,12,,6.21,30.206694,,,TRUE,,,TRUE,,,,,CAVOK,,,,,,,,VFR,,,,,,,,,,,,METAR,18.0
LFBG 160700Z AUTO 02011KT 350V050 9999 FEW019 11/07 Q1021 NOSIG,LFBG,2023-05-16T07:00:00Z,45.67,-0.32,11.0,7.0,20,11,,6.21,30.147638,,,TRUE,,,TRUE,,,,,FEW,1900,,,,,,,VFR,,,,,,,,,,,,METAR,28.0
LFBF 160700Z AUTO 29005KT 9999 BKN009/// OVC014/// ///TCU 12/11 Q1017,LFBF,2023-05-16T07:00:00Z,43.53,1.37,12.0,11.0,290,5,,6.21,30.029528,,,TRUE,,,,,,,,BKN,900,OVC,1400,,,,,IFR,,,,,,,,,,,,METAR,159.0
LFBE 160700Z AUTO 36010KT 330V030 9999 OVC020 12/09 Q1019 TEMPO BKN012 BKN017 BKN040,LFBE,2023-05-16T07:00:00Z,44.82,0.52,12.0,9.0,360,10,,6.21,30.088583,,,TRUE,,,,,,,,OVC,2000,,,,,,,MVFR,,,,,,,,,,,,SPECI,49.0
LFBD 160700Z AUTO 02010KT 9999 FEW016 OVC028 11/08 Q1021 TEMPO BKN009,LFBD,2023-05-16T07:00:00Z,44.82,-0.7,11.0,8.0,20,10,,6.21,30.147638,,,TRUE,,,,,,,,FEW,1600,OVC,2800,,,,,MVFR,,,,,,,,,,,,METAR,48.0
LFBC 160700Z AUTO 01014KT 9999 FEW015 12/09 Q1021 NOSIG,LFBC,2023-05-16T07:00:00Z,44.52,-1.12,12.0,9.0,10,14,,6.21,30.147638,,,TRUE,,,TRUE,,,,,FEW,1500,,,,,,,VFR,,,,,,,,,,,,METAR,22.0
LFBA 160700Z AUTO 33008KT 9999 OVC014 13/10 Q1018 BECMG BKN030,LFBA,2023-05-16T07:00:00Z,44.17,0.6,13.0,10.0,330,8,,6.21,30.059055,,,TRUE,,,,,,,,OVC,1400,,,,,,,MVFR,,,,,,,,,,,,METAR,68.0
LFAT 160700Z AUTO 01008KT CAVOK 11/06 Q1024 NOSIG,LFAT,2023-05-16T07:00:00Z,50.52,1.62,11.0,6.0,10,8,,6.21,30.236221,,,TRUE,,,TRUE,,,,,CAVOK,,,,,,,,VFR,,,,,,,,,,,,METAR,2.0
LFAQ 160700Z AUTO 01009KT 9999 FEW020 10/07 Q1023 NOSIG,LFAQ,2023-05-16T07:00:00Z,49.97,2.7,10.0,7.0,10,9,,6.21,30.206694,,,TRUE,,,TRUE,,,,,FEW,2000,,,,,,,VFR,,,,,,,,,,,,METAR,107.0
LFAC 160700Z AUTO 36011KT CAVOK 12/06 Q1024,LFAC,2023-05-16T07:00:00Z,50.97,1.95,12.0,6.0,360,11,,6.21,30.236221,,,TRUE,,,,,,,,CAVOK,,,,,,,,VFR,,,,,,,,,,,,METAR,3.0
LEZL 160700Z 06014KT 030V090 CAVOK 22/05 Q1014 NOSIG,LEZL,2023-05-16T07:00:00Z,37.42,-5.9,22.0,5.0,60,14,,6.21,29.940945,,,,,,TRUE,,,,,CAVOK,,,,,,,,VFR,,,,,,,,,,,,METAR,26.0
LEZG 160700Z 30029G39KT 270V330 9999 FEW050 14/06 Q1016,LEZG,2023-05-16T07:00:00Z,41.67,-1.02,14.0,6.0,300,29,39,6.21,30.0,,,,,,,,,,,FEW,5000,,,,,,,VFR,,,,,,,,,,,,METAR,245.0
LEXJ 160700Z 23003KT 9999 -RA SCT025 BKN037 12/10 Q1023,LEXJ,2023-05-16T07:00:00Z,43.42,-3.82,12.0,10.0,230,3,,6.21,30.206694,,,,,,,,,,-RA,SCT,2500,BKN,3700,,,,,VFR,,,,,,,,,,,,METAR,1.0
LEVX 160700Z 19005KT 120V230 CAVOK 11/07 Q1019 NOSIG,LEVX,2023-05-16T07:00:00Z,42.23,-8.62,11.0,7.0,190,5,,6.21,30.088583,,,,,,TRUE,,,,,CAVOK,,,,,,,,VFR,,,,,,,,,,,,METAR,253.0
LEVT 160700Z 31008KT 280V350 9999 FEW014 BKN021 BKN060 10/08 Q1021,LEVT,2023-05-16T07:00:00Z,42.87,-2.72,10.0,8.0,310,8,,6.21,30.147638,,,,,,,,,,,FEW,1400,BKN,2100,BKN,6000,,,MVFR,,,,,,,,,,,,METAR,501.0
LEVS 160700Z VRB04KT CAVOK 11/01 Q1019,LEVS,2023-05-16T07:00:00Z,40.37,-3.78,11.0,1.0,0,4,,6.21,30.088583,,,,,,,,,,,CAVOK,,,,,,,,VFR,,,,,,,,,,,,METAR,683.0
LEVD 160700Z 07009KT CAVOK 07/03 Q1021,LEVD,2023-05-16T07:00:00Z,41.72,-4.85,7.0,3.0,70,9,,6.21,30.147638,,,,,,,,,,,CAVOK,,,,,,,,VFR,,,,,,,,,,,,METAR,844.0
LEVC 160700Z 30010KT CAVOK 19/02 Q1014 NOSIG,LEVC,2023-05-16T07:00:00Z,39.5,-0.47,19.0,2.0,300,10,,6.21,29.940945,,,,,,TRUE,,,,,CAVOK,,,,,,,,VFR,,,,,,,,,,,,METAR,58.0
LETU 160700Z AUTO 30017G27KT 9999 NSC 13/05 Q1019,LETU,2023-05-16T07:00:00Z,,,13.0,5.0,300,17,27,6.21,30.088583,,,TRUE,,,,,,,,CLR,,,,,,,,VFR,,,,,,,,,,,,METAR,
LETO 160700Z 06007KT 020V080 CAVOK 10/01 Q1019 NOSIG,LETO,2023-05-16T07:00:00Z,40.48,-3.47,10.0,1.0,60,7,,6.21,30.088583,,,,,,TRUE,,,,,CAVOK,,,,,,,,VFR,,,,,,,,,,,,METAR,598.0
LETL 160700Z AUTO 33019KT 9999 OVC026 08/02 Q1017,LETL,2023-05-16T07:00:00Z,40.42,-1.22,8.0,2.0,330,19,,6.21,30.029528,,,TRUE,,,,,,,,OVC,2600,,,,,,,MVFR,,,,,,,,,,,,METAR,1024.0
LESU 160700Z 01003KT 310V060 9999 SCT060 11/03 Q1014,LESU,2023-05-16T07:00:00Z,42.33,1.4,11.0,3.0,10,3,,6.21,29.940945,,,,,,,,,,,SCT,6000,,,,,,,VFR,,,,,,,,,,,,METAR,802.0
LEST 160700Z 06007KT 360V110 9999 FEW030 10/06 Q1021 NOSIG,LEST,2023-05-16T07:00:00Z,42.88,-8.42,10.0,6.0,60,7,,6.21,30.147638,,,,,,TRUE,,,,,FEW,3000,,,,,,,VFR,,,,,,,,,,,,METAR,363.0
LESO 160700Z 36008KT 300V050 9999 BKN021 BKN068 15/11 Q1021,LESO,2023-05-16T07:00:00Z,43.35,-1.8,15.0,11.0,360,8,,6.21,30.147638,,,,,,,,,,,BKN,2100,BKN,6800,,,,,MVFR,,,,,,,,,,,,METAR,3.0
LESB 160700Z AUTO VRB02KT CAVOK 18/13 Q1011,LESB,2023-05-16T07:00:00Z,39.6,2.7,18.0,13.0,0,2,,6.21,29.852362,,,TRUE,,,,,,,,CAVOK,,,,,,,,VFR,,,,,,,,,,,,METAR,48.0
LESA 160700Z 09006KT 060V120 CAVOK 09/04 Q1021,LESA,2023-05-16T07:00:00Z,40.95,-5.5,9.0,4.0,90,6,,6.21,30.147638,,,,,,,,,,,CAVOK,,,,,,,,VFR,,,,,,,,,,,,METAR,788.0
LERT 160700Z 08004KT 050V110 9000 3500W BCFG FEW003 16/16 Q1014 NOSIG,LERT,2023-05-16T07:00:00Z,36.63,-6.33,16.0,16.0,80,4,,5.59,29.940945,,,,,,TRUE,,,,BCFG,FEW,300,,,,,,,VFR,,,,,,,,,,,,METAR,27.0
LERS 160700Z 28018KT 250V310 9999 FEW050 15/07 Q1012,LERS,2023-05-16T07:00:00Z,41.13,1.17,15.0,7.0,280,18,,6.21,29.88189,,,,,,,,,,,FEW,5000,,,,,,,VFR,,,,,,,,,,,,METAR,68.0
LERI 160700Z 31010KT 280V340 CAVOK 19/03 Q1015 NOSIG,LERI,2023-05-16T07:00:00Z,37.95,-1.22,19.0,3.0,310,10,,6.21,29.970472,,,,,,TRUE,,,,,CAVOK,,,,,,,,VFR,,,,,,,,,,,,METAR,74.0
LEPP 160700Z 33014KT 9999 -RA FEW024 SCT035 BKN043 11/07 Q1019,LEPP,2023-05-16T07:00:00Z,42.77,-1.65,11.0,7.0,330,14,,6.21,30.088583,,,,,,,,,,-RA,FEW,2400,SCT,3500,BKN,4300,,,VFR,,,,,,,,,,,,METAR,448.0
LEPA 160700Z 00000KT 9999 FEW020 SCT065 18/13 Q1011 NOSIG,LEPA,2023-05-16T07:00:00Z,39.55,2.73,18.0,13.0,0,0,,6.21,29.852362,,,,,,TRUE,,,,,FEW,2000,SCT,6500,,,,,VFR,,,,,,,,,,,,METAR,8.0
LEMI 160700Z 33012KT 300V010 CAVOK 18/04 Q1014,LEMI,2023-05-16T07:00:00Z,37.8,-1.12,18.0,4.0,330,12,,6.21,29.940945,,,,,,,,,,,CAVOK,,,,,,,,VFR,,,,,,,,,,,,METAR,193.0
LEMH 160700Z 35013KT 330V030 CAVOK 19/09 Q1010,LEMH,2023-05-16T07:00:00Z,39.87,4.22,19.0,9.0,350,13,,6.21,29.822834,,,,,,,,,,,CAVOK,,,,,,,,VFR,,,,,,,,,,,,METAR,82.0
LEMG 160700Z 29012KT CAVOK 23/04 Q1013 NOSIG,LEMG,2023-05-16T07:00:00Z,36.67,-4.47,23.0,4.0,290,12,,6.21,29.911417,,,,,,TRUE,,,,,CAVOK,,,,,,,,VFR,,,,,,,,,,,,METAR,5.0
LEMD 160700Z VRB01KT CAVOK 11/02 Q1019 NOSIG,LEMD,2023-05-16T07:00:00Z,40.45,-3.57,11.0,2.0,0,1,,6.21,30.088583,,,,,,TRUE,,,,,CAVOK,,,,,,,,VFR,,,,,,,,,,,,METAR,589.0
LELO 160700Z 27015KT 9999 SCT035 BKN060 11/04 Q1021,LELO,2023-05-16T07:00:00Z,42.45,-2.32,11.0,4.0,270,15,,6.21,30.147638,,,,,,,,,,,SCT,3500,BKN,6000,,,,,VFR,,,,,,,,,,,,METAR,352.0
LELN 160700Z VRB01KT CAVOK 07/01 Q1021,LELN,2023-05-16T07:00:00Z,42.58,-5.65,7.0,1.0,0,1,,6.21,30.147638,,,,,,,,,,,CAVOK,,,,,,,,VFR,,,,,,,,,,,,METAR,911.0
LELL 160700Z 27004KT 240V320 9999 FEW050 15/05 Q1011,LELL,2023-05-16T07:00:00Z,41.52,2.1,15.0,5.0,270,4,,6.21,29.852362,,,,,,,,,,,FEW,5000,,,,,,,VFR,,,,,,,,,,,,METAR,136.0
LELC 160700Z 30011KT 260V340 CAVOK 21/05 Q1014 NOSIG,LELC,2023-05-16T07:00:00Z,37.77,-0.8,21.0,5.0,300,11,,6.21,29.940945,,,,,,TRUE,,,,,CAVOK,,,,,,,,VFR,,,,,,,,,,,,METAR,3.0
LEIB 160700Z 35014KT 310V040 9999 FEW017 19/10 Q1012 NOSIG,LEIB,2023-05-16T07:00:00Z,38.87,1.38,19.0,10.0,350,14,,6.21,29.88189,,,,,,TRUE,,,,,FEW,1700,,,,,,,VFR,,,,,,,,,,,,METAR,4.0
LEHC 160700Z 29010KT 240V330 9999 FEW028 14/04 Q1014,LEHC,2023-05-16T07:00:00Z,42.08,-0.32,14.0,4.0,290,10,,6.21,29.940945,,,,,,,,,,,FEW,2800,,,,,,,VFR,,,,,,,,,,,,METAR,540.0
LEGT 160700Z 05006KT 020V080 CAVOK 12/03 Q1019,LEGT,2023-05-16T07:00:00Z,40.28,-3.72,12.0,3.0,50,6,,6.21,30.088583,,,,,,,,,,,CAVOK,,,,,,,,VFR,,,,,,,,,,,,METAR,619.0
LEGR 160700Z 00000KT CAVOK 17/01 Q1016,LEGR,2023-05-16T07:00:00Z,37.18,-3.78,17.0,1.0,0,0,,6.21,30.0,,,,,,,,,,,CAVOK,,,,,,,,VFR,,,,,,,,,,,,METAR,560.0
LEGE 160700Z 00000KT 9999 FEW060 16/07 Q1011,LEGE,2023-05-16T07:00:00Z,41.9,2.77,16.0,7.0,0,0,,6.21,29.852362,,,,,,,,,,,FEW,6000,,,,,,,VFR,,,,,,,,,,,,METAR,140.0
LEGA 160700Z VRB02KT CAVOK 16/01 Q1016,LEGA,2023-05-16T07:00:00Z,37.13,-3.62,16.0,1.0,0,2,,6.21,30.0,,,,,,,,,,,CAVOK,,,,,,,,VFR,,,,,,,,,,,,METAR,684.0
LEEC 160700Z 04007KT CAVOK 20/06 Q1014,LEEC,2023-05-16T07:00:00Z,37.32,-6.0,20.0,6.0,40,7,,6.21,29.940945,,,,,,,,,,,CAVOK,,,,,,,,VFR,,,,,,,,,,,,METAR,7.0
LEDA 160700Z 21010KT CAVOK 12/06 Q1013,LEDA,2023-05-16T07:00:00Z,41.73,0.53,12.0,6.0,210,10,,6.21,29.911417,,,,,,,,,,,CAVOK,,,,,,,,VFR,,,,,,,,,,,,METAR,352.0
LECV 160700Z VRB01KT CAVOK 09/02 Q1019,LECV,2023-05-16T07:00:00Z,40.68,-3.75,9.0,2.0,0,1,,6.21,30.088583,,,,,,,,,,,CAVOK,,,,,,,,VFR,,,,,,,,,,,,METAR,995.0
LECO 160700Z 06009KT 030V120 9999 SCT041 13/05 Q1023 NOSIG,LECO,2023-05-16T07:00:00Z,43.3,-8.37,13.0,5.0,60,9,,6.21,30.206694,,,,,,TRUE,,,,,SCT,4100,,,,,,,VFR,,,,,,,,,,,,METAR,80.0
LECH 160700Z AUTO 33017G31KT 290V030 CAVOK 15/03 Q1013,LECH,2023-05-16T07:00:00Z,40.2,0.07,15.0,3.0,330,17,31,6.21,29.911417,,,TRUE,,,,,,,,CAVOK,,,,,,,,VFR,,,,,,,,,,,,METAR,360.0
LEBZ 160700Z VRB01KT CAVOK 16/06 Q1017,LEBZ,2023-05-16T07:00:00Z,38.87,-6.82,16.0,6.0,0,1,,6.21,30.029528,,,,,,,,,,,CAVOK,,,,,,,,VFR,,,,,,,,,,,,METAR,183.0
LEBT 160700Z AUTO 31008KT 230V010 CAVOK 18/02 Q1013,LEBT,2023-05-16T07:00:00Z,39.58,-0.45,18.0,2.0,310,8,,6.21,29.911417,,,TRUE,,,,,,,,CAVOK,,,,,,,,VFR,,,,,,,,,,,,METAR,50.0
LEBR 160700Z AUTO 30019KT 9999 FEW033 OVC050 13/06 Q1018,LEBR,2023-05-16T07:00:00Z,42.2,-1.43,13.0,6.0,300,19,,6.21,30.059055,,,TRUE,,,,,,,,FEW,3300,OVC,5000,,,,,VFR,,,,,,,,,,,,METAR,347.0
LEBL 160700Z 33012G22KT 300V010 9999 FEW045 16/07 Q1011 NOSIG,LEBL,2023-05-16T07:00:00Z,41.28,2.07,16.0,7.0,330,12,22,6.21,29.852362,,,,,,TRUE,,,,,FEW,4500,,,,,,,VFR,,,,,,,,,,,,METAR,2.0
LEBG 160700Z 33009KT 9999 BKN038 06/03 Q1021,LEBG,2023-05-16T07:00:00Z,42.37,-3.62,6.0,3.0,330,9,,6.21,30.147638,,,,,,,,,,,BKN,3800,,,,,,,VFR,,,,,,,,,,,,METAR,892.0
LEBB 160700Z 35012KT 320V020 9999 SCT033 BKN045 BKN055 15/11 Q1022 NOSIG,LEBB,2023-05-16T07:00:00Z,43.28,-2.92,15.0,11.0,350,12,,6.21,30.177166,,,,,,TRUE,,,,,SCT,3300,BKN,4500,BKN,5500,,,VFR,,,,,,,,,,,,METAR,38.0
LEBA 160700Z 07009KT CAVOK 18/04 Q1016,LEBA,2023-05-16T07:00:00Z,37.85,-4.83,18.0,4.0,70,9,,6.21,30.0,,,,,,,,,,,CAVOK,,,,,,,,VFR,,,,,,,,,,,,METAR,88.0
LEAS 160700Z VRB02KT 9999 FEW034 BKN047 12/07 Q1024 NOSIG,LEAS,2023-05-16T07:00:00Z,43.57,-6.03,12.0,7.0,0,2,,6.21,30.236221,,,,,,TRUE,,,,,FEW,3400,BKN,4700,,,,,VFR,,,,,,,,,,,,METAR,120.0
LEAO 160700Z 06005KT 350V120 CAVOK 12/03 Q1019,LEAO,2023-05-16T07:00:00Z,38.95,-3.73,12.0,3.0,60,5,,6.21,30.088583,,,,,,,,,,,CAVOK,,,,,,,,VFR,,,,,,,,,,,,METAR,621.0
LEAM 160700Z VRB02KT CAVOK 23/05 Q1013,LEAM,2023-05-16T07:00:00Z,36.85,-2.37,23.0,5.0,0,2,,6.21,29.911417,,,,,,,,,,,CAVOK,,,,,,,,VFR,,,,,,,,,,,,METAR,16.0
LEAL 160700Z 30009KT 9999 FEW025 19/05 Q1013 NOSIG,LEAL,2023-05-16T07:00:00Z,38.27,-0.55,19.0,5.0,300,9,,6.21,29.911417,,,,,,TRUE,,,,,FEW,2500,,,,,,,VFR,,,,,,,,,,,,METAR,26.0
LEAG 160700Z AUTO VRB01KT CAVOK 19/13 Q1013,LEAG,2023-05-16T07:00:00Z,36.12,-5.45,19.0,13.0,0,1,,6.21,29.911417,,,TRUE,,,,,,,,CAVOK,,,,,,,,VFR,,,,,,,,,,,,METAR,4.0
LEAB 160700Z 30010KT CAVOK 10/03 Q1018 NOSIG,LEAB,2023-05-16T07:00:00Z,38.95,-1.85,10.0,3.0,300,10,,6.21,30.059055,,,,,,TRUE,,,,,CAVOK,,,,,,,,VFR,,,,,,,,,,,,METAR,704.0
LDZD 160700Z 11015KT 070V150 9999 FEW015 SCT033 20/15 Q0999 TEMPO TSRA FEW020CB BKN030,LDZD,2023-05-16T07:00:00Z,44.1,15.33,20.0,15.0,110,15,,6.21,29.498032,,,,,,,,,,,FEW,1500,SCT,3300,,,,,VFR,,,,,,,,,,,,METAR,82.0
LDZA 160700Z 04011KT 340V110 9999 -RA FEW010 BKN025 12/11 Q1007 RERA NOSIG,LDZA,2023-05-16T07:00:00Z,45.72,16.07,12.0,11.0,40,11,,6.21,29.734253,,,,,,TRUE,,,,-RA,FEW,1000,BKN,2500,,,,,MVFR,,,,,,,,,,,,METAR,103.0
LDSP 160700Z 11015KT 090V150 9999 SCT035 19/14 Q1001 TEMPO 11015G25KT -TSRA FEW020CB BKN030,LDSP,2023-05-16T07:00:00Z,43.53,16.3,19.0,14.0,110,15,,6.21,29.557087,,,,,,,,,,,SCT,3500,,,,,,,VFR,,-1.5,,,,,,,,,,METAR,16.0
LDSB 160700Z 14022KT 3000 BR SCT005 BKN010 14/13 Q1002,LDSB,2023-05-16T07:00:00Z,43.28,16.68,14.0,13.0,140,22,,1.86,29.586615,,,,,,,,,,BR,SCT,500,BKN,1000,,,,,IFR,,,,,,,,,,,,METAR,525.0
LDRI 160700Z 04036G62KT 9999 BKN040 17/08 Q0999,LDRI,2023-05-16T07:00:00Z,45.22,14.57,17.0,8.0,40,36,62,6.21,29.498032,,,,,,,,,,,BKN,4000,,,,,,,VFR,,,,,,,,,,,,METAR,80.0
LDPL 160700Z 05020G31KT 020V080 9999 -RA FEW040 BKN058 16/10 Q1000 TEMPO 06020KT,LDPL,2023-05-16T07:00:00Z,44.88,13.92,16.0,10.0,50,20,31,6.21,29.52756,,,,,,,,,,-RA,FEW,4000,BKN,5800,,,,,VFR,,,,,,,,,,,,METAR,63.0
LDOS 160700Z 07014KT 9999 -RA FEW010 BKN030 16/14 Q1007,LDOS,2023-05-16T07:00:00Z,45.47,18.82,16.0,14.0,70,14,,6.21,29.734253,,,,,,,,,,-RA,FEW,1000,BKN,3000,,,,,MVFR,,,,,,,,,,,,METAR,82.0
LDDU 160700Z 14019KT 9999 SCT011 BKN025 18/16 Q1004 TEMPO 12020G30KT,LDDU,2023-05-16T07:00:00Z,42.57,18.27,18.0,16.0,140,19,,6.21,29.64567,,,,,,,,,,,SCT,1100,BKN,2500,,,,,MVFR,,,,,,,,,,,,METAR,156.0
LCPH 160700Z 17007KT CAVOK 24/16 Q1010 NOSIG,LCPH,2023-05-16T07:00:00Z,34.72,32.47,24.0,16.0,170,7,,6.21,29.822834,,,,,,TRUE,,,,,CAVOK,,,,,,,,VFR,,,,,,,,,,,,METAR,8.0
LCLK 160700Z 02010KT CAVOK 30/11 Q1010 NOSIG,LCLK,2023-05-16T07:00:00Z,34.87,33.62,30.0,11.0,20,10,,6.21,29.822834,,,,,,TRUE,,,,,CAVOK,,,,,,,,VFR,,,,,,,,,,,,METAR,2.0
LBWN 160700Z 13012KT CAVOK 17/12 Q1014 NOSIG,LBWN,2023-05-16T07:00:00Z,43.22,27.82,17.0,12.0,130,12,,6.21,29.940945,,,,,,TRUE,,,,,CAVOK,,,,,,,,VFR,,,,,,,,,,,,METAR,74.0
LBSF 160700Z 13010KT CAVOK 15/11 Q1012 NOSIG,LBSF,2023-05-16T07:00:00Z,42.65,23.37,15.0,11.0,130,10,,6.21,29.88189,,,,,,TRUE,,,,,CAVOK,,,,,,,,VFR,,,,,,,,,,,,METAR,592.0
LBPD 160700Z AUTO VRB02KT 9999 BKN170/// 14/14 Q1013 NOSIG,LBPD,2023-05-16T07:00:00Z,42.05,24.85,14.0,14.0,0,2,,6.21,29.911417,,,TRUE,,,TRUE,,,,,BKN,17000,,,,,,,VFR,,,,,,,,,,,,METAR,182.0
LBGO 160700Z AUTO 11006KT 9999 BKN100/// 22/14 Q1011 NOSIG,LBGO,2023-05-16T07:00:00Z,43.15,25.72,22.0,14.0,110,6,,6.21,29.852362,,,TRUE,,,TRUE,,,,,BKN,10000,,,,,,,VFR,,,,,,,,,,,,METAR,84.0
LBBG 160700Z 12009KT 9999 FEW005 17/12 Q1014 NOSIG,LBBG,2023-05-16T07:00:00Z,42.57,27.52,17.0,12.0,120,9,,6.21,29.940945,,,,,,TRUE,,,,,FEW,500,,,,,,,VFR,,,,,,,,,,,,METAR,41.0
KTBN 160700Z AUTO 32004KT 4SM BR SCT003 19/19 A3000 RMK AO2 SLP153 $,KTBN,2023-05-16T07:00:00Z,37.73,-92.13,19.0,19.0,320,4,,4.0,30.0,1015.3,,TRUE,TRUE,TRUE,,,,,BR,SCT,300,,,,,,,MVFR,,,,,,,,,,,,METAR,349.0
KMXF 160700Z AUTO 19003KT 10SM CLR 22/19 A3002 RMK AO2 RAE0658DZB0658E00 SLP167,KMXF,2023-05-16T07:00:00Z,32.38,-86.37,22.0,19.0,190,3,,10.0,30.02067,1016.7,,TRUE,TRUE,,,,,,,CLR,,,,,,,,VFR,,,,,,,,,,,,METAR,47.0
KMHV 160700Z AUTO 26006KT 10SM CLR 22/06 A3007 RMK AO2,KMHV,2023-05-16T07:00:00Z,35.07,-118.15,22.0,6.0,260,6,,10.0,30.070866,,,TRUE,TRUE,,,,,,,CLR,,,,,,,,VFR,,,,,,,,,,,,METAR,841.0
KMCZ 160700Z AUTO 00000KT 10SM OVC075 17/11 A3009 RMK AO2 T01720114,KMCZ,2023-05-16T07:00:00Z,,,17.2,11.4,0,0,,10.0,30.088583,,,TRUE,TRUE,,,,,,,OVC,7500,,,,,,,VFR,,,,,,,,,,,,SPECI,
KGZN 160700Z AUTO 01007KT 10SM FEW024 FEW034 OVC042 20/18 A3014 RMK AO2,KGZN,2023-05-16T07:00:00Z,32.37,-99.02,20.0,18.0,10,7,,10.0,30.138779,,,TRUE,TRUE,,,,,,,FEW,2400,FEW,3400,OVC,4200,,,VFR,,,,,,,,,,,,METAR,522.0
KETC 160700Z AUTO 00000KT 7SM OVC065 18/12 A3008 RMK AO2 T01810120,KETC,2023-05-16T07:00:00Z,35.93,-77.55,18.1,12.0,0,0,,7.0,30.079725,,,TRUE,TRUE,,,,,,,OVC,6500,,,,,,,VFR,,,,,,,,,,,,SPECI,15.0
HUEN 160700Z 09004KT 9999 SCT022 FEW024TCU 27/22 Q1020,HUEN,2023-05-16T07:00:00Z,0.03,32.45,27.0,22.0,90,4,,6.21,30.11811,,,,,,,,,,,SCT,2200,FEW,2400,,,,,VFR,,,,,,,,,,,,METAR,1147.0
HRYR 160700Z 19004KT 9999 FEW025 SCT100 22/18 Q1024 NOSIG,HRYR,2023-05-16T07:00:00Z,-1.97,30.13,22.0,18.0,190,4,,6.21,30.236221,,,,,,TRUE,,,,,FEW,2500,SCT,10000,,,,,VFR,,,,,,,,,,,,METAR,1493.0
HKWJ 160700Z 20007KT 9999 BKN030 29/21 Q1015,HKWJ,2023-05-16T07:00:00Z,1.75,40.08,29.0,21.0,200,7,,6.21,29.970472,,,,,,,,,,,BKN,3000,,,,,,,MVFR,,,,,,,,,,,,METAR,254.0
HKNW 160700Z 15005KT 9999 BKN021 19/14 Q1027,HKNW,2023-05-16T07:00:00Z,-1.32,36.82,19.0,14.0,150,5,,6.21,30.324802,,,,,,,,,,,BKN,2100,,,,,,,MVFR,,,,,,,,,,,,METAR,1666.0
HKNI 160700Z 15004KT 9999 FEW020 BKN080 20/13,HKNI,2023-05-16T07:00:00Z,-0.33,36.92,20.0,13.0,150,4,,6.21,,,,,,,,,,,,FEW,2000,BKN,8000,,,,,VFR,,,,,,,,,,,,METAR,1769.0
HKMO 160700Z 19009KT 9999 FEW024CB BKN025 29/23 Q1016 NOSIG,HKMO,2023-05-16T07:00:00Z,-4.02,39.62,29.0,23.0,190,9,,6.21,30.0,,,,,,TRUE,,,,,FEW,2400,BKN,2500,,,,,MVFR,,,,,,,,,,,,METAR,55.0
HKME 160700Z 21004KT 9999 FEW019 21/14,HKME,2023-05-16T07:00:00Z,0.07,37.65,21.0,14.0,210,4,,6.21,,,,,,,,,,,,FEW,1900,,,,,,,VFR,,,,,,,,,,,,METAR,1609.0
HKLU 160700Z 18008KT 9999 SCT023 30/23 Q1016,HKLU,2023-05-16T07:00:00Z,-2.25,40.92,30.0,23.0,180,8,,6.21,30.0,,,,,,,,,,,SCT,2300,,,,,,,VFR,,,,,,,,,,,,METAR,6.0
HKLO 160700Z 00000KT CAVOK 31/19 Q1014,HKLO,2023-05-16T07:00:00Z,3.12,35.62,31.0,19.0,0,0,,6.21,29.940945,,,,,,,,,,,CAVOK,,,,,,,,VFR,,,,,,,,,,,,METAR,503.0
HKKT 160700Z 00000KT 9999 FEW020 23/16,HKKT,2023-05-16T07:00:00Z,0.97,34.97,23.0,16.0,0,0,,6.21,,,,,,,,,,,,FEW,2000,,,,,,,VFR,,,,,,,,,,,,METAR,1829.0
HKKI 160700Z CAVOK 25/17 Q1020,HKKI,2023-05-16T07:00:00Z,-0.1,34.75,25.0,17.0,,,,6.21,30.11811,,,,,,,,,,,CAVOK,,,,,,,,VFR,,,,,,,,,,,,METAR,1152.0
HKJK 160700Z 16003KT 9999 BKN020 20/14 Q1026 NOSIG,HKJK,2023-05-16T07:00:00Z,-1.32,36.92,20.0,14.0,160,3,,6.21,30.295275,,,,,,TRUE,,,,,BKN,2000,,,,,,,MVFR,,,,,,,,,,,,METAR,1615.0
HKGA 160700Z 16012KT 9999 BKN024 30/22 Q1016,HKGA,2023-05-16T07:00:00Z,-0.47,39.65,30.0,22.0,160,12,,6.21,30.0,,,,,,,,,,,BKN,2400,,,,,,,MVFR,,,,,,,,,,,,METAR,147.0
HKEM 160700Z 11003KT 9999 FEW021 BKN090 22/15,HKEM,2023-05-16T07:00:00Z,-0.57,37.48,22.0,15.0,110,3,,6.21,,,,,,,,,,,,FEW,2100,BKN,9000,,,,,VFR,,,,,,,,,,,,METAR,1265.0
HKEL 160700Z 20003KT 9999 FEW021 22/14 Q1027,HKEL,2023-05-16T07:00:00Z,0.4,35.23,22.0,14.0,200,3,,6.21,30.324802,,,,,,,,,,,FEW,2100,,,,,,,VFR,,,,,,,,,,,,METAR,2116.0
HETR 160700Z 29009KT 5000 HZ 24/20 Q1006,HETR,2023-05-16T07:00:00Z,28.22,33.65,24.0,20.0,290,9,,3.11,29.704725,,,,,,,,,,HZ,,,,,,,,,,,,,,,,,,,,,METAR,35.0
HESX 160700Z 07012KT CAVOK 24/17 Q1008 NOSIG,HESX,2023-05-16T07:00:00Z,,,24.0,17.0,70,12,,6.21,29.763779,,,,,,TRUE,,,,,CAVOK,,,,,,,,VFR,,,,,,,,,,,,METAR,
HESW 160700Z 11012KT CAVOK 27/12 Q1009,HESW,2023-05-16T07:00:00Z,29.35,25.5,27.0,12.0,110,12,,6.21,29.793306,,,,,,,,,,,CAVOK,,,,,,,,VFR,,,,,,,,,,,,METAR,101.0
HESN 160700Z 06007KT CAVOK 23/20 Q1007 NOSIG,HESN,2023-05-16T07:00:00Z,23.97,32.82,23.0,20.0,60,7,,6.21,29.734253,,,,,,TRUE,,,,,CAVOK,,,,,,,,VFR,,,,,,,,,,,,METAR,197.0
HESH 160700Z 01015KT CAVOK 30/16 Q1006 NOSIG,HESH,2023-05-16T07:00:00Z,27.97,34.38,30.0,16.0,10,15,,6.21,29.704725,,,,,,TRUE,,,,,CAVOK,,,,,,,,VFR,,,,,,,,,,,,METAR,50.0
HESG 160700Z 23005KT CAVOK 31/03 Q1007 NOSIG,HESG,2023-05-16T07:00:00Z,26.33,31.75,31.0,3.0,230,5,,6.21,29.734253,,,,,,TRUE,,,,,CAVOK,,,,,,,,VFR,,,,,,,,,,,,METAR,70.0
HEPS 160700Z 06007KT CAVOK 23/20 Q1007 NOSIG,HEPS,2023-05-16T07:00:00Z,31.28,32.25,23.0,20.0,60,7,,6.21,29.734253,,,,,,TRUE,,,,,CAVOK,,,,,,,,VFR,,,,,,,,,,,,METAR,2.0
HEMM 160700Z 07008KT CAVOK 24/15 Q1012 NOSIG,HEMM,2023-05-16T07:00:00Z,31.32,27.22,24.0,15.0,70,8,,6.21,29.88189,,,,,,TRUE,,,,,CAVOK,,,,,,,,VFR,,,,,,,,,,,,METAR,26.0
HELX 160700Z 32002KT 6000 NSC 31/06 Q1007 NOSIG,HELX,2023-05-16T07:00:00Z,25.67,32.7,31.0,6.0,320,2,,3.73,29.734253,,,,,,TRUE,,,,,CLR,,,,,,,,MVFR,,,,,,,,,,,,METAR,86.0
HEIS 160700Z 02008KT 9999 SCT025 23/15 Q1008,HEIS,2023-05-16T07:00:00Z,30.58,32.25,23.0,15.0,20,8,,6.21,29.763779,,,,,,,,,,,SCT,2500,,,,,,,VFR,,,,,,,,,,,,METAR,14.0
HEGN 160700Z 35009KT CAVOK 28/09 Q1007 NOSIG,HEGN,2023-05-16T07:00:00Z,27.18,33.8,28.0,9.0,350,9,,6.21,29.734253,,,,,,TRUE,,,,,CAVOK,,,,,,,,VFR,,,,,,,,,,,,METAR,14.0
HECP 160700Z 00000KT 9999 FEW025 21/15 Q1009 NOSIG,HECP,2023-05-16T07:00:00Z,30.07,31.83,21.0,15.0,0,0,,6.21,29.793306,,,,,,TRUE,,,,,FEW,2500,,,,,,,VFR,,,,,,,,,,,,METAR,240.0
HECA 160700Z 06008KT 8000 NSC 25/16 Q1008 NOSIG,HECA,2023-05-16T07:00:00Z,30.12,31.4,25.0,16.0,60,8,,4.97,29.763779,,,,,,TRUE,,,,,CLR,,,,,,,,MVFR,,,,,,,,,,,,METAR,68.0
HEBL 160700Z 04007KT CAVOK 31/02 Q1009 NOSIG,HEBL,2023-05-16T07:00:00Z,22.38,31.62,31.0,2.0,40,7,,6.21,29.793306,,,,,,TRUE,,,,,CAVOK,,,,,,,,VFR,,,,,,,,,,,,METAR,184.0
HEBA 160700Z 05006KT 9999 FEW020 26/16 Q1009 NOSIG,HEBA,2023-05-16T07:00:00Z,30.92,29.7,26.0,16.0,50,6,,6.21,29.793306,,,,,,TRUE,,,,,FEW,2000,,,,,,,VFR,,,,,,,,,,,,METAR,41.0
HEAX 160700Z 02006KT CAVOK 26/17 Q1009 NOSIG,HEAX,2023-05-16T07:00:00Z,31.18,29.93,26.0,17.0,20,6,,6.21,29.793306,,,,,,TRUE,,,,,CAVOK,,,,,,,,VFR,,,,,,,,,,,,METAR,-2.0
HEAT 160700Z 29006KT CAVOK 27/11 Q1010 NOSIG,HEAT,2023-05-16T07:00:00Z,27.05,31.02,27.0,11.0,290,6,,6.21,29.822834,,,,,,TRUE,,,,,CAVOK,,,,,,,,VFR,,,,,,,,,,,,METAR,229.0
HCMM 160700Z 20012KT 9999 SCT024 30/27 Q1014,HCMM,2023-05-16T07:00:00Z,2.02,45.3,30.0,27.0,200,12,,6.21,29.940945,,,,,,,,,,,SCT,2400,,,,,,,VFR,,,,,,,,,,,,METAR,6.0
HCMF 160700Z 32005KT CAVOK 31/28 Q1008,HCMF,2023-05-16T07:00:00Z,11.27,49.13,31.0,28.0,320,5,,6.21,29.763779,,,,,,,,,,,CAVOK,,,,,,,,VFR,,,,,,,,,,,,METAR,8.0
HBBA 160700Z VRB02KT 9999 FEW020TCU 28/21 Q1017 NOSIG,HBBA,2023-05-16T07:00:00Z,-3.32,29.32,28.0,21.0,0,2,,6.21,30.029528,,,,,,TRUE,,,,,FEW,2000,,,,,,,VFR,,,,,,,,,,,,METAR,777.0
HADR 160700Z 18007KT 9999 FEW027 30/20 Q1019,HADR,2023-05-16T07:00:00Z,9.6,41.87,30.0,20.0,180,7,,6.21,30.088583,,,,,,,,,,,FEW,2700,,,,,,,VFR,,,,,,,,,,,,METAR,1164.0
HABD 160700Z 13006KT 9999 FEW025 SCT070 23/17 Q1024,HABD,2023-05-16T07:00:00Z,11.6,37.32,23.0,17.0,130,6,,6.21,30.236221,,,,,,,,,,,FEW,2500,SCT,7000,,,,,VFR,,,,,,,,,,,,METAR,1828.0
HAAB 160700Z 15005KT 9999 SCT724 20/14 Q1029,HAAB,2023-05-16T07:00:00Z,8.97,38.78,20.0,14.0,150,5,,6.21,30.383858,,,,,,,,,,,SCT,0,,,,,,,VFR,,,,,,,,,,,,METAR,2319.0
GVSV 160700Z 04016KT 9999 SCT020 23/18 Q1015 NOSIG,GVSV,2023-05-16T07:00:00Z,16.83,-25.07,23.0,18.0,40,16,,6.21,29.970472,,,,,,TRUE,,,,,SCT,2000,,,,,,,VFR,,,,,,,,,,,,METAR,16.0
GVNP 160700Z 01010KT 9999 BKN017 22/17 Q1014 NOSIG,GVNP,2023-05-16T07:00:00Z,14.95,-23.48,22.0,17.0,10,10,,6.21,29.940945,,,,,,TRUE,,,,,BKN,1700,,,,,,,MVFR,,,,,,,,,,,,METAR,70.0
GVBA 160700Z 01010KT 9999 BKN014 22/18 Q1015 NOSIG,GVBA,2023-05-16T07:00:00Z,16.13,-22.88,22.0,18.0,10,10,,6.21,29.970472,,,,,,TRUE,,,,,BKN,1400,,,,,,,MVFR,,,,,,,,,,,,METAR,23.0
GVAC 160700Z 01014KT 9999 SCT014 22/17 Q1015 NOSIG,GVAC,2023-05-16T07:00:00Z,16.73,-22.93,22.0,17.0,10,14,,6.21,29.970472,,,,,,TRUE,,,,,SCT,1400,,,,,,,VFR,,,,,,,,,,,,METAR,54.0
GUCY 160700Z VRB02KT 9999 SCT015 SCT110 27/24 Q1012 NOSIG,GUCY,2023-05-16T07:00:00Z,9.57,-13.62,27.0,24.0,0,2,,6.21,29.88189,,,,,,TRUE,,,,,SCT,1500,SCT,11000,,,,,VFR,,,,,,,,,,,,METAR,10.0
GQPP 160700Z 36010KT 6000 FEW008 19/18 Q1013 NOSIG,GQPP,2023-05-16T07:00:00Z,20.92,-17.02,19.0,18.0,360,10,,3.73,29.911417,,,,,,TRUE,,,,,FEW,800,,,,,,,MVFR,,,,,,,,,,,,METAR,5.0
GQNO 160700Z 33009KT 8000 NSC 21/17 Q1011 NOSIG,GQNO,2023-05-16T07:00:00Z,18.3,-15.97,21.0,17.0,330,9,,4.97,29.852362,,,,,,TRUE,,,,,CLR,,,,,,,,MVFR,,,,,,,,,,,,METAR,1.0
GOTT 160700Z 22006KT CAVOK 29/22 Q1011,GOTT,2023-05-16T07:00:00Z,13.73,-13.65,29.0,22.0,220,6,,6.21,29.852362,,,,,,,,,,,CAVOK,,,,,,,,VFR,,,,,,,,,,,,METAR,53.0
GOTK 160700Z 26008KT CAVOK 30/23 Q1011,GOTK,2023-05-16T07:00:00Z,12.57,-12.22,30.0,23.0,260,8,,6.21,29.852362,,,,,,,,,,,CAVOK,,,,,,,,VFR,,,,,,,,,,,,METAR,165.0
GOSS 160700Z 36004KT 320V050 CAVOK 21/21 Q1013,GOSS,2023-05-16T07:00:00Z,16.05,-16.45,21.0,21.0,360,4,,6.21,29.911417,,,,,,,,,,,CAVOK,,,,,,,,VFR,,,,,,,,,,,,METAR,3.0
GOSP 160700Z 28004KT CAVOK 23/16 Q1011,GOSP,2023-05-16T07:00:00Z,16.68,-14.97,23.0,16.0,280,4,,6.21,29.852362,,,,,,,,,,,CAVOK,,,,,,,,VFR,,,,,,,,,,,,METAR,10.0
GOSM 160700Z 32002KT CAVOK 30/11 Q1010,GOSM,2023-05-16T07:00:00Z,15.6,-13.33,30.0,11.0,320,2,,6.21,29.822834,,,,,,,,,,,CAVOK,,,,,,,,VFR,,,,,,,,,,,,METAR,28.0
GOOY 160700Z 36010KT 9999 FEW013 23/20 Q1012,GOOY,2023-05-16T07:00:00Z,14.73,-17.5,23.0,20.0,360,10,,6.21,29.88189,,,,,,,,,,,FEW,1300,,,,,,,VFR,,,,,,,,,,,,METAR,21.0
GOOK 160700Z 04008KT CAVOK 24/21 Q1013,GOOK,2023-05-16T07:00:00Z,14.15,-16.07,24.0,21.0,40,8,,6.21,29.911417,,,,,,,,,,,CAVOK,,,,,,,,VFR,,,,,,,,,,,,METAR,8.0
GOOD 160700Z 36004KT CAVOK 23/22 Q1012,GOOD,2023-05-16T07:00:00Z,14.65,-16.22,23.0,22.0,360,4,,6.21,29.88189,,,,,,,,,,,CAVOK,,,,,,,,VFR,,,,,,,,,,,,METAR,9.0
GOGS 160700Z VRB02KT CAVOK 24/22 Q1012,GOGS,2023-05-16T07:00:00Z,12.4,-16.75,24.0,22.0,0,2,,6.21,29.88189,,,,,,,,,,,CAVOK,,,,,,,,VFR,,,,,,,,,,,,METAR,13.0
GOGK 160700Z 22004KT CAVOK 25/23 Q1012,GOGK,2023-05-16T07:00:00Z,12.9,-14.97,25.0,23.0,220,4,,6.21,29.88189,,,,,,,,,,,CAVOK,,,,,,,,VFR,,,,,,,,,,,,METAR,37.0
GOGG 160700Z 32002KT 9999 BKN015 23/23 Q1013,GOGG,2023-05-16T07:00:00Z,12.55,-16.27,23.0,23.0,320,2,,6.21,29.911417,,,,,,,,,,,BKN,1500,,,,,,,MVFR,,,,,,,,,,,,METAR,24.0
GOBD 160700Z 34007KT 8000 FEW010 22/21 Q1012 NOSIG,GOBD,2023-05-16T07:00:00Z,14.67,-17.07,22.0,21.0,340,7,,4.97,29.88189,,,,,,TRUE,,,,,FEW,1000,,,,,,,MVFR,,,,,,,,,,,,METAR,90.0
GMTT 160700Z AUTO 17004KT 120V210 8000 BKN010 17/17 Q1014 NOSIG,GMTT,2023-05-16T07:00:00Z,35.72,-5.9,17.0,17.0,170,4,,4.97,29.940945,,,TRUE,,,TRUE,,,,,BKN,1000,,,,,,,MVFR,,,,,,,,,,,,METAR,19.0
GMTN 160700Z 18008KT CAVOK 19/09 Q1013 NOSIG,GMTN,2023-05-16T07:00:00Z,35.58,-5.32,19.0,9.0,180,8,,6.21,29.911417,,,,,,TRUE,,,,,CAVOK,,,,,,,,VFR,,,,,,,,,,,,METAR,10.0
GMTA 160700Z VRB01KT CAVOK 22/09 Q1013 NOSIG,GMTA,2023-05-16T07:00:00Z,35.17,-3.85,22.0,9.0,0,1,,6.21,29.911417,,,,,,TRUE,,,,,CAVOK,,,,,,,,VFR,,,,,,,,,,,,METAR,14.0
GMMZ 160700Z VRB02KT CAVOK 19/M03 Q1015 NOSIG,GMMZ,2023-05-16T07:00:00Z,30.93,-6.9,19.0,-3.0,0,2,,6.21,29.970472,,,,,,TRUE,,,,,CAVOK,,,,,,,,VFR,,,,,,,,,,,,METAR,1139.0
GMMX 160700Z 27006KT CAVOK 16/10 Q1014 NOSIG,GMMX,2023-05-16T07:00:00Z,31.62,-8.03,16.0,10.0,270,6,,6.21,29.940945,,,,,,TRUE,,,,,CAVOK,,,,,,,,VFR,,,,,,,,,,,,METAR,465.0
GMMW 160700Z 31004KT CAVOK 19/02 Q1014 NOSIG,GMMW,2023-05-16T07:00:00Z,34.98,-3.02,19.0,2.0,310,4,,6.21,29.940945,,,,,,TRUE,,,,,CAVOK,,,,,,,,VFR,,,,,,,,,,,,METAR,174.0
GMML 160700Z 06017KT 5000 SCT028 BKN060 17/17 Q1013 NOSIG,GMML,2023-05-16T07:00:00Z,27.13,-13.23,17.0,17.0,60,17,,3.11,29.911417,,,,,,TRUE,,,,,SCT,2800,BKN,6000,,,,,MVFR,,,,,,,,,,,,METAR,63.0
GMMI 160700Z VRB01KT 8000 SCT016 15/11 Q1015 NOSIG,GMMI,2023-05-16T07:00:00Z,31.4,-9.68,15.0,11.0,0,1,,4.97,29.970472,,,,,,TRUE,,,,,SCT,1600,,,,,,,MVFR,,,,,,,,,,,,METAR,102.0
GMMH 160700Z 02015KT 6000 SCT016 BKN100 20/15 Q1013 NOSIG,GMMH,2023-05-16T07:00:00Z,23.72,-15.93,20.0,15.0,20,15,,3.73,29.911417,,,,,,TRUE,,,,,SCT,1600,BKN,10000,,,,,MVFR,,,,,,,,,,,,METAR,11.0
GMME 160700Z 00000KT 5000 NSC 16/15 Q1014 NOSIG,GMME,2023-05-16T07:00:00Z,34.05,-6.77,16.0,15.0,0,0,,3.11,29.940945,,,,,,TRUE,,,,,CLR,,,,,,,,MVFR,,,,,,,,,,,,METAR,84.0
GMMD 160700Z 20003KT CAVOK 16/05 Q1014 NOSIG,GMMD,2023-05-16T07:00:00Z,32.4,-6.32,16.0,5.0,200,3,,6.21,29.940945,,,,,,TRUE,,,,,CAVOK,,,,,,,,VFR,,,,,,,,,,,,METAR,515.0
GMMC 160700Z 36004KT 6000 SCT010 SCT016 18/15 Q1014,GMMC,2023-05-16T07:00:00Z,33.57,-7.67,18.0,15.0,360,4,,3.73,29.940945,,,,,,,,,,,SCT,1000,SCT,1600,,,,,MVFR,,,,,,,,,,,,METAR,62.0
GMMB 160700Z VRB01KT 3000 BR SCT008 16/16 Q1014 BECMG 6000 NSW,GMMB,2023-05-16T07:00:00Z,33.65,-7.22,16.0,16.0,0,1,,1.86,29.940945,,,,,,,,,,BR,SCT,800,,,,,,,IFR,,,,,,,,,,,,METAR,191.0
GMFO 160700Z 21009KT CAVOK 20/00 Q1015 NOSIG,GMFO,2023-05-16T07:00:00Z,34.78,-1.92,20.0,0.0,210,9,,6.21,29.970472,,,,,,TRUE,,,,,CAVOK,,,,,,,,VFR,,,,,,,,,,,,METAR,452.0
GMFM 160700Z 15005KT CAVOK 16/06 Q1015 NOSIG,GMFM,2023-05-16T07:00:00Z,33.87,-5.52,16.0,6.0,150,5,,6.21,29.970472,,,,,,TRUE,,,,,CAVOK,,,,,,,,VFR,,,,,,,,,,,,METAR,569.0
GMFK 160700Z 15003KT CAVOK 18/M04 Q1018 NOSIG,GMFK,2023-05-16T07:00:00Z,31.95,-4.4,18.0,-4.0,150,3,,6.21,30.059055,,,,,,TRUE,,,,,CAVOK,,,,,,,,VFR,,,,,,,,,,,,METAR,1033.0
GMFF 160700Z 09003KT 060V160 CAVOK 16/07 Q1015 NOSIG,GMFF,2023-05-16T07:00:00Z,33.92,-4.97,16.0,7.0,90,3,,6.21,29.970472,,,,,,TRUE,,,,,CAVOK,,,,,,,,VFR,,,,,,,,,,,,METAR,575.0
GMFB 160700Z 10012KT CAVOK 17/M01 Q1018 NOSIG,GMFB,2023-05-16T07:00:00Z,32.52,-1.98,17.0,-1.0,100,12,,6.21,30.059055,,,,,,TRUE,,,,,CAVOK,,,,,,,,VFR,,,,,,,,,,,,METAR,1106.0
GMAT 160700Z 03009KT 9999 FEW016 BKN110 16/15 Q1015 NOSIG,GMAT,2023-05-16T07:00:00Z,28.43,-11.15,16.0,15.0,30,9,,6.21,29.970472,,,,,,TRUE,,,,,FEW,1600,BKN,11000,,,,,VFR,,,,,,,,,,,,METAR,192.0
GMAG 160700Z 27009KT 5000 SCT013 BKN100 17/15 Q1014 NOSIG,GMAG,2023-05-16T07:00:00Z,29.03,-10.05,17.0,15.0,270,9,,3.11,29.940945,,,,,,TRUE,,,,,SCT,1300,BKN,10000,,,,,MVFR,,,,,,,,,,,,METAR,333.0
GMAD 160700Z 05004KT 8000 OVC006 17/15 Q1014 NOSIG,GMAD,2023-05-16T07:00:00Z,30.32,-9.42,17.0,15.0,50,4,,4.97,29.940945,,,,,,TRUE,,,,,OVC,600,,,,,,,IFR,,,,,,,,,,,,METAR,66.0
GGOV 160700Z 27002KT 6000 NSC 23/22 Q1013 NOSIG,GGOV,2023-05-16T07:00:00Z,11.88,-15.65,23.0,22.0,270,2,,3.73,29.911417,,,,,,TRUE,,,,,CLR,,,,,,,,MVFR,,,,,,,,,,,,METAR,31.0
GFLL 160700Z 35006KT 9999 BKN009 FEW026CB 25/23 Q1011 RMK CB NE,GFLL,2023-05-16T07:00:00Z,8.62,-13.18,25.0,23.0,350,6,,6.21,29.852362,,,,,,,,,,,BKN,900,FEW,2600,,,,,IFR,,,,,,,,,,,,SPECI,28.0
GEML 160700Z 29008KT 260V330 CAVOK 23/06 Q1013,GEML,2023-05-16T07:00:00Z,35.27,-2.95,23.0,6.0,290,8,,6.21,29.911417,,,,,,,,,,,CAVOK,,,,,,,,VFR,,,,,,,,,,,,METAR,48.0
GECE 160700Z AUTO 31007KT 280V340 9999 FEW003/// 19/13 Q1013,GECE,2023-05-16T07:00:00Z,35.88,-5.3,19.0,13.0,310,7,,6.21,29.911417,,,TRUE,,,,,,,,FEW,300,,,,,,,VFR,,,,,,,,,,,,METAR,2.0
GCXO 160700Z 33015KT 300V360 9999 SCT009 BKN011 15/12 Q1018 NOSIG,GCXO,2023-05-16T07:00:00Z,28.48,-16.35,15.0,12.0,330,15,,6.21,30.059055,,,,,,TRUE,,,,,SCT,900,BKN,1100,,,,,MVFR,,,,,,,,,,,,METAR,623.0
GCTS 160700Z 05015KT 9999 FEW030 19/12 Q1016 NOSIG,GCTS,2023-05-16T07:00:00Z,28.05,-16.57,19.0,12.0,50,15,,6.21,30.0,,,,,,TRUE,,,,,FEW,3000,,,,,,,VFR,,,,,,,,,,,,METAR,59.0
GCRR 160700Z 03010KT 9999 FEW020 19/14 Q1015,GCRR,2023-05-16T07:00:00Z,28.95,-13.58,19.0,14.0,30,10,,6.21,29.970472,,,,,,,,,,,FEW,2000,,,,,,,VFR,,,,,,,,,,,,METAR,9.0
GCLP 160700Z 36020KT 9999 SCT022 20/14 Q1015 NOSIG,GCLP,2023-05-16T07:00:00Z,27.92,-15.38,20.0,14.0,360,20,,6.21,29.970472,,,,,,TRUE,,,,,SCT,2200,,,,,,,VFR,,,,,,,,,,,,METAR,16.0
GCLA 160700Z 01013KT 9999 BKN030 BKN038 20/14 Q1018,GCLA,2023-05-16T07:00:00Z,28.62,-17.75,20.0,14.0,10,13,,6.21,30.059055,,,,,,,,,,,BKN,3000,BKN,3800,,,,,MVFR,,,,,,,,,,,,METAR,20.0
GCHI 160700Z 01017KT 330V040 9999 FEW022 SCT035 20/15 Q1017,GCHI,2023-05-16T07:00:00Z,27.82,-17.88,20.0,15.0,10,17,,6.21,30.029528,,,,,,,,,,,FEW,2200,SCT,3500,,,,,VFR,,,,,,,,,,,,METAR,21.0
GCGM 160700Z VRB10G21KT 9999 FEW030 18/14 Q1016 RMK R09/VRB02KT ARP/VRB02KT,GCGM,2023-05-16T07:00:00Z,28.03,-17.22,18.0,14.0,0,10,21,6.21,30.0,,,,,,,,,,,FEW,3000,,,,,,,VFR,,,,,,,,,,,,METAR,217.0
GCFV 160700Z 03017KT 9999 SCT018 20/15 Q1015,GCFV,2023-05-16T07:00:00Z,28.43,-13.87,20.0,15.0,30,17,,6.21,29.970472,,,,,,,,,,,SCT,1800,,,,,,,VFR,,,,,,,,,,,,METAR,11.0
GBYD 160700Z 28007KT 9999 SCT010 FEW200 23/21 Q1012,GBYD,2023-05-16T07:00:00Z,13.33,-16.65,23.0,21.0,280,7,,6.21,29.88189,,,,,,,,,,,SCT,1000,FEW,20000,,,,,VFR,,,,,,,,,,,,METAR,29.0
GAKD 160700Z 32006KT CAVOK 32/18 Q1011,GAKD,2023-05-16T07:00:00Z,14.48,-11.4,32.0,18.0,320,6,,6.21,29.852362,,,,,,,,,,,CAVOK,,,,,,,,VFR,,,,,,,,,,,,METAR,53.0
GABS 160700Z 23008KT CAVOK 26/23 Q1014 NOSIG,GABS,2023-05-16T07:00:00Z,12.53,-7.95,26.0,23.0,230,8,,6.21,29.940945,,,,,,TRUE,,,,,CAVOK,,,,,,,,VFR,,,,,,,,,,,,METAR,375.0
FZAA 160700Z 24004KT 6000 SCT016 BKN018 26/23 Q1014 NOSIG,FZAA,2023-05-16T07:00:00Z,-4.38,15.45,26.0,23.0,240,4,,3.73,29.940945,,,,,,TRUE,,,,,SCT,1600,BKN,1800,,,,,MVFR,,,,,,,,,,,,METAR,309.0
FXMM 160700Z 00000KT 9999 FEW005 09/07 Q1026,FXMM,2023-05-16T07:00:00Z,-29.47,27.55,9.0,7.0,0,0,,6.21,30.295275,,,,,,,,,,,FEW,500,,,,,,,VFR,,,,,,,,,,,,METAR,1623.0
FWKI 160700Z 11014KT CAVOK 21/13 Q1024 NOSIG,FWKI,2023-05-16T07:00:00Z,-13.78,33.78,21.0,13.0,110,14,,6.21,30.236221,,,,,,TRUE,,,,,CAVOK,,,,,,,,VFR,,,,,,,,,,,,METAR,1225.0
FWCL 160700Z 12007KT 9999 NSC 22/12 Q1023 NOSIG,FWCL,2023-05-16T07:00:00Z,-15.67,34.97,22.0,12.0,120,7,,6.21,30.206694,,,,,,TRUE,,,,,CLR,,,,,,,,VFR,,,,,,,,,,,,SPECI,774.0
FVRG 160700Z 10006KT CAVOK 20/13 Q1027 NOSIG,FVRG,2023-05-16T07:00:00Z,-17.93,31.1,20.0,13.0,100,6,,6.21,30.324802,,,,,,TRUE,,,,,CAVOK,,,,,,,,VFR,,,,,,,,,,,,METAR,1490.0
FVJN 160700Z 10008KT 9999 FEW025 19/13 Q1026,FVJN,2023-05-16T07:00:00Z,-20.02,28.63,19.0,13.0,100,8,,6.21,30.295275,,,,,,,,,,,FEW,2500,,,,,,,VFR,,,,,,,,,,,,METAR,1331.0
FVFA 160700Z 08009KT CAVOK 24/09 Q1021 NOSIG,FVFA,2023-05-16T07:00:00Z,-18.1,25.85,24.0,9.0,80,9,,6.21,30.147638,,,,,,TRUE,,,,,CAVOK,,,,,,,,VFR,,,,,,,,,,,,METAR,1069.0
FTTY 160700Z 00000KT CAVOK 33/09 Q1009,FTTY,2023-05-16T07:00:00Z,17.92,19.1,33.0,9.0,0,0,,6.21,29.793306,,,,,,,,,,,CAVOK,,,,,,,,VFR,,,,,,,,,,,,METAR,234.0
FTTJ 160700Z 24008KT 6000 NSC 33/21 Q1009 NOSIG,FTTJ,2023-05-16T07:00:00Z,12.13,15.03,33.0,21.0,240,8,,3.73,29.793306,,,,,,TRUE,,,,,CLR,,,,,,,,MVFR,,,,,,,,,,,,METAR,295.0
FTTD 160700Z 26004KT CAVOK 30/21 Q1013,FTTD,2023-05-16T07:00:00Z,8.62,16.07,30.0,21.0,260,4,,6.21,29.911417,,,,,,,,,,,CAVOK,,,,,,,,VFR,,,,,,,,,,,,METAR,420.0
FTTC 160700Z 00000KT 8000 NSC 37/// Q1012,FTTC,2023-05-16T07:00:00Z,13.83,20.85,,,0,0,,4.97,29.88189,,,,,,,,,,,CLR,,,,,,,,MVFR,,,,,,,,,,,,METAR,548.0
FTTA 160700Z 08012KT CAVOK 32/22 Q1012,FTTA,2023-05-16T07:00:00Z,9.15,18.37,32.0,22.0,80,12,,6.21,29.88189,,,,,,,,,,,CAVOK,,,,,,,,VFR,,,,,,,,,,,,METAR,361.0
FSIA 160700Z 13013KT 9999 FEW021TCU 31/24 Q1012 NOSIG,FSIA,2023-05-16T07:00:00Z,-4.67,55.52,31.0,24.0,130,13,,6.21,29.88189,,,,,,TRUE,,,,,FEW,2100,,,,,,,VFR,,,,,,,,,,,,METAR,3.0
FQXA 160700Z 24005KT 9999 BKN020 22/19 Q1023,FQXA,2023-05-16T07:00:00Z,-25.05,33.62,22.0,19.0,240,5,,6.21,30.206694,,,,,,,,,,,BKN,2000,,,,,,,MVFR,,,,,,,,,,,,METAR,3.0
FQVL 160700Z 21008KT 9999 FEW020 24/21 Q1020,FQVL,2023-05-16T07:00:00Z,-22.0,35.32,24.0,21.0,210,8,,6.21,30.11811,,,,,,,,,,,FEW,2000,,,,,,,VFR,,,,,,,,,,,,METAR,15.0
FQTT 160700Z VRB02KT 9999 FEW020 25/18 Q1022,FQTT,2023-05-16T07:00:00Z,-16.1,33.63,25.0,18.0,0,2,,6.21,30.177166,,,,,,,,,,,FEW,2000,,,,,,,VFR,,,,,,,,,,,,METAR,146.0
FQQL 160700Z 31004KT CAVOK 24/21 Q1020,FQQL,2023-05-16T07:00:00Z,-17.87,36.87,24.0,21.0,310,4,,6.21,30.11811,,,,,,,,,,,CAVOK,,,,,,,,VFR,,,,,,,,,,,,METAR,5.0
FQPB 160700Z 18008KT 140V210 9999 SCT020 27/23 Q1019,FQPB,2023-05-16T07:00:00Z,-12.98,40.52,27.0,23.0,180,8,,6.21,30.088583,,,,,,,,,,,SCT,2000,,,,,,,VFR,,,,,,,,,,,,METAR,101.0
FQNP 160700Z 20006KT 160V240 9999 SCT020 23/19 Q1022,FQNP,2023-05-16T07:00:00Z,-15.1,39.27,23.0,19.0,200,6,,6.21,30.177166,,,,,,,,,,,SCT,2000,,,,,,,VFR,,,,,,,,,,,,METAR,434.0
FQNC 160700Z 23008KT 200V260 9999 SCT020 28/21 Q1019,FQNC,2023-05-16T07:00:00Z,-14.48,40.72,28.0,21.0,230,8,,6.21,30.088583,,,,,,,,,,,SCT,2000,,,,,,,VFR,,,,,,,,,,,,METAR,112.0
FQMA 160700Z 23010KT 9999 FEW025 21/14 Q1023 NOSIG,FQMA,2023-05-16T07:00:00Z,-25.92,32.57,21.0,14.0,230,10,,6.21,30.206694,,,,,,TRUE,,,,,FEW,2500,,,,,,,VFR,,,,,,,,,,,,METAR,34.0
FQLC 160700Z 13012KT 9999 BKN015 18/15 Q1026,FQLC,2023-05-16T07:00:00Z,-13.27,35.25,18.0,15.0,130,12,,6.21,30.295275,,,,,,,,,,,BKN,1500,,,,,,,MVFR,,,,,,,,,,,,METAR,1362.0
FQCH 160700Z /////KT 9999 BKN015 19/17 Q1025,FQCH,2023-05-16T07:00:00Z,-19.15,33.43,19.0,17.0,,,,6.21,30.265747,,,,,,,,,,,BKN,1500,,,,,,,MVFR,,,,,,,,,,,,SPECI,695.0
FQBR 160700Z 27007KT 9999 FEW018 23/17 Q1020,FQBR,2023-05-16T07:00:00Z,-19.8,34.9,23.0,17.0,270,7,,6.21,30.11811,,,,,,,,,,,FEW,1800,,,,,,,VFR,,,,,,,,,,,,METAR,14.0
FPST 160700Z 24010KT 8000 -TSRA FEW020CB BKN030 OVC090 25/24 Q1014,FPST,2023-05-16T07:00:00Z,0.37,6.72,25.0,24.0,240,10,,4.97,29.940945,,,,,,,,,,-TSRA,FEW,2000,BKN,3000,OVC,9000,,,MVFR,,,,,,,,,,,,METAR,11.0
FOON 160700Z /////KT 0500 FG BKN001 23/23 Q1015,FOON,2023-05-16T07:00:00Z,-1.65,13.43,23.0,23.0,,,,0.31,29.970472,,,,,,,,,,FG,BKN,100,,,,,,,LIFR,,,,,,,,,,,,SPECI,440.0
FOOL 160700Z 10004KT 080V150 9999 FEW010 26/25 Q1013 NOSIG,FOOL,2023-05-16T07:00:00Z,0.45,9.42,26.0,25.0,100,4,,6.21,29.911417,,,,,,TRUE,,,,,FEW,1000,,,,,,,VFR,,,,,,,,,,,,METAR,9.0
FOOG 160700Z 00000KT 4600 BR FEW012 FEW020CB 27/26 Q1013,FOOG,2023-05-16T07:00:00Z,-0.7,8.75,27.0,26.0,0,0,,2.86,29.911417,,,,,,,,,,BR,FEW,1200,FEW,2000,,,,,IFR,,,,,,,,,,,,METAR,4.0
FNUE 160700Z AUTO 10008KT 060V120 9999 NCD 23/13 Q1024,FNUE,2023-05-16T07:00:00Z,-11.77,19.9,23.0,13.0,100,8,,6.21,30.236221,,,TRUE,,,,,,,,CLR,,,,,,,,VFR,,,,,,,,,,,,METAR,1354.0
FNLU 160700Z 13005KT 100V180 7000 FEW017 BKN020 27/23 Q1013 NOSIG,FNLU,2023-05-16T07:00:00Z,-8.85,13.22,27.0,23.0,130,5,,4.35,29.911417,,,,,,TRUE,,,,,FEW,1700,BKN,2000,,,,,MVFR,,,,,,,,,,,,METAR,75.0
FNHU 160700Z 00000KT CAVOK 17/14 Q1024,FNHU,2023-05-16T07:00:00Z,-12.82,15.77,17.0,14.0,0,0,,6.21,30.236221,,,,,,,,,,,CAVOK,,,,,,,,VFR,,,,,,,,,,,,METAR,1697.0
FNGI 160700Z 18006KT 9999 SCT010 BKN020 21/03 Q1020,FNGI,2023-05-16T07:00:00Z,-17.05,15.68,21.0,3.0,180,6,,6.21,30.11811,,,,,,,,,,,SCT,1000,BKN,2000,,,,,MVFR,,,,,,,,,,,,METAR,1116.0
FNCT 160700Z AUTO 26004KT 230V290 //// ////// ///// Q////,FNCT,2023-05-16T07:00:00Z,-12.48,13.48,,,260,4,,,,,,TRUE,,,,,,,,,,,,,,,,,,,,,,,,,,,,METAR,6.0
FNCA 160700Z 14008KT 9999 SCT025 28/25 Q1013,FNCA,2023-05-16T07:00:00Z,-5.58,12.18,28.0,25.0,140,8,,6.21,29.911417,,,,,,,,,,,SCT,2500,,,,,,,VFR,,,,,,,,,,,,METAR,14.0
FMSD 160700Z 28006KT 9999 FEW020 27/19 Q1014,FMSD,2023-05-16T07:00:00Z,-25.03,46.95,27.0,19.0,280,6,,6.21,29.940945,,,,,,,,,,,FEW,2000,,,,,,,VFR,,,,,,,,,,,,METAR,7.0
FMNN 160700Z 00000KT 9999 FEW020 32/// Q1016,FMNN,2023-05-16T07:00:00Z,-13.32,48.32,,,0,0,,6.21,30.0,,,,,,,,,,,FEW,2000,,,,,,,VFR,,,,,,,,,,,,METAR,10.0
FMNM 160700Z 14006KT 110V240 9999 FEW023 32/20 Q1017 NOSIG,FMNM,2023-05-16T07:00:00Z,-15.67,46.35,32.0,20.0,140,6,,6.21,30.029528,,,,,,TRUE,,,,,FEW,2300,,,,,,,VFR,,,,,,,,,,,,METAR,18.0
FMNA 160700Z 14010KT 9999 SCT020 29/21 Q1015,FMNA,2023-05-16T07:00:00Z,-12.33,49.28,29.0,21.0,140,10,,6.21,29.970472,,,,,,,,,,,SCT,2000,,,,,,,VFR,,,,,,,,,,,,METAR,108.0
FMMT 160700Z 04008KT 360V090 9999 FEW017 29/23 Q1015 NOSIG,FMMT,2023-05-16T07:00:00Z,-18.12,49.38,29.0,23.0,40,8,,6.21,29.970472,,,,,,TRUE,,,,,FEW,1700,,,,,,,VFR,,,,,,,,,,,,METAR,13.0
FMMI 160700Z 28009KT 210V310 9999 SCT020 23/15 Q1022 NOSIG,FMMI,2023-05-16T07:00:00Z,-18.8,47.47,23.0,15.0,280,9,,6.21,30.177166,,,,,,TRUE,,,,,SCT,2000,,,,,,,VFR,,,,,,,,,,,,METAR,1269.0
FMEP 160700Z AUTO 19005KT 150V220 9999 SCT050 28/21 Q1016 NOSIG,FMEP,2023-05-16T07:00:00Z,-21.32,55.42,28.0,21.0,190,5,,6.21,30.0,,,TRUE,,,TRUE,,,,,SCT,5000,,,,,,,VFR,,,,,,,,,,,,METAR,21.0
FMEE 160700Z AUTO 07004KT 040V100 9999 SCT066/// ///TCU 30/23 Q1017 BECMG FEW030 SCT050,FMEE,2023-05-16T07:00:00Z,-20.88,55.52,30.0,23.0,70,4,,6.21,30.029528,,,TRUE,,,,,,,,SCT,6600,,,,,,,VFR,,,,,,,,,,,,SPECI,20.0
FMCZ 160700Z AUTO 19011KT 9999 FEW024 30/24 Q1016 NOSIG,FMCZ,2023-05-16T07:00:00Z,-12.8,45.27,30.0,24.0,190,11,,6.21,30.0,,,TRUE,,,TRUE,,,,,FEW,2400,,,,,,,VFR,,,,,,,,,,,,METAR,7.0
FLKK 160700Z 09015KT CAVOK 21/12 Q1024,FLKK,2023-05-16T07:00:00Z,-15.32,28.45,21.0,12.0,90,15,,6.21,30.236221,,,,,,,,,,,CAVOK,,,,,,,,VFR,,,,,,,,,,,,METAR,1149.0
FKYS 160700Z 00000KT 9999 SCT006 22/22 Q1019 NOSIG,FKYS,2023-05-16T07:00:00Z,3.82,11.52,22.0,22.0,0,0,,6.21,30.088583,,,,,,TRUE,,,,,SCT,600,,,,,,,VFR,,,,,,,,,,,,METAR,694.0
FKKR 160700Z 25007KT 230V290 CAVOK 30/22 Q1012 NOSIG,FKKR,2023-05-16T07:00:00Z,9.33,13.37,30.0,22.0,250,7,,6.21,29.88189,,,,,,TRUE,,,,,CAVOK,,,,,,,,VFR,,,,,,,,,,,,METAR,223.0
FKKN 160700Z 22005KT CAVOK 25/22 Q1020,FKKN,2023-05-16T07:00:00Z,7.35,13.57,25.0,22.0,220,5,,6.21,30.11811,,,,,,,,,,,CAVOK,,,,,,,,VFR,,,,,,,,,,,,METAR,1108.0
FKKD 160700Z VRB01KT 4000 BR SCT006 BKN013 FEW016CB 28/27 Q1013 TEMPO 6000 TS,FKKD,2023-05-16T07:00:00Z,4.0,9.72,28.0,27.0,0,1,,2.49,29.911417,,,,,,,,,,BR,SCT,600,BKN,1300,FEW,1600,,,IFR,,,,,,,,,,,,METAR,10.0
FIMP 160700Z 04013KT 9999 SCT018 28/21 Q1017,FIMP,2023-05-16T07:00:00Z,-20.43,57.68,28.0,21.0,40,13,,6.21,30.029528,,,,,,,,,,,SCT,1800,,,,,,,VFR,,,,,,,,,,,,METAR,57.0
FGSL 160700Z 25003KT 210V270 9999 FEW010 FEW020CB 27/25 Q1013 NOSIG,FGSL,2023-05-16T07:00:00Z,3.75,8.72,27.0,25.0,250,3,,6.21,29.911417,,,,,,TRUE,,,,,FEW,1000,FEW,2000,,,,,VFR,,,,,,,,,,,,METAR,23.0
FEFT 160700Z 32014KT 9999 FEW012 26/23 Q1015,FEFT,2023-05-16T07:00:00Z,4.22,15.8,26.0,23.0,320,14,,6.21,29.970472,,,,,,,,,,,FEW,1200,,,,,,,VFR,,,,,,,,,,,,METAR,567.0
FEFF 160700Z VRB03KT 8000 NSC 31/25 Q1013 NOSIG,FEFF,2023-05-16T07:00:00Z,4.4,18.52,31.0,25.0,0,3,,4.97,29.911417,,,,,,TRUE,,,,,CLR,,,,,,,,MVFR,,,,,,,,,,,,METAR,364.0
FDST 160700Z AUTO 07005KT //// // ////// 30/25 Q1022,FDST,2023-05-16T07:00:00Z,-26.43,31.95,30.0,25.0,70,5,,,30.177166,,,TRUE,,,,,,,,,,,,,,,,,,,,,,,,,,,,METAR,642.0
FDSK 160700Z VRB02KT CAVOK 19/12 Q1025 NOSIG,FDSK,2023-05-16T07:00:00Z,-26.35,31.72,19.0,12.0,0,2,,6.21,30.265747,,,,,,TRUE,,,,,CAVOK,,,,,,,,VFR,,,,,,,,,,,,METAR,323.0
FDPP 160700Z AUTO 15002KT //// // ////// ///// Q1029,FDPP,2023-05-16T07:00:00Z,-25.97,31.25,,,150,2,,,30.383858,,,TRUE,,,,,,,,,,,,,,,,,,,,,,,,,,,,METAR,1023.0
FDOT 160700Z AUTO 08001KT //// // ////// 18/14 Q1025,FDOT,2023-05-16T07:00:00Z,-26.7,31.43,18.0,14.0,80,1,,,30.265747,,,TRUE,,,,,,,,,,,,,,,,,,,,,,,,,,,,METAR,342.0
FDMY 160700Z AUTO 00000KT //// // ////// 19/13 Q1035,FDMY,2023-05-16T07:00:00Z,-25.88,31.52,19.0,13.0,0,0,,,30.561024,,,TRUE,,,,,,,,,,,,,,,,,,,,,,,,,,,,METAR,401.0
FDBB 160700Z AUTO 00000KT //// // ////// 16/15 Q1023,FDBB,2023-05-16T07:00:00Z,-26.8,31.93,16.0,15.0,0,0,,,30.206694,,,TRUE,,,,,,,,,,,,,,,,,,,,,,,,,,,,METAR,106.0
FCPP 160700Z 13007KT 100V160 7000 FEW010 SCT026 27/25 Q1013 NOSIG,FCPP,2023-05-16T07:00:00Z,-4.82,11.9,27.0,25.0,130,7,,4.35,29.911417,,,,,,TRUE,,,,,FEW,1000,SCT,2600,,,,,MVFR,,,,,,,,,,,,METAR,18.0
FCOD 160700Z 00000KT 8000 NSC 27/25 Q1014,FCOD,2023-05-16T07:00:00Z,,,27.0,25.0,0,0,,4.97,29.940945,,,,,,,,,,,CLR,,,,,,,,MVFR,,,,,,,,,,,,METAR,
FCBB 160700Z VRB03KT 8000 FEW013 BKN020 26/24 Q1015 NOSIG,FCBB,2023-05-16T07:00:00Z,-4.25,15.25,26.0,24.0,0,3,,4.97,29.970472,,,,,,TRUE,,,,,FEW,1300,BKN,2000,,,,,MVFR,,,,,,,,,,,,METAR,316.0
FBSK 160700Z 05010KT 020V080 9999 OVC015 15/13 Q1024 NOSIG,FBSK,2023-05-16T07:00:00Z,-24.55,25.92,15.0,13.0,50,10,,6.21,30.236221,,,,,,TRUE,,,,,OVC,1500,,,,,,,MVFR,,,,,,,,,,,,METAR,1007.0
FBPM 160700Z 08011KT CAVOK 19/14 Q1023,FBPM,2023-05-16T07:00:00Z,-21.17,27.48,19.0,14.0,80,11,,6.21,30.206694,,,,,,,,,,,CAVOK,,,,,,,,VFR,,,,,,,,,,,,METAR,1009.0
FBMN 160700Z 13010KT 9999 FEW020 BKN065 20/13 Q1022,FBMN,2023-05-16T07:00:00Z,-19.97,23.42,20.0,13.0,130,10,,6.21,30.177166,,,,,,,,,,,FEW,2000,BKN,6500,,,,,VFR,,,,,,,,,,,,METAR,946.0
FBKE 160700Z 10006KT 070V130 CAVOK 22/10 Q1021,FBKE,2023-05-16T07:00:00Z,-17.82,25.17,22.0,10.0,100,6,,6.21,30.147638,,,,,,,,,,,CAVOK,,,,,,,,VFR,,,,,,,,,,,,METAR,999.0
FAWB 160700Z AUTO 07004KT //// // ////// 12/11 Q1025,FAWB,2023-05-16T07:00:00Z,-25.65,28.22,12.0,11.0,70,4,,,30.265747,,,TRUE,,,,,,,,,,,,,,,,,,,,,,,,,,,,METAR,1245.0
FAVV 160700Z AUTO 14003KT //// // ////// 10/09 Q1027,FAVV,2023-05-16T07:00:00Z,-26.57,27.97,10.0,9.0,140,3,,,30.324802,,,TRUE,,,,,,,,,,,,,,,,,,,,,,,,,,,,SPECI,1480.0
FAUT 160700Z 01002KT 0500 FG BKN001 08/07 Q1024,FAUT,2023-05-16T07:00:00Z,-31.53,28.67,8.0,7.0,10,2,,0.31,30.236221,,,,,,,,,,FG,BKN,100,,,,,,,LIFR,,,,,,,,,,,,METAR,735.0
FAUP 160700Z 04002KT CAVOK 13/04 Q1023 NOSIG,FAUP,2023-05-16T07:00:00Z,-28.38,21.27,13.0,4.0,40,2,,6.21,30.206694,,,,,,TRUE,,,,,CAVOK,,,,,,,,VFR,,,,,,,,,,,,METAR,845.0
FAPP 160700Z 04007KT 9999 BKN015 13/12 Q1028 NOSIG,FAPP,2023-05-16T07:00:00Z,-23.83,29.45,13.0,12.0,40,7,,6.21,30.35433,,,,,,TRUE,,,,,BKN,1500,,,,,,,MVFR,,,,,,,,,,,,METAR,1238.0
FAPN 160700Z 09004KT 4000 HZ OVC013 15/13 Q1025,FAPN,2023-05-16T07:00:00Z,-25.33,27.17,15.0,13.0,90,4,,2.49,30.265747,,,,,,,,,,HZ,OVC,1300,,,,,,,IFR,,,,,,,,,,,,METAR,1045.0
FAPE 160700Z 31004KT 280V340 CAVOK 15/11 Q1020 NOSIG,FAPE,2023-05-16T07:00:00Z,-33.98,25.6,15.0,11.0,310,4,,6.21,30.11811,,,,,,TRUE,,,,,CAVOK,,,,,,,,VFR,,,,,,,,,,,,METAR,58.0
FAOR 160700Z 35008KT 5000 BR OVC003 10/08 Q1027 BECMG BKN003,FAOR,2023-05-16T07:00:00Z,-26.13,28.23,10.0,8.0,350,8,,3.11,30.324802,,,,,,,,,,BR,OVC,300,,,,,,,LIFR,,,,,,,,,,,,METAR,1684.0
FAMM 160700Z 04008KT 9999 BKN020 15/12 Q1025 NOSIG,FAMM,2023-05-16T07:00:00Z,-25.8,25.53,15.0,12.0,40,8,,6.21,30.265747,,,,,,TRUE,,,,,BKN,2000,,,,,,,MVFR,,,,,,,,,,,,METAR,1280.0
FALW 160700Z AUTO 20003KT //// // ////// 12/10 Q1020,FALW,2023-05-16T07:00:00Z,-32.97,18.17,12.0,10.0,200,3,,,30.11811,,,TRUE,,,,,,,,,,,,,,,,,,,,,,,,,,,,METAR,31.0
FALE 160700Z VRB02KT CAVOK 20/13 Q1022 NOSIG,FALE,2023-05-16T07:00:00Z,-29.62,31.12,20.0,13.0,0,2,,6.21,30.177166,,,,,,TRUE,,,,,CAVOK,,,,,,,,VFR,,,,,,,,,,,,METAR,109.0
FALA 160700Z VRB02KT 9000 BKN012 12/10 Q1027 TEMPO 5000 BR,FALA,2023-05-16T07:00:00Z,-25.93,27.92,12.0,10.0,0,2,,5.59,30.324802,,,,,,,,,,,BKN,1200,,,,,,,MVFR,,,,,,,,,,,,METAR,1365.0
FAKN 160700Z AUTO 32001KT //// // ////// 16/12 Q1026,FAKN,2023-05-16T07:00:00Z,-25.38,31.1,16.0,12.0,320,1,,,30.295275,,,TRUE,,,,,,,,,,,,,,,,,,,,,,,,,,,,METAR,864.0
FAKM 160700Z 06004KT CAVOK 11/09 Q1025,FAKM,2023-05-16T07:00:00Z,-28.8,24.77,11.0,9.0,60,4,,6.21,30.265747,,,,,,,,,,,CAVOK,,,,,,,,VFR,,,,,,,,,,,,METAR,1203.0
FAJB 160700Z AUTO 01001KT //// // ////// 10/09 Q1026,FAJB,2023-05-16T07:00:00Z,-26.15,28.0,10.0,9.0,10,1,,,30.295275,,,TRUE,,,,,,,,,,,,,,,,,,,,,,,,,,,,SPECI,1626.0
FAHS 160700Z AUTO 17005KT //// // ////// 20/14 Q1024,FAHS,2023-05-16T07:00:00Z,-24.37,31.03,20.0,14.0,170,5,,,30.236221,,,TRUE,,,,,,,,,,,,,,,,,,,,,,,,,,,,METAR,532.0
FAGG 160700Z VRB01KT CAVOK 15/11 Q1020,FAGG,2023-05-16T07:00:00Z,-34.0,22.37,15.0,11.0,0,1,,6.21,30.11811,,,,,,,,,,,CAVOK,,,,,,,,VFR,,,,,,,,,,,,METAR,196.0
FAEL 160700Z 30005KT 270V340 CAVOK 17/11 Q1021,FAEL,2023-05-16T07:00:00Z,-33.03,27.82,17.0,11.0,300,5,,6.21,30.147638,,,,,,,,,,,CAVOK,,,,,,,,VFR,,,,,,,,,,,,METAR,127.0
FACT 160700Z 19011KT CAVOK 16/12 Q1021 NOSIG,FACT,2023-05-16T07:00:00Z,-33.97,18.6,16.0,12.0,190,11,,6.21,30.147638,,,,,,TRUE,,,,,CAVOK,,,,,,,,VFR,,,,,,,,,,,,METAR,48.0
FABL 160700Z 06004KT 020V100 CAVOK 11/08 Q1026 NOSIG,FABL,2023-05-16T07:00:00Z,-29.1,26.3,11.0,8.0,60,4,,6.21,30.295275,,,,,,TRUE,,,,,CAVOK,,,,,,,,VFR,,,,,,,,,,,,METAR,1348.0
EPZG 160700Z 27008KT 240V300 9999 BKN010 13/12 Q1012,EPZG,2023-05-16T07:00:00Z,52.13,15.77,13.0,12.0,270,8,,6.21,29.88189,,,,,,,,,,,BKN,1000,,,,,,,MVFR,,,,,,,,,,,,METAR,59.0
EPWR 160700Z 30010KT 9999 FEW015 14/11 Q1012,EPWR,2023-05-16T07:00:00Z,51.1,16.88,14.0,11.0,300,10,,6.21,29.88189,,,,,,,,,,,FEW,1500,,,,,,,VFR,,,,,,,,,,,,METAR,118.0
EPWA 160700Z 26013KT 9999 BKN020 13/10 Q1010 NOSIG,EPWA,2023-05-16T07:00:00Z,52.17,20.97,13.0,10.0,260,13,,6.21,29.822834,,,,,,TRUE,,,,,BKN,2000,,,,,,,MVFR,,,,,,,,,,,,METAR,107.0
EPSY 160700Z 23014KT 9999 -RA FEW002 BKN007 OVC011 12/10 Q1007,EPSY,2023-05-16T07:00:00Z,53.47,20.93,12.0,10.0,230,14,,6.21,29.734253,,,,,,,,,,-RA,FEW,200,BKN,700,OVC,1100,,,IFR,,,,,,,,,,,,METAR,136.0
EPSC 160700Z 25010KT 230V290 9999 FEW008 OVC010 13/10 Q1010,EPSC,2023-05-16T07:00:00Z,53.58,14.9,13.0,10.0,250,10,,6.21,29.822834,,,,,,,,,,,FEW,800,OVC,1000,,,,,MVFR,,,,,,,,,,,,METAR,47.0
EPRZ 160700Z 22005KT 160V330 CAVOK 15/09 Q1013,EPRZ,2023-05-16T07:00:00Z,50.1,22.02,15.0,9.0,220,5,,6.21,29.911417,,,,,,,,,,,CAVOK,,,,,,,,VFR,,,,,,,,,,,,METAR,206.0
EPRA 160700Z 26010KT CAVOK 17/11 Q1011,EPRA,2023-05-16T07:00:00Z,51.38,21.22,17.0,11.0,260,10,,6.21,29.852362,,,,,,,,,,,CAVOK,,,,,,,,VFR,,,,,,,,,,,,METAR,182.0
EPPO 160700Z 26009KT 9999 BKN011 13/10 Q1012,EPPO,2023-05-16T07:00:00Z,52.42,16.83,13.0,10.0,260,9,,6.21,29.88189,,,,,,,,,,,BKN,1100,,,,,,,MVFR,,,,,,,,,,,,METAR,87.0
EPMO 160700Z 21011KT 180V240 9999 FEW013 BKN027 14/11 Q1009,EPMO,2023-05-16T07:00:00Z,52.45,20.65,14.0,11.0,210,11,,6.21,29.793306,,,,,,,,,,,FEW,1300,BKN,2700,,,,,MVFR,,,,,,,,,,,,METAR,102.0
EPLL 160700Z 25013KT 9999 SCT012 BKN015 12/09 Q1011,EPLL,2023-05-16T07:00:00Z,51.72,19.4,12.0,9.0,250,13,,6.21,29.852362,,,,,,,,,,,SCT,1200,BKN,1500,,,,,MVFR,,,,,,,,,,,,METAR,176.0
EPLB 160700Z 23008KT 9999 FEW020 16/11 Q1012,EPLB,2023-05-16T07:00:00Z,51.23,22.72,16.0,11.0,230,8,,6.21,29.88189,,,,,,,,,,,FEW,2000,,,,,,,VFR,,,,,,,,,,,,METAR,206.0
EPKT 160700Z 30006KT 270V340 CAVOK 15/10 Q1012,EPKT,2023-05-16T07:00:00Z,50.47,19.08,15.0,10.0,300,6,,6.21,29.88189,,,,,,,,,,,CAVOK,,,,,,,,VFR,,,,,,,,,,,,METAR,296.0
EPKK 160700Z 22004KT 180V260 CAVOK 15/10 Q1012,EPKK,2023-05-16T07:00:00Z,50.07,19.8,15.0,10.0,220,4,,6.21,29.88189,,,,,,,,,,,CAVOK,,,,,,,,VFR,,,,,,,,,,,,METAR,237.0
EPGD 160700Z 27019KT 9999 FEW004 BKN006 10/09 Q1005,EPGD,2023-05-16T07:00:00Z,54.37,18.47,10.0,9.0,270,19,,6.21,29.675198,,,,,,,,,,,FEW,400,BKN,600,,,,,IFR,,,,,,,,,,,,METAR,136.0
EPBY 160700Z 27014KT 9999 BKN016 13/10 Q1009,EPBY,2023-05-16T07:00:00Z,53.1,18.0,13.0,10.0,270,14,,6.21,29.793306,,,,,,,,,,,BKN,1600,,,,,,,MVFR,,,,,,,,,,,,METAR,66.0
EIWF 160700Z 01007KT CAVOK 08/06 Q1029,EIWF,2023-05-16T07:00:00Z,52.18,-7.08,8.0,6.0,10,7,,6.21,30.383858,,,,,,,,,,,CAVOK,,,,,,,,VFR,,,,,,,,,,,,METAR,26.0
EISG 160700Z 26009KT 8000 SCT023 SCT030 10/08 Q1028,EISG,2023-05-16T07:00:00Z,54.28,-8.6,10.0,8.0,260,9,,4.97,30.35433,,,,,,,,,,,SCT,2300,SCT,3000,,,,,MVFR,,,,,,,,,,,,METAR,1.0
EINN 160700Z 14001KT 9999 FEW030 08/06 Q1029 NOSIG,EINN,2023-05-16T07:00:00Z,52.7,-8.92,8.0,6.0,140,1,,6.21,30.383858,,,,,,TRUE,,,,,FEW,3000,,,,,,,VFR,,,,,,,,,,,,METAR,20.0
EIME 160700Z 26007KT 9999 FEW018 08/06 Q1028,EIME,2023-05-16T07:00:00Z,53.3,-6.45,8.0,6.0,260,7,,6.21,30.35433,,,,,,,,,,,FEW,1800,,,,,,,VFR,,,,,,,,,,,,METAR,90.0
EIKN 160700Z 29008KT 270V330 9999 FEW018 09/06 Q1028 NOSIG,EIKN,2023-05-16T07:00:00Z,53.92,-8.82,9.0,6.0,290,8,,6.21,30.35433,,,,,,TRUE,,,,,FEW,1800,,,,,,,VFR,,,,,,,,,,,,METAR,201.0
EIDW 160700Z 28009KT 9999 FEW016 08/06 Q1028 NOSIG,EIDW,2023-05-16T07:00:00Z,53.42,-6.28,8.0,6.0,280,9,,6.21,30.35433,,,,,,TRUE,,,,,FEW,1600,,,,,,,VFR,,,,,,,,,,,,METAR,75.0
EICK 160700Z 32008KT 9999 FEW040 SCT250 08/05 Q1028 NOSIG,EICK,2023-05-16T07:00:00Z,51.85,-8.47,8.0,5.0,320,8,,6.21,30.35433,,,,,,TRUE,,,,,FEW,4000,SCT,25000,,,,,VFR,,,,,,,,,,,,METAR,158.0
DXXX 160700Z 01003KT 8000 FEW010 26/24 Q1013 NOSIG,DXXX,2023-05-16T07:00:00Z,6.17,1.25,26.0,24.0,10,3,,4.97,29.911417,,,,,,TRUE,,,,,FEW,1000,,,,,,,MVFR,,,,,,,,,,,,METAR,22.0
DXNG 160700Z 20006KT 9999 FEW006 24/22 Q1016,DXNG,2023-05-16T07:00:00Z,9.77,1.1,24.0,22.0,200,6,,6.21,30.0,,,,,,,,,,,FEW,600,,,,,,,VFR,,,,,,,,,,,,METAR,343.0
DTTZ 160700Z 29004KT CAVOK 19/07 Q1012,DTTZ,2023-05-16T07:00:00Z,33.93,8.1,19.0,7.0,290,4,,6.21,29.88189,,,,,,,,,,,CAVOK,,,,,,,,VFR,,,,,,,,,,,,METAR,87.0
DTTX 160700Z 25012KT 9999 FEW020 19/07 Q1010,DTTX,2023-05-16T07:00:00Z,34.72,10.68,19.0,7.0,250,12,,6.21,29.822834,,,,,,,,,,,FEW,2000,,,,,,,VFR,,,,,,,,,,,,METAR,17.0
DTTR 160700Z 18009KT CAVOK 20/03 Q1014,DTTR,2023-05-16T07:00:00Z,31.7,9.27,20.0,3.0,180,9,,6.21,29.940945,,,,,,,,,,,CAVOK,,,,,,,,VFR,,,,,,,,,,,,METAR,253.0
DTTN 160700Z /////KT 9999 SCT020 17/10 Q1010,DTTN,2023-05-16T07:00:00Z,36.47,8.8,17.0,10.0,,,,6.21,29.822834,,,,,,,,,,,SCT,2000,,,,,,,VFR,,,,,,,,,,,,SPECI,145.0
DTTL 160700Z 26009G21KT 200V320 9999 SCT020 19/15 Q1006,DTTL,2023-05-16T07:00:00Z,36.85,11.07,19.0,15.0,260,9,21,6.21,29.704725,,,,,,,,,,,SCT,2000,,,,,,,VFR,,,,,,,,,,,,METAR,18.0
DTTK 160700Z 25004KT 9999 SCT023 20/09 Q1009,DTTK,2023-05-16T07:00:00Z,35.67,10.08,20.0,9.0,250,4,,6.21,29.793306,,,,,,,,,,,SCT,2300,,,,,,,VFR,,,,,,,,,,,,METAR,65.0
DTTJ 160700Z 27013KT 9999 FEW026 20/09 Q1011 NOSIG,DTTJ,2023-05-16T07:00:00Z,33.87,10.77,20.0,9.0,270,13,,6.21,29.852362,,,,,,TRUE,,,,,FEW,2600,,,,,,,VFR,,,,,,,,,,,,METAR,3.0
DTTG 160700Z 23010KT 6000 FEW030 18/08 Q1012 NOSIG,DTTG,2023-05-16T07:00:00Z,33.73,9.92,18.0,8.0,230,10,,3.73,29.88189,,,,,,TRUE,,,,,FEW,3000,,,,,,,MVFR,,,,,,,,,,,,METAR,120.0
DTTF 160700Z VRB02KT 8000 NSC 17/07 Q1013 NOSIG,DTTF,2023-05-16T07:00:00Z,34.42,8.82,17.0,7.0,0,2,,4.97,29.911417,,,,,,TRUE,,,,,CLR,,,,,,,,MVFR,,,,,,,,,,,,METAR,314.0
DTTD 160700Z 22010KT 190V270 CAVOK 21/04 Q1013,DTTD,2023-05-16T07:00:00Z,32.32,10.4,21.0,4.0,220,10,,6.21,29.911417,,,,,,,,,,,CAVOK,,,,,,,,VFR,,,,,,,,,,,,METAR,306.0
DTTB 160700Z 28018G28KT 8000 SCT020TCU SCT030 20/14 Q1006,DTTB,2023-05-16T07:00:00Z,37.25,9.8,20.0,14.0,280,18,28,4.97,29.704725,,,,,,,,,,,SCT,2000,SCT,3000,,,,,MVFR,,,,,,,,,,,,METAR,4.0
DTTA 160700Z 26014G28KT 230V290 9999 SCT026 19/13 Q1007,DTTA,2023-05-16T07:00:00Z,36.85,10.22,19.0,13.0,260,14,28,6.21,29.734253,,,,,,,,,,,SCT,2600,,,,,,,VFR,,,,,,,,,,,,METAR,4.0
DTNH 160700Z 27012KT 9999 R09///// FEW026 19/11 Q1008,DTNH,2023-05-16T07:00:00Z,36.07,10.43,19.0,11.0,270,12,,6.21,29.763779,,,,,,,,,,,FEW,2600,,,,,,,VFR,,,,,,,,,,,,METAR,1.0
DTMB 160700Z 28017KT 8000 FEW023 20/11 Q1008,DTMB,2023-05-16T07:00:00Z,35.77,10.75,20.0,11.0,280,17,,4.97,29.763779,,,,,,,,,,,FEW,2300,,,,,,,MVFR,,,,,,,,,,,,METAR,1.0
DTKA 160700Z 24012KT 9999 SCT020 BKN030 14/12 Q1009 RETS NOSIG,DTKA,2023-05-16T07:00:00Z,36.98,8.88,14.0,12.0,240,12,,6.21,29.793306,,,,,,TRUE,,,,,SCT,2000,BKN,3000,,,,,MVFR,,,,,,,,,,,,METAR,70.0
DRZR 160700Z 24016KT 6000 NSC 32/20 Q1012,DRZR,2023-05-16T07:00:00Z,13.77,8.98,32.0,20.0,240,16,,3.73,29.88189,,,,,,,,,,,CLR,,,,,,,,MVFR,,,,,,,,,,,,METAR,457.0
DRZA 160700Z 28006KT 4500 DU NSC 34/11 Q1010,DRZA,2023-05-16T07:00:00Z,16.97,8.0,34.0,11.0,280,6,,2.8,29.822834,,,,,,,,,,DU,CLR,,,,,,,,IFR,,,,,,,,,,,,METAR,506.0
DRRT 160700Z 22008KT CAVOK 32/21 Q1011,DRRT,2023-05-16T07:00:00Z,14.87,5.27,32.0,21.0,220,8,,6.21,29.852362,,,,,,,,,,,CAVOK,,,,,,,,VFR,,,,,,,,,,,,METAR,387.0
DRRN 160700Z 22007KT CAVOK 30/22 Q1011 NOSIG,DRRN,2023-05-16T07:00:00Z,13.47,2.17,30.0,22.0,220,7,,6.21,29.852362,,,,,,TRUE,,,,,CAVOK,,,,,,,,VFR,,,,,,,,,,,,METAR,223.0
DRRM 160700Z 25012KT CAVOK 31/22 Q1012,DRRM,2023-05-16T07:00:00Z,13.5,7.12,31.0,22.0,250,12,,6.21,29.88189,,,,,,,,,,,CAVOK,,,,,,,,VFR,,,,,,,,,,,,METAR,374.0
DNYO 160700Z 00000KT CAVOK 30/23 Q1012,DNYO,2023-05-16T07:00:00Z,9.27,12.42,30.0,23.0,0,0,,6.21,29.88189,,,,,,,,,,,CAVOK,,,,,,,,VFR,,,,,,,,,,,,METAR,178.0
DNPO 160700Z 00000KT 8000 BKN008 26/24 Q1012 NOSIG,DNPO,2023-05-16T07:00:00Z,4.83,7.02,26.0,24.0,0,0,,4.97,29.88189,,,,,,TRUE,,,,,BKN,800,,,,,,,IFR,,,,,,,,,,,,METAR,17.0
DNMN 160700Z 23007KT CAVOK 28/24 Q1013,DNMN,2023-05-16T07:00:00Z,9.65,6.47,28.0,24.0,230,7,,6.21,29.911417,,,,,,,,,,,CAVOK,,,,,,,,VFR,,,,,,,,,,,,METAR,268.0
DNMM 160700Z VRB02KT 7000 FEW011 27/26 Q1014 NOSIG,DNMM,2023-05-16T07:00:00Z,6.57,3.32,27.0,26.0,0,2,,4.35,29.940945,,,,,,TRUE,,,,,FEW,1100,,,,,,,MVFR,,,,,,,,,,,,METAR,27.0
DNKT 160700Z 21020KT CAVOK 30/22 Q1014,DNKT,2023-05-16T07:00:00Z,13.0,7.67,30.0,22.0,210,20,,6.21,29.940945,,,,,,,,,,,CAVOK,,,,,,,,VFR,,,,,,,,,,,,METAR,504.0
DNKA 160700Z 21010KT 9999 BKN009 FEW020CB 23/19 Q1016 NOSIG,DNKA,2023-05-16T07:00:00Z,10.58,7.45,23.0,19.0,210,10,,6.21,30.0,,,,,,TRUE,,,,,BKN,900,FEW,2000,,,,,IFR,,,,,,,,,,,,METAR,631.0
DNIM 160700Z 00000KT 9999 SCT010 26/24 Q1014,DNIM,2023-05-16T07:00:00Z,5.43,7.2,26.0,24.0,0,0,,6.21,29.940945,,,,,,,,,,,SCT,1000,,,,,,,VFR,,,,,,,,,,,,METAR,113.0
DNIB 160700Z 00000KT 8000 HZ FEW010 27/26 Q1014,DNIB,2023-05-16T07:00:00Z,7.37,3.98,27.0,26.0,0,0,,4.97,29.940945,,,,,,,,,,HZ,FEW,1000,,,,,,,MVFR,,,,,,,,,,,,METAR,220.0
DNGO 160700Z 21016KT CAVOK 35/20 Q1008,DNGO,2023-05-16T07:00:00Z,10.3,10.9,35.0,20.0,210,16,,6.21,29.763779,,,,,,,,,,,CAVOK,,,,,,,,VFR,,,,,,,,,,,,METAR,510.0
DNAA 160700Z 25006KT 9999 FEW009 27/24 Q1014 NOSIG,DNAA,2023-05-16T07:00:00Z,9.0,7.27,27.0,24.0,250,6,,6.21,29.940945,,,,,,TRUE,,,,,FEW,900,,,,,,,VFR,,,,,,,,,,,,METAR,338.0
DIYO 160700Z 22006KT 8000 BKN010 25/24 Q1014 NOSIG,DIYO,2023-05-16T07:00:00Z,6.9,-5.35,25.0,24.0,220,6,,4.97,29.940945,,,,,,TRUE,,,,,BKN,1000,,,,,,,MVFR,,,,,,,,,,,,METAR,202.0
DIBK 160700Z 24010KT 8000 BKN010 24/24 Q1014 NOSIG,DIBK,2023-05-16T07:00:00Z,7.73,-5.07,24.0,24.0,240,10,,4.97,29.940945,,,,,,TRUE,,,,,BKN,1000,,,,,,,MVFR,,,,,,,,,,,,METAR,363.0
DIAP 160700Z VRB01KT 8000 FEW011 25/25 Q1013 NOSIG,DIAP,2023-05-16T07:00:00Z,5.25,-3.92,25.0,25.0,0,1,,4.97,29.911417,,,,,,TRUE,,,,,FEW,1100,,,,,,,MVFR,,,,,,,,,,,,METAR,4.0
DGAA 160700Z 27005KT 9999 FEW014 26/24 Q1013 NOSIG,DGAA,2023-05-16T07:00:00Z,5.58,-0.17,26.0,24.0,270,5,,6.21,29.911417,,,,,,TRUE,,,,,FEW,1400,,,,,,,VFR,,,,,,,,,,,,METAR,68.0
DFOO 160700Z 20007KT CAVOK 27/20 Q1013,DFOO,2023-05-16T07:00:00Z,11.17,-4.32,27.0,20.0,200,7,,6.21,29.911417,,,,,,,,,,,CAVOK,,,,,,,,VFR,,,,,,,,,,,,METAR,461.0
DFFD 160700Z 23008KT CAVOK 28/23 Q1012 NOSIG,DFFD,2023-05-16T07:00:00Z,12.35,-1.52,28.0,23.0,230,8,,6.21,29.88189,,,,,,TRUE,,,,,CAVOK,,,,,,,,VFR,,,,,,,,,,,,METAR,309.0
DBBB 160700Z VRB02KT 8000 FEW011 27/24 Q1013 TEMPO TS SCT012 FEW020CB,DBBB,2023-05-16T07:00:00Z,6.35,2.38,27.0,24.0,0,2,,4.97,29.911417,,,,,,,,,,,FEW,1100,,,,,,,MVFR,,,,,,,,,,,,METAR,4.0
DAUZ 160700Z 15002KT CAVOK 19/02 Q1017,DAUZ,2023-05-16T07:00:00Z,28.05,9.63,19.0,2.0,150,2,,6.21,30.029528,,,,,,,,,,,CAVOK,,,,,,,,VFR,,,,,,,,,,,,METAR,567.0
DAUU 160700Z 36006KT CAVOK 19/05 Q1014,DAUU,2023-05-16T07:00:00Z,31.92,5.4,19.0,5.0,360,6,,6.21,29.940945,,,,,,,,,,,CAVOK,,,,,,,,VFR,,,,,,,,,,,,METAR,147.0
DAUT 160700Z 05005KT CAVOK 19/M07 Q1014,DAUT,2023-05-16T07:00:00Z,29.25,0.27,19.0,-7.0,50,5,,6.21,29.940945,,,,,,,,,,,CAVOK,,,,,,,,VFR,,,,,,,,,,,,METAR,307.0
DAUO 160700Z 31003KT 270V360 CAVOK 19/11 Q1013,DAUO,2023-05-16T07:00:00Z,33.5,6.78,19.0,11.0,310,3,,6.21,29.911417,,,,,,,,,,,CAVOK,,,,,,,,VFR,,,,,,,,,,,,METAR,55.0
DAUL 160700Z 25010KT CAVOK 16/01 Q1016,DAUL,2023-05-16T07:00:00Z,33.77,2.92,16.0,1.0,250,10,,6.21,30.0,,,,,,,,,,,CAVOK,,,,,,,,VFR,,,,,,,,,,,,METAR,755.0
DAUK 160700Z VRB02KT 9999 FEW040 19/10 Q1014,DAUK,2023-05-16T07:00:00Z,33.08,6.08,19.0,10.0,0,2,,6.21,29.940945,,,,,,,,,,,FEW,4000,,,,,,,VFR,,,,,,,,,,,,METAR,83.0
DAUI 160700Z 08003KT 050V120 CAVOK 20/M04 Q1015,DAUI,2023-05-16T07:00:00Z,27.25,2.52,20.0,-4.0,80,3,,6.21,29.970472,,,,,,,,,,,CAVOK,,,,,,,,VFR,,,,,,,,,,,,METAR,271.0
DAUH 160700Z 36004KT CAVOK 20/03 Q1013,DAUH,2023-05-16T07:00:00Z,31.67,6.15,20.0,3.0,360,4,,6.21,29.911417,,,,,,,,,,,CAVOK,,,,,,,,VFR,,,,,,,,,,,,METAR,141.0
DAUG 160700Z 34006KT CAVOK 19/00 Q1016,DAUG,2023-05-16T07:00:00Z,32.38,3.78,19.0,0.0,340,6,,6.21,30.0,,,,,,,,,,,CAVOK,,,,,,,,VFR,,,,,,,,,,,,METAR,444.0
DAUE 160700Z VRB01KT CAVOK 21/M02 Q1016,DAUE,2023-05-16T07:00:00Z,30.57,2.87,21.0,-2.0,0,1,,6.21,30.0,,,,,,,,,,,CAVOK,,,,,,,,VFR,,,,,,,,,,,,METAR,396.0
DAUB 160700Z 32005KT 230V020 CAVOK 18/03 Q1013,DAUB,2023-05-16T07:00:00Z,34.78,5.73,18.0,3.0,320,5,,6.21,29.911417,,,,,,,,,,,CAVOK,,,,,,,,VFR,,,,,,,,,,,,METAR,75.0
DAUA 160700Z 13011KT CAVOK 22/M07 Q1014,DAUA,2023-05-16T07:00:00Z,27.83,-0.18,22.0,-7.0,130,11,,6.21,29.940945,,,,,,,,,,,CAVOK,,,,,,,,VFR,,,,,,,,,,,,METAR,278.0
DATM 160700Z 02015KT CAVOK 24/M10 Q1013,DATM,2023-05-16T07:00:00Z,21.38,0.92,24.0,-10.0,20,15,,6.21,29.911417,,,,,,,,,,,CAVOK,,,,,,,,VFR,,,,,,,,,,,,METAR,398.0
DAOY 160700Z VRB02KT CAVOK 13/M00 Q1016,DAOY,2023-05-16T07:00:00Z,33.72,1.08,13.0,0.0,0,2,,6.21,30.0,,,,,,,,,,,CAVOK,,,,,,,,VFR,,,,,,,,,,,,METAR,1340.0
DAOV 160700Z VRB02KT CAVOK 18/00 Q1015,DAOV,2023-05-16T07:00:00Z,35.2,0.15,18.0,0.0,0,2,,6.21,29.970472,,,,,,,,,,,CAVOK,,,,,,,,VFR,,,,,,,,,,,,METAR,506.0
DAOR 160700Z 10009KT 8000 NSC 21/M04 Q1016,DAOR,2023-05-16T07:00:00Z,31.65,-2.27,21.0,-4.0,100,9,,4.97,30.0,,,,,,,,,,,CLR,,,,,,,,MVFR,,,,,,,,,,,,METAR,809.0
DAOO 160700Z VRB02KT CAVOK 20/05 Q1013,DAOO,2023-05-16T07:00:00Z,35.62,-0.62,20.0,5.0,0,2,,6.21,29.911417,,,,,,,,,,,CAVOK,,,,,,,,VFR,,,,,,,,,,,,METAR,87.0
DAON 160700Z 12003KT CAVOK 18/01 Q1014,DAON,2023-05-16T07:00:00Z,35.02,-1.47,18.0,1.0,120,3,,6.21,29.940945,,,,,,,,,,,CAVOK,,,,,,,,VFR,,,,,,,,,,,,METAR,245.0
DAOL 160700Z 25008KT CAVOK 21/07 Q1014,DAOL,2023-05-16T07:00:00Z,35.53,-0.52,21.0,7.0,250,8,,6.21,29.940945,,,,,,,,,,,CAVOK,,,,,,,,VFR,,,,,,,,,,,,METAR,103.0
DAOI 160700Z 07006KT 9999 FEW023 BKN026 18/05 Q1014,DAOI,2023-05-16T07:00:00Z,36.22,1.32,18.0,5.0,70,6,,6.21,29.940945,,,,,,,,,,,FEW,2300,BKN,2600,,,,,MVFR,,,,,,,,,,,,METAR,141.0
DAOF 160700Z 27018KT 9999 FEW046 SCT100 19/08 Q1013,DAOF,2023-05-16T07:00:00Z,27.7,-8.17,19.0,8.0,270,18,,6.21,29.911417,,,,,,,,,,,FEW,4600,SCT,10000,,,,,VFR,,,,,,,,,,,,METAR,441.0
DAOB 160700Z 25006KT 9999 FEW023 15/M01 Q1016,DAOB,2023-05-16T07:00:00Z,35.33,1.47,15.0,-1.0,250,6,,6.21,30.0,,,,,,,,,,,FEW,2300,,,,,,,VFR,,,,,,,,,,,,METAR,976.0
DAFH 160700Z 32004KT CAVOK 17/M02 Q1016,DAFH,2023-05-16T07:00:00Z,32.93,3.32,17.0,-2.0,320,4,,6.21,30.0,,,,,,,,,,,CAVOK,,,,,,,,VFR,,,,,,,,,,,,METAR,774.0
DABT 160700Z 00000KT 9999 FEW026 11/05 Q1014,DABT,2023-05-16T07:00:00Z,35.75,6.32,11.0,5.0,0,0,,6.21,29.940945,,,,,,,,,,,FEW,2600,,,,,,,VFR,,,,,,,,,,,,METAR,813.0
DABS 160700Z 32009KT 9999 FEW033 12/04 Q1013,DABS,2023-05-16T07:00:00Z,35.43,8.12,12.0,4.0,320,9,,6.21,29.911417,,,,,,,,,,,FEW,3300,,,,,,,VFR,,,,,,,,,,,,METAR,806.0
DABC 160700Z VRB02KT 9999 BKN033 10/06 Q1014,DABC,2023-05-16T07:00:00Z,36.27,6.62,10.0,6.0,0,2,,6.21,29.940945,,,,,,,,,,,BKN,3300,,,,,,,VFR,,,,,,,,,,,,METAR,686.0
DABB 160700Z 24013KT 9999 FEW020 FEW026CB SCT033 17/11 Q1010,DABB,2023-05-16T07:00:00Z,36.82,7.82,17.0,11.0,240,13,,6.21,29.822834,,,,,,,,,,,FEW,2000,FEW,2600,SCT,3300,,,VFR,,,,,,,,,,,,METAR,3.0
DAAY 160700Z 24007KT CAVOK 14/M02 Q1019,DAAY,2023-05-16T07:00:00Z,33.53,-0.25,14.0,-2.0,240,7,,6.21,30.088583,,,,,,,,,,,CAVOK,,,,,,,,VFR,,,,,,,,,,,,METAR,1116.0
DAAV 160700Z 18003KT 9999 FEW023TCU FEW026CB 18/10 Q1012,DAAV,2023-05-16T07:00:00Z,36.8,5.88,18.0,10.0,180,3,,6.21,29.88189,,,,,,,,,,,FEW,2300,FEW,2600,,,,,VFR,,,,,,,,,,,,METAR,11.0
DAAT 160700Z VRB02KT CAVOK 22/M12 Q1017,DAAT,2023-05-16T07:00:00Z,22.82,5.47,22.0,-12.0,0,2,,6.21,30.029528,,,,,,,,,,,CAVOK,,,,,,,,VFR,,,,,,,,,,,,METAR,1376.0
DAAS 160700Z 26005KT CAVOK 10/04 Q1014,DAAS,2023-05-16T07:00:00Z,36.18,5.33,10.0,4.0,260,5,,6.21,29.940945,,,,,,,,,,,CAVOK,,,,,,,,VFR,,,,,,,,,,,,METAR,1012.0
DAAP 160700Z 14009KT CAVOK 20/01 Q1018,DAAP,2023-05-16T07:00:00Z,26.72,8.62,20.0,1.0,140,9,,6.21,30.059055,,,,,,,,,,,CAVOK,,,,,,,,VFR,,,,,,,,,,,,METAR,542.0
DAAJ 160700Z 02014KT 7000 NSC 22/M05 Q1016,DAAJ,2023-05-16T07:00:00Z,24.28,9.47,22.0,-5.0,20,14,,4.35,30.0,,,,,,,,,,,CLR,,,,,,,,MVFR,,,,,,,,,,,,METAR,962.0
DAAG 160700Z 22006KT 190V250 9999 FEW023 SCT090 18/11 Q1013,DAAG,2023-05-16T07:00:00Z,36.68,3.22,18.0,11.0,220,6,,6.21,29.911417,,,,,,,,,,,FEW,2300,SCT,9000,,,,,VFR,,,,,,,,,,,,METAR,18.0
DAAE 160700Z 26009KT CAVOK 16/08 Q1012,DAAE,2023-05-16T07:00:00Z,36.72,5.07,16.0,8.0,260,9,,6.21,29.88189,,,,,,,,,,,CAVOK,,,,,,,,VFR,,,,,,,,,,,,METAR,1.0
DAAD 160700Z 27010KT CAVOK 17/04 Q1015,DAAD,2023-05-16T07:00:00Z,35.32,4.2,17.0,4.0,270,10,,6.21,29.970472,,,,,,,,,,,CAVOK,,,,,,,,VFR,,,,,,,,,,,,METAR,461.0
CZZJ 160700Z AUTO 29006KT 14/05 RMK AO1 SLP144 T01350052 53003,CZZJ,2023-05-16T07:00:00Z,53.58,-116.47,13.5,5.2,290,6,,,,1014.4,,TRUE,TRUE,,,,,,,,,,,,,,,,0.3,,,,,,,,,,,METAR,927.0
CZVL 160700Z AUTO 18009KT 9SM CLR 17/08 A2988 RMK SLP115 DENSITY ALT 3100FT,CZVL,2023-05-16T07:00:00Z,53.67,-113.85,17.0,8.0,180,9,,9.0,29.878937,1011.5,,TRUE,,,,,,,,CLR,,,,,,,,VFR,,,,,,,,,,,,METAR,685.0
CZTB 160700Z AUTO 27010KT 18/03 RMK AO1 SLP083 T01840034 56031,CZTB,2023-05-16T07:00:00Z,48.37,-89.32,18.4,3.4,270,10,,,,1008.3,,TRUE,TRUE,,,,,,,,,,,,,,,,-3.1,,,,,,,,,,,METAR,197.0
CZSP 160700Z AUTO 24006KT 11/05 RMK AO1 SLP982 T01130050 56014,CZSP,2023-05-16T07:00:00Z,46.45,-62.58,11.3,5.0,240,6,,,,998.2,,TRUE,TRUE,,,,,,,,,,,,,,,,-1.4,,,,,,,,,,,METAR,31.0
CZSM 160700Z AUTO 25011G20KT 10/05 RMK AO1 PK WND 25024/0641 SLP108 T01000053 58003,CZSM,2023-05-16T07:00:00Z,60.03,-111.93,10.0,5.3,250,11,20,,,1010.8,,TRUE,TRUE,,,,,,,,,,,,,,,,-0.3,,,,,,,,,,,SPECI,203.0
CZSJ 160700Z AUTO 04004KT 360V070 9SM CLR 03/M01 A3015 RMK SLP218,CZSJ,2023-05-16T07:00:00Z,53.07,-93.35,3.0,-1.0,40,4,,9.0,30.15059,1021.8,,TRUE,,,,,,,,CLR,,,,,,,,VFR,,,,,,,,,,,,METAR,286.0
CZPC 160700Z AUTO 26009KT 9SM CLR 13/08 A3003 RMK SLP158 DENSITY ALT 4500FT,CZPC,2023-05-16T07:00:00Z,49.52,-114.0,13.0,8.0,260,9,,9.0,30.029528,1015.8,,TRUE,,,,,,,,CLR,,,,,,,,VFR,,,,,,,,,,,,SPECI,1187.0
CZOL 160700Z AUTO 19003KT 20/07 RMK AO1 T02040072,CZOL,2023-05-16T07:00:00Z,53.65,-113.35,20.4,7.2,190,3,,,,,,TRUE,TRUE,,,,,,,,,,,,,,,,,,,,,,,,,,,METAR,645.0
CZMJ 160700Z AUTO 20010KT 13/05 RMK AO1 SLP194 T01300052 56011,CZMJ,2023-05-16T07:00:00Z,50.33,-105.53,13.0,5.2,200,10,,,,1019.4,,TRUE,TRUE,,,,,,,,,,,,,,,,-1.1,,,,,,,,,,,METAR,571.0
CZMD 160700Z AUTO 03008KT 9SM OVC016 02/M01 A3016 RMK SLP226,CZMD,2023-05-16T07:00:00Z,53.43,-91.77,2.0,-1.0,30,8,,9.0,30.159449,1022.6,,TRUE,,,,,,,,OVC,1600,,,,,,,MVFR,,,,,,,,,,,,METAR,276.0
CZKD 160700Z AUTO 09005KT 01/M01 RMK AO1 SLP267 T00071013 53003,CZKD,2023-05-16T07:00:00Z,56.03,-96.52,0.7,-1.3,90,5,,,,1026.7,,TRUE,TRUE,,,,,,,,,,,,,,,,0.3,,,,,,,,,,,METAR,190.0
CZHY 160700Z AUTO 32015G21KT 05/04 RMK AO1 2PAST HR 3018 PK WND 31021/0604 SLP186 P0001 T00460041 50002,CZHY,2023-05-16T07:00:00Z,60.83,-115.78,4.6,4.1,320,15,21,,,1018.6,,TRUE,TRUE,,,,,,,,,,,,,,,,0.2,,,,,0.01,,,,,,SPECI,159.0
CZFS 160700Z AUTO 32003KT 05/04 RMK AO1 SLP251 T00510039 51011,CZFS,2023-05-16T07:00:00Z,61.77,-121.23,5.1,3.9,320,3,,,,1025.1,,TRUE,TRUE,,,,,,,,,,,,,,,,1.1,,,,,,,,,,,SPECI,174.0
CZEV 160700Z AUTO 09006KT 11/M02 RMK AO1 SLP205 T01101019 53007,CZEV,2023-05-16T07:00:00Z,68.32,-133.48,11.0,-1.9,90,6,,,,1020.5,,TRUE,TRUE,,,,,,,,,,,,,,,,0.7,,,,,,,,,,,SPECI,92.0
CZEL 160700Z AUTO 23003KT 07/M01 RMK AO1 SLP132 T00691006 58028,CZEL,2023-05-16T07:00:00Z,43.65,-80.42,6.9,-0.6,230,3,,,,1013.2,,TRUE,TRUE,,,,,,,,,,,,,,,,-2.8,,,,,,,,,,,METAR,370.0
CZDB 160700Z AUTO 24003KT 09/06 RMK AO1 SLP005 T00850059 56015,CZDB,2023-05-16T07:00:00Z,45.42,-63.47,8.5,5.9,240,3,,,,1000.5,,TRUE,TRUE,,,,,,,,,,,,,,,,-1.5,,,,,,,,,,,METAR,38.0
CZCR 160700Z AUTO 26004KT 09/05 RMK AO1 SLP983 T00870053 56002,CZCR,2023-05-16T07:00:00Z,47.98,-66.33,8.7,5.3,260,4,,,,998.3,,TRUE,TRUE,,,,,,,,,,,,,,,,-0.2,,,,,,,,,,,METAR,39.0
CZCP 160700Z AUTO 24011KT ////SM ////// 07/M01 A3004,CZCP,2023-05-16T07:00:00Z,70.17,-124.68,7.0,-1.0,240,11,,,30.041338,,,TRUE,,,,,,,,,,,,,,,,,,,,,,,,,,,,SPECI,23.0
CZBF 160700Z AUTO 29008G17KT 9SM CLR 09/06 A2948 RMK SLP986,CZBF,2023-05-16T07:00:00Z,47.62,-65.75,9.0,6.0,290,8,17,9.0,29.480314,998.6,,TRUE,,,,,,,,CLR,,,,,,,,VFR,,,,,,,,,,,,SPECI,60.0
CYZY 160700Z AUTO 32003KT 280V350 3/4SM HZ OVC026 18/04 A3009 RMK SLP191 DENSITY ALT 3000FT,CYZY,2023-05-16T07:00:00Z,55.3,-123.13,18.0,4.0,320,3,,0.75,30.088583,1019.1,,TRUE,,,,,,,HZ,OVC,2600,,,,,,,LIFR,,,,,,,,,,,,SPECI,694.0
CYZX 160700Z 21009KT 10SM -SHRA OVC055 10/07 A2958 RMK SC8 DENSITY ALT 73FT SLP017,CYZX,2023-05-16T07:00:00Z,44.98,-64.92,10.0,7.0,210,9,,10.0,29.58071,1001.7,,,,,,,,,-SHRA,OVC,5500,,,,,,,VFR,,,,,,,,,,,,SPECI,28.0
CYZV 160700Z 01005KT 15SM SCT080 BKN220 04/M03 A2946 RMK AC4CI2 SLP978,CYZV,2023-05-16T07:00:00Z,50.22,-66.27,4.0,-3.0,10,5,,15.0,29.459646,997.8,,,,,,,,,,SCT,8000,BKN,22000,,,,,VFR,,,,,,,,,,,,SPECI,43.0
CYZT 160700Z 22003KT 170V250 15SM FEW210 12/10 A2999 RMK CI1 SLP158,CYZT,2023-05-16T07:00:00Z,50.68,-127.37,12.0,10.0,220,3,,15.0,29.991142,1015.8,,,,,,,,,,FEW,21000,,,,,,,VFR,,,,,,,,,,,,SPECI,13.0
CYZS 160700Z 34025KT 15SM FEW025 BKN110 M08/M10 A3005 RMK SC1AC5 SLP186,CYZS,2023-05-16T07:00:00Z,64.2,-83.35,-8.0,-10.0,340,25,,15.0,30.050198,1018.6,,,,,,,,,,FEW,2500,BKN,11000,,,,,VFR,,,,,,,,,,,,SPECI,60.0
CYZR 160700Z AUTO 25009KT 9SM CLR 13/03 A2994 RMK SLP142,CYZR,2023-05-16T07:00:00Z,43.0,-82.3,13.0,3.0,250,9,,9.0,29.940945,1014.2,,TRUE,,,,,,,,CLR,,,,,,,,VFR,,,,,,,,,,,,SPECI,181.0
CYZP 160700Z AUTO 33005KT 9SM CLR 15/09 A3004 RMK SLP175,CYZP,2023-05-16T07:00:00Z,53.25,-131.82,15.0,9.0,330,5,,9.0,30.041338,1017.5,,TRUE,,,,,,,,CLR,,,,,,,,VFR,,,,,,,,,,,,SPECI,7.0
CYZH 160700Z AUTO 29012G19KT 3SM HZ OVC071 15/09 A2992 RMK PRESRR SLP136 DENSITY ALT 2400FT,CYZH,2023-05-16T07:00:00Z,55.28,-114.77,15.0,9.0,290,12,19,3.0,29.920275,1013.6,,TRUE,,,,,,,HZ,OVC,7100,,,,,,,MVFR,,,,,,,,,,,,SPECI,583.0
CYZE 160700Z AUTO 28012G17KT 9SM CLR 12/02 A2981 RMK SLP098,CYZE,2023-05-16T07:00:00Z,45.88,-82.57,12.0,2.0,280,12,17,9.0,29.811024,1009.8,,TRUE,,,,,,,,CLR,,,,,,,,VFR,,,,,,,,,,,,SPECI,189.0
CYYZ 160700Z 25004KT 15SM FEW260 13/00 A2987 RMK CI1 SLP118,CYYZ,2023-05-16T07:00:00Z,43.67,-79.62,13.0,0.0,250,4,,15.0,29.870079,1011.8,,,,,,,,,,FEW,26000,,,,,,,VFR,,,,,,,,,,,,SPECI,171.0
CYYY 160700Z 26012G17KT 15SM BKN190 08/05 A2950 RMK CI5 SLP994,CYYY,2023-05-16T07:00:00Z,48.6,-68.22,8.0,5.0,260,12,17,15.0,29.500984,999.4,,,,,,,,,,BKN,19000,,,,,,,VFR,,,,,,,,,,,,SPECI,43.0
CYYU 160700Z 02010KT 5SM -RA SCT006 OVC016 04/04 A2982 RMK SC4SC4 SLP105,CYYU,2023-05-16T07:00:00Z,49.42,-82.47,4.0,4.0,20,10,,5.0,29.819881,1010.5,,,,,,,,,-RA,SCT,600,OVC,1600,,,,,MVFR,,,,,,,,,,,,SPECI,228.0
CYYR 160700Z 31005KT 15SM SCT040 SCT060 BKN075 01/M01 A2938 RMK SC3SC1AC2 DENSITY ALT -867FT SLP951,CYYR,2023-05-16T07:00:00Z,53.32,-60.42,1.0,-1.0,310,5,,15.0,29.379921,995.1,,,,,,,,,,SCT,4000,SCT,6000,BKN,7500,,,VFR,,,,,,,,,,,,SPECI,42.0
CYYQ 160700Z 30003KT 270V340 15SM OVC012 M02/M04 A3034 RMK SC8 SLP277,CYYQ,2023-05-16T07:00:00Z,58.75,-94.07,-2.0,-4.0,300,3,,15.0,30.339567,1027.7,,,,,,,,,,OVC,1200,,,,,,,MVFR,,,,,,,,,,,,SPECI,20.0
CYYN 160700Z AUTO 16010KT 9SM CLR 13/07 A3006 RMK ICE MISG SLP176 DENSITY ALT 3000FT,CYYN,2023-05-16T07:00:00Z,50.28,-107.68,13.0,7.0,160,10,,9.0,30.059055,1017.6,,TRUE,,,,,,,,CLR,,,,,,,,VFR,,,,,,,,,,,,SPECI,814.0
CYYL 160700Z AUTO 09012KT 9SM SCT011 03/01 A3018 RMK SLP236,CYYL,2023-05-16T07:00:00Z,56.87,-101.07,3.0,1.0,90,12,,9.0,30.180119,1023.6,,TRUE,,,,,,,,SCT,1100,,,,,,,VFR,,,,,,,,,,,,SPECI,351.0
CYYJ 160700Z VRB10G15KT 20SM FEW075 FEW250 18/10 A2998 RMK AC1CI1 PRESRR SLP153 DENSITY ALT 500FT,CYYJ,2023-05-16T07:00:00Z,48.63,-123.42,18.0,10.0,0,10,15,20.0,29.97933,1015.3,,,,,,,,,,FEW,7500,FEW,25000,,,,,VFR,,,,,,,,,,,,SPECI,16.0
CYYH 160700Z 21012KT 10SM VCFG SCT003 BKN037 M07/M07 A3025 RMK ST3SC4 SLP249,CYYH,2023-05-16T07:00:00Z,69.53,-93.57,-7.0,-7.0,210,12,,10.0,30.250984,1024.9,,,,,,,,,VCFG,SCT,300,BKN,3700,,,,,VFR,,,,,,,,,,,,SPECI,19.0
CYYG 160700Z 23006KT 15SM OVC040 11/05 A2948 RMK SC8 SLP986,CYYG,2023-05-16T07:00:00Z,46.28,-63.12,11.0,5.0,230,6,,15.0,29.480314,998.6,,,,,,,,,,OVC,4000,,,,,,,VFR,,,,,,,,,,,,SPECI,48.0
CYYF 160700Z 00000KT 15SM SCT140 19/11 A2998 RMK AC3 SLP151 DENSITY ALT 1800FT,CYYF,2023-05-16T07:00:00Z,49.47,-119.6,19.0,11.0,0,0,,15.0,29.97933,1015.1,,,,,,,,,,SCT,14000,,,,,,,VFR,,,,,,,,,,,,SPECI,342.0
CYYE 160700Z 31005KT 15SM FEW130 13/04 A3020 RMK AC1 SLP238,CYYE,2023-05-16T07:00:00Z,58.83,-122.58,13.0,4.0,310,5,,15.0,30.200787,1023.8,,,,,,,,,,FEW,13000,,,,,,,VFR,,,,,,,,,,,,SPECI,379.0
CYYD 160700Z AUTO 00000KT 9SM CLR 14/05 A3003 RMK SLP172 DENSITY ALT 2000FT,CYYD,2023-05-16T07:00:00Z,54.82,-127.18,14.0,5.0,0,0,,9.0,30.029528,1017.2,,TRUE,,,,,,,,CLR,,,,,,,,VFR,,,,,,,,,,,,SPECI,527.0
CYYC 160700Z 18003KT 15SM SCT190 18/07 A2997 RMK AC3 SLP137 DENSITY ALT 4800FT,CYYC,2023-05-16T07:00:00Z,51.12,-114.02,18.0,7.0,180,3,,15.0,29.970472,1013.7,,,,,,,,,,SCT,19000,,,,,,,VFR,,,,,,,,,,,,SPECI,1085.0
CYYB 160700Z AUTO 24008KT 9SM FEW130 OVC150 11/03 A2973 RMK SLP073,CYYB,2023-05-16T07:00:00Z,46.35,-79.42,11.0,3.0,240,8,,9.0,29.731298,1007.3,,TRUE,,,,,,,,FEW,13000,OVC,15000,,,,,VFR,,,,,,,,,,,,SPECI,360.0
CYXY 160700Z 24005KT 200V260 20SM FEW260 09/M06 A3020 RMK CI1 CI TR SLP249,CYXY,2023-05-16T07:00:00Z,60.72,-135.07,9.0,-6.0,240,5,,20.0,30.200787,1024.9,,,,,,,,,,FEW,26000,,,,,,,VFR,,,,,,,,,,,,SPECI,677.0
CYXX 160700Z 19025G35KT 15SM FEW130 SCT150 21/11 A2999 RMK AC2AC2 SLP158 DENSITY ALT 900FT,CYXX,2023-05-16T07:00:00Z,49.03,-122.38,21.0,11.0,190,25,35,15.0,29.991142,1015.8,,,,,,,,,,FEW,13000,SCT,15000,,,,,VFR,,,,,,,,,,,,SPECI,54.0
CYXU 160700Z 25008KT 15SM SKC 10/03 A2994 RMK SLP142,CYXU,2023-05-16T07:00:00Z,43.03,-81.15,10.0,3.0,250,8,,15.0,29.940945,1014.2,,,,,,,,,,SKC,,,,,,,,VFR,,,,,,,,,,,,SPECI,278.0
CYXT 160700Z 31006KT 20SM SKC 16/04 A3004 RMK SLP176,CYXT,2023-05-16T07:00:00Z,54.47,-128.57,16.0,4.0,310,6,,20.0,30.041338,1017.6,,,,,,,,,,SKC,,,,,,,,VFR,,,,,,,,,,,,SPECI,213.0
CYXS 160700Z AUTO 19003KT 9SM CLR 14/08 A2996 RMK SLP148 DENSITY ALT 2700FT,CYXS,2023-05-16T07:00:00Z,53.88,-122.68,14.0,8.0,190,3,,9.0,29.958662,1014.8,,TRUE,,,,,,,,CLR,,,,,,,,VFR,,,,,,,,,,,,SPECI,685.0
CYXL 160700Z 02008G20KT 340V050 15SM SCT070 BKN220 16/06 A2991 RMK AC4CI2 SLP130 DENSITY ALT 1700FT,CYXL,2023-05-16T07:00:00Z,50.12,-91.9,16.0,6.0,20,8,20,15.0,29.911417,1013.0,,,,,,,,,,SCT,7000,BKN,22000,,,,,VFR,,,,,,,,,,,,SPECI,381.0
CYXJ 160700Z 34008KT 15SM OVC070 14/03 A3017 RMK FU8 SLP225,CYXJ,2023-05-16T07:00:00Z,56.25,-120.73,14.0,3.0,340,8,,15.0,30.171259,1022.5,,,,,,,,,,OVC,7000,,,,,,,VFR,,,,,,,,,,,,SPECI,700.0
CYXH 160700Z AUTO 00000KT 9SM CLR 16/09 A2997 RMK SLP144 DENSITY ALT 3000FT,CYXH,2023-05-16T07:00:00Z,50.02,-110.72,16.0,9.0,0,0,,9.0,29.970472,1014.4,,TRUE,,,,,,,,CLR,,,,,,,,VFR,,,,,,,,,,,,SPECI,717.0
CYXE 160700Z 17009KT 15SM SKC 15/06 A3002 RMK FU SLP169 DENSITY ALT 2000FT,CYXE,2023-05-16T07:00:00Z,52.17,-106.7,15.0,6.0,170,9,,15.0,30.02067,1016.9,,,,,,,,,,SKC,,,,,,,,VFR,,,,,,,,,,,,SPECI,504.0
CYXC 160700Z 16014G21KT 25SM SCT110 SCT220 18/09 A3009 RMK AC3CI1 SLP174 DENSITY ALT 4000FT,CYXC,2023-05-16T07:00:00Z,49.6,-115.78,18.0,9.0,160,14,21,25.0,30.088583,1017.4,,,,,,,,,,SCT,11000,SCT,22000,,,,,VFR,,,,,,,,,,,,SPECI,928.0
CYWL 160700Z 32003KT 15SM FEW230 20/02 A3002 RMK CI1 SLP153 DENSITY ALT 4300FT,CYWL,2023-05-16T07:00:00Z,52.18,-122.07,20.0,2.0,320,3,,15.0,30.02067,1015.3,,,,,,,,,,FEW,23000,,,,,,,VFR,,,,,,,,,,,,SPECI,942.0
CYWK 160700Z AUTO 31007KT 9SM CLR M04/M08 A2945 RMK SLP996,CYWK,2023-05-16T07:00:00Z,52.92,-66.87,-4.0,-8.0,310,7,,9.0,29.450787,999.6,,TRUE,,,,,,,,CLR,,,,,,,,VFR,,,,,,,,,,,,SPECI,547.0
CYWG 160700Z 32009KT 15SM FEW070 12/05 A2998 RMK AC2 SLP154,CYWG,2023-05-16T07:00:00Z,49.9,-97.23,12.0,5.0,320,9,,15.0,29.97933,1015.4,,,,,,,,,,FEW,7000,,,,,,,VFR,,,,,,,,,,,,SPECI,238.0
CYWE 160700Z AUTO 05006KT 9SM BKN096 OVC120 08/04 A3010 RMK ICE MISG SLP210,CYWE,2023-05-16T07:00:00Z,64.18,-114.08,8.0,4.0,50,6,,9.0,30.100393,1021.0,,TRUE,,,,,,,,BKN,9600,OVC,12000,,,,,VFR,,,,,,,,,,,,METAR,374.0
CYVV 160700Z 23007KT 15SM OVC250 10/03 A2987 RMK CS8 SLP118,CYVV,2023-05-16T07:00:00Z,44.75,-81.1,10.0,3.0,230,7,,15.0,29.870079,1011.8,,,,,,,,,,OVC,25000,,,,,,,VFR,,,,,,,,,,,,SPECI,221.0
CYVT 160700Z AUTO 15008KT 3/4SM HZ OVC006 18/08 A2989 RMK SLP128 DENSITY ALT 2200FT,CYVT,2023-05-16T07:00:00Z,55.83,-108.42,18.0,8.0,150,8,,0.75,29.890747,1012.8,,TRUE,,,,,,,HZ,OVC,600,,,,,,,LIFR,,,,,,,,,,,,SPECI,438.0
CYVR 160700Z 13017KT 20SM FEW150 FEW230 19/11 A2998 RMK AC1CI1 AC TR SLP154 DENSITY ALT 400FT,CYVR,2023-05-16T07:00:00Z,49.17,-123.17,19.0,11.0,130,17,,20.0,29.97933,1015.4,,,,,,,,,,FEW,15000,FEW,23000,,,,,VFR,,,,,,,,,,,,SPECI,2.0
CYVQ 160700Z 09006KT 060V130 30SM FEW190 FEW250 14/02 A3018 RMK AC1CI1 AC TR CI TR SLP224,CYVQ,2023-05-16T07:00:00Z,65.27,-126.78,14.0,2.0,90,6,,30.0,30.180119,1022.4,,,,,,,,,,FEW,19000,FEW,25000,,,,,VFR,,,,,,,,,,,,SPECI,63.0
CYVP 160700Z 32005KT 8SM -SN BKN038 OVC120 M03/M04 A2943 RMK SC6AC2 SLP972,CYVP,2023-05-16T07:00:00Z,58.12,-68.42,-3.0,-4.0,320,5,,8.0,29.430119,997.2,,,,,,,,,-SN,BKN,3800,OVC,12000,,,,,VFR,,,,,,,,,,,,SPECI,28.0
CYVM 160700Z AUTO 34007KT 9SM OVC038 M07/M10 A2988 RMK SLP119,CYVM,2023-05-16T07:00:00Z,67.55,-64.02,-7.0,-10.0,340,7,,9.0,29.878937,1011.9,,TRUE,,,,,,,,OVC,3800,,,,,,,VFR,,,,,,,,,,,,SPECI,3.0
CYVL 160700Z AUTO 21006KT 9SM CLR 10/M04 A3013 RMK SLP216,CYVL,2023-05-16T07:00:00Z,67.02,-126.13,10.0,-4.0,210,6,,9.0,30.129921,1021.6,,TRUE,,,,,,,,CLR,,,,,,,,VFR,,,,,,,,,,,,METAR,261.0
CYVC 160700Z 11008KT 6SM FU BKN090 15/02 A3003 RMK AC6 SLP174,CYVC,2023-05-16T07:00:00Z,55.15,-105.27,15.0,2.0,110,8,,6.0,30.029528,1017.4,,,,,,,,,FU,BKN,9000,,,,,,,VFR,,,,,,,,,,,,SPECI,378.0
CYUY 160700Z 02006KT 3SM -RA BR OVC013 06/06 A2975 RMK SC8 SLP084,CYUY,2023-05-16T07:00:00Z,48.2,-78.82,6.0,6.0,20,6,,3.0,29.749016,1008.4,,,,,,,,,-RA BR,OVC,1300,,,,,,,MVFR,,,,,,,,,,,,SPECI,304.0
CYUX 160700Z AUTO 33016KT 9SM CLR M13/M15 A3008 RMK SLP191,CYUX,2023-05-16T07:00:00Z,68.77,-81.22,-13.0,-15.0,330,16,,9.0,30.079725,1019.1,,TRUE,,,,,,,,CLR,,,,,,,,VFR,,,,,,,,,,,,SPECI,8.0
CYUL 160700Z 24008KT 15SM OVC100 15/02 A2970 RMK AS8 SLP058 DENSITY ALT 400FT,CYUL,2023-05-16T07:00:00Z,45.47,-73.73,15.0,2.0,240,8,,15.0,29.698818,1005.8,,,,,,,,,,OVC,10000,,,,,,,VFR,,,,,,,,,,,,SPECI,31.0
CYUA 160700Z AUTO 31016G25KT ////SM NCD ///// A////,CYUA,2023-05-16T07:00:00Z,68.92,-137.23,,,310,16,25,,,,,TRUE,,,,,,,,CLR,,,,,,,,,,,,,,,,,,,,SPECI,25.0
CYTZ 160700Z AUTO 28008KT 9SM CLR 10/05 A2988 RMK SLP121,CYTZ,2023-05-16T07:00:00Z,43.63,-79.4,10.0,5.0,280,8,,9.0,29.878937,1012.1,,TRUE,,,,,,,,CLR,,,,,,,,VFR,,,,,,,,,,,,METAR,76.0
CYTS 160700Z 03006KT 15SM -RA SCT007 OVC025 07/06 A2976 RMK SC4SC4 SLP083,CYTS,2023-05-16T07:00:00Z,48.57,-81.37,7.0,6.0,30,6,,15.0,29.760826,1008.3,,,,,,,,,-RA,SCT,700,OVC,2500,,,,,MVFR,,,,,,,,,,,,SPECI,290.0
CYTR 160700Z 23007KT 15SM FEW049 SCT075 11/05 A2982 RMK SC1AC3 DENSITY ALT 141FT SLP098,CYTR,2023-05-16T07:00:00Z,44.12,-77.52,11.0,5.0,230,7,,15.0,29.819881,1009.8,,,,,,,,,,FEW,4900,SCT,7500,,,,,VFR,,,,,,,,,,,,SPECI,80.0
CYTH 160700Z 09005KT 060V130 15SM BKN012 02/M01 A3025 RMK SC7 SLP253,CYTH,2023-05-16T07:00:00Z,55.8,-97.83,2.0,-1.0,90,5,,15.0,30.250984,1025.3,,,,,,,,,,BKN,1200,,,,,,,MVFR,,,,,,,,,,,,SPECI,212.0
CYTE 160700Z AUTO 36015KT 9SM CLR M07/M10 A2990 RMK SLP132,CYTE,2023-05-16T07:00:00Z,64.22,-76.52,-7.0,-10.0,360,15,,9.0,29.899607,1013.2,,TRUE,,,,,,,,CLR,,,,,,,,VFR,,,,,,,,,,,,SPECI,49.0
CYSM 160700Z 27015G22KT 15SM FEW023 FEW070 SCT160 10/05 A2982 RMK SC1AC1AC1 SLP104,CYSM,2023-05-16T07:00:00Z,60.03,-111.92,10.0,5.0,270,15,22,15.0,29.819881,1010.4,,,,,,,,,,FEW,2300,FEW,7000,SCT,16000,,,VFR,,,,,,,,,,,,SPECI,203.0
CYSJ 160700Z 23004KT 15SM BKN051 OVC094 11/04 A2957 RMK SC7AC1 SLP016,CYSJ,2023-05-16T07:00:00Z,45.32,-65.88,11.0,4.0,230,4,,15.0,29.568897,1001.6,,,,,,,,,,BKN,5100,OVC,9400,,,,,VFR,,,,,,,,,,,,SPECI,89.0
CYSF 160700Z AUTO 10013G20KT 9SM SCT081 BKN140 10/04 A2999 RMK SLP166,CYSF,2023-05-16T07:00:00Z,59.25,-105.83,10.0,4.0,100,13,20,9.0,29.991142,1016.6,,TRUE,,,,,,,,SCT,8100,BKN,14000,,,,,VFR,,,,,,,,,,,,SPECI,238.0
CYSB 160700Z 24005KT 15SM SCT150 BKN240 12/02 A2974 RMK AC3CI3 SLP075,CYSB,2023-05-16T07:00:00Z,46.63,-80.8,12.0,2.0,240,5,,15.0,29.740158,1007.5,,,,,,,,,,SCT,15000,BKN,24000,,,,,VFR,,,,,,,,,,,,SPECI,349.0
CYRV 160700Z AUTO VRB02KT 9SM CLR 11/08 A3002 RMK SLP168,CYRV,2023-05-16T07:00:00Z,50.97,-118.17,11.0,8.0,0,2,,9.0,30.02067,1016.8,,TRUE,,,,,,,,CLR,,,,,,,,VFR,,,,,,,,,,,,SPECI,456.0
CYRT 160700Z 34008KT 15SM SKC M04/M05 A3029 RMK SLP263,CYRT,2023-05-16T07:00:00Z,62.82,-92.12,-4.0,-5.0,340,8,,15.0,30.28937,1026.3,,,,,,,,,,SKC,,,,,,,,VFR,,,,,,,,,,,,SPECI,29.0
CYRJ 160700Z 31011KT 25SM SCT220 06/M01 A2963 RMK CI3 SLP041,CYRJ,2023-05-16T07:00:00Z,48.52,-72.27,6.0,-1.0,310,11,,25.0,29.630905,1004.1,,,,,,,,,,SCT,22000,,,,,,,VFR,,,,,,,,,,,,SPECI,173.0
CYRB 160700Z 17011KT 3SM -FZDZ BR OVC007 M06/M07 A3001 RMK ST8 SLP171,CYRB,2023-05-16T07:00:00Z,74.72,-94.97,-6.0,-7.0,170,11,,3.0,30.008858,1017.1,,,,,,,,,-FZDZ BR,OVC,700,,,,,,,IFR,,,,,,,,,,,,SPECI,59.0
CYQZ 160700Z AUTO VRB02KT 9SM CLR 12/08 A2996 RMK SLP149,CYQZ,2023-05-16T07:00:00Z,53.02,-122.52,12.0,8.0,0,2,,9.0,29.958662,1014.9,,TRUE,,,,,,,,CLR,,,,,,,,VFR,,,,,,,,,,,,SPECI,548.0
CYQY 160700Z 21006KT 15SM OVC056 10/07 A2948 RMK SC8 SLP986,CYQY,2023-05-16T07:00:00Z,46.17,-60.03,10.0,7.0,210,6,,15.0,29.480314,998.6,,,,,,,,,,OVC,5600,,,,,,,VFR,,,,,,,,,,,,SPECI,58.0
CYQX 160700Z 19005KT 150V230 15SM FEW032 BKN056 OVC072 07/04 A2937 RMK SC2SC5AC1 SLP950,CYQX,2023-05-16T07:00:00Z,48.95,-54.58,7.0,4.0,190,5,,15.0,29.371063,995.0,,,,,,,,,,FEW,3200,BKN,5600,OVC,7200,,,VFR,,,,,,,,,,,,SPECI,144.0
CYQW 160700Z AUTO 12008KT 9SM CLR 15/04 A3000 RMK SLP162 DENSITY ALT 2100FT,CYQW,2023-05-16T07:00:00Z,52.77,-108.25,15.0,4.0,120,8,,9.0,30.0,1016.2,,TRUE,,,,,,,,CLR,,,,,,,,VFR,,,,,,,,,,,,SPECI,545.0
CYQV 160700Z AUTO 00000KT 9SM CLR 14/07 A3006 RMK SLP185,CYQV,2023-05-16T07:00:00Z,51.27,-102.47,14.0,7.0,0,0,,9.0,30.059055,1018.5,,TRUE,,,,,,,,CLR,,,,,,,,VFR,,,,,,,,,,,,SPECI,493.0
CYQU 160700Z 35009KT 2SM FU VV015 17/06 A3008 RMK FU8 PRESRR SLP190 DENSITY ALT 2800FT,CYQU,2023-05-16T07:00:00Z,55.18,-118.88,17.0,6.0,350,9,,2.0,30.079725,1019.0,,,,,,,,,FU,OVX,0,,,,,,,LIFR,,,,,,,,,,,1500,SPECI,668.0
CYQT 160700Z 26011KT 15SM BKN095 OVC250 19/03 A2977 RMK AC5CI3 SLP083 DENSITY ALT 1500FT,CYQT,2023-05-16T07:00:00Z,48.37,-89.32,19.0,3.0,260,11,,15.0,29.769686,1008.3,,,,,,,,,,BKN,9500,OVC,25000,,,,,VFR,,,,,,,,,,,,SPECI,197.0
CYQR 160700Z 12006KT 15SM SKC 14/04 A3008 RMK SLP193 DENSITY ALT 2100FT,CYQR,2023-05-16T07:00:00Z,50.43,-104.67,14.0,4.0,120,6,,15.0,30.079725,1019.3,,,,,,,,,,SKC,,,,,,,,VFR,,,,,,,,,,,,SPECI,576.0
CYQQ 160700Z 30008KT 20SM SKC 21/11 A2995 RMK DENSITY ALT 957FT SLP142,CYQQ,2023-05-16T07:00:00Z,49.72,-124.9,21.0,11.0,300,8,,20.0,29.949802,1014.2,,,,,,,,,,SKC,,,,,,,,VFR,,,,,,,,,,,,SPECI,24.0
CYQM 160700Z 27012KT 15SM SCT160 BKN170 BKN180 11/04 A2951 RMK AC4AC2AC1 AC TR SLP994,CYQM,2023-05-16T07:00:00Z,46.12,-64.67,11.0,4.0,270,12,,15.0,29.509842,999.4,,,,,,,,,,SCT,16000,BKN,17000,BKN,18000,,,VFR,,,,,,,,,,,,SPECI,67.0
CYQL 160700Z AUTO 21009KT 9SM CLR 15/07 A2997 RMK SLP143 DENSITY ALT 3700FT,CYQL,2023-05-16T07:00:00Z,49.63,-112.8,15.0,7.0,210,9,,9.0,29.970472,1014.3,,TRUE,,,,,,,,CLR,,,,,,,,VFR,,,,,,,,,,,,SPECI,923.0
CYQK 160700Z 33007KT 15SM OVC070 17/06 A2994 RMK FU8 SLP139 DENSITY ALT 2000FT,CYQK,2023-05-16T07:00:00Z,49.78,-94.37,17.0,6.0,330,7,,15.0,29.940945,1013.9,,,,,,,,,,OVC,7000,,,,,,,VFR,,,,,,,,,,,,SPECI,413.0
CYQI 160700Z 26009KT 15SM FEW076 OVC098 10/06 A2965 RMK AC1AC8 AC TR SLP042,CYQI,2023-05-16T07:00:00Z,43.83,-66.08,10.0,6.0,260,9,,15.0,29.648623,1004.2,,,,,,,,,,FEW,7600,OVC,9800,,,,,VFR,,,,,,,,,,,,SPECI,37.0
CYQH 160700Z VRB02KT 30SM SKC 06/M01 A3019 RMK SLP242,CYQH,2023-05-16T07:00:00Z,60.12,-128.82,6.0,-1.0,0,2,,30.0,30.188976,1024.2,,,,,,,,,,SKC,,,,,,,,VFR,,,,,,,,,,,,SPECI,692.0
CYQG 160700Z AUTO 24003KT 9SM CLR 10/05 A2999 RMK SLP156,CYQG,2023-05-16T07:00:00Z,42.27,-82.97,10.0,5.0,240,3,,9.0,29.991142,1015.6,,TRUE,,,,,,,,CLR,,,,,,,,VFR,,,,,,,,,,,,SPECI,189.0
CYQF 160700Z AUTO 00000KT 9SM CLR 14/06 A2995 RMK SLP142 DENSITY ALT 3600FT,CYQF,2023-05-16T07:00:00Z,52.17,-113.9,14.0,6.0,0,0,,9.0,29.949802,1014.2,,TRUE,,,,,,,,CLR,,,,,,,,VFR,,,,,,,,,,,,SPECI,912.0
CYQD 160700Z AUTO 10008KT 9SM CLR 14/06 A3011 RMK SLP201,CYQD,2023-05-16T07:00:00Z,53.97,-101.08,14.0,6.0,100,8,,9.0,30.109253,1020.1,,TRUE,,,,,,,,CLR,,,,,,,,VFR,,,,,,,,,,,,SPECI,268.0
CYQB 160700Z 00000KT 15SM FEW045 OVC080 11/07 A2962 RMK SC1AC7 SLP034,CYQB,2023-05-16T07:00:00Z,46.78,-71.38,11.0,7.0,0,0,,15.0,29.619095,1003.4,,,,,,,,,,FEW,4500,OVC,8000,,,,,VFR,,,,,,,,,,,,SPECI,73.0
CYQA 160700Z AUTO 26003KT 230V320 9SM CLR 11/01 A2982 RMK SLP103,CYQA,2023-05-16T07:00:00Z,44.97,-79.3,11.0,1.0,260,3,,9.0,29.819881,1010.3,,TRUE,,,,,,,,CLR,,,,,,,,VFR,,,,,,,,,,,,SPECI,277.0
CYPY 160700Z AUTO 31016G25KT 290V360 9SM SCT110 BKN140 BKN160 15/04 A2983 RMK SLP109 DENSITY ALT 1100FT,CYPY,2023-05-16T07:00:00Z,58.77,-111.12,15.0,4.0,310,16,25,9.0,29.828741,1010.9,,TRUE,,,,,,,,SCT,11000,BKN,14000,BKN,16000,,,VFR,,,,,,,,,,,,SPECI,225.0
CYPR 160700Z AUTO 12002KT 9SM CLR 11/10 A3000 RMK SLP161,CYPR,2023-05-16T07:00:00Z,54.28,-130.45,11.0,10.0,120,2,,9.0,30.0,1016.1,,TRUE,,,,,,,,CLR,,,,,,,,VFR,,,,,,,,,,,,SPECI,30.0
CYPQ 160700Z AUTO 26007KT 9SM CLR 12/01 A2983 RMK SLP104,CYPQ,2023-05-16T07:00:00Z,44.22,-78.37,12.0,1.0,260,7,,9.0,29.828741,1010.4,,TRUE,,,,,,,,CLR,,,,,,,,VFR,,,,,,,,,,,,SPECI,190.0
CYPO 160700Z AUTO 36013KT 9SM OVC016 M03/M06 A3013 RMK SLP208,CYPO,2023-05-16T07:00:00Z,54.98,-85.43,-3.0,-6.0,360,13,,9.0,30.129921,1020.8,,TRUE,,,,,,,,OVC,1600,,,,,,,MVFR,,,,,,,,,,,,METAR,49.0
CYPL 160700Z AUTO 04014G22KT 9SM BKN014 BKN019 OVC024 03/M01 A3003 RMK SLP179,CYPL,2023-05-16T07:00:00Z,51.43,-90.22,3.0,-1.0,40,14,22,9.0,30.029528,1017.9,,TRUE,,,,,,,,BKN,1400,BKN,1900,OVC,2400,,,MVFR,,,,,,,,,,,,SPECI,390.0
CYPE 160700Z 01017G26KT 12SM OVC250 16/03 A3006 RMK CI8 SLP181 DENSITY ALT 2300FT,CYPE,2023-05-16T07:00:00Z,56.22,-117.45,16.0,3.0,10,17,26,12.0,30.059055,1018.1,,,,,,,,,,OVC,25000,,,,,,,VFR,,,,,,,,,,,,SPECI,572.0
CYPD 160700Z AUTO 29004KT 260V330 9SM FEW050 BKN081 10/04 A2950 RMK SLP992,CYPD,2023-05-16T07:00:00Z,45.67,-61.37,10.0,4.0,290,4,,9.0,29.500984,999.2,,TRUE,,,,,,,,FEW,5000,BKN,8100,,,,,VFR,,,,,,,,,,,,METAR,106.0
CYPA 160700Z VRB07KT 15SM SKC 12/05 A3002 RMK SLP171,CYPA,2023-05-16T07:00:00Z,53.22,-105.67,12.0,5.0,0,7,,15.0,30.02067,1017.1,,,,,,,,,,SKC,,,,,,,,VFR,,,,,,,,,,,,SPECI,428.0
CYOW 160700Z 22006KT 15SM FEW100 BKN120 13/01 A2972 RMK AS2AC5 SLP068,CYOW,2023-05-16T07:00:00Z,45.32,-75.67,13.0,1.0,220,6,,15.0,29.719488,1006.8,,,,,,,,,,FEW,10000,BKN,12000,,,,,VFR,,,,,,,,,,,,SPECI,111.0
CYOO 160700Z AUTO 36003KT 9SM FEW180 07/03 A2985 RMK SLP113,CYOO,2023-05-16T07:00:00Z,43.92,-78.9,7.0,3.0,360,3,,9.0,29.84941,1011.3,,TRUE,,,,,,,,FEW,18000,,,,,,,VFR,,,,,,,,,,,,METAR,136.0
CYOJ 160700Z AUTO 33007KT 9SM CLR 10/06 A3006 RMK SLP191,CYOJ,2023-05-16T07:00:00Z,58.62,-117.17,10.0,6.0,330,7,,9.0,30.059055,1019.1,,TRUE,,,,,,,,CLR,,,,,,,,VFR,,,,,,,,,,,,SPECI,339.0
CYOD 160700Z 16004KT 15SM FEW200 15/07 A2993 RMK FU1 DENSITY ALT 2324FT SLP135,CYOD,2023-05-16T07:00:00Z,54.4,-110.28,15.0,7.0,160,4,,15.0,29.929134,1013.5,,,,,,,,,,FEW,20000,,,,,,,VFR,,,,,,,,,,,,SPECI,540.0
CYNM 160700Z AUTO 01008KT 9SM OVC010 M02/M04 A2978 RMK SLP101,CYNM,2023-05-16T07:00:00Z,49.77,-77.78,-2.0,-4.0,10,8,,9.0,29.778543,1010.1,,TRUE,,,,,,,,OVC,1000,,,,,,,MVFR,,,,,,,,,,,,SPECI,276.0
CYNE 160700Z AUTO 06009G17KT 360V090 9SM CLR 06/01 A3016 RMK SLP222,CYNE,2023-05-16T07:00:00Z,53.97,-97.83,6.0,1.0,60,9,17,9.0,30.159449,1022.2,,TRUE,,,,,,,,CLR,,,,,,,,VFR,,,,,,,,,,,,SPECI,220.0
CYMX 160700Z 26003KT 230V290 25SM OVC090 13/05 A2969 RMK AS8 SLP057,CYMX,2023-05-16T07:00:00Z,45.67,-74.03,13.0,5.0,260,3,,25.0,29.68996,1005.7,,,,,,,,,,OVC,9000,,,,,,,VFR,,,,,,,,,,,,SPECI,78.0
CYMT 160700Z AUTO 32007G16KT 9SM SCT240 01/M02 A2967 RMK SLP064,CYMT,2023-05-16T07:00:00Z,49.77,-74.52,1.0,-2.0,320,7,16,9.0,29.66929,1006.4,,TRUE,,,,,,,,SCT,24000,,,,,,,VFR,,,,,,,,,,,,SPECI,388.0
CYMM 160700Z AUTO 26007G16KT 9SM OVC100 22/09 A2983 RMK SLP103 DENSITY ALT 2500FT,CYMM,2023-05-16T07:00:00Z,56.65,-111.22,22.0,9.0,260,7,16,9.0,29.828741,1010.3,,TRUE,,,,,,,,OVC,10000,,,,,,,VFR,,,,,,,,,,,,SPECI,371.0
CYMA 160700Z 00000KT 20SM FEW030 SCT220 08/00 A3015 RMK SC1CI3 SC TR SLP228,CYMA,2023-05-16T07:00:00Z,63.62,-135.87,8.0,0.0,0,0,,20.0,30.15059,1022.8,,,,,,,,,,FEW,3000,SCT,22000,,,,,VFR,,,,,,,,,,,,SPECI,519.0
CYLW 160700Z AUTO 18003KT 9SM CLR 19/11 A2999 RMK SLP151 DENSITY ALT 2200FT,CYLW,2023-05-16T07:00:00Z,49.95,-119.37,19.0,11.0,180,3,,9.0,29.991142,1015.1,,TRUE,,,,,,,,CLR,,,,,,,,VFR,,,,,,,,,,,,SPECI,420.0
CYLL 160700Z AUTO 13003KT 9SM CLR 16/05 A2996 RMK SLP148 DENSITY ALT 2800FT,CYLL,2023-05-16T07:00:00Z,53.32,-110.07,16.0,5.0,130,3,,9.0,29.958662,1014.8,,TRUE,,,,,,,,CLR,,,,,,,,VFR,,,,,,,,,,,,SPECI,664.0
CYKY 160700Z 16009KT 15SM SKC 16/07 A3000 RMK SLP153 DENSITY ALT 2900FT,CYKY,2023-05-16T07:00:00Z,51.52,-109.17,16.0,7.0,160,9,,15.0,30.0,1015.3,,,,,,,,,,SKC,,,,,,,,VFR,,,,,,,,,,,,SPECI,692.0
CYKL 160700Z AUTO 30010G15KT 9SM -SN FEW047 OVC071 M04/M07 A2941 RMK SLP989,CYKL,2023-05-16T07:00:00Z,54.8,-66.8,-4.0,-7.0,300,10,15,9.0,29.409449,998.9,,TRUE,,,,,,,-SN,FEW,4700,OVC,7100,,,,,VFR,,,,,,,,,,,,SPECI,507.0
CYKJ 160700Z AUTO 14008G15KT BKN055 OVC068 13/02 A3000 RMK WX MISG VIS MISG SLP169,CYKJ,2023-05-16T07:00:00Z,57.25,-105.62,13.0,2.0,140,8,15,,30.0,1016.9,,TRUE,,,,,,,,BKN,5500,OVC,6800,,,,,,,,,,,,,,,,,SPECI,519.0
CYKF 160700Z AUTO 25007KT 9SM CLR 11/02 A2991 RMK SLP130,CYKF,2023-05-16T07:00:00Z,43.47,-80.38,11.0,2.0,250,7,,9.0,29.911417,1013.0,,TRUE,,,,,,,,CLR,,,,,,,,VFR,,,,,,,,,,,,METAR,312.0
CYKA 160700Z 00000KT 40SM SKC 20/10 A2993 RMK SLP136 DENSITY ALT 2000FT,CYKA,2023-05-16T07:00:00Z,50.7,-120.45,20.0,10.0,0,0,,40.0,29.929134,1013.6,,,,,,,,,,SKC,,,,,,,,VFR,,,,,,,,,,,,SPECI,344.0
CYJT 160700Z 25013KT 9SM BKN008 OVC014 05/04 A2939 RMK SF6SC2 SLP955,CYJT,2023-05-16T07:00:00Z,48.55,-58.57,5.0,4.0,250,13,,9.0,29.388779,995.5,,,,,,,,,,BKN,800,OVC,1400,,,,,IFR,,,,,,,,,,,,SPECI,7.0
CYIV 160700Z AUTO 07010G17KT 9SM BKN017 03/M00 A3019 RMK SLP232,CYIV,2023-05-16T07:00:00Z,53.85,-94.65,3.0,0.0,70,10,17,9.0,30.188976,1023.2,,TRUE,,,,,,,,BKN,1700,,,,,,,MVFR,,,,,,,,,,,,SPECI,234.0
CYIO 160700Z AUTO 16008KT 9SM BKN060 M10/M13 A3001 RMK SLP171,CYIO,2023-05-16T07:00:00Z,72.68,-77.97,-10.0,-13.0,160,8,,9.0,30.008858,1017.1,,TRUE,,,,,,,,BKN,6000,,,,,,,VFR,,,,,,,,,,,,SPECI,61.0
CYIN 160700Z AUTO 00000KT 9SM CLR 11/06 A3005 RMK SLP159 DENSITY ALT 4000FT,CYIN,2023-05-16T07:00:00Z,51.27,-121.68,11.0,6.0,0,0,,9.0,30.050198,1015.9,,TRUE,,,,,,,,CLR,,,,,,,,VFR,,,,,,,,,,,,METAR,1127.0
CYHZ 160700Z 23011KT 15SM -RA FEW060 OVC070 12/03 A2956 RMK SC1AC8 SC TR SLP011,CYHZ,2023-05-16T07:00:00Z,44.87,-63.5,12.0,3.0,230,11,,15.0,29.56004,1001.1,,,,,,,,,-RA,FEW,6000,OVC,7000,,,,,VFR,,,,,,,,,,,,SPECI,136.0
CYHU 160700Z AUTO 24008KT 9SM OVC086 14/04 A2969 RMK SLP055 DENSITY ALT 400FT,CYHU,2023-05-16T07:00:00Z,45.52,-73.42,14.0,4.0,240,8,,9.0,29.68996,1005.5,,TRUE,,,,,,,,OVC,8600,,,,,,,VFR,,,,,,,,,,,,SPECI,26.0
CYHM 160700Z 24007KT 15SM FEW240 07/03 A2991 RMK CI2 SLP133,CYHM,2023-05-16T07:00:00Z,43.17,-79.93,7.0,3.0,240,7,,15.0,29.911417,1013.3,,,,,,,,,,FEW,24000,,,,,,,VFR,,,,,,,,,,,,METAR,237.0
CYHK 160700Z AUTO 23009KT 9SM CLR M07/M08 A3027 RMK SLP259,CYHK,2023-05-16T07:00:00Z,68.62,-95.85,-7.0,-8.0,230,9,,9.0,30.268702,1025.9,,TRUE,,,,,,,,CLR,,,,,,,,VFR,,,,,,,,,,,,SPECI,36.0
CYHE 160700Z AUTO 08005KT 040V110 9SM CLR 21/14 A3001 RMK SLP162 DENSITY ALT 800FT,CYHE,2023-05-16T07:00:00Z,49.37,-121.5,21.0,14.0,80,5,,9.0,30.008858,1016.2,,TRUE,,,,,,,,CLR,,,,,,,,VFR,,,,,,,,,,,,SPECI,43.0
CYHD 160700Z AUTO 35007KT 9SM FEW140 17/06 A2991 RMK SLP130 DENSITY ALT 1900FT,CYHD,2023-05-16T07:00:00Z,49.82,-92.75,17.0,6.0,350,7,,9.0,29.911417,1013.0,,TRUE,,,,,,,,FEW,14000,,,,,,,VFR,,,,,,,,,,,,SPECI,414.0
CYGX 160700Z 04008KT 15SM OVC027 M02/M04 A3030 RMK SC8 SLP274,CYGX,2023-05-16T07:00:00Z,56.35,-94.7,-2.0,-4.0,40,8,,15.0,30.301182,1027.4,,,,,,,,,,OVC,2700,,,,,,,MVFR,,,,,,,,,,,,SPECI,145.0
CYGV 160700Z AUTO 02005KT 9SM BKN066 OVC093 04/01 A2942 RMK SLP967,CYGV,2023-05-16T07:00:00Z,50.28,-63.62,4.0,1.0,20,5,,9.0,29.421259,996.7,,TRUE,,,,,,,,BKN,6600,OVC,9300,,,,,VFR,,,,,,,,,,,,SPECI,32.0
CYGP 160700Z 33005KT 15SM OVC090 07/06 A2942 RMK AC8 SLP966,CYGP,2023-05-16T07:00:00Z,48.77,-64.47,7.0,6.0,330,5,,15.0,29.421259,996.6,,,,,,,,,,OVC,9000,,,,,,,VFR,,,,,,,,,,,,SPECI,31.0
CYGL 160700Z 33009G18KT 15SM -SN OVC016 M04/M07 A2985 RMK SC8 SLP125,CYGL,2023-05-16T07:00:00Z,53.62,-77.7,-4.0,-7.0,330,9,18,15.0,29.84941,1012.5,,,,,,,,,-SN,OVC,1600,,,,,,,MVFR,,,,,,,,,,,,SPECI,192.0
CYFS 160700Z 35004KT 15SM SKC 06/05 A3024 RMK SLP252,CYFS,2023-05-16T07:00:00Z,61.75,-121.22,6.0,5.0,350,4,,15.0,30.239174,1025.2,,,,,,,,,,SKC,,,,,,,,VFR,,,,,,,,,,,,SPECI,174.0
CYFC 160700Z AUTO 23005KT 9SM OVC055 11/04 A2956 RMK SLP012,CYFC,2023-05-16T07:00:00Z,45.87,-66.53,11.0,4.0,230,5,,9.0,29.56004,1001.2,,TRUE,,,,,,,,OVC,5500,,,,,,,VFR,,,,,,,,,,,,SPECI,16.0
CYFB 160700Z 34012KT 20SM FEW030 BKN081 M04/M09 A2966 RMK SC1AS7 SC TR SLP049,CYFB,2023-05-16T07:00:00Z,63.75,-68.55,-4.0,-9.0,340,12,,20.0,29.660433,1004.9,,,,,,,,,,FEW,3000,BKN,8100,,,,,VFR,,,,,,,,,,,,SPECI,23.0
CYEV 160700Z 07005KT 15SM SCT100 SCT160 BKN250 10/M02 A3011 RMK AC3AS1CI2 VIA CYQB SLP200,CYEV,2023-05-16T07:00:00Z,68.32,-133.5,10.0,-2.0,70,5,,15.0,30.109253,1020.0,,,,,,,,,,SCT,10000,SCT,16000,BKN,25000,,,VFR,,,,,,,,,,,,SPECI,74.0
CYET 160700Z AUTO 28006KT 9SM BKN037 13/06 A2995 RMK SLP143 DENSITY ALT 3500FT,CYET,2023-05-16T07:00:00Z,53.57,-116.47,13.0,6.0,280,6,,9.0,29.949802,1014.3,,TRUE,,,,,,,,BKN,3700,,,,,,,VFR,,,,,,,,,,,,SPECI,925.0
CYER 160700Z AUTO 36012G17KT 9SM OVC016 M02/M05 A3022 RMK SLP236,CYER,2023-05-16T07:00:00Z,56.02,-87.68,-2.0,-5.0,360,12,17,9.0,30.221457,1023.6,,TRUE,,,,,,,,OVC,1600,,,,,,,MVFR,,,,,,,,,,,,METAR,11.0
CYEN 160700Z AUTO 22004KT 9SM CLR 13/10 A3011 RMK SLP202,CYEN,2023-05-16T07:00:00Z,49.22,-102.97,13.0,10.0,220,4,,9.0,30.109253,1020.2,,TRUE,,,,,,,,CLR,,,,,,,,VFR,,,,,,,,,,,,SPECI,580.0
CYEK 160700Z AUTO 26007KT 9SM CLR M02/M03 A3033 RMK SLP275,CYEK,2023-05-16T07:00:00Z,61.1,-94.07,-2.0,-3.0,260,7,,9.0,30.33071,1027.5,,TRUE,,,,,,,,CLR,,,,,,,,VFR,,,,,,,,,,,,SPECI,7.0
CYEG 160700Z 18009KT 20SM BKN100 17/08 A2990 RMK FU5 SLP121 DENSITY ALT 3200FT,CYEG,2023-05-16T07:00:00Z,53.3,-113.58,17.0,8.0,180,9,,20.0,29.899607,1012.1,,,,,,,,,,BKN,10000,,,,,,,VFR,,,,,,,,,,,,SPECI,710.0
CYDQ 160700Z AUTO 30008KT 9SM CLR 16/05 A3013 RMK SLP209 DENSITY ALT 2500FT,CYDQ,2023-05-16T07:00:00Z,55.75,-120.18,16.0,5.0,300,8,,9.0,30.129921,1020.9,,TRUE,,,,,,,,CLR,,,,,,,,VFR,,,,,,,,,,,,SPECI,658.0
CYDN 160700Z AUTO 30005KT 9SM CLR 13/07 A3005 RMK SLP180,CYDN,2023-05-16T07:00:00Z,51.1,-100.05,13.0,7.0,300,5,,9.0,30.050198,1018.0,,TRUE,,,,,,,,CLR,,,,,,,,VFR,,,,,,,,,,,,SPECI,302.0
CYDL 160700Z AUTO 02005KT 9SM CLR 08/M05 A3020 RMK SLP230,CYDL,2023-05-16T07:00:00Z,58.42,-130.02,8.0,-5.0,20,5,,9.0,30.200787,1023.0,,TRUE,,,,,,,,CLR,,,,,,,,VFR,,,,,,,,,,,,METAR,804.0
CYDF 160700Z 24010KT 15SM -RA OVC016 07/07 A2933 RMK SC8 SLP935,CYDF,2023-05-16T07:00:00Z,49.22,-57.4,7.0,7.0,240,10,,15.0,29.329725,993.5,,,,,,,,,-RA,OVC,1600,,,,,,,MVFR,,,,,,,,,,,,SPECI,15.0
CYDB 160700Z AUTO 00000KT 9SM CLR M01/M05 A3019 RMK SLP261,CYDB,2023-05-16T07:00:00Z,61.37,-139.02,-1.0,-5.0,0,0,,9.0,30.188976,1026.1,,TRUE,,,,,,,,CLR,,,,,,,,VFR,,,,,,,,,,,,SPECI,807.0
CYCY 160700Z AUTO 32019KT 9SM -SN OVC025 M06/M08 A2995 RMK SLP145,CYCY,2023-05-16T07:00:00Z,70.48,-68.52,-6.0,-8.0,320,19,,9.0,29.949802,1014.5,,TRUE,,,,,,,-SN,OVC,2500,,,,,,,MVFR,,,,,,,,,,,,SPECI,73.0
CYCO 160700Z 24005KT 15SM FEW280 04/02 A3013 RMK CI2 SLP208,CYCO,2023-05-16T07:00:00Z,67.82,-115.15,4.0,2.0,240,5,,15.0,30.129921,1020.8,,,,,,,,,,FEW,28000,,,,,,,VFR,,,,,,,,,,,,SPECI,20.0
CYCK 160700Z AUTO 24007KT 9SM CLR 07/02 A2997 RMK SLP152,CYCK,2023-05-16T07:00:00Z,42.3,-82.08,7.0,2.0,240,7,,9.0,29.970472,1015.2,,TRUE,,,,,,,,CLR,,,,,,,,VFR,,,,,,,,,,,,METAR,196.0
CYCA 160700Z AUTO 02005KT 9SM OVC015 M00/M01 A2936 RMK SLP944,CYCA,2023-05-16T07:00:00Z,53.68,-57.03,0.0,-1.0,20,5,,9.0,29.359253,994.4,,TRUE,,,,,,,,OVC,1500,,,,,,,MVFR,,,,,,,,,,,,METAR,12.0
CYBX 160700Z 31006KT 3SM -RA BR SCT004 BKN012 OVC026 02/02 A2929 RMK ST3SC2SC3 SLP923,CYBX,2023-05-16T07:00:00Z,51.45,-57.18,2.0,2.0,310,6,,3.0,29.291338,992.3,,,,,,,,,-RA BR,SCT,400,BKN,1200,OVC,2600,,,MVFR,,,,,,,,,,,,SPECI,32.0
CYBW 160700Z AUTO 27003KT 9SM CLR 13/07 A2999 RMK SLP150 DENSITY ALT 4500FT,CYBW,2023-05-16T07:00:00Z,51.1,-114.37,13.0,7.0,270,3,,9.0,29.991142,1015.0,,TRUE,,,,,,,,CLR,,,,,,,,VFR,,,,,,,,,,,,SPECI,1197.0
CYBU 160700Z AUTO 04004KT 4SM HZ CLR 14/07 A3002 RMK SLP170,CYBU,2023-05-16T07:00:00Z,53.32,-104.0,14.0,7.0,40,4,,4.0,30.02067,1017.0,,TRUE,,,,,,,HZ,CLR,,,,,,,,MVFR,,,,,,,,,,,,SPECI,369.0
CYBR 160700Z 30008KT 15SM FEW090 FEW250 11/06 A3004 RMK AC1CI1 SLP177,CYBR,2023-05-16T07:00:00Z,49.92,-99.95,11.0,6.0,300,8,,15.0,30.041338,1017.7,,,,,,,,,,FEW,9000,FEW,25000,,,,,VFR,,,,,,,,,,,,METAR,405.0
CYBQ 160700Z AUTO 13003KT 9SM CLR M02/M02 A3029 RMK SLP278,CYBQ,2023-05-16T07:00:00Z,58.7,-98.5,-2.0,-2.0,130,3,,9.0,30.28937,1027.8,,TRUE,,,,,,,,CLR,,,,,,,,VFR,,,,,,,,,,,,METAR,272.0
CYBK 160700Z 34003KT 280V360 15SM FEW210 M04/M06 A3035 RMK CS1 CS TR SLP282,CYBK,2023-05-16T07:00:00Z,64.3,-96.07,-4.0,-6.0,340,3,,15.0,30.351377,1028.2,,,,,,,,,,FEW,21000,,,,,,,VFR,,,,,,,,,,,,SPECI,14.0
CYBG 160700Z 27012G17KT 25SM FEW035 07/04 A2960 RMK SC1 DENSITY ALT 142FT SLP029,CYBG,2023-05-16T07:00:00Z,48.33,-70.98,7.0,4.0,270,12,17,25.0,29.601377,1002.9,,,,,,,,,,FEW,3500,,,,,,,VFR,,,,,,,,,,,,SPECI,151.0
CYBC 160700Z AUTO 31005KT 280V340 9SM CLR 07/03 A2948 RMK SLP986,CYBC,2023-05-16T07:00:00Z,49.13,-68.2,7.0,3.0,310,5,,9.0,29.480314,998.6,,TRUE,,,,,,,,CLR,,,,,,,,VFR,,,,,,,,,,,,SPECI,20.0
CYAT 160700Z AUTO 02008G17KT 9SM OVC015 M02/M05 A3003 RMK SLP171,CYAT,2023-05-16T07:00:00Z,52.93,-82.43,-2.0,-5.0,20,8,17,9.0,30.029528,1017.1,,TRUE,,,,,,,,OVC,1500,,,,,,,MVFR,,,,,,,,,,,,METAR,4.0
CYAM 160700Z 20008KT 20SM FEW260 BKN280 10/02 A2980 RMK CI3CI3 SLP096,CYAM,2023-05-16T07:00:00Z,46.48,-84.52,10.0,2.0,200,8,,20.0,29.799213,1009.6,,,,,,,,,,FEW,26000,BKN,28000,,,,,VFR,,,,,,,,,,,,SPECI,186.0
CYAB 160700Z 11003KT 15SM FEW080 M09/M11 A3007 RMK AS1 AS TR SLP188,CYAB,2023-05-16T07:00:00Z,73.0,-85.02,-9.0,-11.0,110,3,,15.0,30.070866,1018.8,,,,,,,,,,FEW,8000,,,,,,,VFR,,,,,,,,,,,,METAR,36.0
CXZV 160700Z AUTO 36004KT 04/M03 RMK AO1 SLP976 T00441030 53005,CXZV,2023-05-16T07:00:00Z,50.22,-66.25,4.4,-3.0,360,4,,,,997.6,,TRUE,TRUE,,,,,,,,,,,,,,,,0.5,,,,,,,,,,,METAR,43.0
CXZC 160700Z AUTO 36005KT M02/M04 RMK AO1 SLP150 T10171044 55002,CXZC,2023-05-16T07:00:00Z,51.3,-80.62,-1.7,-4.4,360,5,,,,1015.0,,TRUE,TRUE,,,,,,,,,,,,,,,,-0.2,,,,,,,,,,,METAR,8.0
CXYH 160700Z AUTO 35001KT 04/03 RMK AO1 SLP242 T00410033 51014,CXYH,2023-05-16T07:00:00Z,61.25,-123.75,4.1,3.3,350,1,,,,1024.2,,TRUE,TRUE,,,,,,,,,,,,,,,,1.4,,,,,,,,,,,METAR,197.0
CXWN 160700Z AUTO 33005KT 20/04 RMK AO1 SLP149 T02040040 55006,CXWN,2023-05-16T07:00:00Z,49.88,-97.13,20.4,4.0,330,5,,,,1014.9,,TRUE,TRUE,,,,,,,,,,,,,,,,-0.6,,,,,,,,,,,METAR,232.0
CXWM 160700Z AUTO 17009KT 15/08 RMK AO1 T01480079,CXWM,2023-05-16T07:00:00Z,49.5,-112.12,14.8,7.9,170,9,,,,,,TRUE,TRUE,,,,,,,,,,,,,,,,,,,,,,,,,,,METAR,947.0
CXVW 160700Z AUTO 35019KT 17/08 RMK AO1 PK WND 35026/0645 SLP154 T01710076 51029,CXVW,2023-05-16T07:00:00Z,55.1,-117.2,17.1,7.6,350,19,,,,1015.4,,TRUE,TRUE,,,,,,,,,,,,,,,,2.9,,,,,,,,,,,METAR,696.0
CXVN 160700Z AUTO 24011G16KT 13/03 RMK AO1 SLP128 T01270030 56027,CXVN,2023-05-16T07:00:00Z,43.18,-79.4,12.7,3.0,240,11,16,,,1012.8,,TRUE,TRUE,,,,,,,,,,,,,,,,-2.7,,,,,,,,,,,METAR,86.0
CXVM 160700Z AUTO 16004KT 15/06 RMK AO1 T01540062,CXVM,2023-05-16T07:00:00Z,53.35,-110.88,15.4,6.2,160,4,,,,,,TRUE,TRUE,,,,,,,,,,,,,,,,,,,,,,,,,,,METAR,622.0
CXTV 160700Z AUTO 26006KT 06/M02 RMK AO1 SOG 26 3007 SLP201 T00621016,CXTV,2023-05-16T07:00:00Z,68.75,-133.5,6.2,-1.6,260,6,,,,1020.1,,TRUE,TRUE,,,,,,,,,,,,,,,,,,,,,,,,,,,METAR,91.0
CXTP 160700Z AUTO 21008KT 06/03 RMK AO1 PK WND 21017/0648 SLP955 T00580034 58014,CXTP,2023-05-16T07:00:00Z,48.55,-53.97,5.8,3.4,210,8,,,,995.5,,TRUE,TRUE,,,,,,,,,,,,,,,,-1.4,,,,,,,,,,,METAR,104.0
CXTO 160700Z AUTO 13/01 RMK AO1 SLP119 T01250014 58028,CXTO,2023-05-16T07:00:00Z,43.67,-79.4,12.5,1.4,,,,,,1011.9,,TRUE,TRUE,,,,,,,,,,,,,,,,-2.8,,,,,,,,,,,METAR,115.0
CXTN 160700Z AUTO 23011KT 06/01 RMK AO1 SOG 06 6002 SLP213 T00560010,CXTN,2023-05-16T07:00:00Z,69.2,-122.35,5.6,1.0,230,11,,,,1021.3,,TRUE,TRUE,,,,,,,,,,,,,,,,,,,,,,,,,,,METAR,564.0
CXTH 160700Z AUTO 14011KT 16/06 RMK AO1 T01610064,CXTH,2023-05-16T07:00:00Z,53.63,-111.68,16.1,6.4,140,11,,,,,,TRUE,TRUE,,,,,,,,,,,,,,,,,,,,,,,,,,,METAR,679.0
CXTD 160700Z AUTO 22007KT 12/04 RMK AO1 SLP005 T01170039 58007,CXTD,2023-05-16T07:00:00Z,45.62,-61.68,11.7,3.9,220,7,,,,1000.5,,TRUE,TRUE,,,,,,,,,,,,,,,,-0.7,,,,,,,,,,,METAR,58.0
CXSP 160700Z AUTO 14003KT 17/07 RMK AO1 T01670067,CXSP,2023-05-16T07:00:00Z,54.02,-111.27,16.7,6.7,140,3,,,,,,TRUE,TRUE,,,,,,,,,,,,,,,,,,,,,,,,,,,METAR,652.0
CXSL 160700Z AUTO 12005KT 16/07 RMK AO1 T01630070,CXSL,2023-05-16T07:00:00Z,54.28,-112.5,16.3,7.0,120,5,,,,,,TRUE,TRUE,,,,,,,,,,,,,,,,,,,,,,,,,,,METAR,680.0
CXSH 160700Z AUTO 29003KT 12/09 RMK AO1 SLP042 T01210086 57014,CXSH,2023-05-16T07:00:00Z,46.55,-72.73,12.1,8.6,290,3,,,,1004.2,,TRUE,TRUE,,,,,,,,,,,,,,,,-1.4,,,,,,,,,,,METAR,106.0
CXSE 160700Z AUTO 22013G22KT 01/M02 RMK AO1 SOG 23 8027 PK WND 24022/0659 SLP131 T00051015,CXSE,2023-05-16T07:00:00Z,73.77,-105.28,0.5,-1.5,220,13,22,,,1013.1,,TRUE,TRUE,,,,,,,,,,,,,,,,,,,,,,,,,,,METAR,11.0
CXSC 160700Z AUTO 16006KT 13/08 RMK AO1 T01300083,CXSC,2023-05-16T07:00:00Z,50.3,-110.08,13.0,8.3,160,6,,,,,,TRUE,TRUE,,,,,,,,,,,,,,,,,,,,,,,,,,,METAR,809.0
CXRL 160700Z AUTO 18008KT 21/06 RMK AO1 T02060064,CXRL,2023-05-16T07:00:00Z,54.5,-111.7,20.6,6.4,180,8,,,,,,TRUE,TRUE,,,,,,,,,,,,,,,,,,,,,,,,,,,METAR,585.0
CXRH 160700Z AUTO 24008KT 04/04 RMK AO1 0PAST HR 3006 SLP935 P0008 T00380036 50020,CXRH,2023-05-16T07:00:00Z,49.57,-57.88,3.8,3.6,240,8,,,,993.5,,TRUE,TRUE,,,,,,,,,,,,,,,,2.0,,,,,0.08,,,,,,METAR,68.0
CXRB 160700Z AUTO 19009KT M06/M07 RMK AO1 SOG 01 8020 SLP167 T10611070,CXRB,2023-05-16T07:00:00Z,74.72,-94.98,-6.1,-7.0,190,9,,,,1016.7,,TRUE,TRUE,,,,,,,,,,,,,,,,,,,,,,,,,,,METAR,30.0
CXPL 160700Z AUTO 11003KT 14/10 RMK AO1 T01380095,CXPL,2023-05-16T07:00:00Z,51.13,-111.7,13.8,9.5,110,3,,,,,,TRUE,TRUE,,,,,,,,,,,,,,,,,,,,,,,,,,,METAR,735.0
CXPC 160700Z AUTO 10/03 RMK AO1 SLP105 T00950031 58032,CXPC,2023-05-16T07:00:00Z,45.35,-80.05,9.5,3.1,,,,,,1010.5,,TRUE,TRUE,,,,,,,,,,,,,,,,-3.2,,,,,,,,,,,METAR,176.0
CXPA 160700Z AUTO 36010KT 17/06 RMK AO1 PK WND 00019/0606 T01690059,CXPA,2023-05-16T07:00:00Z,55.62,-118.3,16.9,5.9,360,10,,,,,,TRUE,TRUE,,,,,,,,,,,,,,,,,,,,,,,,,,,METAR,628.0
CXOY 160700Z AUTO 17011KT 15/08 RMK AO1 T01480079,CXOY,2023-05-16T07:00:00Z,51.35,-110.35,14.8,7.9,170,11,,,,,,TRUE,TRUE,,,,,,,,,,,,,,,,,,,,,,,,,,,METAR,784.0
CXOX 160700Z AUTO 12007KT 15/M00 RMK AO1 SLP168 T01501003 58011,CXOX,2023-05-16T07:00:00Z,55.15,-105.27,15.0,-0.3,120,7,,,,1016.8,,TRUE,TRUE,,,,,,,,,,,,,,,,-1.1,,,,,,,,,,,METAR,381.0
CXOL 160700Z AUTO 18007KT 13/05 RMK AO1 T01330050,CXOL,2023-05-16T07:00:00Z,51.77,-114.08,13.3,5.0,180,7,,,,,,TRUE,TRUE,,,,,,,,,,,,,,,,,,,,,,,,,,,METAR,1026.0
CXNP 160700Z AUTO 23004KT 10/05 RMK AO1 SLP996 T00990048 56011,CXNP,2023-05-16T07:00:00Z,45.75,-64.23,9.9,4.8,230,4,,,,999.6,,TRUE,TRUE,,,,,,,,,,,,,,,,-1.1,,,,,,,,,,,METAR,19.0
CXNM 160700Z AUTO 25009KT 07/05 RMK AO1 SOG 29 T00670046,CXNM,2023-05-16T07:00:00Z,46.82,-60.67,6.7,4.6,250,9,,,,,,TRUE,TRUE,,,,,,,,,,,,,,,,,,,,,,,,,,,METAR,452.0
CXMY 160700Z AUTO 09/05 RMK AO1 T00920046,CXMY,2023-05-16T07:00:00Z,44.98,-62.48,9.2,4.6,,,,,,,,TRUE,TRUE,,,,,,,,,,,,,,,,,,,,,,,,,,,METAR,37.0
CXMO 160700Z AUTO 17007KT 15/11 RMK AO1 T01450107,CXMO,2023-05-16T07:00:00Z,51.67,-112.68,14.5,10.7,170,7,,,,,,TRUE,TRUE,,,,,,,,,,,,,,,,,,,,,,,,,,,METAR,837.0
CXMM 160700Z AUTO 28008KT 22/08 RMK AO1 PK WND 31021/0639 SLP101 T02200075 55004,CXMM,2023-05-16T07:00:00Z,56.65,-111.22,22.0,7.5,280,8,,,,1010.1,,TRUE,TRUE,,,,,,,,,,,,,,,,-0.4,,,,,,,,,,,METAR,372.0
CXMI 160700Z AUTO 24013G18KT 11/05 RMK AO1 PK WND 23019/0610 SLP010 T01130046 56015,CXMI,2023-05-16T07:00:00Z,44.6,-63.53,11.3,4.6,240,13,18,,,1001.0,,TRUE,TRUE,,,,,,,,,,,,,,,,-1.5,,,,,,,,,,,METAR,15.0
CXMG 160700Z AUTO 36010KT 15/M00 RMK AO1 PK WND 00021/0615 T01461004,CXMG,2023-05-16T07:00:00Z,56.97,-117.45,14.6,-0.4,360,10,,,,,,TRUE,TRUE,,,,,,,,,,,,,,,,,,,,,,,,,,,METAR,467.0
CXMD 160700Z AUTO 29009KT 18/07 RMK AO1 SLP153 T01750073 56011,CXMD,2023-05-16T07:00:00Z,49.18,-98.08,17.5,7.3,290,9,,,,1015.3,,TRUE,TRUE,,,,,,,,,,,,,,,,-1.1,,,,,,,,,,,METAR,297.0
CXLL 160700Z AUTO 05/03 RMK AO1 SLP259 T00450033 51014,CXLL,2023-05-16T07:00:00Z,61.12,-122.85,4.5,3.3,,,,,,1025.9,,TRUE,TRUE,,,,,,,,,,,,,,,,1.4,,,,,,,,,,,METAR,180.0
CXLB 160700Z AUTO 24007KT 11/05 RMK AO1 SLP018 T01060049 56019,CXLB,2023-05-16T07:00:00Z,44.37,-64.3,10.6,4.9,240,7,,,,1001.8,,TRUE,TRUE,,,,,,,,,,,,,,,,-1.9,,,,,,,,,,,METAR,4.0
CXKT 160700Z AUTO 24006KT 12/05 RMK AO1 SLP013 T01210049 55009,CXKT,2023-05-16T07:00:00Z,45.07,-64.48,12.1,4.9,240,6,,,,1001.3,,TRUE,TRUE,,,,,,,,,,,,,,,,-0.9,,,,,,,,,,,METAR,48.0
CXKM 160700Z AUTO 17007KT 15/07 RMK AO1 T01460067,CXKM,2023-05-16T07:00:00Z,52.83,-111.87,14.6,6.7,170,7,,,,,,TRUE,TRUE,,,,,,,,,,,,,,,,,,,,,,,,,,,METAR,679.0
CXKI 160700Z AUTO 03002KT 08/07 RMK AO1 9PAST HR 8023 SLP064 P0004 T00770066 50009,CXKI,2023-05-16T07:00:00Z,48.13,-80.0,7.7,6.6,30,2,,,,1006.4,,TRUE,TRUE,,,,,,,,,,,,,,,,0.9,,,,,0.04,,,,,,METAR,328.0
CXKE 160700Z AUTO 22004KT 13/00 RMK AO1 SLP070 T01250000 56023,CXKE,2023-05-16T07:00:00Z,45.0,-75.63,12.5,0.0,220,4,,,,1007.0,,TRUE,TRUE,,,,,,,,,,,,,,,,-2.3,,,,,,,,,,,METAR,99.0
CXKA 160700Z AUTO 02005KT 05/04 RMK AO1 2PAST HR 5010 SLP106 P0012 T00480041 50032,CXKA,2023-05-16T07:00:00Z,49.4,-82.45,4.8,4.1,20,5,,,,1010.6,,TRUE,TRUE,,,,,,,,,,,,,,,,3.2,,,,,0.12,,,,,,METAR,221.0
CXIB 160700Z AUTO 24003KT 07/06 RMK AO1 SLP973 T00710057 58012,CXIB,2023-05-16T07:00:00Z,46.67,-60.4,7.1,5.7,240,3,,,,997.3,,TRUE,TRUE,,,,,,,,,,,,,,,,-1.2,,,,,,,,,,,METAR,6.0
CXHR 160700Z AUTO 16008KT 13/08 RMK AO1 T01250080,CXHR,2023-05-16T07:00:00Z,51.18,-112.5,12.5,8.0,160,8,,,,,,TRUE,TRUE,,,,,,,,,,,,,,,,,,,,,,,,,,,METAR,975.0
CXHP 160700Z AUTO 34007KT 18/08 RMK AO1 T01790078,CXHP,2023-05-16T07:00:00Z,55.4,-116.48,17.9,7.8,340,7,,,,,,TRUE,TRUE,,,,,,,,,,,,,,,,,,,,,,,,,,,METAR,601.0
CXHM 160700Z AUTO 25002KT 10/03 RMK AO1 SLP128 T00950026 58030,CXHM,2023-05-16T07:00:00Z,43.28,-79.9,9.5,2.6,250,2,,,,1012.8,,TRUE,TRUE,,,,,,,,,,,,,,,,-3.0,,,,,,,,,,,METAR,105.0
CXHD 160700Z AUTO 16007KT 12/07 RMK AO1 T01200067,CXHD,2023-05-16T07:00:00Z,53.18,-112.25,12.0,6.7,160,7,,,,,,TRUE,TRUE,,,,,,,,,,,,,,,,,,,,,,,,,,,METAR,688.0
CXHA 160700Z AUTO 25004KT 11/08 RMK AO1 SLP155 T01120075 58025,CXHA,2023-05-16T07:00:00Z,42.03,-82.9,11.2,7.5,250,4,,,,1015.5,,TRUE,TRUE,,,,,,,,,,,,,,,,-2.5,,,,,,,,,,,METAR,193.0
CXGH 160700Z AUTO 36014KT 15/07 RMK AO1 PK WND 01018/0647 SLP157 T01540070 53005,CXGH,2023-05-16T07:00:00Z,50.63,-97.0,15.4,7.0,360,14,,,,1015.7,,TRUE,TRUE,,,,,,,,,,,,,,,,0.5,,,,,,,,,,,METAR,217.0
CXFR 160700Z AUTO 01009KT 16/05 RMK AO1 PK WND 02017/0606 T01570047,CXFR,2023-05-16T07:00:00Z,56.08,-118.43,15.7,4.7,10,9,,,,,,TRUE,TRUE,,,,,,,,,,,,,,,,,,,,,,,,,,,METAR,657.0
CXFM 160700Z AUTO 17007KT 13/08 RMK AO1 T01310084,CXFM,2023-05-16T07:00:00Z,49.48,-111.48,13.1,8.4,170,7,,,,,,TRUE,TRUE,,,,,,,,,,,,,,,,,,,,,,,,,,,METAR,884.0
CXET 160700Z AUTO 25003KT 13/M02 RMK AO1 SLP114 T01331017 58029,CXET,2023-05-16T07:00:00Z,44.23,-79.78,13.3,-1.7,250,3,,,,1011.4,,TRUE,TRUE,,,,,,,,,,,,,,,,-2.9,,,,,,,,,,,METAR,250.0
CXEG 160700Z AUTO 18008KT 16/07 RMK AO1 SLP117 T01630072 56004,CXEG,2023-05-16T07:00:00Z,53.3,-113.6,16.3,7.2,180,8,,,,1011.7,,TRUE,TRUE,,,,,,,,,,,,,,,,-0.4,,,,,,,,,,,METAR,706.0
CXEC 160700Z AUTO 18004KT 22/08 RMK AO1 SLP112 T02150076 57005,CXEC,2023-05-16T07:00:00Z,53.57,-113.52,21.5,7.6,180,4,,,,1011.2,,TRUE,TRUE,,,,,,,,,,,,,,,,-0.5,,,,,,,,,,,METAR,666.0
CXEA 160700Z AUTO 02004KT 16/05 RMK AO1 SLP134 T01570052 53015,CXEA,2023-05-16T07:00:00Z,50.63,-93.22,15.7,5.2,20,4,,,,1013.4,,TRUE,TRUE,,,,,,,,,,,,,,,,1.5,,,,,,,,,,,METAR,351.0
CXDW 160700Z AUTO 28010KT 17/07 RMK AO1 SLP159 T01720067 56010,CXDW,2023-05-16T07:00:00Z,49.4,-98.32,17.2,6.7,280,10,,,,1015.9,,TRUE,TRUE,,,,,,,,,,,,,,,,-1.0,,,,,,,,,,,METAR,341.0
CXDK 160700Z AUTO 10/04 RMK AO1 SLP251 T01030043 51024,CXDK,2023-05-16T07:00:00Z,61.27,-124.47,10.3,4.3,,,,,,1025.1,,TRUE,TRUE,,,,,,,,,,,,,,,,2.4,,,,,,,,,,,METAR,269.0
CXDI 160700Z AUTO 22002KT 08/03 RMK AO1 SLP139 T00790028 56028,CXDI,2023-05-16T07:00:00Z,42.87,-80.55,7.9,2.8,220,2,,,,1013.9,,TRUE,TRUE,,,,,,,,,,,,,,,,-2.8,,,,,,,,,,,METAR,234.0
CXDE 160700Z AUTO 05004KT 03/01 RMK AO1 SLP236 T00250008 51005,CXDE,2023-05-16T07:00:00Z,65.22,-123.43,2.5,0.8,50,4,,,,1023.6,,TRUE,TRUE,,,,,,,,,,,,,,,,0.5,,,,,,,,,,,METAR,208.0
CXDB 160700Z AUTO 27007KT 13/06 RMK AO1 T01280059,CXDB,2023-05-16T07:00:00Z,49.05,-112.82,12.8,5.9,270,7,,,,,,TRUE,TRUE,,,,,,,,,,,,,,,,,,,,,,,,,,,METAR,1311.0
CXCS 160700Z AUTO 20003KT 15/07 RMK AO1 T01500069,CXCS,2023-05-16T07:00:00Z,51.93,-110.72,15.0,6.9,200,3,,,,,,TRUE,TRUE,,,,,,,,,,,,,,,,,,,,,,,,,,,METAR,771.0
CXCP 160700Z AUTO 10004KT 12/06 RMK AO1 T01200060,CXCP,2023-05-16T07:00:00Z,50.28,-113.35,12.0,6.0,100,4,,,,,,TRUE,TRUE,,,,,,,,,,,,,,,,,,,,,,,,,,,METAR,999.0
CXCK 160700Z AUTO 00000KT 05/M02 RMK AO1 SLP234 T00451015 53008,CXCK,2023-05-16T07:00:00Z,62.12,-136.2,4.5,-1.5,0,0,,,,1023.4,,TRUE,TRUE,,,,,,,,,,,,,,,,0.8,,,,,,,,,,,METAR,526.0
CXCD 160700Z AUTO 33003KT 15/04 RMK AO1 T01520037,CXCD,2023-05-16T07:00:00Z,56.32,-119.75,15.2,3.7,330,3,,,,,,TRUE,TRUE,,,,,,,,,,,,,,,,,,,,,,,,,,,METAR,628.0
CXCA 160700Z AUTO 31005KT 18/05 RMK AO1 SLP068 T01800047 56025,CXCA,2023-05-16T07:00:00Z,49.15,-88.35,18.0,4.7,310,5,,,,1006.8,,TRUE,TRUE,,,,,,,,,,,,,,,,-2.5,,,,,,,,,,,METAR,228.0
CXBW 160700Z AUTO 20008KT 16/09 RMK AO1 T01560088,CXBW,2023-05-16T07:00:00Z,49.8,-112.3,15.6,8.8,200,8,,,,,,TRUE,TRUE,,,,,,,,,,,,,,,,,,,,,,,,,,,METAR,823.0
CXBR 160700Z AUTO 26015KT RMK AO1 PK WND 26018/0658,CXBR,2023-05-16T07:00:00Z,49.62,-113.82,,,260,15,,,,,,TRUE,TRUE,,,,,,,,,,,,,,,,,,,,,,,,,,,METAR,1137.0
CXBO 160700Z AUTO 30003KT 13/06 RMK AO1 T01270061,CXBO,2023-05-16T07:00:00Z,46.83,-71.2,12.7,6.1,300,3,,,,,,TRUE,TRUE,,,,,,,,,,,,,,,,,,,,,,,,,,,METAR,8.0
CXBK 160700Z AUTO 19008KT 09/04 RMK AO1 SLP194 T00860038 56011,CXBK,2023-05-16T07:00:00Z,50.2,-104.7,8.6,3.8,190,8,,,,1019.4,,TRUE,TRUE,,,,,,,,,,,,,,,,-1.1,,,,,,,,,,,METAR,585.0
CXBI 160700Z AUTO 28007KT 10/M00 RMK AO1 SLP115 T00991002 56025,CXBI,2023-05-16T07:00:00Z,44.48,-79.55,9.9,-0.2,280,7,,,,1011.5,,TRUE,TRUE,,,,,,,,,,,,,,,,-2.5,,,,,,,,,,,METAR,287.0
CXBA 160700Z AUTO 17008KT 16/08 RMK AO1 T01600075,CXBA,2023-05-16T07:00:00Z,52.12,-110.1,16.0,7.5,170,8,,,,,,TRUE,TRUE,,,,,,,,,,,,,,,,,,,,,,,,,,,METAR,696.0
CXAT 160700Z AUTO 09007KT M08/M13 RMK AO1 SOG 08 7010 SLP191 T10841126,CXAT,2023-05-16T07:00:00Z,73.0,-85.03,-8.4,-12.6,90,7,,,,1019.1,,TRUE,TRUE,,,,,,,,,,,,,,,,,,,,,,,,,,,METAR,10.0
CXAK 160700Z AUTO 16011KT 14/10 RMK AO1 T01350097,CXAK,2023-05-16T07:00:00Z,52.35,-112.6,13.5,9.7,160,11,,,,,,TRUE,TRUE,,,,,,,,,,,,,,,,,,,,,,,,,,,METAR,799.0
CXAJ 160700Z AUTO 00000KT 17/09 RMK AO1 T01690089,CXAJ,2023-05-16T07:00:00Z,54.78,-112.82,16.9,8.9,0,0,,,,,,TRUE,TRUE,,,,,,,,,,,,,,,,,,,,,,,,,,,METAR,586.0
CXAG 160700Z AUTO 16008KT 16/07 RMK AO1 T01580068,CXAG,2023-05-16T07:00:00Z,53.92,-112.28,15.8,6.8,160,8,,,,,,TRUE,TRUE,,,,,,,,,,,,,,,,,,,,,,,,,,,METAR,632.0
CXAF 160700Z AUTO 13003KT 14/07 RMK AO1 T01440071,CXAF,2023-05-16T07:00:00Z,54.28,-112.97,14.4,7.1,130,3,,,,,,TRUE,TRUE,,,,,,,,,,,,,,,,,,,,,,,,,,,METAR,667.0
CWZW 160700Z AUTO 02001KT 05/M05 RMK AO1 SLP255 T00461047 53010,CWZW,2023-05-16T07:00:00Z,60.17,-132.73,4.6,-4.7,20,1,,,,1025.5,,TRUE,TRUE,,,,,,,,,,,,,,,,1.0,,,,,,,,,,,METAR,683.0
CWZQ 160700Z AUTO 17007KT 10/06 RMK AO1 SLP983 T00990056 56018,CWZQ,2023-05-16T07:00:00Z,46.53,-61.05,9.9,5.6,170,7,,,,998.3,,TRUE,TRUE,,,,,,,,,,,,,,,,-1.8,,,,,,,,,,,METAR,13.0
CWZO 160700Z AUTO 17018G23KT RMK AO1 PK WND 15030/0632,CWZO,2023-05-16T07:00:00Z,48.57,-123.25,,,170,18,23,,,,,TRUE,TRUE,,,,,,,,,,,,,,,,,,,,,,,,,,,METAR,5.0
CWZN 160700Z AUTO 24018G23KT 05/05 RMK AO1 PK WND 22029/0612 SLP971 T00540047 56018,CWZN,2023-05-16T07:00:00Z,47.37,-55.8,5.4,4.7,240,18,23,,,997.1,,TRUE,TRUE,,,,,,,,,,,,,,,,-1.8,,,,,,,,,,,METAR,63.0
CWZL 160700Z AUTO 30008KT 20/08 RMK AO1 SLP176 T01960083 51003,CWZL,2023-05-16T07:00:00Z,53.03,-131.6,19.6,8.3,300,8,,,,1017.6,,TRUE,TRUE,,,,,,,,,,,,,,,,0.3,,,,,,,,,,,METAR,17.0
CWZG 160700Z AUTO 28002KT 11/03 RMK AO1 SLP161 T01130027 52011,CWZG,2023-05-16T07:00:00Z,51.2,-115.55,11.3,2.7,280,2,,,,1016.1,,TRUE,TRUE,,,,,,,,,,,,,,,,1.1,,,,,,,,,,,METAR,1402.0
CWZA 160700Z AUTO 04018G23KT 23/13 RMK AO1 PK WND 05026/0614 SLP145 T02320129 53009,CWZA,2023-05-16T07:00:00Z,49.25,-121.77,23.2,12.9,40,18,23,,,1014.5,,TRUE,TRUE,,,,,,,,,,,,,,,,0.9,,,,,,,,,,,METAR,18.0
CWYY 160700Z AUTO 15001KT 18/13 RMK AO1 SLP149 T01790130 52008,CWYY,2023-05-16T07:00:00Z,49.03,-119.43,17.9,13.0,150,1,,,,1014.9,,TRUE,TRUE,,,,,,,,,,,,,,,,0.8,,,,,,,,,,,METAR,284.0
CWYL 160700Z AUTO 27003KT 10/03 RMK AO1 SLP179 T00970026 52006,CWYL,2023-05-16T07:00:00Z,51.45,-116.33,9.7,2.6,270,3,,,,1017.9,,TRUE,TRUE,,,,,,,,,,,,,,,,0.6,,,,,,,,,,,METAR,1602.0
CWYJ 160700Z AUTO 21007G15KT 16/09 RMK AO1 PK WND 22018/0649 SLP158 T01620093 53019,CWYJ,2023-05-16T07:00:00Z,48.45,-123.3,16.2,9.3,210,7,15,,,1015.8,,TRUE,TRUE,,,,,,,,,,,,,,,,1.9,,,,,,,,,,,METAR,59.0
CWXL 160700Z AUTO 15010KT 15/11 RMK AO1 SLP149 T01520106 56008,CWXL,2023-05-16T07:00:00Z,49.73,-111.45,15.2,10.6,150,10,,,,1014.9,,TRUE,TRUE,,,,,,,,,,,,,,,,-0.8,,,,,,,,,,,METAR,815.0
CWXI 160700Z AUTO 30006KT 01/01 RMK AO1 SLP910 T00090008 53002,CWXI,2023-05-16T07:00:00Z,51.02,-57.1,0.9,0.8,300,6,,,,991.0,,TRUE,TRUE,,,,,,,,,,,,,,,,0.2,,,,,,,,,,,METAR,15.0
CWXC 160700Z AUTO 02002KT 02/M00 RMK AO1 SLP024 T00161001 56003,CWXC,2023-05-16T07:00:00Z,48.88,-71.03,1.6,-0.1,20,2,,,,1002.4,,TRUE,TRUE,,,,,,,,,,,,,,,,-0.3,,,,,,,,,,,METAR,306.0
CWXA 160700Z AUTO 00026KT 18/M00 RMK AO1 SLP158 T01831004 53004,CWXA,2023-05-16T07:00:00Z,51.07,-115.07,18.3,-0.4,0,26,,,,1015.8,,TRUE,TRUE,,,,,,,,,,,,,,,,0.4,,,,,,,,,,,METAR,1303.0
CWWZ 160700Z AUTO 23004KT 12/06 RMK AO1 SLP125 T01180055 58026,CWWZ,2023-05-16T07:00:00Z,43.25,-79.22,11.8,5.5,230,4,,,,1012.5,,TRUE,TRUE,,,,,,,,,,,,,,,,-2.6,,,,,,,,,,,METAR,75.0
CWWS 160700Z AUTO 05017KT 04/02 RMK AO1 PK WND 05022/0624 SLP197 T00390020 53013,CWWS,2023-05-16T07:00:00Z,52.82,-97.62,3.9,2.0,50,17,,,,1019.7,,TRUE,TRUE,,,,,,,,,,,,,,,,1.3,,,,,,,,,,,METAR,220.0
CWWL 160700Z AUTO 03009KT 11/08 RMK AO1 SLP157 T01070082 51001,CWWL,2023-05-16T07:00:00Z,53.5,-130.63,10.7,8.2,30,9,,,,1015.7,,TRUE,TRUE,,,,,,,,,,,,,,,,0.1,,,,,,,,,,,METAR,8.0
CWWK 160700Z AUTO 17003KT 19/12 RMK AO1 SLP167 T01900116 53028,CWWK,2023-05-16T07:00:00Z,49.02,-122.78,19.0,11.6,170,3,,,,1016.7,,TRUE,TRUE,,,,,,,,,,,,,,,,2.8,,,,,,,,,,,METAR,10.0
CWWF 160700Z AUTO 18007KT 11/06 RMK AO1 SLP197 T01090063 58012,CWWF,2023-05-16T07:00:00Z,49.7,-103.8,10.9,6.3,180,7,,,,1019.7,,TRUE,TRUE,,,,,,,,,,,,,,,,-1.2,,,,,,,,,,,METAR,583.0
CWWE 160700Z AUTO 22007KT 08/05 RMK AO1 SLP029 T00800049 57018,CWWE,2023-05-16T07:00:00Z,43.98,-64.67,8.0,4.9,220,7,,,,1002.9,,TRUE,TRUE,,,,,,,,,,,,,,,,-1.8,,,,,,,,,,,METAR,4.0
CWWB 160700Z AUTO 24006KT 13/05 RMK AO1 SLP126 T01290053 58031,CWWB,2023-05-16T07:00:00Z,43.3,-79.78,12.9,5.3,240,6,,,,1012.6,,TRUE,TRUE,,,,,,,,,,,,,,,,-3.1,,,,,,,,,,,METAR,77.0
CWWA 160700Z AUTO 05001KT 21/08 RMK AO1 SLP152 T02120076 53015,CWWA,2023-05-16T07:00:00Z,49.35,-123.18,21.2,7.6,50,1,,,,1015.2,,TRUE,TRUE,,,,,,,,,,,,,,,,1.5,,,,,,,,,,,METAR,172.0
CWVU 160700Z AUTO 22008G16KT 10/05 RMK AO1 SLP028 T01020052 56013,CWVU,2023-05-16T07:00:00Z,44.28,-66.33,10.2,5.2,220,8,16,,,1002.8,,TRUE,TRUE,,,,,,,,,,,,,,,,-1.3,,,,,,,,,,,METAR,4.0
CWVQ 160700Z AUTO 24007KT 14/02 RMK AO1 SLP059 T01440021 57017,CWVQ,2023-05-16T07:00:00Z,45.42,-73.92,14.4,2.1,240,7,,,,1005.9,,TRUE,TRUE,,,,,,,,,,,,,,,,-1.7,,,,,,,,,,,METAR,38.0
CWVP 160700Z AUTO 14006KT 13/08 RMK AO1 SLP171 T01310078 57008,CWVP,2023-05-16T07:00:00Z,49.63,-109.52,13.1,7.8,140,6,,,,1017.1,,TRUE,TRUE,,,,,,,,,,,,,,,,-0.8,,,,,,,,,,,METAR,1269.0
CWVN 160700Z AUTO 13010KT 15/07 RMK AO1 SLP176 T01470072 56011,CWVN,2023-05-16T07:00:00Z,49.07,-107.58,14.7,7.2,130,10,,,,1017.6,,TRUE,TRUE,,,,,,,,,,,,,,,,-1.1,,,,,,,,,,,METAR,792.0
CWVI 160700Z AUTO 17006KT 14/06 RMK AO1 SLP125 T01400063 57008,CWVI,2023-05-16T07:00:00Z,53.52,-112.1,14.0,6.3,170,6,,,,1012.5,,TRUE,TRUE,,,,,,,,,,,,,,,,-0.8,,,,,,,,,,,METAR,640.0
CWVF 160700Z AUTO 12023KT 17/11 RMK AO1 PK WND 11026/0650 T01650114,CWVF,2023-05-16T07:00:00Z,49.1,-123.3,16.5,11.4,120,23,,,,,,TRUE,TRUE,,,,,,,,,,,,,,,,,,,,,,,,,,,METAR,13.0
CWUX 160700Z AUTO 27013G20KT 08/03 RMK AO1 PK WND 28020/0653 T00760034,CWUX,2023-05-16T07:00:00Z,48.3,-70.93,7.6,3.4,270,13,20,,,,,TRUE,TRUE,,,,,,,,,,,,,,,,,,,,,,,,,,,METAR,150.0
CWUW 160700Z AUTO 33004KT ////SM ////// M11/M13 A2979,CWUW,2023-05-16T07:00:00Z,68.62,-71.12,-11.0,-13.0,330,4,,,29.790354,,,TRUE,,,,,,,,,,,,,,,,,,,,,,,,,,,,SPECI,173.0
CWUS 160700Z AUTO 27006KT 20/10 RMK AO1 SLP150 T02030102 51008,CWUS,2023-05-16T07:00:00Z,49.57,-119.65,20.3,10.2,270,6,,,,1015.0,,TRUE,TRUE,,,,,,,,,,,,,,,,0.8,,,,,,,,,,,METAR,455.0
CWTY 160700Z AUTO 21008KT 13/11 RMK AO1 SLP043 T01260111 58015,CWTY,2023-05-16T07:00:00Z,46.35,-72.52,12.6,11.1,210,8,,,,1004.3,,TRUE,TRUE,,,,,,,,,,,,,,,,-1.5,,,,,,,,,,,METAR,8.0
CWTT 160700Z AUTO 30004KT 13/02 RMK AO1 T01330018,CWTT,2023-05-16T07:00:00Z,45.27,-72.17,13.3,1.8,300,4,,,,,,TRUE,TRUE,,,,,,,,,,,,,,,,,,,,,,,,,,,METAR,210.0
CWTN 160700Z AUTO 27003KT 09/07 RMK AO1 SLP027 T00930066 58012,CWTN,2023-05-16T07:00:00Z,47.07,-70.78,9.3,6.6,270,3,,,,1002.7,,TRUE,TRUE,,,,,,,,,,,,,,,,-1.2,,,,,,,,,,,METAR,5.0
CWTG 160700Z AUTO 36005KT 08/02 RMK AO1 SLP980 T00770015 53003,CWTG,2023-05-16T07:00:00Z,49.32,-67.37,7.7,1.5,360,5,,,,998.0,,TRUE,TRUE,,,,,,,,,,,,,,,,0.3,,,,,,,,,,,METAR,6.0
CWTA 160700Z AUTO 21001KT 15/02 RMK AO1 SLP056 T01500024 57018,CWTA,2023-05-16T07:00:00Z,45.5,-73.58,15.0,2.4,210,1,,,,1005.6,,TRUE,TRUE,,,,,,,,,,,,,,,,-1.8,,,,,,,,,,,METAR,71.0
CWST 160700Z AUTO 27006KT 11/05 RMK AO1 SLP018 T01130052 56010,CWST,2023-05-16T07:00:00Z,47.35,-70.02,11.3,5.2,270,6,,,,1001.8,,TRUE,TRUE,,,,,,,,,,,,,,,,-1.0,,,,,,,,,,,METAR,31.0
CWSS 160700Z AUTO 26004KT 12/03 RMK AO1 SLP021 T01180031 56007,CWSS,2023-05-16T07:00:00Z,45.2,-67.25,11.8,3.1,260,4,,,,1002.1,,TRUE,TRUE,,,,,,,,,,,,,,,,-0.7,,,,,,,,,,,METAR,27.0
CWSR 160700Z AUTO 14005KT 11/04 RMK AO1 SLP159 T01140044 57011,CWSR,2023-05-16T07:00:00Z,53.37,-107.55,11.4,4.4,140,5,,,,1015.9,,TRUE,TRUE,,,,,,,,,,,,,,,,-1.1,,,,,,,,,,,METAR,589.0
CWSP 160700Z AUTO 29031KT 12/11 RMK AO1 PK WND 29038/0613 SLP167 T01240108 53009,CWSP,2023-05-16T07:00:00Z,48.38,-123.92,12.4,10.8,290,31,,,,1016.7,,TRUE,TRUE,,,,,,,,,,,,,,,,0.9,,,,,,,,,,,METAR,2.0
CWSL 160700Z AUTO 18001KT 17/10 RMK AO1 SLP146 T01650103 53016,CWSL,2023-05-16T07:00:00Z,50.7,-119.28,16.5,10.3,180,1,,,,1014.6,,TRUE,TRUE,,,,,,,,,,,,,,,,1.6,,,,,,,,,,,METAR,353.0
CWSK 160700Z AUTO 01002KT 18/10 RMK AO1 SLP155 T01840095 51020,CWSK,2023-05-16T07:00:00Z,49.78,-123.17,18.4,9.5,10,2,,,,1015.5,,TRUE,TRUE,,,,,,,,,,,,,,,,2.0,,,,,,,,,,,METAR,59.0
CWSG 160700Z AUTO 26014KT 07/05 RMK AO1 PK WND 26021/0618 SLP982 T00690053 53006,CWSG,2023-05-16T07:00:00Z,49.12,-66.65,6.9,5.3,260,14,,,,998.2,,TRUE,TRUE,,,,,,,,,,,,,,,,0.6,,,,,,,,,,,METAR,5.0
CWSF 160700Z AUTO 29006KT 07/02 RMK AO1 SLP973 T00650015 53013,CWSF,2023-05-16T07:00:00Z,49.25,-65.32,6.5,1.5,290,6,,,,997.3,,TRUE,TRUE,,,,,,,,,,,,,,,,1.3,,,,,,,,,,,METAR,15.0
CWSD 160700Z AUTO 26009KT 11/05 RMK AO1 SLP987 T01120054 56011,CWSD,2023-05-16T07:00:00Z,46.43,-63.85,11.2,5.4,260,9,,,,998.7,,TRUE,TRUE,,,,,,,,,,,,,,,,-1.1,,,,,,,,,,,METAR,12.0
CWSA 160700Z AUTO 23019KT 9SM 07/05 A2963 RMK CLD MISG SLP036,CWSA,2023-05-16T07:00:00Z,43.93,-60.0,7.0,5.0,230,19,,9.0,29.630905,1003.6,,TRUE,,,,,,,,,,,,,,,,,,,,,,,,,,,,SPECI,4.0
CWRZ 160700Z AUTO 03003KT 09/05 RMK AO1 SLP958 T00900049 55004,CWRZ,2023-05-16T07:00:00Z,48.42,-64.32,9.0,4.9,30,3,,,,995.8,,TRUE,TRUE,,,,,,,,,,,,,,,,-0.4,,,,,,,,,,,METAR,16.0
CWRY 160700Z AUTO 30005KT 14/09 RMK AO1 SLP157 T01360088 56005,CWRY,2023-05-16T07:00:00Z,49.12,-112.05,13.6,8.8,300,5,,,,1015.7,,TRUE,TRUE,,,,,,,,,,,,,,,,-0.5,,,,,,,,,,,METAR,1048.0
CWRX 160700Z AUTO ///// ////SM ////// M09/M10 A3001,CWRX,2023-05-16T07:00:00Z,69.07,-79.07,-9.0,-10.0,,,,,30.008858,,,TRUE,,,,,,,,,,,,,,,,,,,,,,,,,,,,SPECI,39.0
CWRU 160700Z AUTO 12033KT 13/ RMK AO1 PK WND 12039/0629 SLP153 T0128 50005,CWRU,2023-05-16T07:00:00Z,50.12,-127.93,12.8,,120,33,,,,1015.3,,TRUE,TRUE,,,,,,,,,,,,,,,,0.5,,,,,,,,,,,METAR,76.0
CWRT 160700Z AUTO 15001KT 08/06 RMK AO1 SLP175 T00810055 51003,CWRT,2023-05-16T07:00:00Z,49.62,-114.47,8.1,5.5,150,1,,,,1017.5,,TRUE,TRUE,,,,,,,,,,,,,,,,0.3,,,,,,,,,,,METAR,1311.0
CWRN 160700Z AUTO 23013KT 07/04 RMK AO1 PK WND 22021/0602 SLP000 T00730044 56014,CWRN,2023-05-16T07:00:00Z,45.35,-60.98,7.3,4.4,230,13,,,,1000.0,,TRUE,TRUE,,,,,,,,,,,,,,,,-1.4,,,,,,,,,,,METAR,8.0
CWRK 160700Z AUTO 29004KT 12/M01 RMK AO1 SLP084 T01191012 56027,CWRK,2023-05-16T07:00:00Z,45.07,-77.87,11.9,-1.2,290,4,,,,1008.4,,TRUE,TRUE,,,,,,,,,,,,,,,,-2.7,,,,,,,,,,,METAR,328.0
CWRJ 160700Z AUTO 18011KT 16/02 RMK AO1 SLP161 T01610018 57009,CWRJ,2023-05-16T07:00:00Z,51.57,-107.92,16.1,1.8,180,11,,,,1016.1,,TRUE,TRUE,,,,,,,,,,,,,,,,-0.9,,,,,,,,,,,METAR,586.0
CWRA 160700Z AUTO 23013KT 03/02 RMK AO1 SLP015 T00290023 56016,CWRA,2023-05-16T07:00:00Z,46.65,-53.07,2.9,2.3,230,13,,,,1001.5,,TRUE,TRUE,,,,,,,,,,,,,,,,-1.6,,,,,,,,,,,METAR,4.0
CWQV 160700Z AUTO 29008KT 09/ RMK AO1 T0093,CWQV,2023-05-16T07:00:00Z,48.27,-70.12,9.3,,290,8,,,,,,TRUE,TRUE,,,,,,,,,,,,,,,,,,,,,,,,,,,METAR,4.0
CWQS 160700Z AUTO 32004KT 14/09 RMK AO1 SLP165 T01400094 51002,CWQS,2023-05-16T07:00:00Z,53.32,-132.77,14.0,9.4,320,4,,,,1016.5,,TRUE,TRUE,,,,,,,,,,,,,,,,0.2,,,,,,,,,,,METAR,10.0
CWQR 160700Z AUTO 36004KT 06/M00 RMK AO1 T00561003,CWQR,2023-05-16T07:00:00Z,50.22,-64.22,5.6,-0.3,360,4,,,,,,TRUE,TRUE,,,,,,,,,,,,,,,,,,,,,,,,,,,METAR,9.0
CWQP 160700Z AUTO 28008KT 09/05 RMK AO1 SLP110 T00850052 58022,CWQP,2023-05-16T07:00:00Z,43.83,-77.15,8.5,5.2,280,8,,,,1011.0,,TRUE,TRUE,,,,,,,,,,,,,,,,-2.2,,,,,,,,,,,METAR,77.0
CWQO 160700Z AUTO 27015KT 07/05 RMK AO1 PK WND 27017/0646 T00670053,CWQO,2023-05-16T07:00:00Z,48.42,-68.9,6.7,5.3,270,15,,,,,,TRUE,TRUE,,,,,,,,,,,,,,,,,,,,,,,,,,,METAR,7.0
CWQK 160700Z AUTO 26037KT 12/11 RMK AO1 PK WND 28043/0636 SLP155 T01220106 53019,CWQK,2023-05-16T07:00:00Z,48.3,-123.53,12.2,10.6,260,37,,,,1015.5,,TRUE,TRUE,,,,,,,,,,,,,,,,1.9,,,,,,,,,,,METAR,5.0
CWQH 160700Z AUTO 26006KT 14/03 RMK AO1 SLP056 T01360028 56016,CWQH,2023-05-16T07:00:00Z,45.37,-71.82,13.6,2.8,260,6,,,,1005.6,,TRUE,TRUE,,,,,,,,,,,,,,,,-1.6,,,,,,,,,,,METAR,181.0
CWPZ 160700Z AUTO 33002KT 11/04 RMK AO1 SLP176 T01050035 51020,CWPZ,2023-05-16T07:00:00Z,54.38,-125.97,10.5,3.5,330,2,,,,1017.6,,TRUE,TRUE,,,,,,,,,,,,,,,,2.0,,,,,,,,,,,METAR,715.0
CWPR 160700Z AUTO 23002KT 15/10 RMK AO1 SLP174 T01460103 52006,CWPR,2023-05-16T07:00:00Z,49.47,-120.52,14.6,10.3,230,2,,,,1017.4,,TRUE,TRUE,,,,,,,,,,,,,,,,0.6,,,,,,,,,,,METAR,703.0
CWPO 160700Z AUTO 28006KT 12/05 RMK AO1 SLP179 T01210050 56011,CWPO,2023-05-16T07:00:00Z,49.2,-98.9,12.1,5.0,280,6,,,,1017.9,,TRUE,TRUE,,,,,,,,,,,,,,,,-1.1,,,,,,,,,,,METAR,471.0
CWPK 160700Z AUTO 29004KT 06/02 RMK AO1 SLP062 T00620022 56011,CWPK,2023-05-16T07:00:00Z,47.92,-74.62,6.2,2.2,290,4,,,,1006.2,,TRUE,TRUE,,,,,,,,,,,,,,,,-1.1,,,,,,,,,,,METAR,443.0
CWPE 160700Z AUTO 29004KT 08/05 RMK AO1 SLP019 T00830050 56009,CWPE,2023-05-16T07:00:00Z,45.07,-66.47,8.3,5.0,290,4,,,,1001.9,,TRUE,TRUE,,,,,,,,,,,,,,,,-0.9,,,,,,,,,,,METAR,9.0
CWPD 160700Z AUTO 04001KT 03/02 RMK AO1 SLP015 T00330023 56013,CWPD,2023-05-16T07:00:00Z,47.57,-71.22,3.3,2.3,40,1,,,,1001.5,,TRUE,TRUE,,,,,,,,,,,,,,,,-1.3,,,,,,,,,,,METAR,795.0
CWOY 160700Z AUTO 19006KT 13/06 RMK AO1 SLP184 T01250056 58011,CWOY,2023-05-16T07:00:00Z,51.77,-104.2,12.5,5.6,190,6,,,,1018.4,,TRUE,TRUE,,,,,,,,,,,,,,,,-1.1,,,,,,,,,,,METAR,557.0
CWOE 160700Z AUTO 03009KT 12/10 RMK AO1 SLP163 T01230098 56006,CWOE,2023-05-16T07:00:00Z,49.12,-110.47,12.3,9.8,30,9,,,,1016.3,,TRUE,TRUE,,,,,,,,,,,,,,,,-0.6,,,,,,,,,,,METAR,931.0
CWOD 160700Z AUTO 31006KT 04/M02 RMK AO1 SLP047 T00421017 53001,CWOD,2023-05-16T07:00:00Z,48.85,-72.55,4.2,-1.7,310,6,,,,1004.7,,TRUE,TRUE,,,,,,,,,,,,,,,,0.1,,,,,,,,,,,METAR,150.0
CWOC 160700Z AUTO 30007KT 08/05 RMK AO1 SLP973 T00760052 55005,CWOC,2023-05-16T07:00:00Z,48.02,-65.32,7.6,5.2,300,7,,,,997.3,,TRUE,TRUE,,,,,,,,,,,,,,,,-0.5,,,,,,,,,,,METAR,42.0
CWOB 160700Z AUTO 04050G59KT ////SM ////// M09/M09 A2937,CWOB,2023-05-16T07:00:00Z,63.33,-64.15,-9.0,-9.0,40,50,59,,29.371063,,,TRUE,,,,,,,,,,,,,,,,,,,,,,,,,,,,SPECI,369.0
CWNZ 160700Z AUTO 07003KT 05/05 RMK AO1 6PAST HR 5002 SLP104 P0014 T00530049 50036,CWNZ,2023-05-16T07:00:00Z,49.75,-84.17,5.3,4.9,70,3,,,,1010.4,,TRUE,TRUE,,,,,,,,,,,,,,,,3.6,,,,,0.14,,,,,,METAR,261.0
CWNQ 160700Z AUTO 28006KT 13/10 RMK AO1 SLP045 T01340099 58010,CWNQ,2023-05-16T07:00:00Z,46.22,-72.65,13.4,9.9,280,6,,,,1004.5,,TRUE,TRUE,,,,,,,,,,,,,,,,-1.0,,,,,,,,,,,METAR,9.0
CWNP 160700Z AUTO 10003KT 15/08 RMK AO1 SLP160 T01450079 51017,CWNP,2023-05-16T07:00:00Z,50.27,-117.82,14.5,7.9,100,3,,,,1016.0,,TRUE,TRUE,,,,,,,,,,,,,,,,1.7,,,,,,,,,,,METAR,517.0
CWNM 160700Z AUTO 21002KT 15/10 RMK AO1 SLP167 T01450103 51013,CWNM,2023-05-16T07:00:00Z,49.5,-117.3,14.5,10.3,210,2,,,,1016.7,,TRUE,TRUE,,,,,,,,,,,,,,,,1.3,,,,,,,,,,,METAR,533.0
CWNK 160700Z AUTO 29007KT 16/08 RMK AO1 SLP153 T01630078 56009,CWNK,2023-05-16T07:00:00Z,49.5,-98.03,16.3,7.8,290,7,,,,1015.3,,TRUE,TRUE,,,,,,,,,,,,,,,,-0.9,,,,,,,,,,,METAR,271.0
CWNH 160700Z AUTO 27004KT 10/05 RMK AO1 SLP015 T00980053 57010,CWNH,2023-05-16T07:00:00Z,47.8,-69.53,9.8,5.3,270,4,,,,1001.5,,TRUE,TRUE,,,,,,,,,,,,,,,,-1.0,,,,,,,,,,,METAR,147.0
CWNE 160700Z AUTO 23015KT 09/06 RMK AO1 SLP976 T00860060 56006,CWNE,2023-05-16T07:00:00Z,47.07,-64.0,8.6,6.0,230,15,,,,997.6,,TRUE,TRUE,,,,,,,,,,,,,,,,-0.6,,,,,,,,,,,METAR,5.0
CWND 160700Z AUTO 33012KT 01/M01 RMK AO1 PK WND 33017/0645 SLP181 T00081006 53026,CWND,2023-05-16T07:00:00Z,69.63,-135.43,0.8,-0.6,330,12,,,,1018.1,,TRUE,TRUE,,,,,,,,,,,,,,,,2.6,,,,,,,,,,,METAR,14.0
CWNC 160700Z AUTO 27009KT 10/06 RMK AO1 SLP108 T00960059 57025,CWNC,2023-05-16T07:00:00Z,43.95,-78.17,9.6,5.9,270,9,,,,1010.8,,TRUE,TRUE,,,,,,,,,,,,,,,,-2.5,,,,,,,,,,,METAR,71.0
CWMT 160700Z AUTO 28005KT 05/04 RMK AO1 SLP217 T00460044 56002,CWMT,2023-05-16T07:00:00Z,63.13,-117.25,4.6,4.4,280,5,,,,1021.7,,TRUE,TRUE,,,,,,,,,,,,,,,,-0.2,,,,,,,,,,,SPECI,274.0
CWMQ 160700Z AUTO 17009KT 18/09 RMK AO1 SLP154 T01770094 57013,CWMQ,2023-05-16T07:00:00Z,49.9,-109.47,17.7,9.4,170,9,,,,1015.4,,TRUE,TRUE,,,,,,,,,,,,,,,,-1.3,,,,,,,,,,,METAR,767.0
CWMM 160700Z AUTO 19005KT 21/10 RMK AO1 SLP158 T02130103 53024,CWMM,2023-05-16T07:00:00Z,49.22,-122.68,21.3,10.3,190,5,,,,1015.8,,TRUE,TRUE,,,,,,,,,,,,,,,,2.4,,,,,,,,,,,METAR,2.0
CWMJ 160700Z AUTO 21001KT 10/07 RMK AO1 SLP061 T01020072 58023,CWMJ,2023-05-16T07:00:00Z,46.27,-76.0,10.2,7.2,210,1,,,,1006.1,,TRUE,TRUE,,,,,,,,,,,,,,,,-2.3,,,,,,,,,,,METAR,198.0
CWME 160700Z AUTO 10006KT 19/11 RMK AO1 SLP159 T01940107 51016,CWME,2023-05-16T07:00:00Z,52.18,-127.47,19.4,10.7,100,6,,,,1015.9,,TRUE,TRUE,,,,,,,,,,,,,,,,1.6,,,,,,,,,,,METAR,23.0
CWLY 160700Z AUTO 19012G22KT 9SM CLR 24/11 A2993 RMK SLP134 DENSITY ALT 2000FT,CWLY,2023-05-16T07:00:00Z,50.22,-121.58,24.0,11.0,190,12,22,9.0,29.929134,1013.4,,TRUE,,,,,,,,CLR,,,,,,,,VFR,,,,,,,,,,,,SPECI,228.0
CWLX 160700Z AUTO ///// ////SM ////// M08/M14 A2993,CWLX,2023-05-16T07:00:00Z,68.9,-75.15,-8.0,-14.0,,,,,29.929134,,,TRUE,,,,,,,,,,,,,,,,,,,,,,,,,,,,SPECI,129.0
CWLS 160700Z AUTO 23003KT 09/M00 RMK AO1 SLP128 T00851003 58028,CWLS,2023-05-16T07:00:00Z,43.97,-80.75,8.5,-0.3,230,3,,,,1012.8,,TRUE,TRUE,,,,,,,,,,,,,,,,-2.8,,,,,,,,,,,METAR,413.0
CWLP 160700Z AUTO 34007KT 10/09 RMK AO1 SLP158 T01010091 53008,CWLP,2023-05-16T07:00:00Z,50.93,-127.63,10.1,9.1,340,7,,,,1015.8,,TRUE,TRUE,,,,,,,,,,,,,,,,0.8,,,,,,,,,,,METAR,15.0
CWLM 160700Z AUTO 21026KT 13/10 RMK AO1 PK WND 20029/0659 SLP156 T01270099 53018,CWLM,2023-05-16T07:00:00Z,48.42,-123.32,12.7,9.9,210,26,,,,1015.6,,TRUE,TRUE,,,,,,,,,,,,,,,,1.8,,,,,,,,,,,METAR,62.0
CWLE 160700Z AUTO 19009KT 12/04 RMK AO1 SLP180 T01160044 57011,CWLE,2023-05-16T07:00:00Z,50.95,-107.15,11.6,4.4,190,9,,,,1018.0,,TRUE,TRUE,,,,,,,,,,,,,,,,-1.1,,,,,,,,,,,METAR,666.0
CWLC 160700Z AUTO 09001KT 14/10 RMK AO1 T01370101,CWLC,2023-05-16T07:00:00Z,54.3,-130.62,13.7,10.1,90,1,,,,,,TRUE,TRUE,,,,,,,,,,,,,,,,,,,,,,,,,,,METAR,27.0
CWLB 160700Z AUTO 18005KT 17/08 RMK AO1 SLP121 T01700084 56008,CWLB,2023-05-16T07:00:00Z,54.77,-112.02,17.0,8.4,180,5,,,,1012.1,,TRUE,TRUE,,,,,,,,,,,,,,,,-0.8,,,,,,,,,,,METAR,561.0
CWKX 160700Z AUTO 03004KT 08/M06 RMK AO1 SLP245 T00811060 51014,CWKX,2023-05-16T07:00:00Z,58.43,-130.02,8.1,-6.0,30,4,,,,1024.5,,TRUE,TRUE,,,,,,,,,,,,,,,,1.4,,,,,,,,,,,METAR,807.0
CWKO 160700Z AUTO 15007KT 13/04 RMK AO1 SLP202 T01280039 56011,CWKO,2023-05-16T07:00:00Z,49.17,-105.97,12.8,3.9,150,7,,,,1020.2,,TRUE,TRUE,,,,,,,,,,,,,,,,-1.1,,,,,,,,,,,METAR,914.0
CWKH 160700Z AUTO 20/08 RMK AO1 SLP146 T01950075 53011,CWKH,2023-05-16T07:00:00Z,48.57,-123.55,19.5,7.5,,,,,,1014.6,,TRUE,TRUE,,,,,,,,,,,,,,,,1.1,,,,,,,,,,,METAR,327.0
CWKG 160700Z AUTO 26004KT 11/04 RMK AO1 SLP024 T01100043 56016,CWKG,2023-05-16T07:00:00Z,44.43,-65.2,11.0,4.3,260,4,,,,1002.4,,TRUE,TRUE,,,,,,,,,,,,,,,,-1.6,,,,,,,,,,,METAR,154.0
CWJX 160700Z AUTO 16011KT 15/07 RMK AO1 SOG 01 6007 SLP150 T01540068,CWJX,2023-05-16T07:00:00Z,50.88,-109.5,15.4,6.8,160,11,,,,1015.0,,TRUE,TRUE,,,,,,,,,,,,,,,,,,,,,,,,,,,METAR,671.0
CWJW 160700Z AUTO 12004KT 13/01 RMK AO1 SLP163 T01320013 52020,CWJW,2023-05-16T07:00:00Z,52.93,-118.03,13.2,1.3,120,4,,,,1016.3,,TRUE,TRUE,,,,,,,,,,,,,,,,2.0,,,,,,,,,,,METAR,1022.0
CWJV 160700Z AUTO 10004KT 20/10 RMK AO1 SLP145 T01960102 51012,CWJV,2023-05-16T07:00:00Z,50.22,-119.18,19.6,10.2,100,4,,,,1014.5,,TRUE,TRUE,,,,,,,,,,,,,,,,1.2,,,,,,,,,,,METAR,487.0
CWJU 160700Z AUTO 24002KT 10/07 RMK AO1 SLP187 T01040071 58003,CWJU,2023-05-16T07:00:00Z,54.25,-133.07,10.4,7.1,240,2,,,,1018.7,,TRUE,TRUE,,,,,,,,,,,,,,,,-0.3,,,,,,,,,,,METAR,47.0
CWJT 160700Z AUTO 00000KT 11/08 RMK AO1 SLP055 T01080081 58022,CWJT,2023-05-16T07:00:00Z,46.07,-74.57,10.8,8.1,0,0,,,,1005.5,,TRUE,TRUE,,,,,,,,,,,,,,,,-2.2,,,,,,,,,,,METAR,236.0
CWJR 160700Z AUTO 15005KT 18/11 RMK AO1 PK WND 16018/0602 SLP184 T01790114 51022,CWJR,2023-05-16T07:00:00Z,49.03,-116.5,17.9,11.4,150,5,,,,1018.4,,TRUE,TRUE,,,,,,,,,,,,,,,,2.2,,,,,,,,,,,METAR,642.0
CWJO 160700Z AUTO 00029KT 07/04 RMK AO1 SLP026 T00650035 55007,CWJO,2023-05-16T07:00:00Z,48.43,-71.15,6.5,3.5,0,29,,,,1002.6,,TRUE,TRUE,,,,,,,,,,,,,,,,-0.7,,,,,,,,,,,METAR,113.0
CWJI 160700Z AUTO 15007KT 13/05 RMK AO1 SLP191 T01340052 56010,CWJI,2023-05-16T07:00:00Z,49.72,-105.93,13.4,5.2,150,7,,,,1019.1,,TRUE,TRUE,,,,,,,,,,,,,,,,-1.0,,,,,,,,,,,METAR,724.0
CWJH 160700Z AUTO 12003KT 12/06 RMK AO1 SLP198 T01220063 56008,CWJH,2023-05-16T07:00:00Z,56.32,-103.27,12.2,6.3,120,3,,,,1019.8,,TRUE,TRUE,,,,,,,,,,,,,,,,-0.8,,,,,,,,,,,METAR,345.0
CWJD 160700Z AUTO 05006KT 07/04 RMK AO1 SLP205 T00720040 51010,CWJD,2023-05-16T07:00:00Z,53.18,-99.27,7.2,4.0,50,6,,,,1020.5,,TRUE,TRUE,,,,,,,,,,,,,,,,1.0,,,,,,,,,,,METAR,222.0
CWJC 160700Z AUTO 14013KT M00/M02 RMK AO1 SLP263 T10011015 58011,CWJC,2023-05-16T07:00:00Z,61.13,-100.9,-0.1,-1.5,140,13,,,,1026.3,,TRUE,TRUE,,,,,,,,,,,,,,,,-1.1,,,,,,,,,,,METAR,340.0
CWJB 160700Z AUTO 13/07 RMK AO1 T01260068,CWJB,2023-05-16T07:00:00Z,46.78,-71.28,12.6,6.8,,,,,,,,TRUE,TRUE,,,,,,,,,,,,,,,,,,,,,,,,,,,METAR,90.0
CWIZ 160700Z AUTO 26007KT 15/01 RMK AO1 T01520005,CWIZ,2023-05-16T07:00:00Z,45.28,-73.33,15.2,0.5,260,7,,,,,,TRUE,TRUE,,,,,,,,,,,,,,,,,,,,,,,,,,,METAR,45.0
CWIW 160700Z AUTO 18004KT 13/07 RMK AO1 SLP180 T01290070 58010,CWIW,2023-05-16T07:00:00Z,51.67,-105.4,12.9,7.0,180,4,,,,1018.0,,TRUE,TRUE,,,,,,,,,,,,,,,,-1.0,,,,,,,,,,,METAR,524.0
CWIT 160700Z AUTO 25005KT 15/M00 RMK AO1 SLP058 T01511001 56017,CWIT,2023-05-16T07:00:00Z,45.17,-73.67,15.1,-0.1,250,5,,,,1005.8,,TRUE,TRUE,,,,,,,,,,,,,,,,-1.7,,,,,,,,,,,METAR,53.0
CWIS 160700Z AUTO 31002KT 06/02 RMK AO1 SLP029 T00570019 57012,CWIS,2023-05-16T07:00:00Z,47.28,-70.63,5.7,1.9,310,2,,,,1002.9,,TRUE,TRUE,,,,,,,,,,,,,,,,-1.2,,,,,,,,,,,METAR,720.0
CWIP 160700Z AUTO 33003KT 05/M02 RMK AO1 T00521021,CWIP,2023-05-16T07:00:00Z,50.17,-66.43,5.2,-2.1,330,3,,,,,,TRUE,TRUE,,,,,,,,,,,,,,,,,,,,,,,,,,,METAR,27.0
CWIL 160700Z AUTO ///// ////SM NCD M01/M02 A3026,CWIL,2023-05-16T07:00:00Z,68.32,-100.07,-1.0,-2.0,,,,,30.259842,,,TRUE,,,,,,,,CLR,,,,,,,,,,,,,,,,,,,,SPECI,28.0
CWIK 160700Z AUTO 24003KT 12/06 RMK AO1 SLP195 T01150055 57010,CWIK,2023-05-16T07:00:00Z,50.37,-102.58,11.5,5.5,240,3,,,,1019.5,,TRUE,TRUE,,,,,,,,,,,,,,,,-1.0,,,,,,,,,,,SPECI,597.0
CWIJ 160700Z AUTO 15004KT 03/01 RMK AO1 SLP238 T00310005 58006,CWIJ,2023-05-16T07:00:00Z,65.77,-111.23,3.1,0.5,150,4,,,,1023.8,,TRUE,TRUE,,,,,,,,,,,,,,,,-0.6,,,,,,,,,,,METAR,490.0
CWII 160700Z AUTO 04013G18KT 16/07 RMK AO1 PK WND 04018/0657 SLP156 T01600069 53003,CWII,2023-05-16T07:00:00Z,50.7,-96.57,16.0,6.9,40,13,18,,,1015.6,,TRUE,TRUE,,,,,,,,,,,,,,,,0.3,,,,,,,,,,,METAR,216.0
CWIG 160700Z AUTO 27009KT RMK AO1 PK WND 27018/0622,CWIG,2023-05-16T07:00:00Z,47.07,-70.53,,,270,9,,,,,,TRUE,TRUE,,,,,,,,,,,,,,,,,,,,,,,,,,,METAR,12.0
CWID 160700Z AUTO 33006KT 08/07 RMK AO1 SLP218 T00830068 51011,CWID,2023-05-16T07:00:00Z,61.32,-117.6,8.3,6.8,330,6,,,,1021.8,,TRUE,TRUE,,,,,,,,,,,,,,,,1.1,,,,,,,,,,,METAR,160.0
CWHV 160700Z AUTO 24003KT 12/08 RMK AO1 SLP033 T01180081 56015,CWHV,2023-05-16T07:00:00Z,46.2,-70.78,11.8,8.1,240,3,,,,1003.3,,TRUE,TRUE,,,,,,,,,,,,,,,,-1.5,,,,,,,,,,,METAR,227.0
CWHT 160700Z AUTO 34004KT 06/M04 RMK AO1 SLP264 T00581035 51016,CWHT,2023-05-16T07:00:00Z,60.77,-137.58,5.8,-3.5,340,4,,,,1026.4,,TRUE,TRUE,,,,,,,,,,,,,,,,1.6,,,,,,,,,,,METAR,601.0
CWHQ 160700Z AUTO 00000KT 10/07 RMK AO1 T01010067,CWHQ,2023-05-16T07:00:00Z,46.68,-71.97,10.1,6.7,0,0,,,,,,TRUE,TRUE,,,,,,,,,,,,,,,,,,,,,,,,,,,METAR,56.0
CWHP 160700Z AUTO 33001KT 04/03 RMK AO1 SLP957 T00440027 52007,CWHP,2023-05-16T07:00:00Z,49.08,-61.7,4.4,2.7,330,1,,,,995.7,,TRUE,TRUE,,,,,,,,,,,,,,,,0.7,,,,,,,,,,,METAR,7.0
CWHO 160700Z AUTO 00028KT M02/M03 RMK AO1 SLP950 T10191028 55000,CWHO,2023-05-16T07:00:00Z,55.45,-60.22,-1.9,-2.8,0,28,,,,995.0,,TRUE,TRUE,,,,,,,,,,,,,,,,0.0,,,,,,,,,,,METAR,16.0
CWHL 160700Z AUTO 02001KT 11/09 RMK AO1 SLP156 T01050092 51002,CWHL,2023-05-16T07:00:00Z,54.17,-130.35,10.5,9.2,20,1,,,,1015.6,,TRUE,TRUE,,,,,,,,,,,,,,,,0.2,,,,,,,,,,,METAR,5.0
CWHI 160700Z AUTO 14008KT 13/07 RMK AO1 T01330068,CWHI,2023-05-16T07:00:00Z,51.7,-113.22,13.3,6.8,140,8,,,,,,TRUE,TRUE,,,,,,,,,,,,,,,,,,,,,,,,,,,METAR,906.0
CWGY 160700Z AUTO 17011KT 16/08 RMK AO1 SLP147 T01570081 56010,CWGY,2023-05-16T07:00:00Z,51.67,-110.2,15.7,8.1,170,11,,,,1014.7,,TRUE,TRUE,,,,,,,,,,,,,,,,-1.0,,,,,,,,,,,METAR,709.0
CWGW 160700Z AUTO 19008KT 18/08 RMK AO1 SLP169 T01780081 52013,CWGW,2023-05-16T07:00:00Z,49.75,-114.9,17.8,8.1,190,8,,,,1016.9,,TRUE,TRUE,,,,,,,,,,,,,,,,1.3,,,,,,,,,,,METAR,1137.0
CWGT 160700Z AUTO 22012KT 21/14 RMK AO1 PK WND 24022/0601 SLP143 T02090137 53013,CWGT,2023-05-16T07:00:00Z,49.48,-124.43,20.9,13.7,220,12,,,,1014.3,,TRUE,TRUE,,,,,,,,,,,,,,,,1.3,,,,,,,,,,,METAR,5.0
CWGR 160700Z AUTO 24008KT 07/06 RMK AO1 3PAST HR 8003 SLP971 P0001 T00670056 50003,CWGR,2023-05-16T07:00:00Z,47.42,-61.77,6.7,5.6,240,8,,,,997.1,,TRUE,TRUE,,,,,,,,,,,,,,,,0.3,,,,,0.01,,,,,,METAR,4.0
CWGM 160700Z AUTO 24012G18KT 16/07 RMK AO1 PK WND 23019/0645 SLP155 T01630066 56001,CWGM,2023-05-16T07:00:00Z,49.13,-113.8,16.3,6.6,240,12,18,,,1015.5,,TRUE,TRUE,,,,,,,,,,,,,,,,-0.1,,,,,,,,,,,METAR,1292.0
CWGL 160700Z AUTO 20007KT 12/05 RMK AO1 SLP094 T01220046 56026,CWGL,2023-05-16T07:00:00Z,44.53,-79.22,12.2,4.6,200,7,,,,1009.4,,TRUE,TRUE,,,,,,,,,,,,,,,,-2.6,,,,,,,,,,,METAR,220.0
CWGH 160700Z AUTO 23003KT 12/05 RMK AO1 SLP085 T01160047 58020,CWGH,2023-05-16T07:00:00Z,44.42,-75.85,11.6,4.7,230,3,,,,1008.5,,TRUE,TRUE,,,,,,,,,,,,,,,,-2.0,,,,,,,,,,,METAR,76.0
CWGD 160700Z AUTO 22007KT 11/04 RMK AO1 SLP131 T01070036 57029,CWGD,2023-05-16T07:00:00Z,43.77,-81.72,10.7,3.6,220,7,,,,1013.1,,TRUE,TRUE,,,,,,,,,,,,,,,,-2.9,,,,,,,,,,,METAR,214.0
CWGB 160700Z AUTO 11008KT 21/ RMK AO1 SLP136 T0207 51016,CWGB,2023-05-16T07:00:00Z,49.35,-124.13,20.7,,110,8,,,,1013.6,,TRUE,TRUE,,,,,,,,,,,,,,,,1.6,,,,,,,,,,,METAR,6.0
CWFQ 160700Z AUTO 21003KT 13/M00 RMK AO1 SLP061 T01341002 56021,CWFQ,2023-05-16T07:00:00Z,45.03,-72.85,13.4,-0.2,210,3,,,,1006.1,,TRUE,TRUE,,,,,,,,,,,,,,,,-2.1,,,,,,,,,,,METAR,190.0
CWFJ 160700Z AUTO 22007KT 16/06 RMK AO1 T01630063,CWFJ,2023-05-16T07:00:00Z,49.2,-113.27,16.3,6.3,220,7,,,,,,TRUE,TRUE,,,,,,,,,,,,,,,,,,,,,,,,,,,METAR,1142.0
CWFF 160700Z AUTO 20008KT 17/04 RMK AO1 SLP170 T01670035 57009,CWFF,2023-05-16T07:00:00Z,52.82,-104.6,16.7,3.5,200,8,,,,1017.0,,TRUE,TRUE,,,,,,,,,,,,,,,,-0.9,,,,,,,,,,,METAR,482.0
CWEZ 160700Z AUTO 19025G33KT 15/10 RMK AO1 PK WND 18035/0649 SLP150 T01450104 53022,CWEZ,2023-05-16T07:00:00Z,48.78,-123.05,14.5,10.4,190,25,33,,,1015.0,,TRUE,TRUE,,,,,,,,,,,,,,,,2.2,,,,,,,,,,,METAR,23.0
CWEW 160700Z AUTO 24002KT 15/07 RMK AO1 SLP055 T01460070 58020,CWEW,2023-05-16T07:00:00Z,45.82,-73.43,14.6,7.0,240,2,,,,1005.5,,TRUE,TRUE,,,,,,,,,,,,,,,,-2.0,,,,,,,,,,,METAR,17.0
CWEU 160700Z 15020KT 6SM BLSN FEW010 BKN045 OVC065 M07/M09 A2969 RMK ST1SC3SC4 SLP068,CWEU,2023-05-16T07:00:00Z,80.0,-85.93,-7.0,-9.0,150,20,,6.0,29.68996,1006.8,,,,,,,,,BLSN,FEW,1000,BKN,4500,OVC,6500,,,VFR,,,,,,,,,,,,SPECI,2.0
CWER 160700Z AUTO 28004KT RMK AO1,CWER,2023-05-16T07:00:00Z,47.0,-70.82,,,280,4,,,,,,TRUE,TRUE,,,,,,,,,,,,,,,,,,,,,,,,,,,METAR,4.0
CWEQ 160700Z AUTO 05008KT 14/07 RMK AO1 SLP185 T01380066 53007,CWEQ,2023-05-16T07:00:00Z,52.12,-101.22,13.8,6.6,50,8,,,,1018.5,,TRUE,TRUE,,,,,,,,,,,,,,,,0.7,,,,,,,,,,,METAR,331.0
CWEP 160700Z AUTO 24008KT 11/05 RMK AO1 SLP984 T01090049 56015,CWEP,2023-05-16T07:00:00Z,46.45,-61.98,10.9,4.9,240,8,,,,998.4,,TRUE,TRUE,,,,,,,,,,,,,,,,-1.5,,,,,,,,,,,METAR,9.0
CWEL 160700Z AUTO 13009KT 19/14 RMK AO1 SLP140 T01900139 51015,CWEL,2023-05-16T07:00:00Z,49.22,-123.8,19.0,13.9,130,9,,,,1014.0,,TRUE,TRUE,,,,,,,,,,,,,,,,1.5,,,,,,,,,,,METAR,0.0
CWEH 160700Z AUTO 13007KT 13/09 RMK AO1 SLP172 T01250086 58010,CWEH,2023-05-16T07:00:00Z,49.43,-108.98,12.5,8.6,130,7,,,,1017.2,,TRUE,TRUE,,,,,,,,,,,,,,,,-1.0,,,,,,,,,,,METAR,1077.0
CWEF 160700Z AUTO 26020KT 06/04 RMK AO1 PK WND 26021/0656 SLP959 T00590035 56007,CWEF,2023-05-16T07:00:00Z,47.22,-60.13,5.9,3.5,260,20,,,,995.9,,TRUE,TRUE,,,,,,,,,,,,,,,,-0.7,,,,,,,,,,,METAR,27.0
CWEB 160700Z AUTO 00014KT 13/12 RMK AO1 SLP192 T01280124 51021,CWEB,2023-05-16T07:00:00Z,49.38,-126.55,12.8,12.4,0,14,,,,1019.2,,TRUE,TRUE,,,,,,,,,,,,,,,,2.1,,,,,,,,,,,METAR,1.0
CWDZ 160700Z AUTO 13005KT 15/09 RMK AO1 SLP133 T01500094 56006,CWDZ,2023-05-16T07:00:00Z,51.43,-112.67,15.0,9.4,130,5,,,,1013.3,,TRUE,TRUE,,,,,,,,,,,,,,,,-0.6,,,,,,,,,,,METAR,689.0
CWDV 160700Z AUTO 30006KT 16/04 RMK AO1 SLP101 T01560039 56020,CWDV,2023-05-16T07:00:00Z,49.02,-90.47,15.6,3.9,300,6,,,,1010.1,,TRUE,TRUE,,,,,,,,,,,,,,,,-2.0,,,,,,,,,,,METAR,487.0
CWDQ 160700Z AUTO 36004KT 10/04 RMK AO1 SLP048 T00970043 56009,CWDQ,2023-05-16T07:00:00Z,47.42,-72.78,9.7,4.3,360,4,,,,1004.8,,TRUE,TRUE,,,,,,,,,,,,,,,,-0.9,,,,,,,,,,,METAR,174.0
CWDO 160700Z AUTO 22012KT 06/05 RMK AO1 PK WND 22019/0621 SLP923 T00580051 56010,CWDO,2023-05-16T07:00:00Z,49.68,-54.78,5.8,5.1,220,12,,,,992.3,,TRUE,TRUE,,,,,,,,,,,,,,,,-1.0,,,,,,,,,,,METAR,89.0
CWDM 160700Z AUTO 32004KT M00/M00 RMK AO1 SLP944 T10011004 53011,CWDM,2023-05-16T07:00:00Z,50.47,-59.63,-0.1,-0.4,320,4,,,,994.4,,TRUE,TRUE,,,,,,,,,,,,,,,,1.1,,,,,,,,,,,METAR,2.0
CWDK 160700Z AUTO 30002KT 13/07 RMK AO1 SLP138 T01290066 56008,CWDK,2023-05-16T07:00:00Z,50.02,-113.62,12.9,6.6,300,2,,,,1013.8,,TRUE,TRUE,,,,,,,,,,,,,,,,-0.8,,,,,,,,,,,METAR,1014.0
CWDJ 160700Z AUTO 13005KT 11/03 RMK AO1 SLP192 T01050032 56009,CWDJ,2023-05-16T07:00:00Z,50.4,-104.58,10.5,3.2,130,5,,,,1019.2,,TRUE,TRUE,,,,,,,,,,,,,,,,-0.9,,,,,,,,,,,METAR,576.0
CWDC 160700Z AUTO 10008G22KT 15/02 RMK AO1 PK WND 10027/0632 SLP102 T01470015 57037,CWDC,2023-05-16T07:00:00Z,59.57,-108.48,14.7,1.5,100,8,22,,,1010.2,,TRUE,TRUE,,,,,,,,,,,,,,,,-3.7,,,,,,,,,,,METAR,311.0
CWDA 160700Z AUTO 00011KT 03/ RMK AO1 T0033,CWDA,2023-05-16T07:00:00Z,50.72,-56.12,3.3,,0,11,,,,,,TRUE,TRUE,,,,,,,,,,,,,,,,,,,,,,,,,,,METAR,30.0
CWCT 160700Z AUTO 20004KT 11/08 RMK AO1 SLP157 T01070080 56008,CWCT,2023-05-16T07:00:00Z,52.07,-111.43,10.7,8.0,200,4,,,,1015.7,,TRUE,TRUE,,,,,,,,,,,,,,,,-0.8,,,,,,,,,,,METAR,793.0
CWCO 160700Z AUTO 29007KT 17/M02 RMK AO1 SLP110 T01651017 56026,CWCO,2023-05-16T07:00:00Z,44.5,-80.22,16.5,-1.7,290,7,,,,1011.0,,TRUE,TRUE,,,,,,,,,,,,,,,,-2.6,,,,,,,,,,,METAR,182.0
CWCJ 160700Z AUTO 28001KT 06/02 RMK AO1 SLP071 T00590023 56034,CWCJ,2023-05-16T07:00:00Z,48.6,-86.28,5.9,2.3,280,1,,,,1007.1,,TRUE,TRUE,,,,,,,,,,,,,,,,-3.4,,,,,,,,,,,METAR,207.0
CWCF 160700Z AUTO 07009KT 11/05 RMK AO1 SLP189 T01140050 51013,CWCF,2023-05-16T07:00:00Z,52.35,-97.03,11.4,5.0,70,9,,,,1018.9,,TRUE,TRUE,,,,,,,,,,,,,,,,1.3,,,,,,,,,,,METAR,219.0
CWBZ 160700Z AUTO 24010G16KT 14/M00 RMK AO1 SLP060 T01421004 57020,CWBZ,2023-05-16T07:00:00Z,45.12,-74.28,14.2,-0.4,240,10,16,,,1006.0,,TRUE,TRUE,,,,,,,,,,,,,,,,-2.0,,,,,,,,,,,METAR,49.0
CWBY 160700Z AUTO 02006KT 05/01 RMK AO1 SLP966 T00490012 51002,CWBY,2023-05-16T07:00:00Z,49.83,-64.28,4.9,1.2,20,6,,,,996.6,,TRUE,TRUE,,,,,,,,,,,,,,,,0.2,,,,,,,,,,,METAR,56.0
CWBV 160700Z AUTO 24016KT 06/04 RMK AO1 PK WND 25019/0649 SLP998 T00620035 58009,CWBV,2023-05-16T07:00:00Z,44.82,-62.33,6.2,3.5,240,16,,,,999.8,,TRUE,TRUE,,,,,,,,,,,,,,,,-0.9,,,,,,,,,,,METAR,16.0
CWBU 160700Z AUTO 07004KT 15/06 RMK AO1 SLP166 T01480059 57006,CWBU,2023-05-16T07:00:00Z,53.33,-104.02,14.8,5.9,70,4,,,,1016.6,,TRUE,TRUE,,,,,,,,,,,,,,,,-0.6,,,,,,,,,,,SPECI,369.0
CWBT 160700Z AUTO 36002KT 01/01 RMK AO1 SLP969 T00140014 55000,CWBT,2023-05-16T07:00:00Z,50.27,-64.23,1.4,1.4,360,2,,,,996.9,,TRUE,TRUE,,,,,,,,,,,,,,,,0.0,,,,,,,,,,,METAR,12.0
CWBS 160700Z AUTO 28009KT 14/09 RMK AO1 T01440092,CWBS,2023-05-16T07:00:00Z,46.18,-72.92,14.4,9.2,280,9,,,,,,TRUE,TRUE,,,,,,,,,,,,,,,,,,,,,,,,,,,METAR,3.0
CWBO 160700Z AUTO 17005KT 14/09 RMK AO1 SLP139 T01360086 57008,CWBO,2023-05-16T07:00:00Z,50.53,-111.83,13.6,8.6,170,5,,,,1013.9,,TRUE,TRUE,,,,,,,,,,,,,,,,-0.8,,,,,,,,,,,METAR,752.0
CWBK 160700Z AUTO 23006KT 11/06 RMK AO1 SLP993 T01080055 56016,CWBK,2023-05-16T07:00:00Z,45.77,-62.67,10.8,5.5,230,6,,,,999.3,,TRUE,TRUE,,,,,,,,,,,,,,,,-1.6,,,,,,,,,,,METAR,2.0
CWBA 160700Z AUTO 32003KT 09/04 RMK AO1 T00900040,CWBA,2023-05-16T07:00:00Z,46.72,-79.1,9.0,4.0,320,3,,,,,,TRUE,TRUE,,,,,,,,,,,,,,,,,,,,,,,,,,,METAR,181.0
CWAV 160700Z AUTO 24003KT 10/07 RMK AO1 SLP141 T00980067 58003,CWAV,2023-05-16T07:00:00Z,51.77,-114.67,9.8,6.7,240,3,,,,1014.1,,TRUE,TRUE,,,,,,,,,,,,,,,,-0.3,,,,,,,,,,,METAR,1115.0
CWAR 160700Z AUTO 15021KT 05/03 RMK AO1 PK WND 15025/0654 SLP988 T00510030 58019,CWAR,2023-05-16T07:00:00Z,47.28,-54.0,5.1,3.0,150,21,,,,998.8,,TRUE,TRUE,,,,,,,,,,,,,,,,-1.9,,,,,,,,,,,METAR,6.0
CWAQ 160700Z AUTO 10005KT 11/07 RMK AO1 SLP201 T01110068 57008,CWAQ,2023-05-16T07:00:00Z,49.05,-105.48,11.1,6.8,100,5,,,,1020.1,,TRUE,TRUE,,,,,,,,,,,,,,,,-0.8,,,,,,,,,,,METAR,761.0
CWAJ 160700Z AUTO 23006KT RMK AO1 56029,CWAJ,2023-05-16T07:00:00Z,42.25,-81.9,,,230,6,,,,,,TRUE,TRUE,,,,,,,,,,,,,,,,-2.9,,,,,,,,,,,METAR,177.0
CWAF 160700Z AUTO 29014KT 08/05 RMK AO1 PK WND 28018/0647 T00840051,CWAF,2023-05-16T07:00:00Z,48.07,-69.55,8.4,5.1,290,14,,,,,,TRUE,TRUE,,,,,,,,,,,,,,,,,,,,,,,,,,,METAR,6.0
CTNK 160700Z AUTO 26003KT 11/01 RMK AO1 SLP081 T01050005 57026,CTNK,2023-05-16T07:00:00Z,45.53,-78.27,10.5,0.5,260,3,,,,1008.1,,TRUE,TRUE,,,,,,,,,,,,,,,,-2.6,,,,,,,,,,,METAR,405.0
CTCK 160700Z AUTO 22003KT 13/01 RMK AO1 SLP058 T01340012 58020,CTCK,2023-05-16T07:00:00Z,45.25,-74.97,13.4,1.2,220,3,,,,1005.8,,TRUE,TRUE,,,,,,,,,,,,,,,,-2.0,,,,,,,,,,,METAR,84.0
CPSV 160700Z AUTO 20006KT 15/10 RMK AO1 T01500100,CPSV,2023-05-16T07:00:00Z,49.92,-110.92,15.0,10.0,200,6,,,,,,TRUE,TRUE,,,,,,,,,,,,,,,,,,,,,,,,,,,METAR,766.0
CPST 160700Z AUTO 17010KT 18/08 RMK AO1 PK WND 16017/0622 T01800077,CPST,2023-05-16T07:00:00Z,51.03,-113.28,18.0,7.7,170,10,,,,,,TRUE,TRUE,,,,,,,,,,,,,,,,,,,,,,,,,,,METAR,1005.0
CPRY 160700Z AUTO 20008KT 17/06 RMK AO1 T01720061,CPRY,2023-05-16T07:00:00Z,49.48,-112.68,17.2,6.1,200,8,,,,,,TRUE,TRUE,,,,,,,,,,,,,,,,,,,,,,,,,,,METAR,947.0
CPRO 160700Z AUTO 16006KT 12/10 RMK AO1 T01150098,CPRO,2023-05-16T07:00:00Z,50.83,-112.05,11.5,9.8,160,6,,,,,,TRUE,TRUE,,,,,,,,,,,,,,,,,,,,,,,,,,,METAR,733.0
CPIN 160700Z AUTO 30007KT ////SM ////// ///// A////,CPIN,2023-05-16T07:00:00Z,,,,,300,7,,,,,,TRUE,,,,,,,,,,,,,,,,,,,,,,,,,,,,METAR,
CPFI 160700Z AUTO 18011KT 16/09 RMK AO1 T01580093,CPFI,2023-05-16T07:00:00Z,49.8,-112.03,15.8,9.3,180,11,,,,,,TRUE,TRUE,,,,,,,,,,,,,,,,,,,,,,,,,,,METAR,804.0
CPEH 160700Z AUTO 13/09 RMK AO1 T01320090,CPEH,2023-05-16T07:00:00Z,50.18,-112.43,13.2,9.0,,,,,,,,TRUE,TRUE,,,,,,,,,,,,,,,,,,,,,,,,,,,METAR,814.0
CPBT 160700Z AUTO 23013KT 14/07 RMK AO1 PK WND 23017/0629 T01400072,CPBT,2023-05-16T07:00:00Z,49.53,-113.05,14.0,7.2,230,13,,,,,,TRUE,TRUE,,,,,,,,,,,,,,,,,,,,,,,,,,,METAR,998.0
CMGB 160700Z AUTO 19002KT 13/04 RMK AO1 SLP058 T01270044 56019,CMGB,2023-05-16T07:00:00Z,45.37,-72.77,12.7,4.4,190,2,,,,1005.8,,TRUE,TRUE,,,,,,,,,,,,,,,,-1.9,,,,,,,,,,,SPECI,87.0
CMFM 160700Z AUTO 29004KT 05/03 RMK AO1 SLP029 T00450029 56012,CMFM,2023-05-16T07:00:00Z,47.32,-71.15,4.5,2.9,290,4,,,,1002.9,,TRUE,TRUE,,,,,,,,,,,,,,,,-1.2,,,,,,,,,,,SPECI,663.0
CERM 160700Z AUTO 00000KT 04/04 RMK AO1 SLP010 T00420038 57010,CERM,2023-05-16T07:00:00Z,47.42,-68.32,4.2,3.8,0,0,,,,1001.0,,TRUE,TRUE,,,,,,,,,,,,,,,,-1.0,,,,,,,,,,,METAR,151.0
CBBC 160700Z AUTO VRB02KT 9SM CLR 13/10 A2998 RMK SLP153,CBBC,2023-05-16T07:00:00Z,52.18,-128.15,13.0,10.0,0,2,,9.0,29.97933,1015.3,,TRUE,,,,,,,,CLR,,,,,,,,VFR,,,,,,,,,,,,METAR,36.0
CBAR 160700Z AUTO 26014KT ////SM ////// 03/M01 A3006,CBAR,2023-05-16T07:00:00Z,,,3.0,-1.0,260,14,,,30.059055,,,TRUE,,,,,,,,,,,,,,,,,,,,,,,,,,,,METAR,
CAHR 160700Z AUTO 21003KT 10/05 RMK AO1 SLP986 T00990051 56013,CAHR,2023-05-16T07:00:00Z,46.35,-63.17,9.9,5.1,210,3,,,,998.6,,TRUE,TRUE,,,,,,,,,,,,,,,,-1.3,,,,,,,,,,,METAR,52.0
BIVO 160700Z 22010KT CAVOK M02/M08 Q1021,BIVO,2023-05-16T07:00:00Z,65.72,-14.83,-2.0,-8.0,220,10,,6.21,30.147638,,,,,,,,,,,CAVOK,,,,,,,,VFR,,,,,,,,,,,,METAR,3.0
BIRK 160700Z 09008KT 9999 SCT035 BKN040 04/M01 Q1019,BIRK,2023-05-16T07:00:00Z,64.13,-21.93,4.0,-1.0,90,8,,6.21,30.088583,,,,,,,,,,,SCT,3500,BKN,4000,,,,,VFR,,,,,,,,,,,,METAR,12.0
BIKF 160700Z 13014KT 9999 FEW013 SCT035 BKN130 04/00 Q1018,BIKF,2023-05-16T07:00:00Z,63.98,-22.6,4.0,0.0,130,14,,6.21,30.059055,,,,,,,,,,,FEW,1300,SCT,3500,BKN,13000,,,VFR,,,,,,,,,,,,METAR,49.0
BIIS 160700Z 00000KT 9999 BKN045 01/M04 Q1017,BIIS,2023-05-16T07:00:00Z,66.05,-23.13,1.0,-4.0,0,0,,6.21,30.029528,,,,,,,,,,,BKN,4500,,,,,,,VFR,,,,,,,,,,,,METAR,3.0
BIEG 160700Z VRB03KT CAVOK M01/M08 Q1021,BIEG,2023-05-16T07:00:00Z,65.27,-14.4,-1.0,-8.0,0,3,,6.21,30.147638,,,,,,,,,,,CAVOK,,,,,,,,VFR,,,,,,,,,,,,METAR,20.0
BIAR 160700Z 17005KT CAVOK M01/M07 Q1019,BIAR,2023-05-16T07:00:00Z,65.67,-18.07,-1.0,-7.0,170,5,,6.21,30.088583,,,,,,,,,,,CAVOK,,,,,,,,VFR,,,,,,,,,,,,METAR,1.0
AYPY 160700Z 25010KT 9999 HZ FEW020 SCT100 30/25 Q1008,AYPY,2023-05-16T07:00:00Z,-9.43,147.22,30.0,25.0,250,10,,6.21,29.763779,,,,,,,,,,HZ,FEW,2000,SCT,10000,,,,,VFR,,,,,,,,,,,,METAR,44.0
AYNZ 160700Z 07005G10KT 9999 HZ FEW020 OVC100 28/22 Q1009,AYNZ,2023-05-16T07:00:00Z,-6.57,146.72,28.0,22.0,70,5,10,6.21,29.793306,,,,,,,,,,HZ,FEW,2000,OVC,10000,,,,,VFR,,,,,,,,,,,,METAR,74.0
AYMH 160700Z 32007KT 9999 SCT040 22/17 Q1020,AYMH,2023-05-16T07:00:00Z,-5.83,144.3,22.0,17.0,320,7,,6.21,30.11811,,,,,,,,,,,SCT,4000,,,,,,,VFR,,,,,,,,,,,,METAR,1634.0
AGGH 160700Z 14003KT 9999 FEW016 FEW017CB BKN100 26/26 Q1009,AGGH,2023-05-16T07:00:00Z,-9.42,160.05,26.0,26.0,140,3,,6.21,29.793306,,,,,,,,,,,FEW,1600,FEW,1700,BKN,10000,,,VFR,,,,,,,,,,,,METAR,6.0
RODE 160659Z AUTO A2995 RMK AO2 SLPNO PWINO TSNO $,RODE,2023-05-16T06:59:00Z,26.72,127.77,,,,,,,29.949802,,,TRUE,TRUE,TRUE,,TRUE,,TRUE,,,,,,,,,,,,,,,,,,,,,,SPECI,69.0
MUCF 160659Z AUTO 06004KT 040V100 23/22 Q1016,MUCF,2023-05-16T06:59:00Z,22.15,-80.4,23.0,22.0,60,4,,,30.0,,,TRUE,,,,,,,,,,,,,,,,,,,,,,,,,,,,METAR,35.0
MTPP 160659Z AUTO 10009KT //// ////// 24/22 Q1015 A2998 NOSIG,MTPP,2023-05-16T06:59:00Z,18.57,-72.3,24.0,22.0,100,9,,,29.970472,,,TRUE,,,TRUE,,,,,,,,,,,,,,,,,,,,,,,,,METAR,36.0
KPMH 160659Z AUTO 00000KT 10SM SCT050 15/13 A3004 RMK AO2,KPMH,2023-05-16T06:59:00Z,38.83,-82.85,15.0,13.0,0,0,,10.0,30.041338,,,TRUE,TRUE,,,,,,,SCT,5000,,,,,,,VFR,,,,,,,,,,,,METAR,200.0
KP92 160659Z AUTO 00000KT 22/21 A3004 RMK AO1 SLP171 T02170211,KP92,2023-05-16T06:59:00Z,29.57,-91.53,21.7,21.1,0,0,,,30.041338,1017.1,,TRUE,TRUE,,,,,,,,,,,,,,,,,,,,,,,,,,,SPECI,1.0
KOXR 160659Z AUTO 29005KT 3SM BR OVC003 14/14 A3006 RMK AO2 T01440139,KOXR,2023-05-16T06:59:00Z,34.2,-119.2,14.4,13.9,290,5,,3.0,30.059055,,,TRUE,TRUE,,,,,,BR,OVC,300,,,,,,,LIFR,,,,,,,,,,,,SPECI,12.0
KNOZ 160659Z AUTO 17005KT 10SM CLR 26/M04 A2993 RMK AO2 SLP083 T02611039 403720206,KNOZ,2023-05-16T06:59:00Z,32.53,-114.5,26.1,-3.9,170,5,,10.0,29.929134,1008.3,,TRUE,TRUE,,,,,,,CLR,,,,,,,,VFR,,,,37.2,20.6,,,,,,,METAR,78.0
KNGU 160659Z 20007KT 10SM OVC075 19/10 A3007 RMK AO2 SLP183 T01890100 $,KNGU,2023-05-16T06:59:00Z,36.93,-76.27,18.9,10.0,200,7,,10.0,30.070866,1018.3,,,TRUE,TRUE,,,,,,OVC,7500,,,,,,,VFR,,,,,,,,,,,,SPECI,3.0
KMRT 160659Z AUTO 00000KT 10SM CLR 11/08 A3003 RMK AO1,KMRT,2023-05-16T06:59:00Z,40.22,-83.35,11.0,8.0,0,0,,10.0,30.029528,,,TRUE,TRUE,,,,,,,CLR,,,,,,,,VFR,,,,,,,,,,,,METAR,302.0
KIML 160659Z AUTO 00000KT 1/4SM FG VV001 08/08 A3024 RMK AO2 T00830078 $,KIML,2023-05-16T06:59:00Z,40.52,-101.62,8.3,7.8,0,0,,0.25,30.239174,,,TRUE,TRUE,TRUE,,,,,FG,OVX,0,,,,,,,LIFR,,,,,,,,,,,100,SPECI,997.0
K04W 160659Z AUTO 25003KT 10SM CLR 13/04 A3001 RMK AO2,K04W,2023-05-16T06:59:00Z,46.02,-92.9,13.0,4.0,250,3,,10.0,30.008858,,,TRUE,TRUE,,,,,,,CLR,,,,,,,,VFR,,,,,,,,,,,,SPECI,310.0
KWRB 160658Z AUTO 15007KT 9SM SCT023 21/21 A3008 RMK AO2 SLP186,KWRB,2023-05-16T06:58:00Z,32.63,-83.58,21.0,21.0,150,7,,9.0,30.079725,1018.6,,TRUE,TRUE,,,,,,,SCT,2300,,,,,,,VFR,,,,,,,,,,,,SPECI,82.0
KTCM 160658Z AUTO 26008KT 10SM FEW055 SCT100 OVC140 16/15 A3007 RMK AO2 LTG DSNT SE-S RAE58 SLP184,KTCM,2023-05-16T06:58:00Z,47.13,-122.47,16.0,15.0,260,8,,10.0,30.070866,1018.4,,TRUE,TRUE,,,,,,,FEW,5500,SCT,10000,OVC,14000,,,VFR,,,,,,,,,,,,METAR,87.0
KPRN 160658Z AUTO 17005KT 10SM CLR 19/19 A3004 RMK AO2 PRESFR SLP116 T01940189,KPRN,2023-05-16T06:58:00Z,31.85,-86.62,19.4,18.9,170,5,,10.0,30.041338,1011.6,,TRUE,TRUE,,,,,,,CLR,,,,,,,,VFR,,,,,,,,,,,,SPECI,137.0
KMRH 160658Z AUTO 15004KT 10SM CLR 19/15 A3009 RMK AO2 SLP189 T01890150,KMRH,2023-05-16T06:58:00Z,34.73,-76.65,18.9,15.0,150,4,,10.0,30.088583,1018.9,,TRUE,TRUE,,,,,,,CLR,,,,,,,,VFR,,,,,,,,,,,,SPECI,2.0
KMEI 160658Z AUTO 00000KT 10SM CLR 22/21 A3005 RMK AO2 SLP171 T02220211 $,KMEI,2023-05-16T06:58:00Z,32.33,-88.75,22.2,21.1,0,0,,10.0,30.050198,1017.1,,TRUE,TRUE,TRUE,,,,,,CLR,,,,,,,,VFR,,,,,,,,,,,,SPECI,90.0
KFEW 160658Z 22007KT 10SM FEW030 08/07 A3026 RMK SLPNO WND DATA ESTMD ALSTG ESTMD $,KFEW,2023-05-16T06:58:00Z,41.13,-104.87,8.0,7.0,220,7,,10.0,30.259842,,,,,TRUE,,,,,,FEW,3000,,,,,,,VFR,,,,,,,,,,,,METAR,1877.0
KEUF 160658Z AUTO 00000KT 7SM CLR 21/21 A3007 RMK AO2 SLP177 T02110211,KEUF,2023-05-16T06:58:00Z,31.95,-85.13,21.1,21.1,0,0,,7.0,30.070866,1017.7,,TRUE,TRUE,,,,,,,CLR,,,,,,,,VFR,,,,,,,,,,,,METAR,87.0
KBKF 160658Z 18006KT 10SM FEW110 10/08 A3026 RMK AO2A SLP211 T00990077 401530080,KBKF,2023-05-16T06:58:00Z,39.72,-104.75,9.9,7.7,180,6,,10.0,30.259842,1021.1,,,TRUE,,,,,,,FEW,11000,,,,,,,VFR,,,,15.3,8.0,,,,,,,METAR,1703.0
KBCR 160658Z AUTO 00000KT 10SM CLR 21/20 A3006 RMK AO2 SLP137 T02110200,KBCR,2023-05-16T06:58:00Z,30.85,-85.6,21.1,20.0,0,0,,10.0,30.059055,1013.7,,TRUE,TRUE,,,,,,,CLR,,,,,,,,VFR,,,,,,,,,,,,SPECI,26.0
PHNG 160657Z 06009KT SCT031 BKN040 OVC055 26/18 A3004 RMK AO2 SLP167 T02560178 $,PHNG,2023-05-16T06:57:00Z,21.43,-157.77,25.6,17.8,60,9,,,30.041338,1016.7,,,TRUE,TRUE,,,,,,SCT,3100,BKN,4000,OVC,5500,,,,,,,,,,,,,,,SPECI,1.0
KNYL 160657Z AUTO 00000KT 10SM CLR 27/02 A2991 RMK AO2 SLP125 T02670022 403670206,KNYL,2023-05-16T06:57:00Z,32.65,-114.62,26.7,2.2,0,0,,10.0,29.911417,1012.5,,TRUE,TRUE,,,,,,,CLR,,,,,,,,VFR,,,,36.7,20.6,,,,,,,SPECI,58.0
KNJW 160657Z AUTO 00000KT 10SM CLR 21/19 A3008 RMK AO2 SLP097 T02110194,KNJW,2023-05-16T06:57:00Z,32.78,-88.82,21.1,19.4,0,0,,10.0,30.079725,1009.7,,TRUE,TRUE,,,,,,,CLR,,,,,,,,VFR,,,,,,,,,,,,METAR,165.0
KMNM 160657Z AUTO 26005KT 10SM CLR 14/05 A2993 RMK AO2 SLP148 T01440050 PNO $,KMNM,2023-05-16T06:57:00Z,45.12,-87.63,14.4,5.0,260,5,,10.0,29.929134,1014.8,,TRUE,TRUE,TRUE,,,,,,CLR,,,,,,,,VFR,,,,,,,,,,,,METAR,188.0
KFLG 160657Z AUTO 00000KT 10SM CLR 11/05 A3038 RMK AO2 SLP204 T01110050 402170056,KFLG,2023-05-16T06:57:00Z,35.13,-111.67,11.1,5.0,0,0,,10.0,30.380905,1020.4,,TRUE,TRUE,,,,,,,CLR,,,,,,,,VFR,,,,21.7,5.6,,,,,,,SPECI,2134.0
KAQV 160657Z AUTO 00000KT 6SM BR CLR 20/18 A3005 RMK AO2 SLP170 T02000183,KAQV,2023-05-16T06:57:00Z,31.4,-93.3,20.0,18.3,0,0,,6.0,30.050198,1017.0,,TRUE,TRUE,,,,,,BR,CLR,,,,,,,,VFR,,,,,,,,,,,,SPECI,123.0
ETHA 160657Z 01005KT 9999 SCT007 BKN090 09/07 Q1013 BLU BLU TEMPO GRN,ETHA,2023-05-16T06:57:00Z,47.83,10.87,9.0,7.0,10,5,,6.21,29.911417,,,,,,,,,,,SCT,700,BKN,9000,,,,,VFR,,,,,,,,,,,,SPECI,738.0
TJSJ 160656Z 17003KT 10SM CLR 25/22 A3000 RMK AO2 SLP156 T02500222,TJSJ,2023-05-16T06:56:00Z,18.43,-66.02,25.0,22.2,170,3,,10.0,30.0,1015.6,,,TRUE,,,,,,,CLR,,,,,,,,VFR,,,,,,,,,,,,METAR,3.0
ROTM 160656Z 14010G17KT 110V180 9999 BKN150 26/18 A2995 RMK SLP126 T02560183,ROTM,2023-05-16T06:56:00Z,26.27,127.75,25.6,18.3,140,10,17,6.21,29.949802,1012.6,,,,,,,,,,BKN,15000,,,,,,,VFR,,,,,,,,,,,,SPECI,80.0
RJOI 160656Z 17013KT 10SM FEW250 26/15 A2987 RMK AO2 SLP113 T02610150,RJOI,2023-05-16T06:56:00Z,34.13,132.23,26.1,15.0,170,13,,10.0,29.870079,1011.3,,,TRUE,,,,,,,FEW,25000,,,,,,,VFR,,,,,,,,,,,,METAR,2.0
PPIZ 160656Z AUTO 01010KT 9SM -SN OVC021 M08/M11 A3034 RMK AO2 SLP279 P0000 T10781111 FZRANO,PPIZ,2023-05-16T06:56:00Z,69.73,-163.0,-7.8,-11.1,10,10,,9.0,30.339567,1027.9,,TRUE,TRUE,,,,TRUE,,-SN,OVC,2100,,,,,,,MVFR,,,,,,0.005,,,,,,METAR,5.0
PMDY 160656Z AUTO 10SM BKN070 OVC090 23/19 A3008 RMK AO2 SLP186 T02280189 TSNO $,PMDY,2023-05-16T06:56:00Z,28.22,-177.37,22.8,18.9,,,,10.0,30.079725,1018.6,,TRUE,TRUE,TRUE,,TRUE,,,,BKN,7000,OVC,9000,,,,,VFR,,,,,,,,,,,,METAR,6.0
PHNY 160656Z AUTO 04014G18KT 10SM CLR 19/17 A3009 RMK AO2 SLP170 T01940167,PHNY,2023-05-16T06:56:00Z,20.77,-156.95,19.4,16.7,40,14,18,10.0,30.088583,1017.0,,TRUE,TRUE,,,,,,,CLR,,,,,,,,VFR,,,,,,,,,,,,SPECI,395.0
PFYU 160656Z AUTO 01005KT 10SM FEW065 OVC085 13/00 A3009 RMK AO2 SLP198 T01280000,PFYU,2023-05-16T06:56:00Z,66.57,-145.23,12.8,0.0,10,5,,10.0,30.088583,1019.8,,TRUE,TRUE,,,,,,,FEW,6500,OVC,8500,,,,,VFR,,,,,,,,,,,,METAR,130.0
PFWS 160656Z AUTO 15026G33KT 10SM SCT019 BKN027 OVC032 06/03 A2988 RMK AO2 PK WND 15034/0636 SLP160 P0001 T00560028,PFWS,2023-05-16T06:56:00Z,58.7,-157.0,5.6,2.8,150,26,33,10.0,29.878937,1016.0,,TRUE,TRUE,,,,,,,SCT,1900,BKN,2700,OVC,3200,,,MVFR,,,,,,0.01,,,,,,METAR,40.0
PFNO 160656Z AUTO 36004KT 10SM BKN034 BKN043 OVC060 03/M02 A3008 RMK AO2 SLP271 T00281017 $,PFNO,2023-05-16T06:56:00Z,66.82,-161.02,2.8,-1.7,360,4,,10.0,30.079725,1027.1,,TRUE,TRUE,TRUE,,,,,,BKN,3400,BKN,4300,OVC,6000,,,VFR,,,,,,,,,,,,METAR,14.0
PFKW 160656Z AUTO 07011KT 10SM SCT047 OVC055 06/02 A2970 RMK AO2 RAB10E46 SLP057 P0000 T00560022,PFKW,2023-05-16T06:56:00Z,60.8,-161.43,5.6,2.2,70,11,,10.0,29.698818,1005.7,,TRUE,TRUE,,,,,,,SCT,4700,OVC,5500,,,,,VFR,,,,,,0.005,,,,,,METAR,4.0
PFKT 160656Z AUTO 03030G35KT 10SM M06/M08 A3009 RMK AO2 PK WND 03038/0639 SLP191 T10611083 FZRANO $,PFKT,2023-05-16T06:56:00Z,65.33,-166.47,-6.1,-8.3,30,30,35,10.0,30.088583,1019.1,,TRUE,TRUE,TRUE,,,TRUE,,,,,,,,,,,,,,,,,,,,,,,METAR,8.0
PFEL 160656Z AUTO 01014KT 10SM UP BKN016 OVC026 00/M02 A2995 RMK AO2 UPB42SNE42 SLP144 P0000 T00001017 FZRANO,PFEL,2023-05-16T06:56:00Z,64.62,-162.27,0.0,-1.7,10,14,,10.0,29.949802,1014.4,,TRUE,TRUE,,,,TRUE,,UP,BKN,1600,OVC,2600,,,,,MVFR,,,,,,0.005,,,,,,METAR,50.0
PFCL 160656Z AUTO 13021G30KT 10SM FEW044 BKN060 OVC090 04/04 A2977 RMK AO2 PK WND 13032/0610 SLP075 T00440039 TSNO,PFCL,2023-05-16T06:56:00Z,58.83,-158.53,4.4,3.9,130,21,30,10.0,29.769686,1007.5,,TRUE,TRUE,,,TRUE,,,,FEW,4400,BKN,6000,OVC,9000,,,VFR,,,,,,,,,,,,METAR,23.0
PAZK 160656Z AUTO 21005KT 10SM CLR 04/M06 A3019 RMK AO2 SLP261 T00391056,PAZK,2023-05-16T06:56:00Z,61.93,-147.17,3.9,-5.6,210,5,,10.0,30.188976,1026.1,,TRUE,TRUE,,,,,,,CLR,,,,,,,,VFR,,,,,,,,,,,,METAR,1002.0
PAWS 160656Z AUTO 09007G14KT 050V120 10SM BKN085 OVC100 12/M01 A3021 RMK AO2 SLP232 T01171011,PAWS,2023-05-16T06:56:00Z,61.57,-149.53,11.7,-1.1,90,7,14,10.0,30.209646,1023.2,,TRUE,TRUE,,,,,,,BKN,8500,OVC,10000,,,,,VFR,,,,,,,,,,,,METAR,102.0
PAWN 160656Z AUTO 01009KT 10SM CLR 00/M05 RMK AO2 SLPNO T00001050 FZRANO $,PAWN,2023-05-16T06:56:00Z,67.57,-162.98,0.0,-5.0,10,9,,10.0,,,,TRUE,TRUE,TRUE,,,TRUE,,,CLR,,,,,,,,VFR,,,,,,,,,,,,METAR,26.0
PAWM 160656Z AUTO 01011G17KT 1 1/2SM -SN BR OVC023 M01/M01 A2995 RMK AO2 SLP147 P0000 T10061011 FZRANO,PAWM,2023-05-16T06:56:00Z,64.68,-163.42,-0.6,-1.1,10,11,17,1.5,29.949802,1014.7,,TRUE,TRUE,,,,TRUE,,-SN BR,OVC,2300,,,,,,,IFR,,,,,,0.005,,,,,,METAR,80.0
PAVD 160656Z AUTO 09006KT CLR 07/03 A3042 RMK AO2 SLP298 T00670028 TSNO $,PAVD,2023-05-16T06:56:00Z,61.13,-146.25,6.7,2.8,90,6,,,30.41929,1029.8,,TRUE,TRUE,TRUE,,TRUE,,,,CLR,,,,,,,,,,,,,,,,,,,,METAR,21.0
PAUN 160656Z AUTO 08010KT 10SM -RA OVC036 05/04 A2992 RMK AO2 SLP135 P0000 T00500039,PAUN,2023-05-16T06:56:00Z,63.88,-160.8,5.0,3.9,80,10,,10.0,29.920275,1013.5,,TRUE,TRUE,,,,,,-RA,OVC,3600,,,,,,,VFR,,,,,,0.005,,,,,,METAR,4.0
PATQ 160656Z AUTO 31012KT 10SM OVC015 M07/M10 A3031 RMK AO2 SNB10E23 SLP268 P0000 T10721100 FZRANO TSNO,PATQ,2023-05-16T06:56:00Z,70.47,-157.43,-7.2,-10.0,310,12,,10.0,30.31004,1026.8,,TRUE,TRUE,,,TRUE,TRUE,,,OVC,1500,,,,,,,MVFR,,,,,,0.005,,,,,,METAR,28.0
PATG 160656Z AUTO 11031G38KT 9SM -RA OVC020 05/03 A2969 RMK AO2 PK WND 11038/0654 RAB20E31B50 SLP054 P0000 T00500033,PATG,2023-05-16T06:56:00Z,59.05,-160.38,5.0,3.3,110,31,38,9.0,29.68996,1005.4,,TRUE,TRUE,,,,,,-RA,OVC,2000,,,,,,,MVFR,,,,,,0.005,,,,,,METAR,1.0
PASX 160656Z AUTO 04003KT 10SM BKN065 09/03 A3019 RMK AO2 RAB23E55 SLP230 P0000 T00940028,PASX,2023-05-16T06:56:00Z,60.48,-151.05,9.4,2.8,40,3,,10.0,30.188976,1023.0,,TRUE,TRUE,,,,,,,BKN,6500,,,,,,,VFR,,,,,,0.005,,,,,,METAR,28.0
PASM 160656Z AUTO 09013KT 6SM -RA BR BKN036 OVC045 03/03 A2977 RMK AO2 SLP091 P0003 T00330028,PASM,2023-05-16T06:56:00Z,62.07,-163.3,3.3,2.8,90,13,,6.0,29.769686,1009.1,,TRUE,TRUE,,,,,,-RA BR,BKN,3600,OVC,4500,,,,,VFR,,,,,,0.03,,,,,,METAR,108.0
PASL 160656Z AUTO VRB04KT 10SM -RA OVC060 08/02 A2993 RMK AO2 RAB32 SLP128 P0000 T00830022,PASL,2023-05-16T06:56:00Z,61.68,-157.15,8.3,2.2,0,4,,10.0,29.929134,1012.8,,TRUE,TRUE,,,,,,-RA,OVC,6000,,,,,,,VFR,,,,,,0.005,,,,,,METAR,64.0
PASK 160656Z AUTO 00000KT 5SM -SN BR OVC017 00/M02 A3010 RMK AO2 SLP189 P0000 T00001017 FZRANO,PASK,2023-05-16T06:56:00Z,66.6,-160.0,0.0,-1.7,0,0,,5.0,30.100393,1018.9,,TRUE,TRUE,,,,TRUE,,-SN BR,OVC,1700,,,,,,,MVFR,,,,,,0.005,,,,,,METAR,3.0
PASD 160656Z AUTO 25011KT 10SM -RA SCT029 OVC038 04/M01 A2990 RMK AO2 PK WND 22028/0629 RAB52 SLP128 T00391006 PNO $,PASD,2023-05-16T06:56:00Z,55.33,-160.52,3.9,-0.6,250,11,,10.0,29.899607,1012.8,,TRUE,TRUE,TRUE,,,,,-RA,SCT,2900,OVC,3800,,,,,VFR,,,,,,,,,,,,METAR,6.0
PARY 160656Z AUTO 10010KT 10SM -RA OVC048 06/04 A3004 RMK AO2 SLP185 P0000 T00560039,PARY,2023-05-16T06:56:00Z,64.73,-155.47,5.6,3.9,100,10,,10.0,30.041338,1018.5,,TRUE,TRUE,,,,,,-RA,OVC,4800,,,,,,,VFR,,,,,,0.005,,,,,,METAR,185.0
PARC 160656Z AUTO 16003KT 10SM FEW100 05/M01 A3007 RMK AO2 SLP217 T00501006,PARC,2023-05-16T06:56:00Z,68.12,-145.58,5.0,-0.6,160,3,,10.0,30.070866,1021.7,,TRUE,TRUE,,,,,,,FEW,10000,,,,,,,VFR,,,,,,,,,,,,METAR,626.0
PAPO 160656Z AUTO 01017KT 9SM OVC021 M07/M11 A3031 RMK AO2 SNE54 SLP262 T10721111 FZRANO PNO $,PAPO,2023-05-16T06:56:00Z,68.35,-166.8,-7.2,-11.1,10,17,,9.0,30.31004,1026.2,,TRUE,TRUE,TRUE,,,TRUE,,,OVC,2100,,,,,,,MVFR,,,,,,,,,,,,METAR,4.0
PAPM 160656Z AUTO 13020G27KT 5SM RA BR OVC013 03/03 A2961 RMK AO2 PK WND 13027/0651 SLP029 P0005 T00330028,PAPM,2023-05-16T06:56:00Z,59.02,-161.82,3.3,2.8,130,20,27,5.0,29.610237,1002.9,,TRUE,TRUE,,,,,,RA BR,OVC,1300,,,,,,,MVFR,,,,,,0.05,,,,,,METAR,4.0
PAPG 160656Z AUTO 14004KT 10SM CLR 11/05 A3016 RMK AO2 SLP215 T01110050,PAPG,2023-05-16T06:56:00Z,56.82,-132.93,11.1,5.0,140,4,,10.0,30.159449,1021.5,,TRUE,TRUE,,,,,,,CLR,,,,,,,,VFR,,,,,,,,,,,,METAR,24.0
PAOU 160656Z AUTO 24025G34KT 10SM UP BKN011 01/00 A2982 RMK AO2 PK WND 24034/0649 SLP098 T00110000 FZRANO PNO $,PAOU,2023-05-16T06:56:00Z,56.0,-161.17,1.1,0.0,240,25,34,10.0,29.819881,1009.8,,TRUE,TRUE,TRUE,,,TRUE,,UP,BKN,1100,,,,,,,MVFR,,,,,,,,,,,,METAR,3.0
PAOO 160656Z AUTO OVC023 02/01 A2967 RMK AO2 SLP053 T00170011 PWINO FZRANO TSNO $,PAOO,2023-05-16T06:56:00Z,60.53,-165.08,1.7,1.1,,,,,29.66929,1005.3,,TRUE,TRUE,TRUE,,TRUE,TRUE,TRUE,,OVC,2300,,,,,,,,,,,,,,,,,,,METAR,15.0
PAOH 160656Z AUTO 11003KT 10SM CLR 07/03 A3022 RMK AO2 SLP234 T00720033,PAOH,2023-05-16T06:56:00Z,58.1,-135.45,7.2,3.3,110,3,,10.0,30.221457,1023.4,,TRUE,TRUE,,,,,,,CLR,,,,,,,,VFR,,,,,,,,,,,,METAR,0.0
PANW 160656Z AUTO 13009KT 10SM -RA OVC032 04/04 A2987 RMK AO2 SLP123 P0004 T00440039,PANW,2023-05-16T06:56:00Z,59.45,-157.32,4.4,3.9,130,9,,10.0,29.870079,1012.3,,TRUE,TRUE,,,,,,-RA,OVC,3200,,,,,,,VFR,,,,,,0.04,,,,,,METAR,100.0
PANV 160656Z AUTO 09006KT 7SM -RA OVC023 05/04 A2986 RMK AO2 SLP193 P0002 T00500039 TSNO,PANV,2023-05-16T06:56:00Z,62.65,-160.18,5.0,3.9,90,6,,7.0,29.861221,1019.3,,TRUE,TRUE,,,TRUE,,,-RA,OVC,2300,,,,,,,MVFR,,,,,,0.02,,,,,,METAR,91.0
PANI 160656Z AUTO 11005KT 10SM OVC037 06/02 A2988 RMK AO2 SLP111 T00610017 $,PANI,2023-05-16T06:56:00Z,61.58,-159.53,6.1,1.7,110,5,,10.0,29.878937,1011.1,,TRUE,TRUE,TRUE,,,,,,OVC,3700,,,,,,,VFR,,,,,,,,,,,,METAR,21.0
PAMO 160656Z AUTO 09011KT 10SM -RA OVC023 03/03 A2978 RMK AO2 SLP087 P0001 T00330033,PAMO,2023-05-16T06:56:00Z,62.1,-163.68,3.3,3.3,90,11,,10.0,29.778543,1008.7,,TRUE,TRUE,,,,,,-RA,OVC,2300,,,,,,,MVFR,,,,,,0.01,,,,,,METAR,93.0
PAMM 160656Z AUTO 02008KT 10SM CLR 16/08 A3005 RMK AO2 SLP268 T01560083 $,PAMM,2023-05-16T06:56:00Z,55.13,-131.58,15.6,8.3,20,8,,10.0,30.050198,1026.8,,TRUE,TRUE,TRUE,,,,,,CLR,,,,,,,,VFR,,,,,,,,,,,,METAR,0.0
PAMH 160656Z AUTO 00000KT 10SM SCT100 09/M02 A3005 RMK AO2 SLP175 T00941017,PAMH,2023-05-16T06:56:00Z,63.9,-152.28,9.4,-1.7,0,0,,10.0,30.050198,1017.5,,TRUE,TRUE,,,,,,,SCT,10000,,,,,,,VFR,,,,,,,,,,,,METAR,200.0
PAMB 160656Z AUTO 13019G27KT 8SM SCT050 BKN070 OVC085 04/03 A2977 RMK AO2 PK WND 12028/0602 SLP085 T00440033 $,PAMB,2023-05-16T06:56:00Z,58.98,-159.05,4.4,3.3,130,19,27,8.0,29.769686,1008.5,,TRUE,TRUE,TRUE,,,,,,SCT,5000,BKN,7000,OVC,8500,,,VFR,,,,,,,,,,,,METAR,28.0
PALG 160656Z AUTO 09013G21KT 10SM -RA OVC047 05/02 A2980 RMK AO2 SLP093 P0000 T00500022,PALG,2023-05-16T06:56:00Z,61.53,-160.33,5.0,2.2,90,13,21,10.0,29.799213,1009.3,,TRUE,TRUE,,,,,,-RA,OVC,4700,,,,,,,VFR,,,,,,0.005,,,,,,METAR,13.0
PAKI 160656Z AUTO 5SM -RA BR OVC017 03/02 A2961 RMK AO2 SLP031 P0000 T00280022 $,PAKI,2023-05-16T06:56:00Z,59.93,-164.03,2.8,2.2,,,,5.0,29.610237,1003.1,,TRUE,TRUE,TRUE,,,,,-RA BR,OVC,1700,,,,,,,MVFR,,,,,,0.005,,,,,,METAR,4.0
PAKF 160656Z AUTO 27017G32KT 10SM UP FEW028 03/M03 A2992 RMK AO2 PK WND 29042/0608 RAE11UPB11 PRESRR SLP130 P0000 T00281028,PAKF,2023-05-16T06:56:00Z,54.85,-163.42,2.8,-2.8,270,17,32,10.0,29.920275,1013.0,,TRUE,TRUE,,,,,,UP,FEW,2800,,,,,,,VFR,,,,,,0.005,,,,,,METAR,2.0
PAJZ 160656Z AUTO 14017G24KT 7SM -RA SCT016 BKN020 OVC036 04/03 A2993 RMK AO2 PK WND 13030/0604 SLP142 P0002 T00440028 $,PAJZ,2023-05-16T06:56:00Z,59.73,-157.27,4.4,2.8,140,17,24,7.0,29.929134,1014.2,,TRUE,TRUE,TRUE,,,,,-RA,SCT,1600,BKN,2000,OVC,3600,,,MVFR,,,,,,0.02,,,,,,METAR,80.0
PAIW 160656Z AUTO 04027KT 3/4SM -SN BR OVC014 M07/M09 A3019 RMK AO2 PK WND 04031/0655 UPB50E53SNB53 SLP223 P0000 T10721089 FZRANO,PAIW,2023-05-16T06:56:00Z,65.62,-168.1,-7.2,-8.9,40,27,,0.75,30.188976,1022.3,,TRUE,TRUE,,,,TRUE,,-SN BR,OVC,1400,,,,,,,LIFR,,,,,,0.005,,,,,,METAR,6.0
PAIN 160656Z AUTO VRB06KT 10SM BKN060 08/M02 A3013 RMK AO2 SLP220 T00781022,PAIN,2023-05-16T06:56:00Z,63.73,-148.92,7.8,-2.2,0,6,,10.0,30.129921,1022.0,,TRUE,TRUE,,,,,,,BKN,6000,,,,,,,VFR,,,,,,,,,,,,METAR,525.0
PAIK 160656Z AUTO 04004KT 10SM OVC034 03/M02 A3010 RMK AO2 SLP196 T00331017,PAIK,2023-05-16T06:56:00Z,66.98,-160.43,3.3,-1.7,40,4,,10.0,30.100393,1019.6,,TRUE,TRUE,,,,,,,OVC,3400,,,,,,,VFR,,,,,,,,,,,,METAR,49.0
PAIG 160656Z AUTO 10016G23KT 10SM OVC070 06/02 A2989 RMK AO2 PK WND 09026/0624 SLP131 T00560022 $,PAIG,2023-05-16T06:56:00Z,59.32,-155.9,5.6,2.2,100,16,23,10.0,29.890747,1013.1,,TRUE,TRUE,TRUE,,,,,,OVC,7000,,,,,,,VFR,,,,,,,,,,,,METAR,24.0
PAHL 160656Z AUTO 06003KT 4SM -RA BR CLR 04/04 A3006 RMK AO2 SLP183 P0002 T00440044,PAHL,2023-05-16T06:56:00Z,65.7,-156.35,4.4,4.4,60,3,,4.0,30.059055,1018.3,,TRUE,TRUE,,,,,,-RA BR,CLR,,,,,,,,MVFR,,,,,,0.02,,,,,,METAR,49.0
PAHC 160656Z AUTO 02005KT 10SM -RA OVC033 05/04 A2985 RMK AO2 SLP114 P0005 T00500039,PAHC,2023-05-16T06:56:00Z,62.18,-159.78,5.0,3.9,20,5,,10.0,29.84941,1011.4,,TRUE,TRUE,,,,,,-RA,OVC,3300,,,,,,,VFR,,,,,,0.05,,,,,,METAR,21.0
PAGS 160656Z AUTO 23005KT 10SM CLR 09/03 A3024 RMK AO2 SLP239 T00890033,PAGS,2023-05-16T06:56:00Z,58.42,-135.7,8.9,3.3,230,5,,10.0,30.239174,1023.9,,TRUE,TRUE,,,,,,,CLR,,,,,,,,VFR,,,,,,,,,,,,METAR,9.0
PAGN 160656Z AUTO 00000KT 10SM CLR 09/04 A3021 RMK AO2 SLP218 T00890044,PAGN,2023-05-16T06:56:00Z,57.5,-134.58,8.9,4.4,0,0,,10.0,30.209646,1021.8,,TRUE,TRUE,,,,,,,CLR,,,,,,,,VFR,,,,,,,,,,,,METAR,2.0
PAFE 160656Z AUTO 00000KT 10SM CLR 09/05 A3019 RMK AO2 SLP234 T00890050 $,PAFE,2023-05-16T06:56:00Z,56.97,-133.92,8.9,5.0,0,0,,10.0,30.188976,1023.4,,TRUE,TRUE,TRUE,,,,,,CLR,,,,,,,,VFR,,,,,,,,,,,,METAR,1.0
PADU 160656Z AUTO 26010KT 10SM FEW037 SCT090 05/00 A3001 RMK AO2 RAB31E41 SLP167 P0000 T00500000,PADU,2023-05-16T06:56:00Z,53.9,-166.53,5.0,0.0,260,10,,10.0,30.008858,1016.7,,TRUE,TRUE,,,,,,,FEW,3700,SCT,9000,,,,,VFR,,,,,,0.005,,,,,,METAR,4.0
PADM 160656Z AUTO 05016KT 10SM -RA BKN044 OVC055 05/03 A2981 RMK AO2 SLP101 P0001 T00500028,PADM,2023-05-16T06:56:00Z,61.87,-162.03,5.0,2.8,50,16,,10.0,29.811024,1010.1,,TRUE,TRUE,,,,,,-RA,BKN,4400,OVC,5500,,,,,VFR,,,,,,0.01,,,,,,METAR,17.0
PADL 160656Z AUTO 14019G25KT 10SM SCT012 BKN070 OVC110 04/03 A2979 RMK AO2 PK WND 13028/0616 SLP091 T00440033,PADL,2023-05-16T06:56:00Z,59.05,-158.5,4.4,3.3,140,19,25,10.0,29.790354,1009.1,,TRUE,TRUE,,,,,,,SCT,1200,BKN,7000,OVC,11000,,,VFR,,,,,,,,,,,,METAR,20.0
PADK 160656Z AUTO 28007G18KT FEW032 BKN043 BKN049 04/M01 A3014 RMK AO2 SLP207 T00441006 PWINO $,PADK,2023-05-16T06:56:00Z,51.88,-176.65,4.4,-0.6,280,7,18,,30.138779,1020.7,,TRUE,TRUE,TRUE,,,,TRUE,,FEW,3200,BKN,4300,BKN,4900,,,,,,,,,,,,,,,METAR,3.0
PACM 160656Z AUTO 01009KT OVC012 02/ A2978 RMK AO2 SLP082 T0017 PWINO FZRANO $,PACM,2023-05-16T06:56:00Z,61.85,-165.57,1.7,,10,9,,,29.778543,1008.2,,TRUE,TRUE,TRUE,,,TRUE,TRUE,,OVC,1200,,,,,,,,,,,,,,,,,,,METAR,3.0
PABV 160656Z AUTO 03004KT 10SM OVC100 13/01 A3019 RMK AO2 SLP229 T01330006,PABV,2023-05-16T06:56:00Z,61.42,-149.52,13.3,0.6,30,4,,10.0,30.188976,1022.9,,TRUE,TRUE,,,,,,,OVC,10000,,,,,,,VFR,,,,,,,,,,,,METAR,21.0
PAAK 160656Z AUTO 28014KT 10SM BKN012 BKN018 OVC029 04/03 A3007 RMK AO2 PK WND 27027/0611 RAB02E41 SLP183 P0000 T00390033,PAAK,2023-05-16T06:56:00Z,52.22,-174.2,3.9,3.3,280,14,,10.0,30.070866,1018.3,,TRUE,TRUE,,,,,,,BKN,1200,BKN,1800,OVC,2900,,,MVFR,,,,,,0.005,,,,,,METAR,11.0
KYKN 160656Z AUTO 25004KT 10SM CLR 12/08 A3017 RMK AO2 SLP229 T01170078,KYKN,2023-05-16T06:56:00Z,42.92,-97.37,11.7,7.8,250,4,,10.0,30.171259,1022.9,,TRUE,TRUE,,,,,,,CLR,,,,,,,,VFR,,,,,,,,,,,,METAR,388.0
KY50 160656Z AUTO 28007KT 10SM CLR 13/07 A3002 RMK AO2 SLP164 T01280072 $,KY50,2023-05-16T06:56:00Z,44.03,-89.3,12.8,7.2,280,7,,10.0,30.02067,1016.4,,TRUE,TRUE,TRUE,,,,,,CLR,,,,,,,,VFR,,,,,,,,,,,,METAR,261.0
KWWD 160656Z AUTO 24008KT 10SM CLR 16/13 A3000 RMK AO2 SLP159 T01610133 $,KWWD,2023-05-16T06:56:00Z,39.02,-74.92,16.1,13.3,240,8,,10.0,30.0,1015.9,,TRUE,TRUE,TRUE,,,,,,CLR,,,,,,,,VFR,,,,,,,,,,,,METAR,4.0
KWVL 160656Z AUTO 26005KT 10SM CLR 14/02 A2964 RMK AO2 SLP064 T01390022,KWVL,2023-05-16T06:56:00Z,44.52,-69.67,13.9,2.2,260,5,,10.0,29.639763,1006.4,,TRUE,TRUE,,,,,,,CLR,,,,,,,,VFR,,,,,,,,,,,,METAR,87.0
KWMC 160656Z AUTO 00000KT 10SM CLR 12/03 A3022 RMK AO2 SLP197 T01220028,KWMC,2023-05-16T06:56:00Z,40.9,-117.8,12.2,2.8,0,0,,10.0,30.221457,1019.7,,TRUE,TRUE,,,,,,,CLR,,,,,,,,VFR,,,,,,,,,,,,METAR,1311.0
KWJF 160656Z AUTO 30006KT 10SM CLR 19/04 A3007 RMK AO2 SLP162 T01890044,KWJF,2023-05-16T06:56:00Z,34.73,-118.22,18.9,4.4,300,6,,10.0,30.070866,1016.2,,TRUE,TRUE,,,,,,,CLR,,,,,,,,VFR,,,,,,,,,,,,METAR,712.0
KVPZ 160656Z AUTO 00000KT 10SM CLR 09/04 A3005 RMK AO2 SLP175 T00890039,KVPZ,2023-05-16T06:56:00Z,41.45,-87.0,8.9,3.9,0,0,,10.0,30.050198,1017.5,,TRUE,TRUE,,,,,,,CLR,,,,,,,,VFR,,,,,,,,,,,,METAR,235.0
KVIS 160656Z AUTO 31008KT 10SM CLR 23/15 A2996 RMK AO2 SLP149 T02280150,KVIS,2023-05-16T06:56:00Z,36.32,-119.4,22.8,15.0,310,8,,10.0,29.958662,1014.9,,TRUE,TRUE,,,,,,,CLR,,,,,,,,VFR,,,,,,,,,,,,METAR,92.0
KVBT 160656Z AUTO 29005KT 10SM SCT006 OVC012 20/19 A3008 RMK AO2 SLP178 T02000189,KVBT,2023-05-16T06:56:00Z,36.35,-94.22,20.0,18.9,290,5,,10.0,30.079725,1017.8,,TRUE,TRUE,,,,,,,SCT,600,OVC,1200,,,,,MVFR,,,,,,,,,,,,METAR,390.0
KUKI 160656Z AUTO 00000KT 10SM CLR 16/12 A3008 RMK AO2 SLP179 T01610122,KUKI,2023-05-16T06:56:00Z,39.12,-123.2,16.1,12.2,0,0,,10.0,30.079725,1017.9,,TRUE,TRUE,,,,,,,CLR,,,,,,,,VFR,,,,,,,,,,,,METAR,183.0
KUDG 160656Z AUTO 21005KT 10SM BKN095 19/16 A3010 RMK AO2 SLP193 T01940161,KUDG,2023-05-16T06:56:00Z,34.45,-79.88,19.4,16.1,210,5,,10.0,30.100393,1019.3,,TRUE,TRUE,,,,,,,BKN,9500,,,,,,,VFR,,,,,,,,,,,,METAR,57.0
KUCP 160656Z AUTO 00000KT 10SM CLR 06/04 A3002 RMK AO2 SLP180 T00560044,KUCP,2023-05-16T06:56:00Z,41.03,-80.42,5.6,4.4,0,0,,10.0,30.02067,1018.0,,TRUE,TRUE,,,,,,,CLR,,,,,,,,VFR,,,,,,,,,,,,METAR,313.0
KTVF 160656Z AUTO 27008KT 10SM CLR 15/05 A3000 RMK AO2 SLP158 T01500050,KTVF,2023-05-16T06:56:00Z,48.07,-96.17,15.0,5.0,270,8,,10.0,30.0,1015.8,,TRUE,TRUE,,,,,,,CLR,,,,,,,,VFR,,,,,,,,,,,,METAR,339.0
KTPH 160656Z AUTO A3025 RMK AO2 SLPNO PWINO $,KTPH,2023-05-16T06:56:00Z,38.05,-117.08,,,,,,,30.250984,,,TRUE,TRUE,TRUE,,,,TRUE,,,,,,,,,,,,,,,,,,,,,,METAR,1647.0
KSUE 160656Z AUTO 26009KT 10SM CLR 15/06 A2994 RMK AO2 SLP135 T01500061,KSUE,2023-05-16T06:56:00Z,44.85,-87.42,15.0,6.1,260,9,,10.0,29.940945,1013.5,,TRUE,TRUE,,,,,,,CLR,,,,,,,,VFR,,,,,,,,,,,,METAR,215.0
KSRC 160656Z AUTO 24003KT 10SM CLR 22/19 A3002 RMK AO2 SLP164 T02220194,KSRC,2023-05-16T06:56:00Z,35.22,-91.73,22.2,19.4,240,3,,10.0,30.02067,1016.4,,TRUE,TRUE,,,,,,,CLR,,,,,,,,VFR,,,,,,,,,,,,METAR,80.0
KSQI 160656Z AUTO 00000KT 10SM CLR 12/11 A3007 RMK AO2 SLP047 T01220106,KSQI,2023-05-16T06:56:00Z,41.75,-89.67,12.2,10.6,0,0,,10.0,30.070866,1004.7,,TRUE,TRUE,,,,,,,CLR,,,,,,,,VFR,,,,,,,,,,,,METAR,196.0
KSPD 160656Z AUTO 24004KT 08/06 A3029 RMK AO1 SLP226 T00830061 401830078,KSPD,2023-05-16T06:56:00Z,37.28,-102.62,8.3,6.1,240,4,,,30.28937,1022.6,,TRUE,TRUE,,,,,,,,,,,,,,,,,,,18.3,7.8,,,,,,,SPECI,1340.0
KSOP 160656Z AUTO 22007KT 10SM OVC110 18/13 A3010 RMK AO2 SLP194 T01830133,KSOP,2023-05-16T06:56:00Z,35.23,-79.4,18.3,13.3,220,7,,10.0,30.100393,1019.4,,TRUE,TRUE,,,,,,,OVC,11000,,,,,,,VFR,,,,,,,,,,,,METAR,135.0
KSMN 160656Z AUTO 00000KT 10SM CLR 08/05 A3023 RMK AO2 SLP922 T00830050 402280083,KSMN,2023-05-16T06:56:00Z,45.12,-113.87,8.3,5.0,0,0,,10.0,30.230314,992.2,,TRUE,TRUE,,,,,,,CLR,,,,,,,,VFR,,,,22.8,8.3,,,,,,,METAR,1228.0
KSLG 160656Z AUTO 29007KT 3SM -RA BR BKN003 OVC007 19/19 A3008 RMK AO2 RAB46 SLP175 P0000 T01940194,KSLG,2023-05-16T06:56:00Z,36.2,-94.48,19.4,19.4,290,7,,3.0,30.079725,1017.5,,TRUE,TRUE,,,,,,-RA BR,BKN,300,OVC,700,,,,,LIFR,,,,,,0.005,,,,,,METAR,361.0
KSLE 160656Z AUTO 26004KT 10SM CLR 16/11 A3008 RMK AO2 SLP185 T01610106,KSLE,2023-05-16T06:56:00Z,44.9,-123.0,16.1,10.6,260,4,,10.0,30.079725,1018.5,,TRUE,TRUE,,,,,,,CLR,,,,,,,,VFR,,,,,,,,,,,,SPECI,63.0
KSKX 160656Z AUTO 16003KT 10SM SCT080 OVC100 09/07 A3043 RMK AO2 SLP256 T00890067 402280056,KSKX,2023-05-16T06:56:00Z,36.45,-105.67,8.9,6.7,160,3,,10.0,30.431103,1025.6,,TRUE,TRUE,,,,,,,SCT,8000,OVC,10000,,,,,VFR,,,,22.8,5.6,,,,,,,METAR,2163.0
KSHV 160656Z 22003KT 10SM BKN250 22/19 A3005 RMK SLPNO,KSHV,2023-05-16T06:56:00Z,32.45,-93.83,22.0,19.0,220,3,,10.0,30.050198,,,,,,,,,,,BKN,25000,,,,,,,VFR,,,,,,,,,,,,METAR,70.0
KSGU 160656Z AUTO 36003KT 10SM CLR 26/06 A3011 RMK AO2 SLP160 T02560061 403280172,KSGU,2023-05-16T06:56:00Z,37.03,-113.52,25.6,6.1,360,3,,10.0,30.109253,1016.0,,TRUE,TRUE,,,,,,,CLR,,,,,,,,VFR,,,,32.8,17.2,,,,,,,METAR,877.0
KSGT 160656Z AUTO 25007KT 10SM CLR 23/21 A3002 RMK AO2 SLP166 T02330206,KSGT,2023-05-16T06:56:00Z,34.6,-91.57,23.3,20.6,250,7,,10.0,30.02067,1016.6,,TRUE,TRUE,,,,,,,CLR,,,,,,,,VFR,,,,,,,,,,,,METAR,67.0
KSGJ 160656Z AUTO 27007KT 10SM 22/21 A3008 RMK AO2 SLP184 T02170206 $,KSGJ,2023-05-16T06:56:00Z,29.97,-81.33,21.7,20.6,270,7,,10.0,30.079725,1018.4,,TRUE,TRUE,TRUE,,,,,,,,,,,,,,,,,,,,,,,,,,METAR,2.0
KSGH 160656Z AUTO 23003KT 10SM CLR 14/12 A3003 RMK AO2 SLP168 T01390117,KSGH,2023-05-16T06:56:00Z,39.83,-83.83,13.9,11.7,230,3,,10.0,30.029528,1016.8,,TRUE,TRUE,,,,,,,CLR,,,,,,,,VFR,,,,,,,,,,,,METAR,318.0
KSFZ 160656Z AUTO VRB06KT 10SM CLR 13/04 A2983 RMK AO2 SLP100 T01280044,KSFZ,2023-05-16T06:56:00Z,41.92,-71.5,12.8,4.4,0,6,,10.0,29.828741,1010.0,,TRUE,TRUE,,,,,,,CLR,,,,,,,,VFR,,,,,,,,,,,,METAR,129.0
KSFO 160656Z 29014KT 10SM SCT020 13/11 A3008 RMK AO2 SLP186 T01280106,KSFO,2023-05-16T06:56:00Z,37.62,-122.37,12.8,10.6,290,14,,10.0,30.079725,1018.6,,,TRUE,,,,,,,SCT,2000,,,,,,,VFR,,,,,,,,,,,,METAR,2.0
KSFM 160656Z AUTO 27007KT 10SM OVC110 15/M01 A2974 RMK AO2 SLP074 T01501006,KSFM,2023-05-16T06:56:00Z,43.38,-70.72,15.0,-0.6,270,7,,10.0,29.740158,1007.4,,TRUE,TRUE,,,,,,,OVC,11000,,,,,,,VFR,,,,,,,,,,,,METAR,70.0
KSDY 160656Z AUTO 00000KT 10SM CLR 09/07 A3013 RMK AO2 SLP207 T00890072 402560061,KSDY,2023-05-16T06:56:00Z,47.7,-104.2,8.9,7.2,0,0,,10.0,30.129921,1020.7,,TRUE,TRUE,,,,,,,CLR,,,,,,,,VFR,,,,25.6,6.1,,,,,,,METAR,600.0
KSDF 160656Z 00000KT 10SM SCT140 BKN160 OVC300 19/14 A3002 RMK AO2 SLP160 T01890139,KSDF,2023-05-16T06:56:00Z,38.18,-85.73,18.9,13.9,0,0,,10.0,30.02067,1016.0,,,TRUE,,,,,,,SCT,14000,BKN,16000,OVC,30000,,,VFR,,,,,,,,,,,,METAR,146.0
KRUT 160656Z AUTO 25006KT 10SM CLR 13/00 A2980 RMK AO2 SLP085 T01330000 $,KRUT,2023-05-16T06:56:00Z,43.53,-72.95,13.3,0.0,250,6,,10.0,29.799213,1008.5,,TRUE,TRUE,TRUE,,,,,,CLR,,,,,,,,VFR,,,,,,,,,,,,METAR,238.0
KRKD 160656Z AUTO 28006KT 10SM CLR 13/03 A2968 RMK AO2 SLP050 T01280033,KRKD,2023-05-16T06:56:00Z,44.07,-69.1,12.8,3.3,280,6,,10.0,29.681103,1005.0,,TRUE,TRUE,,,,,,,CLR,,,,,,,,VFR,,,,,,,,,,,,METAR,15.0
KRDM 160656Z AUTO 00000KT 10SM CLR 11/09 A3017 RMK AO2 SLP200 T01110089,KRDM,2023-05-16T06:56:00Z,44.25,-121.15,11.1,8.9,0,0,,10.0,30.171259,1020.0,,TRUE,TRUE,,,,,,,CLR,,,,,,,,VFR,,,,,,,,,,,,METAR,930.0
KPWT 160656Z AUTO 24010KT 10SM SCT110 13/12 A3008 RMK AO2 SLP188 T01330122,KPWT,2023-05-16T06:56:00Z,47.5,-122.77,13.3,12.2,240,10,,10.0,30.079725,1018.8,,TRUE,TRUE,,,,,,,SCT,11000,,,,,,,VFR,,,,,,,,,,,,METAR,143.0
KPWG 160656Z AUTO 35004KT 10SM CLR 19/19 A3011 RMK AO2 SLP191 T01940189,KPWG,2023-05-16T06:56:00Z,31.48,-97.32,19.4,18.9,350,4,,10.0,30.109253,1019.1,,TRUE,TRUE,,,,,,,CLR,,,,,,,,VFR,,,,,,,,,,,,METAR,178.0
KPVU 160656Z AUTO 12007KT 10SM CLR 16/05 A3024 RMK AO2 SLP198 T01610050 402560089,KPVU,2023-05-16T06:56:00Z,40.22,-111.72,16.1,5.0,120,7,,10.0,30.239174,1019.8,,TRUE,TRUE,,,,,,,CLR,,,,,,,,VFR,,,,25.6,8.9,,,,,,,METAR,1370.0
KPVG 160656Z AUTO 10SM -RA BKN065 OVC100 15/14 A3008 RMK AO2 RAB30 SLP186 P0000 T01500139 $,KPVG,2023-05-16T06:56:00Z,36.78,-76.45,15.0,13.9,,,,10.0,30.079725,1018.6,,TRUE,TRUE,TRUE,,,,,-RA,BKN,6500,OVC,10000,,,,,VFR,,,,,,0.005,,,,,,METAR,7.0
KPVC 160656Z AUTO 24010KT 10SM CLR 13/10 A2979 RMK AO2 SLP088 T01280100,KPVC,2023-05-16T06:56:00Z,42.07,-70.22,12.8,10.0,240,10,,10.0,29.790354,1008.8,,TRUE,TRUE,,,,,,,CLR,,,,,,,,VFR,,,,,,,,,,,,METAR,1.0
KPTV 160656Z AUTO 15006KT 10SM CLR 18/13 A2998 RMK AO2 SLP148 T01830133 403610139,KPTV,2023-05-16T06:56:00Z,36.02,-119.07,18.3,13.3,150,6,,10.0,29.97933,1014.8,,TRUE,TRUE,,,,,,,CLR,,,,,,,,VFR,,,,36.1,13.9,,,,,,,METAR,132.0
KPRX 160656Z AUTO 32004KT 10SM CLR 21/21 A3008 RMK AO2 SLP181 T02060206,KPRX,2023-05-16T06:56:00Z,33.63,-95.45,20.6,20.6,320,4,,10.0,30.079725,1018.1,,TRUE,TRUE,,,,,,,CLR,,,,,,,,VFR,,,,,,,,,,,,METAR,165.0
KPQI 160656Z AUTO 27007KT 10SM CLR 11/06 A2957 RMK AO2 SLP036 T01060056 PNO $,KPQI,2023-05-16T06:56:00Z,46.68,-68.05,10.6,5.6,270,7,,10.0,29.568897,1003.6,,TRUE,TRUE,TRUE,,,,,,CLR,,,,,,,,VFR,,,,,,,,,,,,METAR,154.0
KPIB 160656Z AUTO 00000KT 4SM BR CLR 20/20 A3007 RMK AO2 SLP179 T02000200,KPIB,2023-05-16T06:56:00Z,31.47,-89.33,20.0,20.0,0,0,,4.0,30.070866,1017.9,,TRUE,TRUE,,,,,,BR,CLR,,,,,,,,MVFR,,,,,,,,,,,,METAR,91.0
KP60 160656Z AUTO 00000KT 03/01 A3040 RMK AO1 SLP259 T00280011 401501017,KP60,2023-05-16T06:56:00Z,44.55,-110.42,2.8,1.1,0,0,,,30.398623,1025.9,,TRUE,TRUE,,,,,,,,,,,,,,,,,,,15.0,-1.7,,,,,,,SPECI,2377.0
KP53 160656Z AUTO 21005KT 12/03 A2982 RMK AO1 SLP100 T01220028,KP53,2023-05-16T06:56:00Z,46.42,-86.65,12.2,2.8,210,5,,,29.819881,1010.0,,TRUE,TRUE,,,,,,,,,,,,,,,,,,,,,,,,,,,SPECI,185.0
KP28 160656Z AUTO 36004KT 14/12 A3019 RMK AO1 SLP218 T01440122 $,KP28,2023-05-16T06:56:00Z,37.28,-98.55,14.4,12.2,360,4,,,30.188976,1021.8,,TRUE,TRUE,TRUE,,,,,,,,,,,,,,,,,,,,,,,,,,METAR,469.0
KOWB 160656Z AUTO 00000KT 10SM CLR 19/16 A3001 RMK AO2 SLP160 T01890161,KOWB,2023-05-16T06:56:00Z,37.72,-87.17,18.9,16.1,0,0,,10.0,30.008858,1016.0,,TRUE,TRUE,,,,,,,CLR,,,,,,,,VFR,,,,,,,,,,,,METAR,121.0
KOTH 160656Z AUTO 34003KT 10SM OVC013 13/11 A3015 RMK AO2 SLP210 T01280111,KOTH,2023-05-16T06:56:00Z,43.42,-124.25,12.8,11.1,340,3,,10.0,30.15059,1021.0,,TRUE,TRUE,,,,,,,OVC,1300,,,,,,,MVFR,,,,,,,,,,,,METAR,3.0
KOTG 160656Z AUTO 25010KT 10SM CLR 12/07 A3015 RMK AO2 SLP213 T01220072 PNO $,KOTG,2023-05-16T06:56:00Z,43.65,-95.57,12.2,7.2,250,10,,10.0,30.15059,1021.3,,TRUE,TRUE,TRUE,,,,,,CLR,,,,,,,,VFR,,,,,,,,,,,,METAR,478.0
KOLU 160656Z AUTO 28004KT 10SM OVC048 13/12 A3019 RMK AO2 SLP228 T01280122,KOLU,2023-05-16T06:56:00Z,41.45,-97.33,12.8,12.2,280,4,,10.0,30.188976,1022.8,,TRUE,TRUE,,,,,,,OVC,4800,,,,,,,VFR,,,,,,,,,,,,METAR,438.0
KOKK 160656Z AUTO 00000KT 10SM CLR 13/09 A3005 RMK AO2 SLP175 T01330089 PNO $,KOKK,2023-05-16T06:56:00Z,40.53,-86.07,13.3,8.9,0,0,,10.0,30.050198,1017.5,,TRUE,TRUE,TRUE,,,,,,CLR,,,,,,,,VFR,,,,,,,,,,,,METAR,251.0
KOFK 160656Z AUTO 27003KT 10SM FEW050 OVC070 13/10 A3018 RMK AO2 SLP219 T01330100,KOFK,2023-05-16T06:56:00Z,41.98,-97.43,13.3,10.0,270,3,,10.0,30.180119,1021.9,,TRUE,TRUE,,,,,,,FEW,5000,OVC,7000,,,,,VFR,,,,,,,,,,,,METAR,476.0
KOCH 160656Z AUTO 33003KT 8SM FEW003 19/19 A3009 RMK AO2 SLP189 T01890189,KOCH,2023-05-16T06:56:00Z,31.57,-94.72,18.9,18.9,330,3,,8.0,30.088583,1018.9,,TRUE,TRUE,,,,,,,FEW,300,,,,,,,VFR,,,,,,,,,,,,METAR,105.0
KOAJ 160656Z AUTO 00000KT 10SM OVC100 17/15 A3010 RMK AO2 SLP194 T01720150,KOAJ,2023-05-16T06:56:00Z,34.82,-77.62,17.2,15.0,0,0,,10.0,30.100393,1019.4,,TRUE,TRUE,,,,,,,OVC,10000,,,,,,,VFR,,,,,,,,,,,,METAR,26.0
KNYG 160656Z AUTO VRB04KT 9SM CLR 17/13 A3002 RMK AO2 SLP165 T01670128 $,KNYG,2023-05-16T06:56:00Z,38.5,-77.3,16.7,12.8,0,4,,9.0,30.02067,1016.5,,TRUE,TRUE,TRUE,,,,,,CLR,,,,,,,,VFR,,,,,,,,,,,,METAR,2.0
KNXP 160656Z AUTO 24005KT 10SM CLR 25/02 A3009 RMK AO2 SLP150 T02500022,KNXP,2023-05-16T06:56:00Z,34.28,-116.13,25.0,2.2,240,5,,10.0,30.088583,1015.0,,TRUE,TRUE,,,,,,,CLR,,,,,,,,VFR,,,,,,,,,,,,SPECI,610.0
KNUC 160656Z AUTO 32003KT OVC011 14/ A3008 RMK AO2 SLP182 T0139 $,KNUC,2023-05-16T06:56:00Z,33.02,-118.57,13.9,,320,3,,,30.079725,1018.2,,TRUE,TRUE,TRUE,,,,,,OVC,1100,,,,,,,,,,,,,,,,,,,METAR,52.0
KNTU 160656Z 23009KT 10SM BKN085 OVC130 18/11 A3006 RMK AO2 SLP181 T01780111,KNTU,2023-05-16T06:56:00Z,36.82,-76.02,17.8,11.1,230,9,,10.0,30.059055,1018.1,,,TRUE,,,,,,,BKN,8500,OVC,13000,,,,,VFR,,,,,,,,,,,,SPECI,6.0
KNSE 160656Z AUTO VRB04KT 8SM SCT120 21/21 A3006 RMK AO2 RAB12E52 SLP162 P0001 T02110206,KNSE,2023-05-16T06:56:00Z,30.73,-87.02,21.1,20.6,0,4,,8.0,30.059055,1016.2,,TRUE,TRUE,,,,,,,SCT,12000,,,,,,,VFR,,,,,,0.01,,,,,,METAR,56.0
KNQI 160656Z AUTO 12003KT 10SM OVC100 24/23 A3009 RMK AO2 SLP185 T02390228 $,KNQI,2023-05-16T06:56:00Z,27.5,-97.82,23.9,22.8,120,3,,10.0,30.088583,1018.5,,TRUE,TRUE,TRUE,,,,,,OVC,10000,,,,,,,VFR,,,,,,,,,,,,SPECI,15.0
KNPA 160656Z AUTO 10SM SCT120 23/19 A3004 RMK AO2 SLP174 T02280194 $,KNPA,2023-05-16T06:56:00Z,30.35,-87.32,22.8,19.4,,,,10.0,30.041338,1017.4,,TRUE,TRUE,TRUE,,,,,,SCT,12000,,,,,,,VFR,,,,,,,,,,,,METAR,6.0
KNOG 160656Z AUTO 30004KT 10SM CLR 22/20 A3011 RMK AO2 SLP174 T02170200 TSNO $,KNOG,2023-05-16T06:56:00Z,27.9,-98.05,21.7,20.0,300,4,,10.0,30.109253,1017.4,,TRUE,TRUE,TRUE,,TRUE,,,,CLR,,,,,,,,VFR,,,,,,,,,,,,METAR,72.0
KNMM 160656Z AUTO 00000KT 10SM CLR 22/21 A3006 RMK AO2 SLP184 T02220206 $,KNMM,2023-05-16T06:56:00Z,32.53,-88.53,22.2,20.6,0,0,,10.0,30.059055,1018.4,,TRUE,TRUE,TRUE,,,,,,CLR,,,,,,,,VFR,,,,,,,,,,,,METAR,94.0
KNLC 160656Z 32015KT 10SM FEW200 24/13 A2997 RMK AO2 SLP148 RH/49 T02390128 $,KNLC,2023-05-16T06:56:00Z,36.32,-119.95,23.9,12.8,320,15,,10.0,29.970472,1014.8,,,TRUE,TRUE,,,,,,FEW,20000,,,,,,,VFR,,,,,,,,,,,,SPECI,69.0
KNKT 160656Z 00000KT 10SM FEW110 16/15 A3010 RMK AO2 SLP188 T01560150,KNKT,2023-05-16T06:56:00Z,34.9,-76.88,15.6,15.0,0,0,,10.0,30.100393,1018.8,,,TRUE,,,,,,,FEW,11000,,,,,,,VFR,,,,,,,,,,,,SPECI,8.0
KNJK 160656Z AUTO 26006KT 10SM CLR 26/06 A2990 RMK AO2 SLP141 T02560056 $,KNJK,2023-05-16T06:56:00Z,32.82,-115.67,25.6,5.6,260,6,,10.0,29.899607,1014.1,,TRUE,TRUE,TRUE,,,,,,CLR,,,,,,,,VFR,,,,,,,,,,,,METAR,-15.0
KNID 160656Z AUTO 19008KT 10SM CLR 23/01 A3001 RMK AO2 SLP141 T02280011 $,KNID,2023-05-16T06:56:00Z,35.68,-117.68,22.8,1.1,190,8,,10.0,30.008858,1014.1,,TRUE,TRUE,TRUE,,,,,,CLR,,,,,,,,VFR,,,,,,,,,,,,SPECI,682.0
KNGP 160656Z AUTO 00000KT 10SM -RA OVC110 26/22 A3008 RMK AO2 RAB56 SLP185 P0000 T02560217,KNGP,2023-05-16T06:56:00Z,27.68,-97.28,25.6,21.7,0,0,,10.0,30.079725,1018.5,,TRUE,TRUE,,,,,,-RA,OVC,11000,,,,,,,VFR,,,,,,0.005,,,,,,SPECI,5.0
KNFL 160656Z 08005KT 10SM FEW060 FEW120 12/01 A3020 RMK SLP190 T01220017,KNFL,2023-05-16T06:56:00Z,39.42,-118.7,12.2,1.7,80,5,,10.0,30.200787,1019.0,,,,,,,,,,FEW,6000,FEW,12000,,,,,VFR,,,,,,,,,,,,METAR,1199.0
KNFE 160656Z AUTO 00000KT 10SM FEW080 BKN120 18/11 A3007 RMK AO2 SLP186 T01780106,KNFE,2023-05-16T06:56:00Z,36.7,-76.13,17.8,10.6,0,0,,10.0,30.070866,1018.6,,TRUE,TRUE,,,,,,,FEW,8000,BKN,12000,,,,,VFR,,,,,,,,,,,,SPECI,4.0
KNDZ 160656Z AUTO 10006KT 10SM -RA SCT110 22/21 A3006 RMK AO2 SLP162 P0002 T02220211 $,KNDZ,2023-05-16T06:56:00Z,30.7,-87.02,22.2,21.1,100,6,,10.0,30.059055,1016.2,,TRUE,TRUE,TRUE,,,,,-RA,SCT,11000,,,,,,,VFR,,,,,,0.02,,,,,,SPECI,51.0
KNCA 160656Z AUTO 00000KT 10SM OVC120 17/14 A3009 RMK AO2 SLP190 T01670144,KNCA,2023-05-16T06:56:00Z,34.72,-77.45,16.7,14.4,0,0,,10.0,30.088583,1019.0,,TRUE,TRUE,,,,,,,OVC,12000,,,,,,,VFR,,,,,,,,,,,,SPECI,9.0
KNBC 160656Z AUTO 00000KT 10SM BKN025 19/18 A3008 RMK AO2 SLP185 T01940183,KNBC,2023-05-16T06:56:00Z,32.47,-80.72,19.4,18.3,0,0,,10.0,30.079725,1018.5,,TRUE,TRUE,,,,,,,BKN,2500,,,,,,,MVFR,,,,,,,,,,,,SPECI,9.0
KMYR 160656Z AUTO 15008KT 10SM CLR 22/17 A3010 RMK AO2 SLP191 T02170172,KMYR,2023-05-16T06:56:00Z,33.68,-78.92,21.7,17.2,150,8,,10.0,30.100393,1019.1,,TRUE,TRUE,,,,,,,CLR,,,,,,,,VFR,,,,,,,,,,,,METAR,7.0
KMVN 160656Z AUTO 06003KT 10SM -RA FEW026 SCT065 OVC110 18/17 A3001 RMK AO2 RAB23 SLP161 P0000 T01780167,KMVN,2023-05-16T06:56:00Z,38.32,-88.87,17.8,16.7,60,3,,10.0,30.008858,1016.1,,TRUE,TRUE,,,,,,-RA,FEW,2600,SCT,6500,OVC,11000,,,VFR,,,,,,0.005,,,,,,METAR,145.0
KMTW 160656Z AUTO 26008KT 10SM CLR 14/05 A2998 RMK AO2 SLP151 T01440050,KMTW,2023-05-16T06:56:00Z,44.12,-87.67,14.4,5.0,260,8,,10.0,29.97933,1015.1,,TRUE,TRUE,,,,,,,CLR,,,,,,,,VFR,,,,,,,,,,,,METAR,197.0
KMSV 160656Z AUTO 26006KT 10SM CLR 07/02 A2992 RMK AO2 SLP132 T00720022,KMSV,2023-05-16T06:56:00Z,41.7,-74.78,7.2,2.2,260,6,,10.0,29.920275,1013.2,,TRUE,TRUE,,,,,,,CLR,,,,,,,,VFR,,,,,,,,,,,,METAR,427.0
KMRF 160656Z AUTO 34005KT 10SM FEW080 13/13 A3030 RMK AO2 SLP210 T01330128 402330133,KMRF,2023-05-16T06:56:00Z,30.37,-104.02,13.3,12.8,340,5,,10.0,30.301182,1021.0,,TRUE,TRUE,,,,,,,FEW,8000,,,,,,,VFR,,,,23.3,13.3,,,,,,,METAR,1476.0
KMQY 160656Z AUTO 13003KT 10SM CLR 19/19 A3005 RMK AO2 SLP178 T01940194,KMQY,2023-05-16T06:56:00Z,36.02,-86.52,19.4,19.4,130,3,,10.0,30.050198,1017.8,,TRUE,TRUE,,,,,,,CLR,,,,,,,,VFR,,,,,,,,,,,,METAR,156.0
KMOB 160656Z AUTO 30003KT 10SM CLR 23/20 A3005 RMK AO2 SLP172 T02280200,KMOB,2023-05-16T06:56:00Z,30.68,-88.25,22.8,20.0,300,3,,10.0,30.050198,1017.2,,TRUE,TRUE,,,,,,,CLR,,,,,,,,VFR,,,,,,,,,,,,METAR,67.0
KMML 160656Z AUTO 23010KT 10SM CLR 13/08 A3011 RMK AO2 SLP198 T01280083,KMML,2023-05-16T06:56:00Z,44.45,-95.82,12.8,8.3,230,10,,10.0,30.109253,1019.8,,TRUE,TRUE,,,,,,,CLR,,,,,,,,VFR,,,,,,,,,,,,METAR,358.0
KMKY 160656Z AUTO 03003KT 10SM FEW031 22/21 A3004 RMK AO2 SLP171 T02220211 TSNO $,KMKY,2023-05-16T06:56:00Z,26.0,-81.67,22.2,21.1,30,3,,10.0,30.041338,1017.1,,TRUE,TRUE,TRUE,,TRUE,,,,FEW,3100,,,,,,,VFR,,,,,,,,,,,,METAR,2.0
KMKT 160656Z AUTO 21004KT 10SM CLR 13/08 A3011 RMK AO2 SLP197 T01330083,KMKT,2023-05-16T06:56:00Z,44.22,-93.92,13.3,8.3,210,4,,10.0,30.109253,1019.7,,TRUE,TRUE,,,,,,,CLR,,,,,,,,VFR,,,,,,,,,,,,METAR,309.0
KMDT 160656Z 00000KT 10SM R13/3000VP6000FT FEW250 13/09 A2996 RMK AO2 SLP146 T01280089,KMDT,2023-05-16T06:56:00Z,40.2,-76.77,12.8,8.9,0,0,,10.0,29.958662,1014.6,,,TRUE,,,,,,,FEW,25000,,,,,,,VFR,,,,,,,,,,,,METAR,91.0
KMBL 160656Z AUTO 07005KT 10SM CLR 03/00 A2996 RMK AO2 SLP150 T00330000,KMBL,2023-05-16T06:56:00Z,44.27,-86.25,3.3,0.0,70,5,,10.0,29.958662,1015.0,,TRUE,TRUE,,,,,,,CLR,,,,,,,,VFR,,,,,,,,,,,,METAR,187.0
KM19 160656Z AUTO 24008KT 10SM CLR 23/19 A3000 RMK AO2 SLP156 T02330194 PNO $,KM19,2023-05-16T06:56:00Z,35.65,-91.17,23.3,19.4,240,8,,10.0,30.0,1015.6,,TRUE,TRUE,TRUE,,,,,,CLR,,,,,,,,VFR,,,,,,,,,,,,METAR,72.0
KLZU 160656Z AUTO 17005KT 10SM FEW047 21/19 A3008 RMK AO2 SLP189 T02110189,KLZU,2023-05-16T06:56:00Z,33.98,-83.97,21.1,18.9,170,5,,10.0,30.079725,1018.9,,TRUE,TRUE,,,,,,,FEW,4700,,,,,,,VFR,,,,,,,,,,,,METAR,316.0
KLWS 160656Z AUTO 22004KT 10SM OVC095 21/11 A3006 RMK AO2 SLP168 T02060111,KLWS,2023-05-16T06:56:00Z,46.37,-117.02,20.6,11.1,220,4,,10.0,30.059055,1016.8,,TRUE,TRUE,,,,,,,OVC,9500,,,,,,,VFR,,,,,,,,,,,,METAR,435.0
KLRD 160656Z AUTO 09003KT 10SM CLR 22/19 A3009 RMK AO2 SLP187 T02170189,KLRD,2023-05-16T06:56:00Z,27.55,-99.47,21.7,18.9,90,3,,10.0,30.088583,1018.7,,TRUE,TRUE,,,,,,,CLR,,,,,,,,VFR,,,,,,,,,,,,METAR,150.0
KLNR 160656Z AUTO 00000KT 10SM CLR 09/07 A3006 RMK AO2 SLP175 T00890067,KLNR,2023-05-16T06:56:00Z,43.22,-90.18,8.9,6.7,0,0,,10.0,30.059055,1017.5,,TRUE,TRUE,,,,,,,CLR,,,,,,,,VFR,,,,,,,,,,,,METAR,218.0
KLGD 160656Z AUTO 35005KT 10SM FEW065 OVC090 13/12 A3016 RMK AO2 SLP203 T01280117,KLGD,2023-05-16T06:56:00Z,45.28,-118.0,12.8,11.7,350,5,,10.0,30.159449,1020.3,,TRUE,TRUE,,,,,,,FEW,6500,OVC,9000,,,,,VFR,,,,,,,,,,,,METAR,827.0
KLEW 160656Z AUTO 19003KT 10SM CLR 06/03 A2970 RMK AO2 SLP065 T00610033,KLEW,2023-05-16T06:56:00Z,44.03,-70.28,6.1,3.3,190,3,,10.0,29.698818,1006.5,,TRUE,TRUE,,,,,,,CLR,,,,,,,,VFR,,,,,,,,,,,,METAR,81.0
KLCI 160656Z AUTO 26005KT 10SM CLR 15/M01 A2974 RMK AO2 SLP071 T01501006,KLCI,2023-05-16T06:56:00Z,43.57,-71.42,15.0,-0.6,260,5,,10.0,29.740158,1007.1,,TRUE,TRUE,,,,,,,CLR,,,,,,,,VFR,,,,,,,,,,,,METAR,166.0
KLBT 160656Z AUTO 00000KT 10SM OVC100 17/14 A3008 RMK AO2 SLP186 T01670139,KLBT,2023-05-16T06:56:00Z,34.6,-79.07,16.7,13.9,0,0,,10.0,30.079725,1018.6,,TRUE,TRUE,,,,,,,OVC,10000,,,,,,,VFR,,,,,,,,,,,,METAR,37.0
KLBL 160656Z AUTO 28005KT 10SM CLR 11/11 A3025 RMK AO2 SLP232 T01110111,KLBL,2023-05-16T06:56:00Z,37.03,-100.97,11.1,11.1,280,5,,10.0,30.250984,1023.2,,TRUE,TRUE,,,,,,,CLR,,,,,,,,VFR,,,,,,,,,,,,METAR,877.0
KLAS 160656Z 10006KT 10SM BKN140 BKN180 29/02 A3002 RMK AO2 SLP137 T02890017 $,KLAS,2023-05-16T06:56:00Z,36.07,-115.17,28.9,1.7,100,6,,10.0,30.02067,1013.7,,,TRUE,TRUE,,,,,,BKN,14000,BKN,18000,,,,,VFR,,,,,,,,,,,,METAR,662.0
KKLS 160656Z AUTO 02004KT FEW010 SCT110 14/13 A3010 RMK AO2 SLP197 T01440128 PWINO $,KKLS,2023-05-16T06:56:00Z,46.12,-122.9,14.4,12.8,20,4,,,30.100393,1019.7,,TRUE,TRUE,TRUE,,,,TRUE,,FEW,1000,SCT,11000,,,,,,,,,,,,,,,,,METAR,4.0
KJXN 160656Z AUTO 22004KT 10SM CLR 06/04 A3001 RMK AO2 SLP163 T00610039,KJXN,2023-05-16T06:56:00Z,42.27,-84.47,6.1,3.9,220,4,,10.0,30.008858,1016.3,,TRUE,TRUE,,,,,,,CLR,,,,,,,,VFR,,,,,,,,,,,,METAR,303.0
KJRB 160656Z AUTO 26008KT 10SM CLR 16/07 A2993 RMK AO2 SLP132 T01610067,KJRB,2023-05-16T06:56:00Z,40.7,-74.02,16.1,6.7,260,8,,10.0,29.929134,1013.2,,TRUE,TRUE,,,,,,,CLR,,,,,,,,VFR,,,,,,,,,,,,METAR,2.0
KJMS 160656Z AUTO 28007KT 10SM CLR 14/08 A3010 RMK AO2 SLP189 T01440078,KJMS,2023-05-16T06:56:00Z,46.93,-98.67,14.4,7.8,280,7,,10.0,30.100393,1018.9,,TRUE,TRUE,,,,,,,CLR,,,,,,,,VFR,,,,,,,,,,,,METAR,455.0
KJHW 160656Z AUTO 20004KT 10SM CLR 06/M01 A2999 RMK AO2 SLP163 T00561011 PNO $,KJHW,2023-05-16T06:56:00Z,42.15,-79.27,5.6,-1.1,200,4,,10.0,29.991142,1016.3,,TRUE,TRUE,TRUE,,,,,,CLR,,,,,,,,VFR,,,,,,,,,,,,METAR,520.0
KJAX 160656Z 00000KT 8SM SCT012 BKN031 21/19 A3006 RMK AO2 SLP179 T02060194,KJAX,2023-05-16T06:56:00Z,30.5,-81.68,20.6,19.4,0,0,,8.0,30.059055,1017.9,,,TRUE,,,,,,,SCT,1200,BKN,3100,,,,,VFR,,,,,,,,,,,,METAR,8.0
KJAC 160656Z AUTO 03003KT 10SM CLR 06/03 A3034 RMK AO2 SLP251 T00610028 402000039 PNO $,KJAC,2023-05-16T06:56:00Z,43.62,-110.73,6.1,2.8,30,3,,10.0,30.339567,1025.1,,TRUE,TRUE,TRUE,,,,,,CLR,,,,,,,,VFR,,,,20.0,3.9,,,,,,,METAR,1967.0
KIWD 160656Z AUTO 24007KT 10SM CLR 13/03 A2994 RMK AO2 SLP139 T01330028,KIWD,2023-05-16T06:56:00Z,46.52,-90.12,13.3,2.8,240,7,,10.0,29.940945,1013.9,,TRUE,TRUE,,,,,,,CLR,,,,,,,,VFR,,,,,,,,,,,,METAR,373.0
KITH 160656Z AUTO 09003KT 10SM CLR 06/03 A2994 RMK AO2 SLP138 T00560033,KITH,2023-05-16T06:56:00Z,42.48,-76.45,5.6,3.3,90,3,,10.0,29.940945,1013.8,,TRUE,TRUE,,,,,,,CLR,,,,,,,,VFR,,,,,,,,,,,,METAR,338.0
KISP 160656Z AUTO 21005KT 10SM CLR 14/07 A2989 RMK AO2 SLP120 T01440072,KISP,2023-05-16T06:56:00Z,40.8,-73.1,14.4,7.2,210,5,,10.0,29.890747,1012.0,,TRUE,TRUE,,,,,,,CLR,,,,,,,,VFR,,,,,,,,,,,,METAR,25.0
KISM 160656Z AUTO 00000KT 10SM CLR 21/19 A3007 RMK AO2 SLP182 T02110189 PNO $,KISM,2023-05-16T06:56:00Z,28.28,-81.43,21.1,18.9,0,0,,10.0,30.070866,1018.2,,TRUE,TRUE,TRUE,,,,,,CLR,,,,,,,,VFR,,,,,,,,,,,,METAR,25.0
KINW 160656Z AUTO 17005KT 10SM CLR 16/07 A3026 RMK AO2 SLP184 T01610067 402780078,KINW,2023-05-16T06:56:00Z,35.03,-110.72,16.1,6.7,170,5,,10.0,30.259842,1018.4,,TRUE,TRUE,,,,,,,CLR,,,,,,,,VFR,,,,27.8,7.8,,,,,,,METAR,1492.0
KILE 160656Z AUTO 00000KT 10SM CLR 19/19 A3011 RMK AO2 SLP187 T01940194,KILE,2023-05-16T06:56:00Z,31.08,-97.68,19.4,19.4,0,0,,10.0,30.109253,1018.7,,TRUE,TRUE,,,,,,,CLR,,,,,,,,VFR,,,,,,,,,,,,METAR,256.0
KHYS 160656Z AUTO 34006KT 10SM SCT020 OVC026 13/10 A3021 RMK AO2 SLP229 T01280100 $,KHYS,2023-05-16T06:56:00Z,38.85,-99.27,12.8,10.0,340,6,,10.0,30.209646,1022.9,,TRUE,TRUE,TRUE,,,,,,SCT,2000,OVC,2600,,,,,MVFR,,,,,,,,,,,,METAR,607.0
KHYI 160656Z AUTO 00000KT 10SM CLR 19/19 A3011 RMK AO2 SLP188 T01940189,KHYI,2023-05-16T06:56:00Z,29.88,-97.87,19.4,18.9,0,0,,10.0,30.109253,1018.8,,TRUE,TRUE,,,,,,,CLR,,,,,,,,VFR,,,,,,,,,,,,METAR,180.0
KHYA 160656Z AUTO 25008KT 10SM CLR 13/09 A2980 RMK AO2 SLP091 T01280094,KHYA,2023-05-16T06:56:00Z,41.67,-70.27,12.8,9.4,250,8,,10.0,29.799213,1009.1,,TRUE,TRUE,,,,,,,CLR,,,,,,,,VFR,,,,,,,,,,,,METAR,11.0
KHWV 160656Z AUTO 23005KT 10SM CLR 15/09 A2990 RMK AO2 SLP124 T01500089,KHWV,2023-05-16T06:56:00Z,40.82,-72.87,15.0,8.9,230,5,,10.0,29.899607,1012.4,,TRUE,TRUE,,,,,,,CLR,,,,,,,,VFR,,,,,,,,,,,,METAR,20.0
KHPN 160656Z 26006KT 10SM CLR 16/02 A2989 RMK AO2 SLP117 T01560022,KHPN,2023-05-16T06:56:00Z,41.07,-73.7,15.6,2.2,260,6,,10.0,29.890747,1011.7,,,TRUE,,,,,,,CLR,,,,,,,,VFR,,,,,,,,,,,,METAR,113.0
KHND 160656Z AUTO 17009KT 10SM CLR 29/04 A3005 RMK AO2 SLP163 T02940044 403500183,KHND,2023-05-16T06:56:00Z,35.98,-115.13,29.4,4.4,170,9,,10.0,30.050198,1016.3,,TRUE,TRUE,,,,,,,CLR,,,,,,,,VFR,,,,35.0,18.3,,,,,,,METAR,740.0
KHNB 160656Z AUTO 02003KT 10SM CLR 16/16 A3002 RMK AO2 SLP162 T01610156,KHNB,2023-05-16T06:56:00Z,38.25,-86.95,16.1,15.6,20,3,,10.0,30.02067,1016.2,,TRUE,TRUE,,,,,,,CLR,,,,,,,,VFR,,,,,,,,,,,,METAR,159.0
KHEF 160656Z 16003KT 10SM CLR 11/11 A3001 RMK AO2 SLP168 T01060106,KHEF,2023-05-16T06:56:00Z,38.72,-77.52,10.6,10.6,160,3,,10.0,30.008858,1016.8,,,TRUE,,,,,,,CLR,,,,,,,,VFR,,,,,,,,,,,,METAR,53.0
KHDN 160656Z AUTO 10008KT 10SM CLR 08/07 A3039 RMK AO2 SLP237 T00830067,KHDN,2023-05-16T06:56:00Z,40.48,-107.22,8.3,6.7,100,8,,10.0,30.389763,1023.7,,TRUE,TRUE,,,,,,,CLR,,,,,,,,VFR,,,,,,,,,,,,METAR,2012.0
KGXY 160656Z AUTO 10005KT 10SM SCT120 09/08 A3026 RMK AO2 SLP240 T00940083 401720094,KGXY,2023-05-16T06:56:00Z,40.43,-104.62,9.4,8.3,100,5,,10.0,30.259842,1024.0,,TRUE,TRUE,,,,,,,SCT,12000,,,,,,,VFR,,,,17.2,9.4,,,,,,,METAR,1420.0
KGVQ 160656Z AUTO 23011G16KT 10SM CLR 12/M02 A2991 RMK AO2 SLP129 T01221017,KGVQ,2023-05-16T06:56:00Z,43.03,-78.17,12.2,-1.7,230,11,16,10.0,29.911417,1012.9,,TRUE,TRUE,,,,,,,CLR,,,,,,,,VFR,,,,,,,,,,,,METAR,279.0
KGUC 160656Z AUTO 00000KT 10SM CLR 06/02 A3044 RMK AO2 SLP256 T00560022,KGUC,2023-05-16T06:56:00Z,38.52,-106.93,5.6,2.2,0,0,,10.0,30.43996,1025.6,,TRUE,TRUE,,,,,,,CLR,,,,,,,,VFR,,,,,,,,,,,,METAR,2337.0
KGTU 160656Z 25005KT 10SM CLR 19/19 A3012 RMK AO2 SLP195 T01940189,KGTU,2023-05-16T06:56:00Z,30.68,-97.68,19.4,18.9,250,5,,10.0,30.121063,1019.5,,,TRUE,,,,,,,CLR,,,,,,,,VFR,,,,,,,,,,,,METAR,232.0
KGTR 160656Z AUTO 16005KT 10SM CLR 22/21 A3005 RMK AO2 SLP181 T02220206,KGTR,2023-05-16T06:56:00Z,33.45,-88.58,22.2,20.6,160,5,,10.0,30.050198,1018.1,,TRUE,TRUE,,,,,,,CLR,,,,,,,,VFR,,,,,,,,,,,,METAR,80.0
KGRD 160656Z AUTO 19007KT 10SM CLR 19/16 A3010 RMK AO2 SLP185 T01890156,KGRD,2023-05-16T06:56:00Z,34.25,-82.15,18.9,15.6,190,7,,10.0,30.100393,1018.5,,TRUE,TRUE,,,,,,,CLR,,,,,,,,VFR,,,,,,,,,,,,METAR,188.0
KGPZ 160656Z AUTO 25004KT 10SM CLR 16/05 A3000 RMK AO2 SLP158 T01560050,KGPZ,2023-05-16T06:56:00Z,47.22,-93.52,15.6,5.0,250,4,,10.0,30.0,1015.8,,TRUE,TRUE,,,,,,,CLR,,,,,,,,VFR,,,,,,,,,,,,METAR,410.0
KGON 160656Z AUTO 26005KT 10SM CLR 15/07 A2985 RMK AO2 SLP107 T01500072,KGON,2023-05-16T06:56:00Z,41.33,-72.05,15.0,7.2,260,5,,10.0,29.84941,1010.7,,TRUE,TRUE,,,,,,,CLR,,,,,,,,VFR,,,,,,,,,,,,METAR,2.0
KGNR 160656Z AUTO 31008G21KT 11/05 A2961 RMK AO1 SLP026 T01110050,KGNR,2023-05-16T06:56:00Z,45.47,-69.55,11.1,5.0,310,8,21,,29.610237,1002.6,,TRUE,TRUE,,,,,,,,,,,,,,,,,,,,,,,,,,,SPECI,426.0
KGNA 160656Z AUTO 27008KT 06/02 A2985 RMK AO1 SLP111 T00610017,KGNA,2023-05-16T06:56:00Z,47.75,-90.35,6.1,1.7,270,8,,,29.84941,1011.1,,TRUE,TRUE,,,,,,,,,,,,,,,,,,,,,,,,,,,SPECI,186.0
KGDV 160656Z AUTO 15006KT 10SM CLR 14/07 A3013 RMK AO2 SLP197 T01390067 402330072 TSNO,KGDV,2023-05-16T06:56:00Z,47.13,-104.8,13.9,6.7,150,6,,10.0,30.129921,1019.7,,TRUE,TRUE,,,TRUE,,,,CLR,,,,,,,,VFR,,,,23.3,7.2,,,,,,,METAR,749.0
KGBD 160656Z AUTO 33007KT 10SM OVC022 13/11 A3021 RMK AO2 SLP227 T01280106,KGBD,2023-05-16T06:56:00Z,38.35,-98.87,12.8,10.6,330,7,,10.0,30.209646,1022.7,,TRUE,TRUE,,,,,,,OVC,2200,,,,,,,MVFR,,,,,,,,,,,,METAR,573.0
KGAI 160656Z AUTO 00000KT 10SM CLR 13/10 A3001 RMK AO2 SLP175 T01280100,KGAI,2023-05-16T06:56:00Z,39.17,-77.17,12.8,10.0,0,0,,10.0,30.008858,1017.5,,TRUE,TRUE,,,,,,,CLR,,,,,,,,VFR,,,,,,,,,,,,METAR,151.0
KGAD 160656Z AUTO 26003KT 10SM 19/19 A3007 RMK AO2 SLP181 T01890189 PNO $,KGAD,2023-05-16T06:56:00Z,33.97,-86.08,18.9,18.9,260,3,,10.0,30.070866,1018.1,,TRUE,TRUE,TRUE,,,,,,,,,,,,,,,,,,,,,,,,,,METAR,169.0
KFSD 160656Z AUTO 00000KT 10SM CLR 12/07 A3016 RMK AO2 SLP211 T01220067,KFSD,2023-05-16T06:56:00Z,43.58,-96.75,12.2,6.7,0,0,,10.0,30.159449,1021.1,,TRUE,TRUE,,,,,,,CLR,,,,,,,,VFR,,,,,,,,,,,,METAR,433.0
KFRM 160656Z AUTO 25007KT 10SM CLR 12/08 A3013 RMK AO2 SLP204 T01220078,KFRM,2023-05-16T06:56:00Z,43.63,-94.42,12.2,7.8,250,7,,10.0,30.129921,1020.4,,TRUE,TRUE,,,,,,,CLR,,,,,,,,VFR,,,,,,,,,,,,METAR,353.0
KFOD 160656Z AUTO 00000KT 10SM CLR 09/08 A3013 RMK AO2 SLP218 T00940083,KFOD,2023-05-16T06:56:00Z,42.53,-94.17,9.4,8.3,0,0,,10.0,30.129921,1021.8,,TRUE,TRUE,,,,,,,CLR,,,,,,,,VFR,,,,,,,,,,,,METAR,347.0
KFNL 160656Z 03004KT 5SM BR CLR 09/09 A3027 RMK AO2 SLP223 T00940089 401560089,KFNL,2023-05-16T06:56:00Z,40.45,-105.02,9.4,8.9,30,4,,5.0,30.268702,1022.3,,,TRUE,,,,,,BR,CLR,,,,,,,,MVFR,,,,15.6,8.9,,,,,,,METAR,1529.0
KFMH 160656Z 25010KT 10SM CLR 13/11 A2982,KFMH,2023-05-16T06:56:00Z,41.65,-70.52,13.0,11.0,250,10,,10.0,29.819881,,,,,,,,,,,CLR,,,,,,,,VFR,,,,,,,,,,,,METAR,35.0
KFLP 160656Z AUTO 00000KT 10SM OVC046 21/20 A3003 RMK AO2 SLP159 T02060200,KFLP,2023-05-16T06:56:00Z,36.28,-92.58,20.6,20.0,0,0,,10.0,30.029528,1015.9,,TRUE,TRUE,,,,,,,OVC,4600,,,,,,,VFR,,,,,,,,,,,,METAR,215.0
KFKL 160656Z AUTO 00000KT 10SM CLR 06/02 A3001 RMK AO2 SLP164 T00560022,KFKL,2023-05-16T06:56:00Z,41.37,-79.87,5.6,2.2,0,0,,10.0,30.008858,1016.4,,TRUE,TRUE,,,,,,,CLR,,,,,,,,VFR,,,,,,,,,,,,METAR,468.0
KFCI 160656Z AUTO 00000KT 10SM -RA OVC060 17/13 A3005 RMK AO2 RAB49 SLP187 P0000 T01670133,KFCI,2023-05-16T06:56:00Z,37.4,-77.52,16.7,13.3,0,0,,10.0,30.050198,1018.7,,TRUE,TRUE,,,,,,-RA,OVC,6000,,,,,,,VFR,,,,,,0.005,,,,,,METAR,63.0
KEUL 160656Z AUTO 00000KT 10SM CLR 13/09 A3018 RMK AO2 SLP206 T01330094 402830100,KEUL,2023-05-16T06:56:00Z,43.63,-116.62,13.3,9.4,0,0,,10.0,30.180119,1020.6,,TRUE,TRUE,,,,,,,CLR,,,,,,,,VFR,,,,28.3,10.0,,,,,,,METAR,741.0
KESC 160656Z AUTO 26008KT 10SM CLR 12/02 A2988 RMK AO2 SLP123 T01220022,KESC,2023-05-16T06:56:00Z,45.72,-87.08,12.2,2.2,260,8,,10.0,29.878937,1012.3,,TRUE,TRUE,,,,,,,CLR,,,,,,,,VFR,,,,,,,,,,,,METAR,180.0
KENV 160656Z AUTO 01011KT 10SM CLR 19/05 A3023 RMK AO2 SLP208 T01940050 402390133 PNO $,KENV,2023-05-16T06:56:00Z,40.72,-114.02,19.4,5.0,10,11,,10.0,30.230314,1020.8,,TRUE,TRUE,TRUE,,,,,,CLR,,,,,,,,VFR,,,,23.9,13.3,,,,,,,METAR,1291.0
KELZ 160656Z AUTO 27008KT 10SM CLR 09/M03 A2998 RMK AO2 SLP148 T00941033,KELZ,2023-05-16T06:56:00Z,42.1,-77.98,9.4,-3.3,270,8,,10.0,29.97933,1014.8,,TRUE,TRUE,,,,,,,CLR,,,,,,,,VFR,,,,,,,,,,,,METAR,639.0
KEKY 160656Z AUTO 00000KT 10SM CLR A3007 RMK AO2 SLPNO FZRANO $,KEKY,2023-05-16T06:56:00Z,33.32,-86.93,,,0,0,,10.0,30.070866,,,TRUE,TRUE,TRUE,,,TRUE,,,CLR,,,,,,,,VFR,,,,,,,,,,,,METAR,213.0
KEKQ 160656Z AUTO 00000KT 10SM OVC016 18/18 A3006 RMK AO2 SLP169 T01830183,KEKQ,2023-05-16T06:56:00Z,36.85,-84.85,18.3,18.3,0,0,,10.0,30.059055,1016.9,,TRUE,TRUE,,,,,,,OVC,1600,,,,,,,MVFR,,,,,,,,,,,,METAR,291.0
KEKO 160656Z AUTO 07004KT 10SM CLR 13/09 A3026 RMK AO2 SLP206 T01280089,KEKO,2023-05-16T06:56:00Z,40.82,-115.78,12.8,8.9,70,4,,10.0,30.259842,1020.6,,TRUE,TRUE,,,,,,,CLR,,,,,,,,VFR,,,,,,,,,,,,METAR,1541.0
KEHR 160656Z AUTO 08003KT 10SM CLR 19/17 A3001 RMK AO2 SLP160 T01890167,KEHR,2023-05-16T06:56:00Z,37.82,-87.67,18.9,16.7,80,3,,10.0,30.008858,1016.0,,TRUE,TRUE,,,,,,,CLR,,,,,,,,VFR,,,,,,,,,,,,METAR,117.0
KEGE 160656Z AUTO 08003KT 10SM SCT110 08/04 A3042 RMK AO2 SLP190 T00830044,KEGE,2023-05-16T06:56:00Z,39.63,-106.92,8.3,4.4,80,3,,10.0,30.41929,1019.0,,TRUE,TRUE,,,,,,,SCT,11000,,,,,,,VFR,,,,,,,,,,,,METAR,1993.0
KEEN 160656Z AUTO 10SM CLR 10/03 RMK AO2 SLPNO T01000028 $,KEEN,2023-05-16T06:56:00Z,42.88,-72.27,10.0,2.8,,,,10.0,,,,TRUE,TRUE,TRUE,,,,,,CLR,,,,,,,,VFR,,,,,,,,,,,,METAR,143.0
KEED 160656Z AUTO 13007KT 10SM CLR 32/07 A2994 RMK AO2 SLP103 T03170072,KEED,2023-05-16T06:56:00Z,34.77,-114.62,31.7,7.2,130,7,,10.0,29.940945,1010.3,,TRUE,TRUE,,,,,,,CLR,,,,,,,,VFR,,,,,,,,,,,,METAR,271.0
KEAU 160656Z AUTO 21005KT 10SM CLR 12/06 A3003 RMK AO2 SLP167 T01170061,KEAU,2023-05-16T06:56:00Z,44.87,-91.48,11.7,6.1,210,5,,10.0,30.029528,1016.7,,TRUE,TRUE,,,,,,,CLR,,,,,,,,VFR,,,,,,,,,,,,METAR,271.0
KDYR 160656Z AUTO 18005KT 10SM CLR 22/22 A3000 RMK AO2 SLP162 T02220222,KDYR,2023-05-16T06:56:00Z,36.0,-89.4,22.2,22.2,180,5,,10.0,30.0,1016.2,,TRUE,TRUE,,,,,,,CLR,,,,,,,,VFR,,,,,,,,,,,,METAR,98.0
KDWU 160656Z AUTO 00000KT 10SM OVC055 16/ A3003 RMK AO2 SLP168 T0156,KDWU,2023-05-16T06:56:00Z,38.55,-82.73,15.6,,0,0,,10.0,30.029528,1016.8,,TRUE,TRUE,,,,,,,OVC,5500,,,,,,,VFR,,,,,,,,,,,,METAR,165.0
KDVL 160656Z AUTO 26007KT 10SM CLR 13/08 A3007 RMK AO2 SLP195 T01330078,KDVL,2023-05-16T06:56:00Z,48.12,-98.92,13.3,7.8,260,7,,10.0,30.070866,1019.5,,TRUE,TRUE,,,,,,,CLR,,,,,,,,VFR,,,,,,,,,,,,METAR,439.0
KDUG 160656Z AUTO 04005KT 10SM CLR 17/08 A3018 RMK AO2 SLP157 T01720078 403000117 TSNO $,KDUG,2023-05-16T06:56:00Z,31.47,-109.6,17.2,7.8,40,5,,10.0,30.180119,1015.7,,TRUE,TRUE,TRUE,,TRUE,,,,CLR,,,,,,,,VFR,,,,30.0,11.7,,,,,,,SPECI,1260.0
KDIK 160656Z AUTO 19008KT 10SM CLR 10/06 A3014 RMK AO2 SLP202 T01000061 402330061,KDIK,2023-05-16T06:56:00Z,46.8,-102.8,10.0,6.1,190,8,,10.0,30.138779,1020.2,,TRUE,TRUE,,,,,,,CLR,,,,,,,,VFR,,,,23.3,6.1,,,,,,,METAR,788.0
KDIJ 160656Z AUTO 13006KT 10SM CLR 07/05 A3036 RMK AO2 SLP246 T00670050 401940044,KDIJ,2023-05-16T06:56:00Z,43.75,-111.1,6.7,5.0,130,6,,10.0,30.360237,1024.6,,TRUE,TRUE,,,,,,,CLR,,,,,,,,VFR,,,,19.4,4.4,,,,,,,METAR,1896.0
KDAY 160656Z 23004KT 10SM SCT150 OVC200 14/10 A3004 RMK AO2 SLP167 T01440100 $,KDAY,2023-05-16T06:56:00Z,39.9,-84.22,14.4,10.0,230,4,,10.0,30.041338,1016.7,,,TRUE,TRUE,,,,,,SCT,15000,OVC,20000,,,,,VFR,,,,,,,,,,,,METAR,303.0
KD07 160656Z AUTO 16008KT 11/07 A3017 RMK AO1 SLP217 T01110072 402060078,KD07,2023-05-16T06:56:00Z,45.03,-102.02,11.1,7.2,160,8,,,30.171259,1021.7,,TRUE,TRUE,,,,,,,,,,,,,,,,,,,20.6,7.8,,,,,,,SPECI,786.0
KCXY 160656Z AUTO 00000KT 10SM CLR 13/08 A2997 RMK AO2 SLP149 T01330083,KCXY,2023-05-16T06:56:00Z,40.22,-76.85,13.3,8.3,0,0,,10.0,29.970472,1014.9,,TRUE,TRUE,,,,,,,CLR,,,,,,,,VFR,,,,,,,,,,,,METAR,102.0
KCWI 160656Z AUTO 31005KT 10SM CLR 12/09 A3008 RMK AO2 SLP189 T01220089,KCWI,2023-05-16T06:56:00Z,41.82,-90.32,12.2,8.9,310,5,,10.0,30.079725,1018.9,,TRUE,TRUE,,,,,,,CLR,,,,,,,,VFR,,,,,,,,,,,,METAR,212.0
KCVO 160656Z AUTO 29011KT 10SM CLR 13/11 A3012 RMK AO2 SLP199 T01280106,KCVO,2023-05-16T06:56:00Z,44.5,-123.28,12.8,10.6,290,11,,10.0,30.121063,1019.9,,TRUE,TRUE,,,,,,,CLR,,,,,,,,VFR,,,,,,,,,,,,METAR,75.0
KCVN 160656Z AUTO 06005KT 10SM CLR 12/10 A3031 RMK AO2 SLP243 T01170100 402170117,KCVN,2023-05-16T06:56:00Z,34.42,-103.07,11.7,10.0,60,5,,10.0,30.31004,1024.3,,TRUE,TRUE,,,,,,,CLR,,,,,,,,VFR,,,,21.7,11.7,,,,,,,METAR,1278.0
KCTB 160656Z AUTO 25011KT 10SM CLR 14/07 A3005 RMK AO2 SLP152 T01440072 402560056,KCTB,2023-05-16T06:56:00Z,48.6,-112.37,14.4,7.2,250,11,,10.0,30.050198,1015.2,,TRUE,TRUE,,,,,,,CLR,,,,,,,,VFR,,,,25.6,5.6,,,,,,,METAR,1172.0
KCOE 160656Z AUTO 03011KT 10SM 18/11 A3010 RMK AO2 LTG DSNT SE AND S AND NW SLP193 T01780106 PNO $,KCOE,2023-05-16T06:56:00Z,47.77,-116.82,17.8,10.6,30,11,,10.0,30.100393,1019.3,,TRUE,TRUE,TRUE,,,,,,,,,,,,,,,,,,,,,,,,,,METAR,693.0
KCOD 160656Z AUTO VRB03KT 10SM CLR 14/04 A3022 RMK AO2 SLP196 T01390044 402170061,KCOD,2023-05-16T06:56:00Z,44.52,-109.02,13.9,4.4,0,3,,10.0,30.221457,1019.6,,TRUE,TRUE,,,,,,,CLR,,,,,,,,VFR,,,,21.7,6.1,,,,,,,METAR,1550.0
KCIU 160656Z AUTO 23005KT 10SM CLR 09/02 A2982 RMK AO2 SLP097 T00890017,KCIU,2023-05-16T06:56:00Z,46.25,-84.47,8.9,1.7,230,5,,10.0,29.819881,1009.7,,TRUE,TRUE,,,,,,,CLR,,,,,,,,VFR,,,,,,,,,,,,METAR,242.0
KCHS 160656Z 03004KT 10SM FEW250 18/17 A3008 RMK AO2 SLP184 T01830167,KCHS,2023-05-16T06:56:00Z,32.9,-80.03,18.3,16.7,30,4,,10.0,30.079725,1018.4,,,TRUE,,,,,,,FEW,25000,,,,,,,VFR,,,,,,,,,,,,SPECI,12.0
KCAE 160656Z 14003KT 10SM FEW150 19/16 A3008 RMK AO2 SLP183 T01890156 $,KCAE,2023-05-16T06:56:00Z,33.93,-81.12,18.9,15.6,140,3,,10.0,30.079725,1018.3,,,TRUE,TRUE,,,,,,FEW,15000,,,,,,,VFR,,,,,,,,,,,,METAR,69.0
KBZN 160656Z AUTO 00000KT 10SM CLR 11/06 A3020 RMK AO2 SLP198 T01110061 402440044,KBZN,2023-05-16T06:56:00Z,45.78,-111.17,11.1,6.1,0,0,,10.0,30.200787,1019.8,,TRUE,TRUE,,,,,,,CLR,,,,,,,,VFR,,,,24.4,4.4,,,,,,,METAR,1349.0
KBVX 160656Z AUTO 00000KT 10SM CLR 21/21 A3002 RMK AO2 SLP161 T02110206,KBVX,2023-05-16T06:56:00Z,35.73,-91.65,21.1,20.6,0,0,,10.0,30.02067,1016.1,,TRUE,TRUE,,,,,,,CLR,,,,,,,,VFR,,,,,,,,,,,,METAR,137.0
KBTP 160656Z AUTO 02003KT 10SM CLR 07/05 A3002 RMK AO2 SLP170 T00670050 TSNO $,KBTP,2023-05-16T06:56:00Z,40.77,-79.95,6.7,5.0,20,3,,10.0,30.02067,1017.0,,TRUE,TRUE,TRUE,,TRUE,,,,CLR,,,,,,,,VFR,,,,,,,,,,,,METAR,375.0
KBOK 160656Z AUTO 18004KT 10SM OVC009 12/12 A3015 RMK AO2 SLP211 T01220117 401280111,KBOK,2023-05-16T06:56:00Z,42.07,-124.28,12.2,11.7,180,4,,10.0,30.15059,1021.1,,TRUE,TRUE,,,,,,,OVC,900,,,,,,,IFR,,,,12.8,11.1,,,,,,,METAR,140.0
KBMI 160656Z AUTO 04005KT 10SM OVC075 15/09 A3007 RMK AO2 SLP176 T01500089,KBMI,2023-05-16T06:56:00Z,40.47,-88.92,15.0,8.9,40,5,,10.0,30.070866,1017.6,,TRUE,TRUE,,,,,,,OVC,7500,,,,,,,VFR,,,,,,,,,,,,METAR,262.0
KBLM 160656Z AUTO 24008KT 10SM CLR 14/11 A2995 RMK AO2 SLP140 T01440106,KBLM,2023-05-16T06:56:00Z,40.17,-74.12,14.4,10.6,240,8,,10.0,29.949802,1014.0,,TRUE,TRUE,,,,,,,CLR,,,,,,,,VFR,,,,,,,,,,,,METAR,45.0
KBKX 160656Z AUTO 00000KT 10SM CLR 12/07 A3015 RMK AO2 SLP221 T01170072,KBKX,2023-05-16T06:56:00Z,44.3,-96.82,11.7,7.2,0,0,,10.0,30.15059,1022.1,,TRUE,TRUE,,,,,,,CLR,,,,,,,,VFR,,,,,,,,,,,,METAR,494.0
KBJJ 160656Z AUTO 00000KT 10SM CLR 08/06 A3002 RMK AO2 SLP163 T00830061,KBJJ,2023-05-16T06:56:00Z,40.87,-81.88,8.3,6.1,0,0,,10.0,30.02067,1016.3,,TRUE,TRUE,,,,,,,CLR,,,,,,,,VFR,,,,,,,,,,,,METAR,338.0
KBIH 160656Z AUTO 32008KT 10SM CLR 15/00 A3018 RMK AO2 SLP176 T01500000,KBIH,2023-05-16T06:56:00Z,37.37,-118.35,15.0,0.0,320,8,,10.0,30.180119,1017.6,,TRUE,TRUE,,,,,,,CLR,,,,,,,,VFR,,,,,,,,,,,,METAR,1252.0
KBID 160656Z AUTO 24012KT 10SM CLR 13/09 A2986 RMK AO2 SLP112 T01330089,KBID,2023-05-16T06:56:00Z,41.17,-71.58,13.3,8.9,240,12,,10.0,29.861221,1011.2,,TRUE,TRUE,,,,,,,CLR,,,,,,,,VFR,,,,,,,,,,,,METAR,32.0
KBHB 160656Z AUTO 27003KT 10SM BKN065 14/02 A2965 RMK AO2 SLP042 T01390022,KBHB,2023-05-16T06:56:00Z,44.45,-68.37,13.9,2.2,270,3,,10.0,29.648623,1004.2,,TRUE,TRUE,,,,,,,BKN,6500,,,,,,,VFR,,,,,,,,,,,,METAR,21.0
KAWO 160656Z AUTO 13010KT 9SM RA BKN090 OVC110 18/16 A3008 RMK AO2 LTG DSNT SE SLP191 T01830161,KAWO,2023-05-16T06:56:00Z,48.17,-122.17,18.3,16.1,130,10,,9.0,30.079725,1019.1,,TRUE,TRUE,,,,,,RA,BKN,9000,OVC,11000,,,,,VFR,,,,,,,,,,,,METAR,38.0
KASH 160656Z AUTO 25005KT 10SM CLR 16/M01 A2978 RMK AO2 SLP088 T01611006,KASH,2023-05-16T06:56:00Z,42.78,-71.52,16.1,-0.6,250,5,,10.0,29.778543,1008.8,,TRUE,TRUE,,,,,,,CLR,,,,,,,,VFR,,,,,,,,,,,,METAR,56.0
KART 160656Z AUTO 22010KT 10SM CLR 12/04 A2983 RMK AO2 SLP099 T01170039,KART,2023-05-16T06:56:00Z,43.98,-76.03,11.7,3.9,220,10,,10.0,29.828741,1009.9,,TRUE,TRUE,,,,,,,CLR,,,,,,,,VFR,,,,,,,,,,,,METAR,100.0
KARG 160656Z AUTO 25005KT 10SM CLR 23/21 A2999 RMK AO2 SLP152 T02330211,KARG,2023-05-16T06:56:00Z,36.12,-90.92,23.3,21.1,250,5,,10.0,29.991142,1015.2,,TRUE,TRUE,,,,,,,CLR,,,,,,,,VFR,,,,,,,,,,,,METAR,82.0
KAND 160656Z AUTO 19004KT 10SM FEW070 20/17 A3008 RMK AO2 SLP175 T02000167,KAND,2023-05-16T06:56:00Z,34.5,-82.72,20.0,16.7,190,4,,10.0,30.079725,1017.5,,TRUE,TRUE,,,,,,,FEW,7000,,,,,,,VFR,,,,,,,,,,,,METAR,233.0
KALK 160656Z AUTO 08005KT 10SM FEW120 19/08 A3022 RMK AO2 SLP141 T01890078 402890122 $,KALK,2023-05-16T06:56:00Z,31.6,-110.43,18.9,7.8,80,5,,10.0,30.221457,1014.1,,TRUE,TRUE,TRUE,,,,,,FEW,12000,,,,,,,VFR,,,,28.9,12.2,,,,,,,SPECI,1451.0
KAJO 160656Z AUTO 00000KT 8SM CLR 14/14 A3005 RMK AO2 SLP171 T01440139,KAJO,2023-05-16T06:56:00Z,33.9,-117.6,14.4,13.9,0,0,,8.0,30.050198,1017.1,,TRUE,TRUE,,,,,,,CLR,,,,,,,,VFR,,,,,,,,,,,,METAR,161.0
KAIZ 160656Z AUTO 00000KT 2 1/2SM -RA BR BKN003 OVC007 18/17 RMK AO2 RAB54 SLPNO P0000 T01780172 $,KAIZ,2023-05-16T06:56:00Z,38.1,-92.53,17.8,17.2,0,0,,2.5,,,,TRUE,TRUE,TRUE,,,,,-RA BR,BKN,300,OVC,700,,,,,LIFR,,,,,,0.005,,,,,,METAR,263.0
KAFJ 160656Z AUTO 23003KT 10SM CLR 08/08 A3004 RMK AO2 SLP170 T00830078,KAFJ,2023-05-16T06:56:00Z,40.13,-80.28,8.3,7.8,230,3,,10.0,30.041338,1017.0,,TRUE,TRUE,,,,,,,CLR,,,,,,,,VFR,,,,,,,,,,,,METAR,360.0
KADF 160656Z AUTO 00000KT 10SM CLR 21/21 A3004 RMK AO2 SLP168 T02110211,KADF,2023-05-16T06:56:00Z,34.1,-93.07,21.1,21.1,0,0,,10.0,30.041338,1016.8,,TRUE,TRUE,,,,,,,CLR,,,,,,,,VFR,,,,,,,,,,,,METAR,54.0
K8D3 160656Z AUTO 26012KT 19/06 A3008 RMK AO1 SLP168 T01890061,K8D3,2023-05-16T06:56:00Z,45.67,-96.98,18.9,6.1,260,12,,,30.079725,1016.8,,TRUE,TRUE,,,,,,,,,,,,,,,,,,,,,,,,,,,SPECI,535.0
K79J 160656Z AUTO 00000KT 10SM CLR 23/20 A3005 RMK AO2 SLP172 T02280200,K79J,2023-05-16T06:56:00Z,31.32,-86.4,22.8,20.0,0,0,,10.0,30.050198,1017.2,,TRUE,TRUE,,,,,,,CLR,,,,,,,,VFR,,,,,,,,,,,,SPECI,93.0
K2WX 160656Z AUTO 10005KT 11/06 A3014 RMK AO1 SLP198 T01110056 402280083,K2WX,2023-05-16T06:56:00Z,45.6,-103.55,11.1,5.6,100,5,,,30.138779,1019.8,,TRUE,TRUE,,,,,,,,,,,,,,,,,,,22.8,8.3,,,,,,,METAR,925.0
K1M4 160656Z AUTO 00000KT 8SM CLR 19/19 A3008 RMK AO2 SLP172 T01890189,K1M4,2023-05-16T06:56:00Z,34.28,-87.6,18.9,18.9,0,0,,8.0,30.079725,1017.2,,TRUE,TRUE,,,,,,,CLR,,,,,,,,VFR,,,,,,,,,,,,METAR,283.0
TXKF 160655Z 03004KT 010V080 9999 FEW026 BKN190 18/14 Q1019 ,TXKF,2023-05-16T06:55:00Z,32.37,-64.68,18.0,14.0,30,4,,6.21,30.088583,,,,,,,,,,,FEW,2600,BKN,19000,,,,,VFR,,,,,,,,,,,,METAR,4.0
TNCE 160655Z AUTO 09004KT 050V130 //// // ///////// 26/23 Q1015 RE//,TNCE,2023-05-16T06:55:00Z,17.48,-62.97,26.0,23.0,90,4,,,29.970472,,,TRUE,,,,,,,,,,,,,,,,,,,,,,,,,,,,METAR,38.0
TNCB 160655Z AUTO 09012KT 060V120 9999 FEW012/// SCT016/// BKN019/// 27/24 Q1012,TNCB,2023-05-16T06:55:00Z,12.13,-68.28,27.0,24.0,90,12,,6.21,29.88189,,,TRUE,,,,,,,,FEW,1200,SCT,1600,BKN,1900,,,MVFR,,,,,,,,,,,,METAR,6.0
RODN 160655Z 16005KT 10SM FEW230 27/18 A2990 RMK AO2A SLP131 T02670177 FZRANO $,RODN,2023-05-16T06:55:00Z,26.35,127.77,26.7,17.7,160,5,,10.0,29.899607,1013.1,,,TRUE,TRUE,,,TRUE,,,FEW,23000,,,,,,,VFR,,,,,,,,,,,,METAR,38.0
RKSO 160655Z 26009KT 6SM HZ CLR 31/15 A2980 RMK AO2A SLP095 WND DATA ESTMD T03070147 $,RKSO,2023-05-16T06:55:00Z,37.08,127.02,30.7,14.7,260,9,,6.0,29.799213,1009.5,,,TRUE,TRUE,,,,,HZ,CLR,,,,,,,,VFR,,,,,,,,,,,,METAR,10.0
RKSG 160655Z 25009G14KT 220V290 10SM CLR 30/08 A2982 RMK SLP095 WND DATA ESTMD ALSTG/SLP ESTMD $,RKSG,2023-05-16T06:55:00Z,36.97,127.02,30.0,8.0,250,9,14,10.0,29.819881,1009.5,,,,TRUE,,,,,,CLR,,,,,,,,VFR,,,,,,,,,,,,METAR,12.0
RKJK 160655Z AUTO 21011KT 6SM HZ CLR 29/06 A2982 RMK AO2 SLP102 T02870061 $,RKJK,2023-05-16T06:55:00Z,35.9,126.62,28.7,6.1,210,11,,6.0,29.819881,1010.2,,TRUE,TRUE,TRUE,,,,,HZ,CLR,,,,,,,,VFR,,,,,,,,,,,,METAR,8.0
RJTY 160655Z AUTO 17012KT 10SM CLR 24/11 A2983 RMK AO2 SLP103 T02420105 $,RJTY,2023-05-16T06:55:00Z,35.75,139.33,24.2,10.5,170,12,,10.0,29.828741,1010.3,,TRUE,TRUE,TRUE,,,,,,CLR,,,,,,,,VFR,,,,,,,,,,,,METAR,136.0
PWAK 160655Z AUTO 06012KT 10SM SCT016 28/24 A2993 RMK AO2 SLP141 T02770237 $,PWAK,2023-05-16T06:55:00Z,19.28,166.62,27.7,23.7,60,12,,10.0,29.929134,1014.1,,TRUE,TRUE,TRUE,,,,,,SCT,1600,,,,,,,VFR,,,,,,,,,,,,METAR,7.0
PHSF 160655Z AUTO 02007KT 10SM OVC026 13/09 A3034 RMK AO2 SLP161 T01270091 $,PHSF,2023-05-16T06:55:00Z,19.77,-155.55,12.7,9.1,20,7,,10.0,30.339567,1016.1,,TRUE,TRUE,TRUE,,,,,,OVC,2600,,,,,,,MVFR,,,,,,,,,,,,METAR,1863.0
PHHI 160655Z AUTO 31006KT 10SM FEW025 19/15 A3008 RMK AO2 SLP180 T01870150 $,PHHI,2023-05-16T06:55:00Z,21.48,-158.05,18.7,15.0,310,6,,10.0,30.079725,1018.0,,TRUE,TRUE,TRUE,,,,,,FEW,2500,,,,,,,VFR,,,,,,,,,,,,METAR,246.0
PGUA 160655Z AUTO 09011KT 10SM BKN013 29/24 A2985 RMK AO2 CIG 011 RWY24L SLP099 T02910244 $,PGUA,2023-05-16T06:55:00Z,13.57,144.92,29.1,24.4,90,11,,10.0,29.84941,1009.9,,TRUE,TRUE,TRUE,,,,,,BKN,1300,,,,,,,MVFR,,,,,,,,,,,,METAR,159.0
PATL 160655Z AUTO 00000KT 10SM BKN070 BKN100 BKN170 07/02 A2999 RMK AO2 SLP164 T00710023 TSNO $,PATL,2023-05-16T06:55:00Z,62.9,-155.97,7.1,2.3,0,0,,10.0,29.991142,1016.4,,TRUE,TRUE,TRUE,,TRUE,,,,BKN,7000,BKN,10000,BKN,17000,,,VFR,,,,,,,,,,,,METAR,261.0
PASY 160655Z AUTO 33019G24KT M M M 04/M01 A3041,PASY,2023-05-16T06:55:00Z,52.72,174.12,4.0,-1.0,330,19,24,,30.410433,,,TRUE,,,,,,,,,,,,,,,,,,,,,,,,,,,,METAR,6.0
PALU 160655Z AUTO 05014KT 10SM -FZRA OVC021 M05/M09 A3034 RMK AO2 SNB0557E0604B0626E0634 SLP272 P0000 T10531090,PALU,2023-05-16T06:55:00Z,68.88,-166.1,-5.3,-9.0,50,14,,10.0,30.339567,1027.2,,TRUE,TRUE,,,,,,-FZRA,OVC,2100,,,,,,,MVFR,,,,,,0.005,,,,,,METAR,8.0
PAFR 160655Z AUTO 11017G23KT 9SM BKN100 12/00 A3017 RMK AO2 PK WND 09026/45 SLP223 T01150000 $,PAFR,2023-05-16T06:55:00Z,61.27,-149.65,11.5,0.0,110,17,23,9.0,30.171259,1022.3,,TRUE,TRUE,TRUE,,,,,,BKN,10000,,,,,,,VFR,,,,,,,,,,,,METAR,106.0
PAFB 160655Z AUTO 27006KT 10SM CLR 11/M02 A3008 RMK AO2 SLP193 T01101021 $,PAFB,2023-05-16T06:55:00Z,64.83,-147.62,11.0,-2.1,270,6,,10.0,30.079725,1019.3,,TRUE,TRUE,TRUE,,,,,,CLR,,,,,,,,VFR,,,,,,,,,,,,METAR,137.0
PAEI 160655Z AUTO 00000KT 10SM CLR 09/M03 A3007 RMK AO2 SLP188 T00941029 $,PAEI,2023-05-16T06:55:00Z,64.67,-147.1,9.4,-2.9,0,0,,10.0,30.070866,1018.8,,TRUE,TRUE,TRUE,,,,,,CLR,,,,,,,,VFR,,,,,,,,,,,,METAR,166.0
PAEH 160655Z AUTO 06018G29KT 010V100 10SM -RA OVC007 03/03 A2958 RMK AO2 PK WND 05035/0602 RAB0550E0610B0648 SLP022 P0009 T00340039,PAEH,2023-05-16T06:55:00Z,58.65,-162.07,3.4,3.9,60,18,29,10.0,29.58071,1002.2,,TRUE,TRUE,,,,,,-RA,OVC,700,,,,,,,IFR,,,,,,0.09,,,,,,METAR,101.0
PAED 160655Z 14006KT 10SM SCT070 BKN100 12/01 A3016 RMK AO2A SLP210 T01210005 $,PAED,2023-05-16T06:55:00Z,61.25,-149.83,12.1,0.5,140,6,,10.0,30.159449,1021.0,,,TRUE,TRUE,,,,,,SCT,7000,BKN,10000,,,,,VFR,,,,,,,,,,,,METAR,54.0
PACZ 160655Z AUTO 06017KT 6SM -RASN OVC035 02/00 A2971 RMK AO2 RAB0556E0634 SLP068 P0002 T00150001,PACZ,2023-05-16T06:55:00Z,61.78,-166.03,1.5,0.1,60,17,,6.0,29.71063,1006.8,,TRUE,TRUE,,,,,,-RA -SN,OVC,3500,,,,,,,VFR,,,,,,0.02,,,,,,METAR,129.0
OTBH 160655Z 01013KT 9999 BKN150 35/08 A2976 Q1007 RMK AO2A SLP078 T03480077 FZRANO $,OTBH,2023-05-16T06:55:00Z,25.12,51.32,34.8,7.7,10,13,,6.21,29.734253,1007.8,,,TRUE,TRUE,,,TRUE,,,BKN,15000,,,,,,,VFR,,,,,,,,,,,,METAR,40.0
OPFA 160655Z 31002KT 5000 HZ FEW040 38/15 Q1006 NOSIG,OPFA,2023-05-16T06:55:00Z,31.37,73.0,38.0,15.0,310,2,,3.11,29.704725,,,,,,TRUE,,,,HZ,FEW,4000,,,,,,,MVFR,,,,,,,,,,,,METAR,180.0
OKAS 160655Z 06007KT 9999 CLR 33/01 A2984 RMK AO2A SLP100 T03300009 FZRANO $,OKAS,2023-05-16T06:55:00Z,29.35,47.52,33.0,0.9,60,7,,6.21,29.840551,1010.0,,,TRUE,TRUE,,,TRUE,,,CLR,,,,,,,,VFR,,,,,,,,,,,,METAR,144.0
OEPS 160655Z 09007G13KT 9999 FEW240 33/04 A2995 RMK AO2A SLP121 WND DATA ESTMD T03340040,OEPS,2023-05-16T06:55:00Z,24.07,47.58,33.4,4.0,90,7,13,6.21,29.949802,1012.1,,,TRUE,,,,,,,FEW,24000,,,,,,,VFR,,,,,,,,,,,,METAR,503.0
NZCM 160655Z AUTO 00000KT 8000 -SN OVC033 M16/M23 A2866 RMK AO2 SNB0556 SLP712 T11641227,NZCM,2023-05-16T06:55:00Z,-77.85,166.67,-16.4,-22.7,0,0,,4.97,28.659449,971.2,,TRUE,TRUE,,,,,,-SN,OVC,3300,,,,,,,MVFR,,,,,,,,,,,,METAR,24.0
LIVT 160655Z 06020G38KT 020V110 9999 BKN030 16/09 Q1003 RMK OVC OVC060 QUK 4 QUL 2 NE VIS MAR 10 KM VIS MIN 9999,LIVT,2023-05-16T06:55:00Z,45.68,13.75,16.0,9.0,60,20,38,6.21,29.616142,,,,,,,,,,,BKN,3000,,,,,,,MVFR,,,,,,,,,,,,SPECI,20.0
LIVR 160655Z 06020G34KT 9999 FEW020 SCT025 03/M01 Q1007 RMK BKN MON CLD SCT VIS MIN 9999,LIVR,2023-05-16T06:55:00Z,46.28,11.78,3.0,-1.0,60,20,34,6.21,29.734253,,,,,,,,,,,FEW,2000,SCT,2500,,,,,VFR,,,,,,,,,,,,SPECI,1997.0
LIVP 160655Z 36029KT 0300 SN FZFG VV/// M01/M02 Q1007 RMK MON INVIS VAL INVIS VIS MIN 0300,LIVP,2023-05-16T06:55:00Z,46.15,11.03,-1.0,-2.0,360,29,,0.19,29.734253,,,,,,,,,,SN FZFG,OVX,0,,,,,,,LIFR,,,,,,,,,,,,SPECI,2099.0
LIVO 160655Z 00000KT 6000 -RA BKN020 09/08 Q1010 RMK BKN VIS MIN 6000,LIVO,2023-05-16T06:55:00Z,46.5,13.58,9.0,8.0,0,0,,3.73,29.822834,,,,,,,,,,-RA,BKN,2000,,,,,,,MVFR,,,,,,,,,,,,SPECI,782.0
LIVM 160655Z AUTO /////KT //// ///// Q////,LIVM,2023-05-16T06:55:00Z,44.45,12.3,,,,,,,,,,TRUE,,,,,,,,,,,,,,,,,,,,,,,,,,,,SPECI,6.0
LIVF 160655Z 06007KT 0800 -TSRA FG VV002 10/10 Q0997 RETS RMK MON INVIS VAL INVIS VIS MIN 0800,LIVF,2023-05-16T06:55:00Z,43.52,12.72,10.0,10.0,60,7,,0.5,29.438976,,,,,,,,,,-TSRA FG,OVX,0,,,,,,,LIFR,,,,,,,,,,,200,SPECI,549.0
LIVE 160655Z 02008G21KT 9999 FEW015 SCT025 07/02 Q1010 RMK OVC BKN060 VIS MIN 9999,LIVE,2023-05-16T06:55:00Z,46.82,10.5,7.0,2.0,20,8,21,6.21,29.822834,,,,,,,,,,,FEW,1500,SCT,2500,,,,,VFR,,,,,,,,,,,,SPECI,1684.0
LIVD 160655Z 09005KT 050V160 9999 OVC025 07/05 Q1011 RMK OVC VIS MIN 9999,LIVD,2023-05-16T06:55:00Z,46.72,12.22,7.0,5.0,90,5,,6.21,29.852362,,,,,,,,,,,OVC,2500,,,,,,,MVFR,,,,,,,,,,,,SPECI,1221.0
LIVC 160655Z AUTO /////KT //// ///// Q////,LIVC,2023-05-16T06:55:00Z,44.2,10.68,,,,,,,,,,TRUE,,,,,,,,,,,,,,,,,,,,,,,,,,,,SPECI,2139.0
LIRX 160655Z 36018KT 6000 -RA BKN005 12/11 Q1009 RMK OVC SCT060 VIS MIN 6000 VIS MAR 6 KM,LIRX,2023-05-16T06:55:00Z,42.73,10.38,12.0,11.0,360,18,,3.73,29.793306,,,,,,,,,,-RA,BKN,500,,,,,,,IFR,,,,,,,,,,,,SPECI,397.0
LIRV 160655Z VRB01KT 9999 FEW015 BKN027 13/11 Q0997 RMK BKN MON E SE GEN INC VAR RAPID VIS MIN 9999 WIND THR04 /////KT BLU,LIRV,2023-05-16T06:55:00Z,42.42,12.07,13.0,11.0,0,1,,6.21,29.438976,,,,,,,,,,,FEW,1500,BKN,2700,,,,,MVFR,,,,,,,,,,,,SPECI,294.0
LIRT 160655Z 20010KT 9999 SCT003 SCT009 08/06 Q0997,LIRT,2023-05-16T06:55:00Z,41.03,15.22,8.0,6.0,200,10,,6.21,29.438976,,,,,,,,,,,SCT,300,SCT,900,,,,,VFR,,,,,,,,,,,,METAR,1058.0
LIRS 160655Z 33009KT 9999 SCT018 SCT035 BKN060 13/11 Q0998 RMK OVC VIS MIN 7000E WIND THR03 33009KT WIND THR21 35005KT WHT,LIRS,2023-05-16T06:55:00Z,42.75,11.07,13.0,11.0,330,9,,6.21,29.468504,,,,,,,,,,,SCT,1800,SCT,3500,BKN,6000,,,VFR,,,,,,,,,,,,SPECI,3.0
LIRM 160655Z 32002KT 6000 -RA SCT015 BKN020 15/14 Q0996 RMK OVC VIS MIN 6000 WIND THR06 31002KT WHT,LIRM,2023-05-16T06:55:00Z,41.05,14.07,15.0,14.0,320,2,,3.73,29.409449,,,,,,,,,,-RA,SCT,1500,BKN,2000,,,,,MVFR,,,,,,,,,,,,SPECI,6.0
LIRL 160655Z 20004KT 6000 -RA SCT008 BKN025 15/13 Q0996 RMK OVC MON CIME INC NC VIS MIN 6000 WIND THR12 /////KT WIND THR30 21003KT WHT,LIRL,2023-05-16T06:55:00Z,41.53,12.9,15.0,13.0,200,4,,3.73,29.409449,,,,,,,,,,-RA,SCT,800,BKN,2500,,,,,MVFR,,,-0.3,,,,,,,,,SPECI,23.0
LIRK 160655Z AUTO /////KT //// 05/04 Q0999,LIRK,2023-05-16T06:55:00Z,42.47,12.97,5.0,4.0,,,,,29.498032,,,TRUE,,,,,,,,,,,,,,,,,,,,,,,,,,,,SPECI,1721.0
LIRH 160655Z 24003KT 4000 BR FEW005 BKN025 13/13 Q0995 RMK OVC MON INVIS NC VIS MIN 4000 WIND THR16 00000KT GRN,LIRH,2023-05-16T06:55:00Z,41.65,13.3,13.0,13.0,240,3,,2.49,29.379921,,,,,,,,,,BR,FEW,500,BKN,2500,,,,,IFR,,,,,,,,,,,,SPECI,183.0
LIRG 160655Z 05003KT 3000 BR SCT008 BKN027 12/12 Q0996 RMK OVC MON NE INVIS NC VIS MIN 3000 YLO,LIRG,2023-05-16T06:55:00Z,42.0,12.73,12.0,12.0,50,3,,1.86,29.409449,,,,,,,,,,BR,SCT,800,BKN,2700,,,,,IFR,,,,,,,,,,,,SPECI,82.0
LIRE 160655Z 31006KT 9999 -RA SCT025 BKN040 15/13 Q0995 RMK OVC VIS MIN 9999 WIND THR13 33005KT WIND THR31 /////KT BLU,LIRE,2023-05-16T06:55:00Z,41.65,12.43,15.0,13.0,310,6,,6.21,29.379921,,,,,,,,,,-RA,SCT,2500,BKN,4000,,,,,VFR,,,,,,,,,,,,SPECI,16.0
LIQW 160655Z 35011G24KT 290V070 9999 SCT020 SCT040 17/07 Q1001 RMK BKN VIS MIN 9999 WIND THR14 /////KT BLU,LIQW,2023-05-16T06:55:00Z,44.08,9.98,17.0,7.0,350,11,24,6.21,29.557087,,,,,,,,,,,SCT,2000,SCT,4000,,,,,VFR,,,,,,,,,,,,SPECI,6.0
LIQC 160655Z 24009KT 9999 SCT020 SCT030 15/13 Q0996 RMK BKN QUK 3 QUL 2 SW VIS MAR 15 KM VIS MIN 9999,LIQC,2023-05-16T06:55:00Z,40.55,14.2,15.0,13.0,240,9,,6.21,29.409449,,,,,,,,,,,SCT,2000,SCT,3000,,,,,VFR,,,,,,,,,,,,SPECI,154.0
LIPS 160655Z 07006KT 8000 -RA SCT030 BKN050 14/11 Q1005 RMK OVC VIS MIN 8000 WIND THR26 02007KT WIND THR08 05007KT BLU,LIPS,2023-05-16T06:55:00Z,45.68,12.1,14.0,11.0,70,6,,4.97,29.675198,,,,,,,,,,-RA,SCT,3000,BKN,5000,,,,,MVFR,,,,,,,,,,,,SPECI,42.0
LIPL 160655Z 14004KT 8000 -RA SCT040 BKN080 14/14 Q1004 RMK BKN VIS MIN 8000 WIND THR31 /////KT WIND THR13 13003KT BLU,LIPL,2023-05-16T06:55:00Z,45.42,10.27,14.0,14.0,140,4,,4.97,29.64567,,,,,,,,,,-RA,SCT,4000,BKN,8000,,,,,MVFR,,,,,,,,,,,,SPECI,96.0
LIPI 160655Z 02006KT 9999 -DZ SCT060 BKN080 15/12 Q1004 RMK OVC VIS MIN 9999 WIND THR06 05008KT WIND THR24 02006KT BLU,LIPI,2023-05-16T06:55:00Z,45.97,13.05,15.0,12.0,20,6,,6.21,29.64567,,,,,,,,,,-DZ,SCT,6000,BKN,8000,,,,,VFR,,,,,,,,,,,,SPECI,49.0
LIPF 160655Z 35007KT 8000 -RA FEW003 BKN025 BKN040 13/13 Q1003 RMK OVC VIS MIN 8000,LIPF,2023-05-16T06:55:00Z,44.82,11.62,13.0,13.0,350,7,,4.97,29.616142,,,,,,,,,,-RA,FEW,300,BKN,2500,BKN,4000,,,MVFR,,,,,,,,,,,,SPECI,5.0
LIPC 160655Z 03019G29KT 9999 -RA SCT025 SCT040 15/12 Q0999 RMK OVC VIS MIN 9999 WIND THR11 03017G33KT WIND THR29 04023KT BLU,LIPC,2023-05-16T06:55:00Z,44.22,12.3,15.0,12.0,30,19,29,6.21,29.498032,,,,,,,,,,-RA,SCT,2500,SCT,4000,,,,,VFR,,,,,,,,,,,,SPECI,10.0
LIPA 160655Z 07009KT 9999 FEW060 BKN080 16/12 Q1004 RMK OVC VIS MIN 9999 WIND THR05 /////KT WIND THR23 /////KT A2966 BLU,LIPA,2023-05-16T06:55:00Z,46.02,12.58,16.0,12.0,70,9,,6.21,29.64567,,,,,,,,,,,FEW,6000,BKN,8000,,,,,VFR,,,,,,,,,,,,SPECI,113.0
LIMV 160655Z /////KT 9999 FEW010 12/10 Q1005,LIMV,2023-05-16T06:55:00Z,44.55,8.93,12.0,10.0,,,,6.21,29.675198,,,,,,,,,,,FEW,1000,,,,,,,VFR,,,,,,,,,,,,SPECI,474.0
LIMU 160655Z 02006KT 9999 FEW020 20/09 Q1003 RMK SCT SCT070 QUK 2 QUL 1 E VIS MAR 20 KM VIS MIN 9999,LIMU,2023-05-16T06:55:00Z,43.95,8.17,20.0,9.0,20,6,,6.21,29.616142,,,,,,,,,,,FEW,2000,,,,,,,VFR,,,,,,,,,,,,SPECI,215.0
LIMS 160655Z 15009KT 9999 BKN050 14/14 Q1005 RMK OVC SCT100 VIS MIN 9999 WIND THR30 13009KT BLU,LIMS,2023-05-16T06:55:00Z,44.92,9.72,14.0,14.0,150,9,,6.21,29.675198,,,,,,,,,,,BKN,5000,,,,,,,VFR,,,,,,,,,,,,SPECI,132.0
LIMN 160655Z 12003KT CAVOK 13/10 Q1004 RMK BKN BKN200 VIS MIN 9999 BLU,LIMN,2023-05-16T06:55:00Z,45.52,8.67,13.0,10.0,120,3,,6.21,29.64567,,,,,,,,,,,CAVOK,,,,,,,,VFR,,,,,,,,,,,,SPECI,168.0
LIMK 160655Z 20002KT CAVOK 14/09 Q1006,LIMK,2023-05-16T06:55:00Z,45.02,7.72,14.0,9.0,200,2,,6.21,29.704725,,,,,,,,,,,CAVOK,,,,,,,,VFR,,,,,,,,,,,,METAR,693.0
LIMH 160655Z AUTO /////KT //// ///// Q////,LIMH,2023-05-16T06:55:00Z,45.93,7.7,,,,,,,,,,TRUE,,,,,,,,,,,,,,,,,,,,,,,,,,,,SPECI,3473.0
LIED 160655Z 30014KT 9999 SCT025 18/14 Q1002 RMK SCT VIS MIN 9999 WIND THR35 /////KT WIND THR17 31015KT BLU,LIED,2023-05-16T06:55:00Z,39.35,8.97,18.0,14.0,300,14,,6.21,29.586615,,,,,,,,,,,SCT,2500,,,,,,,VFR,,,,,,,,,,,,SPECI,26.0
LIEB 160655Z 31014KT 9999 FEW020 18/09 Q1000 RMK BKN BKN200 QUK 2 QUL 1 NE VIS MAR 30 KM MON LIB VIS MIN 9999,LIEB,2023-05-16T06:55:00Z,39.93,9.72,18.0,9.0,310,14,,6.21,29.52756,,,,,,,,,,,FEW,2000,,,,,,,VFR,,,,,,,,,,,,SPECI,126.0
LICZ 160655Z 25015KT 9999 FEW025 18/12 Q1002 RMK SCT VIS MIN 9999 WIND THR28 26012KT WIND THR10 25015KT A2960 BLU,LICZ,2023-05-16T06:55:00Z,37.4,14.92,18.0,12.0,250,15,,6.21,29.586615,,,,,,,,,,,FEW,2500,,,,,,,VFR,,,,,,,,,,,,SPECI,22.0
LICT 160655Z 29018KT 9999 FEW020CB SCT030 18/15 Q1003 RMK BKN BKN090 VIS MIN 9999 WIND THR13 30017KT BLU,LICT,2023-05-16T06:55:00Z,37.92,12.5,18.0,15.0,290,18,,6.21,29.616142,,,,,,,,,,,FEW,2000,SCT,3000,,,,,VFR,,,,,,,,,,,,SPECI,4.0
LICF 160655Z 26002KT 9999 BKN036 18/10 Q1002 RMK BKN BKN080 BKN200 QUK 1 QUL 0 VIS MAR 20 KM MON E CIME INC NC MON W LIB NC VIS MIN 9999,LICF,2023-05-16T06:55:00Z,38.2,15.55,18.0,10.0,260,2,,6.21,29.586615,,,,,,,,,,,BKN,3600,,,,,,,VFR,,,,,,,,,,,,SPECI,66.0
LIBY 160655Z ///20KT 9999 BKN010TCU SCT013 17/14 Q1002 RMK BKN QUK 5 QUL 3 S VIS MAR 12 KM VIS MIN 9999,LIBY,2023-05-16T06:55:00Z,39.82,18.35,17.0,14.0,,,,6.21,29.586615,,,,,,,,,,,BKN,1000,SCT,1300,,,,,MVFR,,,,,,,,,,,,SPECI,105.0
LIBV 160655Z 15022KT 6000 OVC007 14/13 Q0999 RMK OVC VIS MIN 6000 WIND THR32 15021G31KT WIND THR14 15024KT GRN,LIBV,2023-05-16T06:55:00Z,40.77,16.93,14.0,13.0,150,22,,3.73,29.498032,,,,,,,,,,,OVC,700,,,,,,,IFR,,,,,,,,,,,,SPECI,344.0
LIBQ 160655Z 03004KT 0000 -RA FG VV/// 06/05 Q1003 RMK MON INVIS VAL INVIS VIS MIN 0000,LIBQ,2023-05-16T06:55:00Z,39.32,16.38,6.0,5.0,30,4,,0.0,29.616142,,,,,,,,,,-RA FG,OVX,0,,,,,,,LIFR,,,,,,,,,,,,SPECI,1660.0
LIBN 160655Z 15022G32KT 6000 SCT015 SCT025 19/16 Q1002 RMK BKN VIS MIN 6000 WIND THR14 15023K34KT WIND THR32 16019G29KT WHT,LIBN,2023-05-16T06:55:00Z,40.23,18.13,19.0,16.0,150,22,32,3.73,29.586615,,,,,,,,,,,SCT,1500,SCT,2500,,,,,MVFR,,,,,,,,,,,,SPECI,46.0
LIBA 160655Z 10010KT 9999 FEW020 SCT050 17/16 Q0997 RMK BKN BKN070 VIS MIN 9999 WIND THR11 10009KT WIND THR29 /////KT BLU,LIBA,2023-05-16T06:55:00Z,41.53,15.72,17.0,16.0,100,10,,6.21,29.438976,,,,,,,,,,,FEW,2000,SCT,5000,,,,,VFR,,0.9,,,,,,,,,,SPECI,55.0
KXNO 160655Z AUTO 00000KT 10SM CLR 17/17 A3009 RMK AO2 SLP190 T01660166 $,KXNO,2023-05-16T06:55:00Z,33.62,-81.07,16.6,16.6,0,0,,10.0,30.088583,1019.0,,TRUE,TRUE,TRUE,,,,,,CLR,,,,,,,,VFR,,,,,,,,,,,,METAR,94.0
KXMR 160655Z AUTO 00000KT 10SM FEW027 21/18 A3001 RMK AO2 SLP165 T02070177 $,KXMR,2023-05-16T06:55:00Z,28.47,-80.57,20.7,17.7,0,0,,10.0,30.008858,1016.5,,TRUE,TRUE,TRUE,,,,,,FEW,2700,,,,,,,VFR,,,,,,,,,,,,SPECI,5.0
KWRI 160655Z AUTO 24004KT 10SM CLR 13/10 A2994 RMK AO2 SLP138 T01340096,KWRI,2023-05-16T06:55:00Z,40.02,-74.58,13.4,9.6,240,4,,10.0,29.940945,1013.8,,TRUE,TRUE,,,,,,,CLR,,,,,,,,VFR,,,,,,,,,,,,METAR,35.0
KVPS 160655Z AUTO 06003KT 10SM FEW075 BKN140 OVC180 23/21 A3005 RMK AO2 SLP182 T02290213 $,KVPS,2023-05-16T06:55:00Z,30.47,-86.52,22.9,21.3,60,3,,10.0,30.050198,1018.2,,TRUE,TRUE,TRUE,,,,,,FEW,7500,BKN,14000,OVC,18000,,,VFR,,,,,,,,,,,,METAR,21.0
KVOK 160655Z AUTO 27004KT 10SM CLR 12/06 A3002 RMK AO2 SLP169 T01210059,KVOK,2023-05-16T06:55:00Z,43.93,-90.27,12.1,5.9,270,4,,10.0,30.02067,1016.9,,TRUE,TRUE,,,,,,,CLR,,,,,,,,VFR,,,,,,,,,,,,SPECI,278.0
KVAD 160655Z AUTO 00000KT 10SM CLR 20/19 A3007 RMK AO2 SLP183 T02010193 $,KVAD,2023-05-16T06:55:00Z,30.97,-83.2,20.1,19.3,0,0,,10.0,30.070866,1018.3,,TRUE,TRUE,TRUE,,,,,,CLR,,,,,,,,VFR,,,,,,,,,,,,METAR,70.0
KTTS 160655Z AUTO 00000KT 10SM CLR 19/19 A3002 RMK AO2 SLP170 T01930188 $,KTTS,2023-05-16T06:55:00Z,28.58,-80.67,19.3,18.8,0,0,,10.0,30.02067,1017.0,,TRUE,TRUE,TRUE,,,,,,CLR,,,,,,,,VFR,,,,,,,,,,,,METAR,1.0
KTIK 160655Z AUTO 34009KT 10SM OVC013 17/15 A3011 RMK AO2 CIG 012 RWY13 SLP197 T01670145 $,KTIK,2023-05-16T06:55:00Z,35.4,-97.38,16.7,14.5,340,9,,10.0,30.109253,1019.7,,TRUE,TRUE,TRUE,,,,,,OVC,1300,,,,,,,MVFR,,,,,,,,,,,,METAR,387.0
KTDR 160655Z AUTO 10003KT 9SM FEW011 OVC140 23/22 A3001 RMK AO2 SLP166 T02310219 $,KTDR,2023-05-16T06:55:00Z,30.05,-85.52,23.1,21.9,100,3,,9.0,30.008858,1016.6,,TRUE,TRUE,TRUE,,,,,,FEW,1100,OVC,14000,,,,,VFR,,,,,,,,,,,,METAR,4.0
KT70 160655Z AUTO 05004KT 9SM BKN041 BKN060 20/19 A3013 RMK AO2 SLP194 T01950187 $,KT70,2023-05-16T06:55:00Z,29.12,-100.48,19.5,18.7,50,4,,9.0,30.129921,1019.4,,TRUE,TRUE,TRUE,,,,,,BKN,4100,BKN,6000,,,,,VFR,,,,,,,,,,,,METAR,296.0
KSVN 160655Z AUTO 00000KT 10SM CLR 20/17 A3005 RMK AO2 SLP179 T01960172 $,KSVN,2023-05-16T06:55:00Z,32.02,-81.12,19.6,17.2,0,0,,10.0,30.050198,1017.9,,TRUE,TRUE,TRUE,,,,,,CLR,,,,,,,,VFR,,,,,,,,,,,,METAR,13.0
KSUU 160655Z AUTO 22013KT 10SM CLR 14/11 A3002 RMK AO2 SLP172 T01350108,KSUU,2023-05-16T06:55:00Z,38.27,-121.93,13.5,10.8,220,13,,10.0,30.02067,1017.2,,TRUE,TRUE,,,,,,,CLR,,,,,,,,VFR,,,,,,,,,,,,METAR,9.0
KSSC 160655Z AUTO 00000KT 10SM CLR 18/14 A3008 RMK AO2 SLP186 T01770144,KSSC,2023-05-16T06:55:00Z,33.97,-80.47,17.7,14.4,0,0,,10.0,30.079725,1018.6,,TRUE,TRUE,,,,,,,CLR,,,,,,,,VFR,,,,,,,,,,,,SPECI,71.0
KSLI 160655Z AUTO 00000KT 10SM OVC013 15/14 A3001 RMK AO2 OVC V BKN SLP165 T01470141,KSLI,2023-05-16T06:55:00Z,33.78,-118.03,14.7,14.1,0,0,,10.0,30.008858,1016.5,,TRUE,TRUE,,,,,,,OVC,1300,,,,,,,MVFR,,,,,,,,,,,,METAR,8.0
KSKF 160655Z AUTO 00000KT 10SM CLR 20/18 A3008 RMK AO2 SLP181 T01980184 $,KSKF,2023-05-16T06:55:00Z,29.38,-98.57,19.8,18.4,0,0,,10.0,30.079725,1018.1,,TRUE,TRUE,TRUE,,,,,,CLR,,,,,,,,VFR,,,,,,,,,,,,METAR,214.0
KSKA 160655Z 17007KT 10SM FEW080 16/12 A3005 RMK AO2A SLP161 T01630119,KSKA,2023-05-16T06:55:00Z,47.62,-117.67,16.3,11.9,170,7,,10.0,30.050198,1016.1,,,TRUE,,,,,,,FEW,8000,,,,,,,VFR,,,,,,,,,,,,SPECI,754.0
KSHM 160655Z AUTO 00000KT 10SM CLR 09/07 A3030 RMK AO2 SLP225 T00910069 $,KSHM,2023-05-16T06:55:00Z,38.8,-104.52,9.1,6.9,0,0,,10.0,30.301182,1022.5,,TRUE,TRUE,TRUE,,,,,,CLR,,,,,,,,VFR,,,,,,,,,,,,METAR,1900.0
KSEQ 160655Z AUTO 29003KT 10SM M 19/19 A3007 RMK AO2 SLP180 T01910189 CHINO RWY31 $,KSEQ,2023-05-16T06:55:00Z,29.57,-97.9,19.1,18.9,290,3,,10.0,30.070866,1018.0,,TRUE,TRUE,TRUE,,,,,,,,,,,,,,,,,,,,,,,,,,METAR,160.0
KSCK 160655Z AUTO 32007KT 10SM CLR 17/12 A3001 RMK AO2 SLP163 T01720122,KSCK,2023-05-16T06:55:00Z,37.88,-121.22,17.2,12.2,320,7,,10.0,30.008858,1016.3,,TRUE,TRUE,,,,,,,CLR,,,,,,,,VFR,,,,,,,,,,,,METAR,8.0
KRYW 160655Z AUTO 26004KT 10SM -RA BKN120 19/19 A3012 RMK AO2 P0001 T01880185,KRYW,2023-05-16T06:55:00Z,30.5,-97.97,18.8,18.5,260,4,,10.0,30.121063,,,TRUE,TRUE,,,,,,-RA,BKN,12000,,,,,,,VFR,,,,,,0.01,,,,,,METAR,370.0
KRYM 160655Z AUTO 26005KT 10SM CLR 13/05 A3002 RMK AO2 SLP167 T01250049 $,KRYM,2023-05-16T06:55:00Z,46.08,-94.37,12.5,4.9,260,5,,10.0,30.02067,1016.7,,TRUE,TRUE,TRUE,,,,,,CLR,,,,,,,,VFR,,,,,,,,,,,,METAR,344.0
KRNO 160655Z 00000KT 10SM CLR 17/M01 A3024 RMK AO2 SLP189 T01721006,KRNO,2023-05-16T06:55:00Z,39.5,-119.77,17.2,-0.6,0,0,,10.0,30.239174,1018.9,,,TRUE,,,,,,,CLR,,,,,,,,VFR,,,,,,,,,,,,METAR,1344.0
KRND 160655Z AUTO 00000KT 10SM FEW130 20/20 A3008 RMK AO2 SLP179 T01970195,KRND,2023-05-16T06:55:00Z,29.53,-98.27,19.7,19.5,0,0,,10.0,30.079725,1017.9,,TRUE,TRUE,,,,,,,FEW,13000,,,,,,,VFR,,,,,,,,,,,,METAR,224.0
KRIV 160655Z AUTO 00000KT 10SM CLR 15/14 A3005 RMK AO2 SLP165 T01510143,KRIV,2023-05-16T06:55:00Z,33.87,-117.23,15.1,14.3,0,0,,10.0,30.050198,1016.5,,TRUE,TRUE,,,,,,,CLR,,,,,,,,VFR,,,,,,,,,,,,METAR,454.0
KRDR 160655Z AUTO 27007KT 10SM CLR 17/06 A2999 RMK AO2 SLP158 T01740060 $,KRDR,2023-05-16T06:55:00Z,47.93,-97.4,17.4,6.0,270,7,,10.0,29.991142,1015.8,,TRUE,TRUE,TRUE,,,,,,CLR,,,,,,,,VFR,,,,,,,,,,,,SPECI,276.0
KRCA 160655Z AUTO 00000KT 10SM SCT070 10/06 A3015 RMK AO2 SLP207 T01020062 402060045 $,KRCA,2023-05-16T06:55:00Z,44.15,-103.12,10.2,6.2,0,0,,10.0,30.15059,1020.7,,TRUE,TRUE,TRUE,,,,,,SCT,7000,,,,,,,VFR,,,,20.6,4.5,,,,,,,SPECI,993.0
KQTZ 160655Z 27007KT 9999 FEW200 27/06 A2983 RMK SLP103,KQTZ,2023-05-16T06:55:00Z,,,27.0,6.0,270,7,,6.21,29.828741,1010.3,,,,,,,,,,FEW,20000,,,,,,,VFR,,,,,,,,,,,,METAR,
KQRH 160655Z AUTO 07009KT 9999 CLR 34/26 A2976 RMK AO2 SLP080 WND DATA ESTMD T03370260,KQRH,2023-05-16T06:55:00Z,,,33.7,26.0,70,9,,6.21,29.760826,1008.0,,TRUE,TRUE,,,,,,,CLR,,,,,,,,VFR,,,,,,,,,,,,METAR,
KQN3 160655Z 20006KT 9999 CLR 30/22 A2987 RMK AO2A SLP098 T02950222,KQN3,2023-05-16T06:55:00Z,,,29.5,22.2,200,6,,6.21,29.870079,1009.8,,,TRUE,,,,,,,CLR,,,,,,,,VFR,,,,,,,,,,,,METAR,
KQHY 160655Z AUTO 00000KT 10SM OVC140 24/21 A3005 RMK AO2 SLP182 T02370214,KQHY,2023-05-16T06:55:00Z,,,23.7,21.4,0,0,,10.0,30.050198,1018.2,,TRUE,TRUE,,,,,,,OVC,14000,,,,,,,VFR,,,,,,,,,,,,METAR,
KQDG 160655Z AUTO 10006KT 9999 OVC006 16/11 A2987 RMK AO2 OVC V BKN SLP117 T01560114 $,KQDG,2023-05-16T06:55:00Z,,,15.6,11.4,100,6,,6.21,29.870079,1011.7,,TRUE,TRUE,TRUE,,,,,,OVC,600,,,,,,,IFR,,,,,,,,,,,,METAR,
KQD3 160655Z AUTO 06005KT 9999 FEW029 34/25 A2981 RMK AO2 SLP079 WND DATA ESTMD T03390247,KQD3,2023-05-16T06:55:00Z,,,33.9,24.7,60,5,,6.21,29.811024,1007.9,,TRUE,TRUE,,,,,,,FEW,2900,,,,,,,VFR,,,,,,,,,,,,METAR,
KQAZ 160655Z AUTO VRB03KT 9000 HZ CLR 34/05 A2983 RMK AO2 SLP091 WND DATA ESTMD T03430050,KQAZ,2023-05-16T06:55:00Z,,,34.3,5.0,0,3,,5.59,29.828741,1009.1,,TRUE,TRUE,,,,,,HZ,CLR,,,,,,,,VFR,,,,,,,,,,,,METAR,
KPSM 160655Z 26006KT 10SM OVC170 15/00 A2974 RMK AO2A SLP073 T01470002,KPSM,2023-05-16T06:55:00Z,43.08,-70.82,14.7,0.2,260,6,,10.0,29.740158,1007.3,,,TRUE,,,,,,,OVC,17000,,,,,,,VFR,,,,,,,,,,,,SPECI,34.0
KPOE 160655Z AUTO 00000KT 9SM CLR 21/21 A3005 RMK AO2 SLP175 T02100208,KPOE,2023-05-16T06:55:00Z,31.05,-93.2,21.0,20.8,0,0,,9.0,30.050198,1017.5,,TRUE,TRUE,,,,,,,CLR,,,,,,,,VFR,,,,,,,,,,,,METAR,98.0
KPOB 160655Z AUTO 19003KT 10SM BKN120 19/13 A3008 RMK AO2 SLP187 T01920131 $,KPOB,2023-05-16T06:55:00Z,35.17,-79.02,19.2,13.1,190,3,,10.0,30.079725,1018.7,,TRUE,TRUE,TRUE,,,,,,BKN,12000,,,,,,,VFR,,,,,,,,,,,,METAR,57.0
KPHP 160655Z AUTO 00000KT 10SM CLR 12/07 A3018 RMK AO2 SLP211 T01170072 402170067,KPHP,2023-05-16T06:55:00Z,44.05,-101.6,11.7,7.2,0,0,,10.0,30.180119,1021.1,,TRUE,TRUE,,,,,,,CLR,,,,,,,,VFR,,,,21.7,6.7,,,,,,,METAR,673.0
KPAM 160655Z AUTO 00000KT 10SM BKN140 23/21 A3004 RMK AO2 SLP175 T02290211 $,KPAM,2023-05-16T06:55:00Z,30.07,-85.57,22.9,21.1,0,0,,10.0,30.041338,1017.5,,TRUE,TRUE,TRUE,,,,,,BKN,14000,,,,,,,VFR,,,,,,,,,,,,SPECI,4.0
KP58 160655Z AUTO 25009KT 13/01 A2990 RMK AO1 SLP123 T01330006,KP58,2023-05-16T06:55:00Z,44.02,-82.8,13.3,0.6,250,9,,,29.899607,1012.3,,TRUE,TRUE,,,,,,,,,,,,,,,,,,,,,,,,,,,METAR,180.0
KOFF 160655Z 00000KT 10SM BKN020 BKN030 OVC040 14/09 A3018 RMK AO2A RAE04 SLP224 T01390087 PWINO PNO FZRANO TSNO CHINO RWY31 $,KOFF,2023-05-16T06:55:00Z,41.12,-95.92,13.9,8.7,0,0,,10.0,30.180119,1022.4,,,TRUE,TRUE,,TRUE,TRUE,TRUE,,BKN,2000,BKN,3000,OVC,4000,,,MVFR,,,,,,,,,,,,METAR,308.0
KNTD 160655Z AUTO 28005KT 4SM BR OVC006 15/14 A3006 RMK AO2 SLP181 T01500139 $,KNTD,2023-05-16T06:55:00Z,34.12,-119.12,15.0,13.9,280,5,,4.0,30.059055,1018.1,,TRUE,TRUE,TRUE,,,,,BR,OVC,600,,,,,,,IFR,,,,,,,,,,,,METAR,1.0
KNKX 160655Z 34005KT 10SM OVC007 14/13 A3004 RMK AO2 SLP168 T01440128,KNKX,2023-05-16T06:55:00Z,32.87,-117.13,14.4,12.8,340,5,,10.0,30.041338,1016.8,,,TRUE,,,,,,,OVC,700,,,,,,,IFR,,,,,,,,,,,,METAR,138.0
KNBG 160655Z AUTO 00000KT 10SM CLR 22/21 A3004 RMK AO2 SLP170 T02220211 $,KNBG,2023-05-16T06:55:00Z,29.83,-90.02,22.2,21.1,0,0,,10.0,30.041338,1017.0,,TRUE,TRUE,TRUE,,,,,,CLR,,,,,,,,VFR,,,,,,,,,,,,SPECI,0.0
KMUO 160655Z AUTO 06008KT 10SM SCT110 OVC150 15/11 A3016 RMK AO2 SLP194 T01450113 402640109 $,KMUO,2023-05-16T06:55:00Z,43.03,-115.87,14.5,11.3,60,8,,10.0,30.159449,1019.4,,TRUE,TRUE,TRUE,,,,,,SCT,11000,OVC,15000,,,,,VFR,,,,26.4,10.9,,,,,,,METAR,915.0
KMUI 160655Z AUTO 00000KT 10SM CLR 07/05 A2994 RMK AO2 SLP141 T00670049 TSNO $,KMUI,2023-05-16T06:55:00Z,40.43,-76.57,6.7,4.9,0,0,,10.0,29.940945,1014.1,,TRUE,TRUE,TRUE,,TRUE,,,,CLR,,,,,,,,VFR,,,,,,,,,,,,SPECI,146.0
KMTC 160655Z AUTO 22003KT 10SM CLR 09/03 A2995 RMK AO2 SLP147 T00940027 $,KMTC,2023-05-16T06:55:00Z,42.62,-82.83,9.4,2.7,220,3,,10.0,29.949802,1014.7,,TRUE,TRUE,TRUE,,,,,,CLR,,,,,,,,VFR,,,,,,,,,,,,SPECI,177.0
KMMT 160655Z AUTO 00000KT 10SM CLR 15/14 A3008 RMK AO2 SLP187 T01530142 $,KMMT,2023-05-16T06:55:00Z,33.92,-80.8,15.3,14.2,0,0,,10.0,30.079725,1018.7,,TRUE,TRUE,TRUE,,,,,,CLR,,,,,,,,VFR,,,,,,,,,,,,METAR,76.0
KMKG 160655Z AUTO 22004KT 10SM CLR 07/01 A3002 RMK AO2 SLP166 T00720006,KMKG,2023-05-16T06:55:00Z,43.17,-86.23,7.2,0.6,220,4,,10.0,30.02067,1016.6,,TRUE,TRUE,,,,,,,CLR,,,,,,,,VFR,,,,,,,,,,,,METAR,190.0
KMIB 160655Z AUTO 28008KT 10SM CLR 13/08 A3008 RMK AO2 SLP189 T01310075 $,KMIB,2023-05-16T06:55:00Z,48.42,-101.35,13.1,7.5,280,8,,10.0,30.079725,1018.9,,TRUE,TRUE,TRUE,,,,,,CLR,,,,,,,,VFR,,,,,,,,,,,,METAR,505.0
KMGE 160655Z AUTO 16004KT 10SM CLR 22/19 A3006 RMK AO2 SLP171 T02160191 $,KMGE,2023-05-16T06:55:00Z,33.92,-84.52,21.6,19.1,160,4,,10.0,30.059055,1017.1,,TRUE,TRUE,TRUE,,,,,,CLR,,,,,,,,VFR,,,,,,,,,,,,METAR,309.0
KMCX 160655Z AUTO 30003KT 10SM CLR 12/07 A3005 RMK AO2 T01200069,KMCX,2023-05-16T06:55:00Z,40.72,-86.77,12.0,6.9,300,3,,10.0,30.050198,,,TRUE,TRUE,,,,,,,CLR,,,,,,,,VFR,,,,,,,,,,,,METAR,205.0
KMCF 160655Z AUTO 09005KT 10SM CLR 23/18 A3001 RMK AO2 SLP165 T02290180 FZRANO $,KMCF,2023-05-16T06:55:00Z,27.85,-82.52,22.9,18.0,90,5,,10.0,30.008858,1016.5,,TRUE,TRUE,TRUE,,,TRUE,,,CLR,,,,,,,,VFR,,,,,,,,,,,,SPECI,3.0
KLZZ 160655Z AUTO 00000KT 10SM CLR 19/18 A3009 RMK AO2 T01850184,KLZZ,2023-05-16T06:55:00Z,31.1,-98.2,18.5,18.4,0,0,,10.0,30.088583,,,TRUE,TRUE,,,,,,,CLR,,,,,,,,VFR,,,,,,,,,,,,SPECI,356.0
KLUF 160655Z AUTO 01008KT 10SM BKN150 31/08 A2992 RMK AO2 SLP115 T03120082 403830243 $,KLUF,2023-05-16T06:55:00Z,33.53,-112.37,31.2,8.2,10,8,,10.0,29.920275,1011.5,,TRUE,TRUE,TRUE,,,,,,BKN,15000,,,,,,,VFR,,,,38.3,24.3,,,,,,,METAR,333.0
KLSV 160655Z AUTO 03003KT 10SM BKN140 29/03 A2997 RMK AO2 SLP123 T02920032 $,KLSV,2023-05-16T06:55:00Z,36.23,-115.05,29.2,3.2,30,3,,10.0,29.970472,1012.3,,TRUE,TRUE,TRUE,,,,,,BKN,14000,,,,,,,VFR,,,,,,,,,,,,METAR,563.0
KLSF 160655Z AUTO 00000KT 8SM CLR 20/20 A3004 RMK AO2 SLP176 T02010196 $,KLSF,2023-05-16T06:55:00Z,32.32,-84.97,20.1,19.6,0,0,,8.0,30.041338,1017.6,,TRUE,TRUE,TRUE,,,,,,CLR,,,,,,,,VFR,,,,,,,,,,,,METAR,68.0
KLRF 160655Z AUTO 26004KT 10SM CLR 22/19 A3000 RMK AO2 SLP159 T02180188,KLRF,2023-05-16T06:55:00Z,34.92,-92.12,21.8,18.8,260,4,,10.0,30.0,1015.9,,TRUE,TRUE,,,,,,,CLR,,,,,,,,VFR,,,,,,,,,,,,METAR,85.0
KLLJ 160655Z AUTO 22004KT 10SM FEW100 09/06 A3027 RMK AO2 SLP216 T00940056 401940089,KLLJ,2023-05-16T06:55:00Z,44.52,-114.22,9.4,5.6,220,4,,10.0,30.268702,1021.6,,TRUE,TRUE,,,,,,,FEW,10000,,,,,,,VFR,,,,19.4,8.9,,,,,,,METAR,1535.0
KLIC 160655Z AUTO 00000KT 10SM CLR 07/05 A3030 RMK AO2 SLP232 T00670050 401500061,KLIC,2023-05-16T06:55:00Z,39.27,-103.67,6.7,5.0,0,0,,10.0,30.301182,1023.2,,TRUE,TRUE,,,,,,,CLR,,,,,,,,VFR,,,,15.0,6.1,,,,,,,METAR,1635.0
KLHW 160655Z AUTO 00000KT 10SM CLR 18/17 A3005 RMK AO2 SLP179 T01790172 $,KLHW,2023-05-16T06:55:00Z,31.88,-81.57,17.9,17.2,0,0,,10.0,30.050198,1017.9,,TRUE,TRUE,TRUE,,,,,,CLR,,,,,,,,VFR,,,,,,,,,,,,METAR,14.0
KLGF 160655Z AUTO 22006KT M M FEW150 28/01 A2991 RMK AO2 SLP125 T02830009 403790210 RVRNO PWINO TSNO $,KLGF,2023-05-16T06:55:00Z,32.87,-114.4,28.3,0.9,220,6,,,29.911417,1012.5,,TRUE,TRUE,TRUE,,TRUE,,TRUE,,FEW,15000,,,,,,,,,,,37.9,21.0,,,,,,,METAR,118.0
KLFI 160655Z AUTO 24008KT 10SM BKN065 OVC090 19/11 A3004 RMK AO2 SLP179 T01920107 $,KLFI,2023-05-16T06:55:00Z,37.08,-76.33,19.2,10.7,240,8,,10.0,30.041338,1017.9,,TRUE,TRUE,TRUE,,,,,,BKN,6500,OVC,9000,,,,,VFR,,,,,,,,,,,,SPECI,2.0
KLCK 160655Z AUTO 00000KT 10SM CLR 13/10 A3002 RMK AO2 T01310104,KLCK,2023-05-16T06:55:00Z,39.82,-82.92,13.1,10.4,0,0,,10.0,30.02067,,,TRUE,TRUE,,,,,,,CLR,,,,,,,,VFR,,,,,,,,,,,,METAR,225.0
KIRK 160655Z AUTO 03006KT 10SM OVC029 14/12 A3010 RMK AO2 RAB15E29 SLP193 P0000 T01440117,KIRK,2023-05-16T06:55:00Z,40.1,-92.55,14.4,11.7,30,6,,10.0,30.100393,1019.3,,TRUE,TRUE,,,,,,,OVC,2900,,,,,,,MVFR,,,,,,0.005,,,,,,METAR,292.0
KINS 160655Z AUTO 27004KT 10SM CLR 20/M05 A3008 RMK AO2 SLP140 T02001051 $,KINS,2023-05-16T06:55:00Z,36.58,-115.68,20.0,-5.1,270,4,,10.0,30.079725,1014.0,,TRUE,TRUE,TRUE,,,,,,CLR,,,,,,,,VFR,,,,,,,,,,,,METAR,954.0
KHUA 160655Z AUTO 00000KT 7SM CLR 19/18 A3004 RMK AO2 SLP167 T01850183,KHUA,2023-05-16T06:55:00Z,34.68,-86.68,18.5,18.3,0,0,,7.0,30.041338,1016.7,,TRUE,TRUE,,,,,,,CLR,,,,,,,,VFR,,,,,,,,,,,,METAR,200.0
KHST 160655Z AUTO 32004KT 10SM CLR 24/22 A3001 RMK AO2 SLP166 T02360218,KHST,2023-05-16T06:55:00Z,25.48,-80.37,23.6,21.8,320,4,,10.0,30.008858,1016.6,,TRUE,TRUE,,,,,,,CLR,,,,,,,,VFR,,,,,,,,,,,,METAR,1.0
KHRT 160655Z 02005KT 10SM OVC140 22/21 A3004 RMK AO2A SLP174 T02230209 $,KHRT,2023-05-16T06:55:00Z,30.42,-86.68,22.3,20.9,20,5,,10.0,30.041338,1017.4,,,TRUE,TRUE,,,,,,OVC,14000,,,,,,,VFR,,,,,,,,,,,,METAR,10.0
KHOP 160655Z AUTO 00000KT 10SM FEW065 21/21 A3000 RMK AO2 SLP156 T02070205,KHOP,2023-05-16T06:55:00Z,36.67,-87.5,20.7,20.5,0,0,,10.0,30.0,1015.6,,TRUE,TRUE,,,,,,,FEW,6500,,,,,,,VFR,,,,,,,,,,,,METAR,170.0
KHON 160655Z AUTO 26005KT 10SM CLR 12/07 A3014 RMK AO2 SLP205 T01170067,KHON,2023-05-16T06:55:00Z,44.38,-98.23,11.7,6.7,260,5,,10.0,30.138779,1020.5,,TRUE,TRUE,,,,,,,CLR,,,,,,,,VFR,,,,,,,,,,,,METAR,391.0
KHMN 160655Z AUTO 27008KT 10SM FEW085 BKN120 19/09 A3026 RMK AO2 SLP186 T01940090 402910158,KHMN,2023-05-16T06:55:00Z,32.85,-106.1,19.4,9.0,270,8,,10.0,30.259842,1018.6,,TRUE,TRUE,,,,,,,FEW,8500,BKN,12000,,,,,VFR,,,,29.1,15.8,,,,,,,METAR,1240.0
KHLR 160655Z AUTO 00000KT 10SM OVC120 20/19 A3011 RMK AO2 SLP187 T01970190,KHLR,2023-05-16T06:55:00Z,31.13,-97.72,19.7,19.0,0,0,,10.0,30.109253,1018.7,,TRUE,TRUE,,,,,,,OVC,12000,,,,,,,VFR,,,,,,,,,,,,METAR,271.0
KHIF 160655Z AUTO 11012KT 10SM BKN110 16/04 A3021 RMK AO2 SLP183 T01640041 402470116,KHIF,2023-05-16T06:55:00Z,41.12,-111.97,16.4,4.1,110,12,,10.0,30.209646,1018.3,,TRUE,TRUE,,,,,,,BKN,11000,,,,,,,VFR,,,,24.7,11.6,,,,,,,METAR,1461.0
KHFF 160655Z AUTO 23006KT 10SM SCT110 17/14 A3007 RMK AO2 SLP183 T01730138 $,KHFF,2023-05-16T06:55:00Z,35.03,-79.5,17.3,13.8,230,6,,10.0,30.070866,1018.3,,TRUE,TRUE,TRUE,,,,,,SCT,11000,,,,,,,VFR,,,,,,,,,,,,METAR,100.0
KGXF 160655Z AUTO 22006KT 9SM BKN130 30/M02 A2994 RMK AO2 SLP125 T02951018 403840202 FZRANO $,KGXF,2023-05-16T06:55:00Z,32.88,-112.72,29.5,-1.8,220,6,,9.0,29.940945,1012.5,,TRUE,TRUE,TRUE,,,TRUE,,,BKN,13000,,,,,,,VFR,,,,38.4,20.2,,,,,,,METAR,261.0
KGXA 160655Z AUTO 21005KT 10SM CLR 17/01 A3008 RMK AO2 SLP155 WND DATA ESTMD T01740008,KGXA,2023-05-16T06:55:00Z,34.57,-117.67,17.4,0.8,210,5,,10.0,30.079725,1015.5,,TRUE,TRUE,,,,,,,CLR,,,,,,,,VFR,,,,,,,,,,,,METAR,927.0
KGUS 160655Z AUTO 00000KT 10SM OVC140 12/08 A3003 RMK AO2 SLP170 T01180077 TSNO $,KGUS,2023-05-16T06:55:00Z,40.63,-86.15,11.8,7.7,0,0,,10.0,30.029528,1017.0,,TRUE,TRUE,TRUE,,TRUE,,,,OVC,14000,,,,,,,VFR,,,,,,,,,,,,SPECI,245.0
KGUR 160655Z AUTO 00000KT 10SM BKN110 10/10 A3019 RMK AO2 SLP224 T01010095 401830097,KGUR,2023-05-16T06:55:00Z,42.25,-104.72,10.1,9.5,0,0,,10.0,30.188976,1022.4,,TRUE,TRUE,,,,,,,BKN,11000,,,,,,,VFR,,,,18.3,9.7,,,,,,,METAR,1341.0
KGTB 160655Z AUTO 24012KT 10SM CLR 12/02 A2979 RMK AO2 SLP088 T01230019,KGTB,2023-05-16T06:55:00Z,44.07,-75.72,12.3,1.9,240,12,,10.0,29.790354,1008.8,,TRUE,TRUE,,,,,,,CLR,,,,,,,,VFR,,,,,,,,,,,,SPECI,206.0
KGSB 160655Z 21003KT 10SM BKN080 18/14 A3006 RMK AO2A SLP182 WND DATA ESTMD T01810140 $,KGSB,2023-05-16T06:55:00Z,35.33,-77.93,18.1,14.0,210,3,,10.0,30.059055,1018.2,,,TRUE,TRUE,,,,,,BKN,8000,,,,,,,VFR,,,,,,,,,,,,SPECI,33.0
KGRK 160655Z AUTO 21003KT 10SM BKN120 OVC150 20/19 A3010 RMK AO2 SLP183 T01950185,KGRK,2023-05-16T06:55:00Z,31.07,-97.83,19.5,18.5,210,3,,10.0,30.100393,1018.3,,TRUE,TRUE,,,,,,,BKN,12000,OVC,15000,,,,,VFR,,,,,,,,,,,,METAR,311.0
KGPI 160655Z AUTO 25004KT 10SM CLR 14/09 A3010 RMK AO2 SLP179 T01440089 402610072,KGPI,2023-05-16T06:55:00Z,48.32,-114.25,14.4,8.9,250,4,,10.0,30.100393,1017.9,,TRUE,TRUE,,,,,,,CLR,,,,,,,,VFR,,,,26.1,7.2,,,,,,,METAR,903.0
KGOV 160655Z AUTO 27006KT 10SM CLR 11/M04 A2992 RMK AO2 SLP137 T01051036,KGOV,2023-05-16T06:55:00Z,44.68,-84.73,10.5,-3.6,270,6,,10.0,29.920275,1013.7,,TRUE,TRUE,,,,,,,CLR,,,,,,,,VFR,,,,,,,,,,,,SPECI,350.0
KGFA 160655Z AUTO 23006KT 10SM CLR 16/09 A3006 RMK AO2 SLP162 T01550089 402700150 $,KGFA,2023-05-16T06:55:00Z,47.5,-111.18,15.5,8.9,230,6,,10.0,30.059055,1016.2,,TRUE,TRUE,TRUE,,,,,,CLR,,,,,,,,VFR,,,,27.0,15.0,,,,,,,METAR,1058.0
KFTK 160655Z AUTO 00000KT 10SM CLR 15/15 A3000 RMK AO2 SLP157 T01490147,KFTK,2023-05-16T06:55:00Z,37.9,-85.97,14.9,14.7,0,0,,10.0,30.0,1015.7,,TRUE,TRUE,,,,,,,CLR,,,,,,,,VFR,,,,,,,,,,,,SPECI,225.0
KFSI 160655Z AUTO 36004KT 10SM OVC041 19/17 A3013 RMK AO2 SLP197 T01890165 FZRANO $,KFSI,2023-05-16T06:55:00Z,34.65,-98.4,18.9,16.5,360,4,,10.0,30.129921,1019.7,,TRUE,TRUE,TRUE,,,TRUE,,,OVC,4100,,,,,,,VFR,,,,,,,,,,,,METAR,360.0
KFHU 160655Z AUTO 13006KT 10SM SCT150 17/11 A3022 RMK AO2 SLP176 T01680106 402870130,KFHU,2023-05-16T06:55:00Z,31.58,-110.35,16.8,10.6,130,6,,10.0,30.221457,1017.6,,TRUE,TRUE,,,,,,,SCT,15000,,,,,,,VFR,,,,28.7,13.0,,,,,,,METAR,1424.0
KFFO 160655Z AUTO 00000KT 10SM FEW150 14/11 A2999 RMK AO2 SLP156 T01400108,KFFO,2023-05-16T06:55:00Z,39.83,-84.03,14.0,10.8,0,0,,10.0,29.991142,1015.6,,TRUE,TRUE,,,,,,,FEW,15000,,,,,,,VFR,,,,,,,,,,,,SPECI,250.0
KFCS 160655Z AUTO 00000KT 10SM SCT100 BKN130 09/09 A3031 RMK AO2 SLP248 T00940088 401770082 $,KFCS,2023-05-16T06:55:00Z,38.67,-104.77,9.4,8.8,0,0,,10.0,30.31004,1024.8,,TRUE,TRUE,TRUE,,,,,,SCT,10000,BKN,13000,,,,,VFR,,,,17.7,8.2,,,,,,,METAR,1789.0
KFBG 160655Z AUTO 18005KT 10SM OVC120 19/13 A3007 RMK AO2 SLP184 T01940133 $,KFBG,2023-05-16T06:55:00Z,35.12,-78.92,19.4,13.3,180,5,,10.0,30.070866,1018.4,,TRUE,TRUE,TRUE,,,,,,OVC,12000,,,,,,,VFR,,,,,,,,,,,,METAR,69.0
KFAF 160655Z AUTO 21005KT 10SM OVC055 19/13 A3003 RMK AO2 SLP173 T01870131 $,KFAF,2023-05-16T06:55:00Z,37.13,-76.62,18.7,13.1,210,5,,10.0,30.029528,1017.3,,TRUE,TRUE,TRUE,,,,,,OVC,5500,,,,,,,VFR,,,,,,,,,,,,SPECI,3.0
KEND 160655Z AUTO 34008KT 10SM OVC038 16/13 A3014 RMK AO2 SLP203 T01550133 $,KEND,2023-05-16T06:55:00Z,36.33,-97.92,15.5,13.3,340,8,,10.0,30.138779,1020.3,,TRUE,TRUE,TRUE,,,,,,OVC,3800,,,,,,,VFR,,,,,,,,,,,,SPECI,392.0
KEDW 160655Z AUTO 22012KT 10SM CLR 21/01 A3003 RMK AO2 SLP146 T02130010,KEDW,2023-05-16T06:55:00Z,34.9,-117.87,21.3,1.0,220,12,,10.0,30.029528,1014.6,,TRUE,TRUE,,,,,,,CLR,,,,,,,,VFR,,,,,,,,,,,,METAR,698.0
KEDC 160655Z AUTO 00000KT 6SM BR SCT047 BKN080 OVC110 20/20 A3009 RMK AO2,KEDC,2023-05-16T06:55:00Z,30.4,-97.57,20.0,20.0,0,0,,6.0,30.088583,,,TRUE,TRUE,,,,,,BR,SCT,4700,BKN,8000,OVC,11000,,,VFR,,,,,,,,,,,,METAR,184.0
KEAT 160655Z AUTO 33009KT 10SM CLR 22/10 A3001 RMK AO2 SLP152 T02170100,KEAT,2023-05-16T06:55:00Z,47.4,-120.2,21.7,10.0,330,9,,10.0,30.008858,1015.2,,TRUE,TRUE,,,,,,,CLR,,,,,,,,VFR,,,,,,,,,,,,METAR,375.0
KDYS 160655Z AUTO 01007KT 10SM OVC026 19/16 A3015 RMK AO2 SLP172 T01910159,KDYS,2023-05-16T06:55:00Z,32.42,-99.83,19.1,15.9,10,7,,10.0,30.15059,1017.2,,TRUE,TRUE,,,,,,,OVC,2600,,,,,,,MVFR,,,,,,,,,,,,METAR,544.0
KDOV 160655Z AUTO 22009KT 10SM CLR 15/14 A2997 RMK AO2 SLP152 T01500137,KDOV,2023-05-16T06:55:00Z,39.12,-75.47,15.0,13.7,220,9,,10.0,29.970472,1015.2,,TRUE,TRUE,,,,,,,CLR,,,,,,,,VFR,,,,,,,,,,,,METAR,6.0
KDMA 160655Z 16008KT 10SM SCT110 23/08 A3008 RMK AO2A ALSTG ESTMD SLPNO RVRNO VISNO RWY30 $,KDMA,2023-05-16T06:55:00Z,32.17,-110.88,23.0,8.0,160,8,,10.0,30.079725,,,,TRUE,TRUE,,,,,,SCT,11000,,,,,,,VFR,,,,,,,,,,,,METAR,804.0
KDLH 160655Z 28011KT 10SM SCT120 13/03 A2997 RMK AO2 SLP146 T01330033 $,KDLH,2023-05-16T06:55:00Z,46.85,-92.2,13.3,3.3,280,11,,10.0,29.970472,1014.6,,,TRUE,TRUE,,,,,,SCT,12000,,,,,,,VFR,,,,,,,,,,,,METAR,434.0
KDLF 160655Z AUTO 00000KT 10SM OVC140 20/19 A3011 RMK AO2 SLP189 T01980188 $,KDLF,2023-05-16T06:55:00Z,29.37,-100.78,19.8,18.8,0,0,,10.0,30.109253,1018.9,,TRUE,TRUE,TRUE,,,,,,OVC,14000,,,,,,,VFR,,,,,,,,,,,,METAR,328.0
KDAA 160655Z AUTO 00000KT 9SM CLR 12/11 A2999 RMK AO2 SLP158 T01170111 $,KDAA,2023-05-16T06:55:00Z,38.72,-77.17,11.7,11.1,0,0,,9.0,29.991142,1015.8,,TRUE,TRUE,TRUE,,,,,,CLR,,,,,,,,VFR,,,,,,,,,,,,SPECI,17.0
KCWN 160655Z AUTO 33003KT 10SM BKN120 10/06 A3031 RMK AO2 SLP129 T00980063 401390073 $,KCWN,2023-05-16T06:55:00Z,38.75,-104.85,9.8,6.3,330,3,,10.0,30.31004,1012.9,,TRUE,TRUE,TRUE,,,,,,BKN,12000,,,,,,,VFR,,,,13.9,7.3,,,,,,,METAR,2040.0
KCVS 160655Z AUTO 00000KT 10SM CLR 12/12 A3029 RMK AO2 SLP219 T01170115 402240117 $,KCVS,2023-05-16T06:55:00Z,34.37,-103.32,11.7,11.5,0,0,,10.0,30.28937,1021.9,,TRUE,TRUE,TRUE,,,,,,CLR,,,,,,,,VFR,,,,22.4,11.7,,,,,,,METAR,1305.0
KCOF 160655Z AUTO 07003KT 10SM CLR 24/19 A3001 RMK AO2 SLP167 T02410194 $,KCOF,2023-05-16T06:55:00Z,28.23,-80.6,24.1,19.4,70,3,,10.0,30.008858,1016.7,,TRUE,TRUE,TRUE,,,,,,CLR,,,,,,,,VFR,,,,,,,,,,,,METAR,1.0
KCMY 160655Z AUTO 00000KT 9SM CLR 05/05 A3004 RMK AO2 SLP177 T00460045 FZRANO $,KCMY,2023-05-16T06:55:00Z,43.97,-90.73,4.6,4.5,0,0,,9.0,30.041338,1017.7,,TRUE,TRUE,TRUE,,,TRUE,,,CLR,,,,,,,,VFR,,,,,,,,,,,,SPECI,253.0
KCEF 160655Z AUTO 27007KT 10SM BKN220 16/M01 A2981 RMK AO2 SLP100 T01601011,KCEF,2023-05-16T06:55:00Z,42.2,-72.52,16.0,-1.1,270,7,,10.0,29.811024,1010.0,,TRUE,TRUE,,,,,,,BKN,22000,,,,,,,VFR,,,,,,,,,,,,SPECI,72.0
KCBM 160655Z 12003KT 10SM CLR 23/19 A3000 RMK AO2A SLPNO ALSTG ESTMD $,KCBM,2023-05-16T06:55:00Z,33.65,-88.45,23.0,19.0,120,3,,10.0,30.0,,,,TRUE,TRUE,,,,,,CLR,,,,,,,,VFR,,,,,,,,,,,,METAR,59.0
KCBK 160655Z AUTO 25003KT 2 1/2SM BR SCT002 07/06 A3026 RMK AO2 VIS 1 1/2V5 T00670065,KCBK,2023-05-16T06:55:00Z,39.43,-101.05,6.7,6.5,250,3,,2.5,30.259842,,,TRUE,TRUE,,,,,,BR,SCT,200,,,,,,,IFR,,,,,,,,,,,,SPECI,970.0
KCAO 160655Z AUTO 27004KT 10SM CLR 10/08 A3032 RMK AO2 SLP229 T01000078 402060083,KCAO,2023-05-16T06:55:00Z,36.45,-103.15,10.0,7.8,270,4,,10.0,30.318897,1022.9,,TRUE,TRUE,,,,,,,CLR,,,,,,,,VFR,,,,20.6,8.3,,,,,,,METAR,1517.0
KBYS 160655Z AUTO 30007KT 10SM CLR 26/M02 A3000 RMK AO2 SLP129 T02641023 $,KBYS,2023-05-16T06:55:00Z,35.28,-116.63,26.4,-2.3,300,7,,10.0,30.0,1012.9,,TRUE,TRUE,TRUE,,,,,,CLR,,,,,,,,VFR,,,,,,,,,,,,METAR,717.0
KBWD 160655Z AUTO 33003KT 9SM BKN024 BKN034 19/18 A3014 RMK AO1,KBWD,2023-05-16T06:55:00Z,31.8,-98.95,19.0,18.0,330,3,,9.0,30.138779,,,TRUE,TRUE,,,,,,,BKN,2400,BKN,3400,,,,,MVFR,,,,,,,,,,,,SPECI,420.0
KBLV 160655Z 00000KT 10SM FEW039 BKN110 18/17 A2999 RMK AO2A SLP156 P0000 T01780171 $,KBLV,2023-05-16T06:55:00Z,38.53,-89.83,17.8,17.1,0,0,,10.0,29.991142,1015.6,,,TRUE,TRUE,,,,,,FEW,3900,BKN,11000,,,,,VFR,,,,,,0.005,,,,,,METAR,134.0
KBIX 160655Z AUTO 10004KT 10SM SCT075 23/20 A3002 RMK AO2 SLP168 T02310200,KBIX,2023-05-16T06:55:00Z,30.42,-88.92,23.1,20.0,100,4,,10.0,30.02067,1016.8,,TRUE,TRUE,,,,,,,SCT,7500,,,,,,,VFR,,,,,,,,,,,,METAR,4.0
KBIF 160655Z 14004KT 7SM BKN200 20/10 A3026 RMK SLPNO ALSTG WND DATA ESTMD,KBIF,2023-05-16T06:55:00Z,31.85,-106.38,20.0,10.0,140,4,,7.0,30.259842,,,,,,,,,,,BKN,20000,,,,,,,VFR,,,,,,,,,,,,METAR,1201.0
KBAD 160655Z AUTO 21003KT 10SM CLR 22/20 A3005 RMK AO2 SLP178 T02230196,KBAD,2023-05-16T06:55:00Z,32.5,-93.67,22.3,19.6,210,3,,10.0,30.050198,1017.8,,TRUE,TRUE,,,,,,,CLR,,,,,,,,VFR,,,,,,,,,,,,SPECI,49.0
KBAB 160655Z AUTO 09003KT 10SM CLR 18/13 A3001 RMK AO2 SLP165 T01830132 $,KBAB,2023-05-16T06:55:00Z,39.13,-121.43,18.3,13.2,90,3,,10.0,30.008858,1016.5,,TRUE,TRUE,TRUE,,,,,,CLR,,,,,,,,VFR,,,,,,,,,,,,METAR,31.0
KAST 160655Z AUTO 21008KT 10SM OVC011 13/11 A3012 RMK AO2 SLP200 T01330111,KAST,2023-05-16T06:55:00Z,46.15,-123.88,13.3,11.1,210,8,,10.0,30.121063,1020.0,,TRUE,TRUE,,,,,,,OVC,1100,,,,,,,MVFR,,,,,,,,,,,,METAR,3.0
KANJ 160655Z AUTO 23003KT 10SM CLR 10/02 A2980 RMK AO2 SLP089 T01000017,KANJ,2023-05-16T06:55:00Z,46.47,-84.37,10.0,1.7,230,3,,10.0,29.799213,1008.9,,TRUE,TRUE,,,,,,,CLR,,,,,,,,VFR,,,,,,,,,,,,METAR,220.0
KAFF 160655Z AUTO 00000KT 10SM FEW120 09/08 A3033 RMK AO2 SLP228 T00870075 401650067,KAFF,2023-05-16T06:55:00Z,38.97,-104.82,8.7,7.5,0,0,,10.0,30.33071,1022.8,,TRUE,TRUE,,,,,,,FEW,12000,,,,,,,VFR,,,,16.5,6.7,,,,,,,SPECI,2003.0
KADW 160655Z AUTO 22010KT 10SM CLR 14/12 A2999 RMK AO2 SLP161 T01410116 $,KADW,2023-05-16T06:55:00Z,38.82,-76.87,14.1,11.6,220,10,,10.0,29.991142,1016.1,,TRUE,TRUE,TRUE,,,,,,CLR,,,,,,,,VFR,,,,,,,,,,,,METAR,87.0
KABH 160655Z AUTO 00000KT 10SM CLR 07/05 A3034 RMK AO2 SLP248 T00670053 401750067,KABH,2023-05-16T06:55:00Z,38.75,-104.3,6.7,5.3,0,0,,10.0,30.339567,1024.8,,TRUE,TRUE,,,,,,,CLR,,,,,,,,VFR,,,,17.5,6.7,,,,,,,METAR,1838.0
KAAT 160655Z AUTO 00000KT 10SM CLR 08/04 A3023 RMK AO2 SLP210 T00830044,KAAT,2023-05-16T06:55:00Z,41.48,-120.57,8.3,4.4,0,0,,10.0,30.230314,1021.0,,TRUE,TRUE,,,,,,,CLR,,,,,,,,VFR,,,,,,,,,,,,METAR,1336.0
K9L2 160655Z AUTO 00000KT 10SM FEW220 22/M02 A3004 RMK AO2 SLP148 T02171023,K9L2,2023-05-16T06:55:00Z,34.98,-117.87,21.7,-2.3,0,0,,10.0,30.041338,1014.8,,TRUE,TRUE,,,,,,,FEW,22000,,,,,,,VFR,,,,,,,,,,,,METAR,697.0
K4MR 160655Z AUTO 11008KT 10SM CLR 11/10 A3026 RMK AO2 SLP188 T01130095 402410113,K4MR,2023-05-16T06:55:00Z,34.3,-103.8,11.3,9.5,110,8,,10.0,30.259842,1018.8,,TRUE,TRUE,,,,,,,CLR,,,,,,,,VFR,,,,24.1,11.3,,,,,,,METAR,1339.0
K2DP 160655Z AUTO 00000KT 10SM OVC130 15/15 A3007 RMK AO2 SLPNO T01460146 $,K2DP,2023-05-16T06:55:00Z,35.68,-75.9,14.6,14.6,0,0,,10.0,30.070866,,,TRUE,TRUE,TRUE,,,,,,OVC,13000,,,,,,,VFR,,,,,,,,,,,,METAR,1.0
K1YT 160655Z AUTO 00000KT 10SM SCT110 20/09 A2999 RMK AO2 SLP150 T02030092 $,K1YT,2023-05-16T06:55:00Z,46.67,-120.45,20.3,9.2,0,0,,10.0,29.991142,1015.0,,TRUE,TRUE,TRUE,,,,,,SCT,11000,,,,,,,VFR,,,,,,,,,,,,METAR,423.0
K1OW 160655Z AUTO 20005KT 10SM CLR 09/07 A3037 RMK AO2 SLP259 T00900068 401520080 $,K1OW,2023-05-16T06:55:00Z,40.88,-104.0,9.0,6.8,200,5,,10.0,30.369095,1025.9,,TRUE,TRUE,TRUE,,,,,,CLR,,,,,,,,VFR,,,,15.2,8.0,,,,,,,METAR,1650.0
K1ON 160655Z AUTO 28007KT 10SM CLR 13/09 M RMK AO2 SLPNO T01280085 $,K1ON,2023-05-16T06:55:00Z,,,12.8,8.5,280,7,,10.0,,,,TRUE,TRUE,TRUE,,,,,,CLR,,,,,,,,VFR,,,,,,,,,,,,METAR,
K1OM 160655Z AUTO 24005KT 10SM CLR 18/09 A3004 RMK AO2 SLP152 T01760090 402320080 $,K1OM,2023-05-16T06:55:00Z,47.33,-108.93,17.6,9.0,240,5,,10.0,30.041338,1015.2,,TRUE,TRUE,TRUE,,,,,,CLR,,,,,,,,VFR,,,,23.2,8.0,,,,,,,METAR,1088.0
K1NW 160655Z AUTO 21008KT 10SM CLR 09/08 A3024 RMK AO2 SLP218 T00850080 401620083 $,K1NW,2023-05-16T06:55:00Z,40.63,-103.83,8.5,8.0,210,8,,10.0,30.239174,1021.8,,TRUE,TRUE,TRUE,,,,,,CLR,,,,,,,,VFR,,,,16.2,8.3,,,,,,,METAR,1461.0
K1NN 160655Z AUTO 26007KT 10SM CLR M A3010 RMK AO2 SLPNO ALSTG ESTMD $,K1NN,2023-05-16T06:55:00Z,,,,,260,7,,10.0,30.100393,,,TRUE,TRUE,TRUE,,,,,,CLR,,,,,,,,VFR,,,,,,,,,,,,METAR,
K1MW 160655Z AUTO 22006KT 10SM CLR 10/10 A3023 RMK AO2 SLP218 T00990097 401680090 $,K1MW,2023-05-16T06:55:00Z,40.7,-103.48,9.9,9.7,220,6,,10.0,30.230314,1021.8,,TRUE,TRUE,TRUE,,,,,,CLR,,,,,,,,VFR,,,,16.8,9.0,,,,,,,METAR,1338.0
K1MN 160655Z AUTO 24009KT 10SM CLR 14/08 A3009 RMK AO2 SLPNO T01370079 $,K1MN,2023-05-16T06:55:00Z,,,13.7,7.9,240,9,,10.0,30.088583,,,TRUE,TRUE,TRUE,,,,,,CLR,,,,,,,,VFR,,,,,,,,,,,,METAR,
K1MM 160655Z AUTO 19012KT 10SM SCT140 15/07 A3007 RMK AO2 SLP158 T01540069 402460043 $,K1MM,2023-05-16T06:55:00Z,47.02,-109.63,15.4,6.9,190,12,,10.0,30.070866,1015.8,,TRUE,TRUE,TRUE,,,,,,SCT,14000,,,,,,,VFR,,,,24.6,4.3,,,,,,,METAR,1256.0
K1LN 160655Z AUTO 23008KT 10SM CLR 12/11 A3011 RMK AO2 SLP195 T01240105 $,K1LN,2023-05-16T06:55:00Z,,,12.4,10.5,230,8,,10.0,30.109253,1019.5,,TRUE,TRUE,TRUE,,,,,,CLR,,,,,,,,VFR,,,,,,,,,,,,METAR,
K1KM 160655Z AUTO 30007KT 10SM CLR 11/09 A3013 RMK AO2 SLP197 T01080091 402090070 $,K1KM,2023-05-16T06:55:00Z,46.45,-109.8,10.8,9.1,300,7,,10.0,30.129921,1019.7,,TRUE,TRUE,TRUE,,,,,,CLR,,,,,,,,VFR,,,,20.9,7.0,,,,,,,METAR,1332.0
K1JW 160655Z AUTO 18006KT 10SM CLR 09/07 M RMK AO2 SLPNO T00870070 401660082 $,K1JW,2023-05-16T06:55:00Z,40.97,-103.2,8.7,7.0,180,6,,10.0,,,,TRUE,TRUE,TRUE,,,,,,CLR,,,,,,,,VFR,,,,16.6,8.2,,,,,,,METAR,1382.0
K1JN 160655Z AUTO 25009KT 10SM CLR 13/06 A3011 RMK AO2 SLP198 T01330062 $,K1JN,2023-05-16T06:55:00Z,,,13.3,6.2,250,9,,10.0,30.109253,1019.8,,TRUE,TRUE,TRUE,,,,,,CLR,,,,,,,,VFR,,,,,,,,,,,,METAR,
K1JM 160655Z AUTO 19007KT 10SM FEW095 14/06 A3004 RMK AO2 SLP160 T01390060 402430051 $,K1JM,2023-05-16T06:55:00Z,47.75,-111.55,13.9,6.0,190,7,,10.0,30.041338,1016.0,,TRUE,TRUE,TRUE,,,,,,FEW,9500,,,,,,,VFR,,,,24.3,5.1,,,,,,,METAR,1154.0
K1IW 160655Z AUTO 23007KT 10SM M 09/07 A3021 RMK AO2 SLP214 T00910072 401670089 $,K1IW,2023-05-16T06:55:00Z,41.05,-102.87,9.1,7.2,230,7,,10.0,30.209646,1021.4,,TRUE,TRUE,TRUE,,,,,,,,,,,,,,,,,,16.7,8.9,,,,,,,METAR,1294.0
K1IN 160655Z AUTO 25006KT 10SM CLR 14/06 A3012 RMK AO2 SLP203 T01350059 $,K1IN,2023-05-16T06:55:00Z,,,13.5,5.9,250,6,,10.0,30.121063,1020.3,,TRUE,TRUE,TRUE,,,,,,CLR,,,,,,,,VFR,,,,,,,,,,,,METAR,
K1IM 160655Z AUTO 15004KT 10SM SCT110 14/08 A3005 RMK AO2 SLP163 T01370079 402510086 $,K1IM,2023-05-16T06:55:00Z,47.32,-111.47,13.7,7.9,150,4,,10.0,30.050198,1016.3,,TRUE,TRUE,TRUE,,,,,,SCT,11000,,,,,,,VFR,,,,25.1,8.6,,,,,,,METAR,1110.0
K1HW 160655Z AUTO 15005KT 10SM CLR 08/08 A3020 RMK AO2 SLP215 T00830077 401790079 $,K1HW,2023-05-16T06:55:00Z,41.32,-102.83,8.3,7.7,150,5,,10.0,30.200787,1021.5,,TRUE,TRUE,TRUE,,,,,,CLR,,,,,,,,VFR,,,,17.9,7.9,,,,,,,METAR,1265.0
K1HN 160655Z AUTO 00000KT 10SM CLR 10/07 A3011 RMK AO2 SLP204 T00980065 $,K1HN,2023-05-16T06:55:00Z,,,9.8,6.5,0,0,,10.0,30.109253,1020.4,,TRUE,TRUE,TRUE,,,,,,CLR,,,,,,,,VFR,,,,,,,,,,,,METAR,
K1HM 160655Z AUTO 28009KT 10SM FEW100 14/07 A3004 RMK AO2 SLP160 T01440072 402430049 $,K1HM,2023-05-16T06:55:00Z,47.7,-111.95,14.4,7.2,280,9,,10.0,30.041338,1016.0,,TRUE,TRUE,TRUE,,,,,,FEW,10000,,,,,,,VFR,,,,24.3,4.9,,,,,,,METAR,1181.0
K1GN 160655Z AUTO 24007KT 10SM CLR 12/07 A3010 RMK AO2 SLP202 T01240073 $,K1GN,2023-05-16T06:55:00Z,,,12.4,7.3,240,7,,10.0,30.100393,1020.2,,TRUE,TRUE,TRUE,,,,,,CLR,,,,,,,,VFR,,,,,,,,,,,,METAR,
K1GM 160655Z AUTO 18007KT 10SM CLR 13/06 M RMK AO2 SLPNO T01300059 402320053 $,K1GM,2023-05-16T06:55:00Z,47.33,-112.1,13.0,5.9,180,7,,10.0,,,,TRUE,TRUE,TRUE,,,,,,CLR,,,,,,,,VFR,,,,23.2,5.3,,,,,,,METAR,1317.0
K1FW 160655Z AUTO 18005KT 10SM CLR 09/09 A3023 RMK AO2 SLP215 T00910089 401630089 $,K1FW,2023-05-16T06:55:00Z,41.37,-103.48,9.1,8.9,180,5,,10.0,30.230314,1021.5,,TRUE,TRUE,TRUE,,,,,,CLR,,,,,,,,VFR,,,,16.3,8.9,,,,,,,METAR,1451.0
K1EW 160655Z AUTO 02006KT 10SM CLR 07/06 A3023 RMK AO2 SLP216 T00700058 401500070 $,K1EW,2023-05-16T06:55:00Z,41.12,-103.98,7.0,5.8,20,6,,10.0,30.230314,1021.6,,TRUE,TRUE,TRUE,,,,,,CLR,,,,,,,,VFR,,,,15.0,7.0,,,,,,,METAR,1609.0
K1EN 160655Z AUTO 24010KT 10SM CLR 14/04 A2990 RMK AO2 SLP131 T01370035 $,K1EN,2023-05-16T06:55:00Z,,,13.7,3.5,240,10,,10.0,29.899607,1013.1,,TRUE,TRUE,TRUE,,,,,,CLR,,,,,,,,VFR,,,,,,,,,,,,METAR,
K1EM 160655Z AUTO 20003KT 10SM CLR 17/08 A3005 RMK AO2 SLP156 T01660080 402430063 $,K1EM,2023-05-16T06:55:00Z,47.45,-109.42,16.6,8.0,200,3,,10.0,30.050198,1015.6,,TRUE,TRUE,TRUE,,,,,,CLR,,,,,,,,VFR,,,,24.3,6.3,,,,,,,METAR,1118.0
K1DN 160655Z AUTO 00000KT 10SM CLR 14/04 A2859 RMK AO2 SLP675 T01350036 $,K1DN,2023-05-16T06:55:00Z,,,13.5,3.6,0,0,,10.0,28.588583,967.5,,TRUE,TRUE,TRUE,,,,,,CLR,,,,,,,,VFR,,,,,,,,,,,,METAR,
K1DM 160655Z AUTO 19011KT 10SM CLR 14/09 A3006 RMK AO2 SLP166 T01360086 402510074 $,K1DM,2023-05-16T06:55:00Z,47.37,-109.8,13.6,8.6,190,11,,10.0,30.059055,1016.6,,TRUE,TRUE,TRUE,,,,,,CLR,,,,,,,,VFR,,,,25.1,7.4,,,,,,,METAR,1093.0
K1CW 160655Z AUTO 19008KT 10SM CLR 10/08 A3022 RMK AO2 SLP213 T01010075 401740093 $,K1CW,2023-05-16T06:55:00Z,41.58,-103.57,10.1,7.5,190,8,,10.0,30.221457,1021.3,,TRUE,TRUE,TRUE,,,,,,CLR,,,,,,,,VFR,,,,17.4,9.3,,,,,,,METAR,1370.0
K1CN 160655Z AUTO 31004KT 10SM CLR 12/06 A3011 RMK AO2 SLP197 T01230059 $,K1CN,2023-05-16T06:55:00Z,,,12.3,5.9,310,4,,10.0,30.109253,1019.7,,TRUE,TRUE,TRUE,,,,,,CLR,,,,,,,,VFR,,,,,,,,,,,,METAR,
K1CM 160655Z AUTO 21006KT 10SM BKN110 14/07 A3009 RMK AO2 SLP168 T01420065 402300075 $,K1CM,2023-05-16T06:55:00Z,47.1,-110.17,14.2,6.5,210,6,,10.0,30.088583,1016.8,,TRUE,TRUE,TRUE,,,,,,BKN,11000,,,,,,,VFR,,,,23.0,7.5,,,,,,,METAR,1338.0
K1BW 160655Z AUTO 20012KT 9SM CLR 09/07 A3027 RMK AO2 SLP226 T00870073 401470077 $,K1BW,2023-05-16T06:55:00Z,41.52,-104.0,8.7,7.3,200,12,,9.0,30.268702,1022.6,,TRUE,TRUE,TRUE,,,,,,CLR,,,,,,,,VFR,,,,14.7,7.7,,,,,,,METAR,1606.0
K1BN 160655Z AUTO 26010KT 10SM CLR 17/03 A3010 RMK AO2 SLP192 T01700029 $,K1BN,2023-05-16T06:55:00Z,,,17.0,2.9,260,10,,10.0,30.100393,1019.2,,TRUE,TRUE,TRUE,,,,,,CLR,,,,,,,,VFR,,,,,,,,,,,,METAR,
K1AN 160655Z AUTO 28006KT 10SM CLR 13/09 A3004 RMK AO2 SLP190 T01290086 $,K1AN,2023-05-16T06:55:00Z,,,12.9,8.6,280,6,,10.0,30.041338,1019.0,,TRUE,TRUE,TRUE,,,,,,CLR,,,,,,,,VFR,,,,,,,,,,,,METAR,
K1AM 160655Z AUTO 22008KT 10SM CLR 17/06 A3008 RMK AO2 SLP163 T01700059 402400075 $,K1AM,2023-05-16T06:55:00Z,47.28,-110.8,17.0,5.9,220,8,,10.0,30.079725,1016.3,,TRUE,TRUE,TRUE,,,,,,CLR,,,,,,,,VFR,,,,24.0,7.5,,,,,,,METAR,1228.0
FJDG 160655Z 20011KT 9999 SCT018 SCT045 OVC100 29/27 A2979 RMK SLP085 T02890267,FJDG,2023-05-16T06:55:00Z,-7.32,72.42,28.9,26.7,200,11,,6.21,29.790354,1008.5,,,,,,,,,,SCT,1800,SCT,4500,OVC,10000,,,VFR,,,,,,,,,,,,METAR,3.0
ETIK 160655Z 34007KT 9999 FEW015 FEW049 SCT100 13/11 A2995 RMK AO2A SLP146 T01250109 FZRANO,ETIK,2023-05-16T06:55:00Z,49.47,10.38,12.5,10.9,340,7,,6.21,29.949802,1014.6,,,TRUE,,,,TRUE,,,FEW,1500,FEW,4900,SCT,10000,,,VFR,,,,,,,,,,,,METAR,326.0
ETIH 160655Z AUTO 36004KT 9999 BKN110 13/07 A2991 RMK AO2 SLP131 T01250070,ETIH,2023-05-16T06:55:00Z,49.22,11.83,12.5,7.0,360,4,,6.21,29.911417,1013.1,,TRUE,TRUE,,,,,,,BKN,11000,,,,,,,VFR,,,,,,,,,,,,METAR,436.0
ETIC 160655Z AUTO 00000KT 9999 OVC100 12/08 A2990 RMK AO2 SLP129 T01160075 $,ETIC,2023-05-16T06:55:00Z,49.7,11.93,11.6,7.5,0,0,,6.21,29.899607,1012.9,,TRUE,TRUE,TRUE,,,,,,OVC,10000,,,,,,,VFR,,,,,,,,,,,,METAR,414.0
ETEB 160655Z AUTO 35009KT 9999 FEW070 12/08 A2992 RMK AO2 SLP146 T01150078 $,ETEB,2023-05-16T06:55:00Z,49.32,10.63,11.5,7.8,350,9,,6.21,29.920275,1014.6,,TRUE,TRUE,TRUE,,,,,,FEW,7000,,,,,,,VFR,,,,,,,,,,,,METAR,466.0
ETAR 160655Z AUTO 36011G17KT 9999 OVC019 10/06 A3002 RMK AO2 SLP171 T01010064,ETAR,2023-05-16T06:55:00Z,49.43,7.58,10.1,6.4,360,11,17,6.21,30.02067,1017.1,,TRUE,TRUE,,,,,,,OVC,1900,,,,,,,MVFR,,,,,,,,,,,,SPECI,231.0
ETAD 160655Z 01012G16KT 9999 BKN012 06/05 A3006 RMK AO2A RAE07DZB07E10DZB19E22 CIG 011 RWY23 SLP175 P0000 T00640053,ETAD,2023-05-16T06:55:00Z,49.98,6.7,6.4,5.3,10,12,16,6.21,30.059055,1017.5,,,TRUE,,,,,,,BKN,1200,,,,,,,MVFR,,,,,,0.005,,,,,,SPECI,365.0
EHVK 160655Z AUTO 33009KT 270V360 9999 FEW048 10/05 Q1021 BLU TEMPO 33010G20KT,EHVK,2023-05-16T06:55:00Z,51.65,5.7,10.0,5.0,330,9,,6.21,30.147638,,,TRUE,,,,,,,,FEW,4800,,,,,,,VFR,,,,,,,,,,,,METAR,20.0
EHSC 160655Z AUTO 34016KT 9999 ///////// 10/05 Q1023 W12/H14,EHSC,2023-05-16T06:55:00Z,51.93,3.67,10.0,5.0,340,16,,6.21,30.206694,,,TRUE,,,,,,,,,,,,,,,,,,,,,,,,,,,,METAR,19.0
EHSA 160655Z AUTO 33013KT 9999 ///////// 10/05 Q1022 W10/H12,EHSA,2023-05-16T06:55:00Z,52.0,3.28,10.0,5.0,330,13,,6.21,30.177166,,,TRUE,,,,,,,,,,,,,,,,,,,,,,,,,,,,METAR,18.0
EHRD 160655Z AUTO 33010KT 280V020 9999 SCT024 SCT029 11/05 Q1022 NOSIG,EHRD,2023-05-16T06:55:00Z,51.95,4.45,11.0,5.0,330,10,,6.21,30.177166,,,TRUE,,,TRUE,,,,,SCT,2400,SCT,2900,,,,,VFR,,,,,,,,,,,,METAR,-4.0
EHPG 160655Z AUTO 33014KT 270V020 9999 FEW018 11/05 Q1022,EHPG,2023-05-16T06:55:00Z,52.37,3.35,11.0,5.0,330,14,,6.21,30.177166,,,TRUE,,,,,,,,FEW,1800,,,,,,,VFR,,,,,,,,,,,,METAR,24.0
EHMG 160655Z AUTO 31021KT 9999 SCT017 SCT025 10/05 Q1020,EHMG,2023-05-16T06:55:00Z,53.62,4.97,10.0,5.0,310,21,,6.21,30.11811,,,TRUE,,,,,,,,SCT,1700,SCT,2500,,,,,VFR,,,,,,,,,,,,METAR,30.0
EHMA 160655Z AUTO 32023KT 9999 FEW020 10/05 Q1019,EHMA,2023-05-16T06:55:00Z,53.5,5.95,10.0,5.0,320,23,,6.21,30.088583,,,TRUE,,,,,,,,FEW,2000,,,,,,,VFR,,,,,,,,,,,,METAR,27.0
EHLE 160655Z AUTO 32013KT 9999 FEW025 SCT038 10/05 Q1021 TEMPO 7000 -SHRA SCT020TCU,EHLE,2023-05-16T06:55:00Z,52.45,5.52,10.0,5.0,320,13,,6.21,30.147638,,,TRUE,,,,,,,,FEW,2500,SCT,3800,,,,,VFR,,,,,,,,,,,,METAR,-3.0
EHKV 160655Z AUTO 32017KT 9999 FEW015 10/06 Q1021,EHKV,2023-05-16T06:55:00Z,53.27,3.63,10.0,6.0,320,17,,6.21,30.147638,,,TRUE,,,,,,,,FEW,1500,,,,,,,VFR,,,,,,,,,,,,METAR,28.0
EHJR 160655Z AUTO 32014KT //// // ///////// 10/05 Q1022 RE// W10/H13,EHJR,2023-05-16T06:55:00Z,53.22,3.22,10.0,5.0,320,14,,,30.177166,,,TRUE,,,,,,,,,,,,,,,,,,,,,,,,,,,,METAR,31.0
EHJA 160655Z AUTO 30017KT 9999 BKN047/// 10/06 Q1021,EHJA,2023-05-16T06:55:00Z,53.82,2.95,10.0,6.0,300,17,,6.21,30.147638,,,TRUE,,,,,,,,BKN,4700,,,,,,,VFR,,,,,,,,,,,,METAR,34.0
EHHW 160655Z AUTO 32017KT 9999 SCT018/// SCT022/// BKN031/// 10/05 Q1018,EHHW,2023-05-16T06:55:00Z,54.03,6.03,10.0,5.0,320,17,,6.21,30.059055,,,TRUE,,,,,,,,SCT,1800,SCT,2200,BKN,3100,,,VFR,,,,,,,,,,,,METAR,10.0
EHGR 160655Z AUTO VRB11KT 9999 FEW024 11/05 Q1022 BLU NOSIG,EHGR,2023-05-16T06:55:00Z,51.55,4.93,11.0,5.0,0,11,,6.21,30.177166,,,TRUE,,,TRUE,,,,,FEW,2400,,,,,,,VFR,,,,,,,,,,,,METAR,12.0
EHGG 160655Z AUTO 31011KT 260V340 9999 NCD 10/05 Q1019 TEMPO 7000 -SHRA FEW020TCU,EHGG,2023-05-16T06:55:00Z,53.12,6.57,10.0,5.0,310,11,,6.21,30.088583,,,TRUE,,,,,,,,CLR,,,,,,,,VFR,,,,,,,,,,,,METAR,2.0
EHFS 160655Z AUTO 34011KT 300V010 9999 BKN023/// 11/05 Q1022,EHFS,2023-05-16T06:55:00Z,51.45,3.6,11.0,5.0,340,11,,6.21,30.177166,,,TRUE,,,,,,,,BKN,2300,,,,,,,MVFR,,,,,,,,,,,,METAR,1.0
EHFD 160655Z AUTO 30022KT 9999 NCD 09/06 Q1018,EHFD,2023-05-16T06:55:00Z,54.85,4.7,9.0,6.0,300,22,,6.21,30.059055,,,TRUE,,,,,,,,CLR,,,,,,,,VFR,,,,,,,,,,,,METAR,24.0
EHEH 160655Z AUTO 34010KT 280V040 9999 NCD 11/05 Q1021 BLU NOSIG,EHEH,2023-05-16T06:55:00Z,51.45,5.38,11.0,5.0,340,10,,6.21,30.147638,,,TRUE,,,TRUE,,,,,CLR,,,,,,,,VFR,,,,,,,,,,,,METAR,20.0
EHDV 160655Z AUTO 30013KT 9999 FEW041/// BKN048/// 10/// Q1020,EHDV,2023-05-16T06:55:00Z,54.32,2.93,,,300,13,,6.21,30.11811,,,TRUE,,,,,,,,FEW,4100,BKN,4800,,,,,VFR,,,,,,,,,,,,METAR,36.0
EHDL 160655Z AUTO VRB04KT 9999 NCD 09/06 Q1020 BLU,EHDL,2023-05-16T06:55:00Z,52.07,5.88,9.0,6.0,0,4,,6.21,30.11811,,,TRUE,,,,,,,,CLR,,,,,,,,VFR,,,,,,,,,,,,METAR,49.0
EHBK 160655Z AUTO 35007KT 320V030 9999 BKN031 BKN035 09/05 Q1021 NOSIG,EHBK,2023-05-16T06:55:00Z,50.92,5.77,9.0,5.0,350,7,,6.21,30.147638,,,TRUE,,,TRUE,,,,,BKN,3100,BKN,3500,,,,,VFR,,,,,,,,,,,,METAR,112.0
EHAM 160655Z 32012KT 9999 SCT025 10/06 Q1021 NOSIG,EHAM,2023-05-16T06:55:00Z,52.32,4.78,10.0,6.0,320,12,,6.21,30.147638,,,,,,TRUE,,,,,SCT,2500,,,,,,,VFR,,,,,,,,,,,,METAR,-2.0
EHAK 160655Z AUTO 34023KT 9999 DZRA FEW033/// SCT037/// BKN044/// 09/06 Q1018,EHAK,2023-05-16T06:55:00Z,55.38,3.82,9.0,6.0,340,23,,6.21,30.059055,,,TRUE,,,,,,,DZ RA,FEW,3300,SCT,3700,BKN,4400,,,VFR,,,,,,,,,,,,METAR,33.0
EGVA 160655Z AUTO 33006KT 9999 CLR 09/06 A3026 RMK AO2 SLP251 T00940056 FZRANO $,EGVA,2023-05-16T06:55:00Z,51.67,-1.78,9.4,5.6,330,6,,6.21,30.259842,1025.1,,TRUE,TRUE,TRUE,,,TRUE,,,CLR,,,,,,,,VFR,,,,,,,,,,,,METAR,84.0
EGUN 160655Z 31006KT 9999 FEW060 10/10 A3023 RMK AO2A SLP240 T00980098 $,EGUN,2023-05-16T06:55:00Z,52.37,0.48,9.8,9.8,310,6,,6.21,30.230314,1024.0,,,TRUE,TRUE,,,,,,FEW,6000,,,,,,,VFR,,,,,,,,,,,,METAR,10.0
EGUL 160655Z 33005KT 9999 CLR 10/09 A3022 RMK AO2A SLP237 T00960094 RVRNO VISNO RWY06 $,EGUL,2023-05-16T06:55:00Z,52.42,0.57,9.6,9.4,330,5,,6.21,30.221457,1023.7,,,TRUE,TRUE,,,,,,CLR,,,,,,,,VFR,,,,,,,,,,,,METAR,8.0
EBLB 160655Z AUTO 01010KT 9999 BKN014/// 05/02 Q1019 GRN,EBLB,2023-05-16T06:55:00Z,50.47,6.17,5.0,2.0,10,10,,6.21,30.088583,,,TRUE,,,,,,,,BKN,1400,,,,,,,MVFR,,,,,,,,,,,,METAR,563.0
EBCV 160655Z AUTO 36009KT 9999 FEW095/// BKN220/// 10/06 Q1022 BLU,EBCV,2023-05-16T06:55:00Z,50.57,3.82,10.0,6.0,360,9,,6.21,30.177166,,,TRUE,,,,,,,,FEW,9500,BKN,22000,,,,,VFR,,,,,,,,,,,,METAR,56.0
BGTL 160655Z AUTO 11004KT 9999 CLR M08/M13 A2977 RMK AO2 SLP068 T10831130 TSNO $,BGTL,2023-05-16T06:55:00Z,76.53,-68.75,-8.3,-13.0,110,4,,6.21,29.769686,1006.8,,TRUE,TRUE,TRUE,,TRUE,,,,CLR,,,,,,,,VFR,,,,,,,,,,,,METAR,79.0
PKMR 160654Z 07008KT 20SM FEW015 SCT300 29/25 A2980 RMK SLP091 T02860248,PKMR,2023-05-16T06:54:00Z,7.08,171.38,28.6,24.8,70,8,,20.0,29.799213,1009.1,,,,,,,,,,FEW,1500,SCT,30000,,,,,VFR,,,,,,,,,,,,METAR,7.0
PHOG 160654Z 05009KT 10SM SCT055 23/17 A3005 RMK AO2 RAB09E18 SLP181 P0000 T02280172,PHOG,2023-05-16T06:54:00Z,20.9,-156.43,22.8,17.2,50,9,,10.0,30.050198,1018.1,,,TRUE,,,,,,,SCT,5500,,,,,,,VFR,,,,,,0.005,,,,,,SPECI,14.0
PHMK 160654Z AUTO 03007KT 10SM CLR 21/16 A3006 RMK AO2 SLP182 T02110161 TSNO,PHMK,2023-05-16T06:54:00Z,21.15,-157.1,21.1,16.1,30,7,,10.0,30.059055,1018.2,,TRUE,TRUE,,,TRUE,,,,CLR,,,,,,,,VFR,,,,,,,,,,,,METAR,135.0
PGWT 160654Z 11010KT 7SM FEW016 FEW060 30/25,PGWT,2023-05-16T06:54:00Z,14.98,145.62,30.0,25.0,110,10,,7.0,,,,,,,,,,,,FEW,1600,FEW,6000,,,,,VFR,,,,,,,,,,,,METAR,84.0
PGUM 160654Z COR 10012G18KT 10SM SCT018 31/24 A2985 RMK AO2 SLP099 T03110244,PGUM,2023-05-16T06:54:00Z,13.48,144.8,31.1,24.4,100,12,18,10.0,29.84941,1009.9,TRUE,,TRUE,,,,,,,SCT,1800,,,,,,,VFR,,,,,,,,,,,,METAR,74.0
PGSN 160654Z 09012KT 10SM FEW020 28/26 A2985 RMK AO2 SLP128 T02830261 PNO $,PGSN,2023-05-16T06:54:00Z,15.12,145.72,28.3,26.1,90,12,,10.0,29.84941,1012.8,,,TRUE,TRUE,,,,,,FEW,2000,,,,,,,VFR,,,,,,,,,,,,METAR,65.0
PAKN 160654Z 15016G22KT 10SM OVC037 07/03 A2985 RMK AO2 PK WND 14027/0636 RAE06 SLP109 P0000 T00670028 $,PAKN,2023-05-16T06:54:00Z,58.68,-156.65,6.7,2.8,150,16,22,10.0,29.84941,1010.9,,,TRUE,TRUE,,,,,,OVC,3700,,,,,,,VFR,,,,,,0.005,,,,,,METAR,20.0
PAHN 160654Z AUTO 00000KT CLR 09/02 A3022 RMK AO2 SLP237 T00940017 TSNO,PAHN,2023-05-16T06:54:00Z,59.25,-135.52,9.4,1.7,0,0,,,30.221457,1023.7,,TRUE,TRUE,,,TRUE,,,,CLR,,,,,,,,,,,,,,,,,,,,METAR,15.0
LIMA 160654Z VRB01KT CAVOK 17/07 Q1005,LIMA,2023-05-16T06:54:00Z,45.08,7.6,17.0,7.0,0,1,,6.21,29.675198,,,,,,,,,,,CAVOK,,,,,,,,VFR,,,,,,,,,,,,SPECI,285.0
KWAL 160654Z AUTO 23005KT 10SM CLR 15/12 A3004 RMK AO2 SLP170 T01500122,KWAL,2023-05-16T06:54:00Z,37.93,-75.47,15.0,12.2,230,5,,10.0,30.041338,1017.0,,TRUE,TRUE,,,,,,,CLR,,,,,,,,VFR,,,,,,,,,,,,METAR,10.0
KVTA 160654Z AUTO 00000KT 10SM CLR 10/09 A3002 RMK AO2 SLP163 T01000089,KVTA,2023-05-16T06:54:00Z,40.02,-82.47,10.0,8.9,0,0,,10.0,30.02067,1016.3,,TRUE,TRUE,,,,,,,CLR,,,,,,,,VFR,,,,,,,,,,,,METAR,268.0
KVSF 160654Z AUTO 00000KT 10SM CLR 09/03 A2979 RMK AO2 SLP088 T00890028,KVSF,2023-05-16T06:54:00Z,43.35,-72.52,8.9,2.8,0,0,,10.0,29.790354,1008.8,,TRUE,TRUE,,,,,,,CLR,,,,,,,,VFR,,,,,,,,,,,,METAR,176.0
KVAY 160654Z AUTO 23005KT 10SM CLR 15/09 A2996 RMK AO2 SLP144 T01500094,KVAY,2023-05-16T06:54:00Z,39.93,-74.83,15.0,9.4,230,5,,10.0,29.958662,1014.4,,TRUE,TRUE,,,,,,,CLR,,,,,,,,VFR,,,,,,,,,,,,METAR,15.0
KUZA 160654Z AUTO 18004KT 10SM CLR 19/13 A3009 RMK AO2 SLP179 T01890133,KUZA,2023-05-16T06:54:00Z,34.98,-81.05,18.9,13.3,180,4,,10.0,30.088583,1017.9,,TRUE,TRUE,,,,,,,CLR,,,,,,,,VFR,,,,,,,,,,,,METAR,198.0
KUIN 160654Z AUTO 00000KT 9SM -RA BKN035 OVC042 16/13 A3007 RMK AO2 RAB03 SLP178 P0001 T01610133,KUIN,2023-05-16T06:54:00Z,39.95,-91.2,16.1,13.3,0,0,,9.0,30.070866,1017.8,,TRUE,TRUE,,,,,,-RA,BKN,3500,OVC,4200,,,,,VFR,,,,,,0.01,,,,,,METAR,233.0
KTQE 160654Z AUTO 31003KT 10SM OVC065 14/11 A3015 RMK AO2 SLP206 T01440106,KTQE,2023-05-16T06:54:00Z,41.77,-96.18,14.4,10.6,310,3,,10.0,30.15059,1020.6,,TRUE,TRUE,,,,,,,OVC,6500,,,,,,,VFR,,,,,,,,,,,,METAR,312.0
KTAD 160654Z AUTO 16004KT 10SM CLR 10/08 A3033 RMK AO2 SLP228 T01000083 401830089,KTAD,2023-05-16T06:54:00Z,37.27,-104.33,10.0,8.3,160,4,,10.0,30.33071,1022.8,,TRUE,TRUE,,,,,,,CLR,,,,,,,,VFR,,,,18.3,8.9,,,,,,,METAR,1751.0
KSYR 160654Z 24010KT 10SM CLR 14/M01 A2989 RMK AO2 SLP115 T01391011,KSYR,2023-05-16T06:54:00Z,43.12,-76.1,13.9,-1.1,240,10,,10.0,29.890747,1011.5,,,TRUE,,,,,,,CLR,,,,,,,,VFR,,,,,,,,,,,,SPECI,125.0
KSUS 160654Z AUTO 01004KT 10SM OVC023 19/16 A3000 RMK AO2 RAB12E28 SLP154 P0000 T01890156,KSUS,2023-05-16T06:54:00Z,38.65,-90.65,18.9,15.6,10,4,,10.0,30.0,1015.4,,TRUE,TRUE,,,,,,,OVC,2300,,,,,,,MVFR,,,,,,0.005,,,,,,METAR,140.0
KSLC 160654Z 17006KT 10SM SCT180 17/07 A3020 RMK AO2 SLP182 T01720067 402780133,KSLC,2023-05-16T06:54:00Z,40.77,-111.97,17.2,6.7,170,6,,10.0,30.200787,1018.2,,,TRUE,,,,,,,SCT,18000,,,,,,,VFR,,,,27.8,13.3,,,,,,,METAR,1286.0
KSBY 160654Z AUTO 21005KT 10SM CLR 14/12 A3002 RMK AO2 SLP168 T01440122,KSBY,2023-05-16T06:54:00Z,38.33,-75.5,14.4,12.2,210,5,,10.0,30.02067,1016.8,,TRUE,TRUE,,,,,,,CLR,,,,,,,,VFR,,,,,,,,,,,,METAR,14.0
KSBN 160654Z AUTO 00000KT 10SM CLR 08/02 A3005 RMK AO2 SLP175 T00780022,KSBN,2023-05-16T06:54:00Z,41.7,-86.32,7.8,2.2,0,0,,10.0,30.050198,1017.5,,TRUE,TRUE,,,,,,,CLR,,,,,,,,VFR,,,,,,,,,,,,METAR,236.0
KRST 160654Z AUTO 26008KT 10SM CLR 11/08 A3009 RMK AO2 SLP190 T01060083,KRST,2023-05-16T06:54:00Z,43.9,-92.5,10.6,8.3,260,8,,10.0,30.088583,1019.0,,TRUE,TRUE,,,,,,,CLR,,,,,,,,VFR,,,,,,,,,,,,METAR,398.0
KRSP 160654Z AUTO VRB06KT 10SM CLR 15/11 A3000 RMK AO2 SLP154 T01500106 $,KRSP,2023-05-16T06:54:00Z,39.65,-77.47,15.0,10.6,0,6,,10.0,30.0,1015.4,,TRUE,TRUE,TRUE,,,,,,CLR,,,,,,,,VFR,,,,,,,,,,,,METAR,555.0
KROC 160654Z 23008KT 10SM CLR 09/01 A2991 RMK AO2 SLP130 T00940006,KROC,2023-05-16T06:54:00Z,43.12,-77.68,9.4,0.6,230,8,,10.0,29.911417,1013.0,,,TRUE,,,,,,,CLR,,,,,,,,VFR,,,,,,,,,,,,METAR,166.0
KROA 160654Z 00000KT 10SM OVC030 15/14 A3009 RMK AO2 SLP183 T01500139 $,KROA,2023-05-16T06:54:00Z,37.32,-79.97,15.0,13.9,0,0,,10.0,30.088583,1018.3,,,TRUE,TRUE,,,,,,OVC,3000,,,,,,,MVFR,,,,,,,,,,,,METAR,349.0
KRKS 160654Z AUTO 00000KT 10SM CLR 11/03 A3035 RMK AO2 SLP218 T01060033 402110050,KRKS,2023-05-16T06:54:00Z,41.6,-109.07,10.6,3.3,0,0,,10.0,30.351377,1021.8,,TRUE,TRUE,,,,,,,CLR,,,,,,,,VFR,,,,21.1,5.0,,,,,,,METAR,2062.0
KRIC 160654Z 21005KT 10SM OVC055 18/13 A3004 RMK AO2 SLP177 T01780128,KRIC,2023-05-16T06:54:00Z,37.52,-77.32,17.8,12.8,210,5,,10.0,30.041338,1017.7,,,TRUE,,,,,,,OVC,5500,,,,,,,VFR,,,,,,,,,,,,METAR,51.0
KRFD 160654Z 00000KT 10SM OVC220 09/07 A3008 RMK AO2 SLP184 T00890067 $,KRFD,2023-05-16T06:54:00Z,42.2,-89.1,8.9,6.7,0,0,,10.0,30.079725,1018.4,,,TRUE,TRUE,,,,,,OVC,22000,,,,,,,VFR,,,,,,,,,,,,METAR,222.0
KRDG 160654Z AUTO 00000KT 10SM CLR 14/07 A2995 RMK AO2 SLP144 T01390072,KRDG,2023-05-16T06:54:00Z,40.37,-75.97,13.9,7.2,0,0,,10.0,29.949802,1014.4,,TRUE,TRUE,,,,,,,CLR,,,,,,,,VFR,,,,,,,,,,,,METAR,101.0
KRBL 160654Z AUTO 30005KT 10SM CLR 19/12 A3003 RMK AO2 SLP165 T01890117,KRBL,2023-05-16T06:54:00Z,40.15,-122.25,18.9,11.7,300,5,,10.0,30.029528,1016.5,,TRUE,TRUE,,,,,,,CLR,,,,,,,,VFR,,,,,,,,,,,,METAR,107.0
KPTW 160654Z AUTO 00000KT 10SM CLR 12/08 A2997 RMK AO2 SLP147 T01170078,KPTW,2023-05-16T06:54:00Z,40.23,-75.55,11.7,7.8,0,0,,10.0,29.970472,1014.7,,TRUE,TRUE,,,,,,,CLR,,,,,,,,VFR,,,,,,,,,,,,METAR,88.0
KPSF 160654Z AUTO 23006KT 10SM CLR 13/M01 A2985 RMK AO2 SLP091 T01281006,KPSF,2023-05-16T06:54:00Z,42.43,-73.28,12.8,-0.6,230,6,,10.0,29.84941,1009.1,,TRUE,TRUE,,,,,,,CLR,,,,,,,,VFR,,,,,,,,,,,,METAR,352.0
KPNE 160654Z AUTO 24007KT 10SM CLR 16/09 A2996 RMK AO2 SLP146 T01610094,KPNE,2023-05-16T06:54:00Z,40.08,-75.02,16.1,9.4,240,7,,10.0,29.958662,1014.6,,TRUE,TRUE,,,,,,,CLR,,,,,,,,VFR,,,,,,,,,,,,METAR,32.0
KPLN 160654Z AUTO 26008G20KT 10SM SCT120 14/00 A2987 RMK AO2 SLP114 T01440000,KPLN,2023-05-16T06:54:00Z,45.57,-84.8,14.4,0.0,260,8,20,10.0,29.870079,1011.4,,TRUE,TRUE,,,,,,,SCT,12000,,,,,,,VFR,,,,,,,,,,,,METAR,215.0
KPIA 160654Z 00000KT 10SM FEW090 OVC110 16/12 A3006 RMK AO2 RAB13E28 SLP178 P0000 T01560122,KPIA,2023-05-16T06:54:00Z,40.67,-89.68,15.6,12.2,0,0,,10.0,30.059055,1017.8,,,TRUE,,,,,,,FEW,9000,OVC,11000,,,,,VFR,,,,,,0.005,,,,,,METAR,200.0
KPHL 160654Z 23008KT 10SM CLR 15/10 A2996 RMK AO2 SLP146 T01500100,KPHL,2023-05-16T06:54:00Z,39.87,-75.23,15.0,10.0,230,8,,10.0,29.958662,1014.6,,,TRUE,,,,,,,CLR,,,,,,,,VFR,,,,,,,,,,,,SPECI,2.0
KPHF 160654Z AUTO 22008KT 10SM OVC060 18/12 A3006 RMK AO2 SLP177 T01830117,KPHF,2023-05-16T06:54:00Z,37.13,-76.5,18.3,11.7,220,8,,10.0,30.059055,1017.7,,TRUE,TRUE,,,,,,,OVC,6000,,,,,,,VFR,,,,,,,,,,,,METAR,12.0
KORH 160654Z AUTO 25012G20KT 10SM CLR 14/01 A2981 RMK AO2 SLP093 T01440006,KORH,2023-05-16T06:54:00Z,42.27,-71.87,14.4,0.6,250,12,20,10.0,29.811024,1009.3,,TRUE,TRUE,,,,,,,CLR,,,,,,,,VFR,,,,,,,,,,,,METAR,306.0
KOLS 160654Z AUTO 09006KT 10SM SCT120 22/07 A3015 RMK AO2 SLP140 T02220067 403220139,KOLS,2023-05-16T06:54:00Z,31.42,-110.85,22.2,6.7,90,6,,10.0,30.15059,1014.0,,TRUE,TRUE,,,,,,,SCT,12000,,,,,,,VFR,,,,32.2,13.9,,,,,,,METAR,1194.0
KOLM 160654Z AUTO 12003KT 10SM BKN120 16/12 A3009 RMK AO2 LTG DSNT E SLP188 T01610117,KOLM,2023-05-16T06:54:00Z,46.97,-122.9,16.1,11.7,120,3,,10.0,30.088583,1018.8,,TRUE,TRUE,,,,,,,BKN,12000,,,,,,,VFR,,,,,,,,,,,,METAR,58.0
KOFP 160654Z AUTO 22005KT 10SM BKN060 BKN075 OVC120 18/13 A3005 RMK AO2 SLP174 T01780128,KOFP,2023-05-16T06:54:00Z,37.7,-77.43,17.8,12.8,220,5,,10.0,30.050198,1017.4,,TRUE,TRUE,,,,,,,BKN,6000,BKN,7500,OVC,12000,,,VFR,,,,,,,,,,,,METAR,63.0
KNAK 160654Z AUTO 27004KT 10SM CLR 16/11 A2999 RMK AO2 SLP158 T01560111,KNAK,2023-05-16T06:54:00Z,38.98,-76.48,15.6,11.1,270,4,,10.0,29.991142,1015.8,,TRUE,TRUE,,,,,,,CLR,,,,,,,,VFR,,,,,,,,,,,,METAR,2.0
KMVL 160654Z AUTO 17006KT 10SM OVC075 15/M01 A2974 RMK AO2 RAB46E52 SLP070 P0000 T01501006,KMVL,2023-05-16T06:54:00Z,44.53,-72.62,15.0,-0.6,170,6,,10.0,29.740158,1007.0,,TRUE,TRUE,,,,,,,OVC,7500,,,,,,,VFR,,,,,,0.005,,,,,,METAR,226.0
KMRY 160654Z AUTO VRB04KT 3SM BR OVC001 12/12 A3009 RMK AO2 SLP200 T01170117,KMRY,2023-05-16T06:54:00Z,36.58,-121.85,11.7,11.7,0,4,,3.0,30.088583,1020.0,,TRUE,TRUE,,,,,,BR,OVC,100,,,,,,,LIFR,,,,,,,,,,,,METAR,51.0
KMOT 160654Z AUTO 23009KT 10SM CLR 13/07 A3010 RMK AO2 SLP191 T01280067,KMOT,2023-05-16T06:54:00Z,48.25,-101.27,12.8,6.7,230,9,,10.0,30.100393,1019.1,,TRUE,TRUE,,,,,,,CLR,,,,,,,,VFR,,,,,,,,,,,,METAR,507.0
KMIV 160654Z AUTO 25006KT 10SM CLR 14/11 A2998 RMK AO2 SLP151 T01440111,KMIV,2023-05-16T06:54:00Z,39.37,-75.08,14.4,11.1,250,6,,10.0,29.97933,1015.1,,TRUE,TRUE,,,,,,,CLR,,,,,,,,VFR,,,,,,,,,,,,METAR,18.0
KMGJ 160654Z AUTO 00000KT 10SM CLR 08/04 A2989 RMK AO2 SLP120 T00780039,KMGJ,2023-05-16T06:54:00Z,41.52,-74.27,7.8,3.9,0,0,,10.0,29.890747,1012.0,,TRUE,TRUE,,,,,,,CLR,,,,,,,,VFR,,,,,,,,,,,,METAR,106.0
KMFI 160654Z AUTO 29007KT 10SM CLR 12/06 A3002 RMK AO2 SLP165 T01170056,KMFI,2023-05-16T06:54:00Z,44.63,-90.18,11.7,5.6,290,7,,10.0,30.02067,1016.5,,TRUE,TRUE,,,,,,,CLR,,,,,,,,VFR,,,,,,,,,,,,METAR,383.0
KMEM 160654Z 20005KT 10SM CLR 23/19 A3001 RMK AO2 SLP158 T02330194 $,KMEM,2023-05-16T06:54:00Z,35.07,-89.98,23.3,19.4,200,5,,10.0,30.008858,1015.8,,,TRUE,TRUE,,,,,,CLR,,,,,,,,VFR,,,,,,,,,,,,METAR,78.0
KLYH 160654Z AUTO 00000KT 10SM BKN048 BKN060 OVC080 16/13 A3006 RMK AO2 SLP175 T01560128,KLYH,2023-05-16T06:54:00Z,37.32,-79.2,15.6,12.8,0,0,,10.0,30.059055,1017.5,,TRUE,TRUE,,,,,,,BKN,4800,BKN,6000,OVC,8000,,,VFR,,,,,,,,,,,,METAR,282.0
KLWT 160654Z AUTO 13005KT 10SM CLR 11/07 A3011 RMK AO2 SLP170 T01110072 402500056,KLWT,2023-05-16T06:54:00Z,47.05,-109.47,11.1,7.2,130,5,,10.0,30.109253,1017.0,,TRUE,TRUE,,,,,,,CLR,,,,,,,,VFR,,,,25.0,5.6,,,,,,,METAR,1254.0
KLWM 160654Z AUTO 23006KT 10SM CLR 16/01 A2978 RMK AO2 SLP085 T01560006,KLWM,2023-05-16T06:54:00Z,42.72,-71.13,15.6,0.6,230,6,,10.0,29.778543,1008.5,,TRUE,TRUE,,,,,,,CLR,,,,,,,,VFR,,,,,,,,,,,,METAR,42.0
KLNK 160654Z AUTO 32004KT 10SM OVC035 14/10 A3018 RMK AO2 SLP218 T01390100,KLNK,2023-05-16T06:54:00Z,40.85,-96.77,13.9,10.0,320,4,,10.0,30.180119,1021.8,,TRUE,TRUE,,,,,,,OVC,3500,,,,,,,VFR,,,,,,,,,,,,METAR,357.0
KLEX 160654Z AUTO 00000KT 10SM BKN120 16/13 A3003 RMK AO2 SLP162 T01610128,KLEX,2023-05-16T06:54:00Z,38.03,-84.6,16.1,12.8,0,0,,10.0,30.029528,1016.2,,TRUE,TRUE,,,,,,,BKN,12000,,,,,,,VFR,,,,,,,,,,,,METAR,294.0
KLAF 160654Z AUTO 00000KT 10SM OVC110 14/08 A3004 RMK AO2 SLP170 T01390078,KLAF,2023-05-16T06:54:00Z,40.42,-86.93,13.9,7.8,0,0,,10.0,30.041338,1017.0,,TRUE,TRUE,,,,,,,OVC,11000,,,,,,,VFR,,,,,,,,,,,,METAR,182.0
KJST 160654Z AUTO 22006KT 10SM CLR 11/02 A3001 RMK AO2 SLP157 T01060022,KJST,2023-05-16T06:54:00Z,40.32,-78.83,10.6,2.2,220,6,,10.0,30.008858,1015.7,,TRUE,TRUE,,,,,,,CLR,,,,,,,,VFR,,,,,,,,,,,,METAR,695.0
KJAN 160654Z AUTO 18003KT 10SM CLR 22/21 A3005 RMK AO2 SLP171 T02170206,KJAN,2023-05-16T06:54:00Z,32.32,-90.08,21.7,20.6,180,3,,10.0,30.050198,1017.1,,TRUE,TRUE,,,,,,,CLR,,,,,,,,VFR,,,,,,,,,,,,METAR,92.0
KIZG 160654Z AUTO 23005KT 10SM FEW120 12/00 A2971 RMK AO2 SLP063 T01170000,KIZG,2023-05-16T06:54:00Z,43.98,-70.95,11.7,0.0,230,5,,10.0,29.71063,1006.3,,TRUE,TRUE,,,,,,,FEW,12000,,,,,,,VFR,,,,,,,,,,,,METAR,138.0
KISW 160654Z AUTO 24004KT 10SM CLR 12/07 A3003 RMK AO2 SLP169 T01220067,KISW,2023-05-16T06:54:00Z,44.37,-89.83,12.2,6.7,240,4,,10.0,30.029528,1016.9,,TRUE,TRUE,,,,,,,CLR,,,,,,,,VFR,,,,,,,,,,,,METAR,311.0
KIPT 160654Z AUTO 00000KT 10SM CLR 07/04 A2997 RMK AO2 SLP147 T00670039 $,KIPT,2023-05-16T06:54:00Z,41.25,-76.92,6.7,3.9,0,0,,10.0,29.970472,1014.7,,TRUE,TRUE,TRUE,,,,,,CLR,,,,,,,,VFR,,,,,,,,,,,,METAR,160.0
KINT 160654Z AUTO 00000KT 10SM BKN055 OVC080 17/15 A3009 RMK AO2 RAB24E43 SLP180 P0000 T01670150,KINT,2023-05-16T06:54:00Z,36.13,-80.22,16.7,15.0,0,0,,10.0,30.088583,1018.0,,TRUE,TRUE,,,,,,,BKN,5500,OVC,8000,,,,,VFR,,,,,,0.005,,,,,,METAR,292.0
KINL 160654Z AUTO 26006KT 10SM OVC100 15/03 A2991 RMK AO2 SLP128 T01500028,KINL,2023-05-16T06:54:00Z,48.57,-93.4,15.0,2.8,260,6,,10.0,29.911417,1012.8,,TRUE,TRUE,,,,,,,OVC,10000,,,,,,,VFR,,,,,,,,,,,,METAR,353.0
KIND 160654Z 00000KT 10SM SCT095 BKN160 17/14 A3003 RMK AO2 SLP164 T01720144,KIND,2023-05-16T06:54:00Z,39.72,-86.27,17.2,14.4,0,0,,10.0,30.029528,1016.4,,,TRUE,,,,,,,SCT,9500,BKN,16000,,,,,VFR,,,,,,,,,,,,METAR,242.0
KIMT 160654Z AUTO 28006KT 10SM CLR 14/02 A2991 RMK AO2 SLP125 T01440017,KIMT,2023-05-16T06:54:00Z,45.82,-88.12,14.4,1.7,280,6,,10.0,29.911417,1012.5,,TRUE,TRUE,,,,,,,CLR,,,,,,,,VFR,,,,,,,,,,,,METAR,343.0
KILN 160654Z AUTO 00000KT 9SM FEW120 13/11 A3003 RMK AO2 SLP169 T01330111,KILN,2023-05-16T06:54:00Z,39.43,-83.8,13.3,11.1,0,0,,9.0,30.029528,1016.9,,TRUE,TRUE,,,,,,,FEW,12000,,,,,,,VFR,,,,,,,,,,,,METAR,325.0
KHWD 160654Z AUTO 30004KT 10SM CLR 13/11 A3008 RMK AO2 SLP196 T01280111,KHWD,2023-05-16T06:54:00Z,37.67,-122.12,12.8,11.1,300,4,,10.0,30.079725,1019.6,,TRUE,TRUE,,,,,,,CLR,,,,,,,,VFR,,,,,,,,,,,,METAR,9.0
KGSO 160654Z 24004KT 10SM SCT070 OVC085 17/13 A3008 RMK AO2 SLP178 T01720128,KGSO,2023-05-16T06:54:00Z,36.1,-79.95,17.2,12.8,240,4,,10.0,30.079725,1017.8,,,TRUE,,,,,,,SCT,7000,OVC,8500,,,,,VFR,,,,,,,,,,,,METAR,275.0
KGED 160654Z AUTO 22005KT 10SM CLR 16/12 A3001 RMK AO2 SLP161 T01560122,KGED,2023-05-16T06:54:00Z,38.68,-75.37,15.6,12.2,220,5,,10.0,30.008858,1016.1,,TRUE,TRUE,,,,,,,CLR,,,,,,,,VFR,,,,,,,,,,,,METAR,15.0
KGCN 160654Z AUTO 00000KT 10SM CLR 07/04 A3036 RMK AO2 SLP206 T00720044 402330061,KGCN,2023-05-16T06:54:00Z,35.95,-112.15,7.2,4.4,0,0,,10.0,30.360237,1020.6,,TRUE,TRUE,,,,,,,CLR,,,,,,,,VFR,,,,23.3,6.1,,,,,,,METAR,1993.0
KGCK 160654Z AUTO 29003KT 10SM CLR 11/11 A3023 RMK AO2 SLP227 T01110111,KGCK,2023-05-16T06:54:00Z,37.92,-100.72,11.1,11.1,290,3,,10.0,30.230314,1022.7,,TRUE,TRUE,,,,,,,CLR,,,,,,,,VFR,,,,,,,,,,,,METAR,877.0
KFZY 160654Z AUTO 21005KT 10SM CLR 09/01 A2988 RMK AO2 SLP118 T00940011,KFZY,2023-05-16T06:54:00Z,43.35,-76.38,9.4,1.1,210,5,,10.0,29.878937,1011.8,,TRUE,TRUE,,,,,,,CLR,,,,,,,,VFR,,,,,,,,,,,,METAR,143.0
KFWA 160654Z 34004KT 10SM FEW120 FEW180 BKN240 13/06 A3003 RMK AO2 SLP169 T01280056,KFWA,2023-05-16T06:54:00Z,40.98,-85.2,12.8,5.6,340,4,,10.0,30.029528,1016.9,,,TRUE,,,,,,,FEW,12000,FEW,18000,BKN,24000,,,VFR,,,,,,,,,,,,METAR,243.0
KFIG 160654Z AUTO 00000KT 10SM CLR 06/02 A3000 RMK AO2 SLP158 T00610017,KFIG,2023-05-16T06:54:00Z,41.05,-78.42,6.1,1.7,0,0,,10.0,30.0,1015.8,,TRUE,TRUE,,,,,,,CLR,,,,,,,,VFR,,,,,,,,,,,,METAR,461.0
KFFZ 160654Z AUTO 08007KT 10SM CLR 29/09 A2996 RMK AO2 SLP118 T02940089 403780250,KFFZ,2023-05-16T06:54:00Z,33.47,-111.72,29.4,8.9,80,7,,10.0,29.958662,1011.8,,TRUE,TRUE,,,,,,,CLR,,,,,,,,VFR,,,,37.8,25.0,,,,,,,METAR,420.0
KEWN 160654Z AUTO 00000KT 10SM SCT120 17/14 A3010 RMK AO2 SLP193 T01670139,KEWN,2023-05-16T06:54:00Z,35.07,-77.05,16.7,13.9,0,0,,10.0,30.100393,1019.3,,TRUE,TRUE,,,,,,,SCT,12000,,,,,,,VFR,,,,,,,,,,,,METAR,3.0
KEVV 160654Z AUTO 00000KT 10SM CLR 19/16 A3002 RMK AO2 SLP160 T01890156 $,KEVV,2023-05-16T06:54:00Z,38.05,-87.52,18.9,15.6,0,0,,10.0,30.02067,1016.0,,TRUE,TRUE,TRUE,,,,,,CLR,,,,,,,,VFR,,,,,,,,,,,,METAR,123.0
KEUG 160654Z AUTO 22009KT 10SM CLR 14/11 A3013 RMK AO2 SLP200 T01390111,KEUG,2023-05-16T06:54:00Z,44.13,-123.22,13.9,11.1,220,9,,10.0,30.129921,1020.0,,TRUE,TRUE,,,,,,,CLR,,,,,,,,VFR,,,,,,,,,,,,METAR,109.0
KEFD 160654Z 00000KT 10SM OVC021 24/21 A3008,KEFD,2023-05-16T06:54:00Z,29.6,-95.17,24.0,21.0,0,0,,10.0,30.079725,,,,,,,,,,,OVC,2100,,,,,,,MVFR,,,,,,,,,,,,METAR,9.0
KECG 160654Z AUTO 22003KT 10SM -RA BKN090 BKN110 17/13 A3008 RMK AO2 RAB46 SLP186 P0000 T01720128 $,KECG,2023-05-16T06:54:00Z,36.27,-76.18,17.2,12.8,220,3,,10.0,30.079725,1018.6,,TRUE,TRUE,TRUE,,,,,-RA,BKN,9000,BKN,11000,,,,,VFR,,,,,,0.005,,,,,,METAR,2.0
KDYL 160654Z AUTO 23004KT 10SM CLR 14/08 A2994 RMK AO2 SLP136 T01390078,KDYL,2023-05-16T06:54:00Z,40.33,-75.12,13.9,7.8,230,4,,10.0,29.940945,1013.6,,TRUE,TRUE,,,,,,,CLR,,,,,,,,VFR,,,,,,,,,,,,METAR,121.0
KDSV 160654Z AUTO VRB03KT 10SM CLR 08/00 A2995 RMK AO2 SLP150 T00780000,KDSV,2023-05-16T06:54:00Z,42.57,-77.72,7.8,0.0,0,3,,10.0,29.949802,1015.0,,TRUE,TRUE,,,,,,,CLR,,,,,,,,VFR,,,,,,,,,,,,METAR,195.0
KDSM 160654Z 28005KT 10SM BKN060 OVC070 14/11 A3013 RMK AO2 SLP201 T01390106,KDSM,2023-05-16T06:54:00Z,41.53,-93.67,13.9,10.6,280,5,,10.0,30.129921,1020.1,,,TRUE,,,,,,,BKN,6000,OVC,7000,,,,,VFR,,,,,,,,,,,,METAR,286.0
KDMH 160654Z AUTO 17/09 A2999 RMK AO1 SLP156 T01670094,KDMH,2023-05-16T06:54:00Z,39.28,-76.62,16.7,9.4,,,,,29.991142,1015.6,,TRUE,TRUE,,,,,,,,,,,,,,,,,,,,,,,,,,,METAR,4.0
KDEC 160654Z AUTO 04006KT 10SM OVC070 17/12 A3004 RMK AO2 SLP169 T01670122,KDEC,2023-05-16T06:54:00Z,39.83,-88.87,16.7,12.2,40,6,,10.0,30.041338,1016.9,,TRUE,TRUE,,,,,,,OVC,7000,,,,,,,VFR,,,,,,,,,,,,METAR,205.0
KDDH 160654Z AUTO 24008G19KT 210V280 10SM CLR 14/01 A2984 RMK AO2 SLP102 T01440006,KDDH,2023-05-16T06:54:00Z,42.9,-73.25,14.4,0.6,240,8,19,10.0,29.840551,1010.2,,TRUE,TRUE,,,,,,,CLR,,,,,,,,VFR,,,,,,,,,,,,METAR,241.0
KCRW 160654Z 00000KT 6SM BR OVC065 17/17 A3002 RMK AO2 SLP161 VLY FG T01670167,KCRW,2023-05-16T06:54:00Z,38.38,-81.58,16.7,16.7,0,0,,6.0,30.02067,1016.1,,,TRUE,,,,,,BR,OVC,6500,,,,,,,VFR,,,,,,,,,,,,METAR,278.0
KCOS 160654Z 12003KT 10SM SCT120 10/08 A3035 RMK AO2 SLP236 T01000083 401720083,KCOS,2023-05-16T06:54:00Z,38.82,-104.68,10.0,8.3,120,3,,10.0,30.351377,1023.6,,,TRUE,,,,,,,SCT,12000,,,,,,,VFR,,,,17.2,8.3,,,,,,,METAR,1886.0
KCEU 160654Z AUTO 00000KT 10SM BKN075 20/19 A3009 RMK AO2 SLP178 T02000189,KCEU,2023-05-16T06:54:00Z,34.67,-82.88,20.0,18.9,0,0,,10.0,30.088583,1017.8,,TRUE,TRUE,,,,,,,BKN,7500,,,,,,,VFR,,,,,,,,,,,,METAR,270.0
KCAR 160654Z AUTO 30005KT 10SM OVC080 10/05 A2955 RMK AO2 SLP008 T01000050,KCAR,2023-05-16T06:54:00Z,46.87,-68.02,10.0,5.0,300,5,,10.0,29.551182,1000.8,,TRUE,TRUE,,,,,,,OVC,8000,,,,,,,VFR,,,,,,,,,,,,METAR,189.0
KBWI 160654Z 24006KT 10SM FEW250 16/11 A2998 RMK AO2 SLP152 T01560106,KBWI,2023-05-16T06:54:00Z,39.17,-76.68,15.6,10.6,240,6,,10.0,29.97933,1015.2,,,TRUE,,,,,,,FEW,25000,,,,,,,VFR,,,,,,,,,,,,METAR,42.0
KBUY 160654Z AUTO 19004KT 10SM SCT080 OVC090 18/13 A3007 RMK AO2 SLP178 T01780133,KBUY,2023-05-16T06:54:00Z,36.05,-79.47,17.8,13.3,190,4,,10.0,30.070866,1017.8,,TRUE,TRUE,,,,,,,SCT,8000,OVC,9000,,,,,VFR,,,,,,,,,,,,METAR,185.0
KBUF 160654Z 22009KT 10SM CLR 12/01 A2993 RMK AO2 SLP135 T01170006,KBUF,2023-05-16T06:54:00Z,42.93,-78.73,11.7,0.6,220,9,,10.0,29.929134,1013.5,,,TRUE,,,,,,,CLR,,,,,,,,VFR,,,,,,,,,,,,METAR,217.0
KBTV 160654Z 26007KT 10SM OVC100 17/M02 A2974 RMK AO2 SLP070 T01671022,KBTV,2023-05-16T06:54:00Z,44.47,-73.15,16.7,-2.2,260,7,,10.0,29.740158,1007.0,,,TRUE,,,,,,,OVC,10000,,,,,,,VFR,,,,,,,,,,,,METAR,101.0
KBOS 160654Z 26013KT 10SM CLR 18/02 A2979 RMK AO2 SLP086 T01780017,KBOS,2023-05-16T06:54:00Z,42.37,-71.02,17.8,1.7,260,13,,10.0,29.790354,1008.6,,,TRUE,,,,,,,CLR,,,,,,,,VFR,,,,,,,,,,,,SPECI,4.0
KBFL 160654Z AUTO 34005KT 9SM CLR 24/13 A2997 RMK AO2 SLP143 T02440133,KBFL,2023-05-16T06:54:00Z,35.43,-119.05,24.4,13.3,340,5,,9.0,29.970472,1014.3,,TRUE,TRUE,,,,,,,CLR,,,,,,,,VFR,,,,,,,,,,,,METAR,146.0
KAVP 160654Z 00000KT 10SM CLR 07/04 A2995 RMK AO2 SLP137 T00720039,KAVP,2023-05-16T06:54:00Z,41.33,-75.72,7.2,3.9,0,0,,10.0,29.949802,1013.7,,,TRUE,,,,,,,CLR,,,,,,,,VFR,,,,,,,,,,,,METAR,290.0
KAVL 160654Z AUTO 17005KT 10SM OVC060 18/16 A3012 RMK AO2 SLP178 T01780156,KAVL,2023-05-16T06:54:00Z,35.43,-82.53,17.8,15.6,170,5,,10.0,30.121063,1017.8,,TRUE,TRUE,,,,,,,OVC,6000,,,,,,,VFR,,,,,,,,,,,,METAR,646.0
KAUW 160654Z AUTO 29008KT 10SM CLR 14/06 A2998 RMK AO2 SLP154 T01440056,KAUW,2023-05-16T06:54:00Z,44.93,-89.62,14.4,5.6,290,8,,10.0,29.97933,1015.4,,TRUE,TRUE,,,,,,,CLR,,,,,,,,VFR,,,,,,,,,,,,METAR,367.0
KAPN 160654Z AUTO 23006KT 10SM CLR 14/M01 A2987 RMK AO2 SLP113 T01391011,KAPN,2023-05-16T06:54:00Z,45.07,-83.57,13.9,-1.1,230,6,,10.0,29.870079,1011.3,,TRUE,TRUE,,,,,,,CLR,,,,,,,,VFR,,,,,,,,,,,,METAR,208.0
KAPC 160654Z 26005KT 10SM CLR 13/11 A3008 RMK AO2 SLP176 T01280106,KAPC,2023-05-16T06:54:00Z,38.2,-122.28,12.8,10.6,260,5,,10.0,30.079725,1017.6,,,TRUE,,,,,,,CLR,,,,,,,,VFR,,,,,,,,,,,,METAR,5.0
KALO 160654Z AUTO 00000KT 10SM CLR 14/08 A3009 RMK AO2 SLP188 T01390083 $,KALO,2023-05-16T06:54:00Z,42.55,-92.4,13.9,8.3,0,0,,10.0,30.088583,1018.8,,TRUE,TRUE,TRUE,,,,,,CLR,,,,,,,,VFR,,,,,,,,,,,,METAR,264.0
KAKR 160654Z AUTO 00000KT 10SM CLR 09/01 A3001 RMK AO2 SLP158 T00940006 $,KAKR,2023-05-16T06:54:00Z,41.03,-81.47,9.4,0.6,0,0,,10.0,30.008858,1015.8,,TRUE,TRUE,TRUE,,,,,,CLR,,,,,,,,VFR,,,,,,,,,,,,METAR,319.0
KAKQ 160654Z AUTO 15003KT 10SM OVC060 17/14 A3005 RMK AO2 SLP176 T01720144,KAKQ,2023-05-16T06:54:00Z,36.98,-77.0,17.2,14.4,150,3,,10.0,30.050198,1017.6,,TRUE,TRUE,,,,,,,OVC,6000,,,,,,,VFR,,,,,,,,,,,,METAR,34.0
KAKH 160654Z AUTO 20004KT 10SM OVC075 19/13 A3008 RMK AO2 SLP182 T01890133,KAKH,2023-05-16T06:54:00Z,35.2,-81.15,18.9,13.3,200,4,,10.0,30.079725,1018.2,,TRUE,TRUE,,,,,,,OVC,7500,,,,,,,VFR,,,,,,,,,,,,METAR,242.0
KACY 160654Z 23007KT 10SM CLR 15/12 A2997 RMK AO2 SLP149 T01500117,KACY,2023-05-16T06:54:00Z,39.45,-74.57,15.0,11.7,230,7,,10.0,29.970472,1014.9,,,TRUE,,,,,,,CLR,,,,,,,,VFR,,,,,,,,,,,,METAR,18.0
K1V4 160654Z AUTO 11/02 A2971 RMK AO1 SLP057 T01110022,K1V4,2023-05-16T06:54:00Z,44.42,-72.02,11.1,2.2,,,,,29.71063,1005.7,,TRUE,TRUE,,,,,,,,,,,,,,,,,,,,,,,,,,,METAR,213.0
K12N 160654Z AUTO 00000KT 09/05 A2993 RMK AO1 SLP134 T00890050,K12N,2023-05-16T06:54:00Z,41.02,-74.73,8.9,5.0,0,0,,,29.929134,1013.4,,TRUE,TRUE,,,,,,,,,,,,,,,,,,,,,,,,,,,METAR,178.0
TJNR 160653Z AUTO 00000KT 10SM CLR 22/22 A3001 RMK AO2 SLP161 T02220217,TJNR,2023-05-16T06:53:00Z,18.25,-65.63,22.2,21.7,0,0,,10.0,30.008858,1016.1,,TRUE,TRUE,,,,,,,CLR,,,,,,,,VFR,,,,,,,,,,,,METAR,7.0
TISX 160653Z AUTO 36004KT 10SM CLR 24/23 A2999 RMK AO2 SLP155 T02390228,TISX,2023-05-16T06:53:00Z,17.7,-64.8,23.9,22.8,360,4,,10.0,29.991142,1015.5,,TRUE,TRUE,,,,,,,CLR,,,,,,,,VFR,,,,,,,,,,,,METAR,16.0
PTYA 160653Z VRB04KT 12SM SCT016CB BKN130 OVC300 27/26 A2977 RMK CB ALQDS SLP083 T02730264,PTYA,2023-05-16T06:53:00Z,9.48,138.08,27.3,26.4,0,4,,12.0,29.769686,1008.3,,,,,,,,,,SCT,1600,BKN,13000,OVC,30000,,,VFR,,,,,,,,,,,,METAR,4.0
PHTO 160653Z 25008KT 10SM SCT039 BKN050 OVC065 21/19 A3007 RMK AO2 SLP181 T02060189,PHTO,2023-05-16T06:53:00Z,19.72,-155.05,20.6,18.9,250,8,,10.0,30.070866,1018.1,,,TRUE,,,,,,,SCT,3900,BKN,5000,OVC,6500,,,VFR,,,,,,,,,,,,SPECI,9.0
PHNL 160653Z VRB04KT 10SM FEW022 FEW036 23/17 A3005 RMK AO2 SLP176 T02330167,PHNL,2023-05-16T06:53:00Z,21.33,-157.93,23.3,16.7,0,4,,10.0,30.050198,1017.6,,,TRUE,,,,,,,FEW,2200,FEW,3600,,,,,VFR,,,,,,,,,,,,METAR,2.0
PHLI 160653Z 05014KT 10SM BKN031 BKN043 OVC055 23/17 A3008 RMK AO2 SLP183 T02330167,PHLI,2023-05-16T06:53:00Z,21.97,-159.33,23.3,16.7,50,14,,10.0,30.079725,1018.3,,,TRUE,,,,,,,BKN,3100,BKN,4300,OVC,5500,,,VFR,,,,,,,,,,,,METAR,32.0
PHKO 160653Z 13011KT 10SM CLR 25/19 A3003 RMK AO2 SLP166 T02500189,PHKO,2023-05-16T06:53:00Z,19.73,-156.05,25.0,18.9,130,11,,10.0,30.029528,1016.6,,,TRUE,,,,,,,CLR,,,,,,,,VFR,,,,,,,,,,,,SPECI,11.0
PHJR 160653Z 36005KT 10SM FEW060 22/15 A3007 RMK AO2 SLP187 T02170150,PHJR,2023-05-16T06:53:00Z,21.32,-158.07,21.7,15.0,360,5,,10.0,30.070866,1018.7,,,TRUE,,,,,,,FEW,6000,,,,,,,VFR,,,,,,,,,,,,METAR,9.0
PAWD 160653Z AUTO 00000KT 7SM -RA OVC014 05/03 A3032 RMK AO2 RAB18 SLP267 P0001 T00500033 TSNO,PAWD,2023-05-16T06:53:00Z,60.12,-149.42,5.0,3.3,0,0,,7.0,30.318897,1026.7,,TRUE,TRUE,,,TRUE,,,-RA,OVC,1400,,,,,,,MVFR,,,,,,0.01,,,,,,METAR,3.0
PAVL 160653Z AUTO 02020KT 2 1/2SM UP CLR M06/M09 A3016 RMK AO2 PK WND 01027/0559 VIS 1 3/4V5 UPE42B50 SLP214 P0000 T10561089 TSNO,PAVL,2023-05-16T06:53:00Z,67.73,-164.55,-5.6,-8.9,20,20,,2.5,30.159449,1021.4,,TRUE,TRUE,,,TRUE,,,UP,CLR,,,,,,,,IFR,,,,,,0.005,,,,,,METAR,6.0
PATO 160653Z AUTO 14007KT 100V180 10SM SCT035 OVC050 07/03 A3032 RMK AO2 SLP269 T00720028 TSNO,PATO,2023-05-16T06:53:00Z,60.78,-148.85,7.2,2.8,140,7,,10.0,30.318897,1026.9,,TRUE,TRUE,,,TRUE,,,,SCT,3500,OVC,5000,,,,,VFR,,,,,,,,,,,,METAR,47.0
PATK 160653Z AUTO 05003KT 10SM BKN110 08/01 A3020 RMK AO2 SLP231 T00780006 TSNO,PATK,2023-05-16T06:53:00Z,62.32,-150.1,7.8,0.6,50,3,,10.0,30.200787,1023.1,,TRUE,TRUE,,,TRUE,,,,BKN,11000,,,,,,,VFR,,,,,,,,,,,,METAR,107.0
PASO 160653Z AUTO VRB03KT 10SM BKN033 OVC120 08/05 A3013 RMK AO2 RAE0554B31E40 SLP202 P0000 T00780050 TSNO,PASO,2023-05-16T06:53:00Z,59.45,-151.7,7.8,5.0,0,3,,10.0,30.129921,1020.2,,TRUE,TRUE,,,TRUE,,,,BKN,3300,OVC,12000,,,,,VFR,,,,,,0.005,,,,,,METAR,20.0
PASN 160653Z AUTO 32015KT 10SM OVC017 M01/M04 A2987 RMK AO2 SLP115 T10061044 TSNO $,PASN,2023-05-16T06:53:00Z,57.15,-170.22,-0.6,-4.4,320,15,,10.0,29.870079,1011.5,,TRUE,TRUE,TRUE,,TRUE,,,,OVC,1700,,,,,,,MVFR,,,,,,,,,,,,METAR,8.0
PASI 160653Z 11005KT 10SM CLR 11/07 A3017 RMK AO2 SLP216 T01110067,PASI,2023-05-16T06:53:00Z,57.03,-135.35,11.1,6.7,110,5,,10.0,30.171259,1021.6,,,TRUE,,,,,,,CLR,,,,,,,,VFR,,,,,,,,,,,,METAR,2.0
PASC 160653Z 29012KT 9SM -SN OVC009 M04/M07 A3028 RMK AO2 SLP256 P0000 T10441067,PASC,2023-05-16T06:53:00Z,70.2,-148.47,-4.4,-6.7,290,12,,9.0,30.280512,1025.6,,,TRUE,,,,,,-SN,OVC,900,,,,,,,IFR,,,,,,0.005,,,,,,METAR,17.0
PAQT 160653Z AUTO 30009KT 10SM OVC010 M05/M07 A3031 RMK AO2 SLP266 T10501072 $,PAQT,2023-05-16T06:53:00Z,70.22,-151.0,-5.0,-7.2,300,9,,10.0,30.31004,1026.6,,TRUE,TRUE,TRUE,,,,,,OVC,1000,,,,,,,MVFR,,,,,,,,,,,,METAR,11.0
PAPB 160653Z AUTO 33012KT 10SM OVC044 47/M03 A2987 RMK AO2 SLP069 T04671028 TSNO $,PAPB,2023-05-16T06:53:00Z,56.58,-169.67,46.7,-2.8,330,12,,10.0,29.870079,1006.9,,TRUE,TRUE,TRUE,,TRUE,,,,OVC,4400,,,,,,,VFR,,,,,,,,,,,,SPECI,33.0
PAOT 160653Z 36012KT 10SM OVC065 M01/M02 A3007 RMK AO2 SLP184 T10061022 $,PAOT,2023-05-16T06:53:00Z,66.88,-162.6,-0.6,-2.2,360,12,,10.0,30.070866,1018.4,,,TRUE,TRUE,,,,,,OVC,6500,,,,,,,VFR,,,,,,,,,,,,METAR,3.0
PAOR 160653Z 00000KT 10SM FEW080 05/M02 A3016 RMK AO2 SLP226 T00501022,PAOR,2023-05-16T06:53:00Z,62.97,-141.93,5.0,-2.2,0,0,,10.0,30.159449,1022.6,,,TRUE,,,,,,,FEW,8000,,,,,,,VFR,,,,,,,,,,,,METAR,524.0
PANN 160653Z AUTO 19005KT 10SM OVC110 12/M03 A3006 RMK AO2 SLP185 T01171028 TSNO,PANN,2023-05-16T06:53:00Z,64.55,-149.08,11.7,-2.8,190,5,,10.0,30.059055,1018.5,,TRUE,TRUE,,,TRUE,,,,OVC,11000,,,,,,,VFR,,,,,,,,,,,,METAR,110.0
PANC 160653Z 14014G22KT 10SM FEW070 BKN100 OVC240 10/01 A3017 RMK AO2 PK WND 15027/0640 SLP217 T01000011,PANC,2023-05-16T06:53:00Z,61.17,-150.02,10.0,1.1,140,14,22,10.0,30.171259,1021.7,,,TRUE,,,,,,,FEW,7000,BKN,10000,OVC,24000,,,VFR,,,,,,,,,,,,METAR,39.0
PAMR 160653Z AUTO 35006KT 10SM BKN100 12/M01 A3017 RMK AO2 SLP219 T01221006 TSNO,PAMR,2023-05-16T06:53:00Z,61.22,-149.85,12.2,-0.6,350,6,,10.0,30.171259,1021.9,,TRUE,TRUE,,,TRUE,,,,BKN,10000,,,,,,,VFR,,,,,,,,,,,,METAR,43.0
PAMC 160653Z AUTO 23003KT 10SM SCT090 06/05 A2997 RMK AO2 SLP155 T00610050 TSNO,PAMC,2023-05-16T06:53:00Z,62.97,-155.62,6.1,5.0,230,3,,10.0,29.970472,1015.5,,TRUE,TRUE,,,TRUE,,,,SCT,9000,,,,,,,VFR,,,,,,,,,,,,METAR,101.0
PALH 160653Z 17009G16KT 10SM BKN100 11/01 A3018 RMK AO2 SLP220 T01060011,PALH,2023-05-16T06:53:00Z,61.18,-149.97,10.6,1.1,170,9,16,10.0,30.180119,1022.0,,,TRUE,,,,,,,BKN,10000,,,,,,,VFR,,,,,,,,,,,,METAR,26.0
PAKW 160653Z AUTO 00000KT 10SM CLR 13/06 A3008 RMK AO2 SLP186 T01330056 TSNO,PAKW,2023-05-16T06:53:00Z,55.58,-133.07,13.3,5.6,0,0,,10.0,30.079725,1018.6,,TRUE,TRUE,,,TRUE,,,,CLR,,,,,,,,VFR,,,,,,,,,,,,METAR,7.0
PAKV 160653Z AUTO 00000KT 1/4SM -RA FG OVC032 03/03 A3001 RMK AO2 SLP164 P0002 T00330033 TSNO,PAKV,2023-05-16T06:53:00Z,64.33,-158.72,3.3,3.3,0,0,,0.25,30.008858,1016.4,,TRUE,TRUE,,,TRUE,,,-RA FG,OVC,3200,,,,,,,LIFR,,,,,,0.02,,,,,,METAR,53.0
PAKT 160653Z AUTO 32007KT 10SM CLR 16/07 A3005 RMK AO2 SLP177 T01610072 TSNO,PAKT,2023-05-16T06:53:00Z,55.35,-131.72,16.1,7.2,320,7,,10.0,30.050198,1017.7,,TRUE,TRUE,,,TRUE,,,,CLR,,,,,,,,VFR,,,,,,,,,,,,METAR,27.0
PAJN 160653Z 00000KT 10SM FEW150 FEW220 08/03 A3020 RMK AO2 SLP226 T00830033,PAJN,2023-05-16T06:53:00Z,58.35,-134.55,8.3,3.3,0,0,,10.0,30.200787,1022.6,,,TRUE,,,,,,,FEW,15000,FEW,22000,,,,,VFR,,,,,,,,,,,,METAR,6.0
PAHO 160653Z AUTO 13010G17KT 10SM FEW049 SCT060 OVC120 11/02 A3015 RMK AO2 SLP211 T01060022 TSNO,PAHO,2023-05-16T06:53:00Z,59.63,-151.48,10.6,2.2,130,10,17,10.0,30.15059,1021.1,,TRUE,TRUE,,,TRUE,,,,FEW,4900,SCT,6000,OVC,12000,,,VFR,,,,,,,,,,,,METAR,6.0
PAGY 160653Z AUTO 00000KT 10SM CLR 10/02 A3022 RMK AO2 SLP233 T01000022 TSNO,PAGY,2023-05-16T06:53:00Z,59.47,-135.32,10.0,2.2,0,0,,10.0,30.221457,1023.3,,TRUE,TRUE,,,TRUE,,,,CLR,,,,,,,,VFR,,,,,,,,,,,,METAR,7.0
PAGK 160653Z AUTO 17009KT 10SM CLR 08/M04 A3024 RMK AO2 SLP249 T00781044 TSNO,PAGK,2023-05-16T06:53:00Z,62.15,-145.45,7.8,-4.4,170,9,,10.0,30.239174,1024.9,,TRUE,TRUE,,,TRUE,,,,CLR,,,,,,,,VFR,,,,,,,,,,,,METAR,481.0
PAFA 160653Z 22003KT 10SM BKN090 BKN130 BKN200 13/M03 A3009 RMK AO2 SLP194 T01281028 $,PAFA,2023-05-16T06:53:00Z,64.8,-147.87,12.8,-2.8,220,3,,10.0,30.088583,1019.4,,,TRUE,TRUE,,,,,,BKN,9000,BKN,13000,BKN,20000,,,VFR,,,,,,,,,,,,METAR,130.0
PAEN 160653Z AUTO 10004KT 10SM -RA OVC060 09/04 A3017 RMK AO2 RAB21 SLP220 P0000 T00890039 TSNO,PAEN,2023-05-16T06:53:00Z,60.57,-151.25,8.9,3.9,100,4,,10.0,30.171259,1022.0,,TRUE,TRUE,,,TRUE,,,-RA,OVC,6000,,,,,,,VFR,,,,,,0.005,,,,,,METAR,30.0
PAEG 160653Z AUTO 00000KT 10SM BKN120 10/M03 A3008 RMK AO2 SLP190 T01001028 TSNO,PAEG,2023-05-16T06:53:00Z,64.78,-141.15,10.0,-2.8,0,0,,10.0,30.079725,1019.0,,TRUE,TRUE,,,TRUE,,,,BKN,12000,,,,,,,VFR,,,,,,,,,,,,METAR,273.0
PADQ 160653Z AUTO 13011KT 10SM -RA OVC032 06/05 A3010 RMK AO2 SLP193 P0004 T00610050 TSNO,PADQ,2023-05-16T06:53:00Z,57.75,-152.5,6.1,5.0,130,11,,10.0,30.100393,1019.3,,TRUE,TRUE,,,TRUE,,,-RA,OVC,3200,,,,,,,VFR,,,,,,0.04,,,,,,METAR,5.0
PACV 160653Z 00000KT 10SM SCT090 SCT150 06/05 A3033 RMK AO2 SLP270 T00610050,PACV,2023-05-16T06:53:00Z,60.5,-145.47,6.1,5.0,0,0,,10.0,30.33071,1027.0,,,TRUE,,,,,,,SCT,9000,SCT,15000,,,,,VFR,,,,,,,,,,,,METAR,15.0
PACD 160653Z AUTO 26021G27KT 9SM -RA FEW014 BKN020 OVC031 02/M01 A2989 RMK AO2 PK WND 27036/0601 RAB39SNE39 SLP121 P0001 T00171006 TSNO,PACD,2023-05-16T06:53:00Z,55.22,-162.72,1.7,-0.6,260,21,27,9.0,29.890747,1012.1,,TRUE,TRUE,,,TRUE,,,-RA,FEW,1400,BKN,2000,OVC,3100,,,MVFR,,,,,,0.01,,,,,,METAR,23.0
PABR 160653Z AUTO 30012KT 10SM OVC014 M07/M11 A3029 RMK AO2 SLP259 T10721106 TSNO,PABR,2023-05-16T06:53:00Z,71.28,-156.78,-7.2,-10.6,300,12,,10.0,30.28937,1025.9,,TRUE,TRUE,,,TRUE,,,,OVC,1400,,,,,,,MVFR,,,,,,,,,,,,METAR,6.0
PABI 160653Z AUTO 21008KT 10SM CLR 11/M06 A3011 RMK AO2 SLP201 T01061061 TSNO,PABI,2023-05-16T06:53:00Z,64.0,-145.72,10.6,-6.1,210,8,,10.0,30.109253,1020.1,,TRUE,TRUE,,,TRUE,,,,CLR,,,,,,,,VFR,,,,,,,,,,,,METAR,388.0
PABE 160653Z 06007KT 10SM -RA OVC032 06/03 A2970 RMK AO2 SLP060 P0002 T00560033,PABE,2023-05-16T06:53:00Z,60.78,-161.83,5.6,3.3,60,7,,10.0,29.698818,1006.0,,,TRUE,,,,,,-RA,OVC,3200,,,,,,,VFR,,,,,,0.02,,,,,,METAR,28.0
PAAQ 160653Z AUTO 14020G25KT 10SM OVC100 12/M01 A3020 RMK AO2 PK WND 14032/0627 SLP228 T01221011 TSNO,PAAQ,2023-05-16T06:53:00Z,61.6,-149.08,12.2,-1.1,140,20,25,10.0,30.200787,1022.8,,TRUE,TRUE,,,TRUE,,,,OVC,10000,,,,,,,VFR,,,,,,,,,,,,METAR,68.0
MMMM 160653Z 00000KT 7SM SKC 12/06 A3029 RMK HZY,MMMM,2023-05-16T06:53:00Z,19.85,-101.03,12.0,6.0,0,0,,7.0,30.28937,,,,,,,,,,,SKC,,,,,,,,VFR,,,,,,,,,,,,METAR,1840.0
KZZV 160653Z AUTO 00000KT 10SM CLR 12/10 A3002 RMK AO2 SLP162 T01170100,KZZV,2023-05-16T06:53:00Z,39.95,-81.9,11.7,10.0,0,0,,10.0,30.02067,1016.2,,TRUE,TRUE,,,,,,,CLR,,,,,,,,VFR,,,,,,,,,,,,METAR,268.0
KYKM 160653Z AUTO 27004KT 10SM BKN110 18/11 A3002 RMK AO2 SLP159 T01830106,KYKM,2023-05-16T06:53:00Z,46.57,-120.53,18.3,10.6,270,4,,10.0,30.02067,1015.9,,TRUE,TRUE,,,,,,,BKN,11000,,,,,,,VFR,,,,,,,,,,,,METAR,319.0
KYIP 160653Z 22003KT 10SM CLR 11/04 A3000 RMK AO2 SLP154 T01110039,KYIP,2023-05-16T06:53:00Z,42.23,-83.53,11.1,3.9,220,3,,10.0,30.0,1015.4,,,TRUE,,,,,,,CLR,,,,,,,,VFR,,,,,,,,,,,,METAR,215.0
KWVI 160653Z AUTO 00000KT 8SM OVC003 12/12 A3008 RMK AO2 SLP186 T01220117,KWVI,2023-05-16T06:53:00Z,36.93,-121.78,12.2,11.7,0,0,,8.0,30.079725,1018.6,,TRUE,TRUE,,,,,,,OVC,300,,,,,,,LIFR,,,,,,,,,,,,METAR,47.0
KWST 160653Z AUTO 23003KT 10SM CLR 14/09 A2985 RMK AO2 SLP107 T01390089,KWST,2023-05-16T06:53:00Z,41.35,-71.8,13.9,8.9,230,3,,10.0,29.84941,1010.7,,TRUE,TRUE,,,,,,,CLR,,,,,,,,VFR,,,,,,,,,,,,METAR,20.0
KWRL 160653Z AUTO 12008KT 10SM FEW100 11/08 A3016 RMK AO2 SLP192 T01060078 402280067,KWRL,2023-05-16T06:53:00Z,43.97,-107.95,10.6,7.8,120,8,,10.0,30.159449,1019.2,,TRUE,TRUE,,,,,,,FEW,10000,,,,,,,VFR,,,,22.8,6.7,,,,,,,METAR,1281.0
KVRB 160653Z AUTO 24003KT 10SM CLR 21/18 A3004 RMK AO2 SLP170 T02110183,KVRB,2023-05-16T06:53:00Z,27.65,-80.42,21.1,18.3,240,3,,10.0,30.041338,1017.0,,TRUE,TRUE,,,,,,,CLR,,,,,,,,VFR,,,,,,,,,,,,METAR,7.0
KVLD 160653Z AUTO 00000KT 9SM BKN065 22/21 A3008 RMK AO1 SLP192 T02170206,KVLD,2023-05-16T06:53:00Z,30.78,-83.27,21.7,20.6,0,0,,9.0,30.079725,1019.2,,TRUE,TRUE,,,,,,,BKN,6500,,,,,,,VFR,,,,,,,,,,,,METAR,59.0
KVIH 160653Z AUTO 36004KT 5SM BR OVC002 18/18 A3003 RMK AO2 SLP160 T01830178,KVIH,2023-05-16T06:53:00Z,38.13,-91.77,18.3,17.8,360,4,,5.0,30.029528,1016.0,,TRUE,TRUE,,,,,,BR,OVC,200,,,,,,,LIFR,,,,,,,,,,,,METAR,342.0
KVGT 160653Z AUTO 02005KT 10SM CLR 29/03 A3001 RMK AO2 SLP152 T02940028,KVGT,2023-05-16T06:53:00Z,36.22,-115.2,29.4,2.8,20,5,,10.0,30.008858,1015.2,,TRUE,TRUE,,,,,,,CLR,,,,,,,,VFR,,,,,,,,,,,,METAR,664.0
KVEL 160653Z AUTO 30007KT 10SM CLR 12/04 A3031 RMK AO2 SLP216 T01170039 402560072,KVEL,2023-05-16T06:53:00Z,40.45,-109.52,11.7,3.9,300,7,,10.0,30.31004,1021.6,,TRUE,TRUE,,,,,,,CLR,,,,,,,,VFR,,,,25.6,7.2,,,,,,,METAR,1604.0
KVCB 160653Z AUTO 23004KT 10SM CLR 17/11 A3003 RMK AO2 SLP167 T01670111,KVCB,2023-05-16T06:53:00Z,38.38,-121.95,16.7,11.1,230,4,,10.0,30.029528,1016.7,,TRUE,TRUE,,,,,,,CLR,,,,,,,,VFR,,,,,,,,,,,,METAR,30.0
KUUU 160653Z AUTO 00000KT 10SM CLR 13/07 A2984 RMK AO2 SLP103 T01280072,KUUU,2023-05-16T06:53:00Z,41.53,-71.28,12.8,7.2,0,0,,10.0,29.840551,1010.3,,TRUE,TRUE,,,,,,,CLR,,,,,,,,VFR,,,,,,,,,,,,METAR,45.0
KUNO 160653Z AUTO 26006KT 10SM BKN003 OVC010 20/19 A3002 RMK AO2 SLP152 T02000194,KUNO,2023-05-16T06:53:00Z,36.88,-91.9,20.0,19.4,260,6,,10.0,30.02067,1015.2,,TRUE,TRUE,,,,,,,BKN,300,OVC,1000,,,,,LIFR,,,,,,,,,,,,METAR,376.0
KUIL 160653Z AUTO 19006KT 7SM OVC006 14/12 A3011 RMK AO2 SLP195 T01390117,KUIL,2023-05-16T06:53:00Z,47.93,-124.55,13.9,11.7,190,6,,7.0,30.109253,1019.5,,TRUE,TRUE,,,,,,,OVC,600,,,,,,,IFR,,,,,,,,,,,,METAR,58.0
KTYS 160653Z 23005KT 10SM FEW037 SCT250 19/19 A3006 RMK AO2 SLP168 T01940189,KTYS,2023-05-16T06:53:00Z,35.82,-83.98,19.4,18.9,230,5,,10.0,30.059055,1016.8,,,TRUE,,,,,,,FEW,3700,SCT,25000,,,,,VFR,,,,,,,,,,,,METAR,300.0
KTXK 160653Z AUTO 20005KT 10SM FEW095 24/21 RMK AO2 SLPNO T02390206 $,KTXK,2023-05-16T06:53:00Z,33.45,-93.98,23.9,20.6,200,5,,10.0,,,,TRUE,TRUE,TRUE,,,,,,FEW,9500,,,,,,,VFR,,,,,,,,,,,,METAR,118.0
KTWF 160653Z AUTO 21013KT 10SM FEW055 BKN090 OVC110 13/09 A3026 RMK AO2 SLP202 T01280089 402670072,KTWF,2023-05-16T06:53:00Z,42.48,-114.48,12.8,8.9,210,13,,10.0,30.259842,1020.2,,TRUE,TRUE,,,,,,,FEW,5500,BKN,9000,OVC,11000,,,VFR,,,,26.7,7.2,,,,,,,METAR,1269.0
KTVR 160653Z AUTO 00000KT 10SM CLR 23/22 A3004 RMK AO2 SLP176 T02330217,KTVR,2023-05-16T06:53:00Z,32.35,-91.03,23.3,21.7,0,0,,10.0,30.041338,1017.6,,TRUE,TRUE,,,,,,,CLR,,,,,,,,VFR,,,,,,,,,,,,METAR,25.0
KTVL 160653Z AUTO 17004KT 10SM CLR 06/02 A3033 RMK AO2 SLP237 T00560017,KTVL,2023-05-16T06:53:00Z,38.9,-120.0,5.6,1.7,170,4,,10.0,30.33071,1023.7,,TRUE,TRUE,,,,,,,CLR,,,,,,,,VFR,,,,,,,,,,,,METAR,1907.0
KTVC 160653Z AUTO 22011KT 10SM CLR 14/M03 A2991 RMK AO2 SLP127 T01441028,KTVC,2023-05-16T06:53:00Z,44.73,-85.58,14.4,-2.8,220,11,,10.0,29.911417,1012.7,,TRUE,TRUE,,,,,,,CLR,,,,,,,,VFR,,,,,,,,,,,,METAR,188.0
KTUS 160653Z 20006KT 10SM CLR 27/09 A3008 RMK AO2 RAB22E34 SLP136 P0000 T02670089 403500217,KTUS,2023-05-16T06:53:00Z,32.13,-110.95,26.7,8.9,200,6,,10.0,30.079725,1013.6,,,TRUE,,,,,,,CLR,,,,,,,,VFR,,,,35.0,21.7,0.005,,,,,,METAR,776.0
KTUP 160653Z AUTO 23003KT 10SM VCTS CLR 23/20 A3004 RMK AO2 LTG DSNT SW AND W SLP169 T02280200,KTUP,2023-05-16T06:53:00Z,34.27,-88.77,22.8,20.0,230,3,,10.0,30.041338,1016.9,,TRUE,TRUE,,,,,,VCTS,CLR,,,,,,,,VFR,,,,,,,,,,,,METAR,107.0
KTUL 160653Z 31008KT 10SM FEW008 OVC011 17/16 A3011 RMK AO2 SLP191 T01720161,KTUL,2023-05-16T06:53:00Z,36.2,-95.88,17.2,16.1,310,8,,10.0,30.109253,1019.1,,,TRUE,,,,,,,FEW,800,OVC,1100,,,,,MVFR,,,,,,,,,,,,METAR,196.0
KTTN 160653Z AUTO 24004KT 10SM CLR 14/08 A2994 RMK AO2 SLP131 T01390083,KTTN,2023-05-16T06:53:00Z,40.28,-74.82,13.9,8.3,240,4,,10.0,29.940945,1013.1,,TRUE,TRUE,,,,,,,CLR,,,,,,,,VFR,,,,,,,,,,,,METAR,58.0
KTTD 160653Z AUTO 00000KT 10SM CLR 19/13 A3007 RMK AO2 SLP181 T01890128,KTTD,2023-05-16T06:53:00Z,45.55,-122.42,18.9,12.8,0,0,,10.0,30.070866,1018.1,,TRUE,TRUE,,,,,,,CLR,,,,,,,,VFR,,,,,,,,,,,,METAR,8.0
KTRL 160653Z AUTO 16003KT 10SM CLR 20/18 A3010 RMK AO2 SLP187 T02000178 PNO $,KTRL,2023-05-16T06:53:00Z,32.72,-96.27,20.0,17.8,160,3,,10.0,30.100393,1018.7,,TRUE,TRUE,TRUE,,,,,,CLR,,,,,,,,VFR,,,,,,,,,,,,METAR,144.0
KTRI 160653Z 00000KT 10SM -RA OVC022 19/18 A3006 RMK AO2 RAE0556B44 SLP159 P0000 T01890183 $,KTRI,2023-05-16T06:53:00Z,36.48,-82.4,18.9,18.3,0,0,,10.0,30.059055,1015.9,,,TRUE,TRUE,,,,,-RA,OVC,2200,,,,,,,MVFR,,,,,,0.005,,,,,,METAR,456.0
KTPA 160653Z 12004KT 10SM CLR 24/18 A3006 RMK AO2 SLP179 T02440183 $,KTPA,2023-05-16T06:53:00Z,27.97,-82.53,24.4,18.3,120,4,,10.0,30.059055,1017.9,,,TRUE,TRUE,,,,,,CLR,,,,,,,,VFR,,,,,,,,,,,,METAR,2.0
KTOR 160653Z AUTO 10007KT 10SM CLR 10/08 A3018 RMK AO2 SLP201 T01000083 401890089,KTOR,2023-05-16T06:53:00Z,42.07,-104.15,10.0,8.3,100,7,,10.0,30.180119,1020.1,,TRUE,TRUE,,,,,,,CLR,,,,,,,,VFR,,,,18.9,8.9,,,,,,,METAR,1285.0
KTOP 160653Z AUTO A3012 RMK AO2 SLPNO PWINO,KTOP,2023-05-16T06:53:00Z,39.07,-95.63,,,,,,,30.121063,,,TRUE,TRUE,,,,,TRUE,,,,,,,,,,,,,,,,,,,,,,METAR,268.0
KTOI 160653Z AUTO 00000KT 10SM CLR 22/19 A3007 RMK AO2 SLP175 T02220194 $,KTOI,2023-05-16T06:53:00Z,31.85,-86.02,22.2,19.4,0,0,,10.0,30.070866,1017.5,,TRUE,TRUE,TRUE,,,,,,CLR,,,,,,,,VFR,,,,,,,,,,,,METAR,120.0
KTLH 160653Z AUTO 00000KT 10SM BKN085 22/22 A3006 RMK AO2 SLP178 T02220217 $,KTLH,2023-05-16T06:53:00Z,30.4,-84.35,22.2,21.7,0,0,,10.0,30.059055,1017.8,,TRUE,TRUE,TRUE,,,,,,BKN,8500,,,,,,,VFR,,,,,,,,,,,,METAR,17.0
KTIW 160653Z AUTO 23008KT 8SM -RA FEW060 BKN090 OVC110 14/12 A3008 RMK AO2 LTG DSNT SE RAB50 SLP184 P0001 T01440117,KTIW,2023-05-16T06:53:00Z,47.27,-122.58,14.4,11.7,230,8,,8.0,30.079725,1018.4,,TRUE,TRUE,,,,,,-RA,FEW,6000,BKN,9000,OVC,11000,,,VFR,,,,,,0.01,,,,,,METAR,89.0
KTDZ 160653Z AUTO 00000KT 10SM CLR 12/02 A3002 RMK AO2 SLP162 T01220017,KTDZ,2023-05-16T06:53:00Z,41.57,-83.48,12.2,1.7,0,0,,10.0,30.02067,1016.2,,TRUE,TRUE,,,,,,,CLR,,,,,,,,VFR,,,,,,,,,,,,METAR,189.0
KTCS 160653Z AUTO 18007KT 10SM BKN070 OVC100 21/08 A3027 RMK AO2 SLP175 T02060078 402670144,KTCS,2023-05-16T06:53:00Z,33.23,-107.27,20.6,7.8,180,7,,10.0,30.268702,1017.5,,TRUE,TRUE,,,,,,,BKN,7000,OVC,10000,,,,,VFR,,,,26.7,14.4,,,,,,,METAR,1471.0
KTCL 160653Z AUTO 00000KT 10SM CLR 21/19 A3005 RMK AO2 SLP173 T02060189,KTCL,2023-05-16T06:53:00Z,33.22,-87.62,20.6,18.9,0,0,,10.0,30.050198,1017.3,,TRUE,TRUE,,,,,,,CLR,,,,,,,,VFR,,,,,,,,,,,,METAR,48.0
KSWO 160653Z 32007KT 10SM OVC012 17/15 A3015 RMK AO2 SLP200 T01670150,KSWO,2023-05-16T06:53:00Z,36.17,-97.08,16.7,15.0,320,7,,10.0,30.15059,1020.0,,,TRUE,,,,,,,OVC,1200,,,,,,,MVFR,,,,,,,,,,,,METAR,293.0
KSTS 160653Z AUTO 00000KT 10SM BKN008 12/10 A3009 RMK AO2 SLP182 T01170100,KSTS,2023-05-16T06:53:00Z,38.5,-122.82,11.7,10.0,0,0,,10.0,30.088583,1018.2,,TRUE,TRUE,,,,,,,BKN,800,,,,,,,IFR,,,,,,,,,,,,METAR,35.0
KSTP 160653Z AUTO 00000KT 10SM CLR 15/09 A3006 RMK AO2 SLP176 T01500094,KSTP,2023-05-16T06:53:00Z,44.93,-93.05,15.0,9.4,0,0,,10.0,30.059055,1017.6,,TRUE,TRUE,,,,,,,CLR,,,,,,,,VFR,,,,,,,,,,,,METAR,213.0
KSTC 160653Z AUTO 17003KT 10SM CLR 13/07 A3004 RMK AO2 SLP180 T01280067,KSTC,2023-05-16T06:53:00Z,45.55,-94.05,12.8,6.7,170,3,,10.0,30.041338,1018.0,,TRUE,TRUE,,,,,,,CLR,,,,,,,,VFR,,,,,,,,,,,,METAR,302.0
KSSI 160653Z AUTO 08003KT 10SM CLR 23/21 A3006 RMK AO2 SLP179 T02330211,KSSI,2023-05-16T06:53:00Z,31.15,-81.38,23.3,21.1,80,3,,10.0,30.059055,1017.9,,TRUE,TRUE,,,,,,,CLR,,,,,,,,VFR,,,,,,,,,,,,METAR,6.0
KSSF 160653Z AUTO 00000KT 10SM CLR 21/ RMK AO2 SLPNO T0206 $,KSSF,2023-05-16T06:53:00Z,29.33,-98.47,20.6,,0,0,,10.0,,,,TRUE,TRUE,TRUE,,,,,,CLR,,,,,,,,VFR,,,,,,,,,,,,METAR,175.0
KSRQ 160653Z AUTO 08007KT 10SM CLR 23/17 A3002 RMK AO2 SLP166 T02330172,KSRQ,2023-05-16T06:53:00Z,27.4,-82.57,23.3,17.2,80,7,,10.0,30.02067,1016.6,,TRUE,TRUE,,,,,,,CLR,,,,,,,,VFR,,,,,,,,,,,,METAR,5.0
KSPW 160653Z AUTO 29005KT 10SM CLR 10/07 A3014 RMK AO2 SLP208 T01000067,KSPW,2023-05-16T06:53:00Z,43.17,-95.22,10.0,6.7,290,5,,10.0,30.138779,1020.8,,TRUE,TRUE,,,,,,,CLR,,,,,,,,VFR,,,,,,,,,,,,METAR,407.0
KSPG 160653Z AUTO 11011KT 10SM CLR 25/20 A3004 RMK AO2 SLP171 T02500200 $,KSPG,2023-05-16T06:53:00Z,27.77,-82.63,25.0,20.0,110,11,,10.0,30.041338,1017.1,,TRUE,TRUE,TRUE,,,,,,CLR,,,,,,,,VFR,,,,,,,,,,,,METAR,1.0
KSPB 160653Z AUTO 14003KT 10SM CLR 15/13 A3007 RMK AO2 SLP181 T01500128,KSPB,2023-05-16T06:53:00Z,45.77,-122.87,15.0,12.8,140,3,,10.0,30.070866,1018.1,,TRUE,TRUE,,,,,,,CLR,,,,,,,,VFR,,,,,,,,,,,,METAR,15.0
KSNY 160653Z AUTO 20006KT 10SM CLR 08/06 A3023 RMK AO2 SLP219 T00780061 401720067,KSNY,2023-05-16T06:53:00Z,41.1,-102.98,7.8,6.1,200,6,,10.0,30.230314,1021.9,,TRUE,TRUE,,,,,,,CLR,,,,,,,,VFR,,,,17.2,6.7,,,,,,,METAR,1307.0
KSNS 160653Z AUTO 30006KT 8SM OVC003 14/11 A3008 RMK AO2 SLP194 T01390111,KSNS,2023-05-16T06:53:00Z,36.67,-121.6,13.9,11.1,300,6,,8.0,30.079725,1019.4,,TRUE,TRUE,,,,,,,OVC,300,,,,,,,LIFR,,,,,,,,,,,,METAR,20.0
KSNA 160653Z AUTO 00000KT 10SM OVC013 18/14 A3004 RMK AO2 SLP171 T01780139,KSNA,2023-05-16T06:53:00Z,33.67,-117.87,17.8,13.9,0,0,,10.0,30.041338,1017.1,,TRUE,TRUE,,,,,,,OVC,1300,,,,,,,MVFR,,,,,,,,,,,,METAR,14.0
KSMQ 160653Z AUTO 31003KT 10SM CLR 07/05 A2992 RMK AO2 SLP132 T00720050,KSMQ,2023-05-16T06:53:00Z,40.62,-74.67,7.2,5.0,310,3,,10.0,29.920275,1013.2,,TRUE,TRUE,,,,,,,CLR,,,,,,,,VFR,,,,,,,,,,,,METAR,30.0
KSMF 160653Z 16008KT 10SM CLR 17/13 A3001 RMK AO2 SLP162 T01720128,KSMF,2023-05-16T06:53:00Z,38.7,-121.6,17.2,12.8,160,8,,10.0,30.008858,1016.2,,,TRUE,,,,,,,CLR,,,,,,,,VFR,,,,,,,,,,,,METAR,7.0
KSLN 160653Z AUTO 34008KT 9SM FEW013 OVC024 13/11 A3018 RMK AO2 SLP217 T01330111,KSLN,2023-05-16T06:53:00Z,38.8,-97.65,13.3,11.1,340,8,,9.0,30.180119,1021.7,,TRUE,TRUE,,,,,,,FEW,1300,OVC,2400,,,,,MVFR,,,,,,,,,,,,METAR,377.0
KSIY 160653Z AUTO 03006KT 10SM CLR 12/07 A3015 RMK AO2 SLP201 T01220067,KSIY,2023-05-16T06:53:00Z,41.77,-122.47,12.2,6.7,30,6,,10.0,30.15059,1020.1,,TRUE,TRUE,,,,,,,CLR,,,,,,,,VFR,,,,,,,,,,,,METAR,807.0
KSHR 160653Z AUTO 22003KT 10SM CLR 11/08 A3013 RMK AO2 SLP184 T01110078 402330072,KSHR,2023-05-16T06:53:00Z,44.77,-106.97,11.1,7.8,220,3,,10.0,30.129921,1018.4,,TRUE,TRUE,,,,,,,CLR,,,,,,,,VFR,,,,23.3,7.2,,,,,,,METAR,1212.0
KSGR 160653Z AUTO 02003KT 10SM CLR 22/21 A3008 RMK AO2 SLP187 T02220211,KSGR,2023-05-16T06:53:00Z,29.62,-95.65,22.2,21.1,20,3,,10.0,30.079725,1018.7,,TRUE,TRUE,,,,,,,CLR,,,,,,,,VFR,,,,,,,,,,,,METAR,22.0
KSFF 160653Z AUTO 05003KT 10SM BKN090 18/12 A3007 RMK AO2 LTG DSNT SE SLP168 T01780122,KSFF,2023-05-16T06:53:00Z,47.68,-117.32,17.8,12.2,50,3,,10.0,30.070866,1016.8,,TRUE,TRUE,,,,,,,BKN,9000,,,,,,,VFR,,,,,,,,,,,,METAR,593.0
KSFB 160653Z AUTO 00000KT 10SM CLR 21/18 A3005 RMK AO2 SLP176 T02110183,KSFB,2023-05-16T06:53:00Z,28.77,-81.23,21.1,18.3,0,0,,10.0,30.050198,1017.6,,TRUE,TRUE,,,,,,,CLR,,,,,,,,VFR,,,,,,,,,,,,METAR,16.0
KSEG 160653Z AUTO 00000KT 10SM CLR 06/05 A2997 RMK AO2 SLP149 T00610050,KSEG,2023-05-16T06:53:00Z,40.82,-76.87,6.1,5.0,0,0,,10.0,29.970472,1014.9,,TRUE,TRUE,,,,,,,CLR,,,,,,,,VFR,,,,,,,,,,,,METAR,136.0
KSEA 160653Z 00000KT 10SM BKN120 14/12 A3009 RMK AO2 RAE32 SLP193 P0012 T01440122,KSEA,2023-05-16T06:53:00Z,47.45,-122.32,14.4,12.2,0,0,,10.0,30.088583,1019.3,,,TRUE,,,,,,,BKN,12000,,,,,,,VFR,,,,,,0.12,,,,,,METAR,115.0
KSDL 160653Z AUTO 16003KT 10SM CLR 31/08 A2998 RMK AO2 SLP122 T03060078 403720250,KSDL,2023-05-16T06:53:00Z,33.62,-111.92,30.6,7.8,160,3,,10.0,29.97933,1012.2,,TRUE,TRUE,,,,,,,CLR,,,,,,,,VFR,,,,37.2,25.0,,,,,,,METAR,438.0
KSBM 160653Z AUTO 27006KT 7SM CLR 12/04 A2999 RMK AO2 SLP156 T01220044,KSBM,2023-05-16T06:53:00Z,43.78,-87.85,12.2,4.4,270,6,,7.0,29.991142,1015.6,,TRUE,TRUE,,,,,,,CLR,,,,,,,,VFR,,,,,,,,,,,,METAR,225.0
KSBA 160653Z AUTO 23003KT 6SM BR OVC006 14/12 A3006 RMK AO2 SLP180 T01390122,KSBA,2023-05-16T06:53:00Z,34.43,-119.85,13.9,12.2,230,3,,6.0,30.059055,1018.0,,TRUE,TRUE,,,,,,BR,OVC,600,,,,,,,IFR,,,,,,,,,,,,METAR,2.0
KSAV 160653Z AUTO 35003KT 10SM CLR 19/17 A3008 RMK AO2 SLP186 T01940172,KSAV,2023-05-16T06:53:00Z,32.12,-81.2,19.4,17.2,350,3,,10.0,30.079725,1018.6,,TRUE,TRUE,,,,,,,CLR,,,,,,,,VFR,,,,,,,,,,,,METAR,10.0
KSAF 160653Z AUTO 00000KT 10SM CLR 11/07 A3037 RMK AO2 SLP208 T01060067 402170072,KSAF,2023-05-16T06:53:00Z,35.62,-106.1,10.6,6.7,0,0,,10.0,30.369095,1020.8,,TRUE,TRUE,,,,,,,CLR,,,,,,,,VFR,,,,21.7,7.2,,,,,,,METAR,1918.0
KSAC 160653Z AUTO 20003KT 10SM CLR 16/12 A3002 RMK AO2 SLP165 T01610122,KSAC,2023-05-16T06:53:00Z,38.5,-121.5,16.1,12.2,200,3,,10.0,30.02067,1016.5,,TRUE,TRUE,,,,,,,CLR,,,,,,,,VFR,,,,,,,,,,,,METAR,5.0
KRXE 160653Z AUTO 00000KT 10SM CLR 12/08 A3027 RMK AO2 SLP221 T01220078 402220089,KRXE,2023-05-16T06:53:00Z,43.83,-111.8,12.2,7.8,0,0,,10.0,30.268702,1022.1,,TRUE,TRUE,,,,,,,CLR,,,,,,,,VFR,,,,22.2,8.9,,,,,,,METAR,1483.0
KRWL 160653Z AUTO 24012KT 10SM CLR 11/03 A3033 RMK AO2 SLP196 T01110028 402170050,KRWL,2023-05-16T06:53:00Z,41.8,-107.2,11.1,2.8,240,12,,10.0,30.33071,1019.6,,TRUE,TRUE,,,,,,,CLR,,,,,,,,VFR,,,,21.7,5.0,,,,,,,METAR,2066.0
KRWI 160653Z AUTO 18003KT 10SM OVC070 18/12 A3009 RMK AO2 SLP187 T01780117,KRWI,2023-05-16T06:53:00Z,35.85,-77.9,17.8,11.7,180,3,,10.0,30.088583,1018.7,,TRUE,TRUE,,,,,,,OVC,7000,,,,,,,VFR,,,,,,,,,,,,METAR,46.0
KRWF 160653Z AUTO 26007KT 10SM CLR 13/08 A3009 RMK AO2 SLP188 T01330083 $,KRWF,2023-05-16T06:53:00Z,44.55,-95.08,13.3,8.3,260,7,,10.0,30.088583,1018.8,,TRUE,TRUE,TRUE,,,,,,CLR,,,,,,,,VFR,,,,,,,,,,,,METAR,312.0
KRVS 160653Z AUTO 10SM BKN012 OVC018 17/15 A3011 RMK AO2 SLP200 T01720150,KRVS,2023-05-16T06:53:00Z,36.05,-95.98,17.2,15.0,,,,10.0,30.109253,1020.0,,TRUE,TRUE,,,,,,,BKN,1200,OVC,1800,,,,,MVFR,,,,,,,,,,,,METAR,191.0
KRUE 160653Z AUTO 00000KT 10SM CLR 21/19 A3003 RMK AO2 SLP162 T02060194,KRUE,2023-05-16T06:53:00Z,35.25,-93.1,20.6,19.4,0,0,,10.0,30.029528,1016.2,,TRUE,TRUE,,,,,,,CLR,,,,,,,,VFR,,,,,,,,,,,,METAR,119.0
KRTN 160653Z AUTO 23008KT 10SM BKN037 11/07 A3037 RMK AO2 SLP216 T01110072 402170089 $,KRTN,2023-05-16T06:53:00Z,36.73,-104.5,11.1,7.2,230,8,,10.0,30.369095,1021.6,,TRUE,TRUE,TRUE,,,,,,BKN,3700,,,,,,,VFR,,,,21.7,8.9,,,,,,,METAR,1939.0
KRSW 160653Z AUTO 09003KT 10SM FEW034 22/21 A3004 RMK AO2 SLP168 T02220206,KRSW,2023-05-16T06:53:00Z,26.53,-81.75,22.2,20.6,90,3,,10.0,30.041338,1016.8,,TRUE,TRUE,,,,,,,FEW,3400,,,,,,,VFR,,,,,,,,,,,,METAR,8.0
KRQE 160653Z AUTO 00000KT 10SM CLR 07/04 A3037 RMK AO2 SLP203 T00670039 402110039,KRQE,2023-05-16T06:53:00Z,35.65,-109.07,6.7,3.9,0,0,,10.0,30.369095,1020.3,,TRUE,TRUE,,,,,,,CLR,,,,,,,,VFR,,,,21.1,3.9,,,,,,,METAR,2056.0
KRNT 160653Z AUTO 00000KT 10SM SCT090 OVC110 18/13 A3008 RMK AO2 RAE17 SLP190 P0000 T01830133 $,KRNT,2023-05-16T06:53:00Z,47.5,-122.22,18.3,13.3,0,0,,10.0,30.079725,1019.0,,TRUE,TRUE,TRUE,,,,,,SCT,9000,OVC,11000,,,,,VFR,,,,,,0.005,,,,,,METAR,7.0
KRME 160653Z AUTO 00000KT 10SM CLR 07/02 A2989 RMK AO2 SLP119 T00720022,KRME,2023-05-16T06:53:00Z,43.22,-75.4,7.2,2.2,0,0,,10.0,29.890747,1011.9,,TRUE,TRUE,,,,,,,CLR,,,,,,,,VFR,,,,,,,,,,,,METAR,146.0
KRIW 160653Z AUTO 29006KT 10SM CLR 11/07 A3025 RMK AO2 SLP207 T01060072 402170078,KRIW,2023-05-16T06:53:00Z,43.07,-108.43,10.6,7.2,290,6,,10.0,30.250984,1020.7,,TRUE,TRUE,,,,,,,CLR,,,,,,,,VFR,,,,21.7,7.8,,,,,,,METAR,1662.0
KRIL 160653Z AUTO 13008KT 10SM BKN110 12/06 A3033 RMK AO2 SLP215 T01170056 402500061,KRIL,2023-05-16T06:53:00Z,39.53,-107.73,11.7,5.6,130,8,,10.0,30.33071,1021.5,,TRUE,TRUE,,,,,,,BKN,11000,,,,,,,VFR,,,,25.0,6.1,,,,,,,METAR,1683.0
KRHI 160653Z AUTO 27008KT 10SM CLR 11/03 A2998 RMK AO2 SLP150 T01110028,KRHI,2023-05-16T06:53:00Z,45.63,-89.48,11.1,2.8,270,8,,10.0,29.97933,1015.0,,TRUE,TRUE,,,,,,,CLR,,,,,,,,VFR,,,,,,,,,,,,METAR,493.0
KRDD 160653Z AUTO 33003KT 10SM CLR 20/12 A3003 RMK AO2 SLP165 T02000122,KRDD,2023-05-16T06:53:00Z,40.52,-122.3,20.0,12.2,330,3,,10.0,30.029528,1016.5,,TRUE,TRUE,,,,,,,CLR,,,,,,,,VFR,,,,,,,,,,,,METAR,152.0
KRBG 160653Z AUTO VRB06KT 10SM CLR 17/11 A3009 RMK AO2 SLP184 T01720111,KRBG,2023-05-16T06:53:00Z,43.23,-123.35,17.2,11.1,0,6,,10.0,30.088583,1018.4,,TRUE,TRUE,,,,,,,CLR,,,,,,,,VFR,,,,,,,,,,,,METAR,152.0
KRAL 160653Z AUTO 9SM CLR 16/13 A3005 RMK AO2 SLP161 T01610128,KRAL,2023-05-16T06:53:00Z,33.95,-117.45,16.1,12.8,,,,9.0,30.050198,1016.1,,TRUE,TRUE,,,,,,,CLR,,,,,,,,VFR,,,,,,,,,,,,METAR,254.0
KRAC 160653Z AUTO 27006KT 10SM CLR 13/M01 A3004 RMK AO2 SLP173 T01281006,KRAC,2023-05-16T06:53:00Z,42.77,-87.82,12.8,-0.6,270,6,,10.0,30.041338,1017.3,,TRUE,TRUE,,,,,,,CLR,,,,,,,,VFR,,,,,,,,,,,,METAR,203.0
KPUW 160653Z AUTO 00000KT 10SM FEW120 15/13 A3011 RMK AO2 RAE12 SLP184 P0000 T01500128,KPUW,2023-05-16T06:53:00Z,46.75,-117.12,15.0,12.8,0,0,,10.0,30.109253,1018.4,,TRUE,TRUE,,,,,,,FEW,12000,,,,,,,VFR,,,,,,0.005,,,,,,METAR,774.0
KPUC 160653Z AUTO 21003KT 10SM CLR 11/05 A3033 RMK AO2 SLP230 T01110050 402220078,KPUC,2023-05-16T06:53:00Z,39.62,-110.75,11.1,5.0,210,3,,10.0,30.33071,1023.0,,TRUE,TRUE,,,,,,,CLR,,,,,,,,VFR,,,,22.2,7.8,,,,,,,METAR,1777.0
KPUB 160653Z AUTO 04007KT 10SM CLR 12/09 A3029 RMK AO2 SLP217 T01170089 402170100,KPUB,2023-05-16T06:53:00Z,38.28,-104.5,11.7,8.9,40,7,,10.0,30.28937,1021.7,,TRUE,TRUE,,,,,,,CLR,,,,,,,,VFR,,,,21.7,10.0,,,,,,,METAR,1441.0
KPTK 160653Z AUTO 25003KT 10SM CLR 11/02 A2999 RMK AO2 SLP153 T01110017,KPTK,2023-05-16T06:53:00Z,42.67,-83.42,11.1,1.7,250,3,,10.0,29.991142,1015.3,,TRUE,TRUE,,,,,,,CLR,,,,,,,,VFR,,,,,,,,,,,,METAR,295.0
KPSX 160653Z AUTO 15005KT 10SM CLR 24/23 A3007 RMK AO2 SLP180 T02440228 $,KPSX,2023-05-16T06:53:00Z,28.72,-96.25,24.4,22.8,150,5,,10.0,30.070866,1018.0,,TRUE,TRUE,TRUE,,,,,,CLR,,,,,,,,VFR,,,,,,,,,,,,METAR,4.0
KPSP 160653Z AUTO 32009KT 10SM CLR 29/09 A2994 RMK AO2 SLP134 T02890094,KPSP,2023-05-16T06:53:00Z,33.82,-116.5,28.9,9.4,320,9,,10.0,29.940945,1013.4,,TRUE,TRUE,,,,,,,CLR,,,,,,,,VFR,,,,,,,,,,,,METAR,123.0
KPSC 160653Z AUTO 21009KT 10SM CLR 23/11 A3000 RMK AO2 SLP156 T02330111,KPSC,2023-05-16T06:53:00Z,46.27,-119.12,23.3,11.1,210,9,,10.0,30.0,1015.6,,TRUE,TRUE,,,,,,,CLR,,,,,,,,VFR,,,,,,,,,,,,METAR,121.0
KPRC 160653Z AUTO 21003KT 10SM FEW120 16/09 A3025 RMK AO2 SLP168 T01560094 402670122,KPRC,2023-05-16T06:53:00Z,34.65,-112.42,15.6,9.4,210,3,,10.0,30.250984,1016.8,,TRUE,TRUE,,,,,,,FEW,12000,,,,,,,VFR,,,,26.7,12.2,,,,,,,METAR,1528.0
KPRB 160653Z AUTO 29006KT 10SM CLR 16/11 A3004 RMK AO2 SLP166 T01560106,KPRB,2023-05-16T06:53:00Z,35.67,-120.63,15.6,10.6,290,6,,10.0,30.041338,1016.6,,TRUE,TRUE,,,,,,,CLR,,,,,,,,VFR,,,,,,,,,,,,METAR,249.0
KPQL 160653Z AUTO 00000KT 7SM CLR 20/19 A3004 RMK AO2 SLP173 T02000194,KPQL,2023-05-16T06:53:00Z,30.47,-88.53,20.0,19.4,0,0,,7.0,30.041338,1017.3,,TRUE,TRUE,,,,,,,CLR,,,,,,,,VFR,,,,,,,,,,,,METAR,4.0
KPOU 160653Z AUTO 13005KT 10SM CLR 10/04 A2986 RMK AO2 SLP110 T01000044,KPOU,2023-05-16T06:53:00Z,41.63,-73.88,10.0,4.4,130,5,,10.0,29.861221,1011.0,,TRUE,TRUE,,,,,,,CLR,,,,,,,,VFR,,,,,,,,,,,,METAR,45.0
KPOF 160653Z AUTO 01003KT 10SM FEW070 SCT090 21/19 A2997 RMK AO2 SLP145 T02110194,KPOF,2023-05-16T06:53:00Z,36.77,-90.32,21.1,19.4,10,3,,10.0,29.970472,1014.5,,TRUE,TRUE,,,,,,,FEW,7000,SCT,9000,,,,,VFR,,,,,,,,,,,,METAR,99.0
KPNS 160653Z AUTO 08003KT 10SM CLR 23/20 A3005 RMK AO2 SLP176 T02330200,KPNS,2023-05-16T06:53:00Z,30.48,-87.18,23.3,20.0,80,3,,10.0,30.050198,1017.6,,TRUE,TRUE,,,,,,,CLR,,,,,,,,VFR,,,,,,,,,,,,METAR,34.0
KPNC 160653Z AUTO 33010KT 10SM OVC011 15/13 A3015 RMK AO2 SLP203 T01500128,KPNC,2023-05-16T06:53:00Z,36.73,-97.1,15.0,12.8,330,10,,10.0,30.15059,1020.3,,TRUE,TRUE,,,,,,,OVC,1100,,,,,,,MVFR,,,,,,,,,,,,METAR,304.0
KPMP 160653Z AUTO 35004KT 10SM CLR 23/19 A3001 RMK AO2 SLP163 T02330189,KPMP,2023-05-16T06:53:00Z,26.25,-80.12,23.3,18.9,350,4,,10.0,30.008858,1016.3,,TRUE,TRUE,,,,,,,CLR,,,,,,,,VFR,,,,,,,,,,,,METAR,4.0
KPMD 160653Z AUTO 21004KT 10SM CLR 20/00 A3008 RMK AO2 SLP159 T02000000,KPMD,2023-05-16T06:53:00Z,34.63,-118.08,20.0,0.0,210,4,,10.0,30.079725,1015.9,,TRUE,TRUE,,,,,,,CLR,,,,,,,,VFR,,,,,,,,,,,,METAR,764.0
KPKD 160653Z AUTO 27005KT 10SM CLR 11/05 A3003 RMK AO2 SLP167 T01060050,KPKD,2023-05-16T06:53:00Z,46.9,-95.07,10.6,5.0,270,5,,10.0,30.029528,1016.7,,TRUE,TRUE,,,,,,,CLR,,,,,,,,VFR,,,,,,,,,,,,METAR,439.0
KPKB 160653Z AUTO A3003 RMK AO2 SLPNO PWINO $,KPKB,2023-05-16T06:53:00Z,39.35,-81.43,,,,,,,30.029528,,,TRUE,TRUE,TRUE,,,,TRUE,,,,,,,,,,,,,,,,,,,,,,METAR,245.0
KPIR 160653Z AUTO 25003KT 10SM CLR 13/06 A3016 RMK AO2 SLP209 T01280061,KPIR,2023-05-16T06:53:00Z,44.38,-100.28,12.8,6.1,250,3,,10.0,30.159449,1020.9,,TRUE,TRUE,,,,,,,CLR,,,,,,,,VFR,,,,,,,,,,,,METAR,524.0
KPIL 160653Z AUTO 06004KT 10SM FEW100 24/23 A3006 RMK AO2 SLP178 T02390228,KPIL,2023-05-16T06:53:00Z,26.17,-97.33,23.9,22.8,60,4,,10.0,30.059055,1017.8,,TRUE,TRUE,,,,,,,FEW,10000,,,,,,,VFR,,,,,,,,,,,,METAR,5.0
KPIH 160653Z 34009KT 10SM CLR 11/09 A3025 RMK AO2 SLP209 T01110089 402500094,KPIH,2023-05-16T06:53:00Z,42.92,-112.57,11.1,8.9,340,9,,10.0,30.250984,1020.9,,,TRUE,,,,,,,CLR,,,,,,,,VFR,,,,25.0,9.4,,,,,,,METAR,1357.0
KPIE 160653Z AUTO 13008KT 10SM CLR 24/19 A3005 RMK AO2 SLP176 T02390189,KPIE,2023-05-16T06:53:00Z,27.92,-82.68,23.9,18.9,130,8,,10.0,30.050198,1017.6,,TRUE,TRUE,,,,,,,CLR,,,,,,,,VFR,,,,,,,,,,,,METAR,1.0
KPHD 160653Z AUTO 00000KT 10SM CLR 10/07 A3002 RMK AO2 SLP165 T01000072,KPHD,2023-05-16T06:53:00Z,40.47,-81.42,10.0,7.2,0,0,,10.0,30.02067,1016.5,,TRUE,TRUE,,,,,,,CLR,,,,,,,,VFR,,,,,,,,,,,,METAR,272.0
KPGD 160653Z AUTO 07004KT 10SM CLR 21/20 A3005 RMK AO2 SLP176 T02110200,KPGD,2023-05-16T06:53:00Z,26.92,-82.0,21.1,20.0,70,4,,10.0,30.050198,1017.6,,TRUE,TRUE,,,,,,,CLR,,,,,,,,VFR,,,,,,,,,,,,METAR,7.0
KPGA 160653Z AUTO 00000KT 10SM FEW100 22/06 A3022 RMK AO2 SLP171 T02220056 403000150,KPGA,2023-05-16T06:53:00Z,36.92,-111.45,22.2,5.6,0,0,,10.0,30.221457,1017.1,,TRUE,TRUE,,,,,,,FEW,10000,,,,,,,VFR,,,,30.0,15.0,,,,,,,METAR,1310.0
KPEO 160653Z AUTO 21011KT 10SM CLR 14/02 A2992 RMK AO2 SLP128 T01390017,KPEO,2023-05-16T06:53:00Z,42.65,-77.05,13.9,1.7,210,11,,10.0,29.920275,1012.8,,TRUE,TRUE,,,,,,,CLR,,,,,,,,VFR,,,,,,,,,,,,METAR,268.0
KPDX 160653Z 29003KT 10SM SCT180 BKN250 17/13 A3008 RMK AO2 SLP184 T01720128,KPDX,2023-05-16T06:53:00Z,45.6,-122.62,17.2,12.8,290,3,,10.0,30.079725,1018.4,,,TRUE,,,,,,,SCT,18000,BKN,25000,,,,,VFR,,,,,,,,,,,,METAR,7.0
KPDT 160653Z AUTO 15007KT 10SM CLR 17/12 A3008 RMK AO2 SLP170 T01720117,KPDT,2023-05-16T06:53:00Z,45.7,-118.83,17.2,11.7,150,7,,10.0,30.079725,1017.0,,TRUE,TRUE,,,,,,,CLR,,,,,,,,VFR,,,,,,,,,,,,METAR,453.0
KPDK 160653Z AUTO 16004KT 10SM FEW023 22/19 A3007 RMK AO2 SLP168 T02170189,KPDK,2023-05-16T06:53:00Z,33.88,-84.3,21.7,18.9,160,4,,10.0,30.070866,1016.8,,TRUE,TRUE,,,,,,,FEW,2300,,,,,,,VFR,,,,,,,,,,,,METAR,299.0
KPBI 160653Z 30003KT 10SM FEW250 22/21 A3003 RMK AO2 SLP168 T02220206,KPBI,2023-05-16T06:53:00Z,26.68,-80.1,22.2,20.6,300,3,,10.0,30.029528,1016.8,,,TRUE,,,,,,,FEW,25000,,,,,,,VFR,,,,,,,,,,,,METAR,4.0
KPBG 160653Z AUTO 24005KT 10SM OVC090 15/M02 A2973 RMK AO2 SLP068 T01501022,KPBG,2023-05-16T06:53:00Z,44.65,-73.47,15.0,-2.2,240,5,,10.0,29.731298,1006.8,,TRUE,TRUE,,,,,,,OVC,9000,,,,,,,VFR,,,,,,,,,,,,METAR,61.0
KPBF 160653Z AUTO 25003KT 10SM CLR 24/20 A3003 RMK AO2 SLP166 T02440200,KPBF,2023-05-16T06:53:00Z,34.18,-91.93,24.4,20.0,250,3,,10.0,30.029528,1016.6,,TRUE,TRUE,,,,,,,CLR,,,,,,,,VFR,,,,,,,,,,,,METAR,63.0
KPAH 160653Z AUTO 00000KT 8SM SCT050 21/19 A2998 RMK AO2 LTG DSNT NW SLP147 T02110194,KPAH,2023-05-16T06:53:00Z,37.07,-88.77,21.1,19.4,0,0,,8.0,29.97933,1014.7,,TRUE,TRUE,,,,,,,SCT,5000,,,,,,,VFR,,,,,,,,,,,,METAR,125.0
KPAE 160653Z AUTO 16006KT 10SM BKN110 18/13 A3010 RMK AO2 LTG DSNT E RAE05 SLP190 P0000 T01830128,KPAE,2023-05-16T06:53:00Z,47.92,-122.28,18.3,12.8,160,6,,10.0,30.100393,1019.0,,TRUE,TRUE,,,,,,,BKN,11000,,,,,,,VFR,,,,,,0.005,,,,,,METAR,166.0
KP68 160653Z AUTO 25004KT 10/04 A3029 RMK AO1 SLP195 T01000039,KP68,2023-05-16T06:53:00Z,39.6,-116.0,10.0,3.9,250,4,,,30.28937,1019.5,,TRUE,TRUE,,,,,,,,,,,,,,,,,,,,,,,,,,,METAR,1813.0
KOXB 160653Z AUTO 25007KT 10SM CLR 16/12 A3003 RMK AO2 SLP167 T01610117,KOXB,2023-05-16T06:53:00Z,38.32,-75.12,16.1,11.7,250,7,,10.0,30.029528,1016.7,,TRUE,TRUE,,,,,,,CLR,,,,,,,,VFR,,,,,,,,,,,,METAR,2.0
KOWD 160653Z AUTO 25005KT 10SM CLR 14/04 A2980 RMK AO2 SLP091 T01440039,KOWD,2023-05-16T06:53:00Z,42.18,-71.17,14.4,3.9,250,5,,10.0,29.799213,1009.1,,TRUE,TRUE,,,,,,,CLR,,,,,,,,VFR,,,,,,,,,,,,METAR,14.0
KOVS 160653Z AUTO 22003KT 10SM CLR 10/07 A3008 RMK AO2 SLP185 T01000072,KOVS,2023-05-16T06:53:00Z,43.15,-90.68,10.0,7.2,220,3,,10.0,30.079725,1018.5,,TRUE,TRUE,,,,,,,CLR,,,,,,,,VFR,,,,,,,,,,,,METAR,205.0
KOTM 160653Z AUTO 29005KT 10SM -RA OVC100 13/12 A3010 RMK AO2 SLP190 P0000 T01330117,KOTM,2023-05-16T06:53:00Z,41.1,-92.45,13.3,11.7,290,5,,10.0,30.100393,1019.0,,TRUE,TRUE,,,,,,-RA,OVC,10000,,,,,,,VFR,,,,,,0.005,,,,,,METAR,254.0
KOSU 160653Z AUTO 00000KT 10SM CLR 15/08 A3002 RMK AO2 SLP162 T01500083,KOSU,2023-05-16T06:53:00Z,40.08,-83.08,15.0,8.3,0,0,,10.0,30.02067,1016.2,,TRUE,TRUE,,,,,,,CLR,,,,,,,,VFR,,,,,,,,,,,,METAR,276.0
KOSH 160653Z AUTO 26005KT 10SM CLR 14/06 A3000 RMK AO2 SLP151 T01390061,KOSH,2023-05-16T06:53:00Z,43.98,-88.55,13.9,6.1,260,5,,10.0,30.0,1015.1,,TRUE,TRUE,,,,,,,CLR,,,,,,,,VFR,,,,,,,,,,,,METAR,239.0
KORL 160653Z AUTO 00000KT 10SM CLR 23/18 A3005 RMK AO2 SLP179 T02280183,KORL,2023-05-16T06:53:00Z,28.55,-81.33,22.8,18.3,0,0,,10.0,30.050198,1017.9,,TRUE,TRUE,,,,,,,CLR,,,,,,,,VFR,,,,,,,,,,,,METAR,32.0
KOQT 160653Z AUTO 00000KT 10SM OVC006 21/19 A3007 RMK AO2 SLP170 T02110194,KOQT,2023-05-16T06:53:00Z,36.02,-84.23,21.1,19.4,0,0,,10.0,30.070866,1017.0,,TRUE,TRUE,,,,,,,OVC,600,,,,,,,IFR,,,,,,,,,,,,METAR,276.0
KOPF 160653Z AUTO 00000KT 10SM CLR 23/19 A3002 RMK AO2 SLP165 T02280189,KOPF,2023-05-16T06:53:00Z,25.92,-80.28,22.8,18.9,0,0,,10.0,30.02067,1016.5,,TRUE,TRUE,,,,,,,CLR,,,,,,,,VFR,,,,,,,,,,,,METAR,1.0
KONT 160653Z 00000KT 6SM BR FEW010 SCT250 16/14 A3004 RMK AO2 SLP164 T01560139,KONT,2023-05-16T06:53:00Z,34.05,-117.58,15.6,13.9,0,0,,6.0,30.041338,1016.4,,,TRUE,,,,,,BR,FEW,1000,SCT,25000,,,,,VFR,,,,,,,,,,,,METAR,279.0
KONO 160653Z AUTO 25004KT 10SM CLR 13/11 A3017 RMK AO2 SLP213 T01280106 402780100,KONO,2023-05-16T06:53:00Z,44.02,-117.02,12.8,10.6,250,4,,10.0,30.171259,1021.3,,TRUE,TRUE,,,,,,,CLR,,,,,,,,VFR,,,,27.8,10.0,,,,,,,METAR,668.0
KOMK 160653Z AUTO 32003KT 10SM CLR 17/13 A3001 RMK AO2 SLP154 T01720128 $,KOMK,2023-05-16T06:53:00Z,48.47,-119.52,17.2,12.8,320,3,,10.0,30.008858,1015.4,,TRUE,TRUE,TRUE,,,,,,CLR,,,,,,,,VFR,,,,,,,,,,,,METAR,395.0
KOLF 160653Z AUTO 05007KT 10SM CLR 11/07 A3010 RMK AO2 SLP191 T01060067 402500072,KOLF,2023-05-16T06:53:00Z,48.1,-105.58,10.6,6.7,50,7,,10.0,30.100393,1019.1,,TRUE,TRUE,,,,,,,CLR,,,,,,,,VFR,,,,25.0,7.2,,,,,,,METAR,605.0
KOJC 160653Z AUTO 33003KT 2 1/2SM BR BKN003 OVC008 15/14 A3009 RMK AO2 CIG 002V005 SLP186 T01500144,KOJC,2023-05-16T06:53:00Z,38.85,-94.73,15.0,14.4,330,3,,2.5,30.088583,1018.6,,TRUE,TRUE,,,,,,BR,BKN,300,OVC,800,,,,,LIFR,,,,,,,,,,,,METAR,328.0
KOGD 160653Z AUTO 30006KT 10SM FEW100 BKN110 18/06 A3021 RMK AO2 SLP181 T01780056 402720122 $,KOGD,2023-05-16T06:53:00Z,41.2,-112.02,17.8,5.6,300,6,,10.0,30.209646,1018.1,,TRUE,TRUE,TRUE,,,,,,FEW,10000,BKN,11000,,,,,VFR,,,,27.2,12.2,,,,,,,METAR,1356.0
KOGB 160653Z AUTO 00000KT 10SM OVC095 18/17 A3010 RMK AO2 SLP190 T01830172,KOGB,2023-05-16T06:53:00Z,33.47,-80.85,18.3,17.2,0,0,,10.0,30.100393,1019.0,,TRUE,TRUE,,,,,,,OVC,9500,,,,,,,VFR,,,,,,,,,,,,METAR,59.0
KODX 160653Z AUTO 31004KT 10SM OVC060 12/11 A3019 RMK AO2 SLP228 T01220106,KODX,2023-05-16T06:53:00Z,41.62,-98.95,12.2,10.6,310,4,,10.0,30.188976,1022.8,,TRUE,TRUE,,,,,,,OVC,6000,,,,,,,VFR,,,,,,,,,,,,METAR,628.0
KOAK 160653Z 32004KT 10SM BKN009 BKN012 13/11 A3010 RMK AO2 SLP193 T01280111,KOAK,2023-05-16T06:53:00Z,37.72,-122.23,12.8,11.1,320,4,,10.0,30.100393,1019.3,,,TRUE,,,,,,,BKN,900,BKN,1200,,,,,IFR,,,,,,,,,,,,METAR,3.0
KNUW 160653Z 23009KT 10SM FEW030 SCT130 BKN220 14/11 A3006 RMK SLP184 T01390111,KNUW,2023-05-16T06:53:00Z,48.35,-122.65,13.9,11.1,230,9,,10.0,30.059055,1018.4,,,,,,,,,,FEW,3000,SCT,13000,BKN,22000,,,VFR,,,,,,,,,,,,SPECI,14.0
KNSI 160653Z AUTO 03004KT 10SM OVC004 13/11 A3007 RMK AO2 SLP178 T01280111 $,KNSI,2023-05-16T06:53:00Z,33.23,-119.45,12.8,11.1,30,4,,10.0,30.070866,1017.8,,TRUE,TRUE,TRUE,,,,,,OVC,400,,,,,,,LIFR,,,,,,,,,,,,SPECI,161.0
KNRS 160653Z AUTO 32006KT 9SM OVC012 16/13 A3005 RMK AO2 SLP176 T01610133,KNRS,2023-05-16T06:53:00Z,32.57,-117.12,16.1,13.3,320,6,,9.0,30.050198,1017.6,,TRUE,TRUE,,,,,,,OVC,1200,,,,,,,MVFR,,,,,,,,,,,,METAR,15.0
KNQX 160653Z AUTO 11007KT 10SM FEW023 A3001 RMK AO2 SLP162 TSNO $,KNQX,2023-05-16T06:53:00Z,24.57,-81.67,,,110,7,,10.0,30.008858,1016.2,,TRUE,TRUE,TRUE,,TRUE,,,,FEW,2300,,,,,,,VFR,,,,,,,,,,,,SPECI,2.0
KNEW 160653Z AUTO 35005KT 10SM CLR 26/22 A3004 RMK AO2 SLP165 T02560217,KNEW,2023-05-16T06:53:00Z,30.05,-90.03,25.6,21.7,350,5,,10.0,30.041338,1016.5,,TRUE,TRUE,,,,,,,CLR,,,,,,,,VFR,,,,,,,,,,,,METAR,1.0
KMYV 160653Z AUTO 12005KT 10SM 19/13 A3001 RMK AO2 SLP167 T01940133 $,KMYV,2023-05-16T06:53:00Z,39.1,-121.57,19.4,13.3,120,5,,10.0,30.008858,1016.7,,TRUE,TRUE,TRUE,,,,,,,,,,,,,,,,,,,,,,,,,,METAR,18.0
KMYF 160653Z AUTO 31004KT 9SM OVC007 15/13 A3005 RMK AO2 SLP172 T01500128,KMYF,2023-05-16T06:53:00Z,32.82,-117.13,15.0,12.8,310,4,,9.0,30.050198,1017.2,,TRUE,TRUE,,,,,,,OVC,700,,,,,,,IFR,,,,,,,,,,,,METAR,128.0
KMWT 160653Z AUTO 00000KT 10SM CLR 22/18 A3001 RMK AO2 PRESFR SLP150 T02170178,KMWT,2023-05-16T06:53:00Z,34.55,-93.58,21.7,17.8,0,0,,10.0,30.008858,1015.0,,TRUE,TRUE,,,,,,,CLR,,,,,,,,VFR,,,,,,,,,,,,METAR,220.0
KMWL 160653Z AUTO 34005KT 10SM CLR 20/18 A3011 RMK AO2 SLP183 T02000178 $,KMWL,2023-05-16T06:53:00Z,32.78,-98.07,20.0,17.8,340,5,,10.0,30.109253,1018.3,,TRUE,TRUE,TRUE,,,,,,CLR,,,,,,,,VFR,,,,,,,,,,,,METAR,288.0
KMVY 160653Z AUTO 23008KT 10SM CLR 15/08 A2984 RMK AO2 SLP104 T01500083,KMVY,2023-05-16T06:53:00Z,41.4,-70.62,15.0,8.3,230,8,,10.0,29.840551,1010.4,,TRUE,TRUE,,,,,,,CLR,,,,,,,,VFR,,,,,,,,,,,,METAR,18.0
KMTO 160653Z AUTO 00000KT 10SM CLR 17/16 A3002 RMK AO2 SLP163 T01720156,KMTO,2023-05-16T06:53:00Z,39.47,-88.27,17.2,15.6,0,0,,10.0,30.02067,1016.3,,TRUE,TRUE,,,,,,,CLR,,,,,,,,VFR,,,,,,,,,,,,METAR,216.0
KMTJ 160653Z AUTO 14009KT 10SM CLR 11/05 A3036 RMK AO2 SLP223 T01060050 402280089,KMTJ,2023-05-16T06:53:00Z,38.5,-107.9,10.6,5.0,140,9,,10.0,30.360237,1022.3,,TRUE,TRUE,,,,,,,CLR,,,,,,,,VFR,,,,22.8,8.9,,,,,,,METAR,1755.0
KMTH 160653Z AUTO 11005KT 10SM CLR 27/21 A3000 RMK AO2 SLP157 T02670211,KMTH,2023-05-16T06:53:00Z,24.73,-81.05,26.7,21.1,110,5,,10.0,30.0,1015.7,,TRUE,TRUE,,,,,,,CLR,,,,,,,,VFR,,,,,,,,,,,,METAR,1.0
KMSY 160653Z 32004KT 10SM SCT200 24/22 A3004 RMK AO2 SLP176 T02440217,KMSY,2023-05-16T06:53:00Z,30.0,-90.25,24.4,21.7,320,4,,10.0,30.041338,1017.6,,,TRUE,,,,,,,SCT,20000,,,,,,,VFR,,,,,,,,,,,,METAR,0.0
KMSS 160653Z AUTO 21010KT 10SM -RA FEW060 SCT070 OVC095 13/01 A2976 RMK AO2 RAB12 SLP077 P0000 T01280011,KMSS,2023-05-16T06:53:00Z,44.93,-74.85,12.8,1.1,210,10,,10.0,29.760826,1007.7,,TRUE,TRUE,,,,,,-RA,FEW,6000,SCT,7000,OVC,9500,,,VFR,,,,,,0.005,,,,,,METAR,60.0
KMSP 160653Z 24004KT 10SM CLR 15/09 A3006 RMK AO2 SLP179 T01500094,KMSP,2023-05-16T06:53:00Z,44.88,-93.23,15.0,9.4,240,4,,10.0,30.059055,1017.9,,,TRUE,,,,,,,CLR,,,,,,,,VFR,,,,,,,,,,,,METAR,255.0
KMSO 160653Z AUTO 18005KT 10SM CLR 13/09 A3014 RMK AO2 SLP193 T01280089 402890128,KMSO,2023-05-16T06:53:00Z,46.92,-114.1,12.8,8.9,180,5,,10.0,30.138779,1019.3,,TRUE,TRUE,,,,,,,CLR,,,,,,,,VFR,,,,28.9,12.8,,,,,,,METAR,974.0
KMSN 160653Z AUTO 00000KT 10SM CLR 08/05 A3004 RMK AO2 SLP174 T00830050,KMSN,2023-05-16T06:53:00Z,43.13,-89.35,8.3,5.0,0,0,,10.0,30.041338,1017.4,,TRUE,TRUE,,,,,,,CLR,,,,,,,,VFR,,,,,,,,,,,,METAR,262.0
KMSL 160653Z AUTO 00000KT 10SM CLR 20/19 A3004 RMK AO2 SLP165 T02000189 PWINO,KMSL,2023-05-16T06:53:00Z,34.75,-87.6,20.0,18.9,0,0,,10.0,30.041338,1016.5,,TRUE,TRUE,,,,,TRUE,,CLR,,,,,,,,VFR,,,,,,,,,,,,METAR,170.0
KMRB 160653Z AUTO 19004KT 10SM CLR 12/12 A2998 RMK AO2 SLP151 T01220117,KMRB,2023-05-16T06:53:00Z,39.4,-77.98,12.2,11.7,190,4,,10.0,29.97933,1015.1,,TRUE,TRUE,,,,,,,CLR,,,,,,,,VFR,,,,,,,,,,,,METAR,165.0
KMPO 160653Z AUTO 28008KT 10SM CLR 09/02 A2995 RMK AO2 SLP139 T00890022,KMPO,2023-05-16T06:53:00Z,41.13,-75.38,8.9,2.2,280,8,,10.0,29.949802,1013.9,,TRUE,TRUE,,,,,,,CLR,,,,,,,,VFR,,,,,,,,,,,,METAR,576.0
KMOD 160653Z AUTO 34007KT 10SM CLR 19/12 A3000 RMK AO2 SLP157 T01940117 $,KMOD,2023-05-16T06:53:00Z,37.62,-120.95,19.4,11.7,340,7,,10.0,30.0,1015.7,,TRUE,TRUE,TRUE,,,,,,CLR,,,,,,,,VFR,,,,,,,,,,,,METAR,25.0
KMNN 160653Z AUTO 00000KT 10SM CLR 12/04 A3002 RMK AO2 SLP164 T01170044,KMNN,2023-05-16T06:53:00Z,40.62,-83.07,11.7,4.4,0,0,,10.0,30.02067,1016.4,,TRUE,TRUE,,,,,,,CLR,,,,,,,,VFR,,,,,,,,,,,,METAR,301.0
KMMV 160653Z AUTO 00000KT 10SM CLR 14/11 A3007 RMK AO2 SLP183 T01440111,KMMV,2023-05-16T06:53:00Z,45.2,-123.13,14.4,11.1,0,0,,10.0,30.070866,1018.3,,TRUE,TRUE,,,,,,,CLR,,,,,,,,VFR,,,,,,,,,,,,METAR,48.0
KMMK 160653Z AUTO 00000KT 10SM CLR 09/07 A2986 RMK AO2 SLP111 T00890067,KMMK,2023-05-16T06:53:00Z,41.52,-72.83,8.9,6.7,0,0,,10.0,29.861221,1011.1,,TRUE,TRUE,,,,,,,CLR,,,,,,,,VFR,,,,,,,,,,,,METAR,30.0
KMLU 160653Z AUTO 15003KT 10SM CLR 24/21 A3004 RMK AO2 SLP170 T02440211,KMLU,2023-05-16T06:53:00Z,32.52,-92.03,24.4,21.1,150,3,,10.0,30.041338,1017.0,,TRUE,TRUE,,,,,,,CLR,,,,,,,,VFR,,,,,,,,,,,,METAR,22.0
KMLT 160653Z AUTO 28005KT 10SM CLR 13/06 A2961 RMK AO2 SLP030 T01280061,KMLT,2023-05-16T06:53:00Z,45.65,-68.7,12.8,6.1,280,5,,10.0,29.610237,1003.0,,TRUE,TRUE,,,,,,,CLR,,,,,,,,VFR,,,,,,,,,,,,METAR,121.0
KMLS 160653Z AUTO 15007KT 10SM CLR 16/09 A3009 RMK AO2 SLP179 T01560089 402390078 $,KMLS,2023-05-16T06:53:00Z,46.43,-105.88,15.6,8.9,150,7,,10.0,30.088583,1017.9,,TRUE,TRUE,TRUE,,,,,,CLR,,,,,,,,VFR,,,,23.9,7.8,,,,,,,METAR,800.0
KMLP 160653Z AUTO 25004KT 10SM CLR 12/04 A3024 RMK AO2 SLP155 T01220044,KMLP,2023-05-16T06:53:00Z,47.45,-115.67,12.2,4.4,250,4,,10.0,30.239174,1015.5,,TRUE,TRUE,,,,,,,CLR,,,,,,,,VFR,,,,,,,,,,,,METAR,1837.0
KMLC 160653Z AUTO 00000KT 10SM FEW110 19/18 A3011 RMK AO2 SLP187 T01940183,KMLC,2023-05-16T06:53:00Z,34.88,-95.78,19.4,18.3,0,0,,10.0,30.109253,1018.7,,TRUE,TRUE,,,,,,,FEW,11000,,,,,,,VFR,,,,,,,,,,,,METAR,231.0
KMLB 160653Z AUTO 00000KT 10SM FEW025 SCT034 24/19 A3003 RMK AO2 SLP169 T02440194,KMLB,2023-05-16T06:53:00Z,28.1,-80.65,24.4,19.4,0,0,,10.0,30.029528,1016.9,,TRUE,TRUE,,,,,,,FEW,2500,SCT,3400,,,,,VFR,,,,,,,,,,,,METAR,7.0
KMKO 160653Z AUTO 30005KT 10SM OVC015 20/18 A3011 RMK AO2 SLP190 T02000183,KMKO,2023-05-16T06:53:00Z,35.65,-95.37,20.0,18.3,300,5,,10.0,30.109253,1019.0,,TRUE,TRUE,,,,,,,OVC,1500,,,,,,,MVFR,,,,,,,,,,,,METAR,184.0
KMKL 160653Z AUTO 19004KT 10SM CLR 19/18 A3001 RMK AO2 SLP156 T01940183,KMKL,2023-05-16T06:53:00Z,35.6,-88.92,19.4,18.3,190,4,,10.0,30.008858,1015.6,,TRUE,TRUE,,,,,,,CLR,,,,,,,,VFR,,,,,,,,,,,,METAR,130.0
KMIW 160653Z AUTO 32005KT 10SM BKN110 13/09 A3010 RMK AO2 SLP192 T01280094,KMIW,2023-05-16T06:53:00Z,42.12,-92.92,12.8,9.4,320,5,,10.0,30.100393,1019.2,,TRUE,TRUE,,,,,,,BKN,11000,,,,,,,VFR,,,,,,,,,,,,METAR,296.0
KMIE 160653Z AUTO 00000KT 10SM CLR 14/08 A3003 RMK AO2 SLP161 T01390083,KMIE,2023-05-16T06:53:00Z,40.23,-85.4,13.9,8.3,0,0,,10.0,30.029528,1016.1,,TRUE,TRUE,,,,,,,CLR,,,,,,,,VFR,,,,,,,,,,,,METAR,286.0
KMIC 160653Z AUTO 26007KT 10SM CLR 16/08 A3004 RMK AO2 SLP171 T01560083,KMIC,2023-05-16T06:53:00Z,45.07,-93.35,15.6,8.3,260,7,,10.0,30.041338,1017.1,,TRUE,TRUE,,,,,,,CLR,,,,,,,,VFR,,,,,,,,,,,,METAR,263.0
KMIA 160653Z 00000KT 10SM CLR 24/20 A3001 RMK AO2 SLP163 T02440200 $,KMIA,2023-05-16T06:53:00Z,25.8,-80.32,24.4,20.0,0,0,,10.0,30.008858,1016.3,,,TRUE,TRUE,,,,,,CLR,,,,,,,,VFR,,,,,,,,,,,,METAR,1.0
KMHT 160653Z 29008G16KT 10SM CLR 17/M02 A2975 RMK AO2 SLP085 T01721022,KMHT,2023-05-16T06:53:00Z,42.93,-71.43,17.2,-2.2,290,8,16,10.0,29.749016,1008.5,,,TRUE,,,,,,,CLR,,,,,,,,VFR,,,,,,,,,,,,METAR,68.0
KMHE 160653Z AUTO 25007KT 10SM CLR 12/07 A3016 RMK AO2 SLP211 T01220072,KMHE,2023-05-16T06:53:00Z,43.77,-98.03,12.2,7.2,250,7,,10.0,30.159449,1021.1,,TRUE,TRUE,,,,,,,CLR,,,,,,,,VFR,,,,,,,,,,,,METAR,397.0
KMGY 160653Z AUTO 00000KT 10SM BKN120 15/12 A3002 RMK AO2 SLP162 T01500117,KMGY,2023-05-16T06:53:00Z,39.6,-84.23,15.0,11.7,0,0,,10.0,30.02067,1016.2,,TRUE,TRUE,,,,,,,BKN,12000,,,,,,,VFR,,,,,,,,,,,,METAR,290.0
KMGW 160653Z AUTO 19003KT 10SM CLR 14/12 A3003 RMK AO2 SLP164 T01390122,KMGW,2023-05-16T06:53:00Z,39.65,-79.92,13.9,12.2,190,3,,10.0,30.029528,1016.4,,TRUE,TRUE,,,,,,,CLR,,,,,,,,VFR,,,,,,,,,,,,METAR,375.0
KMGM 160653Z AUTO 09003KT 10SM -RA BKN110 23/21 A3004 RMK AO2 SLP170 P0002 T02280211,KMGM,2023-05-16T06:53:00Z,32.3,-86.4,22.8,21.1,90,3,,10.0,30.041338,1017.0,,TRUE,TRUE,,,,,,-RA,BKN,11000,,,,,,,VFR,,,,,,0.02,,,,,,METAR,64.0
KMFR 160653Z AUTO 14004KT 10SM CLR 18/14 A3011 RMK AO2 SLP184 T01780139,KMFR,2023-05-16T06:53:00Z,42.38,-122.87,17.8,13.9,140,4,,10.0,30.109253,1018.4,,TRUE,TRUE,,,,,,,CLR,,,,,,,,VFR,,,,,,,,,,,,METAR,397.0
KMFE 160653Z AUTO 00000KT 10SM CLR 23/20 A3009 RMK AO2 SLP187 T02330200 PNO $,KMFE,2023-05-16T06:53:00Z,26.18,-98.25,23.3,20.0,0,0,,10.0,30.088583,1018.7,,TRUE,TRUE,TRUE,,,,,,CLR,,,,,,,,VFR,,,,,,,,,,,,METAR,29.0
KMDW 160653Z 24003KT 10SM OVC250 11/02 A3005 RMK AO2 SLP175 T01110017 $,KMDW,2023-05-16T06:53:00Z,41.78,-87.75,11.1,1.7,240,3,,10.0,30.050198,1017.5,,,TRUE,TRUE,,,,,,OVC,25000,,,,,,,VFR,,,,,,,,,,,,METAR,186.0
KMCW 160653Z AUTO 27005KT 10SM CLR 09/07 A3013 RMK AO2 SLP197 T00890067,KMCW,2023-05-16T06:53:00Z,43.15,-93.33,8.9,6.7,270,5,,10.0,30.129921,1019.7,,TRUE,TRUE,,,,,,,CLR,,,,,,,,VFR,,,,,,,,,,,,METAR,363.0
KMCO 160653Z 00000KT 10SM CLR 22/18 A3005 RMK AO2 SLP175 T02220183,KMCO,2023-05-16T06:53:00Z,28.42,-81.33,22.2,18.3,0,0,,10.0,30.050198,1017.5,,,TRUE,,,,,,,CLR,,,,,,,,VFR,,,,,,,,,,,,METAR,27.0
KMCK 160653Z AUTO 03003KT OVC014 12/09 A3024 RMK AO2 SLP234 T01170089 $,KMCK,2023-05-16T06:53:00Z,40.2,-100.58,11.7,8.9,30,3,,,30.239174,1023.4,,TRUE,TRUE,TRUE,,,,,,OVC,1400,,,,,,,,,,,,,,,,,,,METAR,780.0
KMCI 160653Z 36006KT 1SM R19R/P6000FT -DZ BR OVC003 14/14 A3009 RMK AO2 SFC VIS 3 SLP187 P0000 T01390139,KMCI,2023-05-16T06:53:00Z,39.3,-94.73,13.9,13.9,360,6,,1.0,30.088583,1018.7,,,TRUE,,,,,,-DZ BR,OVC,300,,,,,,,LIFR,,,,,,0.005,,,,,,METAR,308.0
KMCE 160653Z AUTO 34010KT 10SM CLR 21/11 A2998 RMK AO2 SLP153 T02110106,KMCE,2023-05-16T06:53:00Z,37.28,-120.5,21.1,10.6,340,10,,10.0,29.97933,1015.3,,TRUE,TRUE,,,,,,,CLR,,,,,,,,VFR,,,,,,,,,,,,METAR,49.0
KMCB 160653Z AUTO 31003KT 10SM CLR 21/20 A3005 RMK AO2 SLP171 T02110200,KMCB,2023-05-16T06:53:00Z,31.18,-90.47,21.1,20.0,310,3,,10.0,30.050198,1017.1,,TRUE,TRUE,,,,,,,CLR,,,,,,,,VFR,,,,,,,,,,,,METAR,124.0
KMBS 160653Z AUTO 25008KT 10SM CLR 07/01 A2997 RMK AO2 SLP148 T00720006,KMBS,2023-05-16T06:53:00Z,43.53,-84.08,7.2,0.6,250,8,,10.0,29.970472,1014.8,,TRUE,TRUE,,,,,,,CLR,,,,,,,,VFR,,,,,,,,,,,,METAR,201.0
KMAI 160653Z AUTO 00000KT 10SM CLR 21/21 A3006 RMK AO2 SLP175 T02110206,KMAI,2023-05-16T06:53:00Z,30.83,-85.18,21.1,20.6,0,0,,10.0,30.059055,1017.5,,TRUE,TRUE,,,,,,,CLR,,,,,,,,VFR,,,,,,,,,,,,METAR,33.0
KMAF 160653Z AUTO 09008KT 9SM FEW029 OVC055 19/17 A3023 RMK AO2 SLP198 T01890167,KMAF,2023-05-16T06:53:00Z,31.95,-102.2,18.9,16.7,90,8,,9.0,30.230314,1019.8,,TRUE,TRUE,,,,,,,FEW,2900,OVC,5500,,,,,VFR,,,,,,,,,,,,METAR,874.0
KLXV 160653Z AUTO 07003KT 10SM CLR 02/01 A3052 RMK AO2 SLP217 T00170006 401440017,KLXV,2023-05-16T06:53:00Z,39.23,-106.32,1.7,0.6,70,3,,10.0,30.519686,1021.7,,TRUE,TRUE,,,,,,,CLR,,,,,,,,VFR,,,,14.4,1.7,,,,,,,METAR,3027.0
KLWV 160653Z AUTO 04003KT 10SM CLR 17/16 A3002 RMK AO2 SLP163 T01720161,KLWV,2023-05-16T06:53:00Z,38.77,-87.6,17.2,16.1,40,3,,10.0,30.02067,1016.3,,TRUE,TRUE,,,,,,,CLR,,,,,,,,VFR,,,,,,,,,,,,METAR,128.0
KLVS 160653Z AUTO 14005KT 10SM OVC060 11/07 A3041 RMK AO2 SLP213 T01060072 402000072,KLVS,2023-05-16T06:53:00Z,35.65,-105.13,10.6,7.2,140,5,,10.0,30.410433,1021.3,,TRUE,TRUE,,,,,,,OVC,6000,,,,,,,VFR,,,,20.0,7.2,,,,,,,METAR,2095.0
KLVM 160653Z AUTO 24009KT 10SM CLR 13/06 A3017 RMK AO2 SLP187 T01330061 402220089,KLVM,2023-05-16T06:53:00Z,45.7,-110.43,13.3,6.1,240,9,,10.0,30.171259,1018.7,,TRUE,TRUE,,,,,,,CLR,,,,,,,,VFR,,,,22.2,8.9,,,,,,,METAR,1418.0
KLVK 160653Z AUTO 31005KT 10SM CLR 14/11 A3006 RMK AO2 SLP176 T01440106,KLVK,2023-05-16T06:53:00Z,37.7,-121.82,14.4,10.6,310,5,,10.0,30.059055,1017.6,,TRUE,TRUE,,,,,,,CLR,,,,,,,,VFR,,,,,,,,,,,,METAR,120.0
KLUK 160653Z AUTO 00000KT 4SM BR SCT120 14/14 A3004 RMK AO2 SLP169 T01440144,KLUK,2023-05-16T06:53:00Z,39.1,-84.42,14.4,14.4,0,0,,4.0,30.041338,1016.9,,TRUE,TRUE,,,,,,BR,SCT,12000,,,,,,,MVFR,,,,,,,,,,,,METAR,144.0
KLSE 160653Z AUTO 17004KT 10SM CLR 12/09 A3006 RMK AO2 SLP176 T01170094,KLSE,2023-05-16T06:53:00Z,43.88,-91.25,11.7,9.4,170,4,,10.0,30.059055,1017.6,,TRUE,TRUE,,,,,,,CLR,,,,,,,,VFR,,,,,,,,,,,,METAR,198.0
KLPR 160653Z AUTO 00000KT 10SM CLR 08/02 A3002 RMK AO2 SLP164 T00830022,KLPR,2023-05-16T06:53:00Z,41.35,-82.18,8.3,2.2,0,0,,10.0,30.02067,1016.4,,TRUE,TRUE,,,,,,,CLR,,,,,,,,VFR,,,,,,,,,,,,METAR,241.0
KLOZ 160653Z AUTO 00000KT 10SM OVC070 17/16 A3005 RMK AO2 SLP163 T01720161,KLOZ,2023-05-16T06:53:00Z,37.08,-84.07,17.2,16.1,0,0,,10.0,30.050198,1016.3,,TRUE,TRUE,,,,,,,OVC,7000,,,,,,,VFR,,,,,,,,,,,,METAR,361.0
KLOU 160653Z AUTO 00000KT 10SM CLR 17/14 A3001 RMK AO2 SLP160 T01670139,KLOU,2023-05-16T06:53:00Z,38.22,-85.67,16.7,13.9,0,0,,10.0,30.008858,1016.0,,TRUE,TRUE,,,,,,,CLR,,,,,,,,VFR,,,,,,,,,,,,METAR,165.0
KLOL 160653Z AUTO 07003KT 10SM CLR 17/M01 A3020 RMK AO2 SLP196 T01671006,KLOL,2023-05-16T06:53:00Z,40.07,-118.57,16.7,-0.6,70,3,,10.0,30.200787,1019.6,,TRUE,TRUE,,,,,,,CLR,,,,,,,,VFR,,,,,,,,,,,,METAR,1191.0
KLNS 160653Z AUTO 30003KT 10SM CLR 13/08 A2997 RMK AO2 SLP146 T01330078,KLNS,2023-05-16T06:53:00Z,40.12,-76.3,13.3,7.8,300,3,,10.0,29.970472,1014.6,,TRUE,TRUE,,,,,,,CLR,,,,,,,,VFR,,,,,,,,,,,,METAR,122.0
KLND 160653Z AUTO 27008KT 10SM CLR 11/03 A3025 RMK AO2 SLP208 T01110028 401940083,KLND,2023-05-16T06:53:00Z,42.82,-108.73,11.1,2.8,270,8,,10.0,30.250984,1020.8,,TRUE,TRUE,,,,,,,CLR,,,,,,,,VFR,,,,19.4,8.3,,,,,,,METAR,1700.0
KLMT 160653Z AUTO 10003KT 10SM CLR 12/07 A3022 RMK AO2 SLP199 T01220067,KLMT,2023-05-16T06:53:00Z,42.15,-121.72,12.2,6.7,100,3,,10.0,30.221457,1019.9,,TRUE,TRUE,,,,,,,CLR,,,,,,,,VFR,,,,,,,,,,,,METAR,1246.0
KLLQ 160653Z AUTO 00000KT 10SM CLR 23/20 A3003 RMK AO2 SLP166 T02280200,KLLQ,2023-05-16T06:53:00Z,33.63,-91.75,22.8,20.0,0,0,,10.0,30.029528,1016.6,,TRUE,TRUE,,,,,,,CLR,,,,,,,,VFR,,,,,,,,,,,,METAR,86.0
KLKV 160653Z AUTO 36006KT 10SM CLR 08/06 A3026 RMK AO2 SLP226 T00830061,KLKV,2023-05-16T06:53:00Z,42.17,-120.4,8.3,6.1,360,6,,10.0,30.259842,1022.6,,TRUE,TRUE,,,,,,,CLR,,,,,,,,VFR,,,,,,,,,,,,METAR,1440.0
KLIT 160653Z 26005KT 10SM SCT250 23/19 A3002 RMK AO2 SLP166 T02330194,KLIT,2023-05-16T06:53:00Z,34.73,-92.23,23.3,19.4,260,5,,10.0,30.02067,1016.6,,,TRUE,,,,,,,SCT,25000,,,,,,,VFR,,,,,,,,,,,,METAR,77.0
KLHX 160653Z AUTO 14004KT 10SM CLR 11/09 A3028 RMK AO2 SLP222 T01110089 401890106,KLHX,2023-05-16T06:53:00Z,38.05,-103.52,11.1,8.9,140,4,,10.0,30.280512,1022.2,,TRUE,TRUE,,,,,,,CLR,,,,,,,,VFR,,,,18.9,10.6,,,,,,,METAR,1289.0
KLHQ 160653Z AUTO 00000KT 10SM CLR 11/10 A3003 RMK AO2 SLP167 T01110100,KLHQ,2023-05-16T06:53:00Z,39.75,-82.67,11.1,10.0,0,0,,10.0,30.029528,1016.7,,TRUE,TRUE,,,,,,,CLR,,,,,,,,VFR,,,,,,,,,,,,METAR,259.0
KLGB 160653Z AUTO 33005KT 7SM OVC013 17/13 A3004 RMK AO2 SLP172 T01670133,KLGB,2023-05-16T06:53:00Z,33.82,-118.15,16.7,13.3,330,5,,7.0,30.041338,1017.2,,TRUE,TRUE,,,,,,,OVC,1300,,,,,,,MVFR,,,,,,,,,,,,METAR,10.0
KLFT 160653Z AUTO 00000KT 10SM CLR 22/21 A3006 RMK AO2 SLP179 T02220211,KLFT,2023-05-16T06:53:00Z,30.2,-91.97,22.2,21.1,0,0,,10.0,30.059055,1017.9,,TRUE,TRUE,,,,,,,CLR,,,,,,,,VFR,,,,,,,,,,,,METAR,9.0
KLFK 160653Z AUTO 00000KT 10SM CLR 21/20 A3008 RMK AO2 SLP181 T02060200,KLFK,2023-05-16T06:53:00Z,31.23,-94.75,20.6,20.0,0,0,,10.0,30.079725,1018.1,,TRUE,TRUE,,,,,,,CLR,,,,,,,,VFR,,,,,,,,,,,,METAR,87.0
KLEE 160653Z 00000KT 10SM CLR 21/19 A3007 RMK AO2 SLP182 T02110189,KLEE,2023-05-16T06:53:00Z,28.82,-81.82,21.1,18.9,0,0,,10.0,30.070866,1018.2,,,TRUE,,,,,,,CLR,,,,,,,,VFR,,,,,,,,,,,,METAR,21.0
KLEB 160653Z AUTO 18007KT 10SM CLR 11/01 A2977 RMK AO2 SLP074 T01110011,KLEB,2023-05-16T06:53:00Z,43.63,-72.3,11.1,1.1,180,7,,10.0,29.769686,1007.4,,TRUE,TRUE,,,,,,,CLR,,,,,,,,VFR,,,,,,,,,,,,METAR,169.0
KLCH 160653Z AUTO 12003KT 10SM CLR 22/22 A3006 RMK AO2 SLP186 T02170217,KLCH,2023-05-16T06:53:00Z,30.13,-93.22,21.7,21.7,120,3,,10.0,30.059055,1018.6,,TRUE,TRUE,,,,,,,CLR,,,,,,,,VFR,,,,,,,,,,,,METAR,2.0
KLBX 160653Z AUTO 00000KT 4SM BR CLR 22/21 A3008 RMK AO2 SLP187 T02220211,KLBX,2023-05-16T06:53:00Z,29.12,-95.47,22.2,21.1,0,0,,4.0,30.079725,1018.7,,TRUE,TRUE,,,,,,BR,CLR,,,,,,,,MVFR,,,,,,,,,,,,METAR,4.0
KLBB 160653Z 04005KT 10SM SCT027 BKN036 16/14 A3026 RMK AO2 SLP212 T01560139,KLBB,2023-05-16T06:53:00Z,33.67,-101.82,15.6,13.9,40,5,,10.0,30.259842,1021.2,,,TRUE,,,,,,,SCT,2700,BKN,3600,,,,,VFR,,,,,,,,,,,,METAR,996.0
KLAX 160653Z 32005KT 10SM FEW007 OVC010 15/13 A3006 RMK AO2 SLP177 T01500133,KLAX,2023-05-16T06:53:00Z,33.93,-118.38,15.0,13.3,320,5,,10.0,30.059055,1017.7,,,TRUE,,,,,,,FEW,700,OVC,1000,,,,,MVFR,,,,,,,,,,,,METAR,30.0
KLAW 160653Z AUTO 35007KT 10SM OVC042 19/16 A3016 RMK AO2 SLP203 T01940156,KLAW,2023-05-16T06:53:00Z,34.55,-98.42,19.4,15.6,350,7,,10.0,30.159449,1020.3,,TRUE,TRUE,,,,,,,OVC,4200,,,,,,,VFR,,,,,,,,,,,,METAR,328.0
KLAR 160653Z AUTO 20009KT 10SM FEW075 06/04 A3033 RMK AO2 SLP199 T00610044 401610033,KLAR,2023-05-16T06:53:00Z,41.32,-105.67,6.1,4.4,200,9,,10.0,30.33071,1019.9,,TRUE,TRUE,,,,,,,FEW,7500,,,,,,,VFR,,,,16.1,3.3,,,,,,,METAR,2217.0
KLAN 160653Z 00000KT 10SM CLR 08/01 A3000 RMK AO2 SLP159 T00830011,KLAN,2023-05-16T06:53:00Z,42.78,-84.58,8.3,1.1,0,0,,10.0,30.0,1015.9,,,TRUE,,,,,,,CLR,,,,,,,,VFR,,,,,,,,,,,,METAR,261.0
KLAA 160653Z AUTO 21005KT 10SM CLR 08/07 A3027 RMK AO2 SLP230 T00780067 401830078,KLAA,2023-05-16T06:53:00Z,38.07,-102.68,7.8,6.7,210,5,,10.0,30.268702,1023.0,,TRUE,TRUE,,,,,,,CLR,,,,,,,,VFR,,,,18.3,7.8,,,,,,,METAR,1129.0
KJKL 160653Z AUTO 00000KT 10SM CLR 17/14 A3004 RMK AO2 SLP160 T01670144,KJKL,2023-05-16T06:53:00Z,37.6,-83.32,16.7,14.4,0,0,,10.0,30.041338,1016.0,,TRUE,TRUE,,,,,,,CLR,,,,,,,,VFR,,,,,,,,,,,,METAR,414.0
KJER 160653Z AUTO 19006KT 10SM SCT100 13/09 A3025 RMK AO2 SLP216 T01330089 402610100,KJER,2023-05-16T06:53:00Z,42.72,-114.45,13.3,8.9,190,6,,10.0,30.250984,1021.6,,TRUE,TRUE,,,,,,,SCT,10000,,,,,,,VFR,,,,26.1,10.0,,,,,,,METAR,1226.0
KJEF 160653Z AUTO 30004KT 10SM OVC018 19/16 A3004 RMK AO2 SLP159 T01890161 $,KJEF,2023-05-16T06:53:00Z,38.6,-92.15,18.9,16.1,300,4,,10.0,30.041338,1015.9,,TRUE,TRUE,TRUE,,,,,,OVC,1800,,,,,,,MVFR,,,,,,,,,,,,METAR,167.0
KJBR 160653Z AUTO 22004KT 10SM CLR 24/19 A3000 RMK AO2 SLP153 T02390194 $,KJBR,2023-05-16T06:53:00Z,35.83,-90.65,23.9,19.4,220,4,,10.0,30.0,1015.3,,TRUE,TRUE,TRUE,,,,,,CLR,,,,,,,,VFR,,,,,,,,,,,,METAR,79.0
KIXD 160653Z AUTO 32007KT 2 1/2SM BR OVC003 14/14 A3011 RMK AO2 SLP190 T01440144,KIXD,2023-05-16T06:53:00Z,38.82,-94.88,14.4,14.4,320,7,,2.5,30.109253,1019.0,,TRUE,TRUE,,,,,,BR,OVC,300,,,,,,,LIFR,,,,,,,,,,,,METAR,322.0
KIWI 160653Z AUTO 24004KT 10SM CLR 13/02 A2970 RMK AO2 SLP058 T01280022,KIWI,2023-05-16T06:53:00Z,43.97,-69.72,12.8,2.2,240,4,,10.0,29.698818,1005.8,,TRUE,TRUE,,,,,,,CLR,,,,,,,,VFR,,,,,,,,,,,,METAR,16.0
KITR 160653Z AUTO 24006KT 5SM BR CLR 08/07 A3027 RMK AO2 SLP233 T00780067 401500067,KITR,2023-05-16T06:53:00Z,39.23,-102.28,7.8,6.7,240,6,,5.0,30.268702,1023.3,,TRUE,TRUE,,,,,,BR,CLR,,,,,,,,MVFR,,,,15.0,6.7,,,,,,,METAR,1285.0
KIPL 160653Z AUTO 26007KT 10SM CLR 24/08 A2988 RMK AO2 SLP119 T02440078,KIPL,2023-05-16T06:53:00Z,32.83,-115.58,24.4,7.8,260,7,,10.0,29.878937,1011.9,,TRUE,TRUE,,,,,,,CLR,,,,,,,,VFR,,,,,,,,,,,,METAR,-16.0
KINK 160653Z AUTO 08003KT 10SM SCT046 17/15 A3021 RMK AO2 SLP194 T01670150,KINK,2023-05-16T06:53:00Z,31.78,-103.2,16.7,15.0,80,3,,10.0,30.209646,1019.4,,TRUE,TRUE,,,,,,,SCT,4600,,,,,,,VFR,,,,,,,,,,,,METAR,857.0
KILM 160653Z AUTO 00000KT 10SM OVC110 21/17 A3009 RMK AO2 SLP188 T02110167,KILM,2023-05-16T06:53:00Z,34.27,-77.9,21.1,16.7,0,0,,10.0,30.088583,1018.8,,TRUE,TRUE,,,,,,,OVC,11000,,,,,,,VFR,,,,,,,,,,,,METAR,9.0
KIDA 160653Z 08005KT 10SM CLR 13/07 A3027 RMK AO2 SLP221 T01330072 402390106,KIDA,2023-05-16T06:53:00Z,43.52,-112.07,13.3,7.2,80,5,,10.0,30.268702,1022.1,,,TRUE,,,,,,,CLR,,,,,,,,VFR,,,,23.9,10.6,,,,,,,METAR,1444.0
KICT 160653Z 34007KT 10SM OVC008 13/12 A3017 RMK AO2 CIG 008V013 SLP211 T01330117,KICT,2023-05-16T06:53:00Z,37.65,-97.43,13.3,11.7,340,7,,10.0,30.171259,1021.1,,,TRUE,,,,,,,OVC,800,,,,,,,IFR,,,,,,,,,,,,METAR,428.0
KICR 160653Z AUTO 21008KT 10SM CLR 12/09 A3019 RMK AO2 SLP219 T01170094,KICR,2023-05-16T06:53:00Z,43.38,-99.85,11.7,9.4,210,8,,10.0,30.188976,1021.9,,TRUE,TRUE,,,,,,,CLR,,,,,,,,VFR,,,,,,,,,,,,METAR,618.0
KIAH 160653Z 00000KT 10SM FEW020 BKN250 21/20 A3009 RMK AO2 SLP187 T02060200,KIAH,2023-05-16T06:53:00Z,30.0,-95.37,20.6,20.0,0,0,,10.0,30.088583,1018.7,,,TRUE,,,,,,,FEW,2000,BKN,25000,,,,,VFR,,,,,,,,,,,,METAR,27.0
KIAG 160653Z AUTO 22004KT 10SM CLR 10/04 A2992 RMK AO2 SLP132 T01000039,KIAG,2023-05-16T06:53:00Z,43.12,-78.93,10.0,3.9,220,4,,10.0,29.920275,1013.2,,TRUE,TRUE,,,,,,,CLR,,,,,,,,VFR,,,,,,,,,,,,METAR,179.0
KHZY 160653Z AUTO 00000KT 10SM CLR 04/01 A3001 RMK AO2 SLP162 T00440006,KHZY,2023-05-16T06:53:00Z,41.78,-80.7,4.4,0.6,0,0,,10.0,30.008858,1016.2,,TRUE,TRUE,,,,,,,CLR,,,,,,,,VFR,,,,,,,,,,,,METAR,279.0
KHYR 160653Z AUTO 00000KT 10SM CLR 08/04 A3000 RMK AO2 SLP159 T00830044,KHYR,2023-05-16T06:53:00Z,46.02,-91.45,8.3,4.4,0,0,,10.0,30.0,1015.9,,TRUE,TRUE,,,,,,,CLR,,,,,,,,VFR,,,,,,,,,,,,METAR,369.0
KHWO 160653Z AUTO 00000KT 10SM CLR 23/19 A3002 RMK AO2 SLP166 T02330194 $,KHWO,2023-05-16T06:53:00Z,26.0,-80.23,23.3,19.4,0,0,,10.0,30.02067,1016.6,,TRUE,TRUE,TRUE,,,,,,CLR,,,,,,,,VFR,,,,,,,,,,,,METAR,2.0
KHVR 160653Z AUTO 00000KT 10SM CLR 18/11 A3001 RMK AO2 SLP148 T01780106 402720089,KHVR,2023-05-16T06:53:00Z,48.55,-109.77,17.8,10.6,0,0,,10.0,30.008858,1014.8,,TRUE,TRUE,,,,,,,CLR,,,,,,,,VFR,,,,27.2,8.9,,,,,,,METAR,789.0
KHVN 160653Z AUTO 21004KT 10SM CLR 16/07 A2987 RMK AO2 SLP113 T01610072,KHVN,2023-05-16T06:53:00Z,41.27,-72.88,16.1,7.2,210,4,,10.0,29.870079,1011.3,,TRUE,TRUE,,,,,,,CLR,,,,,,,,VFR,,,,,,,,,,,,METAR,4.0
KHUL 160653Z AUTO 24003KT 10SM CLR 11/04 A2956 RMK AO2 SLP011 T01110044,KHUL,2023-05-16T06:53:00Z,46.12,-67.8,11.1,4.4,240,3,,10.0,29.56004,1001.1,,TRUE,TRUE,,,,,,,CLR,,,,,,,,VFR,,,,,,,,,,,,METAR,148.0
KHUF 160653Z 00000KT 10SM SCT120 17/16 A3002 RMK AO2 RAE02 SLP165 P0000 T01670156,KHUF,2023-05-16T06:53:00Z,39.45,-87.32,16.7,15.6,0,0,,10.0,30.02067,1016.5,,,TRUE,,,,,,,SCT,12000,,,,,,,VFR,,,,,,0.005,,,,,,METAR,174.0
KHSV 160653Z AUTO 10003KT 10SM CLR 19/19 A3005 RMK AO2 SLP167 T01940189,KHSV,2023-05-16T06:53:00Z,34.65,-86.78,19.4,18.9,100,3,,10.0,30.050198,1016.7,,TRUE,TRUE,,,,,,,CLR,,,,,,,,VFR,,,,,,,,,,,,METAR,190.0
KHSI 160653Z AUTO 32004KT 7SM OVC028 12/10 A3020 RMK AO2 SLP229 T01170100,KHSI,2023-05-16T06:53:00Z,40.6,-98.43,11.7,10.0,320,4,,7.0,30.200787,1022.9,,TRUE,TRUE,,,,,,,OVC,2800,,,,,,,MVFR,,,,,,,,,,,,METAR,592.0
KHRI 160653Z AUTO 21004KT 10SM CLR 20/12 A3003 RMK AO2 SLP163 T02000117,KHRI,2023-05-16T06:53:00Z,45.83,-119.27,20.0,11.7,210,4,,10.0,30.029528,1016.3,,TRUE,TRUE,,,,,,,CLR,,,,,,,,VFR,,,,,,,,,,,,METAR,194.0
KHOU 160653Z 33007KT 10SM SCT020 BKN250 23/21 A3009 RMK AO2 SLP193 T02280206,KHOU,2023-05-16T06:53:00Z,29.63,-95.28,22.8,20.6,330,7,,10.0,30.088583,1019.3,,,TRUE,,,,,,,SCT,2000,BKN,25000,,,,,VFR,,,,,,,,,,,,METAR,13.0
KHOT 160653Z AUTO 00000KT 10SM CLR 22/19 A3004 RMK AO2 SLP164 T02170194,KHOT,2023-05-16T06:53:00Z,34.48,-93.1,21.7,19.4,0,0,,10.0,30.041338,1016.4,,TRUE,TRUE,,,,,,,CLR,,,,,,,,VFR,,,,,,,,,,,,METAR,153.0
KHLN 160653Z AUTO 00000KT 10SM CLR 14/06 A3014 RMK AO2 SLP197 T01390061 402670072,KHLN,2023-05-16T06:53:00Z,46.6,-111.98,13.9,6.1,0,0,,10.0,30.138779,1019.7,,TRUE,TRUE,,,,,,,CLR,,,,,,,,VFR,,,,26.7,7.2,,,,,,,METAR,1178.0
KHLG 160653Z AUTO 00000KT 10SM CLR 13/08 A3001 RMK AO2 SLP160 T01330078,KHLG,2023-05-16T06:53:00Z,40.17,-80.65,13.3,7.8,0,0,,10.0,30.008858,1016.0,,TRUE,TRUE,,,,,,,CLR,,,,,,,,VFR,,,,,,,,,,,,METAR,365.0
KHLC 160653Z AUTO 34003KT 10SM FEW013 OVC022 13/11 A3023 RMK AO2 SLP232 T01330106,KHLC,2023-05-16T06:53:00Z,39.37,-99.83,13.3,10.6,340,3,,10.0,30.230314,1023.2,,TRUE,TRUE,,,,,,,FEW,1300,OVC,2200,,,,,MVFR,,,,,,,,,,,,METAR,667.0
KHKY 160653Z AUTO 00000KT 9SM OVC047 19/17 A3007 RMK AO2 RAB15E26 SLP165 P0000 T01890172,KHKY,2023-05-16T06:53:00Z,35.75,-81.38,18.9,17.2,0,0,,9.0,30.070866,1016.5,,TRUE,TRUE,,,,,,,OVC,4700,,,,,,,VFR,,,,,,0.005,,,,,,METAR,357.0
KHKS 160653Z AUTO 00000KT 10SM CLR 22/20 A3006 RMK AO2 SLP168 T02220200,KHKS,2023-05-16T06:53:00Z,32.33,-90.22,22.2,20.0,0,0,,10.0,30.059055,1016.8,,TRUE,TRUE,,,,,,,CLR,,,,,,,,VFR,,,,,,,,,,,,METAR,103.0
KHKA 160653Z AUTO 19006KT 10SM CLR 23/20 A2998 RMK AO2 SLP149 T02280200 $,KHKA,2023-05-16T06:53:00Z,35.93,-89.83,22.8,20.0,190,6,,10.0,29.97933,1014.9,,TRUE,TRUE,TRUE,,,,,,CLR,,,,,,,,VFR,,,,,,,,,,,,METAR,78.0
KHJO 160653Z AUTO 31014KT 10SM CLR 24/14 A2996 RMK AO2 SLP144 T02440139,KHJO,2023-05-16T06:53:00Z,36.32,-119.62,24.4,13.9,310,14,,10.0,29.958662,1014.4,,TRUE,TRUE,,,,,,,CLR,,,,,,,,VFR,,,,,,,,,,,,METAR,73.0
KHIO 160653Z AUTO 10003KT 10SM CLR 18/13 A3006 RMK AO2 SLP176 T01780133,KHIO,2023-05-16T06:53:00Z,45.55,-122.95,17.8,13.3,100,3,,10.0,30.059055,1017.6,,TRUE,TRUE,,,,,,,CLR,,,,,,,,VFR,,,,,,,,,,,,METAR,62.0
KHIB 160653Z AUTO 00000KT 10SM CLR 06/02 A2996 RMK AO2 SLP146 T00560022,KHIB,2023-05-16T06:53:00Z,47.38,-92.83,5.6,2.2,0,0,,10.0,29.958662,1014.6,,TRUE,TRUE,,,,,,,CLR,,,,,,,,VFR,,,,,,,,,,,,METAR,409.0
KHHR 160653Z AUTO VRB03KT 9SM OVC010 18/13 A3005 RMK AO2 SLP176 T01780133,KHHR,2023-05-16T06:53:00Z,33.92,-118.33,17.8,13.3,0,3,,9.0,30.050198,1017.6,,TRUE,TRUE,,,,,,,OVC,1000,,,,,,,MVFR,,,,,,,,,,,,METAR,21.0
KHGR 160653Z AUTO 17006KT 10SM CLR 14/12 A2999 RMK AO2 SLP162 T01440117,KHGR,2023-05-16T06:53:00Z,39.7,-77.73,14.4,11.7,170,6,,10.0,29.991142,1016.2,,TRUE,TRUE,,,,,,,CLR,,,,,,,,VFR,,,,,,,,,,,,METAR,206.0
KHFD 160653Z AUTO 00000KT 10SM CLR 12/07 A2985 RMK AO2 SLP109 T01170072,KHFD,2023-05-16T06:53:00Z,41.73,-72.65,11.7,7.2,0,0,,10.0,29.84941,1010.9,,TRUE,TRUE,,,,,,,CLR,,,,,,,,VFR,,,,,,,,,,,,METAR,3.0
KHEI 160653Z AUTO 14005KT 10SM CLR 11/07 A3018 RMK AO2 SLP212 T01110067 402280039,KHEI,2023-05-16T06:53:00Z,46.02,-102.65,11.1,6.7,140,5,,10.0,30.180119,1021.2,,TRUE,TRUE,,,,,,,CLR,,,,,,,,VFR,,,,22.8,3.9,,,,,,,METAR,824.0
KHBR 160653Z AUTO 34006KT 10SM 18/ A3018 RMK AO2 SLP208 T0183 $,KHBR,2023-05-16T06:53:00Z,34.98,-99.05,18.3,,340,6,,10.0,30.180119,1020.8,,TRUE,TRUE,TRUE,,,,,,,,,,,,,,,,,,,,,,,,,,METAR,475.0
KHBG 160653Z AUTO 00000KT 10SM CLR 22/20 A3006 RMK AO2 SLP176 T02170200,KHBG,2023-05-16T06:53:00Z,31.27,-89.25,21.7,20.0,0,0,,10.0,30.059055,1017.6,,TRUE,TRUE,,,,,,,CLR,,,,,,,,VFR,,,,,,,,,,,,METAR,45.0
KHAO 160653Z AUTO 00000KT 10SM OVC120 15/13 A3004 RMK AO2 SLP170 T01500133,KHAO,2023-05-16T06:53:00Z,39.37,-84.52,15.0,13.3,0,0,,10.0,30.041338,1017.0,,TRUE,TRUE,,,,,,,OVC,12000,,,,,,,VFR,,,,,,,,,,,,METAR,185.0
KGZH 160653Z AUTO 00000KT 10SM CLR 22/20 A3005 RMK AO2 SLP172 T02170200,KGZH,2023-05-16T06:53:00Z,31.42,-87.05,21.7,20.0,0,0,,10.0,30.050198,1017.2,,TRUE,TRUE,,,,,,,CLR,,,,,,,,VFR,,,,,,,,,,,,METAR,77.0
KGWO 160653Z AUTO 00000KT 9SM CLR 24/22 A3003 RMK AO2 SLP165 T02390217,KGWO,2023-05-16T06:53:00Z,33.5,-90.08,23.9,21.7,0,0,,9.0,30.029528,1016.5,,TRUE,TRUE,,,,,,,CLR,,,,,,,,VFR,,,,,,,,,,,,METAR,42.0
KGVL 160653Z AUTO 00000KT 10SM BKN028 OVC033 21/18 A3011 RMK AO2 SLP180 T02110178,KGVL,2023-05-16T06:53:00Z,34.27,-83.83,21.1,17.8,0,0,,10.0,30.109253,1018.0,,TRUE,TRUE,,,,,,,BKN,2800,OVC,3300,,,,,MVFR,,,,,,,,,,,,METAR,387.0
KGUY 160653Z AUTO 00000KT 10SM CLR 13/12 A3025 RMK AO2 SLP219 T01280122,KGUY,2023-05-16T06:53:00Z,36.68,-101.5,12.8,12.2,0,0,,10.0,30.250984,1021.9,,TRUE,TRUE,,,,,,,CLR,,,,,,,,VFR,,,,,,,,,,,,METAR,950.0
KGUP 160653Z AUTO 03006KT 10SM CLR 10/05 A3037 RMK AO2 SLP189 T01000050 402280039,KGUP,2023-05-16T06:53:00Z,35.52,-108.8,10.0,5.0,30,6,,10.0,30.369095,1018.9,,TRUE,TRUE,,,,,,,CLR,,,,,,,,VFR,,,,22.8,3.9,,,,,,,METAR,1972.0
KGTF 160653Z 19009KT 10SM CLR 14/08 A3008 RMK AO2 SLP166 T01390078 402560067,KGTF,2023-05-16T06:53:00Z,47.47,-111.38,13.9,7.8,190,9,,10.0,30.079725,1016.6,,,TRUE,,,,,,,CLR,,,,,,,,VFR,,,,25.6,6.7,,,,,,,METAR,1117.0
KGSP 160653Z 22006KT 10SM BKN046 OVC075 21/12 A3009 RMK AO2 SLP177 T02110122,KGSP,2023-05-16T06:53:00Z,34.9,-82.22,21.1,12.2,220,6,,10.0,30.088583,1017.7,,,TRUE,,,,,,,BKN,4600,OVC,7500,,,,,VFR,,,,,,,,,,,,METAR,285.0
KGSH 160653Z AUTO 00000KT 10SM CLR 09/05 A3004 RMK AO2 SLP172 T00890050,KGSH,2023-05-16T06:53:00Z,41.53,-85.78,8.9,5.0,0,0,,10.0,30.041338,1017.2,,TRUE,TRUE,,,,,,,CLR,,,,,,,,VFR,,,,,,,,,,,,METAR,252.0
KGRR 160653Z AUTO 26003KT 10SM CLR 09/M02 A3001 RMK AO2 SLP163 T00891017,KGRR,2023-05-16T06:53:00Z,42.88,-85.52,8.9,-1.7,260,3,,10.0,30.008858,1016.3,,TRUE,TRUE,,,,,,,CLR,,,,,,,,VFR,,,,,,,,,,,,METAR,239.0
KGRI 160653Z AUTO 31004KT 8SM OVC036 12/10 A3020 RMK AO2 SLP231 T01220100,KGRI,2023-05-16T06:53:00Z,40.97,-98.32,12.2,10.0,310,4,,8.0,30.200787,1023.1,,TRUE,TRUE,,,,,,,OVC,3600,,,,,,,VFR,,,,,,,,,,,,METAR,562.0
KGRB 160653Z AUTO 24005KT 10SM CLR 14/06 A2996 RMK AO2 SLP145 T01440061,KGRB,2023-05-16T06:53:00Z,44.48,-88.13,14.4,6.1,240,5,,10.0,29.958662,1014.5,,TRUE,TRUE,,,,,,,CLR,,,,,,,,VFR,,,,,,,,,,,,METAR,209.0
KGPT 160653Z AUTO 00000KT 10SM CLR 22/21 A3003 RMK AO2 SLP167 T02220211,KGPT,2023-05-16T06:53:00Z,30.42,-89.08,22.2,21.1,0,0,,10.0,30.029528,1016.7,,TRUE,TRUE,,,,,,,CLR,,,,,,,,VFR,,,,,,,,,,,,METAR,5.0
KGOK 160653Z AUTO VRB04KT 10SM OVC016 16/14 A3014 RMK AO2 SLP203 T01610139,KGOK,2023-05-16T06:53:00Z,35.85,-97.4,16.1,13.9,0,4,,10.0,30.138779,1020.3,,TRUE,TRUE,,,,,,,OVC,1600,,,,,,,MVFR,,,,,,,,,,,,METAR,326.0
KGNV 160653Z AUTO 00000KT 10SM CLR 20/19 A3009 RMK AO2 SLP187 T02000189,KGNV,2023-05-16T06:53:00Z,29.7,-82.28,20.0,18.9,0,0,,10.0,30.088583,1018.7,,TRUE,TRUE,,,,,,,CLR,,,,,,,,VFR,,,,,,,,,,,,METAR,41.0
KGMU 160653Z AUTO 24005KT 10SM OVC070 22/14 A3009 RMK AO2 SLP179 T02170139,KGMU,2023-05-16T06:53:00Z,34.85,-82.35,21.7,13.9,240,5,,10.0,30.088583,1017.9,,TRUE,TRUE,,,,,,,OVC,7000,,,,,,,VFR,,,,,,,,,,,,METAR,309.0
KGLR 160653Z AUTO 26006KT 10SM CLR 11/M03 A2991 RMK AO2 SLP128 T01111033,KGLR,2023-05-16T06:53:00Z,45.02,-84.68,11.1,-3.3,260,6,,10.0,29.911417,1012.8,,TRUE,TRUE,,,,,,,CLR,,,,,,,,VFR,,,,,,,,,,,,METAR,403.0
KGLH 160653Z AUTO 17004KT 10SM CLR 22/19 A3002 RMK AO2 SLP171 T02220189,KGLH,2023-05-16T06:53:00Z,33.47,-90.98,22.2,18.9,170,4,,10.0,30.02067,1017.1,,TRUE,TRUE,,,,,,,CLR,,,,,,,,VFR,,,,,,,,,,,,METAR,40.0
KGLD 160653Z AUTO 27003KT 8SM CLR 08/07 A3025 RMK AO2 SLP232 T00780072 401560078,KGLD,2023-05-16T06:53:00Z,39.37,-101.7,7.8,7.2,270,3,,8.0,30.250984,1023.2,,TRUE,TRUE,,,,,,,CLR,,,,,,,,VFR,,,,15.6,7.8,,,,,,,METAR,1111.0
KGKJ 160653Z AUTO 20005KT 10SM CLR 08/M02 A3000 RMK AO2 SLP157 T00831022,KGKJ,2023-05-16T06:53:00Z,41.63,-80.22,8.3,-2.2,200,5,,10.0,30.0,1015.7,,TRUE,TRUE,,,,,,,CLR,,,,,,,,VFR,,,,,,,,,,,,METAR,428.0
KGJT 160653Z AUTO 11010KT 10SM CLR 17/06 A3027 RMK AO2 SLP191 T01670061 402720089,KGJT,2023-05-16T06:53:00Z,39.13,-108.53,16.7,6.1,110,10,,10.0,30.268702,1019.1,,TRUE,TRUE,,,,,,,CLR,,,,,,,,VFR,,,,27.2,8.9,,,,,,,METAR,1475.0
KGIF 160653Z AUTO 00000KT 10SM CLR 21/18 A3007 RMK AO2 SLP181 T02110178,KGIF,2023-05-16T06:53:00Z,28.07,-81.75,21.1,17.8,0,0,,10.0,30.070866,1018.1,,TRUE,TRUE,,,,,,,CLR,,,,,,,,VFR,,,,,,,,,,,,METAR,44.0
KGGW 160653Z AUTO 10011KT 10SM CLR 15/08 A3007 RMK AO2 SLP175 T01500083 402560106,KGGW,2023-05-16T06:53:00Z,48.22,-106.62,15.0,8.3,100,11,,10.0,30.070866,1017.5,,TRUE,TRUE,,,,,,,CLR,,,,,,,,VFR,,,,25.6,10.6,,,,,,,METAR,698.0
KGGG 160653Z AUTO 00000KT 10SM CLR 21/18 A3008 RMK AO2 SLP178 T02060183,KGGG,2023-05-16T06:53:00Z,32.38,-94.72,20.6,18.3,0,0,,10.0,30.079725,1017.8,,TRUE,TRUE,,,,,,,CLR,,,,,,,,VFR,,,,,,,,,,,,METAR,107.0
KGFL 160653Z AUTO 17007KT 10SM CLR 11/02 A2981 RMK AO2 SLP094 T01110022,KGFL,2023-05-16T06:53:00Z,43.33,-73.62,11.1,2.2,170,7,,10.0,29.811024,1009.4,,TRUE,TRUE,,,,,,,CLR,,,,,,,,VFR,,,,,,,,,,,,METAR,99.0
KGFK 160653Z AUTO 26008KT 10SM CLR 17/06 A3000 RMK AO2 SLP156 T01670056,KGFK,2023-05-16T06:53:00Z,47.95,-97.18,16.7,5.6,260,8,,10.0,30.0,1015.6,,TRUE,TRUE,,,,,,,CLR,,,,,,,,VFR,,,,,,,,,,,,METAR,256.0
KGEZ 160653Z AUTO 00000KT 10SM BKN100 18/13 A3002 RMK AO2 SLP162 T01780133,KGEZ,2023-05-16T06:53:00Z,39.58,-85.8,17.8,13.3,0,0,,10.0,30.02067,1016.2,,TRUE,TRUE,,,,,,,BKN,10000,,,,,,,VFR,,,,,,,,,,,,METAR,245.0
KGEY 160653Z AUTO 13005KT 10SM SCT100 14/06 A3014 RMK AO2 SLP182 T01440061 402500089,KGEY,2023-05-16T06:53:00Z,44.52,-108.08,14.4,6.1,130,5,,10.0,30.138779,1018.2,,TRUE,TRUE,,,,,,,SCT,10000,,,,,,,VFR,,,,25.0,8.9,,,,,,,METAR,1191.0
KGEG 160653Z 16003KT 10SM FEW075 SCT110 BKN250 18/12 A3007 RMK AO2 SLP168 LTG DSNT N-NE AND SE CB DSNT N-NE AND SE T01780117,KGEG,2023-05-16T06:53:00Z,47.62,-117.53,17.8,11.7,160,3,,10.0,30.070866,1016.8,,,TRUE,,,,,,,FEW,7500,SCT,11000,BKN,25000,,,VFR,,,,,,,,,,,,METAR,718.0
KGCC 160653Z AUTO 17010KT 10SM CLR 12/08 A3016 RMK AO2 SLP189 T01170083 402060056,KGCC,2023-05-16T06:53:00Z,44.33,-105.55,11.7,8.3,170,10,,10.0,30.159449,1018.9,,TRUE,TRUE,,,,,,,CLR,,,,,,,,VFR,,,,20.6,5.6,,,,,,,METAR,1328.0
KGAG 160653Z AUTO 05006KT 10SM BKN036 15/12 A3021 RMK AO2 SLP215 T01500117,KGAG,2023-05-16T06:53:00Z,36.3,-99.77,15.0,11.7,50,6,,10.0,30.209646,1021.5,,TRUE,TRUE,,,,,,,BKN,3600,,,,,,,VFR,,,,,,,,,,,,METAR,670.0
KFYV 160653Z AUTO 25006KT 9SM BKN007 OVC013 21/19 A3008 RMK AO2 CIG 005V010 SLP171 T02060189,KFYV,2023-05-16T06:53:00Z,36.02,-94.17,20.6,18.9,250,6,,9.0,30.079725,1017.1,,TRUE,TRUE,,,,,,,BKN,700,OVC,1300,,,,,IFR,,,,,,,,,,,,METAR,377.0
KFXE 160653Z AUTO 35003KT 10SM CLR 24/20 A3001 RMK AO2 SLP165 T02390200 PNO,KFXE,2023-05-16T06:53:00Z,26.2,-80.18,23.9,20.0,350,3,,10.0,30.008858,1016.5,,TRUE,TRUE,,,,,,,CLR,,,,,,,,VFR,,,,,,,,,,,,METAR,3.0
KFWN 160653Z AUTO 00000KT 10SM CLR 07/04 A2993 RMK AO2 SLP136 T00720044,KFWN,2023-05-16T06:53:00Z,41.2,-74.63,7.2,4.4,0,0,,10.0,29.929134,1013.6,,TRUE,TRUE,,,,,,,CLR,,,,,,,,VFR,,,,,,,,,,,,METAR,129.0
KFVE 160653Z AUTO 26007KT 10SM BKN036 BKN075 08/04 A2954 RMK AO2 SLP004 T00830044,KFVE,2023-05-16T06:53:00Z,47.28,-68.3,8.3,4.4,260,7,,10.0,29.53937,1000.4,,TRUE,TRUE,,,,,,,BKN,3600,BKN,7500,,,,,VFR,,,,,,,,,,,,METAR,299.0
KFUL 160653Z AUTO 00000KT 8SM FEW013 16/14 A3003 RMK AO2 SLP169 T01610144,KFUL,2023-05-16T06:53:00Z,33.87,-117.98,16.1,14.4,0,0,,8.0,30.029528,1016.9,,TRUE,TRUE,,,,,,,FEW,1300,,,,,,,VFR,,,,,,,,,,,,METAR,23.0
KFTW 160653Z 34008G18KT 10SM FEW110 21/18 A3008 RMK AO2 SLP179 T02110183,KFTW,2023-05-16T06:53:00Z,32.83,-97.37,21.1,18.3,340,8,18,10.0,30.079725,1017.9,,,TRUE,,,,,,,FEW,11000,,,,,,,VFR,,,,,,,,,,,,METAR,213.0
KFST 160653Z AUTO 04004KT 10SM OVC110 18/13 A3022 RMK AO2 SLP193 T01830133,KFST,2023-05-16T06:53:00Z,30.92,-102.92,18.3,13.3,40,4,,10.0,30.221457,1019.3,,TRUE,TRUE,,,,,,,OVC,11000,,,,,,,VFR,,,,,,,,,,,,METAR,917.0
KFRG 160653Z AUTO 24007KT 10SM CLR 16/07 A2990 RMK AO2 SLP125 T01610067,KFRG,2023-05-16T06:53:00Z,40.73,-73.42,16.1,6.7,240,7,,10.0,29.899607,1012.5,,TRUE,TRUE,,,,,,,CLR,,,,,,,,VFR,,,,,,,,,,,,METAR,23.0
KFPR 160653Z AUTO 30003KT 8SM CLR 19/19 A3003 RMK AO2 SLP170 T01940189,KFPR,2023-05-16T06:53:00Z,27.5,-80.38,19.4,18.9,300,3,,8.0,30.029528,1017.0,,TRUE,TRUE,,,,,,,CLR,,,,,,,,VFR,,,,,,,,,,,,METAR,7.0
KFOK 160653Z AUTO 24007KT 10SM CLR 13/10 A2990 RMK AO2 SLP126 T01330100,KFOK,2023-05-16T06:53:00Z,40.85,-72.62,13.3,10.0,240,7,,10.0,29.899607,1012.6,,TRUE,TRUE,,,,,,,CLR,,,,,,,,VFR,,,,,,,,,,,,METAR,13.0
KFNT 160653Z AUTO 00000KT 10SM CLR 06/03 A2998 RMK AO2 SLP155 T00610028,KFNT,2023-05-16T06:53:00Z,42.97,-83.75,6.1,2.8,0,0,,10.0,29.97933,1015.5,,TRUE,TRUE,,,,,,,CLR,,,,,,,,VFR,,,,,,,,,,,,METAR,235.0
KFNB 160653Z AUTO 35005KT 10SM OVC017 13/12 A3013 RMK AO2 SLP202 T01330122,KFNB,2023-05-16T06:53:00Z,40.07,-95.58,13.3,12.2,350,5,,10.0,30.129921,1020.2,,TRUE,TRUE,,,,,,,OVC,1700,,,,,,,MVFR,,,,,,,,,,,,METAR,301.0
KFMY 160653Z AUTO 08003KT 10SM CLR 23/21 A3003 RMK AO2 SLP170 T02330206,KFMY,2023-05-16T06:53:00Z,26.58,-81.87,23.3,20.6,80,3,,10.0,30.029528,1017.0,,TRUE,TRUE,,,,,,,CLR,,,,,,,,VFR,,,,,,,,,,,,METAR,4.0
KFMN 160653Z AUTO 08005KT 10SM CLR 13/07 A3031 RMK AO2 SLP222 T01280072 402500117 $,KFMN,2023-05-16T06:53:00Z,36.75,-108.23,12.8,7.2,80,5,,10.0,30.31004,1022.2,,TRUE,TRUE,TRUE,,,,,,CLR,,,,,,,,VFR,,,,25.0,11.7,,,,,,,METAR,1677.0
KFLO 160653Z AUTO A3010 RMK AO2 SLPNO PWINO $,KFLO,2023-05-16T06:53:00Z,34.18,-79.73,,,,,,,30.100393,,,TRUE,TRUE,TRUE,,,,TRUE,,,,,,,,,,,,,,,,,,,,,,METAR,43.0
KFLL 160653Z 35003KT 10SM CLR 23/21 A3000 RMK AO2 SLP158 T02330206 $,KFLL,2023-05-16T06:53:00Z,26.07,-80.15,23.3,20.6,350,3,,10.0,30.0,1015.8,,,TRUE,TRUE,,,,,,CLR,,,,,,,,VFR,,,,,,,,,,,,METAR,1.0
KFLD 160653Z AUTO 22005KT 10SM CLR 12/04 A3001 RMK AO2 SLP163 T01170044,KFLD,2023-05-16T06:53:00Z,43.77,-88.48,11.7,4.4,220,5,,10.0,30.008858,1016.3,,TRUE,TRUE,,,,,,,CLR,,,,,,,,VFR,,,,,,,,,,,,METAR,242.0
KFHR 160653Z AUTO 21012G24KT 10SM CLR 17/11 A3004 RMK AO2 SLP172 T01670106 $,KFHR,2023-05-16T06:53:00Z,48.52,-123.03,16.7,10.6,210,12,24,10.0,30.041338,1017.2,,TRUE,TRUE,TRUE,,,,,,CLR,,,,,,,,VFR,,,,,,,,,,,,METAR,34.0
KFFT 160653Z AUTO 33003KT 10SM SCT120 15/14 A3002 RMK AO2 SLP161 T01500139,KFFT,2023-05-16T06:53:00Z,38.18,-84.9,15.0,13.9,330,3,,10.0,30.02067,1016.1,,TRUE,TRUE,,,,,,,SCT,12000,,,,,,,VFR,,,,,,,,,,,,METAR,235.0
KFDY 160653Z AUTO 17003KT 10SM CLR 12/04 A3001 RMK AO2 SLP155 T01170044,KFDY,2023-05-16T06:53:00Z,41.02,-83.67,11.7,4.4,170,3,,10.0,30.008858,1015.5,,TRUE,TRUE,,,,,,,CLR,,,,,,,,VFR,,,,,,,,,,,,METAR,247.0
KFDR 160653Z AUTO 36005KT 10SM SCT039 18/16 A3014 RMK AO2 SLP190 T01830161,KFDR,2023-05-16T06:53:00Z,34.35,-98.98,18.3,16.1,360,5,,10.0,30.138779,1019.0,,TRUE,TRUE,,,,,,,SCT,3900,,,,,,,VFR,,,,,,,,,,,,METAR,378.0
KFCM 160653Z AUTO 24006KT 10SM CLR 13/09 A3006 RMK AO2 SLP178 T01280094,KFCM,2023-05-16T06:53:00Z,44.83,-93.47,12.8,9.4,240,6,,10.0,30.059055,1017.8,,TRUE,TRUE,,,,,,,CLR,,,,,,,,VFR,,,,,,,,,,,,METAR,276.0
KFAY 160653Z 21005KT 10SM FEW090 19/13 A3008 RMK AO2 SLP180 T01890133,KFAY,2023-05-16T06:53:00Z,34.98,-78.88,18.9,13.3,210,5,,10.0,30.079725,1018.0,,,TRUE,,,,,,,FEW,9000,,,,,,,VFR,,,,,,,,,,,,METAR,57.0
KFAT 160653Z 31009KT 10SM SCT200 24/14 A2997 RMK AO2 SLP144 T02390139 $,KFAT,2023-05-16T06:53:00Z,36.78,-119.72,23.9,13.9,310,9,,10.0,29.970472,1014.4,,,TRUE,TRUE,,,,,,SCT,20000,,,,,,,VFR,,,,,,,,,,,,METAR,102.0
KFAR 160653Z 24007KT 10SM CLR 16/08 A3004 RMK AO2 SLP169 T01560078 $,KFAR,2023-05-16T06:53:00Z,46.9,-96.82,15.6,7.8,240,7,,10.0,30.041338,1016.9,,,TRUE,TRUE,,,,,,CLR,,,,,,,,VFR,,,,,,,,,,,,METAR,276.0
KEYW 160653Z AUTO 10007KT 10SM SCT021 SCT047 27/22 A3001 RMK AO2 SLP168 T02670222,KEYW,2023-05-16T06:53:00Z,24.55,-81.75,26.7,22.2,100,7,,10.0,30.008858,1016.8,,TRUE,TRUE,,,,,,,SCT,2100,SCT,4700,,,,,VFR,,,,,,,,,,,,METAR,1.0
KEYE 160653Z AUTO 00000KT 10SM FEW100 17/14 A3002 RMK AO2 SLP163 T01670144,KEYE,2023-05-16T06:53:00Z,39.83,-86.3,16.7,14.4,0,0,,10.0,30.02067,1016.3,,TRUE,TRUE,,,,,,,FEW,10000,,,,,,,VFR,,,,,,,,,,,,METAR,248.0
KEWB 160653Z AUTO 24006KT 10SM CLR 11/08 A2982 RMK AO2 SLP098 T01110083,KEWB,2023-05-16T06:53:00Z,41.68,-70.95,11.1,8.3,240,6,,10.0,29.819881,1009.8,,TRUE,TRUE,,,,,,,CLR,,,,,,,,VFR,,,,,,,,,,,,METAR,22.0
KEVW 160653Z AUTO 16004KT 10SM CLR 11/02 A3037 RMK AO2 SLP212 T01060017 402110061,KEVW,2023-05-16T06:53:00Z,41.27,-111.03,10.6,1.7,160,4,,10.0,30.369095,1021.2,,TRUE,TRUE,,,,,,,CLR,,,,,,,,VFR,,,,21.1,6.1,,,,,,,METAR,2178.0
KESF 160653Z AUTO 29003KT 6SM BR CLR 20/20 A3006 RMK AO2 SLP175 T02000200,KESF,2023-05-16T06:53:00Z,31.4,-92.28,20.0,20.0,290,3,,6.0,30.059055,1017.5,,TRUE,TRUE,,,,,,BR,CLR,,,,,,,,VFR,,,,,,,,,,,,METAR,27.0
KEQY 160653Z AUTO 20005KT 10SM SCT100 18/12 A3009 RMK AO2 SLP189 T01830122,KEQY,2023-05-16T06:53:00Z,35.02,-80.62,18.3,12.2,200,5,,10.0,30.088583,1018.9,,TRUE,TRUE,,,,,,,SCT,10000,,,,,,,VFR,,,,,,,,,,,,METAR,205.0
KEPH 160653Z AUTO 19003KT 10SM CLR 19/10 A3000 RMK AO2 SLP152 T01890100,KEPH,2023-05-16T06:53:00Z,47.3,-119.52,18.9,10.0,190,3,,10.0,30.0,1015.2,,TRUE,TRUE,,,,,,,CLR,,,,,,,,VFR,,,,,,,,,,,,METAR,382.0
KENW 160653Z AUTO 25005KT 10SM CLR 08/00 A3003 RMK AO2 SLP171 T00830000,KENW,2023-05-16T06:53:00Z,42.6,-87.93,8.3,0.0,250,5,,10.0,30.029528,1017.1,,TRUE,TRUE,,,,,,,CLR,,,,,,,,VFR,,,,,,,,,,,,METAR,222.0
KEMP 160653Z AUTO 31007KT 5SM BR BKN007 BKN012 OVC019 13/12 A3014 RMK AO2 SLP203 T01330122,KEMP,2023-05-16T06:53:00Z,38.33,-96.2,13.3,12.2,310,7,,5.0,30.138779,1020.3,,TRUE,TRUE,,,,,,BR,BKN,700,BKN,1200,OVC,1900,,,IFR,,,,,,,,,,,,METAR,366.0
KELY 160653Z AUTO 00000KT 10SM CLR 07/02 A3031 RMK AO2 SLP197 T00720022,KELY,2023-05-16T06:53:00Z,39.3,-114.85,7.2,2.2,0,0,,10.0,30.31004,1019.7,,TRUE,TRUE,,,,,,,CLR,,,,,,,,VFR,,,,,,,,,,,,METAR,1906.0
KELN 160653Z AUTO 33010KT 10SM CLR 20/11 A3004 RMK AO2 SLP160 T02000106,KELN,2023-05-16T06:53:00Z,47.03,-120.53,20.0,10.6,330,10,,10.0,30.041338,1016.0,,TRUE,TRUE,,,,,,,CLR,,,,,,,,VFR,,,,,,,,,,,,METAR,532.0
KELM 160653Z AUTO 00000KT 10SM CLR 03/01 A2995 RMK AO2 SLP143 T00330006,KELM,2023-05-16T06:53:00Z,42.15,-76.9,3.3,0.6,0,0,,10.0,29.949802,1014.3,,TRUE,TRUE,,,,,,,CLR,,,,,,,,VFR,,,,,,,,,,,,METAR,287.0
KELD 160653Z AUTO 00000KT 10SM CLR 21/21 A3004 RMK AO2 SLP170 T02060206,KELD,2023-05-16T06:53:00Z,33.22,-92.82,20.6,20.6,0,0,,10.0,30.041338,1017.0,,TRUE,TRUE,,,,,,,CLR,,,,,,,,VFR,,,,,,,,,,,,METAR,76.0
KEET 160653Z AUTO 00000KT 10SM CLR 21/20 A3006 RMK AO2 SLP171 T02060200,KEET,2023-05-16T06:53:00Z,33.18,-86.78,20.6,20.0,0,0,,10.0,30.059055,1017.1,,TRUE,TRUE,,,,,,,CLR,,,,,,,,VFR,,,,,,,,,,,,METAR,172.0
KEEO 160653Z AUTO 00000KT 10SM OVC100 07/04 A3037 RMK AO2 SLP226 T00720039 402060033 $,KEEO,2023-05-16T06:53:00Z,40.05,-107.88,7.2,3.9,0,0,,10.0,30.369095,1022.6,,TRUE,TRUE,TRUE,,,,,,OVC,10000,,,,,,,VFR,,,,20.6,3.3,,,,,,,METAR,1957.0
KECP 160653Z AUTO 04003KT 9SM CLR 22/21 A3004 RMK AO1 SLP183 T02170206,KECP,2023-05-16T06:53:00Z,30.35,-85.8,21.7,20.6,40,3,,9.0,30.041338,1018.3,,TRUE,TRUE,,,,,,,CLR,,,,,,,,VFR,,,,,,,,,,,,METAR,17.0
KDXR 160653Z AUTO 25010KT 10SM CLR 14/02 A2989 RMK AO2 SLP118 T01440022,KDXR,2023-05-16T06:53:00Z,41.37,-73.48,14.4,2.2,250,10,,10.0,29.890747,1011.8,,TRUE,TRUE,,,,,,,CLR,,,,,,,,VFR,,,,,,,,,,,,METAR,138.0
KDWH 160653Z AUTO 36003KT 8SM CLR 21/20 A3009 RMK AO2 SLP187 T02060200 $,KDWH,2023-05-16T06:53:00Z,30.07,-95.55,20.6,20.0,360,3,,8.0,30.088583,1018.7,,TRUE,TRUE,TRUE,,,,,,CLR,,,,,,,,VFR,,,,,,,,,,,,METAR,46.0
KDVT 160653Z AUTO 00000KT 10SM CLR 29/07 A2998 RMK AO2 SLP123 T02940072 403670244,KDVT,2023-05-16T06:53:00Z,33.68,-112.07,29.4,7.2,0,0,,10.0,29.97933,1012.3,,TRUE,TRUE,,,,,,,CLR,,,,,,,,VFR,,,,36.7,24.4,,,,,,,METAR,454.0
KDUJ 160653Z AUTO 23003KT 10SM CLR 08/M02 A3000 RMK AO2 SLP154 T00781022,KDUJ,2023-05-16T06:53:00Z,41.17,-78.9,7.8,-2.2,230,3,,10.0,30.0,1015.4,,TRUE,TRUE,,,,,,,CLR,,,,,,,,VFR,,,,,,,,,,,,METAR,552.0
KDTW 160653Z 19005KT 10SM SCT250 11/03 A3000 RMK AO2 SLP158 T01060033 $,KDTW,2023-05-16T06:53:00Z,42.23,-83.33,10.6,3.3,190,5,,10.0,30.0,1015.8,,,TRUE,TRUE,,,,,,SCT,25000,,,,,,,VFR,,,,,,,,,,,,METAR,192.0
KDTS 160653Z AUTO 08004KT 10SM CLR 24/21 A3005 RMK AO2 SLP175 T02440211,KDTS,2023-05-16T06:53:00Z,30.4,-86.47,24.4,21.1,80,4,,10.0,30.050198,1017.5,,TRUE,TRUE,,,,,,,CLR,,,,,,,,VFR,,,,,,,,,,,,METAR,5.0
KDTO 160653Z AUTO 36009KT 10SM CLR 20/19 A3009 RMK AO2 SLP182 T02000189,KDTO,2023-05-16T06:53:00Z,33.2,-97.2,20.0,18.9,360,9,,10.0,30.088583,1018.2,,TRUE,TRUE,,,,,,,CLR,,,,,,,,VFR,,,,,,,,,,,,METAR,199.0
KDTN 160653Z AUTO 22004KT 10SM CLR 23/20 A3006 RMK AO2 SLP176 T02280200,KDTN,2023-05-16T06:53:00Z,32.55,-93.75,22.8,20.0,220,4,,10.0,30.059055,1017.6,,TRUE,TRUE,,,,,,,CLR,,,,,,,,VFR,,,,,,,,,,,,METAR,53.0
KDRT 160653Z AUTO 00000KT 10SM CLR 21/19 A3013 RMK AO2 SLP198 T02110189 $,KDRT,2023-05-16T06:53:00Z,29.37,-100.92,21.1,18.9,0,0,,10.0,30.129921,1019.8,,TRUE,TRUE,TRUE,,,,,,CLR,,,,,,,,VFR,,,,,,,,,,,,METAR,303.0
KDRO 160653Z AUTO 01006KT 10SM CLR 08/05 A3038 RMK AO2 SLP235 T00780050 402220061,KDRO,2023-05-16T06:53:00Z,37.15,-107.77,7.8,5.0,10,6,,10.0,30.380905,1023.5,,TRUE,TRUE,,,,,,,CLR,,,,,,,,VFR,,,,22.2,6.1,,,,,,,METAR,2021.0
KDRA 160653Z AUTO 05004KT 10SM CLR 21/M04 A3008 RMK AO2 SLP142 T02061039,KDRA,2023-05-16T06:53:00Z,36.62,-116.03,20.6,-3.9,50,4,,10.0,30.079725,1014.2,,TRUE,TRUE,,,,,,,CLR,,,,,,,,VFR,,,,,,,,,,,,METAR,988.0
KDNL 160653Z AUTO 17003KT 10SM CLR 20/17 A3010 RMK AO2 SLP189 T02000172,KDNL,2023-05-16T06:53:00Z,33.47,-82.03,20.0,17.2,170,3,,10.0,30.100393,1018.9,,TRUE,TRUE,,,,,,,CLR,,,,,,,,VFR,,,,,,,,,,,,METAR,126.0
KDMN 160653Z AUTO 07005KT 10SM OVC070 21/11 A3025 RMK AO2 SLP173 T02110106 402780156,KDMN,2023-05-16T06:53:00Z,32.27,-107.72,21.1,10.6,70,5,,10.0,30.250984,1017.3,,TRUE,TRUE,,,,,,,OVC,7000,,,,,,,VFR,,,,27.8,15.6,,,,,,,METAR,1310.0
KDLS 160653Z AUTO 30007KT 10SM CLR 21/12 A3002 RMK AO2 SLP164 T02060122,KDLS,2023-05-16T06:53:00Z,45.62,-121.17,20.6,12.2,300,7,,10.0,30.02067,1016.4,,TRUE,TRUE,,,,,,,CLR,,,,,,,,VFR,,,,,,,,,,,,METAR,71.0
KDLN 160653Z AUTO 19007KT 10SM CLR 08/06 A3024 RMK AO2 SLP208 T00780056 402110044,KDLN,2023-05-16T06:53:00Z,45.25,-112.55,7.8,5.6,190,7,,10.0,30.239174,1020.8,,TRUE,TRUE,,,,,,,CLR,,,,,,,,VFR,,,,21.1,4.4,,,,,,,METAR,1586.0
KDKK 160653Z AUTO 21008KT 10SM CLR 12/M02 A2996 RMK AO2 SLP145 T01171017,KDKK,2023-05-16T06:53:00Z,42.5,-79.28,11.7,-1.7,210,8,,10.0,29.958662,1014.5,,TRUE,TRUE,,,,,,,CLR,,,,,,,,VFR,,,,,,,,,,,,METAR,205.0
KDHT 160653Z AUTO 31005KT 9SM CLR 11/09 A3030 RMK AO2 SLP229 T01110094,KDHT,2023-05-16T06:53:00Z,36.02,-102.55,11.1,9.4,310,5,,9.0,30.301182,1022.9,,TRUE,TRUE,,,,,,,CLR,,,,,,,,VFR,,,,,,,,,,,,METAR,1217.0
KDHN 160653Z AUTO 00000KT 8SM CLR 22/21 A3010 RMK AO2 SLP187 T02170206 $,KDHN,2023-05-16T06:53:00Z,31.32,-85.45,21.7,20.6,0,0,,8.0,30.100393,1018.7,,TRUE,TRUE,TRUE,,,,,,CLR,,,,,,,,VFR,,,,,,,,,,,,METAR,113.0
KDGW 160653Z AUTO 14005KT 10SM CLR 09/07 A3021 RMK AO2 SLP201 T00890072 401780083,KDGW,2023-05-16T06:53:00Z,42.8,-105.38,8.9,7.2,140,5,,10.0,30.209646,1020.1,,TRUE,TRUE,,,,,,,CLR,,,,,,,,VFR,,,,17.8,8.3,,,,,,,METAR,1503.0
KDFW 160653Z 01009KT 10SM FEW010 FEW120 BKN140 BKN210 22/20 A3008 RMK AO2 SLP176 T02170200 PNO $,KDFW,2023-05-16T06:53:00Z,32.9,-97.02,21.7,20.0,10,9,,10.0,30.079725,1017.6,,,TRUE,TRUE,,,,,,FEW,1000,FEW,12000,BKN,14000,BKN,21000,VFR,,,,,,,,,,,,METAR,168.0
KDFI 160653Z AUTO 00000KT 10SM CLR 10/06 A3002 RMK AO2 SLP165 T01000061,KDFI,2023-05-16T06:53:00Z,41.33,-84.43,10.0,6.1,0,0,,10.0,30.02067,1016.5,,TRUE,TRUE,,,,,,,CLR,,,,,,,,VFR,,,,,,,,,,,,METAR,215.0
KDEW 160653Z AUTO 06012KT 10SM FEW080 19/11 A3008 RMK AO2 LTG DSNT N AND NE SLP171 T01940111,KDEW,2023-05-16T06:53:00Z,47.97,-117.43,19.4,11.1,60,12,,10.0,30.079725,1017.1,,TRUE,TRUE,,,,,,,FEW,8000,,,,,,,VFR,,,,,,,,,,,,METAR,672.0
KDET 160653Z 26003KT 10SM CLR 14/02 A2998 RMK AO2 SLPNO T01390022,KDET,2023-05-16T06:53:00Z,42.4,-83.02,13.9,2.2,260,3,,10.0,29.97933,,,,TRUE,,,,,,,CLR,,,,,,,,VFR,,,,,,,,,,,,METAR,190.0
KDEQ 160653Z AUTO 18004KT 10SM CLR 21/19 A3002 RMK AO2 SLP160 T02110194,KDEQ,2023-05-16T06:53:00Z,34.05,-94.4,21.1,19.4,180,4,,10.0,30.02067,1016.0,,TRUE,TRUE,,,,,,,CLR,,,,,,,,VFR,,,,,,,,,,,,METAR,107.0
KDEN 160653Z 17008KT 10SM FEW100 09/07 A3026 RMK AO2 SLP208 T00940072 401500083,KDEN,2023-05-16T06:53:00Z,39.85,-104.65,9.4,7.2,170,8,,10.0,30.259842,1020.8,,,TRUE,,,,,,,FEW,10000,,,,,,,VFR,,,,15.0,8.3,,,,,,,METAR,1656.0
KDBQ 160653Z AUTO 21003KT 10SM CLR 11/07 A3008 RMK AO2 SLP186 T01110067,KDBQ,2023-05-16T06:53:00Z,42.4,-90.7,11.1,6.7,210,3,,10.0,30.079725,1018.6,,TRUE,TRUE,,,,,,,CLR,,,,,,,,VFR,,,,,,,,,,,,METAR,317.0
KDAB 160653Z 25003KT 10SM FEW026 21/19 A3006 RMK SLP177 T02060189,KDAB,2023-05-16T06:53:00Z,29.18,-81.07,20.6,18.9,250,3,,10.0,30.059055,1017.7,,,,,,,,,,FEW,2600,,,,,,,VFR,,,,,,,,,,,,METAR,8.0
KCYS 160653Z AUTO 22010KT 10SM CLR 08/07 A3026 RMK AO2 SLP210 T00830067 401390072,KCYS,2023-05-16T06:53:00Z,41.15,-104.8,8.3,6.7,220,10,,10.0,30.259842,1021.0,,TRUE,TRUE,,,,,,,CLR,,,,,,,,VFR,,,,13.9,7.2,,,,,,,METAR,1868.0
KCXO 160653Z AUTO 00000KT 9SM CLR 19/19 A3009 RMK AO2 SLP187 T01890189,KCXO,2023-05-16T06:53:00Z,30.35,-95.42,18.9,18.9,0,0,,9.0,30.088583,1018.7,,TRUE,TRUE,,,,,,,CLR,,,,,,,,VFR,,,,,,,,,,,,METAR,69.0
KCUT 160653Z AUTO 00000KT 10SM CLR 04/02 A3025 RMK AO2 SLP218 T00440022 401610006,KCUT,2023-05-16T06:53:00Z,43.73,-103.62,4.4,2.2,0,0,,10.0,30.250984,1021.8,,TRUE,TRUE,,,,,,,CLR,,,,,,,,VFR,,,,16.1,0.6,,,,,,,METAR,1700.0
KCUB 160653Z AUTO 00000KT 10SM CLR 18/14 A3010 RMK AO2 SLP189 T01830144,KCUB,2023-05-16T06:53:00Z,33.97,-81.0,18.3,14.4,0,0,,10.0,30.100393,1018.9,,TRUE,TRUE,,,,,,,CLR,,,,,,,,VFR,,,,,,,,,,,,METAR,55.0
KCSM 160653Z AUTO 36007KT 10SM OVC019 17/14 A3020 RMK AO2 SLP212 T01670144,KCSM,2023-05-16T06:53:00Z,35.35,-99.2,16.7,14.4,360,7,,10.0,30.200787,1021.2,,TRUE,TRUE,,,,,,,OVC,1900,,,,,,,MVFR,,,,,,,,,,,,METAR,586.0
KCRS 160653Z AUTO 31003KT 10SM CLR 21/18 A3011 RMK AO2 SLP190 T02060183,KCRS,2023-05-16T06:53:00Z,32.03,-96.4,20.6,18.3,310,3,,10.0,30.109253,1019.0,,TRUE,TRUE,,,,,,,CLR,,,,,,,,VFR,,,,,,,,,,,,METAR,136.0
KCRQ 160653Z AUTO VRB03KT 10SM OVC007 16/13 A3004 RMK AO2 SLP170 T01560133,KCRQ,2023-05-16T06:53:00Z,33.13,-117.28,15.6,13.3,0,3,,10.0,30.041338,1017.0,,TRUE,TRUE,,,,,,,OVC,700,,,,,,,IFR,,,,,,,,,,,,METAR,96.0
KCRG 160653Z AUTO 00000KT 9SM CLR 21/19 A3006 RMK AO2 SLP180 T02060194,KCRG,2023-05-16T06:53:00Z,30.33,-81.52,20.6,19.4,0,0,,9.0,30.059055,1018.0,,TRUE,TRUE,,,,,,,CLR,,,,,,,,VFR,,,,,,,,,,,,METAR,12.0
KCRE 160653Z AUTO 15005KT 10SM OVC100 22/18 A3008 RMK AO1 SLP188 T02170178,KCRE,2023-05-16T06:53:00Z,33.82,-78.72,21.7,17.8,150,5,,10.0,30.079725,1018.8,,TRUE,TRUE,,,,,,,OVC,10000,,,,,,,VFR,,,,,,,,,,,,METAR,9.0
KCQC 160653Z AUTO 16005KT 10SM CLR 08/07 A3042 RMK AO2 SLP243 T00830067 401940083 $,KCQC,2023-05-16T06:53:00Z,35.0,-105.67,8.3,6.7,160,5,,10.0,30.41929,1024.3,,TRUE,TRUE,TRUE,,,,,,CLR,,,,,,,,VFR,,,,19.4,8.3,,,,,,,METAR,2163.0
KCPR 160653Z AUTO 24006KT 10SM CLR 10/08 A3021 RMK AO2 SLP190 T01000083 402110072,KCPR,2023-05-16T06:53:00Z,42.9,-106.47,10.0,8.3,240,6,,10.0,30.209646,1019.0,,TRUE,TRUE,,,,,,,CLR,,,,,,,,VFR,,,,21.1,7.2,,,,,,,METAR,1623.0
KCOT 160653Z AUTO 00000KT 10SM CLR 21/19 A3011 RMK AO2 SLP188 T02110189 $,KCOT,2023-05-16T06:53:00Z,28.45,-99.22,21.1,18.9,0,0,,10.0,30.109253,1018.8,,TRUE,TRUE,TRUE,,,,,,CLR,,,,,,,,VFR,,,,,,,,,,,,METAR,144.0
KCNY 160653Z AUTO 25004KT 10SM CLR 13/03 A3023 RMK AO2 SLP195 T01330028 402780117,KCNY,2023-05-16T06:53:00Z,38.77,-109.75,13.3,2.8,250,4,,10.0,30.230314,1019.5,,TRUE,TRUE,,,,,,,CLR,,,,,,,,VFR,,,,27.8,11.7,,,,,,,METAR,1392.0
KCNO 160653Z AUTO 00000KT 7SM CLR 16/13 A3005 RMK AO2 SLP172 T01560128,KCNO,2023-05-16T06:53:00Z,33.98,-117.62,15.6,12.8,0,0,,7.0,30.050198,1017.2,,TRUE,TRUE,,,,,,,CLR,,,,,,,,VFR,,,,,,,,,,,,METAR,191.0
KCNM 160653Z AUTO 10005KT 10SM CLR 19/12 A3024 RMK AO2 SLP193 T01890117 402720161,KCNM,2023-05-16T06:53:00Z,32.33,-104.25,18.9,11.7,100,5,,10.0,30.239174,1019.3,,TRUE,TRUE,,,,,,,CLR,,,,,,,,VFR,,,,27.2,16.1,,,,,,,METAR,993.0
KCMX 160653Z AUTO 27009KT 10SM CLR 17/02 A2984 RMK AO2 SLP102 T01670022,KCMX,2023-05-16T06:53:00Z,47.17,-88.48,16.7,2.2,270,9,,10.0,29.840551,1010.2,,TRUE,TRUE,,,,,,,CLR,,,,,,,,VFR,,,,,,,,,,,,METAR,326.0
KCMI 160653Z AUTO 03006KT 10SM OVC060 16/08 A3005 RMK AO2 RAB33E47 SLP171 P0000 T01610083,KCMI,2023-05-16T06:53:00Z,40.03,-88.27,16.1,8.3,30,6,,10.0,30.050198,1017.1,,TRUE,TRUE,,,,,,,OVC,6000,,,,,,,VFR,,,,,,0.005,,,,,,METAR,227.0
KCKB 160653Z AUTO 00000KT 3SM BR CLR 13/12 A3003 RMK AO2 SLP158 T01280117,KCKB,2023-05-16T06:53:00Z,39.3,-80.22,12.8,11.7,0,0,,3.0,30.029528,1015.8,,TRUE,TRUE,,,,,,BR,CLR,,,,,,,,MVFR,,,,,,,,,,,,METAR,368.0
KCHO 160653Z AUTO 00000KT 10SM FEW075 BKN090 OVC110 16/12 A3003 RMK AO2 SLP163 T01560117,KCHO,2023-05-16T06:53:00Z,38.13,-78.45,15.6,11.7,0,0,,10.0,30.029528,1016.3,,TRUE,TRUE,,,,,,,FEW,7500,BKN,9000,OVC,11000,,,VFR,,,,,,,,,,,,METAR,193.0
KCHA 160653Z AUTO 21003KT 6SM BR OVC004 21/20 A3007 RMK AO2 SLP173 T02110200,KCHA,2023-05-16T06:53:00Z,35.03,-85.2,21.1,20.0,210,3,,6.0,30.070866,1017.3,,TRUE,TRUE,,,,,,BR,OVC,400,,,,,,,LIFR,,,,,,,,,,,,METAR,203.0
KCEZ 160653Z AUTO 02003KT 10SM CLR 09/07 A3034 RMK AO2 SLP223 T00940072 402280072,KCEZ,2023-05-16T06:53:00Z,37.3,-108.63,9.4,7.2,20,3,,10.0,30.339567,1022.3,,TRUE,TRUE,,,,,,,CLR,,,,,,,,VFR,,,,22.8,7.2,,,,,,,METAR,1801.0
KCEW 160653Z AUTO 00000KT 6SM BR CLR 22/21 A3008 RMK AO2 SLPNO T02170206,KCEW,2023-05-16T06:53:00Z,30.78,-86.52,21.7,20.6,0,0,,6.0,30.079725,,,TRUE,TRUE,,,,,,BR,CLR,,,,,,,,VFR,,,,,,,,,,,,METAR,47.0
KCDW 160653Z AUTO 29003KT 10SM CLR 13/02 A2992 RMK AO2 SLP136 T01280022,KCDW,2023-05-16T06:53:00Z,40.88,-74.28,12.8,2.2,290,3,,10.0,29.920275,1013.6,,TRUE,TRUE,,,,,,,CLR,,,,,,,,VFR,,,,,,,,,,,,METAR,52.0
KCDS 160653Z AUTO 04003KT 10SM OVC050 18/14 A3021 RMK AO2 SLP214 T01830144,KCDS,2023-05-16T06:53:00Z,34.43,-100.28,18.3,14.4,40,3,,10.0,30.209646,1021.4,,TRUE,TRUE,,,,,,,OVC,5000,,,,,,,VFR,,,,,,,,,,,,METAR,595.0
KCDR 160653Z AUTO 21003KT 10SM CLR 11/07 A3019 RMK AO2 SLP220 T01060067 402060056,KCDR,2023-05-16T06:53:00Z,42.83,-103.1,10.6,6.7,210,3,,10.0,30.188976,1022.0,,TRUE,TRUE,,,,,,,CLR,,,,,,,,VFR,,,,20.6,5.6,,,,,,,METAR,1002.0
KCDC 160653Z AUTO 14007KT 10SM BKN110 19/03 A3028 RMK AO2 SLP180 T01890033 402670089,KCDC,2023-05-16T06:53:00Z,37.7,-113.1,18.9,3.3,140,7,,10.0,30.280512,1018.0,,TRUE,TRUE,,,,,,,BKN,11000,,,,,,,VFR,,,,26.7,8.9,,,,,,,METAR,1703.0
KCCR 160653Z AUTO 28005KT 10SM CLR 14/11 A3006 RMK AO2 SLP166 T01390111,KCCR,2023-05-16T06:53:00Z,38.0,-122.05,13.9,11.1,280,5,,10.0,30.059055,1016.6,,TRUE,TRUE,,,,,,,CLR,,,,,,,,VFR,,,,,,,,,,,,METAR,6.0
KCAG 160653Z AUTO 00000KT 10SM CLR 06/03 A3037 RMK AO2 SLP240 T00560028 402280022,KCAG,2023-05-16T06:53:00Z,40.5,-107.52,5.6,2.8,0,0,,10.0,30.369095,1024.0,,TRUE,TRUE,,,,,,,CLR,,,,,,,,VFR,,,,22.8,2.2,,,,,,,METAR,1888.0
KBYI 160653Z AUTO 18005KT 10SM CLR 10/08 A3024 RMK AO2 SLP211 T01000083 402560072 $,KBYI,2023-05-16T06:53:00Z,42.55,-113.77,10.0,8.3,180,5,,10.0,30.239174,1021.1,,TRUE,TRUE,TRUE,,,,,,CLR,,,,,,,,VFR,,,,25.6,7.2,,,,,,,METAR,1263.0
KBYG 160653Z AUTO 24006KT 10SM CLR 12/08 A3018 RMK AO2 SLP182 T01220078 402060083,KBYG,2023-05-16T06:53:00Z,44.38,-106.72,12.2,7.8,240,6,,10.0,30.180119,1018.2,,TRUE,TRUE,,,,,,,CLR,,,,,,,,VFR,,,,20.6,8.3,,,,,,,METAR,1503.0
KBWG 160653Z AUTO 00000KT 10SM CLR 20/18 A3001 RMK AO2 SLP157 T02000178,KBWG,2023-05-16T06:53:00Z,36.97,-86.42,20.0,17.8,0,0,,10.0,30.008858,1015.7,,TRUE,TRUE,,,,,,,CLR,,,,,,,,VFR,,,,,,,,,,,,METAR,159.0
KBVY 160653Z AUTO 26007KT 10SM CLR 15/01 A2977 RMK AO2 SLP074 T01500006,KBVY,2023-05-16T06:53:00Z,42.58,-70.92,15.0,0.6,260,7,,10.0,29.769686,1007.4,,TRUE,TRUE,,,,,,,CLR,,,,,,,,VFR,,,,,,,,,,,,METAR,28.0
KBVO 160653Z AUTO VRB03KT 10SM OVC012 17/14 A3013 RMK AO2 SLP193 T01670144,KBVO,2023-05-16T06:53:00Z,36.77,-96.02,16.7,14.4,0,3,,10.0,30.129921,1019.3,,TRUE,TRUE,,,,,,,OVC,1200,,,,,,,MVFR,,,,,,,,,,,,METAR,210.0
KBUR 160653Z 00000KT 6SM HZ CLR 16/13 A3004 RMK AO2 SLP163 T01560128,KBUR,2023-05-16T06:53:00Z,34.2,-118.37,15.6,12.8,0,0,,6.0,30.041338,1016.3,,,TRUE,,,,,,HZ,CLR,,,,,,,,VFR,,,,,,,,,,,,METAR,221.0
KBTR 160653Z AUTO 28005KT 9SM CLR 22/21 A3006 RMK AO2 SLP177 T02170206,KBTR,2023-05-16T06:53:00Z,30.53,-91.15,21.7,20.6,280,5,,9.0,30.059055,1017.7,,TRUE,TRUE,,,,,,,CLR,,,,,,,,VFR,,,,,,,,,,,,METAR,20.0
KBTM 160653Z AUTO 12004KT 10SM CLR 06/04 A3026 RMK AO2 SLP215 T00610044 402110061,KBTM,2023-05-16T06:53:00Z,45.97,-112.5,6.1,4.4,120,4,,10.0,30.259842,1021.5,,TRUE,TRUE,,,,,,,CLR,,,,,,,,VFR,,,,21.1,6.1,,,,,,,METAR,1680.0
KBTL 160653Z AUTO 21003KT 10SM CLR 08/03 A3002 RMK AO2 SLP166 T00830028,KBTL,2023-05-16T06:53:00Z,42.32,-85.25,8.3,2.8,210,3,,10.0,30.02067,1016.6,,TRUE,TRUE,,,,,,,CLR,,,,,,,,VFR,,,,,,,,,,,,METAR,282.0
KBRO 160653Z AUTO 05003KT 10SM FEW100 23/22 A3005 RMK AO2 SLP175 T02330222,KBRO,2023-05-16T06:53:00Z,25.92,-97.42,23.3,22.2,50,3,,10.0,30.050198,1017.5,,TRUE,TRUE,,,,,,,FEW,10000,,,,,,,VFR,,,,,,,,,,,,METAR,6.0
KBRL 160653Z AUTO 00000KT 10SM OVC070 15/11 A3008 RMK AO2 SLP184 T01500111,KBRL,2023-05-16T06:53:00Z,40.77,-91.13,15.0,11.1,0,0,,10.0,30.079725,1018.4,,TRUE,TRUE,,,,,,,OVC,7000,,,,,,,VFR,,,,,,,,,,,,METAR,208.0
KBRD 160653Z AUTO 26005KT 10SM CLR 12/05 A3003 RMK AO2 SLP168 T01220050,KBRD,2023-05-16T06:53:00Z,46.4,-94.13,12.2,5.0,260,5,,10.0,30.029528,1016.8,,TRUE,TRUE,,,,,,,CLR,,,,,,,,VFR,,,,,,,,,,,,METAR,372.0
KBPT 160653Z AUTO 27003KT 3SM BR CLR 22/22 A3006 RMK AO2 SLP179 T02220217,KBPT,2023-05-16T06:53:00Z,29.95,-94.03,22.2,21.7,270,3,,3.0,30.059055,1017.9,,TRUE,TRUE,,,,,,BR,CLR,,,,,,,,MVFR,,,,,,,,,,,,METAR,6.0
KBPI 160653Z AUTO 36005KT 10SM CLR 05/02 A3037 RMK AO2 SLP223 T00500017 401890050,KBPI,2023-05-16T06:53:00Z,42.58,-110.1,5.0,1.7,360,5,,10.0,30.369095,1022.3,,TRUE,TRUE,,,,,,,CLR,,,,,,,,VFR,,,,18.9,5.0,,,,,,,METAR,2120.0
KBOI 160653Z 13010KT 10SM CLR 17/08 A3018 RMK AO2 SLP198 T01670083 402780117,KBOI,2023-05-16T06:53:00Z,43.57,-116.23,16.7,8.3,130,10,,10.0,30.180119,1019.8,,,TRUE,,,,,,,CLR,,,,,,,,VFR,,,,27.8,11.7,,,,,,,METAR,860.0
KBNO 160653Z AUTO 00000KT 10SM FEW070 BKN090 OVC100 13/10 A3025 RMK AO2 RAB26E37 SLP223 P0000 T01330100,KBNO,2023-05-16T06:53:00Z,43.6,-118.95,13.3,10.0,0,0,,10.0,30.250984,1022.3,,TRUE,TRUE,,,,,,,FEW,7000,BKN,9000,OVC,10000,,,VFR,,,,,,0.005,,,,,,METAR,1263.0
KBNA 160653Z 21004KT 10SM BKN130 21/19 A3004 RMK AO2 SLP166 T02060189,KBNA,2023-05-16T06:53:00Z,36.12,-86.68,20.6,18.9,210,4,,10.0,30.041338,1016.6,,,TRUE,,,,,,,BKN,13000,,,,,,,VFR,,,,,,,,,,,,METAR,168.0
KBMQ 160653Z AUTO 27003KT 10SM CLR 19/19 A3014 RMK AO2 SLP190 T01940189,KBMQ,2023-05-16T06:53:00Z,30.73,-98.23,19.4,18.9,270,3,,10.0,30.138779,1019.0,,TRUE,TRUE,,,,,,,CLR,,,,,,,,VFR,,,,,,,,,,,,METAR,387.0
KBMG 160653Z AUTO 00000KT 8SM FEW080 OVC120 16/15 A3003 RMK AO2 SLP163 T01610150,KBMG,2023-05-16T06:53:00Z,39.15,-86.62,16.1,15.0,0,0,,8.0,30.029528,1016.3,,TRUE,TRUE,,,,,,,FEW,8000,OVC,12000,,,,,VFR,,,,,,,,,,,,METAR,254.0
KBLI 160653Z AUTO 19013G24KT 10SM CLR 18/13 A3002 RMK AO2 PK WND 17032/0609 SLP171 T01780128,KBLI,2023-05-16T06:53:00Z,48.8,-122.53,17.8,12.8,190,13,24,10.0,30.02067,1017.1,,TRUE,TRUE,,,,,,,CLR,,,,,,,,VFR,,,,,,,,,,,,METAR,46.0
KBKV 160653Z AUTO 07003KT 10SM CLR 21/18 A3007 RMK AO2 SLP181 T02060178,KBKV,2023-05-16T06:53:00Z,28.47,-82.45,20.6,17.8,70,3,,10.0,30.070866,1018.1,,TRUE,TRUE,,,,,,,CLR,,,,,,,,VFR,,,,,,,,,,,,METAR,21.0
KBKL 160653Z 16005KT 8SM CLR 11/00 A2999 RMK AO2 SLP158 T01110000,KBKL,2023-05-16T06:53:00Z,41.53,-81.67,11.1,0.0,160,5,,8.0,29.991142,1015.8,,,TRUE,,,,,,,CLR,,,,,,,,VFR,,,,,,,,,,,,METAR,177.0
KBKE 160653Z AUTO 29004KT 10SM CLR 11/09 A3019 RMK AO2 SLP213 T01060094,KBKE,2023-05-16T06:53:00Z,44.85,-117.82,10.6,9.4,290,4,,10.0,30.188976,1021.3,,TRUE,TRUE,,,,,,,CLR,,,,,,,,VFR,,,,,,,,,,,,METAR,1025.0
KBIV 160653Z AUTO 25004KT 10SM CLR 07/02 A3002 RMK AO2 SLP168 T00670017,KBIV,2023-05-16T06:53:00Z,42.75,-86.1,6.7,1.7,250,4,,10.0,30.02067,1016.8,,TRUE,TRUE,,,,,,,CLR,,,,,,,,VFR,,,,,,,,,,,,METAR,207.0
KBIL 160653Z 19006KT 10SM FEW110 17/11 A3012 RMK AO2 SLP178 T01670106 402500072 $,KBIL,2023-05-16T06:53:00Z,45.8,-108.55,16.7,10.6,190,6,,10.0,30.121063,1017.8,,,TRUE,TRUE,,,,,,FEW,11000,,,,,,,VFR,,,,25.0,7.2,,,,,,,METAR,1089.0
KBHM 160653Z 00000KT 10SM FEW140 21/19 A3008 RMK AO2 SLP178 T02110189,KBHM,2023-05-16T06:53:00Z,33.57,-86.75,21.1,18.9,0,0,,10.0,30.079725,1017.8,,,TRUE,,,,,,,FEW,14000,,,,,,,VFR,,,,,,,,,,,,METAR,191.0
KBGR 160653Z 27009G14KT 10SM BKN250 16/03 A2964 RMK AO2 SLP035 T01560033,KBGR,2023-05-16T06:53:00Z,44.8,-68.82,15.6,3.3,270,9,14,10.0,29.639763,1003.5,,,TRUE,,,,,,,BKN,25000,,,,,,,VFR,,,,,,,,,,,,METAR,45.0
KBGM 160653Z AUTO 24007KT 10SM CLR 11/M02 A2992 RMK AO2 SLP129 T01061022,KBGM,2023-05-16T06:53:00Z,42.22,-75.98,10.6,-2.2,240,7,,10.0,29.920275,1012.9,,TRUE,TRUE,,,,,,,CLR,,,,,,,,VFR,,,,,,,,,,,,METAR,485.0
KBFM 160653Z AUTO 00000KT 10SM FEW110 24/21 A3005 RMK AO2 SLP175 T02390211,KBFM,2023-05-16T06:53:00Z,30.62,-88.07,23.9,21.1,0,0,,10.0,30.050198,1017.5,,TRUE,TRUE,,,,,,,FEW,11000,,,,,,,VFR,,,,,,,,,,,,METAR,7.0
KBFI 160653Z 25003KT 10SM FEW090 BKN120 17/12 A3008 RMK AO2 RAE11 SLP185 P0000 T01670122 403280161,KBFI,2023-05-16T06:53:00Z,47.55,-122.32,16.7,12.2,250,3,,10.0,30.079725,1018.5,,,TRUE,,,,,,,FEW,9000,BKN,12000,,,,,VFR,,,,32.8,16.1,0.005,,,,,,METAR,7.0
KBFF 160653Z AUTO 10006KT 10SM CLR 11/08 A3021 RMK AO2 SLP205 T01110083 401940083,KBFF,2023-05-16T06:53:00Z,41.87,-103.6,11.1,8.3,100,6,,10.0,30.209646,1020.5,,TRUE,TRUE,,,,,,,CLR,,,,,,,,VFR,,,,19.4,8.3,,,,,,,METAR,1204.0
KBFD 160653Z AUTO 00000KT 10SM CLR 02/M02 A3000 RMK AO2 SLP155 T00221017,KBFD,2023-05-16T06:53:00Z,41.8,-78.63,2.2,-1.7,0,0,,10.0,30.0,1015.5,,TRUE,TRUE,,,,,,,CLR,,,,,,,,VFR,,,,,,,,,,,,METAR,642.0
KBEH 160653Z AUTO 00000KT 10SM CLR 05/03 A3004 RMK AO2 SLP173 T00500028,KBEH,2023-05-16T06:53:00Z,42.13,-86.42,5.0,2.8,0,0,,10.0,30.041338,1017.3,,TRUE,TRUE,,,,,,,CLR,,,,,,,,VFR,,,,,,,,,,,,METAR,196.0
KBDE 160653Z AUTO 26005KT 5SM HZ BKN100 17/04 A2994 RMK AO2 SLP137 T01670039,KBDE,2023-05-16T06:53:00Z,48.73,-94.62,16.7,3.9,260,5,,5.0,29.940945,1013.7,,TRUE,TRUE,,,,,,HZ,BKN,10000,,,,,,,MVFR,,,,,,,,,,,,METAR,330.0
KBCE 160653Z AUTO 16006KT 10SM FEW080 OVC100 11/06 A3043 RMK AO2 SLP206 T01060056 401890028,KBCE,2023-05-16T06:53:00Z,37.7,-112.15,10.6,5.6,160,6,,10.0,30.431103,1020.6,,TRUE,TRUE,,,,,,,FEW,8000,OVC,10000,,,,,VFR,,,,18.9,2.8,,,,,,,METAR,2311.0
KBBW 160653Z AUTO 00000KT 9SM OVC060 12/10 A3021 RMK AO2 SLP230 T01170100,KBBW,2023-05-16T06:53:00Z,41.43,-99.63,11.7,10.0,0,0,,9.0,30.209646,1023.0,,TRUE,TRUE,,,,,,,OVC,6000,,,,,,,VFR,,,,,,,,,,,,METAR,771.0
KBAF 160653Z AUTO 00000KT 10SM CLR 10/03 A2984 RMK AO2 SLP103 T01000033,KBAF,2023-05-16T06:53:00Z,42.17,-72.72,10.0,3.3,0,0,,10.0,29.840551,1010.3,,TRUE,TRUE,,,,,,,CLR,,,,,,,,VFR,,,,,,,,,,,,METAR,80.0
KAZO 160653Z AUTO 21004KT 10SM CLR 09/00 A3003 RMK AO2 SLP168 T00890000,KAZO,2023-05-16T06:53:00Z,42.23,-85.55,8.9,0.0,210,4,,10.0,30.029528,1016.8,,TRUE,TRUE,,,,,,,CLR,,,,,,,,VFR,,,,,,,,,,,,METAR,264.0
KAXN 160653Z AUTO 28008KT 10SM CLR 16/06 A3009 RMK AO2 SLP186 T01560056,KAXN,2023-05-16T06:53:00Z,45.87,-95.4,15.6,5.6,280,8,,10.0,30.088583,1018.6,,TRUE,TRUE,,,,,,,CLR,,,,,,,,VFR,,,,,,,,,,,,METAR,433.0
KAWM 160653Z AUTO 24003KT 10SM CLR 24/19 A3000 RMK AO2 SLP152 T02390194,KAWM,2023-05-16T06:53:00Z,35.13,-90.23,23.9,19.4,240,3,,10.0,30.0,1015.2,,TRUE,TRUE,,,,,,,CLR,,,,,,,,VFR,,,,,,,,,,,,METAR,64.0
KAUS 160653Z 00000KT 9SM -RA BKN120 OVC200 21/21 A3009 RMK AO2 SLP184 P0000 T02060206,KAUS,2023-05-16T06:53:00Z,30.18,-97.68,20.6,20.6,0,0,,9.0,30.088583,1018.4,,,TRUE,,,,,,-RA,BKN,12000,OVC,20000,,,,,VFR,,,,,,0.005,,,,,,METAR,148.0
KAUO 160653Z AUTO 15004KT 10SM -RA FEW100 22/22 A3008 RMK AO2 SLP173 P0001 T02220217,KAUO,2023-05-16T06:53:00Z,32.62,-85.43,22.2,21.7,150,4,,10.0,30.079725,1017.3,,TRUE,TRUE,,,,,,-RA,FEW,10000,,,,,,,VFR,,,,,,0.01,,,,,,METAR,231.0
KAUG 160653Z AUTO 25004KT 10SM CLR 14/02 A2968 RMK AO2 SLP049 T01390017,KAUG,2023-05-16T06:53:00Z,44.32,-69.8,13.9,1.7,250,4,,10.0,29.681103,1004.9,,TRUE,TRUE,,,,,,,CLR,,,,,,,,VFR,,,,,,,,,,,,METAR,107.0
KATY 160653Z AUTO 00000KT 10SM CLR 10/07 A3013 RMK AO2 SLP202 T01000067,KATY,2023-05-16T06:53:00Z,44.9,-97.15,10.0,6.7,0,0,,10.0,30.129921,1020.2,,TRUE,TRUE,,,,,,,CLR,,,,,,,,VFR,,,,,,,,,,,,METAR,531.0
KASX 160653Z AUTO 23010KT 10SM CLR 16/03 A2994 RMK AO2 SLP137 T01610028,KASX,2023-05-16T06:53:00Z,46.55,-90.92,16.1,2.8,230,10,,10.0,29.940945,1013.7,,TRUE,TRUE,,,,,,,CLR,,,,,,,,VFR,,,,,,,,,,,,METAR,249.0
KASE 160653Z AUTO 19005KT 10SM CLR 05/01 A3043 RMK AO2 SLP219 T00500006 401830033,KASE,2023-05-16T06:53:00Z,39.23,-106.87,5.0,0.6,190,5,,10.0,30.431103,1021.9,,TRUE,TRUE,,,,,,,CLR,,,,,,,,VFR,,,,18.3,3.3,,,,,,,METAR,2384.0
KASD 160653Z AUTO 35003KT 10SM CLR 22/21 A3004 RMK AO2 SLP171 T02170206,KASD,2023-05-16T06:53:00Z,30.35,-89.82,21.7,20.6,350,3,,10.0,30.041338,1017.1,,TRUE,TRUE,,,,,,,CLR,,,,,,,,VFR,,,,,,,,,,,,METAR,8.0
KARB 160653Z AUTO 00000KT 10SM CLR 07/04 A3000 RMK AO2 SLP157 T00670044 $,KARB,2023-05-16T06:53:00Z,42.22,-83.73,6.7,4.4,0,0,,10.0,30.0,1015.7,,TRUE,TRUE,TRUE,,,,,,CLR,,,,,,,,VFR,,,,,,,,,,,,METAR,251.0
KAPF 160653Z AUTO 09003KT 10SM FEW033 24/22 A3002 RMK AO2 SLP166 T02390217 PWINO,KAPF,2023-05-16T06:53:00Z,26.15,-81.77,23.9,21.7,90,3,,10.0,30.02067,1016.6,,TRUE,TRUE,,,,,TRUE,,FEW,3300,,,,,,,VFR,,,,,,,,,,,,METAR,2.0
KAPA 160653Z 22006KT 10SM CLR 11/07 A3028 RMK AO2 SLP230 T01060072 401500078,KAPA,2023-05-16T06:53:00Z,39.57,-104.85,10.6,7.2,220,6,,10.0,30.280512,1023.0,,,TRUE,,,,,,,CLR,,,,,,,,VFR,,,,15.0,7.8,,,,,,,METAR,1791.0
KAOO 160653Z AUTO 26003KT 10SM CLR 09/04 A3000 RMK AO2 SLP158 T00940044,KAOO,2023-05-16T06:53:00Z,40.3,-78.32,9.4,4.4,260,3,,10.0,30.0,1015.8,,TRUE,TRUE,,,,,,,CLR,,,,,,,,VFR,,,,,,,,,,,,METAR,450.0
KAOH 160653Z AUTO 16003KT 10SM CLR 12/06 A3002 RMK AO2 SLP164 T01220056,KAOH,2023-05-16T06:53:00Z,40.7,-84.02,12.2,5.6,160,3,,10.0,30.02067,1016.4,,TRUE,TRUE,,,,,,,CLR,,,,,,,,VFR,,,,,,,,,,,,METAR,294.0
KANB 160653Z AUTO 00000KT 8SM CLR 19/18 A3007 RMK AO2 SLP172 T01890183,KANB,2023-05-16T06:53:00Z,33.58,-85.85,18.9,18.3,0,0,,8.0,30.070866,1017.2,,TRUE,TRUE,,,,,,,CLR,,,,,,,,VFR,,,,,,,,,,,,METAR,187.0
KAMW 160653Z AUTO 32003KT 10SM OVC070 14/10 A3012 RMK AO2 SLP194 T01440100,KAMW,2023-05-16T06:53:00Z,41.98,-93.62,14.4,10.0,320,3,,10.0,30.121063,1019.4,,TRUE,TRUE,,,,,,,OVC,7000,,,,,,,VFR,,,,,,,,,,,,METAR,282.0
KAMG 160653Z AUTO 00000KT 5SM BR SCT021 BKN050 20/19 A3009 RMK AO2 SLP186 T02000189,KAMG,2023-05-16T06:53:00Z,31.53,-82.5,20.0,18.9,0,0,,5.0,30.088583,1018.6,,TRUE,TRUE,,,,,,BR,SCT,2100,BKN,5000,,,,,MVFR,,,,,,,,,,,,SPECI,61.0
KAMA 160653Z AUTO 36003KT 10SM CLR 13/11 A3026 RMK AO2 SLP221 T01280111,KAMA,2023-05-16T06:53:00Z,35.22,-101.72,12.8,11.1,360,3,,10.0,30.259842,1022.1,,TRUE,TRUE,,,,,,,CLR,,,,,,,,VFR,,,,,,,,,,,,METAR,1102.0
KALW 160653Z AUTO 10003KT 10SM CLR 18/09 A3005 RMK AO2 SLP168 T01780094,KALW,2023-05-16T06:53:00Z,46.1,-118.28,17.8,9.4,100,3,,10.0,30.050198,1016.8,,TRUE,TRUE,,,,,,,CLR,,,,,,,,VFR,,,,,,,,,,,,METAR,355.0
KALI 160653Z AUTO 00000KT 10SM CLR 21/21 A3009 RMK AO2 SLP186 T02110206,KALI,2023-05-16T06:53:00Z,27.73,-98.02,21.1,20.6,0,0,,10.0,30.088583,1018.6,,TRUE,TRUE,,,,,,,CLR,,,,,,,,VFR,,,,,,,,,,,,METAR,52.0
KAKO 160653Z AUTO 20008KT 10SM CLR 09/07 A3026 RMK AO2 SLP229 T00890072 401610089,KAKO,2023-05-16T06:53:00Z,40.17,-103.22,8.9,7.2,200,8,,10.0,30.259842,1022.9,,TRUE,TRUE,,,,,,,CLR,,,,,,,,VFR,,,,16.1,8.9,,,,,,,METAR,1431.0
KAIA 160653Z AUTO 12004KT 10SM CLR 08/06 A3022 RMK AO2 SLP217 T00780061 402000072,KAIA,2023-05-16T06:53:00Z,42.05,-102.8,7.8,6.1,120,4,,10.0,30.221457,1021.7,,TRUE,TRUE,,,,,,,CLR,,,,,,,,VFR,,,,20.0,7.2,,,,,,,METAR,1198.0
KAGC 160653Z 16004KT 10SM CLR 12/06 A3000 RMK AO2 SLP160 T01220056,KAGC,2023-05-16T06:53:00Z,40.35,-79.92,12.2,5.6,160,4,,10.0,30.0,1016.0,,,TRUE,,,,,,,CLR,,,,,,,,VFR,,,,,,,,,,,,METAR,380.0
KAFW 160653Z 36010KT 10SM BKN110 OVC130 21/19 A3008 RMK AO2 SLP173 T02060189,KAFW,2023-05-16T06:53:00Z,32.97,-97.32,20.6,18.9,360,10,,10.0,30.079725,1017.3,,,TRUE,,,,,,,BKN,11000,OVC,13000,,,,,VFR,,,,,,,,,,,,METAR,208.0
KAEX 160653Z 00000KT 8SM CLR 21/19 A3006 RMK AO2 SLP182 T02060194,KAEX,2023-05-16T06:53:00Z,31.33,-92.57,20.6,19.4,0,0,,8.0,30.059055,1018.2,,,TRUE,,,,,,,CLR,,,,,,,,VFR,,,,,,,,,,,,METAR,25.0
KADG 160653Z AUTO 00000KT 10SM CLR 11/05 A3003 RMK AO2 SLP169 T01060050,KADG,2023-05-16T06:53:00Z,41.87,-84.08,10.6,5.0,0,0,,10.0,30.029528,1016.9,,TRUE,TRUE,,,,,,,CLR,,,,,,,,VFR,,,,,,,,,,,,METAR,244.0
KACV 160653Z AUTO 34005KT 10SM OVC009 12/11 A3013 RMK AO2 SLP208 T01220106,KACV,2023-05-16T06:53:00Z,40.98,-124.1,12.2,10.6,340,5,,10.0,30.129921,1020.8,,TRUE,TRUE,,,,,,,OVC,900,,,,,,,IFR,,,,,,,,,,,,METAR,63.0
KACK 160653Z AUTO 25016KT 10SM CLR 13/10 A2983 RMK AO2 SLP103 T01280100,KACK,2023-05-16T06:53:00Z,41.25,-70.07,12.8,10.0,250,16,,10.0,29.828741,1010.3,,TRUE,TRUE,,,,,,,CLR,,,,,,,,VFR,,,,,,,,,,,,METAR,12.0
KABY 160653Z AUTO 10004KT 9SM CLR 21/20 A3009 RMK AO2 SLP188 T02110200,KABY,2023-05-16T06:53:00Z,31.53,-84.2,21.1,20.0,100,4,,9.0,30.088583,1018.8,,TRUE,TRUE,,,,,,,CLR,,,,,,,,VFR,,,,,,,,,,,,METAR,60.0
KABR 160653Z AUTO 23005KT 10SM CLR 09/07 A3013 RMK AO2 SLP200 T00940072,KABR,2023-05-16T06:53:00Z,45.45,-98.42,9.4,7.2,230,5,,10.0,30.129921,1020.0,,TRUE,TRUE,,,,,,,CLR,,,,,,,,VFR,,,,,,,,,,,,METAR,397.0
KAAF 160653Z AUTO 00000KT 10SM CLR 22/22 A3004 RMK AO2 SLP173 T02220217 $,KAAF,2023-05-16T06:53:00Z,29.73,-85.03,22.2,21.7,0,0,,10.0,30.041338,1017.3,,TRUE,TRUE,TRUE,,,,,,CLR,,,,,,,,VFR,,,,,,,,,,,,METAR,5.0
FACV 160653Z 07007KT CAVOK 10/01 Q1024,FACV,2023-05-16T06:53:00Z,-31.47,19.75,10.0,1.0,70,7,,6.21,30.236221,,,,,,,,,,,CAVOK,,,,,,,,VFR,,,,,,,,,,,,SPECI,977.0
PATA 160652Z AUTO 00000KT 10SM OVC095 07/02 A3008 RMK AO2 SLP190 T00720017 TSNO $,PATA,2023-05-16T06:52:00Z,65.17,-152.1,7.2,1.7,0,0,,10.0,30.079725,1019.0,,TRUE,TRUE,TRUE,,TRUE,,,,OVC,9500,,,,,,,VFR,,,,,,,,,,,,METAR,62.0
KVTN 160652Z AUTO 24003KT 10SM CLR 09/08 A3021 RMK AO2 SLP231 T00890078 $,KVTN,2023-05-16T06:52:00Z,42.87,-100.55,8.9,7.8,240,3,,10.0,30.209646,1023.1,,TRUE,TRUE,TRUE,,,,,,CLR,,,,,,,,VFR,,,,,,,,,,,,METAR,790.0
KTRM 160652Z AUTO 34004KT 8SM CLR 23/10 A2990 RMK AO2 SLP126 T02280100 $,KTRM,2023-05-16T06:52:00Z,33.63,-116.17,22.8,10.0,340,4,,8.0,29.899607,1012.6,,TRUE,TRUE,TRUE,,,,,,CLR,,,,,,,,VFR,,,,,,,,,,,,METAR,-39.0
KTOL 160652Z 25003KT 10SM CLR 13/02 A3002 RMK AO2 SLP163 T01280022,KTOL,2023-05-16T06:52:00Z,41.58,-83.8,12.8,2.2,250,3,,10.0,30.02067,1016.3,,,TRUE,,,,,,,CLR,,,,,,,,VFR,,,,,,,,,,,,METAR,206.0
KTAN 160652Z AUTO 23006KT 10SM CLR 14/07 A2981 RMK AO2 SLP095 T01390067,KTAN,2023-05-16T06:52:00Z,41.88,-71.02,13.9,6.7,230,6,,10.0,29.811024,1009.5,,TRUE,TRUE,,,,,,,CLR,,,,,,,,VFR,,,,,,,,,,,,METAR,8.0
KSUX 160652Z 32004KT 10SM OVC070 12/09 A3016 RMK AO2 SLP214 T01170094,KSUX,2023-05-16T06:52:00Z,42.38,-96.38,11.7,9.4,320,4,,10.0,30.159449,1021.4,,,TRUE,,,,,,,OVC,7000,,,,,,,VFR,,,,,,,,,,,,METAR,332.0
KSPS 160652Z AUTO 02003KT 10SM OVC041 18/17 A3015 RMK AO2 SLP198 T01830172,KSPS,2023-05-16T06:52:00Z,33.98,-98.5,18.3,17.2,20,3,,10.0,30.15059,1019.8,,TRUE,TRUE,,,,,,,OVC,4100,,,,,,,VFR,,,,,,,,,,,,METAR,310.0
KSPI 160652Z AUTO 03006KT 10SM OVC065 17/11 A3004 RMK AO2 SLP170 T01720106,KSPI,2023-05-16T06:52:00Z,39.85,-89.68,17.2,10.6,30,6,,10.0,30.041338,1017.0,,TRUE,TRUE,,,,,,,OVC,6500,,,,,,,VFR,,,,,,,,,,,,METAR,179.0
KSGF 160652Z 34005KT 5SM BR OVC003 18/18 A3004 RMK AO2 SLP160 T01830183,KSGF,2023-05-16T06:52:00Z,37.23,-93.38,18.3,18.3,340,5,,5.0,30.041338,1016.0,,,TRUE,,,,,,BR,OVC,300,,,,,,,LIFR,,,,,,,,,,,,METAR,387.0
KREO 160652Z AUTO 10005KT 12/07 A3023 RMK AO1 SLP214 T01220072 402780072,KREO,2023-05-16T06:52:00Z,42.58,-117.87,12.2,7.2,100,5,,,30.230314,1021.4,,TRUE,TRUE,,,,,,,,,,,,,,,,,,,27.8,7.2,,,,,,,METAR,1237.0
KRAP 160652Z AUTO 14005KT 10SM CLR 10/07 A3018 RMK AO2 SLP214 T01000067 402000044 $,KRAP,2023-05-16T06:52:00Z,44.05,-103.05,10.0,6.7,140,5,,10.0,30.180119,1021.4,,TRUE,TRUE,TRUE,,,,,,CLR,,,,,,,,VFR,,,,20.0,4.4,,,,,,,METAR,965.0
KPYM 160652Z AUTO 23007KT 10SM CLR 13/07 A2980 RMK AO2 SLP093 T01330067,KPYM,2023-05-16T06:52:00Z,41.92,-70.73,13.3,6.7,230,7,,10.0,29.799213,1009.3,,TRUE,TRUE,,,,,,,CLR,,,,,,,,VFR,,,,,,,,,,,,METAR,42.0
KPWK 160652Z AUTO 00000KT 10SM CLR 08/04 A3006 RMK AO2 SLP180 T00830039,KPWK,2023-05-16T06:52:00Z,42.12,-87.9,8.3,3.9,0,0,,10.0,30.059055,1018.0,,TRUE,TRUE,,,,,,,CLR,,,,,,,,VFR,,,,,,,,,,,,METAR,194.0
KPPF 160652Z AUTO 32009KT 6SM BR OVC004 16/14 A3012 RMK AO2 SLP193 T01560144,KPPF,2023-05-16T06:52:00Z,37.33,-95.5,15.6,14.4,320,9,,6.0,30.121063,1019.3,,TRUE,TRUE,,,,,,BR,OVC,400,,,,,,,LIFR,,,,,,,,,,,,METAR,265.0
KP69 160652Z AUTO 00000KT 13/12 A3015 RMK AO1 SLP188 T01280117,KP69,2023-05-16T06:52:00Z,46.15,-115.6,12.8,11.7,0,0,,,30.15059,1018.8,,TRUE,TRUE,,,,,,,,,,,,,,,,,,,,,,,,,,,METAR,447.0
KORE 160652Z AUTO 19006KT 10SM CLR 11/03 A2982 RMK AO2 SLP099 T01060028,KORE,2023-05-16T06:52:00Z,42.57,-72.28,10.6,2.8,190,6,,10.0,29.819881,1009.9,,TRUE,TRUE,,,,,,,CLR,,,,,,,,VFR,,,,,,,,,,,,METAR,165.0
KOMA 160652Z 00000KT 10SM OVC037 14/09 A3015 RMK AO2 SLP210 T01440094,KOMA,2023-05-16T06:52:00Z,41.32,-95.9,14.4,9.4,0,0,,10.0,30.15059,1021.0,,,TRUE,,,,,,,OVC,3700,,,,,,,VFR,,,,,,,,,,,,METAR,299.0
KOKC 160652Z 34007KT 10SM FEW013 FEW030 SCT250 16/14 A3015 RMK AO2 SLP201 T01610144,KOKC,2023-05-16T06:52:00Z,35.38,-97.6,16.1,14.4,340,7,,10.0,30.15059,1020.1,,,TRUE,,,,,,,FEW,1300,FEW,3000,SCT,25000,,,VFR,,,,,,,,,,,,METAR,391.0
KOKB 160652Z AUTO 00000KT 10SM OVC006 16/14 A3004 RMK AO2 SLP173 T01560139,KOKB,2023-05-16T06:52:00Z,33.22,-117.35,15.6,13.9,0,0,,10.0,30.041338,1017.3,,TRUE,TRUE,,,,,,,OVC,600,,,,,,,IFR,,,,,,,,,,,,METAR,7.0
KNZY 160652Z 31005KT 10SM OVC011 16/14 A3004 RMK AO2 SLP172 T01610139,KNZY,2023-05-16T06:52:00Z,32.7,-117.22,16.1,13.9,310,5,,10.0,30.041338,1017.2,,,TRUE,,,,,,,OVC,1100,,,,,,,MVFR,,,,,,,,,,,,SPECI,4.0
KNRB 160652Z AUTO 23003KT 10SM BKN021 23/21 A3006 RMK AO2 SLP179 T02330211,KNRB,2023-05-16T06:52:00Z,30.38,-81.42,23.3,21.1,230,3,,10.0,30.059055,1017.9,,TRUE,TRUE,,,,,,,BKN,2100,,,,,,,MVFR,,,,,,,,,,,,SPECI,4.0
KNHK 160652Z AUTO 23009KT 9SM CLR 18/13 A3001 RMK AO2 SLP162 T01780128,KNHK,2023-05-16T06:52:00Z,38.28,-76.4,17.8,12.8,230,9,,9.0,30.008858,1016.2,,TRUE,TRUE,,,,,,,CLR,,,,,,,,VFR,,,,,,,,,,,,SPECI,5.0
KNFW 160652Z AUTO OVC100 21/19 A3009 RMK AO2 SLP173 T02110189 TSNO CHINO S VISNO S $,KNFW,2023-05-16T06:52:00Z,32.78,-97.43,21.1,18.9,,,,,30.088583,1017.3,,TRUE,TRUE,TRUE,,TRUE,,,,OVC,10000,,,,,,,,,,,,,,,,,,,METAR,188.0
KNFG 160652Z 00000KT 10SM OVC006 17/14 A3005 RMK AO2 SLP174 T01670139 $,KNFG,2023-05-16T06:52:00Z,33.3,-117.35,16.7,13.9,0,0,,10.0,30.050198,1017.4,,,TRUE,TRUE,,,,,,OVC,600,,,,,,,IFR,,,,,,,,,,,,SPECI,21.0
KN60 160652Z AUTO 21003KT 12/04 A3013 RMK AO1 SLP200 T01170039,KN60,2023-05-16T06:52:00Z,47.65,-101.43,11.7,3.9,210,3,,,30.129921,1020.0,,TRUE,TRUE,,,,,,,,,,,,,,,,,,,,,,,,,,,METAR,582.0
KMWH 160652Z AUTO 15007KT 10SM CLR 19/12 A3001 RMK AO2 SLP155 T01890122,KMWH,2023-05-16T06:52:00Z,47.2,-119.32,18.9,12.2,150,7,,10.0,30.008858,1015.5,,TRUE,TRUE,,,,,,,CLR,,,,,,,,VFR,,,,,,,,,,,,METAR,355.0
KMLI 160652Z AUTO 00000KT 10SM BKN100 14/11 A3007 RMK AO2 SLP180 T01440111,KMLI,2023-05-16T06:52:00Z,41.45,-90.52,14.4,11.1,0,0,,10.0,30.070866,1018.0,,TRUE,TRUE,,,,,,,BKN,10000,,,,,,,VFR,,,,,,,,,,,,METAR,174.0
KMLF 160652Z AUTO 24003KT 10SM CLR 13/07 A3023 RMK AO2 SLP184 T01330067 402720050,KMLF,2023-05-16T06:52:00Z,38.42,-113.02,13.3,6.7,240,3,,10.0,30.230314,1018.4,,TRUE,TRUE,,,,,,,CLR,,,,,,,,VFR,,,,27.2,5.0,,,,,,,METAR,1537.0
KMKE 160652Z 00000KT 10SM BKN250 13/01 A3002 RMK AO2 SLP166 T01280011,KMKE,2023-05-16T06:52:00Z,42.95,-87.9,12.8,1.1,0,0,,10.0,30.02067,1016.6,,,TRUE,,,,,,,BKN,25000,,,,,,,VFR,,,,,,,,,,,,METAR,203.0
KMFD 160652Z AUTO 00000KT 10SM CLR 11/06 A3002 RMK AO2 SLP162 T01110056,KMFD,2023-05-16T06:52:00Z,40.82,-82.52,11.1,5.6,0,0,,10.0,30.02067,1016.2,,TRUE,TRUE,,,,,,,CLR,,,,,,,,VFR,,,,,,,,,,,,METAR,394.0
KMEB 160652Z AUTO 24003KT 10SM CLR 17/13 A3009 RMK AO2 SLP188 T01720128,KMEB,2023-05-16T06:52:00Z,34.78,-79.37,17.2,12.8,240,3,,10.0,30.088583,1018.8,,TRUE,TRUE,,,,,,,CLR,,,,,,,,VFR,,,,,,,,,,,,METAR,65.0
KMBG 160652Z AUTO 10003KT 10SM CLR 09/05 A3014 RMK AO2 SLP205 T00940050 $,KMBG,2023-05-16T06:52:00Z,45.55,-100.42,9.4,5.0,100,3,,10.0,30.138779,1020.5,,TRUE,TRUE,TRUE,,,,,,CLR,,,,,,,,VFR,,,,,,,,,,,,METAR,515.0
KLWC 160652Z AUTO 31006KT 3SM BR OVC005 15/14 A3011 RMK AO1 CIG 003V009 SLP193 T01500139,KLWC,2023-05-16T06:52:00Z,39.02,-95.22,15.0,13.9,310,6,,3.0,30.109253,1019.3,,TRUE,TRUE,,,,,,BR,OVC,500,,,,,,,IFR,,,,,,,,,,,,METAR,252.0
KIOW 160652Z AUTO 00000KT 10SM OVC080 16/09 A3010 RMK AO2 SLP189 T01610094,KIOW,2023-05-16T06:52:00Z,41.63,-91.55,16.1,9.4,0,0,,10.0,30.100393,1018.9,,TRUE,TRUE,,,,,,,OVC,8000,,,,,,,VFR,,,,,,,,,,,,METAR,199.0
KIJD 160652Z AUTO 00000KT 10SM CLR 08/07 A2985 RMK AO2 SLP108 T00780067,KIJD,2023-05-16T06:52:00Z,41.75,-72.18,7.8,6.7,0,0,,10.0,29.84941,1010.8,,TRUE,TRUE,,,,,,,CLR,,,,,,,,VFR,,,,,,,,,,,,METAR,73.0
KIEN 160652Z AUTO 00000KT 10SM CLR 09/07 A3020 RMK AO2 SLP219 T00890067 402060050,KIEN,2023-05-16T06:52:00Z,43.03,-102.52,8.9,6.7,0,0,,10.0,30.200787,1021.9,,TRUE,TRUE,,,,,,,CLR,,,,,,,,VFR,,,,20.6,5.0,,,,,,,METAR,1002.0
KIAD 160652Z 19005KT 10SM OVC250 14/10 A3000 RMK AO2 SLP158 T01390100,KIAD,2023-05-16T06:52:00Z,38.93,-77.45,13.9,10.0,190,5,,10.0,30.0,1015.8,,,TRUE,,,,,,,OVC,25000,,,,,,,VFR,,,,,,,,,,,,METAR,90.0
KHUT 160652Z AUTO 32006KT 10SM BKN012 BKN026 OVC055 13/11 A3018 RMK AO2 SLP209 T01280111,KHUT,2023-05-16T06:52:00Z,38.07,-97.87,12.8,11.1,320,6,,10.0,30.180119,1020.9,,TRUE,TRUE,,,,,,,BKN,1200,BKN,2600,OVC,5500,,,MVFR,,,,,,,,,,,,METAR,464.0
KHRL 160652Z AUTO 01005KT 10SM CLR 21/21 A3006 RMK AO2 SLP179 T02110211,KHRL,2023-05-16T06:52:00Z,26.23,-97.65,21.1,21.1,10,5,,10.0,30.059055,1017.9,,TRUE,TRUE,,,,,,,CLR,,,,,,,,VFR,,,,,,,,,,,,METAR,9.0
KHIE 160652Z AUTO 21003KT 10SM BKN110 12/M01 A2974 RMK AO2 SLP069 T01221006,KHIE,2023-05-16T06:52:00Z,44.37,-71.55,12.2,-0.6,210,3,,10.0,29.740158,1006.9,,TRUE,TRUE,,,,,,,BKN,11000,,,,,,,VFR,,,,,,,,,,,,METAR,321.0
KGLS 160652Z AUTO 20004KT 10SM SCT011 24/23 A3009 RMK AO2 SLP188 T02440228,KGLS,2023-05-16T06:52:00Z,29.27,-94.87,24.4,22.8,200,4,,10.0,30.088583,1018.8,,TRUE,TRUE,,,,,,,SCT,1100,,,,,,,VFR,,,,,,,,,,,,METAR,2.0
KFIT 160652Z AUTO 22004KT 10SM CLR 16/M01 A2980 RMK AO2 SLP090 T01611006,KFIT,2023-05-16T06:52:00Z,42.55,-71.75,16.1,-0.6,220,4,,10.0,29.799213,1009.0,,TRUE,TRUE,,,,,,,CLR,,,,,,,,VFR,,,,,,,,,,,,METAR,102.0
KEST 160652Z AUTO 25006KT 10SM CLR 10/07 A3013 RMK AO2 SLP202 T01000072,KEST,2023-05-16T06:52:00Z,43.4,-94.75,10.0,7.2,250,6,,10.0,30.129921,1020.2,,TRUE,TRUE,,,,,,,CLR,,,,,,,,VFR,,,,,,,,,,,,METAR,401.0
KDVN 160652Z AUTO 00000KT 10SM SCT085 SCT110 16/07 A3009 RMK AO2 SLP185 T01560067,KDVN,2023-05-16T06:52:00Z,41.62,-90.58,15.6,6.7,0,0,,10.0,30.088583,1018.5,,TRUE,TRUE,,,,,,,SCT,8500,SCT,11000,,,,,VFR,,,,,,,,,,,,METAR,227.0
KDPA 160652Z 00000KT 10SM CLR 10/04 A3005 RMK AO2 SLP176 T01000039,KDPA,2023-05-16T06:52:00Z,41.88,-88.25,10.0,3.9,0,0,,10.0,30.050198,1017.6,,,TRUE,,,,,,,CLR,,,,,,,,VFR,,,,,,,,,,,,METAR,228.0
KDDC 160652Z AUTO 36003KT 10SM OVC024 14/11 A3023 RMK AO2 SLP224 T01390106,KDDC,2023-05-16T06:52:00Z,37.77,-99.97,13.9,10.6,360,3,,10.0,30.230314,1022.4,,TRUE,TRUE,,,,,,,OVC,2400,,,,,,,MVFR,,,,,,,,,,,,METAR,786.0
KDCA 160652Z 20005KT 10SM BKN250 15/12 A3001 RMK AO2 SLP163 T01500117 $,KDCA,2023-05-16T06:52:00Z,38.85,-77.03,15.0,11.7,200,5,,10.0,30.008858,1016.3,,,TRUE,TRUE,,,,,,BKN,25000,,,,,,,VFR,,,,,,,,,,,,METAR,4.0
KCVG 160652Z 00000KT 10SM OVC210 17/12 A3003 RMK AO2 SLP162 T01670122,KCVG,2023-05-16T06:52:00Z,39.05,-84.67,16.7,12.2,0,0,,10.0,30.029528,1016.2,,,TRUE,,,,,,,OVC,21000,,,,,,,VFR,,,,,,,,,,,,METAR,264.0
KCQX 160652Z AUTO 25006KT 10SM CLR 15/11 A2981 RMK AO2 SLP095 T01500106,KCQX,2023-05-16T06:52:00Z,41.68,-70.0,15.0,10.6,250,6,,10.0,29.811024,1009.5,,TRUE,TRUE,,,,,,,CLR,,,,,,,,VFR,,,,,,,,,,,,METAR,17.0
KCLT 160652Z 18009KT 10SM FEW060 BKN075 21/12 A3009 RMK AO2 SLP195 T02060122,KCLT,2023-05-16T06:52:00Z,35.22,-80.95,20.6,12.2,180,9,,10.0,30.088583,1019.5,,,TRUE,,,,,,,FEW,6000,BKN,7500,,,,,VFR,,,,,,,,,,,,METAR,223.0
KCKV 160652Z AUTO 15003KT 9SM FEW070 20/18 A3001 RMK AO2 SLP158 T02000183,KCKV,2023-05-16T06:52:00Z,36.62,-87.42,20.0,18.3,150,3,,9.0,30.008858,1015.8,,TRUE,TRUE,,,,,,,FEW,7000,,,,,,,VFR,,,,,,,,,,,,METAR,166.0
KCID 160652Z AUTO 31003KT 10SM BKN075 13/10 A3008 RMK AO2 SLP185 T01280100,KCID,2023-05-16T06:52:00Z,41.88,-91.72,12.8,10.0,310,3,,10.0,30.079725,1018.5,,TRUE,TRUE,,,,,,,BKN,7500,,,,,,,VFR,,,,,,,,,,,,METAR,257.0
KBML 160652Z AUTO VRB04KT 10SM CLR 15/M02 A2970 RMK AO2 SLP057 T01501017,KBML,2023-05-16T06:52:00Z,44.58,-71.18,15.0,-1.7,0,4,,10.0,29.698818,1005.7,,TRUE,TRUE,,,,,,,CLR,,,,,,,,VFR,,,,,,,,,,,,METAR,344.0
KBLU 160652Z AUTO 10003KT 10SM CLR 15/M01 A3028 RMK AO2 SLP175 T01501011,KBLU,2023-05-16T06:52:00Z,39.28,-120.7,15.0,-1.1,100,3,,10.0,30.280512,1017.5,,TRUE,TRUE,,,,,,,CLR,,,,,,,,VFR,,,,,,,,,,,,METAR,1605.0
KBKB 160652Z AUTO 00000KT 3SM BR CLR 21/20 A3004 RMK AO2 SLP197 T02060200,KBKB,2023-05-16T06:52:00Z,31.02,-92.92,20.6,20.0,0,0,,3.0,30.041338,1019.7,,TRUE,TRUE,,,,,,BR,CLR,,,,,,,,MVFR,,,,,,,,,,,,METAR,74.0
KBIS 160652Z 26003KT 10SM CLR 12/06 A3014 RMK AO2 SLP205 T01220061,KBIS,2023-05-16T06:52:00Z,46.77,-100.75,12.2,6.1,260,3,,10.0,30.138779,1020.5,,,TRUE,,,,,,,CLR,,,,,,,,VFR,,,,,,,,,,,,METAR,506.0
KBDR 160652Z AUTO 24004KT 10SM CLR 14/05 A2987 RMK AO2 SLP116 T01390050,KBDR,2023-05-16T06:52:00Z,41.17,-73.13,13.9,5.0,240,4,,10.0,29.870079,1011.6,,TRUE,TRUE,,,,,,,CLR,,,,,,,,VFR,,,,,,,,,,,,METAR,5.0
KBAN 160652Z AUTO 00000KT 10SM CLR 06/M03 A3034 RMK AO2 SLP197 T00611028 $,KBAN,2023-05-16T06:52:00Z,38.35,-119.52,6.1,-2.8,0,0,,10.0,30.339567,1019.7,,TRUE,TRUE,TRUE,,,,,,CLR,,,,,,,,VFR,,,,,,,,,,,,METAR,2067.0
KARR 160652Z AUTO 00000KT 9SM CLR 10/07 A3005 RMK AO2 SLP177 T01000072,KARR,2023-05-16T06:52:00Z,41.77,-88.48,10.0,7.2,0,0,,9.0,30.050198,1017.7,,TRUE,TRUE,,,,,,,CLR,,,,,,,,VFR,,,,,,,,,,,,METAR,213.0
KAQW 160652Z AUTO 21004KT 10SM CLR 16/00 A2984 RMK AO2 SLP105 T01560000,KAQW,2023-05-16T06:52:00Z,42.7,-73.17,15.6,0.0,210,4,,10.0,29.840551,1010.5,,TRUE,TRUE,,,,,,,CLR,,,,,,,,VFR,,,,,,,,,,,,METAR,196.0
KALS 160652Z AUTO 00000KT 10SM CLR 08/05 A3041 RMK AO2 SLP223 T00830050 402110044,KALS,2023-05-16T06:52:00Z,37.43,-105.87,8.3,5.0,0,0,,10.0,30.410433,1022.3,,TRUE,TRUE,,,,,,,CLR,,,,,,,,VFR,,,,21.1,4.4,,,,,,,METAR,2299.0
KAFN 160652Z AUTO 18004KT 10SM CLR 15/M01 A2981 RMK AO2 SLP096 T01501006,KAFN,2023-05-16T06:52:00Z,42.8,-72.0,15.0,-0.6,180,4,,10.0,29.811024,1009.6,,TRUE,TRUE,,,,,,,CLR,,,,,,,,VFR,,,,,,,,,,,,METAR,308.0
KABQ 160652Z 00000KT 10SM SCT090 SCT200 18/07 A3033 RMK AO2 SLP204 T01780072 402610139,KABQ,2023-05-16T06:52:00Z,35.05,-106.62,17.8,7.2,0,0,,10.0,30.33071,1020.4,,,TRUE,,,,,,,SCT,9000,SCT,20000,,,,,VFR,,,,26.1,13.9,,,,,,,METAR,1620.0
KABI 160652Z AUTO 01005KT 10SM CLR 20/17 A3017 RMK AO2 SLP194 T02000172,KABI,2023-05-16T06:52:00Z,32.42,-99.68,20.0,17.2,10,5,,10.0,30.171259,1019.4,,TRUE,TRUE,,,,,,,CLR,,,,,,,,VFR,,,,,,,,,,,,METAR,543.0
MUGM 160651Z 33010KT 10SM SCT100 BKN180 26/22 A2998 RMK AO2 SLP152 T02610217 $,MUGM,2023-05-16T06:51:00Z,19.9,-75.2,26.1,21.7,330,10,,10.0,29.97933,1015.2,,,TRUE,TRUE,,,,,,SCT,10000,BKN,18000,,,,,VFR,,,,,,,,,,,,METAR,21.0
MMML 160651Z 27004KT 10SM SKC 25/02 A2991 RMK ISOL CI,MMML,2023-05-16T06:51:00Z,32.62,-115.23,25.0,2.0,270,4,,10.0,29.911417,,,,,,,,,,,SKC,,,,,,,,VFR,,,,,,,,,,,,METAR,21.0
LIRI 160651Z 10005KT 9999 BKN025 16/15 Q0997,LIRI,2023-05-16T06:51:00Z,40.62,14.92,16.0,15.0,100,5,,6.21,29.438976,,,,,,,,,,,BKN,2500,,,,,,,MVFR,,,,,,,,,,,,SPECI,31.0
KYNG 160651Z 00000KT 10SM FEW250 06/03 A3001 RMK AO2 SLP160 T00610028 $,KYNG,2023-05-16T06:51:00Z,41.25,-80.67,6.1,2.8,0,0,,10.0,30.008858,1016.0,,,TRUE,TRUE,,,,,,FEW,25000,,,,,,,VFR,,,,,,,,,,,,METAR,356.0
KXWA 160651Z AUTO 16005KT 10SM CLR 14/04 A3013 RMK AO2 SLP206 T01440039,KXWA,2023-05-16T06:51:00Z,48.27,-103.75,14.4,3.9,160,5,,10.0,30.129921,1020.6,,TRUE,TRUE,,,,,,,CLR,,,,,,,,VFR,,,,,,,,,,,,METAR,717.0
KVNY 160651Z AUTO 21003KT 9SM CLR 16/13 A3004 RMK AO2 SLP166 T01610128,KVNY,2023-05-16T06:51:00Z,34.22,-118.48,16.1,12.8,210,3,,9.0,30.041338,1016.6,,TRUE,TRUE,,,,,,,CLR,,,,,,,,VFR,,,,,,,,,,,,METAR,241.0
KVCT 160651Z AUTO 05003KT 10SM CLR 22/22 A3009 RMK AO2 SLP186 T02220217,KVCT,2023-05-16T06:51:00Z,28.87,-96.93,22.2,21.7,50,3,,10.0,30.088583,1018.6,,TRUE,TRUE,,,,,,,CLR,,,,,,,,VFR,,,,,,,,,,,,METAR,33.0
KUGN 160651Z AUTO 26006KT 10SM CLR 11/00 A3003 RMK AO2 SLP168 T01060000,KUGN,2023-05-16T06:51:00Z,42.42,-87.87,10.6,0.0,260,6,,10.0,30.029528,1016.8,,TRUE,TRUE,,,,,,,CLR,,,,,,,,VFR,,,,,,,,,,,,METAR,217.0
KTPL 160651Z AUTO 30004KT CLR 19/19 A3011 RMK AO2 SLP187 T01940194 PWINO RVRNO $,KTPL,2023-05-16T06:51:00Z,31.15,-97.4,19.4,19.4,300,4,,,30.109253,1018.7,,TRUE,TRUE,TRUE,,,,TRUE,,CLR,,,,,,,,,,,,,,,,,,,,METAR,206.0
KTEB 160651Z 21005KT 10SM CLR 14/04 A2990 RMK AO2 SLP125 T01440044,KTEB,2023-05-16T06:51:00Z,40.87,-74.05,14.4,4.4,210,5,,10.0,29.899607,1012.5,,,TRUE,,,,,,,CLR,,,,,,,,VFR,,,,,,,,,,,,METAR,3.0
KSTL 160651Z 03005KT 10SM -RA BKN042 BKN100 OVC120 19/16 A3001 RMK AO2 RAB0558E08B32 SLP153 P0000 T01890156 $,KSTL,2023-05-16T06:51:00Z,38.75,-90.37,18.9,15.6,30,5,,10.0,30.008858,1015.3,,,TRUE,TRUE,,,,,-RA,BKN,4200,BKN,10000,OVC,12000,,,VFR,,,,,,0.005,,,,,,METAR,163.0
KSNT 160651Z AUTO 15004KT 05/02 A3034 RMK AO1 SLP209 T00500017 401940033,KSNT,2023-05-16T06:51:00Z,44.17,-114.93,5.0,1.7,150,4,,,30.339567,1020.9,,TRUE,TRUE,,,,,,,,,,,,,,,,,,,19.4,3.3,,,,,,,METAR,1980.0
KSMO 160651Z AUTO 00000KT 10SM OVC007 15/13 A3005 RMK AO2 SLP176 T01500128,KSMO,2023-05-16T06:51:00Z,34.02,-118.45,15.0,12.8,0,0,,10.0,30.050198,1017.6,,TRUE,TRUE,,,,,,,OVC,700,,,,,,,IFR,,,,,,,,,,,,METAR,56.0
KSLK 160651Z AUTO 24007KT 10SM FEW080 SCT110 11/M02 A2978 RMK AO2 SLP083 T01061017,KSLK,2023-05-16T06:51:00Z,44.4,-74.2,10.6,-1.7,240,7,,10.0,29.778543,1008.3,,TRUE,TRUE,,,,,,,FEW,8000,SCT,11000,,,,,VFR,,,,,,,,,,,,METAR,502.0
KSJT 160651Z AUTO 00000KT 10SM OVC040 21/18 A3017 RMK AO2 SLP198 T02060178,KSJT,2023-05-16T06:51:00Z,31.37,-100.5,20.6,17.8,0,0,,10.0,30.171259,1019.8,,TRUE,TRUE,,,,,,,OVC,4000,,,,,,,VFR,,,,,,,,,,,,METAR,582.0
KSDB 160651Z AUTO 30010KT 10SM CLR 20/01 A3020 RMK AO2 SLP168 T02000011,KSDB,2023-05-16T06:51:00Z,34.75,-118.72,20.0,1.1,300,10,,10.0,30.200787,1016.8,,TRUE,TRUE,,,,,,,CLR,,,,,,,,VFR,,,,,,,,,,,,METAR,1377.0
KSAT 160651Z COR 00000KT 10SM SCT130 BKN250 20/18 A3011 RMK AO2 SLP180 T02000183,KSAT,2023-05-16T06:51:00Z,29.53,-98.48,20.0,18.3,0,0,,10.0,30.109253,1018.0,TRUE,,TRUE,,,,,,,SCT,13000,BKN,25000,,,,,VFR,,,,,,,,,,,,METAR,246.0
KSAN 160651Z 32004KT 10SM OVC011 16/13 A3006 RMK AO2 SLP179 T01610133,KSAN,2023-05-16T06:51:00Z,32.73,-117.18,16.1,13.3,320,4,,10.0,30.059055,1017.9,,,TRUE,,,,,,,OVC,1100,,,,,,,MVFR,,,,,,,,,,,,METAR,3.0
KSAD 160651Z AUTO 12007KT 10SM CLR 23/09 A3012 RMK AO2 SLP146 T02280089 403280183 $,KSAD,2023-05-16T06:51:00Z,32.85,-109.63,22.8,8.9,120,7,,10.0,30.121063,1014.6,,TRUE,TRUE,TRUE,,,,,,CLR,,,,,,,,VFR,,,,32.8,18.3,,,,,,,METAR,937.0
KROW 160651Z AUTO 00000KT 10SM CLR 17/10 A3026 RMK AO2 SLP195 T01720100 402830167,KROW,2023-05-16T06:51:00Z,33.3,-104.5,17.2,10.0,0,0,,10.0,30.259842,1019.5,,TRUE,TRUE,,,,,,,CLR,,,,,,,,VFR,,,,28.3,16.7,,,,,,,METAR,1105.0
KRDU 160651Z 21006KT 10SM BKN075 BKN085 BKN110 20/12 A3008 RMK AO2 SLP183 T02000122,KRDU,2023-05-16T06:51:00Z,35.9,-78.78,20.0,12.2,210,6,,10.0,30.079725,1018.3,,,TRUE,,,,,,,BKN,7500,BKN,8500,BKN,11000,,,VFR,,,,,,,,,,,,METAR,121.0
KPWM 160651Z AUTO 25009KT 10SM CLR 16/M01 A2971 RMK AO2 SLP060 T01561011,KPWM,2023-05-16T06:51:00Z,43.65,-70.3,15.6,-1.1,250,9,,10.0,29.71063,1006.0,,TRUE,TRUE,,,,,,,CLR,,,,,,,,VFR,,,,,,,,,,,,METAR,15.0
KPVD 160651Z 20005KT 10SM CLR 11/07 A2984 RMK AO2 SLP105 T01060072,KPVD,2023-05-16T06:51:00Z,41.72,-71.43,10.6,7.2,200,5,,10.0,29.840551,1010.5,,,TRUE,,,,,,,CLR,,,,,,,,VFR,,,,,,,,,,,,METAR,15.0
KPIT 160651Z 00000KT 10SM BKN250 11/05 A3001 RMK AO2 SLP165 T01060050,KPIT,2023-05-16T06:51:00Z,40.47,-80.2,10.6,5.0,0,0,,10.0,30.008858,1016.5,,,TRUE,,,,,,,BKN,25000,,,,,,,VFR,,,,,,,,,,,,METAR,339.0
KPHX 160651Z 10006KT 10SM FEW100 SCT130 BKN200 32/07 A2993 RMK AO2 SLP115 T03220072 403940256 $,KPHX,2023-05-16T06:51:00Z,33.43,-112.02,32.2,7.2,100,6,,10.0,29.929134,1011.5,,,TRUE,TRUE,,,,,,FEW,10000,SCT,13000,BKN,20000,,,VFR,,,,39.4,25.6,,,,,,,METAR,338.0
KP59 160651Z AUTO 31006G20KT 20/03 A2978 RMK AO1 SLP078 T02000028 $,KP59,2023-05-16T06:51:00Z,47.47,-87.88,20.0,2.8,310,6,20,,29.778543,1007.8,,TRUE,TRUE,TRUE,,,,,,,,,,,,,,,,,,,,,,,,,,METAR,185.0
KOXC 160651Z AUTO VRB03KT 10SM CLR 14/03 A2987 RMK AO2 SLP124 T01390028,KOXC,2023-05-16T06:51:00Z,41.47,-73.13,13.9,2.8,0,3,,10.0,29.870079,1012.4,,TRUE,TRUE,,,,,,,CLR,,,,,,,,VFR,,,,,,,,,,,,METAR,211.0
KORF 160651Z 21010KT 10SM BKN075 OVC100 18/11 A3006 RMK AO2 SLP178 T01830111,KORF,2023-05-16T06:51:00Z,36.9,-76.2,18.3,11.1,210,10,,10.0,30.059055,1017.8,,,TRUE,,,,,,,BKN,7500,OVC,10000,,,,,VFR,,,,,,,,,,,,METAR,5.0
KORD 160651Z 22003KT 10SM OVC250 12/02 A3004 RMK AO2 SLP174 T01170017,KORD,2023-05-16T06:51:00Z,41.95,-87.93,11.7,1.7,220,3,,10.0,30.041338,1017.4,,,TRUE,,,,,,,OVC,25000,,,,,,,VFR,,,,,,,,,,,,METAR,202.0
KOCF 160651Z AUTO 00000KT 10SM CLR 21/20 A3008 RMK AO2 SLP184 T02110200 $,KOCF,2023-05-16T06:51:00Z,29.17,-82.22,21.1,20.0,0,0,,10.0,30.079725,1018.4,,TRUE,TRUE,TRUE,,,,,,CLR,,,,,,,,VFR,,,,,,,,,,,,METAR,24.0
KNYC 160651Z AUTO VRB05KT 10SM CLR 17/06 A2993 RMK AO2 SLP126 T01670056 $,KNYC,2023-05-16T06:51:00Z,40.78,-73.97,16.7,5.6,0,5,,10.0,29.929134,1012.6,,TRUE,TRUE,TRUE,,,,,,CLR,,,,,,,,VFR,,,,,,,,,,,,METAR,33.0
KNBT 160651Z AUTO 21003KT 10SM CLR 20/14 A3008 RMK AO2 SLP192 T02000144,KNBT,2023-05-16T06:51:00Z,35.02,-76.47,20.0,14.4,210,3,,10.0,30.079725,1019.2,,TRUE,TRUE,,,,,,,CLR,,,,,,,,VFR,,,,,,,,,,,,METAR,5.0
KMYL 160651Z AUTO 00000KT 10SM BKN065 07/07 A3025 RMK AO2 SLP223 T00720067 401890056 $,KMYL,2023-05-16T06:51:00Z,44.9,-116.1,7.2,6.7,0,0,,10.0,30.250984,1022.3,,TRUE,TRUE,TRUE,,,,,,BKN,6500,,,,,,,VFR,,,,18.9,5.6,,,,,,,METAR,1532.0
KMPV 160651Z AUTO 23006KT 10SM BKN090 13/M02 A2979 RMK AO2 SLP086 T01331022,KMPV,2023-05-16T06:51:00Z,44.2,-72.57,13.3,-2.2,230,6,,10.0,29.790354,1008.6,,TRUE,TRUE,,,,,,,BKN,9000,,,,,,,VFR,,,,,,,,,,,,METAR,336.0
KLGU 160651Z AUTO 07004KT 10SM FEW095 BKN120 15/06 A3024 RMK AO2 WSHFT 0622 RAE03B19E28 SLP206 P0000 T01500061 402390078,KLGU,2023-05-16T06:51:00Z,41.78,-111.85,15.0,6.1,70,4,,10.0,30.239174,1020.6,,TRUE,TRUE,,,,,,,FEW,9500,BKN,12000,,,,,VFR,,,,23.9,7.8,0.005,,,,,,METAR,1359.0
KLGA 160651Z 22009KT 10SM SCT250 18/05 A2990 RMK AO2 SLP124 T01780050,KLGA,2023-05-16T06:51:00Z,40.78,-73.88,17.8,5.0,220,9,,10.0,29.899607,1012.4,,,TRUE,,,,,,,SCT,25000,,,,,,,VFR,,,,,,,,,,,,METAR,9.0
KJFK 160651Z 25010KT 10SM SCT300 16/09 A2992 RMK AO2 SLP131 FU SCT300 T01560089,KJFK,2023-05-16T06:51:00Z,40.63,-73.77,15.6,8.9,250,10,,10.0,29.920275,1013.1,,,TRUE,,,,,,,SCT,30000,,,,,,,VFR,,,,,,,,,,,,METAR,3.0
KILG 160651Z AUTO 23004KT 10SM CLR 14/10 A2998 RMK AO2 SLP151 T01440100,KILG,2023-05-16T06:51:00Z,39.67,-75.6,14.4,10.0,230,4,,10.0,29.97933,1015.1,,TRUE,TRUE,,,,,,,CLR,,,,,,,,VFR,,,,,,,,,,,,METAR,22.0
KIGM 160651Z AUTO 13006KT 10SM CLR 22/07 A3013 RMK AO2 SLP133 T02220067 403280144,KIGM,2023-05-16T06:51:00Z,35.25,-113.93,22.2,6.7,130,6,,10.0,30.129921,1013.3,,TRUE,TRUE,,,,,,,CLR,,,,,,,,VFR,,,,32.8,14.4,,,,,,,METAR,1045.0
KHTS 160651Z AUTO 00000KT 10SM FEW050 17/14 A3002 RMK AO2 SLP162 T01670144,KHTS,2023-05-16T06:51:00Z,38.37,-82.55,16.7,14.4,0,0,,10.0,30.02067,1016.2,,TRUE,TRUE,,,,,,,FEW,5000,,,,,,,VFR,,,,,,,,,,,,METAR,252.0
KHSE 160651Z AUTO 10003KT 10SM CLR 16/13 A3009 RMK AO2 SLP190 T01610128,KHSE,2023-05-16T06:51:00Z,35.23,-75.62,16.1,12.8,100,3,,10.0,30.088583,1019.0,,TRUE,TRUE,,,,,,,CLR,,,,,,,,VFR,,,,,,,,,,,,METAR,4.0
KHDO 160651Z AUTO 32005KT 10SM FEW120 19/18 A3013 RMK AO2 SLP189 T01890183 $,KHDO,2023-05-16T06:51:00Z,29.37,-99.17,18.9,18.3,320,5,,10.0,30.129921,1018.9,,TRUE,TRUE,TRUE,,,,,,FEW,12000,,,,,,,VFR,,,,,,,,,,,,METAR,280.0
KEWR 160651Z 23010KT 10SM FEW250 16/06 A2992 RMK AO2 SLP130 T01560061,KEWR,2023-05-16T06:51:00Z,40.68,-74.17,15.6,6.1,230,10,,10.0,29.920275,1013.0,,,TRUE,,,,,,,FEW,25000,,,,,,,VFR,,,,,,,,,,,,METAR,2.0
KERI 160651Z AUTO 19006KT 10SM CLR 08/M02 A2999 RMK AO2 SLP155 T00781017,KERI,2023-05-16T06:51:00Z,42.08,-80.18,7.8,-1.7,190,6,,10.0,29.991142,1015.5,,TRUE,TRUE,,,,,,,CLR,,,,,,,,VFR,,,,,,,,,,,,METAR,222.0
KELP 160651Z 12006KT 10SM FEW100 FEW220 BKN250 21/10 A3023 RMK AO2 SLP171 T02110100 403110189,KELP,2023-05-16T06:51:00Z,31.82,-106.35,21.1,10.0,120,6,,10.0,30.230314,1017.1,,,TRUE,,,,,,,FEW,10000,FEW,22000,BKN,25000,,,VFR,,,,31.1,18.9,,,,,,,METAR,1205.0
KEKN 160651Z AUTO 00000KT 10SM OVC065 11/10 A3007 RMK AO2 SLP180 T01110100,KEKN,2023-05-16T06:51:00Z,38.88,-79.85,11.1,10.0,0,0,,10.0,30.070866,1018.0,,TRUE,TRUE,,,,,,,OVC,6500,,,,,,,VFR,,,,,,,,,,,,METAR,596.0
KDAW 160651Z AUTO VRB05KT 10SM FEW110 16/M01 A2974 RMK AO2 SLP066 T01561006,KDAW,2023-05-16T06:51:00Z,43.28,-70.92,15.6,-0.6,0,5,,10.0,29.740158,1006.6,,TRUE,TRUE,,,,,,,FEW,11000,,,,,,,VFR,,,,,,,,,,,,METAR,100.0
KCSG 160651Z AUTO 21006KT 10SM CLR 23/21 A3006 RMK AO2 SLP174 T02280206,KCSG,2023-05-16T06:51:00Z,32.52,-84.95,22.8,20.6,210,6,,10.0,30.059055,1017.4,,TRUE,TRUE,,,,,,,CLR,,,,,,,,VFR,,,,,,,,,,,,METAR,120.0
KCRP 160651Z 00000KT 10SM -RA FEW020 SCT095 OVC120 24/23 A3009 RMK AO2 RAB14 SLP188 P0001 T02390228,KCRP,2023-05-16T06:51:00Z,27.77,-97.5,23.9,22.8,0,0,,10.0,30.088583,1018.8,,,TRUE,,,,,,-RA,FEW,2000,SCT,9500,OVC,12000,,,VFR,,,,,,0.01,,,,,,METAR,11.0
KCON 160651Z AUTO 13003KT 10SM CLR 13/00 A2976 RMK AO2 SLP077 T01280000,KCON,2023-05-16T06:51:00Z,43.2,-71.5,12.8,0.0,130,3,,10.0,29.760826,1007.7,,TRUE,TRUE,,,,,,,CLR,,,,,,,,VFR,,,,,,,,,,,,METAR,102.0
KCMH 160651Z 13003KT 10SM BKN250 14/11 A3002 RMK AO2 SLP163 T01390111 $,KCMH,2023-05-16T06:51:00Z,40.0,-82.88,13.9,11.1,130,3,,10.0,30.02067,1016.3,,,TRUE,TRUE,,,,,,BKN,25000,,,,,,,VFR,,,,,,,,,,,,METAR,257.0
KCLE 160651Z 20004KT 10SM BKN250 07/M01 A3000 RMK AO2 SLP173 T00721006,KCLE,2023-05-16T06:51:00Z,41.42,-81.85,7.2,-0.6,200,4,,10.0,30.0,1017.3,,,TRUE,,,,,,,BKN,25000,,,,,,,VFR,,,,,,,,,,,,METAR,237.0
KCDJ 160651Z AUTO 00000KT 16/14 A3010 RMK AO1 SLP190 T01560139,KCDJ,2023-05-16T06:51:00Z,39.82,-93.57,15.6,13.9,0,0,,,30.100393,1019.0,,TRUE,TRUE,,,,,,,,,,,,,,,,,,,,,,,,,,,METAR,234.0
KCAK 160651Z 26003KT 10SM SCT250 11/02 A3001 RMK AO2 SLP161 T01060017,KCAK,2023-05-16T06:51:00Z,40.92,-81.45,10.6,1.7,260,3,,10.0,30.008858,1016.1,,,TRUE,,,,,,,SCT,25000,,,,,,,VFR,,,,,,,,,,,,METAR,369.0
KBKW 160651Z AUTO 16003KT 10SM OVC010 16/14 A3007 RMK AO2 SLP166 T01560139,KBKW,2023-05-16T06:51:00Z,37.8,-81.12,15.6,13.9,160,3,,10.0,30.070866,1016.6,,TRUE,TRUE,,,,,,,OVC,1000,,,,,,,MVFR,,,,,,,,,,,,METAR,762.0
KBHK 160651Z AUTO 12007KT 10SM CLR 11/07 A3016 RMK AO2 SLP202 T01060072 402280039,KBHK,2023-05-16T06:51:00Z,46.35,-104.25,10.6,7.2,120,7,,10.0,30.159449,1020.2,,TRUE,TRUE,,,,,,,CLR,,,,,,,,VFR,,,,22.8,3.9,,,,,,,METAR,904.0
KBGD 160651Z AUTO 33003KT 10SM CLR 16/11 A3026 RMK AO2 SLP224 T01610111,KBGD,2023-05-16T06:51:00Z,35.7,-101.4,16.1,11.1,330,3,,10.0,30.259842,1022.4,,TRUE,TRUE,,,,,,,CLR,,,,,,,,VFR,,,,,,,,,,,,METAR,928.0
KBED 160651Z AUTO 25006KT 10SM CLR 16/02 A2978 RMK AO2 SLP095 T01560017,KBED,2023-05-16T06:51:00Z,42.47,-71.3,15.6,1.7,250,6,,10.0,29.778543,1009.5,,TRUE,TRUE,,,,,,,CLR,,,,,,,,VFR,,,,,,,,,,,,METAR,39.0
KBDL 160651Z 24004KT 10SM BKN250 12/04 A2984 RMK AO2 SLP105 T01170039 $,KBDL,2023-05-16T06:51:00Z,41.93,-72.68,11.7,3.9,240,4,,10.0,29.840551,1010.5,,,TRUE,TRUE,,,,,,BKN,25000,,,,,,,VFR,,,,,,,,,,,,METAR,52.0
KBAZ 160651Z AUTO 31003KT 10SM CLR 20/19 A3009 RMK AO2 SLP182 T02000189 TSNO,KBAZ,2023-05-16T06:51:00Z,29.72,-98.05,20.0,18.9,310,3,,10.0,30.088583,1018.2,,TRUE,TRUE,,,TRUE,,,,CLR,,,,,,,,VFR,,,,,,,,,,,,METAR,199.0
KATT 160651Z AUTO 00000KT 10SM FEW110 21/19 A3011 RMK AO2 RAB02E33 SLP186 P0000 T02060194,KATT,2023-05-16T06:51:00Z,30.32,-97.77,20.6,19.4,0,0,,10.0,30.109253,1018.6,,TRUE,TRUE,,,,,,,FEW,11000,,,,,,,VFR,,,,,,0.005,,,,,,METAR,203.0
KALB 160651Z 17003KT 10SM OVC260 13/01 A2986 RMK AO2 SLP111 T01330006,KALB,2023-05-16T06:51:00Z,42.75,-73.8,13.3,0.6,170,3,,10.0,29.861221,1011.1,,,TRUE,,,,,,,OVC,26000,,,,,,,VFR,,,,,,,,,,,,METAR,82.0
KAHN 160651Z AUTO 00000KT 10SM BKN055 20/18 A3009 RMK AO2 SLP182 T02000178,KAHN,2023-05-16T06:51:00Z,33.95,-83.33,20.0,17.8,0,0,,10.0,30.088583,1018.2,,TRUE,TRUE,,,,,,,BKN,5500,,,,,,,VFR,,,,,,,,,,,,METAR,241.0
KACT 160651Z AUTO 03004KT 7SM CLR 18/18 A3010 RMK AO2 SLP186 T01830183,KACT,2023-05-16T06:51:00Z,31.62,-97.23,18.3,18.3,30,4,,7.0,30.100393,1018.6,,TRUE,TRUE,,,,,,,CLR,,,,,,,,VFR,,,,,,,,,,,,METAR,150.0
KABE 160651Z 00000KT 10SM CLR 10/05 A2994 RMK AO2 SLP138 T01000050,KABE,2023-05-16T06:51:00Z,40.65,-75.45,10.0,5.0,0,0,,10.0,29.940945,1013.8,,,TRUE,,,,,,,CLR,,,,,,,,VFR,,,,,,,,,,,,METAR,117.0
K6R6 160651Z AUTO 02005KT 18/16 A3020 RMK AO1 SLP198 T01780156,K6R6,2023-05-16T06:51:00Z,30.05,-102.22,17.8,15.6,20,5,,,30.200787,1019.8,,TRUE,TRUE,,,,,,,,,,,,,,,,,,,,,,,,,,,METAR,702.0
PTRO 160650Z 00000KT 13SM BKN015 BKN110 OVC290 27/23 A2979 ,PTRO,2023-05-16T06:50:00Z,7.37,134.55,27.0,23.0,0,0,,13.0,29.790354,,,,,,,,,,,BKN,1500,BKN,11000,OVC,29000,,,MVFR,,,,,,,,,,,,METAR,30.0
PTKK 160650Z VRB03KT 10SM -SHRA BKN012CB OVC110 26/26 A2982 RMK CB ALQDS SLP100 T02620256,PTKK,2023-05-16T06:50:00Z,7.47,151.85,26.2,25.6,0,3,,10.0,29.819881,1010.0,,,,,,,,,-SHRA,BKN,1200,OVC,11000,,,,,MVFR,,,,,,,,,,,,METAR,3.0
PGRO 160650Z 08011KT 7SM SCT014 29/25 A2982,PGRO,2023-05-16T06:50:00Z,14.18,145.25,29.0,25.0,80,11,,7.0,29.819881,,,,,,,,,,,SCT,1400,,,,,,,VFR,,,,,,,,,,,,METAR,181.0
OOSA 160650Z 19012KT 160V220 9999 FEW025 33/26 Q1011 NOSIG,OOSA,2023-05-16T06:50:00Z,17.03,54.1,33.0,26.0,190,12,,6.21,29.852362,,,,,,TRUE,,,,,FEW,2500,,,,,,,VFR,,,,,,,,,,,,METAR,20.0
OOMS 160650Z 34012KT CAVOK 39/09 Q1006 NOSIG,OOMS,2023-05-16T06:50:00Z,23.58,58.28,39.0,9.0,340,12,,6.21,29.704725,,,,,,TRUE,,,,,CAVOK,,,,,,,,VFR,,,,,,,,,,,,METAR,8.0
OOKB 160650Z 21012KT 150V250 CAVOK 39/M01 Q1005 NOSIG,OOKB,2023-05-16T06:50:00Z,26.17,56.23,39.0,-1.0,210,12,,6.21,29.675198,,,,,,TRUE,,,,,CAVOK,,,,,,,,VFR,,,,,,,,,,,,METAR,30.0
OODQ 160650Z AUTO 22024KT 9999 FEW032 34/24 Q1009 NOSIG RMK RH57? 0,OODQ,2023-05-16T06:50:00Z,19.52,57.65,34.0,24.0,220,24,,6.21,29.793306,,,TRUE,,,TRUE,,,,,FEW,3200,,,,,,,VFR,,,,,,,,,,,,METAR,116.0
NSTU 160650Z 00000KT 10SM SCT023 28/26 A2986 RMK SLP113 T02750256,NSTU,2023-05-16T06:50:00Z,-14.33,-170.72,27.5,25.6,0,0,,10.0,29.861221,1011.3,,,,,,,,,,SCT,2300,,,,,,,VFR,,,,,,,,,,,,METAR,8.0
MUVR 160650Z 16004KT 9000 FEW020 22/21 Q1016,MUVR,2023-05-16T06:50:00Z,23.03,-81.43,22.0,21.0,160,4,,5.59,30.0,,,,,,,,,,,FEW,2000,,,,,,,VFR,,,,,,,,,,,,METAR,65.0
MUSC 160650Z VRB02KT 9000 FEW030 21/20 Q1016,MUSC,2023-05-16T06:50:00Z,22.5,-79.92,21.0,20.0,0,2,,5.59,30.0,,,,,,,,,,,FEW,3000,,,,,,,VFR,,,,,,,,,,,,METAR,97.0
MUHG 160650Z VRB01KT 7000 FEW020 BKN135 21/21 Q1016,MUHG,2023-05-16T06:50:00Z,20.78,-76.32,21.0,21.0,0,1,,4.35,30.0,,,,,,,,,,,FEW,2000,BKN,13500,,,,,MVFR,,,,,,,,,,,,METAR,100.0
MUHA 160650Z 00000KT 9000 FEW030 21/XX Q1016,MUHA,2023-05-16T06:50:00Z,22.98,-82.42,21.0,,0,0,,5.59,30.0,,,,,,,,,,,FEW,3000,,,,,,,VFR,,,,,,,,,,,,METAR,61.0
MUCU 160650Z 34007KT 9000 FEW020 SCT070 24/21 Q1015,MUCU,2023-05-16T06:50:00Z,19.97,-75.83,24.0,21.0,340,7,,5.59,29.970472,,,,,,,,,,,FEW,2000,SCT,7000,,,,,VFR,,,,,,,,,,,,METAR,70.0
MUCM 160650Z 12004KT 9000 FEW020 BKN200 22/21 Q1016,MUCM,2023-05-16T06:50:00Z,21.42,-77.85,22.0,21.0,120,4,,5.59,30.0,,,,,,,,,,,FEW,2000,BKN,20000,,,,,VFR,,,,,,,,,,,,METAR,125.0
MUCL 160650Z AUTO 09004KT 27/23 Q1015,MUCL,2023-05-16T06:50:00Z,21.63,-81.55,27.0,23.0,90,4,,,29.970472,,,TRUE,,,,,,,,,,,,,,,,,,,,,,,,,,,,METAR,5.0
MUCC 160650Z 11004KT 9000 SCT020 25/23 Q1015,MUCC,2023-05-16T06:50:00Z,22.47,-78.33,25.0,23.0,110,4,,5.59,29.970472,,,,,,,,,,,SCT,2000,,,,,,,VFR,,,,,,,,,,,,METAR,7.0
MSLP 160650Z 01008KT 9999 -RA SCT077 25/23 Q1013 A2992 TEMPO 5000 SHRA,MSLP,2023-05-16T06:50:00Z,13.43,-89.05,25.0,23.0,10,8,,6.21,29.911417,,,,,,,,,,-RA,SCT,7700,,,,,,,VFR,,,,,,,,,,,,METAR,25.0
LTFO 160650Z 32003KT 280V360 CAVOK 16/10 Q1018,LTFO,2023-05-16T06:50:00Z,41.18,40.85,16.0,10.0,320,3,,6.21,30.059055,,,,,,,,,,,CAVOK,,,,,,,,VFR,,,,,,,,,,,,METAR,5.0
LTFM 160650Z 04006KT 360V060 9999 FEW004 BKN180 16/13 Q1014 NOSIG RMK RWY17L 05005KT 010V080 RWY34L 02005KT 340V070 RWY16R 05004KT 360V070 RWY36 04005KT 350V070 RWY18 05005KT 010V090,LTFM,2023-05-16T06:50:00Z,41.27,28.75,16.0,13.0,40,6,,6.21,29.940945,,,,,,TRUE,,,,,FEW,400,BKN,18000,,,,,VFR,,,,,,,,,,,,METAR,99.0
LTFK 160650Z 06004KT CAVOK 21/15 Q1010,LTFK,2023-05-16T06:50:00Z,40.2,25.88,21.0,15.0,60,4,,6.21,29.822834,,,,,,,,,,,CAVOK,,,,,,,,VFR,,,,,,,,,,,,METAR,21.0
LTFJ 160650Z 03013KT CAVOK 21/14 Q1012 NOSIG RMK RWY24 03012KT,LTFJ,2023-05-16T06:50:00Z,40.9,29.3,21.0,14.0,30,13,,6.21,29.88189,,,,,,TRUE,,,,,CAVOK,,,,,,,,VFR,,,,,,,,,,,,SPECI,83.0
LTFH 160650Z 33005KT 290V360 CAVOK 19/12 Q1018 NOSIG,LTFH,2023-05-16T06:50:00Z,41.27,36.57,19.0,12.0,330,5,,6.21,30.059055,,,,,,TRUE,,,,,CAVOK,,,,,,,,VFR,,,,,,,,,,,,METAR,7.0
LTFG 160650Z 25006KT CAVOK 25/16 Q1011,LTFG,2023-05-16T06:50:00Z,36.3,32.3,25.0,16.0,250,6,,6.21,29.852362,,,,,,,,,,,CAVOK,,,,,,,,VFR,,,,,,,,,,,,METAR,26.0
LTFE 160650Z VRB02KT CAVOK 24/16 Q1010 NOSIG RMK RWY10 13004KT 090V160,LTFE,2023-05-16T06:50:00Z,37.25,27.67,24.0,16.0,0,2,,6.21,29.822834,,,,,,TRUE,,,,,CAVOK,,,,,,,,VFR,,,,,,,,,,,,SPECI,6.0
LTFD 160650Z 07007KT 030V100 CAVOK 27/15 Q1010,LTFD,2023-05-16T06:50:00Z,39.55,27.02,27.0,15.0,70,7,,6.21,29.822834,,,,,,,,,,,CAVOK,,,,,,,,VFR,,,,,,,,,,,,METAR,15.0
LTFC 160650Z VRB02KT CAVOK 20/12 Q1016 RMK RWY23 VRB01KT,LTFC,2023-05-16T06:50:00Z,37.87,30.38,20.0,12.0,0,2,,6.21,30.0,,,,,,,,,,,CAVOK,,,,,,,,VFR,,,,,,,,,,,,SPECI,862.0
LTFB 160650Z 07005KT CAVOK 25/15 Q1010,LTFB,2023-05-16T06:50:00Z,37.95,27.33,25.0,15.0,70,5,,6.21,29.822834,,,,,,,,,,,CAVOK,,,,,,,,VFR,,,,,,,,,,,,METAR,3.0
LTDA 160650Z VRB03KT CAVOK 28/04 Q1012 NOSIG,LTDA,2023-05-16T06:50:00Z,36.37,36.28,28.0,4.0,0,3,,6.21,29.88189,,,,,,TRUE,,,,,CAVOK,,,,,,,,VFR,,,,,,,,,,,,METAR,80.0
LTCW 160650Z 05007KT 020V120 9999 SCT040 BKN070 12/M01 Q1020,LTCW,2023-05-16T06:50:00Z,37.55,44.23,12.0,-1.0,50,7,,6.21,30.11811,,,,,,,,,,,SCT,4000,BKN,7000,,,,,VFR,,,,,,,,,,,,METAR,1852.0
LTCV 160650Z 31005KT 230V360 CAVOK 24/06 Q1014,LTCV,2023-05-16T06:50:00Z,37.37,42.07,24.0,6.0,310,5,,6.21,29.940945,,,,,,,,,,,CAVOK,,,,,,,,VFR,,,,,,,,,,,,METAR,620.0
LTCU 160650Z 07007KT 360V110 CAVOK 18/02 Q1018,LTCU,2023-05-16T06:50:00Z,38.87,40.58,18.0,2.0,70,7,,6.21,30.059055,,,,,,,,,,,CAVOK,,,,,,,,VFR,,,,,,,,,,,,METAR,1061.0
LTCT 160650Z 33005KT 270V060 9999 FEW040 17/02 Q1019,LTCT,2023-05-16T06:50:00Z,39.98,43.87,17.0,2.0,330,5,,6.21,30.088583,,,,,,,,,,,FEW,4000,,,,,,,VFR,,,,,,,,,,,,METAR,936.0
LTCS 160650Z 04009KT 360V070 CAVOK 21/02 Q1016 RMK RWY22 36007KT 340V040 2CI200,LTCS,2023-05-16T06:50:00Z,37.45,38.9,21.0,2.0,40,9,,6.21,30.0,,,,,,,,,,,CAVOK,,,,,,,,VFR,,,,,,,,,,,,METAR,825.0
LTCR 160650Z 01012KT 330V040 CAVOK 24/02 Q1013,LTCR,2023-05-16T06:50:00Z,37.22,40.63,24.0,2.0,10,12,,6.21,29.911417,,,,,,,,,,,CAVOK,,,,,,,,VFR,,,,,,,,,,,,METAR,529.0
LTCP 160650Z VRB04KT 9999 FEW040 BKN200 22/M03 Q1016,LTCP,2023-05-16T06:50:00Z,37.73,38.47,22.0,-3.0,0,4,,6.21,30.0,,,,,,,,,,,FEW,4000,BKN,20000,,,,,VFR,,,,,,,,,,,,METAR,672.0
LTCO 160650Z 05005KT 010V100 9999 FEW040 11/01 Q1020,LTCO,2023-05-16T06:50:00Z,39.65,43.03,11.0,1.0,50,5,,6.21,30.11811,,,,,,,,,,,FEW,4000,,,,,,,VFR,,,,,,,,,,,,METAR,1657.0
LTCN 160650Z VRB02KT CAVOK 24/02 Q1015,LTCN,2023-05-16T06:50:00Z,37.53,36.95,24.0,2.0,0,2,,6.21,29.970472,,,,,,,,,,,CAVOK,,,,,,,,VFR,,,,,,,,,,,,METAR,505.0
LTCM 160650Z 12014KT CAVOK 16/12 Q1017,LTCM,2023-05-16T06:50:00Z,42.02,35.07,16.0,12.0,120,14,,6.21,30.029528,,,,,,,,,,,CAVOK,,,,,,,,VFR,,,,,,,,,,,,METAR,7.0
LTCL 160650Z 26003KT 140V310 CAVOK 22/06 Q1015,LTCL,2023-05-16T06:50:00Z,37.98,41.83,22.0,6.0,260,3,,6.21,29.970472,,,,,,,,,,,CAVOK,,,,,,,,VFR,,,,,,,,,,,,METAR,602.0
LTCK 160650Z 26006KT 210V320 9999 FEW035 14/03 Q1019,LTCK,2023-05-16T06:50:00Z,38.75,41.67,14.0,3.0,260,6,,6.21,30.088583,,,,,,,,,,,FEW,3500,,,,,,,VFR,,,,,,,,,,,,METAR,1267.0
LTCJ 160650Z VRB04KT CAVOK 22/05 Q1014 NOSIG RMK RWY20 32004KT 250V030 SKC,LTCJ,2023-05-16T06:50:00Z,37.93,41.12,22.0,5.0,0,4,,6.21,29.940945,,,,,,TRUE,,,,,CAVOK,,,,,,,,VFR,,,,,,,,,,,,SPECI,559.0
LTCI 160650Z 29007KT 9999 FEW030 13/05 Q1022 NOSIG,LTCI,2023-05-16T06:50:00Z,38.47,43.33,13.0,5.0,290,7,,6.21,30.177166,,,,,,TRUE,,,,,FEW,3000,,,,,,,VFR,,,,,,,,,,,,METAR,1654.0
LTCG 160650Z 07005KT 020V140 CAVOK 17/11 Q1018 NOSIG RMK RWY29 08005KT,LTCG,2023-05-16T06:50:00Z,41.0,39.77,17.0,11.0,70,5,,6.21,30.059055,,,,,,TRUE,,,,,CAVOK,,,,,,,,VFR,,,,,,,,,,,,SPECI,28.0
LTCF 160650Z VRB04KT 9999 FEW035 10/00 Q1021 NOSIG,LTCF,2023-05-16T06:50:00Z,40.57,43.12,10.0,0.0,0,4,,6.21,30.147638,,,,,,TRUE,,,,,FEW,3500,,,,,,,VFR,,,,,,,,,,,,METAR,1794.0
LTCE 160650Z 10004KT 030V170 CAVOK 11/00 Q1021 NOSIG RMK RWY08R VRB05KT RWY26R 06005KT 340V140 RWY08L 06005KT 360V120 SKC,LTCE,2023-05-16T06:50:00Z,39.95,41.17,11.0,0.0,100,4,,6.21,30.147638,,,,,,TRUE,,,,,CAVOK,,,,,,,,VFR,,,,,,,,,,,,SPECI,1758.0
LTCD 160650Z VRB02KT CAVOK 15/03 Q1020 NOSIG,LTCD,2023-05-16T06:50:00Z,39.72,39.52,15.0,3.0,0,2,,6.21,30.11811,,,,,,TRUE,,,,,CAVOK,,,,,,,,VFR,,,,,,,,,,,,METAR,1146.0
LTCC 160650Z 03009KT 350V070 CAVOK 22/03 Q1015 NOSIG RMK RWY16 02008KT 340V090 SKC,LTCC,2023-05-16T06:50:00Z,37.88,40.2,22.0,3.0,30,9,,6.21,29.970472,,,,,,TRUE,,,,,CAVOK,,,,,,,,VFR,,,,,,,,,,,,SPECI,676.0
LTCB 160650Z 36003KT CAVOK 16/10 Q1018 NOSIG,LTCB,2023-05-16T06:50:00Z,40.97,38.07,16.0,10.0,360,3,,6.21,30.059055,,,,,,TRUE,,,,,CAVOK,,,,,,,,VFR,,,,,,,,,,,,METAR,5.0
LTCA 160650Z 12003KT 070V200 CAVOK 18/05 Q1018 NOSIG,LTCA,2023-05-16T06:50:00Z,38.6,39.28,18.0,5.0,120,3,,6.21,30.059055,,,,,,TRUE,,,,,CAVOK,,,,,,,,VFR,,,,,,,,,,,,METAR,887.0
LTBY 160650Z 07004KT 030V150 CAVOK 20/11 Q1017,LTBY,2023-05-16T06:50:00Z,39.82,30.52,20.0,11.0,70,4,,6.21,30.029528,,,,,,,,,,,CAVOK,,,,,,,,VFR,,,,,,,,,,,,METAR,788.0
LTBU 160650Z 07009KT CAVOK 22/13 Q1013 RMK RWY22 07007KT 040V110,LTBU,2023-05-16T06:50:00Z,41.13,27.92,22.0,13.0,70,9,,6.21,29.911417,,,,,,,,,,,CAVOK,,,,,,,,VFR,,,,,,,,,,,,SPECI,165.0
LTBS 160650Z 19007KT CAVOK 25/14 Q1011 NOSIG RMK RWY19 VRB04KT 5CI180,LTBS,2023-05-16T06:50:00Z,36.7,28.78,25.0,14.0,190,7,,6.21,29.852362,,,,,,TRUE,,,,,CAVOK,,,,,,,,VFR,,,,,,,,,,,,METAR,2.0
LTBR 160650Z 06003KT 360V150 CAVOK 21/14 Q1013 NOSIG RMK RWY07 VRB02KT,LTBR,2023-05-16T06:50:00Z,40.25,29.57,21.0,14.0,60,3,,6.21,29.911417,,,,,,TRUE,,,,,CAVOK,,,,,,,,VFR,,,,,,,,,,,,SPECI,233.0
LTBQ 160650Z 12005KT 070V200 CAVOK 22/14 Q1014 NOSIG,LTBQ,2023-05-16T06:50:00Z,40.73,30.07,22.0,14.0,120,5,,6.21,29.940945,,,,,,TRUE,,,,,CAVOK,,,,,,,,VFR,,,,,,,,,,,,METAR,51.0
LTBO 160650Z 10007KT CAVOK 23/13 Q1016,LTBO,2023-05-16T06:50:00Z,38.67,29.47,23.0,13.0,100,7,,6.21,30.0,,,,,,,,,,,CAVOK,,,,,,,,VFR,,,,,,,,,,,,METAR,868.0
LTBJ 160650Z 16003KT 110V200 CAVOK 23/14 Q1010 NOSIG RMK RWY16 18006KT,LTBJ,2023-05-16T06:50:00Z,38.28,27.15,23.0,14.0,160,3,,6.21,29.822834,,,,,,TRUE,,,,,CAVOK,,,,,,,,VFR,,,,,,,,,,,,METAR,123.0
LTBH 160650Z 07009KT CAVOK 18/14 Q1010,LTBH,2023-05-16T06:50:00Z,40.13,26.42,18.0,14.0,70,9,,6.21,29.822834,,,,,,,,,,,CAVOK,,,,,,,,VFR,,,,,,,,,,,,METAR,8.0
LTBF 160650Z 00000KT CAVOK 21/15 Q1012 NOSIG,LTBF,2023-05-16T06:50:00Z,39.62,27.92,21.0,15.0,0,0,,6.21,29.88189,,,,,,TRUE,,,,,CAVOK,,,,,,,,VFR,,,,,,,,,,,,METAR,95.0
LTBD 160650Z 08011KT CAVOK 25/14 Q1010,LTBD,2023-05-16T06:50:00Z,37.82,27.88,25.0,14.0,80,11,,6.21,29.822834,,,,,,,,,,,CAVOK,,,,,,,,VFR,,,,,,,,,,,,METAR,29.0
LTBA 160650Z 02009KT CAVOK 21/13 Q1013 RMK RWY23 02009KT,LTBA,2023-05-16T06:50:00Z,40.97,28.82,21.0,13.0,20,9,,6.21,29.911417,,,,,,,,,,,CAVOK,,,,,,,,VFR,,,,,,,,,,,,METAR,33.0
LTAZ 160650Z 11008KT CAVOK 20/04 Q1018 RMK RWY29 13008KT,LTAZ,2023-05-16T06:50:00Z,38.77,34.52,20.0,4.0,110,8,,6.21,30.059055,,,,,,,,,,,CAVOK,,,,,,,,VFR,,,,,,,,,,,,SPECI,944.0
LTAY 160650Z 10005KT CAVOK 22/11 Q1016 NOSIG,LTAY,2023-05-16T06:50:00Z,37.78,29.7,22.0,11.0,100,5,,6.21,30.0,,,,,,TRUE,,,,,CAVOK,,,,,,,,VFR,,,,,,,,,,,,METAR,851.0
LTAW 160650Z VRB02KT CAVOK 16/06 Q1019,LTAW,2023-05-16T06:50:00Z,40.3,36.37,16.0,6.0,0,2,,6.21,30.088583,,,,,,,,,,,CAVOK,,,,,,,,VFR,,,,,,,,,,,,METAR,561.0
LTAU 160650Z VRB02KT CAVOK 19/03 Q1019 NOSIG RMK RWY07 05004KT 330V100,LTAU,2023-05-16T06:50:00Z,38.77,35.48,19.0,3.0,0,2,,6.21,30.088583,,,,,,TRUE,,,,,CAVOK,,,,,,,,VFR,,,,,,,,,,,,SPECI,1053.0
LTAT 160650Z 08006KT 020V120 CAVOK 18/06 Q1018 NOSIG RMK RWY03 VRB03KT,LTAT,2023-05-16T06:50:00Z,38.43,38.08,18.0,6.0,80,6,,6.21,30.059055,,,,,,TRUE,,,,,CAVOK,,,,,,,,VFR,,,,,,,,,,,,SPECI,850.0
LTAS 160650Z 19004KT 140V250 CAVOK 21/14 Q1014,LTAS,2023-05-16T06:50:00Z,41.52,32.08,21.0,14.0,190,4,,6.21,29.940945,,,,,,,,,,,CAVOK,,,,,,,,VFR,,,,,,,,,,,,METAR,13.0
LTAR 160650Z 36004KT 300V090 CAVOK 13/M03 Q1021,LTAR,2023-05-16T06:50:00Z,39.8,36.9,13.0,-3.0,360,4,,6.21,30.147638,,,,,,,,,,,CAVOK,,,,,,,,VFR,,,,,,,,,,,,METAR,1601.0
LTAP 160650Z VRB01KT CAVOK 17/08 Q1018 NOSIG,LTAP,2023-05-16T06:50:00Z,40.83,35.52,17.0,8.0,0,1,,6.21,30.059055,,,,,,TRUE,,,,,CAVOK,,,,,,,,VFR,,,,,,,,,,,,METAR,536.0
LTAN 160650Z VRB04KT CAVOK 22/06 Q1018 NOSIG,LTAN,2023-05-16T06:50:00Z,37.97,32.55,22.0,6.0,0,4,,6.21,30.059055,,,,,,TRUE,,,,,CAVOK,,,,,,,,VFR,,,,,,,,,,,,METAR,1029.0
LTAL 160650Z 04006KT 020V080 CAVOK 14/07 Q1018,LTAL,2023-05-16T06:50:00Z,41.32,33.8,14.0,7.0,40,6,,6.21,30.059055,,,,,,,,,,,CAVOK,,,,,,,,VFR,,,,,,,,,,,,METAR,1074.0
LTAJ 160650Z 01005KT 310V060 CAVOK 23/M03 Q1015 NOSIG RMK RWY10 05008KT 2CI180,LTAJ,2023-05-16T06:50:00Z,36.95,37.48,23.0,-3.0,10,5,,6.21,29.970472,,,,,,TRUE,,,,,CAVOK,,,,,,,,VFR,,,,,,,,,,,,SPECI,684.0
LTAI 160650Z 36004KT 330V050 CAVOK 29/16 Q1011 NOSIG RMK RWY18C 02004KT 330V050 RWY36R 01005KT 320V050 RWY18L 01005KT 330V040,LTAI,2023-05-16T06:50:00Z,36.9,30.8,29.0,16.0,360,4,,6.21,29.852362,,,,,,TRUE,,,,,CAVOK,,,,,,,,VFR,,,,,,,,,,,,METAR,50.0
LTAG 160650Z 02011KT CAVOK 30/06 Q1010 NOSIG RMK 3CI180,LTAG,2023-05-16T06:50:00Z,37.0,35.42,30.0,6.0,20,11,,6.21,29.822834,,,,,,TRUE,,,,,CAVOK,,,,,,,,VFR,,,,,,,,,,,,METAR,62.0
LTAF 160650Z 04008KT 360V070 CAVOK 30/10 Q1011 NOSIG RMK RWY23 06007KT 020V110 3CI200,LTAF,2023-05-16T06:50:00Z,36.98,35.28,30.0,10.0,40,8,,6.21,29.852362,,,,,,TRUE,,,,,CAVOK,,,,,,,,VFR,,,,,,,,,,,,METAR,19.0
LTAE 160650Z 17004KT 100V230 CAVOK 21/08 Q1017 NOSIG RMK RWY21 VRB02KT,LTAE,2023-05-16T06:50:00Z,40.07,32.57,21.0,8.0,170,4,,6.21,30.029528,,,,,,TRUE,,,,,CAVOK,,,,,,,,VFR,,,,,,,,,,,,METAR,836.0
LTAC 160650Z VRB03KT CAVOK 19/06 Q1018 NOSIG RMK RWY21L VRB03KT RWY03L VRB02KT RWY21R 01003KT,LTAC,2023-05-16T06:50:00Z,40.12,32.98,19.0,6.0,0,3,,6.21,30.059055,,,,,,TRUE,,,,,CAVOK,,,,,,,,VFR,,,,,,,,,,,,METAR,952.0
LLIB 160650Z AUTO VRB03KT CAVOK 30/M03 Q1010,LLIB,2023-05-16T06:50:00Z,32.98,35.57,30.0,-3.0,0,3,,6.21,29.822834,,,TRUE,,,,,,,,CAVOK,,,,,,,,VFR,,,,,,,,,,,,METAR,268.0
LLHA 160650Z 12012KT CAVOK 32/M01 Q1008,LLHA,2023-05-16T06:50:00Z,32.8,35.03,32.0,-1.0,120,12,,6.21,29.763779,,,,,,,,,,,CAVOK,,,,,,,,VFR,,,,,,,,,,,,METAR,3.0
LLER 160650Z 02013KT CAVOK 30/12 Q1007,LLER,2023-05-16T06:50:00Z,29.72,35.02,30.0,12.0,20,13,,6.21,29.734253,,,,,,,,,,,CAVOK,,,,,,,,VFR,,,,,,,,,,,,METAR,88.0
LIRU 160650Z 33003KT 300V010 8000 FEW005 SCT020 14/13 Q0996,LIRU,2023-05-16T06:50:00Z,41.95,12.5,14.0,13.0,330,3,,4.97,29.409449,,,,,,,,,,,FEW,500,SCT,2000,,,,,MVFR,,,,,,,,,,,,METAR,16.0
LIPU 160650Z 06010KT 030V090 8000 RA BKN030 15/11 Q1004,LIPU,2023-05-16T06:50:00Z,45.38,11.83,15.0,11.0,60,10,,4.97,29.64567,,,,,,,,,,RA,BKN,3000,,,,,,,MVFR,,,,,,,,,,,,METAR,6.0
LIPK 160650Z 29011KT 5000 SCT005CB BKN008 12/11 Q1000 RERA,LIPK,2023-05-16T06:50:00Z,44.2,12.07,12.0,11.0,290,11,,3.11,29.52756,,,,,,,,,,,SCT,500,BKN,800,,,,,IFR,,,,,,,,,,,,METAR,24.0
LIPB 160650Z 07011KT 050V110 9999 BKN070 18/02 Q1006,LIPB,2023-05-16T06:50:00Z,46.47,11.32,18.0,2.0,70,11,,6.21,29.704725,,,,,,,,,,,BKN,7000,,,,,,,VFR,,,,,,,,,,,,METAR,239.0
LIMP 160650Z 14006KT 5000 RA BR OVC030 13/12 Q1005,LIMP,2023-05-16T06:50:00Z,44.82,10.3,13.0,12.0,140,6,,3.11,29.675198,,,,,,,,,,RA BR,OVC,3000,,,,,,,MVFR,,,,,,,,,,,,METAR,41.0
LIMG 160650Z VRB03KT CAVOK 20/09 Q1003,LIMG,2023-05-16T06:50:00Z,44.03,8.12,20.0,9.0,0,3,,6.21,29.616142,,,,,,,,,,,CAVOK,,,,,,,,VFR,,,,,,,,,,,,METAR,41.0
LICG 160650Z 27019KT 9999 FEW015TCU SCT020 16/14 Q1006,LICG,2023-05-16T06:50:00Z,36.82,11.97,16.0,14.0,270,19,,6.21,29.704725,,,,,,,,,,,FEW,1500,SCT,2000,,,,,VFR,,,,,,,,,,,,METAR,192.0
LIBG 160650Z 16015KT 8000 BKN020 18/15 Q1000,LIBG,2023-05-16T06:50:00Z,40.52,17.4,18.0,15.0,160,15,,4.97,29.52756,,,,,,,,,,,BKN,2000,,,,,,,MVFR,,,,,,,,,,,,METAR,64.0
LIBF 160650Z 12007KT 080V150 9999 SCT005 SCT015 17/16 Q0996,LIBF,2023-05-16T06:50:00Z,41.42,15.53,17.0,16.0,120,7,,6.21,29.409449,,,,,,,,,,,SCT,500,SCT,1500,,,,,VFR,,,,,,,,,,,,METAR,81.0
LIBC 160650Z 24018G28KT CAVOK 17/12 Q1002,LIBC,2023-05-16T06:50:00Z,39.0,17.07,17.0,12.0,240,18,28,6.21,29.586615,,,,,,,,,,,CAVOK,,,,,,,,VFR,,,,,,,,,,,,METAR,158.0
LGSO 160650Z 08006KT CAVOK 21/15 Q1009,LGSO,2023-05-16T06:50:00Z,37.42,24.95,21.0,15.0,80,6,,6.21,29.793306,,,,,,,,,,,CAVOK,,,,,,,,VFR,,,,,,,,,,,,METAR,71.0
LGSM 160650Z 00000KT CAVOK 22/11 Q1010,LGSM,2023-05-16T06:50:00Z,37.68,26.92,22.0,11.0,0,0,,6.21,29.822834,,,,,,,,,,,CAVOK,,,,,,,,VFR,,,,,,,,,,,,METAR,5.0
LGSK 160650Z 35006KT 9999 FEW025 20/12 Q1010,LGSK,2023-05-16T06:50:00Z,39.18,23.5,20.0,12.0,350,6,,6.21,29.822834,,,,,,,,,,,FEW,2500,,,,,,,VFR,,,,,,,,,,,,METAR,13.0
LGPA 160650Z 15016G26KT 9999 FEW040 25/10 Q1008,LGPA,2023-05-16T06:50:00Z,37.02,25.1,25.0,10.0,150,16,26,6.21,29.763779,,,,,,,,,,,FEW,4000,,,,,,,VFR,,,,,,,,,,,,METAR,42.0
LGNX 160650Z 34009KT CAVOK 22/14 Q1008,LGNX,2023-05-16T06:50:00Z,37.08,25.37,22.0,14.0,340,9,,6.21,29.763779,,,,,,,,,,,CAVOK,,,,,,,,VFR,,,,,,,,,,,,METAR,3.0
LGKZ 160650Z 00000KT 9999 SCT025 BKN070 15/10 Q1011,LGKZ,2023-05-16T06:50:00Z,40.28,21.83,15.0,10.0,0,0,,6.21,29.852362,,,,,,,,,,,SCT,2500,BKN,7000,,,,,VFR,,,,,,,,,,,,METAR,615.0
LGKF 160650Z 19013KT 8000 FEW012 FEW016TCU SCT020 BKN070 17/14 Q1008 RERA,LGKF,2023-05-16T06:50:00Z,38.12,20.5,17.0,14.0,190,13,,4.97,29.763779,,,,,,,,,,,FEW,1200,FEW,1600,SCT,2000,BKN,7000,MVFR,,,,,,,,,,,,METAR,14.0
LGHI 160650Z 00000KT 9999 FEW025 24/16 Q1009,LGHI,2023-05-16T06:50:00Z,38.33,26.13,24.0,16.0,0,0,,6.21,29.793306,,,,,,,,,,,FEW,2500,,,,,,,VFR,,,,,,,,,,,,METAR,6.0
LCRA 160650Z 09011KT CAVOK 28/14 Q1009 NOSIG,LCRA,2023-05-16T06:50:00Z,34.58,32.98,28.0,14.0,90,11,,6.21,29.793306,,,,,,TRUE,,,,,CAVOK,,,,,,,,VFR,,,,,,,,,,,,METAR,23.0
LCEN 160650Z 05011KT 020V080 CAVOK 30/06 Q1011 NOSIG RMK RWY11 07011KT 020V110,LCEN,2023-05-16T06:50:00Z,35.15,33.5,30.0,6.0,50,11,,6.21,29.852362,,,,,,TRUE,,,,,CAVOK,,,,,,,,VFR,,,,,,,,,,,,SPECI,91.0
KNQA 160650Z 13004KT 10SM CLR 22/22 A3000,KNQA,2023-05-16T06:50:00Z,35.35,-89.87,22.0,22.0,130,4,,10.0,30.0,,,,,,,,,,,CLR,,,,,,,,VFR,,,,,,,,,,,,METAR,90.0
KMWN 160650Z 28057G66KT 70SM FEW008 FEW020 SCT040 SCT070 SCT120 BKN150 01/M04 RMK SCSL E-SE ACSL DSNT SE,KMWN,2023-05-16T06:50:00Z,44.27,-71.3,1.0,-4.0,280,57,66,70.0,,,,,,,,,,,,FEW,800,FEW,2000,SCT,4000,SCT,7000,VFR,,,,,,,,,,,,METAR,1911.0
KDAG 160650Z AUTO 27008KT 10SM CLR 26/M01 A3002 RMK AO2 SLP138 T02561011,KDAG,2023-05-16T06:50:00Z,34.85,-116.78,25.6,-1.1,270,8,,10.0,30.02067,1013.8,,TRUE,TRUE,,,,,,,CLR,,,,,,,,VFR,,,,,,,,,,,,METAR,584.0
FHAW 160650Z 15009KT 9999 FEW020 BKN400 25/21 Q1014 NOSIG RMK BLU BLU,FHAW,2023-05-16T06:50:00Z,-7.97,-14.4,25.0,21.0,150,9,,6.21,29.940945,,,,,,TRUE,,,,,FEW,2000,BKN,40000,,,,,VFR,,,,,,,,,,,,METAR,79.0
ETNG 160650Z 34008KT 9999 FEW017 BKN034 09/06 Q1021 NOSIG,ETNG,2023-05-16T06:50:00Z,50.97,6.03,9.0,6.0,340,8,,6.21,30.147638,,,,,,TRUE,,,,,FEW,1700,BKN,3400,,,,,VFR,,,,,,,,,,,,METAR,76.0
ESND 160650Z AUTO 00000KT 9999 OVC003/// 09/09 Q1008,ESND,2023-05-16T06:50:00Z,62.05,14.42,9.0,9.0,0,0,,6.21,29.763779,,,TRUE,,,,,,,,OVC,300,,,,,,,LIFR,,,,,,,,,,,,METAR,352.0
ENMH 160650Z VRB03KT 9999 BKN037 07/06 Q1009,ENMH,2023-05-16T06:50:00Z,71.02,27.82,7.0,6.0,0,3,,6.21,29.793306,,,,,,,,,,,BKN,3700,,,,,,,VFR,,,,,,,,,,,,METAR,10.0
ENHE 160650Z 20023KT 9999 SCT023 BKN120 08/02 Q1006 W///S4,ENHE,2023-05-16T06:50:00Z,65.33,2.33,8.0,2.0,200,23,,6.21,29.704725,,,,,,,,,,,SCT,2300,BKN,12000,,,,,VFR,,,,,,,,,,,,SPECI,10.0
EKOD 160650Z 27014KT 9999 BKN017 OVC021 10/07 Q1011,EKOD,2023-05-16T06:50:00Z,55.47,10.32,10.0,7.0,270,14,,6.21,29.852362,,,,,,,,,,,BKN,1700,OVC,2100,,,,,MVFR,,,,,,,,,,,,METAR,13.0
EGYP 160650Z AUTO 36029KT 9999 FEW006/// OVC180/// 09/08 Q0995,EGYP,2023-05-16T06:50:00Z,-51.82,-58.45,9.0,8.0,360,29,,6.21,29.379921,,,TRUE,,,,,,,,FEW,600,OVC,18000,,,,,VFR,,,,,,,,,,,,METAR,70.0
EGYM 160650Z 31008KT 9999 SKC 09/06 Q1023 RMK BLU,EGYM,2023-05-16T06:50:00Z,52.63,0.57,9.0,6.0,310,8,,6.21,30.206694,,,,,,,,,,,SKC,,,,,,,,VFR,,,,,,,,,,,,SPECI,25.0
EGYH 160650Z AUTO 31011KT 9999 NCD 09/06 Q1023,EGYH,2023-05-16T06:50:00Z,52.87,0.15,9.0,6.0,310,11,,6.21,30.206694,,,TRUE,,,,,,,,CLR,,,,,,,,VFR,,,,,,,,,,,,METAR,5.0
EGYE 160650Z 28008KT CAVOK ///// Q1024 RMK BLU,EGYE,2023-05-16T06:50:00Z,52.97,-0.57,,,280,8,,6.21,30.236221,,,,,,,,,,,CAVOK,,,,,,,,VFR,,,,,,,,,,,,METAR,105.0
EGYD 160650Z 28008KT CAVOK 09/06 Q1024 NOSIG RMK BLU BLU,EGYD,2023-05-16T06:50:00Z,53.03,-0.5,9.0,6.0,280,8,,6.21,30.236221,,,,,,TRUE,,,,,CAVOK,,,,,,,,VFR,,,,,,,,,,,,SPECI,65.0
EGXZ 160650Z AUTO 30011KT 9999 NCD 10/05 Q1023,EGXZ,2023-05-16T06:50:00Z,54.2,-1.38,10.0,5.0,300,11,,6.21,30.206694,,,TRUE,,,,,,,,CLR,,,,,,,,VFR,,,,,,,,,,,,METAR,24.0
EGXW 160650Z 29007KT CAVOK 09/05 Q1024 NOSIG RMK BLU BLU,EGXW,2023-05-16T06:50:00Z,53.18,-0.52,9.0,5.0,290,7,,6.21,30.236221,,,,,,TRUE,,,,,CAVOK,,,,,,,,VFR,,,,,,,,,,,,SPECI,70.0
EGXV 160650Z AUTO 29008KT 9999 NCD 10/05 Q1023,EGXV,2023-05-16T06:50:00Z,53.87,-0.45,10.0,5.0,290,8,,6.21,30.206694,,,TRUE,,,,,,,,CLR,,,,,,,,VFR,,,,,,,,,,,,METAR,6.0
EGXT 160650Z 30011KT CAVOK 09/06 Q1024 RMK BLU,EGXT,2023-05-16T06:50:00Z,52.62,-0.47,9.0,6.0,300,11,,6.21,30.236221,,,,,,,,,,,CAVOK,,,,,,,,VFR,,,,,,,,,,,,SPECI,74.0
EGXS 160650Z AUTO 28009KT 9999 NCD 09/06 Q1023,EGXS,2023-05-16T06:50:00Z,53.48,0.15,9.0,6.0,280,9,,6.21,30.206694,,,TRUE,,,,,,,,CLR,,,,,,,,VFR,,,,,,,,,,,,METAR,6.0
EGXE 160650Z AUTO 29010KT 9999 NCD 10/06 Q1023,EGXE,2023-05-16T06:50:00Z,54.28,-1.52,10.0,6.0,290,10,,6.21,30.206694,,,TRUE,,,,,,,,CLR,,,,,,,,VFR,,,,,,,,,,,,METAR,30.0
EGXC 160650Z 32011KT CAVOK 09/06 Q1023 RMK BLU,EGXC,2023-05-16T06:50:00Z,53.1,-0.17,9.0,6.0,320,11,,6.21,30.206694,,,,,,,,,,,CAVOK,,,,,,,,VFR,,,,,,,,,,,,SPECI,9.0
EGWU 160650Z 35008KT CAVOK 10/06 Q1025 NOSIG RMK BLU BLU,EGWU,2023-05-16T06:50:00Z,51.55,-0.42,10.0,6.0,350,8,,6.21,30.265747,,,,,,TRUE,,,,,CAVOK,,,,,,,,VFR,,,,,,,,,,,,SPECI,33.0
EGWC 160650Z 29007KT 9999 SCT035 BKN250 10/05 Q1026 RMK BLU,EGWC,2023-05-16T06:50:00Z,52.63,-2.3,10.0,5.0,290,7,,6.21,30.295275,,,,,,,,,,,SCT,3500,BKN,25000,,,,,VFR,,,,,,,,,,,,SPECI,79.0
EGVP 160650Z 34008KT CAVOK 09/03 Q1025 NOSIG RMK BLU BLU,EGVP,2023-05-16T06:50:00Z,51.13,-1.57,9.0,3.0,340,8,,6.21,30.265747,,,,,,TRUE,,,,,CAVOK,,,,,,,,VFR,,,,,,,,,,,,SPECI,80.0
EGVO 160650Z AUTO 32007KT 9999 NCD 09/05 Q1025,EGVO,2023-05-16T06:50:00Z,51.23,-0.95,9.0,5.0,320,7,,6.21,30.265747,,,TRUE,,,,,,,,CLR,,,,,,,,VFR,,,,,,,,,,,,METAR,118.0
EGVN 160650Z 32010KT CAVOK 10/04 Q1025 NOSIG RMK BLU BLU,EGVN,2023-05-16T06:50:00Z,51.77,-1.58,10.0,4.0,320,10,,6.21,30.265747,,,,,,TRUE,,,,,CAVOK,,,,,,,,VFR,,,,,,,,,,,,SPECI,83.0
EGUB 160650Z 34002KT CAVOK 08/05 Q1025 RMK BLU,EGUB,2023-05-16T06:50:00Z,51.62,-1.08,8.0,5.0,340,2,,6.21,30.265747,,,,,,,,,,,CAVOK,,,,,,,,VFR,,,,,,,,,,,,SPECI,56.0
EGQS 160650Z 24012KT 9999 FEW020 BKN030 10/08 Q1020 TEMPO 7000 -SHRA SCT020 RMK BLU TEMPO WHT,EGQS,2023-05-16T06:50:00Z,57.72,-3.32,10.0,8.0,240,12,,6.21,30.11811,,,,,,,,,,,FEW,2000,BKN,3000,,,,,MVFR,,,,,,,,,,,,METAR,6.0
EGQM 160650Z AUTO 27010KT 9999 NCD 11/06 Q1022,EGQM,2023-05-16T06:50:00Z,55.42,-1.6,11.0,6.0,270,10,,6.21,30.177166,,,TRUE,,,,,,,,CLR,,,,,,,,VFR,,,,,,,,,,,,METAR,24.0
EGQL 160650Z 25011KT CAVOK 11/06 Q1021 RMK BLU,EGQL,2023-05-16T06:50:00Z,56.38,-2.87,11.0,6.0,250,11,,6.21,30.147638,,,,,,,,,,,CAVOK,,,,,,,,VFR,,,,,,,,,,,,METAR,11.0
EGQK 160650Z AUTO 24012KT 9999 // FEW025/// SCT035/// OVC050/// 10/08 Q1020,EGQK,2023-05-16T06:50:00Z,57.65,-3.57,10.0,8.0,240,12,,6.21,30.11811,,,TRUE,,,,,,,,FEW,2500,SCT,3500,OVC,5000,,,VFR,,,,,,,,,,,,METAR,5.0
EGQA 160650Z AUTO 29013KT 9999 -RA OVC017/// 10/08 Q1020,EGQA,2023-05-16T06:50:00Z,57.83,-3.95,10.0,8.0,290,13,,6.21,30.11811,,,TRUE,,,,,,,-RA,OVC,1700,,,,,,,MVFR,,,,,,,,,,,,METAR,4.0
EGPB 160650Z 33016KT 9999 -SHRA FEW013 SCT021 BKN040 08/05 Q1016 TEMPO SHRA,EGPB,2023-05-16T06:50:00Z,59.87,-1.3,8.0,5.0,330,16,,6.21,30.0,,,,,,,,,,-SHRA,FEW,1300,SCT,2100,BKN,4000,,,VFR,,,,,,,,,,,,METAR,2.0
EGOW 160650Z 31011KT 9999 SCT020 BKN030 12/06 Q1026 RMK WHT,EGOW,2023-05-16T06:50:00Z,53.58,-3.05,12.0,6.0,310,11,,6.21,30.295275,,,,,,,,,,,SCT,2000,BKN,3000,,,,,MVFR,,,,,,,,,,,,METAR,10.0
EGOV 160650Z 32007KT 9999 FEW021 11/07 Q1027 NOSIG RMK BLU BLU,EGOV,2023-05-16T06:50:00Z,53.25,-4.53,11.0,7.0,320,7,,6.21,30.324802,,,,,,TRUE,,,,,FEW,2100,,,,,,,VFR,,,,,,,,,,,,METAR,11.0
EGOS 160650Z AUTO 28012KT 9999 BKN031/// 10/06 Q1026,EGOS,2023-05-16T06:50:00Z,52.8,-2.67,10.0,6.0,280,12,,6.21,30.295275,,,TRUE,,,,,,,,BKN,3100,,,,,,,VFR,,,,,,,,,,,,METAR,76.0
EGOP 160650Z AUTO 03002KT 9999 NCD 10/08 Q1027,EGOP,2023-05-16T06:50:00Z,51.72,-4.37,10.0,8.0,30,2,,6.21,30.324802,,,TRUE,,,,,,,,CLR,,,,,,,,VFR,,,,,,,,,,,,METAR,8.0
EGOM 160650Z AUTO 26013KT 9999 NCD 07/06 Q1023,EGOM,2023-05-16T06:50:00Z,55.05,-2.55,7.0,6.0,260,13,,6.21,30.206694,,,TRUE,,,,,,,,CLR,,,,,,,,VFR,,,,,,,,,,,,METAR,286.0
EGHH 160650Z 35005KT 290V020 CAVOK 10/04 Q1026,EGHH,2023-05-16T06:50:00Z,50.78,-1.83,10.0,4.0,350,5,,6.21,30.295275,,,,,,,,,,,CAVOK,,,,,,,,VFR,,,,,,,,,,,,METAR,9.0
EGHE 160650Z 02005KT CAVOK 13/10 Q1027,EGHE,2023-05-16T06:50:00Z,49.92,-6.28,13.0,10.0,20,5,,6.21,30.324802,,,,,,,,,,,CAVOK,,,,,,,,VFR,,,,,,,,,,,,METAR,31.0
EGDY 160650Z 16001KT CAVOK 08/06 Q1026 NOSIG RMK BLU BLU,EGDY,2023-05-16T06:50:00Z,51.0,-2.63,8.0,6.0,160,1,,6.21,30.295275,,,,,,TRUE,,,,,CAVOK,,,,,,,,VFR,,,,,,,,,,,,METAR,21.0
EGDR 160650Z AUTO 04006KT 9999 NCD 11/07 Q1027,EGDR,2023-05-16T06:50:00Z,50.08,-5.25,11.0,7.0,40,6,,6.21,30.324802,,,TRUE,,,,,,,,CLR,,,,,,,,VFR,,,,,,,,,,,,METAR,74.0
EGDM 160650Z 34007KT CAVOK 09/04 Q1025 NOSIG RMK BLU BLU,EGDM,2023-05-16T06:50:00Z,51.17,-1.75,9.0,4.0,340,7,,6.21,30.265747,,,,,,TRUE,,,,,CAVOK,,,,,,,,VFR,,,,,,,,,,,,METAR,122.0
EEEI 160650Z 10010KT 9999 -RA FEW048 13/12 Q1009 NOSIG,EEEI,2023-05-16T06:50:00Z,59.27,24.2,13.0,12.0,100,10,,6.21,29.793306,,,,,,TRUE,,,,-RA,FEW,4800,,,,,,,VFR,,,,,,,,,,,,METAR,19.0
EDVE 160650Z 29012KT 9999 FEW013 SCT025 OVC029 10/06 Q1016,EDVE,2023-05-16T06:50:00Z,52.32,10.55,10.0,6.0,290,12,,6.21,30.0,,,,,,,,,,,FEW,1300,SCT,2500,OVC,2900,,,MVFR,,,,,,,,,,,,METAR,83.0
EDBC 160650Z AUTO 32013G23KT 9999 // SCT012/// BKN021/// BKN029/// 10/06 Q1015,EDBC,2023-05-16T06:50:00Z,51.85,11.42,10.0,6.0,320,13,23,6.21,29.970472,,,TRUE,,,,,,,,SCT,1200,BKN,2100,BKN,2900,,,MVFR,,,,,,,,,,,,METAR,178.0
BGSF 160650Z AUTO 23003KT 9999NDV BKN090/// BKN100/// 02/M02 Q0999,BGSF,2023-05-16T06:50:00Z,67.0,-50.72,2.0,-2.0,230,3,,,29.498032,,,TRUE,,,,,,,,BKN,9000,BKN,10000,,,,,,,,,,,,,,,,,METAR,75.0
BGKK 160650Z AUTO 02004KT 350V050 9999NDV FEW065/// OVC093/// M01/M04 Q1013,BGKK,2023-05-16T06:50:00Z,65.57,-37.13,-1.0,-4.0,20,4,,,29.911417,,,TRUE,,,,,,,,FEW,6500,OVC,9300,,,,,,,,,,,,,,,,,METAR,37.0
BGJN 160650Z AUTO 13003KT 9999NDV OVC120/// M01/M05 Q1002,BGJN,2023-05-16T06:50:00Z,69.25,-51.07,-1.0,-5.0,130,3,,,29.586615,,,TRUE,,,,,,,,OVC,12000,,,,,,,,,,,,,,,,,,,METAR,22.0
BGGH 160650Z AUTO 08003KT 040V110 9999 SCT068/// OVC078/// 05/01 Q0995,BGGH,2023-05-16T06:50:00Z,64.2,-51.68,5.0,1.0,80,3,,6.21,29.379921,,,TRUE,,,,,,,,SCT,6800,OVC,7800,,,,,VFR,,,,,,,,,,,,METAR,76.0
BGBW 160650Z AUTO 07025KT 9999NDV FEW100/// BKN120/// 08/M08 Q0993,BGBW,2023-05-16T06:50:00Z,61.17,-45.42,8.0,-8.0,70,25,,,29.320866,,,TRUE,,,,,,,,FEW,10000,BKN,12000,,,,,,,,,,,,,,,,,METAR,49.0
KRPX 160649Z AUTO 10SM 13/08 A3001 RMK Roundup ,KRPX,2023-05-16T06:49:00Z,46.47,-108.55,13.0,8.0,,,,10.0,30.008858,,,TRUE,,,,,,,,,,,,,,,,,,,,,,,,,,,,METAR,1062.0
MMAS 160648Z 05006KT 10SM SKC 15/M05 A3029,MMAS,2023-05-16T06:48:00Z,21.7,-102.32,15.0,-5.0,50,6,,10.0,30.28937,,,,,,,,,,,SKC,,,,,,,,VFR,,,,,,,,,,,,METAR,1866.0
KJDN 160648Z AUTO 08003KT 14/11 A3008 RMK AO1 SLP179 T01390106 402440072,KJDN,2023-05-16T06:48:00Z,47.33,-106.95,13.9,10.6,80,3,,,30.079725,1017.9,,TRUE,TRUE,,,,,,,,,,,,,,,,,,,24.4,7.2,,,,,,,METAR,802.0
KCQT 160647Z AUTO VRB03KT 10SM OVC009 17/13 A3005 RMK AO2 SLP176 T01670133 $,KCQT,2023-05-16T06:47:00Z,34.02,-118.28,16.7,13.3,0,3,,10.0,30.050198,1017.6,,TRUE,TRUE,TRUE,,,,,,OVC,900,,,,,,,IFR,,,,,,,,,,,,METAR,51.0
PABL 160645Z AUTO 31009KT 1 3/4SM -SN BR FEW005 SCT009 OVC019 M02/M03 A3007 RMK AO2 P0000 FZRANO,PABL,2023-05-16T06:45:00Z,65.98,-161.15,-2.0,-3.0,310,9,,1.75,30.070866,,,TRUE,TRUE,,,,TRUE,,-SN BR,FEW,500,SCT,900,OVC,1900,,,IFR,,,,,,0.005,,,,,,METAR,7.0
MMTO 160645Z 03003KT 9SM SKC 09/05 A3048 RMK ISOL AC,MMTO,2023-05-16T06:45:00Z,19.35,-99.57,9.0,5.0,30,3,,9.0,30.481298,,,,,,,,,,,SKC,,,,,,,,VFR,,,,,,,,,,,,METAR,2582.0
LHSM 160645Z AUTO 01007KT 330V030 9999 -RA NSC 13/12 Q1009 RERA TEMPO 4000 RA BKN008 OVC020,LHSM,2023-05-16T06:45:00Z,46.68,17.17,13.0,12.0,10,7,,6.21,29.793306,,,TRUE,,,,,,,-RA,CLR,,,,,,,,VFR,,,,,,,,,,,,METAR,119.0
LHPR 160645Z AUTO VRB02KT 9999 -RA OVC072 //////TCU 12/11 Q1011 BECMG 8000 -RA SCT008 OVC040,LHPR,2023-05-16T06:45:00Z,47.63,17.82,12.0,11.0,0,2,,6.21,29.852362,,,TRUE,,,,,,,-RA,OVC,7200,,,,,,,VFR,,,,,,,,,,,,METAR,127.0
LHPA 160645Z 36004KT 6000 -RA FEW047 OVC060 12/12 Q1011 NOSIG RMK WHT,LHPA,2023-05-16T06:45:00Z,47.35,17.5,12.0,12.0,360,4,,3.73,29.852362,,,,,,TRUE,,,,-RA,FEW,4700,OVC,6000,,,,,MVFR,,,,,,,,,,,,METAR,143.0
LHKE 160645Z 06010KT 5000 -RA BR OVC003 14/14 Q1010 BECMG 8000 -RA BKN005 OVC050 RMK YLO,LHKE,2023-05-16T06:45:00Z,46.92,19.75,14.0,14.0,60,10,,3.11,29.822834,,,,,,,,,,-RA BR,OVC,300,,,,,,,LIFR,,,,,,,,,,,,METAR,113.0
LHDC 160645Z AUTO 06007KT 020V080 CAVOK 16/15 Q1011 NOSIG,LHDC,2023-05-16T06:45:00Z,47.48,21.62,16.0,15.0,60,7,,6.21,29.852362,,,TRUE,,,TRUE,,,,,CAVOK,,,,,,,,VFR,,,,,,,,,,,,METAR,105.0
MMMX 160644Z 26004KT 12SM SCT100 16/06 A3041 NOSIG RMK 8/030,MMMX,2023-05-16T06:44:00Z,19.43,-99.08,16.0,6.0,260,4,,12.0,30.410433,,,,,,TRUE,,,,,SCT,10000,,,,,,,VFR,,,,,,,,,,,,METAR,2224.0
MMMZ 160643Z 00000KT 10SM SCT070 BKN240 20/20 A2995 RMK 8/072,MMMZ,2023-05-16T06:43:00Z,23.17,-106.27,20.0,20.0,0,0,,10.0,29.949802,,,,,,,,,,,SCT,7000,BKN,24000,,,,,VFR,,,,,,,,,,,,METAR,7.0
MMMY 160643Z 01003KT 7SM OVC010 20/20 A3011 RMK 8/6// BINOVC,MMMY,2023-05-16T06:43:00Z,25.77,-100.1,20.0,20.0,10,3,,7.0,30.109253,,,,,,,,,,,OVC,1000,,,,,,,MVFR,,,,,,,,,,,,METAR,382.0
MMQT 160642Z 09007KT 7SM BKN020 BKN100 16/11 A3036 RMK 8/570,MMQT,2023-05-16T06:42:00Z,20.62,-100.18,16.0,11.0,90,7,,7.0,30.360237,,,,,,,,,,,BKN,2000,BKN,10000,,,,,MVFR,,,,,,,,,,,,METAR,1909.0
MMMD 160641Z 12003KT 6SM SKC 22/21 A3004 RMK HZY CI,MMMD,2023-05-16T06:41:00Z,20.95,-89.65,22.0,21.0,120,3,,6.0,30.041338,,,,,,,,,,,SKC,,,,,,,,VFR,,,,,,,,,,,,METAR,10.0
MMHO 160641Z 12002KT 10SM SKC 24/06 A3000 RMK HZY,MMHO,2023-05-16T06:41:00Z,29.08,-111.05,24.0,6.0,120,2,,10.0,30.0,,,,,,,,,,,SKC,,,,,,,,VFR,,,,,,,,,,,,METAR,186.0
MMGL 160641Z 27007KT 10SM SKC 21/04 A3025,MMGL,2023-05-16T06:41:00Z,20.52,-103.32,21.0,4.0,270,7,,10.0,30.250984,,,,,,,,,,,SKC,,,,,,,,VFR,,,,,,,,,,,,METAR,1531.0
MMZC 160640Z E05015KT 10SM SCT050 16/06 A3034 RMK 8/100,MMZC,2023-05-16T06:40:00Z,22.9,-102.68,16.0,6.0,50,15,,10.0,30.339567,,,,,,,,,,,SCT,5000,,,,,,,VFR,,,,,,,,,,,,METAR,2175.0
MMUN 160640Z 00000KT 6SM SCT015 22/22 A3001 RMK 8/100 ISOL TCU HZY,MMUN,2023-05-16T06:40:00Z,21.03,-86.85,22.0,22.0,0,0,,6.0,30.008858,,,,,,,,,,,SCT,1500,,,,,,,VFR,,,,,,,,,,,,METAR,13.0
MMTJ 160640Z 33003KT 6SM SKC 14/14 A3007 RMK ISOL AC HZY,MMTJ,2023-05-16T06:40:00Z,32.53,-116.97,14.0,14.0,330,3,,6.0,30.070866,,,,,,,,,,,SKC,,,,,,,,VFR,,,,,,,,,,,,METAR,150.0
MMSP 160640Z 00000KT 8SM SCT025 14/12 A3033 RMK 8/500,MMSP,2023-05-16T06:40:00Z,22.25,-100.93,14.0,12.0,0,0,,8.0,30.33071,,,,,,,,,,,SCT,2500,,,,,,,VFR,,,,,,,,,,,,METAR,1841.0
MMAA 160640Z 13002KT 5SM SCT015 BKN080 28/24 A2997 RMK 8/170 HZY,MMAA,2023-05-16T06:40:00Z,16.75,-99.75,28.0,24.0,130,2,,5.0,29.970472,,,,,,,,,,,SCT,1500,BKN,8000,,,,,MVFR,,,,,,,,,,,,METAR,5.0
FABM 160640Z 12003KT 9999 FEW020 09/06 Q1027,FABM,2023-05-16T06:40:00Z,-28.25,28.33,9.0,6.0,120,3,,6.21,30.324802,,,,,,,,,,,FEW,2000,,,,,,,VFR,,,,,,,,,,,,SPECI,1690.0
KTFP 160635Z AUTO 31003KT 10SM CLR 24/23 A3007 RMK AO2 T02410226,KTFP,2023-05-16T06:35:00Z,27.92,-97.22,24.1,22.6,310,3,,10.0,30.070866,,,TRUE,TRUE,,,,,,,CLR,,,,,,,,VFR,,,,,,,,,,,,METAR,5.0
KSPA 160635Z AUTO 22003KT 10SM OVC050 20/13 A3009 RMK AO2,KSPA,2023-05-16T06:35:00Z,34.92,-81.95,20.0,13.0,220,3,,10.0,30.088583,,,TRUE,TRUE,,,,,,,OVC,5000,,,,,,,VFR,,,,,,,,,,,,SPECI,242.0
KPVB 160635Z AUTO 26004KT 10SM CLR 12/04 A3008 RMK AO1 T01220043,KPVB,2023-05-16T06:35:00Z,42.68,-90.43,12.2,4.3,260,4,,10.0,30.079725,,,TRUE,TRUE,,,,,,,CLR,,,,,,,,VFR,,,,,,,,,,,,SPECI,311.0
KMBO 160635Z AUTO 20003KT 10SM CLR 22/22 A3005 RMK AO2,KMBO,2023-05-16T06:35:00Z,32.43,-90.1,22.0,22.0,200,3,,10.0,30.050198,,,TRUE,TRUE,,,,,,,CLR,,,,,,,,VFR,,,,,,,,,,,,SPECI,98.0
KJLN 160635Z AUTO 36007KT 1 1/2SM BR OVC002 17/16 A3008 RMK AO2 T01720161,KJLN,2023-05-16T06:35:00Z,37.15,-94.5,17.2,16.1,360,7,,1.5,30.079725,,,TRUE,TRUE,,,,,,BR,OVC,200,,,,,,,LIFR,,,,,,,,,,,,SPECI,297.0
KAZC 160635Z AUTO 06010G15KT 10SM SCT110 22/05 A3027 RMK AO2,KAZC,2023-05-16T06:35:00Z,36.97,-113.02,22.0,5.0,60,10,15,10.0,30.268702,,,TRUE,TRUE,,,,,,,SCT,11000,,,,,,,VFR,,,,,,,,,,,,SPECI,1476.0
SAWC 160634Z 160634KT 9999 -RA SCT020 BKN050 06/02 Q0990,SAWC,2023-05-16T06:34:00Z,-50.28,-72.05,6.0,2.0,160,0,,6.21,29.232283,,,,,,,,,,-RA,SCT,2000,BKN,5000,,,,,VFR,,,,,,,,,,,,SPECI,204.0
RJTK 160633Z 26011KT 9999 FEW030 BKN230 24/12 Q1010 RMK 1CU030 7CI230 A2983,RJTK,2023-05-16T06:33:00Z,35.38,139.92,24.0,12.0,260,11,,6.21,29.822834,,,,,,,,,,,FEW,3000,BKN,23000,,,,,VFR,,,,,,,,,,,,METAR,2.0
YMHB 160630Z 23008KT 9999 FEW030 09/02 Q1022,YMHB,2023-05-16T06:30:00Z,-42.83,147.52,9.0,2.0,230,8,,6.21,30.177166,,,,,,,,,,,FEW,3000,,,,,,,VFR,,,,,,,,,,,,METAR,2.0
YBBN 160630Z 19006KT 9999 -RA SCT023 BKN080 18/14 Q1013 RF00/0/000/2,YBBN,2023-05-16T06:30:00Z,-27.38,153.13,18.0,14.0,190,6,,6.21,29.911417,,,,,,,,,,-RA,SCT,2300,BKN,8000,,,,,VFR,,,,,,,,,,,,SPECI,3.0
WILL 160630Z 10005KT 9999 SCT015 32/23 Q1010 NOSIG,WILL,2023-05-16T06:30:00Z,-5.25,105.18,32.0,23.0,100,5,,6.21,29.822834,,,,,,TRUE,,,,,SCT,1500,,,,,,,VFR,,,,,,,,,,,,METAR,83.0
WIBB 160630Z 16006KT 9999 SCT013 33/25 Q1009 NOSIG,WIBB,2023-05-16T06:30:00Z,0.47,101.45,33.0,25.0,160,6,,6.21,29.793306,,,,,,TRUE,,,,,SCT,1300,,,,,,,VFR,,,,,,,,,,,,METAR,41.0
VOVZ 160630Z 11008KT 4000 HZ FEW018 34/28 Q1005 NOSIG,VOVZ,2023-05-16T06:30:00Z,17.72,83.22,34.0,28.0,110,8,,2.49,29.675198,,,,,,TRUE,,,,HZ,FEW,1800,,,,,,,IFR,,,,,,,,,,,,METAR,4.0
VOTR 160630Z 27012KT 6000 FEW016 36/24 Q1009 NOSIG,VOTR,2023-05-16T06:30:00Z,10.77,78.72,36.0,24.0,270,12,,3.73,29.793306,,,,,,TRUE,,,,,FEW,1600,,,,,,,MVFR,,,,,,,,,,,,METAR,90.0
VOTP 160630Z 33009KT 7000 NSC 40/20 Q1007 NOSIG,VOTP,2023-05-16T06:30:00Z,13.63,79.55,40.0,20.0,330,9,,4.35,29.734253,,,,,,TRUE,,,,,CLR,,,,,,,,MVFR,,,,,,,,,,,,METAR,103.0
VOPB 160630Z 23009KT 6000 SCT014 32/24 Q1010 NOSIG,VOPB,2023-05-16T06:30:00Z,11.63,92.73,32.0,24.0,230,9,,3.73,29.822834,,,,,,TRUE,,,,,SCT,1400,,,,,,,MVFR,,,,,,,,,,,,METAR,1.0
VOKU 160630Z 28010KT 6000 NSC 36/16 Q1011 NOSIG,VOKU,2023-05-16T06:30:00Z,15.72,78.17,36.0,16.0,280,10,,3.73,29.852362,,,,,,TRUE,,,,,CLR,,,,,,,,MVFR,,,,,,,,,,,,METAR,280.0
VEPY 160630Z 20004KT 5000 BR FEW015 BKN100 20/17 Q1015 NOSIG,VEPY,2023-05-16T06:30:00Z,27.22,88.58,20.0,17.0,200,4,,3.11,29.970472,,,,,,TRUE,,,,BR,FEW,1500,BKN,10000,,,,,MVFR,,,,,,,,,,,,METAR,1399.0
VAID 160630Z 28011KT 5000 HZ FEW020 SCT025 33/20 Q1012 NOSIG,VAID,2023-05-16T06:30:00Z,22.72,75.8,33.0,20.0,280,11,,3.11,29.88189,,,,,,TRUE,,,,HZ,FEW,2000,SCT,2500,,,,,MVFR,,,,,,,,,,,,METAR,564.0
RJTL 160630Z 06010KT 030V090 9999 FEW030 BKN/// 25/13 Q1009 RMK 1CU030 A2981,RJTL,2023-05-16T06:30:00Z,35.78,140.02,25.0,13.0,60,10,,6.21,29.793306,,,,,,,,,,,FEW,3000,,,,,,,VFR,,,,,,,,,,,,METAR,29.0
LFQG 160630Z AUTO 36011KT 9999 OVC015 09/07 Q1019,LFQG,2023-05-16T06:30:00Z,47.0,3.1,9.0,7.0,360,11,,6.21,30.088583,,,TRUE,,,,,,,,OVC,1500,,,,,,,MVFR,,,,,,,,,,,,METAR,172.0
LFLW 160630Z AUTO 34010KT 9999 SCT018 SCT025 OVC033 10/07 Q1016 NOSIG,LFLW,2023-05-16T06:30:00Z,44.88,2.42,10.0,7.0,340,10,,6.21,30.0,,,TRUE,,,TRUE,,,,,SCT,1800,SCT,2500,OVC,3300,,,VFR,,,,,,,,,,,,METAR,638.0
GLRB 160630Z 00000KT 9999 BKN012 FEW023CB 24/23 Q1012 NOSIG RMK CB-SW,GLRB,2023-05-16T06:30:00Z,6.25,-10.35,24.0,23.0,0,0,,6.21,29.88189,,,,,,TRUE,,,,,BKN,1200,FEW,2300,,,,,MVFR,,,,,,,,,,,,METAR,12.0
EBFS 160625Z 36010KT 9999 FEW009 SCT012 07/04 Q1021 GRN BLU TEMPO GRN,EBFS,2023-05-16T06:25:00Z,50.23,4.65,7.0,4.0,360,10,,6.21,30.147638,,,,,,,,,,,FEW,900,SCT,1200,,,,,VFR,,,,,,,,,,,,SPECI,276.0
EBFN 160625Z 35009KT 9999 FEW021 10/06 Q1023 BLU BLU,EBFN,2023-05-16T06:25:00Z,51.08,2.65,10.0,6.0,350,9,,6.21,30.206694,,,,,,,,,,,FEW,2100,,,,,,,VFR,,,,,,,,,,,,METAR,9.0
EBBL 160625Z 33006KT 9999 FEW030 10/05 Q1021 BLU BLU,EBBL,2023-05-16T06:25:00Z,51.17,5.47,10.0,5.0,330,6,,6.21,30.147638,,,,,,,,,,,FEW,3000,,,,,,,VFR,,,,,,,,,,,,METAR,50.0
EBBE 160625Z 35009KT 9999 FEW025 08/05 Q1022 BLU BLU,EBBE,2023-05-16T06:25:00Z,50.75,4.77,8.0,5.0,350,9,,6.21,30.177166,,,,,,,,,,,FEW,2500,,,,,,,VFR,,,,,,,,,,,,METAR,127.0
KCFV 160624Z AUTO 33009KT 3SM BR OVC004 16/16 A3010 RMK AO2 CIG 003V007 T01610156,KCFV,2023-05-16T06:24:00Z,37.08,-95.57,16.1,15.6,330,9,,3.0,30.100393,,,TRUE,TRUE,,,,,,BR,OVC,400,,,,,,,LIFR,,,,,,,,,,,,SPECI,228.0
ETNH 160621Z 28015KT 8000 FEW021 SCT035 BKN090 10/05 Q1013 BLACKBLU,ETNH,2023-05-16T06:21:00Z,54.32,9.55,10.0,5.0,280,15,,4.97,29.911417,,,,,,,,,,,FEW,2100,SCT,3500,BKN,9000,,,MVFR,,,,,,,,,,,,SPECI,6.0
ETWM 160620Z 33005KT 9999 FEW022 10/05 Q1019 BLU+,ETWM,2023-05-16T06:20:00Z,52.72,7.33,10.0,5.0,330,5,,6.21,30.088583,,,,,,,,,,,FEW,2200,,,,,,,VFR,,,,,,,,,,,,METAR,18.0
ETSN 160620Z 00000KT 9999 SCT110 BKN200 12/09 Q1013 BLU+BLU+ BECMG BLU,ETSN,2023-05-16T06:20:00Z,48.72,11.22,12.0,9.0,0,0,,6.21,29.911417,,,,,,,,,,,SCT,11000,BKN,20000,,,,,VFR,,,,,,,,,,,,METAR,378.0
ETSL 160620Z 23003KT 9999 SCT050 BKN100 BKN210 09/07 Q1013 BLU BLU BECMG WHT,ETSL,2023-05-16T06:20:00Z,48.18,10.87,9.0,7.0,230,3,,6.21,29.911417,,,,,,,,,,,SCT,5000,BKN,10000,BKN,21000,,,VFR,,,,,,,,,,,,METAR,548.0
ETSI 160620Z 31001KT 9999 SCT050 BKN110 BKN200 11/09 Q1013 BLU BLU TEMPO GRN,ETSI,2023-05-16T06:20:00Z,48.72,11.53,11.0,9.0,310,1,,6.21,29.911417,,,,,,,,,,,SCT,5000,BKN,11000,BKN,20000,,,VFR,,,,,,,,,,,,METAR,366.0
ETSH 160620Z 30007KT 9999 BKN011 10/07 Q1014 GRN GRN BECMG WHT,ETSH,2023-05-16T06:20:00Z,51.77,13.17,10.0,7.0,300,7,,6.21,29.940945,,,,,,,,,,,BKN,1100,,,,,,,MVFR,,,,,,,,,,,,METAR,79.0
ETSB 160620Z AUTO 01013KT //// // ////// 06/05 Q1018 ///,ETSB,2023-05-16T06:20:00Z,50.17,7.07,6.0,5.0,10,13,,,30.059055,,,TRUE,,,,,,,,,,,,,,,,,,,,,,,,,,,,SPECI,477.0
ETNW 160620Z 32013KT 9999 FEW021 SCT035 BKN120 10/04 Q1017 BLU BLU+ TEMPO WHT,ETNW,2023-05-16T06:20:00Z,52.45,9.42,10.0,4.0,320,13,,6.21,30.029528,,,,,,,,,,,FEW,2100,SCT,3500,BKN,12000,,,VFR,,,,,,,,,,,,SPECI,57.0
ETNT 160620Z 32010G20KT 9999 SCT025 10/05 Q1017 BLACKBLU+,ETNT,2023-05-16T06:20:00Z,53.53,7.67,10.0,5.0,320,10,20,6.21,30.029528,,,,,,,,,,,SCT,2500,,,,,,,VFR,,,,,,,,,,,,SPECI,5.0
ETNS 160620Z 29016KT 9999 FEW023 SCT200 10/04 Q1013 BLU+BLU+,ETNS,2023-05-16T06:20:00Z,54.47,9.52,10.0,4.0,290,16,,6.21,29.911417,,,,,,,,,,,FEW,2300,SCT,20000,,,,,VFR,,,,,,,,,,,,METAR,22.0
ETNN 160620Z 31008KT 9999 FEW015 SCT025 08/05 Q1020 BLU+BLU TEMPO BLU+,ETNN,2023-05-16T06:20:00Z,50.82,6.67,8.0,5.0,310,8,,6.21,30.11811,,,,,,,,,,,FEW,1500,SCT,2500,,,,,VFR,,,,,,,,,,,,METAR,108.0
ETNL 160620Z 29013KT 9999 BKN016 10/07 Q1012 WHT WHT,ETNL,2023-05-16T06:20:00Z,53.92,12.27,10.0,7.0,290,13,,6.21,29.88189,,,,,,,,,,,BKN,1600,,,,,,,MVFR,,,,,,,,,,,,METAR,40.0
ETND 160620Z 31008G18KT 9999 FEW020 SCT230 09/04 Q1018 BLU+BLU+,ETND,2023-05-16T06:20:00Z,52.58,8.35,9.0,4.0,310,8,18,6.21,30.059055,,,,,,,,,,,FEW,2000,SCT,23000,,,,,VFR,,,,,,,,,,,,METAR,37.0
ETMN 160620Z 32017KT 9999 SCT020 SCT200 10/03 Q1016 BLU+BLU+ TEMPO WHT,ETMN,2023-05-16T06:20:00Z,53.77,8.67,10.0,3.0,320,17,,6.21,30.0,,,,,,,,,,,SCT,2000,SCT,20000,,,,,VFR,,,,,,,,,,,,METAR,23.0
ETHS 160620Z 32013KT 9999 BKN028 BKN130 10/03 Q1015 BLACKBLU BLU TEMPO GRN,ETHS,2023-05-16T06:20:00Z,52.92,10.18,10.0,3.0,320,13,,6.21,29.970472,,,,,,,,,,,BKN,2800,BKN,13000,,,,,MVFR,,,,,,,,,,,,METAR,71.0
ETHN 160620Z 35009KT 9999 -RA FEW020 BKN090 09/08 Q1014 BLU BLU TEMPO WHT,ETHN,2023-05-16T06:20:00Z,49.38,9.97,9.0,8.0,350,9,,6.21,29.940945,,,,,,,,,,-RA,FEW,2000,BKN,9000,,,,,VFR,,,,,,,,,,,,METAR,466.0
ETHL 160620Z 26002KT 9999 FEW040 SCT080 BKN120 10/08 Q1013 BLU BLU TEMPO WHT,ETHL,2023-05-16T06:20:00Z,48.22,9.92,10.0,8.0,260,2,,6.21,29.911417,,,,,,,,,,,FEW,4000,SCT,8000,BKN,12000,,,VFR,,,,,,,,,,,,METAR,536.0
ETHC 160620Z 29009KT 9999 FEW020 SCT100 BKN210 10/05 Q1016 BLU+BLU TEMPO WHT,ETHC,2023-05-16T06:20:00Z,52.6,10.02,10.0,5.0,290,9,,6.21,30.0,,,,,,,,,,,FEW,2000,SCT,10000,BKN,21000,,,VFR,,,,,,,,,,,,METAR,35.0
ETHB 160620Z 33009KT 9999 FEW020 BKN220 09/04 Q1017 BLU+BLU+,ETHB,2023-05-16T06:20:00Z,52.27,9.07,9.0,4.0,330,9,,6.21,30.029528,,,,,,,,,,,FEW,2000,BKN,22000,,,,,VFR,,,,,,,,,,,,METAR,69.0
ETGG 160620Z AUTO 30021KT 9999 // ////// 10/06 Q1013 ///,ETGG,2023-05-16T06:20:00Z,54.83,9.5,10.0,6.0,300,21,,6.21,29.911417,,,TRUE,,,,,,,,,,,,,,,,,,,,,,,,,,,,METAR,33.0
KVWU 160615Z AUTO 00000KT 10SM CLR 17/10 A2997 RMK AO2,KVWU,2023-05-16T06:15:00Z,48.15,-94.52,17.0,10.0,0,0,,10.0,29.970472,,,TRUE,TRUE,,,,,,,CLR,,,,,,,,VFR,,,,,,,,,,,,METAR,359.0
KATL 160615Z 00000KT 10SM SCT023 22/20 A3010 RMK AO2 T02220200 $,KATL,2023-05-16T06:15:00Z,33.63,-84.45,22.2,20.0,0,0,,10.0,30.100393,,,,TRUE,TRUE,,,,,,SCT,2300,,,,,,,VFR,,,,,,,,,,,,SPECI,309.0
