No errors
No warnings
380 ms
data source=metars
4905 results
raw_text,station_id,observation_time,latitude,longitude,temp_c,dewpoint_c,wind_dir_degrees,wind_speed_kt,wind_gust_kt,visibility_statute_mi,altim_in_hg,sea_level_pressure_mb,corrected,auto,auto_station,maintenance_indicator_on,no_signal,lightning_sensor_off,freezing_rain_sensor_off,present_weather_sensor_off,wx_string,sky_cover,cloud_base_ft_agl,sky_cover,cloud_base_ft_agl,sky_cover,cloud_base_ft_agl,sky_cover,cloud_base_ft_agl,flight_category,three_hr_pressure_tendency_mb,maxT_c,minT_c,maxT24hr_c,minT24hr_c,precip_in,pcp3hr_in,pcp6hr_in,pcp24hr_in,snow_in,vert_vis_ft,metar_type,elevation_m
PABA 242224Z AUTO 07017KT 8SM OVC008 M03/M05 A3027 RMK AO2 SNB2158E22 FZRANO,PABA,2023-05-24T22:24:00Z,70.13,-143.58,-3.0,-5.0,70,17,,8.0,30.268702,,,TRUE,TRUE,,,,TRUE,,,OVC,800,,,,,,,IFR,,,,,,,,,,,,SPECI,1.0
SEQM 242223Z 02010KT 9999 TS VCSH SCT026CB BKN100 18/13 Q1022 BECMG AT2315 NSW RMK A3020,SEQM,2023-05-24T22:23:00Z,-0.12,-78.35,18.0,13.0,20,10,,6.21,30.177166,,,,,,,,,,TS VCSH,SCT,2600,BKN,10000,,,,,VFR,,,,,,,,,,,,SPECI,2386.0
PTRO 242223Z 25005KT 9SM -TSRA BKN014CB BKN110 OVC290 25/24 A2987 RMK OCNL LTGIC SE TS S MOV E CB OHD AND ALQDS ,PTRO,2023-05-24T22:23:00Z,7.37,134.55,25.0,24.0,250,5,,9.0,29.870079,,,,,,,,,,-TSRA,BKN,1400,BKN,11000,OVC,29000,,,MVFR,,,,,,,,,,,,SPECI,30.0
KSYR 242223Z 34011KT 10SM OVC017 11/07 A3016 RMK AO2 T01110067,KSYR,2023-05-24T22:23:00Z,43.12,-76.1,11.1,6.7,340,11,,10.0,30.159449,,,,TRUE,,,,,,,OVC,1700,,,,,,,MVFR,,,,,,,,,,,,METAR,125.0
KSPG 242223Z 08019KT 4SM VCTS -RA BR FEW065 BKN080 OVC110 23/22 A2981 RMK AO2 PK WND 06026/2156 LTG DSNT ALQDS TSE17 P0004 T02330222 $,KSPG,2023-05-24T22:23:00Z,27.77,-82.63,23.3,22.2,80,19,,4.0,29.811024,,,,TRUE,TRUE,,,,,VCTS -RA BR,FEW,6500,BKN,8000,OVC,11000,,,MVFR,,,,,,0.04,,,,,,SPECI,1.0
KRSW 242223Z 06014KT 7SM -RA BKN050 BKN080 24/21 A2978 RMK AO2 LTG DSNT E AND SE AND NW RAB10 P0004 T02440211,KRSW,2023-05-24T22:23:00Z,26.53,-81.75,24.4,21.1,60,14,,7.0,29.778543,,,,TRUE,,,,,,-RA,BKN,5000,BKN,8000,,,,,VFR,,,,,,0.04,,,,,,SPECI,8.0
KPNC 242223Z AUTO 13012KT 3/4SM +TSRA BR BKN029 BKN042 OVC049 19/18 A3001 RMK AO2 WSHFT 2202 TSB23 P0079 T01940178,KPNC,2023-05-24T22:23:00Z,36.73,-97.1,19.4,17.8,130,12,,0.75,30.008858,,,TRUE,TRUE,,,,,,+TSRA BR,BKN,2900,BKN,4200,OVC,4900,,,LIFR,,,,,,0.79,,,,,,SPECI,304.0
KOGD 242223Z 30009KT 10SM -TSRA FEW070 BKN090 OVC100 20/07 A2993 RMK AO2 LTG DSNT ALQDS RAB2158 TSB17 P0000 T02000067,KOGD,2023-05-24T22:23:00Z,41.2,-112.02,20.0,6.7,300,9,,10.0,29.929134,,,,TRUE,,,,,,-TSRA,FEW,7000,BKN,9000,OVC,10000,,,VFR,,,,,,0.005,,,,,,SPECI,1356.0
KLXT 242223Z AUTO 20017G23KT 10SM VCTS BKN055 BKN070 OVC090 24/13 A3004 RMK AO2 PK WND 17026/2210 LTG DSNT NE AND NW RAB2158E10 TSE17 P0000 T02390133,KLXT,2023-05-24T22:23:00Z,38.97,-94.37,23.9,13.3,200,17,23,10.0,30.041338,,,TRUE,TRUE,,,,,,VCTS,BKN,5500,BKN,7000,OVC,9000,,,VFR,,,,,,0.005,,,,,,SPECI,306.0
KEVM 242223Z AUTO 13004KT 10SM OVC080 12/M10 A3034 RMK AO2,KEVM,2023-05-24T22:23:00Z,47.42,-92.5,12.0,-10.0,130,4,,10.0,30.339567,,,TRUE,TRUE,,,,,,,OVC,8000,,,,,,,VFR,,,,,,,,,,,,SPECI,419.0
CYPA 242223Z 32005KT 250V340 10SM -SHRA OVC047 17/12 A2994 RMK SC8 CVCTV CLD EMBD SLP152 DENSITY ALT 2000FT,CYPA,2023-05-24T22:23:00Z,53.22,-105.67,17.0,12.0,320,5,,10.0,29.940945,1015.2,,,,,,,,,-SHRA,OVC,4700,,,,,,,VFR,,,,,,,,,,,,SPECI,428.0
TJNR 242222Z AUTO 18004KT 10SM SCT026 SCT036 28/23 A2986 RMK AO2 T02780233,TJNR,2023-05-24T22:22:00Z,18.25,-65.63,27.8,23.3,180,4,,10.0,29.861221,,,TRUE,TRUE,,,,,,,SCT,2600,SCT,3600,,,,,VFR,,,,,,,,,,,,METAR,7.0
PAMD 242222Z AUTO 15009KT 1 1/2SM -RA BR OVC003 08/07 A2997 RMK AO2 VIS 1/2V5 PNO $,PAMD,2023-05-24T22:22:00Z,59.43,-146.3,8.0,7.0,150,9,,1.5,29.970472,,,TRUE,TRUE,TRUE,,,,,-RA BR,OVC,300,,,,,,,LIFR,,,,,,,,,,,,SPECI,20.0
PADK 242222Z AUTO 16010G18KT OVC016 09/07 A2974 RMK AO2 P0001 PWINO $,PADK,2023-05-24T22:22:00Z,51.88,-176.65,9.0,7.0,160,10,18,,29.740158,,,TRUE,TRUE,TRUE,,,,TRUE,,OVC,1600,,,,,,,,,,,,,0.01,,,,,,SPECI,3.0
KLGU 242222Z AUTO 25028G38KT 10SM VCTS BKN075 BKN110 21/08 A2990 RMK AO2 PK WND 26038/2220 LTG DSNT ALQDS T02060083,KLGU,2023-05-24T22:22:00Z,41.78,-111.85,20.6,8.3,250,28,38,10.0,29.899607,,,TRUE,TRUE,,,,,,VCTS,BKN,7500,BKN,11000,,,,,VFR,,,,,,,,,,,,SPECI,1359.0
KLEW 242222Z AUTO 26004KT 10SM -RA BKN026 BKN034 OVC060 11/09 A3001 RMK AO2 PRESRR PNO $,KLEW,2023-05-24T22:22:00Z,44.03,-70.28,11.0,9.0,260,4,,10.0,30.008858,,,TRUE,TRUE,TRUE,,,,,-RA,BKN,2600,BKN,3400,OVC,6000,,,MVFR,,,,,,,,,,,,SPECI,81.0
KBVO 242222Z AUTO 00000KT 9SM FEW009 BKN033 BKN050 21/19 A3004 RMK AO2 T02110194,KBVO,2023-05-24T22:22:00Z,36.77,-96.02,21.1,19.4,0,0,,9.0,30.041338,,,TRUE,TRUE,,,,,,,FEW,900,BKN,3300,BKN,5000,,,VFR,,,,,,,,,,,,SPECI,210.0
RCKH 242221Z 05003KT 010V070 3500 BR FEW009 BKN028 BKN060 27/23 Q1012 NOSIG RMK A2990,RCKH,2023-05-24T22:21:00Z,22.57,120.33,27.0,23.0,50,3,,2.17,29.88189,,,,,,TRUE,,,,BR,FEW,900,BKN,2800,BKN,6000,,,IFR,,,,,,,,,,,,SPECI,6.0
KPIH 242221Z 13005KT 10SM -RA FEW042 BKN100 19/13 A2991 RMK AO2 LTG DSNT E TSE15 P0001 T01890128,KPIH,2023-05-24T22:21:00Z,42.92,-112.57,18.9,12.8,130,5,,10.0,29.911417,,,,TRUE,,,,,,-RA,FEW,4200,BKN,10000,,,,,VFR,,,,,,0.01,,,,,,SPECI,1357.0
KMYP 242221Z AUTO 24013KT M1/4SM -SN OVC001 00/00 A3048 RMK AO2,KMYP,2023-05-24T22:21:00Z,38.48,-106.32,0.0,0.0,240,13,,0.25,30.481298,,,TRUE,TRUE,,,,,,-SN,OVC,100,,,,,,,LIFR,,,,,,,,,,,,METAR,3629.0
KI35 242221Z AUTO 04004KT 10SM CLR 24/08 A3003 RMK AO2,KI35,2023-05-24T22:21:00Z,36.87,-83.37,24.0,8.0,40,4,,10.0,30.029528,,,TRUE,TRUE,,,,,,,CLR,,,,,,,,VFR,,,,,,,,,,,,METAR,467.0
KHUL 242221Z AUTO 24003KT 2SM -RA BR FEW005 BKN031 OVC037 11/09 A2998 RMK AO2 RAB06 P0001 T01060089,KHUL,2023-05-24T22:21:00Z,46.12,-67.8,10.6,8.9,240,3,,2.0,29.97933,,,TRUE,TRUE,,,,,,-RA BR,FEW,500,BKN,3100,OVC,3700,,,IFR,,,,,,0.01,,,,,,SPECI,148.0
KBTV 242221Z 35012KT 2 1/2SM -RA BR SCT007 OVC010 08/07 A3012 RMK AO2 RAB11 P0000 T00830067,KBTV,2023-05-24T22:21:00Z,44.47,-73.15,8.3,6.7,350,12,,2.5,30.121063,,,,TRUE,,,,,,-RA BR,SCT,700,OVC,1000,,,,,IFR,,,,,,0.005,,,,,,SPECI,101.0
CYVT 242221Z AUTO 18009KT 9SM -RA OVC110 14/08 A2991 RMK SLP141 DENSITY ALT 1700FT,CYVT,2023-05-24T22:21:00Z,55.83,-108.42,14.0,8.0,180,9,,9.0,29.911417,1014.1,,TRUE,,,,,,,-RA,OVC,11000,,,,,,,VFR,,,,,,,,,,,,SPECI,438.0
RCSS 242220Z 10004KT 3000 -DZ BR SCT004 SCT018 BKN025 23/23 Q1013 NOSIG RMK A2993,RCSS,2023-05-24T22:20:00Z,25.07,121.55,23.0,23.0,100,4,,1.86,29.911417,,,,,,TRUE,,,,-DZ BR,SCT,400,SCT,1800,BKN,2500,,,IFR,,,,,,,,,,,,SPECI,8.0
PKWA 242220Z AUTO 14004KT 10SM -RA SCT042 BKN050 BKN065 26/24 A2993 RMK AO2 P0001 T02560235 TSNO,PKWA,2023-05-24T22:20:00Z,8.72,167.72,25.6,23.5,140,4,,10.0,29.929134,,,TRUE,TRUE,,,TRUE,,,-RA,SCT,4200,BKN,5000,BKN,6500,,,VFR,,,,,,0.01,,,,,,SPECI,6.0
LSZS 242220Z AUTO 01010KT 9999 -DZ OVC022 04/03 Q1019,LSZS,2023-05-24T22:20:00Z,46.53,9.88,4.0,3.0,10,10,,6.21,30.088583,,,TRUE,,,,,,,-DZ,OVC,2200,,,,,,,MVFR,,,,,,,,,,,,METAR,1708.0
LSZR 242220Z AUTO 03007KT 330V070 9999 BKN029 12/08 Q1019,LSZR,2023-05-24T22:20:00Z,47.48,9.57,12.0,8.0,30,7,,6.21,30.088583,,,TRUE,,,,,,,,BKN,2900,,,,,,,MVFR,,,,,,,,,,,,METAR,396.0
LSZL 242220Z AUTO 06004KT 020V100 9999NDV -RA FEW010 BKN078 15/13 Q1016 RERA RMK,LSZL,2023-05-24T22:20:00Z,46.17,8.88,15.0,13.0,60,4,,,30.0,,,TRUE,,,,,,,-RA,FEW,1000,BKN,7800,,,,,,,,,,,,,,,,,METAR,198.0
LSZH 242220Z AUTO 03004KT 340V060 9999 BKN035 12/07 Q1019 NOSIG,LSZH,2023-05-24T22:20:00Z,47.48,8.53,12.0,7.0,30,4,,6.21,30.088583,,,TRUE,,,TRUE,,,,,BKN,3500,,,,,,,VFR,,,,,,,,,,,,METAR,424.0
LSZG 242220Z AUTO 07004KT 9999 FEW065 10/09 Q1018,LSZG,2023-05-24T22:20:00Z,47.17,7.42,10.0,9.0,70,4,,6.21,30.059055,,,TRUE,,,,,,,,FEW,6500,,,,,,,VFR,,,,,,,,,,,,METAR,428.0
LSZC 242220Z AUTO VRB03KT 9999 OVC018 11/09 Q1018,LSZC,2023-05-24T22:20:00Z,46.97,8.38,11.0,9.0,0,3,,6.21,30.059055,,,TRUE,,,,,,,,OVC,1800,,,,,,,MVFR,,,,,,,,,,,,METAR,445.0
LSZB 242220Z AUTO VRB02KT 9999 BKN055 12/07 Q1018,LSZB,2023-05-24T22:20:00Z,46.92,7.5,12.0,7.0,0,2,,6.21,30.059055,,,TRUE,,,,,,,,BKN,5500,,,,,,,VFR,,,,,,,,,,,,METAR,510.0
LSZA 242220Z AUTO 01003KT 9999 -RA FEW075 BKN085 14/14 Q1016,LSZA,2023-05-24T22:20:00Z,46.0,8.92,14.0,14.0,10,3,,6.21,30.0,,,TRUE,,,,,,,-RA,FEW,7500,BKN,8500,,,,,VFR,,,,,,,,,,,,METAR,276.0
LSMP 242220Z AUTO 05003KT 9999NDV FEW030 10/08 Q1018 RMK,LSMP,2023-05-24T22:20:00Z,46.83,6.92,10.0,8.0,50,3,,,30.059055,,,TRUE,,,,,,,,FEW,3000,,,,,,,,,,,,,,,,,,,METAR,490.0
LSMM 242220Z AUTO 06009KT 340V120 9999NDV OVC033 12/09 Q1018 RMK,LSMM,2023-05-24T22:20:00Z,46.75,8.12,12.0,9.0,60,9,,,30.059055,,,TRUE,,,,,,,,OVC,3300,,,,,,,,,,,,,,,,,,,METAR,570.0
LSME 242220Z AUTO VRB02KT 9999NDV BKN029 OVC043 12/09 Q1018 RMK,LSME,2023-05-24T22:20:00Z,47.1,8.3,12.0,9.0,0,2,,,30.059055,,,TRUE,,,,,,,,BKN,2900,OVC,4300,,,,,,,,,,,,,,,,,METAR,427.0
LSMD 242220Z AUTO VRB02KT 9999NDV OVC035 12/07 Q1019 RMK,LSMD,2023-05-24T22:20:00Z,47.4,8.65,12.0,7.0,0,2,,,30.088583,,,TRUE,,,,,,,,OVC,3500,,,,,,,,,,,,,,,,,,,METAR,436.0
LSMA 242220Z AUTO 04005KT 330V090 9999NDV -SHRA FEW024 BKN028 OVC034 12/09 Q1018 RMK,LSMA,2023-05-24T22:20:00Z,46.95,8.28,12.0,9.0,40,5,,,30.059055,,,TRUE,,,,,,,-SHRA,FEW,2400,BKN,2800,OVC,3400,,,,,,,,,,,,,,,METAR,441.0
LSGS 242220Z AUTO 26005KT 220V280 9999 FEW075 15/09 Q1015,LSGS,2023-05-24T22:20:00Z,46.22,7.32,15.0,9.0,260,5,,6.21,29.970472,,,TRUE,,,,,,,,FEW,7500,,,,,,,VFR,,,,,,,,,,,,METAR,482.0
LSGG 242220Z AUTO VRB03KT CAVOK 12/08 Q1017 NOSIG,LSGG,2023-05-24T22:20:00Z,46.25,6.12,12.0,8.0,0,3,,6.21,30.029528,,,TRUE,,,TRUE,,,,,CAVOK,,,,,,,,VFR,,,,,,,,,,,,METAR,411.0
LSGC 242220Z AUTO 04006KT 9999 NSC 06/03 Q1018,LSGC,2023-05-24T22:20:00Z,47.08,6.8,6.0,3.0,40,6,,6.21,30.059055,,,TRUE,,,,,,,,CLR,,,,,,,,VFR,,,,,,,,,,,,METAR,1018.0
LOWW 242220Z 35007KT CAVOK 12/10 Q1020 NOSIG,LOWW,2023-05-24T22:20:00Z,48.12,16.57,12.0,10.0,350,7,,6.21,30.11811,,,,,,TRUE,,,,,CAVOK,,,,,,,,VFR,,,,,,,,,,,,METAR,179.0
LOWS 242220Z AUTO VRB02KT 5000 -DZ FEW003 BKN028 11/11 Q1020,LOWS,2023-05-24T22:20:00Z,47.78,13.02,11.0,11.0,0,2,,3.11,30.11811,,,TRUE,,,,,,,-DZ,FEW,300,BKN,2800,,,,,MVFR,,,,,,,,,,,,METAR,427.0
LOWL 242220Z AUTO 27003KT 9000 FEW038 BKN042 13/12 Q1021,LOWL,2023-05-24T22:20:00Z,48.22,14.18,13.0,12.0,270,3,,5.59,30.147638,,,TRUE,,,,,,,,FEW,3800,BKN,4200,,,,,VFR,,,,,,,,,,,,METAR,290.0
LOWK 242220Z AUTO 10003KT 040V150 9999 -RA FEW010 BKN060 15/13 Q1019,LOWK,2023-05-24T22:20:00Z,46.65,14.32,15.0,13.0,100,3,,6.21,30.088583,,,TRUE,,,,,,,-RA,FEW,1000,BKN,6000,,,,,VFR,,,,,,,,,,,,METAR,450.0
LOWI 242220Z AUTO 11003KT 060V190 9999 -DZ FEW009 BKN036 11/11 Q1019 REDZ,LOWI,2023-05-24T22:20:00Z,47.27,11.33,11.0,11.0,110,3,,6.21,30.088583,,,TRUE,,,,,,,-DZ,FEW,900,BKN,3600,,,,,VFR,,,,,,,,,,,,SPECI,570.0
LOWG 242220Z AUTO VRB02KT 9999 FEW038 BKN040 14/13 Q1020,LOWG,2023-05-24T22:20:00Z,47.0,15.43,14.0,13.0,0,2,,6.21,30.11811,,,TRUE,,,,,,,,FEW,3800,BKN,4000,,,,,VFR,,,,,,,,,,,,METAR,337.0
LLBG 242220Z 15005KT CAVOK 21/16 Q1010 NOSIG,LLBG,2023-05-24T22:20:00Z,32.0,34.88,21.0,16.0,150,5,,6.21,29.822834,,,,,,TRUE,,,,,CAVOK,,,,,,,,VFR,,,,,,,,,,,,METAR,35.0
LIRZ 242220Z AUTO VRB02KT 9999 BKN130/// 16/14 Q1015,LIRZ,2023-05-24T22:20:00Z,43.1,12.5,16.0,14.0,0,2,,6.21,29.970472,,,TRUE,,,,,,,,BKN,13000,,,,,,,VFR,,,,,,,,,,,,METAR,206.0
LIRQ 242220Z 07003KT 030V100 CAVOK 17/16 Q1014,LIRQ,2023-05-24T22:20:00Z,43.8,11.2,17.0,16.0,70,3,,6.21,29.940945,,,,,,,,,,,CAVOK,,,,,,,,VFR,,,,,,,,,,,,METAR,33.0
LIRN 242220Z VRB02KT CAVOK 20/14 Q1014 NOSIG,LIRN,2023-05-24T22:20:00Z,40.88,14.3,20.0,14.0,0,2,,6.21,29.940945,,,,,,TRUE,,,,,CAVOK,,,,,,,,VFR,,,,,,,,,,,,METAR,76.0
LIRF 242220Z VRB01KT CAVOK 16/15 Q1014 NOSIG,LIRF,2023-05-24T22:20:00Z,41.78,12.23,16.0,15.0,0,1,,6.21,29.940945,,,,,,TRUE,,,,,CAVOK,,,,,,,,VFR,,,,,,,,,,,,METAR,2.0
LIRA 242220Z VRB01KT CAVOK 18/14 Q1014,LIRA,2023-05-24T22:20:00Z,41.8,12.58,18.0,14.0,0,1,,6.21,29.940945,,,,,,,,,,,CAVOK,,,,,,,,VFR,,,,,,,,,,,,METAR,101.0
LIPZ 242220Z 04007KT CAVOK 19/16 Q1014 TEMPO SHRA,LIPZ,2023-05-24T22:20:00Z,45.5,12.35,19.0,16.0,40,7,,6.21,29.940945,,,,,,,,,,,CAVOK,,,,,,,,VFR,,,,,,,,,,,,METAR,3.0
LIPY 242220Z AUTO VRB02KT 9999 NCD 18/16 Q1014,LIPY,2023-05-24T22:20:00Z,43.62,13.37,18.0,16.0,0,2,,6.21,29.940945,,,TRUE,,,,,,,,CLR,,,,,,,,VFR,,,,,,,,,,,,METAR,11.0
LIPX 242220Z VRB02KT 9999 FEW090 17/15 Q1014,LIPX,2023-05-24T22:20:00Z,45.38,10.87,17.0,15.0,0,2,,6.21,29.940945,,,,,,,,,,,FEW,9000,,,,,,,VFR,,,,,,,,,,,,METAR,67.0
LIPR 242220Z AUTO VRB02KT 9999 BKN140/// 17/16 Q1013,LIPR,2023-05-24T22:20:00Z,44.02,12.62,17.0,16.0,0,2,,6.21,29.911417,,,TRUE,,,,,,,,BKN,14000,,,,,,,VFR,,,,,,,,,,,,METAR,10.0
LIPQ 242220Z AUTO 10006KT 9999 NCD 20/13 Q1015,LIPQ,2023-05-24T22:20:00Z,45.82,13.47,20.0,13.0,100,6,,6.21,29.970472,,,TRUE,,,,,,,,CLR,,,,,,,,VFR,,,,,,,,,,,,METAR,6.0
LIPO 242220Z AUTO 28003KT 220V330 9999 BKN052/// BKN095/// BKN100/// 17/14 Q1015,LIPO,2023-05-24T22:20:00Z,45.42,10.33,17.0,14.0,280,3,,6.21,29.970472,,,TRUE,,,,,,,,BKN,5200,BKN,9500,BKN,10000,,,VFR,,,,,,,,,,,,METAR,104.0
LIPH 242220Z AUTO 04006KT 010V070 9999 FEW110/// 20/15 Q1015,LIPH,2023-05-24T22:20:00Z,45.63,12.18,20.0,15.0,40,6,,6.21,29.970472,,,TRUE,,,,,,,,FEW,11000,,,,,,,VFR,,,,,,,,,,,,METAR,10.0
LIPE 242220Z 24006KT CAVOK 18/16 Q1014,LIPE,2023-05-24T22:20:00Z,44.52,11.3,18.0,16.0,240,6,,6.21,29.940945,,,,,,,,,,,CAVOK,,,,,,,,VFR,,,,,,,,,,,,METAR,37.0
LIMZ 242220Z AUTO 35005KT 9999 -RA OVC031/// 15/14 Q1016,LIMZ,2023-05-24T22:20:00Z,44.53,7.62,15.0,14.0,350,5,,6.21,30.0,,,TRUE,,,,,,,-RA,OVC,3100,,,,,,,VFR,,,,,,,,,,,,METAR,377.0
LIML 242220Z 04005KT 9999 BKN050 16/14 Q1015 NOSIG,LIML,2023-05-24T22:20:00Z,45.47,9.27,16.0,14.0,40,5,,6.21,29.970472,,,,,,TRUE,,,,,BKN,5000,,,,,,,VFR,,,,,,,,,,,,METAR,109.0
LIMJ 242220Z 05004KT 360V070 CAVOK 20/13 Q1014,LIMJ,2023-05-24T22:20:00Z,44.42,8.83,20.0,13.0,50,4,,6.21,29.940945,,,,,,,,,,,CAVOK,,,,,,,,VFR,,,,,,,,,,,,METAR,3.0
LIMF 242220Z 07003KT 350V120 2000 RA BR BKN003 OVC010 15/15 Q1016,LIMF,2023-05-24T22:20:00Z,45.22,7.65,15.0,15.0,70,3,,1.24,30.0,,,,,,,,,,RA BR,BKN,300,OVC,1000,,,,,LIFR,,,,,,,,,,,,METAR,295.0
LIME 242220Z 02008KT 340V050 9999 SCT045 BKN070 15/12 Q1015 NOSIG,LIME,2023-05-24T22:20:00Z,45.67,9.7,15.0,12.0,20,8,,6.21,29.970472,,,,,,TRUE,,,,,SCT,4500,BKN,7000,,,,,VFR,,,,,,,,,,,,METAR,239.0
LIMC 242220Z 36004KT 330V040 9999 BKN056 BKN075 16/14 Q1016 TEMPO 4000 SHRA,LIMC,2023-05-24T22:20:00Z,45.62,8.72,16.0,14.0,360,4,,6.21,30.0,,,,,,,,,,,BKN,5600,BKN,7500,,,,,VFR,,,,,,,,,,,,METAR,221.0
LIEO 242220Z 28003KT 250V320 9999 FEW050 18/16 Q1013,LIEO,2023-05-24T22:20:00Z,40.88,9.52,18.0,16.0,280,3,,6.21,29.911417,,,,,,,,,,,FEW,5000,,,,,,,VFR,,,,,,,,,,,,METAR,8.0
LIEE 242220Z 20004KT 140V220 CAVOK 19/16 Q1013,LIEE,2023-05-24T22:20:00Z,39.25,9.07,19.0,16.0,200,4,,6.21,29.911417,,,,,,,,,,,CAVOK,,,,,,,,VFR,,,,,,,,,,,,METAR,1.0
LIEA 242220Z VRB02KT CAVOK 17/15 Q1013,LIEA,2023-05-24T22:20:00Z,40.62,8.28,17.0,15.0,0,2,,6.21,29.911417,,,,,,,,,,,CAVOK,,,,,,,,VFR,,,,,,,,,,,,METAR,22.0
LICR 242220Z AUTO 19007KT 9999 NCD 17/17 Q1014,LICR,2023-05-24T22:20:00Z,38.07,15.65,17.0,17.0,190,7,,6.21,29.940945,,,TRUE,,,,,,,,CLR,,,,,,,,VFR,,,,,,,,,,,,METAR,16.0
LICJ 242220Z 03005KT 9999 FEW015 19/17 Q1013,LICJ,2023-05-24T22:20:00Z,38.17,13.08,19.0,17.0,30,5,,6.21,29.911417,,,,,,,,,,,FEW,1500,,,,,,,VFR,,,,,,,,,,,,METAR,20.0
LICD 242220Z AUTO 09014KT 9999 BKN014/// 19/17 Q1011,LICD,2023-05-24T22:20:00Z,35.5,12.62,19.0,17.0,90,14,,6.21,29.852362,,,TRUE,,,,,,,,BKN,1400,,,,,,,MVFR,,,,,,,,,,,,METAR,20.0
LICC 242220Z 05006KT 9999 FEW010 18/17 Q1014,LICC,2023-05-24T22:20:00Z,37.47,15.05,18.0,17.0,50,6,,6.21,29.940945,,,,,,,,,,,FEW,1000,,,,,,,VFR,,,,,,,,,,,,METAR,6.0
LICB 242220Z AUTO 36003KT 280V050 9999 BKN140/// BKN150/// 17/11 Q1013,LICB,2023-05-24T22:20:00Z,37.0,14.62,17.0,11.0,360,3,,6.21,29.911417,,,TRUE,,,,,,,,BKN,14000,BKN,15000,,,,,VFR,,,,,,,,,,,,METAR,212.0
LICA 242220Z AUTO 07013KT 9999 NCD 17/13 Q1014,LICA,2023-05-24T22:20:00Z,38.9,16.25,17.0,13.0,70,13,,6.21,29.940945,,,TRUE,,,,,,,,CLR,,,,,,,,VFR,,,,,,,,,,,,METAR,7.0
LIBR 242220Z 23004KT CAVOK 18/14 Q1014,LIBR,2023-05-24T22:20:00Z,40.65,17.95,18.0,14.0,230,4,,6.21,29.940945,,,,,,,,,,,CAVOK,,,,,,,,VFR,,,,,,,,,,,,METAR,5.0
LIBP 242220Z AUTO 22004KT 9999 FEW190/// 16/15 Q1014,LIBP,2023-05-24T22:20:00Z,42.42,14.18,16.0,15.0,220,4,,6.21,29.940945,,,TRUE,,,,,,,,FEW,19000,,,,,,,VFR,,,,,,,,,,,,METAR,10.0
LIBD 242220Z 21007KT CAVOK 17/14 Q1014,LIBD,2023-05-24T22:20:00Z,41.13,16.77,17.0,14.0,210,7,,6.21,29.940945,,,,,,,,,,,CAVOK,,,,,,,,VFR,,,,,,,,,,,,METAR,42.0
LGTS 242220Z VRB03KT 9999 FEW030 17/14 Q1014 NOSIG,LGTS,2023-05-24T22:20:00Z,40.52,22.97,17.0,14.0,0,3,,6.21,29.940945,,,,,,TRUE,,,,,FEW,3000,,,,,,,VFR,,,,,,,,,,,,METAR,4.0
LGSR 242220Z VRB03KT 9999 FEW025 18/16 Q1014,LGSR,2023-05-24T22:20:00Z,36.4,25.48,18.0,16.0,0,3,,6.21,29.940945,,,,,,,,,,,FEW,2500,,,,,,,VFR,,,,,,,,,,,,METAR,31.0
LGSO 242220Z AUTO 24007KT //// -RA ////// 19/13 Q1014 RE//,LGSO,2023-05-24T22:20:00Z,37.42,24.95,19.0,13.0,240,7,,,29.940945,,,TRUE,,,,,,,-RA,,,,,,,,,,,,,,,,,,,,,METAR,71.0
LGSA 242220Z 00000KT 9999 FEW020 17/15 Q1014,LGSA,2023-05-24T22:20:00Z,35.53,24.13,17.0,15.0,0,0,,6.21,29.940945,,,,,,,,,,,FEW,2000,,,,,,,VFR,,,,,,,,,,,,METAR,122.0
LGRP 242220Z 22007KT 9999 FEW020 19/17 Q1012 NOSIG,LGRP,2023-05-24T22:20:00Z,36.4,28.08,19.0,17.0,220,7,,6.21,29.88189,,,,,,TRUE,,,,,FEW,2000,,,,,,,VFR,,,,,,,,,,,,METAR,3.0
LGPA 242220Z AUTO VRB02KT //// // ////// 17/16 Q1014 RE//,LGPA,2023-05-24T22:20:00Z,37.02,25.1,17.0,16.0,0,2,,,29.940945,,,TRUE,,,,,,,,,,,,,,,,,,,,,,,,,,,,METAR,42.0
LGKZ 242220Z AUTO 36005KT //// // ////// 12/09 Q1016 RE//,LGKZ,2023-05-24T22:20:00Z,40.28,21.83,12.0,9.0,360,5,,,30.0,,,TRUE,,,,,,,,,,,,,,,,,,,,,,,,,,,,METAR,615.0
LGKR 242220Z VRB02KT 9999 FEW030 18/15 Q1013 NOSIG,LGKR,2023-05-24T22:20:00Z,39.62,19.92,18.0,15.0,0,2,,6.21,29.911417,,,,,,TRUE,,,,,FEW,3000,,,,,,,VFR,,,,,,,,,,,,METAR,2.0
LGKO 242220Z 28004KT 9999 FEW016 18/15 Q1013,LGKO,2023-05-24T22:20:00Z,36.8,27.08,18.0,15.0,280,4,,6.21,29.911417,,,,,,,,,,,FEW,1600,,,,,,,VFR,,,,,,,,,,,,METAR,130.0
LGKL 242220Z AUTO VRB01KT //// // ////// 14/13 Q1014 RE//,LGKL,2023-05-24T22:20:00Z,37.07,22.02,14.0,13.0,0,1,,,29.940945,,,TRUE,,,,,,,,,,,,,,,,,,,,,,,,,,,,METAR,4.0
LGIR 242220Z 16005KT 9999 FEW020 16/14 Q1014 NOSIG,LGIR,2023-05-24T22:20:00Z,35.33,25.17,16.0,14.0,160,5,,6.21,29.940945,,,,,,TRUE,,,,,FEW,2000,,,,,,,VFR,,,,,,,,,,,,METAR,37.0
LGIO 242220Z AUTO 00000KT //// // ////// 12/12 Q1016 RE//,LGIO,2023-05-24T22:20:00Z,39.7,20.82,12.0,12.0,0,0,,,30.0,,,TRUE,,,,,,,,,,,,,,,,,,,,,,,,,,,,METAR,476.0
LGAV 242220Z 00000KT CAVOK 17/11 Q1014 NOSIG,LGAV,2023-05-24T22:20:00Z,37.93,23.95,17.0,11.0,0,0,,6.21,29.940945,,,,,,TRUE,,,,,CAVOK,,,,,,,,VFR,,,,,,,,,,,,METAR,83.0
LGAD 242220Z 00000KT CAVOK 16/14 Q1014,LGAD,2023-05-24T22:20:00Z,37.92,21.28,16.0,14.0,0,0,,6.21,29.940945,,,,,,,,,,,CAVOK,,,,,,,,VFR,,,,,,,,,,,,METAR,8.0
LATI 242220Z 23002KT CAVOK 16/15 Q1014 NOSIG,LATI,2023-05-24T22:20:00Z,41.42,19.72,16.0,15.0,230,2,,6.21,29.940945,,,,,,TRUE,,,,,CAVOK,,,,,,,,VFR,,,,,,,,,,,,METAR,32.0
KQFX 242220Z AUTO 09001KT 9999 CLR 16/11 A3005 RMK A02 TSNO,KQFX,2023-05-24T22:20:00Z,,,16.0,11.0,90,1,,6.21,30.050198,,,TRUE,TRUE,,,TRUE,,,,CLR,,,,,,,,VFR,,,,,,,,,,,,METAR,
KQFW 242220Z AUTO 10001KT 9999 CLR 14/10 A2991 RMK A02 TSNO,KQFW,2023-05-24T22:20:00Z,,,14.0,10.0,100,1,,6.21,29.911417,,,TRUE,TRUE,,,TRUE,,,,CLR,,,,,,,,VFR,,,,,,,,,,,,METAR,
KQFV 242220Z AUTO 36001KT 9999 BKN075 12/09 A3011 RMK A02 TSNO,KQFV,2023-05-24T22:20:00Z,,,12.0,9.0,360,1,,6.21,30.109253,,,TRUE,TRUE,,,TRUE,,,,BKN,7500,,,,,,,VFR,,,,,,,,,,,,METAR,
KQFU 242220Z AUTO 26001KT 9999 FEW080 16/10 A3011 RMK A02 TSNO,KQFU,2023-05-24T22:20:00Z,,,16.0,10.0,260,1,,6.21,30.109253,,,TRUE,TRUE,,,TRUE,,,,FEW,8000,,,,,,,VFR,,,,,,,,,,,,METAR,
KQFT 242220Z AUTO 01001KT 9999 SCT075 16/11 A3006 RMK A02 TSNO,KQFT,2023-05-24T22:20:00Z,,,16.0,11.0,10,1,,6.21,30.059055,,,TRUE,TRUE,,,TRUE,,,,SCT,7500,,,,,,,VFR,,,,,,,,,,,,METAR,
KQFB 242220Z AUTO 29002KT 9999 BKN160 16/13 A3011 RMK A02 TSNO,KQFB,2023-05-24T22:20:00Z,,,16.0,13.0,290,2,,6.21,30.109253,,,TRUE,TRUE,,,TRUE,,,,BKN,16000,,,,,,,VFR,,,,,,,,,,,,METAR,
KQEX 242220Z AUTO 10001KT 9999 CLR 18/11 / RMK A02 TSNO,KQEX,2023-05-24T22:20:00Z,,,18.0,11.0,100,1,,6.21,,,,TRUE,TRUE,,,TRUE,,,,CLR,,,,,,,,VFR,,,,,,,,,,,,METAR,
KQEW 242220Z AUTO 35001KT 9999 BKN140 18/11 A3006 RMK A02 TSNO,KQEW,2023-05-24T22:20:00Z,,,18.0,11.0,350,1,,6.21,30.059055,,,TRUE,TRUE,,,TRUE,,,,BKN,14000,,,,,,,VFR,,,,,,,,,,,,METAR,
KQEV 242220Z AUTO 33001KT 9999 BKN120 16/12 A3003 RMK A02 TSNO,KQEV,2023-05-24T22:20:00Z,,,16.0,12.0,330,1,,6.21,30.029528,,,TRUE,TRUE,,,TRUE,,,,BKN,12000,,,,,,,VFR,,,,,,,,,,,,METAR,
KQEQ 242220Z AUTO 36001KT 9999 CLR 14/14 A3010 RMK A02 TSNO,KQEQ,2023-05-24T22:20:00Z,,,14.0,14.0,360,1,,6.21,30.100393,,,TRUE,TRUE,,,TRUE,,,,CLR,,,,,,,,VFR,,,,,,,,,,,,METAR,
KQEP 242220Z AUTO 30001KT 6000 HZ BKN075 17/11 A3008 RMK A02 TSNO,KQEP,2023-05-24T22:20:00Z,,,17.0,11.0,300,1,,3.73,30.079725,,,TRUE,TRUE,,,TRUE,,,HZ,BKN,7500,,,,,,,MVFR,,,,,,,,,,,,METAR,
KQEN 242220Z AUTO 26004KT 9999 SCT150 12/07 A3010 RMK A02 TSNO,KQEN,2023-05-24T22:20:00Z,,,12.0,7.0,260,4,,6.21,30.100393,,,TRUE,TRUE,,,TRUE,,,,SCT,15000,,,,,,,VFR,,,,,,,,,,,,METAR,
KQEJ 242220Z AUTO 08002KT 9999 CLR 14/09 A3006 RMK A02 TSNO,KQEJ,2023-05-24T22:20:00Z,,,14.0,9.0,80,2,,6.21,30.059055,,,TRUE,TRUE,,,TRUE,,,,CLR,,,,,,,,VFR,,,,,,,,,,,,METAR,
KQEI 242220Z AUTO 00000KT 9999 CLR 13/09 A3008 RMK A02 TSNO,KQEI,2023-05-24T22:20:00Z,,,13.0,9.0,0,0,,6.21,30.079725,,,TRUE,TRUE,,,TRUE,,,,CLR,,,,,,,,VFR,,,,,,,,,,,,METAR,
KMTK 242220Z AUTO 06009G17KT 030V090 10SM SCT021 SCT029 SCT033 26/21 A2985 RMK A01,KMTK,2023-05-24T22:20:00Z,,,26.0,21.0,60,9,17,10.0,29.84941,,,TRUE,TRUE,,,,,,,SCT,2100,SCT,2900,SCT,3300,,,VFR,,,,,,,,,,,,METAR,
KMCF 242220Z AUTO 09015KT 4SM TSRA BR OVC090 21/20 A2977 RMK AO2 TSE13TSB20 SLP084 FZRANO $,KMCF,2023-05-24T22:20:00Z,27.85,-82.52,21.0,20.0,90,15,,4.0,29.769686,1008.4,,TRUE,TRUE,TRUE,,,TRUE,,TSRA BR,OVC,9000,,,,,,,MVFR,,,,,,,,,,,,METAR,3.0
KLOR 242220Z AUTO 04004KT 10SM SCT027 BKN038 24/19 A2988 RMK AO2 SLP100,KLOR,2023-05-24T22:20:00Z,31.35,-85.75,24.0,19.0,40,4,,10.0,29.878937,1010.0,,TRUE,TRUE,,,,,,,SCT,2700,BKN,3800,,,,,VFR,,,,,,,,,,,,METAR,92.0
KLOL 242220Z AUTO 35023G29KT 7SM SCT110 21/02 A2985 RMK AO2 PK WND 36031/2203 LTG DSNT SE T02110022,KLOL,2023-05-24T22:20:00Z,40.07,-118.57,21.1,2.2,350,23,29,7.0,29.84941,,,TRUE,TRUE,,,,,,,SCT,11000,,,,,,,VFR,,,,,,,,,,,,SPECI,1191.0
KIKT 242220Z AUTO 04010G16KT 10SM SCT025 SCT030 SCT037 25/21 A2983 RMK A01,KIKT,2023-05-24T22:20:00Z,28.52,-88.28,25.0,21.0,40,10,16,10.0,29.828741,,,TRUE,TRUE,,,,,,,SCT,2500,SCT,3000,SCT,3700,,,VFR,,,,,,,,,,,,METAR,36.0
KHRF 242220Z AUTO 20012KT 10SM SCT060 BKN070 OVC080 19/07 A2990 RMK AO2,KHRF,2023-05-24T22:20:00Z,46.25,-114.13,19.0,7.0,200,12,,10.0,29.899607,,,TRUE,TRUE,,,,,,,SCT,6000,BKN,7000,OVC,8000,,,VFR,,,,,,,,,,,,METAR,1112.0
KGVW 242220Z AUTO 09008KT 9SM CLR 28/20 A2989 RMK A01,KGVW,2023-05-24T22:20:00Z,29.13,-94.55,28.0,20.0,90,8,,9.0,29.890747,,,TRUE,TRUE,,,,,,,CLR,,,,,,,,VFR,,,,,,,,,,,,METAR,37.0
KGUL 242220Z AUTO 02004KT 9SM CLR 27/21 A2985 RMK A01,KGUL,2023-05-24T22:20:00Z,27.3,-93.53,27.0,21.0,20,4,,9.0,29.84941,,,TRUE,TRUE,,,,,,,CLR,,,,,,,,VFR,,,,,,,,,,,,METAR,20.0
KDSF 242220Z AUTO 03018KT 10SM FEW019 FEW024 29/21 A2983 RMK A01,KDSF,2023-05-24T22:20:00Z,28.35,-88.27,29.0,21.0,30,18,,10.0,29.828741,,,TRUE,TRUE,,,,,,,FEW,1900,FEW,2400,,,,,VFR,,,,,,,,,,,,METAR,40.0
KATP 242220Z AUTO 36011KT 8SM CLR 27/21 A2984 RMK A01,KATP,2023-05-24T22:20:00Z,27.2,-90.03,27.0,21.0,360,11,,8.0,29.840551,,,TRUE,TRUE,,,,,,,CLR,,,,,,,,VFR,,,,,,,,,,,,METAR,50.0
EYVI 242220Z VRB01KT CAVOK 13/07 Q1018 NOSIG,EYVI,2023-05-24T22:20:00Z,54.63,25.28,13.0,7.0,0,1,,6.21,30.059055,,,,,,TRUE,,,,,CAVOK,,,,,,,,VFR,,,,,,,,,,,,METAR,180.0
EYPA 242220Z 17001KT CAVOK 12/08 Q1018,EYPA,2023-05-24T22:20:00Z,55.97,21.08,12.0,8.0,170,1,,6.21,30.059055,,,,,,,,,,,CAVOK,,,,,,,,VFR,,,,,,,,,,,,METAR,15.0
EYKA 242220Z AUTO 00000KT 9999 NCD 12/08 Q1018,EYKA,2023-05-24T22:20:00Z,54.97,24.08,12.0,8.0,0,0,,6.21,30.059055,,,TRUE,,,,,,,,CLR,,,,,,,,VFR,,,,,,,,,,,,METAR,68.0
EVVA 242220Z AUTO 17002KT 8000 NSC 08/08 Q1017,EVVA,2023-05-24T22:20:00Z,57.35,21.55,8.0,8.0,170,2,,4.97,30.029528,,,TRUE,,,,,,,,CLR,,,,,,,,MVFR,,,,,,,,,,,,METAR,1.0
EVRA 242220Z 00000KT CAVOK 14/09 Q1017 NOSIG,EVRA,2023-05-24T22:20:00Z,56.92,23.97,14.0,9.0,0,0,,6.21,30.029528,,,,,,TRUE,,,,,CAVOK,,,,,,,,VFR,,,,,,,,,,,,METAR,7.0
EVLA 242220Z AUTO 09002KT 8000 NCD 08/08 Q1018,EVLA,2023-05-24T22:20:00Z,56.52,21.1,8.0,8.0,90,2,,4.97,30.059055,,,TRUE,,,,,,,,CLR,,,,,,,,MVFR,,,,,,,,,,,,METAR,5.0
EVGA 242220Z VRB01KT CAVOK 12/09 Q1017 NOSIG,EVGA,2023-05-24T22:20:00Z,56.78,24.85,12.0,9.0,0,1,,6.21,30.029528,,,,,,TRUE,,,,,CAVOK,,,,,,,,VFR,,,,,,,,,,,,METAR,61.0
ESUT 242220Z AUTO VRB03KT 9999 -RA SCT016/// BKN024/// BKN057/// 02/01 Q1006 RERA,ESUT,2023-05-24T22:20:00Z,65.8,15.08,2.0,1.0,0,3,,6.21,29.704725,,,TRUE,,,,,,,-RA,SCT,1600,BKN,2400,BKN,5700,,,MVFR,,,,,,,,,,,,METAR,457.0
ESUP 242220Z AUTO 20009KT 9999 SCT120/// OVC200/// 10/03 Q1004,ESUP,2023-05-24T22:20:00Z,67.25,23.07,10.0,3.0,200,9,,6.21,29.64567,,,TRUE,,,,,,,,SCT,12000,OVC,20000,,,,,VFR,,,,,,,,,,,,METAR,164.0
ESTL 242220Z AUTO 00000KT 0350 R29L/P2000D FG NCD 10/10 Q1020,ESTL,2023-05-24T22:20:00Z,56.07,13.2,10.0,10.0,0,0,,0.22,30.11811,,,TRUE,,,,,,,FG,CLR,,,,,,,,LIFR,,,,,,,,,,,,METAR,39.0
ESTA 242220Z AUTO 28004KT 8000 BR FEW032/// 10/10 Q1020,ESTA,2023-05-24T22:20:00Z,56.28,12.83,10.0,10.0,280,4,,4.97,30.11811,,,TRUE,,,,,,,BR,FEW,3200,,,,,,,MVFR,,,,,,,,,,,,METAR,19.0
ESSV 242220Z AUTO 21013KT 9999 OVC080/// 16/08 Q1017,ESSV,2023-05-24T22:20:00Z,57.67,18.35,16.0,8.0,210,13,,6.21,30.029528,,,TRUE,,,,,,,,OVC,8000,,,,,,,VFR,,,,,,,,,,,,METAR,38.0
ESST 242220Z AUTO 25007KT 9999 FEW110/// BKN180/// 15/06 Q1014,ESST,2023-05-24T22:20:00Z,60.15,12.98,15.0,6.0,250,7,,6.21,29.940945,,,TRUE,,,,,,,,FEW,11000,BKN,18000,,,,,VFR,,,,,,,,,,,,METAR,110.0
ESSP 242220Z AUTO 26010KT 9999 BKN180/// OVC200/// 18/10 Q1015,ESSP,2023-05-24T22:20:00Z,58.58,16.25,18.0,10.0,260,10,,6.21,29.970472,,,TRUE,,,,,,,,BKN,18000,OVC,20000,,,,,VFR,,,,,,,,,,,,METAR,3.0
ESSL 242220Z AUTO 26010KT 9999 FEW170/// BKN200/// 16/10 Q1016,ESSL,2023-05-24T22:20:00Z,58.4,15.67,16.0,10.0,260,10,,6.21,30.0,,,TRUE,,,,,,,,FEW,17000,BKN,20000,,,,,VFR,,,,,,,,,,,,METAR,51.0
ESSD 242220Z AUTO 26010KT 9999 OVC110/// 16/08 Q1012,ESSD,2023-05-24T22:20:00Z,60.42,15.5,16.0,8.0,260,10,,6.21,29.88189,,,TRUE,,,,,,,,OVC,11000,,,,,,,VFR,,,,,,,,,,,,METAR,151.0
ESSB 242220Z AUTO 21006KT 9999 FEW066/// BKN160/// OVC210/// 16/08 Q1014,ESSB,2023-05-24T22:20:00Z,59.35,17.93,16.0,8.0,210,6,,6.21,29.940945,,,TRUE,,,,,,,,FEW,6600,BKN,16000,OVC,21000,,,VFR,,,,,,,,,,,,METAR,14.0
ESSA 242220Z 20007KT CAVOK 16/07 Q1013 NOSIG,ESSA,2023-05-24T22:20:00Z,59.65,17.93,16.0,7.0,200,7,,6.21,29.911417,,,,,,TRUE,,,,,CAVOK,,,,,,,,VFR,,,,,,,,,,,,METAR,36.0
ESPE 242220Z AUTO 26006KT 230V290 9999 OVC100/// 09/02 Q1006,ESPE,2023-05-24T22:20:00Z,65.88,20.15,9.0,2.0,260,6,,6.21,29.704725,,,TRUE,,,,,,,,OVC,10000,,,,,,,VFR,,,,,,,,,,,,METAR,182.0
ESPA 242220Z AUTO 20006KT 170V230 9999 OVC064/// 10/08 Q1007,ESPA,2023-05-24T22:20:00Z,65.53,22.12,10.0,8.0,200,6,,6.21,29.734253,,,TRUE,,,,,,,,OVC,6400,,,,,,,VFR,,,,,,,,,,,,METAR,12.0
ESOW 242220Z AUTO 22009KT 9999 OVC100/// 18/09 Q1014,ESOW,2023-05-24T22:20:00Z,59.58,16.63,18.0,9.0,220,9,,6.21,29.940945,,,TRUE,,,,,,,,OVC,10000,,,,,,,VFR,,,,,,,,,,,,METAR,7.0
ESOK 242220Z AUTO 24008KT 9999 FEW110/// 14/08 Q1015,ESOK,2023-05-24T22:20:00Z,59.45,13.33,14.0,8.0,240,8,,6.21,29.970472,,,TRUE,,,,,,,,FEW,11000,,,,,,,VFR,,,,,,,,,,,,METAR,101.0
ESOH 242220Z AUTO VRB03KT 9999 BKN110/// OVC170/// 15/08 Q1014,ESOH,2023-05-24T22:20:00Z,60.02,13.58,15.0,8.0,0,3,,6.21,29.940945,,,TRUE,,,,,,,,BKN,11000,OVC,17000,,,,,VFR,,,,,,,,,,,,METAR,145.0
ESOE 242220Z 23008KT CAVOK 15/10 Q1015,ESOE,2023-05-24T22:20:00Z,59.22,15.05,15.0,10.0,230,8,,6.21,29.970472,,,,,,,,,,,CAVOK,,,,,,,,VFR,,,,,,,,,,,,METAR,57.0
ESNZ 242220Z AUTO 28011KT 9999 FEW084/// 05/M08 Q1012,ESNZ,2023-05-24T22:20:00Z,63.18,14.5,5.0,-8.0,280,11,,6.21,29.88189,,,TRUE,,,,,,,,FEW,8400,,,,,,,VFR,,,,,,,,,,,,METAR,360.0
ESNX 242220Z AUTO 24009KT 210V280 9999 NCD 07/M01 Q1006,ESNX,2023-05-24T22:20:00Z,65.58,19.28,7.0,-1.0,240,9,,6.21,29.704725,,,TRUE,,,,,,,,CLR,,,,,,,,VFR,,,,,,,,,,,,METAR,380.0
ESNV 242220Z AUTO 24011KT 9999 BKN098/// BKN120/// 06/00 Q1009,ESNV,2023-05-24T22:20:00Z,64.58,16.83,6.0,0.0,240,11,,6.21,29.793306,,,TRUE,,,,,,,,BKN,9800,BKN,12000,,,,,VFR,,,,,,,,,,,,METAR,348.0
ESNU 242220Z 30009KT 9999 -RA BKN033 BKN076 OVC140 09/06 Q1010,ESNU,2023-05-24T22:20:00Z,63.78,20.28,9.0,6.0,300,9,,6.21,29.822834,,,,,,,,,,-RA,BKN,3300,BKN,7600,OVC,14000,,,VFR,,,,,,,,,,,,METAR,8.0
ESNS 242220Z AUTO 25004KT 210V300 9999 OVC048/// 10/07 Q1009,ESNS,2023-05-24T22:20:00Z,64.62,21.07,10.0,7.0,250,4,,6.21,29.793306,,,TRUE,,,,,,,,OVC,4800,,,,,,,VFR,,,,,,,,,,,,METAR,41.0
ESNQ 242220Z AUTO 20020KT 9999 NCD 04/M01 Q0999,ESNQ,2023-05-24T22:20:00Z,67.82,20.33,4.0,-1.0,200,20,,6.21,29.498032,,,TRUE,,,,,,,,CLR,,,,,,,,VFR,,,,,,,,,,,,METAR,447.0
ESNO 242220Z AUTO 32009KT 9999 OVC041/// 09/07 Q1010,ESNO,2023-05-24T22:20:00Z,63.4,18.97,9.0,7.0,320,9,,6.21,29.822834,,,TRUE,,,,,,,,OVC,4100,,,,,,,VFR,,,,,,,,,,,,METAR,100.0
ESNN 242220Z AUTO 33005KT 9999 OVC200/// 10/05 Q1011,ESNN,2023-05-24T22:20:00Z,62.52,17.43,10.0,5.0,330,5,,6.21,29.852362,,,TRUE,,,,,,,,OVC,20000,,,,,,,VFR,,,,,,,,,,,,METAR,4.0
ESNL 242220Z AUTO VRB02KT 9999 SCT072/// BKN089/// 05/05 Q1009,ESNL,2023-05-24T22:20:00Z,64.55,18.72,5.0,5.0,0,2,,6.21,29.793306,,,TRUE,,,,,,,,SCT,7200,BKN,8900,,,,,VFR,,,,,,,,,,,,METAR,220.0
ESNK 242220Z AUTO 33006KT 9999 FEW047/// BKN220/// ///// Q1011,ESNK,2023-05-24T22:20:00Z,63.03,17.77,,,330,6,,6.21,29.852362,,,TRUE,,,,,,,,FEW,4700,BKN,22000,,,,,VFR,,,,,,,,,,,,METAR,4.0
ESNG 242220Z AUTO 25005KT 170V320 9999 NCD ///// Q1002,ESNG,2023-05-24T22:20:00Z,67.13,20.82,,,250,5,,6.21,29.586615,,,TRUE,,,,,,,,CLR,,,,,,,,VFR,,,,,,,,,,,,METAR,300.0
ESND 242220Z AUTO 35003KT 320V020 9999 NCD 07/04 Q1013,ESND,2023-05-24T22:20:00Z,62.05,14.42,7.0,4.0,350,3,,6.21,29.911417,,,TRUE,,,,,,,,CLR,,,,,,,,VFR,,,,,,,,,,,,METAR,352.0
ESMX 242220Z 25006KT CAVOK 13/10 Q1019,ESMX,2023-05-24T22:20:00Z,56.92,14.72,13.0,10.0,250,6,,6.21,30.088583,,,,,,,,,,,CAVOK,,,,,,,,VFR,,,,,,,,,,,,METAR,176.0
ESMT 242220Z AUTO 26004KT 9999 NCD 11/11 Q1020,ESMT,2023-05-24T22:20:00Z,56.68,12.82,11.0,11.0,260,4,,6.21,30.11811,,,TRUE,,,,,,,,CLR,,,,,,,,VFR,,,,,,,,,,,,METAR,24.0
ESMS 242220Z 23003KT CAVOK 11/10 Q1021,ESMS,2023-05-24T22:20:00Z,55.53,13.37,11.0,10.0,230,3,,6.21,30.147638,,,,,,,,,,,CAVOK,,,,,,,,VFR,,,,,,,,,,,,METAR,68.0
ESMQ 242220Z AUTO 25004KT 9999 NCD 14/10 Q1018,ESMQ,2023-05-24T22:20:00Z,56.68,16.3,14.0,10.0,250,4,,6.21,30.059055,,,TRUE,,,,,,,,CLR,,,,,,,,VFR,,,,,,,,,,,,METAR,3.0
ESMK 242220Z AUTO /////KT 9999 NCD 13/11 Q1020,ESMK,2023-05-24T22:20:00Z,55.92,14.08,13.0,11.0,,,,6.21,30.11811,,,TRUE,,,,,,,,CLR,,,,,,,,VFR,,,,,,,,,,,,METAR,20.0
ESKS 242220Z AUTO 30006KT 9999 NCD 09/M00 Q1014,ESKS,2023-05-24T22:20:00Z,61.17,12.83,9.0,0.0,300,6,,6.21,29.940945,,,TRUE,,,,,,,,CLR,,,,,,,,VFR,,,,,,,,,,,,METAR,503.0
ESKN 242220Z 26007KT CAVOK 15/10 Q1015,ESKN,2023-05-24T22:20:00Z,58.78,16.92,15.0,10.0,260,7,,6.21,29.970472,,,,,,,,,,,CAVOK,,,,,,,,VFR,,,,,,,,,,,,METAR,41.0
ESKM 242220Z AUTO VRB02KT 9999 BKN180/// 14/02 Q1012,ESKM,2023-05-24T22:20:00Z,60.97,14.52,14.0,2.0,0,2,,6.21,29.88189,,,TRUE,,,,,,,,BKN,18000,,,,,,,VFR,,,,,,,,,,,,METAR,184.0
ESIB 242220Z AUTO 23010KT 9999 FEW017/// 13/11 Q1017,ESIB,2023-05-24T22:20:00Z,58.42,12.7,13.0,11.0,230,10,,6.21,30.029528,,,TRUE,,,,,,,,FEW,1700,,,,,,,VFR,,,,,,,,,,,,METAR,51.0
ESIA 242220Z AUTO 24009KT 9999 SCT110/// OVC170/// 15/10 Q1016,ESIA,2023-05-24T22:20:00Z,58.52,14.5,15.0,10.0,240,9,,6.21,30.0,,,TRUE,,,,,,,,SCT,11000,OVC,17000,,,,,VFR,,,,,,,,,,,,METAR,94.0
ESGT 242220Z AUTO 23006KT 200V260 9999 R15///// R33///// FEW014/// 12/09 Q1017,ESGT,2023-05-24T22:20:00Z,58.32,12.33,12.0,9.0,230,6,,6.21,30.029528,,,TRUE,,,,,,,,FEW,1400,,,,,,,VFR,,,,,,,,,,,,METAR,40.0
ESGP 242220Z AUTO 21006KT 170V230 9999 OVC011/// 12/09 Q1018,ESGP,2023-05-24T22:20:00Z,57.77,11.87,12.0,9.0,210,6,,6.21,30.059055,,,TRUE,,,,,,,,OVC,1100,,,,,,,MVFR,,,,,,,,,,,,METAR,15.0
ESGJ 242220Z 24008KT 9999 FEW013 13/11 Q1018,ESGJ,2023-05-24T22:20:00Z,57.77,14.07,13.0,11.0,240,8,,6.21,30.059055,,,,,,,,,,,FEW,1300,,,,,,,VFR,,,,,,,,,,,,METAR,224.0
ESGG 242220Z 24011KT 9999 BKN008 10/09 Q1018,ESGG,2023-05-24T22:20:00Z,57.67,12.3,10.0,9.0,240,11,,6.21,30.059055,,,,,,,,,,,BKN,800,,,,,,,IFR,,,,,,,,,,,,METAR,152.0
ESDF 242220Z AUTO 28003KT 9999 NCD 12/11 Q1019,ESDF,2023-05-24T22:20:00Z,56.27,15.27,12.0,11.0,280,3,,6.21,30.088583,,,TRUE,,,,,,,,CLR,,,,,,,,VFR,,,,,,,,,,,,METAR,52.0
ESCM 242220Z AUTO 23009KT 9999 FEW140/// 18/10 Q1012,ESCM,2023-05-24T22:20:00Z,59.88,17.6,18.0,10.0,230,9,,6.21,29.88189,,,TRUE,,,,,,,,FEW,14000,,,,,,,VFR,,,,,,,,,,,,METAR,21.0
ESCF 242220Z AUTO 25008KT 9999 FEW180/// OVC210/// 16/10 Q1016,ESCF,2023-05-24T22:20:00Z,58.38,15.52,16.0,10.0,250,8,,6.21,30.0,,,TRUE,,,,,,,,FEW,18000,OVC,21000,,,,,VFR,,,,,,,,,,,,METAR,86.0
ENZV 242220Z 33011KT 9999 OVC051 09/07 Q1024,ENZV,2023-05-24T22:20:00Z,58.88,5.63,9.0,7.0,330,11,,6.21,30.236221,,,,,,,,,,,OVC,5100,,,,,,,VFR,,,,,,,,,,,,METAR,7.0
ENWV 242220Z AUTO 32015KT 9999NDV FEW033/// 10/09 Q1027 W///S3,ENWV,2023-05-24T22:20:00Z,56.28,3.4,10.0,9.0,320,15,,,30.324802,,,TRUE,,,,,,,,FEW,3300,,,,,,,,,,,,,,,,,,,METAR,30.0
ENVD 242220Z 22013KT CAVOK 10/05 Q1000,ENVD,2023-05-24T22:20:00Z,70.07,29.85,10.0,5.0,220,13,,6.21,29.52756,,,,,,,,,,,CAVOK,,,,,,,,VFR,,,,,,,,,,,,METAR,39.0
ENVA 242220Z 24012KT 9999 VCSH FEW027 SCT033 BKN070 07/03 Q1014 RMK WIND 670FT 24013KT,ENVA,2023-05-24T22:20:00Z,63.47,10.92,7.0,3.0,240,12,,6.21,29.940945,,,,,,,,,,VCSH,FEW,2700,SCT,3300,BKN,7000,,,VFR,,,,,,,,,,,,METAR,12.0
ENUN 242220Z AUTO 26047KT 9999NDV BKN026/// 04/00 Q0996 W08/S7,ENUN,2023-05-24T22:20:00Z,,,4.0,0.0,260,47,,,29.409449,,,TRUE,,,,,,,,BKN,2600,,,,,,,,,,,,,,,,,,,METAR,
ENUG 242220Z AUTO 20017KT 9999NDV BKN098/// 07/02 Q0993 W///S5,ENUG,2023-05-24T22:20:00Z,71.3,22.25,7.0,2.0,200,17,,,29.320866,,,TRUE,,,,,,,,BKN,9800,,,,,,,,,,,,,,,,,,,METAR,30.0
ENTO 242220Z AUTO 31010KT 9999 FEW170/// 12/01 Q1017,ENTO,2023-05-24T22:20:00Z,59.2,10.27,12.0,1.0,310,10,,6.21,30.029528,,,TRUE,,,,,,,,FEW,17000,,,,,,,VFR,,,,,,,,,,,,METAR,84.0
ENTC 242220Z 21019KT 9999 BKN035 07/01 Q0996 RMK WIND 2600FT 20043G55KT,ENTC,2023-05-24T22:20:00Z,69.68,18.92,7.0,1.0,210,19,,6.21,29.409449,,,,,,,,,,,BKN,3500,,,,,,,VFR,,,4.3,,,,,,,,,METAR,9.0
ENSS 242220Z AUTO 21015KT 9999 FEW046/// BKN226/// 09/05 Q1000 RMK WIND 0500FT 23025KT,ENSS,2023-05-24T22:20:00Z,70.35,31.05,9.0,5.0,210,15,,6.21,29.52756,,,TRUE,,,,,,,,FEW,4600,BKN,22600,,,,,VFR,,,,,,,,,,,,METAR,13.0
ENSR 242220Z AUTO 17007KT 110V220 9999 OVC078/// 09/M02 Q0996 RMK WIND RWY32 18004G15KT WIND 1118FT VRB05KT,ENSR,2023-05-24T22:20:00Z,69.78,20.97,9.0,-2.0,170,7,,6.21,29.409449,,,TRUE,,,,,,,,OVC,7800,,,,,,,VFR,,,,,,,,,,,,METAR,5.0
ENSL 242220Z AUTO 29025KT 9999NDV NCD 10/06 Q1027 W07/S4,ENSL,2023-05-24T22:20:00Z,58.37,1.9,10.0,6.0,290,25,,,30.324802,,,TRUE,,,,,,,,CLR,,,,,,,,,,,,,,,,,,,,METAR,50.0
ENSK 242220Z AUTO 21017KT 9999 BKN043/// OVC110/// 06/03 Q0996,ENSK,2023-05-24T22:20:00Z,68.57,15.02,6.0,3.0,210,17,,6.21,29.409449,,,TRUE,,,,,,,,BKN,4300,OVC,11000,,,,,VFR,,,,,,,,,,,,METAR,3.0
ENSH 242220Z AUTO 20029KT 6000 NCD 06/04 Q0998 RMK WIND 0150FT 18032KT,ENSH,2023-05-24T22:20:00Z,68.25,14.67,6.0,4.0,200,29,,3.73,29.468504,,,TRUE,,,,,,,,CLR,,,,,,,,MVFR,,,,,,,,,,,,METAR,9.0
ENSF 242220Z AUTO 27036KT 9999NDV BKN027/// BKN061/// ///// Q//// W///S6,ENSF,2023-05-24T22:20:00Z,61.25,1.85,,,270,36,,,,,,TRUE,,,,,,,,BKN,2700,BKN,6100,,,,,,,,,,,,,,,,,METAR,15.0
ENSE 242220Z AUTO 27029KT //// BKN026/// 09/05 Q1019 W///S6,ENSE,2023-05-24T22:20:00Z,61.45,2.15,9.0,5.0,270,29,,,30.088583,,,TRUE,,,,,,,,BKN,2600,,,,,,,,,,,,,,,,,,,METAR,10.0
ENSD 242220Z AUTO 21014KT 150V240 9999 -DZ BKN061/// 09/02 Q1019 RMK WIND RWY26 26010KT WIND 1140FT 22014G26KT,ENSD,2023-05-24T22:20:00Z,61.82,6.12,9.0,2.0,210,14,,6.21,30.088583,,,TRUE,,,,,,,-DZ,BKN,6100,,,,,,,VFR,,,,,,,,,,,,METAR,61.0
ENSB 242220Z 11011KT 9999 VCSH FEW010 BKN029 03/M01 Q0989 RMK WIND 1400FT 10019KT,ENSB,2023-05-24T22:20:00Z,78.25,15.47,3.0,-1.0,110,11,,6.21,29.202755,,,,,,,,,,VCSH,FEW,1000,BKN,2900,,,,,MVFR,,1.9,,,,,,,,,,METAR,30.0
ENRY 242220Z AUTO 33008KT 280V360 9999 NCD 13/01 Q1017,ENRY,2023-05-24T22:20:00Z,59.37,10.77,13.0,1.0,330,8,,6.21,30.029528,,,TRUE,,,,,,,,CLR,,,,,,,,VFR,,,,,,,,,,,,METAR,45.0
ENRS 242220Z AUTO 22028G39KT 9999 FEW001/// SCT026/// BKN035/// 07/03 Q0998,ENRS,2023-05-24T22:20:00Z,67.52,12.1,7.0,3.0,220,28,39,6.21,29.468504,,,TRUE,,,,,,,,FEW,100,SCT,2600,BKN,3500,,,VFR,,,,,,,,,,,,METAR,4.0
ENRO 242220Z AUTO 00000KT 9999 FEW062/// M01/M02 Q1013,ENRO,2023-05-24T22:20:00Z,62.57,11.33,-1.0,-2.0,0,0,,6.21,29.911417,,,TRUE,,,,,,,,FEW,6200,,,,,,,VFR,,,,,,,,,,,,METAR,624.0
ENRM 242220Z AUTO 23027KT 9999 DZRA FEW015/// 07/04 Q1009,ENRM,2023-05-24T22:20:00Z,64.83,11.13,7.0,4.0,230,27,,6.21,29.793306,,,TRUE,,,,,,,DZ RA,FEW,1500,,,,,,,VFR,,,,,,,,,,,,METAR,4.0
ENRA 242220Z AUTO 28008KT 200V330 9999 -RA BKN032/// OVC049/// 05/02 Q1005,ENRA,2023-05-24T22:20:00Z,66.37,14.3,5.0,2.0,280,8,,6.21,29.675198,,,TRUE,,,,,,,-RA,BKN,3200,OVC,4900,,,,,VFR,,,,,,,,,,,,METAR,66.0
ENQR 242220Z AUTO 26027KT 8000NDV BKN024/// 09/05 Q1018 W09/S6,ENQR,2023-05-24T22:20:00Z,61.52,2.22,9.0,5.0,260,27,,,30.059055,,,TRUE,,,,,,,,BKN,2400,,,,,,,,,,,,,,,,,,,METAR,10.0
ENQC 242220Z AUTO 26022KT 9999NDV -SHRA BKN026/// 09/06 Q1021 W///S6,ENQC,2023-05-24T22:20:00Z,60.88,3.62,9.0,6.0,260,22,,,30.147638,,,TRUE,,,,,,,-SHRA,BKN,2600,,,,,,,,,,,,,,,,,,,METAR,20.0
ENQA 242220Z AUTO 27023KT 9999NDV BKN028/// 09/05 Q1023 W12/S6,ENQA,2023-05-24T22:20:00Z,60.65,3.72,9.0,5.0,270,23,,,30.206694,,,TRUE,,,,,,,,BKN,2800,,,,,,,,,,,,,,,,,,,METAR,90.0
ENOV 242220Z AUTO VRB02KT 9999 FEW021/// BKN033/// OVC044/// 06/02 Q1019 RMK WIND RWY24 VRB03KT WIND 2090FT VRB15G29KT,ENOV,2023-05-24T22:20:00Z,62.17,6.07,6.0,2.0,0,2,,6.21,30.088583,,,TRUE,,,,,,,,FEW,2100,BKN,3300,OVC,4400,,,VFR,,,,,,,,,,,,METAR,72.0
ENOL 242220Z 24024KT 9999 SHRA SCT020CB BKN070 06/04 Q1013,ENOL,2023-05-24T22:20:00Z,63.7,9.6,6.0,4.0,240,24,,6.21,29.911417,,,,,,,,,,SHRA,SCT,2000,BKN,7000,,,,,VFR,,,,,,,,,,,,METAR,9.0
ENOA 242220Z 28024KT 9999 FEW030 09/05 Q1022 W///S6,ENOA,2023-05-24T22:20:00Z,60.5,2.83,9.0,5.0,280,24,,6.21,30.177166,,,,,,,,,,,FEW,3000,,,,,,,VFR,,,,,,,,,,,,METAR,5.0
ENNM 242220Z AUTO 21011KT 180V240 9999 -RA OVC036/// 07/03 Q1010,ENNM,2023-05-24T22:20:00Z,64.47,11.57,7.0,3.0,210,11,,6.21,29.822834,,,TRUE,,,,,,,-RA,OVC,3600,,,,,,,VFR,,,,,,,,,,,,METAR,2.0
ENNE 242220Z AUTO 26038KT 9999NDV FEW034/// 08/02 Q1001 W///S7,ENNE,2023-05-24T22:20:00Z,66.03,8.08,8.0,2.0,260,38,,,29.557087,,,TRUE,,,,,,,,FEW,3400,,,,,,,,,,,,,,,,,,,METAR,10.0
ENNA 242220Z AUTO 21018KT 9999 NCD 09/M00 Q0997 RMK WIND 1800FT 24035KT,ENNA,2023-05-24T22:20:00Z,70.07,24.97,9.0,0.0,210,18,,6.21,29.438976,,,TRUE,,,,,,,,CLR,,,,,,,,VFR,,,,,,,,,,,,METAR,12.0
ENMS 242220Z AUTO 23011G24KT 170V280 9999 FEW029/// 07/01 Q1006 RMK WIND 412FT 20017G38KT,ENMS,2023-05-24T22:20:00Z,65.78,13.22,7.0,1.0,230,11,24,6.21,29.704725,,,TRUE,,,,,,,,FEW,2900,,,,,,,VFR,,,1.7,,,,,,,,,METAR,44.0
ENML 242220Z AUTO 27013KT 240V300 9999NDV BKN040/// BKN074/// 06/04 Q1016,ENML,2023-05-24T22:20:00Z,62.75,7.27,6.0,4.0,270,13,,,30.0,,,TRUE,,,,,,,,BKN,4000,BKN,7400,,,,,,,,,,,,,,,,,METAR,3.0
ENMH 242220Z AUTO 12005KT 090V180 9999 -RA FEW009/// BKN032/// BKN062/// 04/04 Q0998 RERA,ENMH,2023-05-24T22:20:00Z,71.02,27.82,4.0,4.0,120,5,,6.21,29.468504,,,TRUE,,,,,,,-RA,FEW,900,BKN,3200,BKN,6200,,,VFR,,,,,,,,,,,,METAR,10.0
ENLE 242220Z 30015KT CAVOK 10/09 Q1027 W10/S3,ENLE,2023-05-24T22:20:00Z,56.53,3.22,10.0,9.0,300,15,,6.21,30.324802,,,,,,,,,,,CAVOK,,,,,,,,VFR,,,,,,,,,,,,METAR,10.0
ENLA 242220Z AUTO 29015KT 9999NDV NCD 10/08 Q1026 W///S3,ENLA,2023-05-24T22:20:00Z,57.1,2.83,10.0,8.0,290,15,,,30.295275,,,TRUE,,,,,,,,CLR,,,,,,,,,,,,,,,,,,,,METAR,10.0
ENKR 242220Z 22020KT 9999 FEW044 10/04 Q1001 RMK WIND 731FT 23028KT,ENKR,2023-05-24T22:20:00Z,69.72,29.88,10.0,4.0,220,20,,6.21,29.557087,,,,,,,,,,,FEW,4400,,,,,,,VFR,,,,,,,,,,,,METAR,86.0
ENKB 242220Z AUTO 23017G31KT 200V260 9999 BKN025/// BKN051/// BKN094/// 07/03 Q1014 RMK WIND 745FT 24032KT,ENKB,2023-05-24T22:20:00Z,63.12,7.82,7.0,3.0,230,17,31,6.21,29.940945,,,TRUE,,,,,,,,BKN,2500,BKN,5100,BKN,9400,,,MVFR,,,,,,,,,,,,METAR,62.0
ENJS 242220Z 30020KT 9999 BKN038 09/06 Q1026 W09/S/,ENJS,2023-05-24T22:20:00Z,,,9.0,6.0,300,20,,6.21,30.295275,,,,,,,,,,,BKN,3800,,,,,,,VFR,,,,,,,,,,,,METAR,
ENHV 242220Z AUTO 17009KT 130V200 9999 NCD 06/03 Q0997,ENHV,2023-05-24T22:20:00Z,71.02,25.97,6.0,3.0,170,9,,6.21,29.438976,,,TRUE,,,,,,,,CLR,,,,,,,,VFR,,,,,,,,,,,,METAR,13.0
ENHM 242220Z AUTO /////KT //// NCD 09/09 Q1024 W09/S/,ENHM,2023-05-24T22:20:00Z,59.57,2.23,9.0,9.0,,,,,30.236221,,,TRUE,,,,,,,,CLR,,,,,,,,,,,,,,,,,,,,METAR,10.0
ENHK 242220Z AUTO 14004KT 110V170 9999 SCT080/// 06/03 Q0995,ENHK,2023-05-24T22:20:00Z,70.48,22.13,6.0,3.0,140,4,,6.21,29.379921,,,TRUE,,,,,,,,SCT,8000,,,,,,,VFR,,,,,,,,,,,,METAR,6.0
ENHF 242220Z 25004KT 170V300 CAVOK 07/02 Q0995 RMK WIND 1254FT 19013KT,ENHF,2023-05-24T22:20:00Z,70.67,23.67,7.0,2.0,250,4,,6.21,29.379921,,,,,,,,,,,CAVOK,,,,,,,,VFR,,,,,,,,,,,,METAR,79.0
ENHE 242220Z 25042KT 7000 -SHRA SCT020 BKN035 07/03 Q1003 W///S6,ENHE,2023-05-24T22:20:00Z,65.33,2.33,7.0,3.0,250,42,,4.35,29.616142,,,,,,,,,,-SHRA,SCT,2000,BKN,3500,,,,,MVFR,,,,,,,,,,,,METAR,10.0
ENHD 242220Z AUTO 29014KT 7000 VV006 09/07 Q1024,ENHD,2023-05-24T22:20:00Z,59.35,5.22,9.0,7.0,290,14,,4.35,30.236221,,,TRUE,,,,,,,,OVX,0,,,,,,,LIFR,,,,,,,,,,,600,METAR,22.0
ENGM 242220Z 34005KT 290V040 CAVOK 11/M00 Q1016,ENGM,2023-05-24T22:20:00Z,60.2,11.07,11.0,0.0,340,5,,6.21,30.0,,,,,,,,,,,CAVOK,,,,,,,,VFR,,,,,,,,,,,,METAR,204.0
ENGC 242220Z 28031KT 9999 SCT030 09/04 Q1021 W08/S6,ENGC,2023-05-24T22:20:00Z,61.02,2.02,9.0,4.0,280,31,,6.21,30.147638,,,,,,,,,,,SCT,3000,,,,,,,VFR,,,,,,,,,,,,METAR,10.0
ENFL 242220Z AUTO 24016KT 9999NDV FEW024/// SCT048/// BKN072/// 08/05 Q1020,ENFL,2023-05-24T22:20:00Z,61.57,5.02,8.0,5.0,240,16,,,30.11811,,,TRUE,,,,,,,,FEW,2400,SCT,4800,BKN,7200,,,,,,,,,,,,,,,METAR,1.0
ENFB 242220Z AUTO 27032KT 9999NDV FEW027/// SCT059/// ///// Q//// W///S6,ENFB,2023-05-24T22:20:00Z,61.2,1.83,,,270,32,,,,,,TRUE,,,,,,,,FEW,2700,SCT,5900,,,,,,,,,,,,,,,,,METAR,10.0
ENEV 242220Z 19017KT 9999 -RA SCT034 BKN048 05/02 Q0999 RMK WIND 1400FT 21027KT,ENEV,2023-05-24T22:20:00Z,68.48,16.67,5.0,2.0,190,17,,6.21,29.498032,,,,,,,,,,-RA,SCT,3400,BKN,4800,,,,,VFR,,,-2.7,,,,,,,,,METAR,26.0
ENDU 242220Z 20010G20KT 160V250 9999 VCSH FEW035 SCT080 06/01 Q0997 RMK WIND 1100FT 20027KT WIND 2200FT 21029KT,ENDU,2023-05-24T22:20:00Z,69.05,18.55,6.0,1.0,200,10,20,6.21,29.438976,,,,,,,,,,VCSH,FEW,3500,SCT,8000,,,,,VFR,,,2.7,,,,,,,,,METAR,65.0
ENDR 242220Z AUTO 25041KT 9999NDV SCT022/// BKN130/// 07/04 Q1008 W///S6,ENDR,2023-05-24T22:20:00Z,64.35,7.77,7.0,4.0,250,41,,,29.763779,,,TRUE,,,,,,,,SCT,2200,BKN,13000,,,,,,,,,,,,,,,,,METAR,10.0
ENCN 242220Z AUTO 32008KT 270V360 9999 NCD 12/02 Q1020,ENCN,2023-05-24T22:20:00Z,58.2,8.07,12.0,2.0,320,8,,6.21,30.11811,,,TRUE,,,,,,,,CLR,,,,,,,,VFR,,,,,,,,,,,,METAR,17.0
ENBV 242220Z AUTO 11003KT 080V140 9999 -RA SCT034/// BKN070/// 05/03 Q0999,ENBV,2023-05-24T22:20:00Z,70.87,29.02,5.0,3.0,110,3,,6.21,29.498032,,,TRUE,,,,,,,-RA,SCT,3400,BKN,7000,,,,,VFR,,,,,,,,,,,,METAR,13.0
ENBS 242220Z AUTO 23015KT 9999 SCT031/// BKN068/// 07/03 Q0999,ENBS,2023-05-24T22:20:00Z,70.62,29.68,7.0,3.0,230,15,,6.21,29.498032,,,TRUE,,,,,,,,SCT,3100,BKN,6800,,,,,VFR,,,,,,,,,,,,METAR,144.0
ENBR 242220Z 25009KT 220V300 9999 FEW015 SCT023 OVC059 09/07 Q1023 RMK WIND 1200FT 27014KT,ENBR,2023-05-24T22:20:00Z,60.28,5.22,9.0,7.0,250,9,,6.21,30.206694,,,,,,,,,,,FEW,1500,SCT,2300,OVC,5900,,,VFR,,,,,,,,,,,,METAR,49.0
ENBO 242220Z 22023KT 9999 SHRA FEW033 SCT051 BKN100 07/03 Q1001,ENBO,2023-05-24T22:20:00Z,67.27,14.37,7.0,3.0,220,23,,6.21,29.557087,,,,,,,,,,SHRA,FEW,3300,SCT,5100,BKN,10000,,,VFR,,,,,,,,,,,,METAR,13.0
ENBN 242220Z AUTO 22019KT 9999NDV SCT070/// BKN110/// 07/03 Q1008,ENBN,2023-05-24T22:20:00Z,65.47,12.22,7.0,3.0,220,19,,,29.763779,,,TRUE,,,,,,,,SCT,7000,BKN,11000,,,,,,,,,,,,,,,,,METAR,3.0
ENBL 242220Z AUTO VRB02KT 9999 -RA 05/04 Q1020,ENBL,2023-05-24T22:20:00Z,61.4,5.77,5.0,4.0,0,2,,6.21,30.11811,,,TRUE,,,,,,,-RA,,,,,,,,,,,,,,,,,,,,,METAR,313.0
ENAT 242220Z 17009KT 140V200 CAVOK 09/00 Q0997 RMK WIND 700FT 19023KT,ENAT,2023-05-24T22:20:00Z,69.97,23.37,9.0,0.0,170,9,,6.21,29.438976,,,,,,,,,,,CAVOK,,,,,,,,VFR,,,,,,,,,,,,METAR,3.0
ENAN 242220Z AUTO 19018KT 9999 FEW023/// 05/02 Q0995,ENAN,2023-05-24T22:20:00Z,69.3,16.13,5.0,2.0,190,18,,6.21,29.379921,,,TRUE,,,,,,,,FEW,2300,,,,,,,VFR,,,,,,,,,,,,METAR,13.0
ENAL 242220Z AUTO 23022KT 9999 ///024/// 08/05 Q1017,ENAL,2023-05-24T22:20:00Z,62.57,6.12,8.0,5.0,230,22,,6.21,30.029528,,,TRUE,,,,,,,,,,,,,,,,,,,,,,,,,,,,METAR,21.0
ELLX 242220Z 04009KT CAVOK 08/05 Q1023 NOSIG,ELLX,2023-05-24T22:20:00Z,49.63,6.2,8.0,5.0,40,9,,6.21,30.206694,,,,,,TRUE,,,,,CAVOK,,,,,,,,VFR,,,,,,,,,,,,METAR,374.0
EKYT 242220Z AUTO 27009KT 9999 NCD 10/08 Q1020,EKYT,2023-05-24T22:20:00Z,57.1,9.87,10.0,8.0,270,9,,6.21,30.11811,,,TRUE,,,,,,,,CLR,,,,,,,,VFR,,,,,,,,,,,,METAR,2.0
EKVG 242220Z AUTO 27024G34KT 9999 -RA BKN025/// 07/03 Q1020 RMK OVC022/// WIND SKEID 28030G41KT,EKVG,2023-05-24T22:20:00Z,62.07,-7.27,7.0,3.0,270,24,34,6.21,30.11811,,,TRUE,,,,,,,-RA,BKN,2500,,,,,,,MVFR,,,,,,,,,,,,METAR,89.0
EKVD 242220Z AUTO 29004KT //// ///////// 09/07 Q1023,EKVD,2023-05-24T22:20:00Z,55.43,9.32,9.0,7.0,290,4,,,30.206694,,,TRUE,,,,,,,,,,,,,,,,,,,,,,,,,,,,METAR,41.0
EKSP 242220Z 31006KT 9999 FEW040 09/07 Q1023,EKSP,2023-05-24T22:20:00Z,55.22,9.27,9.0,7.0,310,6,,6.21,30.206694,,,,,,,,,,,FEW,4000,,,,,,,VFR,,,,,,,,,,,,METAR,40.0
EKSB 242220Z AUTO 30009KT 9999 FEW050/// 12/09 Q1023,EKSB,2023-05-24T22:20:00Z,54.97,9.8,12.0,9.0,300,9,,6.21,30.206694,,,TRUE,,,,,,,,FEW,5000,,,,,,,VFR,,,,,,,,,,,,METAR,23.0
EKRS 242220Z AUTO 30004KT 9999 SCT033/// BKN040/// 13/13 Q1021,EKRS,2023-05-24T22:20:00Z,55.42,11.8,13.0,13.0,300,4,,6.21,30.147638,,,TRUE,,,,,,,,SCT,3300,BKN,4000,,,,,VFR,,,,,,,,,,,,METAR,34.0
EKRN 242220Z AUTO 30005KT 9999 NCD 12/10 Q1021,EKRN,2023-05-24T22:20:00Z,55.07,14.75,12.0,10.0,300,5,,6.21,30.147638,,,TRUE,,,,,,,,CLR,,,,,,,,VFR,,,,,,,,,,,,METAR,14.0
EKRK 242220Z AUTO 27005KT 9999 FEW033/// 11/10 Q1021,EKRK,2023-05-24T22:20:00Z,55.58,12.13,11.0,10.0,270,5,,6.21,30.147638,,,TRUE,,,,,,,,FEW,3300,,,,,,,VFR,,,,,,,,,,,,METAR,40.0
EKKA 242220Z AUTO 27010KT 9999 FEW250/// 09/07 Q1022,EKKA,2023-05-24T22:20:00Z,56.3,9.12,9.0,7.0,270,10,,6.21,30.177166,,,TRUE,,,,,,,,FEW,25000,,,,,,,VFR,,,,,,,,,,,,METAR,50.0
EKEB 242220Z AUTO 32008KT 9999 BKN012/// 10/09 Q1024,EKEB,2023-05-24T22:20:00Z,55.52,8.55,10.0,9.0,320,8,,6.21,30.236221,,,TRUE,,,,,,,,BKN,1200,,,,,,,MVFR,,,,,,,,,,,,METAR,29.0
EKCH 242220Z AUTO 25006KT 9999 SCT031/// 13/11 Q1021 NOSIG,EKCH,2023-05-24T22:20:00Z,55.62,12.67,13.0,11.0,250,6,,6.21,30.147638,,,TRUE,,,TRUE,,,,,SCT,3100,,,,,,,VFR,,,,,,,,,,,,METAR,4.0
EKBI 242220Z AUTO 30009KT 9999 BKN012/// 09/07 Q1023,EKBI,2023-05-24T22:20:00Z,55.73,9.15,9.0,7.0,300,9,,6.21,30.206694,,,TRUE,,,,,,,,BKN,1200,,,,,,,MVFR,,,,,,,,,,,,METAR,67.0
EKAH 242220Z AUTO 26009KT 9999 NCD 10/08 Q1022,EKAH,2023-05-24T22:20:00Z,56.28,10.62,10.0,8.0,260,9,,6.21,30.177166,,,TRUE,,,,,,,,CLR,,,,,,,,VFR,,,,,,,,,,,,METAR,25.0
EGXW 242220Z 13001KT 9999 SCT040 13/09 Q1027 RMK BLU,EGXW,2023-05-24T22:20:00Z,53.18,-0.52,13.0,9.0,130,1,,6.21,30.324802,,,,,,,,,,,SCT,4000,,,,,,,VFR,,,,,,,,,,,,METAR,70.0
EGWU 242220Z 10004KT CAVOK 14/10 Q1026 NOSIG RMK BLU BLU,EGWU,2023-05-24T22:20:00Z,51.55,-0.42,14.0,10.0,100,4,,6.21,30.295275,,,,,,TRUE,,,,,CAVOK,,,,,,,,VFR,,,,,,,,,,,,METAR,33.0
EGTE 242220Z 32006KT CAVOK 12/09 Q1027,EGTE,2023-05-24T22:20:00Z,50.73,-3.42,12.0,9.0,320,6,,6.21,30.324802,,,,,,,,,,,CAVOK,,,,,,,,VFR,,,,,,,,,,,,METAR,30.0
EGSY 242220Z AUTO VRB02KT 9999 NCD 12/09 Q1027,EGSY,2023-05-24T22:20:00Z,51.4,-3.43,12.0,9.0,0,2,,6.21,30.324802,,,TRUE,,,,,,,,CLR,,,,,,,,VFR,,,,,,,,,,,,METAR,46.0
EGSS 242220Z AUTO 12005KT 9999 NCD 12/09 Q1027,EGSS,2023-05-24T22:20:00Z,51.88,0.22,12.0,9.0,120,5,,6.21,30.324802,,,TRUE,,,,,,,,CLR,,,,,,,,VFR,,,,,,,,,,,,METAR,101.0
EGSH 242220Z AUTO 00000KT 9999 NCD 11/09 Q1027,EGSH,2023-05-24T22:20:00Z,52.68,1.28,11.0,9.0,0,0,,6.21,30.324802,,,TRUE,,,,,,,,CLR,,,,,,,,VFR,,,,,,,,,,,,METAR,21.0
EGPU 242220Z AUTO 30004KT 9999 NCD 08/06 Q1031,EGPU,2023-05-24T22:20:00Z,56.5,-6.88,8.0,6.0,300,4,,6.21,30.442913,,,TRUE,,,,,,,,CLR,,,,,,,,VFR,,,,,,,,,,,,METAR,12.0
EGPO 242220Z 26007KT 230V300 9999 BKN027 10/05 Q1029,EGPO,2023-05-24T22:20:00Z,58.22,-6.32,10.0,5.0,260,7,,6.21,30.383858,,,,,,,,,,,BKN,2700,,,,,,,MVFR,,,,,,,,,,,,METAR,10.0
EGPL 242220Z AUTO 27009KT 9999 BKN007/// 11/05 Q1030,EGPL,2023-05-24T22:20:00Z,57.47,-7.37,11.0,5.0,270,9,,6.21,30.413385,,,TRUE,,,,,,,,BKN,700,,,,,,,IFR,,,,,,,,,,,,METAR,3.0
EGPK 242220Z 31009KT 9999 FEW028 10/07 Q1029,EGPK,2023-05-24T22:20:00Z,55.5,-4.58,10.0,7.0,310,9,,6.21,30.383858,,,,,,,,,,,FEW,2800,,,,,,,VFR,,,,,,,,,,,,METAR,14.0
EGPI 242220Z AUTO 03003KT 350V080 9000 NCD 07/06 Q1031,EGPI,2023-05-24T22:20:00Z,55.68,-6.25,7.0,6.0,30,3,,5.59,30.442913,,,TRUE,,,,,,,,CLR,,,,,,,,VFR,,,,,,,,,,,,METAR,17.0
EGPH 242220Z 26005KT CAVOK 10/07 Q1028,EGPH,2023-05-24T22:20:00Z,55.95,-3.35,10.0,7.0,260,5,,6.21,30.35433,,,,,,,,,,,CAVOK,,,,,,,,VFR,,,,,,,,,,,,METAR,29.0
EGPF 242220Z AUTO 21008KT 9999 NCD 07/05 Q1029,EGPF,2023-05-24T22:20:00Z,55.87,-4.42,7.0,5.0,210,8,,6.21,30.383858,,,TRUE,,,,,,,,CLR,,,,,,,,VFR,,,,,,,,,,,,METAR,8.0
EGPE 242220Z 22004KT 9999 FEW030 09/05 Q1030,EGPE,2023-05-24T22:20:00Z,57.53,-4.05,9.0,5.0,220,4,,6.21,30.413385,,,,,,,,,,,FEW,3000,,,,,,,VFR,,,,,,,,,,,,METAR,7.0
EGPC 242220Z AUTO 27009KT 9999 BKN032/// 09/04 Q1028,EGPC,2023-05-24T22:20:00Z,58.45,-3.08,9.0,4.0,270,9,,6.21,30.35433,,,TRUE,,,,,,,,BKN,3200,,,,,,,VFR,,,,,,,,,,,,METAR,38.0
EGPB 242220Z AUTO 29018KT 9999 BKN045/// 10/03 Q1025,EGPB,2023-05-24T22:20:00Z,59.87,-1.3,10.0,3.0,290,18,,6.21,30.265747,,,TRUE,,,,,,,,BKN,4500,,,,,,,VFR,,,,,,,,,,,,METAR,2.0
EGPA 242220Z AUTO 27010KT 9999 OVC036/// 09/04 Q1027,EGPA,2023-05-24T22:20:00Z,58.95,-2.9,9.0,4.0,270,10,,6.21,30.324802,,,TRUE,,,,,,,,OVC,3600,,,,,,,VFR,,,,,,,,,,,,METAR,15.0
EGNX 242220Z 30006KT CAVOK 12/09 Q1028,EGNX,2023-05-24T22:20:00Z,52.82,-1.32,12.0,9.0,300,6,,6.21,30.35433,,,,,,,,,,,CAVOK,,,,,,,,VFR,,,,,,,,,,,,METAR,91.0
EGNT 242220Z 16001KT 9999 SCT045 12/07 Q1028,EGNT,2023-05-24T22:20:00Z,55.03,-1.7,12.0,7.0,160,1,,6.21,30.35433,,,,,,,,,,,SCT,4500,,,,,,,VFR,,,,,,,,,,,,METAR,77.0
EGNM 242220Z VRB01KT 9999 BKN027 13/09 Q1028,EGNM,2023-05-24T22:20:00Z,53.87,-1.65,13.0,9.0,0,1,,6.21,30.35433,,,,,,,,,,,BKN,2700,,,,,,,MVFR,,,,,,,,,,,,METAR,221.0
EGNJ 242220Z AUTO 00000KT 9999 BKN034/// OVC041/// 14/11 Q1028,EGNJ,2023-05-24T22:20:00Z,53.57,-0.35,14.0,11.0,0,0,,6.21,30.35433,,,TRUE,,,,,,,,BKN,3400,OVC,4100,,,,,VFR,,,,,,,,,,,,METAR,23.0
EGMD 242220Z AUTO 03007KT 6000 NCD 10/09 Q1026,EGMD,2023-05-24T22:20:00Z,50.95,0.93,10.0,9.0,30,7,,3.73,30.295275,,,TRUE,,,,,,,,CLR,,,,,,,,MVFR,,,,,,,,,,,,METAR,4.0
EGLL 242220Z AUTO 11006KT 9999 NCD 13/10 Q1026 NOSIG,EGLL,2023-05-24T22:20:00Z,51.48,-0.45,13.0,10.0,110,6,,6.21,30.295275,,,TRUE,,,TRUE,,,,,CLR,,,,,,,,VFR,,,,,,,,,,,,METAR,26.0
EGLF 242220Z AUTO 07006KT 9999 NCD 13/09 Q1026,EGLF,2023-05-24T22:20:00Z,51.28,-0.77,13.0,9.0,70,6,,6.21,30.295275,,,TRUE,,,,,,,,CLR,,,,,,,,VFR,,,,,,,,,,,,METAR,65.0
EGLC 242220Z AUTO 07005KT 9999 NCD 13/09 Q1027,EGLC,2023-05-24T22:20:00Z,51.5,0.05,13.0,9.0,70,5,,6.21,30.324802,,,TRUE,,,,,,,,CLR,,,,,,,,VFR,,,,,,,,,,,,METAR,10.0
EGJJ 242220Z AUTO 02007KT 9999 NCD 12/08 Q1025,EGJJ,2023-05-24T22:20:00Z,49.22,-2.2,12.0,8.0,20,7,,6.21,30.265747,,,TRUE,,,,,,,,CLR,,,,,,,,VFR,,,,,,,,,,,,METAR,84.0
EGHQ 242220Z AUTO 03008KT 9999 NCD 11/10 Q1027,EGHQ,2023-05-24T22:20:00Z,50.43,-5.0,11.0,10.0,30,8,,6.21,30.324802,,,TRUE,,,,,,,,CLR,,,,,,,,VFR,,,,,,,,,,,,METAR,101.0
EGGW 242220Z AUTO 10003KT 9999 NCD 12/09 Q1027,EGGW,2023-05-24T22:20:00Z,51.87,-0.37,12.0,9.0,100,3,,6.21,30.324802,,,TRUE,,,,,,,,CLR,,,,,,,,VFR,,,,,,,,,,,,METAR,159.0
EGGP 242220Z 32008KT 9999 SCT035 13/09 Q1029,EGGP,2023-05-24T22:20:00Z,53.33,-2.85,13.0,9.0,320,8,,6.21,30.383858,,,,,,,,,,,SCT,3500,,,,,,,VFR,,,,,,,,,,,,METAR,23.0
EGGD 242220Z AUTO 36011KT 9999 NCD 12/08 Q1027,EGGD,2023-05-24T22:20:00Z,51.37,-2.72,12.0,8.0,360,11,,6.21,30.324802,,,TRUE,,,,,,,,CLR,,,,,,,,VFR,,,,,,,,,,,,METAR,182.0
EGFF 242220Z AUTO 05007KT 010V080 9999 NCD 14/09 Q1027,EGFF,2023-05-24T22:20:00Z,51.38,-3.35,14.0,9.0,50,7,,6.21,30.324802,,,TRUE,,,,,,,,CLR,,,,,,,,VFR,,,,,,,,,,,,METAR,65.0
EGCK 242220Z AUTO 04005KT 9999 OVC029/// 12/09 Q1030,EGCK,2023-05-24T22:20:00Z,53.1,-4.33,12.0,9.0,40,5,,6.21,30.413385,,,TRUE,,,,,,,,OVC,2900,,,,,,,MVFR,,,,,,,,,,,,METAR,6.0
EGCC 242220Z AUTO 29004KT 9999 OVC034 13/10 Q1028,EGCC,2023-05-24T22:20:00Z,53.35,-2.27,13.0,10.0,290,4,,6.21,30.35433,,,TRUE,,,,,,,,OVC,3400,,,,,,,VFR,,,,,,,,,,,,METAR,78.0
EGBB 242220Z 33007KT CAVOK 12/09 Q1028,EGBB,2023-05-24T22:20:00Z,52.47,-1.75,12.0,9.0,330,7,,6.21,30.35433,,,,,,,,,,,CAVOK,,,,,,,,VFR,,,,,,,,,,,,METAR,91.0
EGAC 242220Z AUTO 35006KT 320V030 9999 NCD 11/08 Q1031,EGAC,2023-05-24T22:20:00Z,54.62,-5.87,11.0,8.0,350,6,,6.21,30.442913,,,TRUE,,,,,,,,CLR,,,,,,,,VFR,,,,,,,,,,,,METAR,2.0
EGAA 242220Z AUTO 34006KT 9999 NCD 10/08 Q1031,EGAA,2023-05-24T22:20:00Z,54.65,-6.22,10.0,8.0,340,6,,6.21,30.442913,,,TRUE,,,,,,,,CLR,,,,,,,,VFR,,,,,,,,,,,,METAR,65.0
EFVA 242220Z AUTO 18008KT 9999 SHRA //////CB 11/09 Q1009,EFVA,2023-05-24T22:20:00Z,63.05,21.77,11.0,9.0,180,8,,6.21,29.793306,,,TRUE,,,,,,,SHRA,,,,,,,,,,,,,,,,,,,,,METAR,4.0
EFUT 242220Z AUTO 19008KT CAVOK 12/08 Q1014,EFUT,2023-05-24T22:20:00Z,60.88,26.93,12.0,8.0,190,8,,6.21,29.940945,,,TRUE,,,,,,,,CAVOK,,,,,,,,VFR,,,,,,,,,,,,METAR,104.0
EFTU 242220Z AUTO 21008KT CAVOK 14/08 Q1013,EFTU,2023-05-24T22:20:00Z,60.52,22.27,14.0,8.0,210,8,,6.21,29.911417,,,TRUE,,,,,,,,CAVOK,,,,,,,,VFR,,,,,,,,,,,,METAR,47.0
EFTP 242220Z AUTO 20007KT 170V230 CAVOK 15/06 Q1012,EFTP,2023-05-24T22:20:00Z,61.42,23.62,15.0,6.0,200,7,,6.21,29.88189,,,TRUE,,,,,,,,CAVOK,,,,,,,,VFR,,,,,,,,,,,,METAR,111.0
EFSI 242220Z AUTO 28004KT 240V300 CAVOK 14/07 Q1010,EFSI,2023-05-24T22:20:00Z,62.7,22.83,14.0,7.0,280,4,,6.21,29.822834,,,TRUE,,,,,,,,CAVOK,,,,,,,,VFR,,,,,,,,,,,,METAR,90.0
EFSA 242220Z AUTO 19006KT CAVOK 15/06 Q1013,EFSA,2023-05-24T22:20:00Z,61.95,28.93,15.0,6.0,190,6,,6.21,29.911417,,,TRUE,,,,,,,,CAVOK,,,,,,,,VFR,,,,,,,,,,,,METAR,90.0
EFRO 242220Z AUTO 21012KT 9999 BKN010 09/07 Q1007,EFRO,2023-05-24T22:20:00Z,66.57,25.82,9.0,7.0,210,12,,6.21,29.734253,,,TRUE,,,,,,,,BKN,1000,,,,,,,MVFR,,,,,,,,,,,,METAR,201.0
EFPO 242220Z AUTO 23007KT 180V280 9999 VCSH //////CB 16/06 Q1011,EFPO,2023-05-24T22:20:00Z,61.47,21.8,16.0,6.0,230,7,,6.21,29.852362,,,TRUE,,,,,,,VCSH,,,,,,,,,,,,,,,,,,,,,METAR,10.0
EFOU 242220Z AUTO 17005KT 140V200 9999 -SHRA //////CB 11/10 Q1008,EFOU,2023-05-24T22:20:00Z,64.92,25.37,11.0,10.0,170,5,,6.21,29.763779,,,TRUE,,,,,,,-SHRA,,,,,,,,,,,,,,,,,,,,,METAR,15.0
EFMI 242220Z AUTO VRB02KT CAVOK 14/07 Q1013,EFMI,2023-05-24T22:20:00Z,61.68,27.2,14.0,7.0,0,2,,6.21,29.911417,,,TRUE,,,,,,,,CAVOK,,,,,,,,VFR,,,,,,,,,,,,METAR,99.0
EFMA 242220Z AUTO 20009KT CAVOK 13/09 Q1013,EFMA,2023-05-24T22:20:00Z,60.12,19.9,13.0,9.0,200,9,,6.21,29.911417,,,TRUE,,,,,,,,CAVOK,,,,,,,,VFR,,,,,,,,,,,,METAR,6.0
EFLP 242220Z AUTO 20004KT CAVOK 12/06 Q1014,EFLP,2023-05-24T22:20:00Z,61.03,28.15,12.0,6.0,200,4,,6.21,29.940945,,,TRUE,,,,,,,,CAVOK,,,,,,,,VFR,,,,,,,,,,,,METAR,102.0
EFKU 242220Z AUTO 18010KT CAVOK 15/06 Q1011,EFKU,2023-05-24T22:20:00Z,63.02,27.8,15.0,6.0,180,10,,6.21,29.852362,,,TRUE,,,,,,,,CAVOK,,,,,,,,VFR,,,,,,,,,,,,METAR,92.0
EFKT 242220Z AUTO 20010KT 160V220 CAVOK 09/05 Q1003,EFKT,2023-05-24T22:20:00Z,67.7,24.85,9.0,5.0,200,10,,6.21,29.616142,,,TRUE,,,,,,,,CAVOK,,,,,,,,VFR,,,,,,,,,,,,METAR,190.0
EFKS 242220Z AUTO 18004KT CAVOK 10/08 Q1009,EFKS,2023-05-24T22:20:00Z,66.0,29.23,10.0,8.0,180,4,,6.21,29.793306,,,TRUE,,,,,,,,CAVOK,,,,,,,,VFR,,,,,,,,,,,,METAR,270.0
EFKK 242220Z AUTO 17004KT 9999 -RA BKN044 10/09 Q1009,EFKK,2023-05-24T22:20:00Z,63.72,23.13,10.0,9.0,170,4,,6.21,29.793306,,,TRUE,,,,,,,-RA,BKN,4400,,,,,,,VFR,,,,,,,,,,,,METAR,25.0
EFKI 242220Z AUTO VRB01KT CAVOK 10/09 Q1010,EFKI,2023-05-24T22:20:00Z,64.27,27.67,10.0,9.0,0,1,,6.21,29.822834,,,TRUE,,,,,,,,CAVOK,,,,,,,,VFR,,,,,,,,,,,,METAR,132.0
EFKE 242220Z AUTO 16004KT 130V190 9999 -SHRA SCT007 BKN021 //////CB 08/08 Q1008,EFKE,2023-05-24T22:20:00Z,65.78,24.57,8.0,8.0,160,4,,6.21,29.763779,,,TRUE,,,,,,,-SHRA,SCT,700,BKN,2100,,,,,MVFR,,,,,,,,,,,,METAR,15.0
EFJY 242220Z AUTO 18005KT CAVOK 12/07 Q1011,EFJY,2023-05-24T22:20:00Z,62.4,25.68,12.0,7.0,180,5,,6.21,29.852362,,,TRUE,,,,,,,,CAVOK,,,,,,,,VFR,,,,,,,,,,,,METAR,139.0
EFJO 242220Z AUTO 16005KT CAVOK 13/10 Q1013,EFJO,2023-05-24T22:20:00Z,62.67,29.62,13.0,10.0,160,5,,6.21,29.911417,,,TRUE,,,,,,,,CAVOK,,,,,,,,VFR,,,,,,,,,,,,METAR,118.0
EFIV 242220Z AUTO 21013KT 9999 FEW037 10/04 Q1002,EFIV,2023-05-24T22:20:00Z,68.62,27.42,10.0,4.0,210,13,,6.21,29.586615,,,TRUE,,,,,,,,FEW,3700,,,,,,,VFR,,,,,,,,,,,,METAR,145.0
EFHK 242220Z 21007KT CAVOK 14/08 Q1014 NOSIG,EFHK,2023-05-24T22:20:00Z,60.32,24.97,14.0,8.0,210,7,,6.21,29.940945,,,,,,TRUE,,,,,CAVOK,,,,,,,,VFR,,,,,,,,,,,,METAR,56.0
EFHA 242220Z AUTO 20006KT CAVOK 15/06 Q1012,EFHA,2023-05-24T22:20:00Z,61.85,24.8,15.0,6.0,200,6,,6.21,29.88189,,,TRUE,,,,,,,,CAVOK,,,,,,,,VFR,,,,,,,,,,,,METAR,144.0
EFET 242220Z AUTO 21011KT CAVOK 07/02 Q1000,EFET,2023-05-24T22:20:00Z,68.37,23.43,7.0,2.0,210,11,,6.21,29.52756,,,TRUE,,,,,,,,CAVOK,,,,,,,,VFR,,,,,,,,,,,,METAR,300.0
EETU 242220Z AUTO 09003KT 9999 NCD 12/08 Q1017,EETU,2023-05-24T22:20:00Z,58.32,26.68,12.0,8.0,90,3,,6.21,30.029528,,,TRUE,,,,,,,,CLR,,,,,,,,VFR,,,,,,,,,,,,METAR,67.0
EETN 242220Z 25004KT CAVOK 14/08 Q1016,EETN,2023-05-24T22:20:00Z,59.4,24.82,14.0,8.0,250,4,,6.21,30.0,,,,,,,,,,,CAVOK,,,,,,,,VFR,,,,,,,,,,,,METAR,41.0
EEPU 242220Z AUTO 00000KT 9999 NCD 11/09 Q1016,EEPU,2023-05-24T22:20:00Z,58.42,24.47,11.0,9.0,0,0,,6.21,30.0,,,TRUE,,,,,,,,CLR,,,,,,,,VFR,,,,,,,,,,,,METAR,13.0
EEKE 242220Z AUTO 27004KT 9999NDV NCD 13/11 Q1017,EEKE,2023-05-24T22:20:00Z,58.23,22.52,13.0,11.0,270,4,,,30.029528,,,TRUE,,,,,,,,CLR,,,,,,,,,,,,,,,,,,,,METAR,4.0
EDXW 242220Z AUTO 34010KT 9999 // SCT010/// 10/08 Q1024,EDXW,2023-05-24T22:20:00Z,54.92,8.33,10.0,8.0,340,10,,6.21,30.236221,,,TRUE,,,,,,,,SCT,1000,,,,,,,VFR,,,,,,,,,,,,METAR,8.0
EDWE 242220Z AUTO 33003KT 9999 // FEW013/// 09/08 Q1025,EDWE,2023-05-24T22:20:00Z,53.38,7.23,9.0,8.0,330,3,,6.21,30.265747,,,TRUE,,,,,,,,FEW,1300,,,,,,,VFR,,,,,,,,,,,,METAR,0.0
EDVK 242220Z AUTO 27003KT 9999 // NCD 07/06 Q1024,EDVK,2023-05-24T22:20:00Z,51.4,9.37,7.0,6.0,270,3,,6.21,30.236221,,,TRUE,,,,,,,,CLR,,,,,,,,VFR,,,,,,,,,,,,METAR,277.0
EDVE 242220Z AUTO 30003KT 9999 BKN056/// 10/09 Q1024,EDVE,2023-05-24T22:20:00Z,52.32,10.55,10.0,9.0,300,3,,6.21,30.236221,,,TRUE,,,,,,,,BKN,5600,,,,,,,VFR,,,,,,,,,,,,METAR,83.0
EDTY 242220Z AUTO 05005KT 9999 // FEW250/// 08/04 Q1021,EDTY,2023-05-24T22:20:00Z,49.12,9.78,8.0,4.0,50,5,,6.21,30.147638,,,TRUE,,,,,,,,FEW,25000,,,,,,,VFR,,,,,,,,,,,,SPECI,398.0
EDTL 242220Z AUTO 01007KT 9999 // SCT072/// BKN096/// 12/04 Q1020,EDTL,2023-05-24T22:20:00Z,48.37,7.83,12.0,4.0,10,7,,6.21,30.11811,,,TRUE,,,,,,,,SCT,7200,BKN,9600,,,,,VFR,,,,,,,,,,,,METAR,152.0
EDSB 242220Z AUTO 04006KT 9999 BKN100/// 11/05 Q1020,EDSB,2023-05-24T22:20:00Z,48.78,8.08,11.0,5.0,40,6,,6.21,30.11811,,,TRUE,,,,,,,,BKN,10000,,,,,,,VFR,,,,,,,,,,,,METAR,122.0
EDQM 242220Z AUTO VRB03KT 9999 // NCD 06/03 Q1023,EDQM,2023-05-24T22:20:00Z,50.3,11.85,6.0,3.0,0,3,,6.21,30.206694,,,TRUE,,,,,,,,CLR,,,,,,,,VFR,,,,,,,,,,,,SPECI,578.0
EDNY 242220Z AUTO 04005KT 010V070 9999 BKN037/// OVC043/// 11/06 Q1019,EDNY,2023-05-24T22:20:00Z,47.67,9.52,11.0,6.0,40,5,,6.21,30.088583,,,TRUE,,,,,,,,BKN,3700,OVC,4300,,,,,VFR,,,,,,,,,,,,METAR,411.0
EDMO 242220Z AUTO 03006KT 9999 // SCT085/// OVC140/// 10/06 Q1020,EDMO,2023-05-24T22:20:00Z,48.07,11.27,10.0,6.0,30,6,,6.21,30.11811,,,TRUE,,,,,,,,SCT,8500,OVC,14000,,,,,VFR,,,,,,,,,,,,SPECI,587.0
EDMA 242220Z AUTO 05009KT 9999 // SCT044/// BKN070/// OVC140/// 11/04 Q1020,EDMA,2023-05-24T22:20:00Z,48.42,10.92,11.0,4.0,50,9,,6.21,30.11811,,,TRUE,,,,,,,,SCT,4400,BKN,7000,OVC,14000,,,VFR,,,,,,,,,,,,SPECI,462.0
EDLV 242220Z AUTO VRB02KT 9999 // NCD 11/07 Q1025,EDLV,2023-05-24T22:20:00Z,51.6,6.15,11.0,7.0,0,2,,6.21,30.265747,,,TRUE,,,,,,,,CLR,,,,,,,,VFR,,,,,,,,,,,,METAR,27.0
EDLP 242220Z 16004KT 9999 FEW022 06/06 Q1025,EDLP,2023-05-24T22:20:00Z,51.62,8.62,6.0,6.0,160,4,,6.21,30.265747,,,,,,,,,,,FEW,2200,,,,,,,VFR,,,,,,,,,,,,METAR,211.0
EDLN 242220Z AUTO 35003KT 9999 // NCD 10/07 Q1024,EDLN,2023-05-24T22:20:00Z,51.23,6.5,10.0,7.0,350,3,,6.21,30.236221,,,TRUE,,,,,,,,CLR,,,,,,,,VFR,,,,,,,,,,,,SPECI,38.0
EDJA 242220Z AUTO 05006KT 9999 // OVC047/// 09/06 Q1020,EDJA,2023-05-24T22:20:00Z,47.98,10.23,9.0,6.0,50,6,,6.21,30.11811,,,TRUE,,,,,,,,OVC,4700,,,,,,,VFR,,,,,,,,,,,,METAR,625.0
EDHL 242220Z AUTO 28006KT 240V310 9999 // NCD 10/09 Q1024,EDHL,2023-05-24T22:20:00Z,53.8,10.72,10.0,9.0,280,6,,6.21,30.236221,,,TRUE,,,,,,,,CLR,,,,,,,,VFR,,,,,,,,,,,,METAR,13.0
EDHK 242220Z AUTO 28008KT 9999 // BKN043/// 11/09 Q1023,EDHK,2023-05-24T22:20:00Z,54.38,10.15,11.0,9.0,280,8,,6.21,30.206694,,,TRUE,,,,,,,,BKN,4300,,,,,,,VFR,,,,,,,,,,,,METAR,24.0
EDHI 242220Z AUTO 29011KT 9999 // OVC009/// 10/09 Q1025,EDHI,2023-05-24T22:20:00Z,53.53,9.83,10.0,9.0,290,11,,6.21,30.265747,,,TRUE,,,,,,,,OVC,900,,,,,,,IFR,,,,,,,,,,,,METAR,5.0
EDGS 242220Z AUTO 04004KT 9999 // NCD 07/05 Q1024,EDGS,2023-05-24T22:20:00Z,50.7,8.08,7.0,5.0,40,4,,6.21,30.236221,,,TRUE,,,,,,,,CLR,,,,,,,,VFR,,,,,,,,,,,,METAR,595.0
EDFM 242220Z 01005KT CAVOK 12/04 Q1022,EDFM,2023-05-24T22:20:00Z,49.47,8.52,12.0,4.0,10,5,,6.21,30.177166,,,,,,,,,,,CAVOK,,,,,,,,VFR,,,,,,,,,,,,METAR,94.0
EDFH 242220Z 03004KT 360V070 CAVOK 06/04 Q1023,EDFH,2023-05-24T22:20:00Z,49.95,7.27,6.0,4.0,30,4,,6.21,30.206694,,,,,,,,,,,CAVOK,,,,,,,,VFR,,,,,,,,,,,,METAR,494.0
EDDW 242220Z AUTO 34006KT 310V030 9999 OVC015 11/07 Q1025,EDDW,2023-05-24T22:20:00Z,53.03,8.8,11.0,7.0,340,6,,6.21,30.265747,,,TRUE,,,,,,,,OVC,1500,,,,,,,MVFR,,,,,,,,,,,,METAR,5.0
EDDV 242220Z AUTO 28003KT CAVOK 09/08 Q1025,EDDV,2023-05-24T22:20:00Z,52.47,9.68,9.0,8.0,280,3,,6.21,30.265747,,,TRUE,,,,,,,,CAVOK,,,,,,,,VFR,,,,,,,,,,,,METAR,53.0
EDDS 242220Z AUTO 34004KT CAVOK 11/02 Q1020,EDDS,2023-05-24T22:20:00Z,48.68,9.22,11.0,2.0,340,4,,6.21,30.11811,,,TRUE,,,,,,,,CAVOK,,,,,,,,VFR,,,,,,,,,,,,METAR,374.0
EDDR 242220Z AUTO 02008KT CAVOK 10/04 Q1022,EDDR,2023-05-24T22:20:00Z,49.22,7.1,10.0,4.0,20,8,,6.21,30.177166,,,TRUE,,,,,,,,CAVOK,,,,,,,,VFR,,,,,,,,,,,,METAR,317.0
EDDP 242220Z AUTO 33003KT CAVOK 08/06 Q1024 NOSIG,EDDP,2023-05-24T22:20:00Z,51.43,12.23,8.0,6.0,330,3,,6.21,30.236221,,,TRUE,,,TRUE,,,,,CAVOK,,,,,,,,VFR,,,,,,,,,,,,METAR,129.0
EDDN 242220Z AUTO 02005KT CAVOK 10/03 Q1022,EDDN,2023-05-24T22:20:00Z,49.5,11.05,10.0,3.0,20,5,,6.21,30.177166,,,TRUE,,,,,,,,CAVOK,,,,,,,,VFR,,,,,,,,,,,,METAR,312.0
EDDM 242220Z AUTO 03003KT CAVOK 11/06 Q1020 NOSIG,EDDM,2023-05-24T22:20:00Z,48.35,11.82,11.0,6.0,30,3,,6.21,30.11811,,,TRUE,,,TRUE,,,,,CAVOK,,,,,,,,VFR,,,,,,,,,,,,METAR,445.0
EDDL 242220Z AUTO 36003KT 9999 FEW037 09/08 Q1025 NOSIG,EDDL,2023-05-24T22:20:00Z,51.3,6.77,9.0,8.0,360,3,,6.21,30.265747,,,TRUE,,,TRUE,,,,,FEW,3700,,,,,,,VFR,,,,,,,,,,,,METAR,37.0
EDDK 242220Z AUTO 15002KT CAVOK 07/06 Q1024 NOSIG,EDDK,2023-05-24T22:20:00Z,50.87,7.15,7.0,6.0,150,2,,6.21,30.236221,,,TRUE,,,TRUE,,,,,CAVOK,,,,,,,,VFR,,,,,,,,,,,,METAR,92.0
EDDH 242220Z AUTO 30009KT 270V330 9999 OVC008 10/08 Q1024 NOSIG,EDDH,2023-05-24T22:20:00Z,53.63,10.0,10.0,8.0,300,9,,6.21,30.236221,,,TRUE,,,TRUE,,,,,OVC,800,,,,,,,IFR,,,,,,,,,,,,METAR,8.0
EDDG 242220Z AUTO VRB01KT CAVOK 09/07 Q1025 NOSIG,EDDG,2023-05-24T22:20:00Z,52.13,7.7,9.0,7.0,0,1,,6.21,30.265747,,,TRUE,,,TRUE,,,,,CAVOK,,,,,,,,VFR,,,,,,,,,,,,METAR,46.0
EDDF 242220Z AUTO 02011KT CAVOK 11/05 Q1023 NOSIG,EDDF,2023-05-24T22:20:00Z,50.05,8.6,11.0,5.0,20,11,,6.21,30.206694,,,TRUE,,,TRUE,,,,,CAVOK,,,,,,,,VFR,,,,,,,,,,,,METAR,113.0
EDDE 242220Z AUTO 07002KT CAVOK 09/05 Q1024,EDDE,2023-05-24T22:20:00Z,50.98,10.97,9.0,5.0,70,2,,6.21,30.236221,,,TRUE,,,,,,,,CAVOK,,,,,,,,VFR,,,,,,,,,,,,METAR,314.0
EDDC 242220Z AUTO 17002KT CAVOK 10/06 Q1023,EDDC,2023-05-24T22:20:00Z,51.13,13.75,10.0,6.0,170,2,,6.21,30.206694,,,TRUE,,,,,,,,CAVOK,,,,,,,,VFR,,,,,,,,,,,,METAR,227.0
EDDB 242220Z AUTO 26003KT CAVOK 09/06 Q1023 NOSIG,EDDB,2023-05-24T22:20:00Z,52.38,13.53,9.0,6.0,260,3,,6.21,30.206694,,,TRUE,,,TRUE,,,,,CAVOK,,,,,,,,VFR,,,,,,,,,,,,METAR,48.0
EDBC 242220Z AUTO 25006KT 9999 // FEW024/// 08/06 Q1024,EDBC,2023-05-24T22:20:00Z,51.85,11.42,8.0,6.0,250,6,,6.21,30.236221,,,TRUE,,,,,,,,FEW,2400,,,,,,,VFR,,,,,,,,,,,,METAR,178.0
EDAH 242220Z AUTO 29003KT 9999 // FEW041/// 11/10 Q1022,EDAH,2023-05-24T22:20:00Z,53.87,14.15,11.0,10.0,290,3,,6.21,30.177166,,,TRUE,,,,,,,,FEW,4100,,,,,,,VFR,,,,,,,,,,,,METAR,22.0
EDAC 242220Z AUTO 14002KT 9999 // NCD 05/04 Q1023,EDAC,2023-05-24T22:20:00Z,50.98,12.5,5.0,4.0,140,2,,6.21,30.206694,,,TRUE,,,,,,,,CLR,,,,,,,,VFR,,,,,,,,,,,,METAR,193.0
EBOS 242220Z 05010KT CAVOK 11/08 Q1026 NOSIG,EBOS,2023-05-24T22:20:00Z,51.2,2.87,11.0,8.0,50,10,,6.21,30.295275,,,,,,TRUE,,,,,CAVOK,,,,,,,,VFR,,,,,,,,,,,,METAR,5.0
EBLG 242220Z 03006KT CAVOK 09/06 Q1024 NOSIG,EBLG,2023-05-24T22:20:00Z,50.63,5.45,9.0,6.0,30,6,,6.21,30.236221,,,,,,TRUE,,,,,CAVOK,,,,,,,,VFR,,,,,,,,,,,,METAR,187.0
EBCI 242220Z 03006KT 9999 BKN040 09/06 Q1025 NOSIG,EBCI,2023-05-24T22:20:00Z,50.47,4.45,9.0,6.0,30,6,,6.21,30.265747,,,,,,TRUE,,,,,BKN,4000,,,,,,,VFR,,,,,,,,,,,,METAR,176.0
EBBR 242220Z 02003KT CAVOK 09/06 Q1025 NOSIG,EBBR,2023-05-24T22:20:00Z,50.9,4.52,9.0,6.0,20,3,,6.21,30.265747,,,,,,TRUE,,,,,CAVOK,,,,,,,,VFR,,,,,,,,,,,,METAR,49.0
EBAW 242220Z AUTO 02004KT 340V040 9999 // VV/// 11/06 Q1025,EBAW,2023-05-24T22:20:00Z,51.2,4.47,11.0,6.0,20,4,,6.21,30.265747,,,TRUE,,,,,,,,OVX,0,,,,,,,LIFR,,,,,,,,,,,,METAR,7.0
CZUM 242220Z AUTO 33013KT 9SM -SN SCT015 BKN022 BKN026 OVC032 01/M02 A3006 RMK SLP204,CZUM,2023-05-24T22:20:00Z,53.55,-64.1,1.0,-2.0,330,13,,9.0,30.059055,1020.4,,TRUE,,,,,,,-SN,SCT,1500,BKN,2200,BKN,2600,OVC,3200,MVFR,,,,,,,,,,,,SPECI,431.0
CYEN 242220Z AUTO 10008KT 5SM HZ BKN120 BKN140 25/17 A2989 RMK SLP119 DENSITY ALT 3500FT,CYEN,2023-05-24T22:20:00Z,49.22,-102.97,25.0,17.0,100,8,,5.0,29.890747,1011.9,,TRUE,,,,,,,HZ,BKN,12000,BKN,14000,,,,,MVFR,,,,,,,,,,,,SPECI,580.0
KTDR 242219Z AUTO 11003KT 10SM SCT009 OVC031 23/22 A2981 RMK AO2 LTG DSNT N AND SE RAE09 SLP098 $,KTDR,2023-05-24T22:19:00Z,30.05,-85.52,23.0,22.0,110,3,,10.0,29.811024,1009.8,,TRUE,TRUE,TRUE,,,,,,SCT,900,OVC,3100,,,,,VFR,,,,,,,,,,,,SPECI,4.0
KSBP 242219Z 00000KT 10SM BKN030 16/09 A2995 RMK AO2 T01610094,KSBP,2023-05-24T22:19:00Z,35.23,-120.63,16.1,9.4,0,0,,10.0,29.949802,,,,TRUE,,,,,,,BKN,3000,,,,,,,MVFR,,,,,,,,,,,,SPECI,52.0
KMRT 242219Z AUTO 02014G21KT 10SM CLR 22/10 A3009 RMK AO1,KMRT,2023-05-24T22:19:00Z,40.22,-83.35,22.0,10.0,20,14,21,10.0,30.088583,,,TRUE,TRUE,,,,,,,CLR,,,,,,,,VFR,,,,,,,,,,,,METAR,302.0
KMKC 242219Z 21017G24KT 10SM -TSRA BKN070 26/17 A3002 RMK AO2 LTG DSNT E AND SE RAB14 TSB13 P0000 T02560167,KMKC,2023-05-24T22:19:00Z,39.12,-94.6,25.6,16.7,210,17,24,10.0,30.02067,,,,TRUE,,,,,,-TSRA,BKN,7000,,,,,,,VFR,,,,,,0.005,,,,,,SPECI,228.0
KLSV 242219Z AUTO 16015G23KT 10SM CLR 37/M07 A2966 RMK AO2 WSHFT 13 SLP016 $,KLSV,2023-05-24T22:19:00Z,36.23,-115.05,37.0,-7.0,160,15,23,10.0,29.660433,1001.6,,TRUE,TRUE,TRUE,,,,,,CLR,,,,,,,,VFR,,,,,,,,,,,,METAR,563.0
KLAR 242219Z AUTO 25021G28KT 10SM -RA FEW047 BKN060 16/04 A3011 RMK AO2 PK WND 25034/2208 WSHFT 2159 RAB00 P0000 T01560039,KLAR,2023-05-24T22:19:00Z,41.32,-105.67,15.6,3.9,250,21,28,10.0,30.109253,,,TRUE,TRUE,,,,,,-RA,FEW,4700,BKN,6000,,,,,VFR,,,,,,0.005,,,,,,SPECI,2217.0
KEEO 242219Z AUTO 13006KT 10SM VCTS -RA FEW050 BKN075 OVC090 17/07 A3001 RMK AO2 LTG DSNT N TSE2159 P0007 T01670067 $,KEEO,2023-05-24T22:19:00Z,40.05,-107.88,16.7,6.7,130,6,,10.0,30.008858,,,TRUE,TRUE,TRUE,,,,,VCTS -RA,FEW,5000,BKN,7500,OVC,9000,,,VFR,,,,,,0.07,,,,,,SPECI,1957.0
KCQX 242219Z AUTO 17006KT 1/4SM FG VV002 12/11 A2994 RMK AO2 T01170106 $,KCQX,2023-05-24T22:19:00Z,41.68,-70.0,11.7,10.6,170,6,,0.25,29.940945,,,TRUE,TRUE,TRUE,,,,,FG,OVX,0,,,,,,,LIFR,,,,,,,,,,,200,SPECI,17.0
K2V6 242219Z AUTO 13018G25KT 10SM 21/04 A2999 RMK AO2 LTG DSNT W,K2V6,2023-05-24T22:19:00Z,40.1,-102.72,21.0,4.0,130,18,25,10.0,29.991142,,,TRUE,TRUE,,,,,,,,,,,,,,,,,,,,,,,,,,,SPECI,1257.0
CYCO 242219Z 34016KT 15SM OVC014 02/M01 A3003 RMK ST8 SLP173,CYCO,2023-05-24T22:19:00Z,67.82,-115.15,2.0,-1.0,340,16,,15.0,30.029528,1017.3,,,,,,,,,,OVC,1400,,,,,,,MVFR,,,,,,,,,,,,SPECI,20.0
KSRQ 242218Z 02009G18KT 1 3/4SM +TSRA BR FEW009 BKN022 OVC065 23/21 A2980 RMK AO2 LTG DSNT ALQDS PRESRR P0017 T02280211,KSRQ,2023-05-24T22:18:00Z,27.4,-82.57,22.8,21.1,20,9,18,1.75,29.799213,,,,TRUE,,,,,,+TSRA BR,FEW,900,BKN,2200,OVC,6500,,,IFR,,,,,,0.17,,,,,,SPECI,5.0
KSBD 242218Z 24010G15KT 6SM CLR 25/09 A2989,KSBD,2023-05-24T22:18:00Z,34.08,-117.25,25.0,9.0,240,10,15,6.0,29.890747,,,,,,,,,,,CLR,,,,,,,,VFR,,,,,,,,,,,,SPECI,353.0
KPEO 242218Z AUTO 35008KT 9SM OVC006 10/09 A3017 RMK AO2 T01000089,KPEO,2023-05-24T22:18:00Z,42.65,-77.05,10.0,8.9,350,8,,9.0,30.171259,,,TRUE,TRUE,,,,,,,OVC,600,,,,,,,IFR,,,,,,,,,,,,SPECI,268.0
KHHW 242218Z AUTO 08004KT 10SM CLR 26/16 A2997 RMK AO2,KHHW,2023-05-24T22:18:00Z,34.03,-95.55,26.0,16.0,80,4,,10.0,29.970472,,,TRUE,TRUE,,,,,,,CLR,,,,,,,,VFR,,,,,,,,,,,,METAR,178.0
KFHU 242218Z AUTO 22015G20KT 10SM CLR 29/M07 A2999 RMK AO2 SLP096,KFHU,2023-05-24T22:18:00Z,31.58,-110.35,29.0,-7.0,220,15,20,10.0,29.991142,1009.6,,TRUE,TRUE,,,,,,,CLR,,,,,,,,VFR,,,,,,,,,,,,METAR,1424.0
CYPD 242218Z AUTO 14007KT 9SM OVC004 06/06 A3009 RMK SLP197,CYPD,2023-05-24T22:18:00Z,45.67,-61.37,6.0,6.0,140,7,,9.0,30.088583,1019.7,,TRUE,,,,,,,,OVC,400,,,,,,,LIFR,,,,,,,,,,,,SPECI,106.0
CYEV 242218Z 04008KT 360V060 15SM -SN BKN012 OVC039 02/M00 A3022 RMK SC5SC3 SLP242,CYEV,2023-05-24T22:18:00Z,68.32,-133.5,2.0,0.0,40,8,,15.0,30.221457,1024.2,,,,,,,,,-SN,BKN,1200,OVC,3900,,,,,MVFR,,,,,,,,,,,,SPECI,74.0
KLVS 242217Z AUTO 19011KT 10SM -RA SCT085 BKN110 22/06 A3008 RMK AO2 PK WND 18026/2154 LTG DSNT NE AND E RAB2159 P0000 T02220056,KLVS,2023-05-24T22:17:00Z,35.65,-105.13,22.2,5.6,190,11,,10.0,30.079725,,,TRUE,TRUE,,,,,,-RA,SCT,8500,BKN,11000,,,,,VFR,,,,,,0.005,,,,,,METAR,2095.0
KAUM 242217Z AUTO 11015KT 10SM SCT095 28/09 A3013 RMK AO2,KAUM,2023-05-24T22:17:00Z,43.67,-92.92,28.0,9.0,110,15,,10.0,30.129921,,,TRUE,TRUE,,,,,,,SCT,9500,,,,,,,VFR,,,,,,,,,,,,METAR,376.0
SAZR 242216Z 02005KT 6000 OVC007 15/15 Q1011 RMK PP000,SAZR,2023-05-24T22:16:00Z,-36.58,-64.27,15.0,15.0,20,5,,3.73,29.852362,,,,,,,,,,,OVC,700,,,,,,,IFR,,,,,,,,,,,,SPECI,190.0
KSGJ 242216Z 02013KT 10SM BKN025 24/19 A2988 RMK AO2 $,KSGJ,2023-05-24T22:16:00Z,29.97,-81.33,24.0,19.0,20,13,,10.0,29.878937,,,,TRUE,TRUE,,,,,,BKN,2500,,,,,,,MVFR,,,,,,,,,,,,SPECI,2.0
KSFY 242216Z AUTO 05015G19KT 10SM CLR 26/10 A3013 RMK AO2,KSFY,2023-05-24T22:16:00Z,42.05,-90.12,26.0,10.0,50,15,19,10.0,30.129921,,,TRUE,TRUE,,,,,,,CLR,,,,,,,,VFR,,,,,,,,,,,,SPECI,188.0
KRUT 242216Z AUTO 31008KT 10SM FEW006 BKN010 OVC033 11/10 A3004 RMK AO2 $,KRUT,2023-05-24T22:16:00Z,43.53,-72.95,11.0,10.0,310,8,,10.0,30.041338,,,TRUE,TRUE,TRUE,,,,,,FEW,600,BKN,1000,OVC,3300,,,MVFR,,,,,,,,,,,,SPECI,238.0
KMRF 242216Z AUTO 04018KT 10SM FEW110 28/09 A3000 RMK AO2 LTG DSNT N TSE05,KMRF,2023-05-24T22:16:00Z,30.37,-104.02,28.0,9.0,40,18,,10.0,30.0,,,TRUE,TRUE,,,,,,,FEW,11000,,,,,,,VFR,,,,,,,,,,,,SPECI,1476.0
KMNE 242216Z AUTO 03005KT 10SM OVC045 25/19 A2996 RMK AO2,KMNE,2023-05-24T22:16:00Z,32.65,-93.3,25.0,19.0,30,5,,10.0,29.958662,,,TRUE,TRUE,,,,,,,OVC,4500,,,,,,,VFR,,,,,,,,,,,,METAR,84.0
KJYG 242216Z AUTO 09007G10KT 10SM SCT100 28/06 A3008 RMK AO2 TSNO,KJYG,2023-05-24T22:16:00Z,43.98,-94.55,28.0,6.0,90,7,10,10.0,30.079725,,,TRUE,TRUE,,,TRUE,,,,SCT,10000,,,,,,,VFR,,,,,,,,,,,,METAR,323.0
KI69 242216Z AUTO 05006KT 10SM BKN075 BKN090 OVC110 26/12 A3003 RMK AO1 T02570115,KI69,2023-05-24T22:16:00Z,39.08,-84.22,25.7,11.5,50,6,,10.0,30.029528,,,TRUE,TRUE,,,,,,,BKN,7500,BKN,9000,OVC,11000,,,VFR,,,,,,,,,,,,METAR,238.0
KDUB 242216Z AUTO 32003KT 10SM SCT060 SCT110 14/03 A3005 RMK AO2,KDUB,2023-05-24T22:16:00Z,43.55,-109.68,14.0,3.0,320,3,,10.0,30.050198,,,TRUE,TRUE,,,,,,,SCT,6000,SCT,11000,,,,,VFR,,,,,,,,,,,,SPECI,2205.0
KCQM 242216Z AUTO 15006KT 10SM SCT070 SCT085 15/M12 A3031 RMK AO2,KCQM,2023-05-24T22:16:00Z,47.82,-92.68,15.0,-12.0,150,6,,10.0,30.31004,,,TRUE,TRUE,,,,,,,SCT,7000,SCT,8500,,,,,VFR,,,,,,,,,,,,SPECI,406.0
KBBB 242216Z AUTO 14010G19KT 10SM CLR 26/12 A3011 RMK AO2,KBBB,2023-05-24T22:16:00Z,45.32,-95.65,26.0,12.0,140,10,19,10.0,30.109253,,,TRUE,TRUE,,,,,,,CLR,,,,,,,,VFR,,,,,,,,,,,,METAR,315.0
K40B 242216Z AUTO VRB03KT 07/07 A3003 RMK AO1 SLP177 T00700071 53011 P0001,K40B,2023-05-24T22:16:00Z,46.62,-69.52,7.0,7.1,0,3,,,30.029528,1017.7,,TRUE,TRUE,,,,,,,,,,,,,,,,1.1,,,,,0.01,,,,,,METAR,344.0
CYPX 242216Z AUTO 26013G19KT 9SM BKN009 02/M00 A3017 RMK SLP221,CYPX,2023-05-24T22:16:00Z,60.03,-77.27,2.0,0.0,260,13,19,9.0,30.171259,1022.1,,TRUE,,,,,,,,BKN,900,,,,,,,IFR,,,,,,,,,,,,SPECI,10.0
CWGZ 242216Z VRB02KT 2 1/4SM +PL OVC022 M08/M11 A2966 RMK SC8 SLP052,CWGZ,2023-05-24T22:16:00Z,76.42,-82.9,-8.0,-11.0,0,2,,2.25,29.660433,1005.2,,,,,,,,,+PL,OVC,2200,,,,,,,IFR,,,,,,,,,,,,SPECI,24.0
YBCS 242215Z AUTO 16013KT 5000 -RA SCT023 SCT029 BKN038 22/20 Q1018,YBCS,2023-05-24T22:15:00Z,-16.87,145.75,22.0,20.0,160,13,,3.11,30.059055,,,TRUE,,,,,,,-RA,SCT,2300,SCT,2900,BKN,3800,,,MVFR,,,,,,,,,,,,SPECI,2.0
PAKX 242215Z AUTO 24005KT 10SM OVC050 10/05 A2981 RMK AO2,PAKX,2023-05-24T22:15:00Z,60.2,-154.32,10.0,5.0,240,5,,10.0,29.811024,,,TRUE,TRUE,,,,,,,OVC,5000,,,,,,,VFR,,,,,,,,,,,,METAR,88.0
PAAD 242215Z AUTO 06016G21KT 10SM OVC008 M04/M06 A3025 RMK AO2 T10451061 PWINO,PAAD,2023-05-24T22:15:00Z,70.13,-146.28,-4.5,-6.1,60,16,21,10.0,30.250984,,,TRUE,TRUE,,,,,TRUE,,OVC,800,,,,,,,IFR,,,,,,,,,,,,SPECI,8.0
MRPV 242215Z 07006KT 0800 +TSRA BKN010CB 20/20 A2996 NOSIG,MRPV,2023-05-24T22:15:00Z,9.95,-84.15,20.0,20.0,70,6,,0.5,29.958662,,,,,,TRUE,,,,+TSRA,BKN,1000,,,,,,,LIFR,,,,,,,,,,,,SPECI,998.0
LMML 242215Z AUTO 08013KT CAVOK 18/16 Q1011 NOSIG,LMML,2023-05-24T22:15:00Z,35.85,14.47,18.0,16.0,80,13,,6.21,29.852362,,,TRUE,,,TRUE,,,,,CAVOK,,,,,,,,VFR,,,,,,,,,,,,METAR,78.0
LIRP 242215Z 15005KT CAVOK 15/14 Q1013 NOSIG,LIRP,2023-05-24T22:15:00Z,43.68,10.38,15.0,14.0,150,5,,6.21,29.911417,,,,,,TRUE,,,,,CAVOK,,,,,,,,VFR,,,,,,,,,,,,METAR,1.0
LHSN 242215Z 36004KT CAVOK 16/15 Q1016 NOSIG RMK BLU,LHSN,2023-05-24T22:15:00Z,47.12,20.23,16.0,15.0,360,4,,6.21,30.0,,,,,,TRUE,,,,,CAVOK,,,,,,,,VFR,,,,,,,,,,,,METAR,89.0
LHKE 242215Z 36006KT 9999 FEW043 16/15 Q1017 NOSIG RMK BLU,LHKE,2023-05-24T22:15:00Z,46.92,19.75,16.0,15.0,360,6,,6.21,30.029528,,,,,,TRUE,,,,,FEW,4300,,,,,,,VFR,,,,,,,,,,,,METAR,113.0
KZPH 242215Z AUTO 09009KT 7SM TSRA SCT060 BKN100 OVC120 21/20 A2983 RMK A02 LTG DSNT SE THRU SW T02100200,KZPH,2023-05-24T22:15:00Z,28.23,-82.15,21.0,20.0,90,9,,7.0,29.828741,,,TRUE,TRUE,,,,,,TSRA,SCT,6000,BKN,10000,OVC,12000,,,VFR,,,,,,,,,,,,SPECI,26.0
KZER 242215Z AUTO 02004KT 10SM -RA BKN060 OVC100 17/12 A3000 RMK AO2,KZER,2023-05-24T22:15:00Z,40.7,-76.37,17.0,12.0,20,4,,10.0,30.0,,,TRUE,TRUE,,,,,,-RA,BKN,6000,OVC,10000,,,,,VFR,,,,,,,,,,,,SPECI,518.0
KY70 242215Z AUTO 07008G19KT 10SM CLR 16/00 A3025 RMK AO2 T01570000,KY70,2023-05-24T22:15:00Z,42.93,-85.07,15.7,0.0,70,8,19,10.0,30.250984,,,TRUE,TRUE,,,,,,,CLR,,,,,,,,VFR,,,,,,,,,,,,METAR,247.0
KY63 242215Z AUTO 10017G23KT 10SM CLR 22/11 A3013 RMK AO2 T02210112,KY63,2023-05-24T22:15:00Z,45.98,-96.0,22.1,11.2,100,17,23,10.0,30.129921,,,TRUE,TRUE,,,,,,,CLR,,,,,,,,VFR,,,,,,,,,,,,SPECI,367.0
KY51 242215Z AUTO 07016G19KT 10SM CLR 22/11 A3021 RMK AO1 T02170106,KY51,2023-05-24T22:15:00Z,43.58,-90.9,21.7,10.6,70,16,19,10.0,30.209646,,,TRUE,TRUE,,,,,,,CLR,,,,,,,,VFR,,,,,,,,,,,,SPECI,390.0
KY49 242215Z AUTO 11009G15KT 090V150 10SM CLR 12/04 A3026 RMK AO2 T01160043,KY49,2023-05-24T22:15:00Z,47.15,-94.65,11.6,4.3,110,9,15,10.0,30.259842,,,TRUE,TRUE,,,,,,,CLR,,,,,,,,VFR,,,,,,,,,,,,SPECI,413.0
KY31 242215Z AUTO 06011G17KT 10SM CLR 16/M12 A3029 RMK AO2 T01551121,KY31,2023-05-24T22:15:00Z,44.25,-84.18,15.5,-12.1,60,11,17,10.0,30.28937,,,TRUE,TRUE,,,,,,,CLR,,,,,,,,VFR,,,,,,,,,,,,METAR,264.0
KY23 242215Z AUTO 10005KT 10SM BKN090 16/07 A3028 RMK AO2 T01640069,KY23,2023-05-24T22:15:00Z,45.3,-91.63,16.4,6.9,100,5,,10.0,30.280512,,,TRUE,TRUE,,,,,,,BKN,9000,,,,,,,VFR,,,,,,,,,,,,METAR,322.0
KY19 242215Z AUTO 12014KT 10SM CLR 26/18 A2995 RMK AO2,KY19,2023-05-24T22:15:00Z,46.77,-100.9,26.0,18.0,120,14,,10.0,29.949802,,,TRUE,TRUE,,,,,,,CLR,,,,,,,,VFR,,,,,,,,,,,,SPECI,591.0
KXSA 242215Z AUTO 06003KT 10SM CLR 23/10 A2999 RMK AO2 T02340102,KXSA,2023-05-24T22:15:00Z,37.87,-76.9,23.4,10.2,60,3,,10.0,29.991142,,,TRUE,TRUE,,,,,,,CLR,,,,,,,,VFR,,,,,,,,,,,,METAR,41.0
KXNX 242215Z AUTO 02007G13KT 360V060 10SM SCT065 SCT085 28/13 A3000 RMK A01,KXNX,2023-05-24T22:15:00Z,36.38,-86.42,28.0,13.0,20,7,13,10.0,30.0,,,TRUE,TRUE,,,,,,,SCT,6500,SCT,8500,,,,,VFR,,,,,,,,,,,,METAR,178.0
KXLL 242215Z AUTO 31006KT 10SM OVC075 25/10 A2993 RMK AO2,KXLL,2023-05-24T22:15:00Z,40.57,-75.48,25.0,10.0,310,6,,10.0,29.929134,,,TRUE,TRUE,,,,,,,OVC,7500,,,,,,,VFR,,,,,,,,,,,,SPECI,118.0
KX60 242215Z AUTO 07005KT 10SM CLR 24/20 A2984 RMK AO2 LTG DSNT E AND S T02450202,KX60,2023-05-24T22:15:00Z,29.35,-82.47,24.5,20.2,70,5,,10.0,29.840551,,,TRUE,TRUE,,,,,,,CLR,,,,,,,,VFR,,,,,,,,,,,,SPECI,21.0
KX07 242215Z AUTO 04006KT 2SM BR BKN038 OVC043 21/21 A2984 RMK A01,KX07,2023-05-24T22:15:00Z,27.9,-81.62,21.0,21.0,40,6,,2.0,29.840551,,,TRUE,TRUE,,,,,,BR,BKN,3800,OVC,4300,,,,,IFR,,,,,,,,,,,,SPECI,36.0
KWYS 242215Z AUTO 18010KT 10SM FEW034 SCT050 SCT060 15/07 A3001 RMK AO2,KWYS,2023-05-24T22:15:00Z,44.68,-111.12,15.0,7.0,180,10,,10.0,30.008858,,,TRUE,TRUE,,,,,,,FEW,3400,SCT,5000,SCT,6000,,,VFR,,,,,,,,,,,,METAR,2025.0
KWWR 242215Z AUTO 11009KT 10SM SCT060 26/14 A3002 RMK AO2,KWWR,2023-05-24T22:15:00Z,36.45,-99.52,26.0,14.0,110,9,,10.0,30.02067,,,TRUE,TRUE,,,,,,,SCT,6000,,,,,,,VFR,,,,,,,,,,,,METAR,664.0
KWDR 242215Z AUTO 00000KT 10SM CLR 23/10 A2998 RMK AO2,KWDR,2023-05-24T22:15:00Z,33.98,-83.67,23.0,10.0,0,0,,10.0,29.97933,,,TRUE,TRUE,,,,,,,CLR,,,,,,,,VFR,,,,,,,,,,,,SPECI,280.0
KW96 242215Z AUTO 06003KT 10SM CLR 23/07 A2997 RMK AO1 T02300070,KW96,2023-05-24T22:15:00Z,37.5,-77.12,23.0,7.0,60,3,,10.0,29.970472,,,TRUE,TRUE,,,,,,,CLR,,,,,,,,VFR,,,,,,,,,,,,METAR,35.0
KW81 242215Z AUTO 04003KT 10SM CLR 23/02 A2998 RMK AO1 T02260022,KW81,2023-05-24T22:15:00Z,37.18,-78.1,22.6,2.2,40,3,,10.0,29.97933,,,TRUE,TRUE,,,,,,,CLR,,,,,,,,VFR,,,,,,,,,,,,SPECI,121.0
KW78 242215Z AUTO 05006KT 10SM CLR 24/07 A2999 RMK AO1 T02380066,KW78,2023-05-24T22:15:00Z,36.7,-78.85,23.8,6.6,50,6,,10.0,29.991142,,,TRUE,TRUE,,,,,,,CLR,,,,,,,,VFR,,,,,,,,,,,,SPECI,120.0
KW75 242215Z AUTO 36003KT 10SM CLR 23/07 A2997 RMK AO1 T02250071,KW75,2023-05-24T22:15:00Z,37.6,-76.45,22.5,7.1,360,3,,10.0,29.970472,,,TRUE,TRUE,,,,,,,CLR,,,,,,,,VFR,,,,,,,,,,,,SPECI,8.0
KW63 242215Z AUTO 06006KT 10SM CLR 24/06 A2998 RMK AO1,KW63,2023-05-24T22:15:00Z,36.6,-78.55,24.0,6.0,60,6,,10.0,29.97933,,,TRUE,TRUE,,,,,,,CLR,,,,,,,,VFR,,,,,,,,,,,,SPECI,126.0
KW43 242215Z AUTO 17016G19KT 10SM BKN060 BKN075 BKN080 27/12 A2991 RMK AO2,KW43,2023-05-24T22:15:00Z,44.67,-104.57,27.0,12.0,170,16,19,10.0,29.911417,,,TRUE,TRUE,,,,,,,BKN,6000,BKN,7500,BKN,8000,,,VFR,,,,,,,,,,,,METAR,1292.0
KW31 242215Z AUTO 03003KT 10SM CLR 24/07 A2999 RMK AO1 T02400067,KW31,2023-05-24T22:15:00Z,36.95,-78.18,24.0,6.7,30,3,,10.0,29.991142,,,TRUE,TRUE,,,,,,,CLR,,,,,,,,VFR,,,,,,,,,,,,SPECI,159.0
KW22 242215Z AUTO 36005KT 10SM CLR 25/10 A3004 RMK AO2,KW22,2023-05-24T22:15:00Z,39.0,-80.27,25.0,10.0,360,5,,10.0,30.041338,,,TRUE,TRUE,,,,,,,CLR,,,,,,,,VFR,,,,,,,,,,,,SPECI,497.0
KW13 242215Z AUTO 14008KT 10SM CLR 23/10 A3000 RMK AO1 T02280098,KW13,2023-05-24T22:15:00Z,38.08,-78.95,22.8,9.8,140,8,,10.0,30.0,,,TRUE,TRUE,,,,,,,CLR,,,,,,,,VFR,,,,,,,,,,,,SPECI,440.0
KVYS 242215Z AUTO 06017KT 10SM CLR 27/09 A3011 RMK AO2 T02660092,KVYS,2023-05-24T22:15:00Z,41.35,-89.15,26.6,9.2,60,17,,10.0,30.109253,,,TRUE,TRUE,,,,,,,CLR,,,,,,,,VFR,,,,,,,,,,,,SPECI,198.0
KVWU 242215Z AUTO 12011G17KT 10SM SCT095 18/01 A3027 RMK AO2,KVWU,2023-05-24T22:15:00Z,48.15,-94.52,18.0,1.0,120,11,17,10.0,30.268702,,,TRUE,TRUE,,,,,,,SCT,9500,,,,,,,VFR,,,,,,,,,,,,SPECI,359.0
KVVV 242215Z AUTO 12017KT 10SM CLR 29/09 A3005 RMK AO2,KVVV,2023-05-24T22:15:00Z,45.3,-96.42,29.0,9.0,120,17,,10.0,30.050198,,,TRUE,TRUE,,,,,,,CLR,,,,,,,,VFR,,,,,,,,,,,,METAR,334.0
KVTP 242215Z AUTO 26010G21KT 10SM SCT120 11/M01 A3027 RMK AO2,KVTP,2023-05-24T22:15:00Z,37.5,-105.17,11.0,-1.0,260,10,21,10.0,30.268702,,,TRUE,TRUE,,,,,,,SCT,12000,,,,,,,VFR,,,,,,,,,,,,METAR,3086.0
KVTI 242215Z AUTO 09014G20KT 10SM CLR 29/08 A3010 RMK AO2 T02900081,KVTI,2023-05-24T22:15:00Z,42.22,-92.02,29.0,8.1,90,14,20,10.0,30.100393,,,TRUE,TRUE,,,,,,,CLR,,,,,,,,VFR,,,,,,,,,,,,SPECI,256.0
KVPC 242215Z AUTO 00000KT 10SM CLR 25/12 A2995 RMK AO2,KVPC,2023-05-24T22:15:00Z,34.1,-84.85,25.0,12.0,0,0,,10.0,29.949802,,,TRUE,TRUE,,,,,,,CLR,,,,,,,,VFR,,,,,,,,,,,,METAR,234.0
KVOA 242215Z AUTO 05011KT 10SM FEW022 26/21 A2985 RMK A01,KVOA,2023-05-24T22:15:00Z,29.23,-87.78,26.0,21.0,50,11,,10.0,29.84941,,,TRUE,TRUE,,,,,,,FEW,2200,,,,,,,VFR,,,,,,,,,,,,METAR,53.0
KVNW 242215Z AUTO 07018G21KT 10SM SCT110 22/10 A3012 RMK AO2,KVNW,2023-05-24T22:15:00Z,40.87,-84.62,22.0,10.0,70,18,21,10.0,30.121063,,,TRUE,TRUE,,,,,,,SCT,11000,,,,,,,VFR,,,,,,,,,,,,METAR,238.0
KVNC 242215Z AUTO 07014G27KT 10SM VCTS CLR 27/20 A2979 RMK AO2 LTG DSNT W-NE,KVNC,2023-05-24T22:15:00Z,27.07,-82.43,27.0,20.0,70,14,27,10.0,29.790354,,,TRUE,TRUE,,,,,,VCTS,CLR,,,,,,,,VFR,,,,,,,,,,,,SPECI,4.0
KVLL 242215Z AUTO 36014G19KT 10SM CLR 15/M02 A3026 RMK AO2 T01541019,KVLL,2023-05-24T22:15:00Z,42.55,-83.18,15.4,-1.9,360,14,19,10.0,30.259842,,,TRUE,TRUE,,,,,,,CLR,,,,,,,,VFR,,,,,,,,,,,,SPECI,214.0
KVKY 242215Z AUTO 05012KT 10SM FEW018 A2988 RMK A01,KVKY,2023-05-24T22:15:00Z,29.25,-88.43,,,50,12,,10.0,29.878937,,,TRUE,TRUE,,,,,,,FEW,1800,,,,,,,VFR,,,,,,,,,,,,METAR,32.0
KVKS 242215Z AUTO 05004KT 10SM OVC050 24/M36 A2992 RMK A01,KVKS,2023-05-24T22:15:00Z,32.23,-90.93,24.0,-36.0,50,4,,10.0,29.920275,,,TRUE,TRUE,,,,,,,OVC,5000,,,,,,,VFR,,,,,,,,,,,,SPECI,31.0
KVJI 242215Z AUTO 36007KT 350V050 10SM SCT070 23/05 A3002 RMK AO2 T02270048,KVJI,2023-05-24T22:15:00Z,36.68,-82.03,22.7,4.8,360,7,,10.0,30.02067,,,TRUE,TRUE,,,,,,,SCT,7000,,,,,,,VFR,,,,,,,,,,,,METAR,636.0
KVHN 242215Z AUTO 18008KT 140V200 10SM CLR 34/M02 A2992 RMK AO2 T03401023,KVHN,2023-05-24T22:15:00Z,31.07,-104.78,34.0,-2.3,180,8,,10.0,29.920275,,,TRUE,TRUE,,,,,,,CLR,,,,,,,,VFR,,,,,,,,,,,,METAR,1200.0
KVGC 242215Z AUTO 35011G16KT 10SM BKN015 BKN022 OVC032 11/07 A3010 RMK AO2,KVGC,2023-05-24T22:15:00Z,42.85,-75.57,11.0,7.0,350,11,16,10.0,30.100393,,,TRUE,TRUE,,,,,,,BKN,1500,BKN,2200,OVC,3200,,,MVFR,,,,,,,,,,,,SPECI,346.0
KVER 242215Z AUTO 15006KT 10SM BKN055 BKN110 29/18 A3004 RMK AO2 LTG DSNT SW AND NW T02940176,KVER,2023-05-24T22:15:00Z,38.95,-92.68,29.4,17.6,150,6,,10.0,30.041338,,,TRUE,TRUE,,,,,,,BKN,5500,BKN,11000,,,,,VFR,,,,,,,,,,,,METAR,209.0
KVDI 242215Z AUTO 04008KT 10SM CLR 27/11 A2991 RMK AO2,KVDI,2023-05-24T22:15:00Z,32.2,-82.37,27.0,11.0,40,8,,10.0,29.911417,,,TRUE,TRUE,,,,,,,CLR,,,,,,,,VFR,,,,,,,,,,,,METAR,81.0
KVDF 242215Z AUTO 08008KT 10SM -RA BKN120 22/21 A2982 RMK AO2,KVDF,2023-05-24T22:15:00Z,28.02,-82.33,22.0,21.0,80,8,,10.0,29.819881,,,TRUE,TRUE,,,,,,-RA,BKN,12000,,,,,,,VFR,,,,,,,,,,,,METAR,5.0
KVCV 242215Z AUTO 17024KT 10SM CLR 27/M07 A2986 RMK AO2,KVCV,2023-05-24T22:15:00Z,34.58,-117.38,27.0,-7.0,170,24,,10.0,29.861221,,,TRUE,TRUE,,,,,,,CLR,,,,,,,,VFR,,,,,,,,,,,,METAR,871.0
KVBW 242215Z AUTO 07004KT 10SM CLR 25/07 A2998 RMK AO1 T02510073,KVBW,2023-05-24T22:15:00Z,38.37,-78.97,25.1,7.3,70,4,,10.0,29.97933,,,TRUE,TRUE,,,,,,,CLR,,,,,,,,VFR,,,,,,,,,,,,SPECI,362.0
KVAF 242215Z AUTO 35006KT 10SM 28/20 A2989 RMK A01,KVAF,2023-05-24T22:15:00Z,27.35,-94.63,28.0,20.0,350,6,,10.0,29.890747,,,TRUE,TRUE,,,,,,,,,,,,,,,,,,,,,,,,,,,METAR,38.0
KUYF 242215Z AUTO 02016G21KT 10SM CLR 24/06 A3007 RMK AO2,KUYF,2023-05-24T22:15:00Z,39.93,-83.47,24.0,6.0,20,16,21,10.0,30.070866,,,TRUE,TRUE,,,,,,,CLR,,,,,,,,VFR,,,,,,,,,,,,SPECI,326.0
KUXL 242215Z AUTO 07006KT 10SM SCT039 SCT047 SCT060 29/21 A2986 RMK AO2 T02900205,KUXL,2023-05-24T22:15:00Z,30.13,-93.38,29.0,20.5,70,6,,10.0,29.861221,,,TRUE,TRUE,,,,,,,SCT,3900,SCT,4700,SCT,6000,,,VFR,,,,,,,,,,,,SPECI,2.0
KUVA 242215Z AUTO 00000KT 10SM SCT047 30/19 A2992 RMK AO2 T02980191,KUVA,2023-05-24T22:15:00Z,29.22,-99.75,29.8,19.1,0,0,,10.0,29.920275,,,TRUE,TRUE,,,,,,,SCT,4700,,,,,,,VFR,,,,,,,,,,,,METAR,285.0
KUUV 242215Z AUTO 07011KT 10SM CLR 28/10 A3007 RMK AO2,KUUV,2023-05-24T22:15:00Z,38.23,-91.17,28.0,10.0,70,11,,10.0,30.070866,,,TRUE,TRUE,,,,,,,CLR,,,,,,,,VFR,,,,,,,,,,,,SPECI,284.0
KUTA 242215Z AUTO 04007KT 10SM FEW060 28/17 A2996 RMK AO2 T02810172 $,KUTA,2023-05-24T22:15:00Z,34.68,-90.35,28.1,17.2,40,7,,10.0,29.958662,,,TRUE,TRUE,TRUE,,,,,,FEW,6000,,,,,,,VFR,,,,,,,,,,,,SPECI,58.0
KUSE 242215Z AUTO 04019G26KT 10SM CLR 21/02 A3016 RMK AO2,KUSE,2023-05-24T22:15:00Z,41.62,-84.13,21.0,2.0,40,19,26,10.0,30.159449,,,TRUE,TRUE,,,,,,,CLR,,,,,,,,VFR,,,,,,,,,,,,SPECI,237.0
KUOX 242215Z AUTO 04007KT 10SM FEW055 27/15 A2998 RMK AO2,KUOX,2023-05-24T22:15:00Z,34.38,-89.53,27.0,15.0,40,7,,10.0,29.97933,,,TRUE,TRUE,,,,,,,FEW,5500,,,,,,,VFR,,,,,,,,,,,,SPECI,123.0
KUNU 242215Z AUTO 03010G19KT 10SM SCT110 18/00 A3026 RMK AO2 T01771003,KUNU,2023-05-24T22:15:00Z,43.42,-88.7,17.7,-0.3,30,10,19,10.0,30.259842,,,TRUE,TRUE,,,,,,,SCT,11000,,,,,,,VFR,,,,,,,,,,,,METAR,281.0
KUNI 242215Z AUTO 04004KT 10SM SCT100 27/09 A3002 RMK AO2 T02720091,KUNI,2023-05-24T22:15:00Z,39.22,-82.23,27.2,9.1,40,4,,10.0,30.02067,,,TRUE,TRUE,,,,,,,SCT,10000,,,,,,,VFR,,,,,,,,,,,,SPECI,232.0
KUMP 242215Z AUTO 04008KT 10SM SCT090 29/09 A3005 RMK AO2 T02890094,KUMP,2023-05-24T22:15:00Z,39.93,-86.05,28.9,9.4,40,8,,10.0,30.050198,,,TRUE,TRUE,,,,,,,SCT,9000,,,,,,,VFR,,,,,,,,,,,,SPECI,247.0
KUKT 242215Z AUTO VRB04KT 10SM SCT090 SCT110 26/10 A2992 RMK A01,KUKT,2023-05-24T22:15:00Z,40.43,-75.38,26.0,10.0,0,4,,10.0,29.920275,,,TRUE,TRUE,,,,,,,SCT,9000,SCT,11000,,,,,VFR,,,,,,,,,,,,SPECI,156.0
KUKL 242215Z AUTO 24004KT 10SM BKN120 18/16 A3007 RMK AO2 LTG DSNT W AND NW T01760155,KUKL,2023-05-24T22:15:00Z,38.3,-95.73,17.6,15.5,240,4,,10.0,30.070866,,,TRUE,TRUE,,,,,,,BKN,12000,,,,,,,VFR,,,,,,,,,,,,SPECI,357.0
KUCY 242215Z AUTO 01012KT 10SM FEW055 FEW070 28/16 A2996 RMK A01,KUCY,2023-05-24T22:15:00Z,36.38,-88.98,28.0,16.0,10,12,,10.0,29.958662,,,TRUE,TRUE,,,,,,,FEW,5500,FEW,7000,,,,,VFR,,,,,,,,,,,,METAR,97.0
KUBE 242215Z AUTO 08007KT 10SM OVC090 15/08 A3029 RMK AO2,KUBE,2023-05-24T22:15:00Z,45.5,-91.98,15.0,8.0,80,7,,10.0,30.28937,,,TRUE,TRUE,,,,,,,OVC,9000,,,,,,,VFR,,,,,,,,,,,,SPECI,376.0
KU69 242215Z AUTO 12015KT 10SM FEW042 BKN070 OVC090 20/07 A2996 RMK A01,KU69,2023-05-24T22:15:00Z,40.2,-110.38,20.0,7.0,120,15,,10.0,29.958662,,,TRUE,TRUE,,,,,,,FEW,4200,BKN,7000,OVC,9000,,,VFR,,,,,,,,,,,,METAR,1776.0
KU64 242215Z AUTO 15014G23KT 9SM CLR 22/M06 A3006 RMK AO2 WSHFT 2206 T02211063 $,KU64,2023-05-24T22:15:00Z,,,22.1,-6.3,150,14,23,9.0,30.059055,,,TRUE,TRUE,TRUE,,,,,,CLR,,,,,,,,VFR,,,,,,,,,,,,SPECI,
KU55 242215Z AUTO 19014G20KT 10SM SCT090 22/00 A3003 RMK A01,KU55,2023-05-24T22:15:00Z,37.85,-112.38,22.0,0.0,190,14,20,10.0,30.029528,,,TRUE,TRUE,,,,,,,SCT,9000,,,,,,,VFR,,,,,,,,,,,,METAR,2060.0
KU42 242215Z AUTO 31022G31KT 10SM SCT110 21/11 A2990 RMK AO1 T02130109,KU42,2023-05-24T22:15:00Z,40.62,-111.98,21.3,10.9,310,22,31,10.0,29.899607,,,TRUE,TRUE,,,,,,,SCT,11000,,,,,,,VFR,,,,,,,,,,,,METAR,1399.0
KTYQ 242215Z AUTO 05011G19KT 10SM BKN100 28/06 A3006 RMK AO2 T02770055,KTYQ,2023-05-24T22:15:00Z,40.03,-86.25,27.7,5.5,50,11,19,10.0,30.059055,,,TRUE,TRUE,,,,,,,BKN,10000,,,,,,,VFR,,,,,,,,,,,,SPECI,279.0
KTYL 242215Z AUTO 21013G19KT 10SM CLR 26/M03 A3003 RMK AO2,KTYL,2023-05-24T22:15:00Z,34.45,-110.12,26.0,-3.0,210,13,19,10.0,30.029528,,,TRUE,TRUE,,,,,,,CLR,,,,,,,,VFR,,,,,,,,,,,,METAR,1748.0
KTXW 242215Z AUTO 08014KT 10SM SCT042 BKN048 OVC060 31/21 A2985 RMK AO2 T03080215,KTXW,2023-05-24T22:15:00Z,26.18,-97.97,30.8,21.5,80,14,,10.0,29.84941,,,TRUE,TRUE,,,,,,,SCT,4200,BKN,4800,OVC,6000,,,VFR,,,,,,,,,,,,METAR,21.0
KTWT 242215Z AUTO 07011KT 10SM BKN080 29/10 A3000 RMK AO2,KTWT,2023-05-24T22:15:00Z,37.55,-87.95,29.0,10.0,70,11,,10.0,30.0,,,TRUE,TRUE,,,,,,,BKN,8000,,,,,,,VFR,,,,,,,,,,,,SPECI,113.0
KTWM 242215Z AUTO 07012G22KT 10SM SCT110 06/M07 A3037 RMK AO2,KTWM,2023-05-24T22:15:00Z,47.05,-91.75,6.0,-7.0,70,12,22,10.0,30.369095,,,TRUE,TRUE,,,,,,,SCT,11000,,,,,,,VFR,,,,,,,,,,,,SPECI,331.0
KTVY 242215Z AUTO 32014G17KT 10SM BKN110 20/06 A2991 RMK AO2 LTG DSNT N,KTVY,2023-05-24T22:15:00Z,40.62,-112.35,20.0,6.0,320,14,17,10.0,29.911417,,,TRUE,TRUE,,,,,,,BKN,11000,,,,,,,VFR,,,,,,,,,,,,METAR,1310.0
KTVK 242215Z AUTO 11009KT 8SM FEW035 FEW047 BKN065 28/13 A3007 RMK AO2,KTVK,2023-05-24T22:15:00Z,40.68,-92.9,28.0,13.0,110,9,,8.0,30.070866,,,TRUE,TRUE,,,,,,,FEW,3500,FEW,4700,BKN,6500,,,VFR,,,,,,,,,,,,METAR,311.0
KTVI 242215Z AUTO 07008KT 10SM SCT085 24/17 A2989 RMK AO2,KTVI,2023-05-24T22:15:00Z,30.9,-83.88,24.0,17.0,70,8,,10.0,29.890747,,,TRUE,TRUE,,,,,,,SCT,8500,,,,,,,VFR,,,,,,,,,,,,SPECI,74.0
KTTF 242215Z AUTO 03013G20KT 10SM CLR 18/M03 A3019 RMK AO2 T01761032,KTTF,2023-05-24T22:15:00Z,41.93,-83.42,17.6,-3.2,30,13,20,10.0,30.188976,,,TRUE,TRUE,,,,,,,CLR,,,,,,,,VFR,,,,,,,,,,,,SPECI,186.0
KTSP 242215Z AUTO 31015KT 9SM CLR 21/02 A2993 RMK AO2,KTSP,2023-05-24T22:15:00Z,35.13,-118.43,21.0,2.0,310,15,,9.0,29.929134,,,TRUE,TRUE,,,,,,,CLR,,,,,,,,VFR,,,,,,,,,,,,SPECI,1209.0
KTQV 242215Z AUTO 03010KT 10SM CLR 24/01 A2998 RMK A01,KTQV,2023-05-24T22:15:00Z,36.0,-78.93,24.0,1.0,30,10,,10.0,29.97933,,,TRUE,TRUE,,,,,,,CLR,,,,,,,,VFR,,,,,,,,,,,,METAR,230.0
KTQK 242215Z AUTO 15015KT 10SM SCT039 SCT049 24/14 A3003 RMK AO2 T02400138,KTQK,2023-05-24T22:15:00Z,38.47,-100.88,24.0,13.8,150,15,,10.0,30.029528,,,TRUE,TRUE,,,,,,,SCT,3900,SCT,4900,,,,,VFR,,,,,,,,,,,,SPECI,906.0
KTQH 242215Z AUTO 00000KT 10SM BKN046 BKN050 28/13 A3003 RMK AO2,KTQH,2023-05-24T22:15:00Z,35.93,-95.0,28.0,13.0,0,0,,10.0,30.029528,,,TRUE,TRUE,,,,,,,BKN,4600,BKN,5000,,,,,VFR,,,,,,,,,,,,SPECI,265.0
KTPF 242215Z AUTO 10009KT 10SM -RA BKN110 21/21 A2983 RMK AO2 P0001,KTPF,2023-05-24T22:15:00Z,27.92,-82.45,21.0,21.0,100,9,,10.0,29.828741,,,TRUE,TRUE,,,,,,-RA,BKN,11000,,,,,,,VFR,,,,,,0.01,,,,,,SPECI,1.0
KTOC 242215Z AUTO 10004KT 10SM OVC080 24/12 A2997 RMK AO2 T02380115,KTOC,2023-05-24T22:15:00Z,34.6,-83.3,23.8,11.5,100,4,,10.0,29.970472,,,TRUE,TRUE,,,,,,,OVC,8000,,,,,,,VFR,,,,,,,,,,,,SPECI,292.0
KTOB 242215Z AUTO 08015KT 10SM CLR 26/11 A3016 RMK AO2,KTOB,2023-05-24T22:15:00Z,44.02,-92.82,26.0,11.0,80,15,,10.0,30.159449,,,TRUE,TRUE,,,,,,,CLR,,,,,,,,VFR,,,,,,,,,,,,SPECI,394.0
KTNU 242215Z AUTO 11007KT 10SM CLR 29/09 A3006 RMK A01,KTNU,2023-05-24T22:15:00Z,41.67,-93.02,29.0,9.0,110,7,,10.0,30.059055,,,TRUE,TRUE,,,,,,,CLR,,,,,,,,VFR,,,,,,,,,,,,SPECI,287.0
KTNB 242215Z AUTO 11003KT 10SM CLR 19/07 A3005 RMK AO2 T01940069,KTNB,2023-05-24T22:15:00Z,36.2,-81.65,19.4,6.9,110,3,,10.0,30.050198,,,TRUE,TRUE,,,,,,,CLR,,,,,,,,VFR,,,,,,,,,,,,METAR,958.0
KTMT 242215Z AUTO 14004KT 10SM SCT060 SCT090 SCT120 12/08 A2999 RMK AO2 T01230081,KTMT,2023-05-24T22:15:00Z,39.47,-117.2,12.3,8.1,140,4,,10.0,29.991142,,,TRUE,TRUE,,,,,,,SCT,6000,SCT,9000,SCT,12000,,,VFR,,,,,,,,,,,,METAR,1748.0
KTMK 242215Z AUTO 31021G27KT 10SM CLR 16/12 A3005 RMK AO2,KTMK,2023-05-24T22:15:00Z,45.42,-123.82,16.0,12.0,310,21,27,10.0,30.050198,,,TRUE,TRUE,,,,,,,CLR,,,,,,,,VFR,,,,,,,,,,,,METAR,8.0
KTME 242215Z AUTO 35004KT 10SM SCT075 29/18 A2989 RMK AO2,KTME,2023-05-24T22:15:00Z,29.8,-95.9,29.0,18.0,350,4,,10.0,29.890747,,,TRUE,TRUE,,,,,,,SCT,7500,,,,,,,VFR,,,,,,,,,,,,METAR,49.0
KTMA 242215Z AUTO 03005KT 10SM FEW050 25/15 A2991 RMK AO2 P0001 T02510149 $,KTMA,2023-05-24T22:15:00Z,31.43,-83.48,25.1,14.9,30,5,,10.0,29.911417,,,TRUE,TRUE,TRUE,,,,,,FEW,5000,,,,,,,VFR,,,,,,0.01,,,,,,METAR,105.0
KTKX 242215Z AUTO 16009G15KT 9SM FEW070 SCT080 27/18 A2997 RMK AO2,KTKX,2023-05-24T22:15:00Z,36.22,-90.03,27.0,18.0,160,9,15,9.0,29.970472,,,TRUE,TRUE,,,,,,,FEW,7000,SCT,8000,,,,,VFR,,,,,,,,,,,,SPECI,73.0
KTKV 242215Z AUTO 06007KT 10SM SCT085 18/M02 A3031 RMK AO2 T01801019 PWINO,KTKV,2023-05-24T22:15:00Z,45.47,-89.82,18.0,-1.9,60,7,,10.0,30.31004,,,TRUE,TRUE,,,,,TRUE,,SCT,8500,,,,,,,VFR,,,,,,,,,,,,METAR,449.0
KTKC 242215Z AUTO 13010G19KT 10SM SCT100 28/07 A3007 RMK AO2,KTKC,2023-05-24T22:15:00Z,44.25,-95.62,28.0,7.0,130,10,19,10.0,30.070866,,,TRUE,TRUE,,,,,,,SCT,10000,,,,,,,VFR,,,,,,,,,,,,SPECI,408.0
KTIP 242215Z AUTO 04015G18KT 10SM CLR 29/06 A3007 RMK AO2 T02860061,KTIP,2023-05-24T22:15:00Z,40.28,-88.15,28.6,6.1,40,15,18,10.0,30.070866,,,TRUE,TRUE,,,,,,,CLR,,,,,,,,VFR,,,,,,,,,,,,SPECI,224.0
KTIF 242215Z AUTO 14015G19KT 10SM CLR 25/11 A3003 RMK AO2 T02490111,KTIF,2023-05-24T22:15:00Z,41.97,-100.57,24.9,11.1,140,15,19,10.0,30.029528,,,TRUE,TRUE,,,,,,,CLR,,,,,,,,VFR,,,,,,,,,,,,SPECI,888.0
KTHA 242215Z AUTO 04008G15KT 10SM BKN050 BKN065 25/13 A2997 RMK A01,KTHA,2023-05-24T22:15:00Z,35.38,-86.25,25.0,13.0,40,8,15,10.0,29.970472,,,TRUE,TRUE,,,,,,,BKN,5000,BKN,6500,,,,,VFR,,,,,,,,,,,,METAR,333.0
KTEX 242215Z AUTO 26003KT 10SM OVC090 17/M09 A3020 RMK AO2 LTG DSNT N,KTEX,2023-05-24T22:15:00Z,37.95,-107.9,17.0,-9.0,260,3,,10.0,30.200787,,,TRUE,TRUE,,,,,,,OVC,9000,,,,,,,VFR,,,,,,,,,,,,METAR,2760.0
KTEW 242215Z AUTO 04011G16KT 10SM CLR 17/M01 A3024 RMK AO2 T01691011,KTEW,2023-05-24T22:15:00Z,42.57,-84.42,16.9,-1.1,40,11,16,10.0,30.239174,,,TRUE,TRUE,,,,,,,CLR,,,,,,,,VFR,,,,,,,,,,,,SPECI,281.0
KTCY 242215Z AUTO 35009KT 300V020 10SM CLR 23/08 A2984 RMK A01,KTCY,2023-05-24T22:15:00Z,37.68,-121.43,23.0,8.0,350,9,,10.0,29.840551,,,TRUE,TRUE,,,,,,,CLR,,,,,,,,VFR,,,,,,,,,,,,METAR,51.0
KTBX 242215Z AUTO 10SM CLR 18/00 A3010 RMK AO2,KTBX,2023-05-24T22:15:00Z,43.47,-108.23,18.0,0.0,,,,10.0,30.100393,,,TRUE,TRUE,,,,,,,CLR,,,,,,,,VFR,,,,,,,,,,,,METAR,2230.0
KTBR 242215Z AUTO 02006KT 10SM CLR 26/07 A2991 RMK AO2 T02570068 PWINO,KTBR,2023-05-24T22:15:00Z,32.48,-81.73,25.7,6.8,20,6,,10.0,29.911417,,,TRUE,TRUE,,,,,TRUE,,CLR,,,,,,,,VFR,,,,,,,,,,,,SPECI,54.0
KTAZ 242215Z AUTO 05006KT 10SM SCT095 30/08 A3003 RMK AO2 T02960078,KTAZ,2023-05-24T22:15:00Z,39.53,-89.33,29.6,7.8,50,6,,10.0,30.029528,,,TRUE,TRUE,,,,,,,SCT,9500,,,,,,,VFR,,,,,,,,,,,,METAR,188.0
KT89 242215Z AUTO VRB05KT 10SM FEW120 38/06 A2978 RMK A01,KT89,2023-05-24T22:15:00Z,29.27,-103.68,38.0,6.0,0,5,,10.0,29.778543,,,TRUE,TRUE,,,,,,,FEW,12000,,,,,,,VFR,,,,,,,,,,,,METAR,801.0
KT82 242215Z AUTO 05008KT 10SM CLR 26/18 A2994 RMK AO2 T02600177,KT82,2023-05-24T22:15:00Z,30.25,-98.92,26.0,17.7,50,8,,10.0,29.940945,,,TRUE,TRUE,,,,,,,CLR,,,,,,,,VFR,,,,,,,,,,,,METAR,509.0
KT78 242215Z AUTO VRB04KT 7SM FEW042 29/20 A2987 RMK AO2,KT78,2023-05-24T22:15:00Z,30.08,-94.7,29.0,20.0,0,4,,7.0,29.870079,,,TRUE,TRUE,,,,,,,FEW,4200,,,,,,,VFR,,,,,,,,,,,,METAR,21.0
KT74 242215Z AUTO 10SM SCT041 27/18 A2992 RMK AO2 T02700184,KT74,2023-05-24T22:15:00Z,30.57,-97.45,27.0,18.4,,,,10.0,29.920275,,,TRUE,TRUE,,,,,,,SCT,4100,,,,,,,VFR,,,,,,,,,,,,METAR,169.0
KT69 242215Z AUTO 11008KT 10SM CLR 31/21 A2986 RMK A01,KT69,2023-05-24T22:15:00Z,28.03,-97.55,31.0,21.0,110,8,,10.0,29.861221,,,TRUE,TRUE,,,,,,,CLR,,,,,,,,VFR,,,,,,,,,,,,SPECI,15.0
KT41 242215Z AUTO 34004KT 10SM CLR 32/18 A2988 RMK AO2 T03180177,KT41,2023-05-24T22:15:00Z,29.67,-95.07,31.8,17.7,340,4,,10.0,29.878937,,,TRUE,TRUE,,,,,,,CLR,,,,,,,,VFR,,,,,,,,,,,,METAR,8.0
KT35 242215Z AUTO 02005KT 10SM CLR 28/17 A2991 RMK AO2 T02770165,KT35,2023-05-24T22:15:00Z,30.88,-96.97,27.7,16.5,20,5,,10.0,29.911417,,,TRUE,TRUE,,,,,,,CLR,,,,,,,,VFR,,,,,,,,,,,,SPECI,122.0
KT20 242215Z AUTO 04006KT 10SM SCT042 29/21 A2989 RMK AO2 T02940206,KT20,2023-05-24T22:15:00Z,29.52,-97.47,29.4,20.6,40,6,,10.0,29.890747,,,TRUE,TRUE,,,,,,,SCT,4200,,,,,,,VFR,,,,,,,,,,,,METAR,107.0
KSZY 242215Z AUTO 03006KT 10SM CLR 27/15 A2997 RMK A01,KSZY,2023-05-24T22:15:00Z,35.2,-88.5,27.0,15.0,30,6,,10.0,29.970472,,,TRUE,TRUE,,,,,,,CLR,,,,,,,,VFR,,,,,,,,,,,,METAR,184.0
KSZT 242215Z AUTO 20007KT 10SM SCT085 SCT090 19/02 A2992 RMK AO2,KSZT,2023-05-24T22:15:00Z,48.3,-116.57,19.0,2.0,200,7,,10.0,29.920275,,,TRUE,TRUE,,,,,,,SCT,8500,SCT,9000,,,,,VFR,,,,,,,,,,,,SPECI,649.0
KSYN 242215Z AUTO 09013G19KT 10SM CLR 24/13 A3016 RMK AO2 T02360128,KSYN,2023-05-24T22:15:00Z,44.47,-93.02,23.6,12.8,90,13,19,10.0,30.159449,,,TRUE,TRUE,,,,,,,CLR,,,,,,,,VFR,,,,,,,,,,,,METAR,280.0
KSYM 242215Z AUTO VRB04KT 10SM CLR 25/09 A3004 RMK AO2,KSYM,2023-05-24T22:15:00Z,38.22,-83.58,25.0,9.0,0,4,,10.0,30.041338,,,TRUE,TRUE,,,,,,,CLR,,,,,,,,VFR,,,,,,,,,,,,METAR,307.0
KSYI 242215Z AUTO 06005KT 10SM CLR 26/15 A2996 RMK A01,KSYI,2023-05-24T22:15:00Z,35.57,-86.45,26.0,15.0,60,5,,10.0,29.958662,,,TRUE,TRUE,,,,,,,CLR,,,,,,,,VFR,,,,,,,,,,,,METAR,244.0
KSYF 242215Z AUTO 15014G18KT 10SM SCT044 SCT050 A2999 RMK AO2 PWINO,KSYF,2023-05-24T22:15:00Z,39.77,-101.8,,,150,14,18,10.0,29.991142,,,TRUE,TRUE,,,,,TRUE,,SCT,4400,SCT,5000,,,,,VFR,,,,,,,,,,,,SPECI,1041.0
KSXU 242215Z AUTO 16012G20KT 10SM CLR 29/06 A2993 RMK AO2 T02930059,KSXU,2023-05-24T22:15:00Z,34.93,-104.65,29.3,5.9,160,12,20,10.0,29.929134,,,TRUE,TRUE,,,,,,,CLR,,,,,,,,VFR,,,,,,,,,,,,METAR,1465.0
KSXK 242215Z AUTO VRB05G11KT 10SM FEW090 28/08 A3003 RMK AO2,KSXK,2023-05-24T22:15:00Z,42.98,-96.17,28.0,8.0,0,5,11,10.0,30.029528,,,TRUE,TRUE,,,,,,,FEW,9000,,,,,,,VFR,,,,,,,,,,,,METAR,430.0
KSWW 242215Z AUTO 16008G15KT 10SM SCT045 28/16 A2999 RMK AO2 T02840159,KSWW,2023-05-24T22:15:00Z,32.47,-100.47,28.4,15.9,160,8,15,10.0,29.991142,,,TRUE,TRUE,,,,,,,SCT,4500,,,,,,,VFR,,,,,,,,,,,,METAR,718.0
KSVE 242215Z AUTO 33006KT 10SM CLR 23/00 A2987 RMK AO2,KSVE,2023-05-24T22:15:00Z,40.37,-120.57,23.0,0.0,330,6,,10.0,29.870079,,,TRUE,TRUE,,,,,,,CLR,,,,,,,,VFR,,,,,,,,,,,,METAR,1263.0
KSVC 242215Z AUTO 22012G23KT 10SM CLR 30/M09 A3002 RMK AO2 T02981092,KSVC,2023-05-24T22:15:00Z,32.63,-108.15,29.8,-9.2,220,12,23,10.0,30.02067,,,TRUE,TRUE,,,,,,,CLR,,,,,,,,VFR,,,,,,,,,,,,METAR,1638.0
KSUZ 242215Z AUTO 07007KT 9SM CLR 28/16 A2998 RMK A01,KSUZ,2023-05-24T22:15:00Z,34.58,-92.48,28.0,16.0,70,7,,9.0,29.97933,,,TRUE,TRUE,,,,,,,CLR,,,,,,,,VFR,,,,,,,,,,,,SPECI,114.0
KSUW 242215Z AUTO 07010G16KT 10SM SCT045 OVC080 04/01 A3039 RMK AO2 T00370007,KSUW,2023-05-24T22:15:00Z,46.68,-92.1,3.7,0.7,70,10,16,10.0,30.389763,,,TRUE,TRUE,,,,,,,SCT,4500,OVC,8000,,,,,VFR,,,,,,,,,,,,METAR,205.0
KSTK 242215Z AUTO 10016G23KT 10SM SCT050 23/15 A2995 RMK AO2 LTG DSNT W,KSTK,2023-05-24T22:15:00Z,40.62,-103.27,23.0,15.0,100,16,23,10.0,29.949802,,,TRUE,TRUE,,,,,,,SCT,5000,,,,,,,VFR,,,,,,,,,,,,METAR,1228.0
KSTF 242215Z AUTO 08008G18KT 050V120 10SM FEW050 FEW060 21/10 A2993 RMK AO2,KSTF,2023-05-24T22:15:00Z,33.43,-88.85,21.0,10.0,80,8,18,10.0,29.929134,,,TRUE,TRUE,,,,,,,FEW,5000,FEW,6000,,,,,VFR,,,,,,,,,,,,SPECI,99.0
KSTE 242215Z AUTO 08012G17KT 10SM BKN080 18/M13 A3030 RMK AO2 T01771129,KSTE,2023-05-24T22:15:00Z,44.55,-89.53,17.7,-12.9,80,12,17,10.0,30.301182,,,TRUE,TRUE,,,,,,,BKN,8000,,,,,,,VFR,,,,,,,,,,,,SPECI,335.0
KSRR 242215Z AUTO 13014G22KT 10SM FEW120 24/03 A3012 RMK AO2,KSRR,2023-05-24T22:15:00Z,33.47,-105.52,24.0,3.0,130,14,22,10.0,30.121063,,,TRUE,TRUE,,,,,,,FEW,12000,,,,,,,VFR,,,,,,,,,,,,METAR,2063.0
KSRE 242215Z AUTO 12005KT 8SM VCTS FEW090 FEW120 24/16 A3000 RMK AO2 LTG DSNT NE AND E,KSRE,2023-05-24T22:15:00Z,35.27,-96.68,24.0,16.0,120,5,,8.0,30.0,,,TRUE,TRUE,,,,,,VCTS,FEW,9000,FEW,12000,,,,,VFR,,,,,,,,,,,,METAR,306.0
KSRB 242215Z AUTO 03007KT 10SM CLR 25/10 A2999 RMK AO2,KSRB,2023-05-24T22:15:00Z,36.05,-85.53,25.0,10.0,30,7,,10.0,29.991142,,,TRUE,TRUE,,,,,,,CLR,,,,,,,,VFR,,,,,,,,,,,,METAR,303.0
KSPK 242215Z AUTO 00000KT 10SM CLR 26/04 A2984 RMK AO2,KSPK,2023-05-24T22:15:00Z,40.15,-111.67,26.0,4.0,0,0,,10.0,29.840551,,,TRUE,TRUE,,,,,,,CLR,,,,,,,,VFR,,,,,,,,,,,,METAR,1381.0
KSPF 242215Z AUTO 12003KT 4SM HZ SCT075 SCT085 25/14 A2990 RMK AO2,KSPF,2023-05-24T22:15:00Z,44.47,-103.78,25.0,14.0,120,3,,4.0,29.899607,,,TRUE,TRUE,,,,,,HZ,SCT,7500,SCT,8500,,,,,MVFR,,,,,,,,,,,,SPECI,1191.0
KSPA 242215Z AUTO 05005KT 10SM CLR 23/00 A2997 RMK AO2,KSPA,2023-05-24T22:15:00Z,34.92,-81.95,23.0,0.0,50,5,,10.0,29.970472,,,TRUE,TRUE,,,,,,,CLR,,,,,,,,VFR,,,,,,,,,,,,METAR,242.0
KSOW 242215Z AUTO 20017KT 10SM CLR 25/M06 A3008 RMK AO2,KSOW,2023-05-24T22:15:00Z,34.27,-110.0,25.0,-6.0,200,17,,10.0,30.079725,,,TRUE,TRUE,,,,,,,CLR,,,,,,,,VFR,,,,,,,,,,,,SPECI,1954.0
KSOA 242215Z AUTO 09011G17KT 070V130 10SM 29/15 A2997 RMK AO2,KSOA,2023-05-24T22:15:00Z,30.58,-100.65,29.0,15.0,90,11,17,10.0,29.970472,,,TRUE,TRUE,,,,,,,,,,,,,,,,,,,,,,,,,,,METAR,654.0
KSNL 242215Z AUTO 13010KT 10SM SCT038 BKN050 OVC100 26/16 A2999 RMK AO2 LTG DSNT E T02580158,KSNL,2023-05-24T22:15:00Z,35.35,-96.95,25.8,15.8,130,10,,10.0,29.991142,,,TRUE,TRUE,,,,,,,SCT,3800,BKN,5000,OVC,10000,,,VFR,,,,,,,,,,,,SPECI,327.0
KSNK 242215Z AUTO 20010KT 10SM CLR 26/16 A2997 RMK AO2 T02620157,KSNK,2023-05-24T22:15:00Z,32.7,-100.95,26.2,15.7,200,10,,10.0,29.970472,,,TRUE,TRUE,,,,,,,CLR,,,,,,,,VFR,,,,,,,,,,,,METAR,738.0
KSNC 242215Z AUTO 18006KT 10SM CLR 18/M02 A2993 RMK AO2,KSNC,2023-05-24T22:15:00Z,41.38,-72.5,18.0,-2.0,180,6,,10.0,29.929134,,,TRUE,TRUE,,,,,,,CLR,,,,,,,,VFR,,,,,,,,,,,,SPECI,114.0
KSMS 242215Z AUTO 03010KT 9SM CLR 26/03 A2992 RMK AO2,KSMS,2023-05-24T22:15:00Z,34.0,-80.37,26.0,3.0,30,10,,9.0,29.920275,,,TRUE,TRUE,,,,,,,CLR,,,,,,,,VFR,,,,,,,,,,,,SPECI,53.0
KSME 242215Z AUTO 07011G16KT 10SM CLR 26/10 A2999 RMK AO2,KSME,2023-05-24T22:15:00Z,37.05,-84.62,26.0,10.0,70,11,16,10.0,29.991142,,,TRUE,TRUE,,,,,,,CLR,,,,,,,,VFR,,,,,,,,,,,,METAR,279.0
KSMD 242215Z AUTO 05010G15KT 7SM CLR 25/11 A3011 RMK A01,KSMD,2023-05-24T22:15:00Z,41.15,-85.15,25.0,11.0,50,10,15,7.0,30.109253,,,TRUE,TRUE,,,,,,,CLR,,,,,,,,VFR,,,,,,,,,,,,METAR,252.0
KSLR 242215Z AUTO 00000KT 10SM CLR 29/17 A2997 RMK AO2 T02860168,KSLR,2023-05-24T22:15:00Z,33.17,-95.62,28.6,16.8,0,0,,10.0,29.970472,,,TRUE,TRUE,,,,,,,CLR,,,,,,,,VFR,,,,,,,,,,,,METAR,144.0
KSLH 242215Z AUTO 07007KT 10SM CLR 13/M00 A3035 RMK AO2,KSLH,2023-05-24T22:15:00Z,45.65,-84.52,13.0,0.0,70,7,,10.0,30.351377,,,TRUE,TRUE,,,,,,,CLR,,,,,,,,VFR,,,,,,,,,,,,SPECI,193.0
KSLB 242215Z AUTO 13006G18KT 10SM CLR 28/03 A3007 RMK AO2,KSLB,2023-05-24T22:15:00Z,42.6,-95.23,28.0,3.0,130,6,18,10.0,30.070866,,,TRUE,TRUE,,,,,,,CLR,,,,,,,,VFR,,,,,,,,,,,,SPECI,450.0
KSJX 242215Z AUTO 03006KT 10SM CLR 15/01 A3037 RMK AO2 T01450007,KSJX,2023-05-24T22:15:00Z,45.7,-85.57,14.5,0.7,30,6,,10.0,30.369095,,,TRUE,TRUE,,,,,,,CLR,,,,,,,,VFR,,,,,,,,,,,,SPECI,202.0
KSJS 242215Z AUTO 00000KT 10SM CLR 24/11 A3004 RMK AO2 T02400107,KSJS,2023-05-24T22:15:00Z,37.75,-82.63,24.0,10.7,0,0,,10.0,30.041338,,,TRUE,TRUE,,,,,,,CLR,,,,,,,,VFR,,,,,,,,,,,,METAR,359.0
KSIK 242215Z AUTO 05008G15KT 10SM CLR 30/11 A2999 RMK AO2,KSIK,2023-05-24T22:15:00Z,36.9,-89.57,30.0,11.0,50,8,15,10.0,29.991142,,,TRUE,TRUE,,,,,,,CLR,,,,,,,,VFR,,,,,,,,,,,,SPECI,95.0
KSHL 242215Z AUTO 15011KT 10SM CLR 29/05 A3004 RMK AO2,KSHL,2023-05-24T22:15:00Z,43.22,-95.83,29.0,5.0,150,11,,10.0,30.041338,,,TRUE,TRUE,,,,,,,CLR,,,,,,,,VFR,,,,,,,,,,,,SPECI,430.0
KSHD 242215Z AUTO 10006KT 10SM CLR 25/08 A3001 RMK AO2 T02450075,KSHD,2023-05-24T22:15:00Z,38.27,-78.9,24.5,7.5,100,6,,10.0,30.008858,,,TRUE,TRUE,,,,,,,CLR,,,,,,,,VFR,,,,,,,,,,,,SPECI,360.0
KSGS 242215Z AUTO 09009KT 10SM CLR 23/11 A3018 RMK AO2 T02330105,KSGS,2023-05-24T22:15:00Z,44.87,-93.03,23.3,10.5,90,9,,10.0,30.180119,,,TRUE,TRUE,,,,,,,CLR,,,,,,,,VFR,,,,,,,,,,,,SPECI,250.0
KSFQ 242215Z AUTO 02005KT 10SM SCT100 22/05 A2998 RMK AO2 T02180053,KSFQ,2023-05-24T22:15:00Z,36.68,-76.6,21.8,5.3,20,5,,10.0,29.97933,,,TRUE,TRUE,,,,,,,SCT,10000,,,,,,,VFR,,,,,,,,,,,,SPECI,19.0
KSEZ 242215Z AUTO 18006G18KT 10SM CLR 27/M01 A2998 RMK AO2,KSEZ,2023-05-24T22:15:00Z,34.85,-111.78,27.0,-1.0,180,6,18,10.0,29.97933,,,TRUE,TRUE,,,,,,,CLR,,,,,,,,VFR,,,,,,,,,,,,METAR,1455.0
KSEP 242215Z AUTO 09007KT 10SM BKN039 BKN044 27/17 A2998 RMK AO2 T02720171,KSEP,2023-05-24T22:15:00Z,32.22,-98.17,27.2,17.1,90,7,,10.0,29.97933,,,TRUE,TRUE,,,,,,,BKN,3900,BKN,4400,,,,,VFR,,,,,,,,,,,,METAR,399.0
KSEM 242215Z AUTO 01008KT 10SM FEW028 SCT095 24/19 A2992 RMK AO2,KSEM,2023-05-24T22:15:00Z,32.35,-86.98,24.0,19.0,10,8,,10.0,29.920275,,,TRUE,TRUE,,,,,,,FEW,2800,SCT,9500,,,,,VFR,,,,,,,,,,,,METAR,48.0
KSEF 242215Z AUTO 06007KT 10SM BKN100 BKN120 23/ A2983 RMK AO2 LTG DSNT SE S AND NW T0227////,KSEF,2023-05-24T22:15:00Z,27.45,-81.35,22.7,,60,7,,10.0,29.828741,,,TRUE,TRUE,,,,,,,BKN,10000,BKN,12000,,,,,VFR,,,,,,,,,,,,SPECI,17.0
KSDC 242215Z AUTO 05003KT 10SM CLR 12/06 A3019 RMK AO2,KSDC,2023-05-24T22:15:00Z,43.23,-77.12,12.0,6.0,50,3,,10.0,30.188976,,,TRUE,TRUE,,,,,,,CLR,,,,,,,,VFR,,,,,,,,,,,,SPECI,127.0
KSDA 242215Z AUTO 13007KT 090V150 10SM FEW070 SCT080 29/13 A3001 RMK AO2,KSDA,2023-05-24T22:15:00Z,40.75,-95.42,29.0,13.0,130,7,,10.0,30.008858,,,TRUE,TRUE,,,,,,,FEW,7000,SCT,8000,,,,,VFR,,,,,,,,,,,,SPECI,293.0
KSCX 242215Z AUTO 04006G11KT 10SM CLR 23/09 A3001 RMK A01,KSCX,2023-05-24T22:15:00Z,36.45,-84.58,23.0,9.0,40,6,11,10.0,30.008858,,,TRUE,TRUE,,,,,,,CLR,,,,,,,,VFR,,,,,,,,,,,,METAR,462.0
KSCD 242215Z AUTO 00000KT 10SM SCT043 SCT085 SCT120 24/16 A2995 RMK AO2 T02440157,KSCD,2023-05-24T22:15:00Z,33.17,-86.3,24.4,15.7,0,0,,10.0,29.949802,,,TRUE,TRUE,,,,,,,SCT,4300,SCT,8500,SCT,12000,,,VFR,,,,,,,,,,,,SPECI,164.0
KSBS 242215Z AUTO 00000KT 10SM SCT110 20/00 A3003 RMK AO1 T01960003,KSBS,2023-05-24T22:15:00Z,40.52,-106.87,19.6,0.3,0,0,,10.0,30.029528,,,TRUE,TRUE,,,,,,,SCT,11000,,,,,,,VFR,,,,,,,,,,,,METAR,2097.0
KSBO 242215Z AUTO 04005KT 10SM CLR 26/08 A2992 RMK AO2,KSBO,2023-05-24T22:15:00Z,32.62,-82.37,26.0,8.0,40,5,,10.0,29.920275,,,TRUE,TRUE,,,,,,,CLR,,,,,,,,VFR,,,,,,,,,,,,SPECI,98.0
KSAZ 242215Z AUTO 10010G15KT 10SM CLR 14/06 A3022 RMK AO2,KSAZ,2023-05-24T22:15:00Z,46.37,-94.8,14.0,6.0,100,10,15,10.0,30.221457,,,TRUE,TRUE,,,,,,,CLR,,,,,,,,VFR,,,,,,,,,,,,SPECI,391.0
KSAR 242215Z AUTO 08006KT 10SM CLR 28/10 A3004 RMK AO2 T02810101,KSAR,2023-05-24T22:15:00Z,38.15,-89.7,28.1,10.1,80,6,,10.0,30.041338,,,TRUE,TRUE,,,,,,,CLR,,,,,,,,VFR,,,,,,,,,,,,METAR,162.0
KSAN 242215Z 21007G16KT 10SM BKN030 18/11 A2996 RMK AO2 T01780106,KSAN,2023-05-24T22:15:00Z,32.73,-117.18,17.8,10.6,210,7,16,10.0,29.958662,,,,TRUE,,,,,,,BKN,3000,,,,,,,MVFR,,,,,,,,,,,,METAR,3.0
KSAA 242215Z AUTO 13013G17KT 10SM CLR 16/05 A3008 RMK AO2,KSAA,2023-05-24T22:15:00Z,41.45,-106.8,16.0,5.0,130,13,17,10.0,30.079725,,,TRUE,TRUE,,,,,,,CLR,,,,,,,,VFR,,,,,,,,,,,,METAR,2093.0
KS52 242215Z AUTO 13011G18KT 090V150 10SM BKN085 BKN110 19/05 A2998 RMK AO2 T01870047,KS52,2023-05-24T22:15:00Z,48.42,-120.15,18.7,4.7,130,11,18,10.0,29.97933,,,TRUE,TRUE,,,,,,,BKN,8500,BKN,11000,,,,,VFR,,,,,,,,,,,,METAR,517.0
KS39 242215Z AUTO 32012KT 10SM CLR 21/00 A2994 RMK AO2,KS39,2023-05-24T22:15:00Z,44.28,-120.9,21.0,0.0,320,12,,10.0,29.940945,,,TRUE,TRUE,,,,,,,CLR,,,,,,,,VFR,,,,,,,,,,,,METAR,987.0
KS33 242215Z AUTO 33007KT 10SM CLR A2996 RMK AO2,KS33,2023-05-24T22:15:00Z,44.67,-121.15,,,330,7,,10.0,29.958662,,,TRUE,TRUE,,,,,,,CLR,,,,,,,,VFR,,,,,,,,,,,,METAR,739.0
KS32 242215Z AUTO 11020G28KT 9SM CLR 20/15 A3009 RMK AO2 TSNO,KS32,2023-05-24T22:15:00Z,47.42,-98.1,20.0,15.0,110,20,28,9.0,30.088583,,,TRUE,TRUE,,,TRUE,,,,CLR,,,,,,,,VFR,,,,,,,,,,,,SPECI,435.0
KS25 242215Z AUTO 15015G24KT 9SM FEW070 SCT085 29/14 A2987 RMK AO2,KS25,2023-05-24T22:15:00Z,47.8,-103.25,29.0,14.0,150,15,24,9.0,29.870079,,,TRUE,TRUE,,,,,,,FEW,7000,SCT,8500,,,,,VFR,,,,,,,,,,,,SPECI,632.0
KS24 242215Z AUTO 03015G24KT 10SM CLR 17/03 A3017 RMK AO2,KS24,2023-05-24T22:15:00Z,41.3,-83.03,17.0,3.0,30,15,24,10.0,30.171259,,,TRUE,TRUE,,,,,,,CLR,,,,,,,,VFR,,,,,,,,,,,,SPECI,203.0
KS21 242215Z AUTO 06007G15KT 10SM CLR 18/M01 A3000 RMK AO2,KS21,2023-05-24T22:15:00Z,43.88,-121.45,18.0,-1.0,60,7,15,10.0,30.0,,,TRUE,TRUE,,,,,,,CLR,,,,,,,,VFR,,,,,,,,,,,,METAR,1269.0
KS12 242215Z AUTO 34011G17KT 310V010 10SM CLR 21/08 A2998 RMK AO2,KS12,2023-05-24T22:15:00Z,,,21.0,8.0,340,11,17,10.0,29.97933,,,TRUE,TRUE,,,,,,,CLR,,,,,,,,VFR,,,,,,,,,,,,METAR,
KRZT 242215Z AUTO 04007KT 10SM BKN080 BKN120 25/08 A3003 RMK AO2 PWINO,KRZT,2023-05-24T22:15:00Z,39.43,-83.02,25.0,8.0,40,7,,10.0,30.029528,,,TRUE,TRUE,,,,,TRUE,,BKN,8000,BKN,12000,,,,,VFR,,,,,,,,,,,,SPECI,217.0
KRZR 242215Z AUTO 04008G15KT 9SM CLR 26/12 A2994 RMK A01,KRZR,2023-05-24T22:15:00Z,35.22,-84.8,26.0,12.0,40,8,15,9.0,29.940945,,,TRUE,TRUE,,,,,,,CLR,,,,,,,,VFR,,,,,,,,,,,,METAR,259.0
KRZL 242215Z AUTO 36010G22KT 10SM CLR 23/08 A3012 RMK AO2,KRZL,2023-05-24T22:15:00Z,40.95,-87.18,23.0,8.0,360,10,22,10.0,30.121063,,,TRUE,TRUE,,,,,,,CLR,,,,,,,,VFR,,,,,,,,,,,,METAR,210.0
KRYW 242215Z AUTO 03006KT 10SM CLR 26/18 A2995 RMK AO2 T02640179,KRYW,2023-05-24T22:15:00Z,30.5,-97.97,26.4,17.9,30,6,,10.0,29.949802,,,TRUE,TRUE,,,,,,,CLR,,,,,,,,VFR,,,,,,,,,,,,METAR,370.0
KRYN 242215Z AUTO VRB06G17KT 10SM CLR 34/M04 A2982 RMK AO2,KRYN,2023-05-24T22:15:00Z,32.15,-111.17,34.0,-4.0,0,6,17,10.0,29.819881,,,TRUE,TRUE,,,,,,,CLR,,,,,,,,VFR,,,,,,,,,,,,METAR,731.0
KRWV 242215Z AUTO 36005KT SCT046 28/17 A2991 RMK AO2 PWINO T02790172,KRWV,2023-05-24T22:15:00Z,30.52,-96.7,27.9,17.2,360,5,,,29.911417,,,TRUE,TRUE,,,,,TRUE,,SCT,4600,,,,,,,,,,,,,,,,,,,METAR,116.0
KRVL 242215Z AUTO 34017G22KT 9SM SCT070 BKN080 BKN090 24/12 A2995 RMK AO2,KRVL,2023-05-24T22:15:00Z,40.68,-77.63,24.0,12.0,340,17,22,9.0,29.949802,,,TRUE,TRUE,,,,,,,SCT,7000,BKN,8000,BKN,9000,,,VFR,,,,,,,,,,,,SPECI,250.0
KRVJ 242215Z AUTO 06007KT 020V080 10SM CLR 27/11 A2990 RMK AO2 T02660107,KRVJ,2023-05-24T22:15:00Z,32.07,-82.15,26.6,10.7,60,7,,10.0,29.899607,,,TRUE,TRUE,,,,,,,CLR,,,,,,,,VFR,,,,,,,,,,,,SPECI,60.0
KRVF 242215Z AUTO 00000KT 2SM VCTS RA FEW033 SCT045 BKN065 13/11 A2997 RMK AO2 LTG DSNT W AND NW,KRVF,2023-05-24T22:15:00Z,45.53,-112.3,13.0,11.0,0,0,,2.0,29.970472,,,TRUE,TRUE,,,,,,VCTS RA,FEW,3300,SCT,4500,BKN,6500,,,IFR,,,,,,,,,,,,METAR,1445.0
KRUG 242215Z AUTO 12024KT 10SM CLR 26/14 A2999 RMK AO2,KRUG,2023-05-24T22:15:00Z,48.38,-100.02,26.0,14.0,120,24,,10.0,29.991142,,,TRUE,TRUE,,,,,,,CLR,,,,,,,,VFR,,,,,,,,,,,,SPECI,469.0
KRTS 242215Z AUTO 17012G18KT 9SM -DZ FEW048 FEW055 FEW065 15/04 A2993 RMK AO2,KRTS,2023-05-24T22:15:00Z,39.67,-119.88,15.0,4.0,170,12,18,9.0,29.929134,,,TRUE,TRUE,,,,,,-DZ,FEW,4800,FEW,5500,FEW,6500,,,VFR,,,,,,,,,,,,METAR,1537.0
KRSN 242215Z AUTO 04005KT 10SM OVC041 24/21 A2995 RMK AO2 T02370206 $,KRSN,2023-05-24T22:15:00Z,32.52,-92.58,23.7,20.6,40,5,,10.0,29.949802,,,TRUE,TRUE,TRUE,,,,,,OVC,4100,,,,,,,VFR,,,,,,,,,,,,SPECI,86.0
KRRT 242215Z AUTO 06012KT 10SM SCT100 14/10 A3023 RMK AO2,KRRT,2023-05-24T22:15:00Z,48.93,-95.33,14.0,10.0,60,12,,10.0,30.230314,,,TRUE,TRUE,,,,,,,SCT,10000,,,,,,,VFR,,,,,,,,,,,,METAR,327.0
KRQO 242215Z AUTO 13008KT 4SM HZ BKN048 OVC060 27/17 A2999 RMK AO2 T02720174,KRQO,2023-05-24T22:15:00Z,35.47,-98.0,27.2,17.4,130,8,,4.0,29.991142,,,TRUE,TRUE,,,,,,HZ,BKN,4800,OVC,6000,,,,,MVFR,,,,,,,,,,,,SPECI,431.0
KRQB 242215Z AUTO 12007G20KT 110V180 10SM CLR 18/04 A3024 RMK AO2 T01820036,KRQB,2023-05-24T22:15:00Z,43.72,-85.5,18.2,3.6,120,7,20,10.0,30.239174,,,TRUE,TRUE,,,,,,,CLR,,,,,,,,VFR,,,,,,,,,,,,METAR,282.0
KRPJ 242215Z AUTO 05017G22KT 10SM CLR 22/08 A3016 RMK AO2 T02230084 TSNO,KRPJ,2023-05-24T22:15:00Z,41.88,-89.08,22.3,8.4,50,17,22,10.0,30.159449,,,TRUE,TRUE,,,TRUE,,,,CLR,,,,,,,,VFR,,,,,,,,,,,,SPECI,234.0
KRPH 242215Z AUTO 05007KT 10SM FEW045 28/18 A2992 RMK AO2 T02750183 $,KRPH,2023-05-24T22:15:00Z,33.12,-98.55,27.5,18.3,50,7,,10.0,29.920275,,,TRUE,TRUE,TRUE,,,,,,FEW,4500,,,,,,,VFR,,,,,,,,,,,,METAR,341.0
KRPD 242215Z AUTO 08009KT 10SM OVC095 16/07 A3030 RMK AO2 T01620072,KRPD,2023-05-24T22:15:00Z,45.42,-91.77,16.2,7.2,80,9,,10.0,30.301182,,,TRUE,TRUE,,,,,,,OVC,9500,,,,,,,VFR,,,,,,,,,,,,METAR,334.0
KROX 242215Z AUTO 12009KT 10SM CLR 20/05 A3021 RMK AO2,KROX,2023-05-24T22:15:00Z,48.85,-95.7,20.0,5.0,120,9,,10.0,30.209646,,,TRUE,TRUE,,,,,,,CLR,,,,,,,,VFR,,,,,,,,,,,,SPECI,320.0
KROS 242215Z AUTO 05008G15KT 030V100 10SM SCT095 17/10 A3026 RMK AO2 T01700097,KROS,2023-05-24T22:15:00Z,45.7,-92.95,17.0,9.7,50,8,15,10.0,30.259842,,,TRUE,TRUE,,,,,,,SCT,9500,,,,,,,VFR,,,,,,,,,,,,SPECI,282.0
KRNP 242215Z AUTO 02009KT 350V060 10SM CLR 15/M04 A3027 RMK AO2 T01501039,KRNP,2023-05-24T22:15:00Z,43.0,-84.13,15.0,-3.9,20,9,,10.0,30.268702,,,TRUE,TRUE,,,,,,,CLR,,,,,,,,VFR,,,,,,,,,,,,SPECI,224.0
KRNH 242215Z AUTO 07009G15KT 10SM CLR 19/09 A3024 RMK AO2 T01850088,KRNH,2023-05-24T22:15:00Z,45.15,-92.53,18.5,8.8,70,9,15,10.0,30.239174,,,TRUE,TRUE,,,,,,,CLR,,,,,,,,VFR,,,,,,,,,,,,SPECI,302.0
KRNC 242215Z AUTO 05010G16KT 10SM CLR 25/11 A2998 RMK A01,KRNC,2023-05-24T22:15:00Z,35.7,-85.85,25.0,11.0,50,10,16,10.0,29.97933,,,TRUE,TRUE,,,,,,,CLR,,,,,,,,VFR,,,,,,,,,,,,METAR,310.0
KRMY 242215Z AUTO 04011G19KT 10SM CLR 18/M02 A3021 RMK AO2 T01831019,KRMY,2023-05-24T22:15:00Z,42.25,-84.95,18.3,-1.9,40,11,19,10.0,30.209646,,,TRUE,TRUE,,,,,,,CLR,,,,,,,,VFR,,,,,,,,,,,,METAR,285.0
KRMN 242215Z AUTO 12004KT 10SM CLR 25/07 A2998 RMK AO2 T02520070,KRMN,2023-05-24T22:15:00Z,38.4,-77.45,25.2,7.0,120,4,,10.0,29.97933,,,TRUE,TRUE,,,,,,,CLR,,,,,,,,VFR,,,,,,,,,,,,SPECI,50.0
KRLD 242215Z AUTO 04005KT 10SM CLR 26/02 A2991 RMK AO2 T02600020,KRLD,2023-05-24T22:15:00Z,46.3,-119.3,26.0,2.0,40,5,,10.0,29.911417,,,TRUE,TRUE,,,,,,,CLR,,,,,,,,VFR,,,,,,,,,,,,METAR,118.0
KRKW 242215Z AUTO VRB06G14KT 330V030 10SM CLR 23/08 A3000 RMK A01,KRKW,2023-05-24T22:15:00Z,35.92,-84.68,23.0,8.0,0,6,14,10.0,30.0,,,TRUE,TRUE,,,,,,,CLR,,,,,,,,VFR,,,,,,,,,,,,METAR,505.0
KRKR 242215Z AUTO 13004KT 10SM SCT036 26/17 A3000 RMK AO2,KRKR,2023-05-24T22:15:00Z,35.02,-94.62,26.0,17.0,130,4,,10.0,30.0,,,TRUE,TRUE,,,,,,,SCT,3600,,,,,,,VFR,,,,,,,,,,,,SPECI,136.0
KRGK 242215Z AUTO 08007G14KT 10SM CLR 23/09 A3018 RMK AO2,KRGK,2023-05-24T22:15:00Z,44.58,-92.48,23.0,9.0,80,7,14,10.0,30.180119,,,TRUE,TRUE,,,,,,,CLR,,,,,,,,VFR,,,,,,,,,,,,SPECI,238.0
KRGA 242215Z AUTO 06006KT 10SM CLR 26/11 A3004 RMK AO2,KRGA,2023-05-24T22:15:00Z,37.63,-84.33,26.0,11.0,60,6,,10.0,30.041338,,,TRUE,TRUE,,,,,,,CLR,,,,,,,,VFR,,,,,,,,,,,,SPECI,301.0
KRFI 242215Z AUTO 07006KT 10SM CLR 30/14 A2993 RMK AO2 T02950135,KRFI,2023-05-24T22:15:00Z,32.15,-94.85,29.5,13.5,70,6,,10.0,29.929134,,,TRUE,TRUE,,,,,,,CLR,,,,,,,,VFR,,,,,,,,,,,,METAR,133.0
KREG 242215Z AUTO 02005KT 10SM SCT044 SCT050 29/18 A2986 RMK AO2 T02890179,KREG,2023-05-24T22:15:00Z,30.17,-90.93,28.9,17.9,20,5,,10.0,29.861221,,,TRUE,TRUE,,,,,,,SCT,4400,SCT,5000,,,,,VFR,,,,,,,,,,,,SPECI,3.0
KRDK 242215Z AUTO 13007G13KT 090V170 10SM FEW070 FEW080 29/13 A3003 RMK AO2,KRDK,2023-05-24T22:15:00Z,41.02,-95.27,29.0,13.0,130,7,13,10.0,30.029528,,,TRUE,TRUE,,,,,,,FEW,7000,FEW,8000,,,,,VFR,,,,,,,,,,,,SPECI,317.0
KRCX 242215Z AUTO 00000KT 10SM -RA OVC090 12/11 A3032 RMK AO2 P0001 T01150112,KRCX,2023-05-24T22:15:00Z,45.5,-91.0,11.5,11.2,0,0,,10.0,30.318897,,,TRUE,TRUE,,,,,,-RA,OVC,9000,,,,,,,VFR,,,,,,0.01,,,,,,METAR,373.0
KRCV 242215Z AUTO 35014G22KT 10SM SCT080 SCT095 14/06 A3017 RMK AO2 LTG DSNT E T01380063,KRCV,2023-05-24T22:15:00Z,37.72,-106.35,13.8,6.3,350,14,22,10.0,30.171259,,,TRUE,TRUE,,,,,,,SCT,8000,SCT,9500,,,,,VFR,,,,,,,,,,,,METAR,2418.0
KRCR 242215Z AUTO 04011KT 10SM SCT110 25/12 A3009 RMK AO2,KRCR,2023-05-24T22:15:00Z,41.07,-86.18,25.0,12.0,40,11,,10.0,30.088583,,,TRUE,TRUE,,,,,,,SCT,11000,,,,,,,VFR,,,,,,,,,,,,SPECI,240.0
KRCM 242215Z AUTO 10007KT 10SM -VCTSDZ CLR 21/15 A3006 RMK AO2 LTG DSNT ALQS,KRCM,2023-05-24T22:15:00Z,38.78,-93.8,21.0,15.0,100,7,,10.0,30.059055,,,TRUE,TRUE,,,,,,VCTS -DZ,CLR,,,,,,,,VFR,,,,,,,,,,,,METAR,242.0
KRBW 242215Z AUTO 36009KT 10SM CLR 26/04 A2992 RMK AO2,KRBW,2023-05-24T22:15:00Z,32.92,-80.63,26.0,4.0,360,9,,10.0,29.920275,,,TRUE,TRUE,,,,,,,CLR,,,,,,,,VFR,,,,,,,,,,,,SPECI,30.0
KRBO 242215Z AUTO 13006KT 10SM CLR A2987 RMK AO2,KRBO,2023-05-24T22:15:00Z,27.78,-97.68,,,130,6,,10.0,29.870079,,,TRUE,TRUE,,,,,,,CLR,,,,,,,,VFR,,,,,,,,,,,,SPECI,24.0
KRAW 242215Z AUTO 10006G18KT 10SM SCT065 SCT120 25/15 A3006 RMK AO2 LTG DSNT N AND NW,KRAW,2023-05-24T22:15:00Z,38.35,-93.35,25.0,15.0,100,6,18,10.0,30.059055,,,TRUE,TRUE,,,,,,,SCT,6500,SCT,12000,,,,,VFR,,,,,,,,,,,,SPECI,285.0
KRAS 242215Z AUTO 08009KT 10SM CLR 28/22 A2989 RMK AO2 T02830218,KRAS,2023-05-24T22:15:00Z,27.82,-97.08,28.3,21.8,80,9,,10.0,29.890747,,,TRUE,TRUE,,,,,,,CLR,,,,,,,,VFR,,,,,,,,,,,,METAR,3.0
KPZZ 242215Z AUTO 05011KT 10SM FEW038 27/20 A2984 RMK A01,KPZZ,2023-05-24T22:15:00Z,28.43,-91.03,27.0,20.0,50,11,,10.0,29.840551,,,TRUE,TRUE,,,,,,,FEW,3800,,,,,,,VFR,,,,,,,,,,,,METAR,25.0
KPZQ 242215Z AUTO 00000KT 10SM CLR 12/M01 A3038 RMK AO2 T01161012,KPZQ,2023-05-24T22:15:00Z,45.4,-83.82,11.6,-1.2,0,0,,10.0,30.380905,,,TRUE,TRUE,,,,,,,CLR,,,,,,,,VFR,,,,,,,,,,,,SPECI,199.0
KPYX 242215Z AUTO 15012G17KT 10SM SCT043 SCT055 SCT075 22/11 A2998 RMK AO2 T02190113,KPYX,2023-05-24T22:15:00Z,36.42,-100.75,21.9,11.3,150,12,17,10.0,29.97933,,,TRUE,TRUE,,,,,,,SCT,4300,SCT,5500,SCT,7500,,,VFR,,,,,,,,,,,,METAR,890.0
KPXE 242215Z AUTO 03007KT 10SM CLR 26/11 A2992 RMK AO2 T02580105,KPXE,2023-05-24T22:15:00Z,32.52,-83.77,25.8,10.5,30,7,,10.0,29.920275,,,TRUE,TRUE,,,,,,,CLR,,,,,,,,VFR,,,,,,,,,,,,SPECI,126.0
KPWD 242215Z AUTO 17005KT 10SM CLR 25/14 A2986 RMK AO2,KPWD,2023-05-24T22:15:00Z,48.78,-104.52,25.0,14.0,170,5,,10.0,29.861221,,,TRUE,TRUE,,,,,,,CLR,,,,,,,,VFR,,,,,,,,,,,,METAR,690.0
KPWC 242215Z AUTO 09009KT 10SM OVC090 09/04 A3030 RMK AO2,KPWC,2023-05-24T22:15:00Z,46.72,-94.38,9.0,4.0,90,9,,10.0,30.301182,,,TRUE,TRUE,,,,,,,OVC,9000,,,,,,,VFR,,,,,,,,,,,,SPECI,394.0
KPVW 242215Z AUTO 16007KT 130V190 10SM SCT037 BKN050 24/16 A2999 RMK AO2 T02400155,KPVW,2023-05-24T22:15:00Z,34.17,-101.72,24.0,15.5,160,7,,10.0,29.991142,,,TRUE,TRUE,,,,,,,SCT,3700,BKN,5000,,,,,VFR,,,,,,,,,,,,METAR,1029.0
KPVJ 242215Z AUTO 08004KT 10SM CLR 28/16 A2996 RMK AO2 T02800156,KPVJ,2023-05-24T22:15:00Z,34.72,-97.22,28.0,15.6,80,4,,10.0,29.958662,,,TRUE,TRUE,,,,,,,CLR,,,,,,,,VFR,,,,,,,,,,,,SPECI,287.0
KPVF 242215Z AUTO 21006KT 10SM CLR 21/09 A2990 RMK AO1,KPVF,2023-05-24T22:15:00Z,38.72,-120.75,21.0,9.0,210,6,,10.0,29.899607,,,TRUE,TRUE,,,,,,,CLR,,,,,,,,VFR,,,,,,,,,,,,METAR,788.0
KPVE 242215Z AUTO 04005KT 10SM BKN065 25/17 A2997 RMK A01,KPVE,2023-05-24T22:15:00Z,35.65,-88.2,25.0,17.0,40,5,,10.0,29.970472,,,TRUE,TRUE,,,,,,,BKN,6500,,,,,,,VFR,,,,,,,,,,,,METAR,146.0
KPVB 242215Z AUTO 06012G18KT 10SM CLR 24/08 A3018 RMK AO1 T02350081,KPVB,2023-05-24T22:15:00Z,42.68,-90.43,23.5,8.1,60,12,18,10.0,30.180119,,,TRUE,TRUE,,,,,,,CLR,,,,,,,,VFR,,,,,,,,,,,,METAR,311.0
KPUJ 242215Z AUTO 00000KT 7SM CLR 23/12 A2997 RMK AO2,KPUJ,2023-05-24T22:15:00Z,33.92,-84.93,23.0,12.0,0,0,,7.0,29.970472,,,TRUE,TRUE,,,,,,,CLR,,,,,,,,VFR,,,,,,,,,,,,METAR,385.0
KPTT 242215Z AUTO 11007KT 10SM CLR 27/12 A3001 RMK AO2 T02660119,KPTT,2023-05-24T22:15:00Z,37.7,-98.75,26.6,11.9,110,7,,10.0,30.008858,,,TRUE,TRUE,,,,,,,CLR,,,,,,,,VFR,,,,,,,,,,,,SPECI,594.0
KPTS 242215Z AUTO 27004KT 10SM CLR 23/19 A3003 RMK AO2 T02250190 PWINO,KPTS,2023-05-24T22:15:00Z,37.45,-94.73,22.5,19.0,270,4,,10.0,30.029528,,,TRUE,TRUE,,,,,TRUE,,CLR,,,,,,,,VFR,,,,,,,,,,,,METAR,286.0
KPTD 242215Z AUTO 00000KT 10SM OVC049 10/08 A3015 RMK AO2,KPTD,2023-05-24T22:15:00Z,44.68,-74.95,10.0,8.0,0,0,,10.0,30.15059,,,TRUE,TRUE,,,,,,,OVC,4900,,,,,,,VFR,,,,,,,,,,,,SPECI,144.0
KPTB 242215Z AUTO 05007KT 10SM CLR 23/02 A2999 RMK AO2 T02300024,KPTB,2023-05-24T22:15:00Z,37.17,-77.52,23.0,2.4,50,7,,10.0,29.991142,,,TRUE,TRUE,,,,,,,CLR,,,,,,,,VFR,,,,,,,,,,,,SPECI,56.0
KPSO 242215Z AUTO 26013G20KT 10SM CLR 23/M01 A3011 RMK AO2 T02251009,KPSO,2023-05-24T22:15:00Z,37.28,-107.05,22.5,-0.9,260,13,20,10.0,30.109253,,,TRUE,TRUE,,,,,,,CLR,,,,,,,,VFR,,,,,,,,,,,,METAR,2332.0
KPSN 242215Z AUTO 12005KT 7SM CLR 29/19 A2990 RMK AO2,KPSN,2023-05-24T22:15:00Z,31.78,-95.7,29.0,19.0,120,5,,7.0,29.899607,,,TRUE,TRUE,,,,,,,CLR,,,,,,,,VFR,,,,,,,,,,,,METAR,124.0
KPSK 242215Z AUTO 04004KT 10SM SCT075 23/08 A3001 RMK AO2 T02260075,KPSK,2023-05-24T22:15:00Z,37.13,-80.67,22.6,7.5,40,4,,10.0,30.008858,,,TRUE,TRUE,,,,,,,SCT,7500,,,,,,,VFR,,,,,,,,,,,,SPECI,629.0
KPRS 242215Z AUTO 15007KT 10SM CLR 37/12 A2982 RMK AO2 T03670119,KPRS,2023-05-24T22:15:00Z,29.63,-104.35,36.7,11.9,150,7,,10.0,29.819881,,,TRUE,TRUE,,,,,,,CLR,,,,,,,,VFR,,,,,,,,,,,,METAR,890.0
KPRO 242215Z AUTO 16012KT 10SM SCT075 29/09 A3006 RMK AO2 T02930093,KPRO,2023-05-24T22:15:00Z,41.83,-94.17,29.3,9.3,160,12,,10.0,30.059055,,,TRUE,TRUE,,,,,,,SCT,7500,,,,,,,VFR,,,,,,,,,,,,METAR,308.0
KPRG 242215Z AUTO 02007KT 10SM CLR 28/10 A3005 RMK AO2 T02780095,KPRG,2023-05-24T22:15:00Z,39.7,-87.67,27.8,9.5,20,7,,10.0,30.050198,,,TRUE,TRUE,,,,,,,CLR,,,,,,,,VFR,,,,,,,,,,,,SPECI,197.0
KPPQ 242215Z AUTO 14003KT 10SM SCT090 30/09 A3006 RMK AO2 T03010094,KPPQ,2023-05-24T22:15:00Z,39.63,-90.78,30.1,9.4,140,3,,10.0,30.059055,,,TRUE,TRUE,,,,,,,SCT,9000,,,,,,,VFR,,,,,,,,,,,,SPECI,215.0
KPPO 242215Z AUTO 35012G19KT 10SM CLR 19/11 A3014 RMK AO2 T01940105,KPPO,2023-05-24T22:15:00Z,41.57,-86.73,19.4,10.5,350,12,19,10.0,30.138779,,,TRUE,TRUE,,,,,,,CLR,,,,,,,,VFR,,,,,,,,,,,,METAR,242.0
KPPA 242215Z AUTO 12011G16KT 10SM 25/16 A3000 RMK AO2 T02540155,KPPA,2023-05-24T22:15:00Z,35.62,-101.0,25.4,15.5,120,11,16,10.0,30.0,,,TRUE,TRUE,,,,,,,,,,,,,,,,,,,,,,,,,,,SPECI,989.0
KPOY 242215Z AUTO 14004KT 10SM SCT050 SCT090 SCT120 18/04 A2989 RMK AO2 LTG DSNT ALQS,KPOY,2023-05-24T22:15:00Z,44.87,-108.8,18.0,4.0,140,4,,10.0,29.890747,,,TRUE,TRUE,,,,,,,SCT,5000,SCT,9000,SCT,12000,,,VFR,,,,,,,,,,,,METAR,1547.0
KPOV 242215Z AUTO 02010G15KT 360V060 10SM SCT040 19/07 A3011 RMK AO2 T01870070 PWINO,KPOV,2023-05-24T22:15:00Z,41.22,-81.25,18.7,7.0,20,10,15,10.0,30.109253,,,TRUE,TRUE,,,,,TRUE,,SCT,4000,,,,,,,VFR,,,,,,,,,,,,SPECI,363.0
KPO1 242215Z AUTO 14020G29KT 1 1/2SM HZ CLR 30/13 A2980 RMK AO2 LTG DSNT SW AND W VIS 5V5,KPO1,2023-05-24T22:15:00Z,48.13,-105.17,30.0,13.0,140,20,29,1.5,29.799213,,,TRUE,TRUE,,,,,,HZ,CLR,,,,,,,,IFR,,,,,,,,,,,,METAR,621.0
KPNT 242215Z AUTO 06016G21KT 10SM CLR 28/07 A3011 RMK AO2 T02760072,KPNT,2023-05-24T22:15:00Z,40.92,-88.62,27.6,7.2,60,16,21,10.0,30.109253,,,TRUE,TRUE,,,,,,,CLR,,,,,,,,VFR,,,,,,,,,,,,SPECI,199.0
KPNM 242215Z AUTO 05012G16KT 10SM SCT095 17/08 A3023 RMK AO2,KPNM,2023-05-24T22:15:00Z,45.53,-93.6,17.0,8.0,50,12,16,10.0,30.230314,,,TRUE,TRUE,,,,,,,SCT,9500,,,,,,,VFR,,,,,,,,,,,,SPECI,298.0
KPNA 242215Z AUTO 03008KT 10SM SCT075 BKN095 17/00 A3003 RMK AO2,KPNA,2023-05-24T22:15:00Z,42.8,-109.8,17.0,0.0,30,8,,10.0,30.029528,,,TRUE,TRUE,,,,,,,SCT,7500,BKN,9500,,,,,VFR,,,,,,,,,,,,METAR,2158.0
KPMV 242215Z AUTO 15007KT 10SM SCT080 28/10 A3003 RMK AO2 T02780100,KPMV,2023-05-24T22:15:00Z,40.95,-95.92,27.8,10.0,150,7,,10.0,30.029528,,,TRUE,TRUE,,,,,,,SCT,8000,,,,,,,VFR,,,,,,,,,,,,SPECI,365.0
KPMU 242215Z AUTO 00000KT 10SM CLR 28/16 A2996 RMK AO2,KPMU,2023-05-24T22:15:00Z,34.37,-89.9,28.0,16.0,0,0,,10.0,29.958662,,,TRUE,TRUE,,,,,,,CLR,,,,,,,,VFR,,,,,,,,,,,,SPECI,67.0
KPLU 242215Z AUTO VRB05KT 10SM FEW045 20/07 A3005 RMK AO2,KPLU,2023-05-24T22:15:00Z,47.1,-122.28,20.0,7.0,0,5,,10.0,30.050198,,,TRUE,TRUE,,,,,,,FEW,4500,,,,,,,VFR,,,,,,,,,,,,SPECI,164.0
KPLR 242215Z AUTO 04006G11KT 10SM CLR 26/15 A2995 RMK A01,KPLR,2023-05-24T22:15:00Z,33.57,-86.25,26.0,15.0,40,6,11,10.0,29.949802,,,TRUE,TRUE,,,,,,,CLR,,,,,,,,VFR,,,,,,,,,,,,SPECI,145.0
KPLD 242215Z AUTO 08007KT 030V120 7SM CLR 25/10 A3008 RMK AO2,KPLD,2023-05-24T22:15:00Z,40.45,-84.98,25.0,10.0,80,7,,7.0,30.079725,,,TRUE,TRUE,,,,,,,CLR,,,,,,,,VFR,,,,,,,,,,,,METAR,282.0
KPKV 242215Z AUTO 10004KT 10SM CLR 32/21 A2987 RMK AO2 T03160205,KPKV,2023-05-24T22:15:00Z,28.65,-96.68,31.6,20.5,100,4,,10.0,29.870079,,,TRUE,TRUE,,,,,,,CLR,,,,,,,,VFR,,,,,,,,,,,,METAR,8.0
KPJC 242215Z AUTO 35013G17KT 10SM CLR 22/08 A3003 RMK AO2,KPJC,2023-05-24T22:15:00Z,40.8,-80.17,22.0,8.0,350,13,17,10.0,30.029528,,,TRUE,TRUE,,,,,,,CLR,,,,,,,,VFR,,,,,,,,,,,,SPECI,273.0
KPIM 242215Z AUTO 06004KT 10SM CLR 25/13 A2995 RMK AO2 T02540126,KPIM,2023-05-24T22:15:00Z,32.83,-84.88,25.4,12.6,60,4,,10.0,29.949802,,,TRUE,TRUE,,,,,,,CLR,,,,,,,,VFR,,,,,,,,,,,,SPECI,274.0
KPHT 242215Z AUTO 06007KT 10SM SCT065 SCT075 28/17 A2997 RMK A01,KPHT,2023-05-24T22:15:00Z,36.33,-88.38,28.0,17.0,60,7,,10.0,29.970472,,,TRUE,TRUE,,,,,,,SCT,6500,SCT,7500,,,,,VFR,,,,,,,,,,,,METAR,172.0
KPHN 242215Z AUTO 35017G27KT 320V020 10SM CLR 11/M00 A3026 RMK AO2,KPHN,2023-05-24T22:15:00Z,42.92,-82.52,11.0,0.0,350,17,27,10.0,30.259842,,,TRUE,TRUE,,,,,,,CLR,,,,,,,,VFR,,,,,,,,,,,,METAR,195.0
KPEZ 242215Z AUTO 09005G16KT 10SM CLR 33/17 A2988 RMK AO2 T03280174,KPEZ,2023-05-24T22:15:00Z,28.95,-98.52,32.8,17.4,90,5,16,10.0,29.878937,,,TRUE,TRUE,,,,,,,CLR,,,,,,,,VFR,,,,,,,,,,,,METAR,126.0
KPEX 242215Z AUTO 08013G18KT 10SM CLR 22/12 A3017 RMK AO2,KPEX,2023-05-24T22:15:00Z,45.37,-94.73,22.0,12.0,80,13,18,10.0,30.171259,,,TRUE,TRUE,,,,,,,CLR,,,,,,,,VFR,,,,,,,,,,,,METAR,359.0
KPEQ 242215Z AUTO 07017G22KT 10SM SCT075 35/14 A2983 RMK AO2 T03520139,KPEQ,2023-05-24T22:15:00Z,31.38,-103.52,35.2,13.9,70,17,22,10.0,29.828741,,,TRUE,TRUE,,,,,,,SCT,7500,,,,,,,VFR,,,,,,,,,,,,SPECI,794.0
KPEA 242215Z AUTO 04004KT 10SM CLR 29/10 A3006 RMK AO2 T02920103,KPEA,2023-05-24T22:15:00Z,41.4,-92.95,29.2,10.3,40,4,,10.0,30.059055,,,TRUE,TRUE,,,,,,,CLR,,,,,,,,VFR,,,,,,,,,,,,SPECI,264.0
KPDC 242215Z AUTO 05011KT 10SM CLR 24/11 A3016 RMK AO2 T02360113,KPDC,2023-05-24T22:15:00Z,43.02,-91.12,23.6,11.3,50,11,,10.0,30.159449,,,TRUE,TRUE,,,,,,,CLR,,,,,,,,VFR,,,,,,,,,,,,METAR,201.0
KPCZ 242215Z AUTO 05010G15KT 10SM CLR 17/M06 A3030 RMK AO2 T01721061,KPCZ,2023-05-24T22:15:00Z,44.33,-89.02,17.2,-6.1,50,10,15,10.0,30.301182,,,TRUE,TRUE,,,,,,,CLR,,,,,,,,VFR,,,,,,,,,,,,SPECI,248.0
KPCW 242215Z AUTO 01017G26KT 10SM CLR 17/02 A3016 RMK AO2,KPCW,2023-05-24T22:15:00Z,41.52,-82.87,17.0,2.0,10,17,26,10.0,30.159449,,,TRUE,TRUE,,,,,,,CLR,,,,,,,,VFR,,,,,,,,,,,,METAR,179.0
KPCM 242215Z AUTO 02006KT 10SM -RA SCT080 OVC100 22/21 A2983 RMK AO2 P0001,KPCM,2023-05-24T22:15:00Z,28.0,-82.17,22.0,21.0,20,6,,10.0,29.828741,,,TRUE,TRUE,,,,,,-RA,SCT,8000,OVC,10000,,,,,VFR,,,,,,0.01,,,,,,SPECI,43.0
KPBX 242215Z AUTO 04006KT 10SM CLR 23/09 A3004 RMK AO2 T02250091,KPBX,2023-05-24T22:15:00Z,37.57,-82.57,22.5,9.1,40,6,,10.0,30.041338,,,TRUE,TRUE,,,,,,,CLR,,,,,,,,VFR,,,,,,,,,,,,SPECI,447.0
KPBH 242215Z AUTO 05006KT 10SM SCT080 BKN110 17/01 A3030 RMK AO2 T01650008,KPBH,2023-05-24T22:15:00Z,45.7,-90.4,16.5,0.8,50,6,,10.0,30.301182,,,TRUE,TRUE,,,,,,,SCT,8000,BKN,11000,,,,,VFR,,,,,,,,,,,,METAR,445.0
KPAN 242215Z AUTO 23007G17KT 10SM CLR 25/M02 A3003 RMK AO2 PWINO TSNO,KPAN,2023-05-24T22:15:00Z,34.25,-111.33,25.0,-2.0,230,7,17,10.0,30.029528,,,TRUE,TRUE,,,TRUE,,TRUE,,CLR,,,,,,,,VFR,,,,,,,,,,,,METAR,1575.0
KP52 242215Z AUTO 18010G16KT 10SM CLR 29/M02 A2990 RMK AO2,KP52,2023-05-24T22:15:00Z,34.73,-112.03,29.0,-2.0,180,10,16,10.0,29.899607,,,TRUE,TRUE,,,,,,,CLR,,,,,,,,VFR,,,,,,,,,,,,METAR,1085.0
KP08 242215Z AUTO 25009G16KT 10SM CLR 35/M02 A2979 RMK AO2,KP08,2023-05-24T22:15:00Z,32.93,-111.43,35.0,-2.0,250,9,16,10.0,29.790354,,,TRUE,TRUE,,,,,,,CLR,,,,,,,,VFR,,,,,,,,,,,,METAR,477.0
KOZW 242215Z AUTO 04008G19KT 10SM CLR 16/00 A3024 RMK AO2 T01571001,KOZW,2023-05-24T22:15:00Z,42.62,-83.98,15.7,-0.1,40,8,19,10.0,30.239174,,,TRUE,TRUE,,,,,,,CLR,,,,,,,,VFR,,,,,,,,,,,,SPECI,288.0
KOZS 242215Z AUTO 05003KT 10SM OVC090 26/15 A3005 RMK AO2 LTG DSNT NW,KOZS,2023-05-24T22:15:00Z,37.97,-92.68,26.0,15.0,50,3,,10.0,30.050198,,,TRUE,TRUE,,,,,,,OVC,9000,,,,,,,VFR,,,,,,,,,,,,SPECI,321.0
KOZA 242215Z AUTO 12014G20KT 10SM SCT050 30/15 A2995 RMK AO2,KOZA,2023-05-24T22:15:00Z,30.73,-101.2,30.0,15.0,120,14,20,10.0,29.949802,,,TRUE,TRUE,,,,,,,SCT,5000,,,,,,,VFR,,,,,,,,,,,,METAR,721.0
KOYM 242215Z AUTO 01007G10KT 340V040 10SM SCT033 BKN090 OVC110 17/10 A3010 RMK AO2,KOYM,2023-05-24T22:15:00Z,41.42,-78.5,17.0,10.0,10,7,10,10.0,30.100393,,,TRUE,TRUE,,,,,,,SCT,3300,BKN,9000,OVC,11000,,,VFR,,,,,,,,,,,,METAR,582.0
KOXV 242215Z AUTO 11005KT 10SM CLR 29/10 A3006 RMK AO2,KOXV,2023-05-24T22:15:00Z,41.28,-93.12,29.0,10.0,110,5,,10.0,30.059055,,,TRUE,TRUE,,,,,,,CLR,,,,,,,,VFR,,,,,,,,,,,,METAR,280.0
KOXI 242215Z AUTO 36014G19KT 10SM CLR 24/12 A3011 RMK AO1,KOXI,2023-05-24T22:15:00Z,41.33,-86.67,24.0,12.0,360,14,19,10.0,30.109253,,,TRUE,TRUE,,,,,,,CLR,,,,,,,,VFR,,,,,,,,,,,,METAR,208.0
KOWX 242215Z AUTO 07020G25KT 10SM CLR 20/M01 A3017 RMK AO1,KOWX,2023-05-24T22:15:00Z,41.03,-83.98,20.0,-1.0,70,20,25,10.0,30.171259,,,TRUE,TRUE,,,,,,,CLR,,,,,,,,VFR,,,,,,,,,,,,SPECI,232.0
KOWP 242215Z AUTO 05005KT 10SM BKN110 24/21 A3004 RMK AO2 T02410207,KOWP,2023-05-24T22:15:00Z,36.18,-96.15,24.1,20.7,50,5,,10.0,30.041338,,,TRUE,TRUE,,,,,,,BKN,11000,,,,,,,VFR,,,,,,,,,,,,SPECI,267.0
KOWI 242215Z AUTO 23009G14KT 10SM CLR 23/16 A3003 RMK AO2 LTG DSNT E AND W PWINO,KOWI,2023-05-24T22:15:00Z,38.53,-95.25,23.0,16.0,230,9,14,10.0,30.029528,,,TRUE,TRUE,,,,,TRUE,,CLR,,,,,,,,VFR,,,,,,,,,,,,METAR,292.0
KOVL 242215Z AUTO 11011G16KT 5SM HZ SCT090 SCT110 27/08 A3009 RMK AO2,KOVL,2023-05-24T22:15:00Z,44.78,-95.03,27.0,8.0,110,11,16,5.0,30.088583,,,TRUE,TRUE,,,,,,HZ,SCT,9000,SCT,11000,,,,,MVFR,,,,,,,,,,,,SPECI,329.0
KOSC 242215Z AUTO 02016G20KT 10SM CLR 12/M02 A3033 RMK AO2 T01181023,KOSC,2023-05-24T22:15:00Z,44.45,-83.4,11.8,-2.3,20,16,20,10.0,30.33071,,,TRUE,TRUE,,,,,,,CLR,,,,,,,,VFR,,,,,,,,,,,,METAR,191.0
KOSA 242215Z AUTO 06008KT 10SM CLR 27/18 A2995 RMK AO2 T02720178,KOSA,2023-05-24T22:15:00Z,33.1,-94.97,27.2,17.8,60,8,,10.0,29.949802,,,TRUE,TRUE,,,,,,,CLR,,,,,,,,VFR,,,,,,,,,,,,METAR,108.0
KORS 242215Z AUTO 35004KT 10SM CLR 16/11 A3006 RMK AO2,KORS,2023-05-24T22:15:00Z,48.7,-122.92,16.0,11.0,350,4,,10.0,30.059055,,,TRUE,TRUE,,,,,,,CLR,,,,,,,,VFR,,,,,,,,,,,,METAR,7.0
KORK 242215Z AUTO 10008KT 10SM CLR 27/15 A2998 RMK AO2,KORK,2023-05-24T22:15:00Z,34.83,-92.25,27.0,15.0,100,8,,10.0,29.97933,,,TRUE,TRUE,,,,,,,CLR,,,,,,,,VFR,,,,,,,,,,,,SPECI,166.0
KORG 242215Z AUTO 33003KT 10SM SCT055 32/16 A2987 RMK AO2 T03160162,KORG,2023-05-24T22:15:00Z,30.07,-93.8,31.6,16.2,330,3,,10.0,29.870079,,,TRUE,TRUE,,,,,,,SCT,5500,,,,,,,VFR,,,,,,,,,,,,SPECI,2.0
KOQN 242215Z AUTO 25005KT 10SM CLR 26/07 A2994 RMK AO2,KOQN,2023-05-24T22:15:00Z,39.98,-75.58,26.0,7.0,250,5,,10.0,29.940945,,,TRUE,TRUE,,,,,,,CLR,,,,,,,,VFR,,,,,,,,,,,,METAR,141.0
KOPN 242215Z AUTO 07003KT 10SM CLR 23/09 A2996 RMK AO2,KOPN,2023-05-24T22:15:00Z,32.95,-84.27,23.0,9.0,70,3,,10.0,29.958662,,,TRUE,TRUE,,,,,,,CLR,,,,,,,,VFR,,,,,,,,,,,,SPECI,241.0
KOPL 242215Z AUTO 04009G14KT 10SM SCT002 BKN040 27/18 A2988 RMK AO2 T02710179,KOPL,2023-05-24T22:15:00Z,30.55,-92.1,27.1,17.9,40,9,14,10.0,29.878937,,,TRUE,TRUE,,,,,,,SCT,200,BKN,4000,,,,,VFR,,,,,,,,,,,,METAR,22.0
KOOA 242215Z AUTO 08011G15KT 10SM CLR 31/09 A3006 RMK AO2 T03130090,KOOA,2023-05-24T22:15:00Z,41.23,-92.5,31.3,9.0,80,11,15,10.0,30.059055,,,TRUE,TRUE,,,,,,,CLR,,,,,,,,VFR,,,,,,,,,,,,SPECI,256.0
KONZ 242215Z AUTO 04015G24KT 10SM SCT110 17/M04 A3020 RMK AO2 T01661044,KONZ,2023-05-24T22:15:00Z,42.1,-83.15,16.6,-4.4,40,15,24,10.0,30.200787,,,TRUE,TRUE,,,,,,,SCT,11000,,,,,,,VFR,,,,,,,,,,,,METAR,179.0
KONP 242215Z AUTO 34015G22KT 7SM CLR 14/10 A3008 RMK AO2,KONP,2023-05-24T22:15:00Z,44.57,-124.05,14.0,10.0,340,15,22,7.0,30.079725,,,TRUE,TRUE,,,,,,,CLR,,,,,,,,VFR,,,,,,,,,,,,METAR,43.0
KONM 242215Z AUTO 20014G20KT 10SM CLR 31/M06 A2994 RMK AO2 T03121060,KONM,2023-05-24T22:15:00Z,34.02,-106.9,31.2,-6.0,200,14,20,10.0,29.940945,,,TRUE,TRUE,,,,,,,CLR,,,,,,,,VFR,,,,,,,,,,,,METAR,1467.0
KONL 242215Z AUTO 18010KT 10SM SCT085 26/10 A3004 RMK AO2 T02630103,KONL,2023-05-24T22:15:00Z,42.47,-98.68,26.3,10.3,180,10,,10.0,30.041338,,,TRUE,TRUE,,,,,,,SCT,8500,,,,,,,VFR,,,,,,,,,,,,SPECI,619.0
KONA 242215Z AUTO 11009KT 10SM CLR 22/10 A3020 RMK AO2,KONA,2023-05-24T22:15:00Z,44.07,-91.7,22.0,10.0,110,9,,10.0,30.200787,,,TRUE,TRUE,,,,,,,CLR,,,,,,,,VFR,,,,,,,,,,,,SPECI,200.0
KOMH 242215Z AUTO 09003KT 10SM CLR 24/09 A3000 RMK AO2,KOMH,2023-05-24T22:15:00Z,38.25,-78.05,24.0,9.0,90,3,,10.0,30.0,,,TRUE,TRUE,,,,,,,CLR,,,,,,,,VFR,,,,,,,,,,,,SPECI,136.0
KOLZ 242215Z AUTO 08014KT 10SM CLR 27/09 A3013 RMK A01,KOLZ,2023-05-24T22:15:00Z,42.67,-91.97,27.0,9.0,80,14,,10.0,30.129921,,,TRUE,TRUE,,,,,,,CLR,,,,,,,,VFR,,,,,,,,,,,,SPECI,328.0
KOLG 242215Z AUTO 06009KT 10SM OVC090 05/02 A3034 RMK AO1,KOLG,2023-05-24T22:15:00Z,46.3,-91.82,5.0,2.0,60,9,,10.0,30.339567,,,TRUE,TRUE,,,,,,,OVC,9000,,,,,,,VFR,,,,,,,,,,,,METAR,334.0
KOLE 242215Z AUTO 36008KT 10SM SCT021 SCT028 SCT039 12/06 A3014 RMK AO2,KOLE,2023-05-24T22:15:00Z,42.23,-78.37,12.0,6.0,360,8,,10.0,30.138779,,,TRUE,TRUE,,,,,,,SCT,2100,SCT,2800,SCT,3900,,,VFR,,,,,,,,,,,,METAR,651.0
KOKZ 242215Z AUTO 01004KT 10SM CLR 27/07 A2992 RMK AO2 T02730067,KOKZ,2023-05-24T22:15:00Z,32.97,-82.83,27.3,6.7,10,4,,10.0,29.920275,,,TRUE,TRUE,,,,,,,CLR,,,,,,,,VFR,,,,,,,,,,,,SPECI,128.0
KOKV 242215Z AUTO 36003KT 10SM SCT095 25/06 A2997 RMK AO2,KOKV,2023-05-24T22:15:00Z,39.13,-78.15,25.0,6.0,360,3,,10.0,29.970472,,,TRUE,TRUE,,,,,,,SCT,9500,,,,,,,VFR,,,,,,,,,,,,SPECI,213.0
KOKM 242215Z AUTO 11010KT 10SM BKN110 27/16 A3001 RMK AO2 LTG DSNT E T02650161,KOKM,2023-05-24T22:15:00Z,35.67,-95.95,26.5,16.1,110,10,,10.0,30.008858,,,TRUE,TRUE,,,,,,,BKN,11000,,,,,,,VFR,,,,,,,,,,,,SPECI,215.0
KOJA 242215Z AUTO 12011KT 10SM SCT070 27/15 A2998 RMK AO2 T02670153,KOJA,2023-05-24T22:15:00Z,35.55,-98.67,26.7,15.3,120,11,,10.0,29.97933,,,TRUE,TRUE,,,,,,,SCT,7000,,,,,,,VFR,,,,,,,,,,,,SPECI,490.0
KOIN 242215Z AUTO 17011G16KT 10SM SCT050 SCT060 SCT075 26/13 A3005 RMK AO1 T02560133,KOIN,2023-05-24T22:15:00Z,39.83,-100.53,25.6,13.3,170,11,16,10.0,30.050198,,,TRUE,TRUE,,,,,,,SCT,5000,SCT,6000,SCT,7500,,,VFR,,,,,,,,,,,,SPECI,810.0
KOIC 242215Z AUTO 34005KT 11/09 A3012 RMK AO2 T01110090 PWINO,KOIC,2023-05-24T22:15:00Z,42.57,-75.52,11.1,9.0,340,5,,,30.121063,,,TRUE,TRUE,,,,,TRUE,,,,,,,,,,,,,,,,,,,,,,METAR,311.0
KOGS 242215Z AUTO 35008G16KT 10SM SCT048 13/02 A3014 RMK AO2,KOGS,2023-05-24T22:15:00Z,44.67,-75.47,13.0,2.0,350,8,16,10.0,30.138779,,,TRUE,TRUE,,,,,,,SCT,4800,,,,,,,VFR,,,,,,,,,,,,SPECI,88.0
KOGA 242215Z AUTO 16013G22KT 10SM SCT050 BKN060 25/13 A3000 RMK AO2 T02510133,KOGA,2023-05-24T22:15:00Z,41.12,-101.77,25.1,13.3,160,13,22,10.0,30.0,,,TRUE,TRUE,,,,,,,SCT,5000,BKN,6000,,,,,VFR,,,,,,,,,,,,SPECI,991.0
KOEO 242215Z AUTO 08008KT 10SM BKN090 19/08 A3026 RMK AO2 T01890082,KOEO,2023-05-24T22:15:00Z,45.32,-92.7,18.9,8.2,80,8,,10.0,30.259842,,,TRUE,TRUE,,,,,,,BKN,9000,,,,,,,VFR,,,,,,,,,,,,SPECI,269.0
KOEL 242215Z AUTO 16013G17KT 10SM SCT035 24/13 A3002 RMK AO1 T02410128,KOEL,2023-05-24T22:15:00Z,39.12,-100.82,24.1,12.8,160,13,17,10.0,30.02067,,,TRUE,TRUE,,,,,,,SCT,3500,,,,,,,VFR,,,,,,,,,,,,METAR,924.0
KOEB 242215Z AUTO 04014G18KT 10SM CLR 20/04 A3018 RMK AO2 T02000040,KOEB,2023-05-24T22:15:00Z,41.92,-85.05,20.0,4.0,40,14,18,10.0,30.180119,,,TRUE,TRUE,,,,,,,CLR,,,,,,,,VFR,,,,,,,,,,,,METAR,291.0
KOBE 242215Z AUTO 03005KT 6SM -RA BR CLR 22/22 A2981 RMK AO2 LTG DSNT SE AND S AND NW,KOBE,2023-05-24T22:15:00Z,27.27,-80.85,22.0,22.0,30,5,,6.0,29.811024,,,TRUE,TRUE,,,,,,-RA BR,CLR,,,,,,,,VFR,,,,,,,,,,,,SPECI,11.0
KOAR 242215Z AUTO 28016G21KT 10SM CLR 16/08 A2994 RMK AO2 PWINO,KOAR,2023-05-24T22:15:00Z,36.67,-121.77,16.0,8.0,280,16,21,10.0,29.940945,,,TRUE,TRUE,,,,,TRUE,,CLR,,,,,,,,VFR,,,,,,,,,,,,METAR,41.0
KO86 242215Z AUTO 12005KT 10SM 27/M02 A2981 RMK A01,KO86,2023-05-24T22:15:00Z,40.98,-122.7,27.0,-2.0,120,5,,10.0,29.811024,,,TRUE,TRUE,,,,,,,,,,,,,,,,,,,,,,,,,,,METAR,729.0
KO69 242215Z AUTO 29009G15KT 10SM FEW031 17/11 A2990 RMK A01,KO69,2023-05-24T22:15:00Z,38.25,-122.6,17.0,11.0,290,9,15,10.0,29.899607,,,TRUE,TRUE,,,,,,,FEW,3100,,,,,,,VFR,,,,,,,,,,,,METAR,26.0
KO32 242215Z AUTO VRB05KT 10SM CLR 26/10 A2981 RMK AO2 T02560100 $,KO32,2023-05-24T22:15:00Z,36.67,-119.45,25.6,10.0,0,5,,10.0,29.811024,,,TRUE,TRUE,TRUE,,,,,,CLR,,,,,,,,VFR,,,,,,,,,,,,METAR,117.0
KO22 242215Z AUTO 17005KT 10SM CLR 23/08 A2987 RMK A01,KO22,2023-05-24T22:15:00Z,38.03,-120.42,23.0,8.0,170,5,,10.0,29.870079,,,TRUE,TRUE,,,,,,,CLR,,,,,,,,VFR,,,,,,,,,,,,METAR,637.0
KO05 242215Z AUTO 28007KT 10SM SCT100 17/04 A2993 RMK A01,KO05,2023-05-24T22:15:00Z,40.28,-121.23,17.0,4.0,280,7,,10.0,29.929134,,,TRUE,TRUE,,,,,,,SCT,10000,,,,,,,VFR,,,,,,,,,,,,METAR,1380.0
KNUQ 242215Z AUTO 34009KT 10SM CLR 20/10 A2987 RMK AO2,KNUQ,2023-05-24T22:15:00Z,37.4,-122.05,20.0,10.0,340,9,,10.0,29.870079,,,TRUE,TRUE,,,,,,,CLR,,,,,,,,VFR,,,,,,,,,,,,METAR,9.0
KNRN 242215Z AUTO 15011G15KT 10SM SCT060 SCT090 26/10 A3004 RMK AO2,KNRN,2023-05-24T22:15:00Z,39.85,-99.9,26.0,10.0,150,11,15,10.0,30.041338,,,TRUE,TRUE,,,,,,,SCT,6000,SCT,9000,,,,,VFR,,,,,,,,,,,,SPECI,726.0
KNOW 242215Z AUTO 31006KT 10SM CLR 14/11 A3009 RMK AO2 T01390108,KNOW,2023-05-24T22:15:00Z,48.13,-123.4,13.9,10.8,310,6,,10.0,30.088583,,,TRUE,TRUE,,,,,,,CLR,,,,,,,,VFR,,,,,,,,,,,,METAR,3.0
KN79 242215Z AUTO 02009KT 7SM -RA SCT100 BKN120 20/14 A2998 RMK AO2 P0000 T01990145,KN79,2023-05-24T22:15:00Z,,,19.9,14.5,20,9,,7.0,29.97933,,,TRUE,TRUE,,,,,,-RA,SCT,10000,BKN,12000,,,,,VFR,,,,,,0.005,,,,,,METAR,
KN38 242215Z AUTO 01015G23KT 10SM OVC016 12/09 A3009 RMK AO2,KN38,2023-05-24T22:15:00Z,41.73,-77.4,12.0,9.0,10,15,23,10.0,30.088583,,,TRUE,TRUE,,,,,,,OVC,1600,,,,,,,MVFR,,,,,,,,,,,,METAR,576.0
KN03 242215Z AUTO 32006KT 10SM SCT014 BKN019 OVC026 11/08 A3012 RMK AO2,KN03,2023-05-24T22:15:00Z,42.6,-76.22,11.0,8.0,320,6,,10.0,30.121063,,,TRUE,TRUE,,,,,,,SCT,1400,BKN,1900,OVC,2600,,,MVFR,,,,,,,,,,,,SPECI,361.0
KMZZ 242215Z AUTO 06014G17KT 10SM BKN085 OVC095 28/09 A3007 RMK AO2 T02760094,KMZZ,2023-05-24T22:15:00Z,40.48,-85.68,27.6,9.4,60,14,17,10.0,30.070866,,,TRUE,TRUE,,,,,,,BKN,8500,OVC,9500,,,,,VFR,,,,,,,,,,,,SPECI,260.0
KMZH 242215Z AUTO 06004KT 10SM UP OVC110 05/02 A3033 RMK AO2 P0001,KMZH,2023-05-24T22:15:00Z,46.42,-92.8,5.0,2.0,60,4,,10.0,30.33071,,,TRUE,TRUE,,,,,,UP,OVC,11000,,,,,,,VFR,,,,,,0.01,,,,,,METAR,331.0
KMYZ 242215Z AUTO 00000KT 10SM CLR 27/12 A3002 RMK AO2,KMYZ,2023-05-24T22:15:00Z,39.85,-96.63,27.0,12.0,0,0,,10.0,30.02067,,,TRUE,TRUE,,,,,,,CLR,,,,,,,,VFR,,,,,,,,,,,,SPECI,388.0
KMYJ 242215Z AUTO 31005KT 10SM SCT070 SCT085 SCT110 24/18 A3006 RMK AO2 LTG DSNT W,KMYJ,2023-05-24T22:15:00Z,39.15,-91.82,24.0,18.0,310,5,,10.0,30.059055,,,TRUE,TRUE,,,,,,,SCT,7000,SCT,8500,SCT,11000,,,VFR,,,,,,,,,,,,METAR,249.0
KMWO 242215Z AUTO 01009KT 10SM SCT080 SCT110 28/09 A3002 RMK AO2 T02760095,KMWO,2023-05-24T22:15:00Z,39.53,-84.4,27.6,9.5,10,9,,10.0,30.02067,,,TRUE,TRUE,,,,,,,SCT,8000,SCT,11000,,,,,VFR,,,,,,,,,,,,SPECI,197.0
KMWM 242215Z AUTO 12006G15KT 10SM CLR 28/04 A3008 RMK AO2,KMWM,2023-05-24T22:15:00Z,43.9,-95.1,28.0,4.0,120,6,15,10.0,30.079725,,,TRUE,TRUE,,,,,,,CLR,,,,,,,,VFR,,,,,,,,,,,,SPECI,427.0
KMVE 242215Z AUTO 15008KT 10SM CLR 29/09 A3008 RMK AO2,KMVE,2023-05-24T22:15:00Z,44.97,-95.72,29.0,9.0,150,8,,10.0,30.079725,,,TRUE,TRUE,,,,,,,CLR,,,,,,,,VFR,,,,,,,,,,,,SPECI,319.0
KMUT 242215Z AUTO 08013KT 10SM CLR 29/10 A3008 RMK AO2,KMUT,2023-05-24T22:15:00Z,41.37,-91.15,29.0,10.0,80,13,,10.0,30.079725,,,TRUE,TRUE,,,,,,,CLR,,,,,,,,VFR,,,,,,,,,,,,SPECI,166.0
KMTV 242215Z AUTO 07007KT 10SM CLR 24/05 A3002 RMK AO2 T02350051,KMTV,2023-05-24T22:15:00Z,36.63,-80.02,23.5,5.1,70,7,,10.0,30.02067,,,TRUE,TRUE,,,,,,,CLR,,,,,,,,VFR,,,,,,,,,,,,SPECI,276.0
KMRJ 242215Z AUTO 06012G19KT 10SM CLR 26/12 A3021 RMK AO2 PWINO,KMRJ,2023-05-24T22:15:00Z,42.88,-90.23,26.0,12.0,60,12,19,10.0,30.209646,,,TRUE,TRUE,,,,,TRUE,,CLR,,,,,,,,VFR,,,,,,,,,,,,METAR,350.0
KMQW 242215Z AUTO 07006KT 10SM CLR 28/11 A2990 RMK AO2 T02760109,KMQW,2023-05-24T22:15:00Z,32.1,-82.88,27.6,10.9,70,6,,10.0,29.899607,,,TRUE,TRUE,,,,,,,CLR,,,,,,,,VFR,,,,,,,,,,,,SPECI,62.0
KMQS 242215Z AUTO 00000KT 10SM 25/10 A2995 RMK AO2,KMQS,2023-05-24T22:15:00Z,39.98,-75.87,25.0,10.0,0,0,,10.0,29.949802,,,TRUE,TRUE,,,,,,,,,,,,,,,,,,,,,,,,,,,SPECI,200.0
KMQJ 242215Z AUTO 04009KT 10SM SCT100 26/10 A3005 RMK AO1,KMQJ,2023-05-24T22:15:00Z,39.85,-85.9,26.0,10.0,40,9,,10.0,30.050198,,,TRUE,TRUE,,,,,,,SCT,10000,,,,,,,VFR,,,,,,,,,,,,METAR,262.0
KMQB 242215Z AUTO 07008KT 10SM CLR 30/07 A3007 RMK AO2 T03000066,KMQB,2023-05-24T22:15:00Z,40.52,-90.65,30.0,6.6,70,8,,10.0,30.070866,,,TRUE,TRUE,,,,,,,CLR,,,,,,,,VFR,,,,,,,,,,,,METAR,205.0
KMPZ 242215Z AUTO 11009KT 10SM CLR 30/05 A3006 RMK AO2,KMPZ,2023-05-24T22:15:00Z,40.95,-91.52,30.0,5.0,110,9,,10.0,30.059055,,,TRUE,TRUE,,,,,,,CLR,,,,,,,,VFR,,,,,,,,,,,,SPECI,222.0
KMPV 242215Z AUTO 30012KT 10SM -RA BKN007 BKN017 OVC035 10/08 A3007 RMK AO2 CIG 004V010 P0000 T01000083,KMPV,2023-05-24T22:15:00Z,44.2,-72.57,10.0,8.3,300,12,,10.0,30.070866,,,TRUE,TRUE,,,,,,-RA,BKN,700,BKN,1700,OVC,3500,,,IFR,,,,,,0.005,,,,,,SPECI,336.0
KMPR 242215Z AUTO 06008KT 10SM SCT060 28/13 A3000 RMK AO2 T02780128,KMPR,2023-05-24T22:15:00Z,38.35,-97.68,27.8,12.8,60,8,,10.0,30.0,,,TRUE,TRUE,,,,,,,SCT,6000,,,,,,,VFR,,,,,,,,,,,,SPECI,455.0
KMOX 242215Z AUTO 09018G23KT 10SM CLR 27/07 A3010 RMK AO2,KMOX,2023-05-24T22:15:00Z,45.57,-95.97,27.0,7.0,90,18,23,10.0,30.100393,,,TRUE,TRUE,,,,,,,CLR,,,,,,,,VFR,,,,,,,,,,,,SPECI,346.0
KMOP 242215Z AUTO 09011KT 10SM CLR 15/03 A3028 RMK AO2 T01470033,KMOP,2023-05-24T22:15:00Z,43.62,-84.73,14.7,3.3,90,11,,10.0,30.280512,,,TRUE,TRUE,,,,,,,CLR,,,,,,,,VFR,,,,,,,,,,,,SPECI,229.0
KMNZ 242215Z AUTO 07005KT 10SM SCT040 28/17 A2994 RMK AO2 T02750171,KMNZ,2023-05-24T22:15:00Z,31.67,-98.15,27.5,17.1,70,5,,10.0,29.940945,,,TRUE,TRUE,,,,,,,SCT,4000,,,,,,,VFR,,,,,,,,,,,,METAR,397.0
KMNV 242215Z AUTO 04008KT 10SM 25/10 A2997 RMK A01,KMNV,2023-05-24T22:15:00Z,35.55,-84.38,25.0,10.0,40,8,,10.0,29.970472,,,TRUE,TRUE,,,,,,,,,,,,,,,,,,,,,,,,,,,METAR,306.0
KMNI 242215Z AUTO 03007KT 360V060 10SM CLR 25/03 A2991 RMK AO2,KMNI,2023-05-24T22:15:00Z,33.58,-80.22,25.0,3.0,30,7,,10.0,29.911417,,,TRUE,TRUE,,,,,,,CLR,,,,,,,,VFR,,,,,,,,,,,,SPECI,29.0
KMNH 242215Z AUTO 20004KT 10SM BKN070 OVC080 09/06 A3016 RMK AO2 LTG DSNT NE THRU S,KMNH,2023-05-24T22:15:00Z,39.22,-104.65,9.0,6.0,200,4,,10.0,30.159449,,,TRUE,TRUE,,,,,,,BKN,7000,OVC,8000,,,,,VFR,,,,,,,,,,,,SPECI,2152.0
KMMI 242215Z AUTO VRB04G11KT 10SM CLR 25/11 A2998 RMK A01,KMMI,2023-05-24T22:15:00Z,35.4,-84.57,25.0,11.0,0,4,11,10.0,29.97933,,,TRUE,TRUE,,,,,,,CLR,,,,,,,,VFR,,,,,,,,,,,,METAR,252.0
KMMH 242215Z AUTO 28023G27KT 10SM CLR 19/M02 A2998 RMK AO2 T01881023,KMMH,2023-05-24T22:15:00Z,37.62,-118.83,18.8,-2.3,280,23,27,10.0,29.97933,,,TRUE,TRUE,,,,,,,CLR,,,,,,,,VFR,,,,,,,,,,,,METAR,2167.0
KMLJ 242215Z AUTO 03008KT 360V060 10SM CLR 26/09 A2992 RMK AO2,KMLJ,2023-05-24T22:15:00Z,33.15,-83.25,26.0,9.0,30,8,,10.0,29.920275,,,TRUE,TRUE,,,,,,,CLR,,,,,,,,VFR,,,,,,,,,,,,SPECI,115.0
KMLE 242215Z AUTO 13006KT 10SM CLR 29/08 A3003 RMK AO2 T02930081,KMLE,2023-05-24T22:15:00Z,41.2,-96.12,29.3,8.1,130,6,,10.0,30.029528,,,TRUE,TRUE,,,,,,,CLR,,,,,,,,VFR,,,,,,,,,,,,SPECI,318.0
KMKS 242215Z AUTO 03006KT 10SM CLR 25/05 A2990 RMK AO2,KMKS,2023-05-24T22:15:00Z,33.18,-80.03,25.0,5.0,30,6,,10.0,29.899607,,,TRUE,TRUE,,,,,,,CLR,,,,,,,,VFR,,,,,,,,,,,,SPECI,22.0
KMKN 242215Z AUTO 05003KT 10SM 29/19 A2995 RMK AO2 T02860193,KMKN,2023-05-24T22:15:00Z,31.92,-98.6,28.6,19.3,50,3,,10.0,29.949802,,,TRUE,TRUE,,,,,,,,,,,,,,,,,,,,,,,,,,,METAR,428.0
KMKJ 242215Z AUTO 04003KT 10SM CLR 21/03 A3007 RMK AO2 T02120029,KMKJ,2023-05-24T22:15:00Z,36.88,-81.33,21.2,2.9,40,3,,10.0,30.070866,,,TRUE,TRUE,,,,,,,CLR,,,,,,,,VFR,,,,,,,,,,,,SPECI,777.0
KMJQ 242215Z AUTO 11010G15KT 10SM BKN100 BKN120 29/03 A3009 RMK AO2 PWINO,KMJQ,2023-05-24T22:15:00Z,43.63,-94.98,29.0,3.0,110,10,15,10.0,30.088583,,,TRUE,TRUE,,,,,TRUE,,BKN,10000,BKN,12000,,,,,VFR,,,,,,,,,,,,SPECI,439.0
KMHR 242215Z AUTO 23008KT 10SM CLR 23/09 A2982 RMK AO2 LTG DSNT NE,KMHR,2023-05-24T22:15:00Z,38.55,-121.28,23.0,9.0,230,8,,10.0,29.819881,,,TRUE,TRUE,,,,,,,CLR,,,,,,,,VFR,,,,,,,,,,,,METAR,30.0
KMHP 242215Z AUTO 03006KT 10SM CLR 26/10 A2990 RMK AO2 T02650100,KMHP,2023-05-24T22:15:00Z,32.37,-82.08,26.5,10.0,30,6,,10.0,29.899607,,,TRUE,TRUE,,,,,,,CLR,,,,,,,,VFR,,,,,,,,,,,,SPECI,60.0
KMHL 242215Z AUTO 00000KT 10SM BKN120 25/16 A3007 RMK AO2 LTG DSNT N NE AND SW,KMHL,2023-05-24T22:15:00Z,39.1,-93.2,25.0,16.0,0,0,,10.0,30.070866,,,TRUE,TRUE,,,,,,,BKN,12000,,,,,,,VFR,,,,,,,,,,,,SPECI,236.0
KMGR 242215Z AUTO 05007KT 10SM FEW045 SCT075 25/18 A2989 RMK AO2 T02480175,KMGR,2023-05-24T22:15:00Z,31.08,-83.8,24.8,17.5,50,7,,10.0,29.890747,,,TRUE,TRUE,,,,,,,FEW,4500,SCT,7500,,,,,VFR,,,,,,,,,,,,SPECI,86.0
KMGN 242215Z AUTO 07011G14KT 10SM CLR 15/M03 A3034 RMK AO2 T01491030,KMGN,2023-05-24T22:15:00Z,45.43,-84.92,14.9,-3.0,70,11,14,10.0,30.339567,,,TRUE,TRUE,,,,,,,CLR,,,,,,,,VFR,,,,,,,,,,,,SPECI,205.0
KMGG 242215Z AUTO 08011G19KT 10SM CLR 23/12 A3018 RMK AO2 T02300116,KMGG,2023-05-24T22:15:00Z,45.23,-93.98,23.0,11.6,80,11,19,10.0,30.180119,,,TRUE,TRUE,,,,,,,CLR,,,,,,,,VFR,,,,,,,,,,,,SPECI,310.0
KMGC 242215Z AUTO 35007KT 10SM CLR 15/11 A3017 RMK AO2,KMGC,2023-05-24T22:15:00Z,41.7,-86.82,15.0,11.0,350,7,,10.0,30.171259,,,TRUE,TRUE,,,,,,,CLR,,,,,,,,VFR,,,,,,,,,,,,SPECI,199.0
KMFV 242215Z AUTO 05005KT 10SM CLR 20/M01 A2997 RMK AO2 T02011013,KMFV,2023-05-24T22:15:00Z,37.63,-75.77,20.1,-1.3,50,5,,10.0,29.970472,,,TRUE,TRUE,,,,,,,CLR,,,,,,,,VFR,,,,,,,,,,,,METAR,13.0
KMEZ 242215Z AUTO 11005KT 10SM CLR 26/15 A3001 RMK AO2 T02570153,KMEZ,2023-05-24T22:15:00Z,34.55,-94.2,25.7,15.3,110,5,,10.0,30.008858,,,TRUE,TRUE,,,,,,,CLR,,,,,,,,VFR,,,,,,,,,,,,SPECI,320.0
KMEV 242215Z AUTO 07008KT 10SM TS FEW085 FEW110 21/02 A2987 RMK AO2 LTG DSNT SW,KMEV,2023-05-24T22:15:00Z,38.98,-119.75,21.0,2.0,70,8,,10.0,29.870079,,,TRUE,TRUE,,,,,,TS,FEW,8500,FEW,11000,,,,,VFR,,,,,,,,,,,,METAR,1437.0
KMDZ 242215Z AUTO 00000KT 10SM SCT090 14/06 A3028 RMK AO2 T01400059 PWINO,KMDZ,2023-05-24T22:15:00Z,45.1,-90.3,14.0,5.9,0,0,,10.0,30.280512,,,TRUE,TRUE,,,,,TRUE,,SCT,9000,,,,,,,VFR,,,,,,,,,,,,METAR,446.0
KMDS 242215Z AUTO 14011G20KT 10SM FEW090 29/07 A3005 RMK AO2,KMDS,2023-05-24T22:15:00Z,44.02,-97.08,29.0,7.0,140,11,20,10.0,30.050198,,,TRUE,TRUE,,,,,,,FEW,9000,,,,,,,VFR,,,,,,,,,,,,SPECI,524.0
KMDQ 242215Z AUTO 36008KT 10SM CLR 27/12 A2996 RMK A02 T02700123,KMDQ,2023-05-24T22:15:00Z,34.87,-86.55,27.0,12.3,360,8,,10.0,29.958662,,,TRUE,TRUE,,,,,,,CLR,,,,,,,,VFR,,,,,,,,,,,,SPECI,221.0
KMDD 242215Z AUTO 14014G23KT 10SM BKN042 28/16 A2994 RMK AO2 T02830162,KMDD,2023-05-24T22:15:00Z,32.03,-102.1,28.3,16.2,140,14,23,10.0,29.940945,,,TRUE,TRUE,,,,,,,BKN,4200,,,,,,,VFR,,,,,,,,,,,,METAR,853.0
KMCJ 242215Z AUTO 10005G12KT 10SM SCT060 29/16 A2987 RMK A01,KMCJ,2023-05-24T22:15:00Z,29.72,-95.4,29.0,16.0,100,5,12,10.0,29.870079,,,TRUE,TRUE,,,,,,,SCT,6000,,,,,,,VFR,,,,,,,,,,,,METAR,70.0
KMCD 242215Z AUTO 11004KT 10SM CLR 12/M01 A3036 RMK AO2 T01161009,KMCD,2023-05-24T22:15:00Z,45.85,-84.63,11.6,-0.9,110,4,,10.0,30.360237,,,TRUE,TRUE,,,,,,,CLR,,,,,,,,VFR,,,,,,,,,,,,SPECI,228.0
KMCC 242215Z AUTO 22010KT 10SM CLR 24/09 A2983 RMK AO2,KMCC,2023-05-24T22:15:00Z,38.67,-121.4,24.0,9.0,220,10,,10.0,29.828741,,,TRUE,TRUE,,,,,,,CLR,,,,,,,,VFR,,,,,,,,,,,,METAR,21.0
KMBY 242215Z AUTO 00000KT 10SM SCT120 26/15 A3006 RMK AO2 LTG DSNT SW AND W,KMBY,2023-05-24T22:15:00Z,39.47,-92.43,26.0,15.0,0,0,,10.0,30.059055,,,TRUE,TRUE,,,,,,,SCT,12000,,,,,,,VFR,,,,,,,,,,,,SPECI,263.0
KMBT 242215Z AUTO 05010KT 10SM FEW060 27/13 A2995 RMK A01,KMBT,2023-05-24T22:15:00Z,35.88,-86.38,27.0,13.0,50,10,,10.0,29.949802,,,TRUE,TRUE,,,,,,,FEW,6000,,,,,,,VFR,,,,,,,,,,,,METAR,187.0
KMBO 242215Z AUTO 00000KT 10SM BKN039 OVC045 23/19 A2994 RMK AO2,KMBO,2023-05-24T22:15:00Z,32.43,-90.1,23.0,19.0,0,0,,10.0,29.940945,,,TRUE,TRUE,,,,,,,BKN,3900,OVC,4500,,,,,VFR,,,,,,,,,,,,SPECI,98.0
KMAW 242215Z AUTO 02008KT 10SM SCT110 30/12 A2999 RMK AO1,KMAW,2023-05-24T22:15:00Z,36.6,-90.0,30.0,12.0,20,8,,10.0,29.991142,,,TRUE,TRUE,,,,,,,SCT,11000,,,,,,,VFR,,,,,,,,,,,,METAR,88.0
KMAO 242215Z AUTO 08008KT 10SM CLR 25/08 A2991 RMK AO2,KMAO,2023-05-24T22:15:00Z,34.18,-79.33,25.0,8.0,80,8,,10.0,29.911417,,,TRUE,TRUE,,,,,,,CLR,,,,,,,,VFR,,,,,,,,,,,,SPECI,27.0
KMAN 242215Z AUTO 35006G14KT 10SM CLR 25/M03 A2986 RMK A01,KMAN,2023-05-24T22:15:00Z,43.58,-116.52,25.0,-3.0,350,6,14,10.0,29.861221,,,TRUE,TRUE,,,,,,,CLR,,,,,,,,VFR,,,,,,,,,,,,METAR,773.0
KM75 242215Z AUTO 29018G25KT 10SM SCT041 23/14 A2978 RMK A01,KM75,2023-05-24T22:15:00Z,48.37,-107.92,23.0,14.0,290,18,25,10.0,29.778543,,,TRUE,TRUE,,,,,,,SCT,4100,,,,,,,VFR,,,,,,,,,,,,METAR,687.0
KM40 242215Z AUTO 03005KT 10SM FEW055 FEW080 26/16 A2996 RMK AO2,KM40,2023-05-24T22:15:00Z,33.87,-88.48,26.0,16.0,30,5,,10.0,29.958662,,,TRUE,TRUE,,,,,,,FEW,5500,FEW,8000,,,,,VFR,,,,,,,,,,,,SPECI,68.0
KM30 242215Z AUTO 03006KT 10SM SCT085 29/08 A3000 RMK AO2 T02910082,KM30,2023-05-24T22:15:00Z,37.18,-88.75,29.1,8.2,30,6,,10.0,30.0,,,TRUE,TRUE,,,,,,,SCT,8500,,,,,,,VFR,,,,,,,,,,,,METAR,116.0
KM25 242215Z AUTO 05006KT 030V090 10SM CLR 28/09 A3001 RMK AO2 PWINO,KM25,2023-05-24T22:15:00Z,36.77,-88.58,28.0,9.0,50,6,,10.0,30.008858,,,TRUE,TRUE,,,,,TRUE,,CLR,,,,,,,,VFR,,,,,,,,,,,,METAR,157.0
KM21 242215Z AUTO 03004KT 10SM CLR 28/12 A2999 RMK AO2 T02820120,KM21,2023-05-24T22:15:00Z,37.22,-87.15,28.2,12.0,30,4,,10.0,29.991142,,,TRUE,TRUE,,,,,,,CLR,,,,,,,,VFR,,,,,,,,,,,,SPECI,127.0
KM08 242215Z AUTO 01004G10KT 10SM CLR 27/16 A2997 RMK A01,KM08,2023-05-24T22:15:00Z,35.22,-89.05,27.0,16.0,10,4,10,10.0,29.970472,,,TRUE,TRUE,,,,,,,CLR,,,,,,,,VFR,,,,,,,,,,,,METAR,149.0
KM02 242215Z AUTO 03008G15KT 10SM CLR 27/13 A2997 RMK A01,KM02,2023-05-24T22:15:00Z,36.13,-87.43,27.0,13.0,30,8,15,10.0,29.970472,,,TRUE,TRUE,,,,,,,CLR,,,,,,,,VFR,,,,,,,,,,,,METAR,268.0
KM01 242215Z AUTO 06008KT 030V120 10SM CLR 28/16 A2995 RMK AO2 T02840156 $,KM01,2023-05-24T22:15:00Z,35.2,-90.05,28.4,15.6,60,8,,10.0,29.949802,,,TRUE,TRUE,TRUE,,,,,,CLR,,,,,,,,VFR,,,,,,,,,,,,SPECI,68.0
KLYV 242215Z AUTO 14007G15KT 10SM CLR 28/05 A3006 RMK AO2,KLYV,2023-05-24T22:15:00Z,43.62,-96.22,28.0,5.0,140,7,15,10.0,30.059055,,,TRUE,TRUE,,,,,,,CLR,,,,,,,,VFR,,,,,,,,,,,,SPECI,435.0
KLYO 242215Z AUTO 13009KT 10SM BKN070 BKN075 27/12 A3001 RMK AO2 T02690124,KLYO,2023-05-24T22:15:00Z,38.35,-98.23,26.9,12.4,130,9,,10.0,30.008858,,,TRUE,TRUE,,,,,,,BKN,7000,BKN,7500,,,,,VFR,,,,,,,,,,,,SPECI,515.0
KLXY 242215Z AUTO 20004KT 10SM SCT039 28/19 A2992 RMK AO2 T02790193,KLXY,2023-05-24T22:15:00Z,31.63,-96.52,27.9,19.3,200,4,,10.0,29.920275,,,TRUE,TRUE,,,,,,,SCT,3900,,,,,,,VFR,,,,,,,,,,,,METAR,164.0
KLXN 242215Z AUTO 12010G15KT 10SM BKN080 26/14 A3004 RMK AO2 T02560140,KLXN,2023-05-24T22:15:00Z,40.78,-99.77,25.6,14.0,120,10,15,10.0,30.041338,,,TRUE,TRUE,,,,,,,BKN,8000,,,,,,,VFR,,,,,,,,,,,,SPECI,734.0
KLXL 242215Z AUTO 11008KT 10SM CLR 16/07 A3021 RMK AO2,KLXL,2023-05-24T22:15:00Z,45.95,-94.33,16.0,7.0,110,8,,10.0,30.209646,,,TRUE,TRUE,,,,,,,CLR,,,,,,,,VFR,,,,,,,,,,,,METAR,335.0
KLWA 242215Z AUTO 07010G20KT 10SM CLR 21/04 A3019 RMK AO2 T02100036,KLWA,2023-05-24T22:15:00Z,42.35,-86.25,21.0,3.6,70,10,20,10.0,30.188976,,,TRUE,TRUE,,,,,,,CLR,,,,,,,,VFR,,,,,,,,,,,,METAR,199.0
KLVN 242215Z AUTO 09012G19KT 10SM CLR 24/11 A3018 RMK AO2,KLVN,2023-05-24T22:15:00Z,44.63,-93.23,24.0,11.0,90,12,19,10.0,30.180119,,,TRUE,TRUE,,,,,,,CLR,,,,,,,,VFR,,,,,,,,,,,,METAR,292.0
KLVL 242215Z AUTO 00000KT 10SM CLR 23/05 A2999 RMK AO1 T02260052,KLVL,2023-05-24T22:15:00Z,36.78,-77.8,22.6,5.2,0,0,,10.0,29.991142,,,TRUE,TRUE,,,,,,,CLR,,,,,,,,VFR,,,,,,,,,,,,SPECI,98.0
KLUX 242215Z AUTO 06004KT 10SM CLR 24/05 A2996 RMK AO2,KLUX,2023-05-24T22:15:00Z,34.5,-81.95,24.0,5.0,60,4,,10.0,29.958662,,,TRUE,TRUE,,,,,,,CLR,,,,,,,,VFR,,,,,,,,,,,,SPECI,213.0
KLUV 242215Z AUTO 14017KT 10SM SCT037 SCT044 26/17 A2997 RMK AO2,KLUV,2023-05-24T22:15:00Z,32.75,-101.92,26.0,17.0,140,17,,10.0,29.970472,,,TRUE,TRUE,,,,,,,SCT,3700,SCT,4400,,,,,VFR,,,,,,,,,,,,METAR,910.0
KLUM 242215Z 05014G20KT 10SM CLR 20/M03 A3024 RMK AO2 T02001031 PWINO,KLUM,2023-05-24T22:15:00Z,44.9,-91.87,20.0,-3.1,50,14,20,10.0,30.239174,,,,TRUE,,,,,TRUE,,CLR,,,,,,,,VFR,,,,,,,,,,,,SPECI,271.0
KLUL 242215Z AUTO 04008KT 10SM SCT031 OVC044 22/19 A2993 RMK A02 T02220188,KLUL,2023-05-24T22:15:00Z,31.67,-89.17,22.2,18.8,40,8,,10.0,29.929134,,,TRUE,TRUE,,,,,,,SCT,3100,OVC,4400,,,,,VFR,,,,,,,,,,,,SPECI,74.0
KLUG 242215Z AUTO 05011G17KT 10SM SCT065 BKN080 SCT090 27/14 A2996 RMK A01,KLUG,2023-05-24T22:15:00Z,35.52,-86.8,27.0,14.0,50,11,17,10.0,29.958662,,,TRUE,TRUE,,,,,,,SCT,6500,BKN,8000,SCT,9000,,,VFR,,,,,,,,,,,,METAR,218.0
KLUD 242215Z AUTO 06008KT 040V110 10SM CLR 29/15 A2994 RMK AO2 T02880154,KLUD,2023-05-24T22:15:00Z,33.25,-97.58,28.8,15.4,60,8,,10.0,29.940945,,,TRUE,TRUE,,,,,,,CLR,,,,,,,,VFR,,,,,,,,,,,,METAR,319.0
KLUA 242215Z AUTO 03003KT 10SM CLR 26/07 A2998 RMK AO2,KLUA,2023-05-24T22:15:00Z,38.67,-78.5,26.0,7.0,30,3,,10.0,29.97933,,,TRUE,TRUE,,,,,,,CLR,,,,,,,,VFR,,,,,,,,,,,,SPECI,273.0
KLRY 242215Z AUTO 19004KT 10SM CLR 26/17 A3006 RMK AO2 LTG DSNT N AND E,KLRY,2023-05-24T22:15:00Z,38.62,-94.35,26.0,17.0,190,4,,10.0,30.059055,,,TRUE,TRUE,,,,,,,CLR,,,,,,,,VFR,,,,,,,,,,,,SPECI,272.0
KLRU 242215Z AUTO 19007G20KT 10SM CLR 34/M03 A2995 RMK AO2 T03401026,KLRU,2023-05-24T22:15:00Z,32.28,-106.92,34.0,-2.6,190,7,20,10.0,29.949802,,,TRUE,TRUE,,,,,,,CLR,,,,,,,,VFR,,,,,,,,,,,,METAR,1355.0
KLRO 242215Z AUTO 00000KT 7SM CLR 24/18 A2989 RMK AO2,KLRO,2023-05-24T22:15:00Z,32.9,-79.78,24.0,18.0,0,0,,7.0,29.890747,,,TRUE,TRUE,,,,,,,CLR,,,,,,,,VFR,,,,,,,,,,,,SPECI,3.0
KLRJ 242215Z AUTO 12006G12KT 10SM CLR 30/08 A3003 RMK AO2,KLRJ,2023-05-24T22:15:00Z,42.77,-96.2,30.0,8.0,120,6,12,10.0,30.029528,,,TRUE,TRUE,,,,,,,CLR,,,,,,,,VFR,,,,,,,,,,,,SPECI,363.0
KLQK 242215Z AUTO 08003KT 10SM CLR 24/08 A2996 RMK AO2 T02370079,KLQK,2023-05-24T22:15:00Z,34.82,-82.7,23.7,7.9,80,3,,10.0,29.958662,,,TRUE,TRUE,,,,,,,CLR,,,,,,,,VFR,,,,,,,,,,,,SPECI,291.0
KLOM 242215Z AUTO 26006KT 10SM CLR 26/08 A2992 RMK AO2 T02640084,KLOM,2023-05-24T22:15:00Z,40.13,-75.27,26.4,8.4,260,6,,10.0,29.920275,,,TRUE,TRUE,,,,,,,CLR,,,,,,,,VFR,,,,,,,,,,,,SPECI,87.0
KLNQ 242215Z AUTO 02007KT 10SM CLR 27/20 A2988 RMK AO2 T02680199,KLNQ,2023-05-24T22:15:00Z,29.35,-89.43,26.8,19.9,20,7,,10.0,29.878937,,,TRUE,TRUE,,,,,,,CLR,,,,,,,,VFR,,,,,,,,,,,,SPECI,1.0
KLNP 242215Z AUTO 36007KT 10SM CLR 20/06 A3009 RMK AO2,KLNP,2023-05-24T22:15:00Z,36.98,-82.52,20.0,6.0,360,7,,10.0,30.088583,,,TRUE,TRUE,,,,,,,CLR,,,,,,,,VFR,,,,,,,,,,,,SPECI,817.0
KLNN 242215Z AUTO 05008KT 10SM CLR 17/10 A3015 RMK AO1 T01700096,KLNN,2023-05-24T22:15:00Z,41.68,-81.38,17.0,9.6,50,8,,10.0,30.15059,,,TRUE,TRUE,,,,,,,CLR,,,,,,,,VFR,,,,,,,,,,,,SPECI,190.0
KLNL 242215Z AUTO 16006KT 10SM CLR 18/M08 A3034 RMK AO2 T01781076,KLNL,2023-05-24T22:15:00Z,46.15,-89.22,17.8,-7.6,160,6,,10.0,30.339567,,,TRUE,TRUE,,,,,,,CLR,,,,,,,,VFR,,,,,,,,,,,,SPECI,517.0
KLNC 242215Z AUTO 08006KT 10SM CLR 29/16 A2993 RMK AO2 T02900160,KLNC,2023-05-24T22:15:00Z,32.58,-96.72,29.0,16.0,80,6,,10.0,29.929134,,,TRUE,TRUE,,,,,,,CLR,,,,,,,,VFR,,,,,,,,,,,,METAR,152.0
KLNA 242215Z AUTO 29007KT 10SM -VCTSRA SCT060 SCT080 OVC110 22/21 A2983 RMK AO2 LTG DSNT ALQDS T02200205,KLNA,2023-05-24T22:15:00Z,26.6,-80.08,22.0,20.5,290,7,,10.0,29.828741,,,TRUE,TRUE,,,,,,VCTS -RA,SCT,6000,SCT,8000,OVC,11000,,,VFR,,,,,,,,,,,,SPECI,3.0
KLMS 242215Z AUTO 06005KT 10SM FEW042 SCT060 SCT080 24/18 A2999 RMK AO2,KLMS,2023-05-24T22:15:00Z,,,24.0,18.0,60,5,,10.0,29.991142,,,TRUE,TRUE,,,,,,,FEW,4200,SCT,6000,SCT,8000,,,VFR,,,,,,,,,,,,METAR,
KLMO 242215Z AUTO 27007KT 10SM -DZ BKN085 17/11 A3002 RMK AO2 T01710108,KLMO,2023-05-24T22:15:00Z,40.17,-105.17,17.1,10.8,270,7,,10.0,30.02067,,,TRUE,TRUE,,,,,,-DZ,BKN,8500,,,,,,,VFR,,,,,,,,,,,,METAR,1535.0
KLLN 242215Z AUTO 13014G20KT 10SM BKN046 26/15 A2999 RMK AO2,KLLN,2023-05-24T22:15:00Z,33.55,-102.37,26.0,15.0,130,14,20,10.0,29.991142,,,TRUE,TRUE,,,,,,,BKN,4600,,,,,,,VFR,,,,,,,,,,,,METAR,1071.0
KLKU 242215Z AUTO 11005KT 10SM CLR 24/09 A2999 RMK AO2 T02410092,KLKU,2023-05-24T22:15:00Z,38.02,-77.97,24.1,9.2,110,5,,10.0,29.991142,,,TRUE,TRUE,,,,,,,CLR,,,,,,,,VFR,,,,,,,,,,,,SPECI,146.0
KLKR 242215Z AUTO VRB06G12KT 10SM CLR 25/02 A2995 RMK AO2,KLKR,2023-05-24T22:15:00Z,34.72,-80.85,25.0,2.0,0,6,12,10.0,29.949802,,,TRUE,TRUE,,,,,,,CLR,,,,,,,,VFR,,,,,,,,,,,,SPECI,166.0
KLJF 242215Z AUTO 10013KT 10SM CLR 24/12 A3014 RMK AO2,KLJF,2023-05-24T22:15:00Z,45.1,-94.52,24.0,12.0,100,13,,10.0,30.138779,,,TRUE,TRUE,,,,,,,CLR,,,,,,,,VFR,,,,,,,,,,,,METAR,347.0
KLHM 242215Z AUTO 21006KT 10SM CLR 25/11 A2982 RMK AO1,KLHM,2023-05-24T22:15:00Z,38.92,-121.35,25.0,11.0,210,6,,10.0,29.819881,,,TRUE,TRUE,,,,,,,CLR,,,,,,,,VFR,,,,,,,,,,,,METAR,36.0
KLHB 242215Z AUTO 02007KT 10SM SCT038 SCT047 SCT055 28/19 A2993 RMK AO2 T02840194,KLHB,2023-05-24T22:15:00Z,30.87,-96.62,28.4,19.4,20,7,,10.0,29.929134,,,TRUE,TRUE,,,,,,,SCT,3800,SCT,4700,SCT,5500,,,VFR,,,,,,,,,,,,METAR,83.0
KLGC 242215Z AUTO 01004KT 10SM BKN060 24/14 A2994 RMK AO2 T02400137,KLGC,2023-05-24T22:15:00Z,33.0,-85.07,24.0,13.7,10,4,,10.0,29.940945,,,TRUE,TRUE,,,,,,,BKN,6000,,,,,,,VFR,,,,,,,,,,,,SPECI,209.0
KLDM 242215Z AUTO 34009KT 10SM CLR 19/05 A3022 RMK AO2 T01900051,KLDM,2023-05-24T22:15:00Z,43.97,-86.4,19.0,5.1,340,9,,10.0,30.221457,,,TRUE,TRUE,,,,,,,CLR,,,,,,,,VFR,,,,,,,,,,,,SPECI,194.0
KLCQ 242215Z AUTO 05009KT 020V080 10SM SCT035 25/17 A2986 RMK AO2 LTG DSNT E,KLCQ,2023-05-24T22:15:00Z,30.18,-82.58,25.0,17.0,50,9,,10.0,29.861221,,,TRUE,TRUE,,,,,,,SCT,3500,,,,,,,VFR,,,,,,,,,,,,SPECI,59.0
KLCG 242215Z AUTO 15007G16KT 10SM BKN090 30/07 A3003 RMK AO2 T02950067,KLCG,2023-05-24T22:15:00Z,42.25,-96.98,29.5,6.7,150,7,16,10.0,30.029528,,,TRUE,TRUE,,,,,,,BKN,9000,,,,,,,VFR,,,,,,,,,,,,SPECI,434.0
KLBO 242215Z AUTO 14005KT 10SM SCT075 SCT090 28/08 A3006 RMK AO2 LTG DSNT NW,KLBO,2023-05-24T22:15:00Z,37.65,-92.65,28.0,8.0,140,5,,10.0,30.059055,,,TRUE,TRUE,,,,,,,SCT,7500,SCT,9000,,,,,VFR,,,,,,,,,,,,SPECI,399.0
KLAM 242215Z AUTO 17013G19KT 9SM FEW110 24/M04 A3008 RMK AO2 T02391039 $,KLAM,2023-05-24T22:15:00Z,35.87,-106.27,23.9,-3.9,170,13,19,9.0,30.079725,,,TRUE,TRUE,TRUE,,,,,,FEW,11000,,,,,,,VFR,,,,,,,,,,,,METAR,2166.0
KL35 242215Z AUTO 21006KT 10SM CLR 17/M02 A3006 RMK AO2,KL35,2023-05-24T22:15:00Z,34.27,-116.85,17.0,-2.0,210,6,,10.0,30.059055,,,TRUE,TRUE,,,,,,,CLR,,,,,,,,VFR,,,,,,,,,,,,SPECI,2062.0
KL18 242215Z AUTO 20005KT 10SM OVC021 17/12 A2995 RMK AO2,KL18,2023-05-24T22:15:00Z,33.35,-117.25,17.0,12.0,200,5,,10.0,29.949802,,,TRUE,TRUE,,,,,,,OVC,2100,,,,,,,MVFR,,,,,,,,,,,,METAR,215.0
KL08 242215Z AUTO 24016KT 10SM CLR 36/M05 A2970 RMK AO2,KL08,2023-05-24T22:15:00Z,33.27,-116.32,36.0,-5.0,240,16,,10.0,29.698818,,,TRUE,TRUE,,,,,,,CLR,,,,,,,,VFR,,,,,,,,,,,,SPECI,156.0
KKY8 242215Z AUTO 03005KT 10SM CLR 28/14 A3000 RMK A01,KKY8,2023-05-24T22:15:00Z,37.95,-86.87,28.0,14.0,30,5,,10.0,30.0,,,TRUE,TRUE,,,,,,,CLR,,,,,,,,VFR,,,,,,,,,,,,SPECI,124.0
KKNB 242215Z AUTO 23014KT 10SM FEW039 FEW060 FEW080 27/M02 A2995 RMK A01,KKNB,2023-05-24T22:15:00Z,37.02,-112.53,27.0,-2.0,230,14,,10.0,29.949802,,,TRUE,TRUE,,,,,,,FEW,3900,FEW,6000,FEW,8000,,,VFR,,,,,,,,,,,,METAR,1476.0
KK88 242215Z AUTO 22005KT 10SM SCT110 19/17 A3006 RMK AO1 T01850167,KK88,2023-05-24T22:15:00Z,37.87,-95.38,18.5,16.7,220,5,,10.0,30.059055,,,TRUE,TRUE,,,,,,,SCT,11000,,,,,,,VFR,,,,,,,,,,,,METAR,308.0
KK82 242215Z AUTO 13009KT 10SM SCT060 OVC080 27/11 A3002 RMK AO2 T02700112,KK82,2023-05-24T22:15:00Z,39.77,-98.8,27.0,11.2,130,9,,10.0,30.02067,,,TRUE,TRUE,,,,,,,SCT,6000,OVC,8000,,,,,VFR,,,,,,,,,,,,SPECI,548.0
KK62 242215Z AUTO 00000KT 10SM CLR 26/11 A3002 RMK AO2,KK62,2023-05-24T22:15:00Z,38.7,-84.4,26.0,11.0,0,0,,10.0,30.02067,,,TRUE,TRUE,,,,,,,CLR,,,,,,,,VFR,,,,,,,,,,,,METAR,274.0
KJZP 242215Z AUTO 01008KT 330V040 10SM CLR 24/10 A2997 RMK AO2 T02450099,KJZP,2023-05-24T22:15:00Z,34.45,-84.47,24.5,9.9,10,8,,10.0,29.970472,,,TRUE,TRUE,,,,,,,CLR,,,,,,,,VFR,,,,,,,,,,,,SPECI,462.0
KJZI 242215Z AUTO 12007KT 10SM CLR 23/18 A2990 RMK AO2,KJZI,2023-05-24T22:15:00Z,32.7,-80.0,23.0,18.0,120,7,,10.0,29.899607,,,TRUE,TRUE,,,,,,,CLR,,,,,,,,VFR,,,,,,,,,,,,SPECI,5.0
KJYR 242215Z AUTO 18006KT 9SM FEW090 28/07 A3002 RMK AO2,KJYR,2023-05-24T22:15:00Z,40.9,-97.62,28.0,7.0,180,6,,9.0,30.02067,,,TRUE,TRUE,,,,,,,FEW,9000,,,,,,,VFR,,,,,,,,,,,,SPECI,508.0
KJYO 242215Z AUTO 27005KT 10SM CLR 27/10 A2998 RMK AO2,KJYO,2023-05-24T22:15:00Z,39.07,-77.57,27.0,10.0,270,5,,10.0,29.97933,,,TRUE,TRUE,,,,,,,CLR,,,,,,,,VFR,,,,,,,,,,,,SPECI,112.0
KJYM 242215Z AUTO 02006KT 10SM BKN100 19/04 A3018 RMK AO2 T01920043,KJYM,2023-05-24T22:15:00Z,41.92,-84.58,19.2,4.3,20,6,,10.0,30.180119,,,TRUE,TRUE,,,,,,,BKN,10000,,,,,,,VFR,,,,,,,,,,,,METAR,357.0
KJYL 242215Z AUTO 01007KT 10SM CLR 26/10 A2992 RMK AO2 T02630104,KJYL,2023-05-24T22:15:00Z,32.65,-81.6,26.3,10.4,10,7,,10.0,29.920275,,,TRUE,TRUE,,,,,,,CLR,,,,,,,,VFR,,,,,,,,,,,,SPECI,54.0
KJWY 242215Z AUTO 11004KT 10SM BKN050 BKN065 BKN120 29/18 A2995 RMK AO2 T02860178,KJWY,2023-05-24T22:15:00Z,32.45,-96.92,28.6,17.8,110,4,,10.0,29.949802,,,TRUE,TRUE,,,,,,,BKN,5000,BKN,6500,BKN,12000,,,VFR,,,,,,,,,,,,METAR,211.0
KJWG 242215Z AUTO 10008KT 10SM OVC070 26/15 A3000 RMK AO2 T02650153,KJWG,2023-05-24T22:15:00Z,35.87,-98.42,26.5,15.3,100,8,,10.0,30.0,,,TRUE,TRUE,,,,,,,OVC,7000,,,,,,,VFR,,,,,,,,,,,,METAR,469.0
KJVY 242215Z AUTO 05005KT 10SM CLR 28/10 A3000 RMK AO2,KJVY,2023-05-24T22:15:00Z,38.37,-85.73,28.0,10.0,50,5,,10.0,30.0,,,TRUE,TRUE,,,,,,,CLR,,,,,,,,VFR,,,,,,,,,,,,METAR,141.0
KJVW 242215Z AUTO 10SM FEW031 BKN042 OVC050 23/23 A2994 RMK AO2,KJVW,2023-05-24T22:15:00Z,32.3,-90.42,23.0,23.0,,,,10.0,29.940945,,,TRUE,TRUE,,,,,,,FEW,3100,BKN,4200,OVC,5000,,,VFR,,,,,,,,,,,,METAR,73.0
KJTC 242215Z AUTO 22014G21KT 10SM CLR 26/M11 A3008 RMK AO2,KJTC,2023-05-24T22:15:00Z,34.13,-109.32,26.0,-11.0,220,14,21,10.0,30.079725,,,TRUE,TRUE,,,,,,,CLR,,,,,,,,VFR,,,,,,,,,,,,METAR,2148.0
KJSV 242215Z AUTO 13006KT 10SM CLR 27/17 A2999 RMK AO2,KJSV,2023-05-24T22:15:00Z,35.43,-94.8,27.0,17.0,130,6,,10.0,29.991142,,,TRUE,TRUE,,,,,,,CLR,,,,,,,,VFR,,,,,,,,,,,,SPECI,158.0
KJSO 242215Z AUTO 07004KT 10SM SCT032 BKN055 26/19 A2994 RMK AO2 T02560192 TSNO,KJSO,2023-05-24T22:15:00Z,31.87,-95.22,25.6,19.2,70,4,,10.0,29.940945,,,TRUE,TRUE,,,TRUE,,,,SCT,3200,BKN,5500,,,,,VFR,,,,,,,,,,,,METAR,204.0
KJRO 242215Z AUTO 00000KT 10SM SCT080 26/12 A3003 RMK AO2,KJRO,2023-05-24T22:15:00Z,38.98,-82.58,26.0,12.0,0,0,,10.0,30.029528,,,TRUE,TRUE,,,,,,,SCT,8000,,,,,,,VFR,,,,,,,,,,,,METAR,224.0
KJPX 242215Z AUTO 19007KT 10SM CLR 15/07 A2992 RMK AO2 T01470069,KJPX,2023-05-24T22:15:00Z,40.95,-72.25,14.7,6.9,190,7,,10.0,29.920275,,,TRUE,TRUE,,,,,,,CLR,,,,,,,,VFR,,,,,,,,,,,,METAR,10.0
KJOT 242215Z AUTO 04012G19KT 10SM CLR 20/11 A3016 RMK AO2 T02040112,KJOT,2023-05-24T22:15:00Z,41.52,-88.18,20.4,11.2,40,12,19,10.0,30.159449,,,TRUE,TRUE,,,,,,,CLR,,,,,,,,VFR,,,,,,,,,,,,METAR,175.0
KJMR 242215Z AUTO 04005KT 10SM SCT090 SCT110 12/05 A3031 RMK AO2,KJMR,2023-05-24T22:15:00Z,45.88,-93.27,12.0,5.0,40,5,,10.0,30.31004,,,TRUE,TRUE,,,,,,,SCT,9000,SCT,11000,,,,,VFR,,,,,,,,,,,,SPECI,301.0
KJKJ 242215Z AUTO 11014G19KT 10SM CLR 19/08 A3012 RMK AO2 TSNO,KJKJ,2023-05-24T22:15:00Z,46.83,-96.67,19.0,8.0,110,14,19,10.0,30.121063,,,TRUE,TRUE,,,TRUE,,,,CLR,,,,,,,,VFR,,,,,,,,,,,,SPECI,280.0
KJHN 242215Z AUTO 11013KT 7SM SCT015 BKN028 OVC047 20/17 A3001 RMK AO2 T02030165,KJHN,2023-05-24T22:15:00Z,37.58,-101.73,20.3,16.5,110,13,,7.0,30.008858,,,TRUE,TRUE,,,,,,,SCT,1500,BKN,2800,OVC,4700,,,MVFR,,,,,,,,,,,,SPECI,1013.0
KJFZ 242215Z AUTO 01005KT 10SM CLR 21/09 A3007 RMK AO2 T02100093,KJFZ,2023-05-24T22:15:00Z,37.07,-81.8,21.0,9.3,10,5,,10.0,30.070866,,,TRUE,TRUE,,,,,,,CLR,,,,,,,,VFR,,,,,,,,,,,,SPECI,809.0
KJFX 242215Z AUTO 02005KT 10SM CLR 26/16 A2996 RMK AO2,KJFX,2023-05-24T22:15:00Z,33.9,-87.32,26.0,16.0,20,5,,10.0,29.958662,,,TRUE,TRUE,,,,,,,CLR,,,,,,,,VFR,,,,,,,,,,,,METAR,144.0
KJES 242215Z AUTO 07005KT 10SM CLR 28/11 A2991 RMK AO2,KJES,2023-05-24T22:15:00Z,31.55,-81.88,28.0,11.0,70,5,,10.0,29.911417,,,TRUE,TRUE,,,,,,,CLR,,,,,,,,VFR,,,,,,,,,,,,SPECI,26.0
KJDD 242215Z AUTO 06003KT 10SM SCT036 SCT046 SCT050 27/19 A2993 RMK AO2,KJDD,2023-05-24T22:15:00Z,32.75,-95.5,27.0,19.0,60,3,,10.0,29.929134,,,TRUE,TRUE,,,,,,,SCT,3600,SCT,4600,SCT,5000,,,VFR,,,,,,,,,,,,METAR,127.0
KJCA 242215Z AUTO 09006KT 10SM CLR 24/12 A2997 RMK AO2 T02400119,KJCA,2023-05-24T22:15:00Z,34.18,-83.57,24.0,11.9,90,6,,10.0,29.970472,,,TRUE,TRUE,,,,,,,CLR,,,,,,,,VFR,,,,,,,,,,,,SPECI,287.0
KJAS 242215Z AUTO 03005KT 9SM FEW044 SCT050 BKN060 28/21 A2987 RMK AO2,KJAS,2023-05-24T22:15:00Z,30.88,-94.03,28.0,21.0,30,5,,9.0,29.870079,,,TRUE,TRUE,,,,,,,FEW,4400,SCT,5000,BKN,6000,,,VFR,,,,,,,,,,,,SPECI,60.0
KJAQ 242215Z AUTO 00000KT 10SM CLR 22/09 A2987 RMK AO1 T02210092,KJAQ,2023-05-24T22:15:00Z,38.37,-120.8,22.1,9.2,0,0,,10.0,29.870079,,,TRUE,TRUE,,,,,,,CLR,,,,,,,,VFR,,,,,,,,,,,,METAR,518.0
KIZA 242215Z AUTO VRB06KT 9SM OVC035 19/11 A2993 RMK AO2,KIZA,2023-05-24T22:15:00Z,34.6,-120.07,19.0,11.0,0,6,,9.0,29.929134,,,TRUE,TRUE,,,,,,,OVC,3500,,,,,,,VFR,,,,,,,,,,,,METAR,200.0
KIYA 242215Z AUTO 36006KT 10SM SCT037 SCT050 29/17 A2987 RMK AO2 LTG DSNT S T02880166,KIYA,2023-05-24T22:15:00Z,29.98,-92.08,28.8,16.6,360,6,,10.0,29.870079,,,TRUE,TRUE,,,,,,,SCT,3700,SCT,5000,,,,,VFR,,,,,,,,,,,,SPECI,4.0
KIUA 242215Z AUTO 36007KT 10SM BKN006 BKN011 OVC031 10/10 A3018 RMK AO2 T01010095,KIUA,2023-05-24T22:15:00Z,42.92,-77.33,10.1,9.5,360,7,,10.0,30.180119,,,TRUE,TRUE,,,,,,,BKN,600,BKN,1100,OVC,3100,,,IFR,,,,,,,,,,,,METAR,248.0
KISQ 242215Z AUTO 34009G19KT 10SM CLR 14/00 A3036 RMK AO2 T01390000,KISQ,2023-05-24T22:15:00Z,45.97,-86.17,13.9,0.0,340,9,19,10.0,30.360237,,,TRUE,TRUE,,,,,,,CLR,,,,,,,,VFR,,,,,,,,,,,,SPECI,206.0
KIRS 242215Z AUTO 05012G21KT 10SM CLR 21/M02 A3016 RMK AO2 T02081019,KIRS,2023-05-24T22:15:00Z,41.8,-85.43,20.8,-1.9,50,12,21,10.0,30.159449,,,TRUE,TRUE,,,,,,,CLR,,,,,,,,VFR,,,,,,,,,,,,METAR,282.0
KIOB 242215Z AUTO 06005KT 10SM CLR 26/10 A3004 RMK AO2 PWINO,KIOB,2023-05-24T22:15:00Z,38.05,-83.98,26.0,10.0,60,5,,10.0,30.041338,,,TRUE,TRUE,,,,,TRUE,,CLR,,,,,,,,VFR,,,,,,,,,,,,METAR,301.0
KINJ 242215Z AUTO 13005KT 10SM SCT042 SCT050 29/19 A2992 RMK AO2 T02920187,KINJ,2023-05-24T22:15:00Z,32.08,-97.1,29.2,18.7,130,5,,10.0,29.920275,,,TRUE,TRUE,,,,,,,SCT,4200,SCT,5000,,,,,VFR,,,,,,,,,,,,METAR,208.0
KINF 242215Z AUTO 00000KT 10SM -RA SCT007 OVC012 22/22 A2983 RMK AO2 LTG DSNT NE AND S P0001,KINF,2023-05-24T22:15:00Z,28.8,-82.32,22.0,22.0,0,0,,10.0,29.828741,,,TRUE,TRUE,,,,,,-RA,SCT,700,OVC,1200,,,,,MVFR,,,,,,0.01,,,,,,METAR,14.0
KIMS 242215Z AUTO 03008KT 10SM BKN090 27/07 A3004 RMK AO2,KIMS,2023-05-24T22:15:00Z,38.75,-85.47,27.0,7.0,30,8,,10.0,30.041338,,,TRUE,TRUE,,,,,,,BKN,9000,,,,,,,VFR,,,,,,,,,,,,METAR,244.0
KIKW 242215Z AUTO 08011G19KT 10SM CLR 12/M02 A3030 RMK AO2 T01201016,KIKW,2023-05-24T22:15:00Z,43.67,-84.27,12.0,-1.6,80,11,19,10.0,30.301182,,,TRUE,TRUE,,,,,,,CLR,,,,,,,,VFR,,,,,,,,,,,,METAR,190.0
KIKV 242215Z AUTO 18008KT 140V210 6SM HZ CLR 29/12 A3007 RMK AO2,KIKV,2023-05-24T22:15:00Z,41.68,-93.57,29.0,12.0,180,8,,6.0,30.070866,,,TRUE,TRUE,,,,,,HZ,CLR,,,,,,,,VFR,,,,,,,,,,,,SPECI,270.0
KIKK 242215Z AUTO 05018G24KT 10SM CLR 22/10 A3014 RMK AO2 T02160100 PWINO,KIKK,2023-05-24T22:15:00Z,41.07,-87.85,21.6,10.0,50,18,24,10.0,30.138779,,,TRUE,TRUE,,,,,TRUE,,CLR,,,,,,,,VFR,,,,,,,,,,,,SPECI,188.0
KIKG 242215Z AUTO 10011G15KT 10SM SCT048 SCT060 33/21 A2984 RMK AO2 T03300207,KIKG,2023-05-24T22:15:00Z,27.55,-98.03,33.0,20.7,100,11,15,10.0,29.840551,,,TRUE,TRUE,,,,,,,SCT,4800,SCT,6000,,,,,VFR,,,,,,,,,,,,METAR,37.0
KIJX 242215Z AUTO 02005KT 10SM SCT095 30/09 A3004 RMK AO2 T02950087,KIJX,2023-05-24T22:15:00Z,39.77,-90.25,29.5,8.7,20,5,,10.0,30.041338,,,TRUE,TRUE,,,,,,,SCT,9500,,,,,,,VFR,,,,,,,,,,,,SPECI,187.0
KIIY 242215Z AUTO 04004KT 10SM CLR 24/09 A2995 RMK AO2 T02420087,KIIY,2023-05-24T22:15:00Z,33.78,-82.82,24.2,8.7,40,4,,10.0,29.949802,,,TRUE,TRUE,,,,,,,CLR,,,,,,,,VFR,,,,,,,,,,,,SPECI,192.0
KIIB 242215Z AUTO 06015G22KT 10SM CLR 27/10 A3013 RMK AO2 T02720097,KIIB,2023-05-24T22:15:00Z,42.45,-91.95,27.2,9.7,60,15,22,10.0,30.129921,,,TRUE,TRUE,,,,,,,CLR,,,,,,,,VFR,,,,,,,,,,,,SPECI,294.0
KIFA 242215Z AUTO 16010G14KT 10SM CLR 30/07 A3009 RMK AO2 T02950066,KIFA,2023-05-24T22:15:00Z,42.47,-93.27,29.5,6.6,160,10,14,10.0,30.088583,,,TRUE,TRUE,,,,,,,CLR,,,,,,,,VFR,,,,,,,,,,,,METAR,344.0
KIER 242215Z AUTO 04007KT 10SM OVC035 27/17 A2993 RMK AO2 T02670174,KIER,2023-05-24T22:15:00Z,31.73,-93.1,26.7,17.4,40,7,,10.0,29.929134,,,TRUE,TRUE,,,,,,,OVC,3500,,,,,,,VFR,,,,,,,,,,,,SPECI,35.0
KIDP 242215Z AUTO 26004KT 10SM CLR 22/19 A3004 RMK AO2 LTG DSNT NW T02160191,KIDP,2023-05-24T22:15:00Z,37.17,-95.78,21.6,19.1,260,4,,10.0,30.041338,,,TRUE,TRUE,,,,,,,CLR,,,,,,,,VFR,,,,,,,,,,,,SPECI,252.0
KIDI 242215Z AUTO 35008G14KT 10SM SCT065 SCT075 BKN095 23/10 A3004 RMK A01,KIDI,2023-05-24T22:15:00Z,40.63,-79.1,23.0,10.0,350,8,14,10.0,30.041338,,,TRUE,TRUE,,,,,,,SCT,6500,SCT,7500,BKN,9500,,,VFR,,,,,,,,,,,,SPECI,425.0
KICL 242215Z AUTO 15006G12KT 10SM FEW060 FEW080 29/13 A3005 RMK AO2,KICL,2023-05-24T22:15:00Z,40.72,-95.02,29.0,13.0,150,6,12,10.0,30.050198,,,TRUE,TRUE,,,,,,,FEW,6000,FEW,8000,,,,,VFR,,,,,,,,,,,,SPECI,299.0
KIBM 242215Z AUTO 13012KT 10SM SCT031 SCT039 OVC080 20/14 A3000 RMK AO2 LTG DSNT SW AND W T02020138,KIBM,2023-05-24T22:15:00Z,41.18,-103.68,20.2,13.8,130,12,,10.0,30.0,,,TRUE,TRUE,,,,,,,SCT,3100,SCT,3900,OVC,8000,,,VFR,,,,,,,,,,,,SPECI,1494.0
KI95 242215Z AUTO 03013G24KT 10SM CLR 20/10 A3011 RMK A01,KI95,2023-05-24T22:15:00Z,,,20.0,10.0,30,13,24,10.0,30.109253,,,TRUE,TRUE,,,,,,,CLR,,,,,,,,VFR,,,,,,,,,,,,SPECI,
KI75 242215Z AUTO 09009KT 10SM CLR 29/14 A3006 RMK AO2 T02870142,KI75,2023-05-24T22:15:00Z,41.05,-93.68,28.7,14.2,90,9,,10.0,30.059055,,,TRUE,TRUE,,,,,,,CLR,,,,,,,,VFR,,,,,,,,,,,,SPECI,336.0
KI74 242215Z AUTO 05015KT 10SM CLR 23/12 A3008 RMK AO2,KI74,2023-05-24T22:15:00Z,40.12,-83.75,23.0,12.0,50,15,,10.0,30.079725,,,TRUE,TRUE,,,,,,,CLR,,,,,,,,VFR,,,,,,,,,,,,METAR,322.0
KI67 242215Z AUTO 05009KT 10SM CLR 27/10 A3001 RMK AO1,KI67,2023-05-24T22:15:00Z,39.25,-84.78,27.0,10.0,50,9,,10.0,30.008858,,,TRUE,TRUE,,,,,,,CLR,,,,,,,,VFR,,,,,,,,,,,,METAR,177.0
KI63 242215Z AUTO 10004KT 10SM CLR 29/09 A3006 RMK AO2 T02870091,KI63,2023-05-24T22:15:00Z,39.98,-90.8,28.7,9.1,100,4,,10.0,30.059055,,,TRUE,TRUE,,,,,,,CLR,,,,,,,,VFR,,,,,,,,,,,,SPECI,221.0
KI23 242215Z AUTO 01018KT 10SM SCT080 26/10 A3003 RMK AO1,KI23,2023-05-24T22:15:00Z,39.57,-83.42,26.0,10.0,10,18,,10.0,30.029528,,,TRUE,TRUE,,,,,,,SCT,8000,,,,,,,VFR,,,,,,,,,,,,METAR,298.0
KI19 242215Z AUTO 04011G19KT 350V070 6SM HZ FEW070 26/13 A3003 RMK AO2,KI19,2023-05-24T22:15:00Z,39.7,-83.98,26.0,13.0,40,11,19,6.0,30.029528,,,TRUE,TRUE,,,,,,HZ,FEW,7000,,,,,,,VFR,,,,,,,,,,,,SPECI,285.0
KHZX 242215Z AUTO 06006KT 10SM OVC080 05/03 A3032 RMK AO2,KHZX,2023-05-24T22:15:00Z,46.62,-93.32,5.0,3.0,60,6,,10.0,30.318897,,,TRUE,TRUE,,,,,,,OVC,8000,,,,,,,VFR,,,,,,,,,,,,METAR,374.0
KHZL 242215Z AUTO 35008G16KT SCT027 BKN055 BKN085 18/11 A3004 RMK AO2 PWINO,KHZL,2023-05-24T22:15:00Z,40.98,-76.0,18.0,11.0,350,8,16,,30.041338,,,TRUE,TRUE,,,,,TRUE,,SCT,2700,BKN,5500,BKN,8500,,,,,,,,,,,,,,,SPECI,481.0
KHZE 242215Z AUTO 12015G24KT 10SM SCT070 BKN085 BKN110 28/16 A2993 RMK AO2,KHZE,2023-05-24T22:15:00Z,47.28,-101.58,28.0,16.0,120,15,24,10.0,29.929134,,,TRUE,TRUE,,,,,,,SCT,7000,BKN,8500,BKN,11000,,,VFR,,,,,,,,,,,,METAR,542.0
KHYX 242215Z AUTO 03014G20KT 10SM CLR 13/06 A3030 RMK AO2 T01250060,KHYX,2023-05-24T22:15:00Z,43.43,-83.87,12.5,6.0,30,14,20,10.0,30.301182,,,TRUE,TRUE,,,,,,,CLR,,,,,,,,VFR,,,,,,,,,,,,SPECI,181.0
KHYW 242215Z AUTO 00000KT 10SM SCT065 25/10 A2989 RMK AO2,KHYW,2023-05-24T22:15:00Z,33.83,-79.12,25.0,10.0,0,0,,10.0,29.890747,,,TRUE,TRUE,,,,,,,SCT,6500,,,,,,,VFR,,,,,,,,,,,,METAR,10.0
KHWY 242215Z AUTO 01003KT 10SM CLR 26/06 A2998 RMK AO2 T02580062,KHWY,2023-05-24T22:15:00Z,38.58,-77.72,25.8,6.2,10,3,,10.0,29.97933,,,TRUE,TRUE,,,,,,,CLR,,,,,,,,VFR,,,,,,,,,,,,METAR,93.0
KHVS 242215Z AUTO 03007KT 10SM CLR 25/M01 A2992 RMK AO2,KHVS,2023-05-24T22:15:00Z,34.4,-80.12,25.0,-1.0,30,7,,10.0,29.920275,,,TRUE,TRUE,,,,,,,CLR,,,,,,,,VFR,,,,,,,,,,,,SPECI,110.0
KHVE 242215Z AUTO 21012G19KT 10SM CLR 30/M05 A2988 RMK AO2,KHVE,2023-05-24T22:15:00Z,38.42,-110.7,30.0,-5.0,210,12,19,10.0,29.878937,,,TRUE,TRUE,,,,,,,CLR,,,,,,,,VFR,,,,,,,,,,,,METAR,1351.0
KHVC 242215Z AUTO 36005G11KT 9SM FEW065 28/13 A2998 RMK AO2,KHVC,2023-05-24T22:15:00Z,,,28.0,13.0,360,5,11,9.0,29.97933,,,TRUE,TRUE,,,,,,,FEW,6500,,,,,,,VFR,,,,,,,,,,,,METAR,
KHSP 242215Z AUTO 10003KT 5SM HZ CLR 20/05 A3009 RMK AO2 T02000051,KHSP,2023-05-24T22:15:00Z,37.95,-79.82,20.0,5.1,100,3,,5.0,30.088583,,,TRUE,TRUE,,,,,,HZ,CLR,,,,,,,,MVFR,,,,,,,,,,,,SPECI,1148.0
KHSG 242215Z AUTO 00000KT 10SM SCT100 SCT120 25/04 A2986 RMK AO2 LTG DSNT N SE AND NW T02520040,KHSG,2023-05-24T22:15:00Z,43.72,-108.38,25.2,4.0,0,0,,10.0,29.861221,,,TRUE,TRUE,,,,,,,SCT,10000,SCT,12000,,,,,VFR,,,,,,,,,,,,METAR,1497.0
KHSD 242215Z AUTO 10008KT 070V130 10SM CLR 27/16 A2997 RMK A01,KHSD,2023-05-24T22:15:00Z,35.6,-97.72,27.0,16.0,100,8,,10.0,29.970472,,,TRUE,TRUE,,,,,,,CLR,,,,,,,,VFR,,,,,,,,,,,,METAR,358.0
KHSB 242215Z AUTO 04008G16KT 10SM SCT085 30/03 A3002 RMK AO2 T03040026,KHSB,2023-05-24T22:15:00Z,37.82,-88.55,30.4,2.6,40,8,16,10.0,30.02067,,,TRUE,TRUE,,,,,,,SCT,8500,,,,,,,VFR,,,,,,,,,,,,METAR,118.0
KHRX 242215Z AUTO 14013KT 10SM SCT036 26/16 A3000 RMK AO2 T02610160,KHRX,2023-05-24T22:15:00Z,34.87,-102.33,26.1,16.0,140,13,,10.0,30.0,,,TRUE,TRUE,,,,,,,SCT,3600,,,,,,,VFR,,,,,,,,,,,,METAR,1153.0
KHQU 242215Z AUTO 02006KT 10SM CLR 25/05 A2994 RMK AO2 T02500055,KHQU,2023-05-24T22:15:00Z,33.53,-82.52,25.0,5.5,20,6,,10.0,29.940945,,,TRUE,TRUE,,,,,,,CLR,,,,,,,,VFR,,,,,,,,,,,,METAR,141.0
KHQG 242215Z AUTO 15012G17KT 10SM SCT025 SCT039 SCT048 23/16 A3002 RMK AO2 T02280164 PWINO,KHQG,2023-05-24T22:15:00Z,37.17,-101.37,22.8,16.4,150,12,17,10.0,30.02067,,,TRUE,TRUE,,,,,TRUE,,SCT,2500,SCT,3900,SCT,4800,,,VFR,,,,,,,,,,,,SPECI,956.0
KHQG 242215Z AUTO 15012G17KT 10SM SCT025 SCT039 SCT048 23/16 A3002 RMK AO2 T02280164 PWINO,KHQG,2023-05-24T22:15:00Z,37.17,-101.37,22.8,16.4,150,12,17,10.0,30.02067,,,TRUE,TRUE,,,,,TRUE,,SCT,2500,SCT,3900,SCT,4800,,,VFR,,,,,,,,,,,,SPECI,956.0
KHPT 242215Z AUTO 11015G20KT 10SM SCT100 30/05 A3008 RMK AO2,KHPT,2023-05-24T22:15:00Z,42.72,-93.23,30.0,5.0,110,15,20,10.0,30.079725,,,TRUE,TRUE,,,,,,,SCT,10000,,,,,,,VFR,,,,,,,,,,,,SPECI,354.0
KHOE 242215Z AUTO 03003KT 10SM BKN050 26/16 A2989 RMK AO2 T02610159,KHOE,2023-05-24T22:15:00Z,31.05,-82.78,26.1,15.9,30,3,,10.0,29.890747,,,TRUE,TRUE,,,,,,,BKN,5000,,,,,,,VFR,,,,,,,,,,,,SPECI,56.0
KHNR 242215Z AUTO 14011KT 10SM CLR 29/12 A3004 RMK A01,KHNR,2023-05-24T22:15:00Z,41.58,-95.33,29.0,12.0,140,11,,10.0,30.041338,,,TRUE,TRUE,,,,,,,CLR,,,,,,,,VFR,,,,,,,,,,,,SPECI,364.0
KHMZ 242215Z AUTO 31007KT 10SM SCT075 SCT085 OVC110 23/09 A2998 RMK AO2 T02340092,KHMZ,2023-05-24T22:15:00Z,40.08,-78.52,23.4,9.2,310,7,,10.0,29.97933,,,TRUE,TRUE,,,,,,,SCT,7500,SCT,8500,OVC,11000,,,VFR,,,,,,,,,,,,SPECI,351.0
KHMT 242215Z AUTO 21017KT 10SM CLR 20/12 A2991 RMK AO2 T01980119,KHMT,2023-05-24T22:15:00Z,33.73,-117.02,19.8,11.9,210,17,,10.0,29.911417,,,TRUE,TRUE,,,,,,,CLR,,,,,,,,VFR,,,,,,,,,,,,METAR,462.0
KHMP 242215Z AUTO 08008KT 10SM CLR 24/12 A2998 RMK AO2 T02410116,KHMP,2023-05-24T22:15:00Z,33.38,-84.33,24.1,11.6,80,8,,10.0,29.97933,,,TRUE,TRUE,,,,,,,CLR,,,,,,,,VFR,,,,,,,,,,,,SPECI,263.0
KHLX 242215Z AUTO 01004KT 10SM CLR 21/06 A3004 RMK AO2 T02110062,KHLX,2023-05-24T22:15:00Z,36.77,-80.82,21.1,6.2,10,4,,10.0,30.041338,,,TRUE,TRUE,,,,,,,CLR,,,,,,,,VFR,,,,,,,,,,,,SPECI,819.0
KHLB 242215Z AUTO VRB04KT 10SM SCT100 27/10 A3003 RMK A01,KHLB,2023-05-24T22:15:00Z,39.35,-85.27,27.0,10.0,0,4,,10.0,30.029528,,,TRUE,TRUE,,,,,,,SCT,10000,,,,,,,VFR,,,,,,,,,,,,METAR,297.0
KHJH 242215Z AUTO 00000KT 10SM BKN075 28/09 A3002 RMK AO2 T02800092,KHJH,2023-05-24T22:15:00Z,40.15,-97.58,28.0,9.2,0,0,,10.0,30.02067,,,TRUE,TRUE,,,,,,,BKN,7500,,,,,,,VFR,,,,,,,,,,,,SPECI,449.0
KHHG 242215Z AUTO 05012G15KT 10SM SCT110 25/12 A3008 RMK AO2 T02520120,KHHG,2023-05-24T22:15:00Z,40.85,-85.45,25.2,12.0,50,12,15,10.0,30.079725,,,TRUE,TRUE,,,,,,,SCT,11000,,,,,,,VFR,,,,,,,,,,,,SPECI,247.0
KHHF 242215Z AUTO 12013KT 10SM SCT080 26/15 A2997 RMK AO2 T02600154,KHHF,2023-05-24T22:15:00Z,35.9,-100.4,26.0,15.4,120,13,,10.0,29.970472,,,TRUE,TRUE,,,,,,,SCT,8000,,,,,,,VFR,,,,,,,,,,,,METAR,729.0
KHFY 242215Z AUTO 05007KT 10SM CLR 29/09 A3005 RMK AO2 T02870092,KHFY,2023-05-24T22:15:00Z,39.63,-86.08,28.7,9.2,50,7,,10.0,30.050198,,,TRUE,TRUE,,,,,,,CLR,,,,,,,,VFR,,,,,,,,,,,,METAR,250.0
KHFJ 242215Z AUTO 00000KT 10SM CLR 25/14 A3004 RMK AO2,KHFJ,2023-05-24T22:15:00Z,36.9,-94.02,25.0,14.0,0,0,,10.0,30.041338,,,TRUE,TRUE,,,,,,,CLR,,,,,,,,VFR,,,,,,,,,,,,METAR,398.0
KHEQ 242215Z AUTO 16015G21KT 10SM CLR 26/13 A3000 RMK AO2,KHEQ,2023-05-24T22:15:00Z,40.57,-102.28,26.0,13.0,160,15,21,10.0,30.0,,,TRUE,TRUE,,,,,,,CLR,,,,,,,,VFR,,,,,,,,,,,,METAR,1136.0
KHEG 242215Z AUTO 04011KT 10SM CLR 24/16 A2990 RMK AO2,KHEG,2023-05-24T22:15:00Z,30.28,-81.8,24.0,16.0,40,11,,10.0,29.899607,,,TRUE,TRUE,,,,,,,CLR,,,,,,,,VFR,,,,,,,,,,,,METAR,25.0
KHDL 242215Z AUTO VRB06G13KT 10SM FEW036 SCT041 SCT049 25/20 A2989 RMK AO2,KHDL,2023-05-24T22:15:00Z,31.37,-85.32,25.0,20.0,0,6,13,10.0,29.890747,,,TRUE,TRUE,,,,,,,FEW,3600,SCT,4100,SCT,4900,,,VFR,,,,,,,,,,,,SPECI,109.0
KHDE 242215Z AUTO 17009G14KT 10SM OVC075 26/11 A3003 RMK AO2 T02550113,KHDE,2023-05-24T22:15:00Z,40.45,-99.33,25.5,11.3,170,9,14,10.0,30.029528,,,TRUE,TRUE,,,,,,,OVC,7500,,,,,,,VFR,,,,,,,,,,,,SPECI,703.0
KHDC 242215Z AUTO 06006G14KT 10SM SCT033 26/17 A2989 RMK AO2 T02600172,KHDC,2023-05-24T22:15:00Z,30.52,-90.42,26.0,17.2,60,6,14,10.0,29.890747,,,TRUE,TRUE,,,,,,,SCT,3300,,,,,,,VFR,,,,,,,,,,,,METAR,12.0
KHCR 242215Z AUTO 10SM SCT110 21/04 A2992 RMK AO2,KHCR,2023-05-24T22:15:00Z,40.48,-111.43,21.0,4.0,,,,10.0,29.920275,,,TRUE,TRUE,,,,,,,SCT,11000,,,,,,,VFR,,,,,,,,,,,,METAR,1708.0
KHCO 242215Z AUTO 11016KT 10SM CLR 17/06 A3018 RMK AO2,KHCO,2023-05-24T22:15:00Z,48.75,-96.93,17.0,6.0,110,16,,10.0,30.180119,,,TRUE,TRUE,,,,,,,CLR,,,,,,,,VFR,,,,,,,,,,,,SPECI,250.0
KHCD 242215Z AUTO 08013G20KT 10SM CLR 26/12 A3015 RMK AO2 T02590124,KHCD,2023-05-24T22:15:00Z,44.87,-94.38,25.9,12.4,80,13,20,10.0,30.15059,,,TRUE,TRUE,,,,,,,CLR,,,,,,,,VFR,,,,,,,,,,,,METAR,320.0
KHBV 242215Z AUTO 12006KT 10SM CLR 34/18 A2986 RMK AO2 T03350181,KHBV,2023-05-24T22:15:00Z,27.35,-98.73,33.5,18.1,120,6,,10.0,29.861221,,,TRUE,TRUE,,,,,,,CLR,,,,,,,,VFR,,,,,,,,,,,,METAR,200.0
KHAF 242215Z AUTO 19010KT 5SM HZ OVC026 14/10 A2993 RMK AO2,KHAF,2023-05-24T22:15:00Z,37.52,-122.5,14.0,10.0,190,10,,5.0,29.929134,,,TRUE,TRUE,,,,,,HZ,OVC,2600,,,,,,,MVFR,,,,,,,,,,,,METAR,11.0
KHAE 242215Z AUTO 09005KT 10SM CLR 29/10 A3006 RMK AO2,KHAE,2023-05-24T22:15:00Z,39.73,-91.45,29.0,10.0,90,5,,10.0,30.059055,,,TRUE,TRUE,,,,,,,CLR,,,,,,,,VFR,,,,,,,,,,,,METAR,230.0
KGZS 242215Z AUTO VRB04KT 27/15 RMK A01,KGZS,2023-05-24T22:15:00Z,35.15,-87.05,27.0,15.0,0,4,,,,,,TRUE,TRUE,,,,,,,,,,,,,,,,,,,,,,,,,,,METAR,198.0
KGZL 242215Z AUTO 00000KT 10SM CLR 26/19 A3000 RMK AO2,KGZL,2023-05-24T22:15:00Z,35.28,-95.1,26.0,19.0,0,0,,10.0,30.0,,,TRUE,TRUE,,,,,,,CLR,,,,,,,,VFR,,,,,,,,,,,,SPECI,176.0
KGYL 242215Z AUTO 07011G16KT 10SM CLR 25/13 A3014 RMK AO2 T02530132,KGYL,2023-05-24T22:15:00Z,44.77,-94.08,25.3,13.2,70,11,16,10.0,30.138779,,,TRUE,TRUE,,,,,,,CLR,,,,,,,,VFR,,,,,,,,,,,,SPECI,304.0
KGYF 242215Z AUTO 04005KT 10SM CLR A2985 RMK AO2,KGYF,2023-05-24T22:15:00Z,26.13,-94.9,,,40,5,,10.0,29.84941,,,TRUE,TRUE,,,,,,,CLR,,,,,,,,VFR,,,,,,,,,,,,METAR,65.0
KGYB 242215Z AUTO 02006KT 10SM CLR 28/18 A2992 RMK AO2 T02780182,KGYB,2023-05-24T22:15:00Z,30.17,-96.98,27.8,18.2,20,6,,10.0,29.920275,,,TRUE,TRUE,,,,,,,CLR,,,,,,,,VFR,,,,,,,,,,,,METAR,140.0
KGWR 242215Z AUTO 14018KT 10SM SCT120 28/10 A3004 RMK A01,KGWR,2023-05-24T22:15:00Z,46.22,-97.65,28.0,10.0,140,18,,10.0,30.041338,,,TRUE,TRUE,,,,,,,SCT,12000,,,,,,,VFR,,,,,,,,,,,,SPECI,381.0
KGWB 242215Z AUTO 05014G18KT 10SM CLR 23/12 A3013 RMK AO2,KGWB,2023-05-24T22:15:00Z,41.3,-85.07,23.0,12.0,50,14,18,10.0,30.129921,,,TRUE,TRUE,,,,,,,CLR,,,,,,,,VFR,,,,,,,,,,,,METAR,268.0
KGVT 242215Z AUTO 09006KT 10SM SCT043 SCT050 28/19 A2993 RMK AO2 TSNO T02790188,KGVT,2023-05-24T22:15:00Z,33.07,-96.07,27.9,18.8,90,6,,10.0,29.929134,,,TRUE,TRUE,,,TRUE,,,,SCT,4300,SCT,5000,,,,,VFR,,,,,,,,,,,,METAR,165.0
KGVE 242215Z AUTO 00000KT 10SM CLR 25/10 A2997 RMK AO1 T02480101,KGVE,2023-05-24T22:15:00Z,38.15,-78.17,24.8,10.1,0,0,,10.0,29.970472,,,TRUE,TRUE,,,,,,,CLR,,,,,,,,VFR,,,,,,,,,,,,SPECI,138.0
KGRY 242215Z AUTO 05011KT 10SM CLR 26/20 A2984 RMK A01,KGRY,2023-05-24T22:15:00Z,27.63,-90.45,26.0,20.0,50,11,,10.0,29.840551,,,TRUE,TRUE,,,,,,,CLR,,,,,,,,VFR,,,,,,,,,,,,METAR,58.0
KGRN 242215Z AUTO 17013G17KT 10SM SCT060 BKN080 25/10 A2999 RMK AO2 T02460100,KGRN,2023-05-24T22:15:00Z,42.8,-102.17,24.6,10.0,170,13,17,10.0,29.991142,,,TRUE,TRUE,,,,,,,SCT,6000,BKN,8000,,,,,VFR,,,,,,,,,,,,SPECI,1080.0
KGPH 242215Z AUTO 07004KT 10SM BKN120 25/16 A3003 RMK AO2 LTG DSNT E SE AND NW,KGPH,2023-05-24T22:15:00Z,39.33,-94.32,25.0,16.0,70,4,,10.0,30.029528,,,TRUE,TRUE,,,,,,,BKN,12000,,,,,,,VFR,,,,,,,,,,,,METAR,233.0
KGPC 242215Z AUTO 07008KT 10SM SCT095 29/07 A3005 RMK AO2 T02870074,KGPC,2023-05-24T22:15:00Z,39.63,-86.82,28.7,7.4,70,8,,10.0,30.050198,,,TRUE,TRUE,,,,,,,SCT,9500,,,,,,,VFR,,,,,,,,,,,,METAR,254.0
KGOO 242215Z AUTO 28007KT 10SM CLR 20/08 A2989 RMK A01,KGOO,2023-05-24T22:15:00Z,39.22,-121.0,20.0,8.0,280,7,,10.0,29.890747,,,TRUE,TRUE,,,,,,,CLR,,,,,,,,VFR,,,,,,,,,,,,METAR,950.0
KGNT 242215Z AUTO 17006G17KT 10SM SCT120 26/M06 A3004 RMK AO2 T02561056,KGNT,2023-05-24T22:15:00Z,35.17,-107.9,25.6,-5.6,170,6,17,10.0,30.041338,,,TRUE,TRUE,,,,,,,SCT,12000,,,,,,,VFR,,,,,,,,,,,,SPECI,1988.0
KGNG 242215Z AUTO 00000KT 10SM CLR 22/08 A2989 RMK AO2 LTG DSNT N AND S,KGNG,2023-05-24T22:15:00Z,42.92,-114.77,22.0,8.0,0,0,,10.0,29.890747,,,TRUE,TRUE,,,,,,,CLR,,,,,,,,VFR,,,,,,,,,,,,METAR,1128.0
KGNB 242215Z AUTO 07005KT 10SM SCT090 15/04 A3017 RMK AO2 T01500043,KGNB,2023-05-24T22:15:00Z,40.08,-105.92,15.0,4.3,70,5,,10.0,30.171259,,,TRUE,TRUE,,,,,,,SCT,9000,,,,,,,VFR,,,,,,,,,,,,METAR,2500.0
KGMJ 242215Z AUTO 35004KT 10SM CLR 24/21 A3002 RMK AO2,KGMJ,2023-05-24T22:15:00Z,36.6,-94.73,24.0,21.0,350,4,,10.0,30.02067,,,TRUE,TRUE,,,,,,,CLR,,,,,,,,VFR,,,,,,,,,,,,SPECI,251.0
KGLY 242215Z AUTO 19005KT 10SM FEW065 29/14 A3003 RMK AO2 LTG DSNT N AND NE,KGLY,2023-05-24T22:15:00Z,38.35,-93.68,29.0,14.0,190,5,,10.0,30.029528,,,TRUE,TRUE,,,,,,,FEW,6500,,,,,,,VFR,,,,,,,,,,,,SPECI,247.0
KGLW 242215Z AUTO 05007KT 10SM SCT065 SCT080 27/14 A2999 RMK AO2 T02660135,KGLW,2023-05-24T22:15:00Z,37.03,-85.95,26.6,13.5,50,7,,10.0,29.991142,,,TRUE,TRUE,,,,,,,SCT,6500,SCT,8000,,,,,VFR,,,,,,,,,,,,SPECI,216.0
KGLE 242215Z AUTO 08005KT 10SM SCT055 29/14 A2996 RMK AO2 T02850144,KGLE,2023-05-24T22:15:00Z,33.65,-97.2,28.5,14.4,80,5,,10.0,29.958662,,,TRUE,TRUE,,,,,,,SCT,5500,,,,,,,VFR,,,,,,,,,,,,METAR,250.0
KGKT 242215Z AUTO 03007KT 10SM CLR 25/09 A2999 RMK A01,KGKT,2023-05-24T22:15:00Z,35.85,-83.53,25.0,9.0,30,7,,10.0,29.991142,,,TRUE,TRUE,,,,,,,CLR,,,,,,,,VFR,,,,,,,,,,,,METAR,305.0
KGIC 242215Z AUTO 34005KT 10SM CLR 19/04 A2993 RMK AO1,KGIC,2023-05-24T22:15:00Z,45.95,-116.12,19.0,4.0,340,5,,10.0,29.929134,,,TRUE,TRUE,,,,,,,CLR,,,,,,,,VFR,,,,,,,,,,,,METAR,1002.0
KGHW 242215Z AUTO 06018G23KT 10SM CLR 21/11 A3016 RMK AO2,KGHW,2023-05-24T22:15:00Z,45.63,-95.32,21.0,11.0,60,18,23,10.0,30.159449,,,TRUE,TRUE,,,,,,,CLR,,,,,,,,VFR,,,,,,,,,,,,SPECI,423.0
KGHG 242215Z AUTO 20007KT 10SM FEW110 19/06 A2990 RMK AO2,KGHG,2023-05-24T22:15:00Z,42.1,-70.67,19.0,6.0,200,7,,10.0,29.899607,,,TRUE,TRUE,,,,,,,FEW,11000,,,,,,,VFR,,,,,,,,,,,,SPECI,3.0
KGGP 242215Z AUTO 01006KT 10SM SCT090 SCT110 27/07 A3008 RMK AO2,KGGP,2023-05-24T22:15:00Z,40.72,-86.37,27.0,7.0,10,6,,10.0,30.079725,,,TRUE,TRUE,,,,,,,SCT,9000,SCT,11000,,,,,VFR,,,,,,,,,,,,SPECI,224.0
KGGI 242215Z AUTO 08007KT 10SM BKN095 30/08 A3008 RMK AO2 T03030082,KGGI,2023-05-24T22:15:00Z,41.72,-92.73,30.3,8.2,80,7,,10.0,30.079725,,,TRUE,TRUE,,,,,,,BKN,9500,,,,,,,VFR,,,,,,,,,,,,METAR,305.0
KGGF 242215Z AUTO 14015G23KT 10SM SCT045 SCT050 BKN060 23/14 A2999 RMK AO2,KGGF,2023-05-24T22:15:00Z,40.87,-101.73,23.0,14.0,140,15,23,10.0,29.991142,,,TRUE,TRUE,,,,,,,SCT,4500,SCT,5000,BKN,6000,,,VFR,,,,,,,,,,,,SPECI,1044.0
KGGE 242215Z AUTO 13004KT 10SM CLR 24/14 A2990 RMK AO2,KGGE,2023-05-24T22:15:00Z,33.32,-79.32,24.0,14.0,130,4,,10.0,29.899607,,,TRUE,TRUE,,,,,,,CLR,,,,,,,,VFR,,,,,,,,,,,,METAR,9.0
KGDJ 242215Z AUTO 08008KT 10SM SCT043 28/18 A2993 RMK AO2 T02780175,KGDJ,2023-05-24T22:15:00Z,32.45,-97.82,27.8,17.5,80,8,,10.0,29.929134,,,TRUE,TRUE,,,,,,,SCT,4300,,,,,,,VFR,,,,,,,,,,,,METAR,235.0
KGDB 242215Z AUTO 10011G15KT 10SM BKN110 29/09 A3009 RMK AO2 T02940089,KGDB,2023-05-24T22:15:00Z,44.75,-95.55,29.4,8.9,100,11,15,10.0,30.088583,,,TRUE,TRUE,,,,,,,BKN,11000,,,,,,,VFR,,,,,,,,,,,,METAR,316.0
KGDA 242215Z AUTO 05007KT 10SM CLR 28/10 A3001 RMK AO2 T02760099 PWINO,KGDA,2023-05-24T22:15:00Z,37.33,-88.1,27.6,9.9,50,7,,10.0,30.008858,,,TRUE,TRUE,,,,,TRUE,,CLR,,,,,,,,VFR,,,,,,,,,,,,METAR,199.0
KGCY 242215Z AUTO 02005KT 10SM CLR 24/04 A3000 RMK A01,KGCY,2023-05-24T22:15:00Z,36.2,-82.82,24.0,4.0,20,5,,10.0,30.0,,,TRUE,TRUE,,,,,,,CLR,,,,,,,,VFR,,,,,,,,,,,,METAR,488.0
KGCM 242215Z AUTO VRB03KT 10SM CLR 23/21 A3001 RMK AO2,KGCM,2023-05-24T22:15:00Z,36.3,-95.48,23.0,21.0,0,3,,10.0,30.008858,,,TRUE,TRUE,,,,,,,CLR,,,,,,,,VFR,,,,,,,,,,,,SPECI,215.0
KGCD 242215Z AUTO 27004KT 10SM CLR 20/M01 A2993 RMK AO2 T02031009,KGCD,2023-05-24T22:15:00Z,44.4,-118.97,20.3,-0.9,270,4,,10.0,29.929134,,,TRUE,TRUE,,,,,,,CLR,,,,,,,,VFR,,,,,,,,,,,,SPECI,1122.0
KGBG 242215Z AUTO 07011G17KT 10SM SCT095 31/10 A3008 RMK AO2 T03050104 TSNO,KGBG,2023-05-24T22:15:00Z,40.93,-90.43,30.5,10.4,70,11,17,10.0,30.079725,,,TRUE,TRUE,,,TRUE,,,,SCT,9500,,,,,,,VFR,,,,,,,,,,,,SPECI,230.0
KGAO 242215Z AUTO 01011G18KT 10SM SCT028 29/20 A2985 RMK AO2 T02900198,KGAO,2023-05-24T22:15:00Z,29.45,-90.27,29.0,19.8,10,11,18,10.0,29.84941,,,TRUE,TRUE,,,,,,,SCT,2800,,,,,,,VFR,,,,,,,,,,,,METAR,0.0
KGAF 242215Z AUTO 11016G23KT 8SM CLR 17/08 A3015 RMK AO2,KGAF,2023-05-24T22:15:00Z,48.4,-97.37,17.0,8.0,110,16,23,8.0,30.15059,,,TRUE,TRUE,,,,,,,CLR,,,,,,,,VFR,,,,,,,,,,,,METAR,250.0
KFZG 242215Z AUTO 02005KT 10SM CLR 26/13 A2991 RMK AO2 T02580127,KFZG,2023-05-24T22:15:00Z,31.68,-83.27,25.8,12.7,20,5,,10.0,29.911417,,,TRUE,TRUE,,,,,,,CLR,,,,,,,,VFR,,,,,,,,,,,,SPECI,105.0
KFYM 242215Z AUTO 02011KT 10SM FEW060 SCT075 26/14 A2997 RMK A01,KFYM,2023-05-24T22:15:00Z,35.07,-86.57,26.0,14.0,20,11,,10.0,29.970472,,,TRUE,TRUE,,,,,,,FEW,6000,SCT,7500,,,,,VFR,,,,,,,,,,,,METAR,297.0
KFYJ 242215Z AUTO 00000KT 10SM CLR 22/07 A2998 RMK AO1 T02220074,KFYJ,2023-05-24T22:15:00Z,37.52,-76.77,22.2,7.4,0,0,,10.0,29.97933,,,TRUE,TRUE,,,,,,,CLR,,,,,,,,VFR,,,,,,,,,,,,SPECI,3.0
KFYG 242215Z AUTO 12006KT 10SM CLR 30/11 A3003 RMK AO2,KFYG,2023-05-24T22:15:00Z,38.58,-91.0,30.0,11.0,120,6,,10.0,30.029528,,,TRUE,TRUE,,,,,,,CLR,,,,,,,,VFR,,,,,,,,,,,,SPECI,147.0
KFXY 242215Z AUTO 12010KT 10SM CLR 27/08 A3010 RMK AO2,KFXY,2023-05-24T22:15:00Z,43.23,-93.62,27.0,8.0,120,10,,10.0,30.100393,,,TRUE,TRUE,,,,,,,CLR,,,,,,,,VFR,,,,,,,,,,,,SPECI,366.0
KFWC 242215Z AUTO 05007KT 10SM CLR 29/09 A3001 RMK AO1 T02860087,KFWC,2023-05-24T22:15:00Z,38.38,-88.42,28.6,8.7,50,7,,10.0,30.008858,,,TRUE,TRUE,,,,,,,CLR,,,,,,,,VFR,,,,,,,,,,,,SPECI,131.0
KFWB 242215Z AUTO 14005G12KT 10SM CLR 26/13 A3004 RMK AO2,KFWB,2023-05-24T22:15:00Z,36.7,-93.4,26.0,13.0,140,5,12,10.0,30.041338,,,TRUE,TRUE,,,,,,,CLR,,,,,,,,VFR,,,,,,,,,,,,SPECI,392.0
KFVX 242215Z AUTO 06005KT 10SM CLR 25/10 A2998 RMK AO2 T02460095,KFVX,2023-05-24T22:15:00Z,37.35,-78.43,24.6,9.5,60,5,,10.0,29.97933,,,TRUE,TRUE,,,,,,,CLR,,,,,,,,VFR,,,,,,,,,,,,METAR,129.0
KFTN 242215Z AUTO 08010KT 10SM FEW060 SCT075 33/19 A2986 RMK A01,KFTN,2023-05-24T22:15:00Z,28.22,-100.02,33.0,19.0,80,10,,10.0,29.861221,,,TRUE,TRUE,,,,,,,FEW,6000,SCT,7500,,,,,VFR,,,,,,,,,,,,METAR,236.0
KFSW 242215Z AUTO 00000KT 10SM 30/09 A3005 RMK AO2,KFSW,2023-05-24T22:15:00Z,40.67,-91.32,30.0,9.0,0,0,,10.0,30.050198,,,TRUE,TRUE,,,,,,,,,,,,,,,,,,,,,,,,,,,SPECI,219.0
KFSE 242215Z AUTO 10013KT 10SM SCT110 16/04 A3019 RMK AO2,KFSE,2023-05-24T22:15:00Z,47.58,-95.77,16.0,4.0,100,13,,10.0,30.188976,,,TRUE,TRUE,,,,,,,SCT,11000,,,,,,,VFR,,,,,,,,,,,,METAR,389.0
KFRR 242215Z AUTO 00000KT 10SM CLR 25/10 A2996 RMK AO1,KFRR,2023-05-24T22:15:00Z,38.92,-78.25,25.0,10.0,0,0,,10.0,29.958662,,,TRUE,TRUE,,,,,,,CLR,,,,,,,,VFR,,,,,,,,,,,,SPECI,213.0
KFRH 242215Z AUTO 04005KT 10SM CLR 27/06 A3002 RMK AO1,KFRH,2023-05-24T22:15:00Z,38.5,-86.63,27.0,6.0,40,5,,10.0,30.02067,,,TRUE,TRUE,,,,,,,CLR,,,,,,,,VFR,,,,,,,,,,,,SPECI,241.0
KFPY 242215Z AUTO 04007KT 010V070 10SM CLR 26/20 A2986 RMK AO2 LTG DSNT SW AND W T02560200,KFPY,2023-05-24T22:15:00Z,30.07,-83.57,25.6,20.0,40,7,,10.0,29.861221,,,TRUE,TRUE,,,,,,,CLR,,,,,,,,VFR,,,,,,,,,,,,SPECI,12.0
KFPK 242215Z AUTO 03014G20KT 10SM CLR 16/M02 A3023 RMK AO2 T01611017,KFPK,2023-05-24T22:15:00Z,42.57,-84.82,16.1,-1.7,30,14,20,10.0,30.230314,,,TRUE,TRUE,,,,,,,CLR,,,,,,,,VFR,,,,,,,,,,,,SPECI,269.0
KFOT 242215Z AUTO 28013KT 10SM FEW120 14/10 A2993 RMK AO1,KFOT,2023-05-24T22:15:00Z,40.55,-124.13,14.0,10.0,280,13,,10.0,29.929134,,,TRUE,TRUE,,,,,,,FEW,12000,,,,,,,VFR,,,,,,,,,,,,METAR,118.0
KFOA 242215Z AUTO 08011KT 10SM CLR 29/10 A3002 RMK AO2,KFOA,2023-05-24T22:15:00Z,38.67,-88.45,29.0,10.0,80,11,,10.0,30.02067,,,TRUE,TRUE,,,,,,,CLR,,,,,,,,VFR,,,,,,,,,,,,METAR,141.0
KFMM 242215Z AUTO 11010G16KT 10SM VCTS FEW110 22/13 A2997 RMK AO2 LTG DSNT S-NW,KFMM,2023-05-24T22:15:00Z,40.33,-103.8,22.0,13.0,110,10,16,10.0,29.970472,,,TRUE,TRUE,,,,,,VCTS,FEW,11000,,,,,,,VFR,,,,,,,,,,,,SPECI,1376.0
KFLY 242215Z AUTO 30018G26KT 7SM TSRA SCT050 OVC065 11/07 A3014 RMK AO2 LTG DSNT NE THRU S T01110070,KFLY,2023-05-24T22:15:00Z,38.95,-104.57,11.1,7.0,300,18,26,7.0,30.138779,,,TRUE,TRUE,,,,,,TSRA,SCT,5000,OVC,6500,,,,,VFR,,,,,,,,,,,,METAR,2096.0
KFKS 242215Z AUTO 05009G15KT 10SM CLR 15/03 A3028 RMK AO2 T01520030,KFKS,2023-05-24T22:15:00Z,44.63,-86.2,15.2,3.0,50,9,15,10.0,30.280512,,,TRUE,TRUE,,,,,,,CLR,,,,,,,,VFR,,,,,,,,,,,,METAR,189.0
KFKR 242215Z AUTO 04010G16KT 10SM FEW100 28/06 A3005 RMK AO2,KFKR,2023-05-24T22:15:00Z,40.27,-86.57,28.0,6.0,40,10,16,10.0,30.050198,,,TRUE,TRUE,,,,,,,FEW,10000,,,,,,,VFR,,,,,,,,,,,,SPECI,260.0
KFKN 242215Z AUTO 36006KT 10SM SCT120 22/02 A2998 RMK AO2 T02230017,KFKN,2023-05-24T22:15:00Z,36.7,-76.9,22.3,1.7,360,6,,10.0,29.97933,,,TRUE,TRUE,,,,,,,SCT,12000,,,,,,,VFR,,,,,,,,,,,,METAR,9.0
KFKA 242215Z AUTO 08011KT 9SM CLR 25/13 A3017 RMK AO2,KFKA,2023-05-24T22:15:00Z,43.68,-92.17,25.0,13.0,80,11,,9.0,30.171259,,,TRUE,TRUE,,,,,,,CLR,,,,,,,,VFR,,,,,,,,,,,,SPECI,388.0
KFHB 242215Z AUTO 06013KT 10SM CLR 23/21 A2989 RMK AO2 LTG DSNT SE,KFHB,2023-05-24T22:15:00Z,30.62,-81.47,23.0,21.0,60,13,,10.0,29.890747,,,TRUE,TRUE,,,,,,,CLR,,,,,,,,VFR,,,,,,,,,,,,SPECI,4.0
KFGX 242215Z AUTO 10004KT 10SM BKN070 BKN090 26/12 A3004 RMK AO2 T02570117,KFGX,2023-05-24T22:15:00Z,38.55,-83.75,25.7,11.7,100,4,,10.0,30.041338,,,TRUE,TRUE,,,,,,,BKN,7000,BKN,9000,,,,,VFR,,,,,,,,,,,,SPECI,279.0
KFGN 242215Z AUTO 11009G19KT 10SM BKN100 12/03 A3028 RMK AO2,KFGN,2023-05-24T22:15:00Z,49.32,-94.9,12.0,3.0,110,9,19,10.0,30.280512,,,TRUE,TRUE,,,,,,,BKN,10000,,,,,,,VFR,,,,,,,,,,,,SPECI,327.0
KFFX 242215Z AUTO 09009KT 10SM CLR 22/08 A3021 RMK AO2 T02160082,KFFX,2023-05-24T22:15:00Z,43.43,-86.0,21.6,8.2,90,9,,10.0,30.209646,,,TRUE,TRUE,,,,,,,CLR,,,,,,,,VFR,,,,,,,,,,,,METAR,234.0
KFFM 242215Z AUTO 10013G19KT 10SM CLR 21/10 A3013 RMK AO2,KFFM,2023-05-24T22:15:00Z,46.28,-96.15,21.0,10.0,100,13,19,10.0,30.129921,,,TRUE,TRUE,,,,,,,CLR,,,,,,,,VFR,,,,,,,,,,,,METAR,362.0
KFFL 242215Z AUTO 11007KT 10SM FEW085 28/07 A3006 RMK A01,KFFL,2023-05-24T22:15:00Z,41.05,-91.97,28.0,7.0,110,7,,10.0,30.059055,,,TRUE,TRUE,,,,,,,FEW,8500,,,,,,,VFR,,,,,,,,,,,,SPECI,240.0
KFET 242215Z AUTO 13006G09KT 10SM CLR 29/08 A3004 RMK AO2 T02870084,KFET,2023-05-24T22:15:00Z,41.45,-96.52,28.7,8.4,130,6,9,10.0,30.041338,,,TRUE,TRUE,,,,,,,CLR,,,,,,,,VFR,,,,,,,,,,,,SPECI,366.0
KFEP 242215Z AUTO 06010KT 10SM CLR 23/13 A3019 RMK AO2 T02300133,KFEP,2023-05-24T22:15:00Z,42.25,-89.58,23.0,13.3,60,10,,10.0,30.188976,,,TRUE,TRUE,,,,,,,CLR,,,,,,,,VFR,,,,,,,,,,,,SPECI,255.0
KFDW 242215Z AUTO 01006KT 10SM CLR 25/02 A2994 RMK AO1,KFDW,2023-05-24T22:15:00Z,34.32,-81.12,25.0,2.0,10,6,,10.0,29.940945,,,TRUE,TRUE,,,,,,,CLR,,,,,,,,VFR,,,,,,,,,,,,SPECI,174.0
KFBR 242215Z AUTO 23009G14KT 10SM CLR 17/08 A3006 RMK AO2 LTG DSNT NW T01740077,KFBR,2023-05-24T22:15:00Z,41.4,-110.4,17.4,7.7,230,9,14,10.0,30.059055,,,TRUE,TRUE,,,,,,,CLR,,,,,,,,VFR,,,,,,,,,,,,METAR,2140.0
KFBL 242215Z AUTO 07012G17KT 10SM CLR 26/12 A3015 RMK AO2,KFBL,2023-05-24T22:15:00Z,44.33,-93.32,26.0,12.0,70,12,17,10.0,30.15059,,,TRUE,TRUE,,,,,,,CLR,,,,,,,,VFR,,,,,,,,,,,,SPECI,318.0
KF70 242215Z AUTO 17010G14KT 10SM OVC015 18/12 A2993 RMK AO2,KF70,2023-05-24T22:15:00Z,33.57,-117.13,18.0,12.0,170,10,14,10.0,29.929134,,,TRUE,TRUE,,,,,,,OVC,1500,,,,,,,MVFR,,,,,,,,,,,,METAR,406.0
KF46 242215Z AUTO 10007KT 10SM SCT047 SCT055 SCT065 28/18 A2993 RMK AO2 T02820181,KF46,2023-05-24T22:15:00Z,32.93,-96.43,28.2,18.1,100,7,,10.0,29.929134,,,TRUE,TRUE,,,,,,,SCT,4700,SCT,5500,SCT,6500,,,VFR,,,,,,,,,,,,METAR,175.0
KF44 242215Z AUTO 00000KT 10SM SCT043 SCT049 29/18 A2991 RMK AO2 LTG DSNT SE,KF44,2023-05-24T22:15:00Z,32.17,-95.83,29.0,18.0,0,0,,10.0,29.911417,,,TRUE,TRUE,,,,,,,SCT,4300,SCT,4900,,,,,VFR,,,,,,,,,,,,METAR,137.0
KF17 242215Z AUTO 06005KT 10SM CLR 26/17 A2994 RMK AO2,KF17,2023-05-24T22:15:00Z,31.83,-94.15,26.0,17.0,60,5,,10.0,29.940945,,,TRUE,TRUE,,,,,,,CLR,,,,,,,,VFR,,,,,,,,,,,,METAR,93.0
KF05 242215Z AUTO 16007KT 10SM SCT055 29/15 A2994 RMK AO2 T02910152,KF05,2023-05-24T22:15:00Z,34.23,-99.28,29.1,15.2,160,7,,10.0,29.940945,,,TRUE,TRUE,,,,,,,SCT,5500,,,,,,,VFR,,,,,,,,,,,,METAR,384.0
KEZZ 242215Z AUTO 16013KT 10SM CLR 26/16 A3005 RMK AO2 LTG DSNT E AND SE T02650163,KEZZ,2023-05-24T22:15:00Z,39.72,-94.28,26.5,16.3,160,13,,10.0,30.050198,,,TRUE,TRUE,,,,,,,CLR,,,,,,,,VFR,,,,,,,,,,,,SPECI,317.0
KEZS 242215Z AUTO 08007KT 10SM CLR 18/01 A3031 RMK AO2 T01760010,KEZS,2023-05-24T22:15:00Z,44.78,-88.57,17.6,1.0,80,7,,10.0,30.31004,,,TRUE,TRUE,,,,,,,CLR,,,,,,,,VFR,,,,,,,,,,,,SPECI,247.0
KEZP 242215Z AUTO 10007KT 10SM FEW028 FEW038 27/21 A2986 RMK A01,KEZP,2023-05-24T22:15:00Z,28.22,-92.8,27.0,21.0,100,7,,10.0,29.861221,,,TRUE,TRUE,,,,,,,FEW,2800,FEW,3800,,,,,VFR,,,,,,,,,,,,METAR,30.0
KEZM 242215Z AUTO 04006KT 10SM CLR 26/10 A2991 RMK AO2,KEZM,2023-05-24T22:15:00Z,32.22,-83.13,26.0,10.0,40,6,,10.0,29.911417,,,TRUE,TRUE,,,,,,,CLR,,,,,,,,VFR,,,,,,,,,,,,SPECI,86.0
KEZF 242215Z AUTO 09005KT 10SM CLR 25/08 A2996 RMK AO2 T02510075,KEZF,2023-05-24T22:15:00Z,38.27,-77.45,25.1,7.5,90,5,,10.0,29.958662,,,TRUE,TRUE,,,,,,,CLR,,,,,,,,VFR,,,,,,,,,,,,SPECI,26.0
KEVU 242215Z AUTO 11011KT 7SM BKN065 BKN070 BKN110 28/16 A3004 RMK AO2 T02810166,KEVU,2023-05-24T22:15:00Z,40.35,-94.92,28.1,16.6,110,11,,7.0,30.041338,,,TRUE,TRUE,,,,,,,BKN,6500,BKN,7000,BKN,11000,,,VFR,,,,,,,,,,,,SPECI,351.0
KETB 242215Z AUTO 05013G18KT 10SM CLR 15/00 A3027 RMK AO2,KETB,2023-05-24T22:15:00Z,43.42,-88.13,15.0,0.0,50,13,18,10.0,30.268702,,,TRUE,TRUE,,,,,,,CLR,,,,,,,,VFR,,,,,,,,,,,,METAR,269.0
KERY 242215Z AUTO 34007KT 10SM CLR 11/M01 A3038 RMK AO2 T01141010,KERY,2023-05-24T22:15:00Z,46.3,-85.45,11.4,-1.0,340,7,,10.0,30.380905,,,TRUE,TRUE,,,,,,,CLR,,,,,,,,VFR,,,,,,,,,,,,METAR,261.0
KERV 242215Z AUTO 35006KT 10SM CLR 29/16 A2994 RMK AO2 T02860160,KERV,2023-05-24T22:15:00Z,29.98,-99.08,28.6,16.0,350,6,,10.0,29.940945,,,TRUE,TRUE,,,,,,,CLR,,,,,,,,VFR,,,,,,,,,,,,METAR,483.0
KEQA 242215Z AUTO 12011G16KT 10SM SCT065 25/14 A3004 RMK AO2,KEQA,2023-05-24T22:15:00Z,37.78,-96.82,25.0,14.0,120,11,16,10.0,30.041338,,,TRUE,TRUE,,,,,,,SCT,6500,,,,,,,VFR,,,,,,,,,,,,SPECI,422.0
KEOK 242215Z AUTO 13004KT 10SM CLR 29/12 A3005 RMK A01,KEOK,2023-05-24T22:15:00Z,40.47,-91.42,29.0,12.0,130,4,,10.0,30.050198,,,TRUE,TRUE,,,,,,,CLR,,,,,,,,VFR,,,,,,,,,,,,SPECI,206.0
KENL 242215Z AUTO 00000KT 10SM CLR 29/12 A3002 RMK AO2 T02920123,KENL,2023-05-24T22:15:00Z,38.52,-89.1,29.2,12.3,0,0,,10.0,30.02067,,,TRUE,TRUE,,,,,,,CLR,,,,,,,,VFR,,,,,,,,,,,,METAR,161.0
KEMV 242215Z AUTO 34008KT 10SM CLR 23/03 A2999 RMK AO2 T02330031 PNO,KEMV,2023-05-24T22:15:00Z,36.68,-77.48,23.3,3.1,340,8,,10.0,29.991142,,,TRUE,TRUE,,,,,,,CLR,,,,,,,,VFR,,,,,,,,,,,,SPECI,35.0
KEMM 242215Z AUTO 10SM CLR 15/01 A3005 RMK AO2 TSNO,KEMM,2023-05-24T22:15:00Z,41.82,-110.55,15.0,1.0,,,,10.0,30.050198,,,TRUE,TRUE,,,TRUE,,,,CLR,,,,,,,,VFR,,,,,,,,,,,,METAR,2219.0
KELO 242215Z AUTO 13012KT 10SM CLR 14/M17 A3036 RMK AO2,KELO,2023-05-24T22:15:00Z,47.82,-91.83,14.0,-17.0,130,12,,10.0,30.360237,,,TRUE,TRUE,,,,,,,CLR,,,,,,,,VFR,,,,,,,,,,,,METAR,438.0
KELK 242215Z AUTO 13006KT 10SM SCT047 SCT065 26/17 A2997 RMK AO2 SLP433 T02610168 $,KELK,2023-05-24T22:15:00Z,35.43,-99.4,26.1,16.8,130,6,,10.0,29.970472,1043.3,,TRUE,TRUE,TRUE,,,,,,SCT,4700,SCT,6500,,,,,VFR,,,,,,,,,,,,SPECI,603.0
KELA 242215Z AUTO 06005KT 10SM BKN055 BKN070 30/20 A2989 RMK AO2 T03040196,KELA,2023-05-24T22:15:00Z,29.6,-96.32,30.4,19.6,60,5,,10.0,29.890747,,,TRUE,TRUE,,,,,,,BKN,5500,BKN,7000,,,,,VFR,,,,,,,,,,,,SPECI,56.0
KEKX 242215Z AUTO 04008KT 10SM CLR 25/12 A3001 RMK AO2 T02530119,KEKX,2023-05-24T22:15:00Z,37.68,-85.92,25.3,11.9,40,8,,10.0,30.008858,,,TRUE,TRUE,,,,,,,CLR,,,,,,,,VFR,,,,,,,,,,,,SPECI,234.0
KEKS 242215Z AUTO 18020G29KT 10SM BKN070 BKN080 BKN090 18/07 A2996 RMK AO2,KEKS,2023-05-24T22:15:00Z,45.27,-111.65,18.0,7.0,180,20,29,10.0,29.958662,,,TRUE,TRUE,,,,,,,BKN,7000,BKN,8000,BKN,9000,,,VFR,,,,,,,,,,,,METAR,1636.0
KEKM 242215Z AUTO 04011KT 8SM CLR 22/11 A3015 RMK AO2 T02220108 $,KEKM,2023-05-24T22:15:00Z,41.72,-86.0,22.2,10.8,40,11,,8.0,30.15059,,,TRUE,TRUE,TRUE,,,,,,CLR,,,,,,,,VFR,,,,,,,,,,,,METAR,236.0
KEKE 242215Z AUTO 00000KT 10SM CLR 30/20 A2978 RMK A01,KEKE,2023-05-24T22:15:00Z,28.5,-91.58,30.0,20.0,0,0,,10.0,29.778543,,,TRUE,TRUE,,,,,,,CLR,,,,,,,,VFR,,,,,,,,,,,,METAR,31.0
KEIK 242215Z AUTO 00000KT 10SM SCT090 OVC100 17/08 A3000 RMK AO2 LTG DSNT NE AND E T01740077,KEIK,2023-05-24T22:15:00Z,40.02,-105.05,17.4,7.7,0,0,,10.0,30.0,,,TRUE,TRUE,,,,,,,SCT,9000,OVC,10000,,,,,VFR,,,,,,,,,,,,METAR,1551.0
KEGV 242215Z AUTO 08009KT 10SM CLR 17/M05 A3033 RMK AO2 T01671051,KEGV,2023-05-24T22:15:00Z,45.93,-89.27,16.7,-5.1,80,9,,10.0,30.33071,,,TRUE,TRUE,,,,,,,CLR,,,,,,,,VFR,,,,,,,,,,,,METAR,499.0
KEGT 242215Z AUTO 12010KT 10SM -DZ SCT033 BKN050 OVC110 22/17 A3002 RMK AO2 T02240169,KEGT,2023-05-24T22:15:00Z,37.32,-97.38,22.4,16.9,120,10,,10.0,30.02067,,,TRUE,TRUE,,,,,,-DZ,SCT,3300,BKN,5000,OVC,11000,,,VFR,,,,,,,,,,,,SPECI,387.0
KEFT 242215Z AUTO 05017G20KT 10SM CLR 22/10 A3018 RMK AO2 T02150095,KEFT,2023-05-24T22:15:00Z,42.62,-89.6,21.5,9.5,50,17,20,10.0,30.180119,,,TRUE,TRUE,,,,,,,CLR,,,,,,,,VFR,,,,,,,,,,,,METAR,332.0
KEFK 242215Z AUTO 33012G17KT 5SM -RA OVC011 08/06 A3009 RMK AO2 T00750063,KEFK,2023-05-24T22:15:00Z,44.88,-72.23,7.5,6.3,330,12,17,5.0,30.088583,,,TRUE,TRUE,,,,,,-RA,OVC,1100,,,,,,,MVFR,,,,,,,,,,,,SPECI,282.0
KEDU 242215Z AUTO 20009KT 10SM CLR 23/09 A2984 RMK AO1,KEDU,2023-05-24T22:15:00Z,38.53,-121.78,23.0,9.0,200,9,,10.0,29.840551,,,TRUE,TRUE,,,,,,,CLR,,,,,,,,VFR,,,,,,,,,,,,METAR,20.0
KEDN 242215Z AUTO 05005KT 10SM BKN028 BKN042 25/19 A2988 RMK AO2 T02470185 PWINO,KEDN,2023-05-24T22:15:00Z,31.3,-85.9,24.7,18.5,50,5,,10.0,29.878937,,,TRUE,TRUE,,,,,TRUE,,BKN,2800,BKN,4200,,,,,MVFR,,,,,,,,,,,,SPECI,103.0
KEDJ 242215Z AUTO 07015G20KT 10SM CLR 22/12 A3011 RMK A01,KEDJ,2023-05-24T22:15:00Z,40.37,-83.82,22.0,12.0,70,15,20,10.0,30.109253,,,TRUE,TRUE,,,,,,,CLR,,,,,,,,VFR,,,,,,,,,,,,METAR,341.0
KEDC 242215Z AUTO 04006KT 8SM SCT039 27/19 A2991 RMK AO2,KEDC,2023-05-24T22:15:00Z,30.4,-97.57,27.0,19.0,40,6,,8.0,29.911417,,,TRUE,TRUE,,,,,,,SCT,3900,,,,,,,VFR,,,,,,,,,,,,METAR,184.0
KECU 242215Z AUTO 09011G17KT 10SM SCT049 SCT055 28/16 A3000 RMK AO2,KECU,2023-05-24T22:15:00Z,29.95,-100.17,28.0,16.0,90,11,17,10.0,30.0,,,TRUE,TRUE,,,,,,,SCT,4900,SCT,5500,,,,,VFR,,,,,,,,,,,,SPECI,725.0
KECS 242215Z AUTO 16016G21KT 10SM SCT050 25/07 A2994 RMK AO2,KECS,2023-05-24T22:15:00Z,43.88,-104.32,25.0,7.0,160,16,21,10.0,29.940945,,,TRUE,TRUE,,,,,,,SCT,5000,,,,,,,VFR,,,,,,,,,,,,METAR,1273.0
KEBS 242215Z AUTO 13010G18KT 110V170 10SM CLR 30/05 A3005 RMK AO2,KEBS,2023-05-24T22:15:00Z,42.43,-93.87,30.0,5.0,130,10,18,10.0,30.050198,,,TRUE,TRUE,,,,,,,CLR,,,,,,,,VFR,,,,,,,,,,,,SPECI,340.0
KEBG 242215Z AUTO 10014G18KT 10SM SCT040 32/23 A2985 RMK AO2 T03160226,KEBG,2023-05-24T22:15:00Z,26.45,-98.13,31.6,22.6,100,14,18,10.0,29.84941,,,TRUE,TRUE,,,,,,,SCT,4000,,,,,,,VFR,,,,,,,,,,,,METAR,21.0
KEBA 242215Z AUTO 04004KT 10SM CLR 24/08 A2995 RMK AO2 T02430080,KEBA,2023-05-24T22:15:00Z,34.1,-82.82,24.3,8.0,40,4,,10.0,29.949802,,,TRUE,TRUE,,,,,,,CLR,,,,,,,,VFR,,,,,,,,,,,,SPECI,180.0
KE42 242215Z AUTO 14010KT 10SM SCT050 BKN065 OVC080 25/14 A3000 RMK AO2 T02530143,KE42,2023-05-24T22:15:00Z,36.22,-101.2,25.3,14.3,140,10,,10.0,30.0,,,TRUE,TRUE,,,,,,,SCT,5000,BKN,6500,OVC,8000,,,VFR,,,,,,,,,,,,METAR,942.0
KE41 242215Z AUTO 13011KT 10SM SCT046 SCT050 28/16 A2995 RMK AO2 T02840159,KE41,2023-05-24T22:15:00Z,31.2,-101.47,28.4,15.9,130,11,,10.0,29.949802,,,TRUE,TRUE,,,,,,,SCT,4600,SCT,5000,,,,,VFR,,,,,,,,,,,,SPECI,825.0
KE38 242215Z AUTO 04012KT 10SM SCT110 26/11 A3005 RMK AO2 LTG DSNT N T02640108,KE38,2023-05-24T22:15:00Z,30.38,-103.68,26.4,10.8,40,12,,10.0,30.050198,,,TRUE,TRUE,,,,,,,SCT,11000,,,,,,,VFR,,,,,,,,,,,,METAR,1372.0
KE16 242215Z AUTO 21012G18KT 10SM CLR 16/08 A2994 RMK AO2 PWINO PNO,KE16,2023-05-24T22:15:00Z,37.08,-121.6,16.0,8.0,210,12,18,10.0,29.940945,,,TRUE,TRUE,,,,,TRUE,,CLR,,,,,,,,VFR,,,,,,,,,,,,SPECI,84.0
KE11 242215Z AUTO 13016G21KT 10SM SCT045 28/17 A2995 RMK AO2 T02840167,KE11,2023-05-24T22:15:00Z,32.33,-102.53,28.4,16.7,130,16,21,10.0,29.949802,,,TRUE,TRUE,,,,,,,SCT,4500,,,,,,,VFR,,,,,,,,,,,,METAR,966.0
KDZJ 242215Z AUTO 33003KT 10SM BKN070 23/11 A2999 RMK AO2 T02280109,KDZJ,2023-05-24T22:15:00Z,34.85,-84.0,22.8,10.9,330,3,,10.0,29.991142,,,TRUE,TRUE,,,,,,,BKN,7000,,,,,,,VFR,,,,,,,,,,,,SPECI,578.0
KDZB 242215Z AUTO 01004KT 10SM CLR 25/18 A2993 RMK AO2 T02500177,KDZB,2023-05-24T22:15:00Z,30.53,-98.37,25.0,17.7,10,4,,10.0,29.929134,,,TRUE,TRUE,,,,,,,CLR,,,,,,,,VFR,,,,,,,,,,,,METAR,329.0
KDYT 242215Z AUTO 05021KT 10SM OVC080 04/02 A3038 RMK AO2,KDYT,2023-05-24T22:15:00Z,46.72,-92.03,4.0,2.0,50,21,,10.0,30.380905,,,TRUE,TRUE,,,,,,,OVC,8000,,,,,,,VFR,,,,,,,,,,,,SPECI,185.0
KDYB 242215Z AUTO 02007KT 10SM CLR 26/06 A2990 RMK AO2,KDYB,2023-05-24T22:15:00Z,33.07,-80.28,26.0,6.0,20,7,,10.0,29.899607,,,TRUE,TRUE,,,,,,,CLR,,,,,,,,VFR,,,,,,,,,,,,SPECI,15.0
KDYA 242215Z AUTO 02006KT 10SM SCT031 SCT055 25/18 A2993 RMK AO2 T02470182,KDYA,2023-05-24T22:15:00Z,32.47,-87.95,24.7,18.2,20,6,,10.0,29.929134,,,TRUE,TRUE,,,,,,,SCT,3100,SCT,5500,,,,,VFR,,,,,,,,,,,,METAR,33.0
KDXX 242215Z AUTO 12016KT 10SM SCT085 31/07 A3007 RMK AO2,KDXX,2023-05-24T22:15:00Z,44.98,-96.18,31.0,7.0,120,16,,10.0,30.070866,,,TRUE,TRUE,,,,,,,SCT,8500,,,,,,,VFR,,,,,,,,,,,,SPECI,327.0
KDWX 242215Z AUTO 13005KT 110V190 10SM SCT080 24/02 A3003 RMK AO2 T02350024,KDWX,2023-05-24T22:15:00Z,41.03,-107.5,23.5,2.4,130,5,,10.0,30.029528,,,TRUE,TRUE,,,,,,,SCT,8000,,,,,,,VFR,,,,,,,,,,,,METAR,1974.0
KDWA 242215Z AUTO 17009KT 10SM CLR 23/10 A2984 RMK AO2,KDWA,2023-05-24T22:15:00Z,38.58,-121.85,23.0,10.0,170,9,,10.0,29.840551,,,TRUE,TRUE,,,,,,,CLR,,,,,,,,VFR,,,,,,,,,,,,METAR,28.0
KDVO 242215Z AUTO 35009KT 320V020 10SM FEW032 21/13 A2987 RMK AO2,KDVO,2023-05-24T22:15:00Z,38.15,-122.55,21.0,13.0,350,9,,10.0,29.870079,,,TRUE,TRUE,,,,,,,FEW,3200,,,,,,,VFR,,,,,,,,,,,,SPECI,1.0
KDUX 242215Z AUTO 11007G15KT 10SM SCT050 SCT060 25/12 A3000 RMK AO2 T02500122,KDUX,2023-05-24T22:15:00Z,35.85,-102.02,25.0,12.2,110,7,15,10.0,30.0,,,TRUE,TRUE,,,,,,,SCT,5000,SCT,6000,,,,,VFR,,,,,,,,,,,,SPECI,1129.0
KDUH 242215Z AUTO 03006G19KT 10SM CLR 19/00 A3018 RMK AO2 T01901004,KDUH,2023-05-24T22:15:00Z,41.73,-83.65,19.0,-0.4,30,6,19,10.0,30.180119,,,TRUE,TRUE,,,,,,,CLR,,,,,,,,VFR,,,,,,,,,,,,SPECI,203.0
KDUC 242215Z AUTO 13009KT 7SM SCT060 28/18 A2996 RMK AO2 T02770175,KDUC,2023-05-24T22:15:00Z,34.47,-97.97,27.7,17.5,130,9,,7.0,29.958662,,,TRUE,TRUE,,,,,,,SCT,6000,,,,,,,VFR,,,,,,,,,,,,SPECI,339.0
KDUA 242215Z AUTO 10007KT 10SM SCT038 SCT047 SCT055 29/17 A2997 RMK AO2,KDUA,2023-05-24T22:15:00Z,33.95,-96.4,29.0,17.0,100,7,,10.0,29.970472,,,TRUE,TRUE,,,,,,,SCT,3800,SCT,4700,SCT,5500,,,VFR,,,,,,,,,,,,SPECI,209.0
KDTL 242215Z AUTO 12014KT 10SM CLR 13/07 A3017 RMK AO2,KDTL,2023-05-24T22:15:00Z,46.82,-95.88,13.0,7.0,120,14,,10.0,30.171259,,,TRUE,TRUE,,,,,,,CLR,,,,,,,,VFR,,,,,,,,,,,,METAR,425.0
KDTA 242215Z AUTO 18012KT 10SM SCT060 SCT085 SCT110 25/00 A2986 RMK AO1,KDTA,2023-05-24T22:15:00Z,39.38,-112.5,25.0,0.0,180,12,,10.0,29.861221,,,TRUE,TRUE,,,,,,,SCT,6000,SCT,8500,SCT,11000,,,VFR,,,,,,,,,,,,METAR,1452.0
KDRM 242215Z AUTO 20004KT 10SM CLR 14/03 A3035 RMK AO2 T01360029,KDRM,2023-05-24T22:15:00Z,46.0,-83.75,13.6,2.9,200,4,,10.0,30.351377,,,TRUE,TRUE,,,,,,,CLR,,,,,,,,VFR,,,,,,,,,,,,SPECI,201.0
KDRI 242215Z AUTO 01008KT 10SM FEW200 28/21 A2990 RMK AO2 LTG DSNT S AND SW T02770210 $,KDRI,2023-05-24T22:15:00Z,30.83,-93.33,27.7,21.0,10,8,,10.0,29.899607,,,TRUE,TRUE,TRUE,,,,,,FEW,20000,,,,,,,VFR,,,,,,,,,,,,SPECI,59.0
KDQH 242215Z AUTO 06008KT 10SM SCT060 27/12 A2991 RMK AO2 T02690118,KDQH,2023-05-24T22:15:00Z,31.48,-82.87,26.9,11.8,60,8,,10.0,29.911417,,,TRUE,TRUE,,,,,,,SCT,6000,,,,,,,VFR,,,,,,,,,,,,SPECI,76.0
KDNV 242215Z AUTO 04012KT 10SM SCT100 28/06 A3007 RMK AO2 T02810064,KDNV,2023-05-24T22:15:00Z,40.2,-87.6,28.1,6.4,40,12,,10.0,30.070866,,,TRUE,TRUE,,,,,,,SCT,10000,,,,,,,VFR,,,,,,,,,,,,METAR,208.0
KDNS 242215Z AUTO 15008G13KT 110V170 10SM CLR 28/09 A3006 RMK AO2,KDNS,2023-05-24T22:15:00Z,41.98,-95.37,28.0,9.0,150,8,13,10.0,30.059055,,,TRUE,TRUE,,,,,,,CLR,,,,,,,,VFR,,,,,,,,,,,,SPECI,382.0
KDNN 242215Z AUTO 36005KT 10SM CLR 25/12 A2995 RMK AO2 T02530125,KDNN,2023-05-24T22:15:00Z,34.72,-84.87,25.3,12.5,360,5,,10.0,29.949802,,,TRUE,TRUE,,,,,,,CLR,,,,,,,,VFR,,,,,,,,,,,,SPECI,216.0
KDNA 242215Z AUTO 17006G12KT 10SM CLR 33/M05 A2994 RMK AO2,KDNA,2023-05-24T22:15:00Z,31.88,-106.7,33.0,-5.0,170,6,12,10.0,29.940945,,,TRUE,TRUE,,,,,,,CLR,,,,,,,,VFR,,,,,,,,,,,,SPECI,1254.0
KDLZ 242215Z AUTO 36017G20KT 10SM CLR 21/10 A3009 RMK AO2,KDLZ,2023-05-24T22:15:00Z,40.28,-83.12,21.0,10.0,360,17,20,10.0,30.088583,,,TRUE,TRUE,,,,,,,CLR,,,,,,,,VFR,,,,,,,,,,,,SPECI,287.0
KDLP 242215Z AUTO 05015KT 10SM BKN021 BKN026 26/20 A2977 RMK A01,KDLP,2023-05-24T22:15:00Z,29.12,-89.55,26.0,20.0,50,15,,10.0,29.769686,,,TRUE,TRUE,,,,,,,BKN,2100,BKN,2600,,,,,MVFR,,,,,,,,,,,,METAR,31.0
KDLO 242215Z AUTO 29008KT 250V330 10SM CLR 24/06 A2983 RMK AO2 T02410060,KDLO,2023-05-24T22:15:00Z,35.75,-119.23,24.1,6.0,290,8,,10.0,29.828741,,,TRUE,TRUE,,,,,,,CLR,,,,,,,,VFR,,,,,,,,,,,,METAR,97.0
KDLL 242215Z AUTO 06013G16KT 10SM CLR 18/05 A3025 RMK AO2 T01820046,KDLL,2023-05-24T22:15:00Z,43.52,-89.77,18.2,4.6,60,13,16,10.0,30.250984,,,TRUE,TRUE,,,,,,,CLR,,,,,,,,VFR,,,,,,,,,,,,METAR,297.0
KDKX 242215Z AUTO 00000KT 10SM CLR 25/10 A2998 RMK A01,KDKX,2023-05-24T22:15:00Z,35.97,-83.87,25.0,10.0,0,0,,10.0,29.97933,,,TRUE,TRUE,,,,,,,CLR,,,,,,,,VFR,,,,,,,,,,,,METAR,253.0
KDKR 242215Z AUTO 00000KT 8SM CLR 28/22 A2991 RMK AO2,KDKR,2023-05-24T22:15:00Z,31.3,-95.4,28.0,22.0,0,0,,8.0,29.911417,,,TRUE,TRUE,,,,,,,CLR,,,,,,,,VFR,,,,,,,,,,,,SPECI,105.0
KDKB 242215Z AUTO 03017G20KT 10SM CLR 22/13 A3018 RMK AO2 T02200125,KDKB,2023-05-24T22:15:00Z,41.93,-88.7,22.0,12.5,30,17,20,10.0,30.180119,,,TRUE,TRUE,,,,,,,CLR,,,,,,,,VFR,,,,,,,,,,,,SPECI,277.0
KDEH 242215Z AUTO 09009KT 060V120 10SM CLR 24/13 A3015 RMK AO2,KDEH,2023-05-24T22:15:00Z,43.27,-91.73,24.0,13.0,90,9,,10.0,30.15059,,,TRUE,TRUE,,,,,,,CLR,,,,,,,,VFR,,,,,,,,,,,,METAR,348.0
KDCY 242215Z AUTO 06007KT 10SM SCT090 29/10 A3001 RMK AO2 T02850098,KDCY,2023-05-24T22:15:00Z,38.7,-87.13,28.5,9.8,60,7,,10.0,30.008858,,,TRUE,TRUE,,,,,,,SCT,9000,,,,,,,VFR,,,,,,,,,,,,SPECI,143.0
KDBN 242215Z AUTO 04005KT 10SM CLR 27/05 A2993 RMK AO2,KDBN,2023-05-24T22:15:00Z,32.57,-82.98,27.0,5.0,40,5,,10.0,29.929134,,,TRUE,TRUE,,,,,,,CLR,,,,,,,,VFR,,,,,,,,,,,,SPECI,90.0
KD95 242215Z AUTO 03012G17KT 10SM CLR 13/M03 A3027 RMK AO2 T01301026,KD95,2023-05-24T22:15:00Z,43.07,-83.27,13.0,-2.6,30,12,17,10.0,30.268702,,,TRUE,TRUE,,,,,,,CLR,,,,,,,,VFR,,,,,,,,,,,,SPECI,253.0
KD73 242215Z AUTO 07006KT 10SM CLR 24/12 A2996 RMK AO2 T02390119,KD73,2023-05-24T22:15:00Z,33.78,-83.7,23.9,11.9,70,6,,10.0,29.958662,,,TRUE,TRUE,,,,,,,CLR,,,,,,,,VFR,,,,,,,,,,,,SPECI,254.0
KD60 242215Z AUTO 14019KT 10SM CLR 27/12 A2992 RMK AO2,KD60,2023-05-24T22:15:00Z,48.38,-102.9,27.0,12.0,140,19,,10.0,29.920275,,,TRUE,TRUE,,,,,,,CLR,,,,,,,,VFR,,,,,,,,,,,,SPECI,682.0
KD57 242215Z AUTO 15020G28KT 10SM FEW060 FEW075 28/12 A2991 RMK AO2,KD57,2023-05-24T22:15:00Z,46.82,-101.87,28.0,12.0,150,20,28,10.0,29.911417,,,TRUE,TRUE,,,,,,,FEW,6000,FEW,7500,,,,,VFR,,,,,,,,,,,,SPECI,636.0
KD50 242215Z AUTO 11007KT 8SM FEW120 27/15 A2989 RMK AO2,KD50,2023-05-24T22:15:00Z,48.93,-103.3,27.0,15.0,110,7,,8.0,29.890747,,,TRUE,TRUE,,,,,,,FEW,12000,,,,,,,VFR,,,,,,,,,,,,SPECI,591.0
KD39 242215Z AUTO 09015G20KT 10SM CLR 20/11 A3018 RMK AO2 T01950106,KD39,2023-05-24T22:15:00Z,45.7,-94.93,19.5,10.6,90,15,20,10.0,30.180119,,,TRUE,TRUE,,,,,,,CLR,,,,,,,,VFR,,,,,,,,,,,,SPECI,378.0
KD25 242215Z AUTO 09003KT 10SM CLR 17/M01 A3032 RMK AO2 T01681015,KD25,2023-05-24T22:15:00Z,46.12,-89.88,16.8,-1.5,90,3,,10.0,30.318897,,,TRUE,TRUE,,,,,,,CLR,,,,,,,,VFR,,,,,,,,,,,,METAR,490.0
KCZT 242215Z AUTO 10SM CLR 32/18 A2984 RMK AO2,KCZT,2023-05-24T22:15:00Z,28.52,-99.82,32.0,18.0,,,,10.0,29.840551,,,TRUE,TRUE,,,,,,,CLR,,,,,,,,VFR,,,,,,,,,,,,METAR,176.0
KCZL 242215Z AUTO 35005KT 10SM CLR 26/12 A2996 RMK AO2,KCZL,2023-05-24T22:15:00Z,34.47,-84.93,26.0,12.0,350,5,,10.0,29.958662,,,TRUE,TRUE,,,,,,,CLR,,,,,,,,VFR,,,,,,,,,,,,SPECI,197.0
KCYD 242215Z AUTO 04006KT 10SM SCT023 SCT031 SCT039 29/21 A2985 RMK A02 LTG DSNT E T02860205,KCYD,2023-05-24T22:15:00Z,28.17,-89.22,28.6,20.5,40,6,,10.0,29.84941,,,TRUE,TRUE,,,,,,,SCT,2300,SCT,3100,SCT,3900,,,VFR,,,,,,,,,,,,METAR,30.0
KCXW 242215Z AUTO 10008KT 7SM FEW055 29/25 A2998 RMK A01,KCXW,2023-05-24T22:15:00Z,35.02,-92.55,29.0,25.0,100,8,,7.0,29.97933,,,TRUE,TRUE,,,,,,,FEW,5500,,,,,,,VFR,,,,,,,,,,,,METAR,84.0
KCXU 242215Z AUTO 03006KT 10SM SCT042 SCT049 BKN055 25/17 A2989 RMK AO1 T02510172,KCXU,2023-05-24T22:15:00Z,31.22,-84.23,25.1,17.2,30,6,,10.0,29.890747,,,TRUE,TRUE,,,,,,,SCT,4200,SCT,4900,BKN,5500,,,VFR,,,,,,,,,,,,SPECI,48.0
KCXP 242215Z AUTO 05009G15KT 10SM VCTS BKN090 BKN120 22/01 A2989 RMK AO2 LTG DSNT SW,KCXP,2023-05-24T22:15:00Z,39.18,-119.73,22.0,1.0,50,9,15,10.0,29.890747,,,TRUE,TRUE,,,,,,VCTS,BKN,9000,BKN,12000,,,,,VFR,,,,,,,,,,,,METAR,1431.0
KCXE 242215Z AUTO 02006KT 10SM CLR 23/07 A2999 RMK AO1 T02340069,KCXE,2023-05-24T22:15:00Z,36.78,-78.5,23.4,6.9,20,6,,10.0,29.991142,,,TRUE,TRUE,,,,,,,CLR,,,,,,,,VFR,,,,,,,,,,,,SPECI,154.0
KCWV 242215Z AUTO 07005KT 7SM CLR 27/08 A2990 RMK AO2 T02720079,KCWV,2023-05-24T22:15:00Z,32.2,-81.87,27.2,7.9,70,5,,7.0,29.899607,,,TRUE,TRUE,,,,,,,CLR,,,,,,,,VFR,,,,,,,,,,,,SPECI,32.0
KCWC 242215Z AUTO 12006KT 7SM CLR 28/17 A2995 RMK AO2 T02830169,KCWC,2023-05-24T22:15:00Z,33.85,-98.48,28.3,16.9,120,6,,7.0,29.949802,,,TRUE,TRUE,,,,,,,CLR,,,,,,,,VFR,,,,,,,,,,,,METAR,304.0
KCVX 242215Z AUTO 36008KT 10SM CLR 13/M01 A3035 RMK AO2 T01251006,KCVX,2023-05-24T22:15:00Z,45.3,-85.27,12.5,-0.6,360,8,,10.0,30.351377,,,TRUE,TRUE,,,,,,,CLR,,,,,,,,VFR,,,,,,,,,,,,SPECI,196.0
KCVH 242215Z AUTO 26013KT 10SM CLR 18/10 A2992 RMK A01,KCVH,2023-05-24T22:15:00Z,36.9,-121.42,18.0,10.0,260,13,,10.0,29.920275,,,TRUE,TRUE,,,,,,,CLR,,,,,,,,VFR,,,,,,,,,,,,SPECI,68.0
KCVC 242215Z AUTO 04005KT 10SM CLR 23/11 A2995 RMK AO2,KCVC,2023-05-24T22:15:00Z,33.63,-83.85,23.0,11.0,40,5,,10.0,29.949802,,,TRUE,TRUE,,,,,,,CLR,,,,,,,,VFR,,,,,,,,,,,,SPECI,240.0
KCUH 242215Z AUTO 09005KT 10SM SCT030 25/17 A2999 RMK AO2 T02450171,KCUH,2023-05-24T22:15:00Z,35.95,-96.77,24.5,17.1,90,5,,10.0,29.991142,,,TRUE,TRUE,,,,,,,SCT,3000,,,,,,,VFR,,,,,,,,,,,,METAR,274.0
KCTY 242215Z AUTO 06008KT 10SM SCT040 BKN070 26/19 A2984 RMK AO2 LTG DSNT S THRU W,KCTY,2023-05-24T22:15:00Z,29.63,-83.1,26.0,19.0,60,8,,10.0,29.840551,,,TRUE,TRUE,,,,,,,SCT,4000,BKN,7000,,,,,VFR,,,,,,,,,,,,METAR,12.0
KCTJ 242215Z AUTO 00000KT 10SM SCT050 23/11 A2999 RMK AO2 T02330114,KCTJ,2023-05-24T22:15:00Z,33.63,-85.15,23.3,11.4,0,0,,10.0,29.991142,,,TRUE,TRUE,,,,,,,SCT,5000,,,,,,,VFR,,,,,,,,,,,,SPECI,351.0
KCSQ 242215Z AUTO 12008KT 10SM SCT060 SCT070 28/14 A3006 RMK AO2,KCSQ,2023-05-24T22:15:00Z,41.02,-94.37,28.0,14.0,120,8,,10.0,30.059055,,,TRUE,TRUE,,,,,,,SCT,6000,SCT,7000,,,,,VFR,,,,,,,,,,,,METAR,394.0
KCRX 242215Z AUTO 02007KT 10SM CLR 27/16 A2996 RMK AO2,KCRX,2023-05-24T22:15:00Z,34.92,-88.6,27.0,16.0,20,7,,10.0,29.958662,,,TRUE,TRUE,,,,,,,CLR,,,,,,,,VFR,,,,,,,,,,,,METAR,128.0
KCQW 242215Z AUTO 05009KT 10SM CLR 26/00 A2993 RMK AO2,KCQW,2023-05-24T22:15:00Z,34.72,-79.95,26.0,0.0,50,9,,10.0,29.929134,,,TRUE,TRUE,,,,,,,CLR,,,,,,,,VFR,,,,,,,,,,,,SPECI,67.0
KCQF 242215Z AUTO 01004KT 10SM SCT002 SCT120 26/19 A2986 RMK AO2,KCQF,2023-05-24T22:15:00Z,30.47,-87.88,26.0,19.0,10,4,,10.0,29.861221,,,TRUE,TRUE,,,,,,,SCT,200,SCT,12000,,,,,VFR,,,,,,,,,,,,SPECI,21.0
KCQB 242215Z AUTO 08008KT 10SM SCT031 SCT037 26/19 A3000 RMK AO2 T02600186,KCQB,2023-05-24T22:15:00Z,35.72,-96.82,26.0,18.6,80,8,,10.0,30.0,,,TRUE,TRUE,,,,,,,SCT,3100,SCT,3700,,,,,VFR,,,,,,,,,,,,SPECI,298.0
KCPW 242215Z AUTO 25007G14KT 10SM SCT036 BKN046 OVC070 06/00 A3042 RMK AO2 LTG DSNT NE,KCPW,2023-05-24T22:15:00Z,37.45,-106.8,6.0,0.0,250,7,14,10.0,30.41929,,,TRUE,TRUE,,,,,,,SCT,3600,BKN,4600,OVC,7000,,,VFR,,,,,,,,,,,,METAR,3570.0
KCPT 242215Z AUTO 10011KT 10SM SCT044 28/19 A2993 RMK A01,KCPT,2023-05-24T22:15:00Z,32.35,-97.43,28.0,19.0,100,11,,10.0,29.929134,,,TRUE,TRUE,,,,,,,SCT,4400,,,,,,,VFR,,,,,,,,,,,,SPECI,260.0
KCPP 242215Z AUTO 00000KT 10SM CLR 23/09 A2995 RMK AO2,KCPP,2023-05-24T22:15:00Z,,,23.0,9.0,0,0,,10.0,29.949802,,,TRUE,TRUE,,,,,,,CLR,,,,,,,,VFR,,,,,,,,,,,,METAR,
KCPF 242215Z AUTO 00000KT 10SM SCT065 23/10 A3004 RMK AO2,KCPF,2023-05-24T22:15:00Z,37.38,-83.27,23.0,10.0,0,0,,10.0,30.041338,,,TRUE,TRUE,,,,,,,SCT,6500,,,,,,,VFR,,,,,,,,,,,,METAR,382.0
KCOQ 242215Z AUTO 10009G14KT 10SM -DZ SCT100 04/M01 A3033 RMK AO2 TSNO,KCOQ,2023-05-24T22:15:00Z,46.7,-92.5,4.0,-1.0,100,9,14,10.0,30.33071,,,TRUE,TRUE,,,TRUE,,,-DZ,SCT,10000,,,,,,,VFR,,,,,,,,,,,,SPECI,390.0
KCOM 242215Z AUTO 09006KT 10SM CLR 25/17 A2996 RMK AO2 T02540174,KCOM,2023-05-24T22:15:00Z,31.83,-99.4,25.4,17.4,90,6,,10.0,29.958662,,,TRUE,TRUE,,,,,,,CLR,,,,,,,,VFR,,,,,,,,,,,,SPECI,516.0
KCNI 242215Z AUTO 31005KT 10SM BKN070 24/13 A2996 RMK AO2 T02430132,KCNI,2023-05-24T22:15:00Z,34.32,-84.42,24.3,13.2,310,5,,10.0,29.958662,,,TRUE,TRUE,,,,,,,BKN,7000,,,,,,,VFR,,,,,,,,,,,,METAR,371.0
KCNC 242215Z AUTO 12011KT 10SM CLR 29/15 A3005 RMK AO2,KCNC,2023-05-24T22:15:00Z,41.02,-93.37,29.0,15.0,120,11,,10.0,30.050198,,,TRUE,TRUE,,,,,,,CLR,,,,,,,,VFR,,,,,,,,,,,,METAR,319.0
KCNB 242215Z AUTO 10010KT 10SM SCT100 29/07 A3007 RMK AO2 T02930072,KCNB,2023-05-24T22:15:00Z,44.73,-96.27,29.3,7.2,100,10,,10.0,30.070866,,,TRUE,TRUE,,,,,,,SCT,10000,,,,,,,VFR,,,,,,,,,,,,SPECI,363.0
KCMR 242215Z AUTO 21015G21KT 170V250 10SM FEW090 22/M02 A3008 RMK AO2,KCMR,2023-05-24T22:15:00Z,35.3,-112.2,22.0,-2.0,210,15,21,10.0,30.079725,,,TRUE,TRUE,,,,,,,FEW,9000,,,,,,,VFR,,,,,,,,,,,,METAR,2039.0
KCMD 242215Z AUTO 00000KT 10SM CLR 25/16 A2998 RMK AO2,KCMD,2023-05-24T22:15:00Z,34.27,-86.85,25.0,16.0,0,0,,10.0,29.97933,,,TRUE,TRUE,,,,,,,CLR,,,,,,,,VFR,,,,,,,,,,,,METAR,294.0
KCLW 242215Z AUTO 00000KT 7SM RA OVC055 21/20 A2981 RMK AO2 P0003,KCLW,2023-05-24T22:15:00Z,27.98,-82.75,21.0,20.0,0,0,,7.0,29.811024,,,TRUE,TRUE,,,,,,RA,OVC,5500,,,,,,,VFR,,,,,,0.03,,,,,,SPECI,21.0
KCLS 242215Z AUTO 02012KT 10SM FEW050 21/08 A3003 RMK AO2,KCLS,2023-05-24T22:15:00Z,46.68,-122.98,21.0,8.0,20,12,,10.0,30.029528,,,TRUE,TRUE,,,,,,,FEW,5000,,,,,,,VFR,,,,,,,,,,,,METAR,52.0
KCLK 242215Z AUTO 13008KT 10SM OVC055 26/13 A2998 RMK AO2,KCLK,2023-05-24T22:15:00Z,35.53,-98.93,26.0,13.0,130,8,,10.0,29.97933,,,TRUE,TRUE,,,,,,,OVC,5500,,,,,,,VFR,,,,,,,,,,,,METAR,489.0
KCLI 242215Z AUTO 10010KT 10SM CLR 17/00 A3032 RMK AO2 T01650004,KCLI,2023-05-24T22:15:00Z,44.62,-88.73,16.5,0.4,100,10,,10.0,30.318897,,,TRUE,TRUE,,,,,,,CLR,,,,,,,,VFR,,,,,,,,,,,,SPECI,248.0
KCKZ 242215Z AUTO 25004KT 10SM BKN090 24/10 A2993 RMK AO2,KCKZ,2023-05-24T22:15:00Z,40.38,-75.28,24.0,10.0,250,4,,10.0,29.929134,,,TRUE,TRUE,,,,,,,BKN,9000,,,,,,,VFR,,,,,,,,,,,,SPECI,160.0
KCKP 242215Z AUTO 11006KT 10SM CLR 29/06 A3005 RMK AO2 T02920064,KCKP,2023-05-24T22:15:00Z,42.73,-95.55,29.2,6.4,110,6,,10.0,30.050198,,,TRUE,TRUE,,,,,,,CLR,,,,,,,,VFR,,,,,,,,,,,,METAR,369.0
KCKN 242215Z AUTO 12013G18KT 10SM BKN090 19/07 A3014 RMK AO2,KCKN,2023-05-24T22:15:00Z,47.85,-96.62,19.0,7.0,120,13,18,10.0,30.138779,,,TRUE,TRUE,,,,,,,BKN,9000,,,,,,,VFR,,,,,,,,,,,,SPECI,272.0
KCKM 242215Z AUTO 05008KT 10SM 27/15 A2997 RMK A01,KCKM,2023-05-24T22:15:00Z,34.3,-90.52,27.0,15.0,50,8,,10.0,29.970472,,,TRUE,TRUE,,,,,,,,,,,,,,,,,,,,,,,,,,,SPECI,52.0
KCKI 242215Z AUTO 03004KT 10SM CLR 26/00 A2991 RMK AO2,KCKI,2023-05-24T22:15:00Z,33.72,-79.85,26.0,0.0,30,4,,10.0,29.911417,,,TRUE,TRUE,,,,,,,CLR,,,,,,,,VFR,,,,,,,,,,,,METAR,19.0
KCKF 242215Z AUTO 04008KT 10SM CLR 25/12 A2992 RMK AO2 T02530117,KCKF,2023-05-24T22:15:00Z,31.98,-83.77,25.3,11.7,40,8,,10.0,29.920275,,,TRUE,TRUE,,,,,,,CLR,,,,,,,,VFR,,,,,,,,,,,,SPECI,92.0
KCKC 242215Z AUTO 08008KT 10SM CLR 10/M19 A3039 RMK AO2,KCKC,2023-05-24T22:15:00Z,47.83,-90.38,10.0,-19.0,80,8,,10.0,30.389763,,,TRUE,TRUE,,,,,,,CLR,,,,,,,,VFR,,,,,,,,,,,,SPECI,544.0
KCJR 242215Z AUTO 00000KT 10SM CLR 27/09 A2999 RMK AO2 T02650090,KCJR,2023-05-24T22:15:00Z,38.53,-77.87,26.5,9.0,0,0,,10.0,29.991142,,,TRUE,TRUE,,,,,,,CLR,,,,,,,,VFR,,,,,,,,,,,,SPECI,90.0
KCIN 242215Z AUTO 15011KT 9SM CLR 29/09 A3005 RMK AO2,KCIN,2023-05-24T22:15:00Z,42.03,-94.78,29.0,9.0,150,11,,9.0,30.050198,,,TRUE,TRUE,,,,,,,CLR,,,,,,,,VFR,,,,,,,,,,,,SPECI,365.0
KCHK 242215Z AUTO 12011KT 10SM CLR 27/16 A2994 RMK AO2 T02750165,KCHK,2023-05-24T22:15:00Z,35.1,-97.97,27.5,16.5,120,11,,10.0,29.940945,,,TRUE,TRUE,,,,,,,CLR,,,,,,,,VFR,,,,,,,,,,,,SPECI,346.0
KCGC 242215Z AUTO 00000KT 10SM VCTS SCT095 BKN120 22/22 A2983 RMK AO2 LTG DSNT S,KCGC,2023-05-24T22:15:00Z,28.87,-82.57,22.0,22.0,0,0,,10.0,29.828741,,,TRUE,TRUE,,,,,,VCTS,SCT,9500,BKN,12000,,,,,VFR,,,,,,,,,,,,SPECI,3.0
KCFS 242215Z AUTO 05008G17KT 350V080 10SM CLR 13/M02 A3029 RMK AO2 T01271024,KCFS,2023-05-24T22:15:00Z,43.47,-83.45,12.7,-2.4,50,8,17,10.0,30.28937,,,TRUE,TRUE,,,,,,,CLR,,,,,,,,VFR,,,,,,,,,,,,SPECI,214.0
KCFJ 242215Z AUTO 04011G18KT 10SM SCT095 27/04 A3006 RMK AO2 T02660036,KCFJ,2023-05-24T22:15:00Z,39.98,-86.92,26.6,3.6,40,11,18,10.0,30.059055,,,TRUE,TRUE,,,,,,,SCT,9500,,,,,,,VFR,,,,,,,,,,,,METAR,243.0
KCFE 242215Z AUTO 08012G18KT 10SM CLR 23/12 A3017 RMK AO2,KCFE,2023-05-24T22:15:00Z,45.17,-93.85,23.0,12.0,80,12,18,10.0,30.171259,,,TRUE,TRUE,,,,,,,CLR,,,,,,,,VFR,,,,,,,,,,,,SPECI,292.0
KCFD 242215Z AUTO 04006KT 10SM CLR 28/19 A2993 RMK AO2 T02800189,KCFD,2023-05-24T22:15:00Z,30.72,-96.33,28.0,18.9,40,6,,10.0,29.929134,,,TRUE,TRUE,,,,,,,CLR,,,,,,,,VFR,,,,,,,,,,,,METAR,106.0
KCEY 242215Z AUTO 02009KT 10SM CLR 28/12 A2999 RMK A01,KCEY,2023-05-24T22:15:00Z,36.67,-88.37,28.0,12.0,20,9,,10.0,29.991142,,,TRUE,TRUE,,,,,,,CLR,,,,,,,,VFR,,,,,,,,,,,,SPECI,172.0
KCDN 242215Z AUTO 03008G13KT 10SM CLR 26/01 A2993 RMK AO2,KCDN,2023-05-24T22:15:00Z,34.28,-80.57,26.0,1.0,30,8,13,10.0,29.929134,,,TRUE,TRUE,,,,,,,CLR,,,,,,,,VFR,,,,,,,,,,,,SPECI,90.0
KCDI 242215Z AUTO 35009G15KT 320V020 10SM CLR 25/11 A3003 RMK AO2 T02500109,KCDI,2023-05-24T22:15:00Z,39.97,-81.58,25.0,10.9,350,9,15,10.0,30.029528,,,TRUE,TRUE,,,,,,,CLR,,,,,,,,VFR,,,,,,,,,,,,SPECI,241.0
KCDH 242215Z AUTO 08005KT 8SM FEW050 FEW060 27/18 A2996 RMK AO2,KCDH,2023-05-24T22:15:00Z,33.62,-92.77,27.0,18.0,80,5,,8.0,29.958662,,,TRUE,TRUE,,,,,,,FEW,5000,FEW,6000,,,,,VFR,,,,,,,,,,,,SPECI,38.0
KCDA 242215Z AUTO 29010G18KT 260V320 7SM -RA SCT006 BKN020 OVC041 09/07 A3004 RMK AO2 T00860072,KCDA,2023-05-24T22:15:00Z,44.57,-72.02,8.6,7.2,290,10,18,7.0,30.041338,,,TRUE,TRUE,,,,,,-RA,SCT,600,BKN,2000,OVC,4100,,,MVFR,,,,,,,,,,,,SPECI,357.0
KCCY 242215Z AUTO 10012G18KT 9SM CLR 27/09 A3012 RMK AO2,KCCY,2023-05-24T22:15:00Z,43.07,-92.62,27.0,9.0,100,12,18,9.0,30.121063,,,TRUE,TRUE,,,,,,,CLR,,,,,,,,VFR,,,,,,,,,,,,SPECI,340.0
KCCU 242215Z AUTO 00000KT 10SM SCT037 SCT045 BKN070 08/00 A3038 RMK AO2,KCCU,2023-05-24T22:15:00Z,39.48,-106.15,8.0,0.0,0,0,,10.0,30.380905,,,TRUE,TRUE,,,,,,,SCT,3700,SCT,4500,BKN,7000,,,VFR,,,,,,,,,,,,METAR,3672.0
KCCO 242215Z AUTO 00000KT 10SM SCT060 24/12 A2995 RMK AO2 T02420121,KCCO,2023-05-24T22:15:00Z,33.32,-84.77,24.2,12.1,0,0,,10.0,29.949802,,,TRUE,TRUE,,,,,,,SCT,6000,,,,,,,VFR,,,,,,,,,,,,SPECI,290.0
KCCB 242215Z AUTO 25010G18KT 10SM CLR 20/12 A2991 RMK AO2,KCCB,2023-05-24T22:15:00Z,34.12,-117.68,20.0,12.0,250,10,18,10.0,29.911417,,,TRUE,TRUE,,,,,,,CLR,,,,,,,,VFR,,,,,,,,,,,,METAR,440.0
KCCA 242215Z AUTO VRB04KT 10SM FEW050 FEW060 27/16 A3001 RMK AO2,KCCA,2023-05-24T22:15:00Z,35.6,-92.45,27.0,16.0,0,4,,10.0,30.008858,,,TRUE,TRUE,,,,,,,FEW,5000,FEW,6000,,,,,VFR,,,,,,,,,,,,SPECI,152.0
KCBK 242215Z AUTO 15015KT 10SM SCT044 SCT049 SCT060 24/13 A3002 RMK AO2 T02390128,KCBK,2023-05-24T22:15:00Z,39.43,-101.05,23.9,12.8,150,15,,10.0,30.02067,,,TRUE,TRUE,,,,,,,SCT,4400,SCT,4900,SCT,6000,,,VFR,,,,,,,,,,,,METAR,970.0
KCBG 242215Z AUTO 08008G15KT 10SM CLR 20/08 A3023 RMK AO2,KCBG,2023-05-24T22:15:00Z,45.57,-93.27,20.0,8.0,80,8,15,10.0,30.230314,,,TRUE,TRUE,,,,,,,CLR,,,,,,,,VFR,,,,,,,,,,,,SPECI,285.0
KCBF 242215Z AUTO 15009G15KT 10SM BKN080 29/06 A3001 RMK AO2,KCBF,2023-05-24T22:15:00Z,41.27,-95.77,29.0,6.0,150,9,15,10.0,30.008858,,,TRUE,TRUE,,,,,,,BKN,8000,,,,,,,VFR,,,,,,,,,,,,METAR,379.0
KCAV 242215Z AUTO 13013G21KT 10SM CLR 30/04 A3007 RMK A01,KCAV,2023-05-24T22:15:00Z,42.75,-93.77,30.0,4.0,130,13,21,10.0,30.070866,,,TRUE,TRUE,,,,,,,CLR,,,,,,,,VFR,,,,,,,,,,,,METAR,352.0
KCAD 242215Z AUTO 04010G15KT 10SM CLR 18/M07 A3026 RMK AO2 T01801069,KCAD,2023-05-24T22:15:00Z,44.27,-85.42,18.0,-6.9,40,10,15,10.0,30.259842,,,TRUE,TRUE,,,,,,,CLR,,,,,,,,VFR,,,,,,,,,,,,SPECI,397.0
KC83 242215Z AUTO 24009G15KT 10SM CLR 24/09 A2984 RMK AO2,KC83,2023-05-24T22:15:00Z,37.83,-121.62,24.0,9.0,240,9,15,10.0,29.840551,,,TRUE,TRUE,,,,,,,CLR,,,,,,,,VFR,,,,,,,,,,,,METAR,16.0
KC75 242215Z AUTO 05014G18KT 10SM CLR 28/12 A3008 RMK AO2,KC75,2023-05-24T22:15:00Z,41.02,-89.38,28.0,12.0,50,14,18,10.0,30.079725,,,TRUE,TRUE,,,,,,,CLR,,,,,,,,VFR,,,,,,,,,,,,METAR,166.0
KC65 242215Z AUTO 04011G16KT 010V070 10SM CLR 24/11 A3011 RMK A01,KC65,2023-05-24T22:15:00Z,41.37,-86.3,24.0,11.0,40,11,16,10.0,30.109253,,,TRUE,TRUE,,,,,,,CLR,,,,,,,,VFR,,,,,,,,,,,,METAR,241.0
KC62 242215Z AUTO 03014G19KT 360V060 10SM CLR 22/11 A3014 RMK AO2 T02270113,KC62,2023-05-24T22:15:00Z,41.47,-85.25,22.7,11.3,30,14,19,10.0,30.138779,,,TRUE,TRUE,,,,,,,CLR,,,,,,,,VFR,,,,,,,,,,,,METAR,304.0
KC35 242215Z AUTO 07010G14KT 040V110 10SM CLR 18/05 A3024 RMK AO2 T01840045 PWINO,KC35,2023-05-24T22:15:00Z,43.53,-89.98,18.4,4.5,70,10,14,10.0,30.239174,,,TRUE,TRUE,,,,,TRUE,,CLR,,,,,,,,VFR,,,,,,,,,,,,SPECI,272.0
KC29 242215Z AUTO 07012G17KT 10SM CLR 20/03 A3023 RMK AO1 T01980030,KC29,2023-05-24T22:15:00Z,43.12,-89.53,19.8,3.0,70,12,17,10.0,30.230314,,,TRUE,TRUE,,,,,,,CLR,,,,,,,,VFR,,,,,,,,,,,,SPECI,282.0
KC09 242215Z AUTO 07011G17KT 10SM CLR 22/10 A3014 RMK AO2 T02220102,KC09,2023-05-24T22:15:00Z,41.43,-88.42,22.2,10.2,70,11,17,10.0,30.138779,,,TRUE,TRUE,,,,,,,CLR,,,,,,,,VFR,,,,,,,,,,,,METAR,179.0
KC07 242215Z AUTO 00000KT 10SM SCT090 SCT110 08/03 A3028 RMK AO2 LTG DSNT S AND SW,KC07,2023-05-24T22:15:00Z,40.35,-106.7,8.0,3.0,0,0,,10.0,30.280512,,,TRUE,TRUE,,,,,,,SCT,9000,SCT,11000,,,,,VFR,,,,,,,,,,,,METAR,3224.0
KBYY 242215Z AUTO 06007KT 10SM SCT050 SCT060 30/18 A2988 RMK AO2 T03060185,KBYY,2023-05-24T22:15:00Z,28.97,-95.87,30.6,18.5,60,7,,10.0,29.878937,,,TRUE,TRUE,,,,,,,SCT,5000,SCT,6000,,,,,VFR,,,,,,,,,,,,METAR,12.0
KBYL 242215Z AUTO 04005KT 10SM FEW070 23/10 A3002 RMK AO1,KBYL,2023-05-24T22:15:00Z,36.8,-84.2,23.0,10.0,40,5,,10.0,30.02067,,,TRUE,TRUE,,,,,,,FEW,7000,,,,,,,VFR,,,,,,,,,,,,METAR,355.0
KBXK 242215Z AUTO 21008G13KT 9SM CLR 35/01 A2976 RMK A01,KBXK,2023-05-24T22:15:00Z,33.42,-112.68,35.0,1.0,210,8,13,9.0,29.760826,,,TRUE,TRUE,,,,,,,CLR,,,,,,,,VFR,,,,,,,,,,,,METAR,303.0
KBXA 242215Z AUTO 03005G09KT 10SM SCT025 SCT050 26/19 A2991 RMK AO2 T02610186,KBXA,2023-05-24T22:15:00Z,30.82,-89.87,26.1,18.6,30,5,9,10.0,29.911417,,,TRUE,TRUE,,,,,,,SCT,2500,SCT,5000,,,,,VFR,,,,,,,,,,,,SPECI,35.0
KBWW 242215Z AUTO 17024G30KT 10SM CLR 27/11 A2990 RMK AO2,KBWW,2023-05-24T22:15:00Z,46.17,-103.3,27.0,11.0,170,24,30,10.0,29.899607,,,TRUE,TRUE,,,,,,,CLR,,,,,,,,VFR,,,,,,,,,,,,SPECI,911.0
KBWP 242215Z AUTO 11015G23KT 10SM CLR 24/11 A3007 RMK AO2,KBWP,2023-05-24T22:15:00Z,46.25,-96.62,24.0,11.0,110,15,23,10.0,30.070866,,,TRUE,TRUE,,,,,,,CLR,,,,,,,,VFR,,,,,,,,,,,,METAR,294.0
KBVU 242215Z AUTO 17024KT 10SM CLR 34/M06 A2972 RMK AO2,KBVU,2023-05-24T22:15:00Z,35.95,-114.87,34.0,-6.0,170,24,,10.0,29.719488,,,TRUE,TRUE,,,,,,,CLR,,,,,,,,VFR,,,,,,,,,,,,SPECI,654.0
KBVS 242215Z AUTO 00000KT 10SM FEW110 18/14 A3006 RMK A01,KBVS,2023-05-24T22:15:00Z,48.47,-122.42,18.0,14.0,0,0,,10.0,30.059055,,,TRUE,TRUE,,,,,,,FEW,11000,,,,,,,VFR,,,,,,,,,,,,METAR,31.0
KBVN 242215Z AUTO 16008KT 10SM CLR 27/09 A3003 RMK AO2 T02680093,KBVN,2023-05-24T22:15:00Z,41.73,-98.05,26.8,9.3,160,8,,10.0,30.029528,,,TRUE,TRUE,,,,,,,CLR,,,,,,,,VFR,,,,,,,,,,,,METAR,547.0
KBVI 242215Z AUTO 01013G19KT 330V030 10SM CLR 22/09 A3006 RMK AO2 T02230085,KBVI,2023-05-24T22:15:00Z,40.77,-80.37,22.3,8.5,10,13,19,10.0,30.059055,,,TRUE,TRUE,,,,,,,CLR,,,,,,,,VFR,,,,,,,,,,,,SPECI,387.0
KBUU 242215Z AUTO 05011KT 10SM CLR 16/06 A3024 RMK AO2 T01560061 PWINO,KBUU,2023-05-24T22:15:00Z,42.68,-88.3,15.6,6.1,50,11,,10.0,30.239174,,,TRUE,TRUE,,,,,TRUE,,CLR,,,,,,,,VFR,,,,,,,,,,,,METAR,238.0
KBTN 242215Z AUTO 13014G21KT 10SM CLR 29/10 A3001 RMK AO2,KBTN,2023-05-24T22:15:00Z,45.82,-97.75,29.0,10.0,130,14,21,10.0,30.008858,,,TRUE,TRUE,,,,,,,CLR,,,,,,,,VFR,,,,,,,,,,,,METAR,400.0
KBTA 242215Z AUTO 00000KT 10SM CLR 29/08 A3004 RMK AO2 T02920080,KBTA,2023-05-24T22:15:00Z,41.42,-96.12,29.2,8.0,0,0,,10.0,30.041338,,,TRUE,TRUE,,,,,,,CLR,,,,,,,,VFR,,,,,,,,,,,,METAR,400.0
KBRY 242215Z AUTO 06008KT 10SM FEW065 SCT095 26/12 A2998 RMK AO2 T02620121,KBRY,2023-05-24T22:15:00Z,37.82,-85.5,26.2,12.1,60,8,,10.0,29.97933,,,TRUE,TRUE,,,,,,,FEW,6500,SCT,9500,,,,,VFR,,,,,,,,,,,,SPECI,192.0
KBRG 242215Z AUTO 17010G15KT 10SM CLR 31/M04 A2997 RMK AO2 T03071041,KBRG,2023-05-24T22:15:00Z,34.65,-106.83,30.7,-4.1,170,10,15,10.0,29.970472,,,TRUE,TRUE,,,,,,,CLR,,,,,,,,VFR,,,,,,,,,,,,SPECI,1585.0
KBQX 242215Z AUTO 00000KT 9SM CLR 30/21 A2990 RMK A01,KBQX,2023-05-24T22:15:00Z,28.5,-95.72,30.0,21.0,0,0,,9.0,29.899607,,,TRUE,TRUE,,,,,,,CLR,,,,,,,,VFR,,,,,,,,,,,,METAR,34.0
KBQP 242215Z AUTO 00000KT SCT033 SCT050 24/17 A2996 RMK AO2 T02430172 PWINO,KBQP,2023-05-24T22:15:00Z,32.75,-91.88,24.3,17.2,0,0,,,29.958662,,,TRUE,TRUE,,,,,TRUE,,SCT,3300,SCT,5000,,,,,,,,,,,,,,,,,METAR,50.0
KBQK 242215Z AUTO 06011KT 10SM CLR 24/14 A2990 RMK AO2 LTG DSNT S T02450144,KBQK,2023-05-24T22:15:00Z,31.25,-81.47,24.5,14.4,60,11,,10.0,29.899607,,,TRUE,TRUE,,,,,,,CLR,,,,,,,,VFR,,,,,,,,,,,,METAR,7.0
KBPG 242215Z AUTO 14014KT 10SM BKN050 26/17 A2994 RMK AO2 T02650175,KBPG,2023-05-24T22:15:00Z,32.22,-101.52,26.5,17.5,140,14,,10.0,29.940945,,,TRUE,TRUE,,,,,,,BKN,5000,,,,,,,VFR,,,,,,,,,,,,METAR,782.0
KBPC 242215Z AUTO 13011G15KT 10SM SCT050 SCT065 BKN075 27/13 A2997 RMK AO2,KBPC,2023-05-24T22:15:00Z,35.88,-101.03,27.0,13.0,130,11,15,10.0,29.970472,,,TRUE,TRUE,,,,,,,SCT,5000,SCT,6500,BKN,7500,,,VFR,,,,,,,,,,,,METAR,844.0
KBOS 242215Z 32018G27KT 10SM -RA FEW013 SCT041 BKN095 OVC250 20/12 A2995 RMK AO2 PK WND 33027/2210 WSHFT 2155 RAB11 PRESRR P0000 T02000122,KBOS,2023-05-24T22:15:00Z,42.37,-71.02,20.0,12.2,320,18,27,10.0,29.949802,,,,TRUE,,,,,,-RA,FEW,1300,SCT,4100,BKN,9500,OVC,25000,VFR,,,,,,0.005,,,,,,SPECI,4.0
KBNW 242215Z AUTO 22010KT 10SM CLR 29/10 A3005 RMK AO2,KBNW,2023-05-24T22:15:00Z,42.03,-93.83,29.0,10.0,220,10,,10.0,30.050198,,,TRUE,TRUE,,,,,,,CLR,,,,,,,,VFR,,,,,,,,,,,,METAR,350.0
KBNL 242215Z AUTO 02007KT 10SM CLR 26/07 A2992 RMK AO2,KBNL,2023-05-24T22:15:00Z,33.25,-81.38,26.0,7.0,20,7,,10.0,29.920275,,,TRUE,TRUE,,,,,,,CLR,,,,,,,,VFR,,,,,,,,,,,,METAR,76.0
KBMT 242215Z AUTO 35007KT 10SM CLR 30/18 A2987 RMK AO2 T02950179,KBMT,2023-05-24T22:15:00Z,30.07,-94.22,29.5,17.9,350,7,,10.0,29.870079,,,TRUE,TRUE,,,,,,,CLR,,,,,,,,VFR,,,,,,,,,,,,METAR,8.0
KBKT 242215Z AUTO 09006KT 10SM CLR 24/06 A2999 RMK AO1 T02360058,KBKT,2023-05-24T22:15:00Z,37.07,-77.95,23.6,5.8,90,6,,10.0,29.991142,,,TRUE,TRUE,,,,,,,CLR,,,,,,,,VFR,,,,,,,,,,,,SPECI,134.0
KBKS 242215Z AUTO 08016G20KT 10SM FEW060 33/23 A2982 RMK AO2 SLP059 T03310226 $,KBKS,2023-05-24T22:15:00Z,27.2,-98.12,33.1,22.6,80,16,20,10.0,29.819881,1005.9,,TRUE,TRUE,TRUE,,,,,,FEW,6000,,,,,,,VFR,,,,,,,,,,,,METAR,34.0
KBKN 242215Z AUTO 07012KT BKN049 BKN060 BKN090 25/17 A3000 RMK AO2,KBKN,2023-05-24T22:15:00Z,36.75,-97.35,25.0,17.0,70,12,,,30.0,,,TRUE,TRUE,,,,,,,BKN,4900,BKN,6000,BKN,9000,,,,,,,,,,,,,,,SPECI,208.0
KBKD 242215Z AUTO 08008KT 7SM SCT042 29/17 A2994 RMK AO2 T02870172,KBKD,2023-05-24T22:15:00Z,32.72,-98.88,28.7,17.2,80,8,,7.0,29.940945,,,TRUE,TRUE,,,,,,,SCT,4200,,,,,,,VFR,,,,,,,,,,,,METAR,383.0
KBJI 242215Z AUTO 09011KT 10SM BKN100 13/03 A3025 RMK AO2 T01290025,KBJI,2023-05-24T22:15:00Z,47.5,-94.92,12.9,2.5,90,11,,10.0,30.250984,,,TRUE,TRUE,,,,,,,BKN,10000,,,,,,,VFR,,,,,,,,,,,,METAR,422.0
KBIJ 242215Z AUTO 04006KT 10SM OVC060 25/16 A2990 RMK AO2 LTG DSNT S,KBIJ,2023-05-24T22:15:00Z,31.4,-84.9,25.0,16.0,40,6,,10.0,29.899607,,,TRUE,TRUE,,,,,,,OVC,6000,,,,,,,VFR,,,,,,,,,,,,METAR,63.0
KBIE 242215Z AUTO 17004KT 10SM CLR 29/08 A3002 RMK AO2 T02910078,KBIE,2023-05-24T22:15:00Z,40.28,-96.75,29.1,7.8,170,4,,10.0,30.02067,,,TRUE,TRUE,,,,,,,CLR,,,,,,,,VFR,,,,,,,,,,,,METAR,398.0
KBGF 242215Z AUTO 03014KT 10SM CLR 26/14 A2995 RMK A01,KBGF,2023-05-24T22:15:00Z,35.18,-86.07,26.0,14.0,30,14,,10.0,29.949802,,,TRUE,TRUE,,,,,,,CLR,,,,,,,,VFR,,,,,,,,,,,,METAR,295.0
KBGE 242215Z AUTO 07010KT 10SM SCT070 SCT085 BKN100 26/16 A2988 RMK AO2 LTG DSNT S T02630163,KBGE,2023-05-24T22:15:00Z,30.97,-84.63,26.3,16.3,70,10,,10.0,29.878937,,,TRUE,TRUE,,,,,,,SCT,7000,SCT,8500,BKN,10000,,,VFR,,,,,,,,,,,,METAR,40.0
KBFR 242215Z AUTO 04007KT 10SM SCT090 27/05 A3001 RMK AO2,KBFR,2023-05-24T22:15:00Z,38.83,-86.45,27.0,5.0,40,7,,10.0,30.008858,,,TRUE,TRUE,,,,,,,SCT,9000,,,,,,,VFR,,,,,,,,,,,,METAR,223.0
KBEC 242215Z AUTO 13010KT 10SM -RA SCT030 BKN070 OVC090 21/16 A3003 RMK AO2 LTG DSNT N AND NE T02060160,KBEC,2023-05-24T22:15:00Z,37.7,-97.22,20.6,16.0,130,10,,10.0,30.029528,,,TRUE,TRUE,,,,,,-RA,SCT,3000,BKN,7000,OVC,9000,,,VFR,,,,,,,,,,,,METAR,421.0
KBEA 242215Z AUTO 09004KT 10SM SCT050 SCT060 BKN080 31/18 A2986 RMK AO2 T03070175,KBEA,2023-05-24T22:15:00Z,28.37,-97.78,30.7,17.5,90,4,,10.0,29.861221,,,TRUE,TRUE,,,,,,,SCT,5000,SCT,6000,BKN,8000,,,VFR,,,,,,,,,,,,METAR,83.0
KBDU 242215Z AUTO 23005KT 10SM SCT120 16/10 A3001 RMK AO2 LTG DSNT N THRU SE,KBDU,2023-05-24T22:15:00Z,40.03,-105.23,16.0,10.0,230,5,,10.0,30.008858,,,TRUE,TRUE,,,,,,,SCT,12000,,,,,,,VFR,,,,,,,,,,,,METAR,1614.0
KBDN 242215Z AUTO 01008G15KT 330V030 10SM CLR 21/M05 A2995 RMK AO2,KBDN,2023-05-24T22:15:00Z,44.1,-121.2,21.0,-5.0,10,8,15,10.0,29.949802,,,TRUE,TRUE,,,,,,,CLR,,,,,,,,VFR,,,,,,,,,,,,METAR,1044.0
KBDH 242215Z AUTO 09013G21KT 10SM CLR 26/12 A3015 RMK AO2,KBDH,2023-05-24T22:15:00Z,45.12,-95.13,26.0,12.0,90,13,21,10.0,30.15059,,,TRUE,TRUE,,,,,,,CLR,,,,,,,,VFR,,,,,,,,,,,,SPECI,341.0
KBDG 242215Z AUTO 20010G23KT 10SM 26/M06 A3006 RMK AO1 T02591057,KBDG,2023-05-24T22:15:00Z,37.58,-109.47,25.9,-5.7,200,10,23,10.0,30.059055,,,TRUE,TRUE,,,,,,,,,,,,,,,,,,,,,,,,,,,METAR,1778.0
KBCK 242215Z AUTO 07010G18KT 10SM CLR 21/04 A3024 RMK AO2 T02080043,KBCK,2023-05-24T22:15:00Z,44.25,-90.85,20.8,4.3,70,10,18,10.0,30.239174,,,TRUE,TRUE,,,,,,,CLR,,,,,,,,VFR,,,,,,,,,,,,SPECI,256.0
KBCB 242215Z AUTO 10006KT 10SM CLR 23/09 A3005 RMK AO2 T02270087,KBCB,2023-05-24T22:15:00Z,37.22,-80.42,22.7,8.7,100,6,,10.0,30.050198,,,TRUE,TRUE,,,,,,,CLR,,,,,,,,VFR,,,,,,,,,,,,METAR,642.0
KBBP 242215Z AUTO 02010KT 10SM CLR 25/03 A2992 RMK AO2,KBBP,2023-05-24T22:15:00Z,34.62,-79.73,25.0,3.0,20,10,,10.0,29.920275,,,TRUE,TRUE,,,,,,,CLR,,,,,,,,VFR,,,,,,,,,,,,SPECI,44.0
KBBD 242215Z AUTO 06005KT 10SM CLR 23/16 A2994 RMK AO2,KBBD,2023-05-24T22:15:00Z,31.18,-99.32,23.0,16.0,60,5,,10.0,29.940945,,,TRUE,TRUE,,,,,,,CLR,,,,,,,,VFR,,,,,,,,,,,,METAR,554.0
KBAX 242215Z AUTO 04012G25KT 10SM CLR 10/02 A3031 RMK AO2 T00990021,KBAX,2023-05-24T22:15:00Z,43.78,-82.98,9.9,2.1,40,12,25,10.0,30.31004,,,TRUE,TRUE,,,,,,,CLR,,,,,,,,VFR,,,,,,,,,,,,SPECI,229.0
KBAM 242215Z AUTO 08008KT 10SM SCT080 SCT110 20/05 A2991 RMK AO1,KBAM,2023-05-24T22:15:00Z,40.6,-116.87,20.0,5.0,80,8,,10.0,29.911417,,,TRUE,TRUE,,,,,,,SCT,8000,SCT,11000,,,,,VFR,,,,,,,,,,,,METAR,1381.0
KBAC 242215Z AUTO 10019KT 9SM CLR 25/13 A3007 RMK AO2,KBAC,2023-05-24T22:15:00Z,46.93,-98.02,25.0,13.0,100,19,,9.0,30.070866,,,TRUE,TRUE,,,,,,,CLR,,,,,,,,VFR,,,,,,,,,,,,SPECI,423.0
KAZE 242215Z AUTO 04005KT 10SM CLR 27/10 A2989 RMK AO2 T02650095,KAZE,2023-05-24T22:15:00Z,31.88,-82.65,26.5,9.5,40,5,,10.0,29.890747,,,TRUE,TRUE,,,,,,,CLR,,,,,,,,VFR,,,,,,,,,,,,SPECI,78.0
KAZC 242215Z AUTO 21007G21KT 140V230 10SM CLR 28/M01 A2996 RMK AO2,KAZC,2023-05-24T22:15:00Z,36.97,-113.02,28.0,-1.0,210,7,21,10.0,29.958662,,,TRUE,TRUE,,,,,,,CLR,,,,,,,,VFR,,,,,,,,,,,,METAR,1476.0
KAYS 242215Z AUTO 06006KT 10SM SCT050 27/14 A2988 RMK AO2 T02700139,KAYS,2023-05-24T22:15:00Z,31.25,-82.4,27.0,13.9,60,6,,10.0,29.878937,,,TRUE,TRUE,,,,,,,SCT,5000,,,,,,,VFR,,,,,,,,,,,,SPECI,42.0
KAXX 242215Z AUTO 20006G14KT 10SM SCT090 SCT110 19/01 A3019 RMK AO2 T01850014,KAXX,2023-05-24T22:15:00Z,36.42,-105.28,18.5,1.4,200,6,14,10.0,30.188976,,,TRUE,TRUE,,,,,,,SCT,9000,SCT,11000,,,,,VFR,,,,,,,,,,,,METAR,2543.0
KAXV 242215Z AUTO 03014G21KT 10SM CLR 21/11 A3010 RMK AO2,KAXV,2023-05-24T22:15:00Z,40.5,-84.3,21.0,11.0,30,14,21,10.0,30.100393,,,TRUE,TRUE,,,,,,,CLR,,,,,,,,VFR,,,,,,,,,,,,SPECI,278.0
KAXS 242215Z AUTO 13009KT 4SM HZ CLR 29/14 A2996 RMK AO2 T02930144,KAXS,2023-05-24T22:15:00Z,34.7,-99.33,29.3,14.4,130,9,,4.0,29.958662,,,TRUE,TRUE,,,,,,HZ,CLR,,,,,,,,MVFR,,,,,,,,,,,,SPECI,433.0
KAXH 242215Z AUTO 13003KT 10SM BKN055 BKN075 30/21 A2988 RMK AO2 T02960205,KAXH,2023-05-24T22:15:00Z,29.52,-95.48,29.6,20.5,130,3,,10.0,29.878937,,,TRUE,TRUE,,,,,,,BKN,5500,BKN,7500,,,,,VFR,,,,,,,,,,,,METAR,18.0
KAXA 242215Z AUTO 13009KT 10SM CLR 29/07 A3006 RMK A01,KAXA,2023-05-24T22:15:00Z,43.07,-94.27,29.0,7.0,130,9,,10.0,30.059055,,,TRUE,TRUE,,,,,,,CLR,,,,,,,,VFR,,,,,,,,,,,,METAR,371.0
KAWG 242215Z AUTO 14010KT 10SM CLR 30/05 A3005 RMK AO2,KAWG,2023-05-24T22:15:00Z,41.27,-91.67,30.0,5.0,140,10,,10.0,30.050198,,,TRUE,TRUE,,,,,,,CLR,,,,,,,,VFR,,,,,,,,,,,,METAR,229.0
KAVQ 242215Z AUTO 19005G17KT 10SM 36/M04 A2980 RMK AO2 T03551036,KAVQ,2023-05-24T22:15:00Z,32.4,-111.22,35.5,-3.6,190,5,17,10.0,29.799213,,,TRUE,TRUE,,,,,,,,,,,,,,,,,,,,,,,,,,,METAR,618.0
KAVC 242215Z AUTO 03004KT 10SM CLR 24/06 A3004 RMK AO2 T02350059,KAVC,2023-05-24T22:15:00Z,36.68,-78.05,23.5,5.9,30,4,,10.0,30.041338,,,TRUE,TRUE,,,,,,,CLR,,,,,,,,VFR,,,,,,,,,,,,SPECI,119.0
KAUN 242215Z AUTO VRB06G11KT 9SM CLR 22/11 A2986 RMK A01,KAUN,2023-05-24T22:15:00Z,38.95,-121.08,22.0,11.0,0,6,11,9.0,29.861221,,,TRUE,TRUE,,,,,,,CLR,,,,,,,,VFR,,,,,,,,,,,,METAR,453.0
KAUH 242215Z AUTO 16008KT 10SM SCT065 SCT090 29/10 A3003 RMK AO2 T02880103,KAUH,2023-05-24T22:15:00Z,40.88,-98.0,28.8,10.3,160,8,,10.0,30.029528,,,TRUE,TRUE,,,,,,,SCT,6500,SCT,9000,,,,,VFR,,,,,,,,,,,,METAR,549.0
KATS 242215Z AUTO 15014G21KT 10SM CLR 33/10 A2990 RMK AO2,KATS,2023-05-24T22:15:00Z,32.85,-104.47,33.0,10.0,150,14,21,10.0,29.899607,,,TRUE,TRUE,,,,,,,CLR,,,,,,,,VFR,,,,,,,,,,,,SPECI,1073.0
KATA 242215Z AUTO 05008KT 10SM SCT038 26/18 A2994 RMK AO2 SLP037 T02640179 $,KATA,2023-05-24T22:15:00Z,33.1,-94.2,26.4,17.9,50,8,,10.0,29.940945,1003.7,,TRUE,TRUE,TRUE,,,,,,SCT,3800,,,,,,,VFR,,,,,,,,,,,,METAR,85.0
KASW 242215Z AUTO 06013G16KT 10SM CLR 23/11 A3012 RMK AO2 T02410113,KASW,2023-05-24T22:15:00Z,41.27,-85.83,23.0,11.3,60,13,16,10.0,30.121063,,,TRUE,TRUE,,,,,,,CLR,,,,,,,,VFR,,,,,,,,,,,,METAR,253.0
KASN 242215Z AUTO 36006KT 10SM CLR 26/14 A2996 RMK AO2 T02570144,KASN,2023-05-24T22:15:00Z,33.57,-86.05,25.7,14.4,360,6,,10.0,29.958662,,,TRUE,TRUE,,,,,,,CLR,,,,,,,,VFR,,,,,,,,,,,,SPECI,159.0
KASL 242215Z AUTO 02007KT 350V060 10SM CLR 27/18 A2992 RMK AO2 T02710183 $,KASL,2023-05-24T22:15:00Z,32.52,-94.3,27.1,18.3,20,7,,10.0,29.920275,,,TRUE,TRUE,TRUE,,,,,,CLR,,,,,,,,VFR,,,,,,,,,,,,METAR,104.0
KARW 242215Z AUTO 03004KT 10SM CLR 25/12 A2989 RMK AO2,KARW,2023-05-24T22:15:00Z,32.42,-80.63,25.0,12.0,30,4,,10.0,29.890747,,,TRUE,TRUE,,,,,,,CLR,,,,,,,,VFR,,,,,,,,,,,,SPECI,2.0
KARV 242215Z AUTO 09005KT 10SM SCT080 17/M02 A3032 RMK AO2 T01661020,KARV,2023-05-24T22:15:00Z,45.92,-89.72,16.6,-2.0,90,5,,10.0,30.318897,,,TRUE,TRUE,,,,,,,SCT,8000,,,,,,,VFR,,,,,,,,,,,,METAR,494.0
KARM 242215Z AUTO 34003KT 10SM SCT055 31/18 A2988 RMK AO2 T03050179 TSNO,KARM,2023-05-24T22:15:00Z,29.25,-96.15,30.5,17.9,340,3,,10.0,29.878937,,,TRUE,TRUE,,,TRUE,,,,SCT,5500,,,,,,,VFR,,,,,,,,,,,,METAR,29.0
KAQX 242215Z AUTO 00000KT 10SM CLR 25/06 A2991 RMK AO2,KAQX,2023-05-24T22:15:00Z,32.98,-81.27,25.0,6.0,0,0,,10.0,29.911417,,,TRUE,TRUE,,,,,,,CLR,,,,,,,,VFR,,,,,,,,,,,,SPECI,48.0
KAQO 242215Z AUTO 06011KT 10SM CLR 24/18 A2991 RMK AO2,KAQO,2023-05-24T22:15:00Z,30.78,-98.67,24.0,18.0,60,11,,10.0,29.911417,,,TRUE,TRUE,,,,,,,CLR,,,,,,,,VFR,,,,,,,,,,,,METAR,334.0
KAPY 242215Z AUTO 09008G14KT 10SM BKN080 BKN090 38/16 A2982 RMK AO2 T03760155 TSNO,KAPY,2023-05-24T22:15:00Z,26.97,-99.25,37.6,15.5,90,8,14,10.0,29.819881,,,TRUE,TRUE,,,TRUE,,,,BKN,8000,BKN,9000,,,,,VFR,,,,,,,,,,,,METAR,129.0
KANW 242215Z AUTO 17013G21KT 10SM SCT100 25/13 A3003 RMK AO2 T02520125,KANW,2023-05-24T22:15:00Z,42.57,-100.0,25.2,12.5,170,13,21,10.0,30.029528,,,TRUE,TRUE,,,,,,,SCT,10000,,,,,,,VFR,,,,,,,,,,,,METAR,788.0
KANQ 242215Z AUTO 04007G23KT 340V090 10SM CLR 21/09 A3015 RMK AO2,KANQ,2023-05-24T22:15:00Z,41.63,-85.08,21.0,9.0,40,7,23,10.0,30.15059,,,TRUE,TRUE,,,,,,,CLR,,,,,,,,VFR,,,,,,,,,,,,SPECI,299.0
KAMN 242215Z AUTO 05013G18KT 10SM CLR 15/03 A3028 RMK AO2 T01510025,KAMN,2023-05-24T22:15:00Z,43.32,-84.68,15.1,2.5,50,13,18,10.0,30.280512,,,TRUE,TRUE,,,,,,,CLR,,,,,,,,VFR,,,,,,,,,,,,SPECI,228.0
KALX 242215Z AUTO 00000KT 10SM SCT065 24/19 A2995 RMK AO2 T02360186,KALX,2023-05-24T22:15:00Z,32.92,-85.97,23.6,18.6,0,0,,10.0,29.949802,,,TRUE,TRUE,,,,,,,SCT,6500,,,,,,,VFR,,,,,,,,,,,,METAR,198.0
KALM 242215Z AUTO 22009G20KT 10SM CLR 33/M07 A2992 RMK AO2,KALM,2023-05-24T22:15:00Z,32.83,-105.98,33.0,-7.0,220,9,20,10.0,29.920275,,,TRUE,TRUE,,,,,,,CLR,,,,,,,,VFR,,,,,,,,,,,,METAR,1267.0
KAJZ 242215Z AUTO 16008KT 10SM CLR 29/00 A2992 RMK AO2 LTG DSNT NE T02870000 PWINO,KAJZ,2023-05-24T22:15:00Z,38.78,-108.07,28.7,0.0,160,8,,10.0,29.920275,,,TRUE,TRUE,,,,,TRUE,,CLR,,,,,,,,VFR,,,,,,,,,,,,METAR,1583.0
KAJR 242215Z AUTO 14004KT 7SM BKN075 24/12 A2997 RMK AO2 T02350121,KAJR,2023-05-24T22:15:00Z,34.5,-83.55,23.5,12.1,140,4,,7.0,29.970472,,,TRUE,TRUE,,,,,,,BKN,7500,,,,,,,VFR,,,,,,,,,,,,METAR,441.0
KAJG 242215Z AUTO 03007KT 10SM CLR 30/09 A3001 RMK AO2 T02950086,KAJG,2023-05-24T22:15:00Z,38.62,-87.73,29.5,8.6,30,7,,10.0,30.008858,,,TRUE,TRUE,,,,,,,CLR,,,,,,,,VFR,,,,,,,,,,,,METAR,130.0
KAIT 242215Z AUTO 07010G14KT 10SM CLR 08/04 A3029 RMK AO2,KAIT,2023-05-24T22:15:00Z,46.53,-93.67,8.0,4.0,70,10,14,10.0,30.28937,,,TRUE,TRUE,,,,,,,CLR,,,,,,,,VFR,,,,,,,,,,,,SPECI,367.0
KAIO 242215Z AUTO 10011KT 10SM FEW070 FEW090 29/14 A3003 RMK AO2,KAIO,2023-05-24T22:15:00Z,41.4,-95.03,29.0,14.0,100,11,,10.0,30.029528,,,TRUE,TRUE,,,,,,,FEW,7000,FEW,9000,,,,,VFR,,,,,,,,,,,,SPECI,349.0
KAIK 242215Z AUTO 03012KT 10SM CLR 25/05 A2994 RMK AO2 T02480052,KAIK,2023-05-24T22:15:00Z,33.65,-81.68,24.8,5.2,30,12,,10.0,29.940945,,,TRUE,TRUE,,,,,,,CLR,,,,,,,,VFR,,,,,,,,,,,,SPECI,155.0
KAIG 242215Z AUTO 07010KT 10SM CLR 17/M01 A3031 RMK AO2 T01711006,KAIG,2023-05-24T22:15:00Z,45.15,-89.12,17.1,-0.6,70,10,,10.0,30.31004,,,TRUE,TRUE,,,,,,,CLR,,,,,,,,VFR,,,,,,,,,,,,SPECI,462.0
KAHQ 242215Z AUTO 13013KT 10SM 30/07 A3002 RMK AO2 T02950069,KAHQ,2023-05-24T22:15:00Z,41.23,-96.6,29.5,6.9,130,13,,10.0,30.02067,,,TRUE,TRUE,,,,,,,,,,,,,,,,,,,,,,,,,,,SPECI,372.0
KAGO 242215Z AUTO VRB05KT 10SM CLR 26/18 A2995 RMK A01,KAGO,2023-05-24T22:15:00Z,33.23,-93.22,26.0,18.0,0,5,,10.0,29.949802,,,TRUE,TRUE,,,,,,,CLR,,,,,,,,VFR,,,,,,,,,,,,SPECI,91.0
KAGI 242215Z AUTO 02006KT 10SM CLR 31/21 A2985 RMK AO2 T03110207,KAGI,2023-05-24T22:15:00Z,27.55,-92.45,31.1,20.7,20,6,,10.0,29.84941,,,TRUE,TRUE,,,,,,,CLR,,,,,,,,VFR,,,,,,,,,,,,SPECI,41.0
KAFO 242215Z AUTO 00000KT 10SM SCT100 20/04 A2996 RMK AO2,KAFO,2023-05-24T22:15:00Z,42.72,-110.95,20.0,4.0,0,0,,10.0,29.958662,,,TRUE,TRUE,,,,,,,SCT,10000,,,,,,,VFR,,,,,,,,,,,,METAR,1881.0
KAFK 242215Z AUTO 15010KT 10SM SCT080 29/11 A3002 RMK AO2 T02870105,KAFK,2023-05-24T22:15:00Z,40.6,-95.85,28.7,10.5,150,10,,10.0,30.02067,,,TRUE,TRUE,,,,,,,SCT,8000,,,,,,,VFR,,,,,,,,,,,,SPECI,353.0
KAEL 242215Z AUTO 08011KT 10SM SCT090 28/08 A3012 RMK AO2,KAEL,2023-05-24T22:15:00Z,43.68,-93.37,28.0,8.0,80,11,,10.0,30.121063,,,TRUE,TRUE,,,,,,,SCT,9000,,,,,,,VFR,,,,,,,,,,,,METAR,382.0
KAEJ 242215Z AUTO 26024G33KT 10SM SCT070 OVC110 13/02 A3019 RMK AO2 T01340021,KAEJ,2023-05-24T22:15:00Z,38.82,-106.12,13.4,2.1,260,24,33,10.0,30.188976,,,TRUE,TRUE,,,,,,,SCT,7000,OVC,11000,,,,,VFR,,,,,,,,,,,,METAR,2420.0
KADU 242215Z AUTO 13007KT 10SM BKN001 BKN016 OVC075 28/10 A3006 RMK AO2,KADU,2023-05-24T22:15:00Z,41.7,-94.92,28.0,10.0,130,7,,10.0,30.059055,,,TRUE,TRUE,,,,,,,BKN,100,BKN,1600,OVC,7500,,,LIFR,,,,,,,,,,,,SPECI,391.0
KADT 242215Z AUTO 15011KT 10SM SCT046 SCT060 SCT075 26/12 A3006 RMK AO2 T02570123,KADT,2023-05-24T22:15:00Z,39.83,-101.05,25.7,12.3,150,11,,10.0,30.059055,,,TRUE,TRUE,,,,,,,SCT,4600,SCT,6000,SCT,7500,,,VFR,,,,,,,,,,,,SPECI,899.0
KADH 242215Z AUTO 09008KT 10SM CLR 25/19 A3000 RMK AO2 LTG DSNT NE,KADH,2023-05-24T22:15:00Z,34.8,-96.67,25.0,19.0,90,8,,10.0,30.0,,,TRUE,TRUE,,,,,,,CLR,,,,,,,,VFR,,,,,,,,,,,,SPECI,301.0
KADC 242215Z AUTO 12015G18KT 10SM CLR 16/07 A3020 RMK AO2 PWI,KADC,2023-05-24T22:15:00Z,46.45,-95.22,16.0,7.0,120,15,18,10.0,30.200787,,,TRUE,TRUE,,,,,,,CLR,,,,,,,,VFR,,,,,,,,,,,,METAR,416.0
KACQ 242215Z AUTO 08012G17KT 10SM 26/11 A3013 RMK AO2,KACQ,2023-05-24T22:15:00Z,44.07,-93.55,26.0,11.0,80,12,17,10.0,30.129921,,,TRUE,TRUE,,,,,,,,,,,,,,,,,,,,,,,,,,,SPECI,339.0
KACP 242215Z AUTO 00000KT 10SM CLR 27/18 A2988 RMK AO2,KACP,2023-05-24T22:15:00Z,30.75,-92.68,27.0,18.0,0,0,,10.0,29.878937,,,TRUE,TRUE,,,,,,,CLR,,,,,,,,VFR,,,,,,,,,,,,SPECI,31.0
KACJ 242215Z AUTO 01007KT 10SM CLR 24/16 A2992 RMK AO2 T02440161,KACJ,2023-05-24T22:15:00Z,32.12,-84.18,24.4,16.1,10,7,,10.0,29.920275,,,TRUE,TRUE,,,,,,,CLR,,,,,,,,VFR,,,,,,,,,,,,SPECI,140.0
KACB 242215Z AUTO 02005G16KT 10SM CLR 16/M06 A3032 RMK AO2 T01611064,KACB,2023-05-24T22:15:00Z,44.98,-85.2,16.1,-6.4,20,5,16,10.0,30.318897,,,TRUE,TRUE,,,,,,,CLR,,,,,,,,VFR,,,,,,,,,,,,SPECI,189.0
KAAS 242215Z AUTO 06008KT 10SM SCT070 26/11 A3006 RMK AO1,KAAS,2023-05-24T22:15:00Z,37.35,-85.32,26.0,11.0,60,8,,10.0,30.059055,,,TRUE,TRUE,,,,,,,SCT,7000,,,,,,,VFR,,,,,,,,,,,,SPECI,270.0
KAAA 242215Z AUTO 05009G17KT 10SM 30/10 A3004 RMK AO2 T03010101,KAAA,2023-05-24T22:15:00Z,40.17,-89.33,30.1,10.1,50,9,17,10.0,30.041338,,,TRUE,TRUE,,,,,,,,,,,,,,,,,,,,,,,,,,,SPECI,179.0
KA39 242215Z AUTO 18007KT 130V190 10SM SCT100 SCT120 36/M01 A2980 RMK AO2,KA39,2023-05-24T22:15:00Z,32.98,-111.92,36.0,-1.0,180,7,,10.0,29.799213,,,TRUE,TRUE,,,,,,,SCT,10000,SCT,12000,,,,,VFR,,,,,,,,,,,,SPECI,391.0
K9V9 242215Z AUTO 15014KT 10SM CLR 28/10 A3000 RMK AO2 T02790103,K9V9,2023-05-24T22:15:00Z,43.77,-99.32,27.9,10.3,150,14,,10.0,30.0,,,TRUE,TRUE,,,,,,,CLR,,,,,,,,VFR,,,,,,,,,,,,METAR,511.0
K9S9 242215Z AUTO 00000G11KT 10SM CLR 22/02 A2997 RMK AO2 PWINO,K9S9,2023-05-24T22:15:00Z,45.45,-119.68,22.0,2.0,0,0,11,10.0,29.970472,,,TRUE,TRUE,,,,,TRUE,,CLR,,,,,,,,VFR,,,,,,,,,,,,METAR,498.0
K9MN 242215Z AUTO 06009G15KT 030V090 10SM CLR 24/10 A3018 RMK AO1 T02420101,K9MN,2023-05-24T22:15:00Z,44.02,-92.48,24.2,10.1,60,9,15,10.0,30.180119,,,TRUE,TRUE,,,,,,,CLR,,,,,,,,VFR,,,,,,,,,,,,METAR,308.0
K9D7 242215Z AUTO 14025KT 10SM CLR 25/13 A3006 RMK AO2 TSNO,K9D7,2023-05-24T22:15:00Z,48.48,-99.23,25.0,13.0,140,25,,10.0,30.059055,,,TRUE,TRUE,,,TRUE,,,,CLR,,,,,,,,VFR,,,,,,,,,,,,SPECI,451.0
K9A5 242215Z AUTO 06005KT 10SM BKN060 25/12 A2996 RMK AO2 T02490122,K9A5,2023-05-24T22:15:00Z,34.68,-85.28,24.9,12.2,60,5,,10.0,29.958662,,,TRUE,TRUE,,,,,,,BKN,6000,,,,,,,VFR,,,,,,,,,,,,SPECI,234.0
K96D 242215Z AUTO 12021G27KT 9SM CLR 17/08 A3013 RMK AO2,K96D,2023-05-24T22:15:00Z,48.93,-97.9,17.0,8.0,120,21,27,9.0,30.129921,,,TRUE,TRUE,,,,,,,CLR,,,,,,,,VFR,,,,,,,,,,,,SPECI,290.0
K8W2 242215Z AUTO 00000KT 10SM CLR 25/08 A2997 RMK AO1 T02530084,K8W2,2023-05-24T22:15:00Z,38.65,-78.7,25.3,8.4,0,0,,10.0,29.970472,,,TRUE,TRUE,,,,,,,CLR,,,,,,,,VFR,,,,,,,,,,,,SPECI,295.0
K8T6 242215Z AUTO 00000KT 10SM SCT060 33/20 A2984 RMK AO2,K8T6,2023-05-24T22:15:00Z,28.37,-98.12,33.0,20.0,0,0,,10.0,29.840551,,,TRUE,TRUE,,,,,,,SCT,6000,,,,,,,VFR,,,,,,,,,,,,METAR,39.0
K8A3 242215Z AUTO 03008KT 10SM CLR 24/08 A3000 RMK A01,K8A3,2023-05-24T22:15:00Z,36.42,-85.32,24.0,8.0,30,8,,10.0,30.0,,,TRUE,TRUE,,,,,,,CLR,,,,,,,,VFR,,,,,,,,,,,,METAR,413.0
K8A0 242215Z AUTO 01007KT 10SM CLR 25/13 A2996 RMK AO2,K8A0,2023-05-24T22:15:00Z,34.23,-86.25,25.0,13.0,10,7,,10.0,29.958662,,,TRUE,TRUE,,,,,,,CLR,,,,,,,,VFR,,,,,,,,,,,,METAR,313.0
K82V 242215Z AUTO 16010KT 10SM VCTS 20/11 A3001 RMK AO2 LTG DSNT S AND SW,K82V,2023-05-24T22:15:00Z,41.15,-104.13,20.0,11.0,160,10,,10.0,30.008858,,,TRUE,TRUE,,,,,,VCTS,,,,,,,,,,,,,,,,,,,,,SPECI,1563.0
K82C 242215Z AUTO 09008KT 10SM CLR 19/03 A3025 RMK AO2 T01920030,K82C,2023-05-24T22:15:00Z,43.83,-90.13,19.2,3.0,90,8,,10.0,30.250984,,,TRUE,TRUE,,,,,,,CLR,,,,,,,,VFR,,,,,,,,,,,,METAR,273.0
K81R 242215Z AUTO 08006KT 10SM CLR 25/18 A2994 RMK AO2 T02490178,K81R,2023-05-24T22:15:00Z,31.23,-98.72,24.9,17.8,80,6,,10.0,29.940945,,,TRUE,TRUE,,,,,,,CLR,,,,,,,,VFR,,,,,,,,,,,,METAR,381.0
K7W4 242215Z AUTO 10SM CLR 24/09 A2999 RMK AO1 T02410090,K7W4,2023-05-24T22:15:00Z,37.97,-77.75,24.1,9.0,,,,10.0,29.991142,,,TRUE,TRUE,,,,,,,CLR,,,,,,,,VFR,,,,,,,,,,,,SPECI,115.0
K7L2 242215Z AUTO 15013G20KT 10SM BKN075 BKN085 28/12 A2998 RMK AO2,K7L2,2023-05-24T22:15:00Z,46.22,-100.25,28.0,12.0,150,13,20,10.0,29.97933,,,TRUE,TRUE,,,,,,,BKN,7500,BKN,8500,,,,,VFR,,,,,,,,,,,,SPECI,541.0
K7BM 242215Z AUTO 26028G38KT 10SM -RA BKN095 BKN120 08/01 A3028 RMK AO2 LTG DSNT W THRU E,K7BM,2023-05-24T22:15:00Z,38.78,-106.22,8.0,1.0,260,28,38,10.0,30.280512,,,TRUE,TRUE,,,,,,-RA,BKN,9500,BKN,12000,,,,,VFR,,,,,,,,,,,,METAR,2996.0
K77S 242215Z AUTO 30009G15KT 10SM CLR 21/10 A2997 RMK A01,K77S,2023-05-24T22:15:00Z,43.93,-123.0,21.0,10.0,300,9,15,10.0,29.970472,,,TRUE,TRUE,,,,,,,CLR,,,,,,,,VFR,,,,,,,,,,,,SPECI,161.0
K6S2 242215Z AUTO 34021G29KT 10SM CLR 15/11 A3001 RMK AO2,K6S2,2023-05-24T22:15:00Z,43.98,-124.12,15.0,11.0,340,21,29,10.0,30.008858,,,TRUE,TRUE,,,,,,,CLR,,,,,,,,VFR,,,,,,,,,,,,SPECI,16.0
K6S0 242215Z AUTO VRB04KT 10SM FEW120 22/08 A2989 RMK A01,K6S0,2023-05-24T22:15:00Z,45.8,-109.97,22.0,8.0,0,4,,10.0,29.890747,,,TRUE,TRUE,,,,,,,FEW,12000,,,,,,,VFR,,,,,,,,,,,,METAR,1364.0
K6R3 242215Z AUTO 32005KT 10SM CLR 28/21 A2990 RMK AO2 T02800214,K6R3,2023-05-24T22:15:00Z,30.35,-95.0,28.0,21.4,320,5,,10.0,29.899607,,,TRUE,TRUE,,,,,,,CLR,,,,,,,,VFR,,,,,,,,,,,,SPECI,44.0
K6P9 242215Z AUTO 09005KT 10SM SCT039 26/18 A2995 RMK AO2 T02610176,K6P9,2023-05-24T22:15:00Z,32.43,-98.6,26.1,17.6,90,5,,10.0,29.949802,,,TRUE,TRUE,,,,,,,SCT,3900,,,,,,,VFR,,,,,,,,,,,,METAR,451.0
K6L4 242215Z AUTO 03006KT 10SM CLR 24/07 A3004 RMK AO2,K6L4,2023-05-24T22:15:00Z,37.85,-81.92,24.0,7.0,30,6,,10.0,30.041338,,,TRUE,TRUE,,,,,,,CLR,,,,,,,,VFR,,,,,,,,,,,,METAR,504.0
K6I2 242215Z AUTO 04006KT 10SM FEW070 SCT085 28/11 A3002 RMK AO2,K6I2,2023-05-24T22:15:00Z,37.63,-85.25,28.0,11.0,40,6,,10.0,30.02067,,,TRUE,TRUE,,,,,,,FEW,7000,SCT,8500,,,,,VFR,,,,,,,,,,,,SPECI,258.0
K6B9 242215Z AUTO VRB05KT 10SM BKN008 OVC014 09/09 A3015 RMK AO2,K6B9,2023-05-24T22:15:00Z,42.92,-76.43,9.0,9.0,0,5,,10.0,30.15059,,,TRUE,TRUE,,,,,,,BKN,800,OVC,1400,,,,,IFR,,,,,,,,,,,,SPECI,306.0
K6B0 242215Z AUTO 35012G18KT 10SM -DZ BKN005 OVC009 08/08 A3009 RMK AO2 T00750075 P0001,K6B0,2023-05-24T22:15:00Z,43.98,-73.1,7.5,7.5,350,12,18,10.0,30.088583,,,TRUE,TRUE,,,,,,-DZ,BKN,500,OVC,900,,,,,IFR,,,,,,0.01,,,,,,SPECI,149.0
K6A2 242215Z AUTO 06004KT 10SM SCT055 24/11 A2996 RMK AO2,K6A2,2023-05-24T22:15:00Z,33.23,-84.27,24.0,11.0,60,4,,10.0,29.958662,,,TRUE,TRUE,,,,,,,SCT,5500,,,,,,,VFR,,,,,,,,,,,,SPECI,290.0
K6A1 242215Z AUTO 02007KT 360V070 10SM CLR 25/12 A2994 RMK AO2 T02540115,K6A1,2023-05-24T22:15:00Z,32.57,-84.25,25.4,11.5,20,7,,10.0,29.940945,,,TRUE,TRUE,,,,,,,CLR,,,,,,,,VFR,,,,,,,,,,,,METAR,198.0
K66R 242215Z AUTO 05004KT 10SM BKN041 BKN050 BKN080 28/20 A2990 RMK AO2 T02800198,K66R,2023-05-24T22:15:00Z,29.65,-96.52,28.0,19.8,50,4,,10.0,29.899607,,,TRUE,TRUE,,,,,,,BKN,4100,BKN,5000,BKN,8000,,,VFR,,,,,,,,,,,,METAR,70.0
K65S 242215Z AUTO 00000KT 10SM CLR 21/05 A2989 RMK AO2,K65S,2023-05-24T22:15:00Z,48.73,-116.3,21.0,5.0,0,0,,10.0,29.890747,,,TRUE,TRUE,,,,,,,CLR,,,,,,,,VFR,,,,,,,,,,,,METAR,708.0
K63S 242215Z AUTO 23004KT 10SM FEW048 FEW060 SCT070 18/04 A2995 RMK A01,K63S,2023-05-24T22:15:00Z,48.53,-117.88,18.0,4.0,230,4,,10.0,29.949802,,,TRUE,TRUE,,,,,,,FEW,4800,FEW,6000,SCT,7000,,,VFR,,,,,,,,,,,,METAR,571.0
K5T9 242215Z AUTO 10012KT 10SM CLR 30/20 A2984 RMK A01,K5T9,2023-05-24T22:15:00Z,28.85,-100.52,30.0,20.0,100,12,,10.0,29.840551,,,TRUE,TRUE,,,,,,,CLR,,,,,,,,VFR,,,,,,,,,,,,METAR,269.0
K5SM 242215Z AUTO 20003KT 10SM TS SCT070 SCT080 BKN095 08/M01 A3033 RMK AO2 LTG DSNT N E AND S,K5SM,2023-05-24T22:15:00Z,39.43,-107.38,8.0,-1.0,200,3,,10.0,30.33071,,,TRUE,TRUE,,,,,,TS,SCT,7000,SCT,8000,BKN,9500,,,VFR,,,,,,,,,,,,METAR,3229.0
K5H4 242215Z AUTO 14020KT 9SM CLR 28/14 A3000 RMK AO2,K5H4,2023-05-24T22:15:00Z,47.78,-99.93,28.0,14.0,140,20,,9.0,30.0,,,TRUE,TRUE,,,,,,,CLR,,,,,,,,VFR,,,,,,,,,,,,METAR,490.0
K5C1 242215Z AUTO 05009G15KT 10SM CLR 27/17 A2994 RMK AO1,K5C1,2023-05-24T22:15:00Z,29.72,-98.7,27.0,17.0,50,9,15,10.0,29.940945,,,TRUE,TRUE,,,,,,,CLR,,,,,,,,VFR,,,,,,,,,,,,SPECI,422.0
K5A6 242215Z AUTO 06007KT 10SM 26/16 A2995 RMK AO2 T02600157,K5A6,2023-05-24T22:15:00Z,33.47,-89.73,26.0,15.7,60,7,,10.0,29.949802,,,TRUE,TRUE,,,,,,,,,,,,,,,,,,,,,,,,,,,METAR,109.0
K57C 242215Z AUTO 08009G15KT CLR 16/05 A3024 RMK AO2 T01580054 PWINO,K57C,2023-05-24T22:15:00Z,42.8,-88.37,15.8,5.4,80,9,15,,30.239174,,,TRUE,TRUE,,,,,TRUE,,CLR,,,,,,,,,,,,,,,,,,,,SPECI,454.0
K54J 242215Z AUTO 03012G16KT 10SM BKN027 BKN040 OVC055 26/19 A2987 RMK AO2 LTG DSNT SW T02550189,K54J,2023-05-24T22:15:00Z,30.73,-86.15,25.5,18.9,30,12,16,10.0,29.870079,,,TRUE,TRUE,,,,,,,BKN,2700,BKN,4000,OVC,5500,,,MVFR,,,,,,,,,,,,SPECI,87.0
K54A 242215Z AUTO 05015KT 10SM FEW033 FEW042 FEW055 27/21 A2977 RMK AO2 LTG DSNT ALQDS,K54A,2023-05-24T22:15:00Z,26.85,-82.25,27.0,21.0,50,15,,10.0,29.769686,,,TRUE,TRUE,,,,,,,FEW,3300,FEW,4200,FEW,5500,,,VFR,,,,,,,,,,,,METAR,2.0
K4V1 242215Z AUTO 13012KT 10SM CLR 20/10 A3003 RMK AO2 T01990096,K4V1,2023-05-24T22:15:00Z,37.7,-104.78,19.9,9.6,130,12,,10.0,30.029528,,,TRUE,TRUE,,,,,,,CLR,,,,,,,,VFR,,,,,,,,,,,,METAR,1847.0
K4V0 242215Z AUTO 00000KT 10SM CLR 23/07 A2993 RMK AO2 T02270065,K4V0,2023-05-24T22:15:00Z,40.1,-108.77,22.7,6.5,0,0,,10.0,29.929134,,,TRUE,TRUE,,,,,,,CLR,,,,,,,,VFR,,,,,,,,,,,,METAR,1602.0
K4S2 242215Z AUTO 32009KT 10SM CLR 24/05 A2992 RMK AO2,K4S2,2023-05-24T22:15:00Z,45.68,-121.55,24.0,5.0,320,9,,10.0,29.920275,,,TRUE,TRUE,,,,,,,CLR,,,,,,,,VFR,,,,,,,,,,,,METAR,183.0
K4S1 242215Z AUTO 36015G25KT CLR 14/08 A2994 RMK AO2 PWINO,K4S1,2023-05-24T22:15:00Z,42.42,-124.42,14.0,8.0,360,15,25,,29.940945,,,TRUE,TRUE,,,,,TRUE,,CLR,,,,,,,,,,,,,,,,,,,,METAR,7.0
K4R5 242215Z AUTO 03005KT 10SM BKN085 08/00 A3038 RMK AO2 T00750000,K4R5,2023-05-24T22:15:00Z,46.78,-90.77,7.5,0.0,30,5,,10.0,30.380905,,,TRUE,TRUE,,,,,,,BKN,8500,,,,,,,VFR,,,,,,,,,,,,METAR,195.0
K4O4 242215Z AUTO 08009KT 7SM CLR 27/16 A2997 RMK AO2,K4O4,2023-05-24T22:15:00Z,33.92,-94.87,27.0,16.0,80,9,,7.0,29.970472,,,TRUE,TRUE,,,,,,,CLR,,,,,,,,VFR,,,,,,,,,,,,METAR,148.0
K4M9 242215Z AUTO 04011KT 9SM BKN065 BKN075 29/17 A2999 RMK AO2 PWINO,K4M9,2023-05-24T22:15:00Z,36.4,-90.65,29.0,17.0,40,11,,9.0,29.991142,,,TRUE,TRUE,,,,,TRUE,,BKN,6500,BKN,7500,,,,,VFR,,,,,,,,,,,,SPECI,86.0
K4I3 242215Z AUTO 34012G18KT 10SM CLR 22/12 A3009 RMK AO2,K4I3,2023-05-24T22:15:00Z,40.33,-82.53,22.0,12.0,340,12,18,10.0,30.088583,,,TRUE,TRUE,,,,,,,CLR,,,,,,,,VFR,,,,,,,,,,,,SPECI,361.0
K4F2 242215Z AUTO 03008KT 7SM CLR 27/19 A2993 RMK AO2 T02730185,K4F2,2023-05-24T22:15:00Z,32.18,-94.3,27.3,18.5,30,8,,7.0,29.929134,,,TRUE,TRUE,,,,,,,CLR,,,,,,,,VFR,,,,,,,,,,,,METAR,76.0
K4BM 242215Z AUTO 24004KT 10SM SCT025 BKN042 OVC048 07/M01 A3037 RMK AO2 LTG DSNT S,K4BM,2023-05-24T22:15:00Z,39.05,-105.52,7.0,-1.0,240,4,,10.0,30.369095,,,TRUE,TRUE,,,,,,,SCT,2500,BKN,4200,OVC,4800,,,VFR,,,,,,,,,,,,METAR,3432.0
K4A9 242215Z AUTO 07006KT 10SM BKN075 BKN080 25/14 A2995 RMK AO2 T02530139,K4A9,2023-05-24T22:15:00Z,34.47,-85.72,25.3,13.9,70,6,,10.0,29.949802,,,TRUE,TRUE,,,,,,,BKN,7500,BKN,8000,,,,,VFR,,,,,,,,,,,,SPECI,273.0
K4A6 242215Z AUTO 00000KT 9SM FEW065 26/16 A2995 RMK AO2,K4A6,2023-05-24T22:15:00Z,34.68,-86.0,26.0,16.0,0,0,,9.0,29.949802,,,TRUE,TRUE,,,,,,,FEW,6500,,,,,,,VFR,,,,,,,,,,,,SPECI,191.0
K49A 242215Z AUTO 03008G13KT 10SM FEW060 24/13 A2997 RMK AO2,K49A,2023-05-24T22:15:00Z,34.63,-84.53,24.0,13.0,30,8,13,10.0,29.970472,,,TRUE,TRUE,,,,,,,FEW,6000,,,,,,,VFR,,,,,,,,,,,,METAR,449.0
K48A 242215Z AUTO 01007KT 10SM CLR 26/10 A2991 RMK AO2 T02560102,K48A,2023-05-24T22:15:00Z,32.4,-83.27,25.6,10.2,10,7,,10.0,29.911417,,,TRUE,TRUE,,,,,,,CLR,,,,,,,,VFR,,,,,,,,,,,,SPECI,115.0
K46U 242215Z AUTO 31005KT 10SM SCT055 SCT070 BKN110 18/10 A2995 RMK A01,K46U,2023-05-24T22:15:00Z,43.18,-111.05,18.0,10.0,310,5,,10.0,29.949802,,,TRUE,TRUE,,,,,,,SCT,5500,SCT,7000,BKN,11000,,,VFR,,,,,,,,,,,,METAR,1718.0
K46D 242215Z AUTO 11018G29KT 8SM CLR 25/13 A3004 RMK AO2,K46D,2023-05-24T22:15:00Z,47.45,-99.15,25.0,13.0,110,18,29,8.0,30.041338,,,TRUE,TRUE,,,,,,,CLR,,,,,,,,VFR,,,,,,,,,,,,SPECI,488.0
K42J 242215Z AUTO 05011KT 9SM SCT025 SCT030 OVC039 24/20 A2986 RMK A01,K42J,2023-05-24T22:15:00Z,29.85,-82.05,24.0,20.0,50,11,,9.0,29.861221,,,TRUE,TRUE,,,,,,,SCT,2500,SCT,3000,OVC,3900,,,VFR,,,,,,,,,,,,SPECI,57.0
K41U 242215Z AUTO 18013G19KT 10SM SCT100 SCT120 24/03 A2993 RMK AO1 T02360025,K41U,2023-05-24T22:15:00Z,39.33,-111.6,23.6,2.5,180,13,19,10.0,29.929134,,,TRUE,TRUE,,,,,,,SCT,10000,SCT,12000,,,,,VFR,,,,,,,,,,,,METAR,1676.0
K40U 242215Z AUTO 21014G18KT 10SM CLR 23/00 A2997 RMK AO2 T02291000,K40U,2023-05-24T22:15:00Z,40.98,-109.68,22.9,0.0,210,14,18,10.0,29.970472,,,TRUE,TRUE,,,,,,,CLR,,,,,,,,VFR,,,,,,,,,,,,METAR,1882.0
K3T5 242215Z AUTO 05006KT 10SM SCT042 SCT050 BKN160 28/23 A2988 RMK AO2 T02840230 $,K3T5,2023-05-24T22:15:00Z,29.9,-96.95,28.4,23.0,50,6,,10.0,29.878937,,,TRUE,TRUE,TRUE,,,,,,SCT,4200,SCT,5000,BKN,16000,,,VFR,,,,,,,,,,,,METAR,96.0
K3S8 242215Z AUTO 34012G18KT 10SM CLR 24/03 A2993 RMK AO2,K3S8,2023-05-24T22:15:00Z,42.5,-123.4,24.0,3.0,340,12,18,10.0,29.929134,,,TRUE,TRUE,,,,,,,CLR,,,,,,,,VFR,,,,,,,,,,,,METAR,339.0
K3R7 242215Z AUTO 10SM SCT037 28/19 A2987 RMK AO2 T02840192,K3R7,2023-05-24T22:15:00Z,30.25,-92.67,28.4,19.2,,,,10.0,29.870079,,,TRUE,TRUE,,,,,,,SCT,3700,,,,,,,VFR,,,,,,,,,,,,METAR,5.0
K3N8 242215Z AUTO 12010G17KT 10SM CLR 17/08 A3016 RMK AO2 T01680078,K3N8,2023-05-24T22:15:00Z,47.25,-95.92,16.8,7.8,120,10,17,10.0,30.159449,,,TRUE,TRUE,,,,,,,CLR,,,,,,,,VFR,,,,,,,,,,,,METAR,379.0
K3LF 242215Z AUTO 10003KT 10SM SCT090 29/11 A3005 RMK AO2 T02880105,K3LF,2023-05-24T22:15:00Z,39.17,-89.67,28.8,10.5,100,3,,10.0,30.050198,,,TRUE,TRUE,,,,,,,SCT,9000,,,,,,,VFR,,,,,,,,,,,,SPECI,207.0
K3L4 242215Z AUTO 04011KT 9SM CLR 29/21 A2985 RMK A01,K3L4,2023-05-24T22:15:00Z,29.8,-92.8,29.0,21.0,40,11,,9.0,29.84941,,,TRUE,TRUE,,,,,,,CLR,,,,,,,,VFR,,,,,,,,,,,,METAR,1.0
K3K3 242215Z AUTO 16011G15KT 10SM BKN016 OVC029 19/15 A3004 RMK AO2,K3K3,2023-05-24T22:15:00Z,38.0,-101.75,19.0,15.0,160,11,15,10.0,30.041338,,,TRUE,TRUE,,,,,,,BKN,1600,OVC,2900,,,,,MVFR,,,,,,,,,,,,METAR,1010.0
K3F3 242215Z AUTO 06012G16KT 360V070 10SM SCT035 26/19 A2997 RMK AO2 T02640185,K3F3,2023-05-24T22:15:00Z,32.07,-93.77,26.4,18.5,60,12,16,10.0,29.970472,,,TRUE,TRUE,,,,,,,SCT,3500,,,,,,,VFR,,,,,,,,,,,,METAR,96.0
K3D2 242215Z AUTO 01005KT 10SM CLR 11/04 A3033 RMK AO2 T01100038,K3D2,2023-05-24T22:15:00Z,45.13,-87.18,11.0,3.8,10,5,,10.0,30.33071,,,TRUE,TRUE,,,,,,,CLR,,,,,,,,VFR,,,,,,,,,,,,METAR,233.0
K3AU 242215Z AUTO 13010G15KT 10SM SCT070 BKN085 OVC110 22/13 A3003 RMK AO2,K3AU,2023-05-24T22:15:00Z,37.67,-97.08,22.0,13.0,130,10,15,10.0,30.029528,,,TRUE,TRUE,,,,,,,SCT,7000,BKN,8500,OVC,11000,,,VFR,,,,,,,,,,,,METAR,403.0
K36K 242215Z AUTO 14013KT 9SM SCT021 SCT026 BKN055 21/18 A3006 RMK AO2,K36K,2023-05-24T22:15:00Z,37.97,-101.25,21.0,18.0,140,13,,9.0,30.059055,,,TRUE,TRUE,,,,,,,SCT,2100,SCT,2600,BKN,5500,,,VFR,,,,,,,,,,,,METAR,938.0
K35A 242215Z AUTO 04007KT 10SM CLR 24/05 A3000 RMK A02 T02450049,K35A,2023-05-24T22:15:00Z,34.68,-81.63,24.5,4.9,40,7,,10.0,30.0,,,TRUE,TRUE,,,,,,,CLR,,,,,,,,VFR,,,,,,,,,,,,METAR,186.0
K33V 242215Z AUTO 04007KT 10SM CLR 12/05 A3017 RMK AO1,K33V,2023-05-24T22:15:00Z,40.75,-106.28,12.0,5.0,40,7,,10.0,30.171259,,,TRUE,TRUE,,,,,,,CLR,,,,,,,,VFR,,,,,,,,,,,,METAR,2486.0
K33N 242215Z AUTO 24004KT 10SM CLR 25/11 A2994 RMK A01,K33N,2023-05-24T22:15:00Z,39.22,-75.6,25.0,11.0,240,4,,10.0,29.940945,,,TRUE,TRUE,,,,,,,CLR,,,,,,,,VFR,,,,,,,,,,,,METAR,17.0
K2V5 242215Z AUTO 16016G21KT 10SM SCT036 24/12 A3000 RMK AO2,K2V5,2023-05-24T22:15:00Z,40.1,-102.25,24.0,12.0,160,16,21,10.0,30.0,,,TRUE,TRUE,,,,,,,SCT,3600,,,,,,,VFR,,,,,,,,,,,,METAR,1117.0
K2R9 242215Z AUTO 03009KT 10SM SCT055 30/19 A2987 RMK AO2 T02990191,K2R9,2023-05-24T22:15:00Z,28.82,-97.87,29.9,19.1,30,9,,10.0,29.870079,,,TRUE,TRUE,,,,,,,SCT,5500,,,,,,,VFR,,,,,,,,,,,,SPECI,88.0
K2P2 242215Z AUTO 07007KT 10SM CLR 13/00 A3035 RMK AO2 T01320001,K2P2,2023-05-24T22:15:00Z,45.38,-86.92,13.2,0.1,70,7,,10.0,30.351377,,,TRUE,TRUE,,,,,,,CLR,,,,,,,,VFR,,,,,,,,,,,,METAR,182.0
K2M2 242215Z AUTO 03005G10KT 10SM CLR 25/15 A2997 RMK A01,K2M2,2023-05-24T22:15:00Z,35.23,-87.25,25.0,15.0,30,5,10,10.0,29.970472,,,TRUE,TRUE,,,,,,,CLR,,,,,,,,VFR,,,,,,,,,,,,METAR,286.0
K2J9 242215Z AUTO VRB05KT 10SM FEW029 FEW034 BKN070 24/20 A2988 RMK AO2,K2J9,2023-05-24T22:15:00Z,30.6,-84.55,24.0,20.0,0,5,,10.0,29.878937,,,TRUE,TRUE,,,,,,,FEW,2900,FEW,3400,BKN,7000,,,VFR,,,,,,,,,,,,SPECI,62.0
K2J5 242215Z AUTO 33008KT 10SM CLR 25/06 A2992 RMK AO2 T02520060,K2J5,2023-05-24T22:15:00Z,32.9,-81.97,25.2,6.0,330,8,,10.0,29.920275,,,TRUE,TRUE,,,,,,,CLR,,,,,,,,VFR,,,,,,,,,,,,SPECI,72.0
K2I0 242215Z AUTO 06010KT 10SM SCT075 30/11 A2999 RMK AO2 T02950110,K2I0,2023-05-24T22:15:00Z,37.35,-87.4,29.5,11.0,60,10,,10.0,29.991142,,,TRUE,TRUE,,,,,,,SCT,7500,,,,,,,VFR,,,,,,,,,,,,SPECI,127.0
K2G9 242215Z AUTO 31006KT 10SM SCT060 SCT070 OVC090 20/09 A3004 RMK AO2,K2G9,2023-05-24T22:15:00Z,40.03,-79.02,20.0,9.0,310,6,,10.0,30.041338,,,TRUE,TRUE,,,,,,,SCT,6000,SCT,7000,OVC,9000,,,VFR,,,,,,,,,,,,SPECI,677.0
K2G4 242215Z AUTO VRB04KT 10SM FEW049 SCT060 SCT070 19/09 A3008 RMK AO2,K2G4,2023-05-24T22:15:00Z,39.58,-79.33,19.0,9.0,0,4,,10.0,30.079725,,,TRUE,TRUE,,,,,,,FEW,4900,SCT,6000,SCT,7000,,,VFR,,,,,,,,,,,,METAR,908.0
K2G2 242215Z AUTO 01010G23KT 320V040 10SM 24/11 A3002 RMK A01,K2G2,2023-05-24T22:15:00Z,40.37,-80.7,24.0,11.0,10,10,23,10.0,30.02067,,,TRUE,TRUE,,,,,,,,,,,,,,,,,,,,,,,,,,,METAR,365.0
K2D5 242215Z AUTO 19018KT 7SM SCT037 SCT065 BKN080 24/14 A3006 RMK AO2,K2D5,2023-05-24T22:15:00Z,46.17,-98.08,24.0,14.0,190,18,,7.0,30.059055,,,TRUE,TRUE,,,,,,,SCT,3700,SCT,6500,BKN,8000,,,VFR,,,,,,,,,,,,SPECI,407.0
K2C8 242215Z AUTO 12013G24KT 090V170 10SM OVC095 16/08 A3015 RMK AO2,K2C8,2023-05-24T22:15:00Z,48.78,-97.63,16.0,8.0,120,13,24,10.0,30.15059,,,TRUE,TRUE,,,,,,,OVC,9500,,,,,,,VFR,,,,,,,,,,,,METAR,271.0
K2A0 242215Z AUTO 04004G10KT 10SM CLR 26/14 A2995 RMK A01,K2A0,2023-05-24T22:15:00Z,35.48,-84.93,26.0,14.0,40,4,10,10.0,29.949802,,,TRUE,TRUE,,,,,,,CLR,,,,,,,,VFR,,,,,,,,,,,,METAR,219.0
K28J 242215Z AUTO 07010KT 10SM CLR 23/17 A2986 RMK AO2,K28J,2023-05-24T22:15:00Z,29.65,-81.68,23.0,17.0,70,10,,10.0,29.861221,,,TRUE,TRUE,,,,,,,CLR,,,,,,,,VFR,,,,,,,,,,,,SPECI,9.0
K22N 242215Z AUTO 34010G16KT 318V028 10SM SCT080 SCT100 22/11 A2995 RMK AO2,K22N,2023-05-24T22:15:00Z,40.8,-75.77,22.0,11.0,340,10,16,10.0,29.949802,,,TRUE,TRUE,,,,,,,SCT,8000,SCT,10000,,,,,VFR,,,,,,,,,,,,SPECI,159.0
K21D 242215Z AUTO 09011KT 10SM CLR 21/09 A3022 RMK AO2,K21D,2023-05-24T22:15:00Z,45.0,-92.85,21.0,9.0,90,11,,10.0,30.221457,,,TRUE,TRUE,,,,,,,CLR,,,,,,,,VFR,,,,,,,,,,,,SPECI,281.0
K20V 242215Z AUTO 28007KT 10SM -RA SCT055 SCT065 OVC090 17/02 A3011 RMK AO2 LTG DSNT S THRU NW,K20V,2023-05-24T22:15:00Z,40.05,-106.37,17.0,2.0,280,7,,10.0,30.109253,,,TRUE,TRUE,,,,,,-RA,SCT,5500,SCT,6500,OVC,9000,,,VFR,,,,,,,,,,,,METAR,2259.0
K20U 242215Z AUTO 15020G26KT 10SM CLR 27/12 A2988 RMK AO2,K20U,2023-05-24T22:15:00Z,46.93,-103.98,27.0,12.0,150,20,26,10.0,29.878937,,,TRUE,TRUE,,,,,,,CLR,,,,,,,,VFR,,,,,,,,,,,,METAR,839.0
K1V6 242215Z AUTO 16007KT 10SM VCTS SCT045 SCT060 BKN110 21/11 A3005 RMK AO2 LTG DSNT E AND SE,K1V6,2023-05-24T22:15:00Z,38.43,-105.1,21.0,11.0,160,7,,10.0,30.050198,,,TRUE,TRUE,,,,,,VCTS,SCT,4500,SCT,6000,BKN,11000,,,VFR,,,,,,,,,,,,METAR,1658.0
K1U7 242215Z AUTO 24007KT 9SM SCT055 BKN065 BKN080 18/11 A2996 RMK A01,K1U7,2023-05-24T22:15:00Z,42.25,-111.33,18.0,11.0,240,7,,9.0,29.958662,,,TRUE,TRUE,,,,,,,SCT,5500,BKN,6500,BKN,8000,,,VFR,,,,,,,,,,,,METAR,1808.0
K1S5 242215Z AUTO 26004KT 10SM CLR 24/04 A2992 RMK AO2 T02410040,K1S5,2023-05-24T22:15:00Z,46.33,-119.97,24.1,4.0,260,4,,10.0,29.920275,,,TRUE,TRUE,,,,,,,CLR,,,,,,,,VFR,,,,,,,,,,,,METAR,228.0
K1R8 242215Z AUTO 04007G12KT 10SM FEW045 FEW060 23/20 A2987 RMK AO2,K1R8,2023-05-24T22:15:00Z,30.87,-87.82,23.0,20.0,40,7,12,10.0,29.870079,,,TRUE,TRUE,,,,,,,FEW,4500,FEW,6000,,,,,VFR,,,,,,,,,,,,METAR,76.0
K1R7 242215Z AUTO 00000KT 9SM OVC046 21/21 A2995 RMK AO2 PWINO,K1R7,2023-05-24T22:15:00Z,31.6,-90.42,21.0,21.0,0,0,,9.0,29.949802,,,TRUE,TRUE,,,,,TRUE,,OVC,4600,,,,,,,VFR,,,,,,,,,,,,SPECI,142.0
K1M5 242215Z AUTO 04010G15KT 10SM CLR 27/13 A2997 RMK A01,K1M5,2023-05-24T22:15:00Z,36.6,-86.48,27.0,13.0,40,10,15,10.0,29.970472,,,TRUE,TRUE,,,,,,,CLR,,,,,,,,VFR,,,,,,,,,,,,METAR,239.0
K1H2 242215Z AUTO 06003KT 10SM SCT095 30/10 A3004 RMK AO2 T02970100,K1H2,2023-05-24T22:15:00Z,39.07,-88.53,29.7,10.0,60,3,,10.0,30.041338,,,TRUE,TRUE,,,,,,,SCT,9500,,,,,,,VFR,,,,,,,,,,,,SPECI,174.0
K1F0 242215Z AUTO 14007KT 10SM SCT050 28/15 A2995 RMK AO2 T02840154,K1F0,2023-05-24T22:15:00Z,34.15,-97.12,28.4,15.4,140,7,,10.0,29.949802,,,TRUE,TRUE,,,,,,,SCT,5000,,,,,,,VFR,,,,,,,,,,,,SPECI,256.0
K1A9 242215Z AUTO 04005KT 10SM SCT033 SCT075 25/17 A2992 RMK AO2 T02470173,K1A9,2023-05-24T22:15:00Z,32.43,-86.52,24.7,17.3,40,5,,10.0,29.920275,,,TRUE,TRUE,,,,,,,SCT,3300,SCT,7500,,,,,VFR,,,,,,,,,,,,SPECI,65.0
K1A6 242215Z AUTO 36007KT 10SM SCT070 25/09 A3002 RMK AO2 T02450094,K1A6,2023-05-24T22:15:00Z,36.62,-83.73,24.5,9.4,360,7,,10.0,30.02067,,,TRUE,TRUE,,,,,,,SCT,7000,,,,,,,VFR,,,,,,,,,,,,METAR,348.0
K18H 242215Z AUTO 01006G11KT 10SM CLR 28/19 A2983 RMK A01,K18H,2023-05-24T22:15:00Z,26.13,-92.03,28.0,19.0,10,6,11,10.0,29.828741,,,TRUE,TRUE,,,,,,,CLR,,,,,,,,VFR,,,,,,,,,,,,METAR,30.0
K18A 242215Z AUTO 10005KT 10SM CLR 24/09 A3003 RMK AO2 T02410087,K18A,2023-05-24T22:15:00Z,34.35,-83.13,24.1,8.7,100,5,,10.0,30.029528,,,TRUE,TRUE,,,,,,,CLR,,,,,,,,VFR,,,,,,,,,,,,SPECI,260.0
K17J 242215Z AUTO 07010KT 10SM SCT055 OVC100 27/15 A2988 RMK AO2 T02670145,K17J,2023-05-24T22:15:00Z,31.0,-84.87,26.7,14.5,70,10,,10.0,29.878937,,,TRUE,TRUE,,,,,,,SCT,5500,OVC,10000,,,,,VFR,,,,,,,,,,,,METAR,42.0
K15M 242215Z AUTO 00000KT 10SM CLR 25/17 A2998 RMK AO2 T02460171 $,K15M,2023-05-24T22:15:00Z,34.77,-88.17,24.6,17.1,0,0,,10.0,29.97933,,,TRUE,TRUE,TRUE,,,,,,CLR,,,,,,,,VFR,,,,,,,,,,,,SPECI,192.0
K14Y 242215Z AUTO 10010G17KT 10SM CLR 16/09 A3020 RMK AO2,K14Y,2023-05-24T22:15:00Z,45.9,-94.87,16.0,9.0,100,10,17,10.0,30.200787,,,TRUE,TRUE,,,,,,,CLR,,,,,,,,VFR,,,,,,,,,,,,SPECI,404.0
K13K 242215Z AUTO 13005KT 10SM SCT050 OVC110 19/17 A3007 RMK AO2 LTG DSNT NW T01910169,K13K,2023-05-24T22:15:00Z,37.85,-96.3,19.1,16.9,130,5,,10.0,30.070866,,,TRUE,TRUE,,,,,,,SCT,5000,OVC,11000,,,,,VFR,,,,,,,,,,,,SPECI,367.0
K11R 242215Z AUTO 06004KT 10SM CLR 30/18 A2989 RMK AO2 T02950177,K11R,2023-05-24T22:15:00Z,30.22,-96.37,29.5,17.7,60,4,,10.0,29.890747,,,TRUE,TRUE,,,,,,,CLR,,,,,,,,VFR,,,,,,,,,,,,SPECI,87.0
K10U 242215Z AUTO VRB04KT 10SM FEW038 SCT070 16/06 A2996 RMK AO2,K10U,2023-05-24T22:15:00Z,,,16.0,6.0,0,4,,10.0,29.958662,,,TRUE,TRUE,,,,,,,FEW,3800,SCT,7000,,,,,VFR,,,,,,,,,,,,METAR,
K10G 242215Z AUTO 02013G18KT 10SM CLR 21/09 A3010 RMK AO2,K10G,2023-05-24T22:15:00Z,40.53,-81.95,21.0,9.0,20,13,18,10.0,30.100393,,,TRUE,TRUE,,,,,,,CLR,,,,,,,,VFR,,,,,,,,,,,,SPECI,371.0
K0VG 242215Z AUTO 34008KT 10SM CLR 24/07 A3002 RMK AO2,K0VG,2023-05-24T22:15:00Z,36.65,-83.22,24.0,7.0,340,8,,10.0,30.02067,,,TRUE,TRUE,,,,,,,CLR,,,,,,,,VFR,,,,,,,,,,,,SPECI,426.0
K0V4 242215Z AUTO 08010KT 10SM CLR 25/10 A2998 RMK AO1,K0V4,2023-05-24T22:15:00Z,37.15,-79.02,25.0,10.0,80,10,,10.0,29.97933,,,TRUE,TRUE,,,,,,,CLR,,,,,,,,VFR,,,,,,,,,,,,METAR,186.0
K0S9 242215Z AUTO VRB06G12KT 300V020 10SM CLR 18/09 A3006 RMK AO2,K0S9,2023-05-24T22:15:00Z,48.05,-122.82,18.0,9.0,0,6,12,10.0,30.059055,,,TRUE,TRUE,,,,,,,CLR,,,,,,,,VFR,,,,,,,,,,,,METAR,33.0
K0F2 242215Z AUTO 10SM SCT048 28/16 A2995 RMK AO2 T02810162,K0F2,2023-05-24T22:15:00Z,33.6,-97.78,28.1,16.2,,,,10.0,29.949802,,,TRUE,TRUE,,,,,,,SCT,4800,,,,,,,VFR,,,,,,,,,,,,METAR,330.0
K0E0 242215Z AUTO 19010G20KT 10SM CLR 26/M08 A3004 RMK AO2 T02601083,K0E0,2023-05-24T22:15:00Z,34.98,-106.0,26.0,-8.3,190,10,20,10.0,30.041338,,,TRUE,TRUE,,,,,,,CLR,,,,,,,,VFR,,,,,,,,,,,,METAR,1887.0
K0A9 242215Z AUTO VRB05KT 6SM HZ CLR 24/07 A2999 RMK AO2,K0A9,2023-05-24T22:15:00Z,36.37,-82.17,24.0,7.0,0,5,,6.0,29.991142,,,TRUE,TRUE,,,,,,HZ,CLR,,,,,,,,VFR,,,,,,,,,,,,METAR,479.0
K0A0 242215Z AUTO 22017G22KT 10SM CLR 32/M05 A2994 RMK AO2,K0A0,2023-05-24T22:15:00Z,32.98,-106.97,32.0,-5.0,220,17,22,10.0,29.940945,,,TRUE,TRUE,,,,,,,CLR,,,,,,,,VFR,,,,,,,,,,,,METAR,1401.0
K08D 242215Z AUTO 16015G22KT 10SM FEW070 FEW080 27/12 A2992 RMK AO2,K08D,2023-05-24T22:15:00Z,48.3,-102.4,27.0,12.0,160,15,22,10.0,29.920275,,,TRUE,TRUE,,,,,,,FEW,7000,FEW,8000,,,,,VFR,,,,,,,,,,,,METAR,683.0
K06D 242215Z AUTO 13023G29KT 10SM CLR 24/12 A3004 RMK AO2,K06D,2023-05-24T22:15:00Z,48.88,-99.62,24.0,12.0,130,23,29,10.0,30.041338,,,TRUE,TRUE,,,,,,,CLR,,,,,,,,VFR,,,,,,,,,,,,SPECI,554.0
K06C 242215Z AUTO 04007G14KT 360V070 10SM CLR 19/12 A3020 RMK AO2 T01860122,K06C,2023-05-24T22:15:00Z,41.98,-88.1,18.6,12.2,40,7,14,10.0,30.200787,,,TRUE,TRUE,,,,,,,CLR,,,,,,,,VFR,,,,,,,,,,,,SPECI,243.0
K04V 242215Z AUTO 33006G15KT 10SM BKN075 OVC085 11/04 A3025 RMK AO2 P0001 LTG DSNT E,K04V,2023-05-24T22:15:00Z,38.1,-106.17,11.0,4.0,330,6,15,10.0,30.250984,,,TRUE,TRUE,,,,,,,BKN,7500,OVC,8500,,,,,VFR,,,,,,0.01,,,,,,METAR,2389.0
CWPF 242215Z AUTO 17006KT 13/09 RMK AO1 SLP182 T01250093 58010,CWPF,2023-05-24T22:15:00Z,48.43,-123.43,12.5,9.3,170,6,,,,1018.2,,TRUE,TRUE,,,,,,,,,,,,,,,,-1.0,,,,,,,,,,,METAR,5.0
PAKH 242214Z AUTO 4SM BR BKN003 OVC008 07/06 A2979 RMK AO2 TSNO $,PAKH,2023-05-24T22:14:00Z,56.93,-154.18,7.0,6.0,,,,4.0,29.790354,,,TRUE,TRUE,TRUE,,TRUE,,,BR,BKN,300,OVC,800,,,,,LIFR,,,,,,,,,,,,SPECI,15.0
KPSF 242214Z AUTO 00000KT 10SM SCT021 BKN041 OVC085 11/08 A3001 RMK AO2 T01110078,KPSF,2023-05-24T22:14:00Z,42.43,-73.28,11.1,7.8,0,0,,10.0,30.008858,,,TRUE,TRUE,,,,,,,SCT,2100,BKN,4100,OVC,8500,,,VFR,,,,,,,,,,,,SPECI,352.0
KPBI 242214Z 27012KT 10SM TSRA FEW012 BKN026CB OVC110 22/20 A2983 RMK AO2 LTG DSNT ALQDS FRQ LTGICCG ALQDS TS ALQDS MOV LTL P0001 T02170200 $,KPBI,2023-05-24T22:14:00Z,26.68,-80.1,21.7,20.0,270,12,,10.0,29.828741,,,,TRUE,TRUE,,,,,TSRA,FEW,1200,BKN,2600,OVC,11000,,,MVFR,,,,,,0.01,,,,,,SPECI,4.0
KLXV 242214Z AUTO 18011KT 5SM VCTS RA BR BKN032 OVC045 03/01 A3032 RMK AO2 PK WND 25027/2154 WSHFT 2142 LTG DSNT N TSE14 P0017 T00280011,KLXV,2023-05-24T22:14:00Z,39.23,-106.32,2.8,1.1,180,11,,5.0,30.318897,,,TRUE,TRUE,,,,,,VCTS RA BR,BKN,3200,OVC,4500,,,,,MVFR,,,,,,0.17,,,,,,METAR,3027.0
KLCH 242214Z 06009KT 10SM TS CLR 28/20 A2986 RMK AO2 LTG DSNT N AND NW TSB08 T02830200,KLCH,2023-05-24T22:14:00Z,30.13,-93.22,28.3,20.0,60,9,,10.0,29.861221,,,,TRUE,,,,,,TS,CLR,,,,,,,,VFR,,,,,,,,,,,,SPECI,2.0
KBYI 242214Z AUTO 32008KT 10SM TS OVC075 14/12 A2988 RMK AO2 LTG DSNT NE RAE00 TSB10 P0000 T01440117,KBYI,2023-05-24T22:14:00Z,42.55,-113.77,14.4,11.7,320,8,,10.0,29.878937,,,TRUE,TRUE,,,,,,TS,OVC,7500,,,,,,,VFR,,,,,,0.005,,,,,,SPECI,1263.0
CYIO 242214Z AUTO VRB02KT 9SM FEW002 M05/M08 A2981 RMK SLP103,CYIO,2023-05-24T22:14:00Z,72.68,-77.97,-5.0,-8.0,0,2,,9.0,29.811024,1010.3,,TRUE,,,,,,,,FEW,200,,,,,,,VFR,,,,,,,,,,,,SPECI,61.0
SAZM 242213Z 09003KT 0800 R13/1200 FG BKN002 15/15 Q1010,SAZM,2023-05-24T22:13:00Z,-37.92,-57.57,15.0,15.0,90,3,,0.5,29.822834,,,,,,,,,,FG,BKN,200,,,,,,,LIFR,,,,,,,,,,,,SPECI,17.0
PAYA 242213Z AUTO 10007KT 2 1/2SM BR OVC009 10/08 A3012 RMK AO2 CIG 006V012 T01000083 TSNO $,PAYA,2023-05-24T22:13:00Z,59.52,-139.67,10.0,8.3,100,7,,2.5,30.121063,,,TRUE,TRUE,TRUE,,TRUE,,,BR,OVC,900,,,,,,,IFR,,,,,,,,,,,,SPECI,9.0
PAMY 242213Z AUTO 25012KT 10SM OVC004 03/01 A2991 RMK AO2 PNO $,PAMY,2023-05-24T22:13:00Z,60.37,-166.27,3.0,1.0,250,12,,10.0,29.911417,,,TRUE,TRUE,TRUE,,,,,,OVC,400,,,,,,,LIFR,,,,,,,,,,,,SPECI,14.0
PADG 242213Z 06011KT 15SM SKC 07/01 A2997,PADG,2023-05-24T22:13:00Z,68.03,-162.9,7.0,1.0,60,11,,15.0,29.970472,,,,,,,,,,,SKC,,,,,,,,VFR,,,,,,,,,,,,SPECI,296.0
KXVG 242213Z AUTO 11012G18KT 10SM BKN095 09/03 A3028 RMK AO2,KXVG,2023-05-24T22:13:00Z,46.98,-94.2,9.0,3.0,110,12,18,10.0,30.280512,,,TRUE,TRUE,,,,,,,BKN,9500,,,,,,,VFR,,,,,,,,,,,,METAR,407.0
KSZL 242213Z 00000KT 10SM TS BKN055 OVC060CB 21/19 A3005 RMK AO2A TSB13 SLP175 $,KSZL,2023-05-24T22:13:00Z,38.73,-93.53,21.0,19.0,0,0,,10.0,30.050198,1017.5,,,TRUE,TRUE,,,,,TS,BKN,5500,OVC,6000,,,,,VFR,,,,,,,,,,,,METAR,259.0
KOWA 242213Z AUTO 09011KT 10SM CLR 26/12 A3013 RMK AO2,KOWA,2023-05-24T22:13:00Z,44.12,-93.25,26.0,12.0,90,11,,10.0,30.129921,,,TRUE,TRUE,,,,,,,CLR,,,,,,,,VFR,,,,,,,,,,,,METAR,345.0
KORB 242213Z AUTO 14006KT 10SM CLR 16/M06 A3029 RMK AO2,KORB,2023-05-24T22:13:00Z,48.02,-92.87,16.0,-6.0,140,6,,10.0,30.28937,,,TRUE,TRUE,,,,,,,CLR,,,,,,,,VFR,,,,,,,,,,,,METAR,407.0
KOJC 242213Z 19003KT 10SM FEW080 BKN100 23/18 A3005 RMK AO2 LTG DSNT N-E RAE02 TSE08 P0000 T02330183,KOJC,2023-05-24T22:13:00Z,38.85,-94.73,23.3,18.3,190,3,,10.0,30.050198,,,,TRUE,,,,,,,FEW,8000,BKN,10000,,,,,VFR,,,,,,0.005,,,,,,SPECI,328.0
KMVL 242213Z AUTO 34008KT 10SM FEW017 BKN022 OVC080 09/07 A3007 RMK AO2 T00940067,KMVL,2023-05-24T22:13:00Z,44.53,-72.62,9.4,6.7,340,8,,10.0,30.070866,,,TRUE,TRUE,,,,,,,FEW,1700,BKN,2200,OVC,8000,,,MVFR,,,,,,,,,,,,SPECI,226.0
KGFL 242213Z AUTO 30004KT 10SM SCT009 SCT015 BKN055 13/09 A3005 RMK AO2 T01280094,KGFL,2023-05-24T22:13:00Z,43.33,-73.62,12.8,9.4,300,4,,10.0,30.050198,,,TRUE,TRUE,,,,,,,SCT,900,SCT,1500,BKN,5500,,,VFR,,,,,,,,,,,,SPECI,99.0
KFOZ 242213Z AUTO 11009KT 10SM CLR 15/M07 A3034 RMK AO2,KFOZ,2023-05-24T22:13:00Z,47.77,-93.65,15.0,-7.0,110,9,,10.0,30.339567,,,TRUE,TRUE,,,,,,,CLR,,,,,,,,VFR,,,,,,,,,,,,METAR,412.0
KDVP 242213Z AUTO 12009G18KT 10SM CLR 29/M02 A3009 RMK AO2 T02861020,KDVP,2023-05-24T22:13:00Z,43.98,-95.78,28.6,-2.0,120,9,18,10.0,30.088583,,,TRUE,TRUE,,,,,,,CLR,,,,,,,,VFR,,,,,,,,,,,,METAR,493.0
KCDD 242213Z AUTO 00000KT 10SM CLR 16/M19 A3035 RMK AO2 PWINO,KCDD,2023-05-24T22:13:00Z,48.27,-92.48,16.0,-19.0,0,0,,10.0,30.351377,,,TRUE,TRUE,,,,,TRUE,,CLR,,,,,,,,VFR,,,,,,,,,,,,METAR,344.0
KAQP 242213Z AUTO 13019G22KT 10SM 28/09 A3006 RMK AO2,KAQP,2023-05-24T22:13:00Z,45.22,-96.0,28.0,9.0,130,19,22,10.0,30.059055,,,TRUE,TRUE,,,,,,,,,,,,,,,,,,,,,,,,,,,METAR,312.0
PADU 242212Z 21013KT 10SM BKN031 BKN040 07/02 A3013 RMK AO2,PADU,2023-05-24T22:12:00Z,53.9,-166.53,7.0,2.0,210,13,,10.0,30.129921,,,,TRUE,,,,,,,BKN,3100,BKN,4000,,,,,VFR,,,,,,,,,,,,METAR,4.0
KROC 242212Z 02010KT 10SM SCT028 BKN035 13/06 A3018 RMK AO2 T01330056,KROC,2023-05-24T22:12:00Z,43.12,-77.68,13.3,5.6,20,10,,10.0,30.180119,,,,TRUE,,,,,,,SCT,2800,BKN,3500,,,,,VFR,,,,,,,,,,,,SPECI,166.0
KMLC 242212Z AUTO 00000KT 10SM SCT110 21/18 A3000 RMK AO2 LTG DSNT SE T02110178,KMLC,2023-05-24T22:12:00Z,34.88,-95.78,21.1,17.8,0,0,,10.0,30.0,,,TRUE,TRUE,,,,,,,SCT,11000,,,,,,,VFR,,,,,,,,,,,,SPECI,231.0
KASH 242212Z 32011KT 10SM RA FEW016 SCT027 OVC090 13/13 A2999 RMK AO2 P0002,KASH,2023-05-24T22:12:00Z,42.78,-71.52,13.0,13.0,320,11,,10.0,29.991142,,,,TRUE,,,,,,RA,FEW,1600,SCT,2700,OVC,9000,,,VFR,,,,,,0.02,,,,,,METAR,56.0
FAGG 242212Z AUTO 28003KT 240V310 9999 // BKN001/// 10/09 Q1007,FAGG,2023-05-24T22:12:00Z,-34.0,22.37,10.0,9.0,280,3,,6.21,29.734253,,,TRUE,,,,,,,,BKN,100,,,,,,,LIFR,,,,,,,,,,,,METAR,196.0
CYQY 242212Z 18011G19KT 10SM OVC004 05/04 A3014 RMK SC8 SLP211,CYQY,2023-05-24T22:12:00Z,46.17,-60.03,5.0,4.0,180,11,19,10.0,30.138779,1021.1,,,,,,,,,,OVC,400,,,,,,,LIFR,,,,,,,,,,,,SPECI,58.0
CYGP 242212Z 11004KT 8SM -RA FEW004 SCT020 OVC032 10/10 A3001 RMK ST1SC4SC4 ST TR VIS LWR W SLP165,CYGP,2023-05-24T22:12:00Z,48.77,-64.47,10.0,10.0,110,4,,8.0,30.008858,1016.5,,,,,,,,,-RA,FEW,400,SCT,2000,OVC,3200,,,VFR,,,,,,,,,,,,SPECI,31.0
KELZ 242211Z AUTO 35007G15KT 320V020 10SM SCT014 SCT024 BKN030 12/08 A3014 RMK AO2 T01170078,KELZ,2023-05-24T22:11:00Z,42.1,-77.98,11.7,7.8,350,7,15,10.0,30.138779,,,TRUE,TRUE,,,,,,,SCT,1400,SCT,2400,BKN,3000,,,MVFR,,,,,,,,,,,,METAR,639.0
CYSC 242211Z AUTO 31006KT 270V340 9SM -RA OVC010 07/06 A3007 RMK SLP190,CYSC,2023-05-24T22:11:00Z,45.43,-71.68,7.0,6.0,310,6,,9.0,30.070866,1019.0,,TRUE,,,,,,,-RA,OVC,1000,,,,,,,MVFR,,,,,,,,,,,,SPECI,236.0
PGUA 242210Z 33035G40KT 6SM -RA BKN003 OVC010 25/24 A2950 RMK WND DATA/ALSTG ESTMD,PGUA,2023-05-24T22:10:00Z,13.57,144.92,25.0,24.0,330,35,40,6.0,29.500984,,,,,,,,,,-RA,BKN,300,OVC,1000,,,,,LIFR,,,,,,,,,,,,METAR,159.0
KXMR 242210Z AUTO 06004KT 10SM -RA SCT018 24/21 A2978 RMK AO2 SLP088 $,KXMR,2023-05-24T22:10:00Z,28.47,-80.57,24.0,21.0,60,4,,10.0,29.778543,1008.8,,TRUE,TRUE,TRUE,,,,,-RA,SCT,1800,,,,,,,VFR,,,,,,,,,,,,SPECI,5.0
KXBP 242210Z AUTO 08008KT 10SM SCT048 SCT065 29/17 A2995 RMK AO2 T02880165,KXBP,2023-05-24T22:10:00Z,33.18,-97.83,28.8,16.5,80,8,,10.0,29.949802,,,TRUE,TRUE,,,,,,,SCT,4800,SCT,6500,,,,,VFR,,,,,,,,,,,,METAR,256.0
KX26 242210Z AUTO 00000KT 10SM -RA SCT019 SCT060 BKN110 24/22 A2983 RMK AO2 P0001 TSNO T02350218,KX26,2023-05-24T22:10:00Z,27.82,-80.5,23.5,21.8,0,0,,10.0,29.828741,,,TRUE,TRUE,,,TRUE,,,-RA,SCT,1900,SCT,6000,BKN,11000,,,VFR,,,,,,0.01,,,,,,METAR,5.0
KVVS 242210Z AUTO 27005KT 10SM BKN095 24/11 A3001 RMK AO2 T02400113,KVVS,2023-05-24T22:10:00Z,39.95,-79.65,24.0,11.3,270,5,,10.0,30.008858,,,TRUE,TRUE,,,,,,,BKN,9500,,,,,,,VFR,,,,,,,,,,,,METAR,386.0
KVES 242210Z AUTO 06011G18KT 10SM CLR 23/09 A3008 RMK AO2,KVES,2023-05-24T22:10:00Z,40.2,-84.53,23.0,9.0,60,11,18,10.0,30.079725,,,TRUE,TRUE,,,,,,,CLR,,,,,,,,VFR,,,,,,,,,,,,METAR,308.0
KU68 242210Z AUTO 09009KT 10SM VCTS SCT046 BKN090 OVC110 22/04 A2985 RMK AO2 LTG DSNT N THRU E,KU68,2023-05-24T22:10:00Z,44.92,-108.45,22.0,4.0,90,9,,10.0,29.84941,,,TRUE,TRUE,,,,,,VCTS,SCT,4600,BKN,9000,OVC,11000,,,VFR,,,,,,,,,,,,METAR,1244.0
KSUT 242210Z AUTO 08007KT 10SM CLR 25/16 A2990 RMK AO2 T02500155,KSUT,2023-05-24T22:10:00Z,33.93,-78.08,25.0,15.5,80,7,,10.0,29.899607,,,TRUE,TRUE,,,,,,,CLR,,,,,,,,VFR,,,,,,,,,,,,SPECI,6.0
KSNH 242210Z AUTO 03008KT 10SM FEW050 28/16 A2996 RMK A01,KSNH,2023-05-24T22:10:00Z,35.17,-88.22,28.0,16.0,30,8,,10.0,29.958662,,,TRUE,TRUE,,,,,,,FEW,5000,,,,,,,VFR,,,,,,,,,,,,METAR,142.0
KSHM 242210Z AUTO 34012G22KT 10SM -TSRA FEW024 FEW037 SCT055 BKN075 OVC090 14/06 A3005 RMK AO2 TSE09TSB10 SLP131 $,KSHM,2023-05-24T22:10:00Z,38.8,-104.52,14.0,6.0,340,12,22,10.0,30.050198,1013.1,,TRUE,TRUE,TRUE,,,,,-TSRA,FEW,2400,FEW,3700,SCT,5500,BKN,7500,VFR,,,,,,,,,,,,SPECI,1900.0
KS85 242210Z AUTO 14009KT 9SM 29/15 A2980 RMK A01 Culbertson ,KS85,2023-05-24T22:10:00Z,48.15,-104.5,29.0,15.0,140,9,,9.0,29.799213,,,TRUE,TRUE,,,,,,,,,,,,,,,,,,,,,,,,,,,METAR,596.0
KRNO 242210Z 03007G30KT 360V130 10SM -RA BKN095 BKN160 18/04 A2991 RMK AO2 PK WND 32030/2203 LTG DSNT NE AND NW TSE09 PRESRR TS MOVD E P0000 T01830039,KRNO,2023-05-24T22:10:00Z,39.5,-119.77,18.3,3.9,30,7,30,10.0,29.911417,,,,TRUE,,,,,,-RA,BKN,9500,BKN,16000,,,,,VFR,,,,,,0.005,,,,,,METAR,1344.0
KRHP 242210Z AUTO 03009G15KT 10SM CLR 23/08 A2998 RMK AO2 T02310082,KRHP,2023-05-24T22:10:00Z,35.18,-83.85,23.1,8.2,30,9,15,10.0,29.97933,,,TRUE,TRUE,,,,,,,CLR,,,,,,,,VFR,,,,,,,,,,,,SPECI,515.0
KRCZ 242210Z AUTO 01009KT 10SM CLR 25/00 A2994 RMK AO2 T02530004,KRCZ,2023-05-24T22:10:00Z,34.88,-79.77,25.3,0.4,10,9,,10.0,29.940945,,,TRUE,TRUE,,,,,,,CLR,,,,,,,,VFR,,,,,,,,,,,,SPECI,110.0
KQEY 242210Z AUTO 00000KT 9999 OVC120 16/13 A2979 RMK A02 TSNO,KQEY,2023-05-24T22:10:00Z,,,16.0,13.0,0,0,,6.21,29.790354,,,TRUE,TRUE,,,TRUE,,,,OVC,12000,,,,,,,VFR,,,,,,,,,,,,METAR,
KQER 242210Z AUTO 18001KT 9999 BKN080 12/10 A3004 RMK A02 TSNO,KQER,2023-05-24T22:10:00Z,,,12.0,10.0,180,1,,6.21,30.041338,,,TRUE,TRUE,,,TRUE,,,,BKN,8000,,,,,,,VFR,,,,,,,,,,,,METAR,
KPGD 242210Z 08007KT 10SM VCTS -RA FEW020 BKN070 OVC110 23/22 A2981 RMK AO2 TSE04 P0001 T02280217,KPGD,2023-05-24T22:10:00Z,26.92,-82.0,22.8,21.7,80,7,,10.0,29.811024,,,,TRUE,,,,,,VCTS -RA,FEW,2000,BKN,7000,OVC,11000,,,VFR,,,,,,0.01,,,,,,METAR,7.0
KOLY 242210Z AUTO 03008KT 10SM CLR 29/06 A3002 RMK AO2 T02930059 PWINO,KOLY,2023-05-24T22:10:00Z,38.72,-88.18,29.3,5.9,30,8,,10.0,30.02067,,,TRUE,TRUE,,,,,TRUE,,CLR,,,,,,,,VFR,,,,,,,,,,,,METAR,144.0
KMRC 242210Z AUTO 01008KT 330V040 10SM CLR 28/14 A2994 RMK A01,KMRC,2023-05-24T22:10:00Z,35.55,-87.18,28.0,14.0,10,8,,10.0,29.940945,,,TRUE,TRUE,,,,,,,CLR,,,,,,,,VFR,,,,,,,,,,,,METAR,205.0
KMQI 242210Z AUTO 02011KT 10SM OVC012 16/13 A2995 RMK AO2 T01550127,KMQI,2023-05-24T22:10:00Z,35.92,-75.7,15.5,12.7,20,11,,10.0,29.949802,,,TRUE,TRUE,,,,,,,OVC,1200,,,,,,,MVFR,,,,,,,,,,,,SPECI,3.0
KMIO 242210Z AUTO 10SM CLR 23/19 A3003 RMK AO2,KMIO,2023-05-24T22:10:00Z,36.92,-94.88,23.0,19.0,,,,10.0,30.029528,,,TRUE,TRUE,,,,,,,CLR,,,,,,,,VFR,,,,,,,,,,,,METAR,245.0
KM91 242210Z AUTO 05007G15KT 10SM SCT065 BKN080 BKN090 26/13 A2997 RMK A01,KM91,2023-05-24T22:10:00Z,36.53,-86.92,26.0,13.0,50,7,15,10.0,29.970472,,,TRUE,TRUE,,,,,,,SCT,6500,BKN,8000,BKN,9000,,,VFR,,,,,,,,,,,,METAR,214.0
KM54 242210Z AUTO VRB06G12KT 10SM FEW075 27/12 A2995 RMK A01,KM54,2023-05-24T22:10:00Z,36.18,-86.32,27.0,12.0,0,6,12,10.0,29.949802,,,TRUE,TRUE,,,,,,,FEW,7500,,,,,,,VFR,,,,,,,,,,,,METAR,168.0
KM04 242210Z AUTO 11004KT 10SM FEW075 FEW095 28/15 A2998 RMK A01,KM04,2023-05-24T22:10:00Z,35.58,-89.58,28.0,15.0,110,4,,10.0,29.97933,,,TRUE,TRUE,,,,,,,FEW,7500,FEW,9500,,,,,VFR,,,,,,,,,,,,METAR,83.0
KLHZ 242210Z AUTO 02006KT 10SM SCT110 23/06 A2999 RMK AO2,KLHZ,2023-05-24T22:10:00Z,36.02,-78.33,23.0,6.0,20,6,,10.0,29.991142,,,TRUE,TRUE,,,,,,,SCT,11000,,,,,,,VFR,,,,,,,,,,,,SPECI,104.0
KK70 242210Z AUTO 36004KT 10SM VCTS SCT035 SCT047 BKN060 28/M34 A2975 RMK AO2 LTG DSNT ALQDS,KK70,2023-05-24T22:10:00Z,25.32,-80.28,28.0,-34.0,360,4,,10.0,29.749016,,,TRUE,TRUE,,,,,,VCTS,SCT,3500,SCT,4700,BKN,6000,,,VFR,,,,,,,,,,,,METAR,20.0
KIXA 242210Z AUTO 02004KT 10SM CLR 22/10 A2997 RMK AO2,KIXA,2023-05-24T22:10:00Z,36.33,-77.63,22.0,10.0,20,4,,10.0,29.970472,,,TRUE,TRUE,,,,,,,CLR,,,,,,,,VFR,,,,,,,,,,,,SPECI,43.0
KHTH 242210Z AUTO 32016KT 10SM FEW110 23/01 A2984 RMK A01,KHTH,2023-05-24T22:10:00Z,38.55,-118.63,23.0,1.0,320,16,,10.0,29.840551,,,TRUE,TRUE,,,,,,,FEW,11000,,,,,,,VFR,,,,,,,,,,,,METAR,1281.0
KHNZ 242210Z AUTO 04005KT 10SM CLR 22/02 A2999 RMK AO2 T02210024,KHNZ,2023-05-24T22:10:00Z,36.37,-78.53,22.1,2.4,40,5,,10.0,29.991142,,,TRUE,TRUE,,,,,,,CLR,,,,,,,,VFR,,,,,,,,,,,,SPECI,158.0
KGWW 242210Z AUTO 01010G14KT 10SM SCT100 24/08 A2995 RMK AO2 T02360082,KGWW,2023-05-24T22:10:00Z,35.47,-77.97,23.6,8.2,10,10,14,10.0,29.949802,,,TRUE,TRUE,,,,,,,SCT,10000,,,,,,,VFR,,,,,,,,,,,,SPECI,40.0
KGNC 242210Z AUTO 11014G17KT 10SM CLR 28/16 A2999 RMK AO2 T02810160,KGNC,2023-05-24T22:10:00Z,32.68,-102.65,28.1,16.0,110,14,17,10.0,29.991142,,,TRUE,TRUE,,,,,,,CLR,,,,,,,,VFR,,,,,,,,,,,,METAR,1002.0
KFYE 242210Z AUTO 00000KT 10SM CLR 27/16 A2997 RMK A01,KFYE,2023-05-24T22:10:00Z,35.2,-89.38,27.0,16.0,0,0,,10.0,29.970472,,,TRUE,TRUE,,,,,,,CLR,,,,,,,,VFR,,,,,,,,,,,,METAR,133.0
KFSK 242210Z AUTO 26007KT 10SM SCT080 BKN110 22/18 A3004 RMK AO2 T02230176,KFSK,2023-05-24T22:10:00Z,37.8,-94.77,22.3,17.6,260,7,,10.0,30.041338,,,TRUE,TRUE,,,,,,,SCT,8000,BKN,11000,,,,,VFR,,,,,,,,,,,,METAR,276.0
KFFA 242210Z AUTO 01005G14KT 10SM OVC012 15/12 A2993 RMK AO2 T01510121,KFFA,2023-05-24T22:10:00Z,36.02,-75.67,15.1,12.1,10,5,14,10.0,29.929134,,,TRUE,TRUE,,,,,,,OVC,1200,,,,,,,MVFR,,,,,,,,,,,,SPECI,2.0
KF00 242210Z AUTO 05009KT 10SM SCT038 28/19 A2995 RMK AO2 T02750190,KF00,2023-05-24T22:10:00Z,33.62,-96.18,27.5,19.0,50,9,,10.0,29.949802,,,TRUE,TRUE,,,,,,,SCT,3800,,,,,,,VFR,,,,,,,,,,,,METAR,189.0
KEYF 242210Z AUTO 02007KT 340V070 10SM SCT095 25/07 A2992 RMK AO2 T02530074,KEYF,2023-05-24T22:10:00Z,34.6,-78.58,25.3,7.4,20,7,,10.0,29.920275,,,TRUE,TRUE,,,,,,,SCT,9500,,,,,,,VFR,,,,,,,,,,,,SPECI,39.0
KEXX 242210Z AUTO 05007KT 10SM CLR 24/05 A2999 RMK AO2 T02350052,KEXX,2023-05-24T22:10:00Z,35.78,-80.3,23.5,5.2,50,7,,10.0,29.991142,,,TRUE,TRUE,,,,,,,CLR,,,,,,,,VFR,,,,,,,,,,,,SPECI,221.0
KETN 242210Z AUTO 11003KT 10SM SCT043 27/17 A2995 RMK AO2 T02650167,KETN,2023-05-24T22:10:00Z,32.42,-98.82,26.5,16.7,110,3,,10.0,29.949802,,,TRUE,TRUE,,,,,,,SCT,4300,,,,,,,VFR,,,,,,,,,,,,METAR,445.0
KEAN 242210Z AUTO 19005KT 10SM VCTS CLR 22/11 A2995 RMK AO2 LTG DSNT NW T02150105,KEAN,2023-05-24T22:10:00Z,42.05,-104.93,21.5,10.5,190,5,,10.0,29.949802,,,TRUE,TRUE,,,,,,VCTS,CLR,,,,,,,,VFR,,,,,,,,,,,,METAR,1452.0
KDVK 242210Z AUTO 00000KT 10SM CLR 25/10 A3004 RMK AO2,KDVK,2023-05-24T22:10:00Z,37.58,-84.77,25.0,10.0,0,0,,10.0,30.041338,,,TRUE,TRUE,,,,,,,CLR,,,,,,,,VFR,,,,,,,,,,,,METAR,309.0
KDED 242210Z AUTO 00000KT 10SM SCT022 SCT031 BKN045 23/21 A2985 RMK AO2 P0001 T02350207,KDED,2023-05-24T22:10:00Z,29.07,-81.28,23.5,20.7,0,0,,10.0,29.84941,,,TRUE,TRUE,,,,,,,SCT,2200,SCT,3100,BKN,4500,,,VFR,,,,,,0.01,,,,,,METAR,21.0
KDAW 242210Z AUTO 00000KT 6SM -RA BR BKN018 BKN055 OVC070 13/11 A2995 RMK AO2 P0003 T01280106,KDAW,2023-05-24T22:10:00Z,43.28,-70.92,12.8,10.6,0,0,,6.0,29.949802,,,TRUE,TRUE,,,,,,-RA BR,BKN,1800,BKN,5500,OVC,7000,,,MVFR,,,,,,0.03,,,,,,METAR,100.0
KCII 242210Z AUTO 32004KT 10SM 19/06 A2991 RMK A01 ,KCII,2023-05-24T22:10:00Z,47.83,-112.17,19.0,6.0,320,4,,10.0,29.911417,,,TRUE,TRUE,,,,,,,,,,,,,,,,,,,,,,,,,,,METAR,1202.0
KCGS 242210Z AUTO 00000KT 10SM SCT080 26/10 A2996 RMK AO2 T02640096,KCGS,2023-05-24T22:10:00Z,38.98,-76.92,26.4,9.6,0,0,,10.0,29.958662,,,TRUE,TRUE,,,,,,,SCT,8000,,,,,,,VFR,,,,,,,,,,,,METAR,15.0
KBMC 242210Z AUTO 28011KT 10SM SCT060 SCT075 BKN110 21/02 A2993 RMK AO1 T02120020,KBMC,2023-05-24T22:10:00Z,41.55,-112.07,21.2,2.0,280,11,,10.0,29.929134,,,TRUE,TRUE,,,,,,,SCT,6000,SCT,7500,BKN,11000,,,VFR,,,,,,,,,,,,METAR,1289.0
KBDL 242210Z 35009KT 10SM SCT022 BKN028 OVC050 18/15 A2996 RMK AO2 T01780150,KBDL,2023-05-24T22:10:00Z,41.93,-72.68,17.8,15.0,350,9,,10.0,29.958662,,,,TRUE,,,,,,,SCT,2200,BKN,2800,OVC,5000,,,MVFR,,,,,,,,,,,,METAR,52.0
KANK 242210Z AUTO 23014G23KT 10SM SCT070 OVC090 14/04 A3027 RMK AO1 T01400037,KANK,2023-05-24T22:10:00Z,38.53,-106.05,14.0,3.7,230,14,23,10.0,30.268702,,,TRUE,TRUE,,,,,,,SCT,7000,OVC,9000,,,,,VFR,,,,,,,,,,,,METAR,2293.0
KAFP 242210Z AUTO 35007KT 10SM CLR 25/M03 A2996 RMK AO2 T02521028,KAFP,2023-05-24T22:10:00Z,35.02,-80.08,25.2,-2.8,350,7,,10.0,29.958662,,,TRUE,TRUE,,,,,,,CLR,,,,,,,,VFR,,,,,,,,,,,,SPECI,91.0
K6S8 242210Z AUTO 32004KT 10SM 23/12 A2985 RMK A01 LAUREL,K6S8,2023-05-24T22:10:00Z,45.7,-108.77,23.0,12.0,320,4,,10.0,29.84941,,,TRUE,TRUE,,,,,,,,,,,,,,,,,,,,,,,,,,,METAR,1072.0
K4U6 242210Z AUTO 14017KT 10SM 29/12 A2976 RMK A01 Circle ,K4U6,2023-05-24T22:10:00Z,47.42,-105.57,29.0,12.0,140,17,,10.0,29.760826,,,TRUE,TRUE,,,,,,,,,,,,,,,,,,,,,,,,,,,METAR,739.0
K1A5 242210Z AUTO 32004KT 10SM OVC070 23/10 A3002 RMK AO2 T02310103,K1A5,2023-05-24T22:10:00Z,35.22,-83.42,23.1,10.3,320,4,,10.0,30.02067,,,TRUE,TRUE,,,,,,,OVC,7000,,,,,,,VFR,,,,,,,,,,,,SPECI,611.0
K19S 242210Z AUTO 12013G18KT 7SM HZ BKN028 BKN033 23/16 A3003 RMK AO2 T02280162,K19S,2023-05-24T22:10:00Z,37.48,-100.83,22.8,16.2,120,13,18,7.0,30.029528,,,TRUE,TRUE,,,,,,HZ,BKN,2800,BKN,3300,,,,,MVFR,,,,,,,,,,,,METAR,886.0
K05U 242210Z AUTO VRB17G30KT 10SM BKN080 SCT100 14/06 A2995 RMK A01,K05U,2023-05-24T22:10:00Z,39.6,-116.0,14.0,6.0,0,17,30,10.0,29.949802,,,TRUE,TRUE,,,,,,,BKN,8000,SCT,10000,,,,,VFR,,,,,,,,,,,,METAR,1813.0
CYHZ 242210Z 16009KT 2SM BR OVC003 07/06 A3006 RMK ST8 VIS W-N 12 SLP187,CYHZ,2023-05-24T22:10:00Z,44.87,-63.5,7.0,6.0,160,9,,2.0,30.059055,1018.7,,,,,,,,,BR,OVC,300,,,,,,,LIFR,,,,,,,,,,,,SPECI,136.0
PHBK 242209Z AUTO 00000KT 5SM -RA BKN039 OVC050 25/19 A3011 RMK AO2 RAB2156 P0000 T02500194,PHBK,2023-05-24T22:09:00Z,22.03,-159.78,25.0,19.4,0,0,,5.0,30.109253,,,TRUE,TRUE,,,,,,-RA,BKN,3900,OVC,5000,,,,,MVFR,,,,,,0.005,,,,,,SPECI,5.0
KTMB 242209Z 32004KT 10SM VCTS SCT070 28/21 A2976 RMK AO2 LTG DSNT ALQDS T02830211 $,KTMB,2023-05-24T22:09:00Z,25.65,-80.43,28.3,21.1,320,4,,10.0,29.760826,,,,TRUE,TRUE,,,,,VCTS,SCT,7000,,,,,,,VFR,,,,,,,,,,,,SPECI,2.0
KFME 242209Z AUTO 29005KT CLR 24/11 A2998 RMK AO1,KFME,2023-05-24T22:09:00Z,39.08,-76.77,24.0,11.0,290,5,,,29.97933,,,TRUE,TRUE,,,,,,,CLR,,,,,,,,,,,,,,,,,,,,METAR,43.0
KDGW 242209Z AUTO 13015KT 10SM VCTS CLR 22/11 A2995 RMK AO2 LTG DSNT ALQDS T02220111,KDGW,2023-05-24T22:09:00Z,42.8,-105.38,22.2,11.1,130,15,,10.0,29.949802,,,TRUE,TRUE,,,,,,VCTS,CLR,,,,,,,,VFR,,,,,,,,,,,,SPECI,1503.0
KCAR 242209Z AUTO 35006KT 10SM -RA FEW010 BKN024 OVC055 11/09 A2998 RMK AO2 P0000 T01060089,KCAR,2023-05-24T22:09:00Z,46.87,-68.02,10.6,8.9,350,6,,10.0,29.97933,,,TRUE,TRUE,,,,,,-RA,FEW,1000,BKN,2400,OVC,5500,,,MVFR,,,,,,0.005,,,,,,SPECI,189.0
K2W6 242209Z AUTO 00000KT 10SM CLR 22/10 A2999 RMK AO1,K2W6,2023-05-24T22:09:00Z,38.32,-76.55,22.0,10.0,0,0,,10.0,29.991142,,,TRUE,TRUE,,,,,,,CLR,,,,,,,,VFR,,,,,,,,,,,,METAR,40.0
PFKT 242208Z AUTO 02015G25KT 10SM 06/02 A2995 RMK AO2 WSHFT 2148 $,PFKT,2023-05-24T22:08:00Z,65.33,-166.47,6.0,2.0,20,15,25,10.0,29.949802,,,TRUE,TRUE,TRUE,,,,,,,,,,,,,,,,,,,,,,,,,,SPECI,8.0
MBPV 242208Z 04005KT 9999 SCT015CB 28/22 Q1008,MBPV,2023-05-24T22:08:00Z,21.77,-72.27,28.0,22.0,40,5,,6.21,29.763779,,,,,,,,,,,SCT,1500,,,,,,,VFR,,,,,,,,,,,,SPECI,7.0
KWVL 242208Z AUTO 24003KT 8SM -RA FEW007 SCT013 OVC055 12/11 A2998 RMK AO2 P0000,KWVL,2023-05-24T22:08:00Z,44.52,-69.67,12.0,11.0,240,3,,8.0,29.97933,,,TRUE,TRUE,,,,,,-RA,FEW,700,SCT,1300,OVC,5500,,,VFR,,,,,,0.005,,,,,,SPECI,87.0
KTVL 242208Z AUTO 21007KT 10SM VCTS SCT055 BKN075 OVC120 14/02 A2996 RMK AO2 LTG DSNT SW T01440022,KTVL,2023-05-24T22:08:00Z,38.9,-120.0,14.4,2.2,210,7,,10.0,29.958662,,,TRUE,TRUE,,,,,,VCTS,SCT,5500,BKN,7500,OVC,12000,,,VFR,,,,,,,,,,,,SPECI,1907.0
KPQI 242208Z AUTO 36006KT 10SM -RA SCT007 OVC031 11/09 A3000 RMK AO2 P0000,KPQI,2023-05-24T22:08:00Z,46.68,-68.05,11.0,9.0,360,6,,10.0,30.0,,,TRUE,TRUE,,,,,,-RA,SCT,700,OVC,3100,,,,,VFR,,,,,,0.005,,,,,,SPECI,154.0
KOXC 242208Z 35015KT 10SM -RA FEW032 BKN055 BKN060 17/14 A2997 RMK AO2 WSHFT 2148 P0000,KOXC,2023-05-24T22:08:00Z,41.47,-73.13,17.0,14.0,350,15,,10.0,29.970472,,,,TRUE,,,,,,-RA,FEW,3200,BKN,5500,BKN,6000,,,VFR,,,,,,0.005,,,,,,SPECI,211.0
CWND M01/M01 RMK 3003 T10121009,CWND,2023-05-24T22:08:00Z,69.63,-135.43,-1.2,-0.9,,,,,,,,,,,,,,,,,,,,,,,,,,,,,,,,,,,,METAR,14.0
SBIP 242207Z AUTO VRB02KT 1900 NSC 19/17 Q1020,SBIP,2023-05-24T22:07:00Z,-19.47,-42.48,19.0,17.0,0,2,,1.18,30.11811,,,TRUE,,,,,,,,CLR,,,,,,,,IFR,,,,,,,,,,,,SPECI,240.0
KPNS 242207Z 07006KT 10SM -RA BKN007 BKN035 OVC075 22/19 A2986 RMK AO2 P0000 T02170189,KPNS,2023-05-24T22:07:00Z,30.48,-87.18,21.7,18.9,70,6,,10.0,29.861221,,,,TRUE,,,,,,-RA,BKN,700,BKN,3500,OVC,7500,,,IFR,,,,,,0.005,,,,,,SPECI,34.0
KFXE 242207Z 29010KT 10SM TS SCT095 24/21 A2979 RMK AO2 LTG DSNT ALQDS TSB01 T02390211 PNO,KFXE,2023-05-24T22:07:00Z,26.2,-80.18,23.9,21.1,290,10,,10.0,29.790354,,,,TRUE,,,,,,TS,SCT,9500,,,,,,,VFR,,,,,,,,,,,,SPECI,3.0
CYWK 242207Z CCA 36007KT 15SM SCT042 06/M03 A3007 RMK CU4 SLP205,CYWK,2023-05-24T22:07:00Z,52.92,-66.87,6.0,-3.0,360,7,,15.0,30.070866,1020.5,,,,,,,,,,SCT,4200,,,,,,,VFR,,,,,,,,,,,,SPECI,547.0
CYED 242207Z 25006G15KT 15SM SCT055 SCT210 19/05 A2994 RMK CU3CI1 DENSITY ALT 3404FT LAST OBS /NEXT 251300 UTC SLP147,CYED,2023-05-24T22:07:00Z,53.67,-113.47,19.0,5.0,250,6,15,15.0,29.940945,1014.7,,,,,,,,,,SCT,5500,SCT,21000,,,,,VFR,,,,,,,,,,,,SPECI,688.0
PAKN 242206Z 29004KT 6SM -RA BR FEW008 BKN041 OVC049 08/06 A2978 RMK AO2 P0001 T00780056,PAKN,2023-05-24T22:06:00Z,58.68,-156.65,7.8,5.6,290,4,,6.0,29.778543,,,,TRUE,,,,,,-RA BR,FEW,800,BKN,4100,OVC,4900,,,VFR,,,,,,0.01,,,,,,SPECI,20.0
PAGS 242206Z AUTO 00000KT 10SM SCT013 OVC030 11/08 A3018 RMK AO2,PAGS,2023-05-24T22:06:00Z,58.42,-135.7,11.0,8.0,0,0,,10.0,30.180119,,,TRUE,TRUE,,,,,,,SCT,1300,OVC,3000,,,,,MVFR,,,,,,,,,,,,SPECI,9.0
KW40 242205Z AUTO 03009KT 10SM SCT110 24/09 A2994 RMK AO2 T02400089,KW40,2023-05-24T22:05:00Z,35.22,-78.03,24.0,8.9,30,9,,10.0,29.940945,,,TRUE,TRUE,,,,,,,SCT,11000,,,,,,,VFR,,,,,,,,,,,,SPECI,50.0
KW29 242205Z AUTO 17004KT 10SM CLR 26/10 A2996 RMK AO2 T02560104,KW29,2023-05-24T22:05:00Z,38.98,-76.33,25.6,10.4,170,4,,10.0,29.958662,,,TRUE,TRUE,,,,,,,CLR,,,,,,,,VFR,,,,,,,,,,,,METAR,1.0
KVUJ 242205Z AUTO 01006KT 10SM CLR 25/05 A3002 RMK AO2 T02450048,KVUJ,2023-05-24T22:05:00Z,35.42,-80.15,24.5,4.8,10,6,,10.0,30.02067,,,TRUE,TRUE,,,,,,,CLR,,,,,,,,VFR,,,,,,,,,,,,SPECI,174.0
KUKF 242205Z AUTO 14003KT 10SM CLR 23/10 A3004 RMK AO2,KUKF,2023-05-24T22:05:00Z,36.22,-81.1,23.0,10.0,140,3,,10.0,30.041338,,,TRUE,TRUE,,,,,,,CLR,,,,,,,,VFR,,,,,,,,,,,,SPECI,383.0
KTTA 242205Z AUTO 01007KT 10SM CLR 24/03 A2997 RMK AO2 T02380026,KTTA,2023-05-24T22:05:00Z,35.58,-79.1,23.8,2.6,10,7,,10.0,29.970472,,,TRUE,TRUE,,,,,,,CLR,,,,,,,,VFR,,,,,,,,,,,,SPECI,71.0
KTDF 242205Z AUTO 06005KT 10SM CLR 22/05 A3001 RMK AO2,KTDF,2023-05-24T22:05:00Z,36.28,-78.98,22.0,5.0,60,5,,10.0,30.008858,,,TRUE,TRUE,,,,,,,CLR,,,,,,,,VFR,,,,,,,,,,,,SPECI,180.0
KSVH 242205Z AUTO 06005KT 10SM CLR 25/07 A2999 RMK AO2 T02460072,KSVH,2023-05-24T22:05:00Z,35.75,-80.95,24.6,7.2,60,5,,10.0,29.991142,,,TRUE,TRUE,,,,,,,CLR,,,,,,,,VFR,,,,,,,,,,,,SPECI,286.0
KSKA 242205Z 29013KT 10SM FEW090 SCT110 BKN160 17/04 A2993 RMK AO2A TSE05 SLP128 $,KSKA,2023-05-24T22:05:00Z,47.62,-117.67,17.0,4.0,290,13,,10.0,29.929134,1012.8,,,TRUE,TRUE,,,,,,FEW,9000,SCT,11000,BKN,16000,,,VFR,,,,,,,,,,,,SPECI,754.0
KSIF 242205Z AUTO 00000KT 10SM CLR 24/09 A2999 RMK AO2 T02400094,KSIF,2023-05-24T22:05:00Z,36.43,-79.85,24.0,9.4,0,0,,10.0,29.991142,,,TRUE,TRUE,,,,,,,CLR,,,,,,,,VFR,,,,,,,,,,,,SPECI,206.0
KSCR 242205Z AUTO 05007KT 10SM CLR 24/03 A2999 RMK AO2 T02380026,KSCR,2023-05-24T22:05:00Z,35.7,-79.5,23.8,2.6,50,7,,10.0,29.991142,,,TRUE,TRUE,,,,,,,CLR,,,,,,,,VFR,,,,,,,,,,,,SPECI,182.0
KRUQ 242205Z AUTO 04005KT 10SM CLR 24/05 A2999 RMK AO2 T02350048,KRUQ,2023-05-24T22:05:00Z,35.65,-80.52,23.5,4.8,40,5,,10.0,29.991142,,,TRUE,TRUE,,,,,,,CLR,,,,,,,,VFR,,,,,,,,,,,,SPECI,231.0
KPGV 242205Z AUTO 06006KT 10SM -RA OVC080 22/09 A2995 RMK AO2,KPGV,2023-05-24T22:05:00Z,35.63,-77.4,22.0,9.0,60,6,,10.0,29.949802,,,TRUE,TRUE,,,,,,-RA,OVC,8000,,,,,,,VFR,,,,,,,,,,,,METAR,6.0
KONX 242205Z AUTO 01009KT 10SM BKN110 17/08 A2997 RMK AO2 T01680080,KONX,2023-05-24T22:05:00Z,36.4,-76.02,16.8,8.0,10,9,,10.0,29.970472,,,TRUE,TRUE,,,,,,,BKN,11000,,,,,,,VFR,,,,,,,,,,,,SPECI,4.0
KOCW 242205Z AUTO 34008KT 10SM -RA SCT049 BKN100 OVC120 17/12 A2997 RMK AO2 T01690116,KOCW,2023-05-24T22:05:00Z,35.57,-77.05,16.9,11.6,340,8,,10.0,29.970472,,,TRUE,TRUE,,,,,,-RA,SCT,4900,BKN,10000,OVC,12000,,,VFR,,,,,,,,,,,,SPECI,10.0
KMWK 242205Z AUTO 11006KT 10SM CLR 24/08 A3002 RMK AO2 T02350084,KMWK,2023-05-24T22:05:00Z,36.47,-80.55,23.5,8.4,110,6,,10.0,30.02067,,,TRUE,TRUE,,,,,,,CLR,,,,,,,,VFR,,,,,,,,,,,,SPECI,374.0
KMRN 242205Z AUTO 00000KT 10SM CLR 24/09 A2999 RMK AO2 T02420090,KMRN,2023-05-24T22:05:00Z,35.82,-81.62,24.2,9.0,0,0,,10.0,29.991142,,,TRUE,TRUE,,,,,,,CLR,,,,,,,,VFR,,,,,,,,,,,,SPECI,375.0
KMCZ 242205Z AUTO 08004KT 10SM OVC090 21/06 A2996 RMK AO2 T02110057,KMCZ,2023-05-24T22:05:00Z,,,21.1,5.7,80,4,,10.0,29.958662,,,TRUE,TRUE,,,,,,,OVC,9000,,,,,,,VFR,,,,,,,,,,,,SPECI,
KLBL 242205Z AUTO 11015KT 10SM BKN028 24/17 A3001 RMK AO2,KLBL,2023-05-24T22:05:00Z,37.03,-100.97,24.0,17.0,110,15,,10.0,30.008858,,,TRUE,TRUE,,,,,,,BKN,2800,,,,,,,MVFR,,,,,,,,,,,,SPECI,877.0
KJNX 242205Z AUTO 05006KT 10SM SCT110 23/07 A2996 RMK AO2,KJNX,2023-05-24T22:05:00Z,35.53,-78.38,23.0,7.0,50,6,,10.0,29.958662,,,TRUE,TRUE,,,,,,,SCT,11000,,,,,,,VFR,,,,,,,,,,,,SPECI,41.0
KIPJ 242205Z AUTO 04004KT 10SM CLR 24/07 A2998 RMK AO2 T02370071,KIPJ,2023-05-24T22:05:00Z,35.48,-81.17,23.7,7.1,40,4,,10.0,29.97933,,,TRUE,TRUE,,,,,,,CLR,,,,,,,,VFR,,,,,,,,,,,,SPECI,266.0
KHRJ 242205Z AUTO 02011KT 10SM CLR 24/06 A2996 RMK AO2 T02440064,KHRJ,2023-05-24T22:05:00Z,35.38,-78.73,24.4,6.4,20,11,,10.0,29.958662,,,TRUE,TRUE,,,,,,,CLR,,,,,,,,VFR,,,,,,,,,,,,SPECI,55.0
KHIF 242205Z 33014KT 6SM -TSRA FEW038 FEW047 SCT080 OVC090 20/08 A2990 RMK AO2A RAE2155RAB05 TSB05 SLP080,KHIF,2023-05-24T22:05:00Z,41.12,-111.97,20.0,8.0,330,14,,6.0,29.899607,1008.0,,,TRUE,,,,,,-TSRA,FEW,3800,FEW,4700,SCT,8000,OVC,9000,VFR,,,,,,,,,,,,METAR,1461.0
KHBI 242205Z AUTO 03006KT 10SM CLR 23/05 A3001 RMK AO2 T02330053,KHBI,2023-05-24T22:05:00Z,35.65,-79.9,23.3,5.3,30,6,,10.0,30.008858,,,TRUE,TRUE,,,,,,,CLR,,,,,,,,VFR,,,,,,,,,,,,SPECI,199.0
KGEV 242205Z AUTO 03003KT 10SM CLR 19/04 A3007 RMK AO2 T01920035,KGEV,2023-05-24T22:05:00Z,36.43,-81.42,19.2,3.5,30,3,,10.0,30.070866,,,TRUE,TRUE,,,,,,,CLR,,,,,,,,VFR,,,,,,,,,,,,SPECI,961.0
KFQD 242205Z AUTO 11004KT 10SM CLR 23/07 A2999 RMK AO2,KFQD,2023-05-24T22:05:00Z,35.42,-81.93,23.0,7.0,110,4,,10.0,29.991142,,,TRUE,TRUE,,,,,,,CLR,,,,,,,,VFR,,,,,,,,,,,,SPECI,325.0
KEHO 242205Z AUTO 06005KT 10SM CLR 23/06 A2998 RMK AO2 T02340063,KEHO,2023-05-24T22:05:00Z,35.25,-81.6,23.4,6.3,60,5,,10.0,29.97933,,,TRUE,TRUE,,,,,,,CLR,,,,,,,,VFR,,,,,,,,,,,,SPECI,261.0
KEDE 242205Z AUTO 05003KT 10SM RA SCT027 SCT049 BKN055 20/06 A2997 RMK AO2 T01990060,KEDE,2023-05-24T22:05:00Z,36.03,-76.57,19.9,6.0,50,3,,10.0,29.970472,,,TRUE,TRUE,,,,,,RA,SCT,2700,SCT,4900,BKN,5500,,,VFR,,,,,,,,,,,,SPECI,4.0
KDPL 242205Z AUTO 07007KT 10SM OVC100 22/10 A2994 RMK AO2,KDPL,2023-05-24T22:05:00Z,35.0,-77.97,22.0,10.0,70,7,,10.0,29.940945,,,TRUE,TRUE,,,,,,,OVC,10000,,,,,,,VFR,,,,,,,,,,,,SPECI,39.0
KDMW 242205Z AUTO 25005KT 10SM CLR 28/08 A2997 RMK AO2,KDMW,2023-05-24T22:05:00Z,39.6,-77.0,28.0,8.0,250,5,,10.0,29.970472,,,TRUE,TRUE,,,,,,,CLR,,,,,,,,VFR,,,,,,,,,,,,METAR,239.0
KCTZ 242205Z AUTO 03006KT 10SM OVC110 25/10 A2994 RMK AO2 T02450100,KCTZ,2023-05-24T22:05:00Z,34.98,-78.37,24.5,10.0,30,6,,10.0,29.940945,,,TRUE,TRUE,,,,,,,OVC,11000,,,,,,,VFR,,,,,,,,,,,,SPECI,43.0
KCPC 242205Z AUTO 36004KT 7SM CLR 26/09 A2992 RMK AO2 T02550094,KCPC,2023-05-24T22:05:00Z,34.28,-78.72,25.5,9.4,360,4,,7.0,29.920275,,,TRUE,TRUE,,,,,,,CLR,,,,,,,,VFR,,,,,,,,,,,,SPECI,27.0
KCGE 242205Z AUTO 34003KT 10SM CLR 24/09 A2996 RMK A01,KCGE,2023-05-24T22:05:00Z,38.53,-76.03,24.0,9.0,340,3,,10.0,29.958662,,,TRUE,TRUE,,,,,,,CLR,,,,,,,,VFR,,,,,,,,,,,,METAR,5.0
KCBE 242205Z AUTO 36005KT 10SM SCT095 26/09 A3001 RMK AO2 T02610092,KCBE,2023-05-24T22:05:00Z,39.62,-78.77,26.1,9.2,360,5,,10.0,30.008858,,,TRUE,TRUE,,,,,,,SCT,9500,,,,,,,VFR,,,,,,,,,,,,METAR,226.0
KASJ 242205Z AUTO 05005KT 10SM SCT110 21/02 A2998 RMK AO2 T02110016,KASJ,2023-05-24T22:05:00Z,36.28,-77.17,21.1,1.6,50,5,,10.0,29.97933,,,TRUE,TRUE,,,,,,,SCT,11000,,,,,,,VFR,,,,,,,,,,,,SPECI,20.0
KACZ 242205Z AUTO 06010KT 10SM OVC090 23/13 A2992 RMK AO2 T02260129,KACZ,2023-05-24T22:05:00Z,,,22.6,12.9,60,10,,10.0,29.920275,,,TRUE,TRUE,,,,,,,OVC,9000,,,,,,,VFR,,,,,,,,,,,,SPECI,
K7W6 242205Z AUTO 01009G14KT 10SM BKN014 OVC090 18/14 A2993 RMK AO2 T01760141,K7W6,2023-05-24T22:05:00Z,35.55,-75.95,17.6,14.1,10,9,14,10.0,29.929134,,,TRUE,TRUE,,,,,,,BKN,1400,OVC,9000,,,,,MVFR,,,,,,,,,,,,SPECI,1.0
K24A 242205Z AUTO 00000KT 10SM SCT070 21/09 A3002 RMK AO2 LTG DSNT SE AND SW T02150094,K24A,2023-05-24T22:05:00Z,35.32,-83.2,21.5,9.4,0,0,,10.0,30.02067,,,TRUE,TRUE,,,,,,,SCT,7000,,,,,,,VFR,,,,,,,,,,,,SPECI,864.0
PFCL 242204Z AUTO 08011KT 10SM -RA BKN012 BKN018 OVC026 07/06 A2983 RMK AO2 P0000 TSNO,PFCL,2023-05-24T22:04:00Z,58.83,-158.53,7.0,6.0,80,11,,10.0,29.828741,,,TRUE,TRUE,,,TRUE,,,-RA,BKN,1200,BKN,1800,OVC,2600,,,MVFR,,,,,,0.005,,,,,,SPECI,23.0
PATQ 242204Z AUTO 07015KT 10SM OVC010 M03/M06 A3029 RMK AO2 FZRANO TSNO,PATQ,2023-05-24T22:04:00Z,70.47,-157.43,-3.0,-6.0,70,15,,10.0,30.28937,,,TRUE,TRUE,,,TRUE,TRUE,,,OVC,1000,,,,,,,MVFR,,,,,,,,,,,,SPECI,28.0
KNPA 242204Z 33003KT 5SM -RA BR FEW049 SCT075 OVC100 21/19 A2986 RMK AO2 CB DSNT S AND NW-NE T1 SET T02110194,KNPA,2023-05-24T22:04:00Z,30.35,-87.32,21.1,19.4,330,3,,5.0,29.861221,,,,TRUE,,,,,,-RA BR,FEW,4900,SCT,7500,OVC,10000,,,MVFR,,,,,,,,,,,,SPECI,6.0
KCOD 242204Z AUTO 22020G28KT 10SM -RA SCT070 BKN085 OVC110 16/07 A2996 RMK AO2 PK WND 22028/2202 WSHFT 2145 LTG DSNT SE AND S AND NW TSE04 P0000,KCOD,2023-05-24T22:04:00Z,44.52,-109.02,16.0,7.0,220,20,28,10.0,29.958662,,,TRUE,TRUE,,,,,,-RA,SCT,7000,BKN,8500,OVC,11000,,,VFR,,,,,,0.005,,,,,,SPECI,1550.0
BIAR 242204Z 15009G22KT 090V200 9999 SCT023 BKN050 07/M04 Q1008,BIAR,2023-05-24T22:04:00Z,65.67,-18.07,7.0,-4.0,150,9,22,6.21,29.763779,,,,,,,,,,,SCT,2300,BKN,5000,,,,,VFR,,,,,,,,,,,,METAR,1.0
SVVL 242203Z AUTO ///01KT NCD ///// Q////,SVVL,2023-05-24T22:03:00Z,9.33,-70.58,,,,,,,,,,TRUE,,,,,,,,CLR,,,,,,,,,,,,,,,,,,,,METAR,575.0
SVVA 242203Z AUTO 27003KT NCD 33/24 Q1008,SVVA,2023-05-24T22:03:00Z,10.15,-67.92,33.0,24.0,270,3,,,29.763779,,,TRUE,,,,,,,,CLR,,,,,,,,,,,,,,,,,,,,METAR,428.0
SVSR 242203Z AUTO NIL,SVSR,2023-05-24T22:03:00Z,7.87,-67.43,,,,,,,,,,TRUE,,,,,,,,,,,,,,,,,,,,,,,,,,,,METAR,49.0
SVSA 242203Z AUTO NIL,SVSA,2023-05-24T22:03:00Z,7.83,-72.45,,,,,,,,,,TRUE,,,,,,,,,,,,,,,,,,,,,,,,,,,,METAR,383.0
SVPR 242203Z AUTO 08008KT NCD 32/20 Q1008,SVPR,2023-05-24T22:03:00Z,8.3,-62.77,32.0,20.0,80,8,,,29.763779,,,TRUE,,,,,,,,CLR,,,,,,,,,,,,,,,,,,,,METAR,140.0
SVPA 242203Z AUTO NIL,SVPA,2023-05-24T22:03:00Z,5.62,-67.6,,,,,,,,,,TRUE,,,,,,,,,,,,,,,,,,,,,,,,,,,,METAR,77.0
SVMT 242203Z AUTO 06006KT NCD 31/27 Q1007,SVMT,2023-05-24T22:03:00Z,9.75,-63.17,31.0,27.0,60,6,,,29.734253,,,TRUE,,,,,,,,CLR,,,,,,,,,,,,,,,,,,,,METAR,67.0
SVMI 242203Z AUTO 07009KT NCD 29/22 Q1008,SVMI,2023-05-24T22:03:00Z,10.6,-67.0,29.0,22.0,70,9,,,29.763779,,,TRUE,,,,,,,,CLR,,,,,,,,,,,,,,,,,,,,METAR,48.0
SVMG 242203Z AUTO 09011KT NCD 32/24 Q1007,SVMG,2023-05-24T22:03:00Z,10.92,-63.97,32.0,24.0,90,11,,,29.734253,,,TRUE,,,,,,,,CLR,,,,,,,,,,,,,,,,,,,,METAR,16.0
SVMC 242203Z AUTO 19003KT NCD 31/24 Q1005,SVMC,2023-05-24T22:03:00Z,10.57,-71.72,31.0,24.0,190,3,,,29.675198,,,TRUE,,,,,,,,CLR,,,,,,,,,,,,,,,,,,,,METAR,76.0
SVLO 242203Z AUTO NIL,SVLO,2023-05-24T22:03:00Z,11.8,-66.18,,,,,,,,,,TRUE,,,,,,,,,,,,,,,,,,,,,,,,,,,,SPECI,3.0
SVJM 242203Z AUTO 27003KT NCD 32/21 Q1007,SVJM,2023-05-24T22:03:00Z,9.92,-67.38,32.0,21.0,270,3,,,29.734253,,,TRUE,,,,,,,,CLR,,,,,,,,,,,,,,,,,,,,METAR,448.0
SVGU 242203Z AUTO 13004KT NCD 31/22 Q1007,SVGU,2023-05-24T22:03:00Z,9.03,-69.75,31.0,22.0,130,4,,,29.734253,,,TRUE,,,,,,,,CLR,,,,,,,,,,,,,,,,,,,,METAR,165.0
SVGD 242203Z AUTO 04002KT NCD 31/25 Q1007,SVGD,2023-05-24T22:03:00Z,7.22,-70.75,31.0,25.0,40,2,,,29.734253,,,TRUE,,,,,,,,CLR,,,,,,,,,,,,,,,,,,,,METAR,129.0
SVFM 242203Z AUTO NIL,SVFM,2023-05-24T22:03:00Z,10.48,-66.83,,,,,,,,,,TRUE,,,,,,,,,,,,,,,,,,,,,,,,,,,,METAR,852.0
SVCS 242203Z AUTO 18004KT NCD 32/17 Q1010,SVCS,2023-05-24T22:03:00Z,10.3,-66.82,32.0,17.0,180,4,,,29.822834,,,TRUE,,,,,,,,CLR,,,,,,,,,,,,,,,,,,,,METAR,656.0
SVCB 242203Z AUTO 11004KT NCD 34/21 Q1005,SVCB,2023-05-24T22:03:00Z,8.12,-63.53,34.0,21.0,110,4,,,29.675198,,,TRUE,,,,,,,,CLR,,,,,,,,,,,,,,,,,,,,METAR,47.0
SVBS 242203Z AUTO 24005KT NCD 32/20 Q1009,SVBS,2023-05-24T22:03:00Z,10.25,-67.65,32.0,20.0,240,5,,,29.793306,,,TRUE,,,,,,,,CLR,,,,,,,,,,,,,,,,,,,,METAR,435.0
SVBM 242203Z AUTO 10012KT NCD 28/19 Q1009,SVBM,2023-05-24T22:03:00Z,10.05,-69.37,28.0,19.0,100,12,,,29.793306,,,TRUE,,,,,,,,CLR,,,,,,,,,,,,,,,,,,,,METAR,624.0
SVBI 242203Z AUTO /////KT NCD 32/22 Q1010,SVBI,2023-05-24T22:03:00Z,8.62,-70.22,32.0,22.0,,,,,29.822834,,,TRUE,,,,,,,,CLR,,,,,,,,,,,,,,,,,,,,METAR,185.0
SVBC 242203Z AUTO 01008KT NCD 33/21 Q1007,SVBC,2023-05-24T22:03:00Z,10.12,-64.68,33.0,21.0,10,8,,,29.734253,,,TRUE,,,,,,,,CLR,,,,,,,,,,,,,,,,,,,,METAR,7.0
PFWS 242203Z AUTO 32003KT 10SM -RA FEW006 BKN011 OVC018 06/05 A2983 RMK AO2 P0000,PFWS,2023-05-24T22:03:00Z,58.7,-157.0,6.0,5.0,320,3,,10.0,29.828741,,,TRUE,TRUE,,,,,,-RA,FEW,600,BKN,1100,OVC,1800,,,MVFR,,,,,,0.005,,,,,,SPECI,40.0
KSLK 242203Z AUTO 35007KT 300V030 10SM SCT009 BKN015 OVC021 07/04 A3011 RMK AO2 T00670044,KSLK,2023-05-24T22:03:00Z,44.4,-74.2,6.7,4.4,350,7,,10.0,30.109253,,,TRUE,TRUE,,,,,,,SCT,900,BKN,1500,OVC,2100,,,MVFR,,,,,,,,,,,,SPECI,502.0
KNMM 242203Z 08006KT 10SM SCT025 BKN040 BKN250 23/18 A2995 RMK AO2 T02330183,KNMM,2023-05-24T22:03:00Z,32.53,-88.53,23.3,18.3,80,6,,10.0,29.949802,,,,TRUE,,,,,,,SCT,2500,BKN,4000,BKN,25000,,,VFR,,,,,,,,,,,,SPECI,94.0
KLFI 242203Z 02009KT 10SM SCT200 22/09 A2997 RMK SLP155 T02150087 $,KLFI,2023-05-24T22:03:00Z,37.08,-76.33,21.5,8.7,20,9,,10.0,29.970472,1015.5,,,,TRUE,,,,,,SCT,20000,,,,,,,VFR,,,,,,,,,,,,SPECI,2.0
KHND 242203Z 21017G24KT 10SM CLR 34/M06 A2975 RMK AO2 WSHFT 2143,KHND,2023-05-24T22:03:00Z,35.98,-115.13,34.0,-6.0,210,17,24,10.0,29.749016,,,,TRUE,,,,,,,CLR,,,,,,,,VFR,,,,,,,,,,,,SPECI,740.0
KEMP 242203Z AUTO 17008KT 10SM -RA FEW090 BKN110 18/16 A3005 RMK AO2 LTG DSNT ALQDS P0000 T01780161,KEMP,2023-05-24T22:03:00Z,38.33,-96.2,17.8,16.1,170,8,,10.0,30.050198,,,TRUE,TRUE,,,,,,-RA,FEW,9000,BKN,11000,,,,,VFR,,,,,,0.005,,,,,,SPECI,366.0
KBZN 242203Z 26014G22KT 10SM BKN070 OVC085 18/08 A2990 RMK AO2 WSHFT 2143 LTG DSNT NW T01830083,KBZN,2023-05-24T22:03:00Z,45.78,-111.17,18.3,8.3,260,14,22,10.0,29.899607,,,,TRUE,,,,,,,BKN,7000,OVC,8500,,,,,VFR,,,,,,,,,,,,SPECI,1349.0
EBLB 242203Z AUTO VRB02KT 7000 NCD 04/03 Q1024 WHT,EBLB,2023-05-24T22:03:00Z,50.47,6.17,4.0,3.0,0,2,,4.35,30.236221,,,TRUE,,,,,,,,CLR,,,,,,,,MVFR,,,,,,,,,,,,SPECI,563.0
PAHX 242202Z AUTO 05003KT 10SM BKN039 OVC048 13/05 A2987 RMK AO2 SLP115 T01280050,PAHX,2023-05-24T22:02:00Z,62.7,-159.57,12.8,5.0,50,3,,10.0,29.870079,1011.5,,TRUE,TRUE,,,,,,,BKN,3900,OVC,4800,,,,,VFR,,,,,,,,,,,,METAR,20.0
KULM 242202Z AUTO 12008G16KT 10SM CLR 28/09 A3010 RMK AO2,KULM,2023-05-24T22:02:00Z,44.32,-94.5,28.0,9.0,120,8,16,10.0,30.100393,,,TRUE,TRUE,,,,,,,CLR,,,,,,,,VFR,,,,,,,,,,,,SPECI,305.0
KLAA 242202Z AUTO 13021G29KT 9SM FEW022 SCT028 SCT034 22/15 A2998 RMK AO2 PK WND 13029/2201 T02170150,KLAA,2023-05-24T22:02:00Z,38.07,-102.68,21.7,15.0,130,21,29,9.0,29.97933,,,TRUE,TRUE,,,,,,,FEW,2200,SCT,2800,SCT,3400,,,VFR,,,,,,,,,,,,SPECI,1129.0
KGEY 242202Z AUTO 30016G24KT 10SM CLR 23/08 A2983 RMK AO2 LTG DSNT N-E T02330083,KGEY,2023-05-24T22:02:00Z,44.52,-108.08,23.3,8.3,300,16,24,10.0,29.828741,,,TRUE,TRUE,,,,,,,CLR,,,,,,,,VFR,,,,,,,,,,,,SPECI,1191.0
KFZY 242202Z AUTO 02012G20KT 10SM SCT025 12/06 A3016 RMK AO2 T01170056,KFZY,2023-05-24T22:02:00Z,43.35,-76.38,11.7,5.6,20,12,20,10.0,30.159449,,,TRUE,TRUE,,,,,,,SCT,2500,,,,,,,VFR,,,,,,,,,,,,METAR,143.0
KCWN 242202Z AUTO 31013KT 10SM OVC110 14/04 A2999 RMK AO2 LTG DSNT NE-S TSE02 PRESRR SLP005 $,KCWN,2023-05-24T22:02:00Z,38.75,-104.85,14.0,4.0,310,13,,10.0,29.991142,1000.5,,TRUE,TRUE,TRUE,,,,,,OVC,11000,,,,,,,VFR,,,,,,,,,,,,SPECI,2040.0
KBLM 242202Z 16008KT 10SM CLR 19/06 A2995,KBLM,2023-05-24T22:02:00Z,40.17,-74.12,19.0,6.0,160,8,,10.0,29.949802,,,,,,,,,,,CLR,,,,,,,,VFR,,,,,,,,,,,,METAR,45.0
KBFD 242202Z AUTO 02010G18KT 10SM BKN021 OVC030 14/08 A3012 RMK AO2 T01440083,KBFD,2023-05-24T22:02:00Z,41.8,-78.63,14.4,8.3,20,10,18,10.0,30.121063,,,TRUE,TRUE,,,,,,,BKN,2100,OVC,3000,,,,,MVFR,,,,,,,,,,,,SPECI,642.0
KAFF 242202Z COR 22008G16KT 10SM VCTS -SHRA BKN055CB OVC070 13/06 A3009 RMK AO2A TS 9E MOV E SLP137 COR 2219,KAFF,2023-05-24T22:02:00Z,38.97,-104.82,13.0,6.0,220,8,16,10.0,30.088583,1013.7,TRUE,,TRUE,,,,,,VCTS -SHRA,BKN,5500,OVC,7000,,,,,VFR,,,,,,,,,,,,METAR,2003.0
VOTV 242201Z 06003KT 3000 BR SCT012 FEW025CB BKN080 29/25 Q1010 TEMPO 3000 -RA,VOTV,2023-05-24T22:01:00Z,8.48,76.92,29.0,25.0,60,3,,1.86,29.822834,,,,,,,,,,BR,SCT,1200,FEW,2500,BKN,8000,,,IFR,,,,,,,,,,,,METAR,9.0
PASN 242201Z AUTO 30008KT 10SM OVC005 03/02 A3004 RMK AO2 T00330017 TSNO $,PASN,2023-05-24T22:01:00Z,57.15,-170.22,3.3,1.7,300,8,,10.0,30.041338,,,TRUE,TRUE,TRUE,,TRUE,,,,OVC,500,,,,,,,IFR,,,,,,,,,,,,SPECI,8.0
PAFS 242201Z AUTO VRB06KT 10SM OVC065 16/03 A2983 RMK AO2 SLP106 T01610028,PAFS,2023-05-24T22:01:00Z,63.02,-154.35,16.1,2.8,0,6,,10.0,29.828741,1010.6,,TRUE,TRUE,,,,,,,OVC,6500,,,,,,,VFR,,,,,,,,,,,,METAR,131.0
ZYTX 242200Z 17004MPS CAVOK 18/10 Q1010 BECMG TL2330 18009MPS,ZYTX,2023-05-24T22:00:00Z,41.63,123.48,18.0,10.0,170,8,,6.21,29.822834,,,,,,,,,,,CAVOK,,,,,,,,VFR,,,,,,,,,,,,METAR,56.0
ZYTL 242200Z 14003MPS 110V180 CAVOK 17/08 Q1012 NOSIG,ZYTL,2023-05-24T22:00:00Z,38.97,121.55,17.0,8.0,140,6,,6.21,29.88189,,,,,,TRUE,,,,,CAVOK,,,,,,,,VFR,,,,,,,,,,,,METAR,33.0
ZYHB 242200Z 19007G12MPS 160V230 CAVOK 19/08 Q1004 NOSIG,ZYHB,2023-05-24T22:00:00Z,45.62,126.25,19.0,8.0,190,14,23,6.21,29.64567,,,,,,TRUE,,,,,CAVOK,,,,,,,,VFR,,,,,,,,,,,,METAR,134.0
ZYCC 242200Z 20008MPS CAVOK 19/05 Q1007 NOSIG,ZYCC,2023-05-24T22:00:00Z,43.98,125.68,19.0,5.0,200,16,,6.21,29.734253,,,,,,TRUE,,,,,CAVOK,,,,,,,,VFR,,,,,,,,,,,,METAR,211.0
ZWWW 242200Z 25003MPS 220V280 CAVOK 19/03 Q1015 NOSIG,ZWWW,2023-05-24T22:00:00Z,43.9,87.47,19.0,3.0,250,6,,6.21,29.970472,,,,,,TRUE,,,,,CAVOK,,,,,,,,VFR,,,,,,,,,,,,METAR,654.0
ZWSH 242200Z 31003MPS 9999 BKN040 17/07 Q1014 NOSIG,ZWSH,2023-05-24T22:00:00Z,39.55,76.02,17.0,7.0,310,6,,6.21,29.940945,,,,,,TRUE,,,,,BKN,4000,,,,,,,VFR,,,,,,,,,,,,METAR,1374.0
ZUUU 242200Z 34001MPS 7000 SCT050 20/15 Q1008 NOSIG,ZUUU,2023-05-24T22:00:00Z,30.58,103.95,20.0,15.0,340,2,,4.35,29.763779,,,,,,TRUE,,,,,SCT,5000,,,,,,,MVFR,,,,,,,,,,,,METAR,494.0
ZUTF 242200Z 36001MPS CAVOK 20/17 Q1007 NOSIG,ZUTF,2023-05-24T22:00:00Z,30.3,104.43,20.0,17.0,360,2,,6.21,29.734253,,,,,,TRUE,,,,,CAVOK,,,,,,,,VFR,,,,,,,,,,,,METAR,443.0
ZUGY 242200Z 22004MPS 9999 SCT016 OVC030 21/18 Q1011 NOSIG,ZUGY,2023-05-24T22:00:00Z,26.53,106.8,21.0,18.0,220,8,,6.21,29.852362,,,,,,TRUE,,,,,SCT,1600,OVC,3000,,,,,MVFR,,,,,,,,,,,,METAR,1130.0
ZUCK 242200Z 19001MPS 9999 OVC033 22/16 Q1007 NOSIG,ZUCK,2023-05-24T22:00:00Z,29.72,106.63,22.0,16.0,190,2,,6.21,29.734253,,,,,,TRUE,,,,,OVC,3300,,,,,,,VFR,,,,,,,,,,,,METAR,416.0
ZSSS 242200Z 10001MPS 6000 NSC 18/16 Q1014 NOSIG,ZSSS,2023-05-24T22:00:00Z,31.2,121.33,18.0,16.0,100,2,,3.73,29.940945,,,,,,TRUE,,,,,CLR,,,,,,,,MVFR,,,,,,,,,,,,METAR,2.0
ZSQD 242200Z 14003MPS CAVOK 16/09 Q1013 NOSIG,ZSQD,2023-05-24T22:00:00Z,36.27,120.38,16.0,9.0,140,6,,6.21,29.911417,,,,,,TRUE,,,,,CAVOK,,,,,,,,VFR,,,,,,,,,,,,METAR,8.0
ZSPD 242200Z 00000MPS 5000 BR NSC 18/17 Q1015 NOSIG,ZSPD,2023-05-24T22:00:00Z,31.15,121.8,18.0,17.0,0,0,,3.11,29.970472,,,,,,TRUE,,,,BR,CLR,,,,,,,,MVFR,,,,,,,,,,,,METAR,4.0
ZSOF 242200Z 15003MPS 2900 BR NSC 15/15 Q1012 BECMG AT2300 5000,ZSOF,2023-05-24T22:00:00Z,31.98,116.97,15.0,15.0,150,6,,1.8,29.88189,,,,,,,,,,BR,CLR,,,,,,,,IFR,,,,,,,,,,,,METAR,23.0
ZSNJ 242200Z 00000MPS 5000 BR NSC 14/14 Q1013 NOSIG,ZSNJ,2023-05-24T22:00:00Z,31.75,118.87,14.0,14.0,0,0,,3.11,29.911417,,,,,,TRUE,,,,BR,CLR,,,,,,,,MVFR,,,,,,,,,,,,METAR,27.0
ZSNB 242200Z 15002MPS CAVOK 17/16 Q1014 NOSIG,ZSNB,2023-05-24T22:00:00Z,29.83,121.47,17.0,16.0,150,4,,6.21,29.940945,,,,,,TRUE,,,,,CAVOK,,,,,,,,VFR,,,,,,,,,,,,METAR,5.0
ZSHC 242200Z 23002MPS CAVOK 17/16 Q1014 NOSIG,ZSHC,2023-05-24T22:00:00Z,30.22,120.43,17.0,16.0,230,4,,6.21,29.940945,,,,,,TRUE,,,,,CAVOK,,,,,,,,VFR,,,,,,,,,,,,METAR,8.0
ZSFZ 242200Z 34001MPS 9999 FEW024 21/18 Q1014 NOSIG,ZSFZ,2023-05-24T22:00:00Z,25.93,119.67,21.0,18.0,340,2,,6.21,29.940945,,,,,,TRUE,,,,,FEW,2400,,,,,,,VFR,,,,,,,,,,,,METAR,14.0
ZSAM 242200Z 04001MPS 7000 FEW040 23/20 Q1014 TEMPO TL2350 SHRA,ZSAM,2023-05-24T22:00:00Z,24.53,118.13,23.0,20.0,40,2,,4.35,29.940945,,,,,,,,,,,FEW,4000,,,,,,,MVFR,,,,,,,,,,,,METAR,13.0
ZPPP 242200Z 22006MPS CAVOK 17/11 Q1017 NOSIG,ZPPP,2023-05-24T22:00:00Z,25.0,102.65,17.0,11.0,220,12,,6.21,30.029528,,,,,,TRUE,,,,,CAVOK,,,,,,,,VFR,,,,,,,,,,,,METAR,1885.0
ZMUB 242200Z 35007MPS 9999 FEW033 SCT100 03/M00 Q1006 NOSIG RMK QFE648.6 76 MOP,ZMUB,2023-05-24T22:00:00Z,47.83,106.75,3.0,0.0,350,14,,6.21,29.704725,,,,,,TRUE,,,,,FEW,3300,SCT,10000,,,,,VFR,,,,,,,,,,,,SPECI,1300.0
ZLXY 242200Z VRB01MPS 9999 SCT070 18/15 Q1011 BECMG TL2215 TSRA FEW030CB FEW050,ZLXY,2023-05-24T22:00:00Z,34.43,108.75,18.0,15.0,0,2,,6.21,29.852362,,,,,,,,,,,SCT,7000,,,,,,,VFR,,,,,,,,,,,,METAR,478.0
ZLLL 242200Z VRB01MPS CAVOK 08/06 Q1019 NOSIG,ZLLL,2023-05-24T22:00:00Z,36.52,103.62,8.0,6.0,0,2,,6.21,30.088583,,,,,,TRUE,,,,,CAVOK,,,,,,,,VFR,,,,,,,,,,,,METAR,1939.0
ZJSY 242200Z 09002MPS 9999 FEW015 27/25 Q1008 NOSIG,ZJSY,2023-05-24T22:00:00Z,18.3,109.42,27.0,25.0,90,4,,6.21,29.763779,,,,,,TRUE,,,,,FEW,1500,,,,,,,VFR,,,,,,,,,,,,METAR,27.0
ZJHK 242200Z 13002MPS 100V160 8000 NSC 26/26 Q1008 NOSIG,ZJHK,2023-05-24T22:00:00Z,19.93,110.43,26.0,26.0,130,4,,4.97,29.763779,,,,,,TRUE,,,,,CLR,,,,,,,,MVFR,,,,,,,,,,,,METAR,21.0
ZHHH 242200Z 08003MPS 3500 BR NSC 19/17 Q1011 NOSIG,ZHHH,2023-05-24T22:00:00Z,30.78,114.22,19.0,17.0,80,6,,2.17,29.852362,,,,,,TRUE,,,,BR,CLR,,,,,,,,IFR,,,,,,,,,,,,METAR,33.0
ZHCC 242200Z 19002MPS 140V240 4000 BR NSC 17/15 Q1011 NOSIG,ZHCC,2023-05-24T22:00:00Z,34.52,113.83,17.0,15.0,190,4,,2.49,29.852362,,,,,,TRUE,,,,BR,CLR,,,,,,,,IFR,,,,,,,,,,,,METAR,149.0
ZGSZ 242200Z VRB02MPS 9999 FEW030 26/23 Q1011 NOSIG,ZGSZ,2023-05-24T22:00:00Z,22.63,113.8,26.0,23.0,0,4,,6.21,29.852362,,,,,,TRUE,,,,,FEW,3000,,,,,,,VFR,,,,,,,,,,,,METAR,18.0
ZGOW 242200Z 13003MPS 7000 BKN026 23/20 Q1013 NOSIG,ZGOW,2023-05-24T22:00:00Z,23.55,116.5,23.0,20.0,130,6,,4.35,29.911417,,,,,,TRUE,,,,,BKN,2600,,,,,,,MVFR,,,,,,,,,,,,METAR,4.0
ZGNN 242200Z 07003MPS 5000 BR SCT013 OVC033 24/23 Q1008 NOSIG,ZGNN,2023-05-24T22:00:00Z,22.62,108.17,24.0,23.0,70,6,,3.11,29.763779,,,,,,TRUE,,,,BR,SCT,1300,OVC,3300,,,,,MVFR,,,,,,,,,,,,METAR,128.0
ZGKL 242200Z VRB01MPS 3000 -SHRA BR FEW010 SCT020 FEW036CB BKN036 21/21 Q1010 BECMG FM2300 2500,ZGKL,2023-05-24T22:00:00Z,25.22,110.03,21.0,21.0,0,2,,1.86,29.822834,,,,,,,,,,-SHRA BR,FEW,1000,SCT,2000,FEW,3600,BKN,3600,IFR,,,,,,,,,,,,METAR,151.0
ZGHA 242200Z VRB01MPS 5000 BR NSC 19/18 Q1011 NOSIG,ZGHA,2023-05-24T22:00:00Z,28.18,113.22,19.0,18.0,0,2,,3.11,29.852362,,,,,,TRUE,,,,BR,CLR,,,,,,,,MVFR,,,,,,,,,,,,METAR,61.0
ZGGG 242200Z 07002MPS 9999 BKN026 24/24 Q1011 NOSIG,ZGGG,2023-05-24T22:00:00Z,23.4,113.3,24.0,24.0,70,4,,6.21,29.852362,,,,,,TRUE,,,,,BKN,2600,,,,,,,MVFR,,,,,,,,,,,,METAR,11.0
ZBYN 242200Z 14002MPS 110V170 CAVOK 15/08 Q1010 NOSIG,ZBYN,2023-05-24T22:00:00Z,37.73,112.63,15.0,8.0,140,4,,6.21,29.822834,,,,,,TRUE,,,,,CAVOK,,,,,,,,VFR,,,,,,,,,,,,METAR,778.0
ZBTJ 242200Z 19004MPS 170V230 CAVOK 19/11 Q1007 NOSIG,ZBTJ,2023-05-24T22:00:00Z,39.12,117.35,19.0,11.0,190,8,,6.21,29.734253,,,,,,TRUE,,,,,CAVOK,,,,,,,,VFR,,,,,,,,,,,,METAR,4.0
ZBSJ 242200Z 18003MPS CAVOK 18/14 Q1006 NOSIG,ZBSJ,2023-05-24T22:00:00Z,38.28,114.7,18.0,14.0,180,6,,6.21,29.704725,,,,,,TRUE,,,,,CAVOK,,,,,,,,VFR,,,,,,,,,,,,METAR,70.0
ZBHH 242200Z VRB01MPS CAVOK 10/07 Q1009 NOSIG,ZBHH,2023-05-24T22:00:00Z,40.85,111.82,10.0,7.0,0,2,,6.21,29.793306,,,,,,TRUE,,,,,CAVOK,,,,,,,,VFR,,,,,,,,,,,,METAR,1081.0
ZBAD 242200Z 20005MPS CAVOK 19/12 Q1006 NOSIG,ZBAD,2023-05-24T22:00:00Z,39.5,116.42,19.0,12.0,200,10,,6.21,29.704725,,,,,,TRUE,,,,,CAVOK,,,,,,,,VFR,,,,,,,,,,,,METAR,25.0
ZBAA 242200Z 15003MPS CAVOK 19/11 Q1006 NOSIG,ZBAA,2023-05-24T22:00:00Z,40.07,116.6,19.0,11.0,150,6,,6.21,29.704725,,,,,,TRUE,,,,,CAVOK,,,,,,,,VFR,,,,,,,,,,,,METAR,31.0
YWLM 242200Z 30009KT CAVOK 09/05 Q1022,YWLM,2023-05-24T22:00:00Z,-32.8,151.83,9.0,5.0,300,9,,6.21,30.177166,,,,,,,,,,,CAVOK,,,,,,,,VFR,,,,,,,,,,,,METAR,7.0
YSTW 242200Z AUTO 14003KT 9999 // NCD 04/00 Q1026 RF00.0/000.0,YSTW,2023-05-24T22:00:00Z,-31.08,150.85,4.0,0.0,140,3,,6.21,30.295275,,,TRUE,,,,,,,,CLR,,,,,,,,VFR,,,,,,,,,,,,SPECI,404.0
YSSY 242200Z 32005KT CAVOK 12/05 Q1021,YSSY,2023-05-24T22:00:00Z,-33.95,151.17,12.0,5.0,320,5,,6.21,30.147638,,,,,,,,,,,CAVOK,,,,,,,,VFR,,,,,,,,,,,,METAR,3.0
YSRI 242200Z AUTO 18003KT 9999 // NCD 03/03 Q1021 RF00.0/000.0,YSRI,2023-05-24T22:00:00Z,-33.6,150.77,3.0,3.0,180,3,,6.21,30.147638,,,TRUE,,,,,,,,CLR,,,,,,,,VFR,,,,,,,,,,,,SPECI,19.0
YSNF 242200Z 14010KT 9999 SCT034 BKN046 18/13 Q1022 RF00.0/001.0,YSNF,2023-05-24T22:00:00Z,-29.03,167.93,18.0,13.0,140,10,,6.21,30.177166,,,,,,,,,,,SCT,3400,BKN,4600,,,,,VFR,,,,,,,,,,,,SPECI,113.0
YSDU 242200Z AUTO 13005KT 9999 // NCD 04/02 Q1024 RF00.0/000.0,YSDU,2023-05-24T22:00:00Z,-32.22,148.57,4.0,2.0,130,5,,6.21,30.236221,,,TRUE,,,,,,,,CLR,,,,,,,,VFR,,,,,,,,,,,,SPECI,285.0
YSCB 242200Z AUTO 35006KT 9999 // NCD 06/03 Q1020 RF00.2/000.2,YSCB,2023-05-24T22:00:00Z,-35.3,149.18,6.0,3.0,350,6,,6.21,30.11811,,,TRUE,,,,,,,,CLR,,,,,,,,VFR,,,,,,,,,,,,SPECI,577.0
YPXM 242200Z AUTO 13009KT 9999 // OVC014 OVC020 25/23 Q1015,YPXM,2023-05-24T22:00:00Z,-10.45,105.68,25.0,23.0,130,9,,6.21,29.970472,,,TRUE,,,,,,,,OVC,1400,OVC,2000,,,,,MVFR,,,,,,,,,,,,SPECI,262.0
YPWR 242200Z AUTO 31002KT 9999 // NCD 12/01 Q1019 RF00.0/000.0,YPWR,2023-05-24T22:00:00Z,-31.15,136.82,12.0,1.0,310,2,,6.21,30.088583,,,TRUE,,,,,,,,CLR,,,,,,,,VFR,,,,,,,,,,,,METAR,169.0
YPTN 242200Z AUTO 15005KT 9999 // NCD 12/08 Q1018 RF00.0/000.0,YPTN,2023-05-24T22:00:00Z,-14.52,132.38,12.0,8.0,150,5,,6.21,30.059055,,,TRUE,,,,,,,,CLR,,,,,,,,VFR,,,,,,,,,,,,SPECI,135.0
YPPH 242200Z 00000KT 9999 FEW048 04/04 Q1031,YPPH,2023-05-24T22:00:00Z,-31.93,115.98,4.0,4.0,0,0,,6.21,30.442913,,,,,,,,,,,FEW,4800,,,,,,,VFR,,,,,,,,,,,,METAR,16.0
YPPD 242200Z AUTO 13005KT 9999 // NCD 14/04 Q1019 RF00.0/000.0,YPPD,2023-05-24T22:00:00Z,-20.37,118.62,14.0,4.0,130,5,,6.21,30.088583,,,TRUE,,,,,,,,CLR,,,,,,,,VFR,,,,,,,,,,,,SPECI,6.0
YPLM 242200Z AUTO 22008KT 9999 // NCD 14/12 Q1021 RF00.0/000.0,YPLM,2023-05-24T22:00:00Z,-22.23,114.08,14.0,12.0,220,8,,6.21,30.147638,,,TRUE,,,,,,,,CLR,,,,,,,,VFR,,,,,,,,,,,,SPECI,5.0
YPKU 242200Z AUTO 00000KT 9999 // ////// 11/10 Q1018 RF00.0/000.0,YPKU,2023-05-24T22:00:00Z,-15.77,128.7,11.0,10.0,0,0,,6.21,30.059055,,,TRUE,,,,,,,,,,,,,,,,,,,,,,,,,,,,SPECI,42.0
YPKG 242200Z AUTO 23005KT 9999 // NCD 07/04 Q1029 RF00.0/000.0,YPKG,2023-05-24T22:00:00Z,-30.78,121.45,7.0,4.0,230,5,,6.21,30.383858,,,TRUE,,,,,,,,CLR,,,,,,,,VFR,,,,,,,,,,,,SPECI,372.0
YPJT 242200Z AUTO 17004KT 9999 // SCT046 06/05 Q1031 RF00.0/000.0,YPJT,2023-05-24T22:00:00Z,-32.1,115.88,6.0,5.0,170,4,,6.21,30.442913,,,TRUE,,,,,,,,SCT,4600,,,,,,,VFR,,,,,,,,,,,,METAR,29.0
YPGV 242200Z AUTO 12006KT 9999 // SCT080 25/21 Q1015 RF00.0/000.0,YPGV,2023-05-24T22:00:00Z,-12.27,136.82,25.0,21.0,120,6,,6.21,29.970472,,,TRUE,,,,,,,,SCT,8000,,,,,,,VFR,,,,,,,,,,,,SPECI,53.0
YPEA 242200Z AUTO 00000KT 9999 // NCD 04/02 Q1031 RF00.0/000.0,YPEA,2023-05-24T22:00:00Z,-31.67,116.02,4.0,2.0,0,0,,6.21,30.442913,,,TRUE,,,,,,,,CLR,,,,,,,,VFR,,,,,,,,,,,,SPECI,38.0
YPDN 242200Z 11007KT CAVOK 21/12 Q1016,YPDN,2023-05-24T22:00:00Z,-12.42,130.9,21.0,12.0,110,7,,6.21,30.0,,,,,,,,,,,CAVOK,,,,,,,,VFR,,,,,,,,,,,,METAR,32.0
YPCC 242200Z AUTO 10015KT 9999 // SCT019 SCT046 27/24 Q1013,YPCC,2023-05-24T22:00:00Z,-12.18,96.83,27.0,24.0,100,15,,6.21,29.911417,,,TRUE,,,,,,,,SCT,1900,SCT,4600,,,,,VFR,,,,,,,,,,,,SPECI,3.0
YMML 242200Z 01024KT CAVOK 10/05 Q1013 BKN220,YMML,2023-05-24T22:00:00Z,-37.67,144.82,10.0,5.0,10,24,,6.21,29.911417,,,,,,,,,,,BKN,22000,,,,,,,VFR,,,,,,,,,,,,METAR,115.0
YMLT 242200Z AUTO 34017KT 9999 -SHRA BKN033 OVC039 OVC066 12/09 Q1004,YMLT,2023-05-24T22:00:00Z,-41.53,147.2,12.0,9.0,340,17,,6.21,29.64567,,,TRUE,,,,,,,-SHRA,BKN,3300,OVC,3900,OVC,6600,,,VFR,,,,,,,,,,,,METAR,167.0
YMAV 242200Z AUTO 01017KT 9999 // NCD 11/04 Q1011 RF00.0/000.2,YMAV,2023-05-24T22:00:00Z,-38.03,144.48,11.0,4.0,10,17,,6.21,29.852362,,,TRUE,,,,,,,,CLR,,,,,,,,VFR,,,,,,,,,,,,SPECI,11.0
YLHI 242200Z AUTO 08007KT 9999 // BKN031 19/12 Q1025 RF00.0/000.0,YLHI,2023-05-24T22:00:00Z,-31.53,159.07,19.0,12.0,80,7,,6.21,30.265747,,,TRUE,,,,,,,,BKN,3100,,,,,,,VFR,,,,,,,,,,,,METAR,2.0
YHID 242200Z AUTO 18007KT 9999 // OVC096 26/23 Q1014 RF00.0/000.0,YHID,2023-05-24T22:00:00Z,-10.58,142.3,26.0,23.0,180,7,,6.21,29.940945,,,TRUE,,,,,,,,OVC,9600,,,,,,,VFR,,,,,,,,,,,,METAR,5.0
YGLA 242200Z AUTO 21005KT 9999 // NCD 16/11 Q1024 RF00.0/000.0,YGLA,2023-05-24T22:00:00Z,-23.87,151.22,16.0,11.0,210,5,,6.21,30.236221,,,TRUE,,,,,,,,CLR,,,,,,,,VFR,,,,,,,,,,,,METAR,17.0
YGEL 242200Z AUTO 15011KT 9999 // NCD 11/07 Q1029 RF00.0/001.4,YGEL,2023-05-24T22:00:00Z,-28.8,114.7,11.0,7.0,150,11,,6.21,30.383858,,,TRUE,,,,,,,,CLR,,,,,,,,VFR,,,,,,,,,,,,METAR,32.0
YFRT 242200Z AUTO 25013KT 9999 // OVC056 OVC079 14/10 Q1024,YFRT,2023-05-24T22:00:00Z,-30.83,128.12,14.0,10.0,250,13,,6.21,30.236221,,,TRUE,,,,,,,,OVC,5600,OVC,7900,,,,,VFR,,,,,,,,,,,,SPECI,159.0
YCIN 242200Z AUTO 12009KT 9999 // NCD 18/04 Q1017 RF00.0/000.0,YCIN,2023-05-24T22:00:00Z,-17.58,123.83,18.0,4.0,120,9,,6.21,30.029528,,,TRUE,,,,,,,,CLR,,,,,,,,VFR,,,,,,,,,,,,SPECI,83.0
YCFS 242200Z AUTO 31006KT 9999 // ////// 15/10 Q1024 RF00.0/000.0,YCFS,2023-05-24T22:00:00Z,-30.32,153.12,15.0,10.0,310,6,,6.21,30.236221,,,TRUE,,,,,,,,,,,,,,,,,,,,,,,,,,,,METAR,2.0
YBWW 242200Z AUTO 00000KT 9999 // NCD 08/07 Q1025 RF00.0/000.0,YBWW,2023-05-24T22:00:00Z,-27.55,151.8,8.0,7.0,0,0,,6.21,30.265747,,,TRUE,,,,,,,,CLR,,,,,,,,VFR,,,,,,,,,,,,METAR,460.0
YBTL 242200Z 25002KT 9999 FEW035 20/16 Q1021,YBTL,2023-05-24T22:00:00Z,-19.25,146.75,20.0,16.0,250,2,,6.21,30.147638,,,,,,,,,,,FEW,3500,,,,,,,VFR,,,,,,,,,,,,METAR,4.0
YBSU 242200Z AUTO 29004KT 9999 // NCD 13/13 Q1025 RF00.0/000.0,YBSU,2023-05-24T22:00:00Z,-26.6,153.08,13.0,13.0,290,4,,6.21,30.265747,,,TRUE,,,,,,,,CLR,,,,,,,,VFR,,,,,,,,,,,,METAR,4.0
YBRM 242200Z AUTO 11004KT 7000 // NCD 13/11 Q1018 RF00.0/000.0,YBRM,2023-05-24T22:00:00Z,-17.93,122.23,13.0,11.0,110,4,,4.35,30.059055,,,TRUE,,,,,,,,CLR,,,,,,,,MVFR,,,,,,,,,,,,SPECI,11.0
YBRK 242200Z AUTO 12008KT 9999 // NCD 18/12 Q1023 RF00.0/000.0,YBRK,2023-05-24T22:00:00Z,-23.37,150.47,18.0,12.0,120,8,,6.21,30.206694,,,TRUE,,,,,,,,CLR,,,,,,,,VFR,,,,,,,,,,,,SPECI,10.0
YBMA 242200Z AUTO 06003KT 9999 // NCD 17/07 Q1021 RF00.0/000.0,YBMA,2023-05-24T22:00:00Z,-20.67,139.48,17.0,7.0,60,3,,6.21,30.147638,,,TRUE,,,,,,,,CLR,,,,,,,,VFR,,,,,,,,,,,,SPECI,346.0
YBLN 242200Z AUTO 17006KT 9999 // SCT054 08/08 Q1032 RF00.0/000.0,YBLN,2023-05-24T22:00:00Z,-33.68,115.4,8.0,8.0,170,6,,6.21,30.47244,,,TRUE,,,,,,,,SCT,5400,,,,,,,VFR,,,,,,,,,,,,METAR,17.0
YBHM 242200Z AUTO 15022KT 9999 // SCT018 SCT032 BKN042 20/18 Q1021,YBHM,2023-05-24T22:00:00Z,-20.35,148.95,20.0,18.0,150,22,,6.21,30.147638,,,TRUE,,,,,,,,SCT,1800,SCT,3200,BKN,4200,,,VFR,,,,,,,,,,,,SPECI,4.0
YBCG 242200Z AUTO 18004KT 9999 // NCD 15/15 Q1025 RF00.0/000.0,YBCG,2023-05-24T22:00:00Z,-28.17,153.5,15.0,15.0,180,4,,6.21,30.265747,,,TRUE,,,,,,,,CLR,,,,,,,,VFR,,,,,,,,,,,,SPECI,5.0
YBBN 242200Z 21008KT CAVOK 14/12 Q1025,YBBN,2023-05-24T22:00:00Z,-27.38,153.13,14.0,12.0,210,8,,6.21,30.265747,,,,,,,,,,,CAVOK,,,,,,,,VFR,,,,,,,,,,,,METAR,3.0
YBAS 242200Z AUTO /////KT 9999 // NCD 04/M00 Q1023 RF00.0/000.0,YBAS,2023-05-24T22:00:00Z,-23.8,133.9,4.0,0.0,,,,6.21,30.206694,,,TRUE,,,,,,,,CLR,,,,,,,,VFR,,,,,,,,,,,,SPECI,549.0
YAMB 242200Z 00000KT 2000 0900S PRFG FEW002 09/08 Q1026 RF00.0/000.0 FOG BANK E-SW VIS 0900M S END OF RNWY OBSCURED,YAMB,2023-05-24T22:00:00Z,-27.63,152.72,9.0,8.0,0,0,,1.24,30.295275,,,,,,,,,,PRFG,FEW,200,,,,,,,IFR,,,,,,,,,,,,SPECI,26.0
WSSS 242200Z 14007KT 9999 FEW018 BKN300 29/26 Q1010 NOSIG,WSSS,2023-05-24T22:00:00Z,1.37,103.97,29.0,26.0,140,7,,6.21,29.822834,,,,,,TRUE,,,,,FEW,1800,BKN,30000,,,,,VFR,,,,,,,,,,,,METAR,17.0
WSSL 242200Z 15005KT 120V190 9999 FEW018 BKN300 29/26 Q1011,WSSL,2023-05-24T22:00:00Z,1.42,103.87,29.0,26.0,150,5,,6.21,29.852362,,,,,,,,,,,FEW,1800,BKN,30000,,,,,VFR,,,,,,,,,,,,METAR,11.0
WSAP 242200Z 13006KT 9999 FEW016 FEW017CB BKN300 29/26 Q1011,WSAP,2023-05-24T22:00:00Z,1.37,103.92,29.0,26.0,130,6,,6.21,29.852362,,,,,,,,,,,FEW,1600,FEW,1700,BKN,30000,,,VFR,,,,,,,,,,,,METAR,20.0
WMSA 242200Z VRB01KT 8000 FEW026 27/26 Q1011,WMSA,2023-05-24T22:00:00Z,3.13,101.55,27.0,26.0,0,1,,4.97,29.852362,,,,,,,,,,,FEW,2600,,,,,,,MVFR,,,,,,,,,,,,METAR,19.0
WMKP 242200Z 00000KT 9000 FEW025 28/25 Q1010 NOSIG,WMKP,2023-05-24T22:00:00Z,5.28,100.27,28.0,25.0,0,0,,5.59,29.822834,,,,,,TRUE,,,,,FEW,2500,,,,,,,VFR,,,,,,,,,,,,METAR,4.0
WMKN 242200Z 20005KT 150V260 9000 -RA FEW010 FEW017CB SCT020 24/23 Q1010,WMKN,2023-05-24T22:00:00Z,5.37,103.1,24.0,23.0,200,5,,5.59,29.822834,,,,,,,,,,-RA,FEW,1000,FEW,1700,SCT,2000,,,VFR,,,,,,,,,,,,METAR,12.0
WMKM 242200Z VRB01KT 9999 FEW017CB 27/25 Q1011,WMKM,2023-05-24T22:00:00Z,2.27,102.25,27.0,25.0,0,1,,6.21,29.852362,,,,,,,,,,,FEW,1700,,,,,,,VFR,,,,,,,,,,,,METAR,9.0
WMKL 242200Z VRB03KT 9999 FEW026 27/25 Q1010,WMKL,2023-05-24T22:00:00Z,6.32,99.72,27.0,25.0,0,3,,6.21,29.822834,,,,,,,,,,,FEW,2600,,,,,,,VFR,,,,,,,,,,,,METAR,4.0
WMKK 242200Z VRB02KT 8000 FEW010 FEW017CB 27/25 Q1011 NOSIG,WMKK,2023-05-24T22:00:00Z,2.75,101.72,27.0,25.0,0,2,,4.97,29.852362,,,,,,TRUE,,,,,FEW,1000,FEW,1700,,,,,MVFR,,,,,,,,,,,,METAR,21.0
WMKJ 242200Z 00000KT 7000 FEW006 26/25 Q1011,WMKJ,2023-05-24T22:00:00Z,1.63,103.67,26.0,25.0,0,0,,4.35,29.852362,,,,,,,,,,,FEW,600,,,,,,,MVFR,,,,,,,,,,,,METAR,38.0
WMKI 242200Z VRB02KT 8000 FEW026 25/23 Q1011,WMKI,2023-05-24T22:00:00Z,4.57,101.08,25.0,23.0,0,2,,4.97,29.852362,,,,,,,,,,,FEW,2600,,,,,,,MVFR,,,,,,,,,,,,METAR,37.0
WMKE 242200Z AUTO VRB01KT //// // ////// 25/23 Q1010,WMKE,2023-05-24T22:00:00Z,4.53,103.43,25.0,23.0,0,1,,,29.822834,,,TRUE,,,,,,,,,,,,,,,,,,,,,,,,,,,,METAR,5.0
WMKD 242200Z 00000KT 6000 FEW000 26/26 Q1010 NOSIG,WMKD,2023-05-24T22:00:00Z,3.77,103.22,26.0,26.0,0,0,,3.73,29.822834,,,,,,TRUE,,,,,FEW,0,,,,,,,MVFR,,,,,,,,,,,,METAR,18.0
WMKC 242200Z VRB01KT 9999 FEW020 27/26 Q1010,WMKC,2023-05-24T22:00:00Z,6.17,102.28,27.0,26.0,0,1,,6.21,29.822834,,,,,,,,,,,FEW,2000,,,,,,,VFR,,,,,,,,,,,,METAR,7.0
WMKB 242200Z VRB02KT 8000 FEW023 27/24 Q1010 NOSIG,WMKB,2023-05-24T22:00:00Z,5.47,100.38,27.0,24.0,0,2,,4.97,29.822834,,,,,,TRUE,,,,,FEW,2300,,,,,,,MVFR,,,,,,,,,,,,METAR,4.0
WMKA 242200Z 00000KT 7000 -RA FEW009 SCT028 26/25 Q1010 RETSRA,WMKA,2023-05-24T22:00:00Z,6.2,100.4,26.0,25.0,0,0,,4.35,29.822834,,,,,,,,,,-RA,FEW,900,SCT,2800,,,,,MVFR,,,,,,,,,,,,METAR,5.0
WMBA 242200Z 00000KT 9000 FEW031 26/25 Q1010,WMBA,2023-05-24T22:00:00Z,4.22,100.7,26.0,25.0,0,0,,5.59,29.822834,,,,,,,,,,,FEW,3100,,,,,,,VFR,,,,,,,,,,,,METAR,9.0
WMAU 242200Z 19006KT 110V240 8000 FEW003 25/24 Q1010,WMAU,2023-05-24T22:00:00Z,2.38,103.88,25.0,24.0,190,6,,4.97,29.822834,,,,,,,,,,,FEW,300,,,,,,,MVFR,,,,,,,,,,,,METAR,5.0
WIPP 242200Z 17002KT 8000 NSC 26/25 Q1012 NOSIG,WIPP,2023-05-24T22:00:00Z,-2.88,104.7,26.0,25.0,170,2,,4.97,29.88189,,,,,,TRUE,,,,,CLR,,,,,,,,MVFR,,,,,,,,,,,,METAR,7.0
WIOO 242200Z AUTO 07003KT 9999 SCT014 BKN016 BKN019 26/25 Q1011,WIOO,2023-05-24T22:00:00Z,-0.15,109.4,26.0,25.0,70,3,,6.21,29.852362,,,TRUE,,,,,,,,SCT,1400,BKN,1600,BKN,1900,,,MVFR,,,,,,,,,,,,METAR,4.0
WIMM 242200Z 16002KT 4000 BR SCT017 24/24 Q1010 NOSIG,WIMM,2023-05-24T22:00:00Z,3.57,98.67,24.0,24.0,160,2,,2.49,29.822834,,,,,,TRUE,,,,BR,SCT,1700,,,,,,,IFR,,,,,,,,,,,,METAR,27.0
WIII 242200Z 15005KT 4000 BR FEW020 26/26 Q1012 NOSIG,WIII,2023-05-24T22:00:00Z,-6.13,106.67,26.0,26.0,150,5,,2.49,29.88189,,,,,,TRUE,,,,BR,FEW,2000,,,,,,,IFR,,,,,,,,,,,,METAR,9.0
WIHH 242200Z 00000KT 4000 HZ FEW020 26/25 Q1012 NOSIG ,WIHH,2023-05-24T22:00:00Z,-6.27,106.88,26.0,25.0,0,0,,2.49,29.88189,,,,,,TRUE,,,,HZ,FEW,2000,,,,,,,IFR,,,,,,,,,,,,METAR,26.0
WIEE 242200Z 35002KT 9999 SCT020 24/23 Q1011 NOSIG,WIEE,2023-05-24T22:00:00Z,-0.78,100.28,24.0,23.0,350,2,,6.21,29.852362,,,,,,TRUE,,,,,SCT,2000,,,,,,,VFR,,,,,,,,,,,,METAR,5.0
WIDD 242200Z 19005KT 9999 FEW013CB FEW014 28/26 Q1012 NOSIG RMK CB TO S,WIDD,2023-05-24T22:00:00Z,1.12,104.12,28.0,26.0,190,5,,6.21,29.88189,,,,,,TRUE,,,,,FEW,1300,FEW,1400,,,,,VFR,,,,,,,,,,,,SPECI,26.0
WBSB 242200Z 22001KT 9999 FEW014 BKN300 26/26 Q1011 NOSIG,WBSB,2023-05-24T22:00:00Z,4.93,114.92,26.0,26.0,220,1,,6.21,29.852362,,,,,,TRUE,,,,,FEW,1400,BKN,30000,,,,,VFR,,,,,,,,,,,,METAR,15.0
WBKW 242200Z 00000KT 9999 FEW016 23/22 Q1012,WBKW,2023-05-24T22:00:00Z,4.32,118.12,23.0,22.0,0,0,,6.21,29.88189,,,,,,,,,,,FEW,1600,,,,,,,VFR,,,,,,,,,,,,METAR,17.0
WBKT 242200Z 00000KT 9999 FEW014 FEW015CB 26/26 Q1011,WBKT,2023-05-24T22:00:00Z,6.92,116.83,26.0,26.0,0,0,,6.21,29.852362,,,,,,,,,,,FEW,1400,FEW,1500,,,,,VFR,,,,,,,,,,,,METAR,11.0
WBKS 242200Z 00000KT 9999 FEW016 24/23 Q1012,WBKS,2023-05-24T22:00:00Z,5.9,118.07,24.0,23.0,0,0,,6.21,29.88189,,,,,,,,,,,FEW,1600,,,,,,,VFR,,,,,,,,,,,,METAR,13.0
WBKL 242200Z 00000KT 9999 FEW015 26/25 Q1011,WBKL,2023-05-24T22:00:00Z,5.3,115.25,26.0,25.0,0,0,,6.21,29.852362,,,,,,,,,,,FEW,1500,,,,,,,VFR,,,,,,,,,,,,METAR,29.0
WBKK 242200Z 11004KT 070V140 9999 FEW014 FEW016CB 26/22 Q1011 NOSIG,WBKK,2023-05-24T22:00:00Z,5.93,116.05,26.0,22.0,110,4,,6.21,29.852362,,,,,,TRUE,,,,,FEW,1400,FEW,1600,,,,,VFR,,,,,,,,,,,,METAR,9.0
WBGY 242200Z AUTO 00000KT //// // ////// 23/22 Q1012,WBGY,2023-05-24T22:00:00Z,1.22,111.45,23.0,22.0,0,0,,,29.88189,,,TRUE,,,,,,,,,,,,,,,,,,,,,,,,,,,,SPECI,13.0
WBGS 242200Z 00000KT 9999 FEW007 24/23 Q1013,WBGS,2023-05-24T22:00:00Z,2.27,111.98,24.0,23.0,0,0,,6.21,29.911417,,,,,,,,,,,FEW,700,,,,,,,VFR,,,,,,,,,,,,METAR,26.0
WBGR 242200Z VRB01KT 9999 SCT016 25/24 Q1011,WBGR,2023-05-24T22:00:00Z,4.32,113.98,25.0,24.0,0,1,,6.21,29.852362,,,,,,,,,,,SCT,1600,,,,,,,VFR,,,,,,,,,,,,METAR,18.0
WBGG 242200Z 00000KT 9999 FEW018 25/24 Q1012 NOSIG,WBGG,2023-05-24T22:00:00Z,1.48,110.35,25.0,24.0,0,0,,6.21,29.88189,,,,,,TRUE,,,,,FEW,1800,,,,,,,VFR,,,,,,,,,,,,METAR,26.0
WBGB 242200Z VRB03KT 9999 FEW016 25/24 Q1012,WBGB,2023-05-24T22:00:00Z,3.12,113.02,25.0,24.0,0,3,,6.21,29.88189,,,,,,,,,,,FEW,1600,,,,,,,VFR,,,,,,,,,,,,METAR,34.0
WAYY 242200Z 03003KT 9999 FEW016 26/25 Q1014 NOSIG,WAYY,2023-05-24T22:00:00Z,-4.53,136.88,26.0,25.0,30,3,,6.21,29.940945,,,,,,TRUE,,,,,FEW,1600,,,,,,,VFR,,,,,,,,,,,,METAR,32.0
WATT 242200Z 11007KT 8000 FEW018 24/23 Q1015 NOSIG,WATT,2023-05-24T22:00:00Z,-10.17,123.67,24.0,23.0,110,7,,4.97,29.970472,,,,,,TRUE,,,,,FEW,1800,,,,,,,MVFR,,,,,,,,,,,,METAR,104.0
WARR 242200Z 25004KT 4000 HZ FEW020 25/24 Q1013 NOSIG METAR ,WARR,2023-05-24T22:00:00Z,-7.37,112.78,25.0,24.0,250,4,,2.49,29.911417,,,,,,TRUE,,,,HZ,FEW,2000,,,,,,,IFR,,,,,,,,,,,,SPECI,3.0
WAQQ 242200Z 29003KT 8000 FEW015 24/23 Q1012 NOSIG,WAQQ,2023-05-24T22:00:00Z,3.33,117.57,24.0,23.0,290,3,,4.97,29.88189,,,,,,TRUE,,,,,FEW,1500,,,,,,,MVFR,,,,,,,,,,,,METAR,6.0
WAPP 242200Z 15004KT 9999 SCT017 30/25 Q1013 NOSIG,WAPP,2023-05-24T22:00:00Z,-3.7,128.08,30.0,25.0,150,4,,6.21,29.911417,,,,,,TRUE,,,,,SCT,1700,,,,,,,VFR,,,,,,,,,,,,METAR,20.0
WAOO 242200Z AUTO 05003KT 8000 NCD 24/24 Q1012,WAOO,2023-05-24T22:00:00Z,-3.45,114.77,24.0,24.0,50,3,,4.97,29.88189,,,TRUE,,,,,,,,CLR,,,,,,,,MVFR,,,,,,,,,,,,METAR,23.0
WAMM 242200Z VRB01KT 9999 FEW019 25/23 Q1012 NOSIG,WAMM,2023-05-24T22:00:00Z,1.55,124.92,25.0,23.0,0,1,,6.21,29.88189,,,,,,TRUE,,,,,FEW,1900,,,,,,,VFR,,,,,,,,,,,,METAR,86.0
WALL 242200Z 24003KT 9000 FEW018 25/24 Q1011 NOSIG,WALL,2023-05-24T22:00:00Z,-1.27,116.9,25.0,24.0,240,3,,5.59,29.852362,,,,,,TRUE,,,,,FEW,1800,,,,,,,VFR,,,,,,,,,,,,METAR,3.0
WAKK 242200Z 12008KT 9999 SCT015 26/23 Q1013 NOSIG,WAKK,2023-05-24T22:00:00Z,-8.52,140.42,26.0,23.0,120,8,,6.21,29.911417,,,,,,TRUE,,,,,SCT,1500,,,,,,,VFR,,,,,,,,,,,,METAR,5.0
WAJJ 242200Z 00000KT 9999 SCT013 26/23 Q1010 NOSIG,WAJJ,2023-05-24T22:00:00Z,-2.58,140.52,26.0,23.0,0,0,,6.21,29.822834,,,,,,TRUE,,,,,SCT,1300,,,,,,,VFR,,,,,,,,,,,,METAR,93.0
WAHS 242200Z 10002KT 5000 HZ SCT014 25/23 Q1012,WAHS,2023-05-24T22:00:00Z,-6.98,110.38,25.0,23.0,100,2,,3.11,29.88189,,,,,,,,,,HZ,SCT,1400,,,,,,,MVFR,,,,,,,,,,,,METAR,3.0
WADL 242200Z 00000KT 5000 BR FEW016 23/22 Q1015 TEMPO TL2330 BR,WADL,2023-05-24T22:00:00Z,-8.75,116.28,23.0,22.0,0,0,,3.11,29.970472,,,,,,,,,,BR,FEW,1600,,,,,,,MVFR,,,,,,,,,,,,SPECI,97.0
WADD 242200Z 13005KT 080V170 9999 SCT016 26/24 Q1014 NOSIG,WADD,2023-05-24T22:00:00Z,-8.73,115.17,26.0,24.0,130,5,,6.21,29.940945,,,,,,TRUE,,,,,SCT,1600,,,,,,,VFR,,,,,,,,,,,,METAR,3.0
WABB 242200Z VRB02KT 9999 FEW018 26/26 Q1010 NOSIG,WABB,2023-05-24T22:00:00Z,-1.18,136.12,26.0,26.0,0,2,,6.21,29.822834,,,,,,TRUE,,,,,FEW,1800,,,,,,,VFR,,,,,,,,,,,,METAR,12.0
WAAA 242200Z 07004KT 9000 FEW019 25/21 Q1012 NOSIG,WAAA,2023-05-24T22:00:00Z,-5.07,119.55,25.0,21.0,70,4,,5.59,29.88189,,,,,,TRUE,,,,,FEW,1900,,,,,,,VFR,,,,,,,,,,,,METAR,13.0
VYYY 242200Z 29013KT 7000 SCT018 FEW020CB 27/26 Q1007,VYYY,2023-05-24T22:00:00Z,16.9,96.13,27.0,26.0,290,13,,4.35,29.734253,,,,,,,,,,,SCT,1800,FEW,2000,,,,,MVFR,,,,,,,,,,,,METAR,31.0
VVVD 242200Z 15006KT 110V180 7000 -TSRA SCT005 FEW025CB BKN040 24/24 Q1008 NOSIG,VVVD,2023-05-24T22:00:00Z,21.12,107.42,24.0,24.0,150,6,,4.35,29.763779,,,,,,TRUE,,,,-TSRA,SCT,500,FEW,2500,BKN,4000,,,MVFR,,,,,,,,,,,,METAR,8.0
VVTS 242200Z VRB01KT 9999 SCT020 28/27 Q1009 NOSIG,VVTS,2023-05-24T22:00:00Z,10.82,106.67,28.0,27.0,0,1,,6.21,29.793306,,,,,,TRUE,,,,,SCT,2000,,,,,,,VFR,,,,,,,,,,,,METAR,10.0
VVPQ 242200Z 22004KT 9999 SCT015 29/25 Q1009 NOSIG,VVPQ,2023-05-24T22:00:00Z,10.23,103.97,29.0,25.0,220,4,,6.21,29.793306,,,,,,TRUE,,,,,SCT,1500,,,,,,,VFR,,,,,,,,,,,,METAR,8.0
VVPB 242200Z 26003KT 9999 FEW015 SCT060 26/23 Q107 NOSIG,VVPB,2023-05-24T22:00:00Z,16.38,107.7,26.0,23.0,260,3,,6.21,,,,,,,TRUE,,,,,FEW,1500,SCT,6000,,,,,VFR,,,,,,,,,,,,METAR,15.0
VVNB 242200Z 09005KT 6000 NSC 24/23 Q1007 NOSIG,VVNB,2023-05-24T22:00:00Z,21.22,105.8,24.0,23.0,90,5,,3.73,29.734253,,,,,,TRUE,,,,,CLR,,,,,,,,MVFR,,,,,,,,,,,,METAR,6.0
VVDN 242200Z VRB01KT 9999 SCT015 26/23 Q1007 NOSIG,VVDN,2023-05-24T22:00:00Z,16.03,108.2,26.0,23.0,0,1,,6.21,29.734253,,,,,,TRUE,,,,,SCT,1500,,,,,,,VFR,,,,,,,,,,,,METAR,7.0
VVCT 242200Z VRB02KT 9999 FEW015 26/26 Q1009 NOSIG,VVCT,2023-05-24T22:00:00Z,10.08,105.72,26.0,26.0,0,2,,6.21,29.793306,,,,,,TRUE,,,,,FEW,1500,,,,,,,VFR,,,,,,,,,,,,METAR,6.0
VVCR 242200Z 31003KT 9999 FEW015 27/23 Q1009 NOSIG,VVCR,2023-05-24T22:00:00Z,12.0,109.22,27.0,23.0,310,3,,6.21,29.793306,,,,,,TRUE,,,,,FEW,1500,,,,,,,VFR,,,,,,,,,,,,METAR,12.0
VVCI 242200Z 07005KT 9999 FEW049 25/24 Q1006 NOSIG,VVCI,2023-05-24T22:00:00Z,20.82,106.73,25.0,24.0,70,5,,6.21,29.704725,,,,,,TRUE,,,,,FEW,4900,,,,,,,VFR,,,,,,,,,,,,METAR,6.0
VTUW 242200Z 08004KT 6000 FEW030 SCT100 24/24 Q1009 NOSIG,VTUW,2023-05-24T22:00:00Z,17.38,104.63,24.0,24.0,80,4,,3.73,29.793306,,,,,,TRUE,,,,,FEW,3000,SCT,10000,,,,,MVFR,,,,,,,,,,,,METAR,167.0
VTUV 242200Z 15006KT 9000 FEW030 BKN070 25/24 Q1008 NOSIG,VTUV,2023-05-24T22:00:00Z,16.12,103.78,25.0,24.0,150,6,,5.59,29.763779,,,,,,TRUE,,,,,FEW,3000,BKN,7000,,,,,VFR,,,,,,,,,,,,METAR,136.0
VTUU 242200Z VRB02KT 9000 FEW045 25/24 Q1009 NOSIG,VTUU,2023-05-24T22:00:00Z,15.25,104.87,25.0,24.0,0,2,,5.59,29.793306,,,,,,TRUE,,,,,FEW,4500,,,,,,,VFR,,,,,,,,,,,,METAR,119.0
VTUO 242200Z 16005KT 8000 SCT030 BKN100 25/25 Q1009 NOSIG,VTUO,2023-05-24T22:00:00Z,15.23,103.25,25.0,25.0,160,5,,4.97,29.793306,,,,,,TRUE,,,,,SCT,3000,BKN,10000,,,,,MVFR,,,,,,,,,,,,METAR,182.0
VTUL 242200Z 00000KT 9999 FEW025 24/23 Q1008 NOSIG,VTUL,2023-05-24T22:00:00Z,17.43,101.72,24.0,23.0,0,0,,6.21,29.763779,,,,,,TRUE,,,,,FEW,2500,,,,,,,VFR,,,,,,,,,,,,METAR,257.0
VTUK 242200Z 18004KT 9000 FEW030 SCT100 26/22 Q1009 NOSIG,VTUK,2023-05-24T22:00:00Z,16.47,102.78,26.0,22.0,180,4,,5.59,29.793306,,,,,,TRUE,,,,,FEW,3000,SCT,10000,,,,,VFR,,,,,,,,,,,,METAR,190.0
VTUI 242200Z 12003KT 7000 FEW008 BKN070 25/24 Q1008 NOSIG,VTUI,2023-05-24T22:00:00Z,17.2,104.12,25.0,24.0,120,3,,4.35,29.763779,,,,,,TRUE,,,,,FEW,800,BKN,7000,,,,,MVFR,,,,,,,,,,,,METAR,162.0
VTUD 242200Z 14006KT 9999 FEW030 26/23 Q1008 NOSIG,VTUD,2023-05-24T22:00:00Z,17.37,102.78,26.0,23.0,140,6,,6.21,29.763779,,,,,,TRUE,,,,,FEW,3000,,,,,,,VFR,,,,,,,,,,,,METAR,177.0
VTST 242200Z VRB01KT 9999 FEW030 26/26 Q1009 NOSIG,VTST,2023-05-24T22:00:00Z,7.52,99.62,26.0,26.0,0,1,,6.21,29.793306,,,,,,TRUE,,,,,FEW,3000,,,,,,,VFR,,,,,,,,,,,,METAR,17.0
VTSS 242200Z VRB02KT 9999 FEW020 24/24 Q1010 NOSIG,VTSS,2023-05-24T22:00:00Z,6.92,100.38,24.0,24.0,0,2,,6.21,29.822834,,,,,,TRUE,,,,,FEW,2000,,,,,,,VFR,,,,,,,,,,,,METAR,28.0
VTSR 242200Z 16003KT 120V200 9999 FEW020 26/24 Q1010 NOSIG,VTSR,2023-05-24T22:00:00Z,9.78,98.58,26.0,24.0,160,3,,6.21,29.822834,,,,,,TRUE,,,,,FEW,2000,,,,,,,VFR,,,,,,,,,,,,METAR,23.0
VTSP 242200Z 28004KT 9999 FEW020 28/25 Q1009 NOSIG,VTSP,2023-05-24T22:00:00Z,8.12,98.32,28.0,25.0,280,4,,6.21,29.793306,,,,,,TRUE,,,,,FEW,2000,,,,,,,VFR,,,,,,,,,,,,METAR,12.0
VTSM 242200Z 26003KT 9999 FEW020 29/25 Q1010 NOSIG,VTSM,2023-05-24T22:00:00Z,9.55,100.07,29.0,25.0,260,3,,6.21,29.822834,,,,,,TRUE,,,,,FEW,2000,,,,,,,VFR,,,,,,,,,,,,METAR,12.0
VTSG 242200Z 00000KT 7000 NSC 25/24 Q1010 NOSIG,VTSG,2023-05-24T22:00:00Z,8.1,98.98,25.0,24.0,0,0,,4.35,29.822834,,,,,,TRUE,,,,,CLR,,,,,,,,MVFR,,,,,,,,,,,,METAR,32.0
VTSF 242200Z 00000KT 9999 FEW018 26/26 Q1009 NOSIG,VTSF,2023-05-24T22:00:00Z,8.53,99.95,26.0,26.0,0,0,,6.21,29.793306,,,,,,TRUE,,,,,FEW,1800,,,,,,,VFR,,,,,,,,,,,,METAR,6.0
VTSC 242200Z 25004KT 9999 FEW020 25/24 Q1010 NOSIG,VTSC,2023-05-24T22:00:00Z,6.52,101.75,25.0,24.0,250,4,,6.21,29.822834,,,,,,TRUE,,,,,FEW,2000,,,,,,,VFR,,,,,,,,,,,,METAR,5.0
VTSB 242200Z 24003KT 6000 FEW020 25/25 Q1009 NOSIG,VTSB,2023-05-24T22:00:00Z,9.12,99.15,25.0,25.0,240,3,,3.73,29.793306,,,,,,TRUE,,,,,FEW,2000,,,,,,,MVFR,,,,,,,,,,,,METAR,10.0
VTPT 242200Z /////KT 7000 FEW026 29/23 Q1007 NOSIG,VTPT,2023-05-24T22:00:00Z,16.88,99.25,29.0,23.0,,,,4.35,29.734253,,,,,,TRUE,,,,,FEW,2600,,,,,,,MVFR,,,,,,,,,,,,METAR,148.0
VTPP 242200Z VRB02KT 9999 FEW030 27/24 Q1007 NOSIG,VTPP,2023-05-24T22:00:00Z,16.78,100.28,27.0,24.0,0,2,,6.21,29.734253,,,,,,TRUE,,,,,FEW,3000,,,,,,,VFR,,,,,,,,,,,,METAR,45.0
VTPO 242200Z VRB02KT 8000 FEW030 29/24 Q1007 NOSIG,VTPO,2023-05-24T22:00:00Z,17.23,99.82,29.0,24.0,0,2,,4.97,29.734253,,,,,,TRUE,,,,,FEW,3000,,,,,,,MVFR,,,,,,,,,,,,METAR,58.0
VTPM 242200Z 29004KT 9000 FEW030 26/22 Q1009 NOSIG,VTPM,2023-05-24T22:00:00Z,16.7,98.53,26.0,22.0,290,4,,5.59,29.793306,,,,,,TRUE,,,,,FEW,3000,,,,,,,VFR,,,,,,,,,,,,METAR,211.0
VTPH 242200Z 24004KT 9999 SCT030 27/23 Q1008 NOSIG,VTPH,2023-05-24T22:00:00Z,12.63,99.95,27.0,23.0,240,4,,6.21,29.763779,,,,,,TRUE,,,,,SCT,3000,,,,,,,VFR,,,,,,,,,,,,METAR,12.0
VTPB 242200Z 00000KT 7000 FEW030 26/26 Q1008 NOSIG,VTPB,2023-05-24T22:00:00Z,16.67,101.2,26.0,26.0,0,0,,4.35,29.763779,,,,,,TRUE,,,,,FEW,3000,,,,,,,MVFR,,,,,,,,,,,,METAR,134.0
VTCT 242200Z 04006KT 9999 FEW030 24/24 Q1008 NOSIG,VTCT,2023-05-24T22:00:00Z,19.95,99.88,24.0,24.0,40,6,,6.21,29.763779,,,,,,TRUE,,,,,FEW,3000,,,,,,,VFR,,,,,,,,,,,,METAR,389.0
VTCP 242200Z 16003KT 8000 FEW045 24/23 Q1007 NOSIG,VTCP,2023-05-24T22:00:00Z,18.13,100.17,24.0,23.0,160,3,,4.97,29.734253,,,,,,TRUE,,,,,FEW,4500,,,,,,,MVFR,,,,,,,,,,,,METAR,166.0
VTCN 242200Z 34003KT 8000 NSC 25/23 Q1008 NOSIG,VTCN,2023-05-24T22:00:00Z,18.82,100.78,25.0,23.0,340,3,,4.97,29.763779,,,,,,TRUE,,,,,CLR,,,,,,,,MVFR,,,,,,,,,,,,METAR,211.0
VTCH 242200Z VRB02KT 3500 BR FEW010 SCT025 25/24 Q1008 BECMG 2000 BR,VTCH,2023-05-24T22:00:00Z,19.3,97.98,25.0,24.0,0,2,,2.17,29.763779,,,,,,,,,,BR,FEW,1000,SCT,2500,,,,,IFR,,,,,,,,,,,,SPECI,266.0
VTCC 242200Z VRB02KT 9000 NSC 26/23 Q1008 NOSIG,VTCC,2023-05-24T22:00:00Z,18.77,98.97,26.0,23.0,0,2,,5.59,29.763779,,,,,,TRUE,,,,,CLR,,,,,,,,VFR,,,,,,,,,,,,METAR,308.0
VTBU 242200Z 27004KT 8000 FEW020 30/24 Q1008 NOSIG,VTBU,2023-05-24T22:00:00Z,12.68,101.0,30.0,24.0,270,4,,4.97,29.763779,,,,,,TRUE,,,,,FEW,2000,,,,,,,MVFR,,,,,,,,,,,,METAR,12.0
VTBS 242200Z VRB02KT 9999 FEW020 28/24 Q1007 NOSIG,VTBS,2023-05-24T22:00:00Z,13.68,100.75,28.0,24.0,0,2,,6.21,29.734253,,,,,,TRUE,,,,,FEW,2000,,,,,,,VFR,,,,,,,,,,,,METAR,1.0
VTBD 242200Z 26007KT 9999 FEW020 29/23 Q1007 NOSIG,VTBD,2023-05-24T22:00:00Z,13.92,100.6,29.0,23.0,260,7,,6.21,29.734253,,,,,,TRUE,,,,,FEW,2000,,,,,,,VFR,,,,,,,,,,,,METAR,6.0
VRMM 242200Z 21005KT 9999 SCT018 29/26 Q1011 NOSIG,VRMM,2023-05-24T22:00:00Z,4.2,73.52,29.0,26.0,210,5,,6.21,29.852362,,,,,,TRUE,,,,,SCT,1800,,,,,,,VFR,,,,,,,,,,,,METAR,2.0
VRMH 242200Z 20005KT 9999 FEW018 28/26 Q1011,VRMH,2023-05-24T22:00:00Z,6.75,73.17,28.0,26.0,200,5,,6.21,29.852362,,,,,,,,,,,FEW,1800,,,,,,,VFR,,,,,,,,,,,,METAR,1.0
VRMG 242200Z 18004KT 9999 FEW018TCU BKN260 28/25 Q1011 NOSIG,VRMG,2023-05-24T22:00:00Z,-0.7,73.15,28.0,25.0,180,4,,6.21,29.852362,,,,,,TRUE,,,,,FEW,1800,BKN,26000,,,,,VFR,,,,,,,,,,,,METAR,2.0
VOTR 242200Z 20003KT 4500 BR FEW016 28/24 Q1009 NOSIG,VOTR,2023-05-24T22:00:00Z,10.77,78.72,28.0,24.0,200,3,,2.8,29.793306,,,,,,TRUE,,,,BR,FEW,1600,,,,,,,IFR,,,,,,,,,,,,METAR,90.0
VOMM 242200Z 22007KT 6000 FEW020 30/27 Q1007 NOSIG,VOMM,2023-05-24T22:00:00Z,13.0,80.17,30.0,27.0,220,7,,3.73,29.734253,,,,,,TRUE,,,,,FEW,2000,,,,,,,MVFR,,,,,,,,,,,,METAR,7.0
VOML 242200Z 10007KT 6000 TS SCT015 FEW025CB 27/24 Q1010 NOSIG,VOML,2023-05-24T22:00:00Z,12.97,74.88,27.0,24.0,100,7,,3.73,29.822834,,,,,,TRUE,,,,TS,SCT,1500,FEW,2500,,,,,MVFR,,,,,,,,,,,,METAR,100.0
VOKN 242200Z 10005KT 4000 TS BR SCT012 FEW025CB SCT080 27/25 Q1010 NOSIG,VOKN,2023-05-24T22:00:00Z,11.92,75.55,27.0,25.0,100,5,,2.49,29.822834,,,,,,TRUE,,,,TS BR,SCT,1200,FEW,2500,SCT,8000,,,IFR,,,,,,,,,,,,METAR,105.0
VOHS 242200Z 25010KT 5000 HZ SCT020 28/19 Q1011 NOSIG,VOHS,2023-05-24T22:00:00Z,17.23,78.43,28.0,19.0,250,10,,3.11,29.852362,,,,,,TRUE,,,,HZ,SCT,2000,,,,,,,MVFR,,,,,,,,,,,,METAR,607.0
VOGO 242200Z 33003KT 6000 SCT018 29/24 Q1010 NOSIG,VOGO,2023-05-24T22:00:00Z,15.38,73.83,29.0,24.0,330,3,,3.73,29.822834,,,,,,TRUE,,,,,SCT,1800,,,,,,,MVFR,,,,,,,,,,,,METAR,56.0
VOCL 242200Z 36005KT 6000 SCT015 SCT020 FEW025CB 25/22 Q1010 NOSIG,VOCL,2023-05-24T22:00:00Z,11.13,75.95,25.0,22.0,360,5,,3.73,29.822834,,,,,,TRUE,,,,,SCT,1500,SCT,2000,FEW,2500,,,MVFR,,,,,,,,,,,,METAR,104.0
VOCI 242200Z 14002KT 4000 BR SCT012 FEW025CB BKN080 26/26 Q1011 NOSIG,VOCI,2023-05-24T22:00:00Z,10.15,76.4,26.0,26.0,140,2,,2.49,29.852362,,,,,,TRUE,,,,BR,SCT,1200,FEW,2500,BKN,8000,,,IFR,,,,,,,,,,,,METAR,8.0
VOCB 242200Z 23008KT 5000 BR FEW015 26/24 Q1011 NOSIG,VOCB,2023-05-24T22:00:00Z,11.02,77.03,26.0,24.0,230,8,,3.11,29.852362,,,,,,TRUE,,,,BR,FEW,1500,,,,,,,MVFR,,,,,,,,,,,,METAR,394.0
VOBL 242200Z 26010KT 6000 SCT015 22/19 Q1015 NOSIG,VOBL,2023-05-24T22:00:00Z,13.2,77.7,22.0,19.0,260,10,,3.73,29.970472,,,,,,TRUE,,,,,SCT,1500,,,,,,,MVFR,,,,,,,,,,,,METAR,908.0
VNKT 242200Z 35003KT 7000 FEW015 SCT030 19/15 Q1013 NOSIG,VNKT,2023-05-24T22:00:00Z,27.68,85.37,19.0,15.0,350,3,,4.35,29.911417,,,,,,TRUE,,,,,FEW,1500,SCT,3000,,,,,MVFR,,,,,,,,,,,,METAR,1334.0
VMMC 242200Z 09012KT 8000 FEW008 SCT020 25/24 Q1010 NOSIG,VMMC,2023-05-24T22:00:00Z,22.15,113.58,25.0,24.0,90,12,,4.97,29.822834,,,,,,TRUE,,,,,FEW,800,SCT,2000,,,,,MVFR,,,,,,,,,,,,METAR,1.0
VILK 242200Z 00000KT 5000 HZ SCT020 FEW030CB SCT100 29/24 Q1004 NOSIG,VILK,2023-05-24T22:00:00Z,26.75,80.88,29.0,24.0,0,0,,3.11,29.64567,,,,,,TRUE,,,,HZ,SCT,2000,FEW,3000,SCT,10000,,,MVFR,,,,,,,,,,,,METAR,121.0
VIJP 242200Z 23020G30KT 2500 BLDU SCT030 FEW035CB BKN090 24/18 Q1005 NOSIG,VIJP,2023-05-24T22:00:00Z,26.82,75.8,24.0,18.0,230,20,30,1.55,29.675198,,,,,,TRUE,,,,BLDU,SCT,3000,FEW,3500,BKN,9000,,,IFR,,,,,,,,,,,,METAR,383.0
VIDP 242200Z 03005G15KT 3200 HZ FEW035 SCT100 24/17 Q1006 BECMG 3000 HZ,VIDP,2023-05-24T22:00:00Z,28.57,77.12,24.0,17.0,30,5,15,1.99,29.704725,,,,,,,,,,HZ,FEW,3500,SCT,10000,,,,,IFR,,,,,,,,,,,,SPECI,236.0
VIAR 242200Z 09006KT 5000 HZ SCT100 24/18 Q1005 NOSIG,VIAR,2023-05-24T22:00:00Z,31.7,74.8,24.0,18.0,90,6,,3.11,29.675198,,,,,,TRUE,,,,HZ,SCT,10000,,,,,,,MVFR,,,,,,,,,,,,METAR,226.0
VHHH 242200Z 10010KT 9999 FEW012 SCT030 26/23 Q1011 NOSIG,VHHH,2023-05-24T22:00:00Z,22.32,113.92,26.0,23.0,100,10,,6.21,29.852362,,,,,,TRUE,,,,,FEW,1200,SCT,3000,,,,,VFR,,,,,,,,,,,,METAR,9.0
VGHS 242200Z 08004KT 3500 HZ FEW015 SCT100 25/20 Q1006 NOSIG,VGHS,2023-05-24T22:00:00Z,23.85,90.4,25.0,20.0,80,4,,2.17,29.704725,,,,,,TRUE,,,,HZ,FEW,1500,SCT,10000,,,,,IFR,,,,,,,,,,,,METAR,11.0
VERC 242200Z 19004KT 3000 HZ SCT020 25/19 Q1008 NO SIG,VERC,2023-05-24T22:00:00Z,23.32,85.32,25.0,19.0,190,4,,1.86,29.763779,,,,,,,,,,HZ,SCT,2000,,,,,,,IFR,,,,,,,,,,,,METAR,646.0
VEPT 242200Z 05004KT 2800 BR NSC 28/25 Q1004 NOSIG,VEPT,2023-05-24T22:00:00Z,25.6,85.08,28.0,25.0,50,4,,1.74,29.64567,,,,,,TRUE,,,,BR,CLR,,,,,,,,IFR,,,,,,,,,,,,METAR,53.0
VECC 242200Z 06006KT 3200 HZ FEW018 26/25 Q1003 NOSIG,VECC,2023-05-24T22:00:00Z,22.65,88.43,26.0,25.0,60,6,,1.99,29.616142,,,,,,TRUE,,,,HZ,FEW,1800,,,,,,,IFR,,,,,,,,,,,,METAR,11.0
VEBS 242200Z 09004KT 3500 HZ SCT018 SCT100 30/28 Q1006 NOSIG,VEBS,2023-05-24T22:00:00Z,20.25,85.82,30.0,28.0,90,4,,2.17,29.704725,,,,,,TRUE,,,,HZ,SCT,1800,SCT,10000,,,,,IFR,,,,,,,,,,,,METAR,42.0
VDSV 242200Z 06003KT 9000 SCT015 SCT040 25/25 Q1009,VDSV,2023-05-24T22:00:00Z,10.58,103.63,25.0,25.0,60,3,,5.59,29.793306,,,,,,,,,,,SCT,1500,SCT,4000,,,,,VFR,,,,,,,,,,,,METAR,1.0
VDSR 242200Z 09004KT 8000 SCT015 SCT040 25/24 Q1009,VDSR,2023-05-24T22:00:00Z,13.42,103.8,25.0,24.0,90,4,,4.97,29.793306,,,,,,,,,,,SCT,1500,SCT,4000,,,,,MVFR,,,,,,,,,,,,METAR,16.0
VDPP 242200Z 18003KT 9999 FEW017 27/26 Q1008,VDPP,2023-05-24T22:00:00Z,11.55,104.83,27.0,26.0,180,3,,6.21,29.763779,,,,,,,,,,,FEW,1700,,,,,,,VFR,,,,,,,,,,,,METAR,10.0
VANP 242200Z 22003KT 3000 HZ SCT100 30/18 Q1007 NOSIG,VANP,2023-05-24T22:00:00Z,21.08,79.05,30.0,18.0,220,3,,1.86,29.734253,,,,,,TRUE,,,,HZ,SCT,10000,,,,,,,IFR,,,,,,,,,,,,METAR,309.0
VAID 242200Z 27003KT 5000 HZ NSC 27/19 Q1010 NOSIG,VAID,2023-05-24T22:00:00Z,22.72,75.8,27.0,19.0,270,3,,3.11,29.822834,,,,,,TRUE,,,,HZ,CLR,,,,,,,,MVFR,,,,,,,,,,,,METAR,564.0
VABB 242200Z 26008KT 4000 HZ SCT020 30/25 Q1010 NOSIG,VABB,2023-05-24T22:00:00Z,19.1,72.87,30.0,25.0,260,8,,2.49,29.822834,,,,,,TRUE,,,,HZ,SCT,2000,,,,,,,IFR,,,,,,,,,,,,METAR,14.0
VAAH 242200Z 23010KT 4000 FU NSC 30/21 Q1007 NOSIG,VAAH,2023-05-24T22:00:00Z,23.07,72.63,30.0,21.0,230,10,,2.49,29.734253,,,,,,TRUE,,,,FU,CLR,,,,,,,,IFR,,,,,,,,,,,,METAR,52.0
UWWW 242200Z 04002MPS CAVOK 17/03 Q1023 R15/CLRD60 NOSIG RMK QFE755/1007,UWWW,2023-05-24T22:00:00Z,53.5,50.17,17.0,3.0,40,4,,6.21,30.206694,,,,,,TRUE,,,,,CAVOK,,,,,,,,VFR,,,,,,,,,,,,SPECI,124.0
UWUU 242200Z 22002MPS CAVOK 13/07 Q1025 R14R/0///60 NOSIG,UWUU,2023-05-24T22:00:00Z,54.57,55.87,13.0,7.0,220,4,,6.21,30.265747,,,,,,TRUE,,,,,CAVOK,,,,,,,,VFR,,,,,,,,,,,,SPECI,137.0
UWSG 242200Z 07005MPS 9999 VCTS FEW060CB 20/07 Q1016 R08/CLRD70 TEMPO 2100 -TSRA BKN016CB RMK QFE759/1013,UWSG,2023-05-24T22:00:00Z,51.72,46.17,20.0,7.0,70,10,,6.21,30.0,,,,,,,,,,VCTS,FEW,6000,,,,,,,VFR,,,,,,,,,,,,METAR,31.0
UWPS 242200Z 12003MPS CAVOK 19/06 Q1019 R20/CLRD60 NOSIG RMK QFE746,UWPS,2023-05-24T22:00:00Z,54.12,45.2,19.0,6.0,120,6,,6.21,30.088583,,,,,,TRUE,,,,,CAVOK,,,,,,,,VFR,,,,,,,,,,,,METAR,206.0
UWOR 242200Z 00000MPS CAVOK 13/07 Q1026 R07/CLRD65 NOSIG RMK QFE744/0992,UWOR,2023-05-24T22:00:00Z,51.07,58.6,13.0,7.0,0,0,,6.21,30.295275,,,,,,TRUE,,,,,CAVOK,,,,,,,,VFR,,,,,,,,,,,,SPECI,270.0
UWOO 242200Z 00000MPS CAVOK 11/03 Q1025 R08/60D NOSIG RMK QFE758/1011,UWOO,2023-05-24T22:00:00Z,51.8,55.47,11.0,3.0,0,0,,6.21,30.265747,,,,,,TRUE,,,,,CAVOK,,,,,,,,VFR,,,,,,,,,,,,METAR,90.0
UWLW 242200Z 13002MPS CAVOK 16/06 Q1022 R20/CLRD60 NOSIG RMK QFE761/1014,UWLW,2023-05-24T22:00:00Z,54.4,48.8,16.0,6.0,130,4,,6.21,30.177166,,,,,,TRUE,,,,,CAVOK,,,,,,,,VFR,,,,,,,,,,,,SPECI,67.0
UWLL 242200Z 11002MPS CAVOK 18/04 Q1021 R20/090065 NOSIG RMK QFE756/1008,UWLL,2023-05-24T22:00:00Z,54.27,48.23,18.0,4.0,110,4,,6.21,30.147638,,,,,,TRUE,,,,,CAVOK,,,,,,,,VFR,,,,,,,,,,,,SPECI,119.0
UWKS 242200Z 16003MPS 9999 SCT040CB 19/08 Q1021 R06/010060 NOSIG RMK QFE750,UWKS,2023-05-24T22:00:00Z,56.08,47.35,19.0,8.0,160,6,,6.21,30.147638,,,,,,TRUE,,,,,SCT,4000,,,,,,,VFR,,,,,,,,,,,,METAR,165.0
UWKE 242200Z 16004MPS CAVOK 21/03 Q1024 R21/090070 NOSIG RMK QFE751/1002,UWKE,2023-05-24T22:00:00Z,55.57,52.08,21.0,3.0,160,8,,6.21,30.236221,,,,,,TRUE,,,,,CAVOK,,,,,,,,VFR,,,,,,,,,,,,SPECI,193.0
UWKD 242200Z 14004MPS CAVOK 16/07 Q1022 R11/70D NOSIG RMK QFE757/1009,UWKD,2023-05-24T22:00:00Z,55.62,49.28,16.0,7.0,140,8,,6.21,30.177166,,,,,,TRUE,,,,,CAVOK,,,,,,,,VFR,,,,,,,,,,,,METAR,114.0
UWGG 242200Z 36002MPS 9999 SCT040CB 16/16 Q1019 R36R/290050 NOSIG,UWGG,2023-05-24T22:00:00Z,56.23,43.78,16.0,16.0,360,4,,6.21,30.088583,,,,,,TRUE,,,,,SCT,4000,,,,,,,VFR,,,,,,,,,,,,METAR,73.0
UUYY 242200Z 23002MPS CAVOK 15/10 Q1021 R36/CLRD61 NOSIG RMK QFE756/1009,UUYY,2023-05-24T22:00:00Z,61.65,50.83,15.0,10.0,230,4,,6.21,30.147638,,,,,,TRUE,,,,,CAVOK,,,,,,,,VFR,,,,,,,,,,,,METAR,107.0
UUWW 242200Z VRB01MPS 7000 NSC 14/14 Q1016 R06/000070 TEMPO 0300 FG,UUWW,2023-05-24T22:00:00Z,55.6,37.27,14.0,14.0,0,2,,4.35,30.0,,,,,,,,,,,CLR,,,,,,,,MVFR,,,,,,,,,,,,METAR,195.0
UUOO 242200Z 28003MPS CAVOK 18/16 Q1014 R30/010070 NOSIG RMK QFE747,UUOO,2023-05-24T22:00:00Z,51.82,39.23,18.0,16.0,280,6,,6.21,29.940945,,,,,,TRUE,,,,,CAVOK,,,,,,,,VFR,,,,,,,,,,,,METAR,154.0
UUOL 242200Z 09002MPS 050V130 CAVOK 16/13 Q1014 R33/090060 NOSIG,UUOL,2023-05-24T22:00:00Z,52.7,39.53,16.0,13.0,90,4,,6.21,29.940945,,,,,,TRUE,,,,,CAVOK,,,,,,,,VFR,,,,,,,,,,,,METAR,176.0
UUOK 242200Z AUTO 00000MPS 6000 ///084/// 16/15 Q1015 RMK QFE743/0991,UUOK,2023-05-24T22:00:00Z,51.75,36.28,16.0,15.0,0,0,,3.73,29.970472,,,TRUE,,,,,,,,,,,,,,,,,,,,,,,,,,,,METAR,203.0
UUOB 242200Z 01001MPS 9000 NSC 15/14 Q1015 R11/190065 NOSIG,UUOB,2023-05-24T22:00:00Z,50.65,36.58,15.0,14.0,10,2,,5.59,29.970472,,,,,,TRUE,,,,,CLR,,,,,,,,VFR,,,,,,,,,,,,METAR,218.0
UUMO 242200Z 11002MPS 050V120 6000 NSC 12/12 Q1016 R25/CLRD60 NOSIG RMK QFE746/0995,UUMO,2023-05-24T22:00:00Z,55.52,37.5,12.0,12.0,110,4,,3.73,30.0,,,,,,TRUE,,,,,CLR,,,,,,,,MVFR,,,,,,,,,,,,METAR,167.0
UUEE 242200Z 05002MPS 360V080 9000 0900NW PRFG NSC 15/15 Q1016 R06C/CLRD62 TEMPO 1000 BR,UUEE,2023-05-24T22:00:00Z,55.97,37.42,15.0,15.0,50,4,,5.59,30.0,,,,,,,,,,PRFG,CLR,,,,,,,,VFR,,,,,,,,,,,,METAR,186.0
UUDL 242200Z 00000MPS CAVOK 12/12 Q1017 R23/290350 NOSIG RMK QFE755,UUDL,2023-05-24T22:00:00Z,57.57,40.17,12.0,12.0,0,0,,6.21,30.029528,,,,,,TRUE,,,,,CAVOK,,,,,,,,VFR,,,,,,,,,,,,METAR,88.0
UUDD 242200Z VRB01MPS CAVOK 15/13 Q1016 R14R/CLRD60 NOSIG,UUDD,2023-05-24T22:00:00Z,55.4,37.9,15.0,13.0,0,2,,6.21,30.0,,,,,,TRUE,,,,,CAVOK,,,,,,,,VFR,,,,,,,,,,,,METAR,165.0
UUBW 242200Z 00000MPS 4400 1600SE R30/1600D BR NSC 15/15 Q1016 R30/010060 NOSIG,UUBW,2023-05-24T22:00:00Z,55.55,38.15,15.0,15.0,0,0,,2.73,30.0,,,,,,TRUE,,,,BR,CLR,,,,,,,,IFR,,,,,,,,,,,,METAR,111.0
UUBP 242200Z AUTO 32002MPS 9999 NCD 15/11 Q1016 NOSIG RMK QFE744/0993,UUBP,2023-05-24T22:00:00Z,53.22,34.18,15.0,11.0,320,4,,6.21,30.0,,,TRUE,,,TRUE,,,,,CLR,,,,,,,,VFR,,,,,,,,,,,,SPECI,197.0
UUBC 242200Z VRB01MPS 0250 PRFG NSC 12/12 Q1016 R13/CLRD60 NOSIG RMK QFE744/0992,UUBC,2023-05-24T22:00:00Z,54.55,36.37,12.0,12.0,0,2,,0.16,30.0,,,,,,TRUE,,,,PRFG,CLR,,,,,,,,LIFR,,,,,,,,,,,,METAR,198.0
UTTT 242200Z 02006KT 350V060 CAVOK 18/03 Q1013 R08R/CLRD70 NOSIG,UTTT,2023-05-24T22:00:00Z,41.27,69.27,18.0,3.0,20,6,,6.21,29.911417,,,,,,TRUE,,,,,CAVOK,,,,,,,,VFR,,,,,,,,,,,,METAR,429.0
UTST 242200Z 23010KT CAVOK 22/02 Q1009 R25/CLRD70 NOSIG,UTST,2023-05-24T22:00:00Z,37.28,67.32,22.0,2.0,230,10,,6.21,29.793306,,,,,,TRUE,,,,,CAVOK,,,,,,,,VFR,,,,,,,,,,,,SPECI,311.0
UTSK 242200Z 35008KT CAVOK 21/00 Q1012 R16/CLRD70,UTSK,2023-05-24T22:00:00Z,38.8,65.77,21.0,0.0,350,8,,6.21,29.88189,,,,,,,,,,,CAVOK,,,,,,,,VFR,,,,,,,,,,,,SPECI,399.0
UTSB 242200Z 35004KT CAVOK 17/02 Q1014 R01/CLRD70 NOSIG,UTSB,2023-05-24T22:00:00Z,39.77,64.48,17.0,2.0,350,4,,6.21,29.940945,,,,,,TRUE,,,,,CAVOK,,,,,,,,VFR,,,,,,,,,,,,SPECI,225.0
UTSA 242200Z 06006KT 9999 NSC 19/M02 Q1015 R07/CLRD70 NOSIG,UTSA,2023-05-24T22:00:00Z,40.12,65.17,19.0,-2.0,60,6,,6.21,29.970472,,,,,,TRUE,,,,,CLR,,,,,,,,VFR,,,,,,,,,,,,SPECI,346.0
UTO8 M M M 142/19/04/1307/M/M SOG 03 8011 17MM,UTO8,2023-05-24T22:00:00Z,,,,,,,,4.98,,,,,,,,,,,,,,,,,,,,,,,,,,,,,,,,METAR,
UTNU 242200Z 06006KT CAVOK 18/01 Q1016 R31/CLRD70 NOSIG,UTNU,2023-05-24T22:00:00Z,41.58,60.63,18.0,1.0,60,6,,6.21,30.0,,,,,,TRUE,,,,,CAVOK,,,,,,,,VFR,,,,,,,,,,,,SPECI,97.0
UTNN 242200Z 36004KT CAVOK 17/M03 Q1016 R33/CLRD60 NOSIG,UTNN,2023-05-24T22:00:00Z,42.48,59.63,17.0,-3.0,360,4,,6.21,30.0,,,,,,TRUE,,,,,CAVOK,,,,,,,,VFR,,,,,,,,,,,,SPECI,76.0
UTFN 242200Z 33008KT 9999 NSC 18/04 Q1012 R28/CLRD70 NOSIG,UTFN,2023-05-24T22:00:00Z,40.98,71.57,18.0,4.0,330,8,,6.21,29.88189,,,,,,TRUE,,,,,CLR,,,,,,,,VFR,,,,,,,,,,,,METAR,477.0
UTFF 242200Z 23006KT 9999 NSC 17/M01 Q1013 R18/CLRD70,UTFF,2023-05-24T22:00:00Z,40.37,71.73,17.0,-1.0,230,6,,6.21,29.911417,,,,,,,,,,,CLR,,,,,,,,VFR,,,,,,,,,,,,METAR,612.0
UTDT 242200Z VRB01MPS 8000 FEW130 22/05 Q1009 R35/CLRD70 RMK QFE717/0957,UTDT,2023-05-24T22:00:00Z,37.87,68.87,22.0,5.0,0,2,,4.97,29.793306,,,,,,,,,,,FEW,13000,,,,,,,MVFR,,,,,,,,,,,,METAR,443.0
UTDL 242200Z 24005MPS 9999 NSC 17/02 Q1013 R26/CLRD70 NOSIG RMK QFE722/0963,UTDL,2023-05-24T22:00:00Z,40.22,69.7,17.0,2.0,240,10,,6.21,29.911417,,,,,,TRUE,,,,,CLR,,,,,,,,VFR,,,,,,,,,,,,METAR,436.0
UTDK 242200Z 02004MPS 9000 FEW066CB 21/12 Q1012 R01/09//70 RMK QFE702/0936,UTDK,2023-05-24T22:00:00Z,37.98,69.8,21.0,12.0,20,8,,5.59,29.88189,,,,,,,,,,,FEW,6600,,,,,,,VFR,,,,,,,,,,,,METAR,675.0
UTDD 242200Z 11004MPS 9999 FEW066CB 18/11 Q1012 R09/D NOSIG RMK QFE691/0921,UTDD,2023-05-24T22:00:00Z,38.53,68.82,18.0,11.0,110,8,,6.21,29.88189,,,,,,TRUE,,,,,FEW,6600,,,,,,,VFR,,,,,,,,,,,,METAR,785.0
UTAV 242200Z 36006KT CAVOK 21/02 Q1014 R13/CLRD70 NOSIG,UTAV,2023-05-24T22:00:00Z,39.08,63.62,21.0,2.0,360,6,,6.21,29.940945,,,,,,TRUE,,,,,CAVOK,,,,,,,,VFR,,,,,,,,,,,,SPECI,187.0
UTAT 242200Z 10012KT CAVOK 21/M00 Q1016 R08/CLRD70 NOSIG,UTAT,2023-05-24T22:00:00Z,41.77,59.83,21.0,0.0,100,12,,6.21,30.0,,,,,,TRUE,,,,,CAVOK,,,,,,,,VFR,,,,,,,,,,,,SPECI,84.0
UTAM 242200Z 00000KT 6000 NSC 22/04 Q1013 R88/CLRD70 NOSIG,UTAM,2023-05-24T22:00:00Z,37.62,61.9,22.0,4.0,0,0,,3.73,29.911417,,,,,,TRUE,,,,,CLR,,,,,,,,MVFR,,,,,,,,,,,,SPECI,218.0
UTAK 242200Z 08010KT CAVOK 24/10 Q1011 R16R/CLRD70 NOSIG,UTAK,2023-05-24T22:00:00Z,40.05,53.0,24.0,10.0,80,10,,6.21,29.852362,,,,,,TRUE,,,,,CAVOK,,,,,,,,VFR,,,,,,,,,,,,SPECI,83.0
UTAA 242200Z 11008KT 9999 NSC 26/05 Q1013 R88/70D NOSIG,UTAA,2023-05-24T22:00:00Z,37.98,58.37,26.0,5.0,110,8,,6.21,29.911417,,,,,,TRUE,,,,,CLR,,,,,,,,VFR,,,,,,,,,,,,METAR,207.0
USTR 242200Z 33003MPS CAVOK 16/09 Q1024 R30/090065 R03/090065 NOSIG,USTR,2023-05-24T22:00:00Z,57.18,65.32,16.0,9.0,330,6,,6.21,30.236221,,,,,,TRUE,,,,,CAVOK,,,,,,,,VFR,,,,,,,,,,,,SPECI,93.0
USSS 242200Z 00000MPS 7000 NSC 08/06 Q1026 R26R/010060 NOSIG RMK QFE748/0998,USSS,2023-05-24T22:00:00Z,56.75,60.78,8.0,6.0,0,0,,4.35,30.295275,,,,,,TRUE,,,,,CLR,,,,,,,,MVFR,,,,,,,,,,,,SPECI,222.0
USRR 242200Z 10005MPS CAVOK 10/01 Q1026 R07/CLRD60 NOSIG RMK QFE764,USRR,2023-05-24T22:00:00Z,61.33,73.42,10.0,1.0,100,10,,6.21,30.295275,,,,,,TRUE,,,,,CAVOK,,,,,,,,VFR,,,,,,,,,,,,SPECI,52.0
USPP 242200Z 00000MPS CAVOK 13/07 Q1025 R21/090060 NOSIG RMK QFE758,USPP,2023-05-24T22:00:00Z,57.92,56.02,13.0,7.0,0,0,,6.21,30.265747,,,,,,TRUE,,,,,CAVOK,,,,,,,,VFR,,,,,,,,,,,,SPECI,120.0
USNN 242200Z 08003MPS CAVOK 05/M02 Q1027 R03/0///65 NOSIG RMK QFE766,USNN,2023-05-24T22:00:00Z,60.95,76.48,5.0,-2.0,80,6,,6.21,30.324802,,,,,,TRUE,,,,,CAVOK,,,,,,,,VFR,,,,,,,,,,,,SPECI,52.0
USHH 242200Z 01001MPS CAVOK 09/07 Q1024 R06/290050 TEMPO 0200 FG OVC002,USHH,2023-05-24T22:00:00Z,61.03,69.08,9.0,7.0,10,2,,6.21,30.236221,,,,,,,,,,,CAVOK,,,,,,,,VFR,,,,,,,,,,,,METAR,46.0
USDA 242200Z AUTO 20009MPS 9999 NCD 02/M00 Q1022 RMK QFE765/1021,USDA,2023-05-24T22:00:00Z,71.2,72.05,2.0,0.0,200,17,,6.21,30.177166,,,TRUE,,,,,,,,CLR,,,,,,,,VFR,,,,,,,,,,,,METAR,5.0
USCM 242200Z 02003MPS 5000 HZ NSC 12/03 Q1027 R36/090060 NOSIG RMK QFE731,USCM,2023-05-24T22:00:00Z,53.4,58.75,12.0,3.0,20,6,,3.11,30.324802,,,,,,TRUE,,,,HZ,CLR,,,,,,,,MVFR,,,,,,,,,,,,METAR,425.0
USCC 242200Z 24003MPS 5000 HZ NSC 16/01 Q1026 R09/000060 NOSIG RMK QFE748,USCC,2023-05-24T22:00:00Z,55.3,61.5,16.0,1.0,240,6,,3.11,30.295275,,,,,,TRUE,,,,HZ,CLR,,,,,,,,MVFR,,,,,,,,,,,,SPECI,227.0
URWW 242200Z 36004MPS CAVOK 17/14 Q1015 R05/010070 NOSIG,URWW,2023-05-24T22:00:00Z,48.78,44.33,17.0,14.0,360,8,,6.21,29.970472,,,,,,TRUE,,,,,CAVOK,,,,,,,,VFR,,,,,,,,,,,,SPECI,131.0
URWI 242200Z AUTO 33004MPS 9999 // NSC 20/15 Q1013,URWI,2023-05-24T22:00:00Z,46.37,44.33,20.0,15.0,330,8,,6.21,29.911417,,,TRUE,,,,,,,,CLR,,,,,,,,VFR,,,,,,,,,,,,SPECI,145.0
URWA 242200Z 34002MPS 290V020 CAVOK 20/19 Q1012 R27/010070 TEMPO 2000 BR RMK QFE761/1014,URWA,2023-05-24T22:00:00Z,46.28,47.98,20.0,19.0,340,4,,6.21,29.88189,,,,,,,,,,,CAVOK,,,,,,,,VFR,,,,,,,,,,,,SPECI,-19.0
URSS 242200Z 25001MPS 9999 SCT050CB OVC110 17/16 Q1014 WS ALL RWY R02/010070 R06/010070 NOSIG RMK R06/29003MPS QFE759,URSS,2023-05-24T22:00:00Z,43.45,39.92,17.0,16.0,250,2,,6.21,29.940945,,,,,,TRUE,,,,,SCT,5000,OVC,11000,,,,,VFR,,,,,,,,,,,,METAR,4.0
URRP 242200Z 31001MPS 8000 1800SW R05/P2000N BR FEW000 16/16 Q1015 R05/CLRD70 TEMPO 0200 FG BKN001 BKN020CB RMK QBB010 OBST OBSC QFE756/1008,URRP,2023-05-24T22:00:00Z,47.5,39.92,16.0,16.0,310,2,,4.97,29.970472,,,,,,,,,,BR,FEW,0,,,,,,,MVFR,,,,,,,,,,,,METAR,73.0
URMT 242200Z 34003MPS 9999 SCT040 19/16 Q1015 R25/010070 NOSIG RMK QFE723,URMT,2023-05-24T22:00:00Z,45.12,42.12,19.0,16.0,340,6,,6.21,29.970472,,,,,,TRUE,,,,,SCT,4000,,,,,,,VFR,,,,,,,,,,,,METAR,448.0
URMO 242200Z AUTO VRB01MPS 9999 // NSC 16/14 Q1014 RMK QFE717/0956,URMO,2023-05-24T22:00:00Z,43.2,44.6,16.0,14.0,0,2,,6.21,29.940945,,,TRUE,,,,,,,,CLR,,,,,,,,VFR,,,,,,,,,,,,METAR,505.0
URMN 242200Z 06002MPS 9999 NSC 17/14 Q1013 R24/////// NOSIG RMK QFE723,URMN,2023-05-24T22:00:00Z,43.52,43.63,17.0,14.0,60,4,,6.21,29.911417,,,,,,TRUE,,,,,CLR,,,,,,,,VFR,,,,,,,,,,,,SPECI,424.0
URMM 242200Z 28005MPS 9999 NSC 17/13 Q1014 R30/090070 NOSIG RMK QFE732/0977,URMM,2023-05-24T22:00:00Z,44.22,43.07,17.0,13.0,280,10,,6.21,29.940945,,,,,,TRUE,,,,,CLR,,,,,,,,VFR,,,,,,,,,,,,METAR,318.0
URML 242200Z 26001MPS 5000 BR NSC 16/15 Q1012 R14/01//70 TEMPO 3000 BR RMK QFE759/1012,URML,2023-05-24T22:00:00Z,42.82,47.65,16.0,15.0,260,2,,3.11,29.88189,,,,,,,,,,BR,CLR,,,,,,,,MVFR,,,,,,,,,,,,SPECI,4.0
URMG 242200Z 33003MPS CAVOK 19/15 Q1012 R26/090070 NOSIG RMK QFE744/0993,URMG,2023-05-24T22:00:00Z,43.38,45.7,19.0,15.0,330,6,,6.21,29.88189,,,,,,TRUE,,,,,CAVOK,,,,,,,,VFR,,,,,,,,,,,,METAR,160.0
URKK 242200Z 06003MPS 9999 FEW///CB 18/16 Q1014 R05R/290060 TEMPO VRB11G16MPS 0500 +TSRAGR SCT003 BKN020CB RMK QFE757,URKK,2023-05-24T22:00:00Z,45.03,39.15,18.0,16.0,60,6,,6.21,29.940945,,,,,,,,,,,,,,,,,,,,,,,,,,,,,,,SPECI,29.0
URKA 242200Z 14003MPS 6000 NSC 11/11 Q1014 R22/010070 TEMPO 0300 FG BKN002 RMK QFE756/1008,URKA,2023-05-24T22:00:00Z,45.0,37.35,11.0,11.0,140,6,,3.73,29.940945,,,,,,,,,,,CLR,,,,,,,,MVFR,,,,,,,,,,,,METAR,41.0
UOOO 242200Z 29002MPS 250V320 9999 OVC003 M01/M01 Q1029 R19/15//60 NOSIG RMK QFE755/1007,UOOO,2023-05-24T22:00:00Z,69.32,87.33,-1.0,-1.0,290,4,,6.21,30.383858,,,,,,TRUE,,,,,OVC,300,,,,,,,LIFR,,,,,,,,,,,,SPECI,177.0
UNWW 242200Z 35002MPS CAVOK 03/M07 Q1019 R19/09//55 NOSIG RMK QFE737,UNWW,2023-05-24T22:00:00Z,53.82,86.88,3.0,-7.0,350,4,,6.21,30.088583,,,,,,TRUE,,,,,CAVOK,,,,,,,,VFR,,,,,,,,,,,,SPECI,307.0
UNTT 242200Z 02002MPS CAVOK 02/M03 Q1021 R03/090060 NOSIG RMK QFE750,UNTT,2023-05-24T22:00:00Z,56.38,85.22,2.0,-3.0,20,4,,6.21,30.147638,,,,,,TRUE,,,,,CAVOK,,,,,,,,VFR,,,,,,,,,,,,METAR,179.0
UNOO 242200Z 00000MPS 9999 BKN033 11/04 Q1023 R07/CLRD60 NOSIG RMK QFE758,UNOO,2023-05-24T22:00:00Z,54.97,73.32,11.0,4.0,0,0,,6.21,30.206694,,,,,,TRUE,,,,,BKN,3300,,,,,,,VFR,,,,,,,,,,,,SPECI,85.0
UNNT 242200Z 30002MPS CAVOK 01/M06 Q1022 R25/090070 R34/090070 NOSIG RMK QFE756/1008,UNNT,2023-05-24T22:00:00Z,55.02,82.65,1.0,-6.0,300,4,,6.21,30.177166,,,,,,TRUE,,,,,CAVOK,,,,,,,,VFR,,,,,,,,,,,,SPECI,106.0
UNKL 242200Z 31003MPS CAVOK 04/M04 Q1019 R29/CLRD65 NOSIG RMK QFE738,UNKL,2023-05-24T22:00:00Z,56.17,92.48,4.0,-4.0,310,6,,6.21,30.088583,,,,,,TRUE,,,,,CAVOK,,,,,,,,VFR,,,,,,,,,,,,SPECI,278.0
UNEE 242200Z 32002MPS CAVOK 04/M04 Q1020 R23/CLRD60 NOSIG RMK QFE742,UNEE,2023-05-24T22:00:00Z,55.27,86.1,4.0,-4.0,320,4,,6.21,30.11811,,,,,,TRUE,,,,,CAVOK,,,,,,,,VFR,,,,,,,,,,,,SPECI,261.0
UNBB 242200Z 36003MPS CAVOK 06/M09 Q1020 R06/CLRD66 NOSIG RMK QFE742,UNBB,2023-05-24T22:00:00Z,53.37,83.53,6.0,-9.0,360,6,,6.21,30.11811,,,,,,TRUE,,,,,CAVOK,,,,,,,,VFR,,,,,,,,,,,,SPECI,249.0
UNAA 242200Z 24001MPS CAVOK M00/M06 Q1018 R02/CLRD64 NOSIG RMK QFE741,UNAA,2023-05-24T22:00:00Z,53.75,91.4,0.0,-6.0,240,2,,6.21,30.059055,,,,,,TRUE,,,,,CAVOK,,,,,,,,VFR,,,,,,,,,,,,SPECI,249.0
UMMS 242200Z 32002MPS CAVOK 12/09 Q1018 NOSIG,UMMS,2023-05-24T22:00:00Z,53.88,28.03,12.0,9.0,320,4,,6.21,30.059055,,,,,,TRUE,,,,,CAVOK,,,,,,,,VFR,,,,,,,,,,,,METAR,196.0
UMKK 242200Z 00000MPS CAVOK 11/11 Q1018 R24/CLRD95 NOSIG RMK QFE762/1017,UMKK,2023-05-24T22:00:00Z,54.88,20.57,11.0,11.0,0,0,,6.21,30.059055,,,,,,TRUE,,,,,CAVOK,,,,,,,,VFR,,,,,,,,,,,,METAR,6.0
UMGG 242200Z 02004MPS 9000 NSC 15/11 Q1017 NOSIG,UMGG,2023-05-24T22:00:00Z,52.53,31.02,15.0,11.0,20,8,,5.59,30.029528,,,,,,TRUE,,,,,CLR,,,,,,,,VFR,,,,,,,,,,,,METAR,135.0
ULWC 242200Z 00000MPS 9000 SCT013CB 14/14 Q1016 R21/010060 NOSIG RMK QFE752/1002,ULWC,2023-05-24T22:00:00Z,59.28,38.02,14.0,14.0,0,0,,5.59,30.0,,,,,,TRUE,,,,,SCT,1300,,,,,,,VFR,,,,,,,,,,,,METAR,113.0
ULPB 242200Z AUTO 00000MPS 9999 // NSC 09/08 Q1015 RMK QFE757/1010,ULPB,2023-05-24T22:00:00Z,61.88,34.15,9.0,8.0,0,0,,6.21,29.970472,,,TRUE,,,,,,,,CLR,,,,,,,,VFR,,,,,,,,,,,,METAR,41.0
ULOO 242200Z VRB01MPS CAVOK 10/10 Q1017 NOSIG RMK QFE758,ULOO,2023-05-24T22:00:00Z,57.78,28.4,10.0,10.0,0,2,,6.21,30.029528,,,,,,TRUE,,,,,CAVOK,,,,,,,,VFR,,,,,,,,,,,,METAR,46.0
ULMM 242200Z 22005MPS CAVOK 13/04 Q1005 R13/150070 TEMPO 24009G15MPS RMK QFE747,ULMM,2023-05-24T22:00:00Z,68.78,32.75,13.0,4.0,220,10,,6.21,29.675198,,,,,,,,,,,CAVOK,,,,,,,,VFR,,,,,,,,,,,,METAR,79.0
ULLI 242200Z 20002MPS 120V240 CAVOK 12/09 Q1016 R28L/090060 NOSIG,ULLI,2023-05-24T22:00:00Z,59.8,30.27,12.0,9.0,200,4,,6.21,30.0,,,,,,TRUE,,,,,CAVOK,,,,,,,,VFR,,,,,,,,,,,,METAR,25.0
UIUU 242200Z 31004MPS 9999 FEW040CB 05/M03 Q1010 R26/60D NOSIG RMK QFE714/0952,UIUU,2023-05-24T22:00:00Z,51.8,107.45,5.0,-3.0,310,8,,6.21,29.822834,,,,,,TRUE,,,,,FEW,4000,,,,,,,VFR,,,,,,,,,,,,METAR,508.0
UIII 242200Z 29005MPS 9999 SCT041 03/M01 Q1013 R30/60D NOSIG RMK QFE715/0953,UIII,2023-05-24T22:00:00Z,52.27,104.37,3.0,-1.0,290,10,,6.21,29.911417,,,,,,TRUE,,,,,SCT,4100,,,,,,,VFR,,,,,,,,,,,,METAR,480.0
UIBB 242200Z 29006MPS 8000 -RA OVC004 02/02 Q1007 R30/290150 NOSIG RMK QBB120 MT OBSC QFE713/0950,UIBB,2023-05-24T22:00:00Z,56.37,101.7,2.0,2.0,290,12,,4.97,29.734253,,,,,,TRUE,,,,-RA,OVC,400,,,,,,,LIFR,,,,,,,,,,,,METAR,485.0
UIAA 242200Z 23002MPS 190V270 9999 -SHRA SCT033CB 04/01 Q1004 R29/290155 NOSIG RMK QFE695/0927,UIAA,2023-05-24T22:00:00Z,52.02,113.32,4.0,1.0,230,4,,6.21,29.64567,,,,,,TRUE,,,,-SHRA,SCT,3300,,,,,,,VFR,,,,,,,,,,,,METAR,650.0
UHWW 242200Z 10003MPS 9999 NSC 15/11 Q1015 R25L/0///70 NOSIG RMK QFE760,UHWW,2023-05-24T22:00:00Z,43.4,132.15,15.0,11.0,100,6,,6.21,29.970472,,,,,,TRUE,,,,,CLR,,,,,,,,VFR,,,,,,,,,,,,METAR,11.0
UHSS 242200Z 17004MPS 9999 NSC 15/09 Q1012 R19/70D NOSIG RMK QFE757/1010,UHSS,2023-05-24T22:00:00Z,46.88,142.72,15.0,9.0,170,8,,6.21,29.88189,,,,,,TRUE,,,,,CLR,,,,,,,,VFR,,,,,,,,,,,,METAR,14.0
UHPP 242200Z 32005MPS CAVOK 12/01 Q1008 R34L/CLRD65 NOSIG RMK QFE752/1003,UHPP,2023-05-24T22:00:00Z,53.17,158.45,12.0,1.0,320,10,,6.21,29.763779,,,,,,TRUE,,,,,CAVOK,,,,,,,,VFR,,,,,,,,,,,,METAR,33.0
UHMM 242200Z 09002MPS 9999 SCT026 OVC070 06/M00 Q1012 R10/70D NOSIG RMK MT OBSC QFE744 R28/14002MPS 110V180,UHMM,2023-05-24T22:00:00Z,59.92,150.72,6.0,0.0,90,4,,6.21,29.88189,,,,,,TRUE,,,,,SCT,2600,OVC,7000,,,,,VFR,,,,,,,,,,,,METAR,175.0
UHMA 242200Z 09005MPS 9999 SCT016 BKN045 05/01 Q1018 R01/70D NOSIG RMK MID 10005MPS END R01/10007MPS QFE760/1013,UHMA,2023-05-24T22:00:00Z,64.73,177.73,5.0,1.0,90,10,,6.21,30.059055,,,,,,TRUE,,,,,SCT,1600,BKN,4500,,,,,VFR,,0.5,,,,,,,,,,METAR,53.0
UHHH 242200Z 19003MPS 9999 FEW040CB 19/10 Q1007 R88/090060 NOSIG RMK QFE749/0999,UHHH,2023-05-24T22:00:00Z,48.52,135.18,19.0,10.0,190,6,,6.21,29.734253,,,,,,TRUE,,,,,FEW,4000,,,,,,,VFR,,,,,,,,,,,,METAR,74.0
UHBB 242200Z 16003MPS 9999 SCT033CB 17/08 Q0997 R36/090060 NOSIG RMK QFE731/0975,UHBB,2023-05-24T22:00:00Z,50.43,127.42,17.0,8.0,160,6,,6.21,29.438976,,,,,,TRUE,,,,,SCT,3300,,,,,,,VFR,,,,,,,,,,,,METAR,185.0
UGTB 242200Z 32012KT CAVOK 18/14 Q1016 NOSIG,UGTB,2023-05-24T22:00:00Z,41.67,44.95,18.0,14.0,320,12,,6.21,30.0,,,,,,TRUE,,,,,CAVOK,,,,,,,,VFR,,,,,,,,,,,,METAR,468.0
UGSB 242200Z 14002KT 9999 BKN026 16/16 Q1016 NOSIG,UGSB,2023-05-24T22:00:00Z,41.62,41.6,16.0,16.0,140,2,,6.21,30.0,,,,,,TRUE,,,,,BKN,2600,,,,,,,MVFR,,,,,,,,,,,,METAR,32.0
UGMS 242200Z AUTO VRB02KT //// ////// 06/06 Q1023,UGMS,2023-05-24T22:00:00Z,43.05,42.75,6.0,6.0,0,2,,,30.206694,,,TRUE,,,,,,,,,,,,,,,,,,,,,,,,,,,,METAR,1442.0
UGKO 242200Z 28008KT 9999 SCT011CB BKN020 16/15 Q1016 NOSIG,UGKO,2023-05-24T22:00:00Z,42.18,42.48,16.0,15.0,280,8,,6.21,30.0,,,,,,TRUE,,,,,SCT,1100,BKN,2000,,,,,MVFR,,,,,,,,,,,,METAR,44.0
UGAM 242200Z AUTO 04002KT //// ////// 13/13 Q1017,UGAM,2023-05-24T22:00:00Z,42.53,43.13,13.0,13.0,40,2,,,30.029528,,,TRUE,,,,,,,,,,,,,,,,,,,,,,,,,,,,METAR,544.0
UERR 242200Z 06006MPS CAVOK 06/M03 Q1009 R07/CLRD60 NOSIG RMK QFE726/0968,UERR,2023-05-24T22:00:00Z,62.53,114.05,6.0,-3.0,60,12,,6.21,29.793306,,,,,,TRUE,,,,,CAVOK,,,,,,,,VFR,,,,,,,,,,,,SPECI,352.0
UERP 242200Z 32003MPS 9999 -SHSN BKN010CB OVC100 M01/M02 Q1016 R35/090060 NOSIG RMK QFE718,UERP,2023-05-24T22:00:00Z,66.4,112.03,-1.0,-2.0,320,6,,6.21,30.0,,,,,,TRUE,,,,-SHSN,BKN,1000,OVC,10000,,,,,MVFR,,,,,,,,,,,,SPECI,514.0
UEEE 242200Z 07001MPS CAVOK 08/M02 Q1007 R05/09//60 NOSIG RMK QFE747,UEEE,2023-05-24T22:00:00Z,62.08,129.77,8.0,-2.0,70,2,,6.21,29.734253,,,,,,TRUE,,,,,CAVOK,,,,,,,,VFR,,,,,,,,,,,,METAR,106.0
UDYZ 242200Z 11003KT 9999 SCT040CB 15/10 Q1019 NOSIG,UDYZ,2023-05-24T22:00:00Z,40.15,44.4,15.0,10.0,110,3,,6.21,30.088583,,,,,,TRUE,,,,,SCT,4000,,,,,,,VFR,,,,,,,,,,,,METAR,851.0
UDSG 242200Z 07005KT 9999 SCT043CB BKN049 11/09 Q1023 NOSIG,UDSG,2023-05-24T22:00:00Z,40.75,43.87,11.0,9.0,70,5,,6.21,30.206694,,,,,,TRUE,,,,,SCT,4300,BKN,4900,,,,,VFR,,,,,,,,,,,,METAR,1515.0
UCFO 242200Z 15004MPS CAVOK 16/04 Q1014 NOSIG,UCFO,2023-05-24T22:00:00Z,40.6,72.8,16.0,4.0,150,8,,6.21,29.940945,,,,,,TRUE,,,,,CAVOK,,,,,,,,VFR,,,,,,,,,,,,METAR,881.0
UCFM 242200Z 10005MPS CAVOK 11/06 Q1016 NOSIG,UCFM,2023-05-24T22:00:00Z,43.07,74.48,11.0,6.0,100,10,,6.21,30.0,,,,,,TRUE,,,,,CAVOK,,,,,,,,VFR,,,,,,,,,,,,METAR,632.0
UCFL 242200Z 35002MPS 9999 BKN023CB BKN100 07/04 Q1022,UCFL,2023-05-24T22:00:00Z,42.58,76.7,7.0,4.0,350,4,,6.21,30.177166,,,,,,,,,,,BKN,2300,BKN,10000,,,,,MVFR,,,,,,,,,,,,METAR,1654.0
UBBZ 242200Z AUTO VRB06KT 9999 // ///////// 19/10 Q1015,UBBZ,2023-05-24T22:00:00Z,39.1,46.73,19.0,10.0,0,6,,6.21,29.970472,,,TRUE,,,,,,,,,,,,,,,,,,,,,,,,,,,,METAR,489.0
UBBY 242200Z 02006KT 9999 BKN100 22/10 Q1017 NOSIG RMK MT OP,UBBY,2023-05-24T22:00:00Z,41.57,46.67,22.0,10.0,20,6,,6.21,30.029528,,,,,,TRUE,,,,,BKN,10000,,,,,,,VFR,,,,,,,,,,,,METAR,383.0
UBBQ 242200Z 30005KT 9999 FEW150 18/14 Q1013 NOSIG RMK MT OP,UBBQ,2023-05-24T22:00:00Z,40.82,47.72,18.0,14.0,300,5,,6.21,29.911417,,,,,,TRUE,,,,,FEW,15000,,,,,,,VFR,,,,,,,,,,,,METAR,339.0
UBBN 242200Z 10006KT 9999 FEW046 SCT100 14/11 Q1017 NOSIG RMK MT OP QFE688,UBBN,2023-05-24T22:00:00Z,39.18,45.45,14.0,11.0,100,6,,6.21,30.029528,,,,,,TRUE,,,,,FEW,4600,SCT,10000,,,,,VFR,,,,,,,,,,,,SPECI,857.0
UBBL 242200Z 16004KT 9999 NSC 19/17 Q1011 NOSIG RMK MT OP,UBBL,2023-05-24T22:00:00Z,38.75,48.82,19.0,17.0,160,4,,6.21,29.852362,,,,,,TRUE,,,,,CLR,,,,,,,,VFR,,,,,,,,,,,,METAR,-11.0
UBBG 242200Z 29014KT 9999 BKN083 22/12 Q1014 NOSIG,UBBG,2023-05-24T22:00:00Z,40.73,46.32,22.0,12.0,290,14,,6.21,29.940945,,,,,,TRUE,,,,,BKN,8300,,,,,,,VFR,,,,,,,,,,,,METAR,333.0
UBBF 242200Z AUTO 29006KT 250V310 9999 // NSC 20/11 Q1013,UBBF,2023-05-24T22:00:00Z,39.6,47.2,20.0,11.0,290,6,,6.21,29.911417,,,TRUE,,,,,,,,CLR,,,,,,,,VFR,,,,,,,,,,,,METAR,370.0
UBBB 242200Z 12006KT CAVOK 22/17 Q1011 NOSIG,UBBB,2023-05-24T22:00:00Z,40.47,50.07,22.0,17.0,120,6,,6.21,29.852362,,,,,,TRUE,,,,,CAVOK,,,,,,,,VFR,,,,,,,,,,,,METAR,94.0
UAUU 242200Z 33001MPS CAVOK 11/05 Q1026 NOSIG RMK QFE753/1004,UAUU,2023-05-24T22:00:00Z,53.2,63.55,11.0,5.0,330,2,,6.21,30.295275,,,,,,TRUE,,,,,CAVOK,,,,,,,,VFR,,,,,,,,,,,,METAR,177.0
UASP 242200Z 03004MPS CAVOK 09/01 Q1021 NOSIG RMK QFE755/1007,UASP,2023-05-24T22:00:00Z,52.2,77.07,9.0,1.0,30,8,,6.21,30.147638,,,,,,TRUE,,,,,CAVOK,,,,,,,,VFR,,,,,,,,,,,,METAR,122.0
UASK 242200Z VRB01MPS 9999 NSC 10/02 Q1015 NOSIG RMK QFE736/0981,UASK,2023-05-24T22:00:00Z,50.03,82.5,10.0,2.0,0,2,,6.21,29.970472,,,,,,TRUE,,,,,CLR,,,,,,,,VFR,,,,,,,,,,,,METAR,285.0
UARR 242200Z 11006MPS CAVOK 20/05 Q1021 NOSIG RMK QFE762/1016,UARR,2023-05-24T22:00:00Z,51.15,51.53,20.0,5.0,110,12,,6.21,30.147638,,,,,,TRUE,,,,,CAVOK,,,,,,,,VFR,,,,,,,,,,,,METAR,33.0
UAOO 242200Z 02004MPS CAVOK 16/04 Q1017 NOSIG RMK QFE751/1002,UAOO,2023-05-24T22:00:00Z,44.7,65.6,16.0,4.0,20,8,,6.21,30.029528,,,,,,TRUE,,,,,CAVOK,,,,,,,,VFR,,,,,,,,,,,,METAR,130.0
UAIT 242200Z 07005MPS CAVOK 17/03 Q1015 NOSIG RMK QFE736/0982,UAIT,2023-05-24T22:00:00Z,43.32,68.55,17.0,3.0,70,10,,6.21,29.970472,,,,,,TRUE,,,,,CAVOK,,,,,,,,VFR,,,,,,,,,,,,METAR,301.0
UADD 242200Z 23005MPS 9999 NSC 11/04 Q1015 NOSIG RMK QFE704/0939,UADD,2023-05-24T22:00:00Z,42.85,71.3,11.0,4.0,230,10,,6.21,29.970472,,,,,,TRUE,,,,,CLR,,,,,,,,VFR,,,,,,,,,,,,METAR,663.0
TVSA 242200Z 04005KT 9999 FEW020 28/24 Q1010 NOSIG ,TVSA,2023-05-24T22:00:00Z,13.15,-61.15,28.0,24.0,40,5,,6.21,29.822834,,,,,,TRUE,,,,,FEW,2000,,,,,,,VFR,,,,,,,,,,,,METAR,3.0
TUPJ 242200Z 11005KT 10SM FEW020 28/23 A2996 RMK Q1011 VIS 16KM,TUPJ,2023-05-24T22:00:00Z,18.43,-64.53,28.0,23.0,110,5,,10.0,29.958662,,,,,,,,,,,FEW,2000,,,,,,,VFR,,,,,,,,,,,,METAR,6.0
TTPP 242200Z 11007KT 9999 FEW010CB 29/23 Q1009 NOSIG RMK CB - S/ SW,TTPP,2023-05-24T22:00:00Z,10.58,-61.35,29.0,23.0,110,7,,6.21,29.793306,,,,,,TRUE,,,,,FEW,1000,,,,,,,VFR,,,,,,,,,,,,METAR,11.0
TTCP 242200Z 10008KT 9999 FEW022 29/25 Q1009 NOSIG,TTCP,2023-05-24T22:00:00Z,11.15,-60.85,29.0,25.0,100,8,,6.21,29.793306,,,,,,TRUE,,,,,FEW,2200,,,,,,,VFR,,,,,,,,,,,,METAR,13.0
TRPG 242200Z 11008KT 9999 SCT020 27/25 Q1012,TRPG,2023-05-24T22:00:00Z,16.78,-62.2,27.0,25.0,110,8,,6.21,29.88189,,,,,,,,,,,SCT,2000,,,,,,,VFR,,,,,,,,,,,,METAR,170.0
TQPF 242200Z 11008KT 9999 -SHRA SCT017 SCT035 28/24 Q1011,TQPF,2023-05-24T22:00:00Z,18.2,-63.05,28.0,24.0,110,8,,6.21,29.852362,,,,,,,,,,-SHRA,SCT,1700,SCT,3500,,,,,VFR,,,,,,,,,,,,METAR,33.0
TNCM 242200Z 07006KT 9999 VCSH SCT015TCU 28/24 Q1012 NOSIG RMK VCSH ESE/ NW,TNCM,2023-05-24T22:00:00Z,18.05,-63.12,28.0,24.0,70,6,,6.21,29.88189,,,,,,TRUE,,,,VCSH,SCT,1500,,,,,,,VFR,,,,,,,,,,,,METAR,9.0
TNCC 242200Z 08008KT 9999 FEW019 29/26 Q1006 NOSIG,TNCC,2023-05-24T22:00:00Z,12.2,-68.97,29.0,26.0,80,8,,6.21,29.704725,,,,,,TRUE,,,,,FEW,1900,,,,,,,VFR,,,,,,,,,,,,METAR,10.0
TNCA 242200Z 08017KT 9999 FEW020 30/25 Q1006 NOSIG,TNCA,2023-05-24T22:00:00Z,12.5,-70.0,30.0,25.0,80,17,,6.21,29.704725,,,,,,TRUE,,,,,FEW,2000,,,,,,,VFR,,,,,,,,,,,,METAR,7.0
TLPL 242200Z 09011KT 9999 FEW026 29/23 Q1010 NOSIG,TLPL,2023-05-24T22:00:00Z,13.75,-60.95,29.0,23.0,90,11,,6.21,29.822834,,,,,,TRUE,,,,,FEW,2600,,,,,,,VFR,,,,,,,,,,,,METAR,13.0
TLPC 242200Z 10006KT 9999 FEW026 29/24 Q1010 NOSIG,TLPC,2023-05-24T22:00:00Z,14.02,-61.0,29.0,24.0,100,6,,6.21,29.822834,,,,,,TRUE,,,,,FEW,2600,,,,,,,VFR,,,,,,,,,,,,METAR,8.0
TKPK 242200Z 04008KT 9999 FEW015 27/24 Q1011,TKPK,2023-05-24T22:00:00Z,17.3,-62.72,27.0,24.0,40,8,,6.21,29.852362,,,,,,,,,,,FEW,1500,,,,,,,VFR,,,,,,,,,,,,METAR,62.0
TGPY 242200 09010KT 9999 FEW019 29/25 Q1009 NOSIG,TGPY,2023-05-24T22:00:00Z,12.0,-61.78,29.0,25.0,90,10,,6.21,29.793306,,,,,,TRUE,,,,,FEW,1900,,,,,,,VFR,,,,,,,,,,,,METAR,12.0
TFFR 242200Z AUTO 07006KT 9999 BKN027/// BKN032/// BKN098/// ///CB 28/24 Q1010 TEMPO 4000 SHRA BKN012CB BKN020TCU,TFFR,2023-05-24T22:00:00Z,16.27,-61.53,28.0,24.0,70,6,,6.21,29.822834,,,TRUE,,,,,,,,BKN,2700,BKN,3200,BKN,9800,,,MVFR,,,,,,,,,,,,METAR,6.0
TFFF 242200Z AUTO 12010KT //// R10///// // NSC 29/23 Q1010,TFFF,2023-05-24T22:00:00Z,14.6,-61.0,29.0,23.0,120,10,,,29.822834,,,TRUE,,,,,,,,CLR,,,,,,,,,,,,,,,,,,,,METAR,3.0
TDPD 242200Z 11007KT 9999 FEW015 BKN018 28/25 Q1011,TDPD,2023-05-24T22:00:00Z,15.55,-61.3,28.0,25.0,110,7,,6.21,29.852362,,,,,,,,,,,FEW,1500,BKN,1800,,,,,MVFR,,,,,,,,,,,,METAR,13.0
TBPB 242200Z 09007KT 9999 FEW020 28/24 Q1009 NOSIG,TBPB,2023-05-24T22:00:00Z,13.07,-59.48,28.0,24.0,90,7,,6.21,29.793306,,,,,,TRUE,,,,,FEW,2000,,,,,,,VFR,,,,,,,,,,,,METAR,55.0
TAPA 242200Z 10006KT 050V180 9999 SCT020 28/23 Q1011 NOSIG,TAPA,2023-05-24T22:00:00Z,17.13,-61.78,28.0,23.0,100,6,,6.21,29.852362,,,,,,TRUE,,,,,SCT,2000,,,,,,,VFR,,,,,,,,,,,,METAR,15.0
SYEC 242200Z 09008KT 9999 SCT023 30/24 Q1008 NOSIG,SYEC,2023-05-24T22:00:00Z,6.8,-58.1,30.0,24.0,90,8,,6.21,29.763779,,,,,,TRUE,,,,,SCT,2300,,,,,,,VFR,,,,,,,,,,,,METAR,2.0
SYCJ 242200Z 09008KT 9999 FEW021CB 28/25 Q1009 NOSIG RMK CB SE-SW,SYCJ,2023-05-24T22:00:00Z,6.5,-58.25,28.0,25.0,90,8,,6.21,29.793306,,,,,,TRUE,,,,,FEW,2100,,,,,,,VFR,,,,,,,,,,,,METAR,30.0
SUMU 242200Z 00000KT CAVOK 19/18 Q1011 NOSIG,SUMU,2023-05-24T22:00:00Z,-34.83,-56.02,19.0,18.0,0,0,,6.21,29.852362,,,,,,TRUE,,,,,CAVOK,,,,,,,,VFR,,,,,,,,,,,,METAR,32.0
SULS 242200Z 05005KT 010V080 CAVOK 19/17 Q1012,SULS,2023-05-24T22:00:00Z,-34.87,-55.1,19.0,17.0,50,5,,6.21,29.88189,,,,,,,,,,,CAVOK,,,,,,,,VFR,,,,,,,,,,,,METAR,22.0
SUCA 242200Z 36007KT 330V040 9999 FEW040 SCT070 BKN200 20/17 Q1010,SUCA,2023-05-24T22:00:00Z,-34.45,-57.77,20.0,17.0,360,7,,6.21,29.822834,,,,,,,,,,,FEW,4000,SCT,7000,BKN,20000,,,VFR,,,,,,,,,,,,METAR,26.0
SUAA 242200Z VRB03KT 9999 SCT040 BKN100 18/16 Q1011,SUAA,2023-05-24T22:00:00Z,-34.78,-56.25,18.0,16.0,0,3,,6.21,29.852362,,,,,,,,,,,SCT,4000,BKN,10000,,,,,VFR,,,,,,,,,,,,METAR,48.0
SPYL 242200Z /////KT CAVOK 28/22 Q//// RMK TX 31.4 PP000,SPYL,2023-05-24T22:00:00Z,-4.57,-81.25,28.0,22.0,,,,6.21,,,,,,,,,,,,CAVOK,,,,,,,,VFR,,,,,,,,,,,,SPECI,89.0
SPUR 242200Z 20008KT 9999 BKN040 SCT100 28/21 Q1008 RMK BIRD HAZARD RWY 19/01 TX.29.5 PP000,SPUR,2023-05-24T22:00:00Z,-5.17,-80.58,28.0,21.0,200,8,,6.21,29.763779,,,,,,,,,,,BKN,4000,SCT,10000,,,,,VFR,,,,,,,,,,,,SPECI,55.0
SPTU 242200Z VRB02KT CAVOK 30/23 Q1008 RMK TX30.9 BIRD HAZARD RWY 01/19 PP000,SPTU,2023-05-24T22:00:00Z,-12.62,-69.22,30.0,23.0,0,2,,6.21,29.763779,,,,,,,,,,,CAVOK,,,,,,,,VFR,,,,,,,,,,,,SPECI,213.0
SPTN 242200Z 23007KT 9999 SCT013 OVC020 17/14 Q1014 RMK TX22.4 FU QUAD SW PP000,SPTN,2023-05-24T22:00:00Z,-18.03,-70.28,17.0,14.0,230,7,,6.21,29.940945,,,,,,,,,,,SCT,1300,OVC,2000,,,,,MVFR,,,,,,,,,,,,SPECI,459.0
SPST 242200Z 08004KT 9999 FEW020 30/21 Q1008 RMK TX33.4 PP000,SPST,2023-05-24T22:00:00Z,-6.52,-76.37,30.0,21.0,80,4,,6.21,29.763779,,,,,,,,,,,FEW,2000,,,,,,,VFR,,,,,,,,,,,,SPECI,282.0
SPSO 242200Z 21013KT CAVOK 24/17 Q1010 RMK TX25.1 BIRD HAZARD RWY 22/04 PP000,SPSO,2023-05-24T22:00:00Z,-13.73,-76.22,24.0,17.0,210,13,,6.21,29.822834,,,,,,,,,,,CAVOK,,,,,,,,VFR,,,,,,,,,,,,METAR,8.0
SPRU 242200Z 16009KT 7000 BCFG BKN050 24/20 Q1010 RMK TX24.8 PP000,SPRU,2023-05-24T22:00:00Z,-8.08,-79.12,24.0,20.0,160,9,,4.35,29.822834,,,,,,,,,,BCFG,BKN,5000,,,,,,,MVFR,,,,,,,,,,,,SPECI,23.0
SPQU 242200Z 26005KT CAVOK 18/M00 Q1025 NOSIG RMK TX21.5 PP000,SPQU,2023-05-24T22:00:00Z,-16.33,-71.57,18.0,0.0,260,5,,6.21,30.265747,,,,,,TRUE,,,,,CAVOK,,,,,,,,VFR,,,,,,,,,,,,SPECI,2527.0
SPQT 242200Z 11003KT 9999 FEW017 BKN100 27/24 Q1009 NOSIG RMK TX29.3 PP000,SPQT,2023-05-24T22:00:00Z,-3.78,-73.32,27.0,24.0,110,3,,6.21,29.793306,,,,,,TRUE,,,,,FEW,1700,BKN,10000,,,,,VFR,,,,,,,,,,,,SPECI,92.0
SPNC 242200Z 05010KT 9999 FEW040 SCT120 23/13 Q1018 RMK TX26.3 PP000,SPNC,2023-05-24T22:00:00Z,-9.87,-76.2,23.0,13.0,50,10,,6.21,30.059055,,,,,,,,,,,FEW,4000,SCT,12000,,,,,VFR,,,,,,,,,,,,SPECI,1856.0
SPMS 242200Z 08004KT 9999 FEW015 29/23 Q1009 RMK TX32.0 BIRD HAZARD RWY 09/27 PP000,SPMS,2023-05-24T22:00:00Z,-5.9,-76.12,29.0,23.0,80,4,,6.21,29.793306,,,,,,,,,,,FEW,1500,,,,,,,VFR,,,,,,,,,,,,SPECI,149.0
SPME 242200Z 30005KT 9999 OVC013 27/24 Q1007 RMK BIRD HAZARD RWY 32/14 PP000,SPME,2023-05-24T22:00:00Z,-3.55,-80.4,27.0,24.0,300,5,,6.21,29.734253,,,,,,,,,,,OVC,1300,,,,,,,MVFR,,,,,,,,,,,,SPECI,26.0
SPJL 242200Z /////KT CAVOK 13/M02 Q1032 RMK WIND RWY12 08005KT/TX17.9 PP000,SPJL,2023-05-24T22:00:00Z,-15.47,-70.15,13.0,-2.0,,,,6.21,30.47244,,,,,,,,,,,CAVOK,,,,,,,,VFR,,,,,,,,,,,,SPECI,3837.0
SPJJ 242200Z 03007KT 9999 SCT040 SCT080 16/// Q1028 RMK TX//./ PP000,SPJJ,2023-05-24T22:00:00Z,-11.77,-75.47,,,30,7,,6.21,30.35433,,,,,,,,,,,SCT,4000,SCT,8000,,,,,VFR,,,,,,,,,,,,METAR,3322.0
SPJC 242200Z 17011KT CAVOK 23/17 Q1010 NOSIG RMK TX25.4 PP000,SPJC,2023-05-24T22:00:00Z,-12.02,-77.12,23.0,17.0,170,11,,6.21,29.822834,,,,,,TRUE,,,,,CAVOK,,,,,,,,VFR,,,,,,,,,,,,SPECI,26.0
SPHO 242200Z VRB02KT 9999 FEW050 22/02 Q1022 RMK TX23.6 PP000,SPHO,2023-05-24T22:00:00Z,-13.17,-74.22,22.0,2.0,0,2,,6.21,30.177166,,,,,,,,,,,FEW,5000,,,,,,,VFR,,,,,,,,,,,,SPECI,2743.0
SPHI 242200Z 18014KT 9999 FEW050 BKN070 27/20 Q1009 RMK TX 29.8 BIRD HAZARD RWY 19/01 PP000,SPHI,2023-05-24T22:00:00Z,-6.78,-79.82,27.0,20.0,180,14,,6.21,29.793306,,,,,,,,,,,FEW,5000,BKN,7000,,,,,VFR,,,,,,,,,,,,SPECI,33.0
SPCL 242200Z 33003KT 9999 SCT025 29/22 Q1009 RMK TX30.9 BIRD HAZARD RWY 02/20 PP000,SPCL,2023-05-24T22:00:00Z,-8.38,-74.58,29.0,22.0,330,3,,6.21,29.793306,,,,,,,,,,,SCT,2500,,,,,,,VFR,,,,,,,,,,,,SPECI,154.0
SOCA 242200Z AUTO 09003KT CAVOK 27/24 Q1009 NOSIG,SOCA,2023-05-24T22:00:00Z,4.82,-52.37,27.0,24.0,90,3,,6.21,29.793306,,,TRUE,,,TRUE,,,,,CAVOK,,,,,,,,VFR,,,,,,,,,,,,METAR,7.0
SMZO 242200Z 15004KT 9999 FEW030 27/25 Q1008 NOSIG,SMZO,2023-05-24T22:00:00Z,5.82,-55.18,27.0,25.0,150,4,,6.21,29.763779,,,,,,TRUE,,,,,FEW,3000,,,,,,,VFR,,,,,,,,,,,,METAR,7.0
SMJP 242200Z 00000KT 9999 FEW010 FEW018CB SCT020 27/24 Q1008 NOSIG,SMJP,2023-05-24T22:00:00Z,5.45,-55.18,27.0,24.0,0,0,,6.21,29.763779,,,,,,TRUE,,,,,FEW,1000,FEW,1800,SCT,2000,,,VFR,,,,,,,,,,,,METAR,14.0
SLVR 242200Z 35010KT 9999 FEW017 BKN200 27/23 Q1008,SLVR,2023-05-24T22:00:00Z,-17.63,-63.13,27.0,23.0,350,10,,6.21,29.763779,,,,,,,,,,,FEW,1700,BKN,20000,,,,,VFR,,,,,,,,,,,,METAR,377.0
SLTR 242200Z 27004KT 9999 FEW020 BKN200 29/24 Q1008,SLTR,2023-05-24T22:00:00Z,-14.83,-64.92,29.0,24.0,270,4,,6.21,29.763779,,,,,,,,,,,FEW,2000,BKN,20000,,,,,VFR,,,,,,,,,,,,METAR,157.0
SLTJ 242200Z 16012KT 9999 FEW027 BKN200 20/13 Q1013,SLTJ,2023-05-24T22:00:00Z,-21.55,-64.72,20.0,13.0,160,12,,6.21,29.911417,,,,,,,,,,,FEW,2700,BKN,20000,,,,,VFR,,,,,,,,,,,,METAR,1850.0
SLSV 242200Z 00000KT 9999 NSC 27/23 Q1008,SLSV,2023-05-24T22:00:00Z,-16.4,-61.05,27.0,23.0,0,0,,6.21,29.763779,,,,,,,,,,,CLR,,,,,,,,VFR,,,,,,,,,,,,METAR,450.0
SLSA 242200Z 33005KT 9999 FEW017 BKN200 30/24 Q1008,SLSA,2023-05-24T22:00:00Z,-13.77,-65.43,30.0,24.0,330,5,,6.21,29.763779,,,,,,,,,,,FEW,1700,BKN,20000,,,,,VFR,,,,,,,,,,,,METAR,144.0
SLRI 242200Z 32006KT 9999 SCT020 FEW023CB BKN200 30/25 Q1009,SLRI,2023-05-24T22:00:00Z,-11.02,-66.08,30.0,25.0,320,6,,6.21,29.793306,,,,,,,,,,,SCT,2000,FEW,2300,BKN,20000,,,VFR,,,,,,,,,,,,METAR,136.0
SLMG 242200Z 00000KT 9999 FEW017 FEW023CB BKN200 30/24 Q1010,SLMG,2023-05-24T22:00:00Z,-13.27,-64.07,30.0,24.0,0,0,,6.21,29.822834,,,,,,,,,,,FEW,1700,FEW,2300,BKN,20000,,,VFR,,,,,,,,,,,,METAR,146.0
SLLP 242200Z 30008KT 9999 FEW015 BKN200 11/M15 Q1035,SLLP,2023-05-24T22:00:00Z,-16.52,-68.17,11.0,-15.0,300,8,,6.21,30.561024,,,,,,,,,,,FEW,1500,BKN,20000,,,,,VFR,,,,,,,,,,,,METAR,4061.0
SLJV 242200Z 36004KT 9999 FEW017 25/23 Q1009,SLJV,2023-05-24T22:00:00Z,-16.27,-62.47,25.0,23.0,360,4,,6.21,29.793306,,,,,,,,,,,FEW,1700,,,,,,,VFR,,,,,,,,,,,,METAR,539.0
SLJO 242200Z 34005KT 9999 SCT017 FEW023CB BKN200 30/25 Q1009,SLJO,2023-05-24T22:00:00Z,-13.07,-64.67,30.0,25.0,340,5,,6.21,29.793306,,,,,,,,,,,SCT,1700,FEW,2300,BKN,20000,,,VFR,,,,,,,,,,,,METAR,140.0
SLET 242200Z 33014KT 9999 FEW017 SCT200 27/22 Q1007,SLET,2023-05-24T22:00:00Z,-17.8,-63.17,27.0,22.0,330,14,,6.21,29.734253,,,,,,,,,,,FEW,1700,SCT,20000,,,,,VFR,,,,,,,,,,,,METAR,421.0
SLCP 242200Z 00000KT 9999 BKN017 FEW027CB BKN200 27/23 Q1013,SLCP,2023-05-24T22:00:00Z,-16.15,-62.02,27.0,23.0,0,0,,6.21,29.911417,,,,,,,,,,,BKN,1700,FEW,2700,BKN,20000,,,MVFR,,,,,,,,,,,,METAR,502.0
SLCO 242200Z 32003KT 9999 FEW005 FEW023CB BKN070 BKN200 24/23 Q1009,SLCO,2023-05-24T22:00:00Z,-11.03,-68.78,24.0,23.0,320,3,,6.21,29.793306,,,,,,,,,,,FEW,500,FEW,2300,BKN,7000,BKN,20000,VFR,,,,,,,,,,,,METAR,238.0
SLCB 242200Z 23006KT 9999 FEW033 BKN200 20/04 Q1019 ,SLCB,2023-05-24T22:00:00Z,-17.42,-66.18,20.0,4.0,230,6,,6.21,30.088583,,,,,,,,,,,FEW,3300,BKN,20000,,,,,VFR,,,,,,,,,,,,METAR,2560.0
SLCA 242200Z 00000KT 9999 BKN036 26/18 Q1010,SLCA,2023-05-24T22:00:00Z,-20.0,-63.53,26.0,18.0,0,0,,6.21,29.822834,,,,,,,,,,,BKN,3600,,,,,,,VFR,,,,,,,,,,,,METAR,796.0
SLAL 242200Z 35007KT 9999 NSC 16/M00 Q1024,SLAL,2023-05-24T22:00:00Z,-19.23,-65.15,16.0,0.0,350,7,,6.21,30.236221,,,,,,,,,,,CLR,,,,,,,,VFR,,,,,,,,,,,,METAR,3109.0
SKVV 242200Z 07004KT 9999 FEW023 29/22 Q1009 RMK A2979,SKVV,2023-05-24T22:00:00Z,4.17,-73.62,29.0,22.0,70,4,,6.21,29.793306,,,,,,,,,,,FEW,2300,,,,,,,VFR,,,,,,,,,,,,METAR,421.0
SKVP 242200Z 06004KT 010V120 9999 VCSH SCT015TCU SCT200 31/24 Q1008 RMK TCUVCSH/E/SW A2977,SKVP,2023-05-24T22:00:00Z,10.43,-73.25,31.0,24.0,60,4,,6.21,29.763779,,,,,,,,,,VCSH,SCT,1500,SCT,20000,,,,,VFR,,,,,,,,,,,,METAR,137.0
SKUI 242200Z 32005KT 9999 VCSH FEW025CB SCT027 BKN200 32/25 Q1004 RMK CB SW/NW VCSH NW A2968,SKUI,2023-05-24T22:00:00Z,5.68,-76.63,32.0,25.0,320,5,,6.21,29.64567,,,,,,,,,,VCSH,FEW,2500,SCT,2700,BKN,20000,,,VFR,,,,,,,,,,,,METAR,55.0
SKUC 242200Z 00000KT 9999 SCT023 30/25 Q1006 RMK A2973,SKUC,2023-05-24T22:00:00Z,7.07,-70.73,30.0,25.0,0,0,,6.21,29.704725,,,,,,,,,,,SCT,2300,,,,,,,VFR,,,,,,,,,,,,METAR,127.0
SKSP 242200Z 08005KT 020V110 9999 FEW018 30/23 Q1007 RMK A2976,SKSP,2023-05-24T22:00:00Z,12.58,-81.72,30.0,23.0,80,5,,6.21,29.734253,,,,,,,,,,,FEW,1800,,,,,,,VFR,,,,,,,,,,,,METAR,6.0
SKSM 242200Z 34012KT 9999 SCT020 BKN200 30/26 Q1007 RMK A2975,SKSM,2023-05-24T22:00:00Z,11.12,-74.22,30.0,26.0,340,12,,6.21,29.734253,,,,,,,,,,,SCT,2000,BKN,20000,,,,,VFR,,,,,,,,,,,,METAR,5.0
SKRH 242200Z 02007KT 9999 SCT015 FEW020TCU 29/26 Q1006 RMK TCUE A2972,SKRH,2023-05-24T22:00:00Z,11.52,-72.92,29.0,26.0,20,7,,6.21,29.704725,,,,,,,,,,,SCT,1500,FEW,2000,,,,,VFR,,,,,,,,,,,,METAR,11.0
SKRG 242200Z VRB02KT 9999 FEW018TCU BKN200 20/15 Q1022 NOSIG RMK TCU/SE/W A3018,SKRG,2023-05-24T22:00:00Z,6.17,-75.42,20.0,15.0,0,2,,6.21,30.177166,,,,,,TRUE,,,,,FEW,1800,BKN,20000,,,,,VFR,,,,,,,,,,,,SPECI,2132.0
SKPV 242200Z 09004KT 070V140 9999 FEW017 31/25 Q1008 RMK A2977,SKPV,2023-05-24T22:00:00Z,13.37,-81.35,31.0,25.0,90,4,,6.21,29.763779,,,,,,,,,,,FEW,1700,,,,,,,VFR,,,,,,,,,,,,METAR,7.0
SKPS 242200Z 06005KT 9999 BKN020 20/18 Q1017 RMK A3004,SKPS,2023-05-24T22:00:00Z,1.4,-77.28,20.0,18.0,60,5,,6.21,30.029528,,,,,,,,,,,BKN,2000,,,,,,,MVFR,,,,,,,,,,,,METAR,1798.0
SKPE 242200Z 27005KT 9999 SCT020TCU 26/19 Q1014 RMK TCUNE/E A2994,SKPE,2023-05-24T22:00:00Z,4.82,-75.73,26.0,19.0,270,5,,6.21,29.940945,,,,,,,,,,,SCT,2000,,,,,,,VFR,,,,,,,,,,,,METAR,1341.0
SKNV 242200Z 34005KT 310V010 9999 TS VCSH SCT035CB BKN120 33/21 Q1006 RMK CB VCSH/E A2972,SKNV,2023-05-24T22:00:00Z,2.93,-75.28,33.0,21.0,340,5,,6.21,29.704725,,,,,,,,,,TS VCSH,SCT,3500,BKN,12000,,,,,VFR,,,,,,,,,,,,METAR,449.0
SKMR 242200Z VRB04KT 9999 BKN017 BKN100 28/25 Q1006 RMK A2971,SKMR,2023-05-24T22:00:00Z,8.82,-75.83,28.0,25.0,0,4,,6.21,29.704725,,,,,,,,,,,BKN,1700,BKN,10000,,,,,MVFR,,,,,,,,,,,,METAR,12.0
SKMD 242200Z 19006KT 9999 VCSH SCT035TCU OVC100 24/16 Q1015 RMK TCU VCSH/SE/SW A3000,SKMD,2023-05-24T22:00:00Z,6.22,-75.58,24.0,16.0,190,6,,6.21,29.970472,,,,,,,,,,VCSH,SCT,3500,OVC,10000,,,,,VFR,,,,,,,,,,,,METAR,1491.0
SKLT 242200Z 00000KT 9999 SCT010 BKN080 23/23 Q1008 RMK A2978,SKLT,2023-05-24T22:00:00Z,-4.2,-69.93,23.0,23.0,0,0,,6.21,29.763779,,,,,,,,,,,SCT,1000,BKN,8000,,,,,VFR,,,,,,,,,,,,METAR,78.0
SKLC 242200Z 33005KT 9999 FEW015 BKN300 29/25 Q1006 RMK A2972,SKLC,2023-05-24T22:00:00Z,7.82,-76.72,29.0,25.0,330,5,,6.21,29.704725,,,,,,,,,,,FEW,1500,BKN,30000,,,,,VFR,,,,,,,,,,,,METAR,20.0
SKIP 242200Z 03007KT 8000 -RA BKN016 11/10 Q1026 RETS RMK A3032,SKIP,2023-05-24T22:00:00Z,0.85,-77.67,11.0,10.0,30,7,,4.97,30.295275,,,,,,,,,,-RA,BKN,1600,,,,,,,MVFR,,,,,,,,,,,,METAR,2964.0
SKIB 242200Z 05005KT 9999 FEW020 27/21 Q1013 RMK A2993,SKIB,2023-05-24T22:00:00Z,4.42,-75.12,27.0,21.0,50,5,,6.21,29.911417,,,,,,,,,,,FEW,2000,,,,,,,VFR,,,,,,,,,,,,METAR,899.0
SKEJ 242200Z VRB02KT 9999 FEW017 BKN200 27/25 Q1006 RMK A2972,SKEJ,2023-05-24T22:00:00Z,7.02,-73.8,27.0,25.0,0,2,,6.21,29.704725,,,,,,,,,,,FEW,1700,BKN,20000,,,,,VFR,,,,,,,,,,,,METAR,123.0
SKCL 242200Z 29007KT 260V340 9999 FEW020 SCT200 29/20 Q1010 NOSIG RMK A2985,SKCL,2023-05-24T22:00:00Z,3.53,-76.37,29.0,20.0,290,7,,6.21,29.822834,,,,,,TRUE,,,,,FEW,2000,SCT,20000,,,,,VFR,,,,,,,,,,,,METAR,967.0
SKCG 242200Z 33015KT 9999 FEW015CB BKN200 30/26 Q1005 RMK CB/E A2970,SKCG,2023-05-24T22:00:00Z,10.43,-75.52,30.0,26.0,330,15,,6.21,29.675198,,,,,,,,,,,FEW,1500,BKN,20000,,,,,VFR,,,,,,,,,,,,METAR,6.0
SKCC 242200Z 01005KT 9999 SCT022TCU SCT080 29/24 Q1009 RMK TCU/NE A2980,SKCC,2023-05-24T22:00:00Z,7.92,-72.52,29.0,24.0,10,5,,6.21,29.793306,,,,,,,,,,,SCT,2200,SCT,8000,,,,,VFR,,,,,,,,,,,,METAR,308.0
SKBQ 242200Z 04011KT 9999 TS FEW017CB BKN200 31/24 Q1006 NOSIG RMK CB/SE A2973,SKBQ,2023-05-24T22:00:00Z,10.87,-74.77,31.0,24.0,40,11,,6.21,29.704725,,,,,,TRUE,,,,TS,FEW,1700,BKN,20000,,,,,VFR,,,,,,,,,,,,METAR,23.0
SKBO 242200Z 13006KT 8000 -RA BKN017 15/11 Q1023 RETS NOSIG RMK A3023,SKBO,2023-05-24T22:00:00Z,4.7,-74.15,15.0,11.0,130,6,,4.97,30.206694,,,,,,TRUE,,,,-RA,BKN,1700,,,,,,,MVFR,,,,,,,,,,,,METAR,2547.0
SKBG 242200Z 31004KT 9999 SCT015TCU SCT070 23/20 Q1012 RMK TCU NE/E A2990,SKBG,2023-05-24T22:00:00Z,7.13,-73.18,23.0,20.0,310,4,,6.21,29.88189,,,,,,,,,,,SCT,1500,SCT,7000,,,,,VFR,,,,,,,,,,,,METAR,1187.0
SKAR 242200Z 19003KT 9999 FEW020CB SCT023 28/18 Q1012 RMK CB/NE/S A2989,SKAR,2023-05-24T22:00:00Z,4.45,-75.77,28.0,18.0,190,3,,6.21,29.88189,,,,,,,,,,,FEW,2000,SCT,2300,,,,,VFR,,,,,,,,,,,,METAR,1214.0
SGES 242200Z 06003KT CAVOK 23/17 Q1014,SGES,2023-05-24T22:00:00Z,-25.45,-54.85,23.0,17.0,60,3,,6.21,29.940945,,,,,,,,,,,CAVOK,,,,,,,,VFR,,,,,,,,,,,,METAR,256.0
SGAS 242200Z 08005KT 030V100 CAVOK 24/19 Q1011,SGAS,2023-05-24T22:00:00Z,-25.25,-57.52,24.0,19.0,80,5,,6.21,29.852362,,,,,,,,,,,CAVOK,,,,,,,,VFR,,,,,,,,,,,,METAR,83.0
SETN 242200Z 26008KT 9999 SCT026 BKN300 29/25 Q1007 RMK A2974,SETN,2023-05-24T22:00:00Z,0.98,-79.63,29.0,25.0,260,8,,6.21,29.734253,,,,,,,,,,,SCT,2600,BKN,30000,,,,,VFR,,,,,,,,,,,,METAR,10.0
SEST 242200Z 15008KT 9999 FEW023 SCT200 28/24 Q1007 RMK A2975,SEST,2023-05-24T22:00:00Z,-0.9,-89.62,28.0,24.0,150,8,,6.21,29.734253,,,,,,,,,,,FEW,2300,SCT,20000,,,,,VFR,,,,,,,,,,,,METAR,13.0
SESM 242200Z 05003KT 5000 -RA SCT023 BKN100 23/21 Q1013 RMK A2991,SESM,2023-05-24T22:00:00Z,-1.5,-78.07,23.0,21.0,50,3,,3.11,29.911417,,,,,,,,,,-RA,SCT,2300,BKN,10000,,,,,MVFR,,,,,,,,,,,,METAR,1056.0
SESA 242200Z 24007KT 9999 FEW009 SCT020 BKN100 27/25 Q1008 RMK A2978,SESA,2023-05-24T22:00:00Z,-2.2,-80.98,27.0,25.0,240,7,,6.21,29.763779,,,,,,,,,,,FEW,900,SCT,2000,BKN,10000,,,VFR,,,,,,,,,,,,METAR,6.0
SERO 242200Z 29010KT 9999 FEW016 SCT080 29/25 Q1007,SERO,2023-05-24T22:00:00Z,-3.43,-79.98,29.0,25.0,290,10,,6.21,29.734253,,,,,,,,,,,FEW,1600,SCT,8000,,,,,VFR,,,,,,,,,,,,METAR,6.0
SENL 242200Z 130/3KT 9999 FEW016 BKN300 29/24 Q1009 RMK A2981,SENL,2023-05-24T22:00:00Z,0.1,-76.87,29.0,24.0,,,,6.21,29.793306,,,,,,,,,,,FEW,1600,BKN,30000,,,,,VFR,,,,,,,,,,,,METAR,293.0
SEMT 242200Z 18004KT 9999 OVC023 27/23 Q1008 RMK A2977,SEMT,2023-05-24T22:00:00Z,-0.95,-80.67,27.0,23.0,180,4,,6.21,29.763779,,,,,,,,,,,OVC,2300,,,,,,,MVFR,,,,,,,,,,,,SPECI,13.0
SEMC 242200Z 20005KT 9999 SCT026 SCT100 24/20 Q1013 RMK A2993,SEMC,2023-05-24T22:00:00Z,-2.3,-78.12,24.0,20.0,200,5,,6.21,29.911417,,,,,,,,,,,SCT,2600,SCT,10000,,,,,VFR,,,,,,,,,,,,METAR,1036.0
SELT 242200Z 17008KT 9999 SCT030 SCT300 17/09 Q1026,SELT,2023-05-24T22:00:00Z,-0.92,-78.62,17.0,9.0,170,8,,6.21,30.295275,,,,,,,,,,,SCT,3000,SCT,30000,,,,,VFR,,,,,,,,,,,,METAR,2779.0
SEJD 242200Z 09004KT 9999 FEW023 SCT200 29/24 Q1009 RMK A2979,SEJD,2023-05-24T22:00:00Z,-1.07,-77.58,29.0,24.0,90,4,,6.21,29.793306,,,,,,,,,,,FEW,2300,SCT,20000,,,,,VFR,,,,,,,,,,,,METAR,376.0
SEGZ 242200Z 19004KT 9999 FEW020 28/24 Q1012,SEGZ,2023-05-24T22:00:00Z,-3.42,-78.57,28.0,24.0,190,4,,6.21,29.88189,,,,,,,,,,,FEW,2000,,,,,,,VFR,,,,,,,,,,,,METAR,805.0
SEGU 242200Z 20003KT 150V210 9999 -RA SCT020 SCT030 BKN100 27/25 Q1007 NOSIG RMK A2973,SEGU,2023-05-24T22:00:00Z,-2.15,-79.88,27.0,25.0,200,3,,6.21,29.734253,,,,,,TRUE,,,,-RA,SCT,2000,SCT,3000,BKN,10000,,,VFR,,,,,,,,,,,,SPECI,6.0
SEGS 242200Z 08007KT 040V130 9999 FEW030 31/21 Q1009 RMK A2981,SEGS,2023-05-24T22:00:00Z,-0.45,-90.27,31.0,21.0,80,7,,6.21,29.793306,,,,,,,,,,,FEW,3000,,,,,,,VFR,,,,,,,,,,,,METAR,51.0
SECU 242200Z 14005KT 9999 OVC040 18/11 Q1023,SECU,2023-05-24T22:00:00Z,-2.88,-78.98,18.0,11.0,140,5,,6.21,30.206694,,,,,,,,,,,OVC,4000,,,,,,,VFR,,,,,,,,,,,,METAR,2516.0
SECO 242200Z 17004KT 9999 SCT030 SCT100 28/24 Q1008 RMK A2979,SECO,2023-05-24T22:00:00Z,-0.45,-76.98,28.0,24.0,170,4,,6.21,29.763779,,,,,,,,,,,SCT,3000,SCT,10000,,,,,VFR,,,,,,,,,,,,METAR,256.0
SECA 242200Z 31008KT 280V340 9999 SCT040 SCT200 26/17 Q1013 RMK A2993,SECA,2023-05-24T22:00:00Z,-4.0,-79.37,26.0,17.0,310,8,,6.21,29.911417,,,,,,,,,,,SCT,4000,SCT,20000,,,,,VFR,,,,,,,,,,,,METAR,1237.0
SCVM 242200Z 23005KT 9999 SCT025 BKN130 15/10 Q1016,SCVM,2023-05-24T22:00:00Z,-32.95,-71.48,15.0,10.0,230,5,,6.21,30.0,,,,,,,,,,,SCT,2500,BKN,13000,,,,,VFR,,,,,,,,,,,,METAR,136.0
SCVD 242200Z 33007KT 9999 SCT023 BKN040 BKN098 10/08 Q1013,SCVD,2023-05-24T22:00:00Z,-39.65,-73.08,10.0,8.0,330,7,,6.21,29.911417,,,,,,,,,,,SCT,2300,BKN,4000,BKN,9800,,,VFR,,,,,,,,,,,,METAR,19.0
SCTE 242200Z 01009KT 9999 FEW040 SCT055 08/08 Q1009 NOSIG,SCTE,2023-05-24T22:00:00Z,-41.43,-73.08,8.0,8.0,10,9,,6.21,29.793306,,,,,,TRUE,,,,,FEW,4000,SCT,5500,,,,,VFR,,,,,,,,,,,,METAR,85.0
SCTB 242200Z 00000KT 8000 OVC130 12/08 Q1018,SCTB,2023-05-24T22:00:00Z,-33.45,-70.53,12.0,8.0,0,0,,4.97,30.059055,,,,,,,,,,,OVC,13000,,,,,,,MVFR,,,,,,,,,,,,METAR,655.0
SCSN 242200Z 23005KT CAVOK 14/13 Q1017,SCSN,2023-05-24T22:00:00Z,-33.65,-71.62,14.0,13.0,230,5,,6.21,30.029528,,,,,,,,,,,CAVOK,,,,,,,,VFR,,,,,,,,,,,,METAR,73.0
SCSE 242200Z 31008KT 9999 FEW012 16/13 Q1014,SCSE,2023-05-24T22:00:00Z,-29.92,-71.2,16.0,13.0,310,8,,6.21,29.940945,,,,,,,,,,,FEW,1200,,,,,,,VFR,,,,,,,,,,,,METAR,141.0
SCRM 242200Z 03017KT 9999 FEW010 M02/M04 Q0995 NOSIG,SCRM,2023-05-24T22:00:00Z,-62.18,-58.98,-2.0,-4.0,30,17,,6.21,29.379921,,,,,,TRUE,,,,,FEW,1000,,,,,,,VFR,,,,,,,,,,,,METAR,45.0
SCRG 242200Z 14002KT 8000 OVC070 12/11 Q1017,SCRG,2023-05-24T22:00:00Z,-34.17,-70.77,12.0,11.0,140,2,,4.97,30.029528,,,,,,,,,,,OVC,7000,,,,,,,MVFR,,,,,,,,,,,,METAR,488.0
SCRD 242200Z 17004KT CAVOK 14/12 Q1016,SCRD,2023-05-24T22:00:00Z,-33.07,-71.55,14.0,12.0,170,4,,6.21,30.0,,,,,,,,,,,CAVOK,,,,,,,,VFR,,,,,,,,,,,,METAR,342.0
SCQP 242200Z 35008KT 9999 FEW035 BKN047 10/09 Q1014 RESHRA,SCQP,2023-05-24T22:00:00Z,-38.92,-72.65,10.0,9.0,350,8,,6.21,29.940945,,,,,,,,,,,FEW,3500,BKN,4700,,,,,VFR,,,,,,,,,,,,METAR,97.0
SCPQ 242200Z AUTO 34012KT 9000 -SHRA FEW024 BKN028 07/04 Q1005,SCPQ,2023-05-24T22:00:00Z,-42.33,-73.72,7.0,4.0,340,12,,5.59,29.675198,,,TRUE,,,,,,,-SHRA,FEW,2400,BKN,2800,,,,,MVFR,,,,,,,,,,,,METAR,166.0
SCPD 242200Z 14004KT 6000 BKN080 13/09 Q1017,SCPD,2023-05-24T22:00:00Z,,,13.0,9.0,140,4,,3.73,30.029528,,,,,,,,,,,BKN,8000,,,,,,,MVFR,,,,,,,,,,,,METAR,
SCON 242200Z AUTO 32003KT 270V010 CAVOK 07/05 Q1005 RESHRA,SCON,2023-05-24T22:00:00Z,-43.13,-73.62,7.0,5.0,320,3,,6.21,29.675198,,,TRUE,,,,,,,,CAVOK,,,,,,,,VFR,,,,,,,,,,,,METAR,11.0
SCMK 242200Z 30010KT 9999 BKN023 08/06 1Q002,SCMK,2023-05-24T22:00:00Z,-43.9,-73.73,8.0,6.0,300,10,,6.21,,,,,,,,,,,,BKN,2300,,,,,,,MVFR,,,,,,,,,,,,METAR,22.0
SCJO 242200Z 02007KT 9999 BKN025 09/07 Q1011,SCJO,2023-05-24T22:00:00Z,-40.6,-73.05,9.0,7.0,20,7,,6.21,29.852362,,,,,,,,,,,BKN,2500,,,,,,,MVFR,,,,,,,,,,,,METAR,61.0
SCIP 242200Z 27002KT 9999 SCT025 BKN040 22/16 Q1021 NOSIG,SCIP,2023-05-24T22:00:00Z,-27.17,-109.43,22.0,16.0,270,2,,6.21,30.147638,,,,,,TRUE,,,,,SCT,2500,BKN,4000,,,,,VFR,,,,,,,,,,,,METAR,48.0
SCIE 242200Z 01004KT 9999 SCT015 13/12 Q1016,SCIE,2023-05-24T22:00:00Z,-36.77,-73.07,13.0,12.0,10,4,,6.21,30.0,,,,,,,,,,,SCT,1500,,,,,,,VFR,,,,,,,,,,,,METAR,8.0
SCIC 242200Z 16002KT 6000 NSC 14/09 Q1017,SCIC,2023-05-24T22:00:00Z,-34.97,-71.22,14.0,9.0,160,2,,3.73,30.029528,,,,,,,,,,,CLR,,,,,,,,MVFR,,,,,,,,,,,,METAR,230.0
SCHR 242200Z AUTO 33005KT 280V360 9999 FEW044 03/M02 Q0991,SCHR,2023-05-24T22:00:00Z,-47.23,-72.58,3.0,-2.0,330,5,,6.21,29.26181,,,TRUE,,,,,,,,FEW,4400,,,,,,,VFR,,,,,,,,,,,,METAR,203.0
SCGE 242200Z 31003KT 9999 FEW027 11/08 Q1017,SCGE,2023-05-24T22:00:00Z,-37.4,-72.42,11.0,8.0,310,3,,6.21,30.029528,,,,,,,,,,,FEW,2700,,,,,,,VFR,,,,,,,,,,,,METAR,122.0
SCFT 242200Z AUTO 34003KT 290V090 9999 -RA SCT006/// OVC017/// 03/02 Q1004 RERA,SCFT,2023-05-24T22:00:00Z,-43.18,-71.85,3.0,2.0,340,3,,6.21,29.64567,,,TRUE,,,,,,,-RA,SCT,600,OVC,1700,,,,,MVFR,,,,,,,,,,,,METAR,345.0
SCFA 242200Z 20008KT 9999 BKN019 17/13 Q1013 NOSIG,SCFA,2023-05-24T22:00:00Z,-23.43,-70.43,17.0,13.0,200,8,,6.21,29.911417,,,,,,TRUE,,,,,BKN,1900,,,,,,,MVFR,,,,,,,,,,,,METAR,113.0
SCEL 242200Z 19004KT 9999 BKN170 13/09 Q1017 NOSIG,SCEL,2023-05-24T22:00:00Z,-33.38,-70.78,13.0,9.0,190,4,,6.21,30.029528,,,,,,TRUE,,,,,BKN,17000,,,,,,,VFR,,,,,,,,,,,,METAR,478.0
SCDA 242200Z 22007KT 9999 FEW031 SCT250 19/13 Q1013,SCDA,2023-05-24T22:00:00Z,-20.53,-70.17,19.0,13.0,220,7,,6.21,29.911417,,,,,,,,,,,FEW,3100,SCT,25000,,,,,VFR,,,,,,,,,,,,METAR,41.0
SCCY 242200Z 06008KT 4000 -RASN SCT005 OVC020 01/00 Q0997,SCCY,2023-05-24T22:00:00Z,-45.58,-72.1,1.0,0.0,60,8,,2.49,29.438976,,,,,,,,,,-RA -SN,SCT,500,OVC,2000,,,,,IFR,,,,,,,,,,,,METAR,301.0
SCCI 242200Z 32015KT 9999 -RA FEW030 BKN067 BKN200 03/M00 Q0976 NOSIG,SCCI,2023-05-24T22:00:00Z,-53.0,-70.85,3.0,0.0,320,15,,6.21,28.818897,,,,,,TRUE,,,,-RA,FEW,3000,BKN,6700,BKN,20000,,,VFR,,,,,,,,,,,,METAR,37.0
SCCH 242200Z 36006KT 3000 RA BKN020 OVC040 12/11 Q1017,SCCH,2023-05-24T22:00:00Z,-36.57,-72.02,12.0,11.0,360,6,,1.86,30.029528,,,,,,,,,,RA,BKN,2000,OVC,4000,,,,,IFR,,,,,,,,,,,,METAR,148.0
SCCF 242200Z 27015KT CAVOK 18/M06 Q1024,SCCF,2023-05-24T22:00:00Z,-22.5,-68.9,18.0,-6.0,270,15,,6.21,30.236221,,,,,,,,,,,CAVOK,,,,,,,,VFR,,,,,,,,,,,,METAR,2290.0
SCBA 242200Z 28013KT 9999 SCT015 OVC120 01/M01 Q0995,SCBA,2023-05-24T22:00:00Z,-45.92,-71.68,1.0,-1.0,280,13,,6.21,29.379921,,,,,,,,,,,SCT,1500,OVC,12000,,,,,VFR,,,,,,,,,,,,METAR,516.0
SCAT 242200Z 24011KT CAVOK 15/13 Q1013,SCAT,2023-05-24T22:00:00Z,-27.27,-70.77,15.0,13.0,240,11,,6.21,29.911417,,,,,,,,,,,CAVOK,,,,,,,,VFR,,,,,,,,,,,,METAR,209.0
SCAR 242200Z 20008KT 9999 OVC033 19/14 Q1012,SCAR,2023-05-24T22:00:00Z,-18.35,-70.33,19.0,14.0,200,8,,6.21,29.88189,,,,,,,,,,,OVC,3300,,,,,,,VFR,,,,,,,,,,,,METAR,57.0
SCAP 242200Z AUTO VRB02KT 9999 -RA ////// 04/02 Q1005 RERA,SCAP,2023-05-24T22:00:00Z,-43.62,-71.8,4.0,2.0,0,2,,6.21,29.675198,,,TRUE,,,,,,,-RA,,,,,,,,,,,,,,,,,,,,,METAR,252.0
SBYS 242200Z 11003KT CAVOK 18/14 Q1019,SBYS,2023-05-24T22:00:00Z,-21.97,-47.33,18.0,14.0,110,3,,6.21,30.088583,,,,,,,,,,,CAVOK,,,,,,,,VFR,,,,,,,,,,,,METAR,600.0
SBVT 242200Z 33004KT 9999 SCT030 21/19 Q1020,SBVT,2023-05-24T22:00:00Z,-20.25,-40.28,21.0,19.0,330,4,,6.21,30.11811,,,,,,,,,,,SCT,3000,,,,,,,VFR,,,,,,,,,,,,METAR,4.0
SBVH 242200Z 08004KT CAVOK 25/21 Q1012,SBVH,2023-05-24T22:00:00Z,-12.68,-60.08,25.0,21.0,80,4,,6.21,29.88189,,,,,,,,,,,CAVOK,,,,,,,,VFR,,,,,,,,,,,,METAR,615.0
SBUY 242200Z 00000KT 9999 SCT020 26/24 Q1007,SBUY,2023-05-24T22:00:00Z,-4.88,-65.35,26.0,24.0,0,0,,6.21,29.734253,,,,,,,,,,,SCT,2000,,,,,,,VFR,,,,,,,,,,,,METAR,44.0
SBUR 242200Z 08005KT CAVOK 23/12 Q1019,SBUR,2023-05-24T22:00:00Z,-19.77,-47.97,23.0,12.0,80,5,,6.21,30.088583,,,,,,,,,,,CAVOK,,,,,,,,VFR,,,,,,,,,,,,METAR,807.0
SBUL 242200Z 05004KT CAVOK 21/13 Q1020,SBUL,2023-05-24T22:00:00Z,-18.87,-48.22,21.0,13.0,50,4,,6.21,30.11811,,,,,,,,,,,CAVOK,,,,,,,,VFR,,,,,,,,,,,,METAR,945.0
SBTU 242200Z AUTO VRB01KT CAVOK ///// Q1011,SBTU,2023-05-24T22:00:00Z,-3.78,-49.72,,,0,1,,6.21,29.852362,,,TRUE,,,,,,,,CAVOK,,,,,,,,VFR,,,,,,,,,,,,SPECI,250.0
SBTT 242200Z 20002KT 9999 FEW010 OVC100 23/21 Q1009,SBTT,2023-05-24T22:00:00Z,-4.25,-69.93,23.0,21.0,200,2,,6.21,29.793306,,,,,,,,,,,FEW,1000,OVC,10000,,,,,VFR,,,,,,,,,,,,METAR,79.0
SBTF 242200Z 18004KT 9999 FEW021 27/25 Q1008,SBTF,2023-05-24T22:00:00Z,-3.37,-64.72,27.0,25.0,180,4,,6.21,29.763779,,,,,,,,,,,FEW,2100,,,,,,,VFR,,,,,,,,,,,,METAR,55.0
SBTE 242200Z 19004KT 9999 FEW030 SCT090 29/23 Q1009,SBTE,2023-05-24T22:00:00Z,-5.05,-42.82,29.0,23.0,190,4,,6.21,29.793306,,,,,,,,,,,FEW,3000,SCT,9000,,,,,VFR,,,,,,,,,,,,METAR,60.0
SBTA 242200Z 12003KT 050V150 CAVOK 20/16 Q1020,SBTA,2023-05-24T22:00:00Z,-23.03,-45.5,20.0,16.0,120,3,,6.21,30.11811,,,,,,,,,,,CAVOK,,,,,,,,VFR,,,,,,,,,,,,METAR,578.0
SBSV 242200Z 15010KT 9999 SCT023 28/23 Q1015,SBSV,2023-05-24T22:00:00Z,-12.9,-38.32,28.0,23.0,150,10,,6.21,29.970472,,,,,,,,,,,SCT,2300,,,,,,,VFR,,,,,,,,,,,,METAR,9.0
SBSR 242200Z 12003KT CAVOK 24/12 Q1017,SBSR,2023-05-24T22:00:00Z,-20.8,-49.4,24.0,12.0,120,3,,6.21,30.029528,,,,,,,,,,,CAVOK,,,,,,,,VFR,,,,,,,,,,,,METAR,537.0
SBSP 242200Z 16008KT 8000 FEW007 18/17 Q1023,SBSP,2023-05-24T22:00:00Z,-23.62,-46.65,18.0,17.0,160,8,,4.97,30.206694,,,,,,,,,,,FEW,700,,,,,,,MVFR,,,,,,,,,,,,METAR,802.0
SBSN 242200Z 10003KT 9999 FEW016 28/27 Q1007,SBSN,2023-05-24T22:00:00Z,-2.42,-54.78,28.0,27.0,100,3,,6.21,29.734253,,,,,,,,,,,FEW,1600,,,,,,,VFR,,,,,,,,,,,,METAR,57.0
SBSM 242200Z 10004KT CAVOK 22/19 Q1015,SBSM,2023-05-24T22:00:00Z,-29.72,-53.7,22.0,19.0,100,4,,6.21,29.970472,,,,,,,,,,,CAVOK,,,,,,,,VFR,,,,,,,,,,,,METAR,86.0
SBSL 242200Z 08002KT 9999 SCT017 26/25 Q1010,SBSL,2023-05-24T22:00:00Z,-2.58,-44.23,26.0,25.0,80,2,,6.21,29.822834,,,,,,,,,,,SCT,1700,,,,,,,VFR,,,,,,,,,,,,METAR,53.0
SBSJ 242200Z 13010KT CAVOK 20/17 Q1021,SBSJ,2023-05-24T22:00:00Z,-23.22,-45.87,20.0,17.0,130,10,,6.21,30.147638,,,,,,,,,,,CAVOK,,,,,,,,VFR,,,,,,,,,,,,METAR,640.0
SBSG 242200Z 13004KT 9999 FEW035 25/23 Q1012,SBSG,2023-05-24T22:00:00Z,-5.77,-35.37,25.0,23.0,130,4,,6.21,29.88189,,,,,,,,,,,FEW,3500,,,,,,,VFR,,,,,,,,,,,,METAR,83.0
SBSC 242200Z 08003KT CAVOK 24/20 Q1019,SBSC,2023-05-24T22:00:00Z,-22.92,-43.72,24.0,20.0,80,3,,6.21,30.088583,,,,,,,,,,,CAVOK,,,,,,,,VFR,,,,,,,,,,,,METAR,6.0
SBRP 242200Z 10006KT CAVOK 23/13 Q1018,SBRP,2023-05-24T22:00:00Z,-21.13,-47.77,23.0,13.0,100,6,,6.21,30.059055,,,,,,,,,,,CAVOK,,,,,,,,VFR,,,,,,,,,,,,METAR,550.0
SBRJ 242200Z 09009KT CAVOK 24/18 Q1019,SBRJ,2023-05-24T22:00:00Z,-22.9,-43.17,24.0,18.0,90,9,,6.21,30.088583,,,,,,,,,,,CAVOK,,,,,,,,VFR,,,,,,,,,,,,METAR,6.0
SBRF 242200Z 21004KT 9999 SCT022 25/23 Q1012,SBRF,2023-05-24T22:00:00Z,-8.13,-34.92,25.0,23.0,210,4,,6.21,29.88189,,,,,,,,,,,SCT,2200,,,,,,,VFR,,,,,,,,,,,,METAR,10.0
SBRB 242200Z 28005KT 9999 SCT010 SCT020 25/23 Q1010,SBRB,2023-05-24T22:00:00Z,-9.87,-67.88,25.0,23.0,280,5,,6.21,29.822834,,,,,,,,,,,SCT,1000,SCT,2000,,,,,VFR,,,,,,,,,,,,METAR,190.0
SBPV 242200Z 00000KT 9999 FEW040 26/24 Q1008,SBPV,2023-05-24T22:00:00Z,-8.72,-63.9,26.0,24.0,0,0,,6.21,29.763779,,,,,,,,,,,FEW,4000,,,,,,,VFR,,,,,,,,,,,,METAR,89.0
SBPS 242200Z VRB04KT 9999 SCT015 25/22 Q1017,SBPS,2023-05-24T22:00:00Z,-16.43,-39.07,25.0,22.0,0,4,,6.21,30.029528,,,,,,,,,,,SCT,1500,,,,,,,VFR,,,,,,,,,,,,METAR,44.0
SBPL 242200Z 18008KT 9000 -RA BKN020 SCT025 FEW030TCU 23/22 Q1015,SBPL,2023-05-24T22:00:00Z,-9.37,-40.57,23.0,22.0,180,8,,5.59,29.970472,,,,,,,,,,-RA,BKN,2000,SCT,2500,FEW,3000,,,MVFR,,,,,,,,,,,,METAR,386.0
SBPK 242200Z 06066KT CAVOK 20/19 Q1015,SBPK,2023-05-24T22:00:00Z,-31.72,-52.33,20.0,19.0,60,66,,6.21,29.970472,,,,,,,,,,,CAVOK,,,,,,,,VFR,,,,,,,,,,,,METAR,17.0
SBPJ 242200Z 11004KT CAVOK 28/21 Q1012,SBPJ,2023-05-24T22:00:00Z,-10.28,-48.37,28.0,21.0,110,4,,6.21,29.88189,,,,,,,,,,,CAVOK,,,,,,,,VFR,,,,,,,,,,,,METAR,226.0
SBPA 242200Z 10007KT CAVOK 23/19 Q1015,SBPA,2023-05-24T22:00:00Z,-30.0,-51.17,23.0,19.0,100,7,,6.21,29.970472,,,,,,,,,,,CAVOK,,,,,,,,VFR,,,,,,,,,,,,METAR,3.0
SBOI 242200Z 14003KT 110V180 CAVOK 26/24 Q1010,SBOI,2023-05-24T22:00:00Z,3.85,-51.78,26.0,24.0,140,3,,6.21,29.822834,,,,,,,,,,,CAVOK,,,,,,,,VFR,,,,,,,,,,,,METAR,15.0
SBNT 242200Z 15004KT 9999 FEW021 26/23 Q1012,SBNT,2023-05-24T22:00:00Z,-5.92,-35.25,26.0,23.0,150,4,,6.21,29.88189,,,,,,,,,,,FEW,2100,,,,,,,VFR,,,,,,,,,,,,METAR,51.0
SBNF 242200Z 08005KT 9999 SCT012 22/20 Q1020,SBNF,2023-05-24T22:00:00Z,-26.88,-48.65,22.0,20.0,80,5,,6.21,30.11811,,,,,,,,,,,SCT,1200,,,,,,,VFR,,,,,,,,,,,,METAR,5.0
SBMT 242200Z 14005KT 100V170 CAVOK 19/18 Q1021,SBMT,2023-05-24T22:00:00Z,-23.52,-46.63,19.0,18.0,140,5,,6.21,30.147638,,,,,,,,,,,CAVOK,,,,,,,,VFR,,,,,,,,,,,,METAR,722.0
SBMQ 242200Z 08006KT 9999 FEW027 FEW043TCU 28/26 Q1009,SBMQ,2023-05-24T22:00:00Z,0.05,-51.07,28.0,26.0,80,6,,6.21,29.793306,,,,,,,,,,,FEW,2700,FEW,4300,,,,,VFR,,,,,,,,,,,,METAR,15.0
SBMO 242200Z 02001KT 3000 -RA BR BKN009 BKN015 OVC070 23/23 Q1014,SBMO,2023-05-24T22:00:00Z,-9.52,-35.78,23.0,23.0,20,1,,1.86,29.940945,,,,,,,,,,-RA BR,BKN,900,BKN,1500,OVC,7000,,,IFR,,,,,,,,,,,,METAR,116.0
SBMN 242200Z 27002KT 9999 FEW020 BKN100 27/25 Q1007,SBMN,2023-05-24T22:00:00Z,-3.13,-59.98,27.0,25.0,270,2,,6.21,29.734253,,,,,,,,,,,FEW,2000,BKN,10000,,,,,VFR,,,,,,,,,,,,METAR,71.0
SBMK 242200Z 07005KT CAVOK 22/13 Q1019,SBMK,2023-05-24T22:00:00Z,-16.7,-43.82,22.0,13.0,70,5,,6.21,30.088583,,,,,,,,,,,CAVOK,,,,,,,,VFR,,,,,,,,,,,,METAR,665.0
SBMG 242200Z 09005KT CAVOK 21/13 Q1017,SBMG,2023-05-24T22:00:00Z,-23.48,-52.02,21.0,13.0,90,5,,6.21,30.029528,,,,,,,,,,,CAVOK,,,,,,,,VFR,,,,,,,,,,,,METAR,543.0
SBME 242200Z 08005KT CAVOK 24/22 Q1020,SBME,2023-05-24T22:00:00Z,-22.35,-41.77,24.0,22.0,80,5,,6.21,30.11811,,,,,,,,,,,CAVOK,,,,,,,,VFR,,,,,,,,,,,,METAR,2.0
SBMA 242200Z 10002KT 9999 FEW025 29/25 Q1010,SBMA,2023-05-24T22:00:00Z,-5.37,-49.13,29.0,25.0,100,2,,6.21,29.822834,,,,,,,,,,,FEW,2500,,,,,,,VFR,,,,,,,,,,,,METAR,110.0
SBLS 242200Z 13008KT 9999 FEW033 BKN070 20/15 Q1022,SBLS,2023-05-24T22:00:00Z,-19.67,-43.88,20.0,15.0,130,8,,6.21,30.177166,,,,,,,,,,,FEW,3300,BKN,7000,,,,,VFR,,,,,,,,,,,,METAR,850.0
SBLO 242200Z 09004KT CAVOK 23/14 Q1018,SBLO,2023-05-24T22:00:00Z,-23.33,-51.12,23.0,14.0,90,4,,6.21,30.059055,,,,,,,,,,,CAVOK,,,,,,,,VFR,,,,,,,,,,,,METAR,563.0
SBLE 242200Z AUTO 08003KT 050V130 CAVOK 23/19 Q1017,SBLE,2023-05-24T22:00:00Z,-12.48,-41.28,23.0,19.0,80,3,,6.21,30.029528,,,TRUE,,,,,,,,CAVOK,,,,,,,,VFR,,,,,,,,,,,,METAR,495.0
SBLB 242200Z AUTO 11015KT 9999 FEW026 24/19 Q1021 W///S4,SBLB,2023-05-24T22:00:00Z,-22.1,-39.92,24.0,19.0,110,15,,6.21,30.147638,,,TRUE,,,,,,,,FEW,2600,,,,,,,VFR,,,,,,,,,,,,SPECI,10.0
SBKP 242200Z 17005KT CAVOK 23/13 Q1020,SBKP,2023-05-24T22:00:00Z,-23.0,-47.13,23.0,13.0,170,5,,6.21,30.11811,,,,,,,,,,,CAVOK,,,,,,,,VFR,,,,,,,,,,,,METAR,659.0
SBKG 242200Z 10005KT 9999 SCT022 SCT070 23/21 Q1015,SBKG,2023-05-24T22:00:00Z,-7.27,-35.88,23.0,21.0,100,5,,6.21,29.970472,,,,,,,,,,,SCT,2200,SCT,7000,,,,,VFR,,,,,,,,,,,,METAR,499.0
SBJV 242200Z 00000KT 9999 FEW015 SCT050 19/19 Q1020,SBJV,2023-05-24T22:00:00Z,-26.22,-48.8,19.0,19.0,0,0,,6.21,30.11811,,,,,,,,,,,FEW,1500,SCT,5000,,,,,VFR,,,,,,,,,,,,METAR,3.0
SBJU 242200Z 00000KT 9999 BKN022 27/21 Q1015,SBJU,2023-05-24T22:00:00Z,-7.22,-39.27,27.0,21.0,0,0,,6.21,29.970472,,,,,,,,,,,BKN,2200,,,,,,,MVFR,,,,,,,,,,,,METAR,407.0
SBJR 242200Z 31001KT CAVOK ///// Q1019,SBJR,2023-05-24T22:00:00Z,-22.98,-43.37,,,310,1,,6.21,30.088583,,,,,,,,,,,CAVOK,,,,,,,,VFR,,,,,,,,,,,,SPECI,5.0
SBJP 242200Z 16004KT 120V190 9999 FEW020 26/25 Q1012,SBJP,2023-05-24T22:00:00Z,-7.15,-34.95,26.0,25.0,160,4,,6.21,29.88189,,,,,,,,,,,FEW,2000,,,,,,,VFR,,,,,,,,,,,,METAR,66.0
SBIL 242200Z 25004KT CAVOK 25/22 Q1016,SBIL,2023-05-24T22:00:00Z,-14.8,-39.02,25.0,22.0,250,4,,6.21,30.0,,,,,,,,,,,CAVOK,,,,,,,,VFR,,,,,,,,,,,,METAR,9.0
SBGW 242200Z 36003KT 9999 BKN030 18/16 Q1021,SBGW,2023-05-24T22:00:00Z,-22.78,-45.2,18.0,16.0,360,3,,6.21,30.147638,,,,,,,,,,,BKN,3000,,,,,,,MVFR,,,,,,,,,,,,METAR,539.0
SBGR 242200Z 15003KT CAVOK 20/17 Q1022,SBGR,2023-05-24T22:00:00Z,-23.42,-46.47,20.0,17.0,150,3,,6.21,30.177166,,,,,,,,,,,CAVOK,,,,,,,,VFR,,,,,,,,,,,,METAR,745.0
SBGO 242200Z 08007KT CAVOK 25/14 Q1017,SBGO,2023-05-24T22:00:00Z,-16.62,-49.22,25.0,14.0,80,7,,6.21,30.029528,,,,,,,,,,,CAVOK,,,,,,,,VFR,,,,,,,,,,,,METAR,740.0
SBGL 242200Z 10012KT 9999 FEW040 24/17 Q1019,SBGL,2023-05-24T22:00:00Z,-22.82,-43.25,24.0,17.0,100,12,,6.21,30.088583,,,,,,,,,,,FEW,4000,,,,,,,VFR,,,,,,,,,,,,METAR,3.0
SBFZ 242200Z 11007KT CAVOK 27/24 Q1011,SBFZ,2023-05-24T22:00:00Z,-3.77,-38.52,27.0,24.0,110,7,,6.21,29.852362,,,,,,,,,,,CAVOK,,,,,,,,VFR,,,,,,,,,,,,METAR,32.0
SBFN 242200Z AUTO 11008KT 080V140 9999 FEW010 BKN039 26/24 Q1012,SBFN,2023-05-24T22:00:00Z,-3.85,-32.42,26.0,24.0,110,8,,6.21,29.88189,,,TRUE,,,,,,,,FEW,1000,BKN,3900,,,,,VFR,,,,,,,,,,,,METAR,52.0
SBFL 242200Z 33003KT CAVOK 21/19 Q1019,SBFL,2023-05-24T22:00:00Z,-27.67,-48.53,21.0,19.0,330,3,,6.21,30.088583,,,,,,,,,,,CAVOK,,,,,,,,VFR,,,,,,,,,,,,METAR,5.0
SBFI 242200Z 05004KT CAVOK 23/18 Q1015,SBFI,2023-05-24T22:00:00Z,-25.6,-54.48,23.0,18.0,50,4,,6.21,29.970472,,,,,,,,,,,CAVOK,,,,,,,,VFR,,,,,,,,,,,,METAR,233.0
SBES 242200Z 05003KT 010V070 CAVOK 20/18 Q1021,SBES,2023-05-24T22:00:00Z,-22.82,-42.1,20.0,18.0,50,3,,6.21,30.147638,,,,,,,,,,,CAVOK,,,,,,,,VFR,,,,,,,,,,,,METAR,16.0
SBEG 242200Z 00000KT 9999 FEW020 BKN100 26/26 Q1007,SBEG,2023-05-24T22:00:00Z,-3.03,-60.03,26.0,26.0,0,0,,6.21,29.734253,,,,,,,,,,,FEW,2000,BKN,10000,,,,,VFR,,,,,,,,,,,,METAR,69.0
SBDN 242200Z 11006KT CAVOK 22/14 Q1017,SBDN,2023-05-24T22:00:00Z,-22.18,-51.43,22.0,14.0,110,6,,6.21,30.029528,,,,,,,,,,,CAVOK,,,,,,,,VFR,,,,,,,,,,,,METAR,438.0
SBCZ 242200Z 06004KT 9999 FEW015 SCT100 27/24 Q1010,SBCZ,2023-05-24T22:00:00Z,-7.58,-72.77,27.0,24.0,60,4,,6.21,29.822834,,,,,,,,,,,FEW,1500,SCT,10000,,,,,VFR,,,,,,,,,,,,METAR,193.0
SBCY 242200Z 32004KT CAVOK 28/18 Q1011,SBCY,2023-05-24T22:00:00Z,-15.65,-56.12,28.0,18.0,320,4,,6.21,29.852362,,,,,,,,,,,CAVOK,,,,,,,,VFR,,,,,,,,,,,,METAR,182.0
SBCT 242200Z 11006KT 9000 NSC 16/14 Q1022,SBCT,2023-05-24T22:00:00Z,-25.52,-49.17,16.0,14.0,110,6,,5.59,30.177166,,,,,,,,,,,CLR,,,,,,,,VFR,,,,,,,,,,,,METAR,914.0
SBCP 242200Z 12005KT CAVOK 20/19 Q1021,SBCP,2023-05-24T22:00:00Z,-21.7,-41.3,20.0,19.0,120,5,,6.21,30.147638,,,,,,,,,,,CAVOK,,,,,,,,VFR,,,,,,,,,,,,METAR,15.0
SBCO 242200Z 11005KT CAVOK 20/17 Q1016,SBCO,2023-05-24T22:00:00Z,-29.95,-51.15,20.0,17.0,110,5,,6.21,30.0,,,,,,,,,,,CAVOK,,,,,,,,VFR,,,,,,,,,,,,METAR,8.0
SBCH 242200Z 10006KT CAVOK 21/17 Q1018,SBCH,2023-05-24T22:00:00Z,-27.13,-52.67,21.0,17.0,100,6,,6.21,30.059055,,,,,,,,,,,CAVOK,,,,,,,,VFR,,,,,,,,,,,,METAR,639.0
SBCG 242200Z 35005KT CAVOK 24/13 Q1014,SBCG,2023-05-24T22:00:00Z,-20.47,-54.67,24.0,13.0,350,5,,6.21,29.940945,,,,,,,,,,,CAVOK,,,,,,,,VFR,,,,,,,,,,,,METAR,556.0
SBCF 242200Z 09012KT 9999 FEW040 SCT080 20/15 Q1021,SBCF,2023-05-24T22:00:00Z,-19.63,-43.97,20.0,15.0,90,12,,6.21,30.147638,,,,,,,,,,,FEW,4000,SCT,8000,,,,,VFR,,,,,,,,,,,,METAR,825.0
SBCC 242200Z 07006KT CAVOK 27/20 Q1011,SBCC,2023-05-24T22:00:00Z,-9.33,-54.95,27.0,20.0,70,6,,6.21,29.852362,,,,,,,,,,,CAVOK,,,,,,,,VFR,,,,,,,,,,,,METAR,540.0
SBCA 242200Z 05007KT CAVOK 21/13 Q1019,SBCA,2023-05-24T22:00:00Z,-25.0,-53.5,21.0,13.0,50,7,,6.21,30.088583,,,,,,,,,,,CAVOK,,,,,,,,VFR,,,,,,,,,,,,METAR,753.0
SBBV 242200Z 17008KT 9999 VCSH BKN035 FEW040TCU BKN090 26/24 Q1007,SBBV,2023-05-24T22:00:00Z,2.85,-60.7,26.0,24.0,170,8,,6.21,29.734253,,,,,,,,,,VCSH,BKN,3500,FEW,4000,BKN,9000,,,VFR,,,,,,,,,,,,METAR,80.0
SBBU 242200Z 14003KT CAVOK 23/14 Q1018,SBBU,2023-05-24T22:00:00Z,-22.33,-49.07,23.0,14.0,140,3,,6.21,30.059055,,,,,,,,,,,CAVOK,,,,,,,,VFR,,,,,,,,,,,,METAR,616.0
SBBR 242200Z 10006KT 9999 FEW045 SCT070 21/13 Q1020,SBBR,2023-05-24T22:00:00Z,-15.87,-47.92,21.0,13.0,100,6,,6.21,30.11811,,,,,,,,,,,FEW,4500,SCT,7000,,,,,VFR,,,,,,,,,,,,METAR,1051.0
SBBI 242200Z 08004KT CAVOK 16/14 Q1023,SBBI,2023-05-24T22:00:00Z,-25.4,-49.23,16.0,14.0,80,4,,6.21,30.206694,,,,,,,,,,,CAVOK,,,,,,,,VFR,,,,,,,,,,,,METAR,928.0
SBBH 242200Z 10008KT CAVOK 21/14 Q1021,SBBH,2023-05-24T22:00:00Z,-19.85,-43.95,21.0,14.0,100,8,,6.21,30.147638,,,,,,,,,,,CAVOK,,,,,,,,VFR,,,,,,,,,,,,METAR,799.0
SBBG 242200Z AUTO VRB03KT CAVOK 23/18 Q1015,SBBG,2023-05-24T22:00:00Z,-31.38,-54.12,23.0,18.0,0,3,,6.21,29.970472,,,TRUE,,,,,,,,CAVOK,,,,,,,,VFR,,,,,,,,,,,,METAR,182.0
SBBE 242200Z 08006KT 9999 SCT020 BKN100 25/24 Q1009,SBBE,2023-05-24T22:00:00Z,-1.37,-48.47,25.0,24.0,80,6,,6.21,29.793306,,,,,,,,,,,SCT,2000,BKN,10000,,,,,VFR,,,,,,,,,,,,METAR,16.0
SBAX 242200Z 13007KT 9999 SCT045 18/12 Q1020,SBAX,2023-05-24T22:00:00Z,-19.57,-46.97,18.0,12.0,130,7,,6.21,30.11811,,,,,,,,,,,SCT,4500,,,,,,,VFR,,,,,,,,,,,,METAR,989.0
SBAU 242200Z 09004KT CAVOK 23/12 Q1016,SBAU,2023-05-24T22:00:00Z,-21.13,-50.43,23.0,12.0,90,4,,6.21,30.0,,,,,,,,,,,CAVOK,,,,,,,,VFR,,,,,,,,,,,,METAR,415.0
SBAR 242200Z 18004KT 9999 SCT023 25/24 Q1013,SBAR,2023-05-24T22:00:00Z,-10.98,-37.07,25.0,24.0,180,4,,6.21,29.911417,,,,,,,,,,,SCT,2300,,,,,,,VFR,,,,,,,,,,,,METAR,4.0
SBAN 242200Z 12006KT CAVOK 20/14 Q1020,SBAN,2023-05-24T22:00:00Z,-16.22,-48.97,20.0,14.0,120,6,,6.21,30.11811,,,,,,,,,,,CAVOK,,,,,,,,VFR,,,,,,,,,,,,METAR,1131.0
SBAF 242200Z 15010KT CAVOK 25/18 Q1020,SBAF,2023-05-24T22:00:00Z,-22.87,-43.38,25.0,18.0,150,10,,6.21,30.11811,,,,,,,,,,,CAVOK,,,,,,,,VFR,,,,,,,,,,,,METAR,34.0
SAZS 242200Z 30016KT 5000 RA SCT009 BKN016 OVC025 03/01 Q1007 RMK PP///,SAZS,2023-05-24T22:00:00Z,-41.15,-71.17,3.0,1.0,300,16,,3.11,29.734253,,,,,,,,,,RA,SCT,900,BKN,1600,OVC,2500,,,MVFR,,,,,,,,,,,,METAR,843.0
SAZN 242200Z 25011KT CAVOK 15/00 Q1011,SAZN,2023-05-24T22:00:00Z,-38.95,-68.15,15.0,0.0,250,11,,6.21,29.852362,,,,,,,,,,,CAVOK,,,,,,,,VFR,,,,,,,,,,,,METAR,273.0
SAWH 242200Z 31004KT 9999 VCSH SCT015 OVC045 03/02 Q0974 RMK PP000,SAWH,2023-05-24T22:00:00Z,-54.85,-68.3,3.0,2.0,310,4,,6.21,28.759842,,,,,,,,,,VCSH,SCT,1500,OVC,4500,,,,,VFR,,,,,,,,,,,,METAR,22.0
SAWG 242200Z 28017KT 9999 FEW040 SCT200 04/M01 Q0981,SAWG,2023-05-24T22:00:00Z,-51.62,-69.27,4.0,-1.0,280,17,,6.21,28.966536,,,,,,,,,,,FEW,4000,SCT,20000,,,,,VFR,,,,,,,,,,,,METAR,15.0
SAWE 242200Z 31008KT CAVOK 03/02 Q0976 RMK PP000,SAWE,2023-05-24T22:00:00Z,-53.78,-67.75,3.0,2.0,310,8,,6.21,28.818897,,,,,,,,,,,CAVOK,,,,,,,,VFR,,,,,,,,,,,,SPECI,22.0
SAVC 242200Z 30024G34KT 8000 NSC 11/M05 Q0997 RMK PP000,SAVC,2023-05-24T22:00:00Z,-45.78,-67.47,11.0,-5.0,300,24,34,4.97,29.438976,,,,,,,,,,,CLR,,,,,,,,MVFR,,,,,,,,,,,,SPECI,58.0
SASJ 242200Z 06005KT 030V090 9999 FEW040 22/18 Q1009 RMK PP000,SASJ,2023-05-24T22:00:00Z,-24.38,-65.1,22.0,18.0,60,5,,6.21,29.793306,,,,,,,,,,,FEW,4000,,,,,,,VFR,,,,,,,,,,,,SPECI,913.0
SASA 242200Z 05010KT CAVOK 21/16 Q1011 RMK PP000,SASA,2023-05-24T22:00:00Z,-24.85,-65.48,21.0,16.0,50,10,,6.21,29.852362,,,,,,,,,,,CAVOK,,,,,,,,VFR,,,,,,,,,,,,SPECI,1235.0
SARP 242200Z 00000KT CAVOK 24/18 Q1013,SARP,2023-05-24T22:00:00Z,-27.38,-55.97,24.0,18.0,0,0,,6.21,29.911417,,,,,,,,,,,CAVOK,,,,,,,,VFR,,,,,,,,,,,,METAR,123.0
SARL 242200Z 09002KT CAVOK 24/19 Q1012,SARL,2023-05-24T22:00:00Z,-29.68,-57.15,24.0,19.0,90,2,,6.21,29.88189,,,,,,,,,,,CAVOK,,,,,,,,VFR,,,,,,,,,,,,METAR,70.0
SARI 242200Z 03004KT 010V070 CAVOK 22/19 Q1015 RMK PP000,SARI,2023-05-24T22:00:00Z,-25.73,-54.47,22.0,19.0,30,4,,6.21,29.970472,,,,,,,,,,,CAVOK,,,,,,,,VFR,,,,,,,,,,,,SPECI,268.0
SARF 242200Z 09004KT CAVOK 24/19 Q1010,SARF,2023-05-24T22:00:00Z,-26.22,-58.22,24.0,19.0,90,4,,6.21,29.822834,,,,,,,,,,,CAVOK,,,,,,,,VFR,,,,,,,,,,,,METAR,65.0
SARE 242200Z 05007KT CAVOK 24/17 Q1009 RMK PP///,SARE,2023-05-24T22:00:00Z,-27.43,-59.05,24.0,17.0,50,7,,6.21,29.793306,,,,,,,,,,,CAVOK,,,,,,,,VFR,,,,,,,,,,,,SPECI,52.0
SARC 242200Z 05006KT CAVOK 24/18 Q1010,SARC,2023-05-24T22:00:00Z,-27.43,-58.77,24.0,18.0,50,6,,6.21,29.822834,,,,,,,,,,,CAVOK,,,,,,,,VFR,,,,,,,,,,,,METAR,60.0
SAOC 242200Z 07009KT 5000 BR OVC012 18/18 Q1010,SAOC,2023-05-24T22:00:00Z,-33.08,-64.27,18.0,18.0,70,9,,3.11,29.822834,,,,,,,,,,BR,OVC,1200,,,,,,,MVFR,,,,,,,,,,,,METAR,422.0
SANT 242200Z 24005KT 9999 BKN030 23/19 Q1006 RMK PP000,SANT,2023-05-24T22:00:00Z,-26.85,-65.1,23.0,19.0,240,5,,6.21,29.704725,,,,,,,,,,,BKN,3000,,,,,,,MVFR,,,,,,,,,,,,SPECI,446.0
SAME 242200Z 00000KT CAVOK 17/12 Q1010,SAME,2023-05-24T22:00:00Z,-32.82,-68.78,17.0,12.0,0,0,,6.21,29.822834,,,,,,,,,,,CAVOK,,,,,,,,VFR,,,,,,,,,,,,METAR,709.0
SAEZ 242200Z 35005KT 9999 FEW020 OVC036 21/19 Q1010 NOSIG RMK PP000,SAEZ,2023-05-24T22:00:00Z,-34.82,-58.53,21.0,19.0,350,5,,6.21,29.822834,,,,,,TRUE,,,,,FEW,2000,OVC,3600,,,,,VFR,,,,,,,,,,,,SPECI,16.0
SADF 242200Z 36005KT 330V030 9999 SCT035 BKN044 21/18 Q1010 RMK PP000,SADF,2023-05-24T22:00:00Z,-34.45,-58.58,21.0,18.0,360,5,,6.21,29.822834,,,,,,,,,,,SCT,3500,BKN,4400,,,,,VFR,,,,,,,,,,,,METAR,4.0
SACO 242200Z 13007KT 9999 SCT013 SCT027 BKN035 21/18 Q1010 NOSIG RMK PP000,SACO,2023-05-24T22:00:00Z,-31.32,-64.22,21.0,18.0,130,7,,6.21,29.822834,,,,,,TRUE,,,,,SCT,1300,SCT,2700,BKN,3500,,,VFR,,,,,,,,,,,,SPECI,474.0
SABE 242200Z 32006KT 290V360 9999 FEW017 BKN042 21/18 Q1011 NOSIG RMK PP000,SABE,2023-05-24T22:00:00Z,-34.57,-58.42,21.0,18.0,320,6,,6.21,29.852362,,,,,,TRUE,,,,,FEW,1700,BKN,4200,,,,,VFR,,,,,,,,,,,,SPECI,3.0
SAAR 242200Z 12003KT 9999 FEW010 BKN018 BKN100 20/20 Q1008 RETS RMK PP004,SAAR,2023-05-24T22:00:00Z,-32.92,-60.77,20.0,20.0,120,3,,6.21,29.763779,,,,,,,,,,,FEW,1000,BKN,1800,BKN,10000,,,MVFR,,,,,,,,,,,,SPECI,24.0
RPVP 242200Z 24004KT 9999 FEW019 BKN240 25/24 Q1012 RMK A2988,RPVP,2023-05-24T22:00:00Z,9.75,118.75,25.0,24.0,240,4,,6.21,29.88189,,,,,,,,,,,FEW,1900,BKN,24000,,,,,VFR,,,,,,,,,,,,METAR,15.0
RPVM 242200Z VRB02KT 9999 FEW020 BKN250 27/25 Q1012 NOSIG RMK A2988,RPVM,2023-05-24T22:00:00Z,10.32,123.98,27.0,25.0,0,2,,6.21,29.88189,,,,,,TRUE,,,,,FEW,2000,BKN,25000,,,,,VFR,,,,,,,,,,,,METAR,9.0
RPVD 242200Z 27004KT 9999 VCSH FEW014CB 25/24 Q1011 RMK A2985 CB/VCSH E-SE,RPVD,2023-05-24T22:00:00Z,9.33,123.3,25.0,24.0,270,4,,6.21,29.852362,,,,,,,,,,VCSH,FEW,1400,,,,,,,VFR,,,,,,,,,,,,METAR,11.0
RPMZ 242200Z 30001KT 9999 FEW016CB FEW017 BKN090 25/24 Q1012 RMK A2988 CB SW-NW,RPMZ,2023-05-24T22:00:00Z,6.92,122.07,25.0,24.0,300,1,,6.21,29.88189,,,,,,,,,,,FEW,1600,FEW,1700,BKN,9000,,,VFR,,,,,,,,,,,,METAR,8.0
RPMD 242200Z VRB02KT 9999 FEW015 SCT090 BKN260 25/25 Q1012 RMK A2988 VCSH ESE,RPMD,2023-05-24T22:00:00Z,7.12,125.65,25.0,25.0,0,2,,6.21,29.88189,,,,,,,,,,,FEW,1500,SCT,9000,BKN,26000,,,VFR,,,,,,,,,,,,METAR,19.0
RPLL 242200Z VRB01KT 6000 FEW025 SCT300 27/25 Q1011 NOSIG RMK A2985,RPLL,2023-05-24T22:00:00Z,14.52,121.0,27.0,25.0,0,1,,3.73,29.852362,,,,,,TRUE,,,,,FEW,2500,SCT,30000,,,,,MVFR,,,,,,,,,,,,METAR,15.0
RPLI 242200Z 07004KT 040V100 9999 FEW018TCU SCT290 26/25 Q1011 NOSIG RMK A2985 TCU SW,RPLI,2023-05-24T22:00:00Z,18.17,120.52,26.0,25.0,70,4,,6.21,29.852362,,,,,,TRUE,,,,,FEW,1800,SCT,29000,,,,,VFR,,,,,,,,,,,,METAR,5.0
RPLC 242200Z 17002KT 8000 SCT020 BKN100 26/23 Q1012 NOSIG RMK A2988,RPLC,2023-05-24T22:00:00Z,15.18,120.55,26.0,23.0,170,2,,4.97,29.88189,,,,,,TRUE,,,,,SCT,2000,BKN,10000,,,,,MVFR,,,,,,,,,,,,METAR,138.0
RPLB 242200Z 07005KT 9999 FEW018TCU FEW020 BKN080 25/23 Q1012 NOSIG RMK A2988 TCU NW,RPLB,2023-05-24T22:00:00Z,14.8,120.27,25.0,23.0,70,5,,6.21,29.88189,,,,,,TRUE,,,,,FEW,1800,FEW,2000,BKN,8000,,,VFR,,,,,,,,,,,,METAR,19.0
ROYN 242200Z AUTO 19003KT 140V230 9999 BKN013 OVC050 25/23 Q1013,ROYN,2023-05-24T22:00:00Z,24.47,122.97,25.0,23.0,190,3,,6.21,29.911417,,,TRUE,,,,,,,,BKN,1300,OVC,5000,,,,,MVFR,,,,,,,,,,,,METAR,21.0
RORY 242200Z AUTO 12009KT 9999 NSC 24/19 Q1014,RORY,2023-05-24T22:00:00Z,27.05,128.4,24.0,19.0,120,9,,6.21,29.940945,,,TRUE,,,,,,,,CLR,,,,,,,,VFR,,,,,,,,,,,,METAR,13.0
RORT 242200Z AUTO 15004KT 110V190 9999 SCT017 BKN100 25/22 Q1013,RORT,2023-05-24T22:00:00Z,24.63,124.7,25.0,22.0,150,4,,6.21,29.911417,,,TRUE,,,,,,,,SCT,1700,BKN,10000,,,,,VFR,,,,,,,,,,,,METAR,9.0
RORS 242200Z AUTO 15005KT 9999 FEW021 OVC080 25/21 Q1013,RORS,2023-05-24T22:00:00Z,24.82,125.15,25.0,21.0,150,5,,6.21,29.911417,,,TRUE,,,,,,,,FEW,2100,OVC,8000,,,,,VFR,,,,,,,,,,,,METAR,13.0
RORK 242200Z AUTO 09012KT 9999 NCD 23/18 Q1015,RORK,2023-05-24T22:00:00Z,25.93,131.32,23.0,18.0,90,12,,6.21,29.970472,,,TRUE,,,,,,,,CLR,,,,,,,,VFR,,,,,,,,,,,,METAR,11.0
ROMY 242200Z AUTO 14003KT 9999 SCT042 BKN070 OVC080 24/21 Q1014,ROMY,2023-05-24T22:00:00Z,24.78,125.27,24.0,21.0,140,3,,6.21,29.940945,,,TRUE,,,,,,,,SCT,4200,BKN,7000,OVC,8000,,,VFR,,,,,,,,,,,,METAR,38.0
ROMD 242200Z AUTO VRB05KT 9999 SCT024 BKN029 BKN031 23/19 Q1015,ROMD,2023-05-24T22:00:00Z,25.83,131.25,23.0,19.0,0,5,,6.21,29.970472,,,TRUE,,,,,,,,SCT,2400,BKN,2900,BKN,3100,,,MVFR,,,,,,,,,,,,METAR,45.0
ROIG 242200Z AUTO 17004KT 120V200 9999 FEW015 BKN041 BKN070 25/22 Q1013,ROIG,2023-05-24T22:00:00Z,24.38,124.23,25.0,22.0,170,4,,6.21,29.911417,,,TRUE,,,,,,,,FEW,1500,BKN,4100,BKN,7000,,,VFR,,,,,,,,,,,,METAR,37.0
ROAH 242200Z 09002KT 9999 FEW030 BKN110 25/18 Q1014,ROAH,2023-05-24T22:00:00Z,26.18,127.65,25.0,18.0,90,2,,6.21,29.940945,,,,,,,,,,,FEW,3000,BKN,11000,,,,,VFR,,,,,,,,,,,,METAR,6.0
RKTU 242200Z 36001KT CAVOK 16/12 Q1018,RKTU,2023-05-24T22:00:00Z,36.7,127.5,16.0,12.0,360,1,,6.21,30.059055,,,,,,,,,,,CAVOK,,,,,,,,VFR,,,,,,,,,,,,METAR,46.0
RKTN 242200Z 09004KT CAVOK 16/11 Q1017,RKTN,2023-05-24T22:00:00Z,35.88,128.65,16.0,11.0,90,4,,6.21,30.029528,,,,,,,,,,,CAVOK,,,,,,,,VFR,,,,,,,,,,,,METAR,25.0
RKSS 242200Z 27001KT CAVOK 18/12 Q1018 NOSIG,RKSS,2023-05-24T22:00:00Z,37.55,126.78,18.0,12.0,270,1,,6.21,30.059055,,,,,,TRUE,,,,,CAVOK,,,,,,,,VFR,,,,,,,,,,,,METAR,18.0
RKSM 242200Z 10001KT 9999 SCT080 16/11 A3006,RKSM,2023-05-24T22:00:00Z,37.43,127.12,16.0,11.0,100,1,,6.21,30.059055,,,,,,,,,,,SCT,8000,,,,,,,VFR,,,,,,,,,,,,METAR,18.0
RKSI 242200Z 06003KT 030V100 CAVOK 17/14 Q1017 NOSIG,RKSI,2023-05-24T22:00:00Z,37.47,126.45,17.0,14.0,60,3,,6.21,30.029528,,,,,,TRUE,,,,,CAVOK,,,,,,,,VFR,,,,,,,,,,,,METAR,7.0
RKPK 242200Z 04006KT CAVOK 16/10 Q1017,RKPK,2023-05-24T22:00:00Z,35.17,128.93,16.0,10.0,40,6,,6.21,30.029528,,,,,,,,,,,CAVOK,,,,,,,,VFR,,,,,,,,,,,,METAR,3.0
RKPC 242200Z 10006KT 9999 FEW030 BKN120 17/09 Q1016 NOSIG,RKPC,2023-05-24T22:00:00Z,33.5,126.48,17.0,9.0,100,6,,6.21,30.0,,,,,,TRUE,,,,,FEW,3000,BKN,12000,,,,,VFR,,,,,,,,,,,,METAR,23.0
RKNY 242200Z AUTO 24005KT 9999 NCD 19/09 Q1016,RKNY,2023-05-24T22:00:00Z,38.07,128.67,19.0,9.0,240,5,,6.21,30.0,,,TRUE,,,,,,,,CLR,,,,,,,,VFR,,,,,,,,,,,,METAR,76.0
RKJB 242200Z 08004KT CAVOK 18/12 Q1017 NOSIG,RKJB,2023-05-24T22:00:00Z,34.98,126.38,18.0,12.0,80,4,,6.21,30.029528,,,,,,TRUE,,,,,CAVOK,,,,,,,,VFR,,,,,,,,,,,,METAR,16.0
RJTT 242200Z 01006KT 9999 FEW030 SCT050 BKN/// 17/10 Q1022 NOSIG,RJTT,2023-05-24T22:00:00Z,35.55,139.77,17.0,10.0,10,6,,6.21,30.177166,,,,,,TRUE,,,,,FEW,3000,SCT,5000,,,,,VFR,,,,,,,,,,,,METAR,5.0
RJSY 242200Z 11006KT 090V160 9999 FEW007 BKN/// 12/07 Q1022,RJSY,2023-05-24T22:00:00Z,38.82,139.78,12.0,7.0,110,6,,6.21,30.177166,,,,,,,,,,,FEW,700,,,,,,,VFR,,,,,,,,,,,,SPECI,17.0
RJSS 242200Z VRB02KT CAVOK 14/07 Q1022,RJSS,2023-05-24T22:00:00Z,38.13,140.92,14.0,7.0,0,2,,6.21,30.177166,,,,,,,,,,,CAVOK,,,,,,,,VFR,,,,,,,,,,,,METAR,5.0
RJSN 242200Z 14003KT 080V200 9999 FEW020 BKN/// 14/08 Q1021,RJSN,2023-05-24T22:00:00Z,37.95,139.12,14.0,8.0,140,3,,6.21,30.147638,,,,,,,,,,,FEW,2000,,,,,,,VFR,,,,,,,,,,,,METAR,4.0
RJSM 242200Z 28005KT 250V310 9999 FEW030 14/06 Q1021,RJSM,2023-05-24T22:00:00Z,40.7,141.37,14.0,6.0,280,5,,6.21,30.147638,,,,,,,,,,,FEW,3000,,,,,,,VFR,,,,,,,,,,,,METAR,31.0
RJSK 242200Z 15004KT 090V200 9999 FEW001 BKN/// 12/10 Q1022,RJSK,2023-05-24T22:00:00Z,39.62,140.22,12.0,10.0,150,4,,6.21,30.177166,,,,,,,,,,,FEW,100,,,,,,,VFR,,,,,,,,,,,,METAR,95.0
RJSF 242200Z VRB02KT CAVOK 11/08 Q1022,RJSF,2023-05-24T22:00:00Z,37.22,140.42,11.0,8.0,0,2,,6.21,30.177166,,,,,,,,,,,CAVOK,,,,,,,,VFR,,,,,,,,,,,,METAR,373.0
RJSA 242200Z 22007KT 9999 FEW030 14/08 Q1021,RJSA,2023-05-24T22:00:00Z,40.72,140.68,14.0,8.0,220,7,,6.21,30.147638,,,,,,,,,,,FEW,3000,,,,,,,VFR,,,,,,,,,,,,METAR,196.0
RJOT 242200Z VRB02KT 9999 FEW030 BKN160 14/10 Q1019,RJOT,2023-05-24T22:00:00Z,34.22,134.02,14.0,10.0,0,2,,6.21,30.088583,,,,,,,,,,,FEW,3000,BKN,16000,,,,,VFR,,,,,,,,,,,,METAR,181.0
RJOS 242200Z 25003KT 9999 FEW030 BKN180 16/10 Q1019,RJOS,2023-05-24T22:00:00Z,34.12,134.62,16.0,10.0,250,3,,6.21,30.088583,,,,,,,,,,,FEW,3000,BKN,18000,,,,,VFR,,,,,,,,,,,,METAR,3.0
RJOR 242200Z 17004KT 140V200 9999 FEW050 SCT170 BKN/// 14/08 Q1018,RJOR,2023-05-24T22:00:00Z,35.52,134.17,14.0,8.0,170,4,,6.21,30.059055,,,,,,,,,,,FEW,5000,SCT,17000,,,,,VFR,,,,,,,,,,,,SPECI,11.0
RJOO 242200Z VRB02KT 9999 FEW030 BKN/// 16/10 Q1020,RJOO,2023-05-24T22:00:00Z,34.78,135.43,16.0,10.0,0,2,,6.21,30.11811,,,,,,,,,,,FEW,3000,,,,,,,VFR,,,,,,,,,,,,METAR,11.0
RJOM 242200Z 04003KT 360V100 9999 FEW040 SCT120 BKN150 18/11 Q1018,RJOM,2023-05-24T22:00:00Z,33.82,132.68,18.0,11.0,40,3,,6.21,30.059055,,,,,,,,,,,FEW,4000,SCT,12000,BKN,15000,,,VFR,,,,,,,,,,,,METAR,3.0
RJOK 242200Z 35006KT 9999 FEW030 BKN160 18/11 Q1019,RJOK,2023-05-24T22:00:00Z,33.53,133.67,18.0,11.0,350,6,,6.21,30.088583,,,,,,,,,,,FEW,3000,BKN,16000,,,,,VFR,,,,,,,,,,,,METAR,7.0
RJOH 242200Z 10004KT 9999 FEW150 BKN180 BKN200 16/10 Q1017,RJOH,2023-05-24T22:00:00Z,35.48,133.25,16.0,10.0,100,4,,6.21,30.029528,,,,,,,,,,,FEW,15000,BKN,18000,BKN,20000,,,VFR,,,,,,,,,,,,METAR,6.0
RJOC 242200Z 13004KT 9999 FEW050 SCT170 BKN180 15/11 Q1017,RJOC,2023-05-24T22:00:00Z,35.42,132.88,15.0,11.0,130,4,,6.21,30.029528,,,,,,,,,,,FEW,5000,SCT,17000,BKN,18000,,,VFR,,,,,,,,,,,,METAR,2.0
RJOB 242200Z VRB02KT 9999 FEW030 BKN140 BKN/// 14/08 Q1019,RJOB,2023-05-24T22:00:00Z,34.75,133.85,14.0,8.0,0,2,,6.21,30.088583,,,,,,,,,,,FEW,3000,BKN,14000,,,,,VFR,,,,,,,,,,,,METAR,242.0
RJOA 242200Z VRB04KT 9999 FEW030 SCT100 BKN130 14/08 Q1019,RJOA,2023-05-24T22:00:00Z,34.43,132.92,14.0,8.0,0,4,,6.21,30.088583,,,,,,,,,,,FEW,3000,SCT,10000,BKN,13000,,,VFR,,,,,,,,,,,,METAR,318.0
RJNT 242200Z 24004KT 9999 FEW090 BKN/// 12/09 Q1020,RJNT,2023-05-24T22:00:00Z,36.63,137.18,12.0,9.0,240,4,,6.21,30.11811,,,,,,,,,,,FEW,9000,,,,,,,VFR,,,,,,,,,,,,METAR,30.0
RJNK 242200Z VRB02KT 9999 FEW080 SCT190 BKN210 13/10 Q1020,RJNK,2023-05-24T22:00:00Z,36.38,136.42,13.0,10.0,0,2,,6.21,30.11811,,,,,,,,,,,FEW,8000,SCT,19000,BKN,21000,,,VFR,,,,,,,,,,,,METAR,7.0
RJKI 242200Z AUTO 15003KT 080V200 9999 NSC 22/17 Q1016,RJKI,2023-05-24T22:00:00Z,28.32,129.92,22.0,17.0,150,3,,6.21,30.0,,,TRUE,,,,,,,,CLR,,,,,,,,VFR,,,,,,,,,,,,METAR,6.0
RJKA 242200Z AUTO 15009KT 9999 NSC 23/17 Q1015,RJKA,2023-05-24T22:00:00Z,28.42,129.72,23.0,17.0,150,9,,6.21,29.970472,,,TRUE,,,,,,,,CLR,,,,,,,,VFR,,,,,,,,,,,,METAR,7.0
RJGG 242200Z 01007KT 9999 VCSH FEW020 BKN040 BKN/// 17/12 Q1020 NOSIG,RJGG,2023-05-24T22:00:00Z,34.87,136.8,17.0,12.0,10,7,,6.21,30.11811,,,,,,TRUE,,,,VCSH,FEW,2000,BKN,4000,,,,,VFR,,,,,,,,,,,,METAR,5.0
RJFU 242200Z 14005KT CAVOK 19/14 Q1017,RJFU,2023-05-24T22:00:00Z,32.92,129.92,19.0,14.0,140,5,,6.21,30.029528,,,,,,,,,,,CAVOK,,,,,,,,VFR,,,,,,,,,,,,METAR,2.0
RJFT 242200Z VRB01KT CAVOK 17/12 Q1017,RJFT,2023-05-24T22:00:00Z,32.83,130.85,17.0,12.0,0,1,,6.21,30.029528,,,,,,,,,,,CAVOK,,,,,,,,VFR,,,,,,,,,,,,METAR,188.0
RJFS 242200Z VRB02KT 9999 FEW040 SCT100 BKN110 17/14 Q1017,RJFS,2023-05-24T22:00:00Z,33.15,130.3,17.0,14.0,0,2,,6.21,30.029528,,,,,,,,,,,FEW,4000,SCT,10000,BKN,11000,,,VFR,,,,,,,,,,,,METAR,2.0
RJFR 242200Z 13005KT 9999 FEW010 SCT100 BKN120 19/16 Q1017,RJFR,2023-05-24T22:00:00Z,33.83,131.03,19.0,16.0,130,5,,6.21,30.029528,,,,,,,,,,,FEW,1000,SCT,10000,BKN,12000,,,VFR,,,,,,,,,,,,METAR,9.0
RJFO 242200Z 23003KT 180V260 9999 FEW030 BKN110 BKN130 18/14 Q1018,RJFO,2023-05-24T22:00:00Z,33.47,131.73,18.0,14.0,230,3,,6.21,30.059055,,,,,,,,,,,FEW,3000,BKN,11000,BKN,13000,,,VFR,,,,,,,,,,,,METAR,3.0
RJFM 242200Z AUTO 29005KT 9999 FEW041 SCT045 BKN048 18/13 Q1018,RJFM,2023-05-24T22:00:00Z,31.87,131.43,18.0,13.0,290,5,,6.21,30.059055,,,TRUE,,,,,,,,FEW,4100,SCT,4500,BKN,4800,,,VFR,,,,,,,,,,,,METAR,10.0
RJFK 242200Z 13003KT 9999 FEW040 BKN110 17/10 Q1018,RJFK,2023-05-24T22:00:00Z,31.8,130.72,17.0,10.0,130,3,,6.21,30.059055,,,,,,,,,,,FEW,4000,BKN,11000,,,,,VFR,,,,,,,,,,,,METAR,271.0
RJFF 242200Z 08003KT 040V160 CAVOK 19/11 Q1016 NOSIG,RJFF,2023-05-24T22:00:00Z,33.58,130.45,19.0,11.0,80,3,,6.21,30.0,,,,,,TRUE,,,,,CAVOK,,,,,,,,VFR,,,,,,,,,,,,METAR,7.0
RJEC 242200Z VRB01KT CAVOK 12/07 Q1018,RJEC,2023-05-24T22:00:00Z,43.67,142.43,12.0,7.0,0,1,,6.21,30.059055,,,,,,,,,,,CAVOK,,,,,,,,VFR,,,,,,,,,,,,METAR,209.0
RJDC 242200Z 09016KT 9999 FEW025 SCT100 BKN120 19/16 Q1017,RJDC,2023-05-24T22:00:00Z,33.92,131.27,19.0,16.0,90,16,,6.21,30.029528,,,,,,,,,,,FEW,2500,SCT,10000,BKN,12000,,,VFR,,,,,,,,,,,,METAR,5.0
RJDB 242200Z AUTO VRB02KT 9999 NSC 18/16 Q1016,RJDB,2023-05-24T22:00:00Z,33.75,129.78,18.0,16.0,0,2,,6.21,30.0,,,TRUE,,,,,,,,CLR,,,,,,,,VFR,,,,,,,,,,,,METAR,13.0
RJCO 242200Z 11003KT 9999 FEW150 11/08 Q1020,RJCO,2023-05-24T22:00:00Z,43.12,141.37,11.0,8.0,110,3,,6.21,30.11811,,,,,,,,,,,FEW,15000,,,,,,,VFR,,,,,,,,,,,,METAR,7.0
RJCK 242200Z 20003KT 150V230 CAVOK 15/05 Q1016,RJCK,2023-05-24T22:00:00Z,43.03,144.18,15.0,5.0,200,3,,6.21,30.0,,,,,,,,,,,CAVOK,,,,,,,,VFR,,,,,,,,,,,,METAR,94.0
RJCH 242200Z 23006KT 9999 FEW020 14/08 Q1020,RJCH,2023-05-24T22:00:00Z,41.77,140.82,14.0,8.0,230,6,,6.21,30.11811,,,,,,,,,,,FEW,2000,,,,,,,VFR,,,,,,,,,,,,METAR,36.0
RJCC 242200Z 15003KT 120V180 9999 FEW010 12/08 Q1019,RJCC,2023-05-24T22:00:00Z,42.77,141.68,12.0,8.0,150,3,,6.21,30.088583,,,,,,,,,,,FEW,1000,,,,,,,VFR,,,,,,,,,,,,METAR,19.0
RJBE 242200Z 07011KT 9999 FEW030 SCT180 BKN/// 17/10 Q1019,RJBE,2023-05-24T22:00:00Z,34.63,135.23,17.0,10.0,70,11,,6.21,30.088583,,,,,,,,,,,FEW,3000,SCT,18000,,,,,VFR,,,,,,,,,,,,METAR,5.0
RJBB 242200Z 10005KT 9999 FEW025 BKN150 17/10 Q1020 NOSIG,RJBB,2023-05-24T22:00:00Z,34.43,135.25,17.0,10.0,100,5,,6.21,30.11811,,,,,,TRUE,,,,,FEW,2500,BKN,15000,,,,,VFR,,,,,,,,,,,,METAR,8.0
RJAW 242200Z 06015KT 4500 -SHRA BR BKN003 BKN005 23/22 Q1013 RMK 5ST003 7ST005 A2993 WIND BY EQPT/25,RJAW,2023-05-24T22:00:00Z,24.78,141.32,23.0,22.0,60,15,,2.8,29.911417,,,,,,,,,,-SHRA BR,BKN,300,BKN,500,,,,,LIFR,,,,,,,,,,,,METAR,116.0
RJAH 242200Z 34004KT 9999 FEW030 BKN250 15/10 Q1022,RJAH,2023-05-24T22:00:00Z,36.17,140.42,15.0,10.0,340,4,,6.21,30.177166,,,,,,,,,,,FEW,3000,BKN,25000,,,,,VFR,,,,,,,,,,,,METAR,31.0
RJAA 242200Z 02004KT 9999 FEW030 BKN/// 17/13 Q1022 NOSIG,RJAA,2023-05-24T22:00:00Z,35.77,140.38,17.0,13.0,20,4,,6.21,30.177166,,,,,,TRUE,,,,,FEW,3000,,,,,,,VFR,,,,,,,,,,,,METAR,36.0
RCTP 242200Z VRB02KT 7000 FEW010 BKN025 BKN035 24/23 Q1013 NOSIG RMK A2993,RCTP,2023-05-24T22:00:00Z,25.07,121.22,24.0,23.0,0,2,,4.35,29.911417,,,,,,TRUE,,,,,FEW,1000,BKN,2500,BKN,3500,,,MVFR,,,,,,,,,,,,METAR,33.0
RCNN 242200Z 36004KT 6000 FEW010 SCT020 BKN040 25/22 Q1013 NOSIG RMK A2992,RCNN,2023-05-24T22:00:00Z,22.93,120.2,25.0,22.0,360,4,,3.73,29.911417,,,,,,TRUE,,,,,FEW,1000,SCT,2000,BKN,4000,,,MVFR,,,,,,,,,,,,METAR,15.0
RCMQ 242200Z 00000KT 6000 FEW008 BKN020 BKN040 23/22 Q1014 NOSIG RMK A2995,RCMQ,2023-05-24T22:00:00Z,24.27,120.62,23.0,22.0,0,0,,3.73,29.940945,,,,,,TRUE,,,,,FEW,800,BKN,2000,BKN,4000,,,MVFR,,,,,,,,,,,,METAR,202.0
RCFN 242200Z VRB02KT 9999 FEW010 SCT050 23/23 Q1014 NOSIG RMK A2995,RCFN,2023-05-24T22:00:00Z,22.77,121.1,23.0,23.0,0,2,,6.21,29.940945,,,,,,TRUE,,,,,FEW,1000,SCT,5000,,,,,VFR,,,,,,,,,,,,METAR,42.0
PLCH 242200Z VRB02KT 9999 FEW019 SCT040 31/25 Q1010,PLCH,2023-05-24T22:00:00Z,1.98,-157.35,31.0,25.0,0,2,,6.21,29.822834,,,,,,,,,,,FEW,1900,SCT,4000,,,,,VFR,,,,,,,,,,,,METAR,5.0
OTHH 242200Z AUTO 34003KT CAVOK 30/21 Q1005 NOSIG,OTHH,2023-05-24T22:00:00Z,25.27,51.6,30.0,21.0,340,3,,6.21,29.675198,,,TRUE,,,TRUE,,,,,CAVOK,,,,,,,,VFR,,,,,,,,,,,,METAR,3.0
OTBD 242200Z AUTO 36003KT CAVOK 32/19 Q1006 NOSIG,OTBD,2023-05-24T22:00:00Z,25.25,51.57,32.0,19.0,360,3,,6.21,29.704725,,,TRUE,,,TRUE,,,,,CAVOK,,,,,,,,VFR,,,,,,,,,,,,METAR,13.0
OSLK 242200Z 02004KT CAVOK 17/10 Q1011,OSLK,2023-05-24T22:00:00Z,35.4,35.95,17.0,10.0,20,4,,6.21,29.852362,,,,,,,,,,,CAVOK,,,,,,,,VFR,,,,,,,,,,,,SPECI,47.0
OSDI 242200Z 29006KT CAVOK 19/02 Q1012,OSDI,2023-05-24T22:00:00Z,33.42,36.52,19.0,2.0,290,6,,6.21,29.88189,,,,,,,,,,,CAVOK,,,,,,,,VFR,,,,,,,,,,,,SPECI,614.0
ORSU 242200Z 29004KT CAVOK 14/12 Q1016,ORSU,2023-05-24T22:00:00Z,35.57,45.32,14.0,12.0,290,4,,6.21,30.0,,,,,,,,,,,CAVOK,,,,,,,,VFR,,,,,,,,,,,,METAR,760.0
ORNI 242200Z 00000KT 6000 FEW025CB BKN040 30/11 Q10008,ORNI,2023-05-24T22:00:00Z,31.98,44.4,30.0,11.0,0,0,,3.73,,,,,,,,,,,,FEW,2500,BKN,4000,,,,,MVFR,,,,,,,,,,,,METAR,33.0
ORMM 242200Z 210024KT 4000 DS SCT035 BKN100 33/12 Q1007 NOSIG,ORMM,2023-05-24T22:00:00Z,30.53,47.67,33.0,12.0,210,24,,2.49,29.734253,,,,,,TRUE,,,,DS,SCT,3500,BKN,10000,,,,,IFR,,,,,,,,,,,,METAR,2.0
ORER 242200Z 34005KT 9000 FEW045 22/07 Q1013,ORER,2023-05-24T22:00:00Z,36.23,43.97,22.0,7.0,340,5,,5.59,29.911417,,,,,,,,,,,FEW,4500,,,,,,,VFR,,,,,,,,,,,,METAR,399.0
ORBI 242200Z 35004KT CAVOK 27/13 Q1007,ORBI,2023-05-24T22:00:00Z,33.27,44.23,27.0,13.0,350,4,,6.21,29.734253,,,,,,,,,,,CAVOK,,,,,,,,VFR,,,,,,,,,,,,METAR,37.0
OPST 242200Z 05006KT 4000 FU FEW040 SCT100 27/18 Q1005 NOSIG 59%,OPST,2023-05-24T22:00:00Z,32.53,74.37,27.0,18.0,50,6,,2.49,29.675198,,,,,,TRUE,,,,FU,FEW,4000,SCT,10000,,,,,IFR,,,,,,,,,,,,METAR,234.0
OPSK 242200Z 18006KT 4000 HZ NSC 30/19 Q0997 NOSIG,OPSK,2023-05-24T22:00:00Z,27.72,68.8,30.0,19.0,180,6,,2.49,29.438976,,,,,,TRUE,,,,HZ,CLR,,,,,,,,IFR,,,,,,,,,,,,METAR,62.0
OPPS 242200Z 31006KT 6000 HZ FEW200 25/16 Q1004,OPPS,2023-05-24T22:00:00Z,33.98,71.52,25.0,16.0,310,6,,3.73,29.64567,,,,,,,,,,HZ,FEW,20000,,,,,,,MVFR,,,,,,,,,,,,METAR,356.0
OPNH 242200Z 13004KT 6000 NSC 31/23 Q1000,OPNH,2023-05-24T22:00:00Z,26.22,68.38,31.0,23.0,130,4,,3.73,29.52756,,,,,,,,,,,CLR,,,,,,,,MVFR,,,,,,,,,,,,METAR,30.0
OPMT 242200Z 18010KT 4000 FU SCT040 SCT100 30/23 Q1001 NOSIG,OPMT,2023-05-24T22:00:00Z,30.2,71.42,30.0,23.0,180,10,,2.49,29.557087,,,,,,TRUE,,,,FU,SCT,4000,SCT,10000,,,,,IFR,,,,,,,,,,,,METAR,122.0
OPIS 242200Z 09010KT 6000 NSC 22/15 Q1005 NOSIG,OPIS,2023-05-24T22:00:00Z,33.55,72.83,22.0,15.0,90,10,,3.73,29.675198,,,,,,TRUE,,,,,CLR,,,,,,,,MVFR,,,,,,,,,,,,METAR,542.0
OMSJ 242200Z 00000KT CAVOK 28/17 Q1006 NOSIG,OMSJ,2023-05-24T22:00:00Z,25.32,55.52,28.0,17.0,0,0,,6.21,29.704725,,,,,,TRUE,,,,,CAVOK,,,,,,,,VFR,,,,,,,,,,,,METAR,33.0
OMRK 242200Z 19002KT CAVOK 26/18 Q1006 A2972,OMRK,2023-05-24T22:00:00Z,25.62,55.93,26.0,18.0,190,2,,6.21,29.704725,,,,,,,,,,,CAVOK,,,,,,,,VFR,,,,,,,,,,,,METAR,18.0
OMFJ 242200Z 05004KT 7000 NSC 29/21 Q1005 A2969,OMFJ,2023-05-24T22:00:00Z,25.1,56.32,29.0,21.0,50,4,,4.35,29.675198,,,,,,,,,,,CLR,,,,,,,,MVFR,,,,,,,,,,,,METAR,27.0
OMDW 242200Z VRB02KT 8000 NSC 27/20 Q1006 NOSIG,OMDW,2023-05-24T22:00:00Z,24.9,55.17,27.0,20.0,0,2,,4.97,29.704725,,,,,,TRUE,,,,,CLR,,,,,,,,MVFR,,,,,,,,,,,,METAR,34.0
OMDB 242200Z 20003KT 180V240 CAVOK 32/21 Q1005 NOSIG,OMDB,2023-05-24T22:00:00Z,25.25,55.37,32.0,21.0,200,3,,6.21,29.675198,,,,,,TRUE,,,,,CAVOK,,,,,,,,VFR,,,,,,,,,,,,METAR,5.0
OMAL 242200Z 08003KT CAVOK 32/12 Q1008 NOSIG,OMAL,2023-05-24T22:00:00Z,24.25,55.6,32.0,12.0,80,3,,6.21,29.763779,,,,,,TRUE,,,,,CAVOK,,,,,,,,VFR,,,,,,,,,,,,METAR,247.0
OMAD 242200Z 12002KT CAVOK 29/22 Q1006 NOSIG,OMAD,2023-05-24T22:00:00Z,24.42,54.47,29.0,22.0,120,2,,6.21,29.704725,,,,,,TRUE,,,,,CAVOK,,,,,,,,VFR,,,,,,,,,,,,METAR,9.0
OMAA 242200Z VRB02KT CAVOK 29/23 Q1005 NOSIG,OMAA,2023-05-24T22:00:00Z,24.42,54.65,29.0,23.0,0,2,,6.21,29.675198,,,,,,TRUE,,,,,CAVOK,,,,,,,,VFR,,,,,,,,,,,,METAR,13.0
OLBA 242200Z 03004KT 8000 NSC 22/14 Q1012 NOSIG,OLBA,2023-05-24T22:00:00Z,33.82,35.48,22.0,14.0,30,4,,4.97,29.88189,,,,,,TRUE,,,,,CLR,,,,,,,,MVFR,,,,,,,,,,,,METAR,29.0
OKKK 242200Z 32005KT 7000 NSC 35/12 Q1006 NOSIG,OKKK,2023-05-24T22:00:00Z,,,35.0,12.0,320,5,,4.35,29.704725,,,,,,TRUE,,,,,CLR,,,,,,,,MVFR,,,,,,,,,,,,METAR,
OJAQ 242200Z 36009KT 7000 NSC 29/09 Q1009 NOSIG,OJAQ,2023-05-24T22:00:00Z,29.62,35.02,29.0,9.0,360,9,,4.35,29.793306,,,,,,TRUE,,,,,CLR,,,,,,,,MVFR,,,,,,,,,,,,METAR,45.0
OJAM 242200Z 24003KT 6000 NSC 22/03 Q1014 NOSIG,OJAM,2023-05-24T22:00:00Z,31.98,35.98,22.0,3.0,240,3,,3.73,29.940945,,,,,,TRUE,,,,,CLR,,,,,,,,MVFR,,,,,,,,,,,,METAR,765.0
OJAI 242200Z 30005KT 5000 HZ NSC 19/04 Q1014 NOSIG,OJAI,2023-05-24T22:00:00Z,31.72,36.0,19.0,4.0,300,5,,3.11,29.940945,,,,,,TRUE,,,,HZ,CLR,,,,,,,,MVFR,,,,,,,,,,,,METAR,723.0
OIZH 242200Z 00000KT CAVOK 24/01 Q1017 A3004,OIZH,2023-05-24T22:00:00Z,29.47,60.92,24.0,1.0,0,0,,6.21,30.029528,,,,,,,,,,,CAVOK,,,,,,,,VFR,,,,,,,,,,,,METAR,1378.0
OIYY 242200Z 17004KT 8000 FEW040 SCT200 27/03 Q1017,OIYY,2023-05-24T22:00:00Z,31.9,54.28,27.0,3.0,170,4,,4.97,30.029528,,,,,,,,,,,FEW,4000,SCT,20000,,,,,MVFR,,,,,,,,,,,,METAR,1226.0
OITT 242200Z 06006KT 9999 FEW030 15/07 Q1020 A3013,OITT,2023-05-24T22:00:00Z,38.13,46.23,15.0,7.0,60,6,,6.21,30.11811,,,,,,,,,,,FEW,3000,,,,,,,VFR,,,,,,,,,,,,METAR,1353.0
OITR 242200Z 27006KT 9999 SCT040 11/11 Q1018 A3008,OITR,2023-05-24T22:00:00Z,37.67,45.07,11.0,11.0,270,6,,6.21,30.059055,,,,,,,,,,,SCT,4000,,,,,,,VFR,,,,,,,,,,,,METAR,1312.0
OITP 242200Z 00000KT CAVOK 21/17 Q1009,OITP,2023-05-24T22:00:00Z,39.6,47.88,21.0,17.0,0,0,,6.21,29.793306,,,,,,,,,,,CAVOK,,,,,,,,VFR,,,,,,,,,,,,METAR,72.0
OITL 242200Z VRB02KT 9999 FEW035 FEW045CB 13/09 Q1019,OITL,2023-05-24T22:00:00Z,38.33,48.42,13.0,9.0,0,2,,6.21,30.088583,,,,,,,,,,,FEW,3500,FEW,4500,,,,,VFR,,,,,,,,,,,,METAR,1314.0
OISY 242200Z 00000KT CAVOK 18/02 Q1024,OISY,2023-05-24T22:00:00Z,30.7,51.55,18.0,2.0,0,0,,6.21,30.236221,,,,,,,,,,,CAVOK,,,,,,,,VFR,,,,,,,,,,,,METAR,1800.0
OISS 242200Z 31004KT 8000 NSC 24/02 Q1018 A3007,OISS,2023-05-24T22:00:00Z,29.53,52.58,24.0,2.0,310,4,,4.97,30.059055,,,,,,,,,,,CLR,,,,,,,,MVFR,,,,,,,,,,,,METAR,1484.0
OISF 242200Z 00000KT CAVOK 22/01 Q1016 A3003,OISF,2023-05-24T22:00:00Z,28.9,53.72,22.0,1.0,0,0,,6.21,30.0,,,,,,,,,,,CAVOK,,,,,,,,VFR,,,,,,,,,,,,METAR,1305.0
OINZ 242200Z 23008KT CAVOK 22/20 Q1010,OINZ,2023-05-24T22:00:00Z,36.63,53.2,22.0,20.0,230,8,,6.21,29.822834,,,,,,,,,,,CAVOK,,,,,,,,VFR,,,,,,,,,,,,METAR,8.0
OINN 242200Z 00000KT 9999 SCT020 21/20 Q1010,OINN,2023-05-24T22:00:00Z,36.67,51.47,21.0,20.0,0,0,,6.21,29.822834,,,,,,,,,,,SCT,2000,,,,,,,VFR,,,,,,,,,,,,METAR,-25.0
OING 242200Z 25006KT CAVOK 23/19 Q1011,OING,2023-05-24T22:00:00Z,36.9,54.4,23.0,19.0,250,6,,6.21,29.852362,,,,,,,,,,,CAVOK,,,,,,,,VFR,,,,,,,,,,,,METAR,0.0
OIMT 242200Z AUTO 30002KT //// // ////// 30/03 Q1011,OIMT,2023-05-24T22:00:00Z,33.67,56.88,30.0,3.0,300,2,,,29.852362,,,TRUE,,,,,,,,,,,,,,,,,,,,,,,,,,,,METAR,693.0
OIMN 242200Z 28004KT CAVOK 16/07 Q1019,OIMN,2023-05-24T22:00:00Z,37.48,57.3,16.0,7.0,280,4,,6.21,30.088583,,,,,,,,,,,CAVOK,,,,,,,,VFR,,,,,,,,,,,,METAR,1065.0
OIMM 242200Z 23004KT CAVOK 21/10 Q1019 A3010,OIMM,2023-05-24T22:00:00Z,36.23,59.63,21.0,10.0,230,4,,6.21,30.088583,,,,,,,,,,,CAVOK,,,,,,,,VFR,,,,,,,,,,,,METAR,995.0
OIMB 242200Z 10004KT CAVOK 19/00 Q1019 A3010,OIMB,2023-05-24T22:00:00Z,32.9,59.28,19.0,0.0,100,4,,6.21,30.088583,,,,,,,,,,,CAVOK,,,,,,,,VFR,,,,,,,,,,,,METAR,1512.0
OIKQ 242200Z 20010KT CAVOK 28/26 Q1004,OIKQ,2023-05-24T22:00:00Z,26.75,55.9,28.0,26.0,200,10,,6.21,29.64567,,,,,,,,,,,CAVOK,,,,,,,,VFR,,,,,,,,,,,,METAR,9.0
OIKK 242200Z 00000KT CAVOK 18/03 Q1020 A3013,OIKK,2023-05-24T22:00:00Z,30.25,56.97,18.0,3.0,0,0,,6.21,30.11811,,,,,,,,,,,CAVOK,,,,,,,,VFR,,,,,,,,,,,,METAR,1749.0
OIKB 242200Z 01006KT 6000 NSC 29/24 Q1005 A2968,OIKB,2023-05-24T22:00:00Z,27.22,56.37,29.0,24.0,10,6,,3.73,29.675198,,,,,,,,,,,CLR,,,,,,,,MVFR,,,,,,,,,,,,METAR,6.0
OIIP 242200Z 29008KT 9999 FEW035 SCT100 BKN200 25/05 Q1016 A3001,OIIP,2023-05-24T22:00:00Z,35.78,50.83,25.0,5.0,290,8,,6.21,30.0,,,,,,,,,,,FEW,3500,SCT,10000,BKN,20000,,,VFR,,,,,,,,,,,,METAR,1270.0
OIIK 242200Z 34002KT CAVOK 20/06 Q1017,OIIK,2023-05-24T22:00:00Z,36.25,50.05,20.0,6.0,340,2,,6.21,30.029528,,,,,,,,,,,CAVOK,,,,,,,,VFR,,,,,,,,,,,,METAR,1278.0
OIII 242200Z 04004KT 9999 FEW035 BKN090 28/M00 Q1016 A3003 NOSIG,OIII,2023-05-24T22:00:00Z,35.68,51.3,28.0,0.0,40,4,,6.21,30.0,,,,,,TRUE,,,,,FEW,3500,BKN,9000,,,,,VFR,,,,,,,,,,,,METAR,1182.0
OIIE 242200Z 32006KT 9999 SCT040 BKN100 26/01 Q1014,OIIE,2023-05-24T22:00:00Z,35.42,51.15,26.0,1.0,320,6,,6.21,29.940945,,,,,,,,,,,SCT,4000,BKN,10000,,,,,VFR,,,,,,,,,,,,METAR,993.0
OIHH 242200Z 10004KT CAVOK 15/08 Q1021 A3017,OIHH,2023-05-24T22:00:00Z,34.87,48.55,15.0,8.0,100,4,,6.21,30.147638,,,,,,,,,,,CAVOK,,,,,,,,VFR,,,,,,,,,,,,METAR,1742.0
OIFS 242200Z 08004KT 9999 FEW040 16/02 Q1024,OIFS,2023-05-24T22:00:00Z,32.28,50.85,16.0,2.0,80,4,,6.21,30.236221,,,,,,,,,,,FEW,4000,,,,,,,VFR,,,,,,,,,,,,METAR,2042.0
OIFM 242200Z 05004KT 9999 FEW040 24/02 Q1019 A3011,OIFM,2023-05-24T22:00:00Z,32.75,51.87,24.0,2.0,50,4,,6.21,30.088583,,,,,,,,,,,FEW,4000,,,,,,,VFR,,,,,,,,,,,,METAR,1539.0
OICS 242200Z 14004KT CAVOK 17/10 Q1019 A3012,OICS,2023-05-24T22:00:00Z,35.25,47.02,17.0,10.0,140,4,,6.21,30.088583,,,,,,,,,,,CAVOK,,,,,,,,VFR,,,,,,,,,,,,METAR,1369.0
OICK 242200Z 00000KT CAVOK 17/10 Q1016,OICK,2023-05-24T22:00:00Z,33.43,48.28,17.0,10.0,0,0,,6.21,30.0,,,,,,,,,,,CAVOK,,,,,,,,VFR,,,,,,,,,,,,METAR,1156.0
OICI 242200Z 09004KT 8000 NSC 21/08 Q1018 A3008,OICI,2023-05-24T22:00:00Z,33.58,46.4,21.0,8.0,90,4,,4.97,30.059055,,,,,,,,,,,CLR,,,,,,,,MVFR,,,,,,,,,,,,METAR,1323.0
OICC 242200Z 08006KT CAVOK 16/10 Q1020 A3013,OICC,2023-05-24T22:00:00Z,34.35,47.17,16.0,10.0,80,6,,6.21,30.11811,,,,,,,,,,,CAVOK,,,,,,,,VFR,,,,,,,,,,,,METAR,1310.0
OIBK 242200Z 26004KT 2000 BR NSC 27/26 Q1004,OIBK,2023-05-24T22:00:00Z,26.53,53.98,27.0,26.0,260,4,,1.24,29.64567,,,,,,,,,,BR,CLR,,,,,,,,IFR,,,,,,,,,,,,METAR,27.0
OIBB 242200Z 00000KT CAVOK 28/17 Q1005 A2968,OIBB,2023-05-24T22:00:00Z,28.93,50.83,28.0,17.0,0,0,,6.21,29.675198,,,,,,,,,,,CAVOK,,,,,,,,VFR,,,,,,,,,,,,METAR,15.0
OIAW 242200Z 25006KT CAVOK 34/14 Q1005,OIAW,2023-05-24T22:00:00Z,31.33,48.77,34.0,14.0,250,6,,6.21,29.675198,,,,,,,,,,,CAVOK,,,,,,,,VFR,,,,,,,,,,,,METAR,25.0
OIAM 242200Z 00000KT CAVOK 31/21 Q1005,OIAM,2023-05-24T22:00:00Z,30.55,49.15,31.0,21.0,0,0,,6.21,29.675198,,,,,,,,,,,CAVOK,,,,,,,,VFR,,,,,,,,,,,,METAR,7.0
OIAH 242200Z 00000KT CAVOK 25/07 Q1012,OIAH,2023-05-24T22:00:00Z,30.33,50.83,25.0,7.0,0,0,,6.21,29.88189,,,,,,,,,,,CAVOK,,,,,,,,VFR,,,,,,,,,,,,METAR,730.0
OIAA 242200Z 27021KT 3000 SA NSC 34/13 Q1006,OIAA,2023-05-24T22:00:00Z,30.35,48.22,34.0,13.0,270,21,,1.86,29.704725,,,,,,,,,,SA,CLR,,,,,,,,IFR,,,,,,,,,,,,METAR,4.0
OEYN 242200Z 10006KT CAVOK 30/20 Q1005 NOSIG,OEYN,2023-05-24T22:00:00Z,24.13,38.07,30.0,20.0,100,6,,6.21,29.675198,,,,,,TRUE,,,,,CAVOK,,,,,,,,VFR,,,,,,,,,,,,METAR,20.0
OEWJ 242200Z 16004KT CAVOK 29/20 Q1007 NOSIG,OEWJ,2023-05-24T22:00:00Z,26.18,36.47,29.0,20.0,160,4,,6.21,29.734253,,,,,,TRUE,,,,,CAVOK,,,,,,,,VFR,,,,,,,,,,,,METAR,8.0
OEWD 242200Z 34006KT CAVOK 30/09 Q1010,OEWD,2023-05-24T22:00:00Z,20.5,45.2,30.0,9.0,340,6,,6.21,29.822834,,,,,,,,,,,CAVOK,,,,,,,,VFR,,,,,,,,,,,,METAR,629.0
OETR 242200Z 09006KT 9999 SCT040 21/12 Q1013 NOSIG,OETR,2023-05-24T22:00:00Z,31.7,38.73,21.0,12.0,90,6,,6.21,29.911417,,,,,,TRUE,,,,,SCT,4000,,,,,,,VFR,,,,,,,,,,,,METAR,854.0
OETF 242200Z 24004KT CAVOK 20/13 Q1020,OETF,2023-05-24T22:00:00Z,21.47,40.53,20.0,13.0,240,4,,6.21,30.11811,,,,,,,,,,,CAVOK,,,,,,,,VFR,,,,,,,,,,,,METAR,1460.0
OETB 242200Z 00000KT CAVOK 26/M05 Q1012 NOSIG,OETB,2023-05-24T22:00:00Z,28.37,36.62,26.0,-5.0,0,0,,6.21,29.88189,,,,,,TRUE,,,,,CAVOK,,,,,,,,VFR,,,,,,,,,,,,METAR,770.0
OESK 242200Z 10005KT CAVOK 25/08 Q1014 NOSIG,OESK,2023-05-24T22:00:00Z,29.78,40.1,25.0,8.0,100,5,,6.21,29.940945,,,,,,TRUE,,,,,CAVOK,,,,,,,,VFR,,,,,,,,,,,,METAR,671.0
OESH 242200Z 00000KT 9000 FEW040 31/12 Q1011 NOSIG,OESH,2023-05-24T22:00:00Z,17.47,47.12,31.0,12.0,0,0,,5.59,29.852362,,,,,,TRUE,,,,,FEW,4000,,,,,,,VFR,,,,,,,,,,,,METAR,720.0
OERR 242200Z 02006KT 9999 FEW030 26/07 Q1010 NOSIG,OERR,2023-05-24T22:00:00Z,30.9,41.13,26.0,7.0,20,6,,6.21,29.822834,,,,,,TRUE,,,,,FEW,3000,,,,,,,VFR,,,,,,,,,,,,METAR,554.0
OERK 242200Z 09004KT CAVOK 29/11 Q1012 NOSIG,OERK,2023-05-24T22:00:00Z,24.95,46.72,29.0,11.0,90,4,,6.21,29.88189,,,,,,TRUE,,,,,CAVOK,,,,,,,,VFR,,,,,,,,,,,,METAR,618.0
OERF 242200Z 12006KT 9999 BKN040 26/11 Q1010 NOSIG,OERF,2023-05-24T22:00:00Z,29.62,43.48,26.0,11.0,120,6,,6.21,29.822834,,,,,,TRUE,,,,,BKN,4000,,,,,,,VFR,,,,,,,,,,,,METAR,441.0
OEPA 242200Z 03014KT 9999 BKN035 32/15 Q1009 NOSIG,OEPA,2023-05-24T22:00:00Z,28.33,46.12,32.0,15.0,30,14,,6.21,29.793306,,,,,,TRUE,,,,,BKN,3500,,,,,,,VFR,,,,,,,,,,,,METAR,361.0
OENG 242200Z 25002KT 9999 SCT030 SCT090 27/12 Q1016 NOSIG,OENG,2023-05-24T22:00:00Z,17.62,44.42,27.0,12.0,250,2,,6.21,30.0,,,,,,TRUE,,,,,SCT,3000,SCT,9000,,,,,VFR,,,,,,,,,,,,METAR,1210.0
OEMN 242200Z 00000KT CAVOK 32/18 Q1010,OEMN,2023-05-24T22:00:00Z,,,32.0,18.0,0,0,,6.21,29.822834,,,,,,,,,,,CAVOK,,,,,,,,VFR,,,,,,,,,,,,METAR,
OEMA 242200Z 34003KT 9999 FEW040 26/16 Q1014 NOSIG,OEMA,2023-05-24T22:00:00Z,24.55,39.7,26.0,16.0,340,3,,6.21,29.940945,,,,,,TRUE,,,,,FEW,4000,,,,,,,VFR,,,,,,,,,,,,METAR,639.0
OEKM 242200Z 00000KT 9999 FEW022 19/12 Q1024 NOSIG,OEKM,2023-05-24T22:00:00Z,18.3,42.78,19.0,12.0,0,0,,6.21,30.236221,,,,,,TRUE,,,,,FEW,2200,,,,,,,VFR,,,,,,,,,,,,METAR,2038.0
OEKJ 242200Z 18006KT CAVOK 32/02 Q1013,OEKJ,2023-05-24T22:00:00Z,24.07,47.58,32.0,2.0,180,6,,6.21,29.911417,,,,,,,,,,,CAVOK,,,,,,,,VFR,,,,,,,,,,,,METAR,487.0
OEJN 242200Z 30006KT CAVOK 32/23 Q1007 NOSIG,OEJN,2023-05-24T22:00:00Z,21.68,39.15,32.0,23.0,300,6,,6.21,29.734253,,,,,,TRUE,,,,,CAVOK,,,,,,,,VFR,,,,,,,,,,,,METAR,8.0
OEHL 242200Z 33004KT 6000 FEW040 28/06 Q1015,OEHL,2023-05-24T22:00:00Z,27.43,41.68,28.0,6.0,330,4,,3.73,29.970472,,,,,,,,,,,FEW,4000,,,,,,,MVFR,,,,,,,,,,,,METAR,1002.0
OEGT 242200Z 30006KT CAVOK 22/M05 Q1010 NOSIG,OEGT,2023-05-24T22:00:00Z,31.42,37.27,22.0,-5.0,300,6,,6.21,29.822834,,,,,,TRUE,,,,,CAVOK,,,,,,,,VFR,,,,,,,,,,,,METAR,512.0
OEGS 242200Z 24008KT 9999 SCT040 24/17 Q1013,OEGS,2023-05-24T22:00:00Z,26.3,43.77,24.0,17.0,240,8,,6.21,29.911417,,,,,,,,,,,SCT,4000,,,,,,,VFR,,,,,,,,,,,,METAR,647.0
OEGN 242200Z 06003KT CAVOK 30/21 Q1009 NOSIG,OEGN,2023-05-24T22:00:00Z,16.9,42.58,30.0,21.0,60,3,,6.21,29.793306,,,,,,TRUE,,,,,CAVOK,,,,,,,,VFR,,,,,,,,,,,,METAR,5.0
OEDR 242200Z 26004KT CAVOK 31/17 Q1005,OEDR,2023-05-24T22:00:00Z,26.27,50.17,31.0,17.0,260,4,,6.21,29.675198,,,,,,,,,,,CAVOK,,,,,,,,VFR,,,,,,,,,,,,METAR,17.0
OEDM 242200Z 30012KT 9999 BKN040 23/12 Q1016,OEDM,2023-05-24T22:00:00Z,24.45,44.12,23.0,12.0,300,12,,6.21,30.0,,,,,,,,,,,BKN,4000,,,,,,,VFR,,,,,,,,,,,,METAR,922.0
OEDF 242200Z 25005KT 9999 FEW040 BKN100 32/12 Q1006 NOSIG,OEDF,2023-05-24T22:00:00Z,26.43,49.82,32.0,12.0,250,5,,6.21,29.704725,,,,,,TRUE,,,,,FEW,4000,BKN,10000,,,,,VFR,,,,,,,,,,,,METAR,15.0
OEBH 242200Z 24004KT CAVOK 23/18 Q1016 NOSIG,OEBH,2023-05-24T22:00:00Z,19.98,42.62,23.0,18.0,240,4,,6.21,30.0,,,,,,TRUE,,,,,CAVOK,,,,,,,,VFR,,,,,,,,,,,,METAR,1167.0
OEBA 242200Z 23004KT CAVOK 20/12 Q1021 NOSIG,OEBA,2023-05-24T22:00:00Z,20.3,41.63,20.0,12.0,230,4,,6.21,30.147638,,,,,,TRUE,,,,,CAVOK,,,,,,,,VFR,,,,,,,,,,,,METAR,1659.0
OEAO 242200Z 04004KT CAVOK 29/08 Q1011 NOSIG,OEAO,2023-05-24T22:00:00Z,26.48,38.12,29.0,8.0,40,4,,6.21,29.852362,,,,,,TRUE,,,,,CAVOK,,,,,,,,VFR,,,,,,,,,,,,METAR,615.0
OEAH 242200Z 00000KT CAVOK 30/03 Q1007 NOSIG,OEAH,2023-05-24T22:00:00Z,25.28,49.48,30.0,3.0,0,0,,6.21,29.734253,,,,,,TRUE,,,,,CAVOK,,,,,,,,VFR,,,,,,,,,,,,METAR,180.0
OEAB 242200Z 00000KT 9999 FEW020 18/15 Q1024 NOSIG,OEAB,2023-05-24T22:00:00Z,18.23,42.65,18.0,15.0,0,0,,6.21,30.236221,,,,,,TRUE,,,,,FEW,2000,,,,,,,VFR,,,,,,,,,,,,METAR,2092.0
OBBI 242200Z 11002KT CAVOK 32/20 Q1005 NOSIG,OBBI,2023-05-24T22:00:00Z,26.27,50.63,32.0,20.0,110,2,,6.21,29.675198,,,,,,TRUE,,,,,CAVOK,,,,,,,,VFR,,,,,,,,,,,,METAR,6.0
NZWN 242200Z AUTO 03011KT 9999 NCD 12/09 Q1021,NZWN,2023-05-24T22:00:00Z,-41.32,174.8,12.0,9.0,30,11,,6.21,30.147638,,,TRUE,,,,,,,,CLR,,,,,,,,VFR,,,,,,,,,,,,METAR,12.0
NZCH 242200Z AUTO 04002KT 9999 NCD 07/05 Q1018,NZCH,2023-05-24T22:00:00Z,-43.48,172.52,7.0,5.0,40,2,,6.21,30.059055,,,TRUE,,,,,,,,CLR,,,,,,,,VFR,,,,,,,,,,,,METAR,36.0
NZAA 242200Z AUTO 17005KT 150V210 9999 NCD 13/09 Q1021,NZAA,2023-05-24T22:00:00Z,-37.02,174.8,13.0,9.0,170,5,,6.21,30.147638,,,TRUE,,,,,,,,CLR,,,,,,,,VFR,,,,,,,,,,,,METAR,7.0
NWWW 242200Z AUTO VRB02KT 9999 OVC060 21/14 Q1019 BECMG 15012KT,NWWW,2023-05-24T22:00:00Z,-22.02,166.22,21.0,14.0,0,2,,6.21,30.088583,,,TRUE,,,,,,,,OVC,6000,,,,,,,VFR,,,,,,,,,,,,SPECI,16.0
NVVW 242200Z 18004KT 9999 SCT020 BKN120 24/19 Q1016,NVVW,2023-05-24T22:00:00Z,-19.45,169.22,24.0,19.0,180,4,,6.21,30.0,,,,,,,,,,,SCT,2000,BKN,12000,,,,,VFR,,,,,,,,,,,,METAR,5.0
NVVV 242200Z 12007KT 9999 SCT020 BKN120 24/19 Q1016,NVVV,2023-05-24T22:00:00Z,-17.68,168.3,24.0,19.0,120,7,,6.21,30.0,,,,,,,,,,,SCT,2000,BKN,12000,,,,,VFR,,,,,,,,,,,,METAR,23.0
NVSS 242200Z 14008KT 9999 SCT020 OVC110 26/21 Q1014,NVSS,2023-05-24T22:00:00Z,-15.52,167.22,26.0,21.0,140,8,,6.21,29.940945,,,,,,,,,,,SCT,2000,OVC,11000,,,,,VFR,,,,,,,,,,,,METAR,47.0
NVSG 242200Z 12010KT 9999 SCT020 BKN040 27/21 Q1014,NVSG,2023-05-24T22:00:00Z,-15.3,167.97,27.0,21.0,120,10,,6.21,29.940945,,,,,,,,,,,SCT,2000,BKN,4000,,,,,VFR,,,,,,,,,,,,METAR,31.0
NTAA 242200Z 22008KT 9999 FEW023 29/22 Q1012 NOSIG,NTAA,2023-05-24T22:00:00Z,-17.55,-149.62,29.0,22.0,220,8,,6.21,29.88189,,,,,,TRUE,,,,,FEW,2300,,,,,,,VFR,,,,,,,,,,,,METAR,2.0
NSFA 242200Z 08007KT 9999 FEW022 BKN150 27/25 Q1011,NSFA,2023-05-24T22:00:00Z,-13.83,-172.0,27.0,25.0,80,7,,6.21,29.852362,,,,,,,,,,,FEW,2200,BKN,15000,,,,,VFR,,,,,,,,,,,,METAR,6.0
NLWW 242200Z 10007KT 080V140 9999 -RA BKN016 BKN025 27/25 Q1011 TEMPO SHRA BKN012 FEW020TCU,NLWW,2023-05-24T22:00:00Z,-13.23,-176.18,27.0,25.0,100,7,,6.21,29.852362,,,,,,,,,,-RA,BKN,1600,BKN,2500,,,,,MVFR,,,,,,,,,,,,METAR,24.0
NIUE 242200Z 19007KT 160V220 9999 SCT017 BKN029 BKN100 24/23 Q1012,NIUE,2023-05-24T22:00:00Z,-19.07,-169.92,24.0,23.0,190,7,,6.21,29.88189,,,,,,,,,,,SCT,1700,BKN,2900,BKN,10000,,,MVFR,,,,,,,,,,,,METAR,22.0
NGTA 242200Z 20005KT 9999 FEW019 SCT100 29/26 Q1011,NGTA,2023-05-24T22:00:00Z,1.37,173.13,29.0,26.0,200,5,,6.21,29.852362,,,,,,,,,,,FEW,1900,SCT,10000,,,,,VFR,,,,,,,,,,,,METAR,8.0
NGFU 242200Z 02007KT 9999 FEW018TCU SCT020 31/30 Q1010,NGFU,2023-05-24T22:00:00Z,-8.52,179.18,31.0,30.0,20,7,,6.21,29.822834,,,,,,,,,,,FEW,1800,SCT,2000,,,,,VFR,,,,,,,,,,,,METAR,2.0
NFTV 242200Z 18005KT 9999 FEW017 BKN120 26/20 Q1013,NFTV,2023-05-24T22:00:00Z,-18.58,-173.97,26.0,20.0,180,5,,6.21,29.911417,,,,,,,,,,,FEW,1700,BKN,12000,,,,,VFR,,,,,,,,,,,,METAR,71.0
NFTL 242200Z VRB02KT 9999 FEW017 SCT300 27/19 Q1013,NFTL,2023-05-24T22:00:00Z,-19.78,-174.33,27.0,19.0,0,2,,6.21,29.911417,,,,,,,,,,,FEW,1700,SCT,30000,,,,,VFR,,,,,,,,,,,,METAR,10.0
NFTF 242200Z 20005KT 9999 FEW018 SCT120 26/20 Q1013,NFTF,2023-05-24T22:00:00Z,-21.23,-175.15,26.0,20.0,200,5,,6.21,29.911417,,,,,,,,,,,FEW,1800,SCT,12000,,,,,VFR,,,,,,,,,,,,METAR,38.0
NFNS 242200Z 13008KT 9999 SCT020 BKN045 BKN110 26/20 Q1013,NFNS,2023-05-24T22:00:00Z,-16.82,179.33,26.0,20.0,130,8,,6.21,29.911417,,,,,,,,,,,SCT,2000,BKN,4500,BKN,11000,,,VFR,,,,,,,,,,,,METAR,4.0
NFNM 242200Z 16014KT 9999 FEW018 SCT048 BKN110 26/21 Q1012,NFNM,2023-05-24T22:00:00Z,-16.68,-179.87,26.0,21.0,160,14,,6.21,29.88189,,,,,,,,,,,FEW,1800,SCT,4800,BKN,11000,,,VFR,,,,,,,,,,,,METAR,21.0
NFNL 242200Z 11009KT 9999 4900SE VCSH FEW025 SCT048 BKN110 26/20 Q1013,NFNL,2023-05-24T22:00:00Z,-16.47,179.33,26.0,20.0,110,9,,6.21,29.911417,,,,,,,,,,VCSH,FEW,2500,SCT,4800,BKN,11000,,,VFR,,,,,,,,,,,,METAR,17.0
NFNA 242200Z 20005KT 9999 BKN018 BKN045 24/21 Q1014,NFNA,2023-05-24T22:00:00Z,-18.05,178.57,24.0,21.0,200,5,,6.21,29.940945,,,,,,,,,,,BKN,1800,BKN,4500,,,,,MVFR,,,,,,,,,,,,METAR,6.0
NFFN 242200Z 12007KT 9999 FEW028 BKN050 26/19 Q1014 NOSIG,NFFN,2023-05-24T22:00:00Z,-17.75,177.45,26.0,19.0,120,7,,6.21,29.940945,,,,,,TRUE,,,,,FEW,2800,BKN,5000,,,,,VFR,,,,,,,,,,,,METAR,14.0
NCSW 242200Z AUTO NIL,NCSW,2023-05-24T22:00:00Z,,,,,,,,,,,,TRUE,,,,,,,,,,,,,,,,,,,,,,,,,,,,METAR,
NCRK 242200Z AUTO NIL,NCRK,2023-05-24T22:00:00Z,-10.02,-161.1,,,,,,,,,,TRUE,,,,,,,,,,,,,,,,,,,,,,,,,,,,METAR,7.0
NCRG 242200Z AUTO 29012KT 9999 NCD 27/22 Q1011,NCRG,2023-05-24T22:00:00Z,-21.2,-159.82,27.0,22.0,290,12,,6.21,29.852362,,,TRUE,,,,,,,,CLR,,,,,,,,VFR,,,,,,,,,,,,METAR,7.0
NCPY 242200Z AUTO NIL,NCPY,2023-05-24T22:00:00Z,-9.02,-158.03,,,,,,,,,,TRUE,,,,,,,,,,,,,,,,,,,,,,,,,,,,METAR,2.0
NCPL 242200Z AUTO NIL,NCPL,2023-05-24T22:00:00Z,1.98,-157.48,,,,,,,,,,TRUE,,,,,,,,,,,,,,,,,,,,,,,,,,,,METAR,3.0
NCPK 242200Z AUTO NIL,NCPK,2023-05-24T22:00:00Z,-10.9,-165.83,,,,,,,,,,TRUE,,,,,,,,,,,,,,,,,,,,,,,,,,,,METAR,5.0
NCNS 242200Z AUTO NIL,NCNS,2023-05-24T22:00:00Z,,,,,,,,,,,,TRUE,,,,,,,,,,,,,,,,,,,,,,,,,,,,METAR,
NCMR 242200Z AUTO 27002KT //// ////// ///// Q1010,NCMR,2023-05-24T22:00:00Z,-19.85,-157.7,,,270,2,,,29.822834,,,TRUE,,,,,,,,,,,,,,,,,,,,,,,,,,,,METAR,8.0
NCMK 242200Z AUTO 34004KT //// ////// 28/21 Q1010,NCMK,2023-05-24T22:00:00Z,-20.15,-157.33,28.0,21.0,340,4,,,29.822834,,,TRUE,,,,,,,,,,,,,,,,,,,,,,,,,,,,METAR,13.0
NCMH 242200Z AUTO NIL,NCMH,2023-05-24T22:00:00Z,-10.38,-161.0,,,,,,,,,,TRUE,,,,,,,,,,,,,,,,,,,,,,,,,,,,METAR,1.0
NCMG 242200Z AUTO 30007KT //// ////// ///// Q////,NCMG,2023-05-24T22:00:00Z,-21.88,-157.9,,,300,7,,,,,,TRUE,,,,,,,,,,,,,,,,,,,,,,,,,,,,METAR,14.0
NCAT 242200Z AUTO NIL,NCAT,2023-05-24T22:00:00Z,-19.97,-158.12,,,,,,,,,,TRUE,,,,,,,,,,,,,,,,,,,,,,,,,,,,METAR,11.0
NCAI 242200Z AUTO 36004KT //// ////// 28/23 Q1011,NCAI,2023-05-24T22:00:00Z,-18.82,-159.77,28.0,23.0,360,4,,,29.852362,,,TRUE,,,,,,,,,,,,,,,,,,,,,,,,,,,,METAR,7.0
MZBZ 242200Z 15008KT 9999 FEW027 32/25 A2973 Q1006 NOSIG RMK FU-SW CB TOP-N/NW,MZBZ,2023-05-24T22:00:00Z,17.53,-88.3,32.0,25.0,150,8,,6.21,29.704725,,,,,,TRUE,,,,,FEW,2700,,,,,,,VFR,,,,,,,,,,,,METAR,6.0
MYNN 242200Z 19006KT 9999 SCT016CB SCT018TCU BKN220 29/22 A2978,MYNN,2023-05-24T22:00:00Z,25.03,-77.47,29.0,22.0,190,6,,6.21,29.778543,,,,,,,,,,,SCT,1600,SCT,1800,BKN,22000,,,VFR,,,,,,,,,,,,METAR,5.0
MYGF 242200Z 06007KT 030V100 9999 -TSRA FEW015CB BKN18TCU OVC080 23/22 A2977,MYGF,2023-05-24T22:00:00Z,26.55,-78.7,23.0,22.0,60,7,,6.21,29.769686,,,,,,,,,,-TSRA,FEW,1500,OVC,8000,,,,,VFR,,,,,,,,,,,,SPECI,2.0
MWCR 242200Z 23008KT 9999 SCT018 30/22 Q1007,MWCR,2023-05-24T22:00:00Z,19.3,-81.37,30.0,22.0,230,8,,6.21,29.734253,,,,,,,,,,,SCT,1800,,,,,,,VFR,,,,,,,,,,,,METAR,4.0
MWCB 242200Z 22010KT 9999 SCT016 30/23 Q1007,MWCB,2023-05-24T22:00:00Z,19.68,-79.88,30.0,23.0,220,10,,6.21,29.734253,,,,,,,,,,,SCT,1600,,,,,,,VFR,,,,,,,,,,,,METAR,7.0
MTPP 242200Z 07006KT 010V150 9000 SCT025CB 30/23 Q1008 A2976 RMK/CB/S,MTPP,2023-05-24T22:00:00Z,18.57,-72.3,30.0,23.0,70,6,,5.59,29.763779,,,,,,,,,,,SCT,2500,,,,,,,VFR,,,,,,,,,,,,METAR,36.0
MROC 242200Z 20006KT 140V240 9999 TSRA SCT015CB BKN020 26/22 A2989 NOSIG,MROC,2023-05-24T22:00:00Z,10.0,-84.22,26.0,22.0,200,6,,6.21,29.890747,,,,,,TRUE,,,,TSRA,SCT,1500,BKN,2000,,,,,MVFR,,,,,,,,,,,,METAR,900.0
MRLM 242200Z 07007KT 9999 SCT020 BKN120 30/25 A2975,MRLM,2023-05-24T22:00:00Z,9.97,-83.03,30.0,25.0,70,7,,6.21,29.749016,,,,,,,,,,,SCT,2000,BKN,12000,,,,,VFR,,,,,,,,,,,,METAR,2.0
MRLB 242200Z 26012KT 9999 FEW040 SCT250 33/22 A2970,MRLB,2023-05-24T22:00:00Z,10.6,-85.55,33.0,22.0,260,12,,6.21,29.698818,,,,,,,,,,,FEW,4000,SCT,25000,,,,,VFR,,,,,,,,,,,,METAR,79.0
MPTO 242200Z 25007KT 9999 SCT018 SCT090 28/25 Q1006 NOSIG,MPTO,2023-05-24T22:00:00Z,9.05,-79.38,28.0,25.0,250,7,,6.21,29.704725,,,,,,TRUE,,,,,SCT,1800,SCT,9000,,,,,VFR,,,,,,,,,,,,METAR,7.0
MPSM 242200Z 12007KT 9999 FEW025 30/24 Q1006,MPSM,2023-05-24T22:00:00Z,8.38,-80.13,30.0,24.0,120,7,,6.21,29.704725,,,,,,,,,,,FEW,2500,,,,,,,VFR,,,,,,,,,,,,METAR,36.0
MPPA 242200Z 00000KT 9999 FEW018 27/25 Q1006 RETS,MPPA,2023-05-24T22:00:00Z,8.92,-79.6,27.0,25.0,0,0,,6.21,29.704725,,,,,,,,,,,FEW,1800,,,,,,,VFR,,,,,,,,,,,,METAR,1.0
MPMG 242200Z VRB02KT 9999 SCT018 SCT090 26/23 Q1006 RETS NOSIG,MPMG,2023-05-24T22:00:00Z,8.98,-79.57,26.0,23.0,0,2,,6.21,29.704725,,,,,,TRUE,,,,,SCT,1800,SCT,9000,,,,,VFR,,,,,,,,,,,,METAR,6.0
MPDA 242200Z VRB01KT 9999 SCT014 SCT100 29/25 Q1007,MPDA,2023-05-24T22:00:00Z,8.4,-82.43,29.0,25.0,0,1,,6.21,29.734253,,,,,,,,,,,SCT,1400,SCT,10000,,,,,VFR,,,,,,,,,,,,METAR,15.0
MPBO 242200Z 02003KT 9000 VCSH FEW009 SCT018CB SCT090 29/27 Q1007,MPBO,2023-05-24T22:00:00Z,9.35,-82.25,29.0,27.0,20,3,,5.59,29.734253,,,,,,,,,,VCSH,FEW,900,SCT,1800,SCT,9000,,,VFR,,,,,,,,,,,,METAR,2.0
MNRS 242200Z 00000KT 9000 FEW015CB BKN200 33/24 Q1005 CB/S,MNRS,2023-05-24T22:00:00Z,11.42,-85.82,33.0,24.0,0,0,,5.59,29.675198,,,,,,,,,,,FEW,1500,BKN,20000,,,,,VFR,,,,,,,,,,,,METAR,53.0
MNPC 242200Z 10006KT 7000 FEW016 31/26 Q1006 HZ,MNPC,2023-05-24T22:00:00Z,14.05,-83.38,31.0,26.0,100,6,,4.35,29.704725,,,,,,,,,,HZ,FEW,1600,,,,,,,MVFR,,,,,,,,,,,,METAR,10.0
MNMG 242200Z 33006KT 8000 FEW025TCU SCT300 34/23 Q1005 A2968 FU TCU N NOSIG,MNMG,2023-05-24T22:00:00Z,12.15,-86.17,34.0,23.0,330,6,,4.97,29.675198,,,,,,TRUE,,,,FU,FEW,2500,SCT,30000,,,,,MVFR,,,,,,,,,,,,METAR,59.0
MNJU 242200Z 22004KT 9999 FEW020 35/24 Q1006,MNJU,2023-05-24T22:00:00Z,12.08,-85.37,35.0,24.0,220,4,,6.21,29.704725,,,,,,,,,,,FEW,2000,,,,,,,VFR,,,,,,,,,,,,METAR,85.0
MNJG 242200Z 00000KT 9999 BKN020 29/17 Q1007,MNJG,2023-05-24T22:00:00Z,13.13,-86.02,29.0,17.0,0,0,,6.21,29.734253,,,,,,,,,,,BKN,2000,,,,,,,MVFR,,,,,,,,,,,,METAR,981.0
MNCH 242200Z 18004KT 9999 FEW025 SCT300 32/24 Q1006,MNCH,2023-05-24T22:00:00Z,12.63,-87.13,32.0,24.0,180,4,,6.21,29.704725,,,,,,,,,,,FEW,2500,SCT,30000,,,,,VFR,,,,,,,,,,,,METAR,70.0
MNBL 242200Z 13004KT 9999 FEW025 30/25 Q1007,MNBL,2023-05-24T22:00:00Z,12.0,-83.77,30.0,25.0,130,4,,6.21,29.734253,,,,,,,,,,,FEW,2500,,,,,,,VFR,,,,,,,,,,,,METAR,10.0
MKJS 242200Z 12003KT 9999 -SHRA BKN020 FEW022CB 26/24 Q1007,MKJS,2023-05-24T22:00:00Z,18.5,-77.92,26.0,24.0,120,3,,6.21,29.734253,,,,,,,,,,-SHRA,BKN,2000,FEW,2200,,,,,MVFR,,,,,,,,,,,,METAR,3.0
MKJP 242200Z 20005KT 9999 FEW020 FEW022CB 30/25 Q1008,MKJP,2023-05-24T22:00:00Z,17.93,-76.78,30.0,25.0,200,5,,6.21,29.763779,,,,,,,,,,,FEW,2000,FEW,2200,,,,,VFR,,,,,,,,,,,,METAR,3.0
MHYR 242200Z 36006KT 9999 SCT025TCU 34/17,MHYR,2023-05-24T22:00:00Z,15.13,-87.13,34.0,17.0,360,6,,6.21,,,,,,,,,,,,SCT,2500,,,,,,,VFR,,,,,,,,,,,,METAR,682.0
MHTR 242200Z 00000KT 9999 FEW025 32/22,MHTR,2023-05-24T22:00:00Z,15.93,-85.93,32.0,22.0,0,0,,6.21,,,,,,,,,,,,FEW,2500,,,,,,,VFR,,,,,,,,,,,,METAR,3.0
MHTG 242200Z 18005KT 7000 3000SW FU FEW032TCU FEW034CB 29/20 Q1013 A2991 NOSIG,MHTG,2023-05-24T22:00:00Z,14.07,-87.22,29.0,20.0,180,5,,4.35,29.911417,,,,,,TRUE,,,,FU,FEW,3200,FEW,3400,,,,,MVFR,,,,,,,,,,,,METAR,1001.0
MHTE 242200Z VRB02KT 9999 FEW024 32/23 Q1006,MHTE,2023-05-24T22:00:00Z,15.78,-87.48,32.0,23.0,0,2,,6.21,29.704725,,,,,,,,,,,FEW,2400,,,,,,,VFR,,,,,,,,,,,,METAR,7.0
MHSR 242200Z 04008KT 9999 FEW035TCU 32/15,MHSR,2023-05-24T22:00:00Z,14.78,-88.78,32.0,15.0,40,8,,6.21,,,,,,,,,,,,FEW,3500,,,,,,,VFR,,,,,,,,,,,,METAR,1087.0
MHRO 242200Z 11007KT 9999 FEW024 31/23 Q1007 A2974 NOSIG,MHRO,2023-05-24T22:00:00Z,16.32,-86.53,31.0,23.0,110,7,,6.21,29.734253,,,,,,TRUE,,,,,FEW,2400,,,,,,,VFR,,,,,,,,,,,,METAR,6.0
MHPR 242200Z 36018KT 3000 FU SCT050 36/13 Q1009 A2982 NOSIG,MHPR,2023-05-24T22:00:00Z,14.38,-87.62,36.0,13.0,360,18,,1.86,29.793306,,,,,,TRUE,,,,FU,SCT,5000,,,,,,,IFR,,,,,,,,,,,,METAR,628.0
MHPL 242200Z 05010KT 9999 FEW026 32/24 Q1008,MHPL,2023-05-24T22:00:00Z,15.27,-83.78,32.0,24.0,50,10,,6.21,29.763779,,,,,,,,,,,FEW,2600,,,,,,,VFR,,,,,,,,,,,,METAR,13.0
MHNO 242200Z 34006KT 9999 FEW040TCU 35/16,MHNO,2023-05-24T22:00:00Z,14.43,-89.18,35.0,16.0,340,6,,6.21,,,,,,,,,,,,FEW,4000,,,,,,,VFR,,,,,,,,,,,,METAR,790.0
MHLM 242200Z 03012KT 9999 FEW030 34/20 Q1006 A2971 NOSIG,MHLM,2023-05-24T22:00:00Z,15.45,-87.93,34.0,20.0,30,12,,6.21,29.704725,,,,,,TRUE,,,,,FEW,3000,,,,,,,VFR,,,,,,,,,,,,METAR,32.0
MHLE 242200Z 00000KT 9999 SCT024TCU 25/15,MHLE,2023-05-24T22:00:00Z,14.28,-88.17,25.0,15.0,0,0,,6.21,,,,,,,,,,,,SCT,2400,,,,,,,VFR,,,,,,,,,,,,METAR,1688.0
MHLC 242200Z 02007KT 9999 FEW030 31/22 Q1007 A2974 NOSIG,MHLC,2023-05-24T22:00:00Z,15.75,-86.85,31.0,22.0,20,7,,6.21,29.734253,,,,,,TRUE,,,,,FEW,3000,,,,,,,VFR,,,,,,,,,,,,METAR,13.0
MHGS 242200Z 32006KT 9999 SCT044TCU 32/22,MHGS,2023-05-24T22:00:00Z,14.57,-88.6,32.0,22.0,320,6,,6.21,,,,,,,,,,,,SCT,4400,,,,,,,VFR,,,,,,,,,,,,METAR,913.0
MHCH 242200Z 20010KT 9999 SCT034 34/24,MHCH,2023-05-24T22:00:00Z,13.32,-87.15,34.0,24.0,200,10,,6.21,,,,,,,,,,,,SCT,3400,,,,,,,VFR,,,,,,,,,,,,METAR,58.0
MHCA 242200Z VRB02KT 9999 FEW030 35/21 Q1008,MHCA,2023-05-24T22:00:00Z,14.87,-85.78,35.0,21.0,0,2,,6.21,29.763779,,,,,,,,,,,FEW,3000,,,,,,,VFR,,,,,,,,,,,,METAR,386.0
MGZA 242200Z 09010KT CAVOK 38/18 QFE980/1 SCT200,MGZA,2023-05-24T22:00:00Z,14.97,-89.53,38.0,18.0,90,10,,6.21,,,,,,,,,,,,SCT,20000,,,,,,,VFR,,,,,,,,,,,,METAR,195.0
MGTU 242200Z 32004KT 8000 FEW018 FEW022CB 34/22 HZ CB N/NE,MGTU,2023-05-24T22:00:00Z,,,34.0,22.0,320,4,,4.97,,,,,,,,,,,HZ,FEW,1800,FEW,2200,,,,,MVFR,,,,,,,,,,,,METAR,
MGRT 242200Z 34012KT 7000 TSRA SCT016 FEW035CB OVC090 28/27 Q1010 A2983 CB/TS/NW/NNW VOL. STA MARIA Y SANTIAGUITO EN ACTIVIDAD,MGRT,2023-05-24T22:00:00Z,14.53,-91.7,28.0,27.0,340,12,,4.35,29.822834,,,,,,,,,,TSRA TS SA,SCT,1600,FEW,3500,OVC,9000,,,MVFR,,,,,,,,,,,,METAR,209.0
MGQZ 242200Z 14006KT 9999 OVC018 20/13 QFE771/0,MGQZ,2023-05-24T22:00:00Z,14.87,-91.5,20.0,13.0,140,6,,6.21,,,,,,,,,,,,OVC,1800,,,,,,,MVFR,,,,,,,,,,,,METAR,2378.0
MGPB 242200Z 04006KT 9999 FEW018 SCT200 34/25 Q1005 A2968,MGPB,2023-05-24T22:00:00Z,15.73,-88.58,34.0,25.0,40,6,,6.21,29.675198,,,,,,,,,,,FEW,1800,SCT,20000,,,,,VFR,,,,,,,,,,,,METAR,6.0
MGMT 242200Z 18004KT 8000 FEW014 SCT070 31/25 HZ,MGMT,2023-05-24T22:00:00Z,,,31.0,25.0,180,4,,4.97,,,,,,,,,,,HZ,FEW,1400,SCT,7000,,,,,MVFR,,,,,,,,,,,,METAR,
MGMM 242200Z 34004KT 9999 FEW020 36/22 Q1008 A2977,MGMM,2023-05-24T22:00:00Z,16.9,-89.87,36.0,22.0,340,4,,6.21,29.763779,,,,,,,,,,,FEW,2000,,,,,,,VFR,,,,,,,,,,,,METAR,105.0
MGHT 242200Z 27004KT 9999 BKN025 28/12,MGHT,2023-05-24T22:00:00Z,15.32,-91.5,28.0,12.0,270,4,,6.21,,,,,,,,,,,,BKN,2500,,,,,,,MVFR,,,,,,,,,,,,METAR,1875.0
MGGT 242200Z 18012KT 8000 FEW020TCU FEW025CB SCT200 27/18 Q1016 A3000 HZ CB/TCU/ENE/E/SE/SE/S,MGGT,2023-05-24T22:00:00Z,14.58,-90.53,27.0,18.0,180,12,,4.97,30.0,,,,,,,,,,HZ,FEW,2000,FEW,2500,SCT,20000,,,MVFR,,,,,,,,,,,,METAR,1497.0
MGES 242200Z 00000KT 9999 SCT020 SCT200 32/16 QFE905.5,MGES,2023-05-24T22:00:00Z,14.57,-89.32,32.0,16.0,0,0,,6.21,,,,,,,,,,,,SCT,2000,SCT,20000,,,,,VFR,,,,,,,,,,,,METAR,948.0
MGCB 242200Z 02004KT 9999 SCT018 SCT200 28/20 QFE867.8,MGCB,2023-05-24T22:00:00Z,15.48,-90.42,28.0,20.0,20,4,,6.21,,,,,,,,,,,,SCT,1800,SCT,20000,,,,,VFR,,,,,,,,,,,,METAR,1323.0
MDST 242200Z VRB03KT 8000 -TSRA FEW15CB BKN016 OVC070 25/24 Q1010 CB/NE/S/SW/W/NW/N,MDST,2023-05-24T22:00:00Z,19.4,-70.6,25.0,24.0,0,3,,4.97,29.822834,,,,,,,,,,-TSRA,BKN,1600,OVC,7000,,,,,MVFR,,,,,,,,,,,,SPECI,175.0
MDSD 242200Z 00000KT 9999 FEW016CB SCT018 BKN300 27/25 Q1010 CB/SW/NW/N,MDSD,2023-05-24T22:00:00Z,18.42,-69.67,27.0,25.0,0,0,,6.21,29.822834,,,,,,,,,,,FEW,1600,SCT,1800,BKN,30000,,,VFR,,,,,,,,,,,,METAR,18.0
MDPP 242200Z 00000KT 9999 FEW016CB BKN018 23/23 Q1009 CB/E/S/SW/W/N,MDPP,2023-05-24T22:00:00Z,19.75,-70.57,23.0,23.0,0,0,,6.21,29.793306,,,,,,,,,,,FEW,1600,BKN,1800,,,,,MVFR,,,,,,,,,,,,SPECI,9.0
MDPC 242200Z 18008KT 9999 FEW016CB FEW018 BKN300 29/24 Q1010 CB/NW,MDPC,2023-05-24T22:00:00Z,18.57,-68.37,29.0,24.0,180,8,,6.21,29.822834,,,,,,,,,,,FEW,1600,FEW,1800,BKN,30000,,,VFR,,,,,,,,,,,,SPECI,10.0
MDLR 242200Z 00000KT 9999 SCT018 BKN070 28/26 Q1009,MDLR,2023-05-24T22:00:00Z,18.45,-68.92,28.0,26.0,0,0,,6.21,29.793306,,,,,,,,,,,SCT,1800,BKN,7000,,,,,VFR,,,,,,,,,,,,METAR,66.0
MDJB 242200Z 18006KT 6000 TSRA FEW010CB BKN012 BKN070 24/21 Q1009 CB NE/E/S/W/N,MDJB,2023-05-24T22:00:00Z,18.57,-69.98,24.0,21.0,180,6,,3.73,29.793306,,,,,,,,,,TSRA,FEW,1000,BKN,1200,BKN,7000,,,MVFR,,,,,,,,,,,,METAR,24.0
MDCY 242200Z 18008KT 9999 SCT018 BNK300 26/24 Q1009,MDCY,2023-05-24T22:00:00Z,19.27,-69.73,26.0,24.0,180,8,,6.21,29.793306,,,,,,,,,,,SCT,1800,,,,,,,VFR,,,,,,,,,,,,METAR,4.0
MDBH 242200Z 13008KT 9999 FEW018CB SCT020 SCT080 BKN300 29/25 Q1009 CB/E/SE/W/NW,MDBH,2023-05-24T22:00:00Z,18.25,-71.12,29.0,25.0,130,8,,6.21,29.793306,,,,,,,,,,,FEW,1800,SCT,2000,SCT,8000,BKN,30000,VFR,,,,,,,,,,,,METAR,7.0
LZZI 242200Z 06004KT 9999 OVC020 12/10 Q1020,LZZI,2023-05-24T22:00:00Z,49.23,18.62,12.0,10.0,60,4,,6.21,30.11811,,,,,,,,,,,OVC,2000,,,,,,,MVFR,,,,,,,,,,,,METAR,311.0
LZTT 242200Z VRB01KT 9000 BKN008 11/11 Q1020,LZTT,2023-05-24T22:00:00Z,49.07,20.25,11.0,11.0,0,1,,5.59,30.11811,,,,,,,,,,,BKN,800,,,,,,,IFR,,,,,,,,,,,,METAR,693.0
LZPP 242200Z AUTO 34014KT 9999 14/11 Q1018,LZPP,2023-05-24T22:00:00Z,48.62,17.83,14.0,11.0,340,14,,6.21,30.059055,,,TRUE,,,,,,,,,,,,,,,,,,,,,,,,,,,,METAR,160.0
LZKZ 242200Z 02013KT CAVOK 14/12 Q1018 NOSIG,LZKZ,2023-05-24T22:00:00Z,48.67,21.23,14.0,12.0,20,13,,6.21,30.059055,,,,,,TRUE,,,,,CAVOK,,,,,,,,VFR,,,,,,,,,,,,METAR,227.0
LZIB 242200Z 28003KT CAVOK 14/10 Q1019 NOSIG,LZIB,2023-05-24T22:00:00Z,48.17,17.22,14.0,10.0,280,3,,6.21,30.088583,,,,,,TRUE,,,,,CAVOK,,,,,,,,VFR,,,,,,,,,,,,METAR,129.0
LYVR 242200Z AUTO 18005KT CAVOK 16/16 Q1016,LYVR,2023-05-24T22:00:00Z,45.13,21.32,16.0,16.0,180,5,,6.21,30.0,,,TRUE,,,,,,,,CAVOK,,,,,,,,VFR,,,,,,,,,,,,METAR,82.0
LYTV 242200Z AUTO VRB01KT 9000 NSC 14/14 Q1014,LYTV,2023-05-24T22:00:00Z,42.4,18.72,14.0,14.0,0,1,,5.59,29.940945,,,TRUE,,,,,,,,CLR,,,,,,,,VFR,,,,,,,,,,,,METAR,3.0
LYPG 242200Z 00000KT 9999 BKN090 20/15 Q1014 NOSIG,LYPG,2023-05-24T22:00:00Z,42.37,19.25,20.0,15.0,0,0,,6.21,29.940945,,,,,,TRUE,,,,,BKN,9000,,,,,,,VFR,,,,,,,,,,,,METAR,32.0
LYNI 242200Z VRB02KT CAVOK 20/14 Q1016 NOSIG,LYNI,2023-05-24T22:00:00Z,43.33,21.85,20.0,14.0,0,2,,6.21,30.0,,,,,,TRUE,,,,,CAVOK,,,,,,,,VFR,,,,,,,,,,,,METAR,197.0
LYKV 242200Z 00000KT 6000 FEW043 12/12 Q1016 NOSIG,LYKV,2023-05-24T22:00:00Z,43.82,20.58,12.0,12.0,0,0,,3.73,30.0,,,,,,TRUE,,,,,FEW,4300,,,,,,,MVFR,,,,,,,,,,,,METAR,209.0
LYBT 242200Z 12004KT CAVOK 16/15 Q1016 NOSIG,LYBT,2023-05-24T22:00:00Z,44.93,20.25,16.0,15.0,120,4,,6.21,30.0,,,,,,TRUE,,,,,CAVOK,,,,,,,,VFR,,,,,,,,,,,,METAR,78.0
LYBE 242200Z 16003KT CAVOK 18/15 Q1016 NOSIG,LYBE,2023-05-24T22:00:00Z,44.82,20.28,18.0,15.0,160,3,,6.21,30.0,,,,,,TRUE,,,,,CAVOK,,,,,,,,VFR,,,,,,,,,,,,METAR,93.0
LWSK 242200Z 15002KT 9999 FEW090 14/13 Q1015 NOSIG,LWSK,2023-05-24T22:00:00Z,41.97,21.63,14.0,13.0,150,2,,6.21,29.970472,,,,,,TRUE,,,,,FEW,9000,,,,,,,VFR,,,,,,,,,,,,METAR,232.0
LUKK 242200Z VRB02KT CAVOK 15/14 Q1014 NOSIG,LUKK,2023-05-24T22:00:00Z,46.93,28.93,15.0,14.0,0,2,,6.21,29.940945,,,,,,TRUE,,,,,CAVOK,,,,,,,,VFR,,,,,,,,,,,,METAR,102.0
LRTR 242200Z 03003KT 8000 NSC 16/16 Q1015,LRTR,2023-05-24T22:00:00Z,45.82,21.33,16.0,16.0,30,3,,4.97,29.970472,,,,,,,,,,,CLR,,,,,,,,MVFR,,,,,,,,,,,,METAR,104.0
LRTM 242200Z AUTO 00000KT 9999 BKN100/// BKN130/// 14/12 Q1016,LRTM,2023-05-24T22:00:00Z,46.47,24.42,14.0,12.0,0,0,,6.21,30.0,,,TRUE,,,,,,,,BKN,10000,BKN,13000,,,,,VFR,,,,,,,,,,,,METAR,289.0
LRTC 242200Z AUTO VRB02KT 6000 FEW110/// 14/12 Q1014,LRTC,2023-05-24T22:00:00Z,45.07,28.72,14.0,12.0,0,2,,3.73,29.940945,,,TRUE,,,,,,,,FEW,11000,,,,,,,MVFR,,,,,,,,,,,,METAR,52.0
LRSV 242200Z 32010KT CAVOK 19/11 Q1016,LRSV,2023-05-24T22:00:00Z,47.68,26.35,19.0,11.0,320,10,,6.21,30.0,,,,,,,,,,,CAVOK,,,,,,,,VFR,,,,,,,,,,,,METAR,406.0
LRSM 242200Z AUTO 00000KT 9999 NCD 14/12 Q1016,LRSM,2023-05-24T22:00:00Z,47.7,22.88,14.0,12.0,0,0,,6.21,30.0,,,TRUE,,,,,,,,CLR,,,,,,,,VFR,,,,,,,,,,,,METAR,123.0
LRSB 242200Z VRB01KT CAVOK 17/12 Q1016,LRSB,2023-05-24T22:00:00Z,45.78,24.08,17.0,12.0,0,1,,6.21,30.0,,,,,,,,,,,CAVOK,,,,,,,,VFR,,,,,,,,,,,,METAR,442.0
LROP 242200Z 32003KT 290V350 CAVOK 16/14 Q1014 NOSIG,LROP,2023-05-24T22:00:00Z,44.57,26.1,16.0,14.0,320,3,,6.21,29.940945,,,,,,TRUE,,,,,CAVOK,,,,,,,,VFR,,,,,,,,,,,,METAR,92.0
LROD 242200Z AUTO 05003KT 9999 SCT100/// 16/14 Q1016,LROD,2023-05-24T22:00:00Z,47.03,21.88,16.0,14.0,50,3,,6.21,30.0,,,TRUE,,,,,,,,SCT,10000,,,,,,,VFR,,,,,,,,,,,,METAR,132.0
LRIA 242200Z 27003KT CAVOK 16/09 Q1015,LRIA,2023-05-24T22:00:00Z,47.17,27.62,16.0,9.0,270,3,,6.21,29.970472,,,,,,,,,,,CAVOK,,,,,,,,VFR,,,,,,,,,,,,METAR,71.0
LRCV 242200Z 03003KT CAVOK 15/15 Q1015,LRCV,2023-05-24T22:00:00Z,44.32,23.88,15.0,15.0,30,3,,6.21,29.970472,,,,,,,,,,,CAVOK,,,,,,,,VFR,,,,,,,,,,,,METAR,192.0
LRCL 242200Z 10002KT CAVOK 15/14 Q1017,LRCL,2023-05-24T22:00:00Z,46.78,23.68,15.0,14.0,100,2,,6.21,30.029528,,,,,,,,,,,CAVOK,,,,,,,,VFR,,,,,,,,,,,,METAR,313.0
LRCK 242200Z 25004KT CAVOK 15/12 Q1014 NOSIG,LRCK,2023-05-24T22:00:00Z,44.37,28.48,15.0,12.0,250,4,,6.21,29.940945,,,,,,TRUE,,,,,CAVOK,,,,,,,,VFR,,,,,,,,,,,,METAR,108.0
LRBS 242200Z 31005KT CAVOK 18/13 Q1014 NOSIG,LRBS,2023-05-24T22:00:00Z,44.5,26.08,18.0,13.0,310,5,,6.21,29.940945,,,,,,TRUE,,,,,CAVOK,,,,,,,,VFR,,,,,,,,,,,,METAR,91.0
LRBM 242200Z AUTO VRB02KT 9999 SCT160/// 14/13 Q1016,LRBM,2023-05-24T22:00:00Z,47.67,23.47,14.0,13.0,0,2,,6.21,30.0,,,TRUE,,,,,,,,SCT,16000,,,,,,,VFR,,,,,,,,,,,,METAR,180.0
LRBC 242200Z 32005KT CAVOK 14/09 Q1016,LRBC,2023-05-24T22:00:00Z,46.52,26.92,14.0,9.0,320,5,,6.21,30.0,,,,,,,,,,,CAVOK,,,,,,,,VFR,,,,,,,,,,,,METAR,183.0
LRAR 242200Z 07002KT CAVOK 16/15 Q1015,LRAR,2023-05-24T22:00:00Z,46.18,21.27,16.0,15.0,70,2,,6.21,29.970472,,,,,,,,,,,CAVOK,,,,,,,,VFR,,,,,,,,,,,,METAR,102.0
LQTZ 242200Z VRB01KT CAVOK 15/15 Q1017,LQTZ,2023-05-24T22:00:00Z,44.47,18.73,15.0,15.0,0,1,,6.21,30.029528,,,,,,,,,,,CAVOK,,,,,,,,VFR,,,,,,,,,,,,METAR,242.0
LQSA 242200Z 00000KT 9999 SCT040 13/13 Q1018,LQSA,2023-05-24T22:00:00Z,43.82,18.32,13.0,13.0,0,0,,6.21,30.059055,,,,,,,,,,,SCT,4000,,,,,,,VFR,,,,,,,,,,,,METAR,505.0
LQMO 242200Z VRB02KT 9999 FEW090 16/14 Q1013,LQMO,2023-05-24T22:00:00Z,43.28,17.83,16.0,14.0,0,2,,6.21,29.911417,,,,,,,,,,,FEW,9000,,,,,,,VFR,,,,,,,,,,,,METAR,49.0
LQBK 242200Z 15003KT 9999 SCT040 15/15 Q1017 NOSIG,LQBK,2023-05-24T22:00:00Z,44.93,17.3,15.0,15.0,150,3,,6.21,30.029528,,,,,,TRUE,,,,,SCT,4000,,,,,,,VFR,,,,,,,,,,,,METAR,114.0
LPPT 242200Z 33008KT CAVOK 20/13 Q1015,LPPT,2023-05-24T22:00:00Z,38.77,-9.13,20.0,13.0,330,8,,6.21,29.970472,,,,,,,,,,,CAVOK,,,,,,,,VFR,,,,,,,,,,,,METAR,98.0
LPPS 242200Z 32005KT 9999 FEW015 18/12 Q1018,LPPS,2023-05-24T22:00:00Z,33.07,-16.35,18.0,12.0,320,5,,6.21,30.059055,,,,,,,,,,,FEW,1500,,,,,,,VFR,,,,,,,,,,,,METAR,89.0
LPPR 242200Z VRB02KT CAVOK 18/13 Q1015,LPPR,2023-05-24T22:00:00Z,41.23,-8.68,18.0,13.0,0,2,,6.21,29.970472,,,,,,,,,,,CAVOK,,,,,,,,VFR,,,,,,,,,,,,METAR,64.0
LPPD 242200Z 36005KT 320V020 9999 FEW020 16/12 Q1022,LPPD,2023-05-24T22:00:00Z,37.73,-25.68,16.0,12.0,360,5,,6.21,30.177166,,,,,,,,,,,FEW,2000,,,,,,,VFR,,,,,,,,,,,,METAR,62.0
LPMA 242200Z 32004KT 290V350 9999 SCT015 18/13 Q1018,LPMA,2023-05-24T22:00:00Z,32.7,-16.77,18.0,13.0,320,4,,6.21,30.059055,,,,,,,,,,,SCT,1500,,,,,,,VFR,,,,,,,,,,,,METAR,54.0
LPLA 242200Z /////KT 9999 FEW025 17/13 Q1024,LPLA,2023-05-24T22:00:00Z,38.77,-27.1,17.0,13.0,,,,6.21,30.236221,,,,,,,,,,,FEW,2500,,,,,,,VFR,,,,,,,,,,,,METAR,60.0
LPFR 242200Z 25004KT 9999 FEW030 18/17 Q1015,LPFR,2023-05-24T22:00:00Z,37.02,-7.97,18.0,17.0,250,4,,6.21,29.970472,,,,,,,,,,,FEW,3000,,,,,,,VFR,,,,,,,,,,,,METAR,3.0
LPCS 242200Z 01010KT 9999 FEW045 20/12 Q1015,LPCS,2023-05-24T22:00:00Z,38.73,-9.35,20.0,12.0,10,10,,6.21,29.970472,,,,,,,,,,,FEW,4500,,,,,,,VFR,,,,,,,,,,,,METAR,99.0
LPBJ 242200Z 23008KT 9999 FEW038 18/13 Q1015,LPBJ,2023-05-24T22:00:00Z,38.08,-7.93,18.0,13.0,230,8,,6.21,29.970472,,,,,,,,,,,FEW,3800,,,,,,,VFR,,,,,,,,,,,,METAR,196.0
LPAZ 242200Z 02008KT 9999 FEW022 SCT028 16/12 Q1022,LPAZ,2023-05-24T22:00:00Z,36.97,-25.17,16.0,12.0,20,8,,6.21,30.177166,,,,,,,,,,,FEW,2200,SCT,2800,,,,,VFR,,,,,,,,,,,,METAR,96.0
LKTB 242200Z 05005KT 9999 SCT048 12/08 Q1021 NOSIG,LKTB,2023-05-24T22:00:00Z,49.15,16.68,12.0,8.0,50,5,,6.21,30.147638,,,,,,TRUE,,,,,SCT,4800,,,,,,,VFR,,,,,,,,,,,,METAR,233.0
LKPR 242200Z 36003KT 330V030 CAVOK 08/04 Q1022 NOSIG,LKPR,2023-05-24T22:00:00Z,50.1,14.27,8.0,4.0,360,3,,6.21,30.177166,,,,,,TRUE,,,,,CAVOK,,,,,,,,VFR,,,,,,,,,,,,METAR,364.0
LKPD 242200Z 27004KT CAVOK 09/06 Q1022 RMK BLU,LKPD,2023-05-24T22:00:00Z,50.02,15.73,9.0,6.0,270,4,,6.21,30.177166,,,,,,,,,,,CAVOK,,,,,,,,VFR,,,,,,,,,,,,SPECI,226.0
LKNA 242200Z 33005KT 9999 FEW037 11/07 Q1021 RMK BLU,LKNA,2023-05-24T22:00:00Z,49.17,16.12,11.0,7.0,330,5,,6.21,30.147638,,,,,,,,,,,FEW,3700,,,,,,,VFR,,,,,,,,,,,,SPECI,460.0
LKMT 242200Z 33003KT 9999 SCT030 09/08 Q1021 NOSIG,LKMT,2023-05-24T22:00:00Z,49.68,18.12,9.0,8.0,330,3,,6.21,30.147638,,,,,,TRUE,,,,,SCT,3000,,,,,,,VFR,,,,,,,,,,,,METAR,251.0
LKLN 242200Z AUTO 02003KT 330V080 9999 // FEW068 BKN160 10/03 Q1023,LKLN,2023-05-24T22:00:00Z,49.68,13.27,10.0,3.0,20,3,,6.21,30.206694,,,TRUE,,,,,,,,FEW,6800,BKN,16000,,,,,VFR,,,,,,,,,,,,SPECI,353.0
LKKV 242200Z 05004KT CAVOK 06/02 Q1023,LKKV,2023-05-24T22:00:00Z,50.2,12.92,6.0,2.0,50,4,,6.21,30.206694,,,,,,,,,,,CAVOK,,,,,,,,VFR,,,,,,,,,,,,METAR,600.0
LKKB 242200Z 32003KT CAVOK 10/05 Q1022,LKKB,2023-05-24T22:00:00Z,50.12,14.53,10.0,5.0,320,3,,6.21,30.177166,,,,,,,,,,,CAVOK,,,,,,,,VFR,,,,,,,,,,,,METAR,281.0
LKCV 242200Z 27005KT CAVOK 09/06 Q1022 NOSIG RMK BLU BLU,LKCV,2023-05-24T22:00:00Z,49.93,15.38,9.0,6.0,270,5,,6.21,30.177166,,,,,,TRUE,,,,,CAVOK,,,,,,,,VFR,,,,,,,,,,,,SPECI,234.0
LJPZ 242200Z AUTO 13005KT 9999 NCD 16/14 Q1015,LJPZ,2023-05-24T22:00:00Z,45.47,13.62,16.0,14.0,130,5,,6.21,29.970472,,,TRUE,,,,,,,,CLR,,,,,,,,VFR,,,,,,,,,,,,METAR,2.0
LJMB 242200Z AUTO 36005KT 9999 BKN048/// OVC070/// 15/13 Q1019,LJMB,2023-05-24T22:00:00Z,46.47,15.67,15.0,13.0,360,5,,6.21,30.088583,,,TRUE,,,,,,,,BKN,4800,OVC,7000,,,,,VFR,,,,,,,,,,,,METAR,263.0
LJLJ 242200Z 25002KT 9999 BKN040 15/13 Q1018 NOSIG,LJLJ,2023-05-24T22:00:00Z,46.22,14.47,15.0,13.0,250,2,,6.21,30.059055,,,,,,TRUE,,,,,BKN,4000,,,,,,,VFR,,,,,,,,,,,,METAR,363.0
LJCE 242200Z AUTO 22002KT 9999 SCT049/// 16/14 Q1018,LJCE,2023-05-24T22:00:00Z,45.9,15.52,16.0,14.0,220,2,,6.21,30.059055,,,TRUE,,,,,,,,SCT,4900,,,,,,,VFR,,,,,,,,,,,,METAR,153.0
LHBP 242200Z 35006KT 9999 FEW032 17/15 Q1017 NOSIG,LHBP,2023-05-24T22:00:00Z,47.43,19.27,17.0,15.0,350,6,,6.21,30.029528,,,,,,TRUE,,,,,FEW,3200,,,,,,,VFR,,,,,,,,,,,,METAR,141.0
LGKP 242200Z AUTO 31004KT //// // ////// 17/15 Q1013 RE//,LGKP,2023-05-24T22:00:00Z,35.42,27.15,17.0,15.0,310,4,,,29.911417,,,TRUE,,,,,,,,,,,,,,,,,,,,,,,,,,,,METAR,20.0
LFYR 242200Z AUTO 02004KT 320V080 CAVOK 14/07 Q1021,LFYR,2023-05-24T22:00:00Z,47.32,1.68,14.0,7.0,20,4,,6.21,30.147638,,,TRUE,,,,,,,,CAVOK,,,,,,,,VFR,,,,,,,,,,,,METAR,83.0
LFVP 242200Z AUTO 23009KT 9999 OVC006 05/05 Q1023,LFVP,2023-05-24T22:00:00Z,46.77,-56.18,5.0,5.0,230,9,,6.21,30.206694,,,TRUE,,,,,,,,OVC,600,,,,,,,IFR,,,,,,,,,,,,METAR,5.0
LFTW 242200Z AUTO 01011KT CAVOK 19/10 Q1013,LFTW,2023-05-24T22:00:00Z,43.75,4.42,19.0,10.0,10,11,,6.21,29.911417,,,TRUE,,,,,,,,CAVOK,,,,,,,,VFR,,,,,,,,,,,,METAR,91.0
LFTH 242200Z AUTO 24003KT CAVOK 19/18 Q1012 TEMPO 4000 SHRA SCT060TCU,LFTH,2023-05-24T22:00:00Z,43.1,6.15,19.0,18.0,240,3,,6.21,29.88189,,,TRUE,,,,,,,,CAVOK,,,,,,,,VFR,,,,,,,,,,,,SPECI,3.0
LFSX 242200Z AUTO 36007KT CAVOK 12/05 Q1019,LFSX,2023-05-24T22:00:00Z,47.77,6.35,12.0,5.0,360,7,,6.21,30.088583,,,TRUE,,,,,,,,CAVOK,,,,,,,,VFR,,,,,,,,,,,,METAR,266.0
LFST 242200Z AUTO 01009KT CAVOK 13/04 Q1021 NOSIG,LFST,2023-05-24T22:00:00Z,48.53,7.63,13.0,4.0,10,9,,6.21,30.147638,,,TRUE,,,TRUE,,,,,CAVOK,,,,,,,,VFR,,,,,,,,,,,,METAR,149.0
LFSO 242200Z AUTO 02006KT CAVOK 09/03 Q1021,LFSO,2023-05-24T22:00:00Z,48.57,5.97,9.0,3.0,20,6,,6.21,30.147638,,,TRUE,,,,,,,,CAVOK,,,,,,,,VFR,,,,,,,,,,,,METAR,328.0
LFSN 242200Z AUTO 02006KT CAVOK 10/05 Q1022,LFSN,2023-05-24T22:00:00Z,48.68,6.22,10.0,5.0,20,6,,6.21,30.177166,,,TRUE,,,,,,,,CAVOK,,,,,,,,VFR,,,,,,,,,,,,METAR,214.0
LFSL 242200Z AUTO 36006KT CAVOK 15/08 Q1017,LFSL,2023-05-24T22:00:00Z,45.03,1.48,15.0,8.0,360,6,,6.21,30.029528,,,TRUE,,,,,,,,CAVOK,,,,,,,,VFR,,,,,,,,,,,,METAR,300.0
LFSI 242200Z AUTO 05007KT CAVOK 12/05 Q1022,LFSI,2023-05-24T22:00:00Z,48.62,4.9,12.0,5.0,50,7,,6.21,30.177166,,,TRUE,,,,,,,,CAVOK,,,,,,,,VFR,,,,,,,,,,,,METAR,136.0
LFSG 242200Z AUTO 01010KT CAVOK 10/05 Q1021,LFSG,2023-05-24T22:00:00Z,48.33,6.07,10.0,5.0,10,10,,6.21,30.147638,,,TRUE,,,,,,,,CAVOK,,,,,,,,VFR,,,,,,,,,,,,METAR,320.0
LFSD 242200Z AUTO 02011KT CAVOK 13/06 Q1019,LFSD,2023-05-24T22:00:00Z,47.27,5.08,13.0,6.0,20,11,,6.21,30.088583,,,TRUE,,,,,,,,CAVOK,,,,,,,,VFR,,,,,,,,,,,,METAR,218.0
LFSB 242200Z AUTO 36007KT CAVOK 12/05 Q1019 NOSIG,LFSB,2023-05-24T22:00:00Z,47.6,7.52,12.0,5.0,360,7,,6.21,30.088583,,,TRUE,,,TRUE,,,,,CAVOK,,,,,,,,VFR,,,,,,,,,,,,METAR,262.0
LFRZ 242200Z AUTO 01009KT CAVOK 15/09 Q1023 NOSIG,LFRZ,2023-05-24T22:00:00Z,47.32,-2.17,15.0,9.0,10,9,,6.21,30.206694,,,TRUE,,,TRUE,,,,,CAVOK,,,,,,,,VFR,,,,,,,,,,,,METAR,2.0
LFRV 242200Z AUTO 02005KT CAVOK 12/08 Q1024,LFRV,2023-05-24T22:00:00Z,47.72,-2.72,12.0,8.0,20,5,,6.21,30.236221,,,TRUE,,,,,,,,CAVOK,,,,,,,,VFR,,,,,,,,,,,,METAR,132.0
LFRT 242200Z AUTO 32003KT CAVOK 11/09 Q1025,LFRT,2023-05-24T22:00:00Z,48.53,-2.85,11.0,9.0,320,3,,6.21,30.265747,,,TRUE,,,,,,,,CAVOK,,,,,,,,VFR,,,,,,,,,,,,METAR,134.0
LFRS 242200Z AUTO 02005KT 340V070 CAVOK 17/08 Q1022 NOSIG,LFRS,2023-05-24T22:00:00Z,47.17,-1.6,17.0,8.0,20,5,,6.21,30.177166,,,TRUE,,,TRUE,,,,,CAVOK,,,,,,,,VFR,,,,,,,,,,,,METAR,26.0
LFRQ 242200Z AUTO 01007KT CAVOK 13/09 Q1025,LFRQ,2023-05-24T22:00:00Z,47.97,-4.17,13.0,9.0,10,7,,6.21,30.265747,,,TRUE,,,,,,,,CAVOK,,,,,,,,VFR,,,,,,,,,,,,METAR,94.0
LFRN 242200Z AUTO 36005KT CAVOK 13/10 Q1024 NOSIG,LFRN,2023-05-24T22:00:00Z,48.07,-1.73,13.0,10.0,360,5,,6.21,30.236221,,,TRUE,,,TRUE,,,,,CAVOK,,,,,,,,VFR,,,,,,,,,,,,METAR,35.0
LFRM 242200Z AUTO 01007KT CAVOK 15/08 Q1023,LFRM,2023-05-24T22:00:00Z,47.95,0.2,15.0,8.0,10,7,,6.21,30.206694,,,TRUE,,,,,,,,CAVOK,,,,,,,,VFR,,,,,,,,,,,,METAR,51.0
LFRL 242200Z AUTO 04004KT 9000 NSC 12/11 Q1026 NOSIG,LFRL,2023-05-24T22:00:00Z,48.27,-4.43,12.0,11.0,40,4,,5.59,30.295275,,,TRUE,,,TRUE,,,,,CLR,,,,,,,,VFR,,,,,,,,,,,,METAR,80.0
LFRK 242200Z AUTO 33004KT 9999 NCD 11/09 Q1025,LFRK,2023-05-24T22:00:00Z,49.17,-0.45,11.0,9.0,330,4,,6.21,30.265747,,,TRUE,,,,,,,,CLR,,,,,,,,VFR,,,,,,,,,,,,METAR,66.0
LFRJ 242200Z AUTO 02002KT 3000 0450 R25///// R07/P2000 BCFG NSC 11/10 Q1025,LFRJ,2023-05-24T22:00:00Z,48.52,-4.15,11.0,10.0,20,2,,1.86,30.265747,,,TRUE,,,,,,,BCFG,CLR,,,,,,,,IFR,,,,,,,,,,,,METAR,109.0
LFRI 242200Z AUTO 05006KT CAVOK 14/07 Q1022,LFRI,2023-05-24T22:00:00Z,46.7,-1.37,14.0,7.0,50,6,,6.21,30.177166,,,TRUE,,,,,,,,CAVOK,,,,,,,,VFR,,,,,,,,,,,,METAR,89.0
LFRH 242200Z AUTO 36004KT CAVOK 12/08 Q1024 NOSIG,LFRH,2023-05-24T22:00:00Z,47.77,-3.45,12.0,8.0,360,4,,6.21,30.236221,,,TRUE,,,TRUE,,,,,CAVOK,,,,,,,,VFR,,,,,,,,,,,,METAR,46.0
LFRG 242200Z AUTO 01005KT CAVOK 11/09 Q1025,LFRG,2023-05-24T22:00:00Z,49.37,0.15,11.0,9.0,10,5,,6.21,30.265747,,,TRUE,,,,,,,,CAVOK,,,,,,,,VFR,,,,,,,,,,,,METAR,146.0
LFRD 242200Z AUTO 01004KT CAVOK 13/10 Q1025 NOSIG,LFRD,2023-05-24T22:00:00Z,48.58,-2.07,13.0,10.0,10,4,,6.21,30.265747,,,TRUE,,,TRUE,,,,,CAVOK,,,,,,,,VFR,,,,,,,,,,,,METAR,56.0
LFRC 242200Z AUTO 30005KT 9999 FEW047 10/07 Q1025,LFRC,2023-05-24T22:00:00Z,49.63,-1.47,10.0,7.0,300,5,,6.21,30.265747,,,TRUE,,,,,,,,FEW,4700,,,,,,,VFR,,,,,,,,,,,,METAR,137.0
LFRB 242200Z AUTO 01006KT 7000 NSC 12/11 Q1025 TEMPO 3000 BR,LFRB,2023-05-24T22:00:00Z,48.45,-4.42,12.0,11.0,10,6,,4.35,30.265747,,,TRUE,,,,,,,,CLR,,,,,,,,MVFR,,,,,,,,,,,,SPECI,91.0
LFQQ 242200Z AUTO 01008KT CAVOK 12/07 Q1025 NOSIG,LFQQ,2023-05-24T22:00:00Z,50.57,3.1,12.0,7.0,10,8,,6.21,30.265747,,,TRUE,,,TRUE,,,,,CAVOK,,,,,,,,VFR,,,,,,,,,,,,METAR,43.0
LFQB 242200Z AUTO 03007KT CAVOK 14/07 Q1022,LFQB,2023-05-24T22:00:00Z,48.32,4.02,14.0,7.0,30,7,,6.21,30.177166,,,TRUE,,,,,,,,CAVOK,,,,,,,,VFR,,,,,,,,,,,,METAR,107.0
LFQA 242200Z AUTO 02005KT CAVOK 11/08 Q1023,LFQA,2023-05-24T22:00:00Z,49.2,4.15,11.0,8.0,20,5,,6.21,30.206694,,,TRUE,,,,,,,,CAVOK,,,,,,,,VFR,,,,,,,,,,,,METAR,92.0
LFPV 242200Z AUTO 03007KT 9999 BKN040 BKN047 OVC054 15/08 Q1023 NOSIG,LFPV,2023-05-24T22:00:00Z,48.77,2.2,15.0,8.0,30,7,,6.21,30.206694,,,TRUE,,,TRUE,,,,,BKN,4000,BKN,4700,OVC,5400,,,VFR,,,,,,,,,,,,METAR,171.0
LFPT 242200Z AUTO 36009KT 9999 FEW048 BKN200 13/08 Q1023,LFPT,2023-05-24T22:00:00Z,49.1,2.03,13.0,8.0,360,9,,6.21,30.206694,,,TRUE,,,,,,,,FEW,4800,BKN,20000,,,,,VFR,,,,,,,,,,,,METAR,91.0
LFPO 242200Z AUTO 04007KT 9999 SCT049 BKN058 14/07 Q1023 NOSIG,LFPO,2023-05-24T22:00:00Z,48.72,2.38,14.0,7.0,40,7,,6.21,30.206694,,,TRUE,,,TRUE,,,,,SCT,4900,BKN,5800,,,,,VFR,,,,,,,,,,,,METAR,88.0
LFPN 242200Z AUTO 01006KT 9999 BKN041 BKN047 BKN054 15/08 Q1023,LFPN,2023-05-24T22:00:00Z,48.75,2.12,15.0,8.0,10,6,,6.21,30.206694,,,TRUE,,,,,,,,BKN,4100,BKN,4700,BKN,5400,,,VFR,,,,,,,,,,,,METAR,152.0
LFPM 242200Z AUTO 02004KT 340V070 CAVOK 11/07 Q1023,LFPM,2023-05-24T22:00:00Z,48.62,2.67,11.0,7.0,20,4,,6.21,30.206694,,,TRUE,,,,,,,,CAVOK,,,,,,,,VFR,,,,,,,,,,,,METAR,91.0
LFPG 242200Z 04007KT 010V110 9999 BKN048 14/08 Q1023 NOSIG,LFPG,2023-05-24T22:00:00Z,49.02,2.53,14.0,8.0,40,7,,6.21,30.206694,,,,,,TRUE,,,,,BKN,4800,,,,,,,VFR,,,,,,,,,,,,METAR,107.0
LFPB 242200Z AUTO 36004KT CAVOK 15/08 Q1023 NOSIG,LFPB,2023-05-24T22:00:00Z,48.97,2.42,15.0,8.0,360,4,,6.21,30.206694,,,TRUE,,,TRUE,,,,,CAVOK,,,,,,,,VFR,,,,,,,,,,,,METAR,50.0
LFOZ 242200Z AUTO 02005KT CAVOK 12/07 Q1022,LFOZ,2023-05-24T22:00:00Z,47.9,2.17,12.0,7.0,20,5,,6.21,30.177166,,,TRUE,,,,,,,,CAVOK,,,,,,,,VFR,,,,,,,,,,,,METAR,121.0
LFOV 242200Z AUTO 02009KT CAVOK 14/06 Q1023,LFOV,2023-05-24T22:00:00Z,48.03,-0.75,14.0,6.0,20,9,,6.21,30.206694,,,TRUE,,,,,,,,CAVOK,,,,,,,,VFR,,,,,,,,,,,,METAR,99.0
LFOT 242200Z AUTO 04005KT 360V070 CAVOK 14/08 Q1022 NOSIG,LFOT,2023-05-24T22:00:00Z,47.43,0.72,14.0,8.0,40,5,,6.21,30.177166,,,TRUE,,,TRUE,,,,,CAVOK,,,,,,,,VFR,,,,,,,,,,,,METAR,107.0
LFOP 242200Z AUTO 36008KT CAVOK 11/09 Q1024,LFOP,2023-05-24T22:00:00Z,49.37,1.17,11.0,9.0,360,8,,6.21,30.236221,,,TRUE,,,,,,,,CAVOK,,,,,,,,VFR,,,,,,,,,,,,METAR,149.0
LFOK 242200Z AUTO 02005KT CAVOK 10/07 Q1022 NOSIG,LFOK,2023-05-24T22:00:00Z,48.78,4.15,10.0,7.0,20,5,,6.21,30.177166,,,TRUE,,,TRUE,,,,,CAVOK,,,,,,,,VFR,,,,,,,,,,,,METAR,166.0
LFOJ 242200Z AUTO 03006KT CAVOK 11/07 Q1022 NOSIG,LFOJ,2023-05-24T22:00:00Z,47.98,1.75,11.0,7.0,30,6,,6.21,30.177166,,,TRUE,,,TRUE,,,,,CAVOK,,,,,,,,VFR,,,,,,,,,,,,METAR,122.0
LFOH 242200Z AUTO 01007KT 9999 BKN047 BKN220 12/10 Q1025,LFOH,2023-05-24T22:00:00Z,49.52,0.08,12.0,10.0,10,7,,6.21,30.265747,,,TRUE,,,,,,,,BKN,4700,BKN,22000,,,,,VFR,,,,,,,,,,,,METAR,87.0
LFOE 242200Z AUTO 36004KT 320V100 CAVOK 10/06 Q1024 NOSIG,LFOE,2023-05-24T22:00:00Z,49.02,1.22,10.0,6.0,360,4,,6.21,30.236221,,,TRUE,,,TRUE,,,,,CAVOK,,,,,,,,VFR,,,,,,,,,,,,METAR,132.0
LFOB 242200Z AUTO 36009KT CAVOK 12/09 Q1024 NOSIG,LFOB,2023-05-24T22:00:00Z,49.47,2.12,12.0,9.0,360,9,,6.21,30.236221,,,TRUE,,,TRUE,,,,,CAVOK,,,,,,,,VFR,,,,,,,,,,,,METAR,99.0
LFOA 242200Z AUTO 02007KT CAVOK 12/07 Q1021,LFOA,2023-05-24T22:00:00Z,47.05,2.63,12.0,7.0,20,7,,6.21,30.147638,,,TRUE,,,,,,,,CAVOK,,,,,,,,VFR,,,,,,,,,,,,METAR,174.0
LFMY 242200Z AUTO 07003KT CAVOK 16/13 Q1013,LFMY,2023-05-24T22:00:00Z,43.6,5.1,16.0,13.0,70,3,,6.21,29.911417,,,TRUE,,,,,,,,CAVOK,,,,,,,,VFR,,,,,,,,,,,,METAR,57.0
LFMV 242200Z AUTO 34011KT 9999 BKN062 19/11 Q1013,LFMV,2023-05-24T22:00:00Z,43.9,4.9,19.0,11.0,340,11,,6.21,29.911417,,,TRUE,,,,,,,,BKN,6200,,,,,,,VFR,,,,,,,,,,,,METAR,33.0
LFMU 242200Z AUTO 18003KT 9999 //////CB 20/15 Q1014,LFMU,2023-05-24T22:00:00Z,43.32,3.35,20.0,15.0,180,3,,6.21,29.940945,,,TRUE,,,,,,,,,,,,,,,,,,,,,,,,,,,,METAR,14.0
LFMT 242200Z AUTO 01006KT CAVOK 18/13 Q1014 TEMPO FEW050TCU,LFMT,2023-05-24T22:00:00Z,43.57,3.97,18.0,13.0,10,6,,6.21,29.940945,,,TRUE,,,,,,,,CAVOK,,,,,,,,VFR,,,,,,,,,,,,SPECI,1.0
LFMP 242200Z AUTO 30007KT 9999 BKN056/// BKN072/// BKN100/// ///CB 22/14 Q1014,LFMP,2023-05-24T22:00:00Z,42.73,2.87,22.0,14.0,300,7,,6.21,29.940945,,,TRUE,,,,,,,,BKN,5600,BKN,7200,BKN,10000,,,VFR,,,,,,,,,,,,SPECI,41.0
LFMO 242200Z AUTO 36016KT 9999 SCT072 19/10 Q1013 BECMG 34020G30KT,LFMO,2023-05-24T22:00:00Z,44.13,4.87,19.0,10.0,360,16,,6.21,29.911417,,,TRUE,,,,,,,,SCT,7200,,,,,,,VFR,,,,,,,,,,,,SPECI,56.0
LFMN 242200Z 05005KT 9999 FEW009 19/17 Q1013 NOSIG,LFMN,2023-05-24T22:00:00Z,43.65,7.2,19.0,17.0,50,5,,6.21,29.911417,,,,,,TRUE,,,,,FEW,900,,,,,,,VFR,,,,,,,,,,,,METAR,4.0
LFML 242200Z AUTO 35004KT 9999 FEW009 19/15 Q1012 NOSIG,LFML,2023-05-24T22:00:00Z,43.45,5.22,19.0,15.0,350,4,,6.21,29.88189,,,TRUE,,,TRUE,,,,,FEW,900,,,,,,,VFR,,,,,,,,,,,,METAR,20.0
LFMK 242200Z AUTO 28006KT 240V300 9999 -RA VCTS ///CB 17/15 Q1015,LFMK,2023-05-24T22:00:00Z,43.22,2.32,17.0,15.0,280,6,,6.21,29.970472,,,TRUE,,,,,,,-RA VCTS,,,,,,,,,,,,,,,,,,,,,SPECI,124.0
LFMI 242200Z AUTO 03005KT CAVOK 19/14 Q1013 NOSIG,LFMI,2023-05-24T22:00:00Z,43.52,4.93,19.0,14.0,30,5,,6.21,29.911417,,,TRUE,,,TRUE,,,,,CAVOK,,,,,,,,VFR,,,,,,,,,,,,METAR,20.0
LFMH 242200Z AUTO VRB01KT 9999 OVC056 10/08 Q1018,LFMH,2023-05-24T22:00:00Z,45.52,4.28,10.0,8.0,0,1,,6.21,30.059055,,,TRUE,,,,,,,,OVC,5600,,,,,,,VFR,,,,,,,,,,,,METAR,400.0
LFMD 242200Z AUTO VRB03KT CAVOK 18/15 Q1013,LFMD,2023-05-24T22:00:00Z,43.53,6.95,18.0,15.0,0,3,,6.21,29.911417,,,TRUE,,,,,,,,CAVOK,,,,,,,,VFR,,,,,,,,,,,,METAR,2.0
LFMC 242200Z AUTO 01003KT 320V050 9999 ////// 17/13 Q1013,LFMC,2023-05-24T22:00:00Z,43.37,6.38,17.0,13.0,10,3,,6.21,29.911417,,,TRUE,,,,,,,,,,,,,,,,,,,,,,,,,,,,METAR,79.0
LFLY 242200Z AUTO 34009KT CAVOK 15/05 Q1017 NOSIG,LFLY,2023-05-24T22:00:00Z,45.72,4.95,15.0,5.0,340,9,,6.21,30.029528,,,TRUE,,,TRUE,,,,,CAVOK,,,,,,,,VFR,,,,,,,,,,,,METAR,197.0
LFLX 242200Z AUTO 02008KT CAVOK 10/06 Q1021 NOSIG,LFLX,2023-05-24T22:00:00Z,46.87,1.73,10.0,6.0,20,8,,6.21,30.147638,,,TRUE,,,TRUE,,,,,CAVOK,,,,,,,,VFR,,,,,,,,,,,,METAR,157.0
LFLW 242200Z AUTO VRB02KT CAVOK 10/07 Q1017,LFLW,2023-05-24T22:00:00Z,44.88,2.42,10.0,7.0,0,2,,6.21,30.029528,,,TRUE,,,,,,,,CAVOK,,,,,,,,VFR,,,,,,,,,,,,METAR,638.0
LFLS 242200Z AUTO 32003KT 290V010 9999 OVC030 15/10 Q1016,LFLS,2023-05-24T22:00:00Z,45.37,5.32,15.0,10.0,320,3,,6.21,30.0,,,TRUE,,,,,,,,OVC,3000,,,,,,,MVFR,,,,,,,,,,,,METAR,386.0
LFLP 242200Z AUTO 32005KT 290V350 CAVOK 13/09 Q1017,LFLP,2023-05-24T22:00:00Z,45.92,6.1,13.0,9.0,320,5,,6.21,30.029528,,,TRUE,,,,,,,,CAVOK,,,,,,,,VFR,,,,,,,,,,,,METAR,460.0
LFLN 242200Z AUTO 36005KT CAVOK 12/05 Q1019,LFLN,2023-05-24T22:00:00Z,46.42,4.02,12.0,5.0,360,5,,6.21,30.088583,,,TRUE,,,,,,,,CAVOK,,,,,,,,VFR,,,,,,,,,,,,METAR,238.0
LFLL 242200Z 35009KT CAVOK 15/05 Q1016 NOSIG,LFLL,2023-05-24T22:00:00Z,45.72,5.07,15.0,5.0,350,9,,6.21,30.0,,,,,,TRUE,,,,,CAVOK,,,,,,,,VFR,,,,,,,,,,,,METAR,234.0
LFLC 242200Z AUTO 35005KT 9999 BKN062 14/05 Q1019 NOSIG,LFLC,2023-05-24T22:00:00Z,45.78,3.17,14.0,5.0,350,5,,6.21,30.088583,,,TRUE,,,TRUE,,,,,BKN,6200,,,,,,,VFR,,,,,,,,,,,,METAR,325.0
LFLB 242200Z AUTO 36011KT 9999 SCT084 SCT130 16/10 Q1016,LFLB,2023-05-24T22:00:00Z,45.63,5.87,16.0,10.0,360,11,,6.21,30.0,,,TRUE,,,,,,,,SCT,8400,SCT,13000,,,,,VFR,,,,,,,,,,,,METAR,234.0
LFKS 242200Z AUTO 28004KT CAVOK 17/14 Q1014,LFKS,2023-05-24T22:00:00Z,41.92,9.4,17.0,14.0,280,4,,6.21,29.940945,,,TRUE,,,,,,,,CAVOK,,,,,,,,VFR,,,,,,,,,,,,METAR,22.0
LFKJ 242200Z AUTO 04004KT CAVOK 18/13 Q1013 NOSIG,LFKJ,2023-05-24T22:00:00Z,41.92,8.8,18.0,13.0,40,4,,6.21,29.911417,,,TRUE,,,TRUE,,,,,CAVOK,,,,,,,,VFR,,,,,,,,,,,,METAR,9.0
LFKF 242200Z AUTO VRB02KT CAVOK 17/13 Q1013,LFKF,2023-05-24T22:00:00Z,41.5,9.08,17.0,13.0,0,2,,6.21,29.911417,,,TRUE,,,,,,,,CAVOK,,,,,,,,VFR,,,,,,,,,,,,METAR,15.0
LFKC 242200Z AUTO 17005KT CAVOK 16/14 Q1013,LFKC,2023-05-24T22:00:00Z,42.52,8.8,16.0,14.0,170,5,,6.21,29.911417,,,TRUE,,,,,,,,CAVOK,,,,,,,,VFR,,,,,,,,,,,,METAR,38.0
LFKB 242200Z AUTO 21002KT 8000 NSC 16/15 Q1013 NOSIG,LFKB,2023-05-24T22:00:00Z,42.55,9.48,16.0,15.0,210,2,,4.97,29.911417,,,TRUE,,,TRUE,,,,,CLR,,,,,,,,MVFR,,,,,,,,,,,,METAR,7.0
LFJR 242200Z AUTO 01004KT CAVOK 14/08 Q1023,LFJR,2023-05-24T22:00:00Z,47.57,-0.32,14.0,8.0,10,4,,6.21,30.206694,,,TRUE,,,,,,,,CAVOK,,,,,,,,VFR,,,,,,,,,,,,METAR,50.0
LFJL 242200Z AUTO 05007KT CAVOK 10/05 Q1022 NOSIG,LFJL,2023-05-24T22:00:00Z,48.97,6.25,10.0,5.0,50,7,,6.21,30.177166,,,TRUE,,,TRUE,,,,,CAVOK,,,,,,,,VFR,,,,,,,,,,,,METAR,259.0
LFGJ 242200Z AUTO 02012KT CAVOK 13/05 Q1018,LFGJ,2023-05-24T22:00:00Z,47.05,5.43,13.0,5.0,20,12,,6.21,30.059055,,,TRUE,,,,,,,,CAVOK,,,,,,,,VFR,,,,,,,,,,,,METAR,191.0
LFGA 242200Z AUTO 01011KT CAVOK 13/03 Q1020,LFGA,2023-05-24T22:00:00Z,48.1,7.35,13.0,3.0,10,11,,6.21,30.11811,,,TRUE,,,,,,,,CAVOK,,,,,,,,VFR,,,,,,,,,,,,METAR,191.0
LFCR 242200Z AUTO 01004KT CAVOK 13/08 Q1017 NOSIG,LFCR,2023-05-24T22:00:00Z,44.4,2.47,13.0,8.0,10,4,,6.21,30.029528,,,TRUE,,,TRUE,,,,,CAVOK,,,,,,,,VFR,,,,,,,,,,,,METAR,576.0
LFCK 242200Z AUTO 04003KT 010V070 9999 VCTS FEW036/// SCT074/// BKN250/// ///CB 14/13 Q1017,LFCK,2023-05-24T22:00:00Z,43.55,2.28,14.0,13.0,40,3,,6.21,30.029528,,,TRUE,,,,,,,VCTS,FEW,3600,SCT,7400,BKN,25000,,,VFR,,,,,,,,,,,,METAR,223.0
LFBZ 242200Z AUTO 25009KT 210V290 9999 BKN012 BKN046 BKN056 16/14 Q1019 TEMPO BKN006,LFBZ,2023-05-24T22:00:00Z,43.47,-1.53,16.0,14.0,250,9,,6.21,30.088583,,,TRUE,,,,,,,,BKN,1200,BKN,4600,BKN,5600,,,MVFR,,,,,,,,,,,,SPECI,70.0
LFBY 242200Z AUTO 25006KT 9999 // ////// 16/14 Q1019,LFBY,2023-05-24T22:00:00Z,43.68,-1.07,16.0,14.0,250,6,,6.21,30.088583,,,TRUE,,,,,,,,,,,,,,,,,,,,,,,,,,,,METAR,32.0
LFBX 242200Z AUTO VRB03KT CAVOK 14/08 Q1018,LFBX,2023-05-24T22:00:00Z,45.2,0.82,14.0,8.0,0,3,,6.21,30.059055,,,TRUE,,,,,,,,CAVOK,,,,,,,,VFR,,,,,,,,,,,,METAR,97.0
LFBU 242200Z AUTO 02006KT CAVOK 14/06 Q1019,LFBU,2023-05-24T22:00:00Z,45.72,0.22,14.0,6.0,20,6,,6.21,30.088583,,,TRUE,,,,,,,,CAVOK,,,,,,,,VFR,,,,,,,,,,,,METAR,124.0
LFBT 242200Z AUTO 26012KT 9999 BKN033/// OVC043/// //////CB 14/13 Q1018 TEMPO 4000 SHRA BKN009 SCT018CB,LFBT,2023-05-24T22:00:00Z,43.18,0.0,14.0,13.0,260,12,,6.21,30.059055,,,TRUE,,,,,,,,BKN,3300,OVC,4300,,,,,VFR,,,,,,,,,,,,METAR,359.0
LFBP 242200Z AUTO 27010KT 9999 OVC012/// ///TCU 15/13 Q1019 TEMPO 4000 SHRA BECMG BKN007,LFBP,2023-05-24T22:00:00Z,43.38,-0.42,15.0,13.0,270,10,,6.21,30.088583,,,TRUE,,,,,,,,OVC,1200,,,,,,,MVFR,,,,,,,,,,,,SPECI,182.0
LFBO 242200Z AUTO 28013KT CAVOK 19/15 Q1016 TEMPO 4000 SHRA SCT025CB,LFBO,2023-05-24T22:00:00Z,43.62,1.37,19.0,15.0,280,13,,6.21,30.0,,,TRUE,,,,,,,,CAVOK,,,,,,,,VFR,,,,,,,,,,,,SPECI,150.0
LFBM 242200Z AUTO 25005KT 9999 FEW013 BKN070 15/14 Q1018 BECMG 32010KT,LFBM,2023-05-24T22:00:00Z,43.92,-0.5,15.0,14.0,250,5,,6.21,30.059055,,,TRUE,,,,,,,,FEW,1300,BKN,7000,,,,,VFR,,,,,,,,,,,,SPECI,56.0
LFBL 242200Z AUTO 03010KT CAVOK 13/04 Q1019 NOSIG,LFBL,2023-05-24T22:00:00Z,45.87,1.17,13.0,4.0,30,10,,6.21,30.088583,,,TRUE,,,TRUE,,,,,CAVOK,,,,,,,,VFR,,,,,,,,,,,,METAR,402.0
LFBI 242200Z AUTO 02010KT CAVOK 15/07 Q1021 NOSIG,LFBI,2023-05-24T22:00:00Z,46.58,0.32,15.0,7.0,20,10,,6.21,30.147638,,,TRUE,,,TRUE,,,,,CAVOK,,,,,,,,VFR,,,,,,,,,,,,METAR,117.0
LFBH 242200Z AUTO 03009KT CAVOK 15/06 Q1021 NOSIG,LFBH,2023-05-24T22:00:00Z,46.18,-1.2,15.0,6.0,30,9,,6.21,30.147638,,,TRUE,,,TRUE,,,,,CAVOK,,,,,,,,VFR,,,,,,,,,,,,METAR,18.0
LFBG 242200Z AUTO 01009KT CAVOK 16/07 Q1020,LFBG,2023-05-24T22:00:00Z,45.67,-0.32,16.0,7.0,10,9,,6.21,30.11811,,,TRUE,,,,,,,,CAVOK,,,,,,,,VFR,,,,,,,,,,,,METAR,28.0
LFBE 242200Z AUTO 32004KT CAVOK 15/09 Q1017,LFBE,2023-05-24T22:00:00Z,44.82,0.52,15.0,9.0,320,4,,6.21,30.029528,,,TRUE,,,,,,,,CAVOK,,,,,,,,VFR,,,,,,,,,,,,METAR,49.0
LFBD 242200Z AUTO 01008KT CAVOK 17/08 Q1019 NOSIG,LFBD,2023-05-24T22:00:00Z,44.82,-0.7,17.0,8.0,10,8,,6.21,30.088583,,,TRUE,,,TRUE,,,,,CAVOK,,,,,,,,VFR,,,,,,,,,,,,METAR,48.0
LFBC 242200Z AUTO 02007KT CAVOK 17/09 Q1019 NOSIG,LFBC,2023-05-24T22:00:00Z,44.52,-1.12,17.0,9.0,20,7,,6.21,30.088583,,,TRUE,,,TRUE,,,,,CAVOK,,,,,,,,VFR,,,,,,,,,,,,METAR,22.0
LFBA 242200Z AUTO 28005KT CAVOK 17/10 Q1016,LFBA,2023-05-24T22:00:00Z,44.17,0.6,17.0,10.0,280,5,,6.21,30.0,,,TRUE,,,,,,,,CAVOK,,,,,,,,VFR,,,,,,,,,,,,METAR,68.0
LFAT 242200Z AUTO 03008KT CAVOK 12/09 Q1025,LFAT,2023-05-24T22:00:00Z,50.52,1.62,12.0,9.0,30,8,,6.21,30.265747,,,TRUE,,,,,,,,CAVOK,,,,,,,,VFR,,,,,,,,,,,,METAR,2.0
LFAQ 242200Z AUTO 02008KT CAVOK 10/08 Q1024,LFAQ,2023-05-24T22:00:00Z,49.97,2.7,10.0,8.0,20,8,,6.21,30.236221,,,TRUE,,,,,,,,CAVOK,,,,,,,,VFR,,,,,,,,,,,,METAR,107.0
LEZL 242200Z 21006KT 140V240 CAVOK 21/15 Q1015 NOSIG,LEZL,2023-05-24T22:00:00Z,37.42,-5.9,21.0,15.0,210,6,,6.21,29.970472,,,,,,TRUE,,,,,CAVOK,,,,,,,,VFR,,,,,,,,,,,,METAR,26.0
LEZG 242200Z 30016KT 9999 FEW035 17/11 Q1017,LEZG,2023-05-24T22:00:00Z,41.67,-1.02,17.0,11.0,300,16,,6.21,30.029528,,,,,,,,,,,FEW,3500,,,,,,,VFR,,,,,,,,,,,,METAR,245.0
LEXJ 242200Z AUTO 22004KT 180V240 9000 FEW019 OVC035 15/14 Q1022,LEXJ,2023-05-24T22:00:00Z,43.42,-3.82,15.0,14.0,220,4,,5.59,30.177166,,,TRUE,,,,,,,,FEW,1900,OVC,3500,,,,,VFR,,,,,,,,,,,,METAR,1.0
LEVX 242200Z VRB01KT CAVOK 18/14 Q1016 NOSIG,LEVX,2023-05-24T22:00:00Z,42.23,-8.62,18.0,14.0,0,1,,6.21,30.0,,,,,,TRUE,,,,,CAVOK,,,,,,,,VFR,,,,,,,,,,,,METAR,253.0
LEVT 242200Z 34004KT 300V020 6000 -DZ BKN009 OVC013 12/12 Q1021,LEVT,2023-05-24T22:00:00Z,42.87,-2.72,12.0,12.0,340,4,,3.73,30.147638,,,,,,,,,,-DZ,BKN,900,OVC,1300,,,,,IFR,,,,,,,,,,,,METAR,501.0
LEVS 242200Z AUTO 14001KT CAVOK 18/10 Q1018,LEVS,2023-05-24T22:00:00Z,40.37,-3.78,18.0,10.0,140,1,,6.21,30.059055,,,TRUE,,,,,,,,CAVOK,,,,,,,,VFR,,,,,,,,,,,,METAR,683.0
LEVD 242200Z AUTO 04010KT 010V070 CAVOK 12/09 Q1019,LEVD,2023-05-24T22:00:00Z,41.72,-4.85,12.0,9.0,40,10,,6.21,30.088583,,,TRUE,,,,,,,,CAVOK,,,,,,,,VFR,,,,,,,,,,,,METAR,844.0
LEVC 242200Z VRB02KT CAVOK 19/15 Q1015 NOSIG,LEVC,2023-05-24T22:00:00Z,39.5,-0.47,19.0,15.0,0,2,,6.21,29.970472,,,,,,TRUE,,,,,CAVOK,,,,,,,,VFR,,,,,,,,,,,,METAR,58.0
LETU 242200Z AUTO 30012KT 9999 FEW042 17/10 Q1018,LETU,2023-05-24T22:00:00Z,,,17.0,10.0,300,12,,6.21,30.059055,,,TRUE,,,,,,,,FEW,4200,,,,,,,VFR,,,,,,,,,,,,METAR,
LETO 242200Z 00000KT CAVOK 15/13 Q1017 NOSIG,LETO,2023-05-24T22:00:00Z,40.48,-3.47,15.0,13.0,0,0,,6.21,30.029528,,,,,,TRUE,,,,,CAVOK,,,,,,,,VFR,,,,,,,,,,,,METAR,598.0
LETL 242200Z AUTO 32008KT CAVOK 13/11 Q1019,LETL,2023-05-24T22:00:00Z,40.42,-1.22,13.0,11.0,320,8,,6.21,30.088583,,,TRUE,,,,,,,,CAVOK,,,,,,,,VFR,,,,,,,,,,,,METAR,1024.0
LEST 242200Z 05005KT 360V090 9999 FEW030 14/11 Q1018 NOSIG,LEST,2023-05-24T22:00:00Z,42.88,-8.42,14.0,11.0,50,5,,6.21,30.059055,,,,,,TRUE,,,,,FEW,3000,,,,,,,VFR,,,,,,,,,,,,METAR,363.0
LESO 242200Z AUTO 23008KT 190V270 9999 BKN015 BKN024 OVC038 17/14 Q1020,LESO,2023-05-24T22:00:00Z,43.35,-1.8,17.0,14.0,230,8,,6.21,30.11811,,,TRUE,,,,,,,,BKN,1500,BKN,2400,OVC,3800,,,MVFR,,,,,,,,,,,,METAR,3.0
LESB 242200Z AUTO VRB02KT CAVOK 18/13 Q1014,LESB,2023-05-24T22:00:00Z,39.6,2.7,18.0,13.0,0,2,,6.21,29.940945,,,TRUE,,,,,,,,CAVOK,,,,,,,,VFR,,,,,,,,,,,,METAR,48.0
LESA 242200Z AUTO 18003KT 120V210 CAVOK 14/13 Q1019,LESA,2023-05-24T22:00:00Z,40.95,-5.5,14.0,13.0,180,3,,6.21,30.088583,,,TRUE,,,,,,,,CAVOK,,,,,,,,VFR,,,,,,,,,,,,METAR,788.0
LERT 242200Z VRB02KT CAVOK 18/16 Q1015 NOSIG,LERT,2023-05-24T22:00:00Z,36.63,-6.33,18.0,16.0,0,2,,6.21,29.970472,,,,,,TRUE,,,,,CAVOK,,,,,,,,VFR,,,,,,,,,,,,METAR,27.0
LERS 242200Z 03005KT CAVOK 16/12 Q1015,LERS,2023-05-24T22:00:00Z,41.13,1.17,16.0,12.0,30,5,,6.21,29.970472,,,,,,,,,,,CAVOK,,,,,,,,VFR,,,,,,,,,,,,METAR,68.0
LEPP 242200Z 33010KT 9999 BKN020 14/10 Q1019,LEPP,2023-05-24T22:00:00Z,42.77,-1.65,14.0,10.0,330,10,,6.21,30.088583,,,,,,,,,,,BKN,2000,,,,,,,MVFR,,,,,,,,,,,,METAR,448.0
LEPA 242200Z VRB02KT 9999 FEW018 18/14 Q1014 NOSIG,LEPA,2023-05-24T22:00:00Z,39.55,2.73,18.0,14.0,0,2,,6.21,29.940945,,,,,,TRUE,,,,,FEW,1800,,,,,,,VFR,,,,,,,,,,,,METAR,8.0
LEMI 242200Z AUTO 00000KT CAVOK 16/15 Q1016,LEMI,2023-05-24T22:00:00Z,37.8,-1.12,16.0,15.0,0,0,,6.21,30.0,,,TRUE,,,,,,,,CAVOK,,,,,,,,VFR,,,,,,,,,,,,METAR,193.0
LEMH 242200Z 03004KT 9999 FEW020 17/15 Q1014,LEMH,2023-05-24T22:00:00Z,39.87,4.22,17.0,15.0,30,4,,6.21,29.940945,,,,,,,,,,,FEW,2000,,,,,,,VFR,,,,,,,,,,,,METAR,82.0
LEMG 242200Z VRB02KT 9999 FEW045 BKN080 18/14 Q1016 NOSIG,LEMG,2023-05-24T22:00:00Z,36.67,-4.47,18.0,14.0,0,2,,6.21,30.0,,,,,,TRUE,,,,,FEW,4500,BKN,8000,,,,,VFR,,,,,,,,,,,,METAR,5.0
LEMD 242200Z VRB01KT 9999 FEW050 15/13 Q1017 NOSIG,LEMD,2023-05-24T22:00:00Z,40.45,-3.57,15.0,13.0,0,1,,6.21,30.029528,,,,,,TRUE,,,,,FEW,5000,,,,,,,VFR,,,,,,,,,,,,METAR,589.0
LELO 242200Z AUTO 27008KT 240V300 9999 OVC035 15/09 Q1020,LELO,2023-05-24T22:00:00Z,42.45,-2.32,15.0,9.0,270,8,,6.21,30.11811,,,TRUE,,,,,,,,OVC,3500,,,,,,,VFR,,,,,,,,,,,,METAR,352.0
LELN 242200Z AUTO 35005KT 320V020 CAVOK 12/07 Q1019,LELN,2023-05-24T22:00:00Z,42.58,-5.65,12.0,7.0,350,5,,6.21,30.088583,,,TRUE,,,,,,,,CAVOK,,,,,,,,VFR,,,,,,,,,,,,METAR,911.0
LELL 242200Z AUTO 00000KT CAVOK 16/12 Q1015,LELL,2023-05-24T22:00:00Z,41.52,2.1,16.0,12.0,0,0,,6.21,29.970472,,,TRUE,,,,,,,,CAVOK,,,,,,,,VFR,,,,,,,,,,,,METAR,136.0
LELC 242200Z AUTO 27003KT 7000 NSC 17/16 Q1015,LELC,2023-05-24T22:00:00Z,37.77,-0.8,17.0,16.0,270,3,,4.35,29.970472,,,TRUE,,,,,,,,CLR,,,,,,,,MVFR,,,,,,,,,,,,METAR,3.0
LEJR 242200Z AUTO 13003KT CAVOK 17/15 Q1015,LEJR,2023-05-24T22:00:00Z,36.75,-6.07,17.0,15.0,130,3,,6.21,29.970472,,,TRUE,,,,,,,,CAVOK,,,,,,,,VFR,,,,,,,,,,,,METAR,25.0
LEIB 242200Z VRB01KT CAVOK 17/14 Q1014 NOSIG,LEIB,2023-05-24T22:00:00Z,38.87,1.38,17.0,14.0,0,1,,6.21,29.940945,,,,,,TRUE,,,,,CAVOK,,,,,,,,VFR,,,,,,,,,,,,METAR,4.0
LEHC 242200Z AUTO 27007KT CAVOK 14/12 Q1017,LEHC,2023-05-24T22:00:00Z,42.08,-0.32,14.0,12.0,270,7,,6.21,30.029528,,,TRUE,,,,,,,,CAVOK,,,,,,,,VFR,,,,,,,,,,,,METAR,540.0
LEGR 242200Z AUTO 26005KT CAVOK 16/13 Q1016,LEGR,2023-05-24T22:00:00Z,37.18,-3.78,16.0,13.0,260,5,,6.21,30.0,,,TRUE,,,,,,,,CAVOK,,,,,,,,VFR,,,,,,,,,,,,METAR,560.0
LEGE 242200Z 01001KT CAVOK 14/13 Q1014,LEGE,2023-05-24T22:00:00Z,41.9,2.77,14.0,13.0,10,1,,6.21,29.940945,,,,,,,,,,,CAVOK,,,,,,,,VFR,,,,,,,,,,,,METAR,140.0
LEDA 242200Z AUTO 05003KT CAVOK 14/13 Q1016,LEDA,2023-05-24T22:00:00Z,41.73,0.53,14.0,13.0,50,3,,6.21,30.0,,,TRUE,,,,,,,,CAVOK,,,,,,,,VFR,,,,,,,,,,,,METAR,352.0
LECO 242200Z 06006KT 9999 FEW028 16/11 Q1019 NOSIG,LECO,2023-05-24T22:00:00Z,43.3,-8.37,16.0,11.0,60,6,,6.21,30.088583,,,,,,TRUE,,,,,FEW,2800,,,,,,,VFR,,,,,,,,,,,,METAR,80.0
LECH 242200Z AUTO 01004KT CAVOK 16/12 Q1016,LECH,2023-05-24T22:00:00Z,40.2,0.07,16.0,12.0,10,4,,6.21,30.0,,,TRUE,,,,,,,,CAVOK,,,,,,,,VFR,,,,,,,,,,,,METAR,360.0
LEBT 242200Z AUTO VRB02KT CAVOK 16/13 Q1016,LEBT,2023-05-24T22:00:00Z,39.58,-0.45,16.0,13.0,0,2,,6.21,30.0,,,TRUE,,,,,,,,CAVOK,,,,,,,,VFR,,,,,,,,,,,,METAR,50.0
LEBR 242200Z AUTO 32015KT 9999 SCT049 16/10 Q1018,LEBR,2023-05-24T22:00:00Z,42.2,-1.43,16.0,10.0,320,15,,6.21,30.059055,,,TRUE,,,,,,,,SCT,4900,,,,,,,VFR,,,,,,,,,,,,METAR,347.0
LEBL 242200Z 30004KT 9999 FEW035 19/13 Q1014 NOSIG,LEBL,2023-05-24T22:00:00Z,41.28,2.07,19.0,13.0,300,4,,6.21,29.940945,,,,,,TRUE,,,,,FEW,3500,,,,,,,VFR,,,,,,,,,,,,METAR,2.0
LEBG 242200Z AUTO 04010KT CAVOK 09/07 Q1020,LEBG,2023-05-24T22:00:00Z,42.37,-3.62,9.0,7.0,40,10,,6.21,30.11811,,,TRUE,,,,,,,,CAVOK,,,,,,,,VFR,,,,,,,,,,,,METAR,892.0
LEBB 242200Z AUTO 29005KT 260V320 9999 FEW025 OVC043 16/13 Q1021,LEBB,2023-05-24T22:00:00Z,43.28,-2.92,16.0,13.0,290,5,,6.21,30.147638,,,TRUE,,,,,,,,FEW,2500,OVC,4300,,,,,VFR,,,,,,,,,,,,METAR,38.0
LEBA 242200Z AUTO 13003KT 100V190 CAVOK 19/12 Q1015,LEBA,2023-05-24T22:00:00Z,37.85,-4.83,19.0,12.0,130,3,,6.21,29.970472,,,TRUE,,,,,,,,CAVOK,,,,,,,,VFR,,,,,,,,,,,,METAR,88.0
LEAS 242200Z 09006KT 050V120 9999 BKN028 15/13 Q1022 NOSIG,LEAS,2023-05-24T22:00:00Z,43.57,-6.03,15.0,13.0,90,6,,6.21,30.177166,,,,,,TRUE,,,,,BKN,2800,,,,,,,MVFR,,,,,,,,,,,,METAR,120.0
LEAM 242200Z AUTO 36003KT CAVOK 18/14 Q1016,LEAM,2023-05-24T22:00:00Z,36.85,-2.37,18.0,14.0,360,3,,6.21,30.0,,,TRUE,,,,,,,,CAVOK,,,,,,,,VFR,,,,,,,,,,,,METAR,16.0
LEAL 242200Z VRB02KT CAVOK 19/16 Q1015 NOSIG,LEAL,2023-05-24T22:00:00Z,38.27,-0.55,19.0,16.0,0,2,,6.21,29.970472,,,,,,TRUE,,,,,CAVOK,,,,,,,,VFR,,,,,,,,,,,,METAR,26.0
LEAG 242200Z AUTO VRB02KT CAVOK 18/15 Q1016,LEAG,2023-05-24T22:00:00Z,36.12,-5.45,18.0,15.0,0,2,,6.21,30.0,,,TRUE,,,,,,,,CAVOK,,,,,,,,VFR,,,,,,,,,,,,METAR,4.0
LEAB 242200Z 17004KT CAVOK 14/12 Q1017 NOSIG,LEAB,2023-05-24T22:00:00Z,38.95,-1.85,14.0,12.0,170,4,,6.21,30.029528,,,,,,TRUE,,,,,CAVOK,,,,,,,,VFR,,,,,,,,,,,,METAR,704.0
LDZD 242200Z 29004KT 260V320 CAVOK 15/14 Q1014,LDZD,2023-05-24T22:00:00Z,44.1,15.33,15.0,14.0,290,4,,6.21,29.940945,,,,,,,,,,,CAVOK,,,,,,,,VFR,,,,,,,,,,,,METAR,82.0
LDZA 242200Z 03003KT 340V080 CAVOK 17/13 Q1017 NOSIG,LDZA,2023-05-24T22:00:00Z,45.72,16.07,17.0,13.0,30,3,,6.21,30.029528,,,,,,TRUE,,,,,CAVOK,,,,,,,,VFR,,,,,,,,,,,,METAR,103.0
LDSP 242200Z 29003KT 220V340 CAVOK 18/14 Q1014 NOSIG,LDSP,2023-05-24T22:00:00Z,43.53,16.3,18.0,14.0,290,3,,6.21,29.940945,,,,,,TRUE,,,,,CAVOK,,,,,,,,VFR,,,,,,,,,,,,METAR,16.0
LDRI 242200Z 22003KT 180V260 CAVOK 18/13 Q1015,LDRI,2023-05-24T22:00:00Z,45.22,14.57,18.0,13.0,220,3,,6.21,29.970472,,,,,,,,,,,CAVOK,,,,,,,,VFR,,,,,,,,,,,,METAR,80.0
LDPL 242200Z 07008KT CAVOK 17/14 Q1014,LDPL,2023-05-24T22:00:00Z,44.88,13.92,17.0,14.0,70,8,,6.21,29.940945,,,,,,,,,,,CAVOK,,,,,,,,VFR,,,,,,,,,,,,METAR,63.0
LDOS 242200Z 36007KT CAVOK 18/13 Q1016,LDOS,2023-05-24T22:00:00Z,45.47,18.82,18.0,13.0,360,7,,6.21,30.0,,,,,,,,,,,CAVOK,,,,,,,,VFR,,,,,,,,,,,,METAR,82.0
LDDU 242200Z 08003KT 060V120 CAVOK 18/15 Q1015 NOSIG,LDDU,2023-05-24T22:00:00Z,42.57,18.27,18.0,15.0,80,3,,6.21,29.970472,,,,,,TRUE,,,,,CAVOK,,,,,,,,VFR,,,,,,,,,,,,METAR,156.0
LCPH 242200Z 07003KT 360V090 CAVOK 20/15 Q1011 NOSIG,LCPH,2023-05-24T22:00:00Z,34.72,32.47,20.0,15.0,70,3,,6.21,29.852362,,,,,,TRUE,,,,,CAVOK,,,,,,,,VFR,,,,,,,,,,,,METAR,8.0
LCLK 242200Z 28005KT CAVOK 19/16 Q1011 NOSIG,LCLK,2023-05-24T22:00:00Z,34.87,33.62,19.0,16.0,280,5,,6.21,29.852362,,,,,,TRUE,,,,,CAVOK,,,,,,,,VFR,,,,,,,,,,,,METAR,2.0
LBWN 242200Z AUTO 06003KT 020V080 9999 NCD 13/10 Q1014 NOSIG,LBWN,2023-05-24T22:00:00Z,43.22,27.82,13.0,10.0,60,3,,6.21,29.940945,,,TRUE,,,TRUE,,,,,CLR,,,,,,,,VFR,,,,,,,,,,,,METAR,74.0
LBSF 242200Z AUTO 14005KT 9999 NSC 15/11 Q1016 NOSIG,LBSF,2023-05-24T22:00:00Z,42.65,23.37,15.0,11.0,140,5,,6.21,30.0,,,TRUE,,,TRUE,,,,,CLR,,,,,,,,VFR,,,,,,,,,,,,METAR,592.0
LBPD 242200Z AUTO 21004KT 9999 NCD 13/12 Q1015,LBPD,2023-05-24T22:00:00Z,42.05,24.85,13.0,12.0,210,4,,6.21,29.970472,,,TRUE,,,,,,,,CLR,,,,,,,,VFR,,,,,,,,,,,,METAR,182.0
LBGO 242200Z AUTO 00000KT 9999 BKN098/// 13/12 Q1014,LBGO,2023-05-24T22:00:00Z,43.15,25.72,13.0,12.0,0,0,,6.21,29.940945,,,TRUE,,,,,,,,BKN,9800,,,,,,,VFR,,,,,,,,,,,,METAR,84.0
LBBG 242200Z AUTO 03005KT 9000 NSC 14/14 Q1014 TEMPO 3000 BR,LBBG,2023-05-24T22:00:00Z,42.57,27.52,14.0,14.0,30,5,,5.59,29.940945,,,TRUE,,,,,,,,CLR,,,,,,,,VFR,,,,,,,,,,,,SPECI,41.0
KS71 242200Z AUTO 28005KT 10SM 18/16 A2989 ,KS71,2023-05-24T22:00:00Z,48.6,-109.25,18.0,16.0,280,5,,10.0,29.890747,,,TRUE,,,,,,,,,,,,,,,,,,,,,,,,,,,,METAR,736.0
KS59 242200Z AUTO 00000KT 10SM 21/04 A2986 ,KS59,2023-05-24T22:00:00Z,48.28,-115.48,21.0,4.0,0,0,,10.0,29.861221,,,TRUE,,,,,,,,,,,,,,,,,,,,,,,,,,,,METAR,793.0
KNEL 242200Z AUTO 14009KT CLR 23/07 A2991 RMK AO2 SLP127 T02330072 $,KNEL,2023-05-24T22:00:00Z,40.03,-74.33,23.3,7.2,140,9,,,29.911417,1012.7,,TRUE,TRUE,TRUE,,,,,,CLR,,,,,,,,,,,,,,,,,,,,SPECI,26.0
KMHV 242200Z AUTO 22021KT 10SM CLR 26/M01 A2984 RMK AO2,KMHV,2023-05-24T22:00:00Z,35.07,-118.15,26.0,-1.0,220,21,,10.0,29.840551,,,TRUE,TRUE,,,,,,,CLR,,,,,,,,VFR,,,,,,,,,,,,METAR,841.0
KGZN 242200Z AUTO 09007KT 10SM SCT043 BKN050 27/17 A2994 RMK AO2,KGZN,2023-05-24T22:00:00Z,32.37,-99.02,27.0,17.0,90,7,,10.0,29.940945,,,TRUE,TRUE,,,,,,,SCT,4300,BKN,5000,,,,,VFR,,,,,,,,,,,,METAR,522.0
KGIF 242200Z AUTO 03004KT 7SM RA SCT027 BKN050 OVC085 22/20 A2986 RMK AO2 LTG DSNT S-NW P0002 T02170200,KGIF,2023-05-24T22:00:00Z,28.07,-81.75,21.7,20.0,30,4,,7.0,29.861221,,,TRUE,TRUE,,,,,,RA,SCT,2700,BKN,5000,OVC,8500,,,VFR,,,,,,0.02,,,,,,METAR,44.0
KFMY 242200Z AUTO 05011KT 10SM BKN045 OVC060 27/21 A2978 RMK AO2 LTG DSNT ALQDS T02670206,KFMY,2023-05-24T22:00:00Z,26.58,-81.87,26.7,20.6,50,11,,10.0,29.778543,,,TRUE,TRUE,,,,,,,BKN,4500,OVC,6000,,,,,VFR,,,,,,,,,,,,SPECI,4.0
KETC 242200Z AUTO 03007KT 10SM SCT100 BKN120 23/04 A2996 RMK AO2 T02310042,KETC,2023-05-24T22:00:00Z,35.93,-77.55,23.1,4.2,30,7,,10.0,29.958662,,,TRUE,TRUE,,,,,,,SCT,10000,BKN,12000,,,,,VFR,,,,,,,,,,,,SPECI,15.0
KCRG 242200Z 05011KT 10SM CLR 24/17 A2988 RMK AO2 T02440172,KCRG,2023-05-24T22:00:00Z,30.33,-81.52,24.4,17.2,50,11,,10.0,29.878937,,,,TRUE,,,,,,,CLR,,,,,,,,VFR,,,,,,,,,,,,SPECI,12.0
KBML 242200Z AUTO 17003KT 3SM -RA BR FEW005 OVC048 11/09 A3001 RMK AO2 P0001 T01060094,KBML,2023-05-24T22:00:00Z,44.58,-71.18,10.6,9.4,170,3,,3.0,30.008858,,,TRUE,TRUE,,,,,,-RA BR,FEW,500,OVC,4800,,,,,MVFR,,,,,,0.01,,,,,,METAR,344.0
KAPS 242200Z AUTO 04008KT 10SM BKN033 BKN040 BKN049 27/19 A2988 RMK AO2,KAPS,2023-05-24T22:00:00Z,30.08,-90.58,27.0,19.0,40,8,,10.0,29.878937,,,TRUE,TRUE,,,,,,,BKN,3300,BKN,4000,BKN,4900,,,VFR,,,,,,,,,,,,METAR,1.0
K3U3 242200Z AUTO 00000KT 10SM 17/08 A2995 ,K3U3,2023-05-24T22:00:00Z,46.15,-112.87,17.0,8.0,0,0,,10.0,29.949802,,,TRUE,,,,,,,,,,,,,,,,,,,,,,,,,,,,METAR,1534.0
K1S3 242200Z AUTO 26008KT 10SM 29/11 A2978 ,K1S3,2023-05-24T22:00:00Z,46.27,-106.62,29.0,11.0,260,8,,10.0,29.778543,,,TRUE,,,,,,,,,,,,,,,,,,,,,,,,,,,,METAR,831.0
HUEN 242200Z 34003KT CAVOK 22/22 Q1017 NOSIG,HUEN,2023-05-24T22:00:00Z,0.03,32.45,22.0,22.0,340,3,,6.21,30.029528,,,,,,TRUE,,,,,CAVOK,,,,,,,,VFR,,,,,,,,,,,,METAR,1147.0
HTZA 242200Z 00000KT 9999 FEW016 25/22 Q1015,HTZA,2023-05-24T22:00:00Z,-6.22,39.22,25.0,22.0,0,0,,6.21,29.970472,,,,,,,,,,,FEW,1600,,,,,,,VFR,,,,,,,,,,,,METAR,19.0
HTTB 242200Z 12005KT 9999 FEW016 19/16 Q1019 NOSIG,HTTB,2023-05-24T22:00:00Z,-5.07,32.82,19.0,16.0,120,5,,6.21,30.088583,,,,,,TRUE,,,,,FEW,1600,,,,,,,VFR,,,,,,,,,,,,METAR,1185.0
HTSU 242200Z 00000KT 9999 FEW018 17/14 Q1025,HTSU,2023-05-24T22:00:00Z,-7.95,31.6,17.0,14.0,0,0,,6.21,30.265747,,,,,,,,,,,FEW,1800,,,,,,,VFR,,,,,,,,,,,,METAR,1820.0
HTSO 242200Z 00000KT 9999 SKC 18/15 Q1022,HTSO,2023-05-24T22:00:00Z,-10.67,35.58,18.0,15.0,0,0,,6.21,30.177166,,,,,,,,,,,SKC,,,,,,,,VFR,,,,,,,,,,,,METAR,1058.0
HTMG 242200Z 00000KT 9999 BKN022 22/20 Q1017,HTMG,2023-05-24T22:00:00Z,-6.78,37.65,22.0,20.0,0,0,,6.21,30.029528,,,,,,,,,,,BKN,2200,,,,,,,MVFR,,,,,,,,,,,,METAR,512.0
HTKJ 242200Z 00000KT 9999 SCT024 20/16 Q1019 NOSIG,HTKJ,2023-05-24T22:00:00Z,-3.42,37.07,20.0,16.0,0,0,,6.21,30.088583,,,,,,TRUE,,,,,SCT,2400,,,,,,,VFR,,,,,,,,,,,,METAR,893.0
HTKA 242200Z 00000KT 9999 FEW020 FEW021CB 21/19 Q1016 NOSIG,HTKA,2023-05-24T22:00:00Z,-4.88,29.67,21.0,19.0,0,0,,6.21,30.0,,,,,,TRUE,,,,,FEW,2000,FEW,2100,,,,,VFR,,,,,,,,,,,,METAR,819.0
HTIR 242200Z 00000KT 9999 FEW020 18/14 Q1021,HTIR,2023-05-24T22:00:00Z,-7.67,35.75,18.0,14.0,0,0,,6.21,30.147638,,,,,,,,,,,FEW,2000,,,,,,,VFR,,,,,,,,,,,,METAR,1432.0
HTIB 242200Z 00000KT CAVOK 20/15 Q1016,HTIB,2023-05-24T22:00:00Z,,,20.0,15.0,0,0,,6.21,30.0,,,,,,,,,,,CAVOK,,,,,,,,VFR,,,,,,,,,,,,METAR,
HTDO 242200Z 03009KT 9999 FEW023 20/17 Q1019 NOSIG,HTDO,2023-05-24T22:00:00Z,-6.17,35.77,20.0,17.0,30,9,,6.21,30.088583,,,,,,TRUE,,,,,FEW,2300,,,,,,,VFR,,,,,,,,,,,,METAR,1119.0
HTDA 242200Z 17005KT 9999 FEW012 24/22 Q1015 NOSIG,HTDA,2023-05-24T22:00:00Z,-6.88,39.2,24.0,22.0,170,5,,6.21,29.970472,,,,,,TRUE,,,,,FEW,1200,,,,,,,VFR,,,,,,,,,,,,METAR,53.0
HTBU 242200Z 00000KT 9999 FEW015 FEW017CB 20/19 Q1017 NOSIG,HTBU,2023-05-24T22:00:00Z,-1.32,31.82,20.0,19.0,0,0,,6.21,30.029528,,,,,,TRUE,,,,,FEW,1500,FEW,1700,,,,,VFR,,,,,,,,,,,,METAR,1144.0
HTAR 242200Z 00000KT 9999 FEW022 16/14 Q1022 NOSIG,HTAR,2023-05-24T22:00:00Z,-3.37,36.63,16.0,14.0,0,0,,6.21,30.177166,,,,,,TRUE,,,,,FEW,2200,,,,,,,VFR,,,,,,,,,,,,METAR,1386.0
HRYR 242200Z 31008KT 9999 TS FEW023CB BKN025 20/19 Q1021 NOSIG,HRYR,2023-05-24T22:00:00Z,-1.97,30.13,20.0,19.0,310,8,,6.21,30.147638,,,,,,TRUE,,,,TS,FEW,2300,BKN,2500,,,,,MVFR,,,,,,,,,,,,METAR,1493.0
HKNI 242200Z 16003KT 9999 BKN018 17/14,HKNI,2023-05-24T22:00:00Z,-0.33,36.92,17.0,14.0,160,3,,6.21,,,,,,,,,,,,BKN,1800,,,,,,,MVFR,,,,,,,,,,,,METAR,1769.0
HKLO 242200Z 10018KT CAVOK 30/17 Q1009,HKLO,2023-05-24T22:00:00Z,3.12,35.62,30.0,17.0,100,18,,6.21,29.793306,,,,,,,,,,,CAVOK,,,,,,,,VFR,,,,,,,,,,,,METAR,503.0
HKJK 242200Z 05007KT 9999 BKN020 19/14 Q1023 NOSIG,HKJK,2023-05-24T22:00:00Z,-1.32,36.92,19.0,14.0,50,7,,6.21,30.206694,,,,,,TRUE,,,,,BKN,2000,,,,,,,MVFR,,,,,,,,,,,,METAR,1615.0
HKEL 242200Z 15010KT CAVOK 15/13 Q1025,HKEL,2023-05-24T22:00:00Z,0.4,35.23,15.0,13.0,150,10,,6.21,30.265747,,,,,,,,,,,CAVOK,,,,,,,,VFR,,,,,,,,,,,,METAR,2116.0
HETR 242200Z 29005KT CAVOK 25/18 Q1008,HETR,2023-05-24T22:00:00Z,28.22,33.65,25.0,18.0,290,5,,6.21,29.763779,,,,,,,,,,,CAVOK,,,,,,,,VFR,,,,,,,,,,,,METAR,35.0
HESW 242200Z 06016KT CAVOK 23/14 Q1012,HESW,2023-05-24T22:00:00Z,29.35,25.5,23.0,14.0,60,16,,6.21,29.88189,,,,,,,,,,,CAVOK,,,,,,,,VFR,,,,,,,,,,,,METAR,101.0
HESN 242200Z 35007KT CAVOK 32/02 Q1008 NOSIG,HESN,2023-05-24T22:00:00Z,23.97,32.82,32.0,2.0,350,7,,6.21,29.763779,,,,,,TRUE,,,,,CAVOK,,,,,,,,VFR,,,,,,,,,,,,METAR,197.0
HESH 242200Z 02008KT CAVOK 28/13 Q1007 NOSIG,HESH,2023-05-24T22:00:00Z,27.97,34.38,28.0,13.0,20,8,,6.21,29.734253,,,,,,TRUE,,,,,CAVOK,,,,,,,,VFR,,,,,,,,,,,,METAR,50.0
HESG 242200Z 34010KT CAVOK 29/02 Q1008 NOSIG,HESG,2023-05-24T22:00:00Z,26.33,31.75,29.0,2.0,340,10,,6.21,29.763779,,,,,,TRUE,,,,,CAVOK,,,,,,,,VFR,,,,,,,,,,,,METAR,70.0
HEPS 242200Z 01006KT CAVOK 21/19 Q1012 NOSIG,HEPS,2023-05-24T22:00:00Z,31.28,32.25,21.0,19.0,10,6,,6.21,29.88189,,,,,,TRUE,,,,,CAVOK,,,,,,,,VFR,,,,,,,,,,,,METAR,2.0
HEMM 242200Z 05006KT 9999 SCT020 20/17 Q1014 NOSIG,HEMM,2023-05-24T22:00:00Z,31.32,27.22,20.0,17.0,50,6,,6.21,29.940945,,,,,,TRUE,,,,,SCT,2000,,,,,,,VFR,,,,,,,,,,,,METAR,26.0
HEMA 242200Z 34004KT CAVOK 26/23 Q1008 NOSIG,HEMA,2023-05-24T22:00:00Z,25.55,34.58,26.0,23.0,340,4,,6.21,29.763779,,,,,,TRUE,,,,,CAVOK,,,,,,,,VFR,,,,,,,,,,,,METAR,77.0
HELX 242200Z 00000KT 6000 NSC 29/06 Q1008 NOSIG,HELX,2023-05-24T22:00:00Z,25.67,32.7,29.0,6.0,0,0,,3.73,29.763779,,,,,,TRUE,,,,,CLR,,,,,,,,MVFR,,,,,,,,,,,,METAR,86.0
HEGN 242200Z 00000KT CAVOK 27/17 Q1008 NOSIG,HEGN,2023-05-24T22:00:00Z,27.18,33.8,27.0,17.0,0,0,,6.21,29.763779,,,,,,TRUE,,,,,CAVOK,,,,,,,,VFR,,,,,,,,,,,,METAR,14.0
HECA 242200Z 06006KT CAVOK 23/15 Q1012 NOSIG,HECA,2023-05-24T22:00:00Z,30.12,31.4,23.0,15.0,60,6,,6.21,29.88189,,,,,,TRUE,,,,,CAVOK,,,,,,,,VFR,,,,,,,,,,,,METAR,68.0
HEBA 242200Z 00000KT CAVOK 18/15 Q1013 NOSIG,HEBA,2023-05-24T22:00:00Z,30.92,29.7,18.0,15.0,0,0,,6.21,29.911417,,,,,,TRUE,,,,,CAVOK,,,,,,,,VFR,,,,,,,,,,,,METAR,41.0
HEAT 242200Z 02006KT CAVOK 27/02 Q1011 NOSIG,HEAT,2023-05-24T22:00:00Z,27.05,31.02,27.0,2.0,20,6,,6.21,29.852362,,,,,,TRUE,,,,,CAVOK,,,,,,,,VFR,,,,,,,,,,,,METAR,229.0
HAAB 242200Z 31007KT 9999 BKN025 15/14 Q1028,HAAB,2023-05-24T22:00:00Z,8.97,38.78,15.0,14.0,310,7,,6.21,30.35433,,,,,,,,,,,BKN,2500,,,,,,,MVFR,,,,,,,,,,,,METAR,2319.0
GVSV 242200Z 05016KT 9999 FEW018 BKN090 24/18 Q1014 NOSIG,GVSV,2023-05-24T22:00:00Z,16.83,-25.07,24.0,18.0,50,16,,6.21,29.940945,,,,,,TRUE,,,,,FEW,1800,BKN,9000,,,,,VFR,,,,,,,,,,,,METAR,16.0
GVNP 242200Z 03016KT 9999 FEW015 BKN120 23/19 Q1014 NOSIG,GVNP,2023-05-24T22:00:00Z,14.95,-23.48,23.0,19.0,30,16,,6.21,29.940945,,,,,,TRUE,,,,,FEW,1500,BKN,12000,,,,,VFR,,,,,,,,,,,,METAR,70.0
GVAC 242200Z 05012KT 9999 SCT013 BKN090 23/19 Q1014 NOSIG,GVAC,2023-05-24T22:00:00Z,16.73,-22.93,23.0,19.0,50,12,,6.21,29.940945,,,,,,TRUE,,,,,SCT,1300,BKN,9000,,,,,VFR,,,,,,,,,,,,METAR,54.0
GUCY 242200Z 30008KT 9999 TS FEW015 FEW023CB SCT110 30/25 Q1011 CB/N-E-S-W NOSIG,GUCY,2023-05-24T22:00:00Z,9.57,-13.62,30.0,25.0,300,8,,6.21,29.852362,,,,,,TRUE,,,,TS,FEW,1500,FEW,2300,SCT,11000,,,VFR,,,,,,,,,,,,METAR,10.0
GQPP 242200Z 35014KT 8000 NSC 20/15 Q1014 NOSIG,GQPP,2023-05-24T22:00:00Z,20.92,-17.02,20.0,15.0,350,14,,4.97,29.940945,,,,,,TRUE,,,,,CLR,,,,,,,,MVFR,,,,,,,,,,,,METAR,5.0
GQNO 242200Z 33008KT 8000 NSC 26/17 Q1012 NOSIG,GQNO,2023-05-24T22:00:00Z,18.3,-15.97,26.0,17.0,330,8,,4.97,29.88189,,,,,,TRUE,,,,,CLR,,,,,,,,MVFR,,,,,,,,,,,,METAR,1.0
GOTT 242200Z 32004KT CAVOK 37/15 Q1007,GOTT,2023-05-24T22:00:00Z,13.73,-13.65,37.0,15.0,320,4,,6.21,29.734253,,,,,,,,,,,CAVOK,,,,,,,,VFR,,,,,,,,,,,,METAR,53.0
GOSS 242200Z 36006KT 310V040 CAVOK 24/21 Q1011,GOSS,2023-05-24T22:00:00Z,16.05,-16.45,24.0,21.0,360,6,,6.21,29.852362,,,,,,,,,,,CAVOK,,,,,,,,VFR,,,,,,,,,,,,METAR,3.0
GOSP 242200Z 36002KT CAVOK 35/15 Q1010,GOSP,2023-05-24T22:00:00Z,16.68,-14.97,35.0,15.0,360,2,,6.21,29.822834,,,,,,,,,,,CAVOK,,,,,,,,VFR,,,,,,,,,,,,METAR,10.0
GOSM 242200Z 36008KT CAVOK 37/14 Q1007,GOSM,2023-05-24T22:00:00Z,15.6,-13.33,37.0,14.0,360,8,,6.21,29.734253,,,,,,,,,,,CAVOK,,,,,,,,VFR,,,,,,,,,,,,METAR,28.0
GOOY 242200Z 32016KT CAVOK 24/22 Q1011,GOOY,2023-05-24T22:00:00Z,14.73,-17.5,24.0,22.0,320,16,,6.21,29.852362,,,,,,,,,,,CAVOK,,,,,,,,VFR,,,,,,,,,,,,METAR,21.0
GOOK 242200Z 04012KT CAVOK 33/16 Q1009,GOOK,2023-05-24T22:00:00Z,14.15,-16.07,33.0,16.0,40,12,,6.21,29.793306,,,,,,,,,,,CAVOK,,,,,,,,VFR,,,,,,,,,,,,METAR,8.0
GOOG 242200Z 32008KT CAVOK 36/17 Q1006,GOOG,2023-05-24T22:00:00Z,15.4,-15.08,36.0,17.0,320,8,,6.21,29.704725,,,,,,,,,,,CAVOK,,,,,,,,VFR,,,,,,,,,,,,METAR,38.0
GOOD 242200Z 36010KT CAVOK 29/21 Q1009,GOOD,2023-05-24T22:00:00Z,14.65,-16.22,29.0,21.0,360,10,,6.21,29.793306,,,,,,,,,,,CAVOK,,,,,,,,VFR,,,,,,,,,,,,METAR,9.0
GOGS 242200Z 32006KT CAVOK 27/23 Q1010,GOGS,2023-05-24T22:00:00Z,12.4,-16.75,27.0,23.0,320,6,,6.21,29.822834,,,,,,,,,,,CAVOK,,,,,,,,VFR,,,,,,,,,,,,METAR,13.0
GOGG 242200Z 30006KT CAVOK 27/26 Q1010,GOGG,2023-05-24T22:00:00Z,12.55,-16.27,27.0,26.0,300,6,,6.21,29.822834,,,,,,,,,,,CAVOK,,,,,,,,VFR,,,,,,,,,,,,METAR,24.0
GOBD 242200Z 34015KT CAVOK 24/21 Q1011 NOSIG,GOBD,2023-05-24T22:00:00Z,14.67,-17.07,24.0,21.0,340,15,,6.21,29.852362,,,,,,TRUE,,,,,CAVOK,,,,,,,,VFR,,,,,,,,,,,,METAR,90.0
GMTT 242200Z 07002KT CAVOK 17/17 Q1015 NOSIG,GMTT,2023-05-24T22:00:00Z,35.72,-5.9,17.0,17.0,70,2,,6.21,29.970472,,,,,,TRUE,,,,,CAVOK,,,,,,,,VFR,,,,,,,,,,,,METAR,19.0
GMTN 242200Z 31004KT 9999 FEW020 15/11 Q1015 NOSIG,GMTN,2023-05-24T22:00:00Z,35.58,-5.32,15.0,11.0,310,4,,6.21,29.970472,,,,,,TRUE,,,,,FEW,2000,,,,,,,VFR,,,,,,,,,,,,METAR,10.0
GMTA 242200Z 26006KT CAVOK 18/13 Q1015 NOSIG,GMTA,2023-05-24T22:00:00Z,35.17,-3.85,18.0,13.0,260,6,,6.21,29.970472,,,,,,TRUE,,,,,CAVOK,,,,,,,,VFR,,,,,,,,,,,,METAR,14.0
GMMZ 242200Z 26010KT 9999 FEW040 21/03 Q1013 NOSIG,GMMZ,2023-05-24T22:00:00Z,30.93,-6.9,21.0,3.0,260,10,,6.21,29.911417,,,,,,TRUE,,,,,FEW,4000,,,,,,,VFR,,,,,,,,,,,,METAR,1139.0
GMMX 242200Z 03008KT 350V080 9999 SCT026 20/12 Q1014 NOSIG,GMMX,2023-05-24T22:00:00Z,31.62,-8.03,20.0,12.0,30,8,,6.21,29.940945,,,,,,TRUE,,,,,SCT,2600,,,,,,,VFR,,,,,,,,,,,,METAR,465.0
GMMW 242200Z 11003KT CAVOK 15/13 Q1016 NOSIG,GMMW,2023-05-24T22:00:00Z,34.98,-3.02,15.0,13.0,110,3,,6.21,30.0,,,,,,TRUE,,,,,CAVOK,,,,,,,,VFR,,,,,,,,,,,,METAR,174.0
GMMN 242200Z 04004KT 9999 SCT026 17/14 Q1015,GMMN,2023-05-24T22:00:00Z,33.37,-7.58,17.0,14.0,40,4,,6.21,29.970472,,,,,,,,,,,SCT,2600,,,,,,,VFR,,,,,,,,,,,,METAR,196.0
GMML 242200Z 36006KT 8000 NSC 18/18 Q1018 NOSIG,GMML,2023-05-24T22:00:00Z,27.13,-13.23,18.0,18.0,360,6,,4.97,30.059055,,,,,,TRUE,,,,,CLR,,,,,,,,MVFR,,,,,,,,,,,,METAR,63.0
GMMI 242200Z AUTO 02004KT 8000 FEW016 18/// Q1015 NOSIG,GMMI,2023-05-24T22:00:00Z,31.4,-9.68,,,20,4,,4.97,29.970472,,,TRUE,,,TRUE,,,,,FEW,1600,,,,,,,MVFR,,,,,,,,,,,,METAR,102.0
GMME 242200Z 00000KT 5000 NSC 15/15 Q1015 NOSIG,GMME,2023-05-24T22:00:00Z,34.05,-6.77,15.0,15.0,0,0,,3.11,29.970472,,,,,,TRUE,,,,,CLR,,,,,,,,MVFR,,,,,,,,,,,,METAR,84.0
GMMB 242200Z AUTO 05003KT 9999 NSC 16/16 Q1015 NOSIG,GMMB,2023-05-24T22:00:00Z,33.65,-7.22,16.0,16.0,50,3,,6.21,29.970472,,,TRUE,,,TRUE,,,,,CLR,,,,,,,,VFR,,,,,,,,,,,,METAR,191.0
GMFO 242200Z VRB01KT 9999 FEW023 14/12 Q1017 NOSIG,GMFO,2023-05-24T22:00:00Z,34.78,-1.92,14.0,12.0,0,1,,6.21,30.029528,,,,,,TRUE,,,,,FEW,2300,,,,,,,VFR,,,,,,,,,,,,METAR,452.0
GMFM 242200Z VRB02KT 9999 SCT020 14/12 Q1016 NOSIG,GMFM,2023-05-24T22:00:00Z,33.87,-5.52,14.0,12.0,0,2,,6.21,30.0,,,,,,TRUE,,,,,SCT,2000,,,,,,,VFR,,,,,,,,,,,,METAR,569.0
GMFK 242200Z 36011KT 9999 FEW040 SCT100 23/04 Q1015 NOSIG,GMFK,2023-05-24T22:00:00Z,31.95,-4.4,23.0,4.0,360,11,,6.21,29.970472,,,,,,TRUE,,,,,FEW,4000,SCT,10000,,,,,VFR,,,,,,,,,,,,METAR,1033.0
GMFF 242200Z 25005KT 9999 SCT033 15/13 Q1016 NOSIG,GMFF,2023-05-24T22:00:00Z,33.92,-4.97,15.0,13.0,250,5,,6.21,30.0,,,,,,TRUE,,,,,SCT,3300,,,,,,,VFR,,,,,,,,,,,,METAR,575.0
GMAD 242200Z 19009KT 9999 BKN013 19/16 Q1013 NOSIG,GMAD,2023-05-24T22:00:00Z,30.32,-9.42,19.0,16.0,190,9,,6.21,29.911417,,,,,,TRUE,,,,,BKN,1300,,,,,,,MVFR,,,,,,,,,,,,METAR,66.0
GLRB 242200Z 00000KT 9999 SCT015 FEW025CB 27/24 Q1010 NOSIG RMK CB/SE-S,GLRB,2023-05-24T22:00:00Z,6.25,-10.35,27.0,24.0,0,0,,6.21,29.822834,,,,,,TRUE,,,,,SCT,1500,FEW,2500,,,,,VFR,,,,,,,,,,,,METAR,12.0
GEML 242200Z AUTO 18002KT CAVOK 18/13 Q1016,GEML,2023-05-24T22:00:00Z,35.27,-2.95,18.0,13.0,180,2,,6.21,30.0,,,TRUE,,,,,,,,CAVOK,,,,,,,,VFR,,,,,,,,,,,,METAR,48.0
GECE 242200Z AUTO 19003KT 150V240 CAVOK 19/16 Q1015,GECE,2023-05-24T22:00:00Z,35.88,-5.3,19.0,16.0,190,3,,6.21,29.970472,,,TRUE,,,,,,,,CAVOK,,,,,,,,VFR,,,,,,,,,,,,METAR,2.0
GCXO 242200Z 27007KT 9999 FEW012 14/12 Q1019 NOSIG,GCXO,2023-05-24T22:00:00Z,28.48,-16.35,14.0,12.0,270,7,,6.21,30.088583,,,,,,TRUE,,,,,FEW,1200,,,,,,,VFR,,,,,,,,,,,,METAR,623.0
GCTS 242200Z 07004KT 040V110 9999 BKN055 20/14 Q1017 NOSIG,GCTS,2023-05-24T22:00:00Z,28.05,-16.57,20.0,14.0,70,4,,6.21,30.029528,,,,,,TRUE,,,,,BKN,5500,,,,,,,VFR,,,,,,,,,,,,METAR,59.0
GCRR 242200Z VRB01KT 9999 FEW030 20/14 Q1017,GCRR,2023-05-24T22:00:00Z,28.95,-13.58,20.0,14.0,0,1,,6.21,30.029528,,,,,,,,,,,FEW,3000,,,,,,,VFR,,,,,,,,,,,,METAR,9.0
GCLP 242200Z 34008KT 9999 FEW035 20/13 Q1017 NOSIG,GCLP,2023-05-24T22:00:00Z,27.92,-15.38,20.0,13.0,340,8,,6.21,30.029528,,,,,,TRUE,,,,,FEW,3500,,,,,,,VFR,,,,,,,,,,,,METAR,16.0
GCLA 242200Z AUTO 02007KT 9999 BKN036 BKN043 OVC067 21/14 Q1017,GCLA,2023-05-24T22:00:00Z,28.62,-17.75,21.0,14.0,20,7,,6.21,30.029528,,,TRUE,,,,,,,,BKN,3600,BKN,4300,OVC,6700,,,VFR,,,,,,,,,,,,METAR,20.0
GCHI 242200Z AUTO 35008KT 9999 FEW031 20/13 Q1017,GCHI,2023-05-24T22:00:00Z,27.82,-17.88,20.0,13.0,350,8,,6.21,30.029528,,,TRUE,,,,,,,,FEW,3100,,,,,,,VFR,,,,,,,,,,,,METAR,21.0
GCGM 242200Z AUTO 29004KT CAVOK 18/12 Q1018 RMK R09/30004KT ARP/30004KT,GCGM,2023-05-24T22:00:00Z,28.03,-17.22,18.0,12.0,290,4,,6.21,30.059055,,,TRUE,,,,,,,,CAVOK,,,,,,,,VFR,,,,,,,,,,,,METAR,217.0
GCFV 242200Z 33007KT 9999 FEW040 20/14 Q1017,GCFV,2023-05-24T22:00:00Z,28.43,-13.87,20.0,14.0,330,7,,6.21,30.029528,,,,,,,,,,,FEW,4000,,,,,,,VFR,,,,,,,,,,,,METAR,11.0
GBYD 242200Z 35011KT CAVOK 26/22 Q1009,GBYD,2023-05-24T22:00:00Z,13.33,-16.65,26.0,22.0,350,11,,6.21,29.793306,,,,,,,,,,,CAVOK,,,,,,,,VFR,,,,,,,,,,,,METAR,29.0
GAKD 242200Z 08004KT CAVOK 40/16 Q1007,GAKD,2023-05-24T22:00:00Z,14.48,-11.4,40.0,16.0,80,4,,6.21,29.734253,,,,,,,,,,,CAVOK,,,,,,,,VFR,,,,,,,,,,,,METAR,53.0
GABS 242200Z 17004KT 120V200 CAVOK 32/22 Q1011 NOSIG,GABS,2023-05-24T22:00:00Z,12.53,-7.95,32.0,22.0,170,4,,6.21,29.852362,,,,,,TRUE,,,,,CAVOK,,,,,,,,VFR,,,,,,,,,,,,METAR,375.0
FYWW 242200Z AUTO 08001KT //// // ////// 16/01 Q1022,FYWW,2023-05-24T22:00:00Z,-22.57,17.1,16.0,1.0,80,1,,,30.177166,,,TRUE,,,,,,,,,,,,,,,,,,,,,,,,,,,,SPECI,1672.0
FYWB 242200Z AUTO 24002KT //// // ////// 12/11 Q1017,FYWB,2023-05-24T22:00:00Z,-22.98,14.65,12.0,11.0,240,2,,,30.029528,,,TRUE,,,,,,,,,,,,,,,,,,,,,,,,,,,,SPECI,87.0
FYOA 242200Z AUTO 00000KT //// // ////// 19/02 Q1016,FYOA,2023-05-24T22:00:00Z,-17.88,15.97,19.0,2.0,0,0,,,30.0,,,TRUE,,,,,,,,,,,,,,,,,,,,,,,,,,,,SPECI,1099.0
FYLZ 242200Z AUTO 34003KT //// // ////// 12/11 Q1015,FYLZ,2023-05-24T22:00:00Z,-26.68,15.25,12.0,11.0,340,3,,,29.970472,,,TRUE,,,,,,,,,,,,,,,,,,,,,,,,,,,,METAR,129.0
FYKT 242200Z AUTO 31005KT //// // ////// 21/00 Q1015,FYKT,2023-05-24T22:00:00Z,-26.53,18.12,21.0,0.0,310,5,,,29.970472,,,TRUE,,,,,,,,,,,,,,,,,,,,,,,,,,,,METAR,1064.0
FYKM 242200Z AUTO 04001KT //// // ////// 14/04 Q1018,FYKM,2023-05-24T22:00:00Z,-17.63,24.18,14.0,4.0,40,1,,,30.059055,,,TRUE,,,,,,,,,,,,,,,,,,,,,,,,,,,,METAR,959.0
FWKI 242200Z 06006KT CAVOK 16/09 Q1022 NOSIG,FWKI,2023-05-24T22:00:00Z,-13.78,33.78,16.0,9.0,60,6,,6.21,30.177166,,,,,,TRUE,,,,,CAVOK,,,,,,,,VFR,,,,,,,,,,,,METAR,1225.0
FTTJ 242200Z 27006KT 8000 NSC 34/19 Q1007 NOSIG,FTTJ,2023-05-24T22:00:00Z,12.13,15.03,34.0,19.0,270,6,,4.97,29.734253,,,,,,TRUE,,,,,CLR,,,,,,,,MVFR,,,,,,,,,,,,METAR,295.0
FSIA 242200Z 17005KT 140V210 9999 FEW023 28/23 Q1013 NOSIG,FSIA,2023-05-24T22:00:00Z,-4.67,55.52,28.0,23.0,170,5,,6.21,29.911417,,,,,,TRUE,,,,,FEW,2300,,,,,,,VFR,,,,,,,,,,,,METAR,3.0
FQXA 242200Z 04005KT CAVOK 18/17 Q1019,FQXA,2023-05-24T22:00:00Z,-25.05,33.62,18.0,17.0,40,5,,6.21,30.088583,,,,,,,,,,,CAVOK,,,,,,,,VFR,,,,,,,,,,,,METAR,3.0
FQQL 242200Z 00000KT CAVOK 23/20 Q1017,FQQL,2023-05-24T22:00:00Z,-17.87,36.87,23.0,20.0,0,0,,6.21,30.029528,,,,,,,,,,,CAVOK,,,,,,,,VFR,,,,,,,,,,,,METAR,5.0
FQPB 242200Z 25003KT 9999 FEW020 24/23 Q1016,FQPB,2023-05-24T22:00:00Z,-12.98,40.52,24.0,23.0,250,3,,6.21,30.0,,,,,,,,,,,FEW,2000,,,,,,,VFR,,,,,,,,,,,,METAR,101.0
FOOL 242200Z 19008KT 160V220 9999 SCT012 BKN030 28/25 Q1010 NOSIG,FOOL,2023-05-24T22:00:00Z,0.45,9.42,28.0,25.0,190,8,,6.21,29.822834,,,,,,TRUE,,,,,SCT,1200,BKN,3000,,,,,MVFR,,,,,,,,,,,,METAR,9.0
FOOG 242200Z 18009KT 9999 SCT009 27/25 Q1011,FOOG,2023-05-24T22:00:00Z,-0.7,8.75,27.0,25.0,180,9,,6.21,29.852362,,,,,,,,,,,SCT,900,,,,,,,VFR,,,,,,,,,,,,METAR,4.0
FNLU 242200Z 18009KT 9999 BKN020 26/23 Q1011 NOSIG,FNLU,2023-05-24T22:00:00Z,-8.85,13.22,26.0,23.0,180,9,,6.21,29.852362,,,,,,TRUE,,,,,BKN,2000,,,,,,,MVFR,,,,,,,,,,,,METAR,75.0
FMSD 242200Z 00000KT 9999 FEW016 SCT033 17/16 Q1019,FMSD,2023-05-24T22:00:00Z,-25.03,46.95,17.0,16.0,0,0,,6.21,30.088583,,,,,,,,,,,FEW,1600,SCT,3300,,,,,VFR,,,,,,,,,,,,METAR,7.0
FMNM 242200Z VRB02KT 9999 FEW040 22/20 Q1014,FMNM,2023-05-24T22:00:00Z,-15.67,46.35,22.0,20.0,0,2,,6.21,29.940945,,,,,,,,,,,FEW,4000,,,,,,,VFR,,,,,,,,,,,,METAR,18.0
FMMT 242200Z 24004KT 9999 FEW017 21/20 Q1015,FMMT,2023-05-24T22:00:00Z,-18.12,49.38,21.0,20.0,240,4,,6.21,29.970472,,,,,,,,,,,FEW,1700,,,,,,,VFR,,,,,,,,,,,,METAR,13.0
FMMI 242200Z 05002KT 9999 FEW017 14/14 Q1020 NOSIG,FMMI,2023-05-24T22:00:00Z,-18.8,47.47,14.0,14.0,50,2,,6.21,30.11811,,,,,,TRUE,,,,,FEW,1700,,,,,,,VFR,,,,,,,,,,,,METAR,1269.0
FMEP 242200Z AUTO 08005KT 050V110 CAVOK 22/17 Q1015,FMEP,2023-05-24T22:00:00Z,-21.32,55.42,22.0,17.0,80,5,,6.21,29.970472,,,TRUE,,,,,,,,CAVOK,,,,,,,,VFR,,,,,,,,,,,,METAR,21.0
FMEE 242200Z AUTO 21002KT CAVOK 21/20 Q1015 TEMPO 2500 SHRA BKN020TCU,FMEE,2023-05-24T22:00:00Z,-20.88,55.52,21.0,20.0,210,2,,6.21,29.970472,,,TRUE,,,,,,,,CAVOK,,,,,,,,VFR,,,,,,,,,,,,METAR,20.0
FMCZ 242200Z AUTO 25005KT CAVOK 25/22 Q1014 NOSIG,FMCZ,2023-05-24T22:00:00Z,-12.8,45.27,25.0,22.0,250,5,,6.21,29.940945,,,TRUE,,,TRUE,,,,,CAVOK,,,,,,,,VFR,,,,,,,,,,,,METAR,7.0
FGSL 242200Z 25004KT 9999 FEW010 27/26 Q1010 NOSIG,FGSL,2023-05-24T22:00:00Z,3.75,8.72,27.0,26.0,250,4,,6.21,29.822834,,,,,,TRUE,,,,,FEW,1000,,,,,,,VFR,,,,,,,,,,,,METAR,23.0
FBSK 242200Z 15006KT CAVOK 11/09 Q1019 NOSIG,FBSK,2023-05-24T22:00:00Z,-24.55,25.92,11.0,9.0,150,6,,6.21,30.088583,,,,,,TRUE,,,,,CAVOK,,,,,,,,VFR,,,,,,,,,,,,METAR,1007.0
FBPM 242200Z 26004KT CAVOK 11/07 Q1021,FBPM,2023-05-24T22:00:00Z,-21.17,27.48,11.0,7.0,260,4,,6.21,30.147638,,,,,,,,,,,CAVOK,,,,,,,,VFR,,,,,,,,,,,,METAR,1009.0
FBMN 242200Z VRB01KT CAVOK 15/08 Q1019,FBMN,2023-05-24T22:00:00Z,-19.97,23.42,15.0,8.0,0,1,,6.21,30.088583,,,,,,,,,,,CAVOK,,,,,,,,VFR,,,,,,,,,,,,METAR,946.0
FAWB 242200Z AUTO 00000KT //// // ////// 09/08 Q1022,FAWB,2023-05-24T22:00:00Z,-25.65,28.22,9.0,8.0,0,0,,,30.177166,,,TRUE,,,,,,,,,,,,,,,,,,,,,,,,,,,,METAR,1245.0
FAUP 242200Z AUTO 20003KT //// // ////// 16/M02 Q1013,FAUP,2023-05-24T22:00:00Z,-28.38,21.27,16.0,-2.0,200,3,,,29.911417,,,TRUE,,,,,,,,,,,,,,,,,,,,,,,,,,,,SPECI,845.0
FAPP 242200Z AUTO 21005KT //// // ////// 09/07 Q1024,FAPP,2023-05-24T22:00:00Z,-23.83,29.45,9.0,7.0,210,5,,,30.236221,,,TRUE,,,,,,,,,,,,,,,,,,,,,,,,,,,,SPECI,1238.0
FAPN 242200Z AUTO 00000KT //// // ////// 08/07 Q1021,FAPN,2023-05-24T22:00:00Z,-25.33,27.17,8.0,7.0,0,0,,,30.147638,,,TRUE,,,,,,,,,,,,,,,,,,,,,,,,,,,,METAR,1045.0
FAPE 242200Z 24012KT CAVOK 14/10 Q1006 NOSIG,FAPE,2023-05-24T22:00:00Z,-33.98,25.6,14.0,10.0,240,12,,6.21,29.704725,,,,,,TRUE,,,,,CAVOK,,,,,,,,VFR,,,,,,,,,,,,METAR,58.0
FAOR 242200Z 30007KT CAVOK 14/08 Q1025 NOSIG,FAOR,2023-05-24T22:00:00Z,-26.13,28.23,14.0,8.0,300,7,,6.21,30.265747,,,,,,TRUE,,,,,CAVOK,,,,,,,,VFR,,,,,,,,,,,,METAR,1684.0
FAMM 242200Z AUTO 04007KT //// // ////// 12/07 Q1021,FAMM,2023-05-24T22:00:00Z,-25.8,25.53,12.0,7.0,40,7,,,30.147638,,,TRUE,,,,,,,,,,,,,,,,,,,,,,,,,,,,SPECI,1280.0
FALW 242200Z AUTO 01014KT //// // ////// 13/12 Q1009,FALW,2023-05-24T22:00:00Z,-32.97,18.17,13.0,12.0,10,14,,,29.793306,,,TRUE,,,,,,,,,,,,,,,,,,,,,,,,,,,,SPECI,31.0
FALE 242200Z 00000KT 7000 NSC 14/12 Q1013 NOSIG,FALE,2023-05-24T22:00:00Z,-29.62,31.12,14.0,12.0,0,0,,4.35,29.911417,,,,,,TRUE,,,,,CLR,,,,,,,,MVFR,,,,,,,,,,,,METAR,109.0
FALA 242200Z AUTO 00000KT //// // ////// 10/08 Q1024,FALA,2023-05-24T22:00:00Z,-25.93,27.92,10.0,8.0,0,0,,,30.236221,,,TRUE,,,,,,,,,,,,,,,,,,,,,,,,,,,,METAR,1365.0
FAKN 242200Z AUTO 00000KT //// // ////// 15/12 Q1022,FAKN,2023-05-24T22:00:00Z,-25.38,31.1,15.0,12.0,0,0,,,30.177166,,,TRUE,,,,,,,,,,,,,,,,,,,,,,,,,,,,METAR,864.0
FAHS 242200Z AUTO 25003KT //// // ////// 18/16 Q1019,FAHS,2023-05-24T22:00:00Z,-24.37,31.03,18.0,16.0,250,3,,,30.088583,,,TRUE,,,,,,,,,,,,,,,,,,,,,,,,,,,,METAR,532.0
FACT 242200Z 02014KT 8000 -RA SCT018 BKN035 14/13 Q1008 TEMPO BKN015,FACT,2023-05-24T22:00:00Z,-33.97,18.6,14.0,13.0,20,14,,4.97,29.763779,,,,,,,,,,-RA,SCT,1800,BKN,3500,,,,,MVFR,,,,,,,,,,,,SPECI,48.0
FABL 242200Z AUTO VRB01KT //// R02///// // ///////// 05/01 Q1020,FABL,2023-05-24T22:00:00Z,-29.1,26.3,5.0,1.0,0,1,,,30.11811,,,TRUE,,,,,,,,,,,,,,,,,,,,,,,,,,,,SPECI,1348.0
EPWR 242200Z 28004KT 9999 SCT032 09/08 Q1023,EPWR,2023-05-24T22:00:00Z,51.1,16.88,9.0,8.0,280,4,,6.21,30.206694,,,,,,,,,,,SCT,3200,,,,,,,VFR,,,,,,,,,,,,METAR,118.0
EPWA 242200Z 28008KT CAVOK 14/12 Q1019 NOSIG,EPWA,2023-05-24T22:00:00Z,52.17,20.97,14.0,12.0,280,8,,6.21,30.088583,,,,,,TRUE,,,,,CAVOK,,,,,,,,VFR,,,,,,,,,,,,METAR,107.0
EPSY 242200Z 00000KT CAVOK 16/09 Q1018,EPSY,2023-05-24T22:00:00Z,53.47,20.93,16.0,9.0,0,0,,6.21,30.059055,,,,,,,,,,,CAVOK,,,,,,,,VFR,,,,,,,,,,,,METAR,136.0
EPSC 242200Z 12003KT 8000 MIFG BKN025 08/07 Q1022,EPSC,2023-05-24T22:00:00Z,53.58,14.9,8.0,7.0,120,3,,4.97,30.177166,,,,,,,,,,MIFG,BKN,2500,,,,,,,MVFR,,,,,,,,,,,,METAR,47.0
EPRZ 242200Z 28009KT CAVOK 13/11 Q1019,EPRZ,2023-05-24T22:00:00Z,50.1,22.02,13.0,11.0,280,9,,6.21,30.088583,,,,,,,,,,,CAVOK,,,,,,,,VFR,,,,,,,,,,,,METAR,206.0
EPPO 242200Z 28007KT 9999 OVC012 11/10 Q1022,EPPO,2023-05-24T22:00:00Z,52.42,16.83,11.0,10.0,280,7,,6.21,30.177166,,,,,,,,,,,OVC,1200,,,,,,,MVFR,,,,,,,,,,,,METAR,87.0
EPMO 242200Z 25007KT 9000 NSC 13/13 Q1019,EPMO,2023-05-24T22:00:00Z,52.45,20.65,13.0,13.0,250,7,,5.59,30.088583,,,,,,,,,,,CLR,,,,,,,,VFR,,,,,,,,,,,,METAR,102.0
EPLL 242200Z 27009KT 9999 BKN009 OVC011 12/10 Q1020,EPLL,2023-05-24T22:00:00Z,51.72,19.4,12.0,10.0,270,9,,6.21,30.11811,,,,,,,,,,,BKN,900,OVC,1100,,,,,IFR,,,,,,,,,,,,METAR,176.0
EPLB 242200Z 30010KT CAVOK 16/14 Q1018,EPLB,2023-05-24T22:00:00Z,51.23,22.72,16.0,14.0,300,10,,6.21,30.059055,,,,,,,,,,,CAVOK,,,,,,,,VFR,,,,,,,,,,,,METAR,206.0
EPKT 242200Z 32004KT 280V340 9999 OVC010 11/09 Q1021,EPKT,2023-05-24T22:00:00Z,50.47,19.08,11.0,9.0,320,4,,6.21,30.147638,,,,,,,,,,,OVC,1000,,,,,,,MVFR,,,,,,,,,,,,METAR,296.0
EPKK 242200Z 28003KT 9999 FEW013 OVC016 13/10 Q1021,EPKK,2023-05-24T22:00:00Z,50.07,19.8,13.0,10.0,280,3,,6.21,30.147638,,,,,,,,,,,FEW,1300,OVC,1600,,,,,MVFR,,,,,,,,,,,,METAR,237.0
EPGD 242200Z 29008KT CAVOK 13/10 Q1019,EPGD,2023-05-24T22:00:00Z,54.37,18.47,13.0,10.0,290,8,,6.21,30.088583,,,,,,,,,,,CAVOK,,,,,,,,VFR,,,,,,,,,,,,METAR,136.0
EPBY 242200Z 27006KT 8000 NSC 11/10 Q1020,EPBY,2023-05-24T22:00:00Z,53.1,18.0,11.0,10.0,270,6,,4.97,30.11811,,,,,,,,,,,CLR,,,,,,,,MVFR,,,,,,,,,,,,METAR,66.0
EINN 242200Z 35006KT 9999 BKN022 OVC026 14/11 Q1032 NOSIG,EINN,2023-05-24T22:00:00Z,52.7,-8.92,14.0,11.0,350,6,,6.21,30.47244,,,,,,TRUE,,,,,BKN,2200,OVC,2600,,,,,MVFR,,,,,,,,,,,,METAR,20.0
EIME 242200Z 33005KT 9999 OVC022 14/10 Q1031,EIME,2023-05-24T22:00:00Z,53.3,-6.45,14.0,10.0,330,5,,6.21,30.442913,,,,,,,,,,,OVC,2200,,,,,,,MVFR,,,,,,,,,,,,METAR,90.0
EIDW 242200Z 33008KT 280V350 9999 FEW015 BKN023 13/11 Q1031 NOSIG,EIDW,2023-05-24T22:00:00Z,53.42,-6.28,13.0,11.0,330,8,,6.21,30.442913,,,,,,TRUE,,,,,FEW,1500,BKN,2300,,,,,MVFR,,,,,,,,,,,,METAR,75.0
EICK 242200Z 33009KT 9999 FEW020 SCT220 13/10 Q1031 NOSIG,EICK,2023-05-24T22:00:00Z,51.85,-8.47,13.0,10.0,330,9,,6.21,30.442913,,,,,,TRUE,,,,,FEW,2000,SCT,22000,,,,,VFR,,,,,,,,,,,,METAR,158.0
DXXX 242200Z 19007KT 160V220 9999 SCT013 29/25 Q1012 NOSIG,DXXX,2023-05-24T22:00:00Z,6.17,1.25,29.0,25.0,190,7,,6.21,29.88189,,,,,,TRUE,,,,,SCT,1300,,,,,,,VFR,,,,,,,,,,,,METAR,22.0
DTTZ 242200Z 11008KT 8000 SCT026 21/15 Q1009,DTTZ,2023-05-24T22:00:00Z,33.93,8.1,21.0,15.0,110,8,,4.97,29.793306,,,,,,,,,,,SCT,2600,,,,,,,MVFR,,,,,,,,,,,,METAR,87.0
DTTX 242200Z 11007KT 9999 -RA SCT020 SCT030 20/19 Q1009,DTTX,2023-05-24T22:00:00Z,34.72,10.68,20.0,19.0,110,7,,6.21,29.793306,,,,,,,,,,-RA,SCT,2000,SCT,3000,,,,,VFR,,,,,,,,,,,,METAR,17.0
DTTR 242200Z AUTO 02010KT NCD 23/14 Q1011,DTTR,2023-05-24T22:00:00Z,31.7,9.27,23.0,14.0,20,10,,,29.852362,,,TRUE,,,,,,,,CLR,,,,,,,,,,,,,,,,,,,,METAR,253.0
DTTN 242200Z /////KT 8000 SCT020 SCT030 19/14 Q1012,DTTN,2023-05-24T22:00:00Z,36.47,8.8,19.0,14.0,,,,4.97,29.88189,,,,,,,,,,,SCT,2000,SCT,3000,,,,,MVFR,,,,,,,,,,,,SPECI,145.0
DTTL 242200Z 03003KT 350V070 9999 SCT020 SCT030 19/17 Q1012,DTTL,2023-05-24T22:00:00Z,36.85,11.07,19.0,17.0,30,3,,6.21,29.88189,,,,,,,,,,,SCT,2000,SCT,3000,,,,,VFR,,,,,,,,,,,,METAR,18.0
DTTK 242200Z 02003KT 320V120 8000 BKN023 SCT030 19/17 Q1011,DTTK,2023-05-24T22:00:00Z,35.67,10.08,19.0,17.0,20,3,,4.97,29.852362,,,,,,,,,,,BKN,2300,SCT,3000,,,,,MVFR,,,,,,,,,,,,METAR,65.0
DTTJ 242200Z 04009KT 8000 FEW016 BKN023 20/18 Q1008 NOSIG,DTTJ,2023-05-24T22:00:00Z,33.87,10.77,20.0,18.0,40,9,,4.97,29.763779,,,,,,TRUE,,,,,FEW,1600,BKN,2300,,,,,MVFR,,,,,,,,,,,,METAR,3.0
DTTG 242200Z 34006KT 6000 FEW020 SCT030 17/16 Q1010 NOSIG,DTTG,2023-05-24T22:00:00Z,33.73,9.92,17.0,16.0,340,6,,3.73,29.822834,,,,,,TRUE,,,,,FEW,2000,SCT,3000,,,,,MVFR,,,,,,,,,,,,METAR,120.0
DTTF 242200Z 02015KT 8000 SCT023 16/14 Q1011,DTTF,2023-05-24T22:00:00Z,34.42,8.82,16.0,14.0,20,15,,4.97,29.852362,,,,,,,,,,,SCT,2300,,,,,,,MVFR,,,,,,,,,,,,METAR,314.0
DTTD 242200Z AUTO 01003KT 330V050 NCD 22/15 Q1010,DTTD,2023-05-24T22:00:00Z,32.32,10.4,22.0,15.0,10,3,,,29.822834,,,TRUE,,,,,,,,CLR,,,,,,,,,,,,,,,,,,,,METAR,306.0
DTTB 242200Z 08007KT 9999 SCT020 BKN030 19/17 Q1012,DTTB,2023-05-24T22:00:00Z,37.25,9.8,19.0,17.0,80,7,,6.21,29.88189,,,,,,,,,,,SCT,2000,BKN,3000,,,,,MVFR,,,,,,,,,,,,METAR,4.0
DTTA 242200Z 06004KT 010V120 9999 SCT026 20/16 Q1012,DTTA,2023-05-24T22:00:00Z,36.85,10.22,20.0,16.0,60,4,,6.21,29.88189,,,,,,,,,,,SCT,2600,,,,,,,VFR,,,,,,,,,,,,METAR,4.0
DTNH 242200Z 06010KT 7000 FEW026 SCT033 19/17 Q1011,DTNH,2023-05-24T22:00:00Z,36.07,10.43,19.0,17.0,60,10,,4.35,29.852362,,,,,,,,,,,FEW,2600,SCT,3300,,,,,MVFR,,,,,,,,,,,,METAR,1.0
DTMB 242200Z 08013KT 8000 BKN023 SCT033 19/17 Q1011,DTMB,2023-05-24T22:00:00Z,35.77,10.75,19.0,17.0,80,13,,4.97,29.852362,,,,,,,,,,,BKN,2300,SCT,3300,,,,,MVFR,,,,,,,,,,,,METAR,1.0
DTKA 242200Z 35004KT 9999 SCT020 18/17 Q1012 NOSIG,DTKA,2023-05-24T22:00:00Z,36.98,8.88,18.0,17.0,350,4,,6.21,29.88189,,,,,,TRUE,,,,,SCT,2000,,,,,,,VFR,,,,,,,,,,,,METAR,70.0
DRRN 242200Z 26007KT 8000 TS FEW040CB 33/19 Q1009 NOSIG,DRRN,2023-05-24T22:00:00Z,13.47,2.17,33.0,19.0,260,7,,4.97,29.793306,,,,,,TRUE,,,,TS,FEW,4000,,,,,,,MVFR,,,,,,,,,,,,METAR,223.0
DNSO 242200Z 19009KT CAVOK 32/23 Q1010,DNSO,2023-05-24T22:00:00Z,12.92,5.2,32.0,23.0,190,9,,6.21,29.822834,,,,,,,,,,,CAVOK,,,,,,,,VFR,,,,,,,,,,,,METAR,302.0
DNPO 242200Z 00000KT 7000 TS BKN007 FEW018CB 24/23 Q1010 NOSIG,DNPO,2023-05-24T22:00:00Z,4.83,7.02,24.0,23.0,0,0,,4.35,29.822834,,,,,,TRUE,,,,TS,BKN,700,FEW,1800,,,,,IFR,,,,,,,,,,,,METAR,17.0
DNKT 242200Z 20005KT CAVOK 31/22 Q1011,DNKT,2023-05-24T22:00:00Z,13.0,7.67,31.0,22.0,200,5,,6.21,29.852362,,,,,,,,,,,CAVOK,,,,,,,,VFR,,,,,,,,,,,,METAR,504.0
DNKN 242200Z 22010KT 9999 FEW012 31/21 Q1012 NOSIG,DNKN,2023-05-24T22:00:00Z,12.05,8.52,31.0,21.0,220,10,,6.21,29.88189,,,,,,TRUE,,,,,FEW,1200,,,,,,,VFR,,,,,,,,,,,,METAR,471.0
DNKA 242200Z 22005KT CAVOK 24/21 Q1014,DNKA,2023-05-24T22:00:00Z,10.58,7.45,24.0,21.0,220,5,,6.21,29.940945,,,,,,,,,,,CAVOK,,,,,,,,VFR,,,,,,,,,,,,METAR,631.0
DNJO 242200Z 00000KT 5000 BR NSC 22/20 Q1018,DNJO,2023-05-24T22:00:00Z,9.87,8.9,22.0,20.0,0,0,,3.11,30.059055,,,,,,,,,,BR,CLR,,,,,,,,MVFR,,,,,,,,,,,,METAR,1284.0
DNIL 242200Z 24003KT 9999 FEW010 20/10 Q1012,DNIL,2023-05-24T22:00:00Z,8.43,4.48,20.0,10.0,240,3,,6.21,29.88189,,,,,,,,,,,FEW,1000,,,,,,,VFR,,,,,,,,,,,,METAR,341.0
DNAA 242200Z 21002KT CAVOK 26/25 Q1012 NOSIG,DNAA,2023-05-24T22:00:00Z,9.0,7.27,26.0,25.0,210,2,,6.21,29.88189,,,,,,TRUE,,,,,CAVOK,,,,,,,,VFR,,,,,,,,,,,,METAR,338.0
DIYO 242200Z 22006KT CAVOK 28/25 Q1011 NOSIG,DIYO,2023-05-24T22:00:00Z,6.9,-5.35,28.0,25.0,220,6,,6.21,29.852362,,,,,,TRUE,,,,,CAVOK,,,,,,,,VFR,,,,,,,,,,,,METAR,202.0
DIBK 242200Z 18002KT 9999 TS FEW010 FEW020CB 27/25 Q1012 NOSIG,DIBK,2023-05-24T22:00:00Z,7.73,-5.07,27.0,25.0,180,2,,6.21,29.88189,,,,,,TRUE,,,,TS,FEW,1000,FEW,2000,,,,,VFR,,,,,,,,,,,,METAR,363.0
DIAP 242200Z 06003KT 030V100 9999 -RA FEW012 24/23 Q1011 RETS NOSIG,DIAP,2023-05-24T22:00:00Z,5.25,-3.92,24.0,23.0,60,3,,6.21,29.852362,,,,,,TRUE,,,,-RA,FEW,1200,,,,,,,VFR,,,,,,,,,,,,METAR,4.0
DGAA 242200Z 18006KT 150V210 9999 FEW017 29/26 Q1011 NOSIG,DGAA,2023-05-24T22:00:00Z,5.58,-0.17,29.0,26.0,180,6,,6.21,29.852362,,,,,,TRUE,,,,,FEW,1700,,,,,,,VFR,,,,,,,,,,,,METAR,68.0
DFFD 242200Z 02010KT 9999 TS SCT026 FEW040CB 30/20 Q1012 TEMPO 06025G45KT 4000 SQ TSRA,DFFD,2023-05-24T22:00:00Z,12.35,-1.52,30.0,20.0,20,10,,6.21,29.88189,,,,,,,,,,TS,SCT,2600,FEW,4000,,,,,VFR,,,,,,,,,,,,METAR,309.0
DBBB 242200Z 17011KT 9999 TS SCT012 FEW020CB 30/26 Q1012 BECMG 08019G33KT 4000 TSRA SCT011 FEW020CB,DBBB,2023-05-24T22:00:00Z,6.35,2.38,30.0,26.0,170,11,,6.21,29.88189,,,,,,,,,,TS,SCT,1200,FEW,2000,,,,,VFR,,,,,,,,,,,,METAR,4.0
DAUL 242200Z 35012KT 9999 SCT033 17/05 Q1015,DAUL,2023-05-24T22:00:00Z,33.77,2.92,17.0,5.0,350,12,,6.21,29.970472,,,,,,,,,,,SCT,3300,,,,,,,VFR,,,,,,,,,,,,METAR,755.0
DAUG 242200Z 33018KT 3000 DRSA SCT033 25/03 Q1012,DAUG,2023-05-24T22:00:00Z,32.38,3.78,25.0,3.0,330,18,,1.86,29.88189,,,,,,,,,,DRSA,SCT,3300,,,,,,,IFR,,,,,,,,,,,,METAR,444.0
DAUB 242200Z 30010KT 260V330 9999 FEW033CB SCT040 23/07 Q1011,DAUB,2023-05-24T22:00:00Z,34.78,5.73,23.0,7.0,300,10,,6.21,29.852362,,,,,,,,,,,FEW,3300,SCT,4000,,,,,VFR,,,,,,,,,,,,METAR,75.0
DAUA 242200Z 21006KT CAVOK 26/M04 Q1010,DAUA,2023-05-24T22:00:00Z,27.83,-0.18,26.0,-4.0,210,6,,6.21,29.822834,,,,,,,,,,,CAVOK,,,,,,,,VFR,,,,,,,,,,,,METAR,278.0
DAOI 242200Z 20004KT 9999 FEW020 16/13 Q1016,DAOI,2023-05-24T22:00:00Z,36.22,1.32,16.0,13.0,200,4,,6.21,30.0,,,,,,,,,,,FEW,2000,,,,,,,VFR,,,,,,,,,,,,METAR,141.0
DAOB 242200Z 29005KT 9999 SCT023 11/11 Q1017,DAOB,2023-05-24T22:00:00Z,35.33,1.47,11.0,11.0,290,5,,6.21,30.029528,,,,,,,,,,,SCT,2300,,,,,,,VFR,,,,,,,,,,,,METAR,976.0
DABS 242200Z 26004KT 9999 FEW026 SCT033 12/10 Q1013,DABS,2023-05-24T22:00:00Z,35.43,8.12,12.0,10.0,260,4,,6.21,29.911417,,,,,,,,,,,FEW,2600,SCT,3300,,,,,VFR,,,,,,,,,,,,METAR,806.0
DAAS 242200Z VRB02KT 8000 BKN026 12/11 Q1015,DAAS,2023-05-24T22:00:00Z,36.18,5.33,12.0,11.0,0,2,,4.97,29.970472,,,,,,,,,,,BKN,2600,,,,,,,MVFR,,,,,,,,,,,,METAR,1012.0
CZZJ 242200Z AUTO 32009G16KT 15/05 RMK AO1 PK WND 32019/2115 SLP169 T01520049 53002,CZZJ,2023-05-24T22:00:00Z,53.58,-116.47,15.2,4.9,320,9,16,,,1016.9,,TRUE,TRUE,,,,,,,,,,,,,,,,0.2,,,,,,,,,,,METAR,927.0
CZVL 242200Z AUTO 26010G15KT 9SM FEW060 19/05 A2993 RMK SLP144 DENSITY ALT 3300FT,CZVL,2023-05-24T22:00:00Z,53.67,-113.85,19.0,5.0,260,10,15,9.0,29.929134,1014.4,,TRUE,,,,,,,,FEW,6000,,,,,,,VFR,,,,,,,,,,,,METAR,685.0
CZTB 242200Z AUTO 12009KT 12/M11 RMK AO1 SLP320 T01181107 58010,CZTB,2023-05-24T22:00:00Z,48.37,-89.32,11.8,-10.7,120,9,,,,1032.0,,TRUE,TRUE,,,,,,,,,,,,,,,,-1.0,,,,,,,,,,,METAR,197.0
CZST 242200Z 22006KT 140V240 15SM FEW065 20/06 A3010 RMK CF1 CF TR SLP195 DENSITY ALT 400FT,CZST,2023-05-24T22:00:00Z,55.93,-129.98,20.0,6.0,220,6,,15.0,30.100393,1019.5,,,,,,,,,,FEW,6500,,,,,,,VFR,,,,,,,,,,,,SPECI,10.0
CZSP 242200Z AUTO 14010G16KT 15/04 RMK AO1 PK WND 18019/2122 SLP160 T01470035 56006,CZSP,2023-05-24T22:00:00Z,46.45,-62.58,14.7,3.5,140,10,16,,,1016.0,,TRUE,TRUE,,,,,,,,,,,,,,,,-0.6,,,,,,,,,,,METAR,31.0
CZSM 242200Z AUTO 23004KT 14/08 RMK AO1 SLP114 T01360077 55005,CZSM,2023-05-24T22:00:00Z,60.03,-111.93,13.6,7.7,230,4,,,,1011.4,,TRUE,TRUE,,,,,,,,,,,,,,,,-0.5,,,,,,,,,,,SPECI,203.0
CZSJ 242200Z AUTO 13007G16KT 100V170 9SM CLR 20/M06 A3029 RMK SLP267 DENSITY ALT 1400FT,CZSJ,2023-05-24T22:00:00Z,53.07,-93.35,20.0,-6.0,130,7,16,9.0,30.28937,1026.7,,TRUE,,,,,,,,CLR,,,,,,,,VFR,,,,,,,,,,,,METAR,286.0
CZPC 242200Z AUTO 16008KT 030V180 9SM BKN096 BKN240 20/03 A2990 RMK SLP123 DENSITY ALT 5500FT,CZPC,2023-05-24T22:00:00Z,49.52,-114.0,20.0,3.0,160,8,,9.0,29.899607,1012.3,,TRUE,,,,,,,,BKN,9600,BKN,24000,,,,,VFR,,,,,,,,,,,,SPECI,1187.0
CZOL 242200Z AUTO 31007KT 20/05 RMK AO1 PK WND 31017/2107 T01990054,CZOL,2023-05-24T22:00:00Z,53.65,-113.35,19.9,5.4,310,7,,,,,,TRUE,TRUE,,,,,,,,,,,,,,,,,,,,,,,,,,,METAR,645.0
CZMT 242200Z 01005KT 310V060 15SM FEW018TCU BKN058 13/10 A3019 RMK TCU1SC6 SLP227,CZMT,2023-05-24T22:00:00Z,54.03,-132.13,13.0,10.0,10,5,,15.0,30.188976,1022.7,,,,,,,,,,FEW,1800,BKN,5800,,,,,VFR,,,,,,,,,,,,METAR,11.0
CZMJ 242200Z AUTO 13018G25KT 26/11 RMK AO1 PK WND 12026/2106 SLP112 T02630111 56027,CZMJ,2023-05-24T22:00:00Z,50.33,-105.53,26.3,11.1,130,18,25,,,1011.2,,TRUE,TRUE,,,,,,,,,,,,,,,,-2.7,,,,,,,,,,,METAR,571.0
CZMD 242200Z AUTO 13004KT 040V200 9SM CLR 18/M06 A3034 RMK SLP286,CZMD,2023-05-24T22:00:00Z,53.43,-91.77,18.0,-6.0,130,4,,9.0,30.339567,1028.6,,TRUE,,,,,,,,CLR,,,,,,,,VFR,,,,,,,,,,,,METAR,276.0
CZKD 242200Z AUTO 16011G17KT 20/M03 RMK AO1 PK WND 18018/2123 SLP230 T01981031 56033,CZKD,2023-05-24T22:00:00Z,56.03,-96.52,19.8,-3.1,160,11,17,,,1023.0,,TRUE,TRUE,,,,,,,,,,,,,,,,-3.3,,,,,,,,,,,METAR,190.0
CZHY 242200Z AUTO 29010KT 17/06 RMK AO1 SLP106 T01700055 51003,CZHY,2023-05-24T22:00:00Z,60.83,-115.78,17.0,5.5,290,10,,,,1010.6,,TRUE,TRUE,,,,,,,,,,,,,,,,0.3,,,,,,,,,,,SPECI,159.0
CZFS 242200Z AUTO 31012KT 20/04 RMK AO1 PK WND 32020/2140 SLP130 T02030038 53005,CZFS,2023-05-24T22:00:00Z,61.77,-121.23,20.3,3.8,310,12,,,,1013.0,,TRUE,TRUE,,,,,,,,,,,,,,,,0.5,,,,,,,,,,,SPECI,174.0
CZFN 242200Z 32008G16KT 280V350 20SM SCT062 BKN080 BKN220 20/02 A2999 RMK CU4AC1CI1 SLP163 DENSITY ALT 1000FT,CZFN,2023-05-24T22:00:00Z,64.92,-125.57,20.0,2.0,320,8,16,20.0,29.991142,1016.3,,,,,,,,,,SCT,6200,BKN,8000,BKN,22000,,,VFR,,,,,,,,,,,,SPECI,135.0
CZFM 242200Z 36007KT 290V020 15SM OVC017 04/M01 A3022 RMK SC8 SLP237,CZFM,2023-05-24T22:00:00Z,67.4,-134.87,4.0,-1.0,360,7,,15.0,30.221457,1023.7,,,,,,,,,,OVC,1700,,,,,,,MVFR,,,,,,,,,,,,SPECI,33.0
CZFA 242200Z 11003KT 040V140 30SM VCSH SCT060 BKN070TCU BKN100 OVC180 16/02 A2993 RMK SC4TCU1AC2AS1 LAST STFD OBS/NXT 251400Z SLP159 DENSITY ALT 3000FT,CZFA,2023-05-24T22:00:00Z,62.2,-133.38,16.0,2.0,110,3,,30.0,29.929134,1015.9,,,,,,,,,VCSH,SCT,6000,BKN,7000,BKN,10000,OVC,18000,VFR,,,,,,,,,,,,SPECI,702.0
CZEV 242200Z AUTO 04006KT 02/00 RMK AO1 SLP247 T00190000 50002,CZEV,2023-05-24T22:00:00Z,68.32,-133.48,1.9,0.0,40,6,,,,1024.7,,TRUE,TRUE,,,,,,,,,,,,,,,,0.2,,,,,,,,,,,SPECI,92.0
CZEL 242200Z AUTO 02012G19KT 13/M01 RMK AO1 PK WND 01020/2106 SLP232 T01291009 51002,CZEL,2023-05-24T22:00:00Z,43.65,-80.42,12.9,-0.9,20,12,19,,,1023.2,,TRUE,TRUE,,,,,,,,,,,,,,,,0.2,,,,,,,,,,,METAR,370.0
CZDB 242200Z AUTO 16011KT 15/06 RMK AO1 SLP173 T01460063 56006,CZDB,2023-05-24T22:00:00Z,45.42,-63.47,14.6,6.3,160,11,,,,1017.3,,TRUE,TRUE,,,,,,,,,,,,,,,,-0.6,,,,,,,,,,,METAR,38.0
CZCR 242200Z AUTO 23003KT 12/12 RMK AO1 5PAST HR 3007 SLP159 P0006 T01160116 50032,CZCR,2023-05-24T22:00:00Z,47.98,-66.33,11.6,11.6,230,3,,,,1015.9,,TRUE,TRUE,,,,,,,,,,,,,,,,3.2,,,,,0.06,,,,,,METAR,39.0
CZCP 242200Z AUTO VRB07G16KT ////SM ////// M03/M07 A3022,CZCP,2023-05-24T22:00:00Z,70.17,-124.68,-3.0,-7.0,0,7,16,,30.221457,,,TRUE,,,,,,,,,,,,,,,,,,,,,,,,,,,,SPECI,23.0
CZBF 242200Z AUTO 31007KT 280V350 9SM -RA OVC046 12/09 A3000 RMK SLP163,CZBF,2023-05-24T22:00:00Z,47.62,-65.75,12.0,9.0,310,7,,9.0,30.0,1016.3,,TRUE,,,,,,,-RA,OVC,4600,,,,,,,VFR,,,,,,,,,,,,METAR,60.0
CYZY 242200Z AUTO 15011KT 9SM OVC018 12/08 A3004 RMK SLP192,CYZY,2023-05-24T22:00:00Z,55.3,-123.13,12.0,8.0,150,11,,9.0,30.041338,1019.2,,TRUE,,,,,,,,OVC,1800,,,,,,,MVFR,,,,,,,,,,,,METAR,694.0
CYZX 242200Z 17010KT 15SM FEW250 18/06 A3000 RMK CI1 DENSITY ALT 523FT SLP158,CYZX,2023-05-24T22:00:00Z,44.98,-64.92,18.0,6.0,170,10,,15.0,30.0,1015.8,,,,,,,,,,FEW,25000,,,,,,,VFR,,,,,,,,,,,,METAR,28.0
CYZW 242200Z 19005KT 170V240 30SM BKN070 16/02 A2998 RMK AC6 SLP168 DENSITY ALT 2900FT,CYZW,2023-05-24T22:00:00Z,60.17,-132.75,16.0,2.0,190,5,,30.0,29.97933,1016.8,,,,,,,,,,BKN,7000,,,,,,,VFR,,,,,,,,,,,,SPECI,700.0
CYZV 242200Z 24007KT 30SM FEW040 SCT078 BKN170 OVC220 12/05 A2999 RMK CU1AC2AC2CI3 SLP158,CYZV,2023-05-24T22:00:00Z,50.22,-66.27,12.0,5.0,240,7,,30.0,29.991142,1015.8,,,,,,,,,,FEW,4000,SCT,7800,BKN,17000,OVC,22000,VFR,,,,,,,,,,,,METAR,43.0
CYZU 242200Z 29012G18KT 15SM BKN044 15/07 A2997 RMK SC7 SLP166 DENSITY ALT 3100FT,CYZU,2023-05-24T22:00:00Z,54.15,-115.78,15.0,7.0,290,12,18,15.0,29.970472,1016.6,,,,,,,,,,BKN,4400,,,,,,,VFR,,,,,,,,,,,,SPECI,785.0
CYZT 242200Z 35014KT 20SM FEW020 FEW250 17/07 A3013 RMK SC1CI1 SC TR SLP204,CYZT,2023-05-24T22:00:00Z,50.68,-127.37,17.0,7.0,350,14,,20.0,30.129921,1020.4,,,,,,,,,,FEW,2000,FEW,25000,,,,,VFR,,,,,,,,,,,,SPECI,13.0
CYZS 242200Z 18004KT 15SM FEW011 BKN210 05/00 A3002 RMK SC1CI6 SC TR SLP172,CYZS,2023-05-24T22:00:00Z,64.2,-83.35,5.0,0.0,180,4,,15.0,30.02067,1017.2,,,,,,,,,,FEW,1100,BKN,21000,,,,,VFR,,,,,,,,,,,,SPECI,60.0
CYZR 242200Z AUTO 01024G30KT 9SM CLR 09/02 A3025 RMK SLP249,CYZR,2023-05-24T22:00:00Z,43.0,-82.3,9.0,2.0,10,24,30,9.0,30.250984,1024.9,,TRUE,,,,,,,,CLR,,,,,,,,VFR,,,,,,,,,,,,SPECI,181.0
CYZP 242200Z AUTO 11011KT 9SM FEW066 13/07 A3018 RMK SLP221,CYZP,2023-05-24T22:00:00Z,53.25,-131.82,13.0,7.0,110,11,,9.0,30.180119,1022.1,,TRUE,,,,,,,,FEW,6600,,,,,,,VFR,,,,,,,,,,,,SPECI,7.0
CYZH 242200Z AUTO 36004KT 9SM 10/08 A2995 RMK CLD MISG SLP161,CYZH,2023-05-24T22:00:00Z,55.28,-114.77,10.0,8.0,360,4,,9.0,29.949802,1016.1,,TRUE,,,,,,,,,,,,,,,,,,,,,,,,,,,,SPECI,583.0
CYZF 242200Z 18008KT 120V200 4SM FU BKN030 BKN045 14/07 A2979 RMK FU5SC2 SLP101 DENSITY ALT 900FT,CYZF,2023-05-24T22:00:00Z,62.47,-114.45,14.0,7.0,180,8,,4.0,29.790354,1010.1,,,,,,,,,FU,BKN,3000,BKN,4500,,,,,MVFR,,,,,,,,,,,,METAR,202.0
CYZE 242200Z AUTO 04008G15KT 010V080 9SM CLR 13/M04 A3033 RMK SLP279,CYZE,2023-05-24T22:00:00Z,45.88,-82.57,13.0,-4.0,40,8,15,9.0,30.33071,1027.9,,TRUE,,,,,,,,CLR,,,,,,,,VFR,,,,,,,,,,,,SPECI,189.0
CYYZ 242200Z 36015G21KT 15SM SKC 15/02 A3019 RMK SLP226,CYYZ,2023-05-24T22:00:00Z,43.67,-79.62,15.0,2.0,360,15,21,15.0,30.188976,1022.6,,,,,,,,,,SKC,,,,,,,,VFR,,,,,,,,,,,,METAR,171.0
CYYY 242200Z 25006KT 30SM FEW070 BKN150 13/04 A3002 RMK AC2AS5 SLP167,CYYY,2023-05-24T22:00:00Z,48.6,-68.22,13.0,4.0,250,6,,30.0,30.02067,1016.7,,,,,,,,,,FEW,7000,BKN,15000,,,,,VFR,,,,,,,,,,,,SPECI,43.0
CYYW 242200Z AUTO 15008KT 110V180 9SM CLR 14/M07 A3043 RMK SLP317,CYYW,2023-05-24T22:00:00Z,50.3,-88.9,14.0,-7.0,150,8,,9.0,30.431103,1031.7,,TRUE,,,,,,,,CLR,,,,,,,,VFR,,,,,,,,,,,,METAR,320.0
CYYU 242200Z 01011KT 15SM SKC 11/M06 A3044 RMK SLP322,CYYU,2023-05-24T22:00:00Z,49.42,-82.47,11.0,-6.0,10,11,,15.0,30.43996,1032.2,,,,,,,,,,SKC,,,,,,,,VFR,,,,,,,,,,,,SPECI,228.0
CYYT 242200Z 19008KT 15SM SKC 10/04 A3017 RMK SLP225,CYYT,2023-05-24T22:00:00Z,47.62,-52.73,10.0,4.0,190,8,,15.0,30.171259,1022.5,,,,,,,,,,SKC,,,,,,,,VFR,,,,,,,,,,,,METAR,128.0
CYYR 242200Z 24005KT 10SM -RA FEW010 BKN027 OVC046 09/08 A2994 RMK SF1SC7SC1 DENSITY ALT -461FT VIS LWR E QUAD SLP141,CYYR,2023-05-24T22:00:00Z,53.32,-60.42,9.0,8.0,240,5,,10.0,29.940945,1014.1,,,,,,,,,-RA,FEW,1000,BKN,2700,OVC,4600,,,MVFR,,,,,,,,,,,,METAR,42.0
CYYQ 242200Z 20015G21KT 15SM BKN250 19/01 A3012 RMK CI7 PRESFR SLP205 DENSITY ALT 400FT,CYYQ,2023-05-24T22:00:00Z,58.75,-94.07,19.0,1.0,200,15,21,15.0,30.121063,1020.5,,,,,,,,,,BKN,25000,,,,,,,VFR,,,,,,,,,,,,METAR,20.0
CYYN 242200Z AUTO 35012KT 9SM BKN046 BKN066 22/12 A2984 RMK SLP101 DENSITY ALT 4200FT,CYYN,2023-05-24T22:00:00Z,50.28,-107.68,22.0,12.0,350,12,,9.0,29.840551,1010.1,,TRUE,,,,,,,,BKN,4600,BKN,6600,,,,,VFR,,,,,,,,,,,,SPECI,814.0
CYYL 242200Z AUTO 17013KT 9SM CLR 19/M02 A3003 RMK SLP183 DENSITY ALT 1900FT,CYYL,2023-05-24T22:00:00Z,56.87,-101.07,19.0,-2.0,170,13,,9.0,30.029528,1018.3,,TRUE,,,,,,,,CLR,,,,,,,,VFR,,,,,,,,,,,,SPECI,351.0
CYYJ 242200Z 11008KT 30SM FEW045 FEW130 FEW170 18/10 A3006 RMK CU1AC1AC1 CU TR SLP182 DENSITY ALT 400FT,CYYJ,2023-05-24T22:00:00Z,48.63,-123.42,18.0,10.0,110,8,,30.0,30.059055,1018.2,,,,,,,,,,FEW,4500,FEW,13000,FEW,17000,,,VFR,,,,,,,,,,,,METAR,16.0
CYYH 242200Z 16006KT 15SM SCT063 BKN072 OVC120 01/M00 A2963 RMK SC4AC2AC2 SLP037,CYYH,2023-05-24T22:00:00Z,69.53,-93.57,1.0,0.0,160,6,,15.0,29.630905,1003.7,,,,,,,,,,SCT,6300,BKN,7200,OVC,12000,,,VFR,,,,,,,,,,,,SPECI,19.0
CYYG 242200Z 18013KT 15SM FEW040 FEW250 17/04 A2999 RMK SC1CI1 SC TR SLP157 DENSITY ALT 400FT,CYYG,2023-05-24T22:00:00Z,46.28,-63.12,17.0,4.0,180,13,,15.0,29.991142,1015.7,,,,,,,,,,FEW,4000,FEW,25000,,,,,VFR,,,,,,,,,,,,SPECI,48.0
CYYF 242200Z 01017G23KT 15SM FEW070TCU SCT190 21/09 A2996 RMK TCU2AC2 SLP149 DENSITY ALT 2100FT,CYYF,2023-05-24T22:00:00Z,49.47,-119.6,21.0,9.0,10,17,23,15.0,29.958662,1014.9,,,,,,,,,,FEW,7000,SCT,19000,,,,,VFR,,,,,,,,,,,,SPECI,342.0
CYYE 242200Z 30009G15KT 30SM FEW045 BKN095 BKN250 19/03 A2995 RMK CU1AC5CI1 SLP155 DENSITY ALT 2100FT,CYYE,2023-05-24T22:00:00Z,58.83,-122.58,19.0,3.0,300,9,15,30.0,29.949802,1015.5,,,,,,,,,,FEW,4500,BKN,9500,BKN,25000,,,VFR,,,,,,,,,,,,SPECI,379.0
CYYD 242200Z 03003KT 310V070 25SM FEW070 SCT210 21/05 A2999 RMK CF1CI3 SLP161 DENSITY ALT 2800FT,CYYD,2023-05-24T22:00:00Z,54.82,-127.18,21.0,5.0,30,3,,25.0,29.991142,1016.1,,,,,,,,,,FEW,7000,SCT,21000,,,,,VFR,,,,,,,,,,,,SPECI,527.0
CYYC 242200Z 03007G15KT 010V090 20SM FEW058 BKN250 19/05 A2993 RMK CU1CI6 TCU ASOCTD SLP145 DENSITY ALT 4900FT,CYYC,2023-05-24T22:00:00Z,51.12,-114.02,19.0,5.0,30,7,15,20.0,29.929134,1014.5,,,,,,,,,,FEW,5800,BKN,25000,,,,,VFR,,,,,,,,,,,,METAR,1085.0
CYYB 242200Z 01009G20KT 30SM FEW040 08/M03 A3031 RMK SC1 SLP280,CYYB,2023-05-24T22:00:00Z,46.35,-79.42,8.0,-3.0,10,9,20,30.0,30.31004,1028.0,,,,,,,,,,FEW,4000,,,,,,,VFR,,,,,,,,,,,,SPECI,360.0
CYXZ 242200Z 04006KT 15SM FEW230 15/M06 A3040 RMK CI1 SLP308,CYXZ,2023-05-24T22:00:00Z,47.97,-84.77,15.0,-6.0,40,6,,15.0,30.398623,1030.8,,,,,,,,,,FEW,23000,,,,,,,VFR,,,,,,,,,,,,METAR,287.0
CYXY 242200Z 14009G16KT 40SM BKN070 17/03 A2994 RMK AC6 SLP156 DENSITY ALT 3100FT,CYXY,2023-05-24T22:00:00Z,60.72,-135.07,17.0,3.0,140,9,16,40.0,29.940945,1015.6,,,,,,,,,,BKN,7000,,,,,,,VFR,,,,,,,,,,,,METAR,677.0
CYXX 242200Z 12004KT 080V140 20SM FEW028 FEW100 BKN140 BKN190 17/10 A3007 RMK CU1AC1AC5AC1 CU TR HZ SLP183 DENSITY ALT 400FT,CYXX,2023-05-24T22:00:00Z,49.03,-122.38,17.0,10.0,120,4,,20.0,30.070866,1018.3,,,,,,,,,,FEW,2800,FEW,10000,BKN,14000,BKN,19000,VFR,,,,,,,,,,,,METAR,54.0
CYXU 242200Z 01014G20KT 15SM FEW240 16/M03 A3019 RMK CI1 SLP226,CYXU,2023-05-24T22:00:00Z,43.03,-81.15,16.0,-3.0,10,14,20,15.0,30.188976,1022.6,,,,,,,,,,FEW,24000,,,,,,,VFR,,,,,,,,,,,,METAR,278.0
CYXT 242200Z 18007KT 140V230 20SM FEW060 FEW240 21/06 A3006 RMK CU1CI1 SLP185 DENSITY ALT 1400FT,CYXT,2023-05-24T22:00:00Z,54.47,-128.57,21.0,6.0,180,7,,20.0,30.059055,1018.5,,,,,,,,,,FEW,6000,FEW,24000,,,,,VFR,,,,,,,,,,,,SPECI,213.0
CYXS 242200Z AUTO VRB06KT 9SM CLR 17/10 A3001 RMK SLP178 DENSITY ALT 3000FT,CYXS,2023-05-24T22:00:00Z,53.88,-122.68,17.0,10.0,0,6,,9.0,30.008858,1017.8,,TRUE,,,,,,,,CLR,,,,,,,,VFR,,,,,,,,,,,,SPECI,685.0
CYXR 242200Z AUTO 36009G18KT 9SM CLR 10/M03 A3037 RMK SLP298,CYXR,2023-05-24T22:00:00Z,47.7,-79.85,10.0,-3.0,360,9,18,9.0,30.369095,1029.8,,TRUE,,,,,,,,CLR,,,,,,,,VFR,,,,,,,,,,,,SPECI,244.0
CYXQ 242200Z 09006G15KT 070V150 25SM BKN035 19/00 A2985 RMK CU7 /LAST STFD OBS/NXT 251600Z/ SLP124 DENSITY ALT 3200FT,CYXQ,2023-05-24T22:00:00Z,62.42,-140.87,19.0,0.0,90,6,15,25.0,29.84941,1012.4,,,,,,,,,,BKN,3500,,,,,,,VFR,,,,,,,,,,,,SPECI,663.0
CYXL 242200Z 15007G17KT 110V180 15SM FEW180 SCT210 16/M07 A3037 RMK AC1CI2 SLP298,CYXL,2023-05-24T22:00:00Z,50.12,-91.9,16.0,-7.0,150,7,17,15.0,30.369095,1029.8,,,,,,,,,,FEW,18000,SCT,21000,,,,,VFR,,,,,,,,,,,,SPECI,381.0
CYXJ 242200Z 26005KT 180V290 15SM SCT050 BKN086 BKN210 18/07 A2994 RMK CU3AC3CI1 SLP155 DENSITY ALT 3200FT,CYXJ,2023-05-24T22:00:00Z,56.25,-120.73,18.0,7.0,260,5,,15.0,29.940945,1015.5,,,,,,,,,,SCT,5000,BKN,8600,BKN,21000,,,VFR,,,,,,,,,,,,SPECI,700.0
CYXH 242200Z 34006KT 290V020 30SM FEW040 BKN100 OVC140 18/08 A2989 RMK SC1AC5AC3 SC TR SLP126 DENSITY ALT 3400FT,CYXH,2023-05-24T22:00:00Z,50.02,-110.72,18.0,8.0,340,6,,30.0,29.890747,1012.6,,,,,,,,,,FEW,4000,BKN,10000,OVC,14000,,,VFR,,,,,,,,,,,,SPECI,717.0
CYXE 242200Z 08005KT 050V130 10SM FEW030 BKN090 16/13 A2990 RMK SC2AC3 FU SLP140 DENSITY ALT 2300FT,CYXE,2023-05-24T22:00:00Z,52.17,-106.7,16.0,13.0,80,5,,10.0,29.899607,1014.0,,,,,,,,,,FEW,3000,BKN,9000,,,,,VFR,,,,,,,,,,,,SPECI,504.0
CYXC 242200Z 05004KT 320V070 25SM FEW065 FEW150 21/02 A2990 RMK CU2AC1 AC TR TCU ASOCTD SLP125 DENSITY ALT 4600FT,CYXC,2023-05-24T22:00:00Z,49.6,-115.78,21.0,2.0,50,4,,25.0,29.899607,1012.5,,,,,,,,,,FEW,6500,FEW,15000,,,,,VFR,,,,,,,,,,,,SPECI,928.0
CYWL 242200Z VRB05KT 15SM BKN030 15/08 A3006 RMK CU6 SLP192 DENSITY ALT 3700FT,CYWL,2023-05-24T22:00:00Z,52.18,-122.07,15.0,8.0,0,5,,15.0,30.059055,1019.2,,,,,,,,,,BKN,3000,,,,,,,MVFR,,,,,,,,,,,,SPECI,942.0
CYWJ 242200Z 36013G21KT 310V030 40SM FEW120 FEW200 FEW210 17/00 A2995 RMK AC1CC1CI1 CC TR SLP155 DENSITY ALT 1200FT,CYWJ,2023-05-24T22:00:00Z,65.22,-123.43,17.0,0.0,360,13,21,40.0,29.949802,1015.5,,,,,,,,,,FEW,12000,FEW,20000,FEW,21000,,,VFR,,,,,,,,,,,,SPECI,208.0
CYWH 242200Z 21007KT 15SM FEW040 14/09 A3008 RMK CU1 SLP188,CYWH,2023-05-24T22:00:00Z,48.42,-123.38,14.0,9.0,210,7,,15.0,30.079725,1018.8,,,,,,,,,,FEW,4000,,,,,,,VFR,,,,,,,,,,,,SPECI,4.0
CYWG 242200Z 14019G25KT 15SM SCT035 BKN094 17/08 A3016 RMK SC3AC4 SLP220 DENSITY ALT 1000FT,CYWG,2023-05-24T22:00:00Z,49.9,-97.23,17.0,8.0,140,19,25,15.0,30.159449,1022.0,,,,,,,,,,SCT,3500,BKN,9400,,,,,VFR,,,,,,,,,,,,METAR,238.0
CYWE 242200Z AUTO 35007KT 3SM HZ BKN026 BKN031 OVC096 13/07 A2981 RMK ICE MISG SLP112,CYWE,2023-05-24T22:00:00Z,64.18,-114.08,13.0,7.0,350,7,,3.0,29.811024,1011.2,,TRUE,,,,,,,HZ,BKN,2600,BKN,3100,OVC,9600,,,MVFR,,,,,,,,,,,,METAR,374.0
CYWA 242200Z 32018G23KT 15SM FEW040 09/M02 A3030 RMK SC2 DENSITY ALT -594FT SLP264,CYWA,2023-05-24T22:00:00Z,45.95,-77.32,9.0,-2.0,320,18,23,15.0,30.301182,1026.4,,,,,,,,,,FEW,4000,,,,,,,VFR,,,,,,,,,,,,SPECI,121.0
CYVV 242200Z 02006G17KT 340V040 15SM SKC 09/M01 A3031 RMK SLP273,CYVV,2023-05-24T22:00:00Z,44.75,-81.1,9.0,-1.0,20,6,17,15.0,30.31004,1027.3,,,,,,,,,,SKC,,,,,,,,VFR,,,,,,,,,,,,SPECI,221.0
CYVR 242200Z 24008KT 30SM FEW045 FEW130 FEW160 17/12 A3007 RMK CU1AC1AC1 CU TR AC TR SLP184,CYVR,2023-05-24T22:00:00Z,49.17,-123.17,17.0,12.0,240,8,,30.0,30.070866,1018.4,,,,,,,,,,FEW,4500,FEW,13000,FEW,16000,,,VFR,,,,,,,,,,,,METAR,2.0
CYVQ 242200Z VRB05G17KT 30SM FEW060 FEW160 BKN250 19/01 A3003 RMK CU1AC1CI3 SLP173 DENSITY ALT 700FT,CYVQ,2023-05-24T22:00:00Z,65.27,-126.78,19.0,1.0,0,5,17,30.0,30.029528,1017.3,,,,,,,,,,FEW,6000,FEW,16000,BKN,25000,,,VFR,,,,,,,,,,,,SPECI,63.0
CYVP 242200Z 28009G15KT 3SM -SN OVC024 00/M04 A3021 RMK SC8 VIS LWR N-SE SLP235,CYVP,2023-05-24T22:00:00Z,58.12,-68.42,0.0,-4.0,280,9,15,3.0,30.209646,1023.5,,,,,,,,,-SN,OVC,2400,,,,,,,MVFR,,,,,,,,,,,,METAR,28.0
CYVO 242200Z 34015KT 15SM FEW041 07/M02 A3034 RMK SC2 SLP295,CYVO,2023-05-24T22:00:00Z,48.07,-77.77,7.0,-2.0,340,15,,15.0,30.339567,1029.5,,,,,,,,,,FEW,4100,,,,,,,VFR,,,,,,,,,,,,SPECI,329.0
CYVM 242200Z AUTO 19004KT 9SM SCT050 M02/M06 A2995 RMK SLP145,CYVM,2023-05-24T22:00:00Z,67.55,-64.02,-2.0,-6.0,190,4,,9.0,29.949802,1014.5,,TRUE,,,,,,,,SCT,5000,,,,,,,VFR,,,,,,,,,,,,SPECI,3.0
CYVL 242200Z AUTO 04012G18KT 9SM CLR 06/M01 A3009 RMK SLP209,CYVL,2023-05-24T22:00:00Z,67.02,-126.13,6.0,-1.0,40,12,18,9.0,30.088583,1020.9,,TRUE,,,,,,,,CLR,,,,,,,,VFR,,,,,,,,,,,,METAR,261.0
CYVC 242200Z 23004KT 15SM FEW020 BKN035 OVC130 12/08 A3000 RMK SC1SC5AC2 SLP175,CYVC,2023-05-24T22:00:00Z,55.15,-105.27,12.0,8.0,230,4,,15.0,30.0,1017.5,,,,,,,,,,FEW,2000,BKN,3500,OVC,13000,,,VFR,,,,,,,,,,,,SPECI,378.0
CYUY 242200Z 34013G18KT 330V030 15SM FEW040 09/M05 A3037 RMK SC1 SC TR SLP299,CYUY,2023-05-24T22:00:00Z,48.2,-78.82,9.0,-5.0,340,13,18,15.0,30.369095,1029.9,,,,,,,,,,FEW,4000,,,,,,,VFR,,,,,,,,,,,,METAR,304.0
CYUX 242200Z 19009KT 10SM FEW090 SCT250 M03/M07 A2989 RMK AC2CI1 SLP124,CYUX,2023-05-24T22:00:00Z,68.77,-81.22,-3.0,-7.0,190,9,,10.0,29.890747,1012.4,,,,,,,,,,FEW,9000,SCT,25000,,,,,VFR,,,,,,,,,,,,SPECI,8.0
CYUT 242200Z 15012KT 15SM BKN010 01/00 A2990 RMK SC7 LAST STFD OBS/NXT 251200Z SLP129,CYUT,2023-05-24T22:00:00Z,66.52,-86.22,1.0,0.0,150,12,,15.0,29.899607,1012.9,,,,,,,,,,BKN,1000,,,,,,,MVFR,,,,,,,,,,,,SPECI,22.0
CYUL 242200Z 22007KT 190V260 30SM FEW040 FEW060 SCT075 12/06 A3012 RMK SC1SC1AC1 SLP201,CYUL,2023-05-24T22:00:00Z,45.47,-73.73,12.0,6.0,220,7,,30.0,30.121063,1020.1,,,,,,,,,,FEW,4000,FEW,6000,SCT,7500,,,VFR,,,,,,,,,,,,METAR,31.0
CYUB 242200Z 05010KT 15SM SCT010 OVC100 M01/M05 A3029 RMK SC3AS5 SLP258,CYUB,2023-05-24T22:00:00Z,69.43,-133.02,-1.0,-5.0,50,10,,15.0,30.28937,1025.8,,,,,,,,,,SCT,1000,OVC,10000,,,,,VFR,,,,,,,,,,,,SPECI,5.0
CYUA 242200Z AUTO 05012KT ////SM OVC003 ///// A////,CYUA,2023-05-24T22:00:00Z,68.92,-137.23,,,50,12,,,,,,TRUE,,,,,,,,OVC,300,,,,,,,,,,,,,,,,,,,SPECI,25.0
CYTZ 242200Z AUTO 35014G22KT 320V040 9SM CLR 16/M00 A3018 RMK SLP224,CYTZ,2023-05-24T22:00:00Z,43.63,-79.4,16.0,0.0,350,14,22,9.0,30.180119,1022.4,,TRUE,,,,,,,,CLR,,,,,,,,VFR,,,,,,,,,,,,METAR,76.0
CYTS 242200Z 34009G16KT 310V040 15SM FEW250 12/M06 A3041 RMK CI1 SLP312,CYTS,2023-05-24T22:00:00Z,48.57,-81.37,12.0,-6.0,340,9,16,15.0,30.410433,1031.2,,,,,,,,,,FEW,25000,,,,,,,VFR,,,,,,,,,,,,SPECI,290.0
CYTR 242200Z 03010G17KT 360V060 15SM FEW050 15/01 A3018 RMK CF1 DENSITY ALT 103FT SLP220,CYTR,2023-05-24T22:00:00Z,44.12,-77.52,15.0,1.0,30,10,17,15.0,30.180119,1022.0,,,,,,,,,,FEW,5000,,,,,,,VFR,,,,,,,,,,,,METAR,80.0
CYTL 242200Z AUTO 14005KT 100V170 9SM CLR 17/M02 A3038 RMK SLP301,CYTL,2023-05-24T22:00:00Z,53.82,-89.88,17.0,-2.0,140,5,,9.0,30.380905,1030.1,,TRUE,,,,,,,,CLR,,,,,,,,VFR,,,,,,,,,,,,METAR,218.0
CYTH 242200Z 20010G20KT 150V220 15SM BKN210 20/M02 A3014 RMK CI6 SLP217 DENSITY ALT 1300FT,CYTH,2023-05-24T22:00:00Z,55.8,-97.83,20.0,-2.0,200,10,20,15.0,30.138779,1021.7,,,,,,,,,,BKN,21000,,,,,,,VFR,,,,,,,,,,,,SPECI,212.0
CYTE 242200Z AUTO 26007KT 9SM OVC017 01/M01 A3003 RMK SLP174,CYTE,2023-05-24T22:00:00Z,64.22,-76.52,1.0,-1.0,260,7,,9.0,30.029528,1017.4,,TRUE,,,,,,,,OVC,1700,,,,,,,MVFR,,,,,,,,,,,,METAR,49.0
CYSY 242200Z 36016KT 15SM -SN DRSN BKN011 M07/M10 A3024 RMK SC5 SLP252,CYSY,2023-05-24T22:00:00Z,72.0,-125.23,-7.0,-10.0,360,16,,15.0,30.239174,1025.2,,,,,,,,,-SN DRSN,BKN,1100,,,,,,,MVFR,,,,,,,,,,,,SPECI,83.0
CYSN 242200Z 02009G15KT 15SM FEW030 FEW250 15/04 A3018 RMK SC1CI1 SLP221,CYSN,2023-05-24T22:00:00Z,43.2,-79.17,15.0,4.0,20,9,15,15.0,30.180119,1022.1,,,,,,,,,,FEW,3000,FEW,25000,,,,,VFR,,,,,,,,,,,,SPECI,96.0
CYSM 242200Z 19003KT 6SM FU OVC025 14/07 A2983 RMK SC8 SLP110,CYSM,2023-05-24T22:00:00Z,60.03,-111.92,14.0,7.0,190,3,,6.0,29.828741,1011.0,,,,,,,,,FU,OVC,2500,,,,,,,MVFR,,,,,,,,,,,,SPECI,203.0
CYSK 242200Z 26024KT 15SM OVC005 M01/M02 A3040 RMK SF8 LAST STFD OBS/NXT 251200Z SLP300,CYSK,2023-05-24T22:00:00Z,56.53,-79.25,-1.0,-2.0,260,24,,15.0,30.398623,1030.0,,,,,,,,,,OVC,500,,,,,,,IFR,,,,,,,,,,,,SPECI,28.0
CYSJ 242200Z 25009KT 190V260 15SM SCT110 BKN260 10/05 A3001 RMK AC3CI2 SLP167,CYSJ,2023-05-24T22:00:00Z,45.32,-65.88,10.0,5.0,250,9,,15.0,30.008858,1016.7,,,,,,,,,,SCT,11000,BKN,26000,,,,,VFR,,,,,,,,,,,,METAR,89.0
CYSF 242200Z AUTO 15010G15KT 120V190 9SM OVC035 17/09 A2985 RMK SLP119 DENSITY ALT 1300FT,CYSF,2023-05-24T22:00:00Z,59.25,-105.83,17.0,9.0,150,10,15,9.0,29.84941,1011.9,,TRUE,,,,,,,,OVC,3500,,,,,,,VFR,,,,,,,,,,,,SPECI,238.0
CYSB 242200Z 02015G22KT 20SM SKC 10/M05 A3034 RMK SLP289,CYSB,2023-05-24T22:00:00Z,46.63,-80.8,10.0,-5.0,20,15,22,20.0,30.339567,1028.9,,,,,,,,,,SKC,,,,,,,,VFR,,,,,,,,,,,,SPECI,349.0
CYRV 242200Z AUTO 32010KT 9SM OVC096 19/08 A2998 RMK SLP156 DENSITY ALT 2200FT,CYRV,2023-05-24T22:00:00Z,50.97,-118.17,19.0,8.0,320,10,,9.0,29.97933,1015.6,,TRUE,,,,,,,,OVC,9600,,,,,,,VFR,,,,,,,,,,,,SPECI,456.0
CYRT 242200Z 19011KT 15SM SCT240 BKN270 11/03 A2997 RMK CC3CI4 SLP154,CYRT,2023-05-24T22:00:00Z,62.82,-92.12,11.0,3.0,190,11,,15.0,29.970472,1015.4,,,,,,,,,,SCT,24000,BKN,27000,,,,,VFR,,,,,,,,,,,,SPECI,29.0
CYRQ 242200Z AUTO 01009G17KT 9SM CLR 13/02 A3009 RMK SLP193,CYRQ,2023-05-24T22:00:00Z,46.35,-72.68,13.0,2.0,10,9,17,9.0,30.088583,1019.3,,TRUE,,,,,,,,CLR,,,,,,,,VFR,,,,,,,,,,,,METAR,58.0
CYRL 242200Z 14012G19KT 110V190 15SM FEW120 SCT240 17/M07 A3031 RMK AC1CI4 AC TR SLP277,CYRL,2023-05-24T22:00:00Z,51.07,-93.78,17.0,-7.0,140,12,19,15.0,30.31004,1027.7,,,,,,,,,,FEW,12000,SCT,24000,,,,,VFR,,,,,,,,,,,,SPECI,370.0
CYRJ 242200Z 32011G17KT 25SM BKN045 10/02 A3014 RMK SC7 SLP217,CYRJ,2023-05-24T22:00:00Z,48.52,-72.27,10.0,2.0,320,11,17,25.0,30.138779,1021.7,,,,,,,,,,BKN,4500,,,,,,,VFR,,,,,,,,,,,,SPECI,173.0
CYRB 242200Z 15012KT 5/8SM R35/5000VP6000FT/U -SHSN VV009 M07/M09 A2950 RMK SN8 SLP001,CYRB,2023-05-24T22:00:00Z,74.72,-94.97,-7.0,-9.0,150,12,,0.63,29.500984,1000.1,,,,,,,,,-SHSN,OVX,0,,,,,,,LIFR,,,,,,,,,,,900,METAR,59.0
CYRA 242200Z 33014G22KT 15SM FEW010 17/04 A2983 RMK CU2 SLP112 DENSITY ALT 1300FT,CYRA,2023-05-24T22:00:00Z,64.12,-117.32,17.0,4.0,330,14,22,15.0,29.828741,1011.2,,,,,,,,,,FEW,1000,,,,,,,VFR,,,,,,,,,,,,SPECI,232.0
CYQZ 242200Z AUTO 20005KT 070V240 9SM CLR 19/09 A3001 RMK SLP174 DENSITY ALT 2600FT,CYQZ,2023-05-24T22:00:00Z,53.02,-122.52,19.0,9.0,200,5,,9.0,30.008858,1017.4,,TRUE,,,,,,,,CLR,,,,,,,,VFR,,,,,,,,,,,,SPECI,548.0
CYQX 242200Z 20010G16KT 20SM SCT270 16/01 A3011 RMK CI4 SLP202,CYQX,2023-05-24T22:00:00Z,48.95,-54.58,16.0,1.0,200,10,16,20.0,30.109253,1020.2,,,,,,,,,,SCT,27000,,,,,,,VFR,,,,,,,,,,,,METAR,144.0
CYQW 242200Z AUTO VRB02KT 9SM OVC015 12/10 A2995 RMK SLP155,CYQW,2023-05-24T22:00:00Z,52.77,-108.25,12.0,10.0,0,2,,9.0,29.949802,1015.5,,TRUE,,,,,,,,OVC,1500,,,,,,,MVFR,,,,,,,,,,,,SPECI,545.0
CYQV 242200Z AUTO 13018G24KT 9SM CLR 23/11 A2997 RMK SLP159 DENSITY ALT 2900FT,CYQV,2023-05-24T22:00:00Z,51.27,-102.47,23.0,11.0,130,18,24,9.0,29.970472,1015.9,,TRUE,,,,,,,,CLR,,,,,,,,VFR,,,,,,,,,,,,SPECI,493.0
CYQU 242200Z 30004KT 270V040 20SM BKN045 BKN240 18/08 A2994 RMK CU6CI1 SLP155 DENSITY ALT 3100FT,CYQU,2023-05-24T22:00:00Z,55.18,-118.88,18.0,8.0,300,4,,20.0,29.940945,1015.5,,,,,,,,,,BKN,4500,BKN,24000,,,,,VFR,,,,,,,,,,,,METAR,668.0
CYQT 242200Z 13007KT 20SM FEW190 BKN230 12/M11 A3045 RMK AC2CI4 SLP321,CYQT,2023-05-24T22:00:00Z,48.37,-89.32,12.0,-11.0,130,7,,20.0,30.448818,1032.1,,,,,,,,,,FEW,19000,BKN,23000,,,,,VFR,,,,,,,,,,,,SPECI,197.0
CYQR 242200Z 13019G24KT 15SM BKN150 25/15 A2987 RMK AC6 PRESFR SLP121 DENSITY ALT 3600FT,CYQR,2023-05-24T22:00:00Z,50.43,-104.67,25.0,15.0,130,19,24,15.0,29.870079,1012.1,,,,,,,,,,BKN,15000,,,,,,,VFR,,,,,,,,,,,,SPECI,576.0
CYQQ 242200Z 06004KT 20SM FEW040 FEW250 19/09 A3006 RMK CU1CI2 DENSITY ALT 561FT SLP180,CYQQ,2023-05-24T22:00:00Z,49.72,-124.9,19.0,9.0,60,4,,20.0,30.059055,1018.0,,,,,,,,,,FEW,4000,FEW,25000,,,,,VFR,,,,,,,,,,,,METAR,24.0
CYQM 242200Z 17011KT 15SM SCT065 SCT120 BKN140 17/03 A2996 RMK SC3AC1AC3 SLP149 DENSITY ALT 600FT,CYQM,2023-05-24T22:00:00Z,46.12,-64.67,17.0,3.0,170,11,,15.0,29.958662,1014.9,,,,,,,,,,SCT,6500,SCT,12000,BKN,14000,,,VFR,,,,,,,,,,,,METAR,67.0
CYQL 242200Z 02003KT 310V100 60SM FEW056 FEW100 BKN290 19/06 A2991 RMK CU2AC1CI4 AC TR SLP128 DENSITY ALT 4300FT,CYQL,2023-05-24T22:00:00Z,49.63,-112.8,19.0,6.0,20,3,,60.0,29.911417,1012.8,,,,,,,,,,FEW,5600,FEW,10000,BKN,29000,,,VFR,,,,,,,,,,,,SPECI,923.0
CYQK 242200Z 14012KT 120V180 20SM BKN100 BKN250 15/00 A3031 RMK AC5CI2 SLP274,CYQK,2023-05-24T22:00:00Z,49.78,-94.37,15.0,0.0,140,12,,20.0,30.31004,1027.4,,,,,,,,,,BKN,10000,BKN,25000,,,,,VFR,,,,,,,,,,,,SPECI,413.0
CYQI 242200Z 15010KT 15SM FEW029 OVC250 15/10 A2999 RMK SC1CI7 SLP159,CYQI,2023-05-24T22:00:00Z,43.83,-66.08,15.0,10.0,150,10,,15.0,29.991142,1015.9,,,,,,,,,,FEW,2900,OVC,25000,,,,,VFR,,,,,,,,,,,,SPECI,37.0
CYQH 242200Z 25008KT 40SM SCT060 OVC087 17/02 A2998 RMK SC4AC4 SLP168 DENSITY ALT 3000FT,CYQH,2023-05-24T22:00:00Z,60.12,-128.82,17.0,2.0,250,8,,40.0,29.97933,1016.8,,,,,,,,,,SCT,6000,OVC,8700,,,,,VFR,,,,,,,,,,,,SPECI,692.0
CYQG 242200Z AUTO 03018G27KT 9SM CLR 15/M01 A3023 RMK SLP239,CYQG,2023-05-24T22:00:00Z,42.27,-82.97,15.0,-1.0,30,18,27,9.0,30.230314,1023.9,,TRUE,,,,,,,,CLR,,,,,,,,VFR,,,,,,,,,,,,METAR,189.0
CYQF 242200Z AUTO 33005KT 310V060 9SM CLR 18/05 A2994 RMK SLP155 DENSITY ALT 4000FT,CYQF,2023-05-24T22:00:00Z,52.17,-113.9,18.0,5.0,330,5,,9.0,29.940945,1015.5,,TRUE,,,,,,,,CLR,,,,,,,,VFR,,,,,,,,,,,,SPECI,912.0
CYQD 242200Z AUTO 14021G27KT 9SM CLR 17/05 A3005 RMK SLP186 DENSITY ALT 1300FT,CYQD,2023-05-24T22:00:00Z,53.97,-101.08,17.0,5.0,140,21,27,9.0,30.050198,1018.6,,TRUE,,,,,,,,CLR,,,,,,,,VFR,,,,,,,,,,,,SPECI,268.0
CYQB 242200Z 11002KT 30SM FEW017 BKN050 BKN140 11/06 A3008 RMK SF2SC6AC1 SLP190,CYQB,2023-05-24T22:00:00Z,46.78,-71.38,11.0,6.0,110,2,,30.0,30.079725,1019.0,,,,,,,,,,FEW,1700,BKN,5000,BKN,14000,,,VFR,,,,,,,,,,,,METAR,73.0
CYPY 242200Z AUTO VRB02KT 9SM SCT039 OVC047 15/08 A2983 RMK SLP110 DENSITY ALT 1100FT,CYPY,2023-05-24T22:00:00Z,58.77,-111.12,15.0,8.0,0,2,,9.0,29.828741,1011.0,,TRUE,,,,,,,,SCT,3900,OVC,4700,,,,,VFR,,,,,,,,,,,,SPECI,225.0
CYPW 242200Z 29004KT 210V310 30SM FEW035 BKN220 19/08 A3006 RMK SC1CS5 SC TR HALO SLP183 DENSITY ALT 900FT,CYPW,2023-05-24T22:00:00Z,49.83,-124.5,19.0,8.0,290,4,,30.0,30.059055,1018.3,,,,,,,,,,FEW,3500,BKN,22000,,,,,VFR,,,,,,,,,,,,SPECI,122.0
CYPR 242200Z AUTO 29006KT 250V330 9SM CLR 13/09 A3017 RMK SLP221,CYPR,2023-05-24T22:00:00Z,54.28,-130.45,13.0,9.0,290,6,,9.0,30.171259,1022.1,,TRUE,,,,,,,,CLR,,,,,,,,VFR,,,,,,,,,,,,SPECI,30.0
CYPQ 242200Z AUTO 36013G19KT 9SM CLR 15/00 A3018 RMK SLP226,CYPQ,2023-05-24T22:00:00Z,44.22,-78.37,15.0,0.0,360,13,19,9.0,30.180119,1022.6,,TRUE,,,,,,,,CLR,,,,,,,,VFR,,,,,,,,,,,,SPECI,190.0
CYPO 242200Z AUTO VRB06KT 9SM CLR 12/M02 A3044 RMK SLP313,CYPO,2023-05-24T22:00:00Z,54.98,-85.43,12.0,-2.0,0,6,,9.0,30.43996,1031.3,,TRUE,,,,,,,,CLR,,,,,,,,VFR,,,,,,,,,,,,METAR,49.0
CYPL 242200Z AUTO 14008KT 090V170 9SM CLR 17/M09 A3040 RMK SLP312,CYPL,2023-05-24T22:00:00Z,51.43,-90.22,17.0,-9.0,140,8,,9.0,30.398623,1031.2,,TRUE,,,,,,,,CLR,,,,,,,,VFR,,,,,,,,,,,,METAR,390.0
CYPH 242200Z AUTO 27016G22KT 9SM OVC005 01/M01 A3028 RMK SLP257,CYPH,2023-05-24T22:00:00Z,58.47,-78.08,1.0,-1.0,270,16,22,9.0,30.280512,1025.7,,TRUE,,,,,,,,OVC,500,,,,,,,IFR,,,,,,,,,,,,SPECI,24.0
CYPG 242200Z 10020G27KT 8SM BKN120 OVC280 17/10 A3011 RMK AC7CI1 DENSITY ALT 1231FT ACC EMBD MOV NE SH DSNT NE-E HZ SLP201,CYPG,2023-05-24T22:00:00Z,49.9,-98.28,17.0,10.0,100,20,27,8.0,30.109253,1020.1,,,,,,,,,,BKN,12000,OVC,28000,,,,,VFR,,,,,,,,,,,,METAR,270.0
CYPE 242200Z 32010G17KT 300V360 12SM FEW030 SCT110 BKN190 15/07 A2993 RMK SC1AC2CI4 SLP152 DENSITY ALT 2300FT,CYPE,2023-05-24T22:00:00Z,56.22,-117.45,15.0,7.0,320,10,17,12.0,29.929134,1015.2,,,,,,,,,,FEW,3000,SCT,11000,BKN,19000,,,VFR,,,,,,,,,,,,SPECI,572.0
CYPC 242200Z 36016KT 15SM SCT013 BKN038 M00/M04 A3022 RMK SC4SC2 SLP235,CYPC,2023-05-24T22:00:00Z,69.37,-124.07,0.0,-4.0,360,16,,15.0,30.221457,1023.5,,,,,,,,,,SCT,1300,BKN,3800,,,,,VFR,,,,,,,,,,,,METAR,5.0
CYOY 242200Z 01011G16KT 15SM FEW020 BKN150 11/00 A3009 RMK SC2AC5 DENSITY ALT 91FT SLP194,CYOY,2023-05-24T22:00:00Z,46.88,-71.5,11.0,0.0,10,11,16,15.0,30.088583,1019.4,,,,,,,,,,FEW,2000,BKN,15000,,,,,VFR,,,,,,,,,,,,SPECI,167.0
CYOW 242200Z 01013G21KT 15SM FEW030 12/M01 A3018 RMK SC1 SC TR SLP223,CYOW,2023-05-24T22:00:00Z,45.32,-75.67,12.0,-1.0,10,13,21,15.0,30.180119,1022.3,,,,,,,,,,FEW,3000,,,,,,,VFR,,,,,,,,,,,,METAR,111.0
CYOO 242200Z AUTO 34013G18KT 330V030 9SM CLR 16/M01 A3018 RMK SLP224,CYOO,2023-05-24T22:00:00Z,43.92,-78.9,16.0,-1.0,340,13,18,9.0,30.180119,1022.4,,TRUE,,,,,,,,CLR,,,,,,,,VFR,,,,,,,,,,,,METAR,136.0
CYOJ 242200Z 00000KT 8SM FEW014 SCT100 SCT260 15/10 A2988 RMK SF1AC3CI1 SF TR FU SLP132 DENSITY ALT 1500FT,CYOJ,2023-05-24T22:00:00Z,58.62,-117.17,15.0,10.0,0,0,,8.0,29.878937,1013.2,,,,,,,,,,FEW,1400,SCT,10000,SCT,26000,,,VFR,,,,,,,,,,,,SPECI,339.0
CYOD 242200Z 11004KT 15SM BKN100 17/10 A2993 RMK AC7 DENSITY ALT 2556FT SLP148,CYOD,2023-05-24T22:00:00Z,54.4,-110.28,17.0,10.0,110,4,,15.0,29.929134,1014.8,,,,,,,,,,BKN,10000,,,,,,,VFR,,,,,,,,,,,,SPECI,540.0
CYNM 242200Z AUTO 34010G19KT 9SM CLR 05/M05 A3040 RMK SLP312,CYNM,2023-05-24T22:00:00Z,49.77,-77.78,5.0,-5.0,340,10,19,9.0,30.398623,1031.2,,TRUE,,,,,,,,CLR,,,,,,,,VFR,,,,,,,,,,,,SPECI,276.0
CYNE 242200Z AUTO 24007KT 180V270 9SM CLR 21/02 A3015 RMK SLP218 DENSITY ALT 1300FT,CYNE,2023-05-24T22:00:00Z,53.97,-97.83,21.0,2.0,240,7,,9.0,30.15059,1021.8,,TRUE,,,,,,,,CLR,,,,,,,,VFR,,,,,,,,,,,,SPECI,220.0
CYND 242200Z 33012G20KT 290V360 15SM FEW030 12/M00 A3018 RMK SF1 SF TR SLP224,CYND,2023-05-24T22:00:00Z,45.52,-75.57,12.0,0.0,330,12,20,15.0,30.180119,1022.4,,,,,,,,,,FEW,3000,,,,,,,VFR,,,,,,,,,,,,SPECI,57.0
CYNA 242200Z AUTO 24003KT 9SM -RA SCT076 OVC087 08/05 A2998 RMK SLP155,CYNA,2023-05-24T22:00:00Z,50.18,-61.78,8.0,5.0,240,3,,9.0,29.97933,1015.5,,TRUE,,,,,,,-RA,SCT,7600,OVC,8700,,,,,VFR,,,,,,,,,,,,SPECI,9.0
CYMX 242200Z 34010KT 25SM SCT060 SCT080 BKN150 13/01 A3012 RMK CU3AC1AC1 SLP203,CYMX,2023-05-24T22:00:00Z,45.67,-74.03,13.0,1.0,340,10,,25.0,30.121063,1020.3,,,,,,,,,,SCT,6000,SCT,8000,BKN,15000,,,VFR,,,,,,,,,,,,METAR,78.0
CYMT 242200Z AUTO 33013G21KT 9SM OVC028 05/M02 A3028 RMK SLP273,CYMT,2023-05-24T22:00:00Z,49.77,-74.52,5.0,-2.0,330,13,21,9.0,30.280512,1027.3,,TRUE,,,,,,,,OVC,2800,,,,,,,MVFR,,,,,,,,,,,,SPECI,388.0
CYMO 242200Z AUTO 03007G15KT 010V080 9SM CLR 03/M02 A3051 RMK SLP336,CYMO,2023-05-24T22:00:00Z,51.28,-80.62,3.0,-2.0,30,7,15,9.0,30.510826,1033.6,,TRUE,,,,,,,,CLR,,,,,,,,VFR,,,,,,,,,,,,SPECI,8.0
CYMM 242200Z AUTO 27013KT 9SM BKN043 16/07 A2988 RMK SLP132 DENSITY ALT 1700FT,CYMM,2023-05-24T22:00:00Z,56.65,-111.22,16.0,7.0,270,13,,9.0,29.878937,1013.2,,TRUE,,,,,,,,BKN,4300,,,,,,,VFR,,,,,,,,,,,,SPECI,371.0
CYMJ 242200Z 13016G25KT 10SM FEW051 BKN170 BKN300 26/14 A2984 RMK CU1AC5CI1 DENSITY ALT 3943FT HZ SLP104,CYMJ,2023-05-24T22:00:00Z,50.32,-105.55,26.0,14.0,130,16,25,10.0,29.840551,1010.4,,,,,,,,,,FEW,5100,BKN,17000,BKN,30000,,,VFR,,,,,,,,,,,,SPECI,578.0
CYMH 242200Z AUTO 20010G17KT 9SM CLR 12/00 A3000 RMK SLP160,CYMH,2023-05-24T22:00:00Z,52.3,-55.82,12.0,0.0,200,10,17,9.0,30.0,1016.0,,TRUE,,,,,,,,CLR,,,,,,,,VFR,,,,,,,,,,,,METAR,18.0
CYMA 242200Z 09005KT 030V120 20SM BKN064TCU OVC083 16/05 A2993 RMK TCU6AC2 SLP155 DENSITY ALT 2200FT,CYMA,2023-05-24T22:00:00Z,63.62,-135.87,16.0,5.0,90,5,,20.0,29.929134,1015.5,,,,,,,,,,BKN,6400,OVC,8300,,,,,VFR,,,,,,,,,,,,SPECI,519.0
CYLW 242200Z AUTO 33016G22KT 9SM SCT066 20/09 A3000 RMK SLP163 DENSITY ALT 2200FT,CYLW,2023-05-24T22:00:00Z,49.95,-119.37,20.0,9.0,330,16,22,9.0,30.0,1016.3,,TRUE,,,,,,,,SCT,6600,,,,,,,VFR,,,,,,,,,,,,SPECI,420.0
CYLL 242200Z VRB02KT 10SM SCT120 OVC270 16/09 A2991 RMK AC4CI4 FU SLP143 DENSITY ALT 2900FT,CYLL,2023-05-24T22:00:00Z,53.32,-110.07,16.0,9.0,0,2,,10.0,29.911417,1014.3,,,,,,,,,,SCT,12000,OVC,27000,,,,,VFR,,,,,,,,,,,,SPECI,664.0
CYLK 242200Z 27005KT 210V300 3SM FU OVC040 10/06 A2982 RMK SC8 SLP108,CYLK,2023-05-24T22:00:00Z,62.42,-110.67,10.0,6.0,270,5,,3.0,29.819881,1010.8,,,,,,,,,FU,OVC,4000,,,,,,,MVFR,,,,,,,,,,,,SPECI,183.0
CYLJ 242200Z 12003KT 4SM -RA SCT040 BKN070 OVC170 13/12 A2993 RMK SC3AC2AS3 SLP149 DENSITY ALT 1800FT,CYLJ,2023-05-24T22:00:00Z,54.12,-108.52,13.0,12.0,120,3,,4.0,29.929134,1014.9,,,,,,,,,-RA,SCT,4000,BKN,7000,OVC,17000,,,MVFR,,,,,,,,,,,,SPECI,481.0
CYLH 242200Z AUTO 07005KT 020V080 9SM CLR 14/M05 A3043 RMK SLP321,CYLH,2023-05-24T22:00:00Z,52.2,-87.93,14.0,-5.0,70,5,,9.0,30.431103,1032.1,,TRUE,,,,,,,,CLR,,,,,,,,VFR,,,,,,,,,,,,METAR,245.0
CYLD 242200Z 02006KT 360V070 15SM SCT300 12/M05 A3039 RMK CI3 SLP312,CYLD,2023-05-24T22:00:00Z,47.82,-83.35,12.0,-5.0,20,6,,15.0,30.389763,1031.2,,,,,,,,,,SCT,30000,,,,,,,VFR,,,,,,,,,,,,SPECI,449.0
CYKY 242200Z 04011KT 8SM -RA FEW004 BKN041 OVC080 14/14 A2989 RMK SC2SC5AC1 SLP127 DENSITY ALT 2800FT,CYKY,2023-05-24T22:00:00Z,51.52,-109.17,14.0,14.0,40,11,,8.0,29.890747,1012.7,,,,,,,,,-RA,FEW,400,BKN,4100,OVC,8000,,,VFR,,,,,,,,,,,,SPECI,692.0
CYKP 242200Z AUTO 07005KT 340V090 9SM CLR 13/M05 A3046 RMK SLP326,CYKP,2023-05-24T22:00:00Z,51.67,-85.9,13.0,-5.0,70,5,,9.0,30.46063,1032.6,,TRUE,,,,,,,,CLR,,,,,,,,VFR,,,,,,,,,,,,METAR,181.0
CYKL 242200Z AUTO 34011G20KT 9SM CLR 03/M06 A3011 RMK SLP226,CYKL,2023-05-24T22:00:00Z,54.8,-66.8,3.0,-6.0,340,11,20,9.0,30.109253,1022.6,,TRUE,,,,,,,,CLR,,,,,,,,VFR,,,,,,,,,,,,METAR,507.0
CYKJ 242200Z AUTO 17012G20KT 9SM OVC046 14/08 A2992 RMK SLP147 DENSITY ALT 2000FT,CYKJ,2023-05-24T22:00:00Z,57.25,-105.62,14.0,8.0,170,12,20,9.0,29.920275,1014.7,,TRUE,,,,,,,,OVC,4600,,,,,,,VFR,,,,,,,,,,,,SPECI,519.0
CYKF 242200Z AUTO 02009G17KT 340V040 9SM CLR 14/01 A3020 RMK SLP231,CYKF,2023-05-24T22:00:00Z,43.47,-80.38,14.0,1.0,20,9,17,9.0,30.200787,1023.1,,TRUE,,,,,,,,CLR,,,,,,,,VFR,,,,,,,,,,,,METAR,312.0
CYKD 242200Z 35004KT 300V020 6SM -SN BR BKN007 OVC034 01/01 A3025 RMK SF5SC3 VIS NE 3 SLP246,CYKD,2023-05-24T22:00:00Z,68.22,-135.0,1.0,1.0,350,4,,6.0,30.250984,1024.6,,,,,,,,,-SN BR,BKN,700,OVC,3400,,,,,IFR,,,,,,,,,,,,SPECI,7.0
CYKA 242200Z 26008KT 230V330 40SM SCT060 SCT080 BKN250 18/07 A3004 RMK CU3AC1CI3 CC ASOCTD SLP179 DENSITY ALT 1700FT,CYKA,2023-05-24T22:00:00Z,50.7,-120.45,18.0,7.0,260,8,,40.0,30.041338,1017.9,,,,,,,,,,SCT,6000,SCT,8000,BKN,25000,,,VFR,,,,,,,,,,,,SPECI,344.0
CYJT 242200Z 18011G17KT 15SM FEW020 FEW210 12/02 A3009 RMK SC1CI1 SC TR CI TR SLP191,CYJT,2023-05-24T22:00:00Z,48.55,-58.57,12.0,2.0,180,11,17,15.0,30.088583,1019.1,,,,,,,,,,FEW,2000,FEW,21000,,,,,VFR,,,,,,,,,,,,METAR,7.0
CYJF 242200Z VRB04KT 15SM SCT075 SCT160 BKN220 21/06 A2994 RMK AC3AC1CS2 VERT DVLPMT/LAST STFD OBS/NXT 251400Z SLP144 DENSITY ALT 1600FT,CYJF,2023-05-24T22:00:00Z,60.23,-123.47,21.0,6.0,0,4,,15.0,29.940945,1014.4,,,,,,,,,,SCT,7500,SCT,16000,BKN,22000,,,VFR,,,,,,,,,,,,SPECI,215.0
CYIV 242200Z AUTO 13013G20KT 9SM CLR 20/M03 A3024 RMK ICE MISG SLP250 DENSITY ALT 1200FT,CYIV,2023-05-24T22:00:00Z,53.85,-94.65,20.0,-3.0,130,13,20,9.0,30.239174,1025.0,,TRUE,,,,,,,,CLR,,,,,,,,VFR,,,,,,,,,,,,SPECI,234.0
CYIN 242200Z AUTO VRB04KT 9SM BKN033 OVC041 13/06 A3007 RMK SLP192 DENSITY ALT 4200FT,CYIN,2023-05-24T22:00:00Z,51.27,-121.68,13.0,6.0,0,4,,9.0,30.070866,1019.2,,TRUE,,,,,,,,BKN,3300,OVC,4100,,,,,VFR,,,,,,,,,,,,METAR,1127.0
CYHU 242200Z AUTO 08004KT 040V110 9SM CLR 12/06 A3012 RMK SLP201,CYHU,2023-05-24T22:00:00Z,45.52,-73.42,12.0,6.0,80,4,,9.0,30.121063,1020.1,,TRUE,,,,,,,,CLR,,,,,,,,VFR,,,,,,,,,,,,SPECI,26.0
CYHM 242200Z 36014KT 15SM FEW030 FEW240 15/03 A3018 RMK SC1CI1 CI TR SLP224,CYHM,2023-05-24T22:00:00Z,43.17,-79.93,15.0,3.0,360,14,,15.0,30.180119,1022.4,,,,,,,,,,FEW,3000,FEW,24000,,,,,VFR,,,,,,,,,,,,METAR,237.0
CYHK 242200Z 22010KT 10SM FEW080 BKN085 BKN230 02/01 A2962 RMK AC1AS4CI2 SLP035,CYHK,2023-05-24T22:00:00Z,68.62,-95.85,2.0,1.0,220,10,,10.0,29.619095,1003.5,,,,,,,,,,FEW,8000,BKN,8500,BKN,23000,,,VFR,,,,,,,,,,,,SPECI,36.0
CYHE 242200Z AUTO 30003KT 250V330 9SM BKN081 15/11 A3008 RMK SLP189,CYHE,2023-05-24T22:00:00Z,49.37,-121.5,15.0,11.0,300,3,,9.0,30.079725,1018.9,,TRUE,,,,,,,,BKN,8100,,,,,,,VFR,,,,,,,,,,,,SPECI,43.0
CYHD 242200Z AUTO 14010G15KT 100V160 9SM BKN180 16/M05 A3033 RMK SLP286,CYHD,2023-05-24T22:00:00Z,49.82,-92.75,16.0,-5.0,140,10,15,9.0,30.33071,1028.6,,TRUE,,,,,,,,BKN,18000,,,,,,,VFR,,,,,,,,,,,,SPECI,414.0
CYGX 242200Z 18008G19KT 15SM FEW120 BKN250 20/M05 A3021 RMK AS1CI5 SLP237 DENSITY ALT 900FT,CYGX,2023-05-24T22:00:00Z,56.35,-94.7,20.0,-5.0,180,8,19,15.0,30.209646,1023.7,,,,,,,,,,FEW,12000,BKN,25000,,,,,VFR,,,,,,,,,,,,SPECI,145.0
CYGW 242200Z AUTO 28007KT 9SM OVC013 M01/M03 A3048 RMK SLP325,CYGW,2023-05-24T22:00:00Z,55.27,-77.77,-1.0,-3.0,280,7,,9.0,30.481298,1032.5,,TRUE,,,,,,,,OVC,1300,,,,,,,MVFR,,,,,,,,,,,,SPECI,13.0
CYGV 242200Z AUTO 27008KT 9SM OVC100 10/06 A2998 RMK SLP156,CYGV,2023-05-24T22:00:00Z,50.28,-63.62,10.0,6.0,270,8,,9.0,29.97933,1015.6,,TRUE,,,,,,,,OVC,10000,,,,,,,VFR,,,,,,,,,,,,SPECI,32.0
CYGR 242200Z 19017G24KT 20SM FEW270 11/05 A3001 RMK CI2 SLP166,CYGR,2023-05-24T22:00:00Z,47.42,-61.77,11.0,5.0,190,17,24,20.0,30.008858,1016.6,,,,,,,,,,FEW,27000,,,,,,,VFR,,,,,,,,,,,,SPECI,4.0
CYGL 242200Z 32012G18KT 280V350 15SM FEW032 FEW220 04/M05 A3042 RMK SC1CI1 SC TR SLP318,CYGL,2023-05-24T22:00:00Z,53.62,-77.7,4.0,-5.0,320,12,18,15.0,30.41929,1031.8,,,,,,,,,,FEW,3200,FEW,22000,,,,,VFR,,,,,,,,,,,,METAR,192.0
CYGK 242200Z 35013G20KT 15SM FEW042 13/02 A3018 RMK SC1 SC TR SLP222,CYGK,2023-05-24T22:00:00Z,44.22,-76.58,13.0,2.0,350,13,20,15.0,30.180119,1022.2,,,,,,,,,,FEW,4200,,,,,,,VFR,,,,,,,,,,,,SPECI,91.0
CYGH 242200Z 30005KT 280V010 25SM FEW080 BKN220 17/M01 A3006 RMK AC1CI6 AC TR VIA CYQB SLP184,CYGH,2023-05-24T22:00:00Z,66.23,-128.63,17.0,-1.0,300,5,,25.0,30.059055,1018.4,,,,,,,,,,FEW,8000,BKN,22000,,,,,VFR,,,,,,,,,,,,SPECI,72.0
CYGE 242200Z 32011KT 290V360 20SM FEW060 BKN090 19/04 A2997 RMK CU2AC3 SLP156 DENSITY ALT 3600FT,CYGE,2023-05-24T22:00:00Z,51.3,-116.98,19.0,4.0,320,11,,20.0,29.970472,1015.6,,,,,,,,,,FEW,6000,BKN,9000,,,,,VFR,,,,,,,,,,,,SPECI,786.0
CYFS 242200Z 34012KT 300V010 15SM SCT067 BKN082 BKN250 20/04 A2990 RMK AC4AC2CI1 CI TR SLP132 DENSITY ALT 1400FT,CYFS,2023-05-24T22:00:00Z,61.75,-121.22,20.0,4.0,340,12,,15.0,29.899607,1013.2,,,,,,,,,,SCT,6700,BKN,8200,BKN,25000,,,VFR,,,,,,,,,,,,SPECI,174.0
CYFR 242200Z 26004KT 200V350 5SM FU FEW030 13/08 A2983 RMK SC1 LAST STFD OBS/NEXT251400Z SLP109,CYFR,2023-05-24T22:00:00Z,61.17,-113.68,13.0,8.0,260,4,,5.0,29.828741,1010.9,,,,,,,,,FU,FEW,3000,,,,,,,MVFR,,,,,,,,,,,,SPECI,159.0
CYFO 242200Z 14009KT 100V160 15SM BKN200 18/03 A3003 RMK CS5 SLP181 DENSITY ALT 1500FT,CYFO,2023-05-24T22:00:00Z,54.67,-101.67,18.0,3.0,140,9,,15.0,30.029528,1018.1,,,,,,,,,,BKN,20000,,,,,,,VFR,,,,,,,,,,,,SPECI,303.0
CYFC 242200Z AUTO 20010KT 9SM OVC096 14/M04 A2997 RMK SLP151,CYFC,2023-05-24T22:00:00Z,45.87,-66.53,14.0,-4.0,200,10,,9.0,29.970472,1015.1,,TRUE,,,,,,,,OVC,9600,,,,,,,VFR,,,,,,,,,,,,METAR,16.0
CYFB 242200Z VRB02KT 25SM SCT014 BKN023 BKN030 M01/M03 A3000 RMK SC4SC2SC1 VIS SW 7 SLP163,CYFB,2023-05-24T22:00:00Z,63.75,-68.55,-1.0,-3.0,0,2,,25.0,30.0,1016.3,,,,,,,,,,SCT,1400,BKN,2300,BKN,3000,,,MVFR,,,,,,,,,,,,METAR,23.0
CYER 242200Z AUTO 22008KT 140V250 9SM FEW240 17/01 A3037 RMK SLP287,CYER,2023-05-24T22:00:00Z,56.02,-87.68,17.0,1.0,220,8,,9.0,30.369095,1028.7,,TRUE,,,,,,,,FEW,24000,,,,,,,VFR,,,,,,,,,,,,METAR,11.0
CYEK 242200Z 20014G21KT 15SM FEW110 OVC250 05/02 A3003 RMK AC1CS7 LAST STFD OBS/NXT 251200Z SLP173,CYEK,2023-05-24T22:00:00Z,61.1,-94.07,5.0,2.0,200,14,21,15.0,30.029528,1017.3,,,,,,,,,,FEW,11000,OVC,25000,,,,,VFR,,,,,,,,,,,,SPECI,7.0
CYEG 242200Z 29011KT 200V010 20SM BKN062 BKN250 19/05 A2993 RMK CU5CI1 SLP149 DENSITY ALT 3400FT,CYEG,2023-05-24T22:00:00Z,53.3,-113.58,19.0,5.0,290,11,,20.0,29.929134,1014.9,,,,,,,,,,BKN,6200,BKN,25000,,,,,VFR,,,,,,,,,,,,METAR,710.0
CYDQ 242200Z AUTO 31007KT 280V340 9SM FEW060 SCT250 20/05 A2994 RMK SLP150 DENSITY ALT 3300FT,CYDQ,2023-05-24T22:00:00Z,55.75,-120.18,20.0,5.0,310,7,,9.0,29.940945,1015.0,,TRUE,,,,,,,,FEW,6000,SCT,25000,,,,,VFR,,,,,,,,,,,,METAR,658.0
CYDP 242200Z 08004KT 15SM BKN023 BKN140 M00/M02 A3009 RMK SC5AC2 SLP192,CYDP,2023-05-24T22:00:00Z,56.53,-61.68,0.0,-2.0,80,4,,15.0,30.088583,1019.2,,,,,,,,,,BKN,2300,BKN,14000,,,,,MVFR,,,,,,,,,,,,SPECI,14.0
CYDN 242200Z AUTO 13019G27KT 9SM CLR 20/09 A3004 RMK SLP182 DENSITY ALT 1700FT,CYDN,2023-05-24T22:00:00Z,51.1,-100.05,20.0,9.0,130,19,27,9.0,30.041338,1018.2,,TRUE,,,,,,,,CLR,,,,,,,,VFR,,,,,,,,,,,,SPECI,302.0
CYDL 242200Z AUTO 23011G18KT 190V290 9SM BKN066 BKN089 18/02 A3002 RMK SLP171 DENSITY ALT 3600FT,CYDL,2023-05-24T22:00:00Z,58.42,-130.02,18.0,2.0,230,11,18,9.0,30.02067,1017.1,,TRUE,,,,,,,,BKN,6600,BKN,8900,,,,,VFR,,,,,,,,,,,,METAR,804.0
CYDF 242200Z 23012KT 15SM SCT230 18/M00 A3005 RMK CI3 SLP178 DENSITY ALT 300FT,CYDF,2023-05-24T22:00:00Z,49.22,-57.4,18.0,0.0,230,12,,15.0,30.050198,1017.8,,,,,,,,,,SCT,23000,,,,,,,VFR,,,,,,,,,,,,SPECI,15.0
CYDC 242200Z 16003KT 120V280 25SM FEW049 BKN057 BKN100 15/05 A3005 RMK CU2SC3AC2 SLP178 DENSITY ALT 2800FT,CYDC,2023-05-24T22:00:00Z,49.47,-120.52,15.0,5.0,160,3,,25.0,30.050198,1017.8,,,,,,,,,,FEW,4900,BKN,5700,BKN,10000,,,VFR,,,,,,,,,,,,SPECI,703.0
CYDB 242200Z 11010G17KT 15SM FEW050 FEW060 FEW190 SCT230 16/02 A2988 RMK CU2CF1CI1CI1 CF TR CI TR LAST STFD OBS/NEXT 251400 SLP142 DENSITY ALT 3500FT,CYDB,2023-05-24T22:00:00Z,61.37,-139.02,16.0,2.0,110,10,17,15.0,29.878937,1014.2,,,,,,,,,,FEW,5000,FEW,6000,FEW,19000,SCT,23000,VFR,,,,,,,,,,,,SPECI,807.0
CYDA 242200Z 03008KT 340V070 20SM FEW080 SCT120 BKN170 BKN220 17/06 A2990 RMK CU2AS2AC2CI1 SLP137 DENSITY ALT 1800FT,CYDA,2023-05-24T22:00:00Z,64.03,-139.12,17.0,6.0,30,8,,20.0,29.899607,1013.7,,,,,,,,,,FEW,8000,SCT,12000,BKN,17000,BKN,22000,VFR,,,,,,,,,,,,SPECI,338.0
CYCY 242200Z 12004KT 15SM FEW025 FEW036 SCT060 BKN090 M02/M04 A2990 RMK SC1SC1SC4AC3 SC TR SC TR SLP131,CYCY,2023-05-24T22:00:00Z,70.48,-68.52,-2.0,-4.0,120,4,,15.0,29.899607,1013.1,,,,,,,,,,FEW,2500,FEW,3600,SCT,6000,BKN,9000,VFR,,,,,,,,,,,,SPECI,73.0
CYCX 242200Z 21009KT 15SM BKN065 OVC095 14/M04 A2998 RMK SC6AC2 DENSITY ALT 41FT SLP151,CYCX,2023-05-24T22:00:00Z,45.83,-66.45,14.0,-4.0,210,9,,15.0,29.97933,1015.1,,,,,,,,,,BKN,6500,OVC,9500,,,,,VFR,,,,,,,,,,,,SPECI,46.0
CYCS 242200Z 22015KT 15SM SCT180 OVC200 15/04 A2996 RMK AS3CI5 LAST STFD OBS/NEXT 25/1200 SLP150,CYCS,2023-05-24T22:00:00Z,63.35,-90.72,15.0,4.0,220,15,,15.0,29.958662,1015.0,,,,,,,,,,SCT,18000,OVC,20000,,,,,VFR,,,,,,,,,,,,SPECI,7.0
CYCQ 242200Z 16004KT 130V200 35SM SCT045TCU SCT060 BKN140 BKN190 OVC220 19/10 A2994 RMK TCU3CU1AC2AS1CI1 PCPN DIST NE FU VLY ALQDS SUN DIMLY VISBL SLP153 DENSITY ALT 3000FT,CYCQ,2023-05-24T22:00:00Z,55.7,-121.62,19.0,10.0,160,4,,35.0,29.940945,1015.3,,,,,,,,,,SCT,4500,SCT,6000,BKN,14000,BKN,19000,VFR,,,,,,,,,,,,SPECI,614.0
CYCP 242200Z 07004KT 040V110 15SM FEW040TCU BKN064 OVC075 14/08 A3006 RMK TCU1SC4AC3 SLP191 DENSITY ALT 2600FT,CYCP,2023-05-24T22:00:00Z,52.13,-119.28,14.0,8.0,70,4,,15.0,30.059055,1019.1,,,,,,,,,,FEW,4000,BKN,6400,OVC,7500,,,VFR,,,,,,,,,,,,SPECI,677.0
CYCK 242200Z AUTO 01018G24KT 9SM CLR 14/04 A3018 RMK SLP224,CYCK,2023-05-24T22:00:00Z,42.3,-82.08,14.0,4.0,10,18,24,9.0,30.180119,1022.4,,TRUE,,,,,,,,CLR,,,,,,,,VFR,,,,,,,,,,,,METAR,196.0
CYCG 242200Z 00000KT 15SM FEW060TCU BKN140 BKN250 21/06 A2991 RMK TCU2AC4CI1 SLP130 DENSITY ALT 2700FT,CYCG,2023-05-24T22:00:00Z,49.28,-117.63,21.0,6.0,0,0,,15.0,29.911417,1013.0,,,,,,,,,,FEW,6000,BKN,14000,BKN,25000,,,VFR,,,,,,,,,,,,SPECI,487.0
CYCD 242200Z 16002KT 25SM FEW040 SCT120 20/10 A3006 RMK CU1AC2 SLP181 DENSITY ALT 500FT,CYCD,2023-05-24T22:00:00Z,49.05,-123.87,20.0,10.0,160,2,,25.0,30.059055,1018.1,,,,,,,,,,FEW,4000,SCT,12000,,,,,VFR,,,,,,,,,,,,SPECI,30.0
CYCB 242200Z 33014G21KT 15SM BKN060 OVC240 01/M00 A2974 RMK SC7CI1 SLP076,CYCB,2023-05-24T22:00:00Z,69.1,-105.12,1.0,0.0,330,14,21,15.0,29.740158,1007.6,,,,,,,,,,BKN,6000,OVC,24000,,,,,VFR,,,,,,,,,,,,SPECI,19.0
CYCA 242200Z AUTO 06005KT 9SM -RA BKN066 OVC078 07/05 A2995 RMK SLP143,CYCA,2023-05-24T22:00:00Z,53.68,-57.03,7.0,5.0,60,5,,9.0,29.949802,1014.3,,TRUE,,,,,,,-RA,BKN,6600,OVC,7800,,,,,VFR,,,,,,,,,,,,METAR,12.0
CYBX 242200Z 24007KT 15SM SCT057 BKN250 06/02 A3006 RMK SC3CI4 SLP185,CYBX,2023-05-24T22:00:00Z,51.45,-57.18,6.0,2.0,240,7,,15.0,30.059055,1018.5,,,,,,,,,,SCT,5700,BKN,25000,,,,,VFR,,,,,,,,,,,,SPECI,32.0
CYBW 242200Z AUTO 04011KT 9SM BKN066 18/05 A2993 RMK SLP148 DENSITY ALT 5200FT,CYBW,2023-05-24T22:00:00Z,51.1,-114.37,18.0,5.0,40,11,,9.0,29.929134,1014.8,,TRUE,,,,,,,,BKN,6600,,,,,,,VFR,,,,,,,,,,,,SPECI,1197.0
CYBU 242200Z AUTO 13012G20KT 9SM BKN055 BKN067 24/12 A2994 RMK SLP148 DENSITY ALT 2500FT,CYBU,2023-05-24T22:00:00Z,53.32,-104.0,24.0,12.0,130,12,20,9.0,29.940945,1014.8,,TRUE,,,,,,,,BKN,5500,BKN,6700,,,,,VFR,,,,,,,,,,,,SPECI,369.0
CYBR 242200Z 12017G23KT 15SM SCT110 BKN210 21/12 A3005 RMK AC4CI3 SLP184 DENSITY ALT 2200FT,CYBR,2023-05-24T22:00:00Z,49.92,-99.95,21.0,12.0,120,17,23,15.0,30.050198,1018.4,,,,,,,,,,SCT,11000,BKN,21000,,,,,VFR,,,,,,,,,,,,METAR,405.0
CYBQ 242200Z AUTO 19008G16KT 9SM FEW100 17/01 A3005 RMK SLP190 DENSITY ALT 1300FT,CYBQ,2023-05-24T22:00:00Z,58.7,-98.5,17.0,1.0,190,8,16,9.0,30.050198,1019.0,,TRUE,,,,,,,,FEW,10000,,,,,,,VFR,,,,,,,,,,,,METAR,272.0
CYBL 242200Z 10008KT 30SM FEW050 FEW280 21/08 A3005 RMK CU1CI1 CU TR SLP178 DENSITY ALT 1000FT,CYBL,2023-05-24T22:00:00Z,49.95,-125.27,21.0,8.0,100,8,,30.0,30.050198,1017.8,,,,,,,,,,FEW,5000,FEW,28000,,,,,VFR,,,,,,,,,,,,SPECI,94.0
CYBK 242200Z 23009KT 25SM OVC120 12/04 A2982 RMK AC8 SLP101,CYBK,2023-05-24T22:00:00Z,64.3,-96.07,12.0,4.0,230,9,,25.0,29.819881,1010.1,,,,,,,,,,OVC,12000,,,,,,,VFR,,,,,,,,,,,,SPECI,14.0
CYBG 242200Z 31012KT 25SM SCT045 BKN065 BKN220 12/02 A3009 RMK SC4SC2CI1 DENSITY ALT 152FT SLP194,CYBG,2023-05-24T22:00:00Z,48.33,-70.98,12.0,2.0,310,12,,25.0,30.088583,1019.4,,,,,,,,,,SCT,4500,BKN,6500,BKN,22000,,,VFR,,,,,,,,,,,,METAR,151.0
CYBD 242200Z 25013G21KT 15SM FEW200 FEW210 22/09 A3003 RMK CI1CI1 CI TR HZ SLP172 DENSITY ALT 900FT,CYBD,2023-05-24T22:00:00Z,52.38,-126.58,22.0,9.0,250,13,21,15.0,30.029528,1017.2,,,,,,,,,,FEW,20000,FEW,21000,,,,,VFR,,,,,,,,,,,,SPECI,40.0
CYBC 242200Z AUTO 23005KT 9SM SCT071 11/06 A3001 RMK SLP164,CYBC,2023-05-24T22:00:00Z,49.13,-68.2,11.0,6.0,230,5,,9.0,30.008858,1016.4,,TRUE,,,,,,,,SCT,7100,,,,,,,VFR,,,,,,,,,,,,SPECI,20.0
CYBB 242200Z 20009KT 15SM BKN020 06/00 A2969 RMK SC6 SLP057,CYBB,2023-05-24T22:00:00Z,68.53,-89.78,6.0,0.0,200,9,,15.0,29.68996,1005.7,,,,,,,,,,BKN,2000,,,,,,,MVFR,,,,,,,,,,,,SPECI,13.0
CYAZ 242200Z 24006KT 190V260 15SM SKC 18/09 A3007 RMK SLP185 DENSITY ALT 300FT,CYAZ,2023-05-24T22:00:00Z,49.08,-125.77,18.0,9.0,240,6,,15.0,30.070866,1018.5,,,,,,,,,,SKC,,,,,,,,VFR,,,,,,,,,,,,SPECI,26.0
CYAY 242200Z AUTO 22013G21KT 9SM 13/01 A3006 RMK CLD MISG WX MISG VIS MISG ICE MISG SLP182,CYAY,2023-05-24T22:00:00Z,51.38,-56.07,13.0,1.0,220,13,21,9.0,30.059055,1018.2,,TRUE,,,,,,,,,,,,,,,,,,,,,,,,,,,,SPECI,23.0
CYAT 242200Z AUTO VRB02KT 9SM 08/M01 A3049 RMK CLD MISG SLP328,CYAT,2023-05-24T22:00:00Z,52.93,-82.43,8.0,-1.0,0,2,,9.0,30.490158,1032.8,,TRUE,,,,,,,,,,,,,,,,,,,,,,,,,,,,METAR,4.0
CYAM 242200Z 29014KT 20SM FEW200 FEW240 BKN260 08/00 A3038 RMK CC1CI1CI4 CC TR SLP298,CYAM,2023-05-24T22:00:00Z,46.48,-84.52,8.0,0.0,290,14,,20.0,30.380905,1029.8,,,,,,,,,,FEW,20000,FEW,24000,BKN,26000,,,VFR,,,,,,,,,,,,SPECI,186.0
CYAH 242200Z AUTO 33008G15KT 300V010 9SM CLR 09/M05 A3026 RMK SLP266,CYAH,2023-05-24T22:00:00Z,53.75,-73.67,9.0,-5.0,330,8,15,9.0,30.259842,1026.6,,TRUE,,,,,,,,CLR,,,,,,,,VFR,,,,,,,,,,,,SPECI,298.0
CYAB 242200Z 15004KT 15SM OVC150 M04/M08 A2970 RMK AS8 AC ASOCTD SLP063,CYAB,2023-05-24T22:00:00Z,73.0,-85.02,-4.0,-8.0,150,4,,15.0,29.698818,1006.3,,,,,,,,,,OVC,15000,,,,,,,VFR,,,,,,,,,,,,METAR,36.0
CXZV 242200Z AUTO 23005KT 11/05 RMK AO1 SLP156 T01080049 51010,CXZV,2023-05-24T22:00:00Z,50.22,-66.25,10.8,4.9,230,5,,,,1015.6,,TRUE,TRUE,,,,,,,,,,,,,,,,1.0,,,,,,,,,,,METAR,43.0
CXZC 242200Z AUTO 08006KT 04/M01 RMK AO1 SLP340 T00431014 56006,CXZC,2023-05-24T22:00:00Z,51.3,-80.62,4.3,-1.4,80,6,,,,1034.0,,TRUE,TRUE,,,,,,,,,,,,,,,,-0.6,,,,,,,,,,,METAR,8.0
CXYH 242200Z AUTO 08004KT 23/02 RMK AO1 SLP131 T02310021 53005,CXYH,2023-05-24T22:00:00Z,61.25,-123.75,23.1,2.1,80,4,,,,1013.1,,TRUE,TRUE,,,,,,,,,,,,,,,,0.5,,,,,,,,,,,METAR,197.0
CXWN 242200Z AUTO 10005KT 18/07 RMK AO1 SLP223 T01750068 58015,CXWN,2023-05-24T22:00:00Z,49.88,-97.13,17.5,6.8,100,5,,,,1022.3,,TRUE,TRUE,,,,,,,,,,,,,,,,-1.5,,,,,,,,,,,METAR,232.0
CXWM 242200Z AUTO 04009KT 19/07 RMK AO1 T01930072,CXWM,2023-05-24T22:00:00Z,49.5,-112.12,19.3,7.2,40,9,,,,,,TRUE,TRUE,,,,,,,,,,,,,,,,,,,,,,,,,,,METAR,947.0
CXVW 242200Z AUTO 27009KT 15/08 RMK AO1 PK WND 26017/2150 SLP152 T01450083 53003,CXVW,2023-05-24T22:00:00Z,55.1,-117.2,14.5,8.3,270,9,,,,1015.2,,TRUE,TRUE,,,,,,,,,,,,,,,,0.3,,,,,,,,,,,METAR,696.0
CXVN 242200Z AUTO 04007KT 14/07 RMK AO1 SLP225 T01440068 51001,CXVN,2023-05-24T22:00:00Z,43.18,-79.4,14.4,6.8,40,7,,,,1022.5,,TRUE,TRUE,,,,,,,,,,,,,,,,0.1,,,,,,,,,,,METAR,86.0
CXVM 242200Z AUTO 34004KT 17/10 RMK AO1 T01710101,CXVM,2023-05-24T22:00:00Z,53.35,-110.88,17.1,10.1,340,4,,,,,,TRUE,TRUE,,,,,,,,,,,,,,,,,,,,,,,,,,,METAR,622.0
CXTV 242200Z AUTO 03012KT 02/M02 RMK AO1 SOG 01 1004 SLP250 T00161018,CXTV,2023-05-24T22:00:00Z,68.75,-133.5,1.6,-1.8,30,12,,,,1025.0,,TRUE,TRUE,,,,,,,,,,,,,,,,,,,,,,,,,,,METAR,91.0
CXTP 242200Z AUTO 22008KT 14/01 RMK AO1 SLP200 T01410014 53001,CXTP,2023-05-24T22:00:00Z,48.55,-53.97,14.1,1.4,220,8,,,,1020.0,,TRUE,TRUE,,,,,,,,,,,,,,,,0.1,,,,,,,,,,,METAR,104.0
CXTO 242200Z AUTO 16/M00 RMK AO1 SLP225 T01601004 53002,CXTO,2023-05-24T22:00:00Z,43.67,-79.4,16.0,-0.4,,,,,,1022.5,,TRUE,TRUE,,,,,,,,,,,,,,,,0.2,,,,,,,,,,,METAR,115.0
CXTN 242200Z AUTO 03015KT M02/M03 RMK AO1 PK WND 00019/2143 SLP215 T10161034 51025,CXTN,2023-05-24T22:00:00Z,69.2,-122.35,-1.6,-3.4,30,15,,,,1021.5,,TRUE,TRUE,,,,,,,,,,,,,,,,2.5,,,,,,,,,,,METAR,564.0
CXTH 242200Z AUTO 30003KT 19/08 RMK AO1 T01890075,CXTH,2023-05-24T22:00:00Z,53.63,-111.68,18.9,7.5,300,3,,,,,,TRUE,TRUE,,,,,,,,,,,,,,,,,,,,,,,,,,,METAR,679.0
CXTD 242200Z AUTO 18012G17KT 09/05 RMK AO1 PK WND 17017/2152 SLP204 T00860052 56003,CXTD,2023-05-24T22:00:00Z,45.62,-61.68,8.6,5.2,180,12,17,,,1020.4,,TRUE,TRUE,,,,,,,,,,,,,,,,-0.3,,,,,,,,,,,METAR,58.0
CXSP 242200Z AUTO 13003KT 17/08 RMK AO1 T01740075,CXSP,2023-05-24T22:00:00Z,54.02,-111.27,17.4,7.5,130,3,,,,,,TRUE,TRUE,,,,,,,,,,,,,,,,,,,,,,,,,,,METAR,652.0
CXSL 242200Z AUTO 27009KT 19/05 RMK AO1 PK WND 24017/2104 T01900049,CXSL,2023-05-24T22:00:00Z,54.28,-112.5,19.0,4.9,270,9,,,,,,TRUE,TRUE,,,,,,,,,,,,,,,,,,,,,,,,,,,METAR,680.0
CXSH 242200Z AUTO 35008KT 12/M01 RMK AO1 PK WND 00018/2139 SLP196 T01241008 53004,CXSH,2023-05-24T22:00:00Z,46.55,-72.73,12.4,-0.8,350,8,,,,1019.6,,TRUE,TRUE,,,,,,,,,,,,,,,,0.4,,,,,,,,,,,METAR,106.0
CXSE 242200Z AUTO 33023G31KT M10/M11 RMK AO1 SOG 21 1049 PK WND 33034/2111 SLP082 T10971112 50002,CXSE,2023-05-24T22:00:00Z,73.77,-105.28,-9.7,-11.2,330,23,31,,,1008.2,,TRUE,TRUE,,,,,,,,,,,,,,,,0.2,,,,,,,,,,,METAR,11.0
CXSC 242200Z AUTO 33011KT 16/13 RMK AO1 T01550129 50038,CXSC,2023-05-24T22:00:00Z,50.3,-110.08,15.5,12.9,330,11,,,,,,TRUE,TRUE,,,,,,,,,,,,,,,,3.8,,,,,,,,,,,METAR,809.0
CXRL 242200Z AUTO 23002KT 18/07 RMK AO1 T01810068,CXRL,2023-05-24T22:00:00Z,54.5,-111.7,18.1,6.8,230,2,,,,,,TRUE,TRUE,,,,,,,,,,,,,,,,,,,,,,,,,,,METAR,585.0
CXRH 242200Z AUTO 20002KT 11/02 RMK AO1 SLP188 T01070020 51003,CXRH,2023-05-24T22:00:00Z,49.57,-57.88,10.7,2.0,200,2,,,,1018.8,,TRUE,TRUE,,,,,,,,,,,,,,,,0.3,,,,,,,,,,,METAR,68.0
CXRB 242200Z AUTO 15010KT M07/M09 RMK AO1 2PAST HR SOG 09 8026 SLP998 P0001 T10731091 50007,CXRB,2023-05-24T22:00:00Z,74.72,-94.98,-7.3,-9.1,150,10,,,,999.8,,TRUE,TRUE,,,,,,,,,,,,,,,,0.7,,,,,0.01,,,,,,METAR,30.0
CXPL 242200Z AUTO 04006KT 20/08 RMK AO1 T01990082,CXPL,2023-05-24T22:00:00Z,51.13,-111.7,19.9,8.2,40,6,,,,,,TRUE,TRUE,,,,,,,,,,,,,,,,,,,,,,,,,,,METAR,735.0
CXPC 242200Z AUTO 11/M04 RMK AO1 SLP265 T01131039 50002,CXPC,2023-05-24T22:00:00Z,45.35,-80.05,11.3,-3.9,,,,,,1026.5,,TRUE,TRUE,,,,,,,,,,,,,,,,0.2,,,,,,,,,,,METAR,176.0
CXPA 242200Z AUTO 34004KT 17/08 RMK AO1 T01740082,CXPA,2023-05-24T22:00:00Z,55.62,-118.3,17.4,8.2,340,4,,,,,,TRUE,TRUE,,,,,,,,,,,,,,,,,,,,,,,,,,,METAR,628.0
CXOY 242200Z AUTO 05010KT 15/13 RMK AO1 5PAST HR M P0002 T01470129 50013,CXOY,2023-05-24T22:00:00Z,51.35,-110.35,14.7,12.9,50,10,,,,,,TRUE,TRUE,,,,,,,,,,,,,,,,1.3,,,,,0.02,,,,,,METAR,784.0
CXOX 242200Z AUTO 25003KT 12/06 RMK AO1 SLP167 T01180062 55014,CXOX,2023-05-24T22:00:00Z,55.15,-105.27,11.8,6.2,250,3,,,,1016.7,,TRUE,TRUE,,,,,,,,,,,,,,,,-1.4,,,,,,,,,,,METAR,381.0
CXOL 242200Z AUTO 02008KT 18/07 RMK AO1 T01760071,CXOL,2023-05-24T22:00:00Z,51.77,-114.08,17.6,7.1,20,8,,,,,,TRUE,TRUE,,,,,,,,,,,,,,,,,,,,,,,,,,,METAR,1026.0
CXNP 242200Z AUTO 18012G17KT 16/06 RMK AO1 PK WND 18019/2119 SLP154 T01590059 56007,CXNP,2023-05-24T22:00:00Z,45.75,-64.23,15.9,5.9,180,12,17,,,1015.4,,TRUE,TRUE,,,,,,,,,,,,,,,,-0.7,,,,,,,,,,,METAR,19.0
CXNM 242200Z AUTO 15007KT 13/02 RMK AO1 T01270015,CXNM,2023-05-24T22:00:00Z,46.82,-60.67,12.7,1.5,150,7,,,,,,TRUE,TRUE,,,,,,,,,,,,,,,,,,,,,,,,,,,METAR,452.0
CXMY 242200Z AUTO 07/06 RMK AO1 T00680060,CXMY,2023-05-24T22:00:00Z,44.98,-62.48,6.8,6.0,,,,,,,,TRUE,TRUE,,,,,,,,,,,,,,,,,,,,,,,,,,,METAR,37.0
CXMO 242200Z AUTO 05008KT 19/09 RMK AO1 T01870086,CXMO,2023-05-24T22:00:00Z,51.67,-112.68,18.7,8.6,50,8,,,,,,TRUE,TRUE,,,,,,,,,,,,,,,,,,,,,,,,,,,METAR,837.0
CXMM 242200Z AUTO 28011G17KT 16/06 RMK AO1 PK WND 27017/2119 SLP131 T01610062 53001,CXMM,2023-05-24T22:00:00Z,56.65,-111.22,16.1,6.2,280,11,17,,,1013.1,,TRUE,TRUE,,,,,,,,,,,,,,,,0.1,,,,,,,,,,,METAR,372.0
CXMI 242200Z AUTO 11009KT 08/07 RMK AO1 SLP182 T00750067 56013,CXMI,2023-05-24T22:00:00Z,44.6,-63.53,7.5,6.7,110,9,,,,1018.2,,TRUE,TRUE,,,,,,,,,,,,,,,,-1.3,,,,,,,,,,,METAR,15.0
CXMG 242200Z AUTO 32002KT 14/09 RMK AO1 T01430092,CXMG,2023-05-24T22:00:00Z,56.97,-117.45,14.3,9.2,320,2,,,,,,TRUE,TRUE,,,,,,,,,,,,,,,,,,,,,,,,,,,METAR,467.0
CXMD 242200Z AUTO 13019G25KT 18/09 RMK AO1 PK WND 13027/2129 SLP207 T01800087 58017,CXMD,2023-05-24T22:00:00Z,49.18,-98.08,18.0,8.7,130,19,25,,,1020.7,,TRUE,TRUE,,,,,,,,,,,,,,,,-1.7,,,,,,,,,,,METAR,297.0
CXLL 242200Z AUTO 20/06 RMK AO1 SLP145 T01980055 53007,CXLL,2023-05-24T22:00:00Z,61.12,-122.85,19.8,5.5,,,,,,1014.5,,TRUE,TRUE,,,,,,,,,,,,,,,,0.7,,,,,,,,,,,METAR,180.0
CXLB 242200Z AUTO 12009KT 07/07 RMK AO1 SLP181 T00740070 58009,CXLB,2023-05-24T22:00:00Z,44.37,-64.3,7.4,7.0,120,9,,,,1018.1,,TRUE,TRUE,,,,,,,,,,,,,,,,-0.9,,,,,,,,,,,METAR,4.0
CXKT 242200Z AUTO 15007KT 15/08 RMK AO1 SLP163 T01470075 57007,CXKT,2023-05-24T22:00:00Z,45.07,-64.48,14.7,7.5,150,7,,,,1016.3,,TRUE,TRUE,,,,,,,,,,,,,,,,-0.7,,,,,,,,,,,METAR,48.0
CXKM 242200Z AUTO 04007KT 18/08 RMK AO1 T01810081,CXKM,2023-05-24T22:00:00Z,52.83,-111.87,18.1,8.1,40,7,,,,,,TRUE,TRUE,,,,,,,,,,,,,,,,,,,,,,,,,,,METAR,679.0
CXKI 242200Z AUTO 36007G17KT 10/M05 RMK AO1 PK WND 35017/2153 SLP290 T00981053 58011,CXKI,2023-05-24T22:00:00Z,48.13,-80.0,9.8,-5.3,360,7,17,,,1029.0,,TRUE,TRUE,,,,,,,,,,,,,,,,-1.1,,,,,,,,,,,METAR,328.0
CXKE 242200Z AUTO 33010G16KT 12/M01 RMK AO1 PK WND 02017/2134 SLP218 T01201008 53007,CXKE,2023-05-24T22:00:00Z,45.0,-75.63,12.0,-0.8,330,10,16,,,1021.8,,TRUE,TRUE,,,,,,,,,,,,,,,,0.7,,,,,,,,,,,METAR,99.0
CXKA 242200Z AUTO 36008KT 11/M05 RMK AO1 SLP323 T01121050 56009,CXKA,2023-05-24T22:00:00Z,49.4,-82.45,11.2,-5.0,360,8,,,,1032.3,,TRUE,TRUE,,,,,,,,,,,,,,,,-0.9,,,,,,,,,,,METAR,221.0
CXIB 242200Z AUTO 16005KT 11/04 RMK AO1 SLP181 T01140044 55004,CXIB,2023-05-24T22:00:00Z,46.67,-60.4,11.4,4.4,160,5,,,,1018.1,,TRUE,TRUE,,,,,,,,,,,,,,,,-0.4,,,,,,,,,,,METAR,6.0
CXHR 242200Z AUTO 05003KT 18/05 RMK AO1 T01810052,CXHR,2023-05-24T22:00:00Z,51.18,-112.5,18.1,5.2,50,3,,,,,,TRUE,TRUE,,,,,,,,,,,,,,,,,,,,,,,,,,,METAR,975.0
CXHP 242200Z AUTO 27007KT 13/09 RMK AO1 T01330088,CXHP,2023-05-24T22:00:00Z,55.4,-116.48,13.3,8.8,270,7,,,,,,TRUE,TRUE,,,,,,,,,,,,,,,,,,,,,,,,,,,METAR,601.0
CXHM 242200Z AUTO 03006KT 16/02 RMK AO1 3002 SLP226 T01620022 50002,CXHM,2023-05-24T22:00:00Z,43.28,-79.9,16.2,2.2,30,6,,,,1022.6,,TRUE,TRUE,,,,,,,,,,,,,,,,0.2,,,,,,,,,,,METAR,105.0
CXHD 242200Z AUTO 34006KT 20/06 RMK AO1 T02040061,CXHD,2023-05-24T22:00:00Z,53.18,-112.25,20.4,6.1,340,6,,,,,,TRUE,TRUE,,,,,,,,,,,,,,,,,,,,,,,,,,,METAR,688.0
CXHA 242200Z AUTO 02016G26KT 16/M02 RMK AO1 PK WND 01026/2152 SLP226 T01571018 57002,CXHA,2023-05-24T22:00:00Z,42.03,-82.9,15.7,-1.8,20,16,26,,,1022.6,,TRUE,TRUE,,,,,,,,,,,,,,,,-0.2,,,,,,,,,,,METAR,193.0
CXGH 242200Z AUTO 13013KT 13/06 RMK AO1 PK WND 13017/2158 SLP230 T01260057 58017,CXGH,2023-05-24T22:00:00Z,50.63,-97.0,12.6,5.7,130,13,,,,1023.0,,TRUE,TRUE,,,,,,,,,,,,,,,,-1.7,,,,,,,,,,,METAR,217.0
CXFR 242200Z AUTO 28008KT 17/09 RMK AO1 T01700087,CXFR,2023-05-24T22:00:00Z,56.08,-118.43,17.0,8.7,280,8,,,,,,TRUE,TRUE,,,,,,,,,,,,,,,,,,,,,,,,,,,METAR,657.0
CXFM 242200Z AUTO 36008KT 19/08 RMK AO1 PK WND 00017/2108 T01910077,CXFM,2023-05-24T22:00:00Z,49.48,-111.48,19.1,7.7,360,8,,,,,,TRUE,TRUE,,,,,,,,,,,,,,,,,,,,,,,,,,,METAR,884.0
CXET 242200Z AUTO 33011G17KT 11/M00 RMK AO1 PK WND 32021/2149 SLP245 T01101003 51004,CXET,2023-05-24T22:00:00Z,44.23,-79.78,11.0,-0.3,330,11,17,,,1024.5,,TRUE,TRUE,,,,,,,,,,,,,,,,0.4,,,,,,,,,,,METAR,250.0
CXEG 242200Z AUTO 30008G15KT 19/05 RMK AO1 PK WND 31017/2142 SLP145 T01930050 58004,CXEG,2023-05-24T22:00:00Z,53.3,-113.6,19.3,5.0,300,8,15,,,1014.5,,TRUE,TRUE,,,,,,,,,,,,,,,,-0.4,,,,,,,,,,,METAR,706.0
CXEC 242200Z AUTO 30008G16KT 19/04 RMK AO1 PK WND 29017/2143 SLP141 T01850035 56005,CXEC,2023-05-24T22:00:00Z,53.57,-113.52,18.5,3.5,300,8,16,,,1014.1,,TRUE,TRUE,,,,,,,,,,,,,,,,-0.5,,,,,,,,,,,METAR,666.0
CXEA 242200Z AUTO 12009G17KT 15/M06 RMK AO1 PK WND 14017/2110 SLP274 T01471058 57017,CXEA,2023-05-24T22:00:00Z,50.63,-93.22,14.7,-5.8,120,9,17,,,1027.4,,TRUE,TRUE,,,,,,,,,,,,,,,,-1.7,,,,,,,,,,,METAR,351.0
CXDW 242200Z AUTO 13019G26KT 18/09 RMK AO1 PK WND 13031/2137 SLP207 T01790087 57018,CXDW,2023-05-24T22:00:00Z,49.4,-98.32,17.9,8.7,130,19,26,,,1020.7,,TRUE,TRUE,,,,,,,,,,,,,,,,-1.8,,,,,,,,,,,METAR,341.0
CXDK 242200Z AUTO 20/03 RMK AO1 SLP148 T01960026 53005,CXDK,2023-05-24T22:00:00Z,61.27,-124.47,19.6,2.6,,,,,,1014.8,,TRUE,TRUE,,,,,,,,,,,,,,,,0.5,,,,,,,,,,,METAR,269.0
CXDI 242200Z AUTO 04006G16KT 18/00 RMK AO1 PK WND 03018/2110 SLP216 T01830000 52006,CXDI,2023-05-24T22:00:00Z,42.87,-80.55,18.3,0.0,40,6,16,,,1021.6,,TRUE,TRUE,,,,,,,,,,,,,,,,0.6,,,,,,,,,,,METAR,234.0
CXDE 242200Z AUTO 36013G18KT 18/M00 RMK AO1 PK WND 33019/2104 SLP157 T01761002 51014,CXDE,2023-05-24T22:00:00Z,65.22,-123.43,17.6,-0.2,360,13,18,,,1015.7,,TRUE,TRUE,,,,,,,,,,,,,,,,1.4,,,,,,,,,,,METAR,208.0
CXDB 242200Z AUTO 02006KT 18/03 RMK AO1 T01760032,CXDB,2023-05-24T22:00:00Z,49.05,-112.82,17.6,3.2,20,6,,,,,,TRUE,TRUE,,,,,,,,,,,,,,,,,,,,,,,,,,,METAR,1311.0
CXCS 242200Z AUTO 06006KT 16/11 RMK AO1 T01590111,CXCS,2023-05-24T22:00:00Z,51.93,-110.72,15.9,11.1,60,6,,,,,,TRUE,TRUE,,,,,,,,,,,,,,,,,,,,,,,,,,,METAR,771.0
CXCP 242200Z AUTO 01007KT 22/M00 RMK AO1 PK WND 08017/2140 T02171004,CXCP,2023-05-24T22:00:00Z,50.28,-113.35,21.7,-0.4,10,7,,,,,,TRUE,TRUE,,,,,,,,,,,,,,,,,,,,,,,,,,,METAR,999.0
CXCK 242200Z AUTO 11008KT 17/04 RMK AO1 PK WND 11017/2132 SLP151 T01690036 58003,CXCK,2023-05-24T22:00:00Z,62.12,-136.2,16.9,3.6,110,8,,,,1015.1,,TRUE,TRUE,,,,,,,,,,,,,,,,-0.3,,,,,,,,,,,METAR,526.0
CXCD 242200Z AUTO 31007KT 20/06 RMK AO1 T02000063,CXCD,2023-05-24T22:00:00Z,56.32,-119.75,20.0,6.3,310,7,,,,,,TRUE,TRUE,,,,,,,,,,,,,,,,,,,,,,,,,,,METAR,628.0
CXCA 242200Z AUTO 36005KT 12/M02 RMK AO1 SLP312 T01191020 57022,CXCA,2023-05-24T22:00:00Z,49.15,-88.35,11.9,-2.0,360,5,,,,1031.2,,TRUE,TRUE,,,,,,,,,,,,,,,,-2.2,,,,,,,,,,,METAR,228.0
CXBW 242200Z AUTO 05007KT 20/07 RMK AO1 T01960069,CXBW,2023-05-24T22:00:00Z,49.8,-112.3,19.6,6.9,50,7,,,,,,TRUE,TRUE,,,,,,,,,,,,,,,,,,,,,,,,,,,METAR,823.0
CXBR 242200Z AUTO 09007KT RMK AO1,CXBR,2023-05-24T22:00:00Z,49.62,-113.82,,,90,7,,,,,,TRUE,TRUE,,,,,,,,,,,,,,,,,,,,,,,,,,,METAR,1137.0
CXBO 242200Z AUTO 08005KT 12/05 RMK AO1 T01160049,CXBO,2023-05-24T22:00:00Z,46.83,-71.2,11.6,4.9,80,5,,,,,,TRUE,TRUE,,,,,,,,,,,,,,,,,,,,,,,,,,,METAR,8.0
CXBK 242200Z AUTO 13020G26KT 25/13 RMK AO1 PK WND 13026/2103 SLP119 T02470130 58024,CXBK,2023-05-24T22:00:00Z,50.2,-104.7,24.7,13.0,130,20,26,,,1011.9,,TRUE,TRUE,,,,,,,,,,,,,,,,-2.4,,,,,,,,,,,METAR,585.0
CXBI 242200Z AUTO 36011G18KT 13/M03 RMK AO1 PK WND 35021/2124 SLP243 T01281031 51003,CXBI,2023-05-24T22:00:00Z,44.48,-79.55,12.8,-3.1,360,11,18,,,1024.3,,TRUE,TRUE,,,,,,,,,,,,,,,,0.3,,,,,,,,,,,METAR,287.0
CXBA 242200Z AUTO 09007KT 14/12 RMK AO1 T01420123 50008,CXBA,2023-05-24T22:00:00Z,52.12,-110.1,14.2,12.3,90,7,,,,,,TRUE,TRUE,,,,,,,,,,,,,,,,0.8,,,,,,,,,,,METAR,696.0
CXAT 242200Z AUTO 20001KT M05/M12 RMK AO1 SOG 06 8033 SLP065 T10451119,CXAT,2023-05-24T22:00:00Z,73.0,-85.03,-4.5,-11.9,200,1,,,,1006.5,,TRUE,TRUE,,,,,,,,,,,,,,,,,,,,,,,,,,,METAR,10.0
CXAK 242200Z AUTO 32008KT 20/04 RMK AO1 T01950041,CXAK,2023-05-24T22:00:00Z,52.35,-112.6,19.5,4.1,320,8,,,,,,TRUE,TRUE,,,,,,,,,,,,,,,,,,,,,,,,,,,METAR,799.0
CXAJ 242200Z AUTO 27012KT 20/06 RMK AO1 PK WND 28017/2149 T01980057,CXAJ,2023-05-24T22:00:00Z,54.78,-112.82,19.8,5.7,270,12,,,,,,TRUE,TRUE,,,,,,,,,,,,,,,,,,,,,,,,,,,METAR,586.0
CXAG 242200Z AUTO 30007KT 19/05 RMK AO1 T01900049,CXAG,2023-05-24T22:00:00Z,53.92,-112.28,19.0,4.9,300,7,,,,,,TRUE,TRUE,,,,,,,,,,,,,,,,,,,,,,,,,,,METAR,632.0
CXAF 242200Z AUTO 28009KT 17/05 RMK AO1 PK WND 25017/2120 T01740054,CXAF,2023-05-24T22:00:00Z,54.28,-112.97,17.4,5.4,280,9,,,,,,TRUE,TRUE,,,,,,,,,,,,,,,,,,,,,,,,,,,METAR,667.0
CWZW 242200Z AUTO 22004KT 16/02 RMK AO1 SLP169 T01620018 56008,CWZW,2023-05-24T22:00:00Z,60.17,-132.73,16.2,1.8,220,4,,,,1016.9,,TRUE,TRUE,,,,,,,,,,,,,,,,-0.8,,,,,,,,,,,METAR,683.0
CWZQ 242200Z AUTO 16009KT 14/02 RMK AO1 PK WND 15018/2110 SLP178 T01400018 55003,CWZQ,2023-05-24T22:00:00Z,46.53,-61.05,14.0,1.8,160,9,,,,1017.8,,TRUE,TRUE,,,,,,,,,,,,,,,,-0.3,,,,,,,,,,,METAR,13.0
CWZO 242200Z AUTO 32001KT RMK AO1,CWZO,2023-05-24T22:00:00Z,48.57,-123.25,,,320,1,,,,,,TRUE,TRUE,,,,,,,,,,,,,,,,,,,,,,,,,,,METAR,5.0
CWZN 242200Z AUTO 26009KT 05/02 RMK AO1 SLP228 T00520015 55002,CWZN,2023-05-24T22:00:00Z,47.37,-55.8,5.2,1.5,260,9,,,,1022.8,,TRUE,TRUE,,,,,,,,,,,,,,,,-0.2,,,,,,,,,,,METAR,63.0
CWZL 242200Z AUTO 11006KT 12/08 RMK AO1 SLP227 T01150083 56002,CWZL,2023-05-24T22:00:00Z,53.03,-131.6,11.5,8.3,110,6,,,,1022.7,,TRUE,TRUE,,,,,,,,,,,,,,,,-0.2,,,,,,,,,,,METAR,17.0
CWZG 242200Z AUTO 23005KT 18/01 RMK AO1 SLP132 T01750008 58007,CWZG,2023-05-24T22:00:00Z,51.2,-115.55,17.5,0.8,230,5,,,,1013.2,,TRUE,TRUE,,,,,,,,,,,,,,,,-0.7,,,,,,,,,,,METAR,1402.0
CWZA 242200Z AUTO 18002KT 15/10 RMK AO1 SLP190 T01500095 58004,CWZA,2023-05-24T22:00:00Z,49.25,-121.77,15.0,9.5,180,2,,,,1019.0,,TRUE,TRUE,,,,,,,,,,,,,,,,-0.4,,,,,,,,,,,METAR,18.0
CWYY 242200Z AUTO 35007KT 23/05 RMK AO1 PK WND 34017/2136 SLP128 T02280048 56015,CWYY,2023-05-24T22:00:00Z,49.03,-119.43,22.8,4.8,350,7,,,,1012.8,,TRUE,TRUE,,,,,,,,,,,,,,,,-1.5,,,,,,,,,,,METAR,284.0
CWYL 242200Z AUTO 25013KT 16/03 RMK AO1 PK WND 25017/2154 SLP155 T01610030 56003,CWYL,2023-05-24T22:00:00Z,51.45,-116.33,16.1,3.0,250,13,,,,1015.5,,TRUE,TRUE,,,,,,,,,,,,,,,,-0.3,,,,,,,,,,,METAR,1602.0
CWYJ 242200Z AUTO 09003KT 18/09 RMK AO1 SLP186 T01760093 58007,CWYJ,2023-05-24T22:00:00Z,48.45,-123.3,17.6,9.3,90,3,,,,1018.6,,TRUE,TRUE,,,,,,,,,,,,,,,,-0.7,,,,,,,,,,,METAR,59.0
CWXL 242200Z AUTO 01007KT 19/07 RMK AO1 SLP132 T01920074 58008,CWXL,2023-05-24T22:00:00Z,49.73,-111.45,19.2,7.4,10,7,,,,1013.2,,TRUE,TRUE,,,,,,,,,,,,,,,,-0.8,,,,,,,,,,,METAR,815.0
CWXI 242200Z AUTO 20011KT 07/03 RMK AO1 SLP176 T00680032 53006,CWXI,2023-05-24T22:00:00Z,51.02,-57.1,6.8,3.2,200,11,,,,1017.6,,TRUE,TRUE,,,,,,,,,,,,,,,,0.6,,,,,,,,,,,METAR,15.0
CWXC 242200Z AUTO 01009G16KT 09/04 RMK AO1 PK WND 00017/2157 SLP197 T00870042 53007,CWXC,2023-05-24T22:00:00Z,48.88,-71.03,8.7,4.2,10,9,16,,,1019.7,,TRUE,TRUE,,,,,,,,,,,,,,,,0.7,,,,,,,,,,,METAR,306.0
CWXA 242200Z AUTO 00002KT 21/M01 RMK AO1 SLP144 T02121009 58008,CWXA,2023-05-24T22:00:00Z,51.07,-115.07,21.2,-0.9,0,2,,,,1014.4,,TRUE,TRUE,,,,,,,,,,,,,,,,-0.8,,,,,,,,,,,METAR,1303.0
CWWZ 242200Z AUTO 03005KT 14/10 RMK AO1 SLP225 T01370095 51001,CWWZ,2023-05-24T22:00:00Z,43.25,-79.22,13.7,9.5,30,5,,,,1022.5,,TRUE,TRUE,,,,,,,,,,,,,,,,0.1,,,,,,,,,,,METAR,75.0
CWWS 242200Z AUTO 17016KT 11/02 RMK AO1 PK WND 17018/2156 SLP222 T01120023 58027,CWWS,2023-05-24T22:00:00Z,52.82,-97.62,11.2,2.3,170,16,,,,1022.2,,TRUE,TRUE,,,,,,,,,,,,,,,,-2.7,,,,,,,,,,,METAR,220.0
CWWL 242200Z AUTO 34007KT 11/09 RMK AO1 SLP219 T01070088 50001,CWWL,2023-05-24T22:00:00Z,53.5,-130.63,10.7,8.8,340,7,,,,1021.9,,TRUE,TRUE,,,,,,,,,,,,,,,,0.1,,,,,,,,,,,METAR,8.0
CWWK 242200Z AUTO 23003KT 18/11 RMK AO1 SLP190 T01790106 58009,CWWK,2023-05-24T22:00:00Z,49.02,-122.78,17.9,10.6,230,3,,,,1019.0,,TRUE,TRUE,,,,,,,,,,,,,,,,-0.9,,,,,,,,,,,METAR,10.0
CWWF 242200Z AUTO 15015G21KT 24/15 RMK AO1 8016 PK WND 15021/2157 SLP124 T02410152 50025,CWWF,2023-05-24T22:00:00Z,49.7,-103.8,24.1,15.2,150,15,21,,,1012.4,,TRUE,TRUE,,,,,,,,,,,,,,,,2.5,,,,,,,,,,,METAR,583.0
CWWE 242200Z AUTO 05004KT 08/07 RMK AO1 SLP180 T00760069 57010,CWWE,2023-05-24T22:00:00Z,43.98,-64.67,7.6,6.9,50,4,,,,1018.0,,TRUE,TRUE,,,,,,,,,,,,,,,,-1.0,,,,,,,,,,,METAR,4.0
CWWB 242200Z AUTO 01010G16KT 15/01 RMK AO1 SLP226 T01520006 53001,CWWB,2023-05-24T22:00:00Z,43.3,-79.78,15.2,0.6,10,10,16,,,1022.6,,TRUE,TRUE,,,,,,,,,,,,,,,,0.1,,,,,,,,,,,METAR,77.0
CWWA 242200Z AUTO 21001KT 18/09 RMK AO1 SLP187 T01810090 57007,CWWA,2023-05-24T22:00:00Z,49.35,-123.18,18.1,9.0,210,1,,,,1018.7,,TRUE,TRUE,,,,,,,,,,,,,,,,-0.7,,,,,,,,,,,METAR,172.0
CWVU 242200Z AUTO 16013G18KT 12/09 RMK AO1 PK WND 16019/2149 SLP149 T01150091 58016,CWVU,2023-05-24T22:00:00Z,44.28,-66.33,11.5,9.1,160,13,18,,,1014.9,,TRUE,TRUE,,,,,,,,,,,,,,,,-1.6,,,,,,,,,,,METAR,4.0
CWVT 242200Z AUTO 16005KT 14/08 RMK AO1 SLP155 T01400079 58007,CWVT,2023-05-24T22:00:00Z,55.83,-108.42,14.0,7.9,160,5,,,,1015.5,,TRUE,TRUE,,,,,,,,,,,,,,,,-0.7,,,,,,,,,,,METAR,431.0
CWVQ 242200Z AUTO 17001KT 12/07 RMK AO1 SLP201 T01240066 53002,CWVQ,2023-05-24T22:00:00Z,45.42,-73.92,12.4,6.6,170,1,,,,1020.1,,TRUE,TRUE,,,,,,,,,,,,,,,,0.2,,,,,,,,,,,METAR,38.0
CWVP 242200Z AUTO 32006KT 10/09 RMK AO1 9PAST HR 8001 SLP126 P0004 T00990089 50292,CWVP,2023-05-24T22:00:00Z,49.63,-109.52,9.9,8.9,320,6,,,,1012.6,,TRUE,TRUE,,,,,,,,,,,,,,,,0.0,,,,,0.04,,,,,,METAR,1269.0
CWVN 242200Z AUTO 25007KT 24/11 RMK AO1 PK WND 26017/2122 SLP089 T02430111 58008,CWVN,2023-05-24T22:00:00Z,49.07,-107.58,24.3,11.1,250,7,,,,1008.9,,TRUE,TRUE,,,,,,,,,,,,,,,,-0.8,,,,,,,,,,,METAR,792.0
CWVI 242200Z AUTO 34008KT 19/04 RMK AO1 SLP139 T01940038 58004,CWVI,2023-05-24T22:00:00Z,53.52,-112.1,19.4,3.8,340,8,,,,1013.9,,TRUE,TRUE,,,,,,,,,,,,,,,,-0.4,,,,,,,,,,,METAR,640.0
CWVF 242200Z AUTO 23004KT 14/10 RMK AO1 T01420095,CWVF,2023-05-24T22:00:00Z,49.1,-123.3,14.2,9.5,230,4,,,,,,TRUE,TRUE,,,,,,,,,,,,,,,,,,,,,,,,,,,METAR,13.0
CWUX 242200Z AUTO 30010G16KT 13/02 RMK AO1 PK WND 31017/2132 SLP193 T01260015 54000,CWUX,2023-05-24T22:00:00Z,48.3,-70.93,12.6,1.5,300,10,16,,,1019.3,,TRUE,TRUE,,,,,,,,,,,,,,,,,,,,,,,,,,,METAR,150.0
CWUW 242200Z AUTO 12005KT ////SM ////// M06/M07 A2984,CWUW,2023-05-24T22:00:00Z,68.62,-71.12,-6.0,-7.0,120,5,,,29.840551,,,TRUE,,,,,,,,,,,,,,,,,,,,,,,,,,,,SPECI,173.0
CWUS 242200Z AUTO 33010G16KT 19/07 RMK AO1 PK WND 35019/2110 SLP154 T01910072 56008,CWUS,2023-05-24T22:00:00Z,49.57,-119.65,19.1,7.2,330,10,16,,,1015.4,,TRUE,TRUE,,,,,,,,,,,,,,,,-0.8,,,,,,,,,,,METAR,455.0
CWTY 242200Z AUTO 01009G16KT 13/01 RMK AO1 PK WND 03018/2120 SLP193 T01250007 55000,CWTY,2023-05-24T22:00:00Z,46.35,-72.52,12.5,0.7,10,9,16,,,1019.3,,TRUE,TRUE,,,,,,,,,,,,,,,,0.0,,,,,,,,,,,METAR,8.0
CWTT 242200Z AUTO 34007KT 06/05 RMK AO1 T00550051,CWTT,2023-05-24T22:00:00Z,45.27,-72.17,5.5,5.1,340,7,,,,,,TRUE,TRUE,,,,,,,,,,,,,,,,,,,,,,,,,,,METAR,210.0
CWTN 242200Z AUTO 08007KT 11/04 RMK AO1 SLP182 T01140035 52008,CWTN,2023-05-24T22:00:00Z,47.07,-70.78,11.4,3.5,80,7,,,,1018.2,,TRUE,TRUE,,,,,,,,,,,,,,,,0.8,,,,,,,,,,,METAR,5.0
CWTG 242200Z AUTO 26014KT 09/05 RMK AO1 PK WND 26017/2102 SLP162 T00910053 53005,CWTG,2023-05-24T22:00:00Z,49.32,-67.37,9.1,5.3,260,14,,,,1016.2,,TRUE,TRUE,,,,,,,,,,,,,,,,0.5,,,,,,,,,,,METAR,6.0
CWTA 242200Z AUTO 32002KT 13/05 RMK AO1 2004 SLP198 T01250046 50006,CWTA,2023-05-24T22:00:00Z,45.5,-73.58,12.5,4.6,320,2,,,,1019.8,,TRUE,TRUE,,,,,,,,,,,,,,,,0.6,,,,,,,,,,,METAR,71.0
CWSW 242200Z 18006KT 20SM FEW060 FEW230 20/03 A2991 RMK CU1CI1 CI TR SLP130 DENSITY ALT 5300FT,CWSW,2023-05-24T22:00:00Z,49.83,-114.87,20.0,3.0,180,6,,20.0,29.911417,1013.0,,,,,,,,,,FEW,6000,FEW,23000,,,,,VFR,,,,,,,,,,,,SPECI,1173.0
CWST 242200Z AUTO 32002KT 11/04 RMK AO1 SLP177 T01050035 56003,CWST,2023-05-24T22:00:00Z,47.35,-70.02,10.5,3.5,320,2,,,,1017.7,,TRUE,TRUE,,,,,,,,,,,,,,,,-0.3,,,,,,,,,,,METAR,31.0
CWSS 242200Z AUTO 09002KT 12/04 RMK AO1 SLP155 T01240035 58007,CWSS,2023-05-24T22:00:00Z,45.2,-67.25,12.4,3.5,90,2,,,,1015.5,,TRUE,TRUE,,,,,,,,,,,,,,,,-0.7,,,,,,,,,,,METAR,27.0
CWSR 242200Z AUTO 10001KT 11/09 RMK AO1 6018 SLP156 T01090088 50038,CWSR,2023-05-24T22:00:00Z,53.37,-107.55,10.9,8.8,100,1,,,,1015.6,,TRUE,TRUE,,,,,,,,,,,,,,,,3.8,,,,,,,,,,,METAR,589.0
CWSP 242200Z AUTO 29013KT 11/09 RMK AO1 SLP189 T01090088 58008,CWSP,2023-05-24T22:00:00Z,48.38,-123.92,10.9,8.8,290,13,,,,1018.9,,TRUE,TRUE,,,,,,,,,,,,,,,,-0.8,,,,,,,,,,,METAR,2.0
CWSL 242200Z AUTO 35007KT 17/11 RMK AO1 SLP179 T01700108 57007,CWSL,2023-05-24T22:00:00Z,50.7,-119.28,17.0,10.8,350,7,,,,1017.9,,TRUE,TRUE,,,,,,,,,,,,,,,,-0.7,,,,,,,,,,,METAR,353.0
CWSK 242200Z AUTO 17008G16KT 21/10 RMK AO1 PK WND 19017/2115 SLP166 T02100098 58013,CWSK,2023-05-24T22:00:00Z,49.78,-123.17,21.0,9.8,170,8,16,,,1016.6,,TRUE,TRUE,,,,,,,,,,,,,,,,-1.3,,,,,,,,,,,METAR,59.0
CWSG 242200Z AUTO 26009KT 09/06 RMK AO1 SLP165 T00910055 53009,CWSG,2023-05-24T22:00:00Z,49.12,-66.65,9.1,5.5,260,9,,,,1016.5,,TRUE,TRUE,,,,,,,,,,,,,,,,0.9,,,,,,,,,,,METAR,5.0
CWSF 242200Z AUTO 28009KT 10/05 RMK AO1 2006 SLP158 T01030047 50002,CWSF,2023-05-24T22:00:00Z,49.25,-65.32,10.3,4.7,280,9,,,,1015.8,,TRUE,TRUE,,,,,,,,,,,,,,,,0.2,,,,,,,,,,,METAR,15.0
CWSD 242200Z AUTO 18008KT 18/05 RMK AO1 SLP151 T01760048 56009,CWSD,2023-05-24T22:00:00Z,46.43,-63.85,17.6,4.8,180,8,,,,1015.1,,TRUE,TRUE,,,,,,,,,,,,,,,,-0.9,,,,,,,,,,,METAR,12.0
CWSA 242200Z AUTO 12013G19KT 9SM 07/06 A3012 RMK CLD MISG SLP200,CWSA,2023-05-24T22:00:00Z,43.93,-60.0,7.0,6.0,120,13,19,9.0,30.121063,1020.0,,TRUE,,,,,,,,,,,,,,,,,,,,,,,,,,,,SPECI,4.0
CWRZ 242200Z AUTO 05017KT 08/07 RMK AO1 PK WND 05019/2154 SLP154 T00800069 50001,CWRZ,2023-05-24T22:00:00Z,48.42,-64.32,8.0,6.9,50,17,,,,1015.4,,TRUE,TRUE,,,,,,,,,,,,,,,,0.1,,,,,,,,,,,METAR,16.0
CWRY 242200Z AUTO 02003KT 20/07 RMK AO1 SLP128 T02030067 58009,CWRY,2023-05-24T22:00:00Z,49.12,-112.05,20.3,6.7,20,3,,,,1012.8,,TRUE,TRUE,,,,,,,,,,,,,,,,-0.9,,,,,,,,,,,METAR,1048.0
CWRX 242200Z AUTO ///// ////SM ////// M04/M06 A2988,CWRX,2023-05-24T22:00:00Z,69.07,-79.07,-4.0,-6.0,,,,,29.878937,,,TRUE,,,,,,,,,,,,,,,,,,,,,,,,,,,,SPECI,39.0
CWRU 242200Z AUTO 36009KT 11/ RMK AO1 PK WND 32028/2103 SLP203 T0112 53006,CWRU,2023-05-24T22:00:00Z,50.12,-127.93,11.2,,360,9,,,,1020.3,,TRUE,TRUE,,,,,,,,,,,,,,,,0.6,,,,,,,,,,,METAR,76.0
CWRT 242200Z AUTO 30005KT 19/02 RMK AO1 SLP127 T01940023 58015,CWRT,2023-05-24T22:00:00Z,49.62,-114.47,19.4,2.3,300,5,,,,1012.7,,TRUE,TRUE,,,,,,,,,,,,,,,,-1.5,,,,,,,,,,,METAR,1311.0
CWRO 242200Z AUTO 34007KT 14/ RMK AO1 SLP223 T0141 50000,CWRO,2023-05-24T22:00:00Z,54.17,-131.67,14.1,,340,7,,,,1022.3,,TRUE,TRUE,,,,,,,,,,,,,,,,0.0,,,,,,,,,,,METAR,7.0
CWRN 242200Z AUTO 15011KT 06/05 RMK AO1 SLP209 T00610054 56008,CWRN,2023-05-24T22:00:00Z,45.35,-60.98,6.1,5.4,150,11,,,,1020.9,,TRUE,TRUE,,,,,,,,,,,,,,,,-0.8,,,,,,,,,,,METAR,8.0
CWRM 242200Z AUTO 35006KT 18/04 RMK AO1 SLP130 T01790039 58002,CWRM,2023-05-24T22:00:00Z,52.42,-114.92,17.9,3.9,350,6,,,,1013.0,,TRUE,TRUE,,,,,,,,,,,,,,,,-0.2,,,,,,,,,,,METAR,986.0
CWRK 242200Z AUTO 02011G18KT 09/M05 RMK AO1 PK WND 02018/2157 SLP246 T00861053 53011,CWRK,2023-05-24T22:00:00Z,45.07,-77.87,8.6,-5.3,20,11,18,,,1024.6,,TRUE,TRUE,,,,,,,,,,,,,,,,1.1,,,,,,,,,,,METAR,328.0
CWRJ 242200Z AUTO 09003KT 18/11 RMK AO1 SLP127 T01760108 56006,CWRJ,2023-05-24T22:00:00Z,51.57,-107.92,17.6,10.8,90,3,,,,1012.7,,TRUE,TRUE,,,,,,,,,,,,,,,,-0.6,,,,,,,,,,,METAR,586.0
CWRA 242200Z AUTO 23011KT 02/02 RMK AO1 SLP233 T00190018 55001,CWRA,2023-05-24T22:00:00Z,46.65,-53.07,1.9,1.8,230,11,,,,1023.3,,TRUE,TRUE,,,,,,,,,,,,,,,,-0.1,,,,,,,,,,,METAR,4.0
CWQV 242200Z AUTO 28014KT 11/ RMK AO1 PK WND 28021/2137 T0111,CWQV,2023-05-24T22:00:00Z,48.27,-70.12,11.1,,280,14,,,,,,TRUE,TRUE,,,,,,,,,,,,,,,,,,,,,,,,,,,METAR,4.0
CWQS 242200Z AUTO 16006KT 10/09 RMK AO1 SLP229 T01030089 51003,CWQS,2023-05-24T22:00:00Z,53.32,-132.77,10.3,8.9,160,6,,,,1022.9,,TRUE,TRUE,,,,,,,,,,,,,,,,0.3,,,,,,,,,,,METAR,10.0
CWQR 242200Z AUTO 24003KT 05/04 RMK AO1 T00530038,CWQR,2023-05-24T22:00:00Z,50.22,-64.22,5.3,3.8,240,3,,,,,,TRUE,TRUE,,,,,,,,,,,,,,,,,,,,,,,,,,,METAR,9.0
CWQP 242200Z AUTO 02010G15KT 15/02 RMK AO1 PK WND 00018/2101 SLP220 T01490015 53004,CWQP,2023-05-24T22:00:00Z,43.83,-77.15,14.9,1.5,20,10,15,,,1022.0,,TRUE,TRUE,,,,,,,,,,,,,,,,0.4,,,,,,,,,,,METAR,77.0
CWQO 242200Z AUTO 23010KT 09/05 RMK AO1 T00910052,CWQO,2023-05-24T22:00:00Z,48.42,-68.9,9.1,5.2,230,10,,,,,,TRUE,TRUE,,,,,,,,,,,,,,,,,,,,,,,,,,,METAR,7.0
CWQK 242200Z AUTO 27012KT 12/09 RMK AO1 SLP186 T01200088 58007,CWQK,2023-05-24T22:00:00Z,48.3,-123.53,12.0,8.8,270,12,,,,1018.6,,TRUE,TRUE,,,,,,,,,,,,,,,,-0.7,,,,,,,,,,,METAR,5.0
CWQH 242200Z AUTO 34009G15KT 07/06 RMK AO1 1PAST HR 3016 SLP188 P0004 T00720058 50028,CWQH,2023-05-24T22:00:00Z,45.37,-71.82,7.2,5.8,340,9,15,,,1018.8,,TRUE,TRUE,,,,,,,,,,,,,,,,2.8,,,,,0.04,,,,,,METAR,181.0
CWPZ 242200Z AUTO 30006KT 21/03 RMK AO1 SLP165 T02120030 58007,CWPZ,2023-05-24T22:00:00Z,54.38,-125.97,21.2,3.0,300,6,,,,1016.5,,TRUE,TRUE,,,,,,,,,,,,,,,,-0.7,,,,,,,,,,,METAR,715.0
CWPR 242200Z AUTO 15002KT 15/06 RMK AO1 SLP174 T01520060 58009,CWPR,2023-05-24T22:00:00Z,49.47,-120.52,15.2,6.0,150,2,,,,1017.4,,TRUE,TRUE,,,,,,,,,,,,,,,,-0.9,,,,,,,,,,,METAR,703.0
CWPO 242200Z AUTO 13020G27KT 20/10 RMK AO1 PK WND 12028/2107 SLP197 T01950104 56019,CWPO,2023-05-24T22:00:00Z,49.2,-98.9,19.5,10.4,130,20,27,,,1019.7,,TRUE,TRUE,,,,,,,,,,,,,,,,-1.9,,,,,,,,,,,METAR,471.0
CWPK 242200Z AUTO 33007G16KT 06/01 RMK AO1 PK WND 31019/2137 SLP252 T00550010 53009,CWPK,2023-05-24T22:00:00Z,47.92,-74.62,5.5,1.0,330,7,16,,,1025.2,,TRUE,TRUE,,,,,,,,,,,,,,,,0.9,,,,,,,,,,,METAR,443.0
CWPE 242200Z AUTO 25005KT 08/06 RMK AO1 SLP165 T00770059 56011,CWPE,2023-05-24T22:00:00Z,45.07,-66.47,7.7,5.9,250,5,,,,1016.5,,TRUE,TRUE,,,,,,,,,,,,,,,,-1.1,,,,,,,,,,,METAR,9.0
CWPD 242200Z AUTO 05008KT 05/00 RMK AO1 PK WND 02019/2134 SLP174 T00510000 53003,CWPD,2023-05-24T22:00:00Z,47.57,-71.22,5.1,0.0,50,8,,,,1017.4,,TRUE,TRUE,,,,,,,,,,,,,,,,0.3,,,,,,,,,,,METAR,795.0
CWOY 242200Z AUTO 14015G24KT 20/10 RMK AO1 PK WND 14024/2151 SLP149 T02010104 58012,CWOY,2023-05-24T22:00:00Z,51.77,-104.2,20.1,10.4,140,15,24,,,1014.9,,TRUE,TRUE,,,,,,,,,,,,,,,,-1.2,,,,,,,,,,,METAR,557.0
CWOE 242200Z AUTO 26013G18KT 17/10 RMK AO1 8005 PK WND 22022/2100 SLP122 T01740103 50002,CWOE,2023-05-24T22:00:00Z,49.12,-110.47,17.4,10.3,260,13,18,,,1012.2,,TRUE,TRUE,,,,,,,,,,,,,,,,0.2,,,,,,,,,,,METAR,931.0
CWOD 242200Z AUTO 34014G20KT 10/01 RMK AO1 PK WND 32022/2100 SLP221 T01010013 53003,CWOD,2023-05-24T22:00:00Z,48.85,-72.55,10.1,1.3,340,14,20,,,1022.1,,TRUE,TRUE,,,,,,,,,,,,,,,,0.3,,,,,,,,,,,METAR,150.0
CWOC 242200Z AUTO 01002KT 11/08 RMK AO1 SLP159 T01050079 53019,CWOC,2023-05-24T22:00:00Z,48.02,-65.32,10.5,7.9,10,2,,,,1015.9,,TRUE,TRUE,,,,,,,,,,,,,,,,1.9,,,,,,,,,,,METAR,42.0
CWOB 242200Z AUTO 25003KT 200V330 ////SM ////// ///// A2990,CWOB,2023-05-24T22:00:00Z,63.33,-64.15,,,250,3,,,29.899607,,,TRUE,,,,,,,,,,,,,,,,,,,,,,,,,,,,SPECI,369.0
CWNZ 242200Z AUTO 35005KT 13/M06 RMK AO1 SLP326 T01251063 57008,CWNZ,2023-05-24T22:00:00Z,49.75,-84.17,12.5,-6.3,350,5,,,,1032.6,,TRUE,TRUE,,,,,,,,,,,,,,,,-0.8,,,,,,,,,,,METAR,261.0
CWNQ 242200Z AUTO 36005KT 14/04 RMK AO1 5000 SLP192 T01360035 50005,CWNQ,2023-05-24T22:00:00Z,46.22,-72.65,13.6,3.5,360,5,,,,1019.2,,TRUE,TRUE,,,,,,,,,,,,,,,,0.5,,,,,,,,,,,METAR,9.0
CWNM 242200Z AUTO 31003KT 15/11 RMK AO1 SLP146 T01500114 55002,CWNM,2023-05-24T22:00:00Z,49.5,-117.3,15.0,11.4,310,3,,,,1014.6,,TRUE,TRUE,,,,,,,,,,,,,,,,-0.2,,,,,,,,,,,METAR,533.0
CWNK 242200Z AUTO 13021G26KT 20/08 RMK AO1 PK WND 13027/2148 SLP206 T02020084 58018,CWNK,2023-05-24T22:00:00Z,49.5,-98.03,20.2,8.4,130,21,26,,,1020.6,,TRUE,TRUE,,,,,,,,,,,,,,,,-1.8,,,,,,,,,,,METAR,271.0
CWNH 242200Z AUTO 25002KT 11/04 RMK AO1 SLP175 T01050038 56004,CWNH,2023-05-24T22:00:00Z,47.8,-69.53,10.5,3.8,250,2,,,,1017.5,,TRUE,TRUE,,,,,,,,,,,,,,,,-0.4,,,,,,,,,,,METAR,147.0
CWNE 242200Z AUTO 19012G17KT 19/01 RMK AO1 PK WND 17018/2102 SLP138 T01890007 55005,CWNE,2023-05-24T22:00:00Z,47.07,-64.0,18.9,0.7,190,12,17,,,1013.8,,TRUE,TRUE,,,,,,,,,,,,,,,,-0.5,,,,,,,,,,,METAR,5.0
CWNC 242200Z AUTO 03006KT 15/01 RMK AO1 SLP221 T01540009 53003,CWNC,2023-05-24T22:00:00Z,43.95,-78.17,15.4,0.9,30,6,,,,1022.1,,TRUE,TRUE,,,,,,,,,,,,,,,,0.3,,,,,,,,,,,METAR,71.0
CWMT 242200Z AUTO 28007KT 14/06 RMK AO1 SLP115 T01380062 53005,CWMT,2023-05-24T22:00:00Z,63.13,-117.25,13.8,6.2,280,7,,,,1011.5,,TRUE,TRUE,,,,,,,,,,,,,,,,0.5,,,,,,,,,,,SPECI,274.0
CWMQ 242200Z AUTO 26004KT 14/12 RMK AO1 8PAST HR 0001 SLP129 P0007 T01370121 50083,CWMQ,2023-05-24T22:00:00Z,49.9,-109.47,13.7,12.1,260,4,,,,1012.9,,TRUE,TRUE,,,,,,,,,,,,,,,,8.3,,,,,0.07,,,,,,METAR,767.0
CWMM 242200Z AUTO 17003KT 20/11 RMK AO1 SLP185 T01990108 58009,CWMM,2023-05-24T22:00:00Z,49.22,-122.68,19.9,10.8,170,3,,,,1018.5,,TRUE,TRUE,,,,,,,,,,,,,,,,-0.9,,,,,,,,,,,METAR,2.0
CWMJ 242200Z AUTO 36010G17KT 09/M01 RMK AO1 PK WND 01019/2121 SLP245 T00851014 51005,CWMJ,2023-05-24T22:00:00Z,46.27,-76.0,8.5,-1.4,360,10,17,,,1024.5,,TRUE,TRUE,,,,,,,,,,,,,,,,0.5,,,,,,,,,,,METAR,198.0
CWME 242200Z AUTO 23011KT 18/08 RMK AO1 SLP189 T01800080 58011,CWME,2023-05-24T22:00:00Z,52.18,-127.47,18.0,8.0,230,11,,,,1018.9,,TRUE,TRUE,,,,,,,,,,,,,,,,-1.1,,,,,,,,,,,METAR,23.0
CWLY 242200Z AUTO 19004KT 9SM BKN081 OVC098 15/10 A3006 RMK SLP185,CWLY,2023-05-24T22:00:00Z,50.22,-121.58,15.0,10.0,190,4,,9.0,30.059055,1018.5,,TRUE,,,,,,,,BKN,8100,OVC,9800,,,,,VFR,,,,,,,,,,,,SPECI,228.0
CWLX 242200Z AUTO ///// ////SM ////// M03/M06 A2989,CWLX,2023-05-24T22:00:00Z,68.9,-75.15,-3.0,-6.0,,,,,29.890747,,,TRUE,,,,,,,,,,,,,,,,,,,,,,,,,,,,SPECI,129.0
CWLS 242200Z AUTO 03012G18KT 11/M03 RMK AO1 PK WND 01019/2126 SLP246 T01091034 51004,CWLS,2023-05-24T22:00:00Z,43.97,-80.75,10.9,-3.4,30,12,18,,,1024.6,,TRUE,TRUE,,,,,,,,,,,,,,,,0.4,,,,,,,,,,,METAR,413.0
CWLP 242200Z AUTO 29014KT 13/08 RMK AO1 PK WND 28018/2130 SLP211 T01260083 58004,CWLP,2023-05-24T22:00:00Z,50.93,-127.63,12.6,8.3,290,14,,,,1021.1,,TRUE,TRUE,,,,,,,,,,,,,,,,-0.4,,,,,,,,,,,METAR,15.0
CWLM 242200Z AUTO 20005KT 17/09 RMK AO1 SLP189 T01700093 58007,CWLM,2023-05-24T22:00:00Z,48.42,-123.32,17.0,9.3,200,5,,,,1018.9,,TRUE,TRUE,,,,,,,,,,,,,,,,-0.7,,,,,,,,,,,METAR,62.0
CWLE 242200Z AUTO 20003KT 23/10 RMK AO1 PK WND 19017/2128 SLP115 T02280104 56016,CWLE,2023-05-24T22:00:00Z,50.95,-107.15,22.8,10.4,200,3,,,,1011.5,,TRUE,TRUE,,,,,,,,,,,,,,,,-1.6,,,,,,,,,,,METAR,666.0
CWLC 242200Z AUTO 27015KT 11/10 RMK AO1 PK WND 26017/2140 T01130095,CWLC,2023-05-24T22:00:00Z,54.3,-130.62,11.3,9.5,270,15,,,,,,TRUE,TRUE,,,,,,,,,,,,,,,,,,,,,,,,,,,METAR,27.0
CWLB 242200Z AUTO 25009KT 20/07 RMK AO1 SLP135 T01950068 57005,CWLB,2023-05-24T22:00:00Z,54.77,-112.02,19.5,6.8,250,9,,,,1013.5,,TRUE,TRUE,,,,,,,,,,,,,,,,-0.5,,,,,,,,,,,METAR,561.0
CWKX 242200Z AUTO 23008G17KT 18/02 RMK AO1 PK WND 23017/2122 SLP185 T01840021 56003,CWKX,2023-05-24T22:00:00Z,58.43,-130.02,18.4,2.1,230,8,17,,,1018.5,,TRUE,TRUE,,,,,,,,,,,,,,,,-0.3,,,,,,,,,,,METAR,807.0
CWKO 242200Z AUTO 15014G21KT 24/11 RMK AO1 PK WND 15021/2152 SLP112 T02440114 57012,CWKO,2023-05-24T22:00:00Z,49.17,-105.97,24.4,11.4,150,14,21,,,1011.2,,TRUE,TRUE,,,,,,,,,,,,,,,,-1.2,,,,,,,,,,,METAR,914.0
CWKM 242200Z AUTO 08019KT ////SM OVC007 M01/M03 A3027,CWKM,2023-05-24T22:00:00Z,69.6,-140.17,-1.0,-3.0,80,19,,,30.268702,,,TRUE,,,,,,,,OVC,700,,,,,,,,,,,,,,,,,,,SPECI,8.0
CWKH 242200Z AUTO 18/10 RMK AO1 SLP176 T01770097 58006,CWKH,2023-05-24T22:00:00Z,48.57,-123.55,17.7,9.7,,,,,,1017.6,,TRUE,TRUE,,,,,,,,,,,,,,,,-0.6,,,,,,,,,,,METAR,327.0
CWKG 242200Z AUTO 15006KT 15/08 RMK AO1 SLP166 T01490079 58011,CWKG,2023-05-24T22:00:00Z,44.43,-65.2,14.9,7.9,150,6,,,,1016.6,,TRUE,TRUE,,,,,,,,,,,,,,,,-1.1,,,,,,,,,,,METAR,154.0
CWJX 242200Z AUTO 05007KT 16/14 RMK AO1 2PAST HR SOG 01 0002 SLP117 P0005 T01560136 50162,CWJX,2023-05-24T22:00:00Z,50.88,-109.5,15.6,13.6,50,7,,,,1011.7,,TRUE,TRUE,,,,,,,,,,,,,,,,0.0,,,,,0.05,,,,,,METAR,671.0
CWJW 242200Z AUTO 12004KT 16/05 RMK AO1 SOG 01 3001 SLP164 T01610046,CWJW,2023-05-24T22:00:00Z,52.93,-118.03,16.1,4.6,120,4,,,,1016.4,,TRUE,TRUE,,,,,,,,,,,,,,,,,,,,,,,,,,,METAR,1022.0
CWJV 242200Z AUTO 32002KT 19/09 RMK AO1 SLP165 T01920086 58012,CWJV,2023-05-24T22:00:00Z,50.22,-119.18,19.2,8.6,320,2,,,,1016.5,,TRUE,TRUE,,,,,,,,,,,,,,,,-1.2,,,,,,,,,,,METAR,487.0
CWJU 242200Z AUTO 21010G17KT 12/09 RMK AO1 PK WND 22019/2144 SLP226 T01180094 51001,CWJU,2023-05-24T22:00:00Z,54.25,-133.07,11.8,9.4,210,10,17,,,1022.6,,TRUE,TRUE,,,,,,,,,,,,,,,,0.1,,,,,,,,,,,METAR,47.0
CWJT 242200Z AUTO 31002KT 13/01 RMK AO1 SLP210 T01310008 53010,CWJT,2023-05-24T22:00:00Z,46.07,-74.57,13.1,0.8,310,2,,,,1021.0,,TRUE,TRUE,,,,,,,,,,,,,,,,1.0,,,,,,,,,,,METAR,236.0
CWJR 242200Z AUTO 31008KT 22/09 RMK AO1 SLP123 T02220086 57021,CWJR,2023-05-24T22:00:00Z,49.03,-116.5,22.2,8.6,310,8,,,,1012.3,,TRUE,TRUE,,,,,,,,,,,,,,,,-2.1,,,,,,,,,,,METAR,642.0
CWJO 242200Z AUTO 00033KT 12/03 RMK AO1 SLP195 T01170026 53003,CWJO,2023-05-24T22:00:00Z,48.43,-71.15,11.7,2.6,0,33,,,,1019.5,,TRUE,TRUE,,,,,,,,,,,,,,,,0.3,,,,,,,,,,,METAR,113.0
CWJI 242200Z AUTO 13012G17KT 25/12 RMK AO1 PK WND 12023/2114 SLP103 T02500115 56018,CWJI,2023-05-24T22:00:00Z,49.72,-105.93,25.0,11.5,130,12,17,,,1010.3,,TRUE,TRUE,,,,,,,,,,,,,,,,-1.8,,,,,,,,,,,METAR,724.0
CWJH 242200Z AUTO 17004KT 16/02 RMK AO1 8031 SLP158 T01640015 50006,CWJH,2023-05-24T22:00:00Z,56.32,-103.27,16.4,1.5,170,4,,,,1015.8,,TRUE,TRUE,,,,,,,,,,,,,,,,0.6,,,,,,,,,,,METAR,345.0
CWJD 242200Z AUTO 12008G16KT 17/03 RMK AO1 SLP203 T01690032 58028,CWJD,2023-05-24T22:00:00Z,53.18,-99.27,16.9,3.2,120,8,16,,,1020.3,,TRUE,TRUE,,,,,,,,,,,,,,,,-2.8,,,,,,,,,,,METAR,222.0
CWJC 242200Z AUTO 20021G29KT 13/03 RMK AO1 PK WND 20029/2158 SLP137 T01270031 58025,CWJC,2023-05-24T22:00:00Z,61.13,-100.9,12.7,3.1,200,21,29,,,1013.7,,TRUE,TRUE,,,,,,,,,,,,,,,,-2.5,,,,,,,,,,,METAR,340.0
CWJB 242200Z AUTO 11/06 RMK AO1 T01080056,CWJB,2023-05-24T22:00:00Z,46.78,-71.28,10.8,5.6,,,,,,,,TRUE,TRUE,,,,,,,,,,,,,,,,,,,,,,,,,,,METAR,90.0
CWIZ 242200Z AUTO 34002KT 10/06 RMK AO1 2PAST HR M P0001 T01010057 50014,CWIZ,2023-05-24T22:00:00Z,45.28,-73.33,10.1,5.7,340,2,,,,,,TRUE,TRUE,,,,,,,,,,,,,,,,1.4,,,,,0.01,,,,,,METAR,45.0
CWIW 242200Z AUTO 13015G21KT 22/12 RMK AO1 8018 PK WND 13022/2141 SLP132 T02240115 50004,CWIW,2023-05-24T22:00:00Z,51.67,-105.4,22.4,11.5,130,15,21,,,1013.2,,TRUE,TRUE,,,,,,,,,,,,,,,,0.4,,,,,,,,,,,METAR,524.0
CWIT 242200Z AUTO 27003KT 11/06 RMK AO1 1007 SLP200 T01090060 50017,CWIT,2023-05-24T22:00:00Z,45.17,-73.67,10.9,6.0,270,3,,,,1020.0,,TRUE,TRUE,,,,,,,,,,,,,,,,1.7,,,,,,,,,,,METAR,53.0
CWIS 242200Z AUTO 36006KT 06/M00 RMK AO1 SLP185 T00591001 53008,CWIS,2023-05-24T22:00:00Z,47.28,-70.63,5.9,-0.1,360,6,,,,1018.5,,TRUE,TRUE,,,,,,,,,,,,,,,,0.8,,,,,,,,,,,METAR,720.0
CWIP 242200Z AUTO 25006KT 14/04 RMK AO1 T01360035,CWIP,2023-05-24T22:00:00Z,50.17,-66.43,13.6,3.5,250,6,,,,,,TRUE,TRUE,,,,,,,,,,,,,,,,,,,,,,,,,,,METAR,27.0
CWIL 242200Z AUTO ///// ////SM BKN120 03/02 A2962,CWIL,2023-05-24T22:00:00Z,68.32,-100.07,3.0,2.0,,,,,29.619095,,,TRUE,,,,,,,,BKN,12000,,,,,,,,,,,,,,,,,,,SPECI,28.0
CWIK 242200Z AUTO 12017G22KT 20/12 RMK AO1 PK WND 11022/2128 SLP156 T02030123 58014,CWIK,2023-05-24T22:00:00Z,50.37,-102.58,20.3,12.3,120,17,22,,,1015.6,,TRUE,TRUE,,,,,,,,,,,,,,,,-1.4,,,,,,,,,,,SPECI,597.0
CWIJ 242200Z AUTO 33010G15KT 14/03 RMK AO1 SLP100 T01380031 52006,CWIJ,2023-05-24T22:00:00Z,65.77,-111.23,13.8,3.1,330,10,15,,,1010.0,,TRUE,TRUE,,,,,,,,,,,,,,,,0.6,,,,,,,,,,,METAR,490.0
CWII 242200Z AUTO 13016G21KT 16/04 RMK AO1 PK WND 13025/2130 SLP232 T01640037 58013,CWII,2023-05-24T22:00:00Z,50.7,-96.57,16.4,3.7,130,16,21,,,1023.2,,TRUE,TRUE,,,,,,,,,,,,,,,,-1.3,,,,,,,,,,,METAR,216.0
CWIG 242200Z AUTO 08007KT RMK AO1,CWIG,2023-05-24T22:00:00Z,47.07,-70.53,,,80,7,,,,,,TRUE,TRUE,,,,,,,,,,,,,,,,,,,,,,,,,,,METAR,12.0
CWID 242200Z AUTO 35010KT 18/05 RMK AO1 PK WND 35017/2115 SLP111 T01840052 53001,CWID,2023-05-24T22:00:00Z,61.32,-117.6,18.4,5.2,350,10,,,,1011.1,,TRUE,TRUE,,,,,,,,,,,,,,,,0.1,,,,,,,,,,,METAR,160.0
CWHV 242200Z AUTO 34004KT 08/06 RMK AO1 7PAST HR 2016 SLP177 P0003 T00800063 50028,CWHV,2023-05-24T22:00:00Z,46.2,-70.78,8.0,6.3,340,4,,,,1017.7,,TRUE,TRUE,,,,,,,,,,,,,,,,2.8,,,,,0.03,,,,,,METAR,227.0
CWHT 242200Z AUTO 27012G22KT 16/03 RMK AO1 PK WND 25022/2154 SLP161 T01590029 57008,CWHT,2023-05-24T22:00:00Z,60.77,-137.58,15.9,2.9,270,12,22,,,1016.1,,TRUE,TRUE,,,,,,,,,,,,,,,,-0.8,,,,,,,,,,,METAR,601.0
CWHQ 242200Z AUTO 34007KT 13/01 RMK AO1 PK WND 33018/2112 T01280009,CWHQ,2023-05-24T22:00:00Z,46.68,-71.97,12.8,0.9,340,7,,,,,,TRUE,TRUE,,,,,,,,,,,,,,,,,,,,,,,,,,,METAR,56.0
CWHP 242200Z AUTO 18005KT 06/04 RMK AO1 SLP165 T00610043 51007,CWHP,2023-05-24T22:00:00Z,49.08,-61.7,6.1,4.3,180,5,,,,1016.5,,TRUE,TRUE,,,,,,,,,,,,,,,,0.7,,,,,,,,,,,METAR,7.0
CWHL 242200Z AUTO 31012KT 10/09 RMK AO1 SLP213 T01030088 56001,CWHL,2023-05-24T22:00:00Z,54.17,-130.35,10.3,8.8,310,12,,,,1021.3,,TRUE,TRUE,,,,,,,,,,,,,,,,-0.1,,,,,,,,,,,METAR,5.0
CWHI 242200Z AUTO 01005KT 19/03 RMK AO1 T01940027,CWHI,2023-05-24T22:00:00Z,51.7,-113.22,19.4,2.7,10,5,,,,,,TRUE,TRUE,,,,,,,,,,,,,,,,,,,,,,,,,,,METAR,906.0
CWGY 242200Z AUTO 06008KT 14/12 RMK AO1 3PAST HR 0001 SLP135 P0001 T01440124 50020,CWGY,2023-05-24T22:00:00Z,51.67,-110.2,14.4,12.4,60,8,,,,1013.5,,TRUE,TRUE,,,,,,,,,,,,,,,,2.0,,,,,0.01,,,,,,METAR,709.0
CWGW 242200Z AUTO 19006KT 20/03 RMK AO1 SLP128 T02000030 58020,CWGW,2023-05-24T22:00:00Z,49.75,-114.9,20.0,3.0,190,6,,,,1012.8,,TRUE,TRUE,,,,,,,,,,,,,,,,-2.0,,,,,,,,,,,METAR,1137.0
CWGT 242200Z AUTO 36006KT 17/11 RMK AO1 SLP183 T01700110 58014,CWGT,2023-05-24T22:00:00Z,49.48,-124.43,17.0,11.0,360,6,,,,1018.3,,TRUE,TRUE,,,,,,,,,,,,,,,,-1.4,,,,,,,,,,,METAR,5.0
CWGR 242200Z AUTO 18015G23KT 10/05 RMK AO1 PK WND 18027/2101 SLP166 T00950046 56007,CWGR,2023-05-24T22:00:00Z,47.42,-61.77,9.5,4.6,180,15,23,,,1016.6,,TRUE,TRUE,,,,,,,,,,,,,,,,-0.7,,,,,,,,,,,METAR,4.0
CWGM 242200Z AUTO 22004KT 20/02 RMK AO1 SOG 01 8014 SLP117 T02030018,CWGM,2023-05-24T22:00:00Z,49.13,-113.8,20.3,1.8,220,4,,,,1011.7,,TRUE,TRUE,,,,,,,,,,,,,,,,,,,,,,,,,,,METAR,1292.0
CWGL 242200Z AUTO 03011G16KT 13/M06 RMK AO1 PK WND 35019/2107 SLP222 T01321062 51007,CWGL,2023-05-24T22:00:00Z,44.53,-79.22,13.2,-6.2,30,11,16,,,1022.2,,TRUE,TRUE,,,,,,,,,,,,,,,,0.7,,,,,,,,,,,METAR,220.0
CWGH 242200Z AUTO 03004KT 13/03 RMK AO1 SLP214 T01260026 53005,CWGH,2023-05-24T22:00:00Z,44.42,-75.85,12.6,2.6,30,4,,,,1021.4,,TRUE,TRUE,,,,,,,,,,,,,,,,0.5,,,,,,,,,,,METAR,76.0
CWGD 242200Z AUTO 35015G21KT 11/03 RMK AO1 PK WND 35024/2101 SLP247 T01120027 50000,CWGD,2023-05-24T22:00:00Z,43.77,-81.72,11.2,2.7,350,15,21,,,1024.7,,TRUE,TRUE,,,,,,,,,,,,,,,,0.0,,,,,,,,,,,METAR,214.0
CWGB 242200Z AUTO 30003KT 17/ RMK AO1 SLP177 T0165 56012,CWGB,2023-05-24T22:00:00Z,49.35,-124.13,16.5,,300,3,,,,1017.7,,TRUE,TRUE,,,,,,,,,,,,,,,,-1.2,,,,,,,,,,,METAR,6.0
CWFQ 242200Z AUTO 36008KT 07/05 RMK AO1 1018 SLP197 T00660054 50035,CWFQ,2023-05-24T22:00:00Z,45.03,-72.85,6.6,5.4,360,8,,,,1019.7,,TRUE,TRUE,,,,,,,,,,,,,,,,3.5,,,,,,,,,,,METAR,190.0
CWFJ 242200Z AUTO 12002KT 19/03 RMK AO1 T01930027,CWFJ,2023-05-24T22:00:00Z,49.2,-113.27,19.3,2.7,120,2,,,,,,TRUE,TRUE,,,,,,,,,,,,,,,,,,,,,,,,,,,METAR,1142.0
CWFF 242200Z AUTO 17014G19KT 20/09 RMK AO1 PK WND 17024/2109 SLP150 T02010094 57012,CWFF,2023-05-24T22:00:00Z,52.82,-104.6,20.1,9.4,170,14,19,,,1015.0,,TRUE,TRUE,,,,,,,,,,,,,,,,-1.2,,,,,,,,,,,METAR,482.0
CWEZ 242200Z AUTO 06002KT 17/11 RMK AO1 SLP182 T01670114 58008,CWEZ,2023-05-24T22:00:00Z,48.78,-123.05,16.7,11.4,60,2,,,,1018.2,,TRUE,TRUE,,,,,,,,,,,,,,,,-0.8,,,,,,,,,,,METAR,23.0
CWEW 242200Z AUTO 01007KT 13/02 RMK AO1 3003 SLP202 T01340024 50002,CWEW,2023-05-24T22:00:00Z,45.82,-73.43,13.4,2.4,10,7,,,,1020.2,,TRUE,TRUE,,,,,,,,,,,,,,,,0.2,,,,,,,,,,,METAR,17.0
CWEU 242200Z 13016KT 1 3/4SM -SN DRSN SCT009 OVC024 M09/M12 A2963 RMK ST3ST5 SLP047,CWEU,2023-05-24T22:00:00Z,80.0,-85.93,-9.0,-12.0,130,16,,1.75,29.630905,1004.7,,,,,,,,,-SN DRSN,SCT,900,OVC,2400,,,,,IFR,,,,,,,,,,,,SPECI,2.0
CWER 242200Z AUTO 08013KT RMK AO1 PK WND 07019/2105,CWER,2023-05-24T22:00:00Z,47.0,-70.82,,,80,13,,,,,,TRUE,TRUE,,,,,,,,,,,,,,,,,,,,,,,,,,,METAR,4.0
CWEQ 242200Z AUTO 12012KT 20/09 RMK AO1 PK WND 13019/2132 SLP173 T01980090 58018,CWEQ,2023-05-24T22:00:00Z,52.12,-101.22,19.8,9.0,120,12,,,,1017.3,,TRUE,TRUE,,,,,,,,,,,,,,,,-1.8,,,,,,,,,,,METAR,331.0
CWEP 242200Z AUTO 14017G22KT 09/05 RMK AO1 PK WND 14024/2126 SLP176 T00890052 56006,CWEP,2023-05-24T22:00:00Z,46.45,-61.98,8.9,5.2,140,17,22,,,1017.6,,TRUE,TRUE,,,,,,,,,,,,,,,,-0.6,,,,,,,,,,,METAR,9.0
CWEL 242200Z AUTO 10002KT 17/10 RMK AO1 SLP182 T01740100 58009,CWEL,2023-05-24T22:00:00Z,49.22,-123.8,17.4,10.0,100,2,,,,1018.2,,TRUE,TRUE,,,,,,,,,,,,,,,,-0.9,,,,,,,,,,,METAR,0.0
CWEH 242200Z AUTO 33012KT 14/12 RMK AO1 8001 SLP117 T01410116 50037,CWEH,2023-05-24T22:00:00Z,49.43,-108.98,14.1,11.6,330,12,,,,1011.7,,TRUE,TRUE,,,,,,,,,,,,,,,,3.7,,,,,,,,,,,METAR,1077.0
CWEF 242200Z AUTO 17023KT 05/04 RMK AO1 PK WND 17027/2128 SLP173 T00530038 58011,CWEF,2023-05-24T22:00:00Z,47.22,-60.13,5.3,3.8,170,23,,,,1017.3,,TRUE,TRUE,,,,,,,,,,,,,,,,-1.1,,,,,,,,,,,METAR,27.0
CWEB 242200Z AUTO 00031KT 14/10 RMK AO1 SLP198 T01410100 55003,CWEB,2023-05-24T22:00:00Z,49.38,-126.55,14.1,10.0,0,31,,,,1019.8,,TRUE,TRUE,,,,,,,,,,,,,,,,-0.3,,,,,,,,,,,METAR,1.0
CWDZ 242200Z AUTO 03006KT 21/06 RMK AO1 SLP128 T02140063 58008,CWDZ,2023-05-24T22:00:00Z,51.43,-112.67,21.4,6.3,30,6,,,,1012.8,,TRUE,TRUE,,,,,,,,,,,,,,,,-0.8,,,,,,,,,,,METAR,689.0
CWDV 242200Z AUTO 17006KT 14/M06 RMK AO1 SLP304 T01441063 58014,CWDV,2023-05-24T22:00:00Z,49.02,-90.47,14.4,-6.3,170,6,,,,1030.4,,TRUE,TRUE,,,,,,,,,,,,,,,,-1.4,,,,,,,,,,,METAR,487.0
CWDQ 242200Z AUTO 35013G22KT 10/02 RMK AO1 PK WND 33023/2111 SLP212 T01000023 53009,CWDQ,2023-05-24T22:00:00Z,47.42,-72.78,10.0,2.3,350,13,22,,,1021.2,,TRUE,TRUE,,,,,,,,,,,,,,,,0.9,,,,,,,,,,,METAR,174.0
CWDO 242200Z AUTO 15007KT 13/03 RMK AO1 SLP175 T01320034 56006,CWDO,2023-05-24T22:00:00Z,49.68,-54.78,13.2,3.4,150,7,,,,1017.5,,TRUE,TRUE,,,,,,,,,,,,,,,,-0.6,,,,,,,,,,,METAR,89.0
CWDM 242200Z AUTO 22011KT 06/03 RMK AO1 PK WND 20019/2108 SLP172 T00590033 53004,CWDM,2023-05-24T22:00:00Z,50.47,-59.63,5.9,3.3,220,11,,,,1017.2,,TRUE,TRUE,,,,,,,,,,,,,,,,0.4,,,,,,,,,,,METAR,2.0
CWDK 242200Z AUTO 13003KT 22/02 RMK AO1 SLP118 T02160015 56014,CWDK,2023-05-24T22:00:00Z,50.02,-113.62,21.6,1.5,130,3,,,,1011.8,,TRUE,TRUE,,,,,,,,,,,,,,,,-1.4,,,,,,,,,,,METAR,1014.0
CWDJ 242200Z AUTO 13018G26KT 25/13 RMK AO1 8023 PK WND 13027/2123 SLP118 T02520127 50002,CWDJ,2023-05-24T22:00:00Z,50.4,-104.58,25.2,12.7,130,18,26,,,1011.8,,TRUE,TRUE,,,,,,,,,,,,,,,,0.2,,,,,,,,,,,METAR,576.0
CWDA 242200Z AUTO 00010KT 07/ RMK AO1 T0072,CWDA,2023-05-24T22:00:00Z,50.72,-56.12,7.2,,0,10,,,,,,TRUE,TRUE,,,,,,,,,,,,,,,,,,,,,,,,,,,METAR,30.0
CWCT 242200Z AUTO 36010KT 16/10 RMK AO1 6005 SLP155 T01570099 50003,CWCT,2023-05-24T22:00:00Z,52.07,-111.43,15.7,9.9,360,10,,,,1015.5,,TRUE,TRUE,,,,,,,,,,,,,,,,0.3,,,,,,,,,,,METAR,793.0
CWCO 242200Z AUTO 32013G19KT 09/02 RMK AO1 PK WND 31019/2150 SLP261 T00910023 50001,CWCO,2023-05-24T22:00:00Z,44.5,-80.22,9.1,2.3,320,13,19,,,1026.1,,TRUE,TRUE,,,,,,,,,,,,,,,,0.1,,,,,,,,,,,METAR,182.0
CWCJ 242200Z AUTO 28003KT 12/M02 RMK AO1 SLP312 T01221016 57010,CWCJ,2023-05-24T22:00:00Z,48.6,-86.28,12.2,-1.6,280,3,,,,1031.2,,TRUE,TRUE,,,,,,,,,,,,,,,,-1.0,,,,,,,,,,,METAR,207.0
CWCF 242200Z AUTO 15011G18KT 20/M02 RMK AO1 PK WND 13023/2126 SLP226 T01951018 56024,CWCF,2023-05-24T22:00:00Z,52.35,-97.03,19.5,-1.8,150,11,18,,,1022.6,,TRUE,TRUE,,,,,,,,,,,,,,,,-2.4,,,,,,,,,,,METAR,219.0
CWBZ 242200Z AUTO 19004KT 11/08 RMK AO1 1003 SLP202 T01070080 50015,CWBZ,2023-05-24T22:00:00Z,45.12,-74.28,10.7,8.0,190,4,,,,1020.2,,TRUE,TRUE,,,,,,,,,,,,,,,,1.5,,,,,,,,,,,METAR,49.0
CWBY 242200Z AUTO 25005KT 09/08 RMK AO1 1006 SLP159 T00930079 50008,CWBY,2023-05-24T22:00:00Z,49.83,-64.28,9.3,7.9,250,5,,,,1015.9,,TRUE,TRUE,,,,,,,,,,,,,,,,0.8,,,,,,,,,,,METAR,56.0
CWBV 242200Z AUTO 14012KT 06/05 RMK AO1 SLP180 T00580054 56014,CWBV,2023-05-24T22:00:00Z,44.82,-62.33,5.8,5.4,140,12,,,,1018.0,,TRUE,TRUE,,,,,,,,,,,,,,,,-1.4,,,,,,,,,,,METAR,16.0
CWBU 242200Z AUTO 16013G18KT 22/10 RMK AO1 PK WND 15020/2146 SLP144 T02220104 56023,CWBU,2023-05-24T22:00:00Z,53.33,-104.02,22.2,10.4,160,13,18,,,1014.4,,TRUE,TRUE,,,,,,,,,,,,,,,,-2.3,,,,,,,,,,,SPECI,369.0
CWBT 242200Z AUTO 19002KT 08/05 RMK AO1 SLP156 T00820053 52004,CWBT,2023-05-24T22:00:00Z,50.27,-64.23,8.2,5.3,190,2,,,,1015.6,,TRUE,TRUE,,,,,,,,,,,,,,,,0.4,,,,,,,,,,,METAR,12.0
CWBS 242200Z AUTO 01010KT 13/01 RMK AO1 PK WND 03020/2117 T01330013,CWBS,2023-05-24T22:00:00Z,46.18,-72.92,13.3,1.3,10,10,,,,,,TRUE,TRUE,,,,,,,,,,,,,,,,,,,,,,,,,,,METAR,3.0
CWBO 242200Z AUTO 02004KT 20/09 RMK AO1 6012 SLP133 T01950091 50011,CWBO,2023-05-24T22:00:00Z,50.53,-111.83,19.5,9.1,20,4,,,,1013.3,,TRUE,TRUE,,,,,,,,,,,,,,,,1.1,,,,,,,,,,,METAR,752.0
CWBK 242200Z AUTO 17015KT 15/07 RMK AO1 PK WND 18020/2151 SLP169 T01460074 55004,CWBK,2023-05-24T22:00:00Z,45.77,-62.67,14.6,7.4,170,15,,,,1016.9,,TRUE,TRUE,,,,,,,,,,,,,,,,-0.4,,,,,,,,,,,METAR,2.0
CWBA 242200Z AUTO 36007KT 09/M02 RMK AO1 T00871017,CWBA,2023-05-24T22:00:00Z,46.72,-79.1,8.7,-1.7,360,7,,,,,,TRUE,TRUE,,,,,,,,,,,,,,,,,,,,,,,,,,,METAR,181.0
CWAR 242200Z AUTO 16010KT 05/03 RMK AO1 SLP231 T00530029 55001,CWAR,2023-05-24T22:00:00Z,47.28,-54.0,5.3,2.9,160,10,,,,1023.1,,TRUE,TRUE,,,,,,,,,,,,,,,,-0.1,,,,,,,,,,,METAR,6.0
CWAQ 242200Z AUTO 15014KT 25/12 RMK AO1 PK WND 14022/2100 SLP107 T02460124 57016,CWAQ,2023-05-24T22:00:00Z,49.05,-105.48,24.6,12.4,150,14,,,,1010.7,,TRUE,TRUE,,,,,,,,,,,,,,,,-1.6,,,,,,,,,,,METAR,761.0
CWAJ 242200Z AUTO 33012G20KT RMK AO1 PK WND 32023/2132 51002,CWAJ,2023-05-24T22:00:00Z,42.25,-81.9,,,330,12,20,,,,,TRUE,TRUE,,,,,,,,,,,,,,,,0.2,,,,,,,,,,,METAR,177.0
CWAF 242200Z AUTO 30015KT 09/03 RMK AO1 PK WND 30017/2119 T00920027,CWAF,2023-05-24T22:00:00Z,48.07,-69.55,9.2,2.7,300,15,,,,,,TRUE,TRUE,,,,,,,,,,,,,,,,,,,,,,,,,,,METAR,6.0
CTRA 242200Z AUTO 11006KT 17/M00 RMK AO1 SLP272 T01661003 58018,CTRA,2023-05-24T22:00:00Z,49.67,-93.73,16.6,-0.3,110,6,,,,1027.2,,TRUE,TRUE,,,,,,,,,,,,,,,,-1.8,,,,,,,,,,,METAR,432.0
CTNK 242200Z AUTO 01003KT 06/M05 RMK AO1 SLP265 T00551048,CTNK,2023-05-24T22:00:00Z,45.53,-78.27,5.5,-4.8,10,3,,,,1026.5,,TRUE,TRUE,,,,,,,,,,,,,,,,,,,,,,,,,,,METAR,405.0
CTCK 242200Z AUTO 36008G17KT 12/00 RMK AO1 PK WND 01017/2159 SLP208 T01240000 53009,CTCK,2023-05-24T22:00:00Z,45.25,-74.97,12.4,0.0,360,8,17,,,1020.8,,TRUE,TRUE,,,,,,,,,,,,,,,,0.9,,,,,,,,,,,METAR,84.0
CPSV 242200Z AUTO 01006KT 18/11 RMK AO1 T01820106 50013,CPSV,2023-05-24T22:00:00Z,49.92,-110.92,18.2,10.6,10,6,,,,,,TRUE,TRUE,,,,,,,,,,,,,,,,1.3,,,,,,,,,,,METAR,766.0
CPST 242200Z AUTO 03007KT 18/03 RMK AO1 T01750033,CPST,2023-05-24T22:00:00Z,51.03,-113.28,17.5,3.3,30,7,,,,,,TRUE,TRUE,,,,,,,,,,,,,,,,,,,,,,,,,,,METAR,1005.0
CPRY 242200Z AUTO 06006KT 19/06 RMK AO1 T01890056,CPRY,2023-05-24T22:00:00Z,49.48,-112.68,18.9,5.6,60,6,,,,,,TRUE,TRUE,,,,,,,,,,,,,,,,,,,,,,,,,,,METAR,947.0
CPRO 242200Z AUTO 28004KT 20/08 RMK AO1 T01990080,CPRO,2023-05-24T22:00:00Z,50.83,-112.05,19.9,8.0,280,4,,,,,,TRUE,TRUE,,,,,,,,,,,,,,,,,,,,,,,,,,,METAR,733.0
CPIN 242200Z AUTO 32023KT ////SM ////// ///// A////,CPIN,2023-05-24T22:00:00Z,,,,,320,23,,,,,,TRUE,,,,,,,,,,,,,,,,,,,,,,,,,,,,METAR,
CPFI 242200Z AUTO 04005KT 20/09 RMK AO1 T01970086,CPFI,2023-05-24T22:00:00Z,49.8,-112.03,19.7,8.6,40,5,,,,,,TRUE,TRUE,,,,,,,,,,,,,,,,,,,,,,,,,,,METAR,804.0
CPEH 242200Z AUTO 20/07 RMK AO1 T01950074,CPEH,2023-05-24T22:00:00Z,50.18,-112.43,19.5,7.4,,,,,,,,TRUE,TRUE,,,,,,,,,,,,,,,,,,,,,,,,,,,METAR,814.0
CMGB 242200Z AUTO 03003KT 09/06 RMK AO1 1013 SLP199 T00900059 50028,CMGB,2023-05-24T22:00:00Z,45.37,-72.77,9.0,5.9,30,3,,,,1019.9,,TRUE,TRUE,,,,,,,,,,,,,,,,2.8,,,,,,,,,,,SPECI,87.0
CMFM 242200Z AUTO 33006KT 06/M00 RMK AO1 3005 SLP189 T00631004 50002,CMFM,2023-05-24T22:00:00Z,47.32,-71.15,6.3,-0.4,330,6,,,,1018.9,,TRUE,TRUE,,,,,,,,,,,,,,,,0.2,,,,,,,,,,,SPECI,663.0
CERM 242200Z AUTO 31004KT 09/07 RMK AO1 5PAST HR 0006 SLP171 P0002 T00880074 50032,CERM,2023-05-24T22:00:00Z,47.42,-68.32,8.8,7.4,310,4,,,,1017.1,,TRUE,TRUE,,,,,,,,,,,,,,,,3.2,,,,,0.02,,,,,,METAR,151.0
CBBC 242200Z AUTO 34007KT 250V010 9SM CLR 19/08 A3013 RMK SLP205 DENSITY ALT 400FT,CBBC,2023-05-24T22:00:00Z,52.18,-128.15,19.0,8.0,340,7,,9.0,30.129921,1020.5,,TRUE,,,,,,,,CLR,,,,,,,,VFR,,,,,,,,,,,,METAR,36.0
CBAR 242200Z AUTO 05012KT 360V070 ////SM ////// M03/M06 A3027,CBAR,2023-05-24T22:00:00Z,,,-3.0,-6.0,50,12,,,30.268702,,,TRUE,,,,,,,,,,,,,,,,,,,,,,,,,,,,METAR,
CAHR 242200Z AUTO 17010KT 17/04 RMK AO1 PK WND 16017/2114 SLP157 T01710036 56008,CAHR,2023-05-24T22:00:00Z,46.35,-63.17,17.1,3.6,170,10,,,,1015.7,,TRUE,TRUE,,,,,,,,,,,,,,,,-0.8,,,,,,,,,,,METAR,52.0
BKPR 242200Z VRB02KT CAVOK 15/12 Q1017 NOSIG,BKPR,2023-05-24T22:00:00Z,42.58,21.03,15.0,12.0,0,2,,6.21,30.029528,,,,,,TRUE,,,,,CAVOK,,,,,,,,VFR,,,,,,,,,,,,METAR,545.0
BIRK 242200Z 24020KT 9999 VCSH SCT028 BKN049 07/02 Q1012,BIRK,2023-05-24T22:00:00Z,64.13,-21.93,7.0,2.0,240,20,,6.21,29.88189,,,,,,,,,,VCSH,SCT,2800,BKN,4900,,,,,VFR,,,,,,,,,,,,METAR,12.0
BIKF 242200Z 24023KT 9999 BKN029 07/01 Q1012,BIKF,2023-05-24T22:00:00Z,63.98,-22.6,7.0,1.0,240,23,,6.21,29.88189,,,,,,,,,,,BKN,2900,,,,,,,MVFR,,,,,,,,,,,,METAR,49.0
BIEG 242200Z 21014KT CAVOK 07/M03 Q1010,BIEG,2023-05-24T22:00:00Z,65.27,-14.4,7.0,-3.0,210,14,,6.21,29.822834,,,,,,,,,,,CAVOK,,,,,,,,VFR,,,,,,,,,,,,METAR,20.0
AYPY 242200Z 10010KT 9999 FEW020 SCT040 BKN080 26/24 Q1012,AYPY,2023-05-24T22:00:00Z,-9.43,147.22,26.0,24.0,100,10,,6.21,29.88189,,,,,,,,,,,FEW,2000,SCT,4000,BKN,8000,,,VFR,,,,,,,,,,,,METAR,44.0
AYNZ 242200Z 30005KT 4000M FG -RA BKN015 OVC050 23/20 Q1014,AYNZ,2023-05-24T22:00:00Z,-6.57,146.72,23.0,20.0,300,5,,2.49,29.940945,,,,,,,,,,FG -RA,BKN,1500,OVC,5000,,,,,IFR,,,,,,,,,,,,SPECI,74.0
ANYN 242200Z VRB02KT 9999 FEW020 SCT030 30/26 Q1012,ANYN,2023-05-24T22:00:00Z,-0.55,166.92,30.0,26.0,0,2,,6.21,29.88189,,,,,,,,,,,FEW,2000,SCT,3000,,,,,VFR,,,,,,,,,,,,METAR,7.0
AGGH 242200Z 00000KT 9999 FEW017 FEW018CB SCT300 29/26 Q1011 RMK CB TO SE,AGGH,2023-05-24T22:00:00Z,-9.42,160.05,29.0,26.0,0,0,,6.21,29.852362,,,,,,,,,,,FEW,1700,FEW,1800,SCT,30000,,,VFR,,,,,,,,,,,,METAR,6.0
RODE 242159Z AUTO A2998 RMK AO2 SLPNO PWINO TSNO $,RODE,2023-05-24T21:59:00Z,26.72,127.77,,,,,,,29.97933,,,TRUE,TRUE,TRUE,,TRUE,,TRUE,,,,,,,,,,,,,,,,,,,,,,SPECI,69.0
PASY 242159Z 36014KT 2 1/2SM BR OVC003 06/06 A2956 RMK AO2A VIS 2V3 SLP014 T00610058 RVRNO PNO FZRANO $,PASY,2023-05-24T21:59:00Z,52.72,174.12,6.1,5.8,360,14,,2.5,29.56004,1001.4,,,TRUE,TRUE,,,TRUE,,BR,OVC,300,,,,,,,LIFR,,,,,,,,,,,,SPECI,6.0
PABE 242159Z 33007KT 10SM -RA SCT014 BKN020 OVC029 09/08 A2985 RMK AO2 P0000 T00940078,PABE,2023-05-24T21:59:00Z,60.78,-161.83,9.4,7.8,330,7,,10.0,29.84941,,,,TRUE,,,,,,-RA,SCT,1400,BKN,2000,OVC,2900,,,MVFR,,,,,,0.005,,,,,,METAR,28.0
MUCF 242159Z AUTO 06008KT 030V110 24/21 Q1009,MUCF,2023-05-24T21:59:00Z,22.15,-80.4,24.0,21.0,60,8,,,29.793306,,,TRUE,,,,,,,,,,,,,,,,,,,,,,,,,,,,METAR,35.0
KOXD 242159Z AUTO 03008KT 10SM SCT100 29/02 A3004 RMK AO2,KOXD,2023-05-24T21:59:00Z,39.5,-84.78,29.0,2.0,30,8,,10.0,30.041338,,,TRUE,TRUE,,,,,,,SCT,10000,,,,,,,VFR,,,,,,,,,,,,SPECI,317.0
KNOZ 242159Z AUTO 17012G21KT 10SM CLR 35/04 A2973 RMK AO2 SLP017 T03500039,KNOZ,2023-05-24T21:59:00Z,32.53,-114.5,35.0,3.9,170,12,21,10.0,29.731298,1001.7,,TRUE,TRUE,,,,,,,CLR,,,,,,,,VFR,,,,,,,,,,,,SPECI,78.0
KNGU 242159Z 01009KT 10SM FEW120 SCT200 21/09 A2999 RMK AO2 SLP154 T02110089 $,KNGU,2023-05-24T21:59:00Z,36.93,-76.27,21.1,8.9,10,9,,10.0,29.991142,1015.4,,,TRUE,TRUE,,,,,,FEW,12000,SCT,20000,,,,,VFR,,,,,,,,,,,,METAR,3.0
K04W 242159Z AUTO 07006KT 030V090 10SM BKN090 10/06 A3030 RMK AO2,K04W,2023-05-24T21:59:00Z,46.02,-92.9,10.0,6.0,70,6,,10.0,30.301182,,,TRUE,TRUE,,,,,,,BKN,9000,,,,,,,VFR,,,,,,,,,,,,SPECI,310.0
PTPN 242158Z 06004KT 15SM SCT018 SCT130 BKN300 30/26 A2986 RMK FIRST,PTPN,2023-05-24T21:58:00Z,6.98,158.22,30.0,26.0,60,4,,15.0,29.861221,,,,,,,,,,,SCT,1800,SCT,13000,BKN,30000,,,VFR,,,,,,,,,,,,METAR,3.0
PASD 242158Z 31020KT 10SM BKN019 BKN035 OVC100 07/02 A2996 RMK AO2 PNO $,PASD,2023-05-24T21:58:00Z,55.33,-160.52,7.0,2.0,310,20,,10.0,29.958662,,,,TRUE,TRUE,,,,,,BKN,1900,BKN,3500,OVC,10000,,,MVFR,,,,,,,,,,,,METAR,6.0
KROG 242158Z AUTO 10005KT 10SM FEW055 27/14 A3004 RMK AO2 SLPNO T02670144 TSNO,KROG,2023-05-24T21:58:00Z,36.37,-94.1,26.7,14.4,100,5,,10.0,30.041338,,,TRUE,TRUE,,,TRUE,,,,FEW,5500,,,,,,,VFR,,,,,,,,,,,,METAR,407.0
KMRH 242158Z AUTO 01012KT 10SM OVC065 20/11 A2991 RMK AO2 RAB08E40 SLP129 P0000 T02000111,KMRH,2023-05-24T21:58:00Z,34.73,-76.65,20.0,11.1,10,12,,10.0,29.911417,1012.9,,TRUE,TRUE,,,,,,,OVC,6500,,,,,,,VFR,,,,,,0.005,,,,,,METAR,2.0
KMEI 242158Z 33005KT 10SM BKN018 BKN024 OVC033 22/18 A2995 RMK AO2 SLP138 T02170178,KMEI,2023-05-24T21:58:00Z,32.33,-88.75,21.7,17.8,330,5,,10.0,29.949802,1013.8,,,TRUE,,,,,,,BKN,1800,BKN,2400,OVC,3300,,,MVFR,,,,,,,,,,,,METAR,90.0
KESN 242158Z 35004KT 10SM CLR 25/10 A2996,KESN,2023-05-24T21:58:00Z,38.8,-76.07,25.0,10.0,350,4,,10.0,29.958662,,,,,,,,,,,CLR,,,,,,,,VFR,,,,,,,,,,,,METAR,14.0
KBKF 242158Z 23008KT 10SM FEW045 SCT070 BKN095 BKN180 14/10 A3004 RMK AO2A RAE40 SLP126 P0000 T01430103,KBKF,2023-05-24T21:58:00Z,39.72,-104.75,14.3,10.3,230,8,,10.0,30.041338,1012.6,,,TRUE,,,,,,,FEW,4500,SCT,7000,BKN,9500,BKN,18000,VFR,,,,,,0.005,,,,,,SPECI,1703.0
KBED 242158Z 34021G25KT 8SM -RA FEW015 SCT049 OVC070 16/15 A2995 RMK AO2 WSHFT 2138 P0001 T01610150,KBED,2023-05-24T21:58:00Z,42.47,-71.3,16.1,15.0,340,21,25,8.0,29.949802,,,,TRUE,,,,,,-RA,FEW,1500,SCT,4900,OVC,7000,,,VFR,,,,,,0.01,,,,,,METAR,39.0
KBCR 242158Z AUTO 04008G16KT 010V070 10SM SCT039 SCT046 SCT060 27/18 A2988 RMK AO2 SLP075 T02720183 $,KBCR,2023-05-24T21:58:00Z,30.85,-85.6,27.2,18.3,40,8,16,10.0,29.878937,1007.5,,TRUE,TRUE,TRUE,,,,,,SCT,3900,SCT,4600,SCT,6000,,,VFR,,,,,,,,,,,,METAR,26.0
K0J4 242158Z AUTO 05008KT 10SM FEW031 SCT050 SCT065 27/18 A2989 RMK AO2 RAB14E33 SLP117 P0000 T02720183,K0J4,2023-05-24T21:58:00Z,31.05,-86.32,27.2,18.3,50,8,,10.0,29.890747,1011.7,,TRUE,TRUE,,,,,,,FEW,3100,SCT,5000,SCT,6500,,,VFR,,,,,,0.005,,,,,,METAR,96.0
PHNG 242157Z 06009G17KT 10SM FEW028 FEW040 29/21 A3011 RMK AO2 SLP190 T02940206,PHNG,2023-05-24T21:57:00Z,21.43,-157.77,29.4,20.6,60,9,17,10.0,30.109253,1019.0,,,TRUE,,,,,,,FEW,2800,FEW,4000,,,,,VFR,,,,,,,,,,,,SPECI,1.0
KQOA 242157Z 34013KT 4800 FU FEW200 35/15 A2975 RMK AO2A SLP022 T03510149,KQOA,2023-05-24T21:57:00Z,,,35.1,14.9,340,13,,2.98,29.749016,1002.2,,,TRUE,,,,,,FU,FEW,20000,,,,,,,IFR,,,,,,,,,,,,METAR,
KNYL 242157Z 17014KT 7SM CLR 36/04 A2971 RMK AO2 SLP059 T03560039,KNYL,2023-05-24T21:57:00Z,32.65,-114.62,35.6,3.9,170,14,,7.0,29.71063,1005.9,,,TRUE,,,,,,,CLR,,,,,,,,VFR,,,,,,,,,,,,METAR,58.0
KNJW 242157Z AUTO 08008KT 10SM SCT029 SCT035 24/17 A2998 RMK AO2 SLP066 T02390167,KNJW,2023-05-24T21:57:00Z,32.78,-88.82,23.9,16.7,80,8,,10.0,29.97933,1006.6,,TRUE,TRUE,,,,,,,SCT,2900,SCT,3500,,,,,VFR,,,,,,,,,,,,METAR,165.0
KNJM 242157Z AUTO 03008KT 360V070 7SM OVC055 21/12 A2992 RMK AO2 RAB05E16 SLP136 P0000 T02110122 $,KNJM,2023-05-24T21:57:00Z,34.68,-77.02,21.1,12.2,30,8,,7.0,29.920275,1013.6,,TRUE,TRUE,TRUE,,,,,,OVC,5500,,,,,,,VFR,,,,,,0.005,,,,,,SPECI,5.0
KMNM 242157Z AUTO 07011KT 10SM CLR 13/02 A3035 RMK AO2 SLP300 T01280017 PNO $,KMNM,2023-05-24T21:57:00Z,45.12,-87.63,12.8,1.7,70,11,,10.0,30.351377,1030.0,,TRUE,TRUE,TRUE,,,,,,CLR,,,,,,,,VFR,,,,,,,,,,,,METAR,188.0
KIAB 242157Z AUTO 15015G21KT 10SM FEW009 SCT030 BKN049 OVC060 20/17 A3000 RMK AO2 RAE57 SLP156 $,KIAB,2023-05-24T21:57:00Z,37.62,-97.27,20.0,17.0,150,15,21,10.0,30.0,1015.6,,TRUE,TRUE,TRUE,,,,,,FEW,900,SCT,3000,BKN,4900,OVC,6000,VFR,,,,,,,,,,,,METAR,413.0
KFLG 242157Z 20016G21KT 10SM CLR 21/M01 A3011 RMK AO2 SLP116 T02111011,KFLG,2023-05-24T21:57:00Z,35.13,-111.67,21.1,-1.1,200,16,21,10.0,30.109253,1011.6,,,TRUE,,,,,,,CLR,,,,,,,,VFR,,,,,,,,,,,,METAR,2134.0
KAQV 242157Z AUTO 03005KT 10SM CLR 27/17 A2990 RMK AO2 SLP120 T02670167,KAQV,2023-05-24T21:57:00Z,31.4,-93.3,26.7,16.7,30,5,,10.0,29.899607,1012.0,,TRUE,TRUE,,,,,,,CLR,,,,,,,,VFR,,,,,,,,,,,,METAR,123.0
TJSJ 242156Z 07004KT 10SM FEW047 SCT110 29/23 A2983 RMK AO2 SLP101 SHRA DSNT SW T02890233,TJSJ,2023-05-24T21:56:00Z,18.43,-66.02,28.9,23.3,70,4,,10.0,29.828741,1010.1,,,TRUE,,,,,,,FEW,4700,SCT,11000,,,,,VFR,,,,,,,,,,,,SPECI,3.0
ROTM 242156Z VRB03KT 9999 FEW070 BKN100 24/19 A2998 RMK SLP137 T02390189,ROTM,2023-05-24T21:56:00Z,26.27,127.75,23.9,18.9,0,3,,6.21,29.97933,1013.7,,,,,,,,,,FEW,7000,BKN,10000,,,,,VFR,,,,,,,,,,,,METAR,80.0
RJOI 242156Z 00000KT 10SM FEW020 SCT080 BKN180 18/13 A3008 RMK AO2 SLP186 T01830133,RJOI,2023-05-24T21:56:00Z,34.13,132.23,18.3,13.3,0,0,,10.0,30.079725,1018.6,,,TRUE,,,,,,,FEW,2000,SCT,8000,BKN,18000,,,VFR,,,,,,,,,,,,SPECI,2.0
PPIZ 242156Z AUTO 05022KT 10SM OVC015 00/M04 A3022 RMK AO2 PK WND 05029/2101 SLP236 T00001039 FZRANO,PPIZ,2023-05-24T21:56:00Z,69.73,-163.0,0.0,-3.9,50,22,,10.0,30.221457,1023.6,,TRUE,TRUE,,,,TRUE,,,OVC,1500,,,,,,,MVFR,,,,,,,,,,,,METAR,5.0
PMDY 242156Z AUTO 10SM SCT007 OVC033 23/21 A3034 RMK AO2 SLP275 T02330211 TSNO $,PMDY,2023-05-24T21:56:00Z,28.22,-177.37,23.3,21.1,,,,10.0,30.339567,1027.5,,TRUE,TRUE,TRUE,,TRUE,,,,SCT,700,OVC,3300,,,,,VFR,,,,,,,,,,,,SPECI,6.0
PHNY 242156Z AUTO 16004KT 10SM OVC028 24/17 A3016 RMK AO2 SLP194 T02390172,PHNY,2023-05-24T21:56:00Z,20.77,-156.95,23.9,17.2,160,4,,10.0,30.159449,1019.4,,TRUE,TRUE,,,,,,,OVC,2800,,,,,,,MVFR,,,,,,,,,,,,METAR,395.0
PFYU 242156Z 02006KT 10SM FEW050 19/ A2987,PFYU,2023-05-24T21:56:00Z,66.57,-145.23,19.0,,20,6,,10.0,29.870079,,,,,,,,,,,FEW,5000,,,,,,,VFR,,,,,,,,,,,,METAR,130.0
PFSH 242156Z AUTO 03011KT 10SM OVC060 08/06 A2989 RMK AO2 SLP123 T00830056,PFSH,2023-05-24T21:56:00Z,64.37,-161.22,8.3,5.6,30,11,,10.0,29.890747,1012.3,,TRUE,TRUE,,,,,,,OVC,6000,,,,,,,VFR,,,,,,,,,,,,METAR,6.0
PFNO 242156Z AUTO 07005KT 10SM CLR 12/02 A2995 RMK AO2 SLP224 T01170022 $,PFNO,2023-05-24T21:56:00Z,66.82,-161.02,11.7,2.2,70,5,,10.0,29.949802,1022.4,,TRUE,TRUE,TRUE,,,,,,CLR,,,,,,,,VFR,,,,,,,,,,,,METAR,14.0
PFKW 242156Z AUTO 10003KT 10SM BKN030 10/06 A2984 RMK AO2 SLP105 T01000061,PFKW,2023-05-24T21:56:00Z,60.8,-161.43,10.0,6.1,100,3,,10.0,29.840551,1010.5,,TRUE,TRUE,,,,,,,BKN,3000,,,,,,,MVFR,,,,,,,,,,,,METAR,4.0
PFEL 242156Z AUTO 03009KT 10SM BKN060 BKN075 12/05 A2989 RMK AO2 SLP122 T01170050,PFEL,2023-05-24T21:56:00Z,64.62,-162.27,11.7,5.0,30,9,,10.0,29.890747,1012.2,,TRUE,TRUE,,,,,,,BKN,6000,BKN,7500,,,,,VFR,,,,,,,,,,,,METAR,50.0
PAZK 242156Z AUTO VRB04KT 10SM CLR 09/00 A2988 RMK AO2 SLP148 T00890000,PAZK,2023-05-24T21:56:00Z,61.93,-147.17,8.9,0.0,0,4,,10.0,29.878937,1014.8,,TRUE,TRUE,,,,,,,CLR,,,,,,,,VFR,,,,,,,,,,,,METAR,1002.0
PAWS 242156Z AUTO 06004KT 10SM -RA FEW030 SCT035 BKN055 12/06 A2993 RMK AO2 RAB07 SLP138 P0000 T01170061,PAWS,2023-05-24T21:56:00Z,61.57,-149.53,11.7,6.1,60,4,,10.0,29.929134,1013.8,,TRUE,TRUE,,,,,,-RA,FEW,3000,SCT,3500,BKN,5500,,,VFR,,,,,,0.005,,,,,,METAR,102.0
PAWN 242156Z AUTO 04007KT 10SM CLR 12/02 RMK AO2 SLPNO T01170017 $,PAWN,2023-05-24T21:56:00Z,67.57,-162.98,11.7,1.7,40,7,,10.0,,,,TRUE,TRUE,TRUE,,,,,,CLR,,,,,,,,VFR,,,,,,,,,,,,METAR,26.0
PAWM 242156Z AUTO 01005KT 7SM FEW045 SCT055 OVC075 10/06 A2990 RMK AO2 SLP128 T01000056,PAWM,2023-05-24T21:56:00Z,64.68,-163.42,10.0,5.6,10,5,,7.0,29.899607,1012.8,,TRUE,TRUE,,,,,,,FEW,4500,SCT,5500,OVC,7500,,,VFR,,,,,,,,,,,,METAR,80.0
PAVD 242156Z 24004KT 10SM SCT018 BKN041 OVC060 08/07 A3010 RMK AO2 RAE24 SLP189 P0000 T00830067 $,PAVD,2023-05-24T21:56:00Z,61.13,-146.25,8.3,6.7,240,4,,10.0,30.100393,1018.9,,,TRUE,TRUE,,,,,,SCT,1800,BKN,4100,OVC,6000,,,VFR,,,,,,0.005,,,,,,METAR,21.0
PAVC 242156Z AUTO 34020G29KT 10SM OVC016 05/02 A3001 RMK AO2 PK WND 36032/2137 SLP163 T00500022 PNO $,PAVC,2023-05-24T21:56:00Z,55.12,-162.27,5.0,2.2,340,20,29,10.0,30.008858,1016.3,,TRUE,TRUE,TRUE,,,,,,OVC,1600,,,,,,,MVFR,,,,,,,,,,,,METAR,48.0
PAUN 242156Z AUTO 32011KT 10SM BKN055 OVC070 08/06 A2988 RMK AO2 SLP122 T00830061,PAUN,2023-05-24T21:56:00Z,63.88,-160.8,8.3,6.1,320,11,,10.0,29.878937,1012.2,,TRUE,TRUE,,,,,,,BKN,5500,OVC,7000,,,,,VFR,,,,,,,,,,,,METAR,4.0
PATG 242156Z AUTO 10SM -RA BKN019 BKN026 OVC047 09/06 A2985 RMK AO2 RAB23 SLP109 P0000 T00940061 $,PATG,2023-05-24T21:56:00Z,59.05,-160.38,9.4,6.1,,,,10.0,29.84941,1010.9,,TRUE,TRUE,TRUE,,,,,-RA,BKN,1900,BKN,2600,OVC,4700,,,MVFR,,,,,,0.005,,,,,,METAR,1.0
PATE 242156Z AUTO 05007KT 10SM CLR 07/02 A2993 RMK AO2 SLP141 T00720017,PATE,2023-05-24T21:56:00Z,65.23,-166.33,7.2,1.7,50,7,,10.0,29.929134,1014.1,,TRUE,TRUE,,,,,,,CLR,,,,,,,,VFR,,,,,,,,,,,,METAR,93.0
PASX 242156Z AUTO 07008KT 10SM FEW055 14/04 A2989 RMK AO2 SLP128 T01390044,PASX,2023-05-24T21:56:00Z,60.48,-151.05,13.9,4.4,70,8,,10.0,29.890747,1012.8,,TRUE,TRUE,,,,,,,FEW,5500,,,,,,,VFR,,,,,,,,,,,,METAR,28.0
PASM 242156Z AUTO 00000KT 10SM OVC020 09/04 A2988 RMK AO2 SLP124 T00890039,PASM,2023-05-24T21:56:00Z,62.07,-163.3,8.9,3.9,0,0,,10.0,29.878937,1012.4,,TRUE,TRUE,,,,,,,OVC,2000,,,,,,,MVFR,,,,,,,,,,,,METAR,108.0
PASL 242156Z AUTO VRB03KT 10SM -RA OVC035 11/07 A2990 RMK AO2 SLP117 P0000 T01060067,PASL,2023-05-24T21:56:00Z,61.68,-157.15,10.6,6.7,0,3,,10.0,29.899607,1011.7,,TRUE,TRUE,,,,,,-RA,OVC,3500,,,,,,,VFR,,,,,,0.005,,,,,,METAR,64.0
PASK 242156Z AUTO 34003KT 10SM CLR 09/02 A2996 RMK AO2 SLP143 T00940017,PASK,2023-05-24T21:56:00Z,66.6,-160.0,9.4,1.7,340,3,,10.0,29.958662,1014.3,,TRUE,TRUE,,,,,,,CLR,,,,,,,,VFR,,,,,,,,,,,,METAR,3.0
PARY 242156Z AUTO VRB03KT 10SM BKN085 18/05 A2979 RMK AO2 SLP093 T01780050,PARY,2023-05-24T21:56:00Z,64.73,-155.47,17.8,5.0,0,3,,10.0,29.790354,1009.3,,TRUE,TRUE,,,,,,,BKN,8500,,,,,,,VFR,,,,,,,,,,,,METAR,185.0
PARC 242156Z AUTO 32006KT 10SM -RA OVC016 06/06 A2997 RMK AO2 SLP183 P0002 T00610056,PARC,2023-05-24T21:56:00Z,68.12,-145.58,6.1,5.6,320,6,,10.0,29.970472,1018.3,,TRUE,TRUE,,,,,,-RA,OVC,1600,,,,,,,MVFR,,,,,,0.02,,,,,,METAR,626.0
PAPO 242156Z AUTO 02017KT 10SM CLR 02/M02 A3007 RMK AO2 SLP182 T00221017 FZRANO PNO $,PAPO,2023-05-24T21:56:00Z,68.35,-166.8,2.2,-1.7,20,17,,10.0,30.070866,1018.2,,TRUE,TRUE,TRUE,,,TRUE,,,CLR,,,,,,,,VFR,,,,,,,,,,,,METAR,4.0
PAPN 242156Z AUTO 29006KT 8SM -RA OVC007 05/04 A2981 RMK AO2 CIG 006V010 SLP096 P0001 T00500039,PAPN,2023-05-24T21:56:00Z,57.58,-157.57,5.0,3.9,290,6,,8.0,29.811024,1009.6,,TRUE,TRUE,,,,,,-RA,OVC,700,,,,,,,IFR,,,,,,0.01,,,,,,METAR,19.0
PAPM 242156Z AUTO 31014KT 3/4SM -RA BR OVC002 04/04 A2988 RMK AO2 SLP119 P0000 T00390039,PAPM,2023-05-24T21:56:00Z,59.02,-161.82,3.9,3.9,310,14,,0.75,29.878937,1011.9,,TRUE,TRUE,,,,,,-RA BR,OVC,200,,,,,,,LIFR,,,,,,0.005,,,,,,METAR,4.0
PAPH 242156Z AUTO 25010KT 7SM -RA OVC004 04/03 A2984 RMK AO2 CIG 003V008 SLP107 P0000 T00390033,PAPH,2023-05-24T21:56:00Z,56.95,-158.62,3.9,3.3,250,10,,7.0,29.840551,1010.7,,TRUE,TRUE,,,,,,-RA,OVC,400,,,,,,,LIFR,,,,,,0.005,,,,,,METAR,29.0
PAPG 242156Z 06006KT 10SM BKN055 OVC090 14/06 A3018 RMK AO2 SLP224 BINOVC T01440061,PAPG,2023-05-24T21:56:00Z,56.82,-132.93,14.4,6.1,60,6,,10.0,30.180119,1022.4,,,TRUE,,,,,,,BKN,5500,OVC,9000,,,,,VFR,,,,,,,,,,,,METAR,24.0
PAOU 242156Z AUTO 28023KT 7SM OVC006 03/03 A2997 RMK AO2 PK WND 28028/2147 SLP148 T00330028 PNO $,PAOU,2023-05-24T21:56:00Z,56.0,-161.17,3.3,2.8,280,23,,7.0,29.970472,1014.8,,TRUE,TRUE,TRUE,,,,,,OVC,600,,,,,,,IFR,,,,,,,,,,,,METAR,3.0
PAOO 242156Z AUTO FEW003 06/03 A2991 RMK AO2 SLP134 T00560028 PWINO TSNO $,PAOO,2023-05-24T21:56:00Z,60.53,-165.08,5.6,2.8,,,,,29.911417,1013.4,,TRUE,TRUE,TRUE,,TRUE,,TRUE,,FEW,300,,,,,,,,,,,,,,,,,,,METAR,15.0
PAOH 242156Z AUTO VRB03KT 10SM 12/07 A3016 RMK AO2 SLP213 T01170072 $,PAOH,2023-05-24T21:56:00Z,58.1,-135.45,11.7,7.2,0,3,,10.0,30.159449,1021.3,,TRUE,TRUE,TRUE,,,,,,,,,,,,,,,,,,,,,,,,,,METAR,0.0
PANW 242156Z AUTO 09008KT 10SM -RA SCT010 BKN017 OVC023 07/06 A2984 RMK AO2 SLP111 P0002 T00720061,PANW,2023-05-24T21:56:00Z,59.45,-157.32,7.2,6.1,90,8,,10.0,29.840551,1011.1,,TRUE,TRUE,,,,,,-RA,SCT,1000,BKN,1700,OVC,2300,,,MVFR,,,,,,0.02,,,,,,METAR,100.0
PANV 242156Z AUTO 10006KT 10SM 11/04 A2985 RMK AO2 SLP179 T01110044 TSNO $,PANV,2023-05-24T21:56:00Z,62.65,-160.18,11.1,4.4,100,6,,10.0,29.84941,1017.9,,TRUE,TRUE,TRUE,,TRUE,,,,,,,,,,,,,,,,,,,,,,,,METAR,91.0
PANI 242156Z AUTO 15010KT 10SM BKN032 BKN090 12/03 A2990 RMK AO2 SLP119 T01170033 $,PANI,2023-05-24T21:56:00Z,61.58,-159.53,11.7,3.3,150,10,,10.0,29.899607,1011.9,,TRUE,TRUE,TRUE,,,,,,BKN,3200,BKN,9000,,,,,VFR,,,,,,,,,,,,METAR,21.0
PANC 242156Z 06004KT 10SM FEW028 BKN060 BKN200 12/05 A2991 RMK AO2 T01220050,PANC,2023-05-24T21:56:00Z,61.17,-150.02,12.2,5.0,60,4,,10.0,29.911417,,,,TRUE,,,,,,,FEW,2800,BKN,6000,BKN,20000,,,VFR,,,,,,,,,,,,METAR,39.0
PAMO 242156Z AUTO 19005KT 10SM -RA BKN016 OVC028 08/06 A2987 RMK AO2 RAB44 SLP120 P0000 T00830056,PAMO,2023-05-24T21:56:00Z,62.1,-163.68,8.3,5.6,190,5,,10.0,29.870079,1012.0,,TRUE,TRUE,,,,,,-RA,BKN,1600,OVC,2800,,,,,MVFR,,,,,,0.005,,,,,,METAR,93.0
PAMM 242156Z AUTO 23010KT 10SM OVC049 13/03 A3019 RMK AO2 SLP316 T01280033 $,PAMM,2023-05-24T21:56:00Z,55.13,-131.58,12.8,3.3,230,10,,10.0,30.188976,1031.6,,TRUE,TRUE,TRUE,,,,,,OVC,4900,,,,,,,VFR,,,,,,,,,,,,METAR,0.0
PAMK 242156Z AUTO 05007KT 10SM FEW080 11/06 A2988 RMK AO2 SLP119 T01110061,PAMK,2023-05-24T21:56:00Z,63.48,-162.12,11.1,6.1,50,7,,10.0,29.878937,1011.9,,TRUE,TRUE,,,,,,,FEW,8000,,,,,,,VFR,,,,,,,,,,,,METAR,31.0
PAMH 242156Z AUTO 20006KT 10SM SCT120 17/03 A2980 RMK AO2 SLP088 T01670028,PAMH,2023-05-24T21:56:00Z,63.9,-152.28,16.7,2.8,200,6,,10.0,29.799213,1008.8,,TRUE,TRUE,,,,,,,SCT,12000,,,,,,,VFR,,,,,,,,,,,,METAR,200.0
PAMB 242156Z AUTO 06011KT 6SM -RA BR BKN010 OVC018 07/06 A2983 RMK AO2 SLP105 P0004 T00720061 $,PAMB,2023-05-24T21:56:00Z,58.98,-159.05,7.2,6.1,60,11,,6.0,29.828741,1010.5,,TRUE,TRUE,TRUE,,,,,-RA BR,BKN,1000,OVC,1800,,,,,MVFR,,,,,,0.04,,,,,,METAR,28.0
PALG 242156Z AUTO 00000KT 10SM BKN030 OVC060 11/04 A2985 RMK AO2 SLP112 T01060039,PALG,2023-05-24T21:56:00Z,61.53,-160.33,10.6,3.9,0,0,,10.0,29.84941,1011.2,,TRUE,TRUE,,,,,,,BKN,3000,OVC,6000,,,,,MVFR,,,,,,,,,,,,METAR,13.0
PAKP 242156Z AUTO 05017G21KT 10SM SCT025 02/M02 A3000 RMK AO2 SLP201 T00221017 FZRANO,PAKP,2023-05-24T21:56:00Z,68.13,-151.73,2.2,-1.7,50,17,21,10.0,30.0,1020.1,,TRUE,TRUE,,,,TRUE,,,SCT,2500,,,,,,,VFR,,,,,,,,,,,,METAR,649.0
PAKI 242156Z AUTO 7SM OVC002 03/03 A2990 RMK AO2 SLP127 T00330028 $,PAKI,2023-05-24T21:56:00Z,59.93,-164.03,3.3,2.8,,,,7.0,29.899607,1012.7,,TRUE,TRUE,TRUE,,,,,,OVC,200,,,,,,,LIFR,,,,,,,,,,,,METAR,4.0
PAKF 242156Z AUTO 28010G20KT 10SM BKN028 BKN034 07/01 A3005 RMK AO2 RAE00 SLP177 P0000 T00720006,PAKF,2023-05-24T21:56:00Z,54.85,-163.42,7.2,0.6,280,10,20,10.0,30.050198,1017.7,,TRUE,TRUE,,,,,,,BKN,2800,BKN,3400,,,,,MVFR,,,,,,0.005,,,,,,METAR,2.0
PAJZ 242156Z AUTO 06009KT 10SM -RA SCT016 BKN045 OVC050 08/06 A2989 RMK AO2 SLP129 P0000 T00830061 $,PAJZ,2023-05-24T21:56:00Z,59.73,-157.27,8.3,6.1,60,9,,10.0,29.890747,1012.9,,TRUE,TRUE,TRUE,,,,,-RA,SCT,1600,BKN,4500,OVC,5000,,,VFR,,,,,,0.005,,,,,,METAR,80.0
PAIN 242156Z AUTO 19008G16KT 130V210 10SM OVC047 13/02 A2989 RMK AO2 SLP134 T01280017 PNO $,PAIN,2023-05-24T21:56:00Z,63.73,-148.92,12.8,1.7,190,8,16,10.0,29.890747,1013.4,,TRUE,TRUE,TRUE,,,,,,OVC,4700,,,,,,,VFR,,,,,,,,,,,,METAR,525.0
PAIK 242156Z AUTO 10005KT 10SM CLR 12/02 A2997 RMK AO2 SLP149 T01170022,PAIK,2023-05-24T21:56:00Z,66.98,-160.43,11.7,2.2,100,5,,10.0,29.970472,1014.9,,TRUE,TRUE,,,,,,,CLR,,,,,,,,VFR,,,,,,,,,,,,METAR,49.0
PAIG 242156Z AUTO 07010KT 10SM -RA OVC027 04/04 A2983 RMK AO2 RAB2059 SLP110 P0000 T00440039 $,PAIG,2023-05-24T21:56:00Z,59.32,-155.9,4.4,3.9,70,10,,10.0,29.828741,1011.0,,TRUE,TRUE,TRUE,,,,,-RA,OVC,2700,,,,,,,MVFR,,,,,,0.005,,,,,,METAR,24.0
PAHY 242156Z AUTO 20008KT 10SM SCT029 SCT090 14/08 A3017 RMK AO2 SLP213 T01440083 $,PAHY,2023-05-24T21:56:00Z,55.2,-132.83,14.4,8.3,200,8,,10.0,30.171259,1021.3,,TRUE,TRUE,TRUE,,,,,,SCT,2900,SCT,9000,,,,,VFR,,,,,,,,,,,,METAR,0.0
PAHL 242156Z AUTO 01006KT 10SM BKN095 16/06 A2986 RMK AO2 SLP114 T01560056,PAHL,2023-05-24T21:56:00Z,65.7,-156.35,15.6,5.6,10,6,,10.0,29.861221,1011.4,,TRUE,TRUE,,,,,,,BKN,9500,,,,,,,VFR,,,,,,,,,,,,METAR,49.0
PAHC 242156Z AUTO 00000KT 10SM BKN065 OVC075 11/04 A2986 RMK AO2 SLP117 T01060039,PAHC,2023-05-24T21:56:00Z,62.18,-159.78,10.6,3.9,0,0,,10.0,29.861221,1011.7,,TRUE,TRUE,,,,,,,BKN,6500,OVC,7500,,,,,VFR,,,,,,,,,,,,METAR,21.0
PAGN 242156Z AUTO 00000KT 10SM SCT034 OVC044 12/08 A3018 RMK AO2 SLP209 T01220078,PAGN,2023-05-24T21:56:00Z,57.5,-134.58,12.2,7.8,0,0,,10.0,30.180119,1020.9,,TRUE,TRUE,,,,,,,SCT,3400,OVC,4400,,,,,VFR,,,,,,,,,,,,METAR,2.0
PAFM 242156Z AUTO 04013KT 10SM CLR 10/02 A2996 RMK AO2 SLP148 T01000022,PAFM,2023-05-24T21:56:00Z,67.1,-157.85,10.0,2.2,40,13,,10.0,29.958662,1014.8,,TRUE,TRUE,,,,,,,CLR,,,,,,,,VFR,,,,,,,,,,,,METAR,79.0
PAFE 242156Z AUTO 27007KT 10SM OVC033 13/08 A3020 RMK AO2 SLP239 T01280078 $,PAFE,2023-05-24T21:56:00Z,56.97,-133.92,12.8,7.8,270,7,,10.0,30.200787,1023.9,,TRUE,TRUE,TRUE,,,,,,OVC,3300,,,,,,,VFR,,,,,,,,,,,,METAR,1.0
PADM 242156Z AUTO 16003KT 10SM BKN019 BKN027 OVC043 09/06 A2990 RMK AO2 RAE02 SLP129 P0000 T00940056,PADM,2023-05-24T21:56:00Z,61.87,-162.03,9.4,5.6,160,3,,10.0,29.899607,1012.9,,TRUE,TRUE,,,,,,,BKN,1900,BKN,2700,OVC,4300,,,MVFR,,,,,,0.005,,,,,,METAR,17.0
PADL 242156Z VRB05KT 10SM RA FEW012 OVC035 08/07 A2983 RMK AO2 SLP106 P0002 T00780067,PADL,2023-05-24T21:56:00Z,59.05,-158.5,7.8,6.7,0,5,,10.0,29.828741,1010.6,,,TRUE,,,,,,RA,FEW,1200,OVC,3500,,,,,VFR,,,,,,0.02,,,,,,METAR,20.0
PACM 242156Z AUTO 00000KT OVC025 09/06 A2990 RMK AO2 SLP121 T00890061 PWINO $,PACM,2023-05-24T21:56:00Z,61.85,-165.57,8.9,6.1,0,0,,,29.899607,1012.1,,TRUE,TRUE,TRUE,,,,TRUE,,OVC,2500,,,,,,,,,,,,,,,,,,,METAR,3.0
PABV 242156Z AUTO VRB04KT 10SM FEW100 12/06 A2992 RMK AO2 RAB2059E10 SLP139 P0000 T01170056,PABV,2023-05-24T21:56:00Z,61.42,-149.52,11.7,5.6,0,4,,10.0,29.920275,1013.9,,TRUE,TRUE,,,,,,,FEW,10000,,,,,,,VFR,,,,,,0.005,,,,,,METAR,21.0
PABL 242156Z AUTO 34010KT 10SM CLR 09/03 A2994 RMK AO2 SLP139 T00890028,PABL,2023-05-24T21:56:00Z,65.98,-161.15,8.9,2.8,340,10,,10.0,29.940945,1013.9,,TRUE,TRUE,,,,,,,CLR,,,,,,,,VFR,,,,,,,,,,,,METAR,7.0
PAAK 242156Z AUTO 10015KT 3SM -RA BR OVC003 06/06 A2996 RMK AO2 SLP145 P0000 T00560056,PAAK,2023-05-24T21:56:00Z,52.22,-174.2,5.6,5.6,100,15,,3.0,29.958662,1014.5,,TRUE,TRUE,,,,,,-RA BR,OVC,300,,,,,,,LIFR,,,,,,0.005,,,,,,METAR,11.0
MUCC 242156Z 12006KT 9000 BKN018CB 25/24 Q1008,MUCC,2023-05-24T21:56:00Z,22.47,-78.33,25.0,24.0,120,6,,5.59,29.763779,,,,,,,,,,,BKN,1800,,,,,,,MVFR,,,,,,,,,,,,METAR,7.0
KYKN 242156Z AUTO 13008KT 10SM BKN090 29/09 A3002 RMK AO2 SLP171 T02940089,KYKN,2023-05-24T21:56:00Z,42.92,-97.37,29.4,8.9,130,8,,10.0,30.02067,1017.1,,TRUE,TRUE,,,,,,,BKN,9000,,,,,,,VFR,,,,,,,,,,,,METAR,388.0
KY50 242156Z AUTO 08011G16KT 10SM SCT120 17/02 A3029 RMK AO2 SLP253 T01670022 $,KY50,2023-05-24T21:56:00Z,44.03,-89.3,16.7,2.2,80,11,16,10.0,30.28937,1025.3,,TRUE,TRUE,TRUE,,,,,,SCT,12000,,,,,,,VFR,,,,,,,,,,,,METAR,261.0
KWWD 242156Z AUTO 17004KT 10SM CLR 19/08 A2998 RMK AO2 SLP153 T01940083 $,KWWD,2023-05-24T21:56:00Z,39.02,-74.92,19.4,8.3,170,4,,10.0,29.97933,1015.3,,TRUE,TRUE,TRUE,,,,,,CLR,,,,,,,,VFR,,,,,,,,,,,,METAR,4.0
KWMC 242156Z AUTO 03007KT 10SM BKN080 22/04 A2984 RMK AO2 LTG DSNT S SLP074 T02220039,KWMC,2023-05-24T21:56:00Z,40.9,-117.8,22.2,3.9,30,7,,10.0,29.840551,1007.4,,TRUE,TRUE,,,,,,,BKN,8000,,,,,,,VFR,,,,,,,,,,,,METAR,1311.0
KWJF 242156Z 25020KT 10SM CLR 26/05 A2985 RMK AO2 PK WND 25029/2102 SLP096 T02560050,KWJF,2023-05-24T21:56:00Z,34.73,-118.22,25.6,5.0,250,20,,10.0,29.84941,1009.6,,,TRUE,,,,,,,CLR,,,,,,,,VFR,,,,,,,,,,,,METAR,712.0
KVPZ 242156Z AUTO 35011G18KT 10SM CLR 18/11 A3015 RMK AO2 SLP208 T01780106,KVPZ,2023-05-24T21:56:00Z,41.45,-87.0,17.8,10.6,350,11,18,10.0,30.15059,1020.8,,TRUE,TRUE,,,,,,,CLR,,,,,,,,VFR,,,,,,,,,,,,METAR,235.0
KVIS 242156Z AUTO 20010KT 10SM CLR 25/10 A2984 RMK AO2 SLP111 T02500100,KVIS,2023-05-24T21:56:00Z,36.32,-119.4,25.0,10.0,200,10,,10.0,29.840551,1011.1,,TRUE,TRUE,,,,,,,CLR,,,,,,,,VFR,,,,,,,,,,,,METAR,92.0
KVBT 242156Z AUTO 09003KT 10SM OVC060 26/14 A3005 RMK AO2 SLP166 T02610144,KVBT,2023-05-24T21:56:00Z,36.35,-94.22,26.1,14.4,90,3,,10.0,30.050198,1016.6,,TRUE,TRUE,,,,,,,OVC,6000,,,,,,,VFR,,,,,,,,,,,,METAR,390.0
KUKI 242156Z AUTO 13008KT 10SM CLR 27/13 A2981 RMK AO2 SLP086 T02670128,KUKI,2023-05-24T21:56:00Z,39.12,-123.2,26.7,12.8,130,8,,10.0,29.811024,1008.6,,TRUE,TRUE,,,,,,,CLR,,,,,,,,VFR,,,,,,,,,,,,METAR,183.0
KUDG 242156Z AUTO 04010KT 10SM CLR 27/02 A2993 RMK AO2 SLP134 T02720022,KUDG,2023-05-24T21:56:00Z,34.45,-79.88,27.2,2.2,40,10,,10.0,29.929134,1013.4,,TRUE,TRUE,,,,,,,CLR,,,,,,,,VFR,,,,,,,,,,,,METAR,57.0
KUCP 242156Z AUTO 34009KT 10SM CLR 21/11 A3008 RMK AO2 SLP199 T02110106,KUCP,2023-05-24T21:56:00Z,41.03,-80.42,21.1,10.6,340,9,,10.0,30.079725,1019.9,,TRUE,TRUE,,,,,,,CLR,,,,,,,,VFR,,,,,,,,,,,,METAR,313.0
KTVF 242156Z AUTO 11017G23KT 10SM CLR 14/05 A3021 RMK AO2 SLP234 T01440050,KTVF,2023-05-24T21:56:00Z,48.07,-96.17,14.4,5.0,110,17,23,10.0,30.209646,1023.4,,TRUE,TRUE,,,,,,,CLR,,,,,,,,VFR,,,,,,,,,,,,METAR,339.0
KTTS 242156Z AUTO 03003KT 10SM SCT130 SCT160 24/21 A2980 RMK AO2 DZE56 SLP095 $,KTTS,2023-05-24T21:56:00Z,28.58,-80.67,24.0,21.0,30,3,,10.0,29.799213,1009.5,,TRUE,TRUE,TRUE,,,,,,SCT,13000,SCT,16000,,,,,VFR,,,,,,,,,,,,METAR,1.0
KTPH 242156Z AUTO 16014G21KT 10SM SCT090 BKN110 23/03 A2986 RMK AO2 SLPNO T02280028,KTPH,2023-05-24T21:56:00Z,38.05,-117.08,22.8,2.8,160,14,21,10.0,29.861221,,,TRUE,TRUE,,,,,,,SCT,9000,BKN,11000,,,,,VFR,,,,,,,,,,,,METAR,1647.0
KSXT 242156Z AUTO 34005KT 10SM CLR 16/04 A2997 RMK AO2 SLP133 T01560039,KSXT,2023-05-24T21:56:00Z,42.6,-123.37,15.6,3.9,340,5,,10.0,29.970472,1013.3,,TRUE,TRUE,,,,,,,CLR,,,,,,,,VFR,,,,,,,,,,,,SPECI,1151.0
KSUE 242156Z AUTO 07012G19KT 10SM CLR 13/M01 A3034 RMK AO2 SLP278 T01281011,KSUE,2023-05-24T21:56:00Z,44.85,-87.42,12.8,-1.1,70,12,19,10.0,30.339567,1027.8,,TRUE,TRUE,,,,,,,CLR,,,,,,,,VFR,,,,,,,,,,,,METAR,215.0
KSRC 242156Z AUTO 06009KT 10SM FEW050 28/16 A3000 RMK AO2 SLP157 T02830161,KSRC,2023-05-24T21:56:00Z,35.22,-91.73,28.3,16.1,60,9,,10.0,30.0,1015.7,,TRUE,TRUE,,,,,,,FEW,5000,,,,,,,VFR,,,,,,,,,,,,METAR,80.0
KSQI 242156Z AUTO 06016G19KT 10SM CLR 26/12 A3013 RMK AO2 SLP065 T02610117,KSQI,2023-05-24T21:56:00Z,41.75,-89.67,26.1,11.7,60,16,19,10.0,30.129921,1006.5,,TRUE,TRUE,,,,,,,CLR,,,,,,,,VFR,,,,,,,,,,,,METAR,196.0
KSPD 242156Z AUTO 12017KT 18/13 A3002 RMK AO1 SLP117 T01830133,KSPD,2023-05-24T21:56:00Z,37.28,-102.62,18.3,13.3,120,17,,,30.02067,1011.7,,TRUE,TRUE,,,,,,,,,,,,,,,,,,,,,,,,,,,METAR,1340.0
KSOP 242156Z AUTO 04007KT 10SM CLR 24/02 A2997 RMK AO2 SLP151 T02440022,KSOP,2023-05-24T21:56:00Z,35.23,-79.4,24.4,2.2,40,7,,10.0,29.970472,1015.1,,TRUE,TRUE,,,,,,,CLR,,,,,,,,VFR,,,,,,,,,,,,METAR,135.0
KSMP 242156Z AUTO 10SM CLR 13/05 A3004 RMK AO2 SLP171 T01330050,KSMP,2023-05-24T21:56:00Z,47.28,-121.33,13.3,5.0,,,,10.0,30.041338,1017.1,,TRUE,TRUE,,,,,,,CLR,,,,,,,,VFR,,,,,,,,,,,,METAR,1206.0
KSMN 242156Z AUTO 20009KT 10SM RA OVC070 12/09 A2998 RMK AO2 LTG DSNT NE SLP847 P0014 T01220089,KSMN,2023-05-24T21:56:00Z,45.12,-113.87,12.2,8.9,200,9,,10.0,29.97933,984.7,,TRUE,TRUE,,,,,,RA,OVC,7000,,,,,,,VFR,,,,,,0.14,,,,,,METAR,1228.0
KSLG 242156Z AUTO 21004KT 10SM CLR 26/17 A3004 RMK AO2 SLP161 T02560167,KSLG,2023-05-24T21:56:00Z,36.2,-94.48,25.6,16.7,210,4,,10.0,30.041338,1016.1,,TRUE,TRUE,,,,,,,CLR,,,,,,,,VFR,,,,,,,,,,,,METAR,361.0
KSLE 242156Z 35013G18KT 10SM CLR 21/08 A2999 RMK AO2 SLP155 T02110083,KSLE,2023-05-24T21:56:00Z,44.9,-123.0,21.1,8.3,350,13,18,10.0,29.991142,1015.5,,,TRUE,,,,,,,CLR,,,,,,,,VFR,,,,,,,,,,,,METAR,63.0
KSKX 242156Z AUTO 26016G20KT 10SM CLR 23/02 A3009 RMK AO2 LTG DSNT N AND NE SLP131 T02280017,KSKX,2023-05-24T21:56:00Z,36.45,-105.67,22.8,1.7,260,16,20,10.0,30.088583,1013.1,,TRUE,TRUE,,,,,,,CLR,,,,,,,,VFR,,,,,,,,,,,,METAR,2163.0
KSHV 242156Z 05009KT 10SM SCT037 SCT150 BKN250 27/17 A2994 RMK SLPNO,KSHV,2023-05-24T21:56:00Z,32.45,-93.83,27.0,17.0,50,9,,10.0,29.940945,,,,,,,,,,,SCT,3700,SCT,15000,BKN,25000,,,VFR,,,,,,,,,,,,METAR,70.0
KSGU 242156Z AUTO 22020G25KT 10SM CLR 33/M03 A2978 RMK AO2 PK WND 24031/2114 SLP046 T03281028,KSGU,2023-05-24T21:56:00Z,37.03,-113.52,32.8,-2.8,220,20,25,10.0,29.778543,1004.6,,TRUE,TRUE,,,,,,,CLR,,,,,,,,VFR,,,,,,,,,,,,METAR,877.0
KSGT 242156Z AUTO 08008KT 10SM BKN065 28/14 A2998 RMK AO2 SLP151 T02780139,KSGT,2023-05-24T21:56:00Z,34.6,-91.57,27.8,13.9,80,8,,10.0,29.97933,1015.1,,TRUE,TRUE,,,,,,,BKN,6500,,,,,,,VFR,,,,,,,,,,,,METAR,67.0
KSGH 242156Z AUTO 04015G24KT 10SM FEW065 25/12 A3005 RMK AO2 SLP174 T02500122,KSGH,2023-05-24T21:56:00Z,39.83,-83.83,25.0,12.2,40,15,24,10.0,30.050198,1017.4,,TRUE,TRUE,,,,,,,FEW,6500,,,,,,,VFR,,,,,,,,,,,,METAR,318.0
KSFZ 242156Z AUTO VRB03KT 10SM CLR 18/07 A2991 RMK AO2 SLP130 T01780072,KSFZ,2023-05-24T21:56:00Z,41.92,-71.5,17.8,7.2,0,3,,10.0,29.911417,1013.0,,TRUE,TRUE,,,,,,,CLR,,,,,,,,VFR,,,,,,,,,,,,METAR,129.0
KSFO 242156Z 21011KT 10SM FEW015 19/09 A2989 RMK AO2 SLP122 T01890094,KSFO,2023-05-24T21:56:00Z,37.62,-122.37,18.9,9.4,210,11,,10.0,29.890747,1012.2,,,TRUE,,,,,,,FEW,1500,,,,,,,VFR,,,,,,,,,,,,METAR,2.0
KSFM 242156Z AUTO 10004KT 4SM RA BR OVC055 12/11 A2997 RMK AO2 RAE28B46 SLP154 P0002 T01170106,KSFM,2023-05-24T21:56:00Z,43.38,-70.72,11.7,10.6,100,4,,4.0,29.970472,1015.4,,TRUE,TRUE,,,,,,RA BR,OVC,5500,,,,,,,MVFR,,,,,,0.02,,,,,,METAR,70.0
KSDY 242156Z AUTO 17015G18KT 10SM CLR 28/14 A2983 RMK AO2 SLP094 T02830139,KSDY,2023-05-24T21:56:00Z,47.7,-104.2,28.3,13.9,170,15,18,10.0,29.828741,1009.4,,TRUE,TRUE,,,,,,,CLR,,,,,,,,VFR,,,,,,,,,,,,METAR,600.0
KSDF 242156Z 01008KT 10SM SCT100 29/09 A3000 RMK AO2 SLP154 T02890094,KSDF,2023-05-24T21:56:00Z,38.18,-85.73,28.9,9.4,10,8,,10.0,30.0,1015.4,,,TRUE,,,,,,,SCT,10000,,,,,,,VFR,,,,,,,,,,,,METAR,146.0
KRKD 242156Z AUTO 11005KT 10SM OVC009 08/07 A3000 RMK AO2 SLP158 T00830072,KRKD,2023-05-24T21:56:00Z,44.07,-69.1,8.3,7.2,110,5,,10.0,30.0,1015.8,,TRUE,TRUE,,,,,,,OVC,900,,,,,,,IFR,,,,,,,,,,,,METAR,15.0
KRDM 242156Z 01003G18KT 10SM CLR 21/02 A2995 RMK AO2 SLP134 T02110022,KRDM,2023-05-24T21:56:00Z,44.25,-121.15,21.1,2.2,10,3,18,10.0,29.949802,1013.4,,,TRUE,,,,,,,CLR,,,,,,,,VFR,,,,,,,,,,,,METAR,930.0
KPWT 242156Z AUTO 05008KT 10SM CLR 19/10 A3005 RMK AO2 SLP178 T01940100,KPWT,2023-05-24T21:56:00Z,47.5,-122.77,19.4,10.0,50,8,,10.0,30.050198,1017.8,,TRUE,TRUE,,,,,,,CLR,,,,,,,,VFR,,,,,,,,,,,,METAR,143.0
KPWG 242156Z AUTO 06006KT 10SM FEW045 27/18 A2994 RMK AO2 SLP132 T02720183,KPWG,2023-05-24T21:56:00Z,31.48,-97.32,27.2,18.3,60,6,,10.0,29.940945,1013.2,,TRUE,TRUE,,,,,,,FEW,4500,,,,,,,VFR,,,,,,,,,,,,METAR,178.0
KPVU 242156Z 32004KT 10SM CLR 26/05 A2987 RMK AO2 SLP068 T02610050,KPVU,2023-05-24T21:56:00Z,40.22,-111.72,26.1,5.0,320,4,,10.0,29.870079,1006.8,,,TRUE,,,,,,,CLR,,,,,,,,VFR,,,,,,,,,,,,METAR,1370.0
KPVG 242156Z AUTO 10SM CLR 21/07 A2999 RMK AO2 SLP155 T02110067 $,KPVG,2023-05-24T21:56:00Z,36.78,-76.45,21.1,6.7,,,,10.0,29.991142,1015.5,,TRUE,TRUE,TRUE,,,,,,CLR,,,,,,,,VFR,,,,,,,,,,,,METAR,7.0
KPVC 242156Z AUTO 17010G16KT 10SM CLR 14/12 A2992 RMK AO2 SLP131 T01440117,KPVC,2023-05-24T21:56:00Z,42.07,-70.22,14.4,11.7,170,10,16,10.0,29.920275,1013.1,,TRUE,TRUE,,,,,,,CLR,,,,,,,,VFR,,,,,,,,,,,,METAR,1.0
KPTV 242156Z AUTO 29008KT 10SM CLR 26/09 A2985 RMK AO2 SLP105 T02610094,KPTV,2023-05-24T21:56:00Z,36.02,-119.07,26.1,9.4,290,8,,10.0,29.84941,1010.5,,TRUE,TRUE,,,,,,,CLR,,,,,,,,VFR,,,,,,,,,,,,METAR,132.0
KPTN 242156Z AUTO 19003KT 10SM FEW036 26/21 A2988 RMK AO2 LTG DSNT SE TSE35 SLPNO T02560211 $,KPTN,2023-05-24T21:56:00Z,29.72,-91.33,25.6,21.1,190,3,,10.0,29.878937,,,TRUE,TRUE,TRUE,,,,,,FEW,3600,,,,,,,VFR,,,,,,,,,,,,METAR,2.0
KPRX 242156Z AUTO 10011KT 10SM SCT043 28/18 A2996 RMK AO2 SLP141 T02780183,KPRX,2023-05-24T21:56:00Z,33.63,-95.45,27.8,18.3,100,11,,10.0,29.958662,1014.1,,TRUE,TRUE,,,,,,,SCT,4300,,,,,,,VFR,,,,,,,,,,,,METAR,165.0
KPIB 242156Z AUTO 03007KT 10SM OVC039 23/19 A2994 RMK AO2 SLP135 T02280189,KPIB,2023-05-24T21:56:00Z,31.47,-89.33,22.8,18.9,30,7,,10.0,29.940945,1013.5,,TRUE,TRUE,,,,,,,OVC,3900,,,,,,,VFR,,,,,,,,,,,,METAR,91.0
KP60 242156Z AUTO 11004KT 07/04 A3012 RMK AO1 SLP160 T00720039,KP60,2023-05-24T21:56:00Z,44.55,-110.42,7.2,3.9,110,4,,,30.121063,1016.0,,TRUE,TRUE,,,,,,,,,,,,,,,,,,,,,,,,,,,METAR,2377.0
KP53 242156Z AUTO 05011KT 05/02 A3043 RMK AO1 SLP312 T00500017,KP53,2023-05-24T21:56:00Z,46.42,-86.65,5.0,1.7,50,11,,,30.431103,1031.2,,TRUE,TRUE,,,,,,,,,,,,,,,,,,,,,,,,,,,METAR,185.0
KP28 242156Z AUTO 14005KT 26/14 A2999 RMK AO1 SLP142 T02560139 $,KP28,2023-05-24T21:56:00Z,37.28,-98.55,25.6,13.9,140,5,,,29.991142,1014.2,,TRUE,TRUE,TRUE,,,,,,,,,,,,,,,,,,,,,,,,,,METAR,469.0
KOWB 242156Z 01008KT 10SM SCT080 29/12 A3000 RMK AO2 SLP158 T02890117,KOWB,2023-05-24T21:56:00Z,37.72,-87.17,28.9,11.7,10,8,,10.0,30.0,1015.8,,,TRUE,,,,,,,SCT,8000,,,,,,,VFR,,,,,,,,,,,,METAR,121.0
KOTH 242156Z 35020G27KT 10SM CLR 15/10 A3003 RMK AO2 PK WND 35030/2110 SLP169 T01500100,KOTH,2023-05-24T21:56:00Z,43.42,-124.25,15.0,10.0,350,20,27,10.0,30.029528,1016.9,,,TRUE,,,,,,,CLR,,,,,,,,VFR,,,,,,,,,,,,METAR,3.0
KOTG 242156Z AUTO 13015G21KT 10SM CLR 29/06 A3009 RMK AO2 SLP182 T02890056 PNO $,KOTG,2023-05-24T21:56:00Z,43.65,-95.57,28.9,5.6,130,15,21,10.0,30.088583,1018.2,,TRUE,TRUE,TRUE,,,,,,CLR,,,,,,,,VFR,,,,,,,,,,,,METAR,478.0
KOLU 242156Z AUTO 15004KT 10SM FEW090 29/06 A3003 RMK AO2 SLP163 T02890061,KOLU,2023-05-24T21:56:00Z,41.45,-97.33,28.9,6.1,150,4,,10.0,30.029528,1016.3,,TRUE,TRUE,,,,,,,FEW,9000,,,,,,,VFR,,,,,,,,,,,,METAR,438.0
KOKK 242156Z AUTO 04012G18KT 10SM BKN100 27/08 A3007 RMK AO2 SLP179 T02720078 PNO $,KOKK,2023-05-24T21:56:00Z,40.53,-86.07,27.2,7.8,40,12,18,10.0,30.070866,1017.9,,TRUE,TRUE,TRUE,,,,,,BKN,10000,,,,,,,VFR,,,,,,,,,,,,METAR,251.0
KOFK 242156Z AUTO 13009KT 10SM 29/07 A3003 RMK AO2 SLP160 T02940067,KOFK,2023-05-24T21:56:00Z,41.98,-97.43,29.4,6.7,130,9,,10.0,30.029528,1016.0,,TRUE,TRUE,,,,,,,,,,,,,,,,,,,,,,,,,,,METAR,476.0
KOCH 242156Z AUTO 07005KT 10SM BKN036 BKN046 28/20 A2992 RMK AO2 LTG DSNT S SLP135 T02780200,KOCH,2023-05-24T21:56:00Z,31.57,-94.72,27.8,20.0,70,5,,10.0,29.920275,1013.5,,TRUE,TRUE,,,,,,,BKN,3600,BKN,4600,,,,,VFR,,,,,,,,,,,,METAR,105.0
KOAJ 242156Z 03010KT 10SM OVC070 20/12 A2995 RMK AO2 SLPNO T02000122,KOAJ,2023-05-24T21:56:00Z,34.82,-77.62,20.0,12.2,30,10,,10.0,29.949802,,,,TRUE,,,,,,,OVC,7000,,,,,,,VFR,,,,,,,,,,,,METAR,26.0
KNYG 242156Z AUTO 18007KT 7SM CLR 24/16 A2998 RMK AO2 SLP153 T02390156 $,KNYG,2023-05-24T21:56:00Z,38.5,-77.3,23.9,15.6,180,7,,7.0,29.97933,1015.3,,TRUE,TRUE,TRUE,,,,,,CLR,,,,,,,,VFR,,,,,,,,,,,,METAR,2.0
KNXP 242156Z AUTO 20025G35KT 10SM CLR 33/M03 A2983 RMK AO2 PK WND 19035/2151 SLP066 T03281028,KNXP,2023-05-24T21:56:00Z,34.28,-116.13,32.8,-2.8,200,25,35,10.0,29.828741,1006.6,,TRUE,TRUE,,,,,,,CLR,,,,,,,,VFR,,,,,,,,,,,,METAR,610.0
KNXF 242156Z AUTO 23005KT 10SM OVC031 18/11 A2995 RMK AO2 SLP227 T01780111 $,KNXF,2023-05-24T21:56:00Z,33.28,-117.45,17.8,11.1,230,5,,10.0,29.949802,1022.7,,TRUE,TRUE,TRUE,,,,,,OVC,3100,,,,,,,VFR,,,,,,,,,,,,METAR,28.0
KNUC 242156Z 30012KT 10SM FEW014 BKN030 17/10 A2997 RMK AO2 SLP146 T01670100 $,KNUC,2023-05-24T21:56:00Z,33.02,-118.57,16.7,10.0,300,12,,10.0,29.970472,1014.6,,,TRUE,TRUE,,,,,,FEW,1400,BKN,3000,,,,,MVFR,,,,,,,,,,,,METAR,52.0
KNTU 242156Z 03010G18KT 10SM FEW110 BKN200 20/07 A2996 RMK AO2 SLP149 T02000072,KNTU,2023-05-24T21:56:00Z,36.82,-76.02,20.0,7.2,30,10,18,10.0,29.958662,1014.9,,,TRUE,,,,,,,FEW,11000,BKN,20000,,,,,VFR,,,,,,,,,,,,METAR,6.0
KNSE 242156Z 13006G15KT 10SM SCT025CB BKN035 BKN100 BKN250 22/19 A2987 RMK AO2 SLP099 TSB08E50 CB S MOV W T1 SET T02170189 $,KNSE,2023-05-24T21:56:00Z,30.73,-87.02,21.7,18.9,130,6,15,10.0,29.870079,1009.9,,,TRUE,TRUE,,,,,,SCT,2500,BKN,3500,BKN,10000,BKN,25000,VFR,,,,,,,,,,,,METAR,56.0
KNQI 242156Z 13012KT 10SM SCT046 SCT070 33/22 A2986 RMK AO2 SLP107 T03280222 $,KNQI,2023-05-24T21:56:00Z,27.5,-97.82,32.8,22.2,130,12,,10.0,29.861221,1010.7,,,TRUE,TRUE,,,,,,SCT,4600,SCT,7000,,,,,VFR,,,,,,,,,,,,METAR,15.0
KNOG 242156Z AUTO 10011KT 10SM CLR 32/21 A2987 RMK AO2 SLP094 T03220206 TSNO $,KNOG,2023-05-24T21:56:00Z,27.9,-98.05,32.2,20.6,100,11,,10.0,29.870079,1009.4,,TRUE,TRUE,TRUE,,TRUE,,,,CLR,,,,,,,,VFR,,,,,,,,,,,,METAR,72.0
KNLC 242156Z COR 19006KT 10SM FEW038 27/09 A2983 RMK AO2 SLP101 RH/31 T02670089,KNLC,2023-05-24T21:56:00Z,36.32,-119.95,26.7,8.9,190,6,,10.0,29.828741,1010.1,TRUE,,TRUE,,,,,,,FEW,3800,,,,,,,VFR,,,,,,,,,,,,METAR,69.0
KNKT 242156Z 01015KT 10SM OVC070 21/13 A2993 RMK AO2 SLP132 T02110133 $,KNKT,2023-05-24T21:56:00Z,34.9,-76.88,21.1,13.3,10,15,,10.0,29.929134,1013.2,,,TRUE,TRUE,,,,,,OVC,7000,,,,,,,VFR,,,,,,,,,,,,METAR,8.0
KNJK 242156Z 13008G15KT 10SM FEW060 36/11 A2970 RMK AO2 SLP074 T03610106 $,KNJK,2023-05-24T21:56:00Z,32.82,-115.67,36.1,10.6,130,8,15,10.0,29.698818,1007.4,,,TRUE,TRUE,,,,,,FEW,6000,,,,,,,VFR,,,,,,,,,,,,SPECI,-15.0
KNID 242156Z 15015G24KT 10SM FEW250 31/M03 A2975 RMK AO2 PK WND 17028/2139 SLP053 T03111028 $,KNID,2023-05-24T21:56:00Z,35.68,-117.68,31.1,-2.8,150,15,24,10.0,29.749016,1005.3,,,TRUE,TRUE,,,,,,FEW,25000,,,,,,,VFR,,,,,,,,,,,,SPECI,682.0
KNGP 242156Z 09012KT 10SM FEW035 31/22 A2988 RMK AO2 SLP117 T03060217,KNGP,2023-05-24T21:56:00Z,27.68,-97.28,30.6,21.7,90,12,,10.0,29.878937,1011.7,,,TRUE,,,,,,,FEW,3500,,,,,,,VFR,,,,,,,,,,,,METAR,5.0
KNFL 242156Z 00000KT 10SM SCT070 SCT100 BKN150 BKN200 23/02 A2983 RMK AO2 SLP078 CB DSNT ALQDS T02280017,KNFL,2023-05-24T21:56:00Z,39.42,-118.7,22.8,1.7,0,0,,10.0,29.828741,1007.8,,,TRUE,,,,,,,SCT,7000,SCT,10000,BKN,15000,BKN,20000,VFR,,,,,,,,,,,,METAR,1199.0
KNFE 242156Z AUTO 04008KT 10SM FEW120 23/04 A2997 RMK AO2 SLP149 T02280039,KNFE,2023-05-24T21:56:00Z,36.7,-76.13,22.8,3.9,40,8,,10.0,29.970472,1014.9,,TRUE,TRUE,,,,,,,FEW,12000,,,,,,,VFR,,,,,,,,,,,,METAR,4.0
KNDZ 242156Z 16012G16KT 10SM TS BKN026CB BKN060 OVC100 22/19 A2987 RMK AO2 TSB45 SLP099 OCNL LTGICCC VC S TS S MOV W T1 SET T02170189 $,KNDZ,2023-05-24T21:56:00Z,30.7,-87.02,21.7,18.9,160,12,16,10.0,29.870079,1009.9,,,TRUE,TRUE,,,,,TS,BKN,2600,BKN,6000,OVC,10000,,,MVFR,,,,,,,,,,,,SPECI,51.0
KNCA 242156Z 36011KT 10SM FEW050 OVC065 21/12 A2993 RMK AO2 SLP136 T02060122,KNCA,2023-05-24T21:56:00Z,34.72,-77.45,20.6,12.2,360,11,,10.0,29.929134,1013.6,,,TRUE,,,,,,,FEW,5000,OVC,6500,,,,,VFR,,,,,,,,,,,,METAR,9.0
KNBC 242156Z 36007KT 10SM FEW060 SCT120 27/11 A2989 RMK AO2 SLP123 T02720111,KNBC,2023-05-24T21:56:00Z,32.47,-80.72,27.2,11.1,360,7,,10.0,29.890747,1012.3,,,TRUE,,,,,,,FEW,6000,SCT,12000,,,,,VFR,,,,,,,,,,,,METAR,9.0
KMYR 242156Z 16006KT 10SM CLR 24/15 A2990 RMK AO2 SLP123 T02440150,KMYR,2023-05-24T21:56:00Z,33.68,-78.92,24.4,15.0,160,6,,10.0,29.899607,1012.3,,,TRUE,,,,,,,CLR,,,,,,,,VFR,,,,,,,,,,,,METAR,7.0
KMVN 242156Z AUTO 05007KT 10SM CLR 29/11 A3003 RMK AO2 SLP169 T02890111,KMVN,2023-05-24T21:56:00Z,38.32,-88.87,28.9,11.1,50,7,,10.0,30.029528,1016.9,,TRUE,TRUE,,,,,,,CLR,,,,,,,,VFR,,,,,,,,,,,,METAR,145.0
KMTW 242156Z AUTO 03012G19KT 10SM CLR 13/M07 A3031 RMK AO2 SLP265 T01331067,KMTW,2023-05-24T21:56:00Z,44.12,-87.67,13.3,-6.7,30,12,19,10.0,30.31004,1026.5,,TRUE,TRUE,,,,,,,CLR,,,,,,,,VFR,,,,,,,,,,,,METAR,197.0
KMTC 242156Z 03018G25KT 10SM SCT150 BKN250 14/M02 A3022 RMK AO2A PK WND 36028/09 SLP239 T01401020,KMTC,2023-05-24T21:56:00Z,42.62,-82.83,14.0,-2.0,30,18,25,10.0,30.221457,1023.9,,,TRUE,,,,,,,SCT,15000,BKN,25000,,,,,VFR,,,,,,,,,,,,SPECI,177.0
KMSV 242156Z AUTO 34010G23KT 10SM BKN065 OVC085 15/08 A3002 RMK AO2 PK WND 34026/2121 SLP168 T01500078,KMSV,2023-05-24T21:56:00Z,41.7,-74.78,15.0,7.8,340,10,23,10.0,30.02067,1016.8,,TRUE,TRUE,,,,,,,BKN,6500,OVC,8500,,,,,VFR,,,,,,,,,,,,METAR,427.0
KMQY 242156Z 03013KT 10SM CLR 29/13 A2998 RMK AO2 SLP154 T02890128,KMQY,2023-05-24T21:56:00Z,36.02,-86.52,28.9,12.8,30,13,,10.0,29.97933,1015.4,,,TRUE,,,,,,,CLR,,,,,,,,VFR,,,,,,,,,,,,METAR,156.0
KMOB 242156Z 01007KT 7SM BKN025 BKN042 27/18 A2988 RMK AO2 SLP115 T02670183,KMOB,2023-05-24T21:56:00Z,30.68,-88.25,26.7,18.3,10,7,,7.0,29.878937,1011.5,,,TRUE,,,,,,,BKN,2500,BKN,4200,,,,,MVFR,,,,,,,,,,,,METAR,67.0
KMKY 242156Z AUTO 29008KT 10SM CLR 30/21 A2978 RMK AO2 SLP083 T03000211 TSNO PNO $,KMKY,2023-05-24T21:56:00Z,26.0,-81.67,30.0,21.1,290,8,,10.0,29.778543,1008.3,,TRUE,TRUE,TRUE,,TRUE,,,,CLR,,,,,,,,VFR,,,,,,,,,,,,METAR,2.0
KMKT 242156Z AUTO 08014KT 10SM SCT085 27/10 A3012 RMK AO2 SLP196 T02670100,KMKT,2023-05-24T21:56:00Z,44.22,-93.92,26.7,10.0,80,14,,10.0,30.121063,1019.6,,TRUE,TRUE,,,,,,,SCT,8500,,,,,,,VFR,,,,,,,,,,,,METAR,309.0
KMHS 242156Z AUTO 00000KT 10SM CLR 25/01 A2986 RMK AO2 SLP108 T02500006,KMHS,2023-05-24T21:56:00Z,41.32,-122.32,25.0,0.6,0,0,,10.0,29.861221,1010.8,,TRUE,TRUE,,,,,,,CLR,,,,,,,,VFR,,,,,,,,,,,,METAR,1080.0
KMEH 242156Z AUTO 10SM CLR 17/00 A2998 RMK AO2 SLP155 T01720000,KMEH,2023-05-24T21:56:00Z,45.52,-118.42,17.2,0.0,,,,10.0,29.97933,1015.5,,TRUE,TRUE,,,,,,,CLR,,,,,,,,VFR,,,,,,,,,,,,METAR,1138.0
KMDT 242156Z 26006KT 10SM SCT085 OVC220 27/11 A2992 RMK AO2 SLP131 T02670106 $,KMDT,2023-05-24T21:56:00Z,40.2,-76.77,26.7,10.6,260,6,,10.0,29.920275,1013.1,,,TRUE,TRUE,,,,,,SCT,8500,OVC,22000,,,,,VFR,,,,,,,,,,,,METAR,91.0
KMBL 242156Z AUTO 03013KT 10SM CLR 19/01 A3025 RMK AO2 SLP245 T01890011,KMBL,2023-05-24T21:56:00Z,44.27,-86.25,18.9,1.1,30,13,,10.0,30.250984,1024.5,,TRUE,TRUE,,,,,,,CLR,,,,,,,,VFR,,,,,,,,,,,,METAR,187.0
KM19 242156Z AUTO 10007KT 10SM CLR 29/14 A2999 RMK AO2 SLP154 T02890139 PNO $,KM19,2023-05-24T21:56:00Z,35.65,-91.17,28.9,13.9,100,7,,10.0,29.991142,1015.4,,TRUE,TRUE,TRUE,,,,,,CLR,,,,,,,,VFR,,,,,,,,,,,,METAR,72.0
KLZU 242156Z 06003KT 10SM FEW065 24/12 A2996 RMK AO2 SLP149 T02390122 $,KLZU,2023-05-24T21:56:00Z,33.98,-83.97,23.9,12.2,60,3,,10.0,29.958662,1014.9,,,TRUE,TRUE,,,,,,FEW,6500,,,,,,,VFR,,,,,,,,,,,,METAR,316.0
KLWS 242156Z VRB05KT 10SM CLR 23/03 A2991 RMK AO2 SLP122 T02280033,KLWS,2023-05-24T21:56:00Z,46.37,-117.02,22.8,3.3,0,5,,10.0,29.911417,1012.2,,,TRUE,,,,,,,CLR,,,,,,,,VFR,,,,,,,,,,,,METAR,435.0
KLRD 242156Z 12011KT 10SM FEW065 35/19 A2983 RMK AO2 SLP095 T03500189,KLRD,2023-05-24T21:56:00Z,27.55,-99.47,35.0,18.9,120,11,,10.0,29.828741,1009.5,,,TRUE,,,,,,,FEW,6500,,,,,,,VFR,,,,,,,,,,,,METAR,150.0
KLNR 242156Z AUTO 07015KT 10SM CLR 22/07 A3021 RMK AO2 SLP225 T02220067,KLNR,2023-05-24T21:56:00Z,43.22,-90.18,22.2,6.7,70,15,,10.0,30.209646,1022.5,,TRUE,TRUE,,,,,,,CLR,,,,,,,,VFR,,,,,,,,,,,,METAR,218.0
KLGD 242156Z AUTO 31006G15KT 10SM CLR 22/M01 A2992 RMK AO2 SLP125 T02171006,KLGD,2023-05-24T21:56:00Z,45.28,-118.0,21.7,-0.6,310,6,15,10.0,29.920275,1012.5,,TRUE,TRUE,,,,,,,CLR,,,,,,,,VFR,,,,,,,,,,,,METAR,827.0
KLCI 242156Z AUTO 26007KT 210V350 10SM -RA FEW012 OVC038 12/11 A2999 RMK AO2 SLP159 P0001 T01220106,KLCI,2023-05-24T21:56:00Z,43.57,-71.42,12.2,10.6,260,7,,10.0,29.991142,1015.9,,TRUE,TRUE,,,,,,-RA,FEW,1200,OVC,3800,,,,,VFR,,,,,,0.01,,,,,,METAR,166.0
KLBT 242156Z AUTO 02009G17KT 10SM CLR 27/05 A2992 RMK AO2 SLP131 T02670050,KLBT,2023-05-24T21:56:00Z,34.6,-79.07,26.7,5.0,20,9,17,10.0,29.920275,1013.1,,TRUE,TRUE,,,,,,,CLR,,,,,,,,VFR,,,,,,,,,,,,METAR,37.0
KLAS 242156Z 18011G19KT 10SM FEW130 FEW220 33/M07 A2972 RMK AO2 PK WND 23026/2142 SLP038 T03331067,KLAS,2023-05-24T21:56:00Z,36.07,-115.17,33.3,-6.7,180,11,19,10.0,29.719488,1003.8,,,TRUE,,,,,,,FEW,13000,FEW,22000,,,,,VFR,,,,,,,,,,,,METAR,662.0
KKLS 242156Z AUTO 34011KT CLR 22/08 A3002 RMK AO2 SLP169 T02220078 PWINO $,KKLS,2023-05-24T21:56:00Z,46.12,-122.9,22.2,7.8,340,11,,,30.02067,1016.9,,TRUE,TRUE,TRUE,,,,TRUE,,CLR,,,,,,,,,,,,,,,,,,,,METAR,4.0
KJXN 242156Z 03013G22KT 10SM CLR 16/02 A3021 RMK AO2 SLP233 T01610022,KJXN,2023-05-24T21:56:00Z,42.27,-84.47,16.1,2.2,30,13,22,10.0,30.209646,1023.3,,,TRUE,,,,,,,CLR,,,,,,,,VFR,,,,,,,,,,,,METAR,303.0
KJRB 242156Z AUTO 19005KT 10SM CLR 20/06 A2994 RMK AO2 SLP138 T02000061,KJRB,2023-05-24T21:56:00Z,40.7,-74.02,20.0,6.1,190,5,,10.0,29.940945,1013.8,,TRUE,TRUE,,,,,,,CLR,,,,,,,,VFR,,,,,,,,,,,,METAR,2.0
KJMS 242156Z AUTO 11017G27KT 10SM FEW080 27/12 A3003 RMK AO2 PK WND 11028/2110 SLP164 T02670122,KJMS,2023-05-24T21:56:00Z,46.93,-98.67,26.7,12.2,110,17,27,10.0,30.029528,1016.4,,TRUE,TRUE,,,,,,,FEW,8000,,,,,,,VFR,,,,,,,,,,,,METAR,455.0
KJKA 242156Z 03004KT 10SM FEW030 BKN085 BKN110 23/21 A2985,KJKA,2023-05-24T21:56:00Z,30.28,-87.67,23.0,21.0,30,4,,10.0,29.84941,,,,,,,,,,,FEW,3000,BKN,8500,BKN,11000,,,VFR,,,,,,,,,,,,METAR,5.0
KJHW 242156Z AUTO 36011KT 10SM OVC021 13/08 A3015 RMK AO2 SLP216 T01330083 PNO $,KJHW,2023-05-24T21:56:00Z,42.15,-79.27,13.3,8.3,360,11,,10.0,30.15059,1021.6,,TRUE,TRUE,TRUE,,,,,,OVC,2100,,,,,,,MVFR,,,,,,,,,,,,METAR,520.0
KJAX 242156Z 05015KT 10SM FEW030 FEW065 SCT110 BKN250 25/13 A2987 RMK AO2 SLP116 T02500133,KJAX,2023-05-24T21:56:00Z,30.5,-81.68,25.0,13.3,50,15,,10.0,29.870079,1011.6,,,TRUE,,,,,,,FEW,3000,FEW,6500,SCT,11000,BKN,25000,VFR,,,,,,,,,,,,METAR,8.0
KJAC 242156Z 18005KT 10SM CLR 17/07 A3001 RMK AO2 LTG DSNT W RAE00B19E30 SLP126 T01670072 PNO $,KJAC,2023-05-24T21:56:00Z,43.62,-110.73,16.7,7.2,180,5,,10.0,30.008858,1012.6,,,TRUE,TRUE,,,,,,CLR,,,,,,,,VFR,,,,,,,,,,,,METAR,1967.0
KIWD 242156Z AUTO 36009KT 10SM CLR 14/03 A3033 RMK AO2 SLP278 T01390028,KIWD,2023-05-24T21:56:00Z,46.52,-90.12,13.9,2.8,360,9,,10.0,30.33071,1027.8,,TRUE,TRUE,,,,,,,CLR,,,,,,,,VFR,,,,,,,,,,,,METAR,373.0
KITH 242156Z 33012G16KT 8SM OVC012 12/09 A3013 RMK AO2 SLP203 T01170089,KITH,2023-05-24T21:56:00Z,42.48,-76.45,11.7,8.9,330,12,16,8.0,30.129921,1020.3,,,TRUE,,,,,,,OVC,1200,,,,,,,MVFR,,,,,,,,,,,,METAR,338.0
KISP 242156Z 18008KT 10SM FEW100 BKN250 17/M01 A2992 RMK AO2 SLP133 FU BKN250 T01721006,KISP,2023-05-24T21:56:00Z,40.8,-73.1,17.2,-0.6,180,8,,10.0,29.920275,1013.3,,,TRUE,,,,,,,FEW,10000,BKN,25000,,,,,VFR,,,,,,,,,,,,METAR,25.0
KISO 242156Z 04009KT 10SM SCT050 BKN090 BKN110 22/10 A2995,KISO,2023-05-24T21:56:00Z,35.32,-77.62,22.0,10.0,40,9,,10.0,29.949802,,,,,,,,,,,SCT,5000,BKN,9000,BKN,11000,,,VFR,,,,,,,,,,,,METAR,27.0
KISM 242156Z 36004KT 9SM RA SCT014 BKN070 OVC090 24/22 A2985 RMK AO2 TSB2058E13RAE00B23 SLP106 T02390217 PNO $,KISM,2023-05-24T21:56:00Z,28.28,-81.43,23.9,21.7,360,4,,9.0,29.84941,1010.6,,,TRUE,TRUE,,,,,RA,SCT,1400,BKN,7000,OVC,9000,,,VFR,,,,,,,,,,,,METAR,25.0
KINW 242156Z AUTO 24008G20KT 10SM CLR 29/M03 A2995 RMK AO2 SLP074 T02941033,KINW,2023-05-24T21:56:00Z,35.03,-110.72,29.4,-3.3,240,8,20,10.0,29.949802,1007.4,,TRUE,TRUE,,,,,,,CLR,,,,,,,,VFR,,,,,,,,,,,,METAR,1492.0
KILE 242156Z AUTO 09003KT 10SM BKN040 OVC049 26/19 A2994 RMK AO2 SLP130 T02610189,KILE,2023-05-24T21:56:00Z,31.08,-97.68,26.1,18.9,90,3,,10.0,29.940945,1013.0,,TRUE,TRUE,,,,,,,BKN,4000,OVC,4900,,,,,VFR,,,,,,,,,,,,METAR,256.0
KHYS 242156Z AUTO 12009KT 10SM SCT060 BKN100 26/12 A3002 RMK AO2 SLP154 T02610122 $,KHYS,2023-05-24T21:56:00Z,38.85,-99.27,26.1,12.2,120,9,,10.0,30.02067,1015.4,,TRUE,TRUE,TRUE,,,,,,SCT,6000,BKN,10000,,,,,VFR,,,,,,,,,,,,METAR,607.0
KHYI 242156Z 01010G16KT 10SM CLR 27/18 A2994 RMK AO2 SLP128 T02720178,KHYI,2023-05-24T21:56:00Z,29.88,-97.87,27.2,17.8,10,10,16,10.0,29.940945,1012.8,,,TRUE,,,,,,,CLR,,,,,,,,VFR,,,,,,,,,,,,METAR,180.0
KHYA 242156Z 18005KT 2SM BR OVC004 12/11 A2992 RMK AO2 CIG 002V006 SLP133 T01220111,KHYA,2023-05-24T21:56:00Z,41.67,-70.27,12.2,11.1,180,5,,2.0,29.920275,1013.3,,,TRUE,,,,,,BR,OVC,400,,,,,,,LIFR,,,,,,,,,,,,METAR,11.0
KHWV 242156Z AUTO 21008KT 10SM CLR 17/01 A2994 RMK AO2 SLP138 T01720011,KHWV,2023-05-24T21:56:00Z,40.82,-72.87,17.2,1.1,210,8,,10.0,29.940945,1013.8,,TRUE,TRUE,,,,,,,CLR,,,,,,,,VFR,,,,,,,,,,,,METAR,20.0
KHPN 242156Z 17006KT 10SM -DZ SCT080 BKN110 21/08 A2991 RMK AO2 DZB54 SLP126 P0000 T02060078,KHPN,2023-05-24T21:56:00Z,41.07,-73.7,20.6,7.8,170,6,,10.0,29.911417,1012.6,,,TRUE,,,,,,-DZ,SCT,8000,BKN,11000,,,,,VFR,,,,,,0.005,,,,,,METAR,113.0
KHNB 242156Z AUTO 03009KT 10SM CLR 28/11 A3002 RMK AO2 SLP163 T02780111,KHNB,2023-05-24T21:56:00Z,38.25,-86.95,27.8,11.1,30,9,,10.0,30.02067,1016.3,,TRUE,TRUE,,,,,,,CLR,,,,,,,,VFR,,,,,,,,,,,,METAR,159.0
KHEZ 242156Z AUTO 04007KT 10SM FEW024 OVC041 23/18 A2994 RMK AO2 SLP137 T02330178,KHEZ,2023-05-24T21:56:00Z,31.62,-91.3,23.3,17.8,40,7,,10.0,29.940945,1013.7,,TRUE,TRUE,,,,,,,FEW,2400,OVC,4100,,,,,VFR,,,,,,,,,,,,METAR,82.0
KHEF 242156Z 16003KT 10SM FEW075 26/11 A2998 RMK AO2 SLP156 T02610111,KHEF,2023-05-24T21:56:00Z,38.72,-77.52,26.1,11.1,160,3,,10.0,29.97933,1015.6,,,TRUE,,,,,,,FEW,7500,,,,,,,VFR,,,,,,,,,,,,METAR,53.0
KHDN 242156Z AUTO 07010KT 10SM CLR 22/04 A3003 RMK AO2 SLP106 T02170044,KHDN,2023-05-24T21:56:00Z,40.48,-107.22,21.7,4.4,70,10,,10.0,30.029528,1010.6,,TRUE,TRUE,,,,,,,CLR,,,,,,,,VFR,,,,,,,,,,,,METAR,2012.0
KGXY 242156Z AUTO 9SM TS SCT037 21/11 RMK AO2 LTG DSNT ALQDS TSB02E18B41 SLPNO T02060106 $,KGXY,2023-05-24T21:56:00Z,40.43,-104.62,20.6,10.6,,,,9.0,,,,TRUE,TRUE,TRUE,,,,,TS,SCT,3700,,,,,,,VFR,,,,,,,,,,,,METAR,1420.0
KGVQ 242156Z AUTO 02013G16KT 10SM SCT031 13/06 A3018 RMK AO2 SLP217 T01280056,KGVQ,2023-05-24T21:56:00Z,43.03,-78.17,12.8,5.6,20,13,16,10.0,30.180119,1021.7,,TRUE,TRUE,,,,,,,SCT,3100,,,,,,,VFR,,,,,,,,,,,,METAR,279.0
KGUC 242156Z AUTO VRB03KT 10SM CLR 13/04 A3019 RMK AO2 WSHFT 2043 RAE21 SLP174 P0000 T01280039,KGUC,2023-05-24T21:56:00Z,38.52,-106.93,12.8,3.9,0,3,,10.0,30.188976,1017.4,,TRUE,TRUE,,,,,,,CLR,,,,,,,,VFR,,,,,,0.005,,,,,,METAR,2337.0
KGTU 242156Z 36009KT 10SM CLR 27/17 A2995 RMK AO2 SLP137 T02720172,KGTU,2023-05-24T21:56:00Z,30.68,-97.68,27.2,17.2,360,9,,10.0,29.949802,1013.7,,,TRUE,,,,,,,CLR,,,,,,,,VFR,,,,,,,,,,,,METAR,232.0
KGTR 242156Z 06011KT 10SM FEW050 27/16 A2995 RMK AO2 SLP148 T02720161,KGTR,2023-05-24T21:56:00Z,33.45,-88.58,27.2,16.1,60,11,,10.0,29.949802,1014.8,,,TRUE,,,,,,,FEW,5000,,,,,,,VFR,,,,,,,,,,,,SPECI,80.0
KGRD 242156Z AUTO 01010KT 10SM CLR 24/07 A2997 RMK AO2 SLP143 T02390067,KGRD,2023-05-24T21:56:00Z,34.25,-82.15,23.9,6.7,10,10,,10.0,29.970472,1014.3,,TRUE,TRUE,,,,,,,CLR,,,,,,,,VFR,,,,,,,,,,,,METAR,188.0
KGPZ 242156Z AUTO 14009G14KT 090V190 10SM SCT075 12/01 A3032 RMK AO2 SLP276 T01220006,KGPZ,2023-05-24T21:56:00Z,47.22,-93.52,12.2,0.6,140,9,14,10.0,30.318897,1027.6,,TRUE,TRUE,,,,,,,SCT,7500,,,,,,,VFR,,,,,,,,,,,,METAR,410.0
KGON 242156Z 17005KT 10SM CLR 16/09 A2993 RMK AO2 SLP133 T01560089,KGON,2023-05-24T21:56:00Z,41.33,-72.05,15.6,8.9,170,5,,10.0,29.929134,1013.3,,,TRUE,,,,,,,CLR,,,,,,,,VFR,,,,,,,,,,,,METAR,2.0
KGNR 242156Z AUTO 29003KT 09/08 A2996 RMK AO1 SLP154 P0009 T00940083,KGNR,2023-05-24T21:56:00Z,45.47,-69.55,9.4,8.3,290,3,,,29.958662,1015.4,,TRUE,TRUE,,,,,,,,,,,,,,,,,,,,,0.09,,,,,,METAR,426.0
KGNA 242156Z AUTO 08007KT 05/M01 A3044 RMK AO1 SLP314 T00501011,KGNA,2023-05-24T21:56:00Z,47.75,-90.35,5.0,-1.1,80,7,,,30.43996,1031.4,,TRUE,TRUE,,,,,,,,,,,,,,,,,,,,,,,,,,,METAR,186.0
KGDV 242156Z AUTO 15014G20KT 10SM CLR 28/13 A2983 RMK AO2 SLP082 T02780133 TSNO,KGDV,2023-05-24T21:56:00Z,47.13,-104.8,27.8,13.3,150,14,20,10.0,29.828741,1008.2,,TRUE,TRUE,,,TRUE,,,,CLR,,,,,,,,VFR,,,,,,,,,,,,METAR,749.0
KGBD 242156Z AUTO 14008KT 10SM FEW060 26/14 A3002 RMK AO2 SLP153 T02560139,KGBD,2023-05-24T21:56:00Z,38.35,-98.87,25.6,13.9,140,8,,10.0,30.02067,1015.3,,TRUE,TRUE,,,,,,,FEW,6000,,,,,,,VFR,,,,,,,,,,,,SPECI,573.0
KGAI 242156Z AUTO 28006KT 10SM FEW075 26/10 A2998 RMK AO2 SLP164 T02560100,KGAI,2023-05-24T21:56:00Z,39.17,-77.17,25.6,10.0,280,6,,10.0,29.97933,1016.4,,TRUE,TRUE,,,,,,,FEW,7500,,,,,,,VFR,,,,,,,,,,,,METAR,151.0
KGAD 242156Z AUTO 00000KT 10SM CLR 25/14 A2996 RMK AO2 SLP145 T02500144 PNO $,KGAD,2023-05-24T21:56:00Z,33.97,-86.08,25.0,14.4,0,0,,10.0,29.958662,1014.5,,TRUE,TRUE,TRUE,,,,,,CLR,,,,,,,,VFR,,,,,,,,,,,,SPECI,169.0
KFSD 242156Z 15015G20KT 10SM SCT090 30/08 A3004 RMK AO2 SLP165 T03000083,KFSD,2023-05-24T21:56:00Z,43.58,-96.75,30.0,8.3,150,15,20,10.0,30.041338,1016.5,,,TRUE,,,,,,,SCT,9000,,,,,,,VFR,,,,,,,,,,,,METAR,433.0
KFOD 242156Z AUTO 16007KT 10SM CLR 29/08 A3007 RMK AO2 SLP190 T02940078,KFOD,2023-05-24T21:56:00Z,42.53,-94.17,29.4,7.8,160,7,,10.0,30.070866,1019.0,,TRUE,TRUE,,,,,,,CLR,,,,,,,,VFR,,,,,,,,,,,,METAR,347.0
KFNL 242156Z 21009KT 10SM CLR 19/11 A3001 RMK AO2 LTG DSNT ALQDS SLP120 T01890111,KFNL,2023-05-24T21:56:00Z,40.45,-105.02,18.9,11.1,210,9,,10.0,30.008858,1012.0,,,TRUE,,,,,,,CLR,,,,,,,,VFR,,,,,,,,,,,,METAR,1529.0
KFMH 242156Z 19008KT 8SM CLR 15/11 A2993,KFMH,2023-05-24T21:56:00Z,41.65,-70.52,15.0,11.0,190,8,,8.0,29.929134,,,,,,,,,,,CLR,,,,,,,,VFR,,,,,,,,,,,,METAR,35.0
KFLP 242156Z AUTO 12005KT 10SM FEW075 27/15 A3002 RMK AO2 SLPNO T02720150,KFLP,2023-05-24T21:56:00Z,36.28,-92.58,27.2,15.0,120,5,,10.0,30.02067,,,TRUE,TRUE,,,,,,,FEW,7500,,,,,,,VFR,,,,,,,,,,,,SPECI,215.0
KFKL 242156Z AUTO 01009G17KT 10SM CLR 18/06 A3010 RMK AO2 SLP190 T01830061,KFKL,2023-05-24T21:56:00Z,41.37,-79.87,18.3,6.1,10,9,17,10.0,30.100393,1019.0,,TRUE,TRUE,,,,,,,CLR,,,,,,,,VFR,,,,,,,,,,,,METAR,468.0
KFCI 242156Z AUTO VRB05KT 10SM CLR 24/06 RMK AO2 SLPNO T02390056 $,KFCI,2023-05-24T21:56:00Z,37.4,-77.52,23.9,5.6,0,5,,10.0,,,,TRUE,TRUE,TRUE,,,,,,CLR,,,,,,,,VFR,,,,,,,,,,,,METAR,63.0
KFAM 242156Z AUTO 08009KT 10SM CLR 28/13 A3005 RMK AO2 SLP180 T02830133,KFAM,2023-05-24T21:56:00Z,37.77,-90.42,28.3,13.3,80,9,,10.0,30.050198,1018.0,,TRUE,TRUE,,,,,,,CLR,,,,,,,,VFR,,,,,,,,,,,,METAR,276.0
KEWK 242156Z AUTO 15019G24KT 10SM BKN060 OVC070 23/16 A3004 RMK AO2 LTG DSNT NE AND E SLP161 T02330156,KEWK,2023-05-24T21:56:00Z,38.05,-97.27,23.3,15.6,150,19,24,10.0,30.041338,1016.1,,TRUE,TRUE,,,,,,,BKN,6000,OVC,7000,,,,,VFR,,,,,,,,,,,,SPECI,468.0
KEUL 242156Z AUTO 31007KT 290V350 10SM CLR 24/M01 A2986 RMK AO2 SLP097 T02441011,KEUL,2023-05-24T21:56:00Z,43.63,-116.62,24.4,-1.1,310,7,,10.0,29.861221,1009.7,,TRUE,TRUE,,,,,,,CLR,,,,,,,,VFR,,,,,,,,,,,,METAR,741.0
KESC 242156Z AUTO 03012G16KT 10SM CLR 13/01 A3036 RMK AO2 SLP289 T01330011,KESC,2023-05-24T21:56:00Z,45.72,-87.08,13.3,1.1,30,12,16,10.0,30.360237,1028.9,,TRUE,TRUE,,,,,,,CLR,,,,,,,,VFR,,,,,,,,,,,,METAR,180.0
KENV 242156Z AUTO 28009KT 10SM CLR 21/08 A2989 RMK AO2 LTG DSNT NW SLP094 T02060078 PNO $,KENV,2023-05-24T21:56:00Z,40.72,-114.02,20.6,7.8,280,9,,10.0,29.890747,1009.4,,TRUE,TRUE,TRUE,,,,,,CLR,,,,,,,,VFR,,,,,,,,,,,,METAR,1291.0
KEKY 242156Z AUTO 05006KT 10SM FEW044 SCT050 OVC065 24/16 A2996 RMK AO2 SLP994 T02440156,KEKY,2023-05-24T21:56:00Z,33.32,-86.93,24.4,15.6,50,6,,10.0,29.958662,999.4,,TRUE,TRUE,,,,,,,FEW,4400,SCT,5000,OVC,6500,,,VFR,,,,,,,,,,,,SPECI,213.0
KEKQ 242156Z AUTO 05009KT 10SM CLR 26/09 A3003 RMK AO2 SLP160 T02610094,KEKQ,2023-05-24T21:56:00Z,36.85,-84.85,26.1,9.4,50,9,,10.0,30.029528,1016.0,,TRUE,TRUE,,,,,,,CLR,,,,,,,,VFR,,,,,,,,,,,,SPECI,291.0
KEKO 242156Z AUTO 30015G25KT 10SM -RA SCT030 SCT044 BKN080 13/07 A2991 RMK AO2 PK WND 30031/2141 LTG DSNT N AND S AND NW SLP099 P0008 T01280072,KEKO,2023-05-24T21:56:00Z,40.82,-115.78,12.8,7.2,300,15,25,10.0,29.911417,1009.9,,TRUE,TRUE,,,,,,-RA,SCT,3000,SCT,4400,BKN,8000,,,VFR,,,,,,0.08,,,,,,METAR,1541.0
KEHR 242156Z AUTO 03011KT 10SM CLR 29/11 A3001 RMK AO2 SLP159 T02890106,KEHR,2023-05-24T21:56:00Z,37.82,-87.67,28.9,10.6,30,11,,10.0,30.008858,1015.9,,TRUE,TRUE,,,,,,,CLR,,,,,,,,VFR,,,,,,,,,,,,SPECI,117.0
KEGE 242156Z 20007KT 10SM CLR 21/02 A3006 RMK AO2 SLP087 T02110022,KEGE,2023-05-24T21:56:00Z,39.63,-106.92,21.1,2.2,200,7,,10.0,30.059055,1008.7,,,TRUE,,,,,,,CLR,,,,,,,,VFR,,,,,,,,,,,,METAR,1993.0
KEEN 242156Z AUTO 10SM SCT021 OVC045 13/11 A3000 RMK AO2 RAE53 SLP166 P0000 T01280106 $,KEEN,2023-05-24T21:56:00Z,42.88,-72.27,12.8,10.6,,,,10.0,30.0,1016.6,,TRUE,TRUE,TRUE,,,,,,SCT,2100,OVC,4500,,,,,VFR,,,,,,0.005,,,,,,METAR,143.0
KEED 242156Z AUTO 16015G26KT 10SM CLR 37/01 A2971 RMK AO2 PK WND 18031/2120 SLP024 T03670006,KEED,2023-05-24T21:56:00Z,34.77,-114.62,36.7,0.6,160,15,26,10.0,29.71063,1002.4,,TRUE,TRUE,,,,,,,CLR,,,,,,,,VFR,,,,,,,,,,,,METAR,271.0
KEAU 242156Z 08015G21KT 10SM CLR 19/01 A3024 RMK AO2 SLP241 T01890011,KEAU,2023-05-24T21:56:00Z,44.87,-91.48,18.9,1.1,80,15,21,10.0,30.239174,1024.1,,,TRUE,,,,,,,CLR,,,,,,,,VFR,,,,,,,,,,,,METAR,271.0
KEAR 242156Z AUTO 15008KT 10SM FEW055 OVC080 26/13 A3005 RMK AO2 SLP163 T02560128,KEAR,2023-05-24T21:56:00Z,40.72,-99.0,25.6,12.8,150,8,,10.0,30.050198,1016.3,,TRUE,TRUE,,,,,,,FEW,5500,OVC,8000,,,,,VFR,,,,,,,,,,,,METAR,649.0
KDYR 242156Z AUTO 03006KT 10SM CLR 29/16 A3000 RMK AO2 LTG DSNT E SLP162 T02890161,KDYR,2023-05-24T21:56:00Z,36.0,-89.4,28.9,16.1,30,6,,10.0,30.0,1016.2,,TRUE,TRUE,,,,,,,CLR,,,,,,,,VFR,,,,,,,,,,,,SPECI,98.0
KDWU 242156Z AUTO VRB03KT 10SM CLR 26/14 A3002 RMK AO2 SLP164 T02610139,KDWU,2023-05-24T21:56:00Z,38.55,-82.73,26.1,13.9,0,3,,10.0,30.02067,1016.4,,TRUE,TRUE,,,,,,,CLR,,,,,,,,VFR,,,,,,,,,,,,METAR,165.0
KDVL 242156Z AUTO 13017KT 10SM CLR 21/13 A3007 RMK AO2 SLP196 T02110128,KDVL,2023-05-24T21:56:00Z,48.12,-98.92,21.1,12.8,130,17,,10.0,30.070866,1019.6,,TRUE,TRUE,,,,,,,CLR,,,,,,,,VFR,,,,,,,,,,,,METAR,439.0
KDUG 242156Z AUTO 21009G19KT 10SM CLR 31/M06 A2996 RMK AO2 SLP078 T03111056 TSNO,KDUG,2023-05-24T21:56:00Z,31.47,-109.6,31.1,-5.6,210,9,19,10.0,29.958662,1007.8,,TRUE,TRUE,,,TRUE,,,,CLR,,,,,,,,VFR,,,,,,,,,,,,METAR,1260.0
KDIK 242156Z AUTO 16020G30KT 10SM FEW065 28/13 A2989 RMK AO2 PK WND 14030/2155 SLP106 T02780128,KDIK,2023-05-24T21:56:00Z,46.8,-102.8,27.8,12.8,160,20,30,10.0,29.890747,1010.6,,TRUE,TRUE,,,,,,,FEW,6500,,,,,,,VFR,,,,,,,,,,,,METAR,788.0
KDIJ 242156Z AUTO 33006KT 10SM -RA FEW017 BKN070 OVC095 14/11 A3003 RMK AO2 LTG DSNT SW RAB35 SLP135 P0000 T01440106,KDIJ,2023-05-24T21:56:00Z,43.75,-111.1,14.4,10.6,330,6,,10.0,30.029528,1013.5,,TRUE,TRUE,,,,,,-RA,FEW,1700,BKN,7000,OVC,9500,,,VFR,,,,,,0.005,,,,,,METAR,1896.0
KDAY 242156Z 05014KT 10SM FEW080 SCT100 26/13 A3006 RMK AO2 SLP172 T02610128,KDAY,2023-05-24T21:56:00Z,39.9,-84.22,26.1,12.8,50,14,,10.0,30.059055,1017.2,,,TRUE,,,,,,,FEW,8000,SCT,10000,,,,,VFR,,,,,,,,,,,,METAR,303.0
KD07 242156Z AUTO 17018G30KT 26/13 A2994 RMK AO1 PK WND 16030/2150 SLP126 T02610133,KD07,2023-05-24T21:56:00Z,45.03,-102.02,26.1,13.3,170,18,30,,29.940945,1012.6,,TRUE,TRUE,,,,,,,,,,,,,,,,,,,,,,,,,,,METAR,786.0
KCXY 242156Z 27005KT 10SM FEW100 27/10 A2993 RMK AO2 SLP135 T02670100,KCXY,2023-05-24T21:56:00Z,40.22,-76.85,26.7,10.0,270,5,,10.0,29.929134,1013.5,,,TRUE,,,,,,,FEW,10000,,,,,,,VFR,,,,,,,,,,,,METAR,102.0
KCWI 242156Z AUTO 05017G22KT 10SM CLR 27/11 A3012 RMK AO2 SLP198 T02670111,KCWI,2023-05-24T21:56:00Z,41.82,-90.32,26.7,11.1,50,17,22,10.0,30.121063,1019.8,,TRUE,TRUE,,,,,,,CLR,,,,,,,,VFR,,,,,,,,,,,,METAR,212.0
KCVO 242156Z AUTO 03013G20KT 10SM CLR 22/09 A2999 RMK AO2 SLP158 T02170089,KCVO,2023-05-24T21:56:00Z,44.5,-123.28,21.7,8.9,30,13,20,10.0,29.991142,1015.8,,TRUE,TRUE,,,,,,,CLR,,,,,,,,VFR,,,,,,,,,,,,METAR,75.0
KCVN 242156Z AUTO 14011G21KT 10SM SCT050 SCT060 27/15 A3000 RMK AO2 SLP121 T02720150,KCVN,2023-05-24T21:56:00Z,34.42,-103.07,27.2,15.0,140,11,21,10.0,30.0,1012.1,,TRUE,TRUE,,,,,,,SCT,5000,SCT,6000,,,,,VFR,,,,,,,,,,,,METAR,1278.0
KCTB 242156Z AUTO 00000KT 10SM BKN055 19/06 A2992 RMK AO2 SLP113 T01940056,KCTB,2023-05-24T21:56:00Z,48.6,-112.37,19.4,5.6,0,0,,10.0,29.920275,1011.3,,TRUE,TRUE,,,,,,,BKN,5500,,,,,,,VFR,,,,,,,,,,,,METAR,1172.0
KCOE 242156Z AUTO 14003KT 10SM CLR 19/02 A2994 RMK AO2 TSB09E26 SLP151 T01940022 PNO $,KCOE,2023-05-24T21:56:00Z,47.77,-116.82,19.4,2.2,140,3,,10.0,29.940945,1015.1,,TRUE,TRUE,TRUE,,,,,,CLR,,,,,,,,VFR,,,,,,,,,,,,METAR,693.0
KCIU 242156Z AUTO 34015KT 10SM CLR 11/M02 A3037 RMK AO2 SLP287 T01061022,KCIU,2023-05-24T21:56:00Z,46.25,-84.47,10.6,-2.2,340,15,,10.0,30.369095,1028.7,,TRUE,TRUE,,,,,,,CLR,,,,,,,,VFR,,,,,,,,,,,,METAR,242.0
KCHS 242156Z 01006G15KT 10SM FEW055 BKN250 27/09 A2989 RMK AO2 SLP119 T02670094,KCHS,2023-05-24T21:56:00Z,32.9,-80.03,26.7,9.4,10,6,15,10.0,29.890747,1011.9,,,TRUE,,,,,,,FEW,5500,BKN,25000,,,,,VFR,,,,,,,,,,,,METAR,12.0
KCGZ 242156Z AUTO VRB05KT 10SM CLR 34/M01 A2979 RMK AO2 SLP073 T03441006 PNO $,KCGZ,2023-05-24T21:56:00Z,32.95,-111.77,34.4,-0.6,0,5,,10.0,29.790354,1007.3,,TRUE,TRUE,TRUE,,,,,,CLR,,,,,,,,VFR,,,,,,,,,,,,METAR,444.0
KCEC 242156Z AUTO 34012G22KT 4SM HZ CLR 13/09 A2991 RMK AO2 PK WND 35026/2125 SLP129 T01330089,KCEC,2023-05-24T21:56:00Z,41.78,-124.23,13.3,8.9,340,12,22,4.0,29.911417,1012.9,,TRUE,TRUE,,,,,,HZ,CLR,,,,,,,,MVFR,,,,,,,,,,,,METAR,17.0
KCAE 242156Z 36006KT 10SM SCT250 26/03 A2992 RMK AO2 SLP129 T02610033 $,KCAE,2023-05-24T21:56:00Z,33.93,-81.12,26.1,3.3,360,6,,10.0,29.920275,1012.9,,,TRUE,TRUE,,,,,,SCT,25000,,,,,,,VFR,,,,,,,,,,,,METAR,69.0
KBVX 242156Z AUTO 06005KT 10SM FEW055 28/16 A3002 RMK AO2 SLP161 T02830156,KBVX,2023-05-24T21:56:00Z,35.73,-91.65,28.3,15.6,60,5,,10.0,30.02067,1016.1,,TRUE,TRUE,,,,,,,FEW,5500,,,,,,,VFR,,,,,,,,,,,,SPECI,137.0
KBTP 242156Z AUTO 33012G17KT 10SM CLR 23/11 A3004 RMK AO2 SLP175 T02330111 TSNO $,KBTP,2023-05-24T21:56:00Z,40.77,-79.95,23.3,11.1,330,12,17,10.0,30.041338,1017.5,,TRUE,TRUE,TRUE,,TRUE,,,,CLR,,,,,,,,VFR,,,,,,,,,,,,METAR,375.0
KBOK 242156Z AUTO 27006KT 10SM CLR 22/11 A2987 RMK AO2 SLP116 T02170106,KBOK,2023-05-24T21:56:00Z,42.07,-124.28,21.7,10.6,270,6,,10.0,29.870079,1011.6,,TRUE,TRUE,,,,,,,CLR,,,,,,,,VFR,,,,,,,,,,,,METAR,140.0
KBMI 242156Z 05015KT 10SM CLR 29/08 A3008 RMK AO2 SLP181 T02890078,KBMI,2023-05-24T21:56:00Z,40.47,-88.92,28.9,7.8,50,15,,10.0,30.079725,1018.1,,,TRUE,,,,,,,CLR,,,,,,,,VFR,,,,,,,,,,,,METAR,262.0
KBKX 242156Z AUTO 15012KT 10SM SCT100 28/08 A3007 RMK AO2 SLP184 T02780078,KBKX,2023-05-24T21:56:00Z,44.3,-96.82,27.8,7.8,150,12,,10.0,30.070866,1018.4,,TRUE,TRUE,,,,,,,SCT,10000,,,,,,,VFR,,,,,,,,,,,,METAR,494.0
KBIH 242156Z AUTO VRB06G20KT 10SM FEW110 28/M01 A2976 RMK AO2 SLP031 T02831011,KBIH,2023-05-24T21:56:00Z,37.37,-118.35,28.3,-1.1,0,6,20,10.0,29.760826,1003.1,,TRUE,TRUE,,,,,,,FEW,11000,,,,,,,VFR,,,,,,,,,,,,METAR,1252.0
KBID 242156Z AUTO 19006KT 10SM SCT110 14/06 A2994 RMK AO2 SLP139 T01390061,KBID,2023-05-24T21:56:00Z,41.17,-71.58,13.9,6.1,190,6,,10.0,29.940945,1013.9,,TRUE,TRUE,,,,,,,SCT,11000,,,,,,,VFR,,,,,,,,,,,,METAR,32.0
KBHB 242156Z AUTO 06004KT 10SM SCT060 OVC070 09/06 A3001 RMK AO2 SLP163 T00890061,KBHB,2023-05-24T21:56:00Z,44.45,-68.37,8.9,6.1,60,4,,10.0,30.008858,1016.3,,TRUE,TRUE,,,,,,,SCT,6000,OVC,7000,,,,,VFR,,,,,,,,,,,,METAR,21.0
KAWO 242156Z AUTO 31006KT 10SM FEW050 SCT110 18/10 A3007 RMK AO2 SLP184 T01780100,KAWO,2023-05-24T21:56:00Z,48.17,-122.17,17.8,10.0,310,6,,10.0,30.070866,1018.4,,TRUE,TRUE,,,,,,,FEW,5000,SCT,11000,,,,,VFR,,,,,,,,,,,,METAR,38.0
KART 242156Z AUTO 03011KT 10SM BKN042 13/04 A3015 RMK AO2 SLP209 T01330039,KART,2023-05-24T21:56:00Z,43.98,-76.03,13.3,3.9,30,11,,10.0,30.15059,1020.9,,TRUE,TRUE,,,,,,,BKN,4200,,,,,,,VFR,,,,,,,,,,,,METAR,100.0
KARG 242156Z AUTO 00000KT 10SM FEW090 29/15 A2999 RMK AO2 LTG DSNT E SLP155 T02890150,KARG,2023-05-24T21:56:00Z,36.12,-90.92,28.9,15.0,0,0,,10.0,29.991142,1015.5,,TRUE,TRUE,,,,,,,FEW,9000,,,,,,,VFR,,,,,,,,,,,,METAR,82.0
KAND 242156Z AUTO 07009KT 10SM CLR 25/08 A2996 RMK AO2 SLP137 T02500083,KAND,2023-05-24T21:56:00Z,34.5,-82.72,25.0,8.3,70,9,,10.0,29.958662,1013.7,,TRUE,TRUE,,,,,,,CLR,,,,,,,,VFR,,,,,,,,,,,,METAR,233.0
KALK 242156Z AUTO 24014G24KT 10SM CLR 29/M03 A3001 RMK AO2 SLP075 T02941028,KALK,2023-05-24T21:56:00Z,31.6,-110.43,29.4,-2.8,240,14,24,10.0,30.008858,1007.5,,TRUE,TRUE,,,,,,,CLR,,,,,,,,VFR,,,,,,,,,,,,METAR,1451.0
KAJO 242156Z AUTO 26013G20KT 10SM CLR 19/13 A2992 RMK AO2 SLP127 T01940133,KAJO,2023-05-24T21:56:00Z,33.9,-117.6,19.4,13.3,260,13,20,10.0,29.920275,1012.7,,TRUE,TRUE,,,,,,,CLR,,,,,,,,VFR,,,,,,,,,,,,METAR,161.0
KAIZ 242156Z AUTO 06004KT 10SM OVC100 27/16 RMK AO2 LTG DSNT NW SLPNO T02720161 $,KAIZ,2023-05-24T21:56:00Z,38.1,-92.53,27.2,16.1,60,4,,10.0,,,,TRUE,TRUE,TRUE,,,,,,OVC,10000,,,,,,,VFR,,,,,,,,,,,,METAR,263.0
KAFJ 242156Z AUTO 34009KT 10SM SCT100 24/11 A3004 RMK AO2 SLP168 T02440106,KAFJ,2023-05-24T21:56:00Z,40.13,-80.28,24.4,10.6,340,9,,10.0,30.041338,1016.8,,TRUE,TRUE,,,,,,,SCT,10000,,,,,,,VFR,,,,,,,,,,,,METAR,360.0
KADF 242156Z AUTO 08006KT 10SM CLR 27/15 A2999 RMK AO2 SLP152 T02670150,KADF,2023-05-24T21:56:00Z,34.1,-93.07,26.7,15.0,80,6,,10.0,29.991142,1015.2,,TRUE,TRUE,,,,,,,CLR,,,,,,,,VFR,,,,,,,,,,,,SPECI,54.0
K8D3 242156Z AUTO 12015G24KT 32/08 A3003 RMK AO1 PK WND 13027/2136 SLP151 T03170083,K8D3,2023-05-24T21:56:00Z,45.67,-96.98,31.7,8.3,120,15,24,,30.029528,1015.1,,TRUE,TRUE,,,,,,,,,,,,,,,,,,,,,,,,,,,METAR,535.0
K79J 242156Z AUTO 06012G17KT 10SM FEW031 27/17 A2989 RMK AO2 SLP118 T02670172 PNO,K79J,2023-05-24T21:56:00Z,31.32,-86.4,26.7,17.2,60,12,17,10.0,29.890747,1011.8,,TRUE,TRUE,,,,,,,FEW,3100,,,,,,,VFR,,,,,,,,,,,,SPECI,93.0
K2WX 242156Z AUTO 15019G30KT 27/12 A2985 RMK AO1 PK WND 16036/2108 SLP087 T02720122,K2WX,2023-05-24T21:56:00Z,45.6,-103.55,27.2,12.2,150,19,30,,29.84941,1008.7,,TRUE,TRUE,,,,,,,,,,,,,,,,,,,,,,,,,,,METAR,925.0
K1M4 242156Z AUTO VRB05KT 10SM CLR 26/14 A3001 RMK AO2 SLP147 T02610139,K1M4,2023-05-24T21:56:00Z,34.28,-87.6,26.1,13.9,0,5,,10.0,30.008858,1014.7,,TRUE,TRUE,,,,,,,CLR,,,,,,,,VFR,,,,,,,,,,,,METAR,283.0
TXKF 242155Z 19008KT 9999 FEW029 BKN180 OVC200 24/23 Q1009 ,TXKF,2023-05-24T21:55:00Z,32.37,-64.68,24.0,23.0,190,8,,6.21,29.793306,,,,,,,,,,,FEW,2900,BKN,18000,OVC,20000,,,VFR,,,,,,,,,,,,METAR,4.0
TNCE 242155Z AUTO 08007KT 040V100 //// // ///////// 27/23 Q1011 RE//,TNCE,2023-05-24T21:55:00Z,17.48,-62.97,27.0,23.0,80,7,,,29.852362,,,TRUE,,,,,,,,,,,,,,,,,,,,,,,,,,,,SPECI,38.0
TNCB 242155Z 08016KT 050V120 9999 FEW014 29/24 Q1006,TNCB,2023-05-24T21:55:00Z,12.13,-68.28,29.0,24.0,80,16,,6.21,29.704725,,,,,,,,,,,FEW,1400,,,,,,,VFR,,,,,,,,,,,,METAR,6.0
RODN 242155Z AUTO 05005KT 10SM BKN075 23/20 A2993 RMK AO2 SLP141 P0004 T02260203 FZRANO $,RODN,2023-05-24T21:55:00Z,26.35,127.77,22.6,20.3,50,5,,10.0,29.929134,1014.1,,TRUE,TRUE,TRUE,,,TRUE,,,BKN,7500,,,,,,,VFR,,,,,,0.04,,,,,,METAR,38.0
RKSO 242155Z 07004KT 7SM FEW080 15/15 A3005 RMK AO2A SLP179 WND DATA ESTMD T01490147 $,RKSO,2023-05-24T21:55:00Z,37.08,127.02,14.9,14.7,70,4,,7.0,30.050198,1017.9,,,TRUE,TRUE,,,,,,FEW,8000,,,,,,,VFR,,,,,,,,,,,,SPECI,10.0
RKSG 242155Z 10003KT 6SM HZ FEW100 17/11 A3006 RMK A02A SLP179 WND DATA ESTMD ALSTG/SLP ESTMD T01730111 $,RKSG,2023-05-24T21:55:00Z,36.97,127.02,17.3,11.1,100,3,,6.0,30.059055,1017.9,,,TRUE,TRUE,,,,,HZ,FEW,10000,,,,,,,VFR,,,,,,,,,,,,SPECI,12.0
RKJK 242155Z 05004KT 6SM BR SCT120 17/17 A3003 RMK AO2A SLP173 T01680166,RKJK,2023-05-24T21:55:00Z,35.9,126.62,16.8,16.6,50,4,,6.0,30.029528,1017.3,,,TRUE,,,,,,BR,SCT,12000,,,,,,,VFR,,,,,,,,,,,,SPECI,8.0
RJTY 242155Z 00000KT 10SM SCT034 BKN220 15/09 A3023 RMK AO2A SLP240 T01480085 $,RJTY,2023-05-24T21:55:00Z,35.75,139.33,14.8,8.5,0,0,,10.0,30.230314,1024.0,,,TRUE,TRUE,,,,,,SCT,3400,BKN,22000,,,,,VFR,,,,,,,,,,,,SPECI,136.0
PWAK 242155Z AUTO 05014KT 8SM FEW021 SCT039 SCT049 29/22 A3002 RMK AO2 SLP172 T02880220,PWAK,2023-05-24T21:55:00Z,19.28,166.62,28.8,22.0,50,14,,8.0,30.02067,1017.2,,TRUE,TRUE,,,,,,,FEW,2100,SCT,3900,SCT,4900,,,VFR,,,,,,,,,,,,SPECI,7.0
PHSF 242155Z AUTO 30008KT 10SM FEW230 FEW270 SCT350 20/12 A3038 RMK AO2 SLP179 T02030115 $,PHSF,2023-05-24T21:55:00Z,19.77,-155.55,20.3,11.5,300,8,,10.0,30.380905,1017.9,,TRUE,TRUE,TRUE,,,,,,FEW,23000,FEW,27000,SCT,35000,,,VFR,,,,,,,,,,,,SPECI,1863.0
PHHI 242155Z AUTO 06011G22KT 10SM BKN035 BKN044 26/16 A3014 RMK AO2 SLP196 T02610163 $,PHHI,2023-05-24T21:55:00Z,21.48,-158.05,26.1,16.3,60,11,22,10.0,30.138779,1019.6,,TRUE,TRUE,TRUE,,,,,,BKN,3500,BKN,4400,,,,,VFR,,,,,,,,,,,,SPECI,246.0
PAWG 242155Z 30003KT 10SM FEW080 SCT100 OVC120 18/04 A3021,PAWG,2023-05-24T21:55:00Z,56.48,-132.37,18.0,4.0,300,3,,10.0,30.209646,,,,,,,,,,,FEW,8000,SCT,10000,OVC,12000,,,VFR,,,,,,,,,,,,METAR,6.0
PATL 242155Z AUTO 00000KT 10SM OVC045 13/04 A2986 RMK AO2 SLP111 T01300043 TSNO $,PATL,2023-05-24T21:55:00Z,62.9,-155.97,13.0,4.3,0,0,,10.0,29.861221,1011.1,,TRUE,TRUE,TRUE,,TRUE,,,,OVC,4500,,,,,,,VFR,,,,,,,,,,,,METAR,261.0
PATC 242155Z AUTO 02030KT M1/4SM -RA FG VV002 M01/M01 A2993 RMK AO2 PK WND 02032/2152 RAB2045 SLP142 P0000 T10091009,PATC,2023-05-24T21:55:00Z,65.57,-167.92,-0.9,-0.9,20,30,,0.25,29.929134,1014.2,,TRUE,TRUE,,,,,,-RA FG,OVX,0,,,,,,,LIFR,,,,,,0.005,,,,,200,SPECI,77.0
PASV 242155Z AUTO 07002KT 10SM BKN020 BKN033 OVC055 08/04 A2983 RMK AO2 RAB1955E2105DZB2105E2111 SLP107 T00840039,PASV,2023-05-24T21:55:00Z,61.1,-155.57,8.4,3.9,70,2,,10.0,29.828741,1010.7,,TRUE,TRUE,,,,,,,BKN,2000,BKN,3300,OVC,5500,,,MVFR,,,,,,,,,,,,SPECI,462.0
PALU 242155Z AUTO 07019G25KT 10SM BKN009 OVC018 01/M01 A3015 RMK AO2 SLP210 T00051007,PALU,2023-05-24T21:55:00Z,68.88,-166.1,0.5,-0.7,70,19,25,10.0,30.15059,1021.0,,TRUE,TRUE,,,,,,,BKN,900,OVC,1800,,,,,IFR,,,,,,,,,,,,SPECI,8.0
PAIM 242155Z AUTO VRB03KT 10SM BKN110 15/05 A2984 RMK AO2 SLP103 T01520050,PAIM,2023-05-24T21:55:00Z,66.0,-153.7,15.2,5.0,0,3,,10.0,29.840551,1010.3,,TRUE,TRUE,,,,,,,BKN,11000,,,,,,,VFR,,,,,,,,,,,,METAR,309.0
PAFR 242155Z AUTO 36004KT 10SM SCT060 BKN080 OVC100 13/05 A2991 RMK AO2 SLP135 T01270046 $,PAFR,2023-05-24T21:55:00Z,61.27,-149.65,12.7,4.6,360,4,,10.0,29.911417,1013.5,,TRUE,TRUE,TRUE,,,,,,SCT,6000,BKN,8000,OVC,10000,,,VFR,,,,,,,,,,,,METAR,106.0
PAFB 242155Z 14009KT 10SM FEW060 BKN100 BKN200 19/00 A2981 RMK AO2A SLP101 T01890000 FZRANO $,PAFB,2023-05-24T21:55:00Z,64.83,-147.62,18.9,0.0,140,9,,10.0,29.811024,1010.1,,,TRUE,TRUE,,,TRUE,,,FEW,6000,BKN,10000,BKN,20000,,,VFR,,,,,,,,,,,,METAR,137.0
PAEI 242155Z 17015G19KT 10SM FEW085 BKN110 BKN190 19/01 A2979 RMK AO2A SLP092 T01930013 $,PAEI,2023-05-24T21:55:00Z,64.67,-147.1,19.3,1.3,170,15,19,10.0,29.790354,1009.2,,,TRUE,TRUE,,,,,,FEW,8500,BKN,11000,BKN,19000,,,VFR,,,,,,,,,,,,METAR,166.0
PAEH 242155Z AUTO VRB04KT M1/4SM FG VV002 02/02 A2990 RMK AO2 RAB1955E2134 SLP131 P0001 T00220029,PAEH,2023-05-24T21:55:00Z,58.65,-162.07,2.2,2.9,0,4,,0.25,29.899607,1013.1,,TRUE,TRUE,,,,,,FG,OVX,0,,,,,,,LIFR,,,,,,0.01,,,,,200,SPECI,101.0
PAED 242155Z 02005KT 10SM FEW015 BKN085 BKN100 13/06 A2990 RMK AO2A SLP122 T01290058,PAED,2023-05-24T21:55:00Z,61.25,-149.83,12.9,5.8,20,5,,10.0,29.899607,1012.2,,,TRUE,,,,,,,FEW,1500,BKN,8500,BKN,10000,,,VFR,,,,,,,,,,,,METAR,54.0
PACZ 242155Z AUTO 21002KT 10SM OVC021 06/03 A2985 RMK AO2 SLP114 T00560028,PACZ,2023-05-24T21:55:00Z,61.78,-166.03,5.6,2.8,210,2,,10.0,29.84941,1011.4,,TRUE,TRUE,,,,,,,OVC,2100,,,,,,,MVFR,,,,,,,,,,,,SPECI,129.0
OTBH 242155Z 00000KT 9999 BKN200 31/14 A2969 Q1005 RMK AO2A SLP055 T03070139 FZRANO CHINO RWY34 $,OTBH,2023-05-24T21:55:00Z,25.12,51.32,30.7,13.9,0,0,,6.21,29.675198,1005.5,,,TRUE,TRUE,,,TRUE,,,BKN,20000,,,,,,,VFR,,,,,,,,,,,,SPECI,40.0
OPLA 242155Z 13012KT 6000 SCT100 24/19 Q1005 NOSIG RMK QFE979 A29.68,OPLA,2023-05-24T21:55:00Z,31.52,74.4,24.0,19.0,130,12,,3.73,29.675198,,,,,,TRUE,,,,,SCT,10000,,,,,,,MVFR,,,,,,,,,,,,METAR,217.0
OPKC 242155Z 24012KT 6000 SCT030 29/25 Q1004 NOSIG,OPKC,2023-05-24T21:55:00Z,24.9,67.13,29.0,25.0,240,12,,3.73,29.64567,,,,,,TRUE,,,,,SCT,3000,,,,,,,MVFR,,,,,,,,,,,,METAR,20.0
OPFA 242155Z 13006KT 4000 FU SCT100 26/21 Q1003 NOSIG,OPFA,2023-05-24T21:55:00Z,31.37,73.0,26.0,21.0,130,6,,2.49,29.616142,,,,,,TRUE,,,,FU,SCT,10000,,,,,,,IFR,,,,,,,,,,,,METAR,180.0
OKAS 242155Z 36009KT 9999 BKN160 35/09 A2974 RMK AO2A SLP064 T03530089 FZRANO $,OKAS,2023-05-24T21:55:00Z,29.35,47.52,35.3,8.9,360,9,,6.21,29.740158,1006.4,,,TRUE,TRUE,,,TRUE,,,BKN,16000,,,,,,,VFR,,,,,,,,,,,,METAR,144.0
OEPS 242155Z 18003KT 9999 BKN210 32/03 A2990 RMK AO2A SLP101 WND DATA ESTMD T03170033 404010275,OEPS,2023-05-24T21:55:00Z,24.07,47.58,31.7,3.3,180,3,,6.21,29.899607,1010.1,,,TRUE,,,,,,,BKN,21000,,,,,,,VFR,,,,40.1,27.5,,,,,,,SPECI,503.0
NZCM 242155Z AUTO 06015G19KT 9999 OVC150 M20/M32 A2960 RMK AO2 PK WND 06027/2105 SLP029 T11971316,NZCM,2023-05-24T21:55:00Z,-77.85,166.67,-19.7,-31.6,60,15,19,6.21,29.601377,1002.9,,TRUE,TRUE,,,,,,,OVC,15000,,,,,,,VFR,,,,,,,,,,,,SPECI,24.0
MMLO 242155Z 00000KT 10SM SCT030 BKN250 32/M01 A3011 RMK 8/508,MMLO,2023-05-24T21:55:00Z,21.0,-101.47,32.0,-1.0,0,0,,10.0,30.109253,,,,,,,,,,,SCT,3000,BKN,25000,,,,,VFR,,,,,,,,,,,,SPECI,1805.0
MMCV 242155Z 01003KT 10SM FEW020 SCT100 BKN250 32/18 A2982 RMK 8/463 DSNT TCU SE/ CB NW,MMCV,2023-05-24T21:55:00Z,23.72,-98.97,32.0,18.0,10,3,,10.0,29.819881,,,,,,,,,,,FEW,2000,SCT,10000,BKN,25000,,,VFR,,,,,,,,,,,,METAR,230.0
LIVT 242155Z AUTO 06010KT 360V130 //// 20/14 Q1014,LIVT,2023-05-24T21:55:00Z,45.68,13.75,20.0,14.0,60,10,,,29.940945,,,TRUE,,,,,,,,,,,,,,,,,,,,,,,,,,,,METAR,20.0
LIVP 242155Z 18006KT 0000 -RA FG VV/// 04/03 Q1019 RMK MON INVIS VAL INVIS VIS MIN 0000,LIVP,2023-05-24T21:55:00Z,46.15,11.03,4.0,3.0,180,6,,0.0,30.088583,,,,,,,,,,-RA FG,OVX,0,,,,,,,LIFR,,,,,,,,,,,,SPECI,2099.0
LIVM 242155Z AUTO 12005KT //// 21/16 Q1013,LIVM,2023-05-24T21:55:00Z,44.45,12.3,21.0,16.0,120,5,,,29.911417,,,TRUE,,,,,,,,,,,,,,,,,,,,,,,,,,,,METAR,6.0
LIVF 242155Z 24002KT CAVOK 17/12 Q1014,LIVF,2023-05-24T21:55:00Z,43.52,12.72,17.0,12.0,240,2,,6.21,29.940945,,,,,,,,,,,CAVOK,,,,,,,,VFR,,,,,,,,,,,,METAR,549.0
LIVE 242155Z 02003KT 9999 -RA OVC015 07/07 Q1018 RMK OVC VIS MIN 9999,LIVE,2023-05-24T21:55:00Z,46.82,10.5,7.0,7.0,20,3,,6.21,30.059055,,,,,,,,,,-RA,OVC,1500,,,,,,,MVFR,,,,,,,,,,,,METAR,1684.0
LIVD 242155Z AUTO VRB03KT //// 08/08 Q1022,LIVD,2023-05-24T21:55:00Z,46.72,12.22,8.0,8.0,0,3,,,30.177166,,,TRUE,,,,,,,,,,,,,,,,,,,,,,,,,,,,METAR,1221.0
LIVC 242155Z AUTO 19006KT //// 06/02 Q1021,LIVC,2023-05-24T21:55:00Z,44.2,10.68,6.0,2.0,190,6,,,30.147638,,,TRUE,,,,,,,,,,,,,,,,,,,,,,,,,,,,METAR,2139.0
LIRX 242155Z AUTO 19010KT //// 16/11 Q1014,LIRX,2023-05-24T21:55:00Z,42.73,10.38,16.0,11.0,190,10,,,29.940945,,,TRUE,,,,,,,,,,,,,,,,,,,,,,,,,,,,METAR,397.0
LIRS 242155Z VRB01KT CAVOK 15/13 Q1014 RMK SCT SCT200 VIS MIN 9999 WIND THR03 VRB01KT WIND THR21 VRB02KT BLU,LIRS,2023-05-24T21:55:00Z,42.75,11.07,15.0,13.0,0,1,,6.21,29.940945,,,,,,,,,,,CAVOK,,,,,,,,VFR,,,,,,,,,,,,METAR,3.0
LIRM 242155Z 20002KT 5000 BR FEW070 16/15 Q1013 RMK FEW VIS MIN 5000 WIND THR06 21002KT WHT,LIRM,2023-05-24T21:55:00Z,41.05,14.07,16.0,15.0,200,2,,3.11,29.911417,,,,,,,,,,BR,FEW,7000,,,,,,,MVFR,,,-0.2,,,,,,,,,METAR,6.0
LIRK 242155Z AUTO /////KT //// ///// Q////,LIRK,2023-05-24T21:55:00Z,42.47,12.97,,,,,,,,,,TRUE,,,,,,,,,,,,,,,,,,,,,,,,,,,,METAR,1721.0
LIRE 242155Z 35003KT CAVOK 18/16 Q1013 RMK SKC VIS MIN 9999 WIND THR13 36001KT WIND THR31 /////KT BLU,LIRE,2023-05-24T21:55:00Z,41.65,12.43,18.0,16.0,350,3,,6.21,29.911417,,,,,,,,,,,CAVOK,,,,,,,,VFR,,,,,,,,,,,,METAR,16.0
LIQC 242155Z 04004KT CAVOK 18/14 Q1014 RMK SKC QUK / QUL / VIS MAR 20 KM VIS MIN 9999,LIQC,2023-05-24T21:55:00Z,40.55,14.2,18.0,14.0,40,4,,6.21,29.940945,,,,,,,,,,,CAVOK,,,,,,,,VFR,,,,,,,,,,,,METAR,154.0
LIPS 242155Z 04006KT 9999 BKN080 18/15 Q1015 RMK BKN VIS MIN 9999 WIND THR26 01007KT WIND THR08 04007KT BLU,LIPS,2023-05-24T21:55:00Z,45.68,12.1,18.0,15.0,40,6,,6.21,29.970472,,,,,,,,,,,BKN,8000,,,,,,,VFR,,,,,,,,,,,,METAR,42.0
LIPL 242155Z 29007KT 9999 FEW030CB SCT035 18/16 Q1014 RETS RMK BKN VIS MIN 9999 WIND THR31 /////KT WIND THR13 29007KT BLU,LIPL,2023-05-24T21:55:00Z,45.42,10.27,18.0,16.0,290,7,,6.21,29.940945,,,,,,,,,,,FEW,3000,SCT,3500,,,,,VFR,,,,,,,,,,,,SPECI,96.0
LIPI 242155Z 36004KT 9999 SCT040 SCT070 18/14 Q1015 RMK BKN VIS MIN 9999 WIND THR06 03004KT WIND THR24 03005KT BLU,LIPI,2023-05-24T21:55:00Z,45.97,13.05,18.0,14.0,360,4,,6.21,29.970472,,,,,,,,,,,SCT,4000,SCT,7000,,,,,VFR,,,,,,,,,,,,SPECI,49.0
LIPC 242155Z 33003KT CAVOK 17/16 Q1013 RMK FEW FEW140 VIS MIN 9999 WIND THR11 33003KT WIND THR29 32002KT BLU,LIPC,2023-05-24T21:55:00Z,44.22,12.3,17.0,16.0,330,3,,6.21,29.911417,,,,,,,,,,,CAVOK,,,,,,,,VFR,,,,,,,,,,,,SPECI,10.0
LIED 242155Z 10004KT 9999 SCT060 17/16 Q1012 RMK SCT VIS MIN 9999 WIND THR35 /////KT WIND THR17 10004KT BLU,LIED,2023-05-24T21:55:00Z,39.35,8.97,17.0,16.0,100,4,,6.21,29.88189,,,,,,,,,,,SCT,6000,,,,,,,VFR,,0.4,,,,,,,,,,METAR,26.0
LIEB 242155Z 20007KT 9999 SCT040 17/15 Q1013 RMK BKN BKN100 QUK / QUL / VIS MAR 20 KM MON INVIS VIS MIN 9999,LIEB,2023-05-24T21:55:00Z,39.93,9.72,17.0,15.0,200,7,,6.21,29.911417,,,,,,,,,,,SCT,4000,,,,,,,VFR,,,,,,,,,,,,METAR,126.0
LICZ 242155Z 15003KT 9999 FEW100 17/17 Q1013 RMK BKN BKN180 VIS MIN 9999 WIND THR28 17002KT WIND THR10 21002KT A2993 BLU,LICZ,2023-05-24T21:55:00Z,37.4,14.92,17.0,17.0,150,3,,6.21,29.911417,,,,,,,,,,,FEW,10000,,,,,,,VFR,,,-0.2,,,,,,,,,METAR,22.0
LICT 242155Z 15003KT CAVOK 18/15 Q1013 RMK SCT SCT160 VIS MIN 9999 WIND THR13 17003KT BLU,LICT,2023-05-24T21:55:00Z,37.92,12.5,18.0,15.0,150,3,,6.21,29.911417,,,,,,,,,,,CAVOK,,,,,,,,VFR,,,,,,,,,,,,METAR,4.0
LIBV 242155Z 11001KT CAVOK 13/13 Q1013 RMK SKC VIS MIN 9999 WIND THR32 14004KT WIND THR14 25001KT BLU,LIBV,2023-05-24T21:55:00Z,40.77,16.93,13.0,13.0,110,1,,6.21,29.911417,,,,,,,,,,,CAVOK,,,,,,,,VFR,,,,,,,,,,,,METAR,344.0
LIBQ 242155Z AUTO 08005KT 050V120 //// 10/07 Q1019,LIBQ,2023-05-24T21:55:00Z,39.32,16.38,10.0,7.0,80,5,,,30.088583,,,TRUE,,,,,,,,,,,,,,,,,,,,,,,,,,,,METAR,1660.0
LIBN 242155Z VRB01KT CAVOK 15/15 Q1014 RMK SKC VIS MIN 9999 WIND THR14 VRB01KT WIND THR32 VRB01KT BLU,LIBN,2023-05-24T21:55:00Z,40.23,18.13,15.0,15.0,0,1,,6.21,29.940945,,,,,,,,,,,CAVOK,,,,,,,,VFR,,,,,,,,,,,,METAR,46.0
LIBA 242155Z 06006KT CAVOK 17/14 Q1014 RMK SKC VIS MIN 9999 WIND THR11 08005KT WIND THR29 /////KT BLU,LIBA,2023-05-24T21:55:00Z,41.53,15.72,17.0,14.0,60,6,,6.21,29.940945,,,,,,,,,,,CAVOK,,,,,,,,VFR,,,,,,,,,,,,METAR,55.0
KXNO 242155Z AUTO 01011KT 10SM CLR 26/17 A2991 RMK AO2 SLP129 T02570165 $,KXNO,2023-05-24T21:55:00Z,33.62,-81.07,25.7,16.5,10,11,,10.0,29.911417,1012.9,,TRUE,TRUE,TRUE,,,,,,CLR,,,,,,,,VFR,,,,,,,,,,,,METAR,94.0
KXIF 242155Z AUTO 00000KT 10SM CLR 25/09 A2996 RMK AO2 SLPNO T02470094 $,KXIF,2023-05-24T21:55:00Z,,,24.7,9.4,0,0,,10.0,29.958662,,,TRUE,TRUE,TRUE,,,,,,CLR,,,,,,,,VFR,,,,,,,,,,,,METAR,
KWRI 242155Z AUTO 19007KT 10SM CLR 26/11 A2991 RMK AO2 SLP128 T02560106,KWRI,2023-05-24T21:55:00Z,40.02,-74.58,25.6,10.6,190,7,,10.0,29.911417,1012.8,,TRUE,TRUE,,,,,,,CLR,,,,,,,,VFR,,,,,,,,,,,,METAR,35.0
KWRB 242155Z AUTO 01007KT 10SM CLR 26/12 A2991 RMK AO2 SLP129 T02560121,KWRB,2023-05-24T21:55:00Z,32.63,-83.58,25.6,12.1,10,7,,10.0,29.911417,1012.9,,TRUE,TRUE,,,,,,,CLR,,,,,,,,VFR,,,,,,,,,,,,METAR,82.0
KVPS 242155Z AUTO 17006KT 10SM FEW037 FEW044 BKN100 BKN120 22/20 A2984 RMK AO2 LTG DSNT W RAB00E50DZB50E52 TSB2059E14 SLP111 P0020 T02160199 $,KVPS,2023-05-24T21:55:00Z,30.47,-86.52,21.6,19.9,170,6,,10.0,29.840551,1011.1,,TRUE,TRUE,TRUE,,,,,,FEW,3700,FEW,4400,BKN,10000,BKN,12000,VFR,,,,,,0.2,,,,,,METAR,21.0
KVOK 242155Z 10013KT 10SM FEW085 BKN200 19/04 A3023 RMK AO2A SLP241 T01910037,KVOK,2023-05-24T21:55:00Z,43.93,-90.27,19.1,3.7,100,13,,10.0,30.230314,1024.1,,,TRUE,,,,,,,FEW,8500,BKN,20000,,,,,VFR,,,,,,,,,,,,METAR,278.0
KVBG 242155Z 29008KT 10SM SCT028 BKN035 14/10 A2998 RMK AO2A SLP155 T01420098,KVBG,2023-05-24T21:55:00Z,34.73,-120.58,14.2,9.8,290,8,,10.0,29.97933,1015.5,,,TRUE,,,,,,,SCT,2800,BKN,3500,,,,,VFR,,,,,,,,,,,,METAR,96.0
KVAD 242155Z AUTO 06006KT 10SM FEW047 SCT200 26/16 A2986 RMK AO2 SLP112 T02590156 $,KVAD,2023-05-24T21:55:00Z,30.97,-83.2,25.9,15.6,60,6,,10.0,29.861221,1011.2,,TRUE,TRUE,TRUE,,,,,,FEW,4700,SCT,20000,,,,,VFR,,,,,,,,,,,,METAR,70.0
KTIK 242155Z AUTO 14006KT 10SM FEW120 26/15 A2995 RMK AO2 SLP139 T02630153 $,KTIK,2023-05-24T21:55:00Z,35.4,-97.38,26.3,15.3,140,6,,10.0,29.949802,1013.9,,TRUE,TRUE,TRUE,,,,,,FEW,12000,,,,,,,VFR,,,,,,,,,,,,METAR,387.0
KTHM 242155Z AUTO 27006KT 7SM 22/12 A2992 RMK Thompson Falls ,KTHM,2023-05-24T21:55:00Z,47.57,-115.28,22.0,12.0,270,6,,7.0,29.920275,,,TRUE,,,,,,,,,,,,,,,,,,,,,,,,,,,,METAR,751.0
KTCM 242155Z 02010G15KT 10SM CLR 20/07 A3004 RMK AO2A RAB45E52 SLP176 P0000 T02040070 $,KTCM,2023-05-24T21:55:00Z,47.13,-122.47,20.4,7.0,20,10,15,10.0,30.041338,1017.6,,,TRUE,TRUE,,,,,,CLR,,,,,,,,VFR,,,,,,0.005,,,,,,METAR,87.0
KTBN 242155Z AUTO 08007KT 10SM CLR 29/11 A3002 RMK AO2 SLP159 T02880114 FZRANO $,KTBN,2023-05-24T21:55:00Z,37.73,-92.13,28.8,11.4,80,7,,10.0,30.02067,1015.9,,TRUE,TRUE,TRUE,,,TRUE,,,CLR,,,,,,,,VFR,,,,,,,,,,,,METAR,349.0
KT70 242155Z AUTO 11016KT 10SM CLR 31/19 A2986 RMK AO2 SLP098 T03100190 $,KT70,2023-05-24T21:55:00Z,29.12,-100.48,31.0,19.0,110,16,,10.0,29.861221,1009.8,,TRUE,TRUE,TRUE,,,,,,CLR,,,,,,,,VFR,,,,,,,,,,,,METAR,296.0
KSXS 242155Z AUTO 07010KT 10SM FEW027 25/19 A2988 RMK AO2 SLP117 T02500187 $,KSXS,2023-05-24T21:55:00Z,31.37,-85.85,25.0,18.7,70,10,,10.0,29.878937,1011.7,,TRUE,TRUE,TRUE,,,,,,FEW,2700,,,,,,,VFR,,,,,,,,,,,,SPECI,120.0
KSVN 242155Z AUTO 05004KT 10SM FEW060 27/12 A2986 RMK AO2 SLP115 T02650118 $,KSVN,2023-05-24T21:55:00Z,32.02,-81.12,26.5,11.8,50,4,,10.0,29.861221,1011.5,,TRUE,TRUE,TRUE,,,,,,FEW,6000,,,,,,,VFR,,,,,,,,,,,,METAR,13.0
KSUU 242155Z AUTO 23016KT 10SM CLR 21/09 A2984 RMK AO2 SLP111 T02110090 $,KSUU,2023-05-24T21:55:00Z,38.27,-121.93,21.1,9.0,230,16,,10.0,29.840551,1011.1,,TRUE,TRUE,TRUE,,,,,,CLR,,,,,,,,VFR,,,,,,,,,,,,METAR,9.0
KSUN 242155Z 29005KT 10SM SCT034 OVC070 17/09 A2996,KSUN,2023-05-24T21:55:00Z,43.5,-114.28,17.0,9.0,290,5,,10.0,29.958662,,,,,,,,,,,SCT,3400,OVC,7000,,,,,VFR,,,,,,,,,,,,METAR,1619.0
KSSC 242155Z 36013KT 10SM FEW200 27/00 A2989 RMK AO2A SLP122 T02660003 $,KSSC,2023-05-24T21:55:00Z,33.97,-80.47,26.6,0.3,360,13,,10.0,29.890747,1012.2,,,TRUE,TRUE,,,,,,FEW,20000,,,,,,,VFR,,,,,,,,,,,,METAR,71.0
KSLI 242155Z 18006KT 10SM OVC025 19/13 A2991 RMK AO2A SLP131 T01850129,KSLI,2023-05-24T21:55:00Z,33.78,-118.03,18.5,12.9,180,6,,10.0,29.911417,1013.1,,,TRUE,,,,,,,OVC,2500,,,,,,,MVFR,,,,,,,,,,,,METAR,8.0
KSKF 242155Z 04006KT 10SM BKN140 31/16 A2987 RMK AO2A SLP108 T03070163 $,KSKF,2023-05-24T21:55:00Z,29.38,-98.57,30.7,16.3,40,6,,10.0,29.870079,1010.8,,,TRUE,TRUE,,,,,,BKN,14000,,,,,,,VFR,,,,,,,,,,,,METAR,214.0
KSEQ 242155Z AUTO 04014KT 10SM FEW190 27/19 A2989 RMK AO2 SLP119 T02700191,KSEQ,2023-05-24T21:55:00Z,29.57,-97.9,27.0,19.1,40,14,,10.0,29.890747,1011.9,,TRUE,TRUE,,,,,,,FEW,19000,,,,,,,VFR,,,,,,,,,,,,SPECI,160.0
KSCK 242155Z 25008KT 10SM CLR 25/10 A2984 RMK AO2 SLP104 T02500100,KSCK,2023-05-24T21:55:00Z,37.88,-121.22,25.0,10.0,250,8,,10.0,29.840551,1010.4,,,TRUE,,,,,,,CLR,,,,,,,,VFR,,,,,,,,,,,,METAR,8.0
KS34 242155Z AUTO 00000KT 10SM 23/23 A2988 RMK Plains ,KS34,2023-05-24T21:55:00Z,47.47,-114.9,23.0,23.0,0,0,,10.0,29.878937,,,TRUE,,,,,,,,,,,,,,,,,,,,,,,,,,,,METAR,750.0
KRYM 242155Z AUTO 07009KT 10SM BKN090 14/07 A3022 RMK AO2 SLP241 T01360067 $,KRYM,2023-05-24T21:55:00Z,46.08,-94.37,13.6,6.7,70,9,,10.0,30.221457,1024.1,,TRUE,TRUE,TRUE,,,,,,BKN,9000,,,,,,,VFR,,,,,,,,,,,,METAR,344.0
KRND 242155Z AUTO 03012KT 10SM CLR 30/16 A2988 RMK AO2 SLP111 T03000160 TSNO $,KRND,2023-05-24T21:55:00Z,29.53,-98.27,30.0,16.0,30,12,,10.0,29.878937,1011.1,,TRUE,TRUE,TRUE,,TRUE,,,,CLR,,,,,,,,VFR,,,,,,,,,,,,METAR,224.0
KRIV 242155Z 30008KT 10SM FEW012 FEW030 23/13 A2990 RMK AO2A SLP116 T02290134,KRIV,2023-05-24T21:55:00Z,33.87,-117.23,22.9,13.4,300,8,,10.0,29.899607,1011.6,,,TRUE,,,,,,,FEW,1200,FEW,3000,,,,,VFR,,,,,,,,,,,,METAR,454.0
KRDR 242155Z AUTO 11012KT 10SM FEW095 20/10 A3010 RMK AO2 SLP198 T02010099 $,KRDR,2023-05-24T21:55:00Z,47.93,-97.4,20.1,9.9,110,12,,10.0,30.100393,1019.8,,TRUE,TRUE,TRUE,,,,,,FEW,9500,,,,,,,VFR,,,,,,,,,,,,METAR,276.0
KRCE 242155Z AUTO 09008KT 10SM BKN050 BKN055 OVC075 26/16 A2997 RMK AO2,KRCE,2023-05-24T21:55:00Z,35.48,-97.82,26.0,16.0,90,8,,10.0,29.970472,,,TRUE,TRUE,,,,,,,BKN,5000,BKN,5500,OVC,7500,,,VFR,,,,,,,,,,,,METAR,412.0
KRCA 242155Z AUTO 18016G23KT 10SM FEW049 SCT120 SCT170 SCT200 25/14 A2992 RMK AO2 SLP112 T02540139 $,KRCA,2023-05-24T21:55:00Z,44.15,-103.12,25.4,13.9,180,16,23,10.0,29.920275,1011.2,,TRUE,TRUE,TRUE,,,,,,FEW,4900,SCT,12000,SCT,17000,SCT,20000,VFR,,,,,,,,,,,,METAR,993.0
KQVF 242155Z AUTO VRB03KT 9999 CLR 25/24 A2996 RMK AO2 SHRAB17E19RAB19E25SHRAB25E37 SLP148 WND DATA ESTMD P0002 T02530241,KQVF,2023-05-24T21:55:00Z,,,25.3,24.1,0,3,,6.21,29.958662,1014.8,,TRUE,TRUE,,,,,,,CLR,,,,,,,,VFR,,,,,,0.02,,,,,,METAR,
KQTZ 242155Z 23007KT 9999 OVC160 28/14 A2978 RMK SLP082,KQTZ,2023-05-24T21:55:00Z,,,28.0,14.0,230,7,,6.21,29.778543,1008.2,,,,,,,,,,OVC,16000,,,,,,,VFR,,,,,,,,,,,,SPECI,
KQN3 242155Z VRB03KT 8000 DU SCT080 BKN250 33/21 A2982 RMK AO2 SLP078,KQN3,2023-05-24T21:55:00Z,,,33.0,21.0,0,3,,4.97,29.819881,1007.8,,,TRUE,,,,,,DU,SCT,8000,BKN,25000,,,,,MVFR,,,,,,,,,,,,METAR,
KQHY 242155Z AUTO 00000KT 10SM -RA FEW042 FEW049 BKN060 BKN075 OVC120 23/22 A2986 RMK AO2 SLP118 P0001 T02270215 TSNO $,KQHY,2023-05-24T21:55:00Z,,,22.7,21.5,0,0,,10.0,29.861221,1011.8,,TRUE,TRUE,TRUE,,TRUE,,,-RA,FEW,4200,FEW,4900,BKN,6000,BKN,7500,VFR,,,,,,0.01,,,,,,METAR,
KQDG 242155Z AUTO 30011G16KT 9999 CLR 16/06 A3013 RMK AO2 SLP205 T01640062 $,KQDG,2023-05-24T21:55:00Z,,,16.4,6.2,300,11,16,6.21,30.129921,1020.5,,TRUE,TRUE,TRUE,,,,,,CLR,,,,,,,,VFR,,,,,,,,,,,,METAR,
KQD3 242155Z AUTO VRB04KT 9999 CLR 30/25 A2981 RMK AO2 SLP079 WND DATA ESTMD T03010253,KQD3,2023-05-24T21:55:00Z,,,30.1,25.3,0,4,,6.21,29.811024,1007.9,,TRUE,TRUE,,,,,,,CLR,,,,,,,,VFR,,,,,,,,,,,,METAR,
KQAZ 242155Z AUTO 00000KT 9999 SCT160 35/04 A2982 RMK AO2 SLP086 WND DATA ESTMD T03540035,KQAZ,2023-05-24T21:55:00Z,,,35.4,3.5,0,0,,6.21,29.819881,1008.6,,TRUE,TRUE,,,,,,,SCT,16000,,,,,,,VFR,,,,,,,,,,,,SPECI,
KPSM 242155Z 36004KT 3SM -RA BR FEW005 OVC050 13/09 A2995 RMK AO2A SLP145 P0001 T01260091,KPSM,2023-05-24T21:55:00Z,43.08,-70.82,12.6,9.1,360,4,,3.0,29.949802,1014.5,,,TRUE,,,,,,-RA BR,FEW,500,OVC,5000,,,,,MVFR,,,,,,0.01,,,,,,METAR,34.0
KPOE 242155Z AUTO 03006KT 9SM OVC180 26/18 A2988 RMK AO2 LTG DSNT N SLP118 T02610180,KPOE,2023-05-24T21:55:00Z,31.05,-93.2,26.1,18.0,30,6,,9.0,29.878937,1011.8,,TRUE,TRUE,,,,,,,OVC,18000,,,,,,,VFR,,,,,,,,,,,,METAR,98.0
KPOB 242155Z AUTO 02010KT 10SM CLR 25/04 A2994 RMK AO2 SLP140 T02510037 $,KPOB,2023-05-24T21:55:00Z,35.17,-79.02,25.1,3.7,20,10,,10.0,29.940945,1014.0,,TRUE,TRUE,TRUE,,,,,,CLR,,,,,,,,VFR,,,,,,,,,,,,METAR,57.0
KPHP 242155Z AUTO 14015KT 10SM FEW100 27/13 A2994 RMK AO2 SLP123 T02670128,KPHP,2023-05-24T21:55:00Z,44.05,-101.6,26.7,12.8,140,15,,10.0,29.940945,1012.3,,TRUE,TRUE,,,,,,,FEW,10000,,,,,,,VFR,,,,,,,,,,,,METAR,673.0
KPAM 242155Z 07007KT 10SM SCT030 SCT200 22/20 A2985 RMK AO2A RAE42DZB42E45 SLP111 P0002 T02220201 $,KPAM,2023-05-24T21:55:00Z,30.07,-85.57,22.2,20.1,70,7,,10.0,29.84941,1011.1,,,TRUE,TRUE,,,,,,SCT,3000,SCT,20000,,,,,VFR,,,,,,0.02,,,,,,METAR,4.0
KP58 242155Z AUTO 02013KT 09/04 A3032 RMK AO1 SLP269 T00890039,KP58,2023-05-24T21:55:00Z,44.02,-82.8,8.9,3.9,20,13,,,30.318897,1026.9,,TRUE,TRUE,,,,,,,,,,,,,,,,,,,,,,,,,,,SPECI,180.0
KOZR 242155Z AUTO 03013KT 10SM CLR 26/18 A2988 RMK AO2 SLP118 T02570176 $,KOZR,2023-05-24T21:55:00Z,31.28,-85.72,25.7,17.6,30,13,,10.0,29.878937,1011.8,,TRUE,TRUE,TRUE,,,,,,CLR,,,,,,,,VFR,,,,,,,,,,,,METAR,90.0
KOFF 242155Z 11008KT 10SM SCT085 30/08 A3004 RMK AO2A SLP170 T02950080 PWINO PNO FZRANO TSNO CHINO RWY31 $,KOFF,2023-05-24T21:55:00Z,41.12,-95.92,29.5,8.0,110,8,,10.0,30.041338,1017.0,,,TRUE,TRUE,,TRUE,TRUE,TRUE,,SCT,8500,,,,,,,VFR,,,,,,,,,,,,SPECI,308.0
KNTD 242155Z 26010KT 6SM HZ FEW032 OVC040 18/12 A2995 RMK AO2 SLP142 BINOVC T01830122 $,KNTD,2023-05-24T21:55:00Z,34.12,-119.12,18.3,12.2,260,10,,6.0,29.949802,1014.2,,,TRUE,TRUE,,,,,HZ,FEW,3200,OVC,4000,,,,,VFR,,,,,,,,,,,,METAR,1.0
KNKX 242155Z 10SM OVC024 18/11 A2995 RMK AO2 SLP136 T01780111,KNKX,2023-05-24T21:55:00Z,32.87,-117.13,17.8,11.1,,,,10.0,29.949802,1013.6,,,TRUE,,,,,,,OVC,2400,,,,,,,MVFR,,,,,,,,,,,,SPECI,138.0
KNBG 242155Z 02007KT 10SM SCT032 BKN250 28/19 A2986 RMK AO2 SLP112 T2 SET T02780194 $,KNBG,2023-05-24T21:55:00Z,29.83,-90.02,27.8,19.4,20,7,,10.0,29.861221,1011.2,,,TRUE,TRUE,,,,,,SCT,3200,BKN,25000,,,,,VFR,,,,,,,,,,,,METAR,0.0
KMXF 242155Z AUTO 04007KT 10SM BKN065 25/15 A2990 RMK AO2 SLP127 T02450154,KMXF,2023-05-24T21:55:00Z,32.38,-86.37,24.5,15.4,40,7,,10.0,29.899607,1012.7,,TRUE,TRUE,,,,,,,BKN,6500,,,,,,,VFR,,,,,,,,,,,,METAR,47.0
KMUO 242155Z AUTO 34004KT 10SM BKN080 BKN180 BKN200 24/04 A2982 RMK AO2 SLP078 T02390038 $,KMUO,2023-05-24T21:55:00Z,43.03,-115.87,23.9,3.8,340,4,,10.0,29.819881,1007.8,,TRUE,TRUE,TRUE,,,,,,BKN,8000,BKN,18000,BKN,20000,,,VFR,,,,,,,,,,,,SPECI,915.0
KMUI 242155Z 25009KT 10SM FEW065 SCT090 BKN210 27/08 A2991 RMK AO2A SLP130 T02650080 $,KMUI,2023-05-24T21:55:00Z,40.43,-76.57,26.5,8.0,250,9,,10.0,29.911417,1013.0,,,TRUE,TRUE,,,,,,FEW,6500,SCT,9000,BKN,21000,,,VFR,,,,,,,,,,,,SPECI,146.0
KMMT 242155Z 36010KT 10SM CLR 26/05 A2989 RMK AO2A SLP123 T02600050 $,KMMT,2023-05-24T21:55:00Z,33.92,-80.8,26.0,5.0,360,10,,10.0,29.890747,1012.3,,,TRUE,TRUE,,,,,,CLR,,,,,,,,VFR,,,,,,,,,,,,METAR,76.0
KMKG 242155Z 10012KT 10SM BKN220 23/06 A3021 RMK AO2 SLP229 T02330061,KMKG,2023-05-24T21:55:00Z,43.17,-86.23,23.3,6.1,100,12,,10.0,30.209646,1022.9,,,TRUE,,,,,,,BKN,22000,,,,,,,VFR,,,,,,,,,,,,METAR,190.0
KMJD 242155Z AUTO 32008KT 10SM CLR 26/20 A2987 RMK AO2,KMJD,2023-05-24T21:55:00Z,30.48,-89.65,26.0,20.0,320,8,,10.0,29.870079,,,TRUE,TRUE,,,,,,,CLR,,,,,,,,VFR,,,,,,,,,,,,METAR,17.0
KMIB 242155Z AUTO 17021G26KT 10SM FEW070 SCT095 29/13 A2990 RMK AO2 SLP125 T02920130 $,KMIB,2023-05-24T21:55:00Z,48.42,-101.35,29.2,13.0,170,21,26,10.0,29.899607,1012.5,,TRUE,TRUE,TRUE,,,,,,FEW,7000,SCT,9500,,,,,VFR,,,,,,,,,,,,METAR,505.0
KMGE 242155Z 32005KT 10SM SCT055 SCT250 25/11 A2994 RMK AO2A SLP133 T02450107 $,KMGE,2023-05-24T21:55:00Z,33.92,-84.52,24.5,10.7,320,5,,10.0,29.940945,1013.3,,,TRUE,TRUE,,,,,,SCT,5500,SCT,25000,,,,,VFR,,,,,,,,,,,,METAR,309.0
KLZZ 242155Z AUTO 00000KT 10SM CLR 25/18 A2991 RMK AO2 T02480180,KLZZ,2023-05-24T21:55:00Z,31.1,-98.2,24.8,18.0,0,0,,10.0,29.911417,,,TRUE,TRUE,,,,,,,CLR,,,,,,,,VFR,,,,,,,,,,,,METAR,356.0
KLUF 242155Z AUTO 24006KT 10SM CLR 36/01 A2975 RMK AO2 SLP058 T03560006 $,KLUF,2023-05-24T21:55:00Z,33.53,-112.37,35.6,0.6,240,6,,10.0,29.749016,1005.8,,TRUE,TRUE,TRUE,,,,,,CLR,,,,,,,,VFR,,,,,,,,,,,,METAR,333.0
KLTS 242155Z AUTO 14005KT 10SM CLR 29/15 A2991 RMK AO2 SLP116 T02910149 $,KLTS,2023-05-24T21:55:00Z,34.67,-99.27,29.1,14.9,140,5,,10.0,29.911417,1011.6,,TRUE,TRUE,TRUE,,,,,,CLR,,,,,,,,VFR,,,,,,,,,,,,METAR,416.0
KLSF 242155Z VRB06KT 7SM BKN150 25/16 A2992 RMK SLPNO AO2A WND DATA ESTMD RVRNO $,KLSF,2023-05-24T21:55:00Z,32.32,-84.97,25.0,16.0,0,6,,7.0,29.920275,,,,TRUE,TRUE,,,,,,BKN,15000,,,,,,,VFR,,,,,,,,,,,,METAR,68.0
KLRF 242155Z AUTO 04003KT 10SM SCT055 29/15 A2997 RMK AO2 SLP149 T02850154 $,KLRF,2023-05-24T21:55:00Z,34.92,-92.12,28.5,15.4,40,3,,10.0,29.970472,1014.9,,TRUE,TRUE,TRUE,,,,,,SCT,5500,,,,,,,VFR,,,,,,,,,,,,METAR,85.0
KLOT 242155Z 03017G23KT 9SM CLR 20/11 A3017,KLOT,2023-05-24T21:55:00Z,41.6,-88.1,20.0,11.0,30,17,23,9.0,30.171259,,,,,,,,,,,CLR,,,,,,,,VFR,,,,,,,,,,,,METAR,205.0
KLLJ 242155Z AUTO 05003KT 10SM FEW043 FEW065 BKN090 14/08 A2998 RMK AO2 RAE46 SLP118 P0002 T01390083,KLLJ,2023-05-24T21:55:00Z,44.52,-114.22,13.9,8.3,50,3,,10.0,29.97933,1011.8,,TRUE,TRUE,,,,,,,FEW,4300,FEW,6500,BKN,9000,,,VFR,,,,,,0.02,,,,,,METAR,1535.0
KLHW 242155Z AUTO 01006KT 10SM CLR 27/11 A2985 RMK AO2 SLP111 T02730105 $,KLHW,2023-05-24T21:55:00Z,31.88,-81.57,27.3,10.5,10,6,,10.0,29.84941,1011.1,,TRUE,TRUE,TRUE,,,,,,CLR,,,,,,,,VFR,,,,,,,,,,,,METAR,14.0
KLGF 242155Z AUTO 19005G16KT M M CLR 37/03 A2971 RMK AO2 SLP057 T03680027 RVRNO PWINO TSNO $,KLGF,2023-05-24T21:55:00Z,32.87,-114.4,36.8,2.7,190,5,16,,29.71063,1005.7,,TRUE,TRUE,TRUE,,TRUE,,TRUE,,CLR,,,,,,,,,,,,,,,,,,,,METAR,118.0
KLCK 242155Z AUTO 36014G21KT 10SM CLR 26/11 A3003 RMK AO2 T02610112,KLCK,2023-05-24T21:55:00Z,39.82,-82.92,26.1,11.2,360,14,21,10.0,30.029528,,,TRUE,TRUE,,,,,,,CLR,,,,,,,,VFR,,,,,,,,,,,,METAR,225.0
KIWA 242155Z 22009G16KT 10SM CLR 35/00 A2979,KIWA,2023-05-24T21:55:00Z,33.3,-111.65,35.0,0.0,220,9,16,10.0,29.790354,,,,,,,,,,,CLR,,,,,,,,VFR,,,,,,,,,,,,METAR,420.0
KIRK 242155Z AUTO 12012G17KT 10SM FEW060 SCT070 BKN110 27/15 A3007 RMK AO2 SLP180 T02720150,KIRK,2023-05-24T21:55:00Z,40.1,-92.55,27.2,15.0,120,12,17,10.0,30.070866,1018.0,,TRUE,TRUE,,,,,,,FEW,6000,SCT,7000,BKN,11000,,,VFR,,,,,,,,,,,,METAR,292.0
KINS 242155Z AUTO 19020G27KT 10SM CLR 31/M19 A2975 RMK AO2 PK WND 20031/11 SLP025 T03121191 $,KINS,2023-05-24T21:55:00Z,36.58,-115.68,31.2,-19.1,190,20,27,10.0,29.749016,1002.5,,TRUE,TRUE,TRUE,,,,,,CLR,,,,,,,,VFR,,,,,,,,,,,,METAR,954.0
KHUA 242155Z AUTO 04009KT 10SM CLR 27/14 A2994 RMK AO2 SLP135 T02740144,KHUA,2023-05-24T21:55:00Z,34.68,-86.68,27.4,14.4,40,9,,10.0,29.940945,1013.5,,TRUE,TRUE,,,,,,,CLR,,,,,,,,VFR,,,,,,,,,,,,METAR,200.0
KHST 242155Z 25008KT 2SM -TSRA BR SCT003 SCT035CB BKN050 24/22 A2977 RMK AO2A VIS 2V7 RAB40 TSB25 SLP084 P0001 T02420222,KHST,2023-05-24T21:55:00Z,25.48,-80.37,24.2,22.2,250,8,,2.0,29.769686,1008.4,,,TRUE,,,,,,-TSRA BR,SCT,300,SCT,3500,BKN,5000,,,IFR,,,,,,0.01,,,,,,METAR,1.0
KHRT 242155Z 27003KT 10SM VCTS CT050 BKN120 22/19 A2984 RMK AO2A SLP106 P0000 T02150194 $,KHRT,2023-05-24T21:55:00Z,30.42,-86.68,21.5,19.4,270,3,,10.0,29.840551,1010.6,,,TRUE,TRUE,,,,,VCTS,BKN,12000,,,,,,,VFR,,,,,,0.005,,,,,,SPECI,10.0
KHOP 242155Z AUTO 01009KT 10SM CLR 28/14 A2997 RMK AO2 SLP146 T02760142,KHOP,2023-05-24T21:55:00Z,36.67,-87.5,27.6,14.2,10,9,,10.0,29.970472,1014.6,,TRUE,TRUE,,,,,,,CLR,,,,,,,,VFR,,,,,,,,,,,,METAR,170.0
KHON 242155Z AUTO 18013G21KT 130V200 10SM CLR 29/09 A3001 RMK AO2 SLP154 T02940094,KHON,2023-05-24T21:55:00Z,44.38,-98.23,29.4,9.4,180,13,21,10.0,30.008858,1015.4,,TRUE,TRUE,,,,,,,CLR,,,,,,,,VFR,,,,,,,,,,,,METAR,391.0
KHMN 242155Z AUTO 11010G15KT 10SM CLR 33/M06 A2994 RMK AO2 SLP068 T03311056 $,KHMN,2023-05-24T21:55:00Z,32.85,-106.1,33.1,-5.6,110,10,15,10.0,29.940945,1006.8,,TRUE,TRUE,TRUE,,,,,,CLR,,,,,,,,VFR,,,,,,,,,,,,METAR,1240.0
KHLR 242155Z AUTO 06005KT 10SM FEW040 BKN050 26/18 A2994 RMK AO2 SLP130 T02620178,KHLR,2023-05-24T21:55:00Z,31.13,-97.72,26.2,17.8,60,5,,10.0,29.940945,1013.0,,TRUE,TRUE,,,,,,,FEW,4000,BKN,5000,,,,,VFR,,,,,,,,,,,,METAR,271.0
KHFF 242155Z AUTO 09007KT 10SM CLR 26/01 A2993 RMK AO2 SLP136 T02560010 $,KHFF,2023-05-24T21:55:00Z,35.03,-79.5,25.6,1.0,90,7,,10.0,29.929134,1013.6,,TRUE,TRUE,TRUE,,,,,,CLR,,,,,,,,VFR,,,,,,,,,,,,METAR,100.0
KHEY 242155Z AUTO 06010KT 10SM FEW029 SCT035 SCT044 SCT100 26/18 A2986 RMK AO2 SLP111 T02550184 $,KHEY,2023-05-24T21:55:00Z,31.35,-85.65,25.5,18.4,60,10,,10.0,29.861221,1011.1,,TRUE,TRUE,TRUE,,,,,,FEW,2900,SCT,3500,SCT,4400,SCT,10000,VFR,,,,,,,,,,,,SPECI,95.0
KGXF 242155Z 24009G20KT 10SM CLR 37/M03 A2974 RMK AO2A SLP058 T03711027 FZRANO $,KGXF,2023-05-24T21:55:00Z,32.88,-112.72,37.1,-2.7,240,9,20,10.0,29.740158,1005.8,,,TRUE,TRUE,,,TRUE,,,CLR,,,,,,,,VFR,,,,,,,,,,,,METAR,261.0
KGXA 242155Z AUTO 00000KT 10SM CLR 27/02 A2982 RMK AO2 SLP075 WND DATA ESTMD T02700018,KGXA,2023-05-24T21:55:00Z,34.57,-117.67,27.0,1.8,0,0,,10.0,29.819881,1007.5,,TRUE,TRUE,,,,,,,CLR,,,,,,,,VFR,,,,,,,,,,,,METAR,927.0
KGUS 242155Z AUTO 03013G17KT 10SM SCT095 SCT200 28/08 A3005 RMK AO2 SLP175 T02810084 $,KGUS,2023-05-24T21:55:00Z,40.63,-86.15,28.1,8.4,30,13,17,10.0,30.050198,1017.5,,TRUE,TRUE,TRUE,,,,,,SCT,9500,SCT,20000,,,,,VFR,,,,,,,,,,,,METAR,245.0
KGUR 242155Z AUTO 15009KT 10SM FEW280 23/11 A2993 RMK AO2 LTG DSNT W SLP119 T02330113,KGUR,2023-05-24T21:55:00Z,42.25,-104.72,23.3,11.3,150,9,,10.0,29.929134,1011.9,,TRUE,TRUE,,,,,,,FEW,28000,,,,,,,VFR,,,,,,,,,,,,METAR,1341.0
KGTB 242155Z AUTO 03011KT 10SM OVC037 11/05 A3012 RMK AO2 SLP201 T01110048,KGTB,2023-05-24T21:55:00Z,44.07,-75.72,11.1,4.8,30,11,,10.0,30.121063,1020.1,,TRUE,TRUE,,,,,,,OVC,3700,,,,,,,VFR,,,,,,,,,,,,METAR,206.0
KGSB 242155Z 05010KT 10SM BKN090 24/09 A2991 RMK AO2A SLP132 WND DATA ESTMD T02420094 $,KGSB,2023-05-24T21:55:00Z,35.33,-77.93,24.2,9.4,50,10,,10.0,29.911417,1013.2,,,TRUE,TRUE,,,,,,BKN,9000,,,,,,,VFR,,,,,,,,,,,,METAR,33.0
KGRK 242155Z AUTO 36006KT 10SM CLR 26/18 A2994 RMK AO2 SLP130 T02610177,KGRK,2023-05-24T21:55:00Z,31.07,-97.83,26.1,17.7,360,6,,10.0,29.940945,1013.0,,TRUE,TRUE,,,,,,,CLR,,,,,,,,VFR,,,,,,,,,,,,METAR,311.0
KGRF 242155Z AUTO 33007KT 10SM FEW046 FEW200 20/07 A3002 RMK AO2 SLP169 T02020069 $,KGRF,2023-05-24T21:55:00Z,47.07,-122.57,20.2,6.9,330,7,,10.0,30.02067,1016.9,,TRUE,TRUE,TRUE,,,,,,FEW,4600,FEW,20000,,,,,VFR,,,,,,,,,,,,METAR,91.0
KGPI 242155Z VRB03KT 10SM CLR 21/08 A2989 RMK AO2 SLP113 T02060078,KGPI,2023-05-24T21:55:00Z,48.32,-114.25,20.6,7.8,0,3,,10.0,29.890747,1011.3,,,TRUE,,,,,,,CLR,,,,,,,,VFR,,,,,,,,,,,,METAR,903.0
KGOV 242155Z AUTO 05012G20KT 10SM CLR 16/M10 A3030 RMK AO2 SLP269 T01641103 $,KGOV,2023-05-24T21:55:00Z,44.68,-84.73,16.4,-10.3,50,12,20,10.0,30.301182,1026.9,,TRUE,TRUE,TRUE,,,,,,CLR,,,,,,,,VFR,,,,,,,,,,,,METAR,350.0
KGFA 242155Z AUTO 00000KT 10SM FEW045 BKN120 19/09 A2992 RMK AO2 SLP123 T01880087 $,KGFA,2023-05-24T21:55:00Z,47.5,-111.18,18.8,8.7,0,0,,10.0,29.920275,1012.3,,TRUE,TRUE,TRUE,,,,,,FEW,4500,BKN,12000,,,,,VFR,,,,,,,,,,,,METAR,1058.0
KFTK 242155Z AUTO 34008KT 10SM CLR 27/09 A3000 RMK AO2 SLP156 T02730091,KFTK,2023-05-24T21:55:00Z,37.9,-85.97,27.3,9.1,340,8,,10.0,30.0,1015.6,,TRUE,TRUE,,,,,,,CLR,,,,,,,,VFR,,,,,,,,,,,,METAR,225.0
KFSI 242155Z AUTO 13009KT 10SM FEW075 28/18 A2992 RMK AO2 SLP124 T02790177 FZRANO $,KFSI,2023-05-24T21:55:00Z,34.65,-98.4,27.9,17.7,130,9,,10.0,29.920275,1012.4,,TRUE,TRUE,TRUE,,,TRUE,,,FEW,7500,,,,,,,VFR,,,,,,,,,,,,METAR,360.0
KFRI 242155Z AUTO 08008KT 10SM SCT065 28/14 A3000 RMK AO2 LTG DSNT SE SLP151 T02760142 $,KFRI,2023-05-24T21:55:00Z,39.05,-96.77,27.6,14.2,80,8,,10.0,30.0,1015.1,,TRUE,TRUE,TRUE,,,,,,SCT,6500,,,,,,,VFR,,,,,,,,,,,,METAR,232.0
KFFO 242155Z 03017G21KT 10SM FEW100 27/12 A3000 RMK AO2A SLP158 T02650118,KFFO,2023-05-24T21:55:00Z,39.83,-84.03,26.5,11.8,30,17,21,10.0,30.0,1015.8,,,TRUE,,,,,,,FEW,10000,,,,,,,VFR,,,,,,,,,,,,SPECI,250.0
KFEW 242155Z 15003KT 10SM CLR 20/06 A3005 RMK AO2A LTG DSNT E AND S SLP110 T02010061 $,KFEW,2023-05-24T21:55:00Z,41.13,-104.87,20.1,6.1,150,3,,10.0,30.050198,1011.0,,,TRUE,TRUE,,,,,,CLR,,,,,,,,VFR,,,,,,,,,,,,METAR,1877.0
KFBG 242155Z AUTO 06009KT 10SM CLR 25/03 A2992 RMK AO2 SLP133 T02480028 $,KFBG,2023-05-24T21:55:00Z,35.12,-78.92,24.8,2.8,60,9,,10.0,29.920275,1013.3,,TRUE,TRUE,TRUE,,,,,,CLR,,,,,,,,VFR,,,,,,,,,,,,METAR,69.0
KFAF 242155Z 03006KT 10SM FEW250 24/04 A2996 RMK AO2A SLP149 T02360040 $,KFAF,2023-05-24T21:55:00Z,37.13,-76.62,23.6,4.0,30,6,,10.0,29.958662,1014.9,,,TRUE,TRUE,,,,,,FEW,25000,,,,,,,VFR,,,,,,,,,,,,METAR,3.0
KETH 242155Z AUTO 10020G25KT 10SM CLR 28/11 A3008 RMK AO2,KETH,2023-05-24T21:55:00Z,45.78,-96.55,28.0,11.0,100,20,25,10.0,30.079725,,,TRUE,TRUE,,,,,,,CLR,,,,,,,,VFR,,,,,,,,,,,,METAR,309.0
KEND 242155Z AUTO 12008KT 10SM FEW046 27/16 A2996 RMK AO2 SLP137 T02720158 $,KEND,2023-05-24T21:55:00Z,36.33,-97.92,27.2,15.8,120,8,,10.0,29.958662,1013.7,,TRUE,TRUE,TRUE,,,,,,FEW,4600,,,,,,,VFR,,,,,,,,,,,,SPECI,392.0
KEGI 242155Z AUTO 05009KT 10SM FEW070 26/19 A2985 RMK AO2 LTG DSNT W SLP108 T02570186 $,KEGI,2023-05-24T21:55:00Z,30.65,-86.52,25.7,18.6,50,9,,10.0,29.84941,1010.8,,TRUE,TRUE,TRUE,,,,,,FEW,7000,,,,,,,VFR,,,,,,,,,,,,SPECI,59.0
KEDW 242155Z 26025G30KT 60SM CLR 27/M02 A2980 RMK AO2A PK WND 25030/49 SLP074 T02721017,KEDW,2023-05-24T21:55:00Z,34.9,-117.87,27.2,-1.7,260,25,30,60.0,29.799213,1007.4,,,TRUE,,,,,,,CLR,,,,,,,,VFR,,,,,,,,,,,,METAR,698.0
KEAT 242155Z AUTO VRB04KT 10SM SCT120 23/03 A2993 RMK AO2 SLP130 T02280028,KEAT,2023-05-24T21:55:00Z,47.4,-120.2,22.8,2.8,0,4,,10.0,29.929134,1013.0,,TRUE,TRUE,,,,,,,SCT,12000,,,,,,,VFR,,,,,,,,,,,,METAR,375.0
KDYS 242155Z AUTO 11006KT 10SM CLR 25/16 A2994 RMK AO2 SLP105 T02530156 $,KDYS,2023-05-24T21:55:00Z,32.42,-99.83,25.3,15.6,110,6,,10.0,29.940945,1010.5,,TRUE,TRUE,TRUE,,,,,,CLR,,,,,,,,VFR,,,,,,,,,,,,METAR,544.0
KDOV 242155Z AUTO 11005KT 10SM CLR 24/10 A2994 RMK AO2 SLP142 T02380097,KDOV,2023-05-24T21:55:00Z,39.12,-75.47,23.8,9.7,110,5,,10.0,29.940945,1014.2,,TRUE,TRUE,,,,,,,CLR,,,,,,,,VFR,,,,,,,,,,,,SPECI,6.0
KDMA 242155Z 18007KT 10SM CLR 33/M03 A2984 RMK AO2A SLP062 T03311026 RVRNO VISNO RWY12 $,KDMA,2023-05-24T21:55:00Z,32.17,-110.88,33.1,-2.6,180,7,,10.0,29.840551,1006.2,,,TRUE,TRUE,,,,,,CLR,,,,,,,,VFR,,,,,,,,,,,,METAR,804.0
KDLH 242155Z 09015G22KT 10SM BKN060 OVC075 06/M05 A3035 RMK AO2 PK WND 09026/2137 SLP291 T00561050,KDLH,2023-05-24T21:55:00Z,46.85,-92.2,5.6,-5.0,90,15,22,10.0,30.351377,1029.1,,,TRUE,,,,,,,BKN,6000,OVC,7500,,,,,VFR,,,,,,,,,,,,METAR,434.0
KDLF 242155Z AUTO 10015KT 10SM CLR 31/18 A2985 RMK AO2 SLP096 T03070177 $,KDLF,2023-05-24T21:55:00Z,29.37,-100.78,30.7,17.7,100,15,,10.0,29.84941,1009.6,,TRUE,TRUE,TRUE,,,,,,CLR,,,,,,,,VFR,,,,,,,,,,,,METAR,328.0
KDCM 242155Z AUTO 34006KT 10SM CLR 24/03 A2997 RMK AO2,KDCM,2023-05-24T21:55:00Z,34.78,-81.2,24.0,3.0,340,6,,10.0,29.970472,,,TRUE,TRUE,,,,,,,CLR,,,,,,,,VFR,,,,,,,,,,,,SPECI,191.0
KDAA 242155Z AUTO 15004KT 10SM CLR 26/11 A2995 RMK AO2 SLP145 T02550109 $,KDAA,2023-05-24T21:55:00Z,38.72,-77.17,25.5,10.9,150,4,,10.0,29.949802,1014.5,,TRUE,TRUE,TRUE,,,,,,CLR,,,,,,,,VFR,,,,,,,,,,,,METAR,17.0
KCVS 242155Z AUTO 14014KT 10SM SCT060 BKN080 BKN200 28/14 A2997 RMK AO2 SLP093 T02750141 $,KCVS,2023-05-24T21:55:00Z,34.37,-103.32,27.5,14.1,140,14,,10.0,29.970472,1009.3,,TRUE,TRUE,TRUE,,,,,,SCT,6000,BKN,8000,BKN,20000,,,VFR,,,,,,,,,,,,METAR,1305.0
KCOF 242155Z AUTO 03010KT 10SM CLR 24/21 A2978 RMK AO2 RAB01E07DZB35E41 SLP089 P0002 T02410212 $,KCOF,2023-05-24T21:55:00Z,28.23,-80.6,24.1,21.2,30,10,,10.0,29.778543,1008.9,,TRUE,TRUE,TRUE,,,,,,CLR,,,,,,,,VFR,,,,,,0.02,,,,,,METAR,1.0
KCNW 242155Z 13005KT 7SM SCT041 28/17 A2993,KCNW,2023-05-24T21:55:00Z,31.63,-97.07,28.0,17.0,130,5,,7.0,29.929134,,,,,,,,,,,SCT,4100,,,,,,,VFR,,,,,,,,,,,,METAR,139.0
KCNK 242155Z AUTO 13006KT 10SM BKN070 29/11 A3002 RMK AO2 SLP151 T02890111,KCNK,2023-05-24T21:55:00Z,39.55,-97.65,28.9,11.1,130,6,,10.0,30.02067,1015.1,,TRUE,TRUE,,,,,,,BKN,7000,,,,,,,VFR,,,,,,,,,,,,METAR,445.0
KCMY 242155Z AUTO 09006KT 10SM CLR 21/04 A3020 RMK AO2 SLP231 T02110038 FZRANO $,KCMY,2023-05-24T21:55:00Z,43.97,-90.73,21.1,3.8,90,6,,10.0,30.200787,1023.1,,TRUE,TRUE,TRUE,,,TRUE,,,CLR,,,,,,,,VFR,,,,,,,,,,,,METAR,253.0
KCMA 242155Z 24009G16KT 10SM SCT033 OVC043 20/12 A2993 RMK AO2 SLP144 T02000117,KCMA,2023-05-24T21:55:00Z,34.22,-119.1,20.0,11.7,240,9,16,10.0,29.929134,1014.4,,,TRUE,,,,,,,SCT,3300,OVC,4300,,,,,VFR,,,,,,,,,,,,METAR,20.0
KCEF 242155Z 02021G30KT 10SM FEW006 SCT011 BKN027 BKN040 BKN200 14/12 A2996 RMK AO2A PK WND 01034/41 SLP152 P0014 T01410118,KCEF,2023-05-24T21:55:00Z,42.2,-72.52,14.1,11.8,20,21,30,10.0,29.958662,1015.2,,,TRUE,,,,,,,FEW,600,SCT,1100,BKN,2700,BKN,4000,MVFR,,,,,,0.14,,,,,,SPECI,72.0
KCBM 242155Z 06009KT 10SM FEW050 27/13 A2991 RMK AO2A SLP133 ALSTG/SLP ESTMD $,KCBM,2023-05-24T21:55:00Z,33.65,-88.45,27.0,13.0,60,9,,10.0,29.911417,1013.3,,,TRUE,TRUE,,,,,,FEW,5000,,,,,,,VFR,,,,,,,,,,,,METAR,59.0
KCAO 242155Z AUTO 15012KT 10SM FEW060 23/11 A3003 RMK AO2 SLP114 T02330111,KCAO,2023-05-24T21:55:00Z,36.45,-103.15,23.3,11.1,150,12,,10.0,30.029528,1011.4,,TRUE,TRUE,,,,,,,FEW,6000,,,,,,,VFR,,,,,,,,,,,,METAR,1517.0
KBYS 242155Z AUTO 20015KT 10SM CLR 31/M03 A2975 RMK AO2 SLP048 T03051033 $,KBYS,2023-05-24T21:55:00Z,35.28,-116.63,30.5,-3.3,200,15,,10.0,29.749016,1004.8,,TRUE,TRUE,TRUE,,,,,,CLR,,,,,,,,VFR,,,,,,,,,,,,METAR,717.0
KBWD 242155Z AUTO 13004KT 10SM SCT027 26/19 A2996 RMK AO1,KBWD,2023-05-24T21:55:00Z,31.8,-98.95,26.0,19.0,130,4,,10.0,29.958662,,,TRUE,TRUE,,,,,,,SCT,2700,,,,,,,VFR,,,,,,,,,,,,METAR,420.0
KBLV 242155Z 11011KT 10SM CLR 29/10 A3002 RMK AO2A SLP166 T02890101 $,KBLV,2023-05-24T21:55:00Z,38.53,-89.83,28.9,10.1,110,11,,10.0,30.02067,1016.6,,,TRUE,TRUE,,,,,,CLR,,,,,,,,VFR,,,,,,,,,,,,METAR,134.0
KBIX 242155Z 04009KT 10SM FEW047 SCT070 26/18 A2985 RMK AO2A SLP111 T02580179,KBIX,2023-05-24T21:55:00Z,30.42,-88.92,25.8,17.9,40,9,,10.0,29.84941,1011.1,,,TRUE,,,,,,,FEW,4700,SCT,7000,,,,,VFR,,,,,,,,,,,,SPECI,4.0
KBAD 242155Z AUTO 06009KT 10SM SCT037 SCT210 25/17 A2994 RMK AO2 SLP141 T02540165,KBAD,2023-05-24T21:55:00Z,32.5,-93.67,25.4,16.5,60,9,,10.0,29.940945,1014.1,,TRUE,TRUE,,,,,,,SCT,3700,SCT,21000,,,,,VFR,,,,,,,,,,,,METAR,49.0
KBAB 242155Z AUTO 19007KT 9SM CLR 24/11 A2982 RMK AO2 SLP101 T02420112 $,KBAB,2023-05-24T21:55:00Z,39.13,-121.43,24.2,11.2,190,7,,9.0,29.819881,1010.1,,TRUE,TRUE,TRUE,,,,,,CLR,,,,,,,,VFR,,,,,,,,,,,,METAR,31.0
KAST 242155Z AUTO 30017G22KT 10SM CLR 16/11 A3007 RMK AO2 SLP181 T01560106,KAST,2023-05-24T21:55:00Z,46.15,-123.88,15.6,10.6,300,17,22,10.0,30.070866,1018.1,,TRUE,TRUE,,,,,,,CLR,,,,,,,,VFR,,,,,,,,,,,,METAR,3.0
KANJ 242155Z AUTO 29011KT 10SM CLR 11/00 A3037 RMK AO2 SLP286 T01110000,KANJ,2023-05-24T21:55:00Z,46.47,-84.37,11.1,0.0,290,11,,10.0,30.369095,1028.6,,TRUE,TRUE,,,,,,,CLR,,,,,,,,VFR,,,,,,,,,,,,METAR,220.0
KADW 242155Z AUTO 18009KT 10SM CLR 25/10 A2994 RMK AO2 SLP144 T02450104 $,KADW,2023-05-24T21:55:00Z,38.82,-76.87,24.5,10.4,180,9,,10.0,29.940945,1014.4,,TRUE,TRUE,TRUE,,,,,,CLR,,,,,,,,VFR,,,,,,,,,,,,METAR,87.0
KABH 242155Z AUTO 14007KT 10SM VCTS BKN100 21/09 A3007 RMK AO2 SLP121 T02050088,KABH,2023-05-24T21:55:00Z,38.75,-104.3,20.5,8.8,140,7,,10.0,30.070866,1012.1,,TRUE,TRUE,,,,,,VCTS,BKN,10000,,,,,,,VFR,,,,,,,,,,,,METAR,1838.0
KAAT 242155Z AUTO 28009KT 10SM CLR 23/01 RMK AO2 SLPNO T02280011 $,KAAT,2023-05-24T21:55:00Z,41.48,-120.57,22.8,1.1,280,9,,10.0,,,,TRUE,TRUE,TRUE,,,,,,CLR,,,,,,,,VFR,,,,,,,,,,,,METAR,1336.0
K9L2 242155Z AUTO 21019G24KT 9SM CLR 27/M07 A2981 RMK AO2 PK WND 22026/20 SLP076 T02711072,K9L2,2023-05-24T21:55:00Z,34.98,-117.87,27.1,-7.2,210,19,24,9.0,29.811024,1007.6,,TRUE,TRUE,,,,,,,CLR,,,,,,,,VFR,,,,,,,,,,,,SPECI,697.0
K4MR 242155Z AUTO 14011G22KT 10SM FEW095 30/11 A2992 RMK AO2 SLP055 T02950106 $,K4MR,2023-05-24T21:55:00Z,34.3,-103.8,29.5,10.6,140,11,22,10.0,29.920275,1005.5,,TRUE,TRUE,TRUE,,,,,,FEW,9500,,,,,,,VFR,,,,,,,,,,,,METAR,1339.0
K2DP 242155Z AUTO 36011KT 10SM OVC013 17/16 A2991 RMK AO2 OVC V BKN SLPNO T01710164 $,K2DP,2023-05-24T21:55:00Z,35.68,-75.9,17.1,16.4,360,11,,10.0,29.911417,,,TRUE,TRUE,TRUE,,,,,,OVC,1300,,,,,,,MVFR,,,,,,,,,,,,SPECI,1.0
K1YT 242155Z AUTO 23006KT 10SM CLR 24/M00 A2988 RMK AO2 SLP118 T02381005 $,K1YT,2023-05-24T21:55:00Z,46.67,-120.45,23.8,-0.5,230,6,,10.0,29.878937,1011.8,,TRUE,TRUE,TRUE,,,,,,CLR,,,,,,,,VFR,,,,,,,,,,,,METAR,423.0
K1OW 242155Z AUTO 16015G19KT 10SM FEW045 SCT055 BKN070 BKN090 20/11 A3012 RMK AO2 LTG DSNT S-W SLP152 T01990114 $,K1OW,2023-05-24T21:55:00Z,40.88,-104.0,19.9,11.4,160,15,19,10.0,30.121063,1015.2,,TRUE,TRUE,TRUE,,,,,,FEW,4500,SCT,5500,BKN,7000,BKN,9000,VFR,,,,,,,,,,,,SPECI,1650.0
K1ON 242155Z AUTO 15020G24KT 10SM FEW075 29/14 A2991 RMK AO2 PK WND 16028/33 SLP130 T02860137 $,K1ON,2023-05-24T21:55:00Z,,,28.6,13.7,150,20,24,10.0,29.911417,1013.0,,TRUE,TRUE,TRUE,,,,,,FEW,7500,,,,,,,VFR,,,,,,,,,,,,METAR,
K1OM 242155Z AUTO 30014KT 10SM BKN100 19/11 A2987 RMK AO2 LTG DSNT NE SLP103 T01890107 $,K1OM,2023-05-24T21:55:00Z,47.33,-108.93,18.9,10.7,300,14,,10.0,29.870079,1010.3,,TRUE,TRUE,TRUE,,,,,,BKN,10000,,,,,,,VFR,,,,,,,,,,,,METAR,1088.0
K1NW 242155Z AUTO 16010KT 10SM M 23/13 A2996 RMK AO2 LTG DSNT SW SLP096 T02300129 $,K1NW,2023-05-24T21:55:00Z,40.63,-103.83,23.0,12.9,160,10,,10.0,29.958662,1009.6,,TRUE,TRUE,TRUE,,,,,,,,,,,,,,,,,,,,,,,,,,SPECI,1461.0
K1MW 242155Z AUTO 16013KT 10SM CLR 25/10 A2996 RMK AO2 SLP102 T02450100 PWINO $,K1MW,2023-05-24T21:55:00Z,40.7,-103.48,24.5,10.0,160,13,,10.0,29.958662,1010.2,,TRUE,TRUE,TRUE,,,,TRUE,,CLR,,,,,,,,VFR,,,,,,,,,,,,METAR,1338.0
K1MN 242155Z AUTO 16018G25KT 10SM FEW080 30/11 A2989 RMK AO2 PK WND 17028/42 SLP120 T02950110 $,K1MN,2023-05-24T21:55:00Z,,,29.5,11.0,160,18,25,10.0,29.890747,1012.0,,TRUE,TRUE,TRUE,,,,,,FEW,8000,,,,,,,VFR,,,,,,,,,,,,METAR,
K1MM 242155Z AUTO 34010KT 10SM BKN040 OVC110 19/09 A2990 RMK AO2 SLP114 T01900089 $,K1MM,2023-05-24T21:55:00Z,47.02,-109.63,19.0,8.9,340,10,,10.0,29.899607,1011.4,,TRUE,TRUE,TRUE,,,,,,BKN,4000,OVC,11000,,,,,VFR,,,,,,,,,,,,METAR,1256.0
K1LN 242155Z AUTO 17017KT 10SM SCT075 BKN130 28/11 A2989 RMK AO2 SLP119 T02840110 $,K1LN,2023-05-24T21:55:00Z,,,28.4,11.0,170,17,,10.0,29.890747,1011.9,,TRUE,TRUE,TRUE,,,,,,SCT,7500,BKN,13000,,,,,VFR,,,,,,,,,,,,METAR,
K1KN 242155Z AUTO 16013G27KT 10SM FEW070 BKN140 29/10 A2992 RMK AO2 PK WND 16027/39 SLP128 T02850097 $,K1KN,2023-05-24T21:55:00Z,,,28.5,9.7,160,13,27,10.0,29.920275,1012.8,,TRUE,TRUE,TRUE,,,,,,FEW,7000,BKN,14000,,,,,VFR,,,,,,,,,,,,METAR,
K1JW 242155Z AUTO 15018G22KT 10SM FEW043 SCT060 22/12 M RMK AO2 SLPNO T02220116 $,K1JW,2023-05-24T21:55:00Z,40.97,-103.2,22.2,11.6,150,18,22,10.0,,,,TRUE,TRUE,TRUE,,,,,,FEW,4300,SCT,6000,,,,,VFR,,,,,,,,,,,,SPECI,1382.0
K1JN 242155Z AUTO 18019G24KT 10SM CLR 28/11 A2991 RMK AO2 PK WND 16028/32 SLP126 T02840110 $,K1JN,2023-05-24T21:55:00Z,,,28.4,11.0,180,19,24,10.0,29.911417,1012.6,,TRUE,TRUE,TRUE,,,,,,CLR,,,,,,,,VFR,,,,,,,,,,,,METAR,
K1JM 242155Z AUTO 07008KT 10SM SCT049 18/07 A2989 RMK AO2 SLP115 T01820067 $,K1JM,2023-05-24T21:55:00Z,47.75,-111.55,18.2,6.7,70,8,,10.0,29.890747,1011.5,,TRUE,TRUE,TRUE,,,,,,SCT,4900,,,,,,,VFR,,,,,,,,,,,,METAR,1154.0
K1IW 242155Z AUTO 15017G24KT 10SM FEW040 23/14 A2998 RMK AO2 SLP115 T02320142 $,K1IW,2023-05-24T21:55:00Z,41.05,-102.87,23.2,14.2,150,17,24,10.0,29.97933,1011.5,,TRUE,TRUE,TRUE,,,,,,FEW,4000,,,,,,,VFR,,,,,,,,,,,,METAR,1294.0
K1IN 242155Z AUTO 17021G27KT 10SM SCT070 29/10 A2989 RMK AO2 PK WND 18032/29 SLP119 T02900101 $,K1IN,2023-05-24T21:55:00Z,,,29.0,10.1,170,21,27,10.0,29.890747,1011.9,,TRUE,TRUE,TRUE,,,,,,SCT,7000,,,,,,,VFR,,,,,,,,,,,,METAR,
K1IM 242155Z AUTO 11006KT 10SM FEW041 OVC120 18/09 A2989 RMK AO2 SLP110 T01770091 $,K1IM,2023-05-24T21:55:00Z,47.32,-111.47,17.7,9.1,110,6,,10.0,29.890747,1011.0,,TRUE,TRUE,TRUE,,,,,,FEW,4100,OVC,12000,,,,,VFR,,,,,,,,,,,,METAR,1110.0
K1HW 242155Z AUTO 14017KT 10SM SCT043 SCT060 BKN080 23/14 A2996 RMK AO2 SLP114 T02250141 $,K1HW,2023-05-24T21:55:00Z,41.32,-102.83,22.5,14.1,140,17,,10.0,29.958662,1011.4,,TRUE,TRUE,TRUE,,,,,,SCT,4300,SCT,6000,BKN,8000,,,VFR,,,,,,,,,,,,SPECI,1265.0
K1HN 242155Z AUTO 14018G23KT 10SM CLR 29/13 A2987 RMK AO2 PK WND 14027/01 SLP114 T02930131 $,K1HN,2023-05-24T21:55:00Z,,,29.3,13.1,140,18,23,10.0,29.870079,1011.4,,TRUE,TRUE,TRUE,,,,,,CLR,,,,,,,,VFR,,,,,,,,,,,,METAR,
K1HM 242155Z AUTO 23004KT 10SM SCT055 20/05 A2988 RMK AO2 SLP107 T01960053 $,K1HM,2023-05-24T21:55:00Z,47.7,-111.95,19.6,5.3,230,4,,10.0,29.878937,1010.7,,TRUE,TRUE,TRUE,,,,,,SCT,5500,,,,,,,VFR,,,,,,,,,,,,METAR,1181.0
K1GN 242155Z AUTO 15018G26KT 10SM CLR 29/10 A2989 RMK AO2 PK WND 17030/2055 SLP124 T02850102 $,K1GN,2023-05-24T21:55:00Z,,,28.5,10.2,150,18,26,10.0,29.890747,1012.4,,TRUE,TRUE,TRUE,,,,,,CLR,,,,,,,,VFR,,,,,,,,,,,,METAR,
K1GM 242155Z AUTO 11008KT 10SM CLR 16/07 M RMK AO2 SLPNO T01640065 $,K1GM,2023-05-24T21:55:00Z,47.33,-112.1,16.4,6.5,110,8,,10.0,,,,TRUE,TRUE,TRUE,,,,,,CLR,,,,,,,,VFR,,,,,,,,,,,,METAR,1317.0
K1FW 242155Z AUTO 12018G23KT 10SM SCT045 SCT055 22/22 A2998 RMK AO2 SLP107 T02180216 $,K1FW,2023-05-24T21:55:00Z,41.37,-103.48,21.8,21.6,120,18,23,10.0,29.97933,1010.7,,TRUE,TRUE,TRUE,,,,,,SCT,4500,SCT,5500,,,,,VFR,,,,,,,,,,,,METAR,1451.0
K1EW 242155Z AUTO 14012G17KT 10SM FEW047 22/10 A2999 RMK AO2 LTG DSNT SW SLP106 T02150103 $,K1EW,2023-05-24T21:55:00Z,41.12,-103.98,21.5,10.3,140,12,17,10.0,29.991142,1010.6,,TRUE,TRUE,TRUE,,,,,,FEW,4700,,,,,,,VFR,,,,,,,,,,,,SPECI,1609.0
K1EN 242155Z AUTO 16018G22KT 10SM CLR 28/10 A2970 RMK AO2 PK WND 15026/2058 SLP058 T02810103 $,K1EN,2023-05-24T21:55:00Z,,,28.1,10.3,160,18,22,10.0,29.698818,1005.8,,TRUE,TRUE,TRUE,,,,,,CLR,,,,,,,,VFR,,,,,,,,,,,,METAR,
K1EM 242155Z AUTO 29010KT 10SM BKN100 19/10 A2988 RMK AO2 LTG DSNT NE SLP107 T01870097 $,K1EM,2023-05-24T21:55:00Z,47.45,-109.42,18.7,9.7,290,10,,10.0,29.878937,1010.7,,TRUE,TRUE,TRUE,,,,,,BKN,10000,,,,,,,VFR,,,,,,,,,,,,METAR,1118.0
K1DM 242155Z AUTO 35014G18KT 10SM CLR 19/08 A2989 RMK AO2 SLP114 T01940081 $,K1DM,2023-05-24T21:55:00Z,47.37,-109.8,19.4,8.1,350,14,18,10.0,29.890747,1011.4,,TRUE,TRUE,TRUE,,,,,,CLR,,,,,,,,VFR,,,,,,,,,,,,METAR,1093.0
K1CW 242155Z AUTO 13015G22KT 10SM FEW055 24/11 A2996 RMK AO2 SLP100 T02420112 $,K1CW,2023-05-24T21:55:00Z,41.58,-103.57,24.2,11.2,130,15,22,10.0,29.958662,1010.0,,TRUE,TRUE,TRUE,,,,,,FEW,5500,,,,,,,VFR,,,,,,,,,,,,SPECI,1370.0
K1CN 242155Z AUTO 18018G24KT 8SM CLR 29/12 A2993 RMK AO2 PK WND 17026/2055 SLP131 T02880122 $,K1CN,2023-05-24T21:55:00Z,,,28.8,12.2,180,18,24,8.0,29.929134,1013.1,,TRUE,TRUE,TRUE,,,,,,CLR,,,,,,,,VFR,,,,,,,,,,,,METAR,
K1CM 242155Z AUTO 31010KT 10SM OVC046 16/09 A2992 RMK AO2 SLP121 T01550087 $,K1CM,2023-05-24T21:55:00Z,47.1,-110.17,15.5,8.7,310,10,,10.0,29.920275,1012.1,,TRUE,TRUE,TRUE,,,,,,OVC,4600,,,,,,,VFR,,,,,,,,,,,,METAR,1338.0
K1BW 242155Z AUTO 17013KT 10SM CLR 22/10 A3003 RMK AO2 SLP124 T02150100 $,K1BW,2023-05-24T21:55:00Z,41.52,-104.0,21.5,10.0,170,13,,10.0,30.029528,1012.4,,TRUE,TRUE,TRUE,,,,,,CLR,,,,,,,,VFR,,,,,,,,,,,,METAR,1606.0
K1AN 242155Z AUTO 15015G27KT 10SM FEW070 29/14 A2989 RMK AO2 PK WND 15027/44 SLP136 T02920138 $,K1AN,2023-05-24T21:55:00Z,,,29.2,13.8,150,15,27,10.0,29.890747,1013.6,,TRUE,TRUE,TRUE,,,,,,FEW,7000,,,,,,,VFR,,,,,,,,,,,,METAR,
K1AM 242155Z AUTO 26004KT 10SM FEW036 OVC120 17/08 A2992 RMK AO2 SLP122 T01690083 $,K1AM,2023-05-24T21:55:00Z,47.28,-110.8,16.9,8.3,260,4,,10.0,29.920275,1012.2,,TRUE,TRUE,TRUE,,,,,,FEW,3600,OVC,12000,,,,,VFR,,,,,,,,,,,,METAR,1228.0
FJDG 242155Z 16006KT 9999 FEW016 26/24 A2990 RMK SLP122 T02610239,FJDG,2023-05-24T21:55:00Z,-7.32,72.42,26.1,23.9,160,6,,6.21,29.899607,1012.2,,,,,,,,,,FEW,1600,,,,,,,VFR,,,,,,,,,,,,SPECI,3.0
ETOU 242155Z AUTO 36006KT 9999 CLR 10/10 A3021 RMK AO2 SLP234 T01010099,ETOU,2023-05-24T21:55:00Z,50.03,8.32,10.1,9.9,360,6,,6.21,30.209646,1023.4,,TRUE,TRUE,,,,,,,CLR,,,,,,,,VFR,,,,,,,,,,,,SPECI,141.0
ETIK 242155Z AUTO 00000KT 9999 CLR 05/02 A3019 RMK AO2 SLP231 T00490021,ETIK,2023-05-24T21:55:00Z,49.47,10.38,4.9,2.1,0,0,,6.21,30.188976,1023.1,,TRUE,TRUE,,,,,,,CLR,,,,,,,,VFR,,,,,,,,,,,,METAR,326.0
ETIH 242155Z AUTO 35003KT 9999 SCT160 09/03 A3017 RMK AO2 SLP223 T00910026 401320085,ETIH,2023-05-24T21:55:00Z,49.22,11.83,9.1,2.6,350,3,,6.21,30.171259,1022.3,,TRUE,TRUE,,,,,,,SCT,16000,,,,,,,VFR,,,,13.2,8.5,,,,,,,METAR,436.0
ETIC 242155Z AUTO 00000KT 9999 BKN190 09/03 A3017 RMK AO2 SLP224 T00890033 401440080 $,ETIC,2023-05-24T21:55:00Z,49.7,11.93,8.9,3.3,0,0,,6.21,30.171259,1022.4,,TRUE,TRUE,TRUE,,,,,,BKN,19000,,,,,,,VFR,,,,14.4,8.0,,,,,,,METAR,414.0
ETEB 242155Z AUTO 02006KT 9999 CLR 09/03 A3016 RMK AO2 SLP233 T00910026 $,ETEB,2023-05-24T21:55:00Z,49.32,10.63,9.1,2.6,20,6,,6.21,30.159449,1023.3,,TRUE,TRUE,TRUE,,,,,,CLR,,,,,,,,VFR,,,,,,,,,,,,METAR,466.0
ETAR 242155Z AUTO 06003KT 9999 FEW055 OVC080 08/05 A3018 RMK AO2 SLP226 T00810052,ETAR,2023-05-24T21:55:00Z,49.43,7.58,8.1,5.2,60,3,,6.21,30.180119,1022.6,,TRUE,TRUE,,,,,,,FEW,5500,OVC,8000,,,,,VFR,,,,,,,,,,,,METAR,231.0
ETAD 242155Z AUTO 04008KT 9999 CLR 08/05 A3020 RMK AO2 SLP222 T00840046,ETAD,2023-05-24T21:55:00Z,49.98,6.7,8.4,4.6,40,8,,6.21,30.200787,1022.2,,TRUE,TRUE,,,,,,,CLR,,,,,,,,VFR,,,,,,,,,,,,SPECI,365.0
EHWO 242155Z AUTO 06002KT 9999 SCT190 09/07 Q1025 BLU,EHWO,2023-05-24T21:55:00Z,51.45,4.33,9.0,7.0,60,2,,6.21,30.265747,,,TRUE,,,,,,,,SCT,19000,,,,,,,VFR,,,,,,,,,,,,METAR,15.0
EHVL 242155Z AUTO 01010KT 9999 FEW009 OVC010 12/09 Q1026 GRN,EHVL,2023-05-24T21:55:00Z,53.28,5.08,12.0,9.0,10,10,,6.21,30.295275,,,TRUE,,,,,,,,FEW,900,OVC,1000,,,,,MVFR,,,,,,,,,,,,METAR,2.0
EHVK 242155Z AUTO 36003KT 9999 NCD 10/07 Q1025 BLU,EHVK,2023-05-24T21:55:00Z,51.65,5.7,10.0,7.0,360,3,,6.21,30.265747,,,TRUE,,,,,,,,CLR,,,,,,,,VFR,,,,,,,,,,,,METAR,20.0
EHSC 242155Z AUTO 02016KT 9999 ///////// 13/09 Q1026 W14/H10,EHSC,2023-05-24T21:55:00Z,51.93,3.67,13.0,9.0,20,16,,6.21,30.295275,,,TRUE,,,,,,,,,,,,,,,,,,,,,,,,,,,,METAR,19.0
EHSA 242155Z AUTO 01014KT 9999 ///////// 12/08 Q1026 W11/H9,EHSA,2023-05-24T21:55:00Z,52.0,3.28,12.0,8.0,10,14,,6.21,30.295275,,,TRUE,,,,,,,,,,,,,,,,,,,,,,,,,,,,METAR,18.0
EHRD 242155Z AUTO 02004KT 350V050 9999 NCD 11/08 Q1026 NOSIG,EHRD,2023-05-24T21:55:00Z,51.95,4.45,11.0,8.0,20,4,,6.21,30.295275,,,TRUE,,,TRUE,,,,,CLR,,,,,,,,VFR,,,,,,,,,,,,METAR,-4.0
EHPG 242155Z AUTO 36004KT 280V070 9999 NCD 12/10 Q1026,EHPG,2023-05-24T21:55:00Z,52.37,3.35,12.0,10.0,360,4,,6.21,30.295275,,,TRUE,,,,,,,,CLR,,,,,,,,VFR,,,,,,,,,,,,METAR,24.0
EHMG 242155Z AUTO 36010KT 9999 BKN006 OVC007 11/09 Q1027,EHMG,2023-05-24T21:55:00Z,53.62,4.97,11.0,9.0,360,10,,6.21,30.324802,,,TRUE,,,,,,,,BKN,600,OVC,700,,,,,IFR,,,,,,,,,,,,METAR,30.0
EHMA 242155Z AUTO 35009KT 9999 FEW005 11/10 Q1026,EHMA,2023-05-24T21:55:00Z,53.5,5.95,11.0,10.0,350,9,,6.21,30.295275,,,TRUE,,,,,,,,FEW,500,,,,,,,VFR,,,,,,,,,,,,METAR,27.0
EHLW 242155Z AUTO 36003KT 9999 NCD 08/08 Q1026 BLU,EHLW,2023-05-24T21:55:00Z,53.22,5.75,8.0,8.0,360,3,,6.21,30.295275,,,TRUE,,,,,,,,CLR,,,,,,,,VFR,,,,,,,,,,,,METAR,1.0
EHLE 242155Z AUTO 03003KT 9999 NSC 10/08 Q1026,EHLE,2023-05-24T21:55:00Z,52.45,5.52,10.0,8.0,30,3,,6.21,30.295275,,,TRUE,,,,,,,,CLR,,,,,,,,VFR,,,,,,,,,,,,METAR,-3.0
EHKV 242155Z AUTO 02008KT 9999 FEW006 11/10 Q1027,EHKV,2023-05-24T21:55:00Z,53.27,3.63,11.0,10.0,20,8,,6.21,30.324802,,,TRUE,,,,,,,,FEW,600,,,,,,,VFR,,,,,,,,,,,,METAR,28.0
EHKD 242155Z AUTO 03007KT 350V060 9999 BKN011 OVC014 12/09 Q1026 GRN,EHKD,2023-05-24T21:55:00Z,52.92,4.77,12.0,9.0,30,7,,6.21,30.295275,,,TRUE,,,,,,,,BKN,1100,OVC,1400,,,,,MVFR,,,,,,,,,,,,METAR,1.0
EHJR 242155Z AUTO 02006KT //// // ///////// 11/10 Q1027 RE// W12/H10,EHJR,2023-05-24T21:55:00Z,53.22,3.22,11.0,10.0,20,6,,,30.324802,,,TRUE,,,,,,,,,,,,,,,,,,,,,,,,,,,,METAR,31.0
EHJA 242155Z AUTO 33009KT 280V360 9999 NCD 11/09 Q1027,EHJA,2023-05-24T21:55:00Z,53.82,2.95,11.0,9.0,330,9,,6.21,30.324802,,,TRUE,,,,,,,,CLR,,,,,,,,VFR,,,,,,,,,,,,METAR,34.0
EHHW 242155Z AUTO 34007KT 9999 FEW002/// SCT003/// 11/10 Q1026,EHHW,2023-05-24T21:55:00Z,54.03,6.03,11.0,10.0,340,7,,6.21,30.295275,,,TRUE,,,,,,,,FEW,200,SCT,300,,,,,VFR,,,,,,,,,,,,METAR,10.0
EHGR 242155Z AUTO 02007KT 340V070 9999 OVC043 13/08 Q1025 BLU,EHGR,2023-05-24T21:55:00Z,51.55,4.93,13.0,8.0,20,7,,6.21,30.265747,,,TRUE,,,,,,,,OVC,4300,,,,,,,VFR,,,,,,,,,,,,METAR,12.0
EHGG 242155Z AUTO 31001KT 9999 NCD 07/07 Q1025,EHGG,2023-05-24T21:55:00Z,53.12,6.57,7.0,7.0,310,1,,6.21,30.265747,,,TRUE,,,,,,,,CLR,,,,,,,,VFR,,,,,,,,,,,,METAR,2.0
EHFS 242155Z AUTO 01009KT 340V040 9999 NCD 12/09 Q1025,EHFS,2023-05-24T21:55:00Z,51.45,3.6,12.0,9.0,10,9,,6.21,30.265747,,,TRUE,,,,,,,,CLR,,,,,,,,VFR,,,,,,,,,,,,METAR,1.0
EHFD 242155Z AUTO VRB06KT 9999 SCT036/// 11/09 Q1027,EHFD,2023-05-24T21:55:00Z,54.85,4.7,11.0,9.0,0,6,,6.21,30.324802,,,TRUE,,,,,,,,SCT,3600,,,,,,,VFR,,,,,,,,,,,,METAR,24.0
EHEH 242155Z AUTO 02005KT 9999 NCD 09/06 Q1025 BLU,EHEH,2023-05-24T21:55:00Z,51.45,5.38,9.0,6.0,20,5,,6.21,30.265747,,,TRUE,,,,,,,,CLR,,,,,,,,VFR,,,,,,,,,,,,METAR,20.0
EHDV 242155Z AUTO 04011KT 9999 FEW006/// BKN007/// 11/// Q1027,EHDV,2023-05-24T21:55:00Z,54.32,2.93,,,40,11,,6.21,30.324802,,,TRUE,,,,,,,,FEW,600,BKN,700,,,,,IFR,,0.0,,,,,,,,,,METAR,36.0
EHDL 242155Z AUTO 01003KT 330V050 9999 NCD 06/05 Q1025 BLU,EHDL,2023-05-24T21:55:00Z,52.07,5.88,6.0,5.0,10,3,,6.21,30.265747,,,TRUE,,,,,,,,CLR,,,,,,,,VFR,,,,,,,,,,,,METAR,49.0
EHBK 242155Z AUTO 03005KT 9999 NCD 11/07 Q1024,EHBK,2023-05-24T21:55:00Z,50.92,5.77,11.0,7.0,30,5,,6.21,30.236221,,,TRUE,,,,,,,,CLR,,,,,,,,VFR,,,,,,,,,,,,METAR,112.0
EHAM 242155Z 01004KT 330V040 CAVOK 11/08 Q1026 NOSIG,EHAM,2023-05-24T21:55:00Z,52.32,4.78,11.0,8.0,10,4,,6.21,30.295275,,,,,,TRUE,,,,,CAVOK,,,,,,,,VFR,,,,,,,,,,,,METAR,-2.0
EHAK 242155Z AUTO 36007KT 310V050 9999 FEW027/// 11/10 Q1027,EHAK,2023-05-24T21:55:00Z,55.38,3.82,11.0,10.0,360,7,,6.21,30.324802,,,TRUE,,,,,,,,FEW,2700,,,,,,,VFR,,,,,,,,,,,,METAR,33.0
EGVA 242155Z AUTO 33004KT 9999 CLR 12/10 A3031 RMK AO2 SLP268 T01220101 FZRANO $,EGVA,2023-05-24T21:55:00Z,51.67,-1.78,12.2,10.1,330,4,,6.21,30.31004,1026.8,,TRUE,TRUE,TRUE,,,TRUE,,,CLR,,,,,,,,VFR,,,,,,,,,,,,SPECI,84.0
EGUN 242155Z 07003KT 9999 FEW050 11/10 A3031 RMK AO2A SLP267 T01090095 $,EGUN,2023-05-24T21:55:00Z,52.37,0.48,10.9,9.5,70,3,,6.21,30.31004,1026.7,,,TRUE,TRUE,,,,,,FEW,5000,,,,,,,VFR,,,,,,,,,,,,SPECI,10.0
EGUL 242155Z AUTO 03003KT 9999 CLR 10/10 A3031 RMK AO2 SLP267 T01010099 RVRNO VISNO RWY24 $,EGUL,2023-05-24T21:55:00Z,52.42,0.57,10.1,9.9,30,3,,6.21,30.31004,1026.7,,TRUE,TRUE,TRUE,,,,,,CLR,,,,,,,,VFR,,,,,,,,,,,,SPECI,8.0
EBFS 242155Z AUTO 03005KT 9999 NCD 09/05 Q1024 BLU,EBFS,2023-05-24T21:55:00Z,50.23,4.65,9.0,5.0,30,5,,6.21,30.236221,,,TRUE,,,,,,,,CLR,,,,,,,,VFR,,,,,,,,,,,,METAR,276.0
EBFN 242155Z AUTO 04008KT 9999 BKN180/// 12/09 Q1025 BLU,EBFN,2023-05-24T21:55:00Z,51.08,2.65,12.0,9.0,40,8,,6.21,30.265747,,,TRUE,,,,,,,,BKN,18000,,,,,,,VFR,,,,,,,,,,,,METAR,9.0
EBDT 242155Z AUTO 03006KT 9999 NCD 09/06 Q1025 BLU,EBDT,2023-05-24T21:55:00Z,51.02,5.07,9.0,6.0,30,6,,6.21,30.265747,,,TRUE,,,,,,,,CLR,,,,,,,,VFR,,,,,,,,,,,,METAR,25.0
EBCV 242155Z AUTO 03007KT 9999 FEW075/// BKN095/// OVC120/// 11/08 Q1024 BLU,EBCV,2023-05-24T21:55:00Z,50.57,3.82,11.0,8.0,30,7,,6.21,30.236221,,,TRUE,,,,,,,,FEW,7500,BKN,9500,OVC,12000,,,VFR,,,,,,,,,,,,METAR,56.0
EBBL 242155Z AUTO VRB02KT 9999 NCD 09/06 Q1025 BLU,EBBL,2023-05-24T21:55:00Z,51.17,5.47,9.0,6.0,0,2,,6.21,30.265747,,,TRUE,,,,,,,,CLR,,,,,,,,VFR,,,,,,,,,,,,METAR,50.0
EBBE 242155Z AUTO 04004KT 9999 NCD 10/06 Q1024 BLU,EBBE,2023-05-24T21:55:00Z,50.75,4.77,10.0,6.0,40,4,,6.21,30.236221,,,TRUE,,,,,,,,CLR,,,,,,,,VFR,,,,,,,,,,,,METAR,127.0
BGTL 242155Z AUTO 16023KT 9999 BKN070 M02/M08 A2978 RMK AO2 PK WND 17032/00 SLP071 T10181077 TSNO $,BGTL,2023-05-24T21:55:00Z,76.53,-68.75,-1.8,-7.7,160,23,,6.21,29.778543,1007.1,,TRUE,TRUE,TRUE,,TRUE,,,,BKN,7000,,,,,,,VFR,,,,,,,,,,,,SPECI,79.0
YMHB 242154Z 30022KT 9999 -SHRA FEW022 SCT036 BKN055 14/09 Q1000,YMHB,2023-05-24T21:54:00Z,-42.83,147.52,14.0,9.0,300,22,,6.21,29.52756,,,,,,,,,,-SHRA,FEW,2200,SCT,3600,BKN,5500,,,VFR,,,,,,,,,,,,SPECI,2.0
PTSA 242154Z 09004KT 10SM BKN020TCU BKN130 BKN300 30/26 A2986 RMK TCU NE FIRST,PTSA,2023-05-24T21:54:00Z,5.35,162.95,30.0,26.0,90,4,,10.0,29.861221,,,,,,,,,,,BKN,2000,BKN,13000,BKN,30000,,,MVFR,,,,,,,,,,,,SPECI,3.0
PHOG 242154Z 05018G27KT 10SM SCT040 30/17 A3009 RMK AO2 PK WND 04029/2136 SLP194 T03000172,PHOG,2023-05-24T21:54:00Z,20.9,-156.43,30.0,17.2,50,18,27,10.0,30.088583,1019.4,,,TRUE,,,,,,,SCT,4000,,,,,,,VFR,,,,,,,,,,,,METAR,14.0
PHMK 242154Z 05013G25KT 10SM FEW036 28/18 A3012 RMK AO2 PK WND 05026/2127 SLP202 T02780178,PHMK,2023-05-24T21:54:00Z,21.15,-157.1,27.8,17.8,50,13,25,10.0,30.121063,1020.2,,,TRUE,,,,,,,FEW,3600,,,,,,,VFR,,,,,,,,,,,,SPECI,135.0
PAHN 242154Z AUTO 12012G17KT OVC039 14/04 A3014 RMK AO2 SLP207 T01440044 TSNO $,PAHN,2023-05-24T21:54:00Z,59.25,-135.52,14.4,4.4,120,12,17,,30.138779,1020.7,,TRUE,TRUE,TRUE,,TRUE,,,,OVC,3900,,,,,,,,,,,,,,,,,,,METAR,15.0
KWLD 242154Z AUTO 12013G19KT 10SM FEW110 23/16 A3003 RMK AO2 PK WND 10026/2108 SLP162 T02330161,KWLD,2023-05-24T21:54:00Z,37.17,-97.03,23.3,16.1,120,13,19,10.0,30.029528,1016.2,,TRUE,TRUE,,,,,,,FEW,11000,,,,,,,VFR,,,,,,,,,,,,METAR,351.0
KWAL 242154Z AUTO 06009KT 10SM CLR 20/06 A2998 RMK AO2 SLP148 T02000061,KWAL,2023-05-24T21:54:00Z,37.93,-75.47,20.0,6.1,60,9,,10.0,29.97933,1014.8,,TRUE,TRUE,,,,,,,CLR,,,,,,,,VFR,,,,,,,,,,,,METAR,10.0
KW99 242154Z AUTO 32003KT 10SM OVC085 26/11 A3000 RMK AO2,KW99,2023-05-24T21:54:00Z,39.0,-79.15,26.0,11.0,320,3,,10.0,30.0,,,TRUE,TRUE,,,,,,,OVC,8500,,,,,,,VFR,,,,,,,,,,,,SPECI,288.0
KVTA 242154Z AUTO 03008G18KT 10SM CLR 25/11 A3004 RMK AO2 SLP169 T02500111,KVTA,2023-05-24T21:54:00Z,40.02,-82.47,25.0,11.1,30,8,18,10.0,30.041338,1016.9,,TRUE,TRUE,,,,,,,CLR,,,,,,,,VFR,,,,,,,,,,,,METAR,268.0
KVSF 242154Z AUTO 12005KT 10SM -RA BKN060 OVC070 12/09 A3001 RMK AO2 SLP166 P0002 T01170089,KVSF,2023-05-24T21:54:00Z,43.35,-72.52,11.7,8.9,120,5,,10.0,30.008858,1016.6,,TRUE,TRUE,,,,,,-RA,BKN,6000,OVC,7000,,,,,VFR,,,,,,0.02,,,,,,METAR,176.0
KVAY 242154Z AUTO VRB03KT 10SM CLR 26/11 A2991 RMK AO2 SLP129 T02610106,KVAY,2023-05-24T21:54:00Z,39.93,-74.83,26.1,10.6,0,3,,10.0,29.911417,1012.9,,TRUE,TRUE,,,,,,,CLR,,,,,,,,VFR,,,,,,,,,,,,METAR,15.0
KUZA 242154Z AUTO VRB05KT 10SM CLR 25/04 A2997 RMK AO2 SLP140 T02500039 $,KUZA,2023-05-24T21:54:00Z,34.98,-81.05,25.0,3.9,0,5,,10.0,29.970472,1014.0,,TRUE,TRUE,TRUE,,,,,,CLR,,,,,,,,VFR,,,,,,,,,,,,METAR,198.0
KUIN 242154Z AUTO 09005KT 10SM CLR 29/09 A3005 RMK AO2 SLP170 T02890089,KUIN,2023-05-24T21:54:00Z,39.95,-91.2,28.9,8.9,90,5,,10.0,30.050198,1017.0,,TRUE,TRUE,,,,,,,CLR,,,,,,,,VFR,,,,,,,,,,,,METAR,233.0
KTQE 242154Z AUTO 16011G16KT 10SM CLR 31/06 A3002 RMK AO2 SLP153 T03110061,KTQE,2023-05-24T21:54:00Z,41.77,-96.18,31.1,6.1,160,11,16,10.0,30.02067,1015.3,,TRUE,TRUE,,,,,,,CLR,,,,,,,,VFR,,,,,,,,,,,,METAR,312.0
KTAD 242154Z AUTO 04005KT 10SM FEW120 23/03 A3003 RMK AO2 SLP100 T02330033,KTAD,2023-05-24T21:54:00Z,37.27,-104.33,23.3,3.3,40,5,,10.0,30.029528,1010.0,,TRUE,TRUE,,,,,,,FEW,12000,,,,,,,VFR,,,,,,,,,,,,METAR,1751.0
KSUS 242154Z 07012G17KT 10SM CLR 29/09 A3003 RMK AO2 SLP161 T02940089,KSUS,2023-05-24T21:54:00Z,38.65,-90.65,29.4,8.9,70,12,17,10.0,30.029528,1016.1,,,TRUE,,,,,,,CLR,,,,,,,,VFR,,,,,,,,,,,,METAR,140.0
KSLC 242154Z 33015KT 10SM FEW085TCU SCT110 BKN180 BKN240 24/11 A2988 RMK AO2 LTG DSNT W AND NW TSE17 SLP072 CB DSNT W-NW TCU S VCSH T02440111,KSLC,2023-05-24T21:54:00Z,40.77,-111.97,24.4,11.1,330,15,,10.0,29.878937,1007.2,,,TRUE,,,,,,,FEW,8500,SCT,11000,BKN,18000,BKN,24000,VFR,,,,,,,,,,,,METAR,1286.0
KSET 242154Z AUTO 11010G14KT 10SM CLR 30/08 A3003 RMK AO2 SLP163 T03000083,KSET,2023-05-24T21:54:00Z,38.93,-90.43,30.0,8.3,110,10,14,10.0,30.029528,1016.3,,TRUE,TRUE,,,,,,,CLR,,,,,,,,VFR,,,,,,,,,,,,METAR,133.0
KSBY 242154Z 08005KT 10SM CLR 23/09 A2997 RMK AO2 SLP149 T02280089,KSBY,2023-05-24T21:54:00Z,38.33,-75.5,22.8,8.9,80,5,,10.0,29.970472,1014.9,,,TRUE,,,,,,,CLR,,,,,,,,VFR,,,,,,,,,,,,METAR,14.0
KSBN 242154Z 05010G20KT 10SM CLR 24/11 A3014 RMK AO2 SLP203 T02390111,KSBN,2023-05-24T21:54:00Z,41.7,-86.32,23.9,11.1,50,10,20,10.0,30.138779,1020.3,,,TRUE,,,,,,,CLR,,,,,,,,VFR,,,,,,,,,,,,METAR,236.0
KRST 242154Z 07013KT 10SM CLR 24/14 A3016 RMK AO2 SLP212 T02390139,KRST,2023-05-24T21:54:00Z,43.9,-92.5,23.9,13.9,70,13,,10.0,30.159449,1021.2,,,TRUE,,,,,,,CLR,,,,,,,,VFR,,,,,,,,,,,,METAR,398.0
KRSP 242154Z AUTO 25005KT 10SM FEW090 26/08 A3000 RMK AO2 SLP156 T02610083 $,KRSP,2023-05-24T21:54:00Z,39.65,-77.47,26.1,8.3,250,5,,10.0,30.0,1015.6,,TRUE,TRUE,TRUE,,,,,,FEW,9000,,,,,,,VFR,,,,,,,,,,,,METAR,555.0
KROA 242154Z 10007KT 10SM SCT250 26/07 A3001 RMK AO2 SLP153 T02560072 $,KROA,2023-05-24T21:54:00Z,37.32,-79.97,25.6,7.2,100,7,,10.0,30.008858,1015.3,,,TRUE,TRUE,,,,,,SCT,25000,,,,,,,VFR,,,,,,,,,,,,METAR,349.0
KRKS 242154Z AUTO 33014G25KT 10SM FEW085 FEW110 19/03 A3002 RMK AO2 PK WND 29033/2122 WSHFT 2111 LTG DSNT NE AND SW SLP095 T01890033,KRKS,2023-05-24T21:54:00Z,41.6,-109.07,18.9,3.3,330,14,25,10.0,30.02067,1009.5,,TRUE,TRUE,,,,,,,FEW,8500,FEW,11000,,,,,VFR,,,,,,,,,,,,METAR,2062.0
KRIC 242154Z 05007KT 10SM BKN300 24/07 A2998 RMK AO2 SLP154 T02440072,KRIC,2023-05-24T21:54:00Z,37.52,-77.32,24.4,7.2,50,7,,10.0,29.97933,1015.4,,,TRUE,,,,,,,BKN,30000,,,,,,,VFR,,,,,,,,,,,,METAR,51.0
KRFD 242154Z 03009G22KT 10SM BKN250 22/09 A3018 RMK AO2 SLP221 T02170094,KRFD,2023-05-24T21:54:00Z,42.2,-89.1,21.7,9.4,30,9,22,10.0,30.180119,1022.1,,,TRUE,,,,,,,BKN,25000,,,,,,,VFR,,,,,,,,,,,,METAR,222.0
KRDG 242154Z 28011KT 9SM FEW110 27/09 A2991 RMK AO2 SLP132 T02720094,KRDG,2023-05-24T21:54:00Z,40.37,-75.97,27.2,9.4,280,11,,9.0,29.911417,1013.2,,,TRUE,,,,,,,FEW,11000,,,,,,,VFR,,,,,,,,,,,,METAR,101.0
KRBL 242154Z AUTO 15008KT 10SM CLR 27/11 A2980 RMK AO2 SLP086 T02720111,KRBL,2023-05-24T21:54:00Z,40.15,-122.25,27.2,11.1,150,8,,10.0,29.799213,1008.6,,TRUE,TRUE,,,,,,,CLR,,,,,,,,VFR,,,,,,,,,,,,METAR,107.0
KPTW 242154Z AUTO 23005KT 8SM CLR 26/10 A2994 RMK AO2 SLP135 T02560100,KPTW,2023-05-24T21:54:00Z,40.23,-75.55,25.6,10.0,230,5,,8.0,29.940945,1013.5,,TRUE,TRUE,,,,,,,CLR,,,,,,,,VFR,,,,,,,,,,,,METAR,88.0
KPNE 242154Z 26005KT 10SM CLR 27/10 A2992 RMK AO2 SLP132 T02670100,KPNE,2023-05-24T21:54:00Z,40.08,-75.02,26.7,10.0,260,5,,10.0,29.920275,1013.2,,,TRUE,,,,,,,CLR,,,,,,,,VFR,,,,,,,,,,,,METAR,32.0
KPLN 242154Z AUTO 04011G16KT 10SM CLR 16/M02 A3036 RMK AO2 SLP282 T01611022,KPLN,2023-05-24T21:54:00Z,45.57,-84.8,16.1,-2.2,40,11,16,10.0,30.360237,1028.2,,TRUE,TRUE,,,,,,,CLR,,,,,,,,VFR,,,,,,,,,,,,METAR,215.0
KPIA 242154Z 07009KT 10SM CLR 30/08 A3006 RMK AO2 SLP177 T03000083,KPIA,2023-05-24T21:54:00Z,40.67,-89.68,30.0,8.3,70,9,,10.0,30.059055,1017.7,,,TRUE,,,,,,,CLR,,,,,,,,VFR,,,,,,,,,,,,METAR,200.0
KPHL 242154Z 23010KT 10SM FEW080 FEW260 27/08 A2992 RMK AO2 SLP131 T02670083 $,KPHL,2023-05-24T21:54:00Z,39.87,-75.23,26.7,8.3,230,10,,10.0,29.920275,1013.1,,,TRUE,TRUE,,,,,,FEW,8000,FEW,26000,,,,,VFR,,,,,,,,,,,,METAR,2.0
KPHF 242154Z 02005KT 10SM CLR 21/07 A2998 RMK AO2 SLP152 T02110072,KPHF,2023-05-24T21:54:00Z,37.13,-76.5,21.1,7.2,20,5,,10.0,29.97933,1015.2,,,TRUE,,,,,,,CLR,,,,,,,,VFR,,,,,,,,,,,,METAR,12.0
KORH 242154Z 33013G20KT 4SM RA BR BKN009 OVC055 16/13 A2997 RMK AO2 PK WND 29034/2121 WSHFT 2117 RAB22 CIG 006V014 SLP150 P0009 T01560133,KORH,2023-05-24T21:54:00Z,42.27,-71.87,15.6,13.3,330,13,20,4.0,29.970472,1015.0,,,TRUE,,,,,,RA BR,BKN,900,OVC,5500,,,,,IFR,,,,,,0.09,,,,,,METAR,306.0
KOLS 242154Z AUTO 22007G23KT 10SM CLR 31/M02 A2995 RMK AO2 SLP080 T03111022,KOLS,2023-05-24T21:54:00Z,31.42,-110.85,31.1,-2.2,220,7,23,10.0,29.949802,1008.0,,TRUE,TRUE,,,,,,,CLR,,,,,,,,VFR,,,,,,,,,,,,METAR,1194.0
KOLM 242154Z 03008KT 10SM BKN046 21/08 A3004 RMK AO2 SLP174 T02060083,KOLM,2023-05-24T21:54:00Z,46.97,-122.9,20.6,8.3,30,8,,10.0,30.041338,1017.4,,,TRUE,,,,,,,BKN,4600,,,,,,,VFR,,,,,,,,,,,,METAR,58.0
KOFP 242154Z AUTO VRB04KT 10SM CLR 25/09 A2999 RMK AO2 SLP155 T02500089,KOFP,2023-05-24T21:54:00Z,37.7,-77.43,25.0,8.9,0,4,,10.0,29.991142,1015.5,,TRUE,TRUE,,,,,,,CLR,,,,,,,,VFR,,,,,,,,,,,,METAR,63.0
KNY0 242154Z AUTO 34005KT 10SM OVC033 13/08 A3005 RMK AO2,KNY0,2023-05-24T21:54:00Z,42.98,-74.33,13.0,8.0,340,5,,10.0,30.050198,,,TRUE,TRUE,,,,,,,OVC,3300,,,,,,,VFR,,,,,,,,,,,,SPECI,266.0
KNAK 242154Z AUTO 13007KT 10SM CLR 23/14 A2996 RMK AO2 SLP147 T02330144,KNAK,2023-05-24T21:54:00Z,38.98,-76.48,23.3,14.4,130,7,,10.0,29.958662,1014.7,,TRUE,TRUE,,,,,,,CLR,,,,,,,,VFR,,,,,,,,,,,,METAR,2.0
KMWN 242154Z 31033G42KT 0SM -SN FZFG BLSN VV000 M00/M00 RMK RAE10PLE20SNB10 VRY LGT GICG,KMWN,2023-05-24T21:54:00Z,44.27,-71.3,0.0,0.0,310,33,42,0.0,,,,,,,,,,,-SN FZFG BLSN,OVX,0,,,,,,,LIFR,,,,,,,,,,,0,METAR,1911.0
KMTP 242154Z AUTO 00000KT 16/10 A2994 RMK AO1 SLP138 T01560100 $,KMTP,2023-05-24T21:54:00Z,41.07,-71.92,15.6,10.0,0,0,,,29.940945,1013.8,,TRUE,TRUE,TRUE,,,,,,,,,,,,,,,,,,,,,,,,,,METAR,2.0
KMTN 242154Z 15005KT 10SM CLR 24/13 A2997,KMTN,2023-05-24T21:54:00Z,39.32,-76.42,24.0,13.0,150,5,,10.0,29.970472,,,,,,,,,,,CLR,,,,,,,,VFR,,,,,,,,,,,,METAR,2.0
KMRY 242154Z 25013KT 10SM BKN035 16/08 A2995 RMK AO2 SLP152 T01610083,KMRY,2023-05-24T21:54:00Z,36.58,-121.85,16.1,8.3,250,13,,10.0,29.949802,1015.2,,,TRUE,,,,,,,BKN,3500,,,,,,,VFR,,,,,,,,,,,,METAR,51.0
KMOT 242154Z 13015G30KT 10SM CLR 30/11 A2992 RMK AO2 PK WND 13030/2150 SLP124 T03000111,KMOT,2023-05-24T21:54:00Z,48.25,-101.27,30.0,11.1,130,15,30,10.0,29.920275,1012.4,,,TRUE,,,,,,,CLR,,,,,,,,VFR,,,,,,,,,,,,METAR,507.0
KMIV 242154Z AUTO VRB05KT 10SM CLR 22/12 A2995 RMK AO2 SLP140 T02220117,KMIV,2023-05-24T21:54:00Z,39.37,-75.08,22.2,11.7,0,5,,10.0,29.949802,1014.0,,TRUE,TRUE,,,,,,,CLR,,,,,,,,VFR,,,,,,,,,,,,METAR,18.0
KMGJ 242154Z AUTO 03010G17KT 10SM -RA FEW045 SCT060 BKN080 19/12 A2995 RMK AO2 RAB28 SLP142 P0000 T01940122,KMGJ,2023-05-24T21:54:00Z,41.52,-74.27,19.4,12.2,30,10,17,10.0,29.949802,1014.2,,TRUE,TRUE,,,,,,-RA,FEW,4500,SCT,6000,BKN,8000,,,VFR,,,,,,0.005,,,,,,METAR,106.0
KMFI 242154Z AUTO 11004KT 10SM OVC100 14/06 A3028 RMK AO2 SLP259 T01390056,KMFI,2023-05-24T21:54:00Z,44.63,-90.18,13.9,5.6,110,4,,10.0,30.280512,1025.9,,TRUE,TRUE,,,,,,,OVC,10000,,,,,,,VFR,,,,,,,,,,,,METAR,383.0
KMEM 242154Z 10006G14KT 10SM FEW049 FEW100 BKN250 28/15 A2998 RMK AO2 SLP150 T02780150,KMEM,2023-05-24T21:54:00Z,35.07,-89.98,27.8,15.0,100,6,14,10.0,29.97933,1015.0,,,TRUE,,,,,,,FEW,4900,FEW,10000,BKN,25000,,,VFR,,,,,,,,,,,,METAR,78.0
KLYH 242154Z 10005KT 10SM CLR 24/08 A2999 RMK AO2 SLP150 T02390083,KLYH,2023-05-24T21:54:00Z,37.32,-79.2,23.9,8.3,100,5,,10.0,29.991142,1015.0,,,TRUE,,,,,,,CLR,,,,,,,,VFR,,,,,,,,,,,,METAR,282.0
KLWT 242154Z AUTO 33008KT 10SM FEW035 OVC043 19/10 A2993 RMK AO2 SLP108 T01890100,KLWT,2023-05-24T21:54:00Z,47.05,-109.47,18.9,10.0,330,8,,10.0,29.929134,1010.8,,TRUE,TRUE,,,,,,,FEW,3500,OVC,4300,,,,,VFR,,,,,,,,,,,,METAR,1254.0
KLWM 242154Z 33016G25KT 3SM -RA BR SCT011 BKN029 OVC050 16/14 A2996 RMK AO2 WSHFT 2119 RAB23 SLP144 P0007 T01560139,KLWM,2023-05-24T21:54:00Z,42.72,-71.13,15.6,13.9,330,16,25,3.0,29.958662,1014.4,,,TRUE,,,,,,-RA BR,SCT,1100,BKN,2900,OVC,5000,,,MVFR,,,,,,0.07,,,,,,METAR,42.0
KLNK 242154Z 13008KT 10SM SCT090 28/08 A3003 RMK AO2 SLP161 T02830083,KLNK,2023-05-24T21:54:00Z,40.85,-96.77,28.3,8.3,130,8,,10.0,30.029528,1016.1,,,TRUE,,,,,,,SCT,9000,,,,,,,VFR,,,,,,,,,,,,METAR,357.0
KLEX 242154Z 02009KT 10SM CLR 27/12 A3003 RMK AO2 SLP162 T02720117,KLEX,2023-05-24T21:54:00Z,38.03,-84.6,27.2,11.7,20,9,,10.0,30.029528,1016.2,,,TRUE,,,,,,,CLR,,,,,,,,VFR,,,,,,,,,,,,METAR,294.0
KLAF 242154Z 01013G19KT 10SM FEW100 28/09 A3006 RMK AO2 SLP175 T02830089,KLAF,2023-05-24T21:54:00Z,40.42,-86.93,28.3,8.9,10,13,19,10.0,30.059055,1017.5,,,TRUE,,,,,,,FEW,10000,,,,,,,VFR,,,,,,,,,,,,METAR,182.0
KJST 242154Z AUTO 28008KT 10SM FEW060 22/10 A3002 RMK AO2 SLP160 T02170100,KJST,2023-05-24T21:54:00Z,40.32,-78.83,21.7,10.0,280,8,,10.0,30.02067,1016.0,,TRUE,TRUE,,,,,,,FEW,6000,,,,,,,VFR,,,,,,,,,,,,SPECI,695.0
KJAN 242154Z 06007KT 10SM BKN043 OVC055 23/17 A2994 RMK AO2 SLP136 T02330172,KJAN,2023-05-24T21:54:00Z,32.32,-90.08,23.3,17.2,60,7,,10.0,29.940945,1013.6,,,TRUE,,,,,,,BKN,4300,OVC,5500,,,,,VFR,,,,,,,,,,,,METAR,92.0
KIZG 242154Z AUTO 02005KT 3SM -RA BR OVC044 12/11 A3000 RMK AO2 SLP163 P0015 T01170106,KIZG,2023-05-24T21:54:00Z,43.98,-70.95,11.7,10.6,20,5,,3.0,30.0,1016.3,,TRUE,TRUE,,,,,,-RA BR,OVC,4400,,,,,,,MVFR,,,,,,0.15,,,,,,SPECI,138.0
KISW 242154Z AUTO 10008KT 10SM OVC110 17/00 A3029 RMK AO2 SLP258 T01720000,KISW,2023-05-24T21:54:00Z,44.37,-89.83,17.2,0.0,100,8,,10.0,30.28937,1025.8,,TRUE,TRUE,,,,,,,OVC,11000,,,,,,,VFR,,,,,,,,,,,,METAR,311.0
KIPT 242154Z 34011G18KT 10SM FEW085 18/09 A3003 RMK AO2 SLP169 T01830094,KIPT,2023-05-24T21:54:00Z,41.25,-76.92,18.3,9.4,340,11,18,10.0,30.029528,1016.9,,,TRUE,,,,,,,FEW,8500,,,,,,,VFR,,,,,,,,,,,,SPECI,160.0
KINT 242154Z 06007KT 10SM CLR 24/09 A3000 RMK AO2 SLP150 T02390089,KINT,2023-05-24T21:54:00Z,36.13,-80.22,23.9,8.9,60,7,,10.0,30.0,1015.0,,,TRUE,,,,,,,CLR,,,,,,,,VFR,,,,,,,,,,,,METAR,292.0
KINL 242154Z AUTO 11010KT 10SM BKN100 16/M01 A3030 RMK AO2 SLP265 T01611011 $,KINL,2023-05-24T21:54:00Z,48.57,-93.4,16.1,-1.1,110,10,,10.0,30.301182,1026.5,,TRUE,TRUE,TRUE,,,,,,BKN,10000,,,,,,,VFR,,,,,,,,,,,,METAR,353.0
KIND 242154Z 01013G21KT 10SM FEW090 FEW250 28/08 A3004 RMK AO2 SLP166 T02830083,KIND,2023-05-24T21:54:00Z,39.72,-86.27,28.3,8.3,10,13,21,10.0,30.041338,1016.6,,,TRUE,,,,,,,FEW,9000,FEW,25000,,,,,VFR,,,,,,,,,,,,METAR,242.0
KIMT 242154Z AUTO 05006KT 10SM CLR 15/M08 A3034 RMK AO2 SLP281 T01501078,KIMT,2023-05-24T21:54:00Z,45.82,-88.12,15.0,-7.8,50,6,,10.0,30.339567,1028.1,,TRUE,TRUE,,,,,,,CLR,,,,,,,,VFR,,,,,,,,,,,,SPECI,343.0
KILN 242154Z AUTO 03008KT 7SM FEW075 BKN100 25/11 A3003 RMK AO2 SLP163 T02500111,KILN,2023-05-24T21:54:00Z,39.43,-83.8,25.0,11.1,30,8,,7.0,30.029528,1016.3,,TRUE,TRUE,,,,,,,FEW,7500,BKN,10000,,,,,VFR,,,,,,,,,,,,METAR,325.0
KHWD 242154Z 30011KT 10SM CLR 18/09 A2989 RMK AO2 SLP131 T01830094,KHWD,2023-05-24T21:54:00Z,37.67,-122.12,18.3,9.4,300,11,,10.0,29.890747,1013.1,,,TRUE,,,,,,,CLR,,,,,,,,VFR,,,,,,,,,,,,METAR,9.0
KGSO 242154Z 04010KT 10SM BKN250 23/07 A2999 RMK AO2 SLP147 T02280067,KGSO,2023-05-24T21:54:00Z,36.1,-79.95,22.8,6.7,40,10,,10.0,29.991142,1014.7,,,TRUE,,,,,,,BKN,25000,,,,,,,VFR,,,,,,,,,,,,METAR,275.0
KGED 242154Z AUTO VRB03KT 10SM CLR 23/08 A2997 RMK AO2 SLP147 T02330083,KGED,2023-05-24T21:54:00Z,38.68,-75.37,23.3,8.3,0,3,,10.0,29.970472,1014.7,,TRUE,TRUE,,,,,,,CLR,,,,,,,,VFR,,,,,,,,,,,,METAR,15.0
KGCN 242154Z 23012G19KT 10SM BKN095 24/M01 A3007 RMK AO2 SLP105 T02441006,KGCN,2023-05-24T21:54:00Z,35.95,-112.15,24.4,-0.6,230,12,19,10.0,30.070866,1010.5,,,TRUE,,,,,,,BKN,9500,,,,,,,VFR,,,,,,,,,,,,METAR,1993.0
KGCK 242154Z 12012KT 10SM BKN033 BKN040 23/16 A3002 RMK AO2 SLP140 T02280156,KGCK,2023-05-24T21:54:00Z,37.92,-100.72,22.8,15.6,120,12,,10.0,30.02067,1014.0,,,TRUE,,,,,,,BKN,3300,BKN,4000,,,,,VFR,,,,,,,,,,,,METAR,877.0
KFWA 242154Z 05016G22KT 10SM FEW085 FEW240 26/11 A3009 RMK AO2 SLP188 T02610106,KFWA,2023-05-24T21:54:00Z,40.98,-85.2,26.1,10.6,50,16,22,10.0,30.088583,1018.8,,,TRUE,,,,,,,FEW,8500,FEW,24000,,,,,VFR,,,,,,,,,,,,METAR,243.0
KFIG 242154Z AUTO 01012G21KT 10SM BKN060 BKN080 BKN090 23/10 A3001 RMK AO2 SLP159 T02280100,KFIG,2023-05-24T21:54:00Z,41.05,-78.42,22.8,10.0,10,12,21,10.0,30.008858,1015.9,,TRUE,TRUE,,,,,,,BKN,6000,BKN,8000,BKN,9000,,,VFR,,,,,,,,,,,,METAR,461.0
KFFZ 242154Z 24008G21KT 10SM CLR 34/02 A2978 RMK AO2 SLP059 T03440017,KFFZ,2023-05-24T21:54:00Z,33.47,-111.72,34.4,1.7,240,8,21,10.0,29.778543,1005.9,,,TRUE,,,,,,,CLR,,,,,,,,VFR,,,,,,,,,,,,METAR,420.0
KFCS 242154Z 01011KT 10SM VCTS -RA FEW037 13/09 A3003 RMK RAB06E52DZB52E53RAB53 TSE54 SLP144 P0011 T01330092 $,KFCS,2023-05-24T21:54:00Z,38.67,-104.77,13.3,9.2,10,11,,10.0,30.029528,1014.4,,,,TRUE,,,,,VCTS -RA,FEW,3700,,,,,,,VFR,,,,,,0.11,,,,,,METAR,1789.0
KEWN 242154Z 01010KT 10SM OVC070 21/12 A2994 RMK AO2 SLP138 T02060117,KEWN,2023-05-24T21:54:00Z,35.07,-77.05,20.6,11.7,10,10,,10.0,29.940945,1013.8,,,TRUE,,,,,,,OVC,7000,,,,,,,VFR,,,,,,,,,,,,METAR,3.0
KEVV 242154Z 07007KT 10SM CLR 29/10 A3001 RMK AO2 SLP159 T02890100 $,KEVV,2023-05-24T21:54:00Z,38.05,-87.52,28.9,10.0,70,7,,10.0,30.008858,1015.9,,,TRUE,TRUE,,,,,,CLR,,,,,,,,VFR,,,,,,,,,,,,METAR,123.0
KEUG 242154Z 02010G18KT 10SM FEW120 21/09 A2999 RMK AO2 SLP155 T02110094,KEUG,2023-05-24T21:54:00Z,44.13,-123.22,21.1,9.4,20,10,18,10.0,29.991142,1015.5,,,TRUE,,,,,,,FEW,12000,,,,,,,VFR,,,,,,,,,,,,METAR,109.0
KEFD 242154Z 36004KT 10SM FEW060 30/16 A2986,KEFD,2023-05-24T21:54:00Z,29.6,-95.17,30.0,16.0,360,4,,10.0,29.861221,,,,,,,,,,,FEW,6000,,,,,,,VFR,,,,,,,,,,,,METAR,9.0
KECG 242154Z 02014KT 10SM OVC095 18/09 A2996 RMK AO2 SLP143 T01780089,KECG,2023-05-24T21:54:00Z,36.27,-76.18,17.8,8.9,20,14,,10.0,29.958662,1014.3,,,TRUE,,,,,,,OVC,9500,,,,,,,VFR,,,,,,,,,,,,METAR,2.0
KDYL 242154Z AUTO 24006KT 10SM FEW100 27/09 A2991 RMK AO2 SLP128 T02670089,KDYL,2023-05-24T21:54:00Z,40.33,-75.12,26.7,8.9,240,6,,10.0,29.911417,1012.8,,TRUE,TRUE,,,,,,,FEW,10000,,,,,,,VFR,,,,,,,,,,,,SPECI,121.0
KDSV 242154Z AUTO 34014G20KT 10SM FEW027 OVC033 13/07 A3017 RMK AO2 SLP225 T01330072,KDSV,2023-05-24T21:54:00Z,42.57,-77.72,13.3,7.2,340,14,20,10.0,30.171259,1022.5,,TRUE,TRUE,,,,,,,FEW,2700,OVC,3300,,,,,VFR,,,,,,,,,,,,SPECI,195.0
KDSM 242154Z 12005KT 10SM FEW070 28/11 A3007 RMK AO2 SLP176 T02830111,KDSM,2023-05-24T21:54:00Z,41.53,-93.67,28.3,11.1,120,5,,10.0,30.070866,1017.6,,,TRUE,,,,,,,FEW,7000,,,,,,,VFR,,,,,,,,,,,,METAR,286.0
KDMH 242154Z AUTO 27/12 A2995 RMK AO1 SLP141 T02720122,KDMH,2023-05-24T21:54:00Z,39.28,-76.62,27.2,12.2,,,,,29.949802,1014.1,,TRUE,TRUE,,,,,,,,,,,,,,,,,,,,,,,,,,,METAR,4.0
KDEC 242154Z 02009KT 10SM CLR 30/11 A3004 RMK AO2 SLP168 T03000111,KDEC,2023-05-24T21:54:00Z,39.83,-88.87,30.0,11.1,20,9,,10.0,30.041338,1016.8,,,TRUE,,,,,,,CLR,,,,,,,,VFR,,,,,,,,,,,,METAR,205.0
KDDH 242154Z AUTO 00000KT 10SM BKN050 BKN070 OVC110 12/09 A3004 RMK AO2 RAB2056E46 SLP173 P0001 T01170094,KDDH,2023-05-24T21:54:00Z,42.9,-73.25,11.7,9.4,0,0,,10.0,30.041338,1017.3,,TRUE,TRUE,,,,,,,BKN,5000,BKN,7000,OVC,11000,,,VFR,,,,,,0.01,,,,,,SPECI,241.0
KCRW 242154Z 04006KT 10SM FEW075 26/08 A3002 RMK AO2 SLP161 T02560083,KCRW,2023-05-24T21:54:00Z,38.38,-81.58,25.6,8.3,40,6,,10.0,30.02067,1016.1,,,TRUE,,,,,,,FEW,7500,,,,,,,VFR,,,,,,,,,,,,METAR,278.0
KCOU 242154Z 06006KT 10SM CLR 29/16 A3004 RMK AO2 LTG DSNT NE SLP165 T02890161,KCOU,2023-05-24T21:54:00Z,38.82,-92.22,28.9,16.1,60,6,,10.0,30.041338,1016.5,,,TRUE,,,,,,,CLR,,,,,,,,VFR,,,,,,,,,,,,METAR,272.0
KCOS 242154Z 01016KT 10SM -TSRA SCT046 SCT075CB BKN110 BKN250 13/08 A3009 RMK AO2 PK WND 27032/2127 WSHFT 2130 LTG DSNT NE AND SE RAB25GRB31E40 TSB14 PRESFR SLP141 OCNL LTGICCG SW TS SW MOV NE P0009 T01280083,KCOS,2023-05-24T21:54:00Z,38.82,-104.68,12.8,8.3,10,16,,10.0,30.088583,1014.1,,,TRUE,,,,,,-TSRA,SCT,4600,SCT,7500,BKN,11000,BKN,25000,VFR,,,,,,0.09,,,,,,METAR,1886.0
KCEU 242154Z AUTO 06005KT 10SM CLR 24/08 A2996 RMK AO2 SLP139 T02390083,KCEU,2023-05-24T21:54:00Z,34.67,-82.88,23.9,8.3,60,5,,10.0,29.958662,1013.9,,TRUE,TRUE,,,,,,,CLR,,,,,,,,VFR,,,,,,,,,,,,METAR,270.0
KBWI 242154Z 06007KT 010V100 10SM FEW070 BKN250 28/08 A2995 RMK AO2 SLP140 T02780083,KBWI,2023-05-24T21:54:00Z,39.17,-76.68,27.8,8.3,60,7,,10.0,29.949802,1014.0,,,TRUE,,,,,,,FEW,7000,BKN,25000,,,,,VFR,,,,,,,,,,,,SPECI,42.0
KBUY 242154Z AUTO 04009KT 10SM CLR 24/07 A2998 RMK AO2 SLP147 T02390067,KBUY,2023-05-24T21:54:00Z,36.05,-79.47,23.9,6.7,40,9,,10.0,29.97933,1014.7,,TRUE,TRUE,,,,,,,CLR,,,,,,,,VFR,,,,,,,,,,,,METAR,185.0
KBUF 242154Z 03011G20KT 10SM BKN043 16/04 A3017 RMK AO2 SLP217 T01560044 $,KBUF,2023-05-24T21:54:00Z,42.93,-78.73,15.6,4.4,30,11,20,10.0,30.171259,1021.7,,,TRUE,TRUE,,,,,,BKN,4300,,,,,,,VFR,,,,,,,,,,,,METAR,217.0
KBFL 242154Z 8SM CLR 26/08 A2983 RMK AO2 SLP097 T02610078,KBFL,2023-05-24T21:54:00Z,35.43,-119.05,26.1,7.8,,,,8.0,29.828741,1009.7,,,TRUE,,,,,,,CLR,,,,,,,,VFR,,,,,,,,,,,,METAR,146.0
KAVP 242154Z 02014G19KT 8SM BKN048 OVC065 18/09 A3003 RMK AO2 PK WND 01026/2129 SLP164 T01830094,KAVP,2023-05-24T21:54:00Z,41.33,-75.72,18.3,9.4,20,14,19,8.0,30.029528,1016.4,,,TRUE,,,,,,,BKN,4800,OVC,6500,,,,,VFR,,,,,,,,,,,,METAR,290.0
KAVL 242154Z 33008KT 10SM BKN070 24/09 A3000 RMK AO2 SLP141 T02440089,KAVL,2023-05-24T21:54:00Z,35.43,-82.53,24.4,8.9,330,8,,10.0,30.0,1014.1,,,TRUE,,,,,,,BKN,7000,,,,,,,VFR,,,,,,,,,,,,METAR,646.0
KAUW 242154Z AUTO 08008KT 10SM CLR 19/M01 A3028 RMK AO2 SLP257 T01941006,KAUW,2023-05-24T21:54:00Z,44.93,-89.62,19.4,-0.6,80,8,,10.0,30.280512,1025.7,,TRUE,TRUE,,,,,,,CLR,,,,,,,,VFR,,,,,,,,,,,,METAR,367.0
KAPN 242154Z AUTO 03010G19KT 10SM CLR 13/M04 A3036 RMK AO2 SLP283 T01331039,KAPN,2023-05-24T21:54:00Z,45.07,-83.57,13.3,-3.9,30,10,19,10.0,30.360237,1028.3,,TRUE,TRUE,,,,,,,CLR,,,,,,,,VFR,,,,,,,,,,,,METAR,208.0
KAPC 242154Z 20011KT 10SM CLR 19/11 A2988 RMK AO2 SLP110 T01890111,KAPC,2023-05-24T21:54:00Z,38.2,-122.28,18.9,11.1,200,11,,10.0,29.878937,1011.0,,,TRUE,,,,,,,CLR,,,,,,,,VFR,,,,,,,,,,,,SPECI,5.0
KALO 242154Z AUTO 08014G24KT 10SM SCT085 29/10 A3009 RMK AO2 PK WND 07029/2117 SLP186 T02940100 $,KALO,2023-05-24T21:54:00Z,42.55,-92.4,29.4,10.0,80,14,24,10.0,30.088583,1018.6,,TRUE,TRUE,TRUE,,,,,,SCT,8500,,,,,,,VFR,,,,,,,,,,,,METAR,264.0
KAKR 242154Z AUTO 35016G24KT 10SM FEW041 22/07 A3010 RMK AO2 SLP187 T02220072,KAKR,2023-05-24T21:54:00Z,41.03,-81.47,22.2,7.2,350,16,24,10.0,30.100393,1018.7,,TRUE,TRUE,,,,,,,FEW,4100,,,,,,,VFR,,,,,,,,,,,,SPECI,319.0
KAKQ 242154Z AUTO 00000KT 10SM CLR 23/04 A2997 RMK AO2 SLP151 T02280044 $,KAKQ,2023-05-24T21:54:00Z,36.98,-77.0,22.8,4.4,0,0,,10.0,29.970472,1015.1,,TRUE,TRUE,TRUE,,,,,,CLR,,,,,,,,VFR,,,,,,,,,,,,METAR,34.0
KAKH 242154Z AUTO 01006KT 10SM CLR 24/08 A2998 RMK AO2 SLP146 T02390083,KAKH,2023-05-24T21:54:00Z,35.2,-81.15,23.9,8.3,10,6,,10.0,29.97933,1014.6,,TRUE,TRUE,,,,,,,CLR,,,,,,,,VFR,,,,,,,,,,,,METAR,242.0
KACY 242154Z VRB05KT 10SM CLR 21/04 A2996 RMK AO2 SLP144 T02060039,KACY,2023-05-24T21:54:00Z,39.45,-74.57,20.6,3.9,0,5,,10.0,29.958662,1014.4,,,TRUE,,,,,,,CLR,,,,,,,,VFR,,,,,,,,,,,,METAR,18.0
KAAO 242154Z AUTO 13015G26KT 10SM FEW036 SCT060 BKN110 21/16 A3003 RMK AO2 PK WND 11028/2125 LTG DSNT NE RAB08E39 SLP164 P0003 T02060161,KAAO,2023-05-24T21:54:00Z,37.75,-97.22,20.6,16.1,130,15,26,10.0,30.029528,1016.4,,TRUE,TRUE,,,,,,,FEW,3600,SCT,6000,BKN,11000,,,VFR,,,,,,0.03,,,,,,METAR,429.0
K1V4 242154Z AUTO 12/10 A3001 RMK AO1 SLP161 P0008 T01170100,K1V4,2023-05-24T21:54:00Z,44.42,-72.02,11.7,10.0,,,,,30.008858,1016.1,,TRUE,TRUE,,,,,,,,,,,,,,,,,,,,,0.08,,,,,,METAR,213.0
K12N 242154Z AUTO VRB03KT 22/13 A2994 RMK AO1 PRESRR SLP137 P0001 T02170128,K12N,2023-05-24T21:54:00Z,41.02,-74.73,21.7,12.8,0,3,,,29.940945,1013.7,,TRUE,TRUE,,,,,,,,,,,,,,,,,,,,,0.01,,,,,,METAR,178.0
TISX 242153Z 11008KT 10SM FEW016 28/24 A2985 RMK AO2 SLP107 T02830239,TISX,2023-05-24T21:53:00Z,17.7,-64.8,28.3,23.9,110,8,,10.0,29.84941,1010.7,,,TRUE,,,,,,,FEW,1600,,,,,,,VFR,,,,,,,,,,,,SPECI,16.0
PHTO 242153Z COR 03007KT 10SM CLR 27/21 A3010 RMK AO2 SLP192 T02720206,PHTO,2023-05-24T21:53:00Z,19.72,-155.05,27.2,20.6,30,7,,10.0,30.100393,1019.2,TRUE,,TRUE,,,,,,,CLR,,,,,,,,VFR,,,,,,,,,,,,METAR,9.0
PHNL 242153Z 06013G23KT 10SM FEW025 SCT044 29/18 A3010 RMK AO2 SLP193 T02940178,PHNL,2023-05-24T21:53:00Z,21.33,-157.93,29.4,17.8,60,13,23,10.0,30.100393,1019.3,,,TRUE,,,,,,,FEW,2500,SCT,4400,,,,,VFR,,,,,,,,,,,,METAR,2.0
PHLI 242153Z 06013KT 10SM BKN024 BKN029 27/21 A3015 RMK AO2 SLP207 T02720211,PHLI,2023-05-24T21:53:00Z,21.97,-159.33,27.2,21.1,60,13,,10.0,30.15059,1020.7,,,TRUE,,,,,,,BKN,2400,BKN,2900,,,,,MVFR,,,,,,,,,,,,METAR,32.0
PHKO 242153Z 24011KT 10SM BKN065 28/20 A3006 RMK AO2 SLP178 T02780200,PHKO,2023-05-24T21:53:00Z,19.73,-156.05,27.8,20.0,240,11,,10.0,30.059055,1017.8,,,TRUE,,,,,,,BKN,6500,,,,,,,VFR,,,,,,,,,,,,METAR,11.0
PHJR 242153Z 01009G15KT 10SM BKN047 29/16 A3011 RMK AO2 SLP204 T02890161,PHJR,2023-05-24T21:53:00Z,21.32,-158.07,28.9,16.1,10,9,15,10.0,30.109253,1020.4,,,TRUE,,,,,,,BKN,4700,,,,,,,VFR,,,,,,,,,,,,SPECI,9.0
PAWI 242153Z AUTO 05015KT 10SM OVC008 M03/M06 A3029 RMK AO2 SLP257 T10281061 TSNO $,PAWI,2023-05-24T21:53:00Z,70.63,-160.02,-2.8,-6.1,50,15,,10.0,30.28937,1025.7,,TRUE,TRUE,TRUE,,TRUE,,,,OVC,800,,,,,,,IFR,,,,,,,,,,,,METAR,12.0
PAWD 242153Z AUTO 17007KT 10SM OVC045 09/06 A2993 RMK AO2 SLP134 T00940056 TSNO,PAWD,2023-05-24T21:53:00Z,60.12,-149.42,9.4,5.6,170,7,,10.0,29.929134,1013.4,,TRUE,TRUE,,,TRUE,,,,OVC,4500,,,,,,,VFR,,,,,,,,,,,,METAR,3.0
PAVL 242153Z AUTO 36006KT 10SM CLR 05/01 A2997 RMK AO2 SLP150 T00500006 TSNO,PAVL,2023-05-24T21:53:00Z,67.73,-164.55,5.0,0.6,360,6,,10.0,29.970472,1015.0,,TRUE,TRUE,,,TRUE,,,,CLR,,,,,,,,VFR,,,,,,,,,,,,METAR,6.0
PATO 242153Z AUTO 14009G20KT 100V180 10SM -RA SCT029 BKN034 OVC046 07/05 A3000 RMK AO2 PK WND 11026/2122 SLP161 P0000 T00720050 TSNO,PATO,2023-05-24T21:53:00Z,60.78,-148.85,7.2,5.0,140,9,20,10.0,30.0,1016.1,,TRUE,TRUE,,,TRUE,,,-RA,SCT,2900,BKN,3400,OVC,4600,,,VFR,,,,,,0.005,,,,,,METAR,47.0
PATK 242153Z 26004KT 10SM BKN080 13/04 A2992 RMK AO2 SLPNO T01330039,PATK,2023-05-24T21:53:00Z,62.32,-150.1,13.3,3.9,260,4,,10.0,29.920275,,,,TRUE,,,,,,,BKN,8000,,,,,,,VFR,,,,,,,,,,,,METAR,107.0
PASO 242153Z AUTO 04004KT 10SM OVC043 11/09 A2987 RMK AO2 SLP115 T01110089 TSNO,PASO,2023-05-24T21:53:00Z,59.45,-151.7,11.1,8.9,40,4,,10.0,29.870079,1011.5,,TRUE,TRUE,,,TRUE,,,,OVC,4300,,,,,,,VFR,,,,,,,,,,,,METAR,20.0
PASI 242153Z 33005KT 4SM BR FEW004 FEW013 OVC023 11/09 A3015 RMK AO2 RAE14 SLP209 P0000 T01110094 $,PASI,2023-05-24T21:53:00Z,57.03,-135.35,11.1,9.4,330,5,,4.0,30.15059,1020.9,,,TRUE,TRUE,,,,,BR,FEW,400,FEW,1300,OVC,2300,,,MVFR,,,,,,0.005,,,,,,METAR,2.0
PASC 242153Z 06015KT 10SM OVC010 M03/M06 A3026 RMK AO2 SLP247 CIG 008V012 T10281056 $,PASC,2023-05-24T21:53:00Z,70.2,-148.47,-2.8,-5.6,60,15,,10.0,30.259842,1024.7,,,TRUE,TRUE,,,,,,OVC,1000,,,,,,,MVFR,,,,,,,,,,,,SPECI,17.0
PAQT 242153Z AUTO 05013KT 10SM OVC012 M03/M06 A3030 RMK AO2 SLP260 T10331061,PAQT,2023-05-24T21:53:00Z,70.22,-151.0,-3.3,-6.1,50,13,,10.0,30.301182,1026.0,,TRUE,TRUE,,,,,,,OVC,1200,,,,,,,MVFR,,,,,,,,,,,,METAR,11.0
PAPB 242153Z AUTO 26009KT 10SM OVC004 04/02 A3006 RMK AO2 SLP166 T00440017 TSNO $,PAPB,2023-05-24T21:53:00Z,56.58,-169.67,4.4,1.7,260,9,,10.0,30.059055,1016.6,,TRUE,TRUE,TRUE,,TRUE,,,,OVC,400,,,,,,,LIFR,,,,,,,,,,,,SPECI,33.0
PAOT 242153Z 30004KT 10SM CLR 02/01 A2994 RMK AO2 SLP139 T00220006,PAOT,2023-05-24T21:53:00Z,66.88,-162.6,2.2,0.6,300,4,,10.0,29.940945,1013.9,,,TRUE,,,,,,,CLR,,,,,,,,VFR,,,,,,,,,,,,METAR,3.0
PAOR 242153Z 10005KT 10SM SCT070 SCT120 18/01 A2985 RMK AO2 SLP109 T01830011,PAOR,2023-05-24T21:53:00Z,62.97,-141.93,18.3,1.1,100,5,,10.0,29.84941,1010.9,,,TRUE,,,,,,,SCT,7000,SCT,12000,,,,,VFR,,,,,,,,,,,,METAR,524.0
PAOM 242153Z 00000KT 10SM OVC037 08/05 A2989 RMK AO2 SLP122 T00780050,PAOM,2023-05-24T21:53:00Z,64.5,-165.43,7.8,5.0,0,0,,10.0,29.890747,1012.2,,,TRUE,,,,,,,OVC,3700,,,,,,,VFR,,,,,,,,,,,,METAR,6.0
PANN 242153Z AUTO 04006KT 10SM FEW070 BKN120 19/01 A2980 RMK AO2 SLP096 T01890006 TSNO $,PANN,2023-05-24T21:53:00Z,64.55,-149.08,18.9,0.6,40,6,,10.0,29.799213,1009.6,,TRUE,TRUE,TRUE,,TRUE,,,,FEW,7000,BKN,12000,,,,,VFR,,,,,,,,,,,,METAR,110.0
PAMR 242153Z 00000KT 10SM FEW075 SCT110 13/05 A2991 RMK AO2 SLP129 T01280050,PAMR,2023-05-24T21:53:00Z,61.22,-149.85,12.8,5.0,0,0,,10.0,29.911417,1012.9,,,TRUE,,,,,,,FEW,7500,SCT,11000,,,,,VFR,,,,,,,,,,,,METAR,43.0
PAMC 242153Z AUTO 09003KT 10SM BKN055 OVC070 15/03 A2983 RMK AO2 SLP104 T01500033 TSNO,PAMC,2023-05-24T21:53:00Z,62.97,-155.62,15.0,3.3,90,3,,10.0,29.828741,1010.4,,TRUE,TRUE,,,TRUE,,,,BKN,5500,OVC,7000,,,,,VFR,,,,,,,,,,,,METAR,101.0
PALH 242153Z A2991 RMK AO2 SLPNO PWINO FZRANO $,PALH,2023-05-24T21:53:00Z,61.18,-149.97,,,,,,,29.911417,,,,TRUE,TRUE,,,TRUE,TRUE,,,,,,,,,,,,,,,,,,,,,,METAR,26.0
PAKW 242153Z AUTO 20009KT 10SM BKN060 OVC095 16/09 A3016 RMK AO2 SLP212 T01610089 TSNO $,PAKW,2023-05-24T21:53:00Z,55.58,-133.07,16.1,8.9,200,9,,10.0,30.159449,1021.2,,TRUE,TRUE,TRUE,,TRUE,,,,BKN,6000,OVC,9500,,,,,VFR,,,,,,,,,,,,METAR,7.0
PAKV 242153Z AUTO 05006KT 10SM OVC075 14/04 A2987 RMK AO2 SLP117 T01440039 TSNO,PAKV,2023-05-24T21:53:00Z,64.33,-158.72,14.4,3.9,50,6,,10.0,29.870079,1011.7,,TRUE,TRUE,,,TRUE,,,,OVC,7500,,,,,,,VFR,,,,,,,,,,,,METAR,53.0
PAKT 242153Z 33005KT 10SM BKN055 OVC090 17/03 A3017 RMK AO2 SLP216 HARBOR WIND 28005KT T01670028 $,PAKT,2023-05-24T21:53:00Z,55.35,-131.72,16.7,2.8,330,5,,10.0,30.171259,1021.6,,,TRUE,TRUE,,,,,,BKN,5500,OVC,9000,,,,,VFR,,,,,,,,,,,,METAR,27.0
PAJN 242153Z 12012KT 10SM -RA OVC048 13/05 A3016 RMK AO2 RAB07 SLP214 P0000 T01330050,PAJN,2023-05-24T21:53:00Z,58.35,-134.55,13.3,5.0,120,12,,10.0,30.159449,1021.4,,,TRUE,,,,,,-RA,OVC,4800,,,,,,,VFR,,,,,,0.005,,,,,,METAR,6.0
PAIL 242153Z AUTO 07007KT 10SM -RA OVC044 09/04 A2985 RMK AO2 SLP110 P0000 T00940044 TSNO,PAIL,2023-05-24T21:53:00Z,59.75,-154.92,9.4,4.4,70,7,,10.0,29.84941,1011.0,,TRUE,TRUE,,,TRUE,,,-RA,OVC,4400,,,,,,,VFR,,,,,,0.005,,,,,,METAR,44.0
PAHO 242153Z 26006KT 10SM OVC050 11/05 A2987 RMK AO2 SLP116 T01060050,PAHO,2023-05-24T21:53:00Z,59.63,-151.48,10.6,5.0,260,6,,10.0,29.870079,1011.6,,,TRUE,,,,,,,OVC,5000,,,,,,,VFR,,,,,,,,,,,,METAR,6.0
PAGY 242153Z AUTO 21010KT 10SM OVC044 12/06 A3012 RMK AO2 RAB13E22 SLP200 P0000 T01220056 TSNO,PAGY,2023-05-24T21:53:00Z,59.47,-135.32,12.2,5.6,210,10,,10.0,30.121063,1020.0,,TRUE,TRUE,,,TRUE,,,,OVC,4400,,,,,,,VFR,,,,,,0.005,,,,,,METAR,7.0
PAFA 242153Z 00000KT 10SM FEW080 BKN110 BKN140 19/01 A2982 RMK AO2 SLP101 T01890006 $,PAFA,2023-05-24T21:53:00Z,64.8,-147.87,18.9,0.6,0,0,,10.0,29.819881,1010.1,,,TRUE,TRUE,,,,,,FEW,8000,BKN,11000,BKN,14000,,,VFR,,,,,,,,,,,,METAR,130.0
PAEN 242153Z 01011KT 10SM OVC070 12/06 A2988 RMK AO2 RAE06 SLP121 P0000 T01220056,PAEN,2023-05-24T21:53:00Z,60.57,-151.25,12.2,5.6,10,11,,10.0,29.878937,1012.1,,,TRUE,,,,,,,OVC,7000,,,,,,,VFR,,,,,,0.005,,,,,,METAR,30.0
PAEG 242153Z AUTO 18006KT 10SM OVC100 19/05 A2985 RMK AO2 SLP111 T01890050 TSNO,PAEG,2023-05-24T21:53:00Z,64.78,-141.15,18.9,5.0,180,6,,10.0,29.84941,1011.1,,TRUE,TRUE,,,TRUE,,,,OVC,10000,,,,,,,VFR,,,,,,,,,,,,METAR,273.0
PADQ 242153Z 10010KT 10SM OVC017 08/07 A2981 RMK AO2 SLP094 T00780067,PADQ,2023-05-24T21:53:00Z,57.75,-152.5,7.8,6.7,100,10,,10.0,29.811024,1009.4,,,TRUE,,,,,,,OVC,1700,,,,,,,MVFR,,,,,,,,,,,,METAR,5.0
PADE 242153Z AUTO 31008KT 10SM CLR 05/02 A2994 RMK AO2 SLP139 T00500017 TSNO,PADE,2023-05-24T21:53:00Z,66.07,-162.77,5.0,1.7,310,8,,10.0,29.940945,1013.9,,TRUE,TRUE,,,TRUE,,,,CLR,,,,,,,,VFR,,,,,,,,,,,,METAR,5.0
PACV 242153Z 11009KT 10SM OVC031 11/06 A3002 RMK AO2 SLP164 T01060061,PACV,2023-05-24T21:53:00Z,60.5,-145.47,10.6,6.1,110,9,,10.0,30.02067,1016.4,,,TRUE,,,,,,,OVC,3100,,,,,,,VFR,,,,,,,,,,,,METAR,15.0
PACD 242153Z 29020KT 10SM OVC013 05/02 A3004 RMK AO2 SLP174 T00500017,PACD,2023-05-24T21:53:00Z,55.22,-162.72,5.0,1.7,290,20,,10.0,30.041338,1017.4,,,TRUE,,,,,,,OVC,1300,,,,,,,MVFR,,,,,,,,,,,,METAR,23.0
PABT 242153Z 29009KT 10SM SCT050 BKN090 BKN110 17/06 A2986 RMK AO2 RAE11 SLP117 VIRGA VC SE AND SHRA DSNT N AND DSNT W P0000 T01670056,PABT,2023-05-24T21:53:00Z,66.92,-151.52,16.7,5.6,290,9,,10.0,29.861221,1011.7,,,TRUE,,,,,,,SCT,5000,BKN,9000,BKN,11000,,,VFR,,,,,,0.005,,,,,,METAR,195.0
PABR 242153Z 06011KT 10SM OVC008 M04/M07 A3034 RMK AO2 SLP273 T10441067 $,PABR,2023-05-24T21:53:00Z,71.28,-156.78,-4.4,-6.7,60,11,,10.0,30.339567,1027.3,,,TRUE,TRUE,,,,,,OVC,800,,,,,,,IFR,,,,,,,,,,,,METAR,6.0
PABI 242153Z 15004KT 10SM BKN070 BKN085 OVC110 17/02 A2986 RMK AO2 SLP113 T01670017,PABI,2023-05-24T21:53:00Z,64.0,-145.72,16.7,1.7,150,4,,10.0,29.861221,1011.3,,,TRUE,,,,,,,BKN,7000,BKN,8500,OVC,11000,,,VFR,,,,,,,,,,,,SPECI,388.0
PAAQ 242153Z 14009KT 10SM -RA BKN060 OVC075 13/04 A2991 RMK AO2 RAB41 SLP130 P0000 T01330039,PAAQ,2023-05-24T21:53:00Z,61.6,-149.08,13.3,3.9,140,9,,10.0,29.911417,1013.0,,,TRUE,,,,,,-RA,BKN,6000,OVC,7500,,,,,VFR,,,,,,0.005,,,,,,METAR,68.0
MMML 242153Z 19005KT 10SM SKC 35/06 A2971,MMML,2023-05-24T21:53:00Z,32.62,-115.23,35.0,6.0,190,5,,10.0,29.71063,,,,,,,,,,,SKC,,,,,,,,VFR,,,,,,,,,,,,METAR,21.0
KZZV 242153Z AUTO 01010G19KT 10SM FEW065 26/12 A3003 RMK AO2 SLP165 T02560117,KZZV,2023-05-24T21:53:00Z,39.95,-81.9,25.6,11.7,10,10,19,10.0,30.029528,1016.5,,TRUE,TRUE,,,,,,,FEW,6500,,,,,,,VFR,,,,,,,,,,,,SPECI,268.0
KYKM 242153Z AUTO 00000KT 10SM CLR 24/02 A2992 RMK AO2 SLP127 T02440017,KYKM,2023-05-24T21:53:00Z,46.57,-120.53,24.4,1.7,0,0,,10.0,29.920275,1012.7,,TRUE,TRUE,,,,,,,CLR,,,,,,,,VFR,,,,,,,,,,,,SPECI,319.0
KYIP 242153Z 02017G25KT 10SM CLR 17/M02 A3022 RMK AO2 PK WND 04027/2057 SLP231 T01721022,KYIP,2023-05-24T21:53:00Z,42.23,-83.53,17.2,-2.2,20,17,25,10.0,30.221457,1023.1,,,TRUE,,,,,,,CLR,,,,,,,,VFR,,,,,,,,,,,,SPECI,215.0
KXNA 242153Z 00000KT 10SM FEW070 27/14 A3003 RMK AO2 SLP157 T02670144,KXNA,2023-05-24T21:53:00Z,36.28,-94.3,26.7,14.4,0,0,,10.0,30.029528,1015.7,,,TRUE,,,,,,,FEW,7000,,,,,,,VFR,,,,,,,,,,,,METAR,390.0
KWVI 242153Z AUTO 27008KT 10SM FEW017 OVC028 15/09 A2996 RMK AO2 SLP143 T01500094,KWVI,2023-05-24T21:53:00Z,36.93,-121.78,15.0,9.4,270,8,,10.0,29.958662,1014.3,,TRUE,TRUE,,,,,,,FEW,1700,OVC,2800,,,,,MVFR,,,,,,,,,,,,METAR,47.0
KWST 242153Z AUTO 18005KT 10SM CLR 15/08 A2993 RMK AO2 SLP137 T01500083,KWST,2023-05-24T21:53:00Z,41.35,-71.8,15.0,8.3,180,5,,10.0,29.929134,1013.7,,TRUE,TRUE,,,,,,,CLR,,,,,,,,VFR,,,,,,,,,,,,METAR,20.0
KWRL 242153Z AUTO 23008KT 10SM SCT095 27/04 A2982 RMK AO2 SLPNO T02720044,KWRL,2023-05-24T21:53:00Z,43.97,-107.95,27.2,4.4,230,8,,10.0,29.819881,,,TRUE,TRUE,,,,,,,SCT,9500,,,,,,,VFR,,,,,,,,,,,,METAR,1281.0
KVUO 242153Z AUTO 28010KT 10SM CLR 23/09 A3000 RMK AO2 SLP160 T02280094,KVUO,2023-05-24T21:53:00Z,45.62,-122.65,22.8,9.4,280,10,,10.0,30.0,1016.0,,TRUE,TRUE,,,,,,,CLR,,,,,,,,VFR,,,,,,,,,,,,METAR,7.0
KVRB 242153Z 10003KT 10SM FEW100 SCT120 24/22 A2981 RMK AO2 RAE25 TSE48 PRESRR SLP094 P0006 T02390217,KVRB,2023-05-24T21:53:00Z,27.65,-80.42,23.9,21.7,100,3,,10.0,29.811024,1009.4,,,TRUE,,,,,,,FEW,10000,SCT,12000,,,,,VFR,,,,,,0.06,,,,,,METAR,7.0
KVLD 242153Z AUTO 06006KT 10SM SCT055 27/16 A2987 RMK AO1 SLP121 T02670161,KVLD,2023-05-24T21:53:00Z,30.78,-83.27,26.7,16.1,60,6,,10.0,29.870079,1012.1,,TRUE,TRUE,,,,,,,SCT,5500,,,,,,,VFR,,,,,,,,,,,,METAR,59.0
KVIH 242153Z AUTO 06006KT 10SM SCT070 28/13 A3005 RMK AO2 SLP165 T02830133,KVIH,2023-05-24T21:53:00Z,38.13,-91.77,28.3,13.3,60,6,,10.0,30.050198,1016.5,,TRUE,TRUE,,,,,,,SCT,7000,,,,,,,VFR,,,,,,,,,,,,METAR,342.0
KVGT 242153Z 22015G26KT 10SM CLR 34/M06 A2972 RMK AO2 PK WND 21026/2150 SLP051 T03441061,KVGT,2023-05-24T21:53:00Z,36.22,-115.2,34.4,-6.1,220,15,26,10.0,29.719488,1005.1,,,TRUE,,,,,,,CLR,,,,,,,,VFR,,,,,,,,,,,,METAR,664.0
KVEL 242153Z AUTO 21009KT 10SM FEW090 25/05 A2993 RMK AO2 LTG DSNT SW SLP078 T02500050,KVEL,2023-05-24T21:53:00Z,40.45,-109.52,25.0,5.0,210,9,,10.0,29.929134,1007.8,,TRUE,TRUE,,,,,,,FEW,9000,,,,,,,VFR,,,,,,,,,,,,METAR,1604.0
KUUU 242153Z AUTO 20005KT 10SM FEW110 13/05 A2993 RMK AO2 SLP134 T01330050,KUUU,2023-05-24T21:53:00Z,41.53,-71.28,13.3,5.0,200,5,,10.0,29.929134,1013.4,,TRUE,TRUE,,,,,,,FEW,11000,,,,,,,VFR,,,,,,,,,,,,METAR,45.0
KUTS 242153Z AUTO 32004KT 8SM SCT120 27/20 A2992 RMK AO2 SLP126 T02720200,KUTS,2023-05-24T21:53:00Z,30.75,-95.58,27.2,20.0,320,4,,8.0,29.920275,1012.6,,TRUE,TRUE,,,,,,,SCT,12000,,,,,,,VFR,,,,,,,,,,,,METAR,103.0
KUNV 242153Z 34007G14KT 10SM SCT070 SCT090 25/09 A2998,KUNV,2023-05-24T21:53:00Z,40.85,-77.83,25.0,9.0,340,7,14,10.0,29.97933,,,,,,,,,,,SCT,7000,SCT,9000,,,,,VFR,,,,,,,,,,,,METAR,365.0
KUNO 242153Z AUTO VRB04KT 10SM CLR 28/12 A3005 RMK AO2 SLP164 T02780117,KUNO,2023-05-24T21:53:00Z,36.88,-91.9,27.8,11.7,0,4,,10.0,30.050198,1016.4,,TRUE,TRUE,,,,,,,CLR,,,,,,,,VFR,,,,,,,,,,,,METAR,376.0
KUIL 242153Z AUTO 31009KT 10SM CLR 19/08 A3007 RMK AO2 SLP184 T01940083,KUIL,2023-05-24T21:53:00Z,47.93,-124.55,19.4,8.3,310,9,,10.0,30.070866,1018.4,,TRUE,TRUE,,,,,,,CLR,,,,,,,,VFR,,,,,,,,,,,,SPECI,58.0
KUAO 242153Z 35009KT 10SM CLR 21/09 A3001 RMK AO2 SLP159 T02110089,KUAO,2023-05-24T21:53:00Z,45.25,-122.77,21.1,8.9,350,9,,10.0,30.008858,1015.9,,,TRUE,,,,,,,CLR,,,,,,,,VFR,,,,,,,,,,,,METAR,60.0
KTYS 242153Z 05013G16KT 10SM FEW060 26/09 A2998 RMK AO2 SLP144 T02560089,KTYS,2023-05-24T21:53:00Z,35.82,-83.98,25.6,8.9,50,13,16,10.0,29.97933,1014.4,,,TRUE,,,,,,,FEW,6000,,,,,,,VFR,,,,,,,,,,,,METAR,300.0
KTYR 242153Z 05010G19KT 10SM FEW042 FEW050 29/18 A2992 RMK AO2 LTG DSNT S AND SW SLP124 T02940178,KTYR,2023-05-24T21:53:00Z,32.37,-95.4,29.4,17.8,50,10,19,10.0,29.920275,1012.4,,,TRUE,,,,,,,FEW,4200,FEW,5000,,,,,VFR,,,,,,,,,,,,METAR,161.0
KTXK 242153Z VRB06KT 10SM BKN042 28/17 A2996 RMK AO2 SLP141 T02830167,KTXK,2023-05-24T21:53:00Z,33.45,-93.98,28.3,16.7,0,6,,10.0,29.958662,1014.1,,,TRUE,,,,,,,BKN,4200,,,,,,,VFR,,,,,,,,,,,,METAR,118.0
KTWF 242153Z 12006KT 10SM FEW065 BKN095 BKN110 17/09 A2989 RMK AO2 LTG DSNT S RAE09 SLP082 P0000 T01720094,KTWF,2023-05-24T21:53:00Z,42.48,-114.48,17.2,9.4,120,6,,10.0,29.890747,1008.2,,,TRUE,,,,,,,FEW,6500,BKN,9500,BKN,11000,,,VFR,,,,,,0.005,,,,,,METAR,1269.0
KTVR 242153Z AUTO 03006KT 10SM FEW034 BKN043 24/18 A2994 RMK AO2 SLP145 T02440178,KTVR,2023-05-24T21:53:00Z,32.35,-91.03,24.4,17.8,30,6,,10.0,29.940945,1014.5,,TRUE,TRUE,,,,,,,FEW,3400,BKN,4300,,,,,VFR,,,,,,,,,,,,METAR,25.0
KTVC 242153Z 36009KT 10SM BKN250 16/02 A3028 RMK AO2 SLP256 T01610022,KTVC,2023-05-24T21:53:00Z,44.73,-85.58,16.1,2.2,360,9,,10.0,30.280512,1025.6,,,TRUE,,,,,,,BKN,25000,,,,,,,VFR,,,,,,,,,,,,METAR,188.0
KTUS 242153Z VRB06G19KT 10SM CLR 34/00 A2986 RMK AO2 SLP065 T03390000,KTUS,2023-05-24T21:53:00Z,32.13,-110.95,33.9,0.0,0,6,19,10.0,29.861221,1006.5,,,TRUE,,,,,,,CLR,,,,,,,,VFR,,,,,,,,,,,,SPECI,776.0
KTUP 242153Z 05008KT 10SM CLR 28/15 A2997 RMK AO2 SLP143 T02780150 $,KTUP,2023-05-24T21:53:00Z,34.27,-88.77,27.8,15.0,50,8,,10.0,29.970472,1014.3,,,TRUE,TRUE,,,,,,CLR,,,,,,,,VFR,,,,,,,,,,,,METAR,107.0
KTUL 242153Z 08005KT 10SM -RA FEW025 BKN095 BKN120 23/20 A3001 RMK AO2 RAB16 SLP158 P0001 T02280200,KTUL,2023-05-24T21:53:00Z,36.2,-95.88,22.8,20.0,80,5,,10.0,30.008858,1015.8,,,TRUE,,,,,,-RA,FEW,2500,BKN,9500,BKN,12000,,,VFR,,,,,,0.01,,,,,,METAR,196.0
KTTN 242153Z 28008KT 10SM CLR 26/09 A2991 RMK AO2 SLP120 T02610089,KTTN,2023-05-24T21:53:00Z,40.28,-74.82,26.1,8.9,280,8,,10.0,29.911417,1012.0,,,TRUE,,,,,,,CLR,,,,,,,,VFR,,,,,,,,,,,,METAR,58.0
KTTD 242153Z 25006KT 10SM CLR 21/09 A2999 RMK AO2 SLP155 T02110094,KTTD,2023-05-24T21:53:00Z,45.55,-122.42,21.1,9.4,250,6,,10.0,29.991142,1015.5,,,TRUE,,,,,,,CLR,,,,,,,,VFR,,,,,,,,,,,,METAR,8.0
KTRL 242153Z AUTO 06010KT 10SM SCT047 SCT080 28/17 A2993 RMK AO2 SLP130 T02830172,KTRL,2023-05-24T21:53:00Z,32.72,-96.27,28.3,17.2,60,10,,10.0,29.929134,1013.0,,TRUE,TRUE,,,,,,,SCT,4700,SCT,8000,,,,,VFR,,,,,,,,,,,,METAR,144.0
KTRI 242153Z VRB06KT 10SM CLR 26/07 A3001 RMK AO2 SLP141 T02560067,KTRI,2023-05-24T21:53:00Z,36.48,-82.4,25.6,6.7,0,6,,10.0,30.008858,1014.1,,,TRUE,,,,,,,CLR,,,,,,,,VFR,,,,,,,,,,,,METAR,456.0
KTPA 242153Z 09010G14KT 10SM -TSRA FEW010 SCT055CB OVC130 22/21 A2981 RMK AO2 LTG DSNT E-SW SLP093 FRQ LTGICCC VC SE-SW TS VC SE-SW MOV SW P0072 T02220211 $,KTPA,2023-05-24T21:53:00Z,27.97,-82.53,22.2,21.1,90,10,14,10.0,29.811024,1009.3,,,TRUE,TRUE,,,,,-TSRA,FEW,1000,SCT,5500,OVC,13000,,,VFR,,,,,,0.72,,,,,,METAR,2.0
KTOR 242153Z AUTO 11015G22KT 10SM CLR 25/13 A2993 RMK AO2 SLP095 T02500133,KTOR,2023-05-24T21:53:00Z,42.07,-104.15,25.0,13.3,110,15,22,10.0,29.929134,1009.5,,TRUE,TRUE,,,,,,,CLR,,,,,,,,VFR,,,,,,,,,,,,METAR,1285.0
KTOP 242153Z 15015KT 10SM CLR 29/16 A3002 RMK AO2 PK WND 16027/2131 LTG DSNT SW SLP159 T02890161,KTOP,2023-05-24T21:53:00Z,39.07,-95.63,28.9,16.1,150,15,,10.0,30.02067,1015.9,,,TRUE,,,,,,,CLR,,,,,,,,VFR,,,,,,,,,,,,METAR,268.0
KTOI 242153Z AUTO 06007KT 10SM OVC070 27/17 A2992 RMK AO2 SLP128 T02670172,KTOI,2023-05-24T21:53:00Z,31.85,-86.02,26.7,17.2,60,7,,10.0,29.920275,1012.8,,TRUE,TRUE,,,,,,,OVC,7000,,,,,,,VFR,,,,,,,,,,,,SPECI,120.0
KTLH 242153Z 05007KT 10SM FEW027 SCT045 BKN075 26/19 A2986 RMK AO2 SLP109 T02610189,KTLH,2023-05-24T21:53:00Z,30.4,-84.35,26.1,18.9,50,7,,10.0,29.861221,1010.9,,,TRUE,,,,,,,FEW,2700,SCT,4500,BKN,7500,,,VFR,,,,,,,,,,,,METAR,17.0
KTKI 242153Z 06008KT 10SM FEW060 29/16 A2994 RMK AO2 SLP133 T02940156,KTKI,2023-05-24T21:53:00Z,33.18,-96.58,29.4,15.6,60,8,,10.0,29.940945,1013.3,,,TRUE,,,,,,,FEW,6000,,,,,,,VFR,,,,,,,,,,,,SPECI,173.0
KTIX 242153Z 06005KT 6SM BR SCT020 BKN050 27/21 A2983,KTIX,2023-05-24T21:53:00Z,28.5,-80.8,27.0,21.0,60,5,,6.0,29.828741,,,,,,,,,,BR,SCT,2000,BKN,5000,,,,,VFR,,,,,,,,,,,,METAR,10.0
KTIW 242153Z 03007KT 10SM CLR 19/08 A3005 RMK AO2 SLP175 T01940078,KTIW,2023-05-24T21:53:00Z,47.27,-122.58,19.4,7.8,30,7,,10.0,30.050198,1017.5,,,TRUE,,,,,,,CLR,,,,,,,,VFR,,,,,,,,,,,,SPECI,89.0
KTHV 242153Z AUTO 27004KT 10SM CLR 26/10 A2995 RMK AO2 SLP141 T02610100,KTHV,2023-05-24T21:53:00Z,39.92,-76.88,26.1,10.0,270,4,,10.0,29.949802,1014.1,,TRUE,TRUE,,,,,,,CLR,,,,,,,,VFR,,,,,,,,,,,,SPECI,141.0
KTDZ 242153Z AUTO 06016G24KT 10SM CLR 18/04 A3019 RMK AO2 SLP222 T01830044,KTDZ,2023-05-24T21:53:00Z,41.57,-83.48,18.3,4.4,60,16,24,10.0,30.188976,1022.2,,TRUE,TRUE,,,,,,,CLR,,,,,,,,VFR,,,,,,,,,,,,SPECI,189.0
KTCS 242153Z AUTO 19016G30KT 10SM CLR 32/M06 A2995 RMK AO2 PK WND 16031/2110 SLP055 T03171056,KTCS,2023-05-24T21:53:00Z,33.23,-107.27,31.7,-5.6,190,16,30,10.0,29.949802,1005.5,,TRUE,TRUE,,,,,,,CLR,,,,,,,,VFR,,,,,,,,,,,,SPECI,1471.0
KTCL 242153Z 02012KT 9SM BKN043 BKN050 BKN070 26/17 A2994 RMK AO2 SLP138 T02560172,KTCL,2023-05-24T21:53:00Z,33.22,-87.62,25.6,17.2,20,12,,9.0,29.940945,1013.8,,,TRUE,,,,,,,BKN,4300,BKN,5000,BKN,7000,,,VFR,,,,,,,,,,,,METAR,48.0
KTCC 242153Z AUTO 14015G26KT 10SM CLR 28/14 A2991 RMK AO2 PK WND 16027/2130 LTG DSNT N AND NW SLP077 T02830139,KTCC,2023-05-24T21:53:00Z,35.18,-103.6,28.3,13.9,140,15,26,10.0,29.911417,1007.7,,TRUE,TRUE,,,,,,,CLR,,,,,,,,VFR,,,,,,,,,,,,SPECI,1233.0
KSWO 242153Z 11008KT 10SM FEW037 FEW090 BKN110 27/18 A2999 RMK AO2 LTG DSNT NE SLP145 T02670183,KSWO,2023-05-24T21:53:00Z,36.17,-97.08,26.7,18.3,110,8,,10.0,29.991142,1014.5,,,TRUE,,,,,,,FEW,3700,FEW,9000,BKN,11000,,,VFR,,,,,,,,,,,,METAR,293.0
KSTS 242153Z 20010G17KT 7SM HZ CLR 20/11 A2988 RMK AO2 SLP112 T02000106,KSTS,2023-05-24T21:53:00Z,38.5,-122.82,20.0,10.6,200,10,17,7.0,29.878937,1011.2,,,TRUE,,,,,,HZ,CLR,,,,,,,,VFR,,,,,,,,,,,,SPECI,35.0
KSTP 242153Z 09010G19KT 10SM CLR 23/12 A3019 RMK AO2 SLP221 T02280117,KSTP,2023-05-24T21:53:00Z,44.93,-93.05,22.8,11.7,90,10,19,10.0,30.188976,1022.1,,,TRUE,,,,,,,CLR,,,,,,,,VFR,,,,,,,,,,,,SPECI,213.0
KSTJ 242153Z 25004KT 10SM SCT070 31/13 A3001 RMK AO2 SLP156 T03060128,KSTJ,2023-05-24T21:53:00Z,39.77,-94.92,30.6,12.8,250,4,,10.0,30.008858,1015.6,,,TRUE,,,,,,,SCT,7000,,,,,,,VFR,,,,,,,,,,,,METAR,247.0
KSTC 242153Z 08010G17KT 10SM CLR 19/09 A3020 RMK AO2 SLP235 T01890094,KSTC,2023-05-24T21:53:00Z,45.55,-94.05,18.9,9.4,80,10,17,10.0,30.200787,1023.5,,,TRUE,,,,,,,CLR,,,,,,,,VFR,,,,,,,,,,,,METAR,302.0
KSSI 242153Z AUTO 06012KT 10SM CLR 25/17 A2989 RMK AO2 SLP122 T02500167,KSSI,2023-05-24T21:53:00Z,31.15,-81.38,25.0,16.7,60,12,,10.0,29.890747,1012.2,,TRUE,TRUE,,,,,,,CLR,,,,,,,,VFR,,,,,,,,,,,,METAR,6.0
KSSF 242153Z 09006KT 10SM -RA FEW048 SCT075 SCT090 31/17 A2987 RMK AO2 RAB35 SLP103 P0000 T03060167 $,KSSF,2023-05-24T21:53:00Z,29.33,-98.47,30.6,16.7,90,6,,10.0,29.870079,1010.3,,,TRUE,TRUE,,,,,-RA,FEW,4800,SCT,7500,SCT,9000,,,VFR,,,,,,0.005,,,,,,SPECI,175.0
KSPW 242153Z AUTO 10013KT 10SM FEW095 29/08 A3007 RMK AO2 SLP176 T02940078,KSPW,2023-05-24T21:53:00Z,43.17,-95.22,29.4,7.8,100,13,,10.0,30.070866,1017.6,,TRUE,TRUE,,,,,,,FEW,9500,,,,,,,VFR,,,,,,,,,,,,SPECI,407.0
KSPB 242153Z AUTO 02010KT 10SM CLR 22/08 A2999 RMK AO2 SLP154 T02220083,KSPB,2023-05-24T21:53:00Z,45.77,-122.87,22.2,8.3,20,10,,10.0,29.991142,1015.4,,TRUE,TRUE,,,,,,,CLR,,,,,,,,VFR,,,,,,,,,,,,SPECI,15.0
KSNY 242153Z AUTO 13016G26KT 9SM FEW041 SCT048 SCT055 23/14 A2998 RMK AO2 PK WND 15026/2150 SLP114 T02330139,KSNY,2023-05-24T21:53:00Z,41.1,-102.98,23.3,13.9,130,16,26,9.0,29.97933,1011.4,,TRUE,TRUE,,,,,,,FEW,4100,SCT,4800,SCT,5500,,,VFR,,,,,,,,,,,,SPECI,1307.0
KSNS 242153Z AUTO 29011KT 10SM OVC034 19/08 A2993 RMK AO2 SLP145 T01890083,KSNS,2023-05-24T21:53:00Z,36.67,-121.6,18.9,8.3,290,11,,10.0,29.929134,1014.5,,TRUE,TRUE,,,,,,,OVC,3400,,,,,,,VFR,,,,,,,,,,,,SPECI,20.0
KSNA 242153Z 23009KT 10SM BKN021 18/11 A2994 RMK AO2 SLP138 T01830106,KSNA,2023-05-24T21:53:00Z,33.67,-117.87,18.3,10.6,230,9,,10.0,29.940945,1013.8,,,TRUE,,,,,,,BKN,2100,,,,,,,MVFR,,,,,,,,,,,,SPECI,14.0
KSMQ 242153Z AUTO VRB03KT 10SM FEW090 26/11 A2988 RMK AO2 SLP119 T02560106,KSMQ,2023-05-24T21:53:00Z,40.62,-74.67,25.6,10.6,0,3,,10.0,29.878937,1011.9,,TRUE,TRUE,,,,,,,FEW,9000,,,,,,,VFR,,,,,,,,,,,,SPECI,30.0
KSMF 242153Z 19012KT 10SM CLR 24/11 A2983 RMK AO2 SLP100 T02390106,KSMF,2023-05-24T21:53:00Z,38.7,-121.6,23.9,10.6,190,12,,10.0,29.828741,1010.0,,,TRUE,,,,,,,CLR,,,,,,,,VFR,,,,,,,,,,,,METAR,7.0
KSLN 242153Z 11012G15KT 10SM BKN070 28/12 A3001 RMK AO2 SLP152 T02830122,KSLN,2023-05-24T21:53:00Z,38.8,-97.65,28.3,12.2,110,12,15,10.0,30.008858,1015.2,,,TRUE,,,,,,,BKN,7000,,,,,,,VFR,,,,,,,,,,,,METAR,377.0
KSJC 242153Z 19007KT 10SM FEW019 FEW038 20/10 A2988 RMK AO2 SLP118 T02000100,KSJC,2023-05-24T21:53:00Z,37.37,-121.92,20.0,10.0,190,7,,10.0,29.878937,1011.8,,,TRUE,,,,,,,FEW,1900,FEW,3800,,,,,VFR,,,,,,,,,,,,METAR,13.0
KSIY 242153Z AUTO 00000KT 10SM CLR 27/00 A2986 RMK AO2 SLP108 T02670000,KSIY,2023-05-24T21:53:00Z,41.77,-122.47,26.7,0.0,0,0,,10.0,29.861221,1010.8,,TRUE,TRUE,,,,,,,CLR,,,,,,,,VFR,,,,,,,,,,,,METAR,807.0
KSHR 242153Z AUTO 22003KT 10SM FEW048 SCT090 BKN110 22/14 A2984 RMK AO2 LTG DSNT S-NW RAB08E40 SLP076 P0000 T02170144,KSHR,2023-05-24T21:53:00Z,44.77,-106.97,21.7,14.4,220,3,,10.0,29.840551,1007.6,,TRUE,TRUE,,,,,,,FEW,4800,SCT,9000,BKN,11000,,,VFR,,,,,,0.005,,,,,,METAR,1212.0
KSHN 242153Z AUTO 15005KT 10SM BKN050 20/08 A3002 RMK AO2 SLP167 T02000083,KSHN,2023-05-24T21:53:00Z,47.23,-123.13,20.0,8.3,150,5,,10.0,30.02067,1016.7,,TRUE,TRUE,,,,,,,BKN,5000,,,,,,,VFR,,,,,,,,,,,,METAR,84.0
KSGR 242153Z 35007KT 10SM FEW080 31/19 A2987 RMK AO2 SLP117 T03110189,KSGR,2023-05-24T21:53:00Z,29.62,-95.65,31.1,18.9,350,7,,10.0,29.870079,1011.7,,,TRUE,,,,,,,FEW,8000,,,,,,,VFR,,,,,,,,,,,,METAR,22.0
KSFF 242153Z 14006KT 10SM FEW065 BKN110 22/04 A2992 RMK AO2 LTG DSNT NW RAB09E22 SLP125 P0000 T02170039,KSFF,2023-05-24T21:53:00Z,47.68,-117.32,21.7,3.9,140,6,,10.0,29.920275,1012.5,,,TRUE,,,,,,,FEW,6500,BKN,11000,,,,,VFR,,,,,,0.005,,,,,,METAR,593.0
KSFB 242153Z 06004KT 10SM CLR 24/21 A2982 RMK AO2 SLP098 T02390206,KSFB,2023-05-24T21:53:00Z,28.77,-81.23,23.9,20.6,60,4,,10.0,29.819881,1009.8,,,TRUE,,,,,,,CLR,,,,,,,,VFR,,,,,,,,,,,,METAR,16.0
KSEG 242153Z AUTO 36014G21KT 10SM OVC075 22/12 A2997 RMK AO2 WSHFT 2126 RAB29E41 SLP147 P0000 T02170122,KSEG,2023-05-24T21:53:00Z,40.82,-76.87,21.7,12.2,360,14,21,10.0,29.970472,1014.7,,TRUE,TRUE,,,,,,,OVC,7500,,,,,,,VFR,,,,,,0.005,,,,,,METAR,136.0
KSEA 242153Z 30010KT 10SM SCT042 SCT100 21/06 A3005 RMK AO2 SLP182 T02060061,KSEA,2023-05-24T21:53:00Z,47.45,-122.32,20.6,6.1,300,10,,10.0,30.050198,1018.2,,,TRUE,,,,,,,SCT,4200,SCT,10000,,,,,VFR,,,,,,,,,,,,METAR,115.0
KSDM 242153Z 26010KT 10SM OVC020 17/11 A2995 RMK AO2 SLP140 T01670106,KSDM,2023-05-24T21:53:00Z,32.58,-117.0,16.7,10.6,260,10,,10.0,29.949802,1014.0,,,TRUE,,,,,,,OVC,2000,,,,,,,MVFR,,,,,,,,,,,,METAR,161.0
KSDL 242153Z 17011G15KT 10SM CLR 34/M01 A2980 RMK AO2 SLP064 T03441006,KSDL,2023-05-24T21:53:00Z,33.62,-111.92,34.4,-0.6,170,11,15,10.0,29.799213,1006.4,,,TRUE,,,,,,,CLR,,,,,,,,VFR,,,,,,,,,,,,METAR,438.0
KSBM 242153Z AUTO 03014G21KT 10SM CLR 16/M06 A3028 RMK AO2 PK WND 05027/2112 SLP255 T01611061,KSBM,2023-05-24T21:53:00Z,43.78,-87.85,16.1,-6.1,30,14,21,10.0,30.280512,1025.5,,TRUE,TRUE,,,,,,,CLR,,,,,,,,VFR,,,,,,,,,,,,METAR,225.0
KSBA 242153Z 23009KT 10SM OVC044 19/10 A2994 RMK AO2 SLP138 T01940100 $,KSBA,2023-05-24T21:53:00Z,34.43,-119.85,19.4,10.0,230,9,,10.0,29.940945,1013.8,,,TRUE,TRUE,,,,,,OVC,4400,,,,,,,VFR,,,,,,,,,,,,METAR,2.0
KSAV 242153Z 02008KT 10SM FEW035 FEW200 SCT250 27/09 A2989 RMK AO2 SLP120 T02720089,KSAV,2023-05-24T21:53:00Z,32.12,-81.2,27.2,8.9,20,8,,10.0,29.890747,1012.0,,,TRUE,,,,,,,FEW,3500,FEW,20000,SCT,25000,,,VFR,,,,,,,,,,,,METAR,10.0
KSAF 242153Z 08004KT 10SM CLR 24/01 A3004 RMK AO2 SLP081 T02440011,KSAF,2023-05-24T21:53:00Z,35.62,-106.1,24.4,1.1,80,4,,10.0,30.041338,1008.1,,,TRUE,,,,,,,CLR,,,,,,,,VFR,,,,,,,,,,,,METAR,1918.0
KSAC 242153Z 24011KT 10SM CLR 23/11 A2984 RMK AO2 SLP105 T02280106,KSAC,2023-05-24T21:53:00Z,38.5,-121.5,22.8,10.6,240,11,,10.0,29.840551,1010.5,,,TRUE,,,,,,,CLR,,,,,,,,VFR,,,,,,,,,,,,METAR,5.0
KRXE 242153Z AUTO VRB05KT 10SM FEW047 19/09 A2993 RMK AO2 LTG DSNT SE SLP104 T01940094,KRXE,2023-05-24T21:53:00Z,43.83,-111.8,19.4,9.4,0,5,,10.0,29.929134,1010.4,,TRUE,TRUE,,,,,,,FEW,4700,,,,,,,VFR,,,,,,,,,,,,METAR,1483.0
KRWL 242153Z AUTO 19010KT 10SM FEW075 SCT090 BKN120 21/03 A3003 RMK AO2 LTG DSNT NE SLP077 T02110028,KRWL,2023-05-24T21:53:00Z,41.8,-107.2,21.1,2.8,190,10,,10.0,30.029528,1007.7,,TRUE,TRUE,,,,,,,FEW,7500,SCT,9000,BKN,12000,,,VFR,,,,,,,,,,,,METAR,2066.0
KRWI 242153Z AUTO 03010KT 10SM OVC100 24/03 A2997 RMK AO2 SLP147 T02440033,KRWI,2023-05-24T21:53:00Z,35.85,-77.9,24.4,3.3,30,10,,10.0,29.970472,1014.7,,TRUE,TRUE,,,,,,,OVC,10000,,,,,,,VFR,,,,,,,,,,,,METAR,46.0
KRVS 242153Z 08006KT 10SM OVC120 25/18 A3001 RMK AO2 SLP166 T02500183,KRVS,2023-05-24T21:53:00Z,36.05,-95.98,25.0,18.3,80,6,,10.0,30.008858,1016.6,,,TRUE,,,,,,,OVC,12000,,,,,,,VFR,,,,,,,,,,,,METAR,191.0
KRUE 242153Z AUTO VRB05KT 10SM CLR 28/14 A2999 RMK AO2 SLP148 T02780144,KRUE,2023-05-24T21:53:00Z,35.25,-93.1,27.8,14.4,0,5,,10.0,29.991142,1014.8,,TRUE,TRUE,,,,,,,CLR,,,,,,,,VFR,,,,,,,,,,,,METAR,119.0
KRTN 242153Z AUTO 01012KT 10SM BKN095 16/09 A3008 RMK AO2 RAE47 TSE16B23E39 SLP128 P0029 T01610089,KRTN,2023-05-24T21:53:00Z,36.73,-104.5,16.1,8.9,10,12,,10.0,30.079725,1012.8,,TRUE,TRUE,,,,,,,BKN,9500,,,,,,,VFR,,,,,,0.29,,,,,,METAR,1939.0
KRSL 242153Z AUTO 10006KT 10SM BKN065 26/12 A3001 RMK AO2 SLP149 T02560122,KRSL,2023-05-24T21:53:00Z,38.87,-98.82,25.6,12.2,100,6,,10.0,30.008858,1014.9,,TRUE,TRUE,,,,,,,BKN,6500,,,,,,,VFR,,,,,,,,,,,,METAR,569.0
KRQE 242153Z AUTO 21010KT 10SM CLR 24/M04 A3006 RMK AO2 SLP082 T02441044,KRQE,2023-05-24T21:53:00Z,35.65,-109.07,24.4,-4.4,210,10,,10.0,30.059055,1008.2,,TRUE,TRUE,,,,,,,CLR,,,,,,,,VFR,,,,,,,,,,,,METAR,2056.0
KRNT 242153Z 33007KT 10SM CLR 21/08 A3004 RMK AO2 SLP178 T02060083,KRNT,2023-05-24T21:53:00Z,47.5,-122.22,20.6,8.3,330,7,,10.0,30.041338,1017.8,,,TRUE,,,,,,,CLR,,,,,,,,VFR,,,,,,,,,,,,METAR,7.0
KRNM 242153Z 26009KT 3SM BR OVC012 17/12 A2994 RMK AO2 SLP130 T01720122,KRNM,2023-05-24T21:53:00Z,33.03,-116.92,17.2,12.2,260,9,,3.0,29.940945,1013.0,,,TRUE,,,,,,BR,OVC,1200,,,,,,,MVFR,,,,,,,,,,,,METAR,423.0
KRMG 242153Z AUTO 03009KT 10SM SCT060 27/12 A2994 RMK AO2 SLP130 T02720122,KRMG,2023-05-24T21:53:00Z,34.35,-85.17,27.2,12.2,30,9,,10.0,29.940945,1013.0,,TRUE,TRUE,,,,,,,SCT,6000,,,,,,,VFR,,,,,,,,,,,,METAR,196.0
KRME 242153Z 02017G23KT 10SM OVC044 11/07 A3011 RMK AO2 SLP195 T01060067,KRME,2023-05-24T21:53:00Z,43.22,-75.4,10.6,6.7,20,17,23,10.0,30.109253,1019.5,,,TRUE,,,,,,,OVC,4400,,,,,,,VFR,,,,,,,,,,,,METAR,146.0
KRKP 242153Z AUTO 12011KT 5SM HZ CLR 29/22 A2988 RMK AO2 SLP118 T02940217,KRKP,2023-05-24T21:53:00Z,28.08,-97.05,29.4,21.7,120,11,,5.0,29.878937,1011.8,,TRUE,TRUE,,,,,,HZ,CLR,,,,,,,,MVFR,,,,,,,,,,,,METAR,8.0
KRIW 242153Z AUTO 17007KT 10SM CLR 24/04 A2991 RMK AO2 LTG DSNT E AND W SLP070 T02390039,KRIW,2023-05-24T21:53:00Z,43.07,-108.43,23.9,3.9,170,7,,10.0,29.911417,1007.0,,TRUE,TRUE,,,,,,,CLR,,,,,,,,VFR,,,,,,,,,,,,METAR,1662.0
KRIL 242153Z AUTO 12011KT 10SM -RA SCT037 SCT055 BKN080 22/07 A2997 RMK AO2 LTG DSNT NW RAB09E23B41 SLP092 P0000 T02170067,KRIL,2023-05-24T21:53:00Z,39.53,-107.73,21.7,6.7,120,11,,10.0,29.970472,1009.2,,TRUE,TRUE,,,,,,-RA,SCT,3700,SCT,5500,BKN,8000,,,VFR,,,,,,0.005,,,,,,METAR,1683.0
KRHI 242153Z AUTO 09007KT 10SM CLR 17/M03 A3033 RMK AO2 SLP274 T01671033,KRHI,2023-05-24T21:53:00Z,45.63,-89.48,16.7,-3.3,90,7,,10.0,30.33071,1027.4,,TRUE,TRUE,,,,,,,CLR,,,,,,,,VFR,,,,,,,,,,,,METAR,493.0
KRDD 242153Z 00000KT 10SM CLR 28/09 A2977 RMK AO2 SLP076 T02830094,KRDD,2023-05-24T21:53:00Z,40.52,-122.3,28.3,9.4,0,0,,10.0,29.769686,1007.6,,,TRUE,,,,,,,CLR,,,,,,,,VFR,,,,,,,,,,,,METAR,152.0
KRBG 242153Z AUTO 01009KT 10SM CLR 22/07 A2996 RMK AO2 SLP143 T02170067,KRBG,2023-05-24T21:53:00Z,43.23,-123.35,21.7,6.7,10,9,,10.0,29.958662,1014.3,,TRUE,TRUE,,,,,,,CLR,,,,,,,,VFR,,,,,,,,,,,,METAR,152.0
KRBD 242153Z 08009KT 9SM FEW055 29/16 A2992 RMK AO2 SLP123 T02940161,KRBD,2023-05-24T21:53:00Z,32.68,-96.87,29.4,16.1,80,9,,9.0,29.920275,1012.3,,,TRUE,,,,,,,FEW,5500,,,,,,,VFR,,,,,,,,,,,,METAR,200.0
KRAL 242153Z 26013KT 250V310 10SM CLR 22/13 A2990 RMK AO2 SLP112 T02170128,KRAL,2023-05-24T21:53:00Z,33.95,-117.45,21.7,12.8,260,13,,10.0,29.899607,1011.2,,,TRUE,,,,,,,CLR,,,,,,,,VFR,,,,,,,,,,,,METAR,254.0
KRAC 242153Z AUTO 01017G29KT 10SM CLR 11/04 A3027 RMK AO2 PK WND 01032/2143 SLP252 T01060044,KRAC,2023-05-24T21:53:00Z,42.77,-87.82,10.6,4.4,10,17,29,10.0,30.268702,1025.2,,TRUE,TRUE,,,,,,,CLR,,,,,,,,VFR,,,,,,,,,,,,METAR,203.0
KPWA 242153Z 11006KT 10SM SCT060 OVC080 26/16 A2998 RMK AO2 SLP138 T02560156,KPWA,2023-05-24T21:53:00Z,35.53,-97.65,25.6,15.6,110,6,,10.0,29.97933,1013.8,,,TRUE,,,,,,,SCT,6000,OVC,8000,,,,,VFR,,,,,,,,,,,,METAR,390.0
KPUW 242153Z AUTO 10SM FEW060 FEW090 OVC110 19/04 A2995 RMK AO2 SLP138 T01940044,KPUW,2023-05-24T21:53:00Z,46.75,-117.12,19.4,4.4,,,,10.0,29.949802,1013.8,,TRUE,TRUE,,,,,,,FEW,6000,FEW,9000,OVC,11000,,,VFR,,,,,,,,,,,,METAR,774.0
KPUC 242153Z AUTO 19012G22KT 10SM CLR 25/01 A2995 RMK AO2 LTG DSNT NW SLP082 T02500006,KPUC,2023-05-24T21:53:00Z,39.62,-110.75,25.0,0.6,190,12,22,10.0,29.949802,1008.2,,TRUE,TRUE,,,,,,,CLR,,,,,,,,VFR,,,,,,,,,,,,METAR,1777.0
KPUB 242153Z VRB03KT 10SM VCTS FEW048 SCT060 OVC120 23/11 A2999 RMK AO2 LTG DSNT ALQDS SLP105 T02280106,KPUB,2023-05-24T21:53:00Z,38.28,-104.5,22.8,10.6,0,3,,10.0,29.991142,1010.5,,,TRUE,,,,,,VCTS,FEW,4800,SCT,6000,OVC,12000,,,VFR,,,,,,,,,,,,METAR,1441.0
KPTK 242153Z 03013G24KT 10SM FEW120 BKN220 14/M02 A3025 RMK AO2 SLP243 T01441022,KPTK,2023-05-24T21:53:00Z,42.67,-83.42,14.4,-2.2,30,13,24,10.0,30.250984,1024.3,,,TRUE,,,,,,,FEW,12000,BKN,22000,,,,,VFR,,,,,,,,,,,,METAR,295.0
KPSX 242153Z AUTO 19004KT 10SM CLR 31/20 A2987 RMK AO2 SLP115 T03110200,KPSX,2023-05-24T21:53:00Z,28.72,-96.25,31.1,20.0,190,4,,10.0,29.870079,1011.5,,TRUE,TRUE,,,,,,,CLR,,,,,,,,VFR,,,,,,,,,,,,METAR,4.0
KPSP 242153Z 32018G24KT 10SM CLR 34/07 A2974 RMK AO2 SLP066 T03440072,KPSP,2023-05-24T21:53:00Z,33.82,-116.5,34.4,7.2,320,18,24,10.0,29.740158,1006.6,,,TRUE,,,,,,,CLR,,,,,,,,VFR,,,,,,,,,,,,METAR,123.0
KPSC 242153Z AUTO 10SM CLR 26/01 A2992 RMK AO2 SLP128 T02560011,KPSC,2023-05-24T21:53:00Z,46.27,-119.12,25.6,1.1,,,,10.0,29.920275,1012.8,,TRUE,TRUE,,,,,,,CLR,,,,,,,,VFR,,,,,,,,,,,,METAR,121.0
KPRC 242153Z 22013G18KT 10SM CLR 26/M02 A3000 RMK AO2 SLP087 T02561017,KPRC,2023-05-24T21:53:00Z,34.65,-112.42,25.6,-1.7,220,13,18,10.0,30.0,1008.7,,,TRUE,,,,,,,CLR,,,,,,,,VFR,,,,,,,,,,,,SPECI,1528.0
KPRB 242153Z AUTO 23007G16KT 10SM BKN028 18/08 A2993 RMK AO2 SLP133 T01780083,KPRB,2023-05-24T21:53:00Z,35.67,-120.63,17.8,8.3,230,7,16,10.0,29.929134,1013.3,,TRUE,TRUE,,,,,,,BKN,2800,,,,,,,MVFR,,,,,,,,,,,,SPECI,249.0
KPQL 242153Z 36010KT 10SM SCT032 28/19 A2986 RMK AO2 SLP114 T02780189,KPQL,2023-05-24T21:53:00Z,30.47,-88.53,27.8,18.9,360,10,,10.0,29.861221,1011.4,,,TRUE,,,,,,,SCT,3200,,,,,,,VFR,,,,,,,,,,,,METAR,4.0
KPOU 242153Z 36016G26KT 10SM CLR 17/11 A2996 RMK AO2 PK WND 36031/2119 WSHFT 2050 RAB23E43 SLP143 P0000 T01670106,KPOU,2023-05-24T21:53:00Z,41.63,-73.88,16.7,10.6,360,16,26,10.0,29.958662,1014.3,,,TRUE,,,,,,,CLR,,,,,,,,VFR,,,,,,0.005,,,,,,METAR,45.0
KPOF 242153Z AUTO 36010G17KT 10SM FEW070 BKN100 31/13 A2999 RMK AO2 SLP150 T03060128,KPOF,2023-05-24T21:53:00Z,36.77,-90.32,30.6,12.8,360,10,17,10.0,29.991142,1015.0,,TRUE,TRUE,,,,,,,FEW,7000,BKN,10000,,,,,VFR,,,,,,,,,,,,METAR,99.0
KPMP 242153Z 29005KT 10SM VCTS SCT028 BKN070 BKN180 24/21 A2977 RMK AO2 LTG DSNT ALQDS RAB25E36 TSE2054 SLP082 P0000 T02440206,KPMP,2023-05-24T21:53:00Z,26.25,-80.12,24.4,20.6,290,5,,10.0,29.769686,1008.2,,,TRUE,,,,,,VCTS,SCT,2800,BKN,7000,BKN,18000,,,VFR,,,,,,0.005,,,,,,METAR,4.0
KPMD 242153Z 22019G26KT 10SM CLR 25/05 A2984 RMK AO2 PK WND 23028/2129 SLP085 T02500050,KPMD,2023-05-24T21:53:00Z,34.63,-118.08,25.0,5.0,220,19,26,10.0,29.840551,1008.5,,,TRUE,,,,,,,CLR,,,,,,,,VFR,,,,,,,,,,,,SPECI,764.0
KPKD 242153Z AUTO 12015G22KT 10SM CLR 12/04 A3023 RMK AO2 SLP242 T01220044,KPKD,2023-05-24T21:53:00Z,46.9,-95.07,12.2,4.4,120,15,22,10.0,30.230314,1024.2,,TRUE,TRUE,,,,,,,CLR,,,,,,,,VFR,,,,,,,,,,,,METAR,439.0
KPKB 242153Z 00000KT 10SM FEW070 SCT085 25/11 A3002 RMK AO2 SLP162 T02500106,KPKB,2023-05-24T21:53:00Z,39.35,-81.43,25.0,10.6,0,0,,10.0,30.02067,1016.2,,,TRUE,,,,,,,FEW,7000,SCT,8500,,,,,VFR,,,,,,,,,,,,METAR,245.0
KPIR 242153Z AUTO 18015G23KT 10SM BKN100 28/10 A2996 RMK AO2 SLP134 T02830100,KPIR,2023-05-24T21:53:00Z,44.38,-100.28,28.3,10.0,180,15,23,10.0,29.958662,1013.4,,TRUE,TRUE,,,,,,,BKN,10000,,,,,,,VFR,,,,,,,,,,,,METAR,524.0
KPIL 242153Z AUTO 14009KT 10SM CLR 30/22 A2984 RMK AO2 SLP105 T03000222,KPIL,2023-05-24T21:53:00Z,26.17,-97.33,30.0,22.2,140,9,,10.0,29.840551,1010.5,,TRUE,TRUE,,,,,,,CLR,,,,,,,,VFR,,,,,,,,,,,,METAR,5.0
KPIE 242153Z 11013G20KT 5SM -TSRA BR FEW020 SCT070 OVC085 22/22 A2981 RMK AO2 PK WND 07032/2118 LTG DSNT E-SW SLP096 P0073 T02220222,KPIE,2023-05-24T21:53:00Z,27.92,-82.68,22.2,22.2,110,13,20,5.0,29.811024,1009.6,,,TRUE,,,,,,-TSRA BR,FEW,2000,SCT,7000,OVC,8500,,,MVFR,,,,,,0.73,,,,,,METAR,1.0
KPGA 242153Z AUTO 20009G14KT 10SM FEW120 31/00 A2988 RMK AO2 SLP049 T03110000,KPGA,2023-05-24T21:53:00Z,36.92,-111.45,31.1,0.0,200,9,14,10.0,29.878937,1004.9,,TRUE,TRUE,,,,,,,FEW,12000,,,,,,,VFR,,,,,,,,,,,,METAR,1310.0
KPDX 242153Z 27007KT 10SM FEW030 22/09 A2999 RMK AO2 SLP156 T02220089,KPDX,2023-05-24T21:53:00Z,45.6,-122.62,22.2,8.9,270,7,,10.0,29.991142,1015.6,,,TRUE,,,,,,,FEW,3000,,,,,,,VFR,,,,,,,,,,,,METAR,7.0
KPDT 242153Z VRB06G15KT 10SM CLR 23/03 A2994 RMK AO2 SLP130 T02280033,KPDT,2023-05-24T21:53:00Z,45.7,-118.83,22.8,3.3,0,6,15,10.0,29.940945,1013.0,,,TRUE,,,,,,,CLR,,,,,,,,VFR,,,,,,,,,,,,METAR,453.0
KPDK 242153Z 02008KT 9SM FEW055 25/13 A2995 RMK AO2 SLP129 T02500128,KPDK,2023-05-24T21:53:00Z,33.88,-84.3,25.0,12.8,20,8,,9.0,29.949802,1012.9,,,TRUE,,,,,,,FEW,5500,,,,,,,VFR,,,,,,,,,,,,METAR,299.0
KPBG 242153Z AUTO 34009KT 10SM BKN039 OVC046 08/06 A3013 RMK AO2 SLP206 T00780056,KPBG,2023-05-24T21:53:00Z,44.65,-73.47,7.8,5.6,340,9,,10.0,30.129921,1020.6,,TRUE,TRUE,,,,,,,BKN,3900,OVC,4600,,,,,VFR,,,,,,,,,,,,METAR,61.0
KPBF 242153Z AUTO 05009G15KT 10SM FEW060 28/14 A2997 RMK AO2 SLP147 T02830139,KPBF,2023-05-24T21:53:00Z,34.18,-91.93,28.3,13.9,50,9,15,10.0,29.970472,1014.7,,TRUE,TRUE,,,,,,,FEW,6000,,,,,,,VFR,,,,,,,,,,,,METAR,63.0
KPAH 242153Z 06009KT 10SM CLR 29/10 A2999 RMK AO2 SLP152 T02940100,KPAH,2023-05-24T21:53:00Z,37.07,-88.77,29.4,10.0,60,9,,10.0,29.991142,1015.2,,,TRUE,,,,,,,CLR,,,,,,,,VFR,,,,,,,,,,,,METAR,125.0
KPAE 242153Z 36005KT 10SM CLR 18/09 A3007 RMK AO2 SLP182 T01780089,KPAE,2023-05-24T21:53:00Z,47.92,-122.28,17.8,8.9,360,5,,10.0,30.070866,1018.2,,,TRUE,,,,,,,CLR,,,,,,,,VFR,,,,,,,,,,,,SPECI,166.0
KP68 242153Z AUTO 29024G39KT 17/04 A2991 RMK AO1 PK WND 29039/2152 PRESRR SLP067 T01720044,KP68,2023-05-24T21:53:00Z,39.6,-116.0,17.2,4.4,290,24,39,,29.911417,1006.7,,TRUE,TRUE,,,,,,,,,,,,,,,,,,,,,,,,,,,METAR,1813.0
KOWD 242153Z 20009KT 10SM BKN100 21/05 A2990 RMK AO2 SLP124 T02060050,KOWD,2023-05-24T21:53:00Z,42.18,-71.17,20.6,5.0,200,9,,10.0,29.899607,1012.4,,,TRUE,,,,,,,BKN,10000,,,,,,,VFR,,,,,,,,,,,,SPECI,14.0
KOVS 242153Z AUTO 08007G15KT 040V110 10SM CLR 25/11 A3018 RMK AO2 SLP221 T02500106,KOVS,2023-05-24T21:53:00Z,43.15,-90.68,25.0,10.6,80,7,15,10.0,30.180119,1022.1,,TRUE,TRUE,,,,,,,CLR,,,,,,,,VFR,,,,,,,,,,,,SPECI,205.0
KOTM 242153Z AUTO 15005KT 10SM CLR 29/12 A3005 RMK AO2 SLP172 T02890122,KOTM,2023-05-24T21:53:00Z,41.1,-92.45,28.9,12.2,150,5,,10.0,30.050198,1017.2,,TRUE,TRUE,,,,,,,CLR,,,,,,,,VFR,,,,,,,,,,,,METAR,254.0
KOSU 242153Z 03015KT 10SM CLR 25/12 A3005 RMK AO2 SLP172 T02500117,KOSU,2023-05-24T21:53:00Z,40.08,-83.08,25.0,11.7,30,15,,10.0,30.050198,1017.2,,,TRUE,,,,,,,CLR,,,,,,,,VFR,,,,,,,,,,,,SPECI,276.0
KOSH 242153Z 06013G23KT 10SM FEW090 17/M02 A3029 RMK AO2 SLP252 T01671017,KOSH,2023-05-24T21:53:00Z,43.98,-88.55,16.7,-1.7,60,13,23,10.0,30.28937,1025.2,,,TRUE,,,,,,,FEW,9000,,,,,,,VFR,,,,,,,,,,,,SPECI,239.0
KORL 242153Z 01004KT 10SM SCT100 BKN110 23/21 A2983 RMK AO2 RAE33 SLP103 P0002 T02330211,KORL,2023-05-24T21:53:00Z,28.55,-81.33,23.3,21.1,10,4,,10.0,29.828741,1010.3,,,TRUE,,,,,,,SCT,10000,BKN,11000,,,,,VFR,,,,,,0.02,,,,,,METAR,32.0
KOQT 242153Z AUTO VRB05KT 10SM CLR 26/11 A3000 RMK AO2 SLP149 T02560106,KOQT,2023-05-24T21:53:00Z,36.02,-84.23,25.6,10.6,0,5,,10.0,30.0,1014.9,,TRUE,TRUE,,,,,,,CLR,,,,,,,,VFR,,,,,,,,,,,,METAR,276.0
KOPF 242153Z 35007KT 10SM CLR 26/21 A2977 RMK AO2 LTG DSNT ALQDS SLP082 T02560206 $,KOPF,2023-05-24T21:53:00Z,25.92,-80.28,25.6,20.6,350,7,,10.0,29.769686,1008.2,,,TRUE,TRUE,,,,,,CLR,,,,,,,,VFR,,,,,,,,,,,,METAR,1.0
KONT 242153Z 25011KT 10SM FEW030 22/13 A2991 RMK AO2 SLP120 T02170128,KONT,2023-05-24T21:53:00Z,34.05,-117.58,21.7,12.8,250,11,,10.0,29.911417,1012.0,,,TRUE,,,,,,,FEW,3000,,,,,,,VFR,,,,,,,,,,,,METAR,279.0
KONO 242153Z AUTO 04004KT 10SM CLR 27/03 A2985 RMK AO2 SLP098 T02670028,KONO,2023-05-24T21:53:00Z,44.02,-117.02,26.7,2.8,40,4,,10.0,29.84941,1009.8,,TRUE,TRUE,,,,,,,CLR,,,,,,,,VFR,,,,,,,,,,,,METAR,668.0
KOMK 242153Z AUTO 22006KT 10SM -RA FEW045 BKN080 OVC100 16/09 A2996 RMK AO2 RAB26 SLP145 P0002 T01610094,KOMK,2023-05-24T21:53:00Z,48.47,-119.52,16.1,9.4,220,6,,10.0,29.958662,1014.5,,TRUE,TRUE,,,,,,-RA,FEW,4500,BKN,8000,OVC,10000,,,VFR,,,,,,0.02,,,,,,METAR,395.0
KOLF 242153Z AUTO 13009G19KT 7SM CLR 28/14 A2979 RMK AO2 SLP079 T02830139,KOLF,2023-05-24T21:53:00Z,48.1,-105.58,28.3,13.9,130,9,19,7.0,29.790354,1007.9,,TRUE,TRUE,,,,,,,CLR,,,,,,,,VFR,,,,,,,,,,,,SPECI,605.0
KOGB 242153Z AUTO 02010G14KT 10SM CLR 26/04 A2991 RMK AO2 SLP127 T02610044,KOGB,2023-05-24T21:53:00Z,33.47,-80.85,26.1,4.4,20,10,14,10.0,29.911417,1012.7,,TRUE,TRUE,,,,,,,CLR,,,,,,,,VFR,,,,,,,,,,,,METAR,59.0
KODX 242153Z AUTO 19007G17KT 10SM SCT055 OVC090 26/13 A3003 RMK AO2 SLP162 T02610133,KODX,2023-05-24T21:53:00Z,41.62,-98.95,26.1,13.3,190,7,17,10.0,30.029528,1016.2,,TRUE,TRUE,,,,,,,SCT,5500,OVC,9000,,,,,VFR,,,,,,,,,,,,METAR,628.0
KODO 242153Z AUTO 14016KT 10SM FEW045 29/17 A2995 RMK AO2 PK WND 11030/2113 SLP094 T02940172 $,KODO,2023-05-24T21:53:00Z,31.92,-102.4,29.4,17.2,140,16,,10.0,29.949802,1009.4,,TRUE,TRUE,TRUE,,,,,,FEW,4500,,,,,,,VFR,,,,,,,,,,,,SPECI,912.0
KOAK 242153Z 29009KT 10SM FEW018 FEW028 18/09 A2991 RMK AO2 SLP128 T01780094,KOAK,2023-05-24T21:53:00Z,37.72,-122.23,17.8,9.4,290,9,,10.0,29.911417,1012.8,,,TRUE,,,,,,,FEW,1800,FEW,2800,,,,,VFR,,,,,,,,,,,,SPECI,3.0
KNUW 242153Z 26007KT 10SM FEW032 SCT110 BKN240 16/10 A3008 RMK AO2 SLP189 T01610100 $,KNUW,2023-05-24T21:53:00Z,48.35,-122.65,16.1,10.0,260,7,,10.0,30.079725,1018.9,,,TRUE,TRUE,,,,,,FEW,3200,SCT,11000,BKN,24000,,,VFR,,,,,,,,,,,,METAR,14.0
KNUI 242153Z AUTO 35003KT 10SM CLR 24/11 A2997 RMK AO2 SLP147 T02390106,KNUI,2023-05-24T21:53:00Z,38.15,-76.43,23.9,10.6,350,3,,10.0,29.970472,1014.7,,TRUE,TRUE,,,,,,,CLR,,,,,,,,VFR,,,,,,,,,,,,METAR,4.0
KNSI 242153Z 32011KT 10SM FEW016 BKN020 OVC028 16/10 A2995 RMK AO2 SLP138 T01560100 $,KNSI,2023-05-24T21:53:00Z,33.23,-119.45,15.6,10.0,320,11,,10.0,29.949802,1013.8,,,TRUE,TRUE,,,,,,FEW,1600,BKN,2000,OVC,2800,,,MVFR,,,,,,,,,,,,SPECI,161.0
KNRS 242153Z 24008KT 10SM OVC020 17/11 A2997 RMK AO2 SLP148 T01720106,KNRS,2023-05-24T21:53:00Z,32.57,-117.12,17.2,10.6,240,8,,10.0,29.970472,1014.8,,,TRUE,,,,,,,OVC,2000,,,,,,,MVFR,,,,,,,,,,,,METAR,15.0
KNQX 242153Z 25003KT 10SM FEW020 SCT060 29/23 A2976 RMK AO2 SLP076 T2 SET T02940233 $,KNQX,2023-05-24T21:53:00Z,24.57,-81.67,29.4,23.3,250,3,,10.0,29.760826,1007.6,,,TRUE,TRUE,,,,,,FEW,2000,SCT,6000,,,,,VFR,,,,,,,,,,,,SPECI,2.0
KNIP 242153Z 04013KT 10SM FEW028 SCT035 BKN250 25/17 A2988 RMK AO2 SLP115 T02500172 $,KNIP,2023-05-24T21:53:00Z,30.23,-81.67,25.0,17.2,40,13,,10.0,29.878937,1011.5,,,TRUE,TRUE,,,,,,FEW,2800,SCT,3500,BKN,25000,,,VFR,,,,,,,,,,,,METAR,3.0
KNEW 242153Z 36013KT 10SM FEW031 28/19 A2988 RMK AO2 SLP112 T02830194,KNEW,2023-05-24T21:53:00Z,30.05,-90.03,28.3,19.4,360,13,,10.0,29.878937,1011.2,,,TRUE,,,,,,,FEW,3100,,,,,,,VFR,,,,,,,,,,,,METAR,1.0
KMYV 242153Z AUTO VRB06KT 10SM CLR 24/12 A2982 RMK AO2 SLP102 T02440117,KMYV,2023-05-24T21:53:00Z,39.1,-121.57,24.4,11.7,0,6,,10.0,29.819881,1010.2,,TRUE,TRUE,,,,,,,CLR,,,,,,,,VFR,,,,,,,,,,,,SPECI,18.0
KMYF 242153Z AUTO 22005KT 10SM OVC025 17/11 A2995 RMK AO2 SLP139 T01720106,KMYF,2023-05-24T21:53:00Z,32.82,-117.13,17.2,10.6,220,5,,10.0,29.949802,1013.9,,TRUE,TRUE,,,,,,,OVC,2500,,,,,,,MVFR,,,,,,,,,,,,SPECI,128.0
KMWT 242153Z AUTO VRB04KT 10SM CLR 27/13 A2998 RMK AO2 SLP143 T02720133,KMWT,2023-05-24T21:53:00Z,34.55,-93.58,27.2,13.3,0,4,,10.0,29.97933,1014.3,,TRUE,TRUE,,,,,,,CLR,,,,,,,,VFR,,,,,,,,,,,,METAR,220.0
KMWL 242153Z AUTO 11008KT 10SM FEW045 28/18 A2993 RMK AO2 SLP122 T02830178,KMWL,2023-05-24T21:53:00Z,32.78,-98.07,28.3,17.8,110,8,,10.0,29.929134,1012.2,,TRUE,TRUE,,,,,,,FEW,4500,,,,,,,VFR,,,,,,,,,,,,SPECI,288.0
KMVY 242153Z 19005KT 10SM CLR 13/11 A2994 RMK AO2 SLP138 T01330106,KMVY,2023-05-24T21:53:00Z,41.4,-70.62,13.3,10.6,190,5,,10.0,29.940945,1013.8,,,TRUE,,,,,,,CLR,,,,,,,,VFR,,,,,,,,,,,,METAR,18.0
KMTO 242153Z AUTO 06009KT 10SM BKN100 28/09 A3003 RMK AO2 SLP163 T02830089,KMTO,2023-05-24T21:53:00Z,39.47,-88.27,28.3,8.9,60,9,,10.0,30.029528,1016.3,,TRUE,TRUE,,,,,,,BKN,10000,,,,,,,VFR,,,,,,,,,,,,METAR,216.0
KMTJ 242153Z AUTO 12005G16KT 10SM CLR 24/02 A2998 RMK AO2 SLP084 T02440017,KMTJ,2023-05-24T21:53:00Z,38.5,-107.9,24.4,1.7,120,5,16,10.0,29.97933,1008.4,,TRUE,TRUE,,,,,,,CLR,,,,,,,,VFR,,,,,,,,,,,,METAR,1755.0
KMTH 242153Z AUTO 27006KT 10SM CLR 31/23 A2974 RMK AO2 SLP072 T03110228,KMTH,2023-05-24T21:53:00Z,24.73,-81.05,31.1,22.8,270,6,,10.0,29.740158,1007.2,,TRUE,TRUE,,,,,,,CLR,,,,,,,,VFR,,,,,,,,,,,,METAR,1.0
KMSY 242153Z 35008G17KT 10SM BKN030 BKN250 27/18 A2987 RMK AO2 SLP119 T02720183,KMSY,2023-05-24T21:53:00Z,30.0,-90.25,27.2,18.3,350,8,17,10.0,29.870079,1011.9,,,TRUE,,,,,,,BKN,3000,BKN,25000,,,,,MVFR,,,,,,,,,,,,METAR,0.0
KMSS 242153Z AUTO 32010KT 10SM BKN050 14/03 A3015 RMK AO2 SLP211 T01390028,KMSS,2023-05-24T21:53:00Z,44.93,-74.85,13.9,2.8,320,10,,10.0,30.15059,1021.1,,TRUE,TRUE,,,,,,,BKN,5000,,,,,,,VFR,,,,,,,,,,,,METAR,60.0
KMSP 242153Z 10015KT 10SM FEW150 BKN250 24/12 A3018 RMK AO2 SLP218 T02390122,KMSP,2023-05-24T21:53:00Z,44.88,-93.23,23.9,12.2,100,15,,10.0,30.180119,1021.8,,,TRUE,,,,,,,FEW,15000,BKN,25000,,,,,VFR,,,,,,,,,,,,METAR,255.0
KMSO 242153Z 01013KT 10SM BKN110 23/07 A2986 RMK AO2 SLP096 T02280072,KMSO,2023-05-24T21:53:00Z,46.92,-114.1,22.8,7.2,10,13,,10.0,29.861221,1009.6,,,TRUE,,,,,,,BKN,11000,,,,,,,VFR,,,,,,,,,,,,METAR,974.0
KMSN 242153Z 06014KT 10SM BKN250 19/03 A3023 RMK AO2 SLP236 T01940033,KMSN,2023-05-24T21:53:00Z,43.13,-89.35,19.4,3.3,60,14,,10.0,30.230314,1023.6,,,TRUE,,,,,,,BKN,25000,,,,,,,VFR,,,,,,,,,,,,METAR,262.0
KMSL 242153Z AUTO 06005KT 10SM FEW060 SCT075 BKN090 28/14 A2996 RMK AO2 SLP142 T02780139 PWINO,KMSL,2023-05-24T21:53:00Z,34.75,-87.6,27.8,13.9,60,5,,10.0,29.958662,1014.2,,TRUE,TRUE,,,,,TRUE,,FEW,6000,SCT,7500,BKN,9000,,,VFR,,,,,,,,,,,,METAR,170.0
KMRB 242153Z 29003KT 10SM OVC095 26/07 A2996 RMK AO2 SLP142 T02560072,KMRB,2023-05-24T21:53:00Z,39.4,-77.98,25.6,7.2,290,3,,10.0,29.958662,1014.2,,,TRUE,,,,,,,OVC,9500,,,,,,,VFR,,,,,,,,,,,,SPECI,165.0
KMPO 242153Z AUTO 32009KT 10SM FEW070 OVC085 16/14 A3000 RMK AO2 RAE47 SLP160 P0002 T01610139,KMPO,2023-05-24T21:53:00Z,41.13,-75.38,16.1,13.9,320,9,,10.0,30.0,1016.0,,TRUE,TRUE,,,,,,,FEW,7000,OVC,8500,,,,,VFR,,,,,,0.02,,,,,,METAR,576.0
KMOD 242153Z 10SM CLR 23/09 A2983 RMK AO2 SLP101 T02330089,KMOD,2023-05-24T21:53:00Z,37.62,-120.95,23.3,8.9,,,,10.0,29.828741,1010.1,,,TRUE,,,,,,,CLR,,,,,,,,VFR,,,,,,,,,,,,METAR,25.0
KMNN 242153Z AUTO 03020G26KT 9SM CLR 20/10 A3011 RMK AO2 PK WND 04027/2102 SLP196 T02000100,KMNN,2023-05-24T21:53:00Z,40.62,-83.07,20.0,10.0,30,20,26,9.0,30.109253,1019.6,,TRUE,TRUE,,,,,,,CLR,,,,,,,,VFR,,,,,,,,,,,,METAR,301.0
KMMV 242153Z AUTO 02008KT 10SM CLR 22/10 A2999 RMK AO2 SLP154 T02220100,KMMV,2023-05-24T21:53:00Z,45.2,-123.13,22.2,10.0,20,8,,10.0,29.991142,1015.4,,TRUE,TRUE,,,,,,,CLR,,,,,,,,VFR,,,,,,,,,,,,SPECI,48.0
KMMK 242153Z AUTO 17005KT 10SM SCT110 19/05 A2992 RMK AO2 SLP131 T01940050 $,KMMK,2023-05-24T21:53:00Z,41.52,-72.83,19.4,5.0,170,5,,10.0,29.920275,1013.1,,TRUE,TRUE,TRUE,,,,,,SCT,11000,,,,,,,VFR,,,,,,,,,,,,METAR,30.0
KMLU 242153Z 06009KT 10SM FEW036 OVC044 26/17 A2996 RMK AO2 SLP143 T02560167,KMLU,2023-05-24T21:53:00Z,32.52,-92.03,25.6,16.7,60,9,,10.0,29.958662,1014.3,,,TRUE,,,,,,,FEW,3600,OVC,4400,,,,,VFR,,,,,,,,,,,,METAR,22.0
KMLT 242153Z AUTO 32004KT 1 1/2SM RA BR FEW017 BKN030 OVC039 11/11 A3000 RMK AO2 RAB36 SLP166 P0005 T01060106,KMLT,2023-05-24T21:53:00Z,45.65,-68.7,10.6,10.6,320,4,,1.5,30.0,1016.6,,TRUE,TRUE,,,,,,RA BR,FEW,1700,BKN,3000,OVC,3900,,,IFR,,,,,,0.05,,,,,,METAR,121.0
KMLS 242153Z AUTO 16011KT 10SM CLR 28/13 A2978 RMK AO2 LTG DSNT NW SLP064 T02830133,KMLS,2023-05-24T21:53:00Z,46.43,-105.88,28.3,13.3,160,11,,10.0,29.778543,1006.4,,TRUE,TRUE,,,,,,,CLR,,,,,,,,VFR,,,,,,,,,,,,METAR,800.0
KMLP 242153Z AUTO VRB03KT 10SM BKN080 OVC095 12/02 A2999 RMK AO2 SLP093 T01220022,KMLP,2023-05-24T21:53:00Z,47.45,-115.67,12.2,2.2,0,3,,10.0,29.991142,1009.3,,TRUE,TRUE,,,,,,,BKN,8000,OVC,9500,,,,,VFR,,,,,,,,,,,,SPECI,1837.0
KMLB 242153Z 02006KT 10SM -RA FEW060 BKN110 24/21 A2981 RMK AO2 SLP092 P0001 T02390206,KMLB,2023-05-24T21:53:00Z,28.1,-80.65,23.9,20.6,20,6,,10.0,29.811024,1009.2,,,TRUE,,,,,,-RA,FEW,6000,BKN,11000,,,,,VFR,,,,,,0.01,,,,,,METAR,7.0
KMKO 242153Z AUTO 15007KT 10SM CLR 26/18 A3003 RMK AO2 SLP162 T02610183,KMKO,2023-05-24T21:53:00Z,35.65,-95.37,26.1,18.3,150,7,,10.0,30.029528,1016.2,,TRUE,TRUE,,,,,,,CLR,,,,,,,,VFR,,,,,,,,,,,,METAR,184.0
KMKL 242153Z VRB03KT 10SM SCT060 BKN075 27/16 A2999 RMK AO2 LTG DSNT NE SLP151 T02720156,KMKL,2023-05-24T21:53:00Z,35.6,-88.92,27.2,15.6,0,3,,10.0,29.991142,1015.1,,,TRUE,,,,,,,SCT,6000,BKN,7500,,,,,VFR,,,,,,,,,,,,METAR,130.0
KMIW 242153Z AUTO 12008KT 10SM CLR 29/06 A3007 RMK AO2 SLP178 T02940056,KMIW,2023-05-24T21:53:00Z,42.12,-92.92,29.4,5.6,120,8,,10.0,30.070866,1017.8,,TRUE,TRUE,,,,,,,CLR,,,,,,,,VFR,,,,,,,,,,,,METAR,296.0
KMIE 242153Z 06012KT 10SM FEW110 28/07 A3005 RMK AO2 SLP166 T02780072,KMIE,2023-05-24T21:53:00Z,40.23,-85.4,27.8,7.2,60,12,,10.0,30.050198,1016.6,,,TRUE,,,,,,,FEW,11000,,,,,,,VFR,,,,,,,,,,,,METAR,286.0
KMIC 242153Z 10011G18KT 10SM CLR 23/12 A3018 RMK AO2 SLP217 T02330122,KMIC,2023-05-24T21:53:00Z,45.07,-93.35,23.3,12.2,100,11,18,10.0,30.180119,1021.7,,,TRUE,,,,,,,CLR,,,,,,,,VFR,,,,,,,,,,,,METAR,263.0
KMIA 242153Z 01005KT 10SM FEW030 FEW075 SCT130 BKN250 28/21 A2975 RMK AO2 LTG DSNT ALQDS SLP076 CB DSNT S-W-N-NE MOV NE T02830206 $,KMIA,2023-05-24T21:53:00Z,25.8,-80.32,28.3,20.6,10,5,,10.0,29.749016,1007.6,,,TRUE,TRUE,,,,,,FEW,3000,FEW,7500,SCT,13000,BKN,25000,VFR,,,,,,,,,,,,METAR,1.0
KMHT 242153Z 32017G26KT 10SM -RA FEW012 BKN040 OVC075 14/11 A2998 RMK AO2 PK WND 33032/2104 SLP165 P0022 T01390106,KMHT,2023-05-24T21:53:00Z,42.93,-71.43,13.9,10.6,320,17,26,10.0,29.97933,1016.5,,,TRUE,,,,,,-RA,FEW,1200,BKN,4000,OVC,7500,,,VFR,,,,,,0.22,,,,,,SPECI,68.0
KMHE 242153Z AUTO 17010KT 10SM CLR 28/09 A3002 RMK AO2 SLP159 T02830089,KMHE,2023-05-24T21:53:00Z,43.77,-98.03,28.3,8.9,170,10,,10.0,30.02067,1015.9,,TRUE,TRUE,,,,,,,CLR,,,,,,,,VFR,,,,,,,,,,,,METAR,397.0
KMGY 242153Z AUTO 04010KT 10SM FEW100 26/10 A3003 RMK AO2 SLP162 T02610100,KMGY,2023-05-24T21:53:00Z,39.6,-84.23,26.1,10.0,40,10,,10.0,30.029528,1016.2,,TRUE,TRUE,,,,,,,FEW,10000,,,,,,,VFR,,,,,,,,,,,,METAR,290.0
KMGW 242153Z 32004KT 10SM SCT080 25/11 A3003 RMK AO2 SLP163 T02500111,KMGW,2023-05-24T21:53:00Z,39.65,-79.92,25.0,11.1,320,4,,10.0,30.029528,1016.3,,,TRUE,,,,,,,SCT,8000,,,,,,,VFR,,,,,,,,,,,,METAR,375.0
KMGM 242153Z 04005KT 10SM FEW034 BKN060 24/18 A2993 RMK AO2 RAE2057 SLP132 P0000 T02440183,KMGM,2023-05-24T21:53:00Z,32.3,-86.4,24.4,18.3,40,5,,10.0,29.929134,1013.2,,,TRUE,,,,,,,FEW,3400,BKN,6000,,,,,VFR,,,,,,0.005,,,,,,METAR,64.0
KMFR 242153Z VRB03KT 10SM CLR 23/04 A2988 RMK AO2 SLP113 T02330044,KMFR,2023-05-24T21:53:00Z,42.38,-122.87,23.3,4.4,0,3,,10.0,29.878937,1011.3,,,TRUE,,,,,,,CLR,,,,,,,,VFR,,,,,,,,,,,,METAR,397.0
KMFE 242153Z 09013KT 10SM SCT060 BKN070 32/22 A2984 RMK AO2 SLP102 T03220217,KMFE,2023-05-24T21:53:00Z,26.18,-98.25,32.2,21.7,90,13,,10.0,29.840551,1010.2,,,TRUE,,,,,,,SCT,6000,BKN,7000,,,,,VFR,,,,,,,,,,,,METAR,29.0
KMDW 242153Z 02016G24KT 10SM FEW200 BKN250 17/08 A3019 RMK AO2 SLP221 T01670078 $,KMDW,2023-05-24T21:53:00Z,41.78,-87.75,16.7,7.8,20,16,24,10.0,30.188976,1022.1,,,TRUE,TRUE,,,,,,FEW,20000,BKN,25000,,,,,VFR,,,,,,,,,,,,METAR,186.0
KMCW 242153Z AUTO 11013G21KT 10SM SCT100 27/07 A3011 RMK AO2 SLP187 T02720072,KMCW,2023-05-24T21:53:00Z,43.15,-93.33,27.2,7.2,110,13,21,10.0,30.109253,1018.7,,TRUE,TRUE,,,,,,,SCT,10000,,,,,,,VFR,,,,,,,,,,,,METAR,363.0
KMCO 242153Z 02007KT 10SM -RA FEW040 BKN100 BKN250 23/20 A2982 RMK AO2 SLP097 P0002 T02280200,KMCO,2023-05-24T21:53:00Z,28.42,-81.33,22.8,20.0,20,7,,10.0,29.819881,1009.7,,,TRUE,,,,,,-RA,FEW,4000,BKN,10000,BKN,25000,,,VFR,,,,,,0.02,,,,,,METAR,27.0
KMCN 242153Z 03010KT 10SM CLR 26/11 A2992 RMK AO2 SLP128 T02610111 $,KMCN,2023-05-24T21:53:00Z,32.68,-83.65,26.1,11.1,30,10,,10.0,29.920275,1012.8,,,TRUE,TRUE,,,,,,CLR,,,,,,,,VFR,,,,,,,,,,,,METAR,104.0
KMCK 242153Z AUTO 13014KT 10SM BKN055 25/13 A3001 RMK AO2 SLP144 T02500128,KMCK,2023-05-24T21:53:00Z,40.2,-100.58,25.0,12.8,130,14,,10.0,30.008858,1014.4,,TRUE,TRUE,,,,,,,BKN,5500,,,,,,,VFR,,,,,,,,,,,,METAR,780.0
KMCI 242153Z 14004KT 10SM BKN080 BKN250 28/15 A3002 RMK AO2 LTG DSNT NE-S SLP156 T02830150,KMCI,2023-05-24T21:53:00Z,39.3,-94.73,28.3,15.0,140,4,,10.0,30.02067,1015.6,,,TRUE,,,,,,,BKN,8000,BKN,25000,,,,,VFR,,,,,,,,,,,,METAR,308.0
KMCE 242153Z AUTO 29008KT 10SM CLR 23/08 A2984 RMK AO2 SLP104 T02330083,KMCE,2023-05-24T21:53:00Z,37.28,-120.5,23.3,8.3,290,8,,10.0,29.840551,1010.4,,TRUE,TRUE,,,,,,,CLR,,,,,,,,VFR,,,,,,,,,,,,METAR,49.0
KMCB 242153Z AUTO 02006G15KT 10SM SCT021 OVC046 23/17 A2992 RMK AO2 SLP129 T02280172 $,KMCB,2023-05-24T21:53:00Z,31.18,-90.47,22.8,17.2,20,6,15,10.0,29.920275,1012.9,,TRUE,TRUE,TRUE,,,,,,SCT,2100,OVC,4600,,,,,VFR,,,,,,,,,,,,METAR,124.0
KMBS 242153Z 08012G22KT 10SM CLR 12/03 A3031 RMK AO2 SLP265 T01170028,KMBS,2023-05-24T21:53:00Z,43.53,-84.08,11.7,2.8,80,12,22,10.0,30.31004,1026.5,,,TRUE,,,,,,,CLR,,,,,,,,VFR,,,,,,,,,,,,METAR,201.0
KMAI 242153Z AUTO 05012KT 10SM FEW080 FEW095 27/17 A2986 RMK AO2 SLP110 T02720172,KMAI,2023-05-24T21:53:00Z,30.83,-85.18,27.2,17.2,50,12,,10.0,29.861221,1011.0,,TRUE,TRUE,,,,,,,FEW,8000,FEW,9500,,,,,VFR,,,,,,,,,,,,METAR,33.0
KMAF 242153Z 14016KT 10SM FEW037 28/18 A2994 RMK AO2 PK WND 14027/2143 SLP093 T02830178,KMAF,2023-05-24T21:53:00Z,31.95,-102.2,28.3,17.8,140,16,,10.0,29.940945,1009.3,,,TRUE,,,,,,,FEW,3700,,,,,,,VFR,,,,,,,,,,,,SPECI,874.0
KMAE 242153Z AUTO 30005KT 10SM CLR 26/11 A2984 RMK AO2 SLP103 T02560106,KMAE,2023-05-24T21:53:00Z,36.98,-120.12,25.6,10.6,300,5,,10.0,29.840551,1010.3,,TRUE,TRUE,,,,,,,CLR,,,,,,,,VFR,,,,,,,,,,,,METAR,77.0
KLWV 242153Z AUTO 02005KT 10SM CLR 30/10 A3002 RMK AO2 SLP162 T03000100,KLWV,2023-05-24T21:53:00Z,38.77,-87.6,30.0,10.0,20,5,,10.0,30.02067,1016.2,,TRUE,TRUE,,,,,,,CLR,,,,,,,,VFR,,,,,,,,,,,,METAR,128.0
KLWD 242153Z AUTO 10006KT 10SM FEW055 BKN110 27/16 A3005 RMK AO2 SLP170 T02720161,KLWD,2023-05-24T21:53:00Z,40.63,-93.9,27.2,16.1,100,6,,10.0,30.050198,1017.0,,TRUE,TRUE,,,,,,,FEW,5500,BKN,11000,,,,,VFR,,,,,,,,,,,,METAR,345.0
KLVM 242153Z AUTO VRB05G18KT 10SM SCT080 BKN100 22/07 A2988 RMK AO2 SLP083 T02220072,KLVM,2023-05-24T21:53:00Z,45.7,-110.43,22.2,7.2,0,5,18,10.0,29.878937,1008.3,,TRUE,TRUE,,,,,,,SCT,8000,BKN,10000,,,,,VFR,,,,,,,,,,,,METAR,1418.0
KLVK 242153Z 26009KT 10SM CLR 21/08 A2986 RMK AO2 SLP109 T02110083,KLVK,2023-05-24T21:53:00Z,37.7,-121.82,21.1,8.3,260,9,,10.0,29.861221,1010.9,,,TRUE,,,,,,,CLR,,,,,,,,VFR,,,,,,,,,,,,METAR,120.0
KLVJ 242153Z AUTO 00000KT 8SM CLR 32/16 A2989 RMK AO2 SLP120 T03170161,KLVJ,2023-05-24T21:53:00Z,29.52,-95.25,31.7,16.1,0,0,,8.0,29.890747,1012.0,,TRUE,TRUE,,,,,,,CLR,,,,,,,,VFR,,,,,,,,,,,,METAR,11.0
KLUK 242153Z 05005KT 7SM SCT080 27/12 A3001 RMK AO2 SLP159 T02720122,KLUK,2023-05-24T21:53:00Z,39.1,-84.42,27.2,12.2,50,5,,7.0,30.008858,1015.9,,,TRUE,,,,,,,SCT,8000,,,,,,,VFR,,,,,,,,,,,,SPECI,144.0
KLSE 242153Z 06014G19KT 10SM CLR 23/09 A3019 RMK AO2 SLP220 T02330089,KLSE,2023-05-24T21:53:00Z,43.88,-91.25,23.3,8.9,60,14,19,10.0,30.188976,1022.0,,,TRUE,,,,,,,CLR,,,,,,,,VFR,,,,,,,,,,,,SPECI,198.0
KLPR 242153Z AUTO 03018G25KT 10SM CLR 16/08 A3017 RMK AO2 PK WND 02026/2126 SLP215 T01610078,KLPR,2023-05-24T21:53:00Z,41.35,-82.18,16.1,7.8,30,18,25,10.0,30.171259,1021.5,,TRUE,TRUE,,,,,,,CLR,,,,,,,,VFR,,,,,,,,,,,,METAR,241.0
KLOZ 242153Z AUTO 04005G15KT 10SM SCT065 25/11 A3003 RMK AO2 SLP160 T02500106,KLOZ,2023-05-24T21:53:00Z,37.08,-84.07,25.0,10.6,40,5,15,10.0,30.029528,1016.0,,TRUE,TRUE,,,,,,,SCT,6500,,,,,,,VFR,,,,,,,,,,,,METAR,361.0
KLOU 242153Z 01007KT 10SM SCT095 28/11 A3000 RMK AO2 SLP157 T02780111,KLOU,2023-05-24T21:53:00Z,38.22,-85.67,27.8,11.1,10,7,,10.0,30.0,1015.7,,,TRUE,,,,,,,SCT,9500,,,,,,,VFR,,,,,,,,,,,,METAR,165.0
KLNS 242153Z 26009KT 10SM CLR 27/11 A2993 RMK AO2 SLP134 T02670106,KLNS,2023-05-24T21:53:00Z,40.12,-76.3,26.7,10.6,260,9,,10.0,29.929134,1013.4,,,TRUE,,,,,,,CLR,,,,,,,,VFR,,,,,,,,,,,,METAR,122.0
KLND 242153Z AUTO 22005KT 10SM SCT110 23/04 A2990 RMK AO2 LTG DSNT NE AND NW SLP065 T02330039,KLND,2023-05-24T21:53:00Z,42.82,-108.73,23.3,3.9,220,5,,10.0,29.899607,1006.5,,TRUE,TRUE,,,,,,,SCT,11000,,,,,,,VFR,,,,,,,,,,,,METAR,1700.0
KLMT 242153Z 24005KT 10SM CLR 22/M06 A2990 RMK AO2 SLP100 T02221061,KLMT,2023-05-24T21:53:00Z,42.15,-121.72,22.2,-6.1,240,5,,10.0,29.899607,1010.0,,,TRUE,,,,,,,CLR,,,,,,,,VFR,,,,,,,,,,,,METAR,1246.0
KLLQ 242153Z AUTO 05005KT 10SM FEW049 28/16 A2996 RMK AO2 SLP143 T02830161,KLLQ,2023-05-24T21:53:00Z,33.63,-91.75,28.3,16.1,50,5,,10.0,29.958662,1014.3,,TRUE,TRUE,,,,,,,FEW,4900,,,,,,,VFR,,,,,,,,,,,,METAR,86.0
KLKV 242153Z AUTO VRB05KT 10SM CLR 21/M02 A2992 RMK AO2 SLP108 T02111022,KLKV,2023-05-24T21:53:00Z,42.17,-120.4,21.1,-2.2,0,5,,10.0,29.920275,1010.8,,TRUE,TRUE,,,,,,,CLR,,,,,,,,VFR,,,,,,,,,,,,METAR,1440.0
KLIT 242153Z VRB05KT 10SM BKN060 29/14 A2999 RMK AO2 SLP154 T02890144,KLIT,2023-05-24T21:53:00Z,34.73,-92.23,28.9,14.4,0,5,,10.0,29.991142,1015.4,,,TRUE,,,,,,,BKN,6000,,,,,,,VFR,,,,,,,,,,,,METAR,77.0
KLHX 242153Z AUTO 10022G30KT 10SM CLR 24/13 A2994 RMK AO2 PK WND 11033/2140 LTG DSNT SE AND S SLP090 T02440133,KLHX,2023-05-24T21:53:00Z,38.05,-103.52,24.4,13.3,100,22,30,10.0,29.940945,1009.0,,TRUE,TRUE,,,,,,,CLR,,,,,,,,VFR,,,,,,,,,,,,SPECI,1289.0
KLHQ 242153Z AUTO 01015G22KT 7SM CLR 26/12 A3003 RMK AO2 SLP165 T02610117,KLHQ,2023-05-24T21:53:00Z,39.75,-82.67,26.1,11.7,10,15,22,7.0,30.029528,1016.5,,TRUE,TRUE,,,,,,,CLR,,,,,,,,VFR,,,,,,,,,,,,METAR,259.0
KLGB 242153Z VRB06KT 10SM OVC037 19/11 A2994 RMK AO2 SLP138 T01890111,KLGB,2023-05-24T21:53:00Z,33.82,-118.15,18.9,11.1,0,6,,10.0,29.940945,1013.8,,,TRUE,,,,,,,OVC,3700,,,,,,,VFR,,,,,,,,,,,,METAR,10.0
KLFT 242153Z 03011KT 10SM BKN042 28/19 A2987 RMK AO2 SLP114 T02830194,KLFT,2023-05-24T21:53:00Z,30.2,-91.97,28.3,19.4,30,11,,10.0,29.870079,1011.4,,,TRUE,,,,,,,BKN,4200,,,,,,,VFR,,,,,,,,,,,,METAR,9.0
KLFK 242153Z AUTO 29004KT 10SM CLR 28/21 A2991 RMK AO2 LTG DSNT N SLP123 T02780206,KLFK,2023-05-24T21:53:00Z,31.23,-94.75,27.8,20.6,290,4,,10.0,29.911417,1012.3,,TRUE,TRUE,,,,,,,CLR,,,,,,,,VFR,,,,,,,,,,,,METAR,87.0
KLEE 242153Z 12006KT 10SM FEW029 FEW043 22/21 A2985 RMK AO2 SLP105 T02220211,KLEE,2023-05-24T21:53:00Z,28.82,-81.82,22.2,21.1,120,6,,10.0,29.84941,1010.5,,,TRUE,,,,,,,FEW,2900,FEW,4300,,,,,VFR,,,,,,,,,,,,METAR,21.0
KLEB 242153Z 11003KT 10SM -RA OVC065 12/11 A3001 RMK AO2 PRESFR SLP160 P0003 T01220106,KLEB,2023-05-24T21:53:00Z,43.63,-72.3,12.2,10.6,110,3,,10.0,30.008858,1016.0,,,TRUE,,,,,,-RA,OVC,6500,,,,,,,VFR,,,,,,0.03,,,,,,METAR,169.0
KLBX 242153Z AUTO 14008KT 10SM FEW050 BKN075 BKN090 24/21 A2990 RMK AO2 WSHFT 2044 LTG DSNT SE AND S RAE15 TSE22 SLP124 P0040 T02390206,KLBX,2023-05-24T21:53:00Z,29.12,-95.47,23.9,20.6,140,8,,10.0,29.899607,1012.4,,TRUE,TRUE,,,,,,,FEW,5000,BKN,7500,BKN,9000,,,VFR,,,,,,0.4,,,,,,METAR,4.0
KLBF 242153Z AUTO 14010G21KT 10SM FEW055 SCT075 26/13 A3002 RMK AO2 SLP144 T02560128,KLBF,2023-05-24T21:53:00Z,41.12,-100.67,25.6,12.8,140,10,21,10.0,30.02067,1014.4,,TRUE,TRUE,,,,,,,FEW,5500,SCT,7500,,,,,VFR,,,,,,,,,,,,METAR,843.0
KLBB 242153Z 14013KT 10SM BKN036 26/17 A2999 RMK AO2 SLP114 T02560167,KLBB,2023-05-24T21:53:00Z,33.67,-101.82,25.6,16.7,140,13,,10.0,29.991142,1011.4,,,TRUE,,,,,,,BKN,3600,,,,,,,VFR,,,,,,,,,,,,METAR,996.0
KLAX 242153Z 26007KT 10SM OVC035 18/12 A2994 RMK AO2 SLP139 T01780117 $,KLAX,2023-05-24T21:53:00Z,33.93,-118.38,17.8,11.7,260,7,,10.0,29.940945,1013.9,,,TRUE,TRUE,,,,,,OVC,3500,,,,,,,VFR,,,,,,,,,,,,METAR,30.0
KLAW 242153Z 15005KT 10SM FEW080 29/17 A2994 RMK AO2 SLP129 T02890172,KLAW,2023-05-24T21:53:00Z,34.55,-98.42,28.9,17.2,150,5,,10.0,29.940945,1012.9,,,TRUE,,,,,,,FEW,8000,,,,,,,VFR,,,,,,,,,,,,METAR,328.0
KLAN 242153Z 05010G19KT 10SM CLR 15/M01 A3026 RMK AO2 PK WND 04029/2056 SLP248 T01501006,KLAN,2023-05-24T21:53:00Z,42.78,-84.58,15.0,-0.6,50,10,19,10.0,30.259842,1024.8,,,TRUE,,,,,,,CLR,,,,,,,,VFR,,,,,,,,,,,,METAR,261.0
KJLN 242153Z 30005KT 10SM FEW050 24/18 A3004 RMK AO2 SLP166 T02390183,KJLN,2023-05-24T21:53:00Z,37.15,-94.5,23.9,18.3,300,5,,10.0,30.041338,1016.6,,,TRUE,,,,,,,FEW,5000,,,,,,,VFR,,,,,,,,,,,,METAR,297.0
KJKL 242153Z AUTO 00000KT 10SM CLR 24/11 A3004 RMK AO2 SLP162 T02440111,KJKL,2023-05-24T21:53:00Z,37.6,-83.32,24.4,11.1,0,0,,10.0,30.041338,1016.2,,TRUE,TRUE,,,,,,,CLR,,,,,,,,VFR,,,,,,,,,,,,METAR,414.0
KJER 242153Z AUTO 11004KT 10SM FEW120 19/08 A2989 RMK AO2 RAB07E27 SLP096 P0000 T01890078,KJER,2023-05-24T21:53:00Z,42.72,-114.45,18.9,7.8,110,4,,10.0,29.890747,1009.6,,TRUE,TRUE,,,,,,,FEW,12000,,,,,,,VFR,,,,,,0.005,,,,,,METAR,1226.0
KJEF 242153Z 07008KT 10SM SCT060 31/14 A3002 RMK AO2 SLP151 T03060139,KJEF,2023-05-24T21:53:00Z,38.6,-92.15,30.6,13.9,70,8,,10.0,30.02067,1015.1,,,TRUE,,,,,,,SCT,6000,,,,,,,VFR,,,,,,,,,,,,METAR,167.0
KJBR 242153Z AUTO 06006KT 10SM CLR 29/14 A2999 RMK AO2 LTG DSNT NE SLP153 T02940139 $,KJBR,2023-05-24T21:53:00Z,35.83,-90.65,29.4,13.9,60,6,,10.0,29.991142,1015.3,,TRUE,TRUE,TRUE,,,,,,CLR,,,,,,,,VFR,,,,,,,,,,,,METAR,79.0
KIXD 242153Z 22007KT 10SM VCTS BKN090 26/16 A3004 RMK AO2 LTG DSNT NE AND E SLP165 T02610161,KIXD,2023-05-24T21:53:00Z,38.82,-94.88,26.1,16.1,220,7,,10.0,30.041338,1016.5,,,TRUE,,,,,,VCTS,BKN,9000,,,,,,,VFR,,,,,,,,,,,,METAR,322.0
KIWI 242153Z AUTO 00000KT 5SM -RA FEW016 OVC055 11/08 A3002 RMK AO2 RAB43 SLP166 P0001 T01060078,KIWI,2023-05-24T21:53:00Z,43.97,-69.72,10.6,7.8,0,0,,5.0,30.02067,1016.6,,TRUE,TRUE,,,,,,-RA,FEW,1600,OVC,5500,,,,,MVFR,,,,,,0.01,,,,,,METAR,16.0
KITR 242153Z AUTO 15016G26KT 10SM FEW026 22/14 A3003 RMK AO2 PK WND 17026/2148 SLP124 T02220139,KITR,2023-05-24T21:53:00Z,39.23,-102.28,22.2,13.9,150,16,26,10.0,30.029528,1012.4,,TRUE,TRUE,,,,,,,FEW,2600,,,,,,,VFR,,,,,,,,,,,,METAR,1285.0
KIPL 242153Z AUTO 08008KT 10SM CLR 36/10 A2969 RMK AO2 SLP054 T03560100,KIPL,2023-05-24T21:53:00Z,32.83,-115.58,35.6,10.0,80,8,,10.0,29.68996,1005.4,,TRUE,TRUE,,,,,,,CLR,,,,,,,,VFR,,,,,,,,,,,,METAR,-16.0
KINK 242153Z AUTO 13013G21KT 10SM CLR 33/16 A2986 RMK AO2 SLP062 T03330161,KINK,2023-05-24T21:53:00Z,31.78,-103.2,33.3,16.1,130,13,21,10.0,29.861221,1006.2,,TRUE,TRUE,,,,,,,CLR,,,,,,,,VFR,,,,,,,,,,,,METAR,857.0
KIML 242153Z AUTO 14018G30KT 10SM FEW046 SCT060 24/14 A3000 RMK AO2 PK WND 13030/2056 SLP138 T02390139,KIML,2023-05-24T21:53:00Z,40.52,-101.62,23.9,13.9,140,18,30,10.0,30.0,1013.8,,TRUE,TRUE,,,,,,,FEW,4600,SCT,6000,,,,,VFR,,,,,,,,,,,,METAR,997.0
KILM 242153Z 02010KT 10SM BKN080 26/13 A2991 RMK AO2 SLP126 T02610133,KILM,2023-05-24T21:53:00Z,34.27,-77.9,26.1,13.3,20,10,,10.0,29.911417,1012.6,,,TRUE,,,,,,,BKN,8000,,,,,,,VFR,,,,,,,,,,,,METAR,9.0
KIDA 242153Z 27003KT 10SM CLR 19/09 A2993 RMK AO2 LTG DSNT E AND S SLP104 T01890089,KIDA,2023-05-24T21:53:00Z,43.52,-112.07,18.9,8.9,270,3,,10.0,29.929134,1010.4,,,TRUE,,,,,,,CLR,,,,,,,,VFR,,,,,,,,,,,,METAR,1444.0
KICT 242153Z 11024G31KT 10SM BKN060 BKN100 BKN160 23/15 A3001 RMK AO2 PK WND 11031/2152 SLP153 CB DSNT E-SE MOV NW T02280150,KICT,2023-05-24T21:53:00Z,37.65,-97.43,22.8,15.0,110,24,31,10.0,30.008858,1015.3,,,TRUE,,,,,,,BKN,6000,BKN,10000,BKN,16000,,,VFR,,,,,,,,,,,,METAR,428.0
KICR 242153Z AUTO 14015KT 10SM CLR 27/12 A3000 RMK AO2 SLP146 T02670122,KICR,2023-05-24T21:53:00Z,43.38,-99.85,26.7,12.2,140,15,,10.0,30.0,1014.6,,TRUE,TRUE,,,,,,,CLR,,,,,,,,VFR,,,,,,,,,,,,SPECI,618.0
KIAH 242153Z 07005KT 10SM FEW055 SCT150 SCT250 29/19 A2988 RMK AO2 SLP118 T02940189,KIAH,2023-05-24T21:53:00Z,30.0,-95.37,29.4,18.9,70,5,,10.0,29.878937,1011.8,,,TRUE,,,,,,,FEW,5500,SCT,15000,SCT,25000,,,VFR,,,,,,,,,,,,METAR,27.0
KIAG 242153Z 03014KT 10SM CLR 16/03 A3017 RMK AO2 SLP219 T01610033,KIAG,2023-05-24T21:53:00Z,43.12,-78.93,16.1,3.3,30,14,,10.0,30.171259,1021.9,,,TRUE,,,,,,,CLR,,,,,,,,VFR,,,,,,,,,,,,SPECI,179.0
KHZY 242153Z AUTO 02008G16KT 10SM CLR 18/08 A3014 RMK AO2 SLP205 T01830083,KHZY,2023-05-24T21:53:00Z,41.78,-80.7,18.3,8.3,20,8,16,10.0,30.138779,1020.5,,TRUE,TRUE,,,,,,,CLR,,,,,,,,VFR,,,,,,,,,,,,METAR,279.0
KHYR 242153Z AUTO 04007KT 7SM -RA OVC085 08/06 A3033 RMK AO2 SLP280 P0008 T00780061,KHYR,2023-05-24T21:53:00Z,46.02,-91.45,7.8,6.1,40,7,,7.0,30.33071,1028.0,,TRUE,TRUE,,,,,,-RA,OVC,8500,,,,,,,VFR,,,,,,0.08,,,,,,SPECI,369.0
KHWO 242153Z 33006KT 10SM VCTS CLR 24/20 A2978 RMK AO2 LTG DSNT ALQDS SLP084 T02440200,KHWO,2023-05-24T21:53:00Z,26.0,-80.23,24.4,20.0,330,6,,10.0,29.778543,1008.4,,,TRUE,,,,,,VCTS,CLR,,,,,,,,VFR,,,,,,,,,,,,METAR,2.0
KHVR 242153Z AUTO 33008KT 10SM CLR 18/11 A2989 RMK AO2 SLP114 T01830111,KHVR,2023-05-24T21:53:00Z,48.55,-109.77,18.3,11.1,330,8,,10.0,29.890747,1011.4,,TRUE,TRUE,,,,,,,CLR,,,,,,,,VFR,,,,,,,,,,,,METAR,789.0
KHVN 242153Z 14007KT 10SM CLR 19/10 A2992 RMK AO2 SLP132 T01940100,KHVN,2023-05-24T21:53:00Z,41.27,-72.88,19.4,10.0,140,7,,10.0,29.920275,1013.2,,,TRUE,,,,,,,CLR,,,,,,,,VFR,,,,,,,,,,,,METAR,4.0
KHUF 242153Z VRB05KT 10SM BKN095 30/08 A3004 RMK AO2 SLP169 T03000083,KHUF,2023-05-24T21:53:00Z,39.45,-87.32,30.0,8.3,0,5,,10.0,30.041338,1016.9,,,TRUE,,,,,,,BKN,9500,,,,,,,VFR,,,,,,,,,,,,SPECI,174.0
KHSV 242153Z 02008KT 10SM FEW070 SCT250 28/14 A2995 RMK AO2 SLP137 T02780139,KHSV,2023-05-24T21:53:00Z,34.65,-86.78,27.8,13.9,20,8,,10.0,29.949802,1013.7,,,TRUE,,,,,,,FEW,7000,SCT,25000,,,,,VFR,,,,,,,,,,,,METAR,190.0
KHSI 242153Z AUTO 13008KT 10SM FEW060 OVC080 26/11 A3005 RMK AO2 SLP164 T02610111,KHSI,2023-05-24T21:53:00Z,40.6,-98.43,26.1,11.1,130,8,,10.0,30.050198,1016.4,,TRUE,TRUE,,,,,,,FEW,6000,OVC,8000,,,,,VFR,,,,,,,,,,,,METAR,592.0
KHRO 242153Z AUTO 12007KT 10SM CLR 25/13 A3005 RMK AO2 SLP162 T02500133,KHRO,2023-05-24T21:53:00Z,36.27,-93.15,25.0,13.3,120,7,,10.0,30.050198,1016.2,,TRUE,TRUE,,,,,,,CLR,,,,,,,,VFR,,,,,,,,,,,,METAR,417.0
KHRI 242153Z AUTO VRB06KT 10SM CLR 25/02 A2992 RMK AO2 SLP129 T02500022,KHRI,2023-05-24T21:53:00Z,45.83,-119.27,25.0,2.2,0,6,,10.0,29.920275,1012.9,,TRUE,TRUE,,,,,,,CLR,,,,,,,,VFR,,,,,,,,,,,,METAR,194.0
KHQM 242153Z AUTO 28012KT 10SM CLR 17/11 A3008 RMK AO2 SLP190 T01720106,KHQM,2023-05-24T21:53:00Z,46.97,-123.93,17.2,10.6,280,12,,10.0,30.079725,1019.0,,TRUE,TRUE,,,,,,,CLR,,,,,,,,VFR,,,,,,,,,,,,SPECI,4.0
KHOU 242153Z 02008KT 10SM FEW050 SCT150 BKN250 32/17 A2987 RMK AO2 SLP119 T03170167,KHOU,2023-05-24T21:53:00Z,29.63,-95.28,31.7,16.7,20,8,,10.0,29.870079,1011.9,,,TRUE,,,,,,,FEW,5000,SCT,15000,BKN,25000,,,VFR,,,,,,,,,,,,METAR,13.0
KHOT 242153Z AUTO 08012KT 10SM CLR 28/12 A3000 RMK AO2 SLP153 T02780122,KHOT,2023-05-24T21:53:00Z,34.48,-93.1,27.8,12.2,80,12,,10.0,30.0,1015.3,,TRUE,TRUE,,,,,,,CLR,,,,,,,,VFR,,,,,,,,,,,,METAR,153.0
KHLN 242153Z 17008KT 10SM SCT080 OVC095 16/10 A2993 RMK AO2 RAE48 SLP133 P0003 T01560100,KHLN,2023-05-24T21:53:00Z,46.6,-111.98,15.6,10.0,170,8,,10.0,29.929134,1013.3,,,TRUE,,,,,,,SCT,8000,OVC,9500,,,,,VFR,,,,,,0.03,,,,,,SPECI,1178.0
KHLG 242153Z 34014G19KT 10SM SCT070 25/09 A3002 RMK AO2 SLP161 T02500094,KHLG,2023-05-24T21:53:00Z,40.17,-80.65,25.0,9.4,340,14,19,10.0,30.02067,1016.1,,,TRUE,,,,,,,SCT,7000,,,,,,,VFR,,,,,,,,,,,,METAR,365.0
KHLC 242153Z AUTO 14011G18KT 10SM FEW060 BKN100 26/12 A3002 RMK AO2 SLP150 T02560117,KHLC,2023-05-24T21:53:00Z,39.37,-99.83,25.6,11.7,140,11,18,10.0,30.02067,1015.0,,TRUE,TRUE,,,,,,,FEW,6000,BKN,10000,,,,,VFR,,,,,,,,,,,,METAR,667.0
KHKY 242153Z 08006KT 10SM CLR 24/07 A2999 RMK AO2 SLP136 T02390072,KHKY,2023-05-24T21:53:00Z,35.75,-81.38,23.9,7.2,80,6,,10.0,29.991142,1013.6,,,TRUE,,,,,,,CLR,,,,,,,,VFR,,,,,,,,,,,,METAR,357.0
KHKS 242153Z 06007KT 360V080 10SM FEW025 OVC055 23/17 A2994 RMK AO2 SLP132 T02330172,KHKS,2023-05-24T21:53:00Z,32.33,-90.22,23.3,17.2,60,7,,10.0,29.940945,1013.2,,,TRUE,,,,,,,FEW,2500,OVC,5500,,,,,VFR,,,,,,,,,,,,METAR,103.0
KHKA 242153Z AUTO 08005KT 10SM FEW085 BKN110 28/17 A2999 RMK AO2 SLP152 T02780172 $,KHKA,2023-05-24T21:53:00Z,35.93,-89.83,27.8,17.2,80,5,,10.0,29.991142,1015.2,,TRUE,TRUE,TRUE,,,,,,FEW,8500,BKN,11000,,,,,VFR,,,,,,,,,,,,METAR,78.0
KHJO 242153Z AUTO 21009KT 10SM CLR 27/08 A2984 RMK AO2 SLP105 T02670078,KHJO,2023-05-24T21:53:00Z,36.32,-119.62,26.7,7.8,210,9,,10.0,29.840551,1010.5,,TRUE,TRUE,,,,,,,CLR,,,,,,,,VFR,,,,,,,,,,,,METAR,73.0
KHIO 242153Z 03008KT 10SM FEW030 22/09 A2999 RMK AO2 SLP153 T02220094,KHIO,2023-05-24T21:53:00Z,45.55,-122.95,22.2,9.4,30,8,,10.0,29.991142,1015.3,,,TRUE,,,,,,,FEW,3000,,,,,,,VFR,,,,,,,,,,,,SPECI,62.0
KHIB 242153Z AUTO 12011G21KT 10SM SCT090 BKN110 12/M10 A3033 RMK AO2 SLP279 T01171100,KHIB,2023-05-24T21:53:00Z,47.38,-92.83,11.7,-10.0,120,11,21,10.0,30.33071,1027.9,,TRUE,TRUE,,,,,,,SCT,9000,BKN,11000,,,,,VFR,,,,,,,,,,,,METAR,409.0
KHHR 242153Z 25008KT 10SM OVC034 19/11 A2995 RMK AO2 SLP139 T01940106,KHHR,2023-05-24T21:53:00Z,33.92,-118.33,19.4,10.6,250,8,,10.0,29.949802,1013.9,,,TRUE,,,,,,,OVC,3400,,,,,,,VFR,,,,,,,,,,,,METAR,21.0
KHGR 242153Z 27006KT 10SM CLR 26/09 A2996 RMK AO2 SLP153 T02610089,KHGR,2023-05-24T21:53:00Z,39.7,-77.73,26.1,8.9,270,6,,10.0,29.958662,1015.3,,,TRUE,,,,,,,CLR,,,,,,,,VFR,,,,,,,,,,,,METAR,206.0
KHFD 242153Z 30008KT 10SM BKN060 OVC080 22/09 A2995 RMK AO2 RAB39E52 SLP141 P0000 T02220094,KHFD,2023-05-24T21:53:00Z,41.73,-72.65,22.2,9.4,300,8,,10.0,29.949802,1014.1,,,TRUE,,,,,,,BKN,6000,OVC,8000,,,,,VFR,,,,,,0.005,,,,,,METAR,3.0
KHEI 242153Z AUTO 17020G26KT 10SM CLR 27/13 A2992 RMK AO2 PK WND 16028/2108 SLP117 T02720128,KHEI,2023-05-24T21:53:00Z,46.02,-102.65,27.2,12.8,170,20,26,10.0,29.920275,1011.7,,TRUE,TRUE,,,,,,,CLR,,,,,,,,VFR,,,,,,,,,,,,METAR,824.0
KHBR 242153Z AUTO 15011G18KT 7SM FEW060 28/18 A2996 RMK AO2 SLP130 T02830178,KHBR,2023-05-24T21:53:00Z,34.98,-99.05,28.3,17.8,150,11,18,7.0,29.958662,1013.0,,TRUE,TRUE,,,,,,,FEW,6000,,,,,,,VFR,,,,,,,,,,,,METAR,475.0
KHBG 242153Z AUTO 03004KT 10SM FEW022 SCT029 BKN039 23/19 A2992 RMK AO2 RAB41E50 SLP130 P0000 T02330189,KHBG,2023-05-24T21:53:00Z,31.27,-89.25,23.3,18.9,30,4,,10.0,29.920275,1013.0,,TRUE,TRUE,,,,,,,FEW,2200,SCT,2900,BKN,3900,,,VFR,,,,,,0.005,,,,,,METAR,45.0
KHAO 242153Z AUTO 36007KT 10SM FEW100 28/12 A3003 RMK AO2 SLP164 T02830117,KHAO,2023-05-24T21:53:00Z,39.37,-84.52,28.3,11.7,360,7,,10.0,30.029528,1016.4,,TRUE,TRUE,,,,,,,FEW,10000,,,,,,,VFR,,,,,,,,,,,,METAR,185.0
KGZH 242153Z AUTO 05009KT 10SM SCT120 26/18 A2989 RMK AO2 SLP120 T02560178,KGZH,2023-05-24T21:53:00Z,31.42,-87.05,25.6,17.8,50,9,,10.0,29.890747,1012.0,,TRUE,TRUE,,,,,,,SCT,12000,,,,,,,VFR,,,,,,,,,,,,METAR,77.0
KGWO 242153Z AUTO 04009KT 10SM FEW050 29/16 A2994 RMK AO2 SLP137 T02890156,KGWO,2023-05-24T21:53:00Z,33.5,-90.08,28.9,15.6,40,9,,10.0,29.940945,1013.7,,TRUE,TRUE,,,,,,,FEW,5000,,,,,,,VFR,,,,,,,,,,,,METAR,42.0
KGVL 242153Z AUTO 11006KT 10SM CLR 24/12 A2998 RMK AO2 SLP140 T02440122,KGVL,2023-05-24T21:53:00Z,34.27,-83.83,24.4,12.2,110,6,,10.0,29.97933,1014.0,,TRUE,TRUE,,,,,,,CLR,,,,,,,,VFR,,,,,,,,,,,,METAR,387.0
KGUY 242153Z AUTO 10010KT 10SM SCT037 BKN060 24/17 A2999 RMK AO2 SLP119 T02440167,KGUY,2023-05-24T21:53:00Z,36.68,-101.5,24.4,16.7,100,10,,10.0,29.991142,1011.9,,TRUE,TRUE,,,,,,,SCT,3700,BKN,6000,,,,,VFR,,,,,,,,,,,,METAR,950.0
KGUP 242153Z AUTO 26011G16KT 10SM CLR 25/M06 A3005 RMK AO2 SLP049 T02501061,KGUP,2023-05-24T21:53:00Z,35.52,-108.8,25.0,-6.1,260,11,16,10.0,30.050198,1004.9,,TRUE,TRUE,,,,,,,CLR,,,,,,,,VFR,,,,,,,,,,,,METAR,1972.0
KGTF 242153Z 05010KT 10SM SCT042 BKN120 19/09 A2992 RMK AO2 SLP116 T01940089,KGTF,2023-05-24T21:53:00Z,47.47,-111.38,19.4,8.9,50,10,,10.0,29.920275,1011.6,,,TRUE,,,,,,,SCT,4200,BKN,12000,,,,,VFR,,,,,,,,,,,,SPECI,1117.0
KGSP 242153Z 07008KT 10SM CLR 24/07 A2997 RMK AO2 SLP142 T02390067,KGSP,2023-05-24T21:53:00Z,34.9,-82.22,23.9,6.7,70,8,,10.0,29.970472,1014.2,,,TRUE,,,,,,,CLR,,,,,,,,VFR,,,,,,,,,,,,METAR,285.0
KGSH 242153Z AUTO 04015G23KT 10SM CLR 24/11 A3013 RMK AO2 SLP202 T02390106,KGSH,2023-05-24T21:53:00Z,41.53,-85.78,23.9,10.6,40,15,23,10.0,30.129921,1020.2,,TRUE,TRUE,,,,,,,CLR,,,,,,,,VFR,,,,,,,,,,,,METAR,252.0
KGRR 242153Z 06015G20KT 10SM FEW150 BKN240 19/05 A3023 RMK AO2 SLP239 T01890050,KGRR,2023-05-24T21:53:00Z,42.88,-85.52,18.9,5.0,60,15,20,10.0,30.230314,1023.9,,,TRUE,,,,,,,FEW,15000,BKN,24000,,,,,VFR,,,,,,,,,,,,METAR,239.0
KGRI 242153Z 16011KT 10SM BKN090 27/10 A3004 RMK AO2 SLP166 T02720100,KGRI,2023-05-24T21:53:00Z,40.97,-98.32,27.2,10.0,160,11,,10.0,30.041338,1016.6,,,TRUE,,,,,,,BKN,9000,,,,,,,VFR,,,,,,,,,,,,SPECI,562.0
KGRB 242153Z 04013KT 10SM CLR 17/01 A3031 RMK AO2 SLP267 T01670011 $,KGRB,2023-05-24T21:53:00Z,44.48,-88.13,16.7,1.1,40,13,,10.0,30.31004,1026.7,,,TRUE,TRUE,,,,,,CLR,,,,,,,,VFR,,,,,,,,,,,,METAR,209.0
KGPT 242153Z 02007KT 10SM FEW032 SCT041 SCT060 27/18 A2986 RMK AO2 SLP111 T02720183,KGPT,2023-05-24T21:53:00Z,30.42,-89.08,27.2,18.3,20,7,,10.0,29.861221,1011.1,,,TRUE,,,,,,,FEW,3200,SCT,4100,SCT,6000,,,VFR,,,,,,,,,,,,METAR,5.0
KGOK 242153Z AUTO 12006KT 9SM SCT050 BKN065 26/16 A2997 RMK AO2 SLP141 T02610161,KGOK,2023-05-24T21:53:00Z,35.85,-97.4,26.1,16.1,120,6,,9.0,29.970472,1014.1,,TRUE,TRUE,,,,,,,SCT,5000,BKN,6500,,,,,VFR,,,,,,,,,,,,METAR,326.0
KGNV 242153Z 08012G21KT 10SM SCT028 BKN043 OVC055 24/19 A2988 RMK AO2 SLP115 T02440194 $,KGNV,2023-05-24T21:53:00Z,29.7,-82.28,24.4,19.4,80,12,21,10.0,29.878937,1011.5,,,TRUE,TRUE,,,,,,SCT,2800,BKN,4300,OVC,5500,,,VFR,,,,,,,,,,,,METAR,41.0
KGMU 242153Z 08007KT 10SM CLR 25/07 A2997 RMK AO2 SLP141 T02500072,KGMU,2023-05-24T21:53:00Z,34.85,-82.35,25.0,7.2,80,7,,10.0,29.970472,1014.1,,,TRUE,,,,,,,CLR,,,,,,,,VFR,,,,,,,,,,,,METAR,309.0
KGLR 242153Z AUTO 05008G18KT 030V090 10SM CLR 16/M08 A3033 RMK AO2 SLP273 T01561078,KGLR,2023-05-24T21:53:00Z,45.02,-84.68,15.6,-7.8,50,8,18,10.0,30.33071,1027.3,,TRUE,TRUE,,,,,,,CLR,,,,,,,,VFR,,,,,,,,,,,,SPECI,403.0
KGLH 242153Z 08008KT 050V110 10SM FEW055 28/15 A2995 RMK AO2 SLP145 T02830150,KGLH,2023-05-24T21:53:00Z,33.47,-90.98,28.3,15.0,80,8,,10.0,29.949802,1014.5,,,TRUE,,,,,,,FEW,5500,,,,,,,VFR,,,,,,,,,,,,METAR,40.0
KGLD 242153Z AUTO 14014G20KT 10SM FEW048 BKN060 22/13 A3001 RMK AO2 SLP131 T02220128,KGLD,2023-05-24T21:53:00Z,39.37,-101.7,22.2,12.8,140,14,20,10.0,30.008858,1013.1,,TRUE,TRUE,,,,,,,FEW,4800,BKN,6000,,,,,VFR,,,,,,,,,,,,METAR,1111.0
KGKY 242153Z 06006KT 10SM FEW065 30/15 A2992 RMK AO2 SLP123 T03000150,KGKY,2023-05-24T21:53:00Z,32.67,-97.1,30.0,15.0,60,6,,10.0,29.920275,1012.3,,,TRUE,,,,,,,FEW,6500,,,,,,,VFR,,,,,,,,,,,,METAR,189.0
KGKJ 242153Z AUTO 36011G20KT 10SM CLR 18/08 A3012 RMK AO2 SLP195 T01780078,KGKJ,2023-05-24T21:53:00Z,41.63,-80.22,17.8,7.8,360,11,20,10.0,30.121063,1019.5,,TRUE,TRUE,,,,,,,CLR,,,,,,,,VFR,,,,,,,,,,,,SPECI,428.0
KGJT 242153Z 29011KT 10SM CLR 27/04 A2987 RMK AO2 SLP047 T02670044,KGJT,2023-05-24T21:53:00Z,39.13,-108.53,26.7,4.4,290,11,,10.0,29.870079,1004.7,,,TRUE,,,,,,,CLR,,,,,,,,VFR,,,,,,,,,,,,METAR,1475.0
KGGW 242153Z AUTO 12013KT 9SM FEW075 SCT095 BKN120 25/16 A2978 RMK AO2 LTG DSNT SE AND S SLP076 T02500161,KGGW,2023-05-24T21:53:00Z,48.22,-106.62,25.0,16.1,120,13,,9.0,29.778543,1007.6,,TRUE,TRUE,,,,,,,FEW,7500,SCT,9500,BKN,12000,,,VFR,,,,,,,,,,,,METAR,698.0
KGGG 242153Z 06007KT 10SM FEW041 28/18 A2992 RMK AO2 SLP127 T02780183,KGGG,2023-05-24T21:53:00Z,32.38,-94.72,27.8,18.3,60,7,,10.0,29.920275,1012.7,,,TRUE,,,,,,,FEW,4100,,,,,,,VFR,,,,,,,,,,,,METAR,107.0
KGFK 242153Z 12014KT 10SM BKN090 19/08 A3013 RMK AO2 SLP203 T01890078,KGFK,2023-05-24T21:53:00Z,47.95,-97.18,18.9,7.8,120,14,,10.0,30.129921,1020.3,,,TRUE,,,,,,,BKN,9000,,,,,,,VFR,,,,,,,,,,,,SPECI,256.0
KGEZ 242153Z AUTO 01013KT 10SM FEW090 31/07 A3003 RMK AO2 SLP162 T03060072,KGEZ,2023-05-24T21:53:00Z,39.58,-85.8,30.6,7.2,10,13,,10.0,30.029528,1016.2,,TRUE,TRUE,,,,,,,FEW,9000,,,,,,,VFR,,,,,,,,,,,,SPECI,245.0
KGEG 242153Z 30020G28KT 10SM SCT050CB BKN060 BKN120 BKN220 19/03 A2993 RMK AO2 PK WND 29028/2151 LTG DSNT N AND NW SLP129 VIRGA CB NW MOV E CB DSNT SW VCSH NW SHRA DSNT E AND SW T01890033,KGEG,2023-05-24T21:53:00Z,47.62,-117.53,18.9,3.3,300,20,28,10.0,29.929134,1012.9,,,TRUE,,,,,,,SCT,5000,BKN,6000,BKN,12000,BKN,22000,VFR,,,,,,,,,,,,METAR,718.0
KGCC 242153Z AUTO 16007KT 10SM CLR 26/10 A2988 RMK AO2 SLP072 T02610100,KGCC,2023-05-24T21:53:00Z,44.33,-105.55,26.1,10.0,160,7,,10.0,29.878937,1007.2,,TRUE,TRUE,,,,,,,CLR,,,,,,,,VFR,,,,,,,,,,,,METAR,1328.0
KGAG 242153Z AUTO 13012KT 10SM FEW070 27/14 A2998 RMK AO2 SLP128 T02720144,KGAG,2023-05-24T21:53:00Z,36.3,-99.77,27.2,14.4,130,12,,10.0,29.97933,1012.8,,TRUE,TRUE,,,,,,,FEW,7000,,,,,,,VFR,,,,,,,,,,,,METAR,670.0
KFYV 242153Z 11004KT 10SM CLR 27/14 A3003 RMK AO2 SLP155 T02720139,KFYV,2023-05-24T21:53:00Z,36.02,-94.17,27.2,13.9,110,4,,10.0,30.029528,1015.5,,,TRUE,,,,,,,CLR,,,,,,,,VFR,,,,,,,,,,,,METAR,377.0
KFWN 242153Z AUTO 01005KT 10SM FEW080 BKN090 OVC110 22/13 A2994 RMK AO2 SLP136 T02170128,KFWN,2023-05-24T21:53:00Z,41.2,-74.63,21.7,12.8,10,5,,10.0,29.940945,1013.6,,TRUE,TRUE,,,,,,,FEW,8000,BKN,9000,OVC,11000,,,VFR,,,,,,,,,,,,SPECI,129.0
KFVE 242153Z AUTO 35012KT 10SM -RA FEW007 OVC049 08/06 A3000 RMK AO2 SLP161 P0003 T00780056,KFVE,2023-05-24T21:53:00Z,47.28,-68.3,7.8,5.6,350,12,,10.0,30.0,1016.1,,TRUE,TRUE,,,,,,-RA,FEW,700,OVC,4900,,,,,VFR,,,,,,0.03,,,,,,METAR,299.0
KFUL 242153Z 19006KT 10SM OVC032 20/12 A2993 RMK AO2 SLP133 T02000117,KFUL,2023-05-24T21:53:00Z,33.87,-117.98,20.0,11.7,190,6,,10.0,29.929134,1013.3,,,TRUE,,,,,,,OVC,3200,,,,,,,VFR,,,,,,,,,,,,METAR,23.0
KFTY 242153Z VRB05KT 10SM SCT065 26/12 A2994 RMK AO2 SLP132 T02560122,KFTY,2023-05-24T21:53:00Z,33.78,-84.52,25.6,12.2,0,5,,10.0,29.940945,1013.2,,,TRUE,,,,,,,SCT,6500,,,,,,,VFR,,,,,,,,,,,,METAR,245.0
KFTW 242153Z 10008KT 10SM FEW060 29/16 A2991 RMK AO2 SLP121 T02940161,KFTW,2023-05-24T21:53:00Z,32.83,-97.37,29.4,16.1,100,8,,10.0,29.911417,1012.1,,,TRUE,,,,,,,FEW,6000,,,,,,,VFR,,,,,,,,,,,,METAR,213.0
KFST 242153Z AUTO 15015KT 10SM CLR 31/17 A2990 RMK AO2 PK WND 16027/2101 SLP074 T03060172,KFST,2023-05-24T21:53:00Z,30.92,-102.92,30.6,17.2,150,15,,10.0,29.899607,1007.4,,TRUE,TRUE,,,,,,,CLR,,,,,,,,VFR,,,,,,,,,,,,METAR,917.0
KFSM 242153Z 12008KT 10SM CLR 28/16 A2999 RMK AO2 SLP151 T02780156,KFSM,2023-05-24T21:53:00Z,35.33,-94.37,27.8,15.6,120,8,,10.0,29.991142,1015.1,,,TRUE,,,,,,,CLR,,,,,,,,VFR,,,,,,,,,,,,METAR,136.0
KFRG 242153Z AUTO 10SM CLR 18/06 A2993 RMK AO2 SLP135 T01780056 $,KFRG,2023-05-24T21:53:00Z,40.73,-73.42,17.8,5.6,,,,10.0,29.929134,1013.5,,TRUE,TRUE,TRUE,,,,,,CLR,,,,,,,,VFR,,,,,,,,,,,,METAR,23.0
KFPR 242153Z 07003KT 10SM FEW055 SCT080 SCT100 23/21 A2981 RMK AO2 LTG DSNT SE AND SW RAE14 SLP095 P0001 T02330206,KFPR,2023-05-24T21:53:00Z,27.5,-80.38,23.3,20.6,70,3,,10.0,29.811024,1009.5,,,TRUE,,,,,,,FEW,5500,SCT,8000,SCT,10000,,,VFR,,,,,,0.01,,,,,,METAR,7.0
KFOK 242153Z 18006KT 10SM CLR 16/07 A2995 RMK AO2 SLP142 T01610072,KFOK,2023-05-24T21:53:00Z,40.85,-72.62,16.1,7.2,180,6,,10.0,29.949802,1014.2,,,TRUE,,,,,,,CLR,,,,,,,,VFR,,,,,,,,,,,,METAR,13.0
KFOE 242153Z 15013G21KT 10SM CLR 26/17 A3003 RMK AO2 WSHFT 2103 LTG DSNT SW SLP163 T02560167 $,KFOE,2023-05-24T21:53:00Z,38.93,-95.65,25.6,16.7,150,13,21,10.0,30.029528,1016.3,,,TRUE,TRUE,,,,,,CLR,,,,,,,,VFR,,,,,,,,,,,,METAR,315.0
KFNT 242153Z 04016G22KT 10SM CLR 16/01 A3026 RMK AO2 SLP248 T01560006,KFNT,2023-05-24T21:53:00Z,42.97,-83.75,15.6,0.6,40,16,22,10.0,30.259842,1024.8,,,TRUE,,,,,,,CLR,,,,,,,,VFR,,,,,,,,,,,,METAR,235.0
KFNB 242153Z AUTO 10SM CLR 29/12 A3001 RMK AO2 SLP156 T02940122,KFNB,2023-05-24T21:53:00Z,40.07,-95.58,29.4,12.2,,,,10.0,30.008858,1015.6,,TRUE,TRUE,,,,,,,CLR,,,,,,,,VFR,,,,,,,,,,,,METAR,301.0
KFMN 242153Z VRB06G16KT 10SM CLR 28/M09 A2996 RMK AO2 SLP090 T02831089,KFMN,2023-05-24T21:53:00Z,36.75,-108.23,28.3,-8.9,0,6,16,10.0,29.958662,1009.0,,,TRUE,,,,,,,CLR,,,,,,,,VFR,,,,,,,,,,,,METAR,1677.0
KFLO 242153Z 03010KT 10SM CLR 26/02 A2991 RMK AO2 SLP126 T02610022 $,KFLO,2023-05-24T21:53:00Z,34.18,-79.73,26.1,2.2,30,10,,10.0,29.911417,1012.6,,,TRUE,TRUE,,,,,,CLR,,,,,,,,VFR,,,,,,,,,,,,METAR,43.0
KFLL 242153Z 31004KT 10SM FEW030 SCT045 BKN090 23/21 A2976 RMK AO2 RAE2055 SLP077 OCNL LTGCG DSNT NW CB DSNT NW MOV NE P0000 T02280211,KFLL,2023-05-24T21:53:00Z,26.07,-80.15,22.8,21.1,310,4,,10.0,29.760826,1007.7,,,TRUE,,,,,,,FEW,3000,SCT,4500,BKN,9000,,,VFR,,,,,,0.005,,,,,,METAR,1.0
KFLD 242153Z AUTO 03015KT 10SM CLR 18/M02 A3028 RMK AO2 PK WND 02027/2136 SLP252 T01831017,KFLD,2023-05-24T21:53:00Z,43.77,-88.48,18.3,-1.7,30,15,,10.0,30.280512,1025.2,,TRUE,TRUE,,,,,,,CLR,,,,,,,,VFR,,,,,,,,,,,,METAR,242.0
KFHR 242153Z AUTO 14006KT 10SM CLR 20/11 A3008 RMK AO2 SLP186 T02000106,KFHR,2023-05-24T21:53:00Z,48.52,-123.03,20.0,10.6,140,6,,10.0,30.079725,1018.6,,TRUE,TRUE,,,,,,,CLR,,,,,,,,VFR,,,,,,,,,,,,METAR,34.0
KFFT 242153Z AUTO 07003KT 10SM BKN095 27/13 A3002 RMK AO2 SLP159 T02720128,KFFT,2023-05-24T21:53:00Z,38.18,-84.9,27.2,12.8,70,3,,10.0,30.02067,1015.9,,TRUE,TRUE,,,,,,,BKN,9500,,,,,,,VFR,,,,,,,,,,,,METAR,235.0
KFFC 242153Z AUTO 08006KT 10SM CLR 24/11 A2995 RMK AO2 SLP138 T02440111,KFFC,2023-05-24T21:53:00Z,33.35,-84.57,24.4,11.1,80,6,,10.0,29.949802,1013.8,,TRUE,TRUE,,,,,,,CLR,,,,,,,,VFR,,,,,,,,,,,,METAR,242.0
KFDY 242153Z AUTO 04019KT 10SM CLR 20/03 A3014 RMK AO2 PK WND 03029/2125 SLP200 T02000033,KFDY,2023-05-24T21:53:00Z,41.02,-83.67,20.0,3.3,40,19,,10.0,30.138779,1020.0,,TRUE,TRUE,,,,,,,CLR,,,,,,,,VFR,,,,,,,,,,,,METAR,247.0
KFDR 242153Z AUTO 14007KT 10SM FEW065 28/15 A2991 RMK AO2 SLP113 T02830150,KFDR,2023-05-24T21:53:00Z,34.35,-98.98,28.3,15.0,140,7,,10.0,29.911417,1011.3,,TRUE,TRUE,,,,,,,FEW,6500,,,,,,,VFR,,,,,,,,,,,,METAR,378.0
KFCM 242153Z 09013KT 7SM CLR 23/13 A3016 RMK AO2 SLP210 T02330128,KFCM,2023-05-24T21:53:00Z,44.83,-93.47,23.3,12.8,90,13,,7.0,30.159449,1021.0,,,TRUE,,,,,,,CLR,,,,,,,,VFR,,,,,,,,,,,,METAR,276.0
KFAY 242153Z 01012KT 10SM CLR 26/05 A2993 RMK AO2 SLP131 T02560050,KFAY,2023-05-24T21:53:00Z,34.98,-78.88,25.6,5.0,10,12,,10.0,29.929134,1013.1,,,TRUE,,,,,,,CLR,,,,,,,,VFR,,,,,,,,,,,,METAR,57.0
KFAT 242153Z 27004KT 10SM CLR 27/09 A2983 RMK AO2 SLP099 MTNS OBSC HZ DSNT N-E-S T02670094,KFAT,2023-05-24T21:53:00Z,36.78,-119.72,26.7,9.4,270,4,,10.0,29.828741,1009.9,,,TRUE,,,,,,,CLR,,,,,,,,VFR,,,,,,,,,,,,METAR,102.0
KFAR 242153Z 10014G23KT 9SM FEW100 19/09 A3011 RMK AO2 PK WND 08026/2118 SLP196 T01940094,KFAR,2023-05-24T21:53:00Z,46.9,-96.82,19.4,9.4,100,14,23,9.0,30.109253,1019.6,,,TRUE,,,,,,,FEW,10000,,,,,,,VFR,,,,,,,,,,,,METAR,276.0
KEYW 242153Z 25007KT 10SM FEW030 28/23 A2976,KEYW,2023-05-24T21:53:00Z,24.55,-81.75,28.0,23.0,250,7,,10.0,29.760826,,,,,,,,,,,FEW,3000,,,,,,,VFR,,,,,,,,,,,,METAR,1.0
KEYE 242153Z AUTO 07006KT 10SM SCT095 28/09 A3004 RMK AO2 SLP166 T02830089,KEYE,2023-05-24T21:53:00Z,39.83,-86.3,28.3,8.9,70,6,,10.0,30.041338,1016.6,,TRUE,TRUE,,,,,,,SCT,9500,,,,,,,VFR,,,,,,,,,,,,METAR,248.0
KEWB 242153Z 18007KT 10SM CLR 16/06 A2992 RMK AO2 SLP131 T01560056,KEWB,2023-05-24T21:53:00Z,41.68,-70.95,15.6,5.6,180,7,,10.0,29.920275,1013.1,,,TRUE,,,,,,,CLR,,,,,,,,VFR,,,,,,,,,,,,METAR,22.0
KEVW 242153Z AUTO 16019G30KT 10SM CLR 19/03 A3002 RMK AO2 PK WND 17032/2110 SLP086 T01940033,KEVW,2023-05-24T21:53:00Z,41.27,-111.03,19.4,3.3,160,19,30,10.0,30.02067,1008.6,,TRUE,TRUE,,,,,,,CLR,,,,,,,,VFR,,,,,,,,,,,,METAR,2178.0
KESF 242153Z AUTO 07007KT 040V100 10SM BKN045 27/17 A2991 RMK AO2 SLP125 T02670172,KESF,2023-05-24T21:53:00Z,31.4,-92.28,26.7,17.2,70,7,,10.0,29.911417,1012.5,,TRUE,TRUE,,,,,,,BKN,4500,,,,,,,VFR,,,,,,,,,,,,METAR,27.0
KEQY 242153Z AUTO VRB06G15KT 10SM CLR 24/03 A2995 RMK AO2 SLP147 T02440028,KEQY,2023-05-24T21:53:00Z,35.02,-80.62,24.4,2.8,0,6,15,10.0,29.949802,1014.7,,TRUE,TRUE,,,,,,,CLR,,,,,,,,VFR,,,,,,,,,,,,METAR,205.0
KEPH 242153Z AUTO 30009KT 10SM BKN080 BKN090 23/03 A2992 RMK AO2 SLP126 T02280028,KEPH,2023-05-24T21:53:00Z,47.3,-119.52,22.8,2.8,300,9,,10.0,29.920275,1012.6,,TRUE,TRUE,,,,,,,BKN,8000,BKN,9000,,,,,VFR,,,,,,,,,,,,METAR,382.0
KENW 242153Z 02012G22KT 10SM CLR 14/06 A3025 RMK AO2 SLP244 T01440056,KENW,2023-05-24T21:53:00Z,42.6,-87.93,14.4,5.6,20,12,22,10.0,30.250984,1024.4,,,TRUE,,,,,,,CLR,,,,,,,,VFR,,,,,,,,,,,,METAR,222.0
KELY 242153Z AUTO 16018G25KT 10SM FEW080 FEW110 21/04 A2991 RMK AO2 PK WND 18036/2119 SLP051 T02060044,KELY,2023-05-24T21:53:00Z,39.3,-114.85,20.6,4.4,160,18,25,10.0,29.911417,1005.1,,TRUE,TRUE,,,,,,,FEW,8000,FEW,11000,,,,,VFR,,,,,,,,,,,,METAR,1906.0
KELN 242153Z AUTO 08006KT 10SM OVC095 23/03 A2994 RMK AO2 SLP132 T02280033,KELN,2023-05-24T21:53:00Z,47.03,-120.53,22.8,3.3,80,6,,10.0,29.940945,1013.2,,TRUE,TRUE,,,,,,,OVC,9500,,,,,,,VFR,,,,,,,,,,,,METAR,532.0
KELM 242153Z 01008G16KT 10SM BKN017 OVC027 13/09 A3011 RMK AO2 SLP199 T01330089,KELM,2023-05-24T21:53:00Z,42.15,-76.9,13.3,8.9,10,8,16,10.0,30.109253,1019.9,,,TRUE,,,,,,,BKN,1700,OVC,2700,,,,,MVFR,,,,,,,,,,,,METAR,287.0
KELD 242153Z AUTO 08009KT 10SM BKN060 25/18 A2997 RMK AO2 SLP146 T02500178,KELD,2023-05-24T21:53:00Z,33.22,-92.82,25.0,17.8,80,9,,10.0,29.970472,1014.6,,TRUE,TRUE,,,,,,,BKN,6000,,,,,,,VFR,,,,,,,,,,,,METAR,76.0
KEET 242153Z AUTO 10SM CLR 26/16 A2995 RMK AO2 SLP134 T02610156,KEET,2023-05-24T21:53:00Z,33.18,-86.78,26.1,15.6,,,,10.0,29.949802,1013.4,,TRUE,TRUE,,,,,,,CLR,,,,,,,,VFR,,,,,,,,,,,,METAR,172.0
KECP 242153Z 00000KT 5SM VCTS RA BR SCT015 BKN036 23/21 A2986 RMK AO1 LTG DSNT W TSB25E40 SLP121 P0005 T02280206,KECP,2023-05-24T21:53:00Z,30.35,-85.8,22.8,20.6,0,0,,5.0,29.861221,1012.1,,,TRUE,,,,,,VCTS RA BR,SCT,1500,BKN,3600,,,,,MVFR,,,,,,0.05,,,,,,METAR,17.0
KDXR 242153Z 01015G25KT 10SM SCT046 BKN060 OVC090 21/12 A2996 RMK AO2 PRESRR SLP146 T02060117 $,KDXR,2023-05-24T21:53:00Z,41.37,-73.48,20.6,11.7,10,15,25,10.0,29.958662,1014.6,,,TRUE,TRUE,,,,,,SCT,4600,BKN,6000,OVC,9000,,,VFR,,,,,,,,,,,,METAR,138.0
KDWH 242153Z VRB03KT 9SM CLR 29/19 A2989 RMK AO2 SLP120 T02940189,KDWH,2023-05-24T21:53:00Z,30.07,-95.55,29.4,18.9,0,3,,9.0,29.890747,1012.0,,,TRUE,,,,,,,CLR,,,,,,,,VFR,,,,,,,,,,,,METAR,46.0
KDVT 242153Z 20008G17KT 170V240 10SM CLR 34/M02 A2979 RMK AO2 SLP062 T03391022,KDVT,2023-05-24T21:53:00Z,33.68,-112.07,33.9,-2.2,200,8,17,10.0,29.790354,1006.2,,,TRUE,,,,,,,CLR,,,,,,,,VFR,,,,,,,,,,,,METAR,454.0
KDUJ 242153Z AUTO 34014G20KT 10SM SCT085 21/08 A3004 RMK AO2 SLP166 T02110083,KDUJ,2023-05-24T21:53:00Z,41.17,-78.9,21.1,8.3,340,14,20,10.0,30.041338,1016.6,,TRUE,TRUE,,,,,,,SCT,8500,,,,,,,VFR,,,,,,,,,,,,METAR,552.0
KDTW 242153Z 02016G24KT 10SM BKN250 17/M03 A3022 RMK AO2 PK WND 04027/2107 SLP232 T01671028,KDTW,2023-05-24T21:53:00Z,42.23,-83.33,16.7,-2.8,20,16,24,10.0,30.221457,1023.2,,,TRUE,,,,,,,BKN,25000,,,,,,,VFR,,,,,,,,,,,,METAR,192.0
KDTS 242153Z 33005KT 10SM VCTS -RA SCT041 BKN055 OVC120 24/20 A2985 RMK AO2 LTG DSNT NW RAB26 TSB01E16 SLP108 P0000 T02390200,KDTS,2023-05-24T21:53:00Z,30.4,-86.47,23.9,20.0,330,5,,10.0,29.84941,1010.8,,,TRUE,,,,,,VCTS -RA,SCT,4100,BKN,5500,OVC,12000,,,VFR,,,,,,0.005,,,,,,SPECI,5.0
KDTO 242153Z 07010G14KT 040V110 10SM SCT060 31/16 A2993 RMK AO2 SLP126 T03060156,KDTO,2023-05-24T21:53:00Z,33.2,-97.2,30.6,15.6,70,10,14,10.0,29.929134,1012.6,,,TRUE,,,,,,,SCT,6000,,,,,,,VFR,,,,,,,,,,,,METAR,199.0
KDTN 242153Z 07008KT 10SM SCT036 26/17 A2995 RMK AO2 SLP139 T02610172,KDTN,2023-05-24T21:53:00Z,32.55,-93.75,26.1,17.2,70,8,,10.0,29.949802,1013.9,,,TRUE,,,,,,,SCT,3600,,,,,,,VFR,,,,,,,,,,,,METAR,53.0
KDRT 242153Z AUTO 12013G20KT 10SM CLR 32/19 A2986 RMK AO2 SLP101 T03220189,KDRT,2023-05-24T21:53:00Z,29.37,-100.92,32.2,18.9,120,13,20,10.0,29.861221,1010.1,,TRUE,TRUE,,,,,,,CLR,,,,,,,,VFR,,,,,,,,,,,,METAR,303.0
KDRO 242153Z AUTO 25011G18KT 10SM FEW110 24/00 A3005 RMK AO2 SLP105 T02440000,KDRO,2023-05-24T21:53:00Z,37.15,-107.77,24.4,0.0,250,11,18,10.0,30.050198,1010.5,,TRUE,TRUE,,,,,,,FEW,11000,,,,,,,VFR,,,,,,,,,,,,METAR,2021.0
KDRA 242153Z AUTO 21011G25KT 10SM CLR 29/M09 A2979 RMK AO2 PK WND 19035/2105 SLP039 T02941094,KDRA,2023-05-24T21:53:00Z,36.62,-116.03,29.4,-9.4,210,11,25,10.0,29.790354,1003.9,,TRUE,TRUE,,,,,,,CLR,,,,,,,,VFR,,,,,,,,,,,,SPECI,988.0
KDNL 242153Z AUTO 34005KT 10SM CLR 26/07 A2994 RMK AO2 SLP132 T02560072,KDNL,2023-05-24T21:53:00Z,33.47,-82.03,25.6,7.2,340,5,,10.0,29.940945,1013.2,,TRUE,TRUE,,,,,,,CLR,,,,,,,,VFR,,,,,,,,,,,,METAR,126.0
KDMO 242153Z AUTO 11004KT 10SM OVC100 23/16 A3006 RMK AO2 LTG DSNT SE-W RAB02E18 SLP176 P0000 T02280161 $,KDMO,2023-05-24T21:53:00Z,38.72,-93.17,22.8,16.1,110,4,,10.0,30.059055,1017.6,,TRUE,TRUE,TRUE,,,,,,OVC,10000,,,,,,,VFR,,,,,,0.005,,,,,,METAR,271.0
KDMN 242153Z AUTO 20013G22KT 10SM CLR 33/M08 A2994 RMK AO2 PK WND 21026/2128 WSHFT 2118 SLP066 T03281078,KDMN,2023-05-24T21:53:00Z,32.27,-107.72,32.8,-7.8,200,13,22,10.0,29.940945,1006.6,,TRUE,TRUE,,,,,,,CLR,,,,,,,,VFR,,,,,,,,,,,,METAR,1310.0
KDLS 242153Z AUTO 00000KT 10SM CLR 26/03 A2991 RMK AO2 SLP126 T02610028,KDLS,2023-05-24T21:53:00Z,45.62,-121.17,26.1,2.8,0,0,,10.0,29.911417,1012.6,,TRUE,TRUE,,,,,,,CLR,,,,,,,,VFR,,,,,,,,,,,,SPECI,71.0
KDLN 242153Z AUTO 06008KT 10SM OVC065 13/11 A2993 RMK AO2 RAE30 SLP108 P0002 T01330106,KDLN,2023-05-24T21:53:00Z,45.25,-112.55,13.3,10.6,60,8,,10.0,29.929134,1010.8,,TRUE,TRUE,,,,,,,OVC,6500,,,,,,,VFR,,,,,,0.02,,,,,,METAR,1586.0
KDKK 242153Z AUTO 02012KT 10SM CLR 17/08 A3017 RMK AO2 SLP216 T01670083,KDKK,2023-05-24T21:53:00Z,42.5,-79.28,16.7,8.3,20,12,,10.0,30.171259,1021.6,,TRUE,TRUE,,,,,,,CLR,,,,,,,,VFR,,,,,,,,,,,,METAR,205.0
KDHT 242153Z AUTO 14015KT 10SM BKN055 26/13 A3001 RMK AO2 SLP111 T02560133,KDHT,2023-05-24T21:53:00Z,36.02,-102.55,25.6,13.3,140,15,,10.0,30.008858,1011.1,,TRUE,TRUE,,,,,,,BKN,5500,,,,,,,VFR,,,,,,,,,,,,METAR,1217.0
KDHN 242153Z 03012KT 10SM BKN044 BKN055 26/18 A2992 RMK AO2 SLP125 T02610178,KDHN,2023-05-24T21:53:00Z,31.32,-85.45,26.1,17.8,30,12,,10.0,29.920275,1012.5,,,TRUE,,,,,,,BKN,4400,BKN,5500,,,,,VFR,,,,,,,,,,,,METAR,113.0
KDFW 242153Z 07008KT 10SM SCT065 SCT075 BKN250 30/16 A2991 RMK AO2 SLP120 T03000161,KDFW,2023-05-24T21:53:00Z,32.9,-97.02,30.0,16.1,70,8,,10.0,29.911417,1012.0,,,TRUE,,,,,,,SCT,6500,SCT,7500,BKN,25000,,,VFR,,,,,,,,,,,,SPECI,168.0
KDFI 242153Z AUTO 04015G25KT 10SM CLR 22/09 A3014 RMK AO2 PK WND 05027/2131 SLP204 T02220089,KDFI,2023-05-24T21:53:00Z,41.33,-84.43,22.2,8.9,40,15,25,10.0,30.138779,1020.4,,TRUE,TRUE,,,,,,,CLR,,,,,,,,VFR,,,,,,,,,,,,METAR,215.0
KDEW 242153Z AUTO VRB03KT 10SM CLR 22/04 A2993 RMK AO2 LTG DSNT W AND NW SLP129 T02170039,KDEW,2023-05-24T21:53:00Z,47.97,-117.43,21.7,3.9,0,3,,10.0,29.929134,1012.9,,TRUE,TRUE,,,,,,,CLR,,,,,,,,VFR,,,,,,,,,,,,METAR,672.0
KDET 242153Z 01018G29KT 10SM CLR 16/M05 A3023 RMK AO2 PK WND 36029/2153 SLP236 T01611050 $,KDET,2023-05-24T21:53:00Z,42.4,-83.02,16.1,-5.0,10,18,29,10.0,30.230314,1023.6,,,TRUE,TRUE,,,,,,CLR,,,,,,,,VFR,,,,,,,,,,,,METAR,190.0
KDEQ 242153Z AUTO 07008KT 10SM CLR 28/14 A2995 RMK AO2 SLP138 T02780139,KDEQ,2023-05-24T21:53:00Z,34.05,-94.4,27.8,13.9,70,8,,10.0,29.949802,1013.8,,TRUE,TRUE,,,,,,,CLR,,,,,,,,VFR,,,,,,,,,,,,METAR,107.0
KDEN 242153Z 11006KT 10SM -RA SCT065 BKN080 BKN120 BKN200 14/11 A3003 RMK AO2 LTG DSNT N-SE RAE01B16 TSE01 SLP121 P0000 T01440106,KDEN,2023-05-24T21:53:00Z,39.85,-104.65,14.4,10.6,110,6,,10.0,30.029528,1012.1,,,TRUE,,,,,,-RA,SCT,6500,BKN,8000,BKN,12000,BKN,20000,VFR,,,,,,0.005,,,,,,METAR,1656.0
KDCU 242153Z AUTO 10SM FEW060 29/14 A2996 RMK AO2 SLP139 T02890139,KDCU,2023-05-24T21:53:00Z,34.65,-86.95,28.9,13.9,,,,10.0,29.958662,1013.9,,TRUE,TRUE,,,,,,,FEW,6000,,,,,,,VFR,,,,,,,,,,,,METAR,180.0
KDBQ 242153Z 07012KT 10SM CLR 24/13 A3016 RMK AO2 SLP209 T02440128,KDBQ,2023-05-24T21:53:00Z,42.4,-90.7,24.4,12.8,70,12,,10.0,30.159449,1020.9,,,TRUE,,,,,,,CLR,,,,,,,,VFR,,,,,,,,,,,,SPECI,317.0
KDAN 242153Z AUTO 06008KT 10SM CLR 24/08 A2999 RMK AO2 SLP147 T02390078,KDAN,2023-05-24T21:53:00Z,36.57,-79.33,23.9,7.8,60,8,,10.0,29.991142,1014.7,,TRUE,TRUE,,,,,,,CLR,,,,,,,,VFR,,,,,,,,,,,,METAR,170.0
KDAL 242153Z 09007KT 060V130 10SM SCT060 SCT250 30/16 A2992 RMK AO2 SLP125 CB DSNT E-SE MOV SW T03000161,KDAL,2023-05-24T21:53:00Z,32.85,-96.85,30.0,16.1,90,7,,10.0,29.920275,1012.5,,,TRUE,,,,,,,SCT,6000,SCT,25000,,,,,VFR,,,,,,,,,,,,METAR,148.0
KDAB 242153Z 05013KT 10SM SCT021 BKN032CB BKN041 OVC200 25/20 A2984 RMK AO2 SLP103 CB SW-NW-N MOV SW TCU NE T02500200,KDAB,2023-05-24T21:53:00Z,29.18,-81.07,25.0,20.0,50,13,,10.0,29.840551,1010.3,,,TRUE,,,,,,,SCT,2100,BKN,3200,BKN,4100,OVC,20000,VFR,,,,,,,,,,,,METAR,8.0
KCYS 242153Z 8SM CLR 21/09 A3004 RMK AO2 LTG DSNT E AND SE SLP100 T02060089,KCYS,2023-05-24T21:53:00Z,41.15,-104.8,20.6,8.9,,,,8.0,30.041338,1010.0,,,TRUE,,,,,,,CLR,,,,,,,,VFR,,,,,,,,,,,,METAR,1868.0
KCXO 242153Z 02005KT 10SM CLR 28/20 A2991 RMK AO2 SLP125 T02780200,KCXO,2023-05-24T21:53:00Z,30.35,-95.42,27.8,20.0,20,5,,10.0,29.911417,1012.5,,,TRUE,,,,,,,CLR,,,,,,,,VFR,,,,,,,,,,,,METAR,69.0
KCUT 242153Z AUTO 15007G15KT 110V180 10SM SCT037 20/11 A3005 RMK AO2 SLP122 T02000106,KCUT,2023-05-24T21:53:00Z,43.73,-103.62,20.0,10.6,150,7,15,10.0,30.050198,1012.2,,TRUE,TRUE,,,,,,,SCT,3700,,,,,,,VFR,,,,,,,,,,,,SPECI,1700.0
KCUB 242153Z AUTO VRB05KT 10SM CLR 26/02 A2993 RMK AO2 SLP133 T02610022,KCUB,2023-05-24T21:53:00Z,33.97,-81.0,26.1,2.2,0,5,,10.0,29.929134,1013.3,,TRUE,TRUE,,,,,,,CLR,,,,,,,,VFR,,,,,,,,,,,,METAR,55.0
KCSV 242153Z AUTO 01011KT 340V050 10SM FEW065 23/09 A3003 RMK AO2 SLP156 T02330094,KCSV,2023-05-24T21:53:00Z,35.95,-85.08,23.3,9.4,10,11,,10.0,30.029528,1015.6,,TRUE,TRUE,,,,,,,FEW,6500,,,,,,,VFR,,,,,,,,,,,,METAR,569.0
KCSM 242153Z 13012KT 10SM SCT049 27/16 A2998 RMK AO2 SLP132 T02670156,KCSM,2023-05-24T21:53:00Z,35.35,-99.2,26.7,15.6,130,12,,10.0,29.97933,1013.2,,,TRUE,,,,,,,SCT,4900,,,,,,,VFR,,,,,,,,,,,,METAR,586.0
KCRS 242153Z AUTO 11006KT 10SM SCT055 30/18 A2993 RMK AO2 SLP131 T03000178,KCRS,2023-05-24T21:53:00Z,32.03,-96.4,30.0,17.8,110,6,,10.0,29.929134,1013.1,,TRUE,TRUE,,,,,,,SCT,5500,,,,,,,VFR,,,,,,,,,,,,METAR,136.0
KCRQ 242153Z 24010KT 200V270 10SM OVC023 17/11 A2994 RMK AO2 SLP138 T01670106,KCRQ,2023-05-24T21:53:00Z,33.13,-117.28,16.7,10.6,240,10,,10.0,29.940945,1013.8,,,TRUE,,,,,,,OVC,2300,,,,,,,MVFR,,,,,,,,,,,,METAR,96.0
KCRE 242153Z 12006KT 10SM BKN060 23/16 A2989 RMK AO1 SLP124 T02280156,KCRE,2023-05-24T21:53:00Z,33.82,-78.72,22.8,15.6,120,6,,10.0,29.890747,1012.4,,,TRUE,,,,,,,BKN,6000,,,,,,,VFR,,,,,,,,,,,,METAR,9.0
KCQC 242153Z AUTO 19008G20KT 10SM CLR 23/03 A3010 RMK AO2 SLP110 T02330028,KCQC,2023-05-24T21:53:00Z,35.0,-105.67,23.3,2.8,190,8,20,10.0,30.100393,1011.0,,TRUE,TRUE,,,,,,,CLR,,,,,,,,VFR,,,,,,,,,,,,SPECI,2163.0
KCPS 242153Z 11003KT 10SM CLR 29/10 A3003 RMK AO2 SLP164 T02940100,KCPS,2023-05-24T21:53:00Z,38.53,-90.15,29.4,10.0,110,3,,10.0,30.029528,1016.4,,,TRUE,,,,,,,CLR,,,,,,,,VFR,,,,,,,,,,,,METAR,125.0
KCPR 242153Z 20004KT 10SM CLR 24/04 A2992 RMK AO2 SLP081 T02390044,KCPR,2023-05-24T21:53:00Z,42.9,-106.47,23.9,4.4,200,4,,10.0,29.920275,1008.1,,,TRUE,,,,,,,CLR,,,,,,,,VFR,,,,,,,,,,,,METAR,1623.0
KCOT 242153Z AUTO 13008G18KT 10SM CLR 34/19 A2985 RMK AO2 SLP101 T03390194,KCOT,2023-05-24T21:53:00Z,28.45,-99.22,33.9,19.4,130,8,18,10.0,29.84941,1010.1,,TRUE,TRUE,,,,,,,CLR,,,,,,,,VFR,,,,,,,,,,,,METAR,144.0
KCNY 242153Z AUTO 23012G27KT 10SM CLR 29/M03 A2985 RMK AO2 PK WND 25027/2147 SLP051 T02941033,KCNY,2023-05-24T21:53:00Z,38.77,-109.75,29.4,-3.3,230,12,27,10.0,29.84941,1005.1,,TRUE,TRUE,,,,,,,CLR,,,,,,,,VFR,,,,,,,,,,,,METAR,1392.0
KCNO 242153Z 24014G20KT 10SM FEW023 22/12 A2993 RMK AO2 SLP130 T02170122 $,KCNO,2023-05-24T21:53:00Z,33.98,-117.62,21.7,12.2,240,14,20,10.0,29.929134,1013.0,,,TRUE,TRUE,,,,,,FEW,2300,,,,,,,VFR,,,,,,,,,,,,METAR,191.0
KCNM 242153Z AUTO 14012G20KT 10SM CLR 32/13 A2988 RMK AO2 SLP060 T03220128,KCNM,2023-05-24T21:53:00Z,32.33,-104.25,32.2,12.8,140,12,20,10.0,29.878937,1006.0,,TRUE,TRUE,,,,,,,CLR,,,,,,,,VFR,,,,,,,,,,,,METAR,993.0
KCMX 242153Z AUTO 11008KT 10SM CLR 09/M06 A3042 RMK AO2 SLP310 T00891056,KCMX,2023-05-24T21:53:00Z,47.17,-88.48,8.9,-5.6,110,8,,10.0,30.41929,1031.0,,TRUE,TRUE,,,,,,,CLR,,,,,,,,VFR,,,,,,,,,,,,METAR,326.0
KCMI 242153Z 04013KT 10SM CLR 31/08 A3006 RMK AO2 SLP173 T03060078,KCMI,2023-05-24T21:53:00Z,40.03,-88.27,30.6,7.8,40,13,,10.0,30.059055,1017.3,,,TRUE,,,,,,,CLR,,,,,,,,VFR,,,,,,,,,,,,METAR,227.0
KCLM 242153Z AUTO 35006KT 10SM CLR 16/08 A3008 RMK AO2 SLP187 T01610083,KCLM,2023-05-24T21:53:00Z,48.12,-123.5,16.1,8.3,350,6,,10.0,30.079725,1018.7,,TRUE,TRUE,,,,,,,CLR,,,,,,,,VFR,,,,,,,,,,,,SPECI,81.0
KCLL 242153Z 07005KT 10SM SCT055 29/18 A2991 RMK AO2 SLP122 T02940178,KCLL,2023-05-24T21:53:00Z,30.58,-96.37,29.4,17.8,70,5,,10.0,29.911417,1012.2,,,TRUE,,,,,,,SCT,5500,,,,,,,VFR,,,,,,,,,,,,SPECI,96.0
KCKB 242153Z 00000KT 10SM FEW070 25/10 A3002 RMK AO2 SLP156 T02500100,KCKB,2023-05-24T21:53:00Z,39.3,-80.22,25.0,10.0,0,0,,10.0,30.02067,1015.6,,,TRUE,,,,,,,FEW,7000,,,,,,,VFR,,,,,,,,,,,,METAR,368.0
KCHO 242153Z 05005KT 10SM CLR 26/10 A2998 RMK AO2 SLP147 T02610100,KCHO,2023-05-24T21:53:00Z,38.13,-78.45,26.1,10.0,50,5,,10.0,29.97933,1014.7,,,TRUE,,,,,,,CLR,,,,,,,,VFR,,,,,,,,,,,,METAR,193.0
KCHA 242153Z 04009KT 10SM FEW065 SCT300 27/12 A2996 RMK AO2 SLP137 T02670122,KCHA,2023-05-24T21:53:00Z,35.03,-85.2,26.7,12.2,40,9,,10.0,29.958662,1013.7,,,TRUE,,,,,,,FEW,6500,SCT,30000,,,,,VFR,,,,,,,,,,,,METAR,203.0
KCGI 242153Z AUTO 05009KT 10SM CLR 30/11 A3000 RMK AO2 SLP155 T03000111,KCGI,2023-05-24T21:53:00Z,37.23,-89.58,30.0,11.1,50,9,,10.0,30.0,1015.5,,TRUE,TRUE,,,,,,,CLR,,,,,,,,VFR,,,,,,,,,,,,METAR,103.0
KCEZ 242153Z AUTO 20012KT 10SM CLR 27/M02 A3001 RMK AO2 SLP089 T02721022,KCEZ,2023-05-24T21:53:00Z,37.3,-108.63,27.2,-2.2,200,12,,10.0,30.008858,1008.9,,TRUE,TRUE,,,,,,,CLR,,,,,,,,VFR,,,,,,,,,,,,METAR,1801.0
KCEW 242153Z AUTO VRB03KT 10SM BKN110 24/19 A2987 RMK AO2 LTG DSNT SE AND SW SLP113 T02390189,KCEW,2023-05-24T21:53:00Z,30.78,-86.52,23.9,18.9,0,3,,10.0,29.870079,1011.3,,TRUE,TRUE,,,,,,,BKN,11000,,,,,,,VFR,,,,,,,,,,,,METAR,47.0
KCDW 242153Z 18005KT 10SM BKN080 OVC095 24/08 A2990 RMK AO2 SLP130 T02440083,KCDW,2023-05-24T21:53:00Z,40.88,-74.28,24.4,8.3,180,5,,10.0,29.899607,1013.0,,,TRUE,,,,,,,BKN,8000,OVC,9500,,,,,VFR,,,,,,,,,,,,METAR,52.0
KCDS 242153Z AUTO 16008KT 10SM SCT049 27/15 A2995 RMK AO2 SLP120 T02720150,KCDS,2023-05-24T21:53:00Z,34.43,-100.28,27.2,15.0,160,8,,10.0,29.949802,1012.0,,TRUE,TRUE,,,,,,,SCT,4900,,,,,,,VFR,,,,,,,,,,,,METAR,595.0
KCDR 242153Z AUTO 16019G26KT 10SM CLR 26/13 A2994 RMK AO2 PK WND 17027/2130 SLP118 T02560133,KCDR,2023-05-24T21:53:00Z,42.83,-103.1,25.6,13.3,160,19,26,10.0,29.940945,1011.8,,TRUE,TRUE,,,,,,,CLR,,,,,,,,VFR,,,,,,,,,,,,SPECI,1002.0
KCDC 242153Z AUTO 23018G29KT 10SM CLR 25/M01 A2995 RMK AO2 PK WND 21031/2140 SLP074 T02501006,KCDC,2023-05-24T21:53:00Z,37.7,-113.1,25.0,-0.6,230,18,29,10.0,29.949802,1007.4,,TRUE,TRUE,,,,,,,CLR,,,,,,,,VFR,,,,,,,,,,,,SPECI,1703.0
KCCR 242153Z 26011G19KT 10SM CLR 21/09 A2987 RMK AO2 SLP102 T02060094,KCCR,2023-05-24T21:53:00Z,38.0,-122.05,20.6,9.4,260,11,19,10.0,29.870079,1010.2,,,TRUE,,,,,,,CLR,,,,,,,,VFR,,,,,,,,,,,,METAR,6.0
KCAG 242153Z AUTO 11013G20KT 10SM CLR 24/04 A2999 RMK AO2 RAE2059 SLP094 P0000 T02390039,KCAG,2023-05-24T21:53:00Z,40.5,-107.52,23.9,3.9,110,13,20,10.0,29.991142,1009.4,,TRUE,TRUE,,,,,,,CLR,,,,,,,,VFR,,,,,,0.005,,,,,,METAR,1888.0
KBYG 242153Z AUTO 34009KT 10SM CLR 24/12 A2988 RMK AO2 LTG DSNT W AND NW SLP067 T02390117,KBYG,2023-05-24T21:53:00Z,44.38,-106.72,23.9,11.7,340,9,,10.0,29.878937,1006.7,,TRUE,TRUE,,,,,,,CLR,,,,,,,,VFR,,,,,,,,,,,,METAR,1503.0
KBWG 242153Z AUTO 05010KT 10SM FEW070 28/12 A2999 RMK AO2 SLP149 T02830122,KBWG,2023-05-24T21:53:00Z,36.97,-86.42,28.3,12.2,50,10,,10.0,29.991142,1014.9,,TRUE,TRUE,,,,,,,FEW,7000,,,,,,,VFR,,,,,,,,,,,,METAR,159.0
KBVY 242153Z 33006G16KT 4SM HZ SCT070 BKN090 OVC100 18/09 A2990 RMK AO2 SLP122 T01780094,KBVY,2023-05-24T21:53:00Z,42.58,-70.92,17.8,9.4,330,6,16,4.0,29.899607,1012.2,,,TRUE,,,,,,HZ,SCT,7000,BKN,9000,OVC,10000,,,MVFR,,,,,,,,,,,,METAR,28.0
KBUR 242153Z 10005KT 10SM BKN023 OVC031 18/12 A2993 RMK AO2 SLP126 T01830117,KBUR,2023-05-24T21:53:00Z,34.2,-118.37,18.3,11.7,100,5,,10.0,29.929134,1012.6,,,TRUE,,,,,,,BKN,2300,OVC,3100,,,,,MVFR,,,,,,,,,,,,METAR,221.0
KBTR 242153Z 02009KT 10SM CLR 29/19 A2988 RMK AO2 SLP117 T02890189,KBTR,2023-05-24T21:53:00Z,30.53,-91.15,28.9,18.9,20,9,,10.0,29.878937,1011.7,,,TRUE,,,,,,,CLR,,,,,,,,VFR,,,,,,,,,,,,METAR,20.0
KBTM 242153Z AUTO 00000KT 10SM -RA SCT055 OVC075 14/07 A2997 RMK AO2 RAE2055B53 SLP116 P0000 T01390072,KBTM,2023-05-24T21:53:00Z,45.97,-112.5,13.9,7.2,0,0,,10.0,29.970472,1011.6,,TRUE,TRUE,,,,,,-RA,SCT,5500,OVC,7500,,,,,VFR,,,,,,0.005,,,,,,METAR,1680.0
KBTL 242153Z 05015G25KT 10SM CLR 19/M02 A3022 RMK AO2 PK WND 03027/2142 SLP232 T01891022,KBTL,2023-05-24T21:53:00Z,42.32,-85.25,18.9,-2.2,50,15,25,10.0,30.221457,1023.2,,,TRUE,,,,,,,CLR,,,,,,,,VFR,,,,,,,,,,,,METAR,282.0
KBRO 242153Z 09012G17KT 10SM FEW034 FEW043 FEW050 31/23 A2985 RMK AO2 SLP107 T03110228,KBRO,2023-05-24T21:53:00Z,25.92,-97.42,31.1,22.8,90,12,17,10.0,29.84941,1010.7,,,TRUE,,,,,,,FEW,3400,FEW,4300,FEW,5000,,,VFR,,,,,,,,,,,,METAR,6.0
KBRL 242153Z AUTO 11009KT 10SM SCT100 30/09 A3005 RMK AO2 SLP171 T03000094,KBRL,2023-05-24T21:53:00Z,40.77,-91.13,30.0,9.4,110,9,,10.0,30.050198,1017.1,,TRUE,TRUE,,,,,,,SCT,10000,,,,,,,VFR,,,,,,,,,,,,METAR,208.0
KBRD 242153Z AUTO 11009G18KT 10SM OVC100 11/04 A3026 RMK AO2 SLP254 T01060044,KBRD,2023-05-24T21:53:00Z,46.4,-94.13,10.6,4.4,110,9,18,10.0,30.259842,1025.4,,TRUE,TRUE,,,,,,,OVC,10000,,,,,,,VFR,,,,,,,,,,,,METAR,372.0
KBPT 242153Z 35006KT 9SM CLR 31/18 A2985 RMK AO2 SLP108 T03110183,KBPT,2023-05-24T21:53:00Z,29.95,-94.03,31.1,18.3,350,6,,9.0,29.84941,1010.8,,,TRUE,,,,,,,CLR,,,,,,,,VFR,,,,,,,,,,,,METAR,6.0
KBPK 242153Z AUTO 11006KT 10SM CLR 28/13 A3002 RMK AO2 SLP157 T02780128,KBPK,2023-05-24T21:53:00Z,36.37,-92.47,27.8,12.8,110,6,,10.0,30.02067,1015.7,,TRUE,TRUE,,,,,,,CLR,,,,,,,,VFR,,,,,,,,,,,,METAR,279.0
KBPI 242153Z AUTO 28020G27KT 10SM FEW080 FEW095 22/02 A3002 RMK AO2 PK WND 26029/2114 SLP085 T02170017,KBPI,2023-05-24T21:53:00Z,42.58,-110.1,21.7,1.7,280,20,27,10.0,30.02067,1008.5,,TRUE,TRUE,,,,,,,FEW,8000,FEW,9500,,,,,VFR,,,,,,,,,,,,METAR,2120.0
KBOI 242153Z 32013G19KT 10SM CLR 26/00 A2985 RMK AO2 SLP086 T02560000,KBOI,2023-05-24T21:53:00Z,43.57,-116.23,25.6,0.0,320,13,19,10.0,29.84941,1008.6,,,TRUE,,,,,,,CLR,,,,,,,,VFR,,,,,,,,,,,,METAR,860.0
KBNO 242153Z AUTO 36005KT 10SM CLR 22/M03 A2992 RMK AO2 SLP115 T02171033,KBNO,2023-05-24T21:53:00Z,43.6,-118.95,21.7,-3.3,360,5,,10.0,29.920275,1011.5,,TRUE,TRUE,,,,,,,CLR,,,,,,,,VFR,,,,,,,,,,,,SPECI,1263.0
KBNA 242153Z 04013KT 10SM SCT065 28/13 A2998 RMK AO2 SLP146 T02830128,KBNA,2023-05-24T21:53:00Z,36.12,-86.68,28.3,12.8,40,13,,10.0,29.97933,1014.6,,,TRUE,,,,,,,SCT,6500,,,,,,,VFR,,,,,,,,,,,,METAR,168.0
KBMQ 242153Z AUTO 02009KT 10SM CLR 26/18 A2996 RMK AO2 SLP131 T02560183,KBMQ,2023-05-24T21:53:00Z,30.73,-98.23,25.6,18.3,20,9,,10.0,29.958662,1013.1,,TRUE,TRUE,,,,,,,CLR,,,,,,,,VFR,,,,,,,,,,,,METAR,387.0
KBMG 242153Z 04009KT 10SM SCT090 29/08 A3003 RMK AO2 SLP164 T02890083,KBMG,2023-05-24T21:53:00Z,39.15,-86.62,28.9,8.3,40,9,,10.0,30.029528,1016.4,,,TRUE,,,,,,,SCT,9000,,,,,,,VFR,,,,,,,,,,,,METAR,254.0
KBLI 242153Z 07004KT 10SM SCT110 18/12 A3007 RMK AO2 SLP187 T01830122,KBLI,2023-05-24T21:53:00Z,48.8,-122.53,18.3,12.2,70,4,,10.0,30.070866,1018.7,,,TRUE,,,,,,,SCT,11000,,,,,,,VFR,,,,,,,,,,,,METAR,46.0
KBKV 242153Z 10009KT 10SM SCT100 22/21 A2983 RMK AO2 LTG DSNT SE AND S SLP099 T02220211,KBKV,2023-05-24T21:53:00Z,28.47,-82.45,22.2,21.1,100,9,,10.0,29.828741,1009.9,,,TRUE,,,,,,,SCT,10000,,,,,,,VFR,,,,,,,,,,,,METAR,21.0
KBKL 242153Z 34013KT 8SM CLR 17/12 A3015 RMK AO2 SLP208 T01670122,KBKL,2023-05-24T21:53:00Z,41.53,-81.67,16.7,12.2,340,13,,8.0,30.15059,1020.8,,,TRUE,,,,,,,CLR,,,,,,,,VFR,,,,,,,,,,,,METAR,177.0
KBKE 242153Z AUTO 32009G14KT 10SM CLR 21/01 A2993 RMK AO2 SLP126 T02060011,KBKE,2023-05-24T21:53:00Z,44.85,-117.82,20.6,1.1,320,9,14,10.0,29.929134,1012.6,,TRUE,TRUE,,,,,,,CLR,,,,,,,,VFR,,,,,,,,,,,,METAR,1025.0
KBIV 242153Z AUTO 09013G20KT 10SM CLR 21/03 A3021 RMK AO2 SLP230 T02060033,KBIV,2023-05-24T21:53:00Z,42.75,-86.1,20.6,3.3,90,13,20,10.0,30.209646,1023.0,,TRUE,TRUE,,,,,,,CLR,,,,,,,,VFR,,,,,,,,,,,,METAR,207.0
KBIL 242153Z 05006KT 10SM FEW065 SCT090 BKN150 25/10 A2983 RMK AO2 LTG DSNT SE AND S SLP076 CB SHRA DSNT N NE SE-SW T02500100,KBIL,2023-05-24T21:53:00Z,45.8,-108.55,25.0,10.0,50,6,,10.0,29.828741,1007.6,,,TRUE,,,,,,,FEW,6500,SCT,9000,BKN,15000,,,VFR,,,,,,,,,,,,SPECI,1089.0
KBHM 242153Z 03011KT 10SM FEW065 SCT250 26/14 A2997 RMK AO2 SLP143 T02610139 $,KBHM,2023-05-24T21:53:00Z,33.57,-86.75,26.1,13.9,30,11,,10.0,29.970472,1014.3,,,TRUE,TRUE,,,,,,FEW,6500,SCT,25000,,,,,VFR,,,,,,,,,,,,METAR,191.0
KBGR 242153Z 21003KT 10SM FEW025 BKN055 OVC100 12/06 A2998 RMK AO2 SLP151 T01170061,KBGR,2023-05-24T21:53:00Z,44.8,-68.82,11.7,6.1,210,3,,10.0,29.97933,1015.1,,,TRUE,,,,,,,FEW,2500,BKN,5500,OVC,10000,,,VFR,,,,,,,,,,,,METAR,45.0
KBGM 242153Z AUTO 35016KT 10SM OVC018 13/08 A3008 RMK AO2 SLP185 T01280078,KBGM,2023-05-24T21:53:00Z,42.22,-75.98,12.8,7.8,350,16,,10.0,30.079725,1018.5,,TRUE,TRUE,,,,,,,OVC,1800,,,,,,,MVFR,,,,,,,,,,,,METAR,485.0
KBFM 242153Z 02012KT 10SM SCT035 26/19 A2988 RMK AO2 SLP119 T02560189,KBFM,2023-05-24T21:53:00Z,30.62,-88.07,25.6,18.9,20,12,,10.0,29.878937,1011.9,,,TRUE,,,,,,,SCT,3500,,,,,,,VFR,,,,,,,,,,,,METAR,7.0
KBFI 242153Z 29008KT 270V340 10SM CLR 20/08 A3004 RMK AO2 SLP173 T02000083,KBFI,2023-05-24T21:53:00Z,47.55,-122.32,20.0,8.3,290,8,,10.0,30.041338,1017.3,,,TRUE,,,,,,,CLR,,,,,,,,VFR,,,,,,,,,,,,SPECI,7.0
KBFF 242153Z AUTO 13017KT 10SM FEW055 SCT100 26/14 A2995 RMK AO2 SLP103 T02560139,KBFF,2023-05-24T21:53:00Z,41.87,-103.6,25.6,13.9,130,17,,10.0,29.949802,1010.3,,TRUE,TRUE,,,,,,,FEW,5500,SCT,10000,,,,,VFR,,,,,,,,,,,,SPECI,1204.0
KBEH 242153Z AUTO 05008G19KT 10SM CLR 23/09 A3016 RMK AO2 SLP213 T02280089,KBEH,2023-05-24T21:53:00Z,42.13,-86.42,22.8,8.9,50,8,19,10.0,30.159449,1021.3,,TRUE,TRUE,,,,,,,CLR,,,,,,,,VFR,,,,,,,,,,,,METAR,196.0
KBDE 242153Z AUTO 12015G24KT 10SM CLR 18/02 A3026 RMK AO2 SLP252 T01780017,KBDE,2023-05-24T21:53:00Z,48.73,-94.62,17.8,1.7,120,15,24,10.0,30.259842,1025.2,,TRUE,TRUE,,,,,,,CLR,,,,,,,,VFR,,,,,,,,,,,,METAR,330.0
KBCT 242153Z 03006KT 8SM VCTS OVC036 23/21 A2978,KBCT,2023-05-24T21:53:00Z,26.38,-80.1,23.0,21.0,30,6,,8.0,29.778543,,,,,,,,,,VCTS,OVC,3600,,,,,,,VFR,,,,,,,,,,,,METAR,3.0
KBCE 242153Z AUTO 19015G26KT 160V230 10SM BKN085 BKN100 18/01 A3009 RMK AO2 PK WND 19026/2152 SLP103 T01780011,KBCE,2023-05-24T21:53:00Z,37.7,-112.15,17.8,1.1,190,15,26,10.0,30.088583,1010.3,,TRUE,TRUE,,,,,,,BKN,8500,BKN,10000,,,,,VFR,,,,,,,,,,,,METAR,2311.0
KBBW 242153Z AUTO 14009KT 10SM SCT080 25/13 A3005 RMK AO2 SLP160 T02500128,KBBW,2023-05-24T21:53:00Z,41.43,-99.63,25.0,12.8,140,9,,10.0,30.050198,1016.0,,TRUE,TRUE,,,,,,,SCT,8000,,,,,,,VFR,,,,,,,,,,,,METAR,771.0
KBAF 242153Z 33012KT 10SM BKN022 OVC070 17/14 A2997 RMK AO2 RAE29 SLP149 P0003 T01670139,KBAF,2023-05-24T21:53:00Z,42.17,-72.72,16.7,13.9,330,12,,10.0,29.970472,1014.9,,,TRUE,,,,,,,BKN,2200,OVC,7000,,,,,MVFR,,,,,,0.03,,,,,,SPECI,80.0
KAZO 242153Z 06012G21KT 10SM CLR 21/03 A3021 RMK AO2 SLP229 T02060033,KAZO,2023-05-24T21:53:00Z,42.23,-85.55,20.6,3.3,60,12,21,10.0,30.209646,1022.9,,,TRUE,,,,,,,CLR,,,,,,,,VFR,,,,,,,,,,,,METAR,264.0
KAXN 242153Z AUTO 11014G22KT 10SM CLR 20/10 A3018 RMK AO2 SLP220 T02000100,KAXN,2023-05-24T21:53:00Z,45.87,-95.4,20.0,10.0,110,14,22,10.0,30.180119,1022.0,,TRUE,TRUE,,,,,,,CLR,,,,,,,,VFR,,,,,,,,,,,,METAR,433.0
KAWM 242153Z AUTO 07011KT 10SM FEW055 SCT110 28/16 A2997 RMK AO2 SLP144 T02830156,KAWM,2023-05-24T21:53:00Z,35.13,-90.23,28.3,15.6,70,11,,10.0,29.970472,1014.4,,TRUE,TRUE,,,,,,,FEW,5500,SCT,11000,,,,,VFR,,,,,,,,,,,,METAR,64.0
KAUS 242153Z 01009KT 10SM SCT045 SCT200 28/18 A2991 RMK AO2 SLP121 T02780183,KAUS,2023-05-24T21:53:00Z,30.18,-97.68,27.8,18.3,10,9,,10.0,29.911417,1012.1,,,TRUE,,,,,,,SCT,4500,SCT,20000,,,,,VFR,,,,,,,,,,,,METAR,148.0
KAUG 242153Z AUTO 00000KT 6SM -RA OVC049 10/06 A3001 RMK AO2 RAB20 SLP165 P0003 T01000056,KAUG,2023-05-24T21:53:00Z,44.32,-69.8,10.0,5.6,0,0,,6.0,30.008858,1016.5,,TRUE,TRUE,,,,,,-RA,OVC,4900,,,,,,,VFR,,,,,,0.03,,,,,,SPECI,107.0
KATY 242153Z AUTO 13009G15KT 10SM BKN090 BKN100 28/08 A3006 RMK AO2 SLP169 T02780083,KATY,2023-05-24T21:53:00Z,44.9,-97.15,27.8,8.3,130,9,15,10.0,30.059055,1016.9,,TRUE,TRUE,,,,,,,BKN,9000,BKN,10000,,,,,VFR,,,,,,,,,,,,METAR,531.0
KASX 242153Z AUTO 04007KT 10SM OVC075 06/01 A3039 RMK AO2 SLP298 T00560011,KASX,2023-05-24T21:53:00Z,46.55,-90.92,5.6,1.1,40,7,,10.0,30.389763,1029.8,,TRUE,TRUE,,,,,,,OVC,7500,,,,,,,VFR,,,,,,,,,,,,METAR,249.0
KASE 242153Z 12014G25KT 10SM SCT095 12/02 A3017 RMK AO2 PK WND 17033/2057 WSHFT 2054 LTG DSNT E RAB21E31 SLP142 P0001 T01170022,KASE,2023-05-24T21:53:00Z,39.23,-106.87,11.7,2.2,120,14,25,10.0,30.171259,1014.2,,,TRUE,,,,,,,SCT,9500,,,,,,,VFR,,,,,,0.01,,,,,,SPECI,2384.0
KASD 242153Z AUTO 03008KT 10SM FEW030 27/19 A2987 RMK AO2 SLP116 T02720194,KASD,2023-05-24T21:53:00Z,30.35,-89.82,27.2,19.4,30,8,,10.0,29.870079,1011.6,,TRUE,TRUE,,,,,,,FEW,3000,,,,,,,VFR,,,,,,,,,,,,METAR,8.0
KARB 242153Z 03013G24KT 10SM CLR 17/01 A3021 RMK AO2 SLP229 T01720006,KARB,2023-05-24T21:53:00Z,42.22,-83.73,17.2,0.6,30,13,24,10.0,30.209646,1022.9,,,TRUE,,,,,,,CLR,,,,,,,,VFR,,,,,,,,,,,,METAR,251.0
KARA 242153Z 01009KT 10SM FEW038 29/19 A2986 RMK AO2 SLP110 T02940189,KARA,2023-05-24T21:53:00Z,30.03,-91.88,29.4,18.9,10,9,,10.0,29.861221,1011.0,,,TRUE,,,,,,,FEW,3800,,,,,,,VFR,,,,,,,,,,,,METAR,5.0
KAPF 242153Z 30009KT 10SM CLR 30/22 A2976 RMK AO2 LTG DSNT N AND NE SLP076 T03000222,KAPF,2023-05-24T21:53:00Z,26.15,-81.77,30.0,22.2,300,9,,10.0,29.760826,1007.6,,,TRUE,,,,,,,CLR,,,,,,,,VFR,,,,,,,,,,,,METAR,2.0
KAPA 242153Z 17005KT 10SM FEW070 BKN120 BKN220 15/08 A3007 RMK AO2 LTG DSNT NE AND E RAB04E13 SLP146 P0000 T01500078,KAPA,2023-05-24T21:53:00Z,39.57,-104.85,15.0,7.8,170,5,,10.0,30.070866,1014.6,,,TRUE,,,,,,,FEW,7000,BKN,12000,BKN,22000,,,VFR,,,,,,0.005,,,,,,SPECI,1791.0
KAOO 242153Z AUTO 30007KT 10SM SCT100 24/09 A2999 RMK AO2 SLP152 T02440094,KAOO,2023-05-24T21:53:00Z,40.3,-78.32,24.4,9.4,300,7,,10.0,29.991142,1015.2,,TRUE,TRUE,,,,,,,SCT,10000,,,,,,,VFR,,,,,,,,,,,,SPECI,450.0
KAOH 242153Z AUTO 05013G26KT 10SM CLR 21/10 A3012 RMK AO2 PK WND 04027/2143 SLP197 T02110100,KAOH,2023-05-24T21:53:00Z,40.7,-84.02,21.1,10.0,50,13,26,10.0,30.121063,1019.7,,TRUE,TRUE,,,,,,,CLR,,,,,,,,VFR,,,,,,,,,,,,METAR,294.0
KANB 242153Z AUTO 07005KT 10SM CLR 26/13 A2995 RMK AO2 SLP135 T02610133,KANB,2023-05-24T21:53:00Z,33.58,-85.85,26.1,13.3,70,5,,10.0,29.949802,1013.5,,TRUE,TRUE,,,,,,,CLR,,,,,,,,VFR,,,,,,,,,,,,METAR,187.0
KAMW 242153Z AUTO 16009KT 10SM CLR 28/12 A3006 RMK AO2 SLP173 T02830122,KAMW,2023-05-24T21:53:00Z,41.98,-93.62,28.3,12.2,160,9,,10.0,30.059055,1017.3,,TRUE,TRUE,,,,,,,CLR,,,,,,,,VFR,,,,,,,,,,,,METAR,282.0
KAMA 242153Z 12014G17KT 10SM SCT040 24/14 A2999 RMK AO2 SLP114 T02440144,KAMA,2023-05-24T21:53:00Z,35.22,-101.72,24.4,14.4,120,14,17,10.0,29.991142,1011.4,,,TRUE,,,,,,,SCT,4000,,,,,,,VFR,,,,,,,,,,,,METAR,1102.0
KALW 242153Z 02004KT 10SM R20/5500VP6000FT CLR 22/02 A2993 RMK AO2 SLP133 T02170022,KALW,2023-05-24T21:53:00Z,46.1,-118.28,21.7,2.2,20,4,,10.0,29.929134,1013.3,,,TRUE,,,,,,,CLR,,,,,,,,VFR,,,,,,,,,,,,SPECI,355.0
KALI 242153Z AUTO 10008G16KT 10SM CLR 33/21 A2985 RMK AO2 SLP104 T03280211,KALI,2023-05-24T21:53:00Z,27.73,-98.02,32.8,21.1,100,8,16,10.0,29.84941,1010.4,,TRUE,TRUE,,,,,,,CLR,,,,,,,,VFR,,,,,,,,,,,,SPECI,52.0
KAKO 242153Z AUTO 15013G21KT 10SM SCT047 23/12 A3000 RMK AO2 SLP112 T02330117,KAKO,2023-05-24T21:53:00Z,40.17,-103.22,23.3,11.7,150,13,21,10.0,30.0,1011.2,,TRUE,TRUE,,,,,,,SCT,4700,,,,,,,VFR,,,,,,,,,,,,METAR,1431.0
KAIA 242153Z AUTO 15019G26KT 10SM FEW049 FEW060 24/12 A2998 RMK AO2 PK WND 14029/2056 SLP121 T02440122,KAIA,2023-05-24T21:53:00Z,42.05,-102.8,24.4,12.2,150,19,26,10.0,29.97933,1012.1,,TRUE,TRUE,,,,,,,FEW,4900,FEW,6000,,,,,VFR,,,,,,,,,,,,METAR,1198.0
KAGS 242153Z 04009KT 10SM CLR 26/07 A2991 RMK AO2 SLP126 T02610067 $,KAGS,2023-05-24T21:53:00Z,33.37,-81.97,26.1,6.7,40,9,,10.0,29.911417,1012.6,,,TRUE,TRUE,,,,,,CLR,,,,,,,,VFR,,,,,,,,,,,,METAR,40.0
KAGC 242153Z 32008G17KT 9SM BKN070 BKN100 26/10 A3000 RMK AO2 SLP158 T02560100,KAGC,2023-05-24T21:53:00Z,40.35,-79.92,25.6,10.0,320,8,17,9.0,30.0,1015.8,,,TRUE,,,,,,,BKN,7000,BKN,10000,,,,,VFR,,,,,,,,,,,,SPECI,380.0
KAFW 242153Z 08007KT 040V110 10SM FEW060 BKN200 30/16 A2992 RMK AO2 SLP118 T03000156,KAFW,2023-05-24T21:53:00Z,32.97,-97.32,30.0,15.6,80,7,,10.0,29.920275,1011.8,,,TRUE,,,,,,,FEW,6000,BKN,20000,,,,,VFR,,,,,,,,,,,,METAR,208.0
KAEX 242153Z 04007KT 10SM BKN040 28/17 A2990 RMK AO2 SLP127 T02780167,KAEX,2023-05-24T21:53:00Z,31.33,-92.57,27.8,16.7,40,7,,10.0,29.899607,1012.7,,,TRUE,,,,,,,BKN,4000,,,,,,,VFR,,,,,,,,,,,,METAR,25.0
KADG 242153Z AUTO 05016G24KT 10SM CLR 21/03 A3018 RMK AO2 SLP222 T02060028,KADG,2023-05-24T21:53:00Z,41.87,-84.08,20.6,2.8,50,16,24,10.0,30.180119,1022.2,,TRUE,TRUE,,,,,,,CLR,,,,,,,,VFR,,,,,,,,,,,,METAR,244.0
KACV 242153Z AUTO 31012KT 9SM CLR 13/09 A2993 RMK AO2 SLP139 T01280094,KACV,2023-05-24T21:53:00Z,40.98,-124.1,12.8,9.4,310,12,,9.0,29.929134,1013.9,,TRUE,TRUE,,,,,,,CLR,,,,,,,,VFR,,,,,,,,,,,,METAR,63.0
KACK 242153Z 13007KT 3/4SM BR VV002 11/09 A2995 RMK AO2 SLP143 T01060094 RVRNO,KACK,2023-05-24T21:53:00Z,41.25,-70.07,10.6,9.4,130,7,,0.75,29.949802,1014.3,,,TRUE,,,,,,BR,OVX,0,,,,,,,LIFR,,,,,,,,,,,200,SPECI,12.0
KABY 242153Z 04012KT 10SM FEW050 SCT060 27/14 A2990 RMK AO2 SLP124 T02670144,KABY,2023-05-24T21:53:00Z,31.53,-84.2,26.7,14.4,40,12,,10.0,29.899607,1012.4,,,TRUE,,,,,,,FEW,5000,SCT,6000,,,,,VFR,,,,,,,,,,,,METAR,60.0
KABR 242153Z AUTO 16013G19KT 10SM -RA FEW080 SCT095 29/13 A3001 RMK AO2 WSHFT 2041 SLP154 P0000 T02940128,KABR,2023-05-24T21:53:00Z,45.45,-98.42,29.4,12.8,160,13,19,10.0,30.008858,1015.4,,TRUE,TRUE,,,,,,-RA,FEW,8000,SCT,9500,,,,,VFR,,,,,,0.005,,,,,,METAR,397.0
KAAF 242153Z AUTO 04007KT 10SM CLR 24/21 A2984 RMK AO2 LTG DSNT E SLP104 T02390211,KAAF,2023-05-24T21:53:00Z,29.73,-85.03,23.9,21.1,40,7,,10.0,29.840551,1010.4,,TRUE,TRUE,,,,,,,CLR,,,,,,,,VFR,,,,,,,,,,,,METAR,5.0
PATA 242152Z 12006KT 10SM BKN100 18/03 A2981 RMK AO2 SLP096 T01830028,PATA,2023-05-24T21:52:00Z,65.17,-152.1,18.3,2.8,120,6,,10.0,29.811024,1009.6,,,TRUE,,,,,,,BKN,10000,,,,,,,VFR,,,,,,,,,,,,METAR,62.0
MMEP 242152Z 34014KT 12SM BKN250 33/13 A2996 RMK 8/008,MMEP,2023-05-24T21:52:00Z,21.42,-104.85,33.0,13.0,340,14,,12.0,29.958662,,,,,,,,,,,BKN,25000,,,,,,,VFR,,,,,,,,,,,,SPECI,921.0
KVTN 242152Z AUTO 16016G25KT 10SM BKN095 26/11 A3000 RMK AO2 SLP144 T02610106,KVTN,2023-05-24T21:52:00Z,42.87,-100.55,26.1,10.6,160,16,25,10.0,30.0,1014.4,,TRUE,TRUE,,,,,,,BKN,9500,,,,,,,VFR,,,,,,,,,,,,METAR,790.0
KTRM 242152Z AUTO 07005KT 10SM CLR 35/08 A2969 RMK AO2 SLP055 T03500083 $,KTRM,2023-05-24T21:52:00Z,33.63,-116.17,35.0,8.3,70,5,,10.0,29.68996,1005.5,,TRUE,TRUE,TRUE,,,,,,CLR,,,,,,,,VFR,,,,,,,,,,,,METAR,-39.0
KTOL 242152Z 03015G25KT 10SM CLR 21/03 A3017 RMK AO2 SLP215 T02110028,KTOL,2023-05-24T21:52:00Z,41.58,-83.8,21.1,2.8,30,15,25,10.0,30.171259,1021.5,,,TRUE,,,,,,,CLR,,,,,,,,VFR,,,,,,,,,,,,METAR,206.0
KTAN 242152Z AUTO 19005KT 10SM CLR 19/00 A2991 RMK AO2 SLP128 T01940000,KTAN,2023-05-24T21:52:00Z,41.88,-71.02,19.4,0.0,190,5,,10.0,29.911417,1012.8,,TRUE,TRUE,,,,,,,CLR,,,,,,,,VFR,,,,,,,,,,,,METAR,8.0
KSUX 242152Z 13009KT 10SM CLR 29/11 A3003 RMK AO2 SLP163 T02940106,KSUX,2023-05-24T21:52:00Z,42.38,-96.38,29.4,10.6,130,9,,10.0,30.029528,1016.3,,,TRUE,,,,,,,CLR,,,,,,,,VFR,,,,,,,,,,,,METAR,332.0
KSPS 242152Z 08009KT 10SM BKN050 BKN070 29/17 A2994 RMK AO2 SLP126 T02890172,KSPS,2023-05-24T21:52:00Z,33.98,-98.5,28.9,17.2,80,9,,10.0,29.940945,1012.6,,,TRUE,,,,,,,BKN,5000,BKN,7000,,,,,VFR,,,,,,,,,,,,METAR,310.0
KSPI 242152Z 05012G18KT 10SM CLR 30/09 A3003 RMK AO2 SLP166 T03000089,KSPI,2023-05-24T21:52:00Z,39.85,-89.68,30.0,8.9,50,12,18,10.0,30.029528,1016.6,,,TRUE,,,,,,,CLR,,,,,,,,VFR,,,,,,,,,,,,METAR,179.0
KSGF 242152Z AUTO 14008KT 10SM FEW070 27/12 A3004 RMK AO2 SLP159 T02670117,KSGF,2023-05-24T21:52:00Z,37.23,-93.38,26.7,11.7,140,8,,10.0,30.041338,1015.9,,TRUE,TRUE,,,,,,,FEW,7000,,,,,,,VFR,,,,,,,,,,,,METAR,387.0
KREO 242152Z AUTO VRB03KT 22/M01 A2987 RMK AO1 SLP096 T02221006,KREO,2023-05-24T21:52:00Z,42.58,-117.87,22.2,-0.6,0,3,,,29.870079,1009.6,,TRUE,TRUE,,,,,,,,,,,,,,,,,,,,,,,,,,,SPECI,1237.0
KRAP 242152Z 17019G25KT 10SM FEW050 25/14 A2994 RMK AO2 PK WND 16029/2113 SLP121 T02500144,KRAP,2023-05-24T21:52:00Z,44.05,-103.05,25.0,14.4,170,19,25,10.0,29.940945,1012.1,,,TRUE,,,,,,,FEW,5000,,,,,,,VFR,,,,,,,,,,,,METAR,965.0
KPYM 242152Z AUTO 19007KT 10SM CLR 18/04 A2991 RMK AO2 SLP131 T01780039,KPYM,2023-05-24T21:52:00Z,41.92,-70.73,17.8,3.9,190,7,,10.0,29.911417,1013.1,,TRUE,TRUE,,,,,,,CLR,,,,,,,,VFR,,,,,,,,,,,,METAR,42.0
KPWK 242152Z 02011G25KT 10SM CLR 14/07 A3023 RMK AO2 SLP236 T01440067,KPWK,2023-05-24T21:52:00Z,42.12,-87.9,14.4,6.7,20,11,25,10.0,30.230314,1023.6,,,TRUE,,,,,,,CLR,,,,,,,,VFR,,,,,,,,,,,,METAR,194.0
KPPF 242152Z AUTO 32003KT 10SM CLR 20/17 A3006 RMK AO2 SLP175 T02000172,KPPF,2023-05-24T21:52:00Z,37.33,-95.5,20.0,17.2,320,3,,10.0,30.059055,1017.5,,TRUE,TRUE,,,,,,,CLR,,,,,,,,VFR,,,,,,,,,,,,METAR,265.0
KP69 242152Z AUTO 14006KT 25/07 A2985 RMK AO1 SLP092 T02500072,KP69,2023-05-24T21:52:00Z,46.15,-115.6,25.0,7.2,140,6,,,29.84941,1009.2,,TRUE,TRUE,,,,,,,,,,,,,,,,,,,,,,,,,,,METAR,447.0
KORE 242152Z AUTO 36009KT 10SM SCT017 BKN025 OVC030 13/11 A3001 RMK AO2 PK WND 35026/2103 RAE31 SLP166 P0007 T01330106,KORE,2023-05-24T21:52:00Z,42.57,-72.28,13.3,10.6,360,9,,10.0,30.008858,1016.6,,TRUE,TRUE,,,,,,,SCT,1700,BKN,2500,OVC,3000,,,MVFR,,,,,,0.07,,,,,,METAR,165.0
KOMA 242152Z VRB03KT 10SM FEW085 29/09 A3002 RMK AO2 SLP159 T02940089,KOMA,2023-05-24T21:52:00Z,41.32,-95.9,29.4,8.9,0,3,,10.0,30.02067,1015.9,,,TRUE,,,,,,,FEW,8500,,,,,,,VFR,,,,,,,,,,,,METAR,299.0
KOKC 242152Z 14006KT 10SM SCT050 BKN080 BKN120 BKN250 26/16 A2998 RMK AO2 SLP138 T02610156,KOKC,2023-05-24T21:52:00Z,35.38,-97.6,26.1,15.6,140,6,,10.0,29.97933,1013.8,,,TRUE,,,,,,,SCT,5000,BKN,8000,BKN,12000,BKN,25000,VFR,,,,,,,,,,,,METAR,391.0
KOKB 242152Z AUTO 23010KT 10SM OVC030 19/11 A2994 RMK AO2 SLP139 T01940111,KOKB,2023-05-24T21:52:00Z,33.22,-117.35,19.4,11.1,230,10,,10.0,29.940945,1013.9,,TRUE,TRUE,,,,,,,OVC,3000,,,,,,,MVFR,,,,,,,,,,,,METAR,7.0
KNZY 242152Z 20007KT 10SM BKN033 18/11 A2995 RMK AO2 SLP141 T01780111,KNZY,2023-05-24T21:52:00Z,32.7,-117.22,17.8,11.1,200,7,,10.0,29.949802,1014.1,,,TRUE,,,,,,,BKN,3300,,,,,,,VFR,,,,,,,,,,,,METAR,4.0
KNRB 242152Z 03015KT 10SM FEW033 SCT060 OVC250 25/19 A2988 RMK AO2 SLP117 T02500189,KNRB,2023-05-24T21:52:00Z,30.38,-81.42,25.0,18.9,30,15,,10.0,29.878937,1011.7,,,TRUE,,,,,,,FEW,3300,SCT,6000,OVC,25000,,,VFR,,,,,,,,,,,,METAR,4.0
KNHK 242152Z VRB04KT 10SM FEW280 25/10 A2997 RMK AO2 SLP149 T02500100,KNHK,2023-05-24T21:52:00Z,38.28,-76.4,25.0,10.0,0,4,,10.0,29.970472,1014.9,,,TRUE,,,,,,,FEW,28000,,,,,,,VFR,,,,,,,,,,,,SPECI,5.0
KNFW 242152Z 05006KT 7SM SCT060 SCT100 BKN250 29/16 A2992 RMK AO2 SLP116 T02890161 VISNO S $,KNFW,2023-05-24T21:52:00Z,32.78,-97.43,28.9,16.1,50,6,,7.0,29.920275,1011.6,,,TRUE,TRUE,,,,,,SCT,6000,SCT,10000,BKN,25000,,,VFR,,,,,,,,,,,,METAR,188.0
KNFG 242152Z 29010G16KT 10SM OVC030 20/12 A2995 RMK AO2 SLP140 T02000117,KNFG,2023-05-24T21:52:00Z,33.3,-117.35,20.0,11.7,290,10,16,10.0,29.949802,1014.0,,,TRUE,,,,,,,OVC,3000,,,,,,,MVFR,,,,,,,,,,,,METAR,21.0
KN60 242152Z AUTO 16015KT 30/12 A2993 RMK AO1 PK WND 15026/2114 SLP124 T03000122,KN60,2023-05-24T21:52:00Z,47.65,-101.43,30.0,12.2,160,15,,,29.929134,1012.4,,TRUE,TRUE,,,,,,,,,,,,,,,,,,,,,,,,,,,METAR,582.0
KMWH 242152Z 20005G15KT 10SM CLR 23/03 A2992 RMK AO2 SLP132 T02330028,KMWH,2023-05-24T21:52:00Z,47.2,-119.32,23.3,2.8,200,5,15,10.0,29.920275,1013.2,,,TRUE,,,,,,,CLR,,,,,,,,VFR,,,,,,,,,,,,METAR,355.0
KMLI 242152Z 07014G23KT 10SM CLR 30/09 A3008 RMK AO2 SLP183 T03000094,KMLI,2023-05-24T21:52:00Z,41.45,-90.52,30.0,9.4,70,14,23,10.0,30.079725,1018.3,,,TRUE,,,,,,,CLR,,,,,,,,VFR,,,,,,,,,,,,METAR,174.0
KMLF 242152Z AUTO 18018G32KT 10SM FEW110 27/M02 A2988 RMK AO2 PK WND 16032/2130 SLP065 T02671022,KMLF,2023-05-24T21:52:00Z,38.42,-113.02,26.7,-2.2,180,18,32,10.0,29.878937,1006.5,,TRUE,TRUE,,,,,,,FEW,11000,,,,,,,VFR,,,,,,,,,,,,METAR,1537.0
KMKE 242152Z 02020G30KT 10SM BKN250 12/04 A3026 RMK AO2 PK WND 02034/2109 SLP248 T01170039,KMKE,2023-05-24T21:52:00Z,42.95,-87.9,11.7,3.9,20,20,30,10.0,30.259842,1024.8,,,TRUE,,,,,,,BKN,25000,,,,,,,VFR,,,,,,,,,,,,METAR,203.0
KMHK 242152Z 13008KT 10SM CLR 29/12 A3001 RMK AO2 LTG DSNT SE AND S SLP155 T02890122,KMHK,2023-05-24T21:52:00Z,39.13,-96.68,28.9,12.2,130,8,,10.0,30.008858,1015.5,,,TRUE,,,,,,,CLR,,,,,,,,VFR,,,,,,,,,,,,METAR,320.0
KMFD 242152Z 01015KT 10SM CLR 19/10 A3013 RMK AO2 SLP200 T01890100,KMFD,2023-05-24T21:52:00Z,40.82,-82.52,18.9,10.0,10,15,,10.0,30.129921,1020.0,,,TRUE,,,,,,,CLR,,,,,,,,VFR,,,,,,,,,,,,METAR,394.0
KMEB 242152Z AUTO 03007KT 10SM CLR 27/01 A2994 RMK AO2 SLP136 T02670006,KMEB,2023-05-24T21:52:00Z,34.78,-79.37,26.7,0.6,30,7,,10.0,29.940945,1013.6,,TRUE,TRUE,,,,,,,CLR,,,,,,,,VFR,,,,,,,,,,,,METAR,65.0
KMDH 242152Z 05009KT 9SM FEW080 29/11 A3002 RMK AO2 SLP162 T02890106,KMDH,2023-05-24T21:52:00Z,37.78,-89.25,28.9,10.6,50,9,,9.0,30.02067,1016.2,,,TRUE,,,,,,,FEW,8000,,,,,,,VFR,,,,,,,,,,,,METAR,122.0
KMBG 242152Z AUTO 16017G23KT 10SM FEW100 29/11 A2994 RMK AO2 PK WND 17028/2053 SLP127 T02940111,KMBG,2023-05-24T21:52:00Z,45.55,-100.42,29.4,11.1,160,17,23,10.0,29.940945,1012.7,,TRUE,TRUE,,,,,,,FEW,10000,,,,,,,VFR,,,,,,,,,,,,METAR,515.0
KLWC 242152Z AUTO 19011KT 10SM FEW070 FEW085 SCT120 28/16 A3002 RMK AO1 WSHFT 2050 LTG DSNT E SLP163 T02780156,KLWC,2023-05-24T21:52:00Z,39.02,-95.22,27.8,15.6,190,11,,10.0,30.02067,1016.3,,TRUE,TRUE,,,,,,,FEW,7000,FEW,8500,SCT,12000,,,VFR,,,,,,,,,,,,METAR,252.0
KLAL 242152Z 04010KT 2 1/2SM TSRA SCT012 BKN055 21/21 A2984 RMK LTG DSNT ALQDS,KLAL,2023-05-24T21:52:00Z,27.98,-82.02,21.0,21.0,40,10,,2.5,29.840551,,,,,,,,,,TSRA,SCT,1200,BKN,5500,,,,,IFR,,,,,,,,,,,,METAR,39.0
KIOW 242152Z AUTO 07011G19KT 050V110 10SM CLR 29/09 A3009 RMK AO2 SLP185 T02940094,KIOW,2023-05-24T21:52:00Z,41.63,-91.55,29.4,9.4,70,11,19,10.0,30.088583,1018.5,,TRUE,TRUE,,,,,,,CLR,,,,,,,,VFR,,,,,,,,,,,,METAR,199.0
KIJD 242152Z AUTO 21008G27KT 10SM BKN090 20/08 A2991 RMK AO2 PK WND 11027/2148 SLP130 T02000083,KIJD,2023-05-24T21:52:00Z,41.75,-72.18,20.0,8.3,210,8,27,10.0,29.911417,1013.0,,TRUE,TRUE,,,,,,,BKN,9000,,,,,,,VFR,,,,,,,,,,,,METAR,73.0
KIFP 242152Z 16019KT 10SM CLR 37/M01 A2967,KIFP,2023-05-24T21:52:00Z,35.15,-114.57,37.0,-1.0,160,19,,10.0,29.66929,,,,,,,,,,,CLR,,,,,,,,VFR,,,,,,,,,,,,METAR,210.0
KIEN 242152Z AUTO 17012G23KT 10SM FEW060 24/12 A2997 RMK AO2 PK WND 19027/2102 SLP125 T02440117,KIEN,2023-05-24T21:52:00Z,43.03,-102.52,24.4,11.7,170,12,23,10.0,29.970472,1012.5,,TRUE,TRUE,,,,,,,FEW,6000,,,,,,,VFR,,,,,,,,,,,,METAR,1002.0
KIAD 242152Z 24005KT 10SM FEW040 27/09 A2997 RMK AO2 SLP146 T02720089,KIAD,2023-05-24T21:52:00Z,38.93,-77.45,27.2,8.9,240,5,,10.0,29.970472,1014.6,,,TRUE,,,,,,,FEW,4000,,,,,,,VFR,,,,,,,,,,,,METAR,90.0
KHUT 242152Z 13008KT 10SM FEW065 FEW090 27/13 A3000 RMK AO2 SLP140 T02720133,KHUT,2023-05-24T21:52:00Z,38.07,-97.87,27.2,13.3,130,8,,10.0,30.0,1014.0,,,TRUE,,,,,,,FEW,6500,FEW,9000,,,,,VFR,,,,,,,,,,,,METAR,464.0
KHRL 242152Z 13007KT 10SM FEW038 31/22 A2984 RMK AO2 SLP104 T03110217 $,KHRL,2023-05-24T21:52:00Z,26.23,-97.65,31.1,21.7,130,7,,10.0,29.840551,1010.4,,,TRUE,TRUE,,,,,,FEW,3800,,,,,,,VFR,,,,,,,,,,,,METAR,9.0
KHIE 242152Z AUTO 19003KT 2 1/2SM RA BR OVC048 10/09 A3002 RMK AO2 SLP174 P0014 T01000094,KHIE,2023-05-24T21:52:00Z,44.37,-71.55,10.0,9.4,190,3,,2.5,30.02067,1017.4,,TRUE,TRUE,,,,,,RA BR,OVC,4800,,,,,,,IFR,,,,,,0.14,,,,,,METAR,321.0
KGLS 242152Z VRB03KT 6SM HZ SCT036 SCT100 28/21 A2989 RMK AO2 SLP121 T02830211,KGLS,2023-05-24T21:52:00Z,29.27,-94.87,28.3,21.1,0,3,,6.0,29.890747,1012.1,,,TRUE,,,,,,HZ,SCT,3600,SCT,10000,,,,,VFR,,,,,,,,,,,,METAR,2.0
KFIT 242152Z AUTO 33012G27KT 5SM -RA SCT013 BKN070 OVC090 14/10 A2998 RMK AO2 PK WND 33032/2057 WSHFT 2053 RAB2057 SLP153 P0013 T01390100,KFIT,2023-05-24T21:52:00Z,42.55,-71.75,13.9,10.0,330,12,27,5.0,29.97933,1015.3,,TRUE,TRUE,,,,,,-RA,SCT,1300,BKN,7000,OVC,9000,,,MVFR,,,,,,0.13,,,,,,METAR,102.0
KEST 242152Z AUTO 14016G20KT 10SM CLR 28/07 A3007 RMK AO2 SLP178 T02830072,KEST,2023-05-24T21:52:00Z,43.4,-94.75,28.3,7.2,140,16,20,10.0,30.070866,1017.8,,TRUE,TRUE,,,,,,,CLR,,,,,,,,VFR,,,,,,,,,,,,METAR,401.0
KDVN 242152Z AUTO 05015KT 10SM CLR 28/10 A3012 RMK AO2 SLP192 T02780100,KDVN,2023-05-24T21:52:00Z,41.62,-90.58,27.8,10.0,50,15,,10.0,30.121063,1019.2,,TRUE,TRUE,,,,,,,CLR,,,,,,,,VFR,,,,,,,,,,,,METAR,227.0
KDPA 242152Z 04016G21KT 10SM CLR 21/11 A3017 RMK AO2 SLP215 T02110111,KDPA,2023-05-24T21:52:00Z,41.88,-88.25,21.1,11.1,40,16,21,10.0,30.171259,1021.5,,,TRUE,,,,,,,CLR,,,,,,,,VFR,,,,,,,,,,,,METAR,228.0
KDDC 242152Z AUTO 12010G17KT 7SM FEW035 24/15 A3002 RMK AO2 SLP144 T02440150,KDDC,2023-05-24T21:52:00Z,37.77,-99.97,24.4,15.0,120,10,17,7.0,30.02067,1014.4,,TRUE,TRUE,,,,,,,FEW,3500,,,,,,,VFR,,,,,,,,,,,,METAR,786.0
KDCA 242152Z 17006KT 10SM BKN075 BKN250 26/10 A2996 RMK AO2 SLP146 T02610100 $,KDCA,2023-05-24T21:52:00Z,38.85,-77.03,26.1,10.0,170,6,,10.0,29.958662,1014.6,,,TRUE,TRUE,,,,,,BKN,7500,BKN,25000,,,,,VFR,,,,,,,,,,,,METAR,4.0
KCVG 242152Z 05011KT 7SM FEW080 SCT100 28/11 A3002 RMK AO2 SLP157 T02780111,KCVG,2023-05-24T21:52:00Z,39.05,-84.67,27.8,11.1,50,11,,7.0,30.02067,1015.7,,,TRUE,,,,,,,FEW,8000,SCT,10000,,,,,VFR,,,,,,,,,,,,METAR,264.0
KCNU 242152Z AUTO 27004KT 10SM CLR 20/18 A3006 RMK AO2 RAE21 SLP171 P0000 T02000178,KCNU,2023-05-24T21:52:00Z,37.67,-95.48,20.0,17.8,270,4,,10.0,30.059055,1017.1,,TRUE,TRUE,,,,,,,CLR,,,,,,,,VFR,,,,,,0.005,,,,,,METAR,301.0
KCLT 242152Z 36008KT 10SM FEW200 FEW250 25/07 A2997 RMK AO2 SLP158 T02500067,KCLT,2023-05-24T21:52:00Z,35.22,-80.95,25.0,6.7,360,8,,10.0,29.970472,1015.8,,,TRUE,,,,,,,FEW,20000,FEW,25000,,,,,VFR,,,,,,,,,,,,METAR,223.0
KCKV 242152Z AUTO 03008KT 10SM FEW070 FEW090 28/13 A2998 RMK AO2 SLP148 T02830133,KCKV,2023-05-24T21:52:00Z,36.62,-87.42,28.3,13.3,30,8,,10.0,29.97933,1014.8,,TRUE,TRUE,,,,,,,FEW,7000,FEW,9000,,,,,VFR,,,,,,,,,,,,METAR,166.0
KCID 242152Z 10017G22KT 10SM CLR 28/09 A3008 RMK AO2 SLP182 T02830089,KCID,2023-05-24T21:52:00Z,41.88,-91.72,28.3,8.9,100,17,22,10.0,30.079725,1018.2,,,TRUE,,,,,,,CLR,,,,,,,,VFR,,,,,,,,,,,,METAR,257.0
KCFV 242152Z AUTO 00000KT 10SM CLR 20/19 A3003 RMK AO2 RAE05 SLP167 P0000 T02000189,KCFV,2023-05-24T21:52:00Z,37.08,-95.57,20.0,18.9,0,0,,10.0,30.029528,1016.7,,TRUE,TRUE,,,,,,,CLR,,,,,,,,VFR,,,,,,0.005,,,,,,METAR,228.0
KBLU 242152Z AUTO 24008KT 190V270 10SM CLR 17/06 A2997 RMK AO2 SLP088 T01670056,KBLU,2023-05-24T21:52:00Z,39.28,-120.7,16.7,5.6,240,8,,10.0,29.970472,1008.8,,TRUE,TRUE,,,,,,,CLR,,,,,,,,VFR,,,,,,,,,,,,METAR,1605.0
KBLH 242152Z AUTO 16013G22KT 10SM CLR 36/06 A2971 RMK AO2 SLP052 T03610061,KBLH,2023-05-24T21:52:00Z,33.62,-114.72,36.1,6.1,160,13,22,10.0,29.71063,1005.2,,TRUE,TRUE,,,,,,,CLR,,,,,,,,VFR,,,,,,,,,,,,METAR,119.0
KBLF 242152Z AUTO 01007KT 10SM BKN065 21/07 A3007 RMK AO2 SLP160 T02060067,KBLF,2023-05-24T21:52:00Z,37.3,-81.2,20.6,6.7,10,7,,10.0,30.070866,1016.0,,TRUE,TRUE,,,,,,,BKN,6500,,,,,,,VFR,,,,,,,,,,,,METAR,871.0
KBKB 242152Z AUTO VRB05KT 10SM CLR 27/18 A2987 RMK AO2 SLP141 T02720178 $,KBKB,2023-05-24T21:52:00Z,31.02,-92.92,27.2,17.8,0,5,,10.0,29.870079,1014.1,,TRUE,TRUE,TRUE,,,,,,CLR,,,,,,,,VFR,,,,,,,,,,,,METAR,74.0
KBIS 242152Z 12013KT 10SM FU BKN120 25/16 A2995 RMK AO2 SLP136 T02500156,KBIS,2023-05-24T21:52:00Z,46.77,-100.75,25.0,15.6,120,13,,10.0,29.949802,1013.6,,,TRUE,,,,,,FU,BKN,12000,,,,,,,VFR,,,,,,,,,,,,METAR,506.0
KBIF 242152Z 23006KT 7SM CLR 33/M04 A2994 RMK A02 SLPNO ALSTG WND DATA ESTMD,KBIF,2023-05-24T21:52:00Z,31.85,-106.38,33.0,-4.0,230,6,,7.0,29.940945,,,,TRUE,,,,,,,CLR,,,,,,,,VFR,,,,,,,,,,,,METAR,1201.0
KBDR 242152Z 18004KT 10SM SCT120 19/08 A2992 RMK AO2 SLP130 T01890078,KBDR,2023-05-24T21:52:00Z,41.17,-73.13,18.9,7.8,180,4,,10.0,29.920275,1013.0,,,TRUE,,,,,,,SCT,12000,,,,,,,VFR,,,,,,,,,,,,METAR,5.0
KBAN 242152Z AUTO 21009KT 10SM CLR 19/M07 A2994 RMK AO2 SLP062 T01891072 PWINO $,KBAN,2023-05-24T21:52:00Z,38.35,-119.52,18.9,-7.2,210,9,,10.0,29.940945,1006.2,,TRUE,TRUE,TRUE,,,,TRUE,,CLR,,,,,,,,VFR,,,,,,,,,,,,SPECI,2067.0
KATL 242152Z 03007KT 10SM SCT060 BKN200 BKN250 26/11 A2995 RMK AO2 SLP134 T02610106,KATL,2023-05-24T21:52:00Z,33.63,-84.45,26.1,10.6,30,7,,10.0,29.949802,1013.4,,,TRUE,,,,,,,SCT,6000,BKN,20000,BKN,25000,,,VFR,,,,,,,,,,,,METAR,309.0
KARR 242152Z 06017KT 6SM HZ CLR 21/11 A3015 RMK AO2 SLP210 T02060106,KARR,2023-05-24T21:52:00Z,41.77,-88.48,20.6,10.6,60,17,,6.0,30.15059,1021.0,,,TRUE,,,,,,HZ,CLR,,,,,,,,VFR,,,,,,,,,,,,METAR,213.0
KAQW 242152Z AUTO 25007KT 10SM FEW022 BKN085 OVC100 13/08 A3003 RMK AO2 RAB41E52 SLP170 P0000 T01280083,KAQW,2023-05-24T21:52:00Z,42.7,-73.17,12.8,8.3,250,7,,10.0,30.029528,1017.0,,TRUE,TRUE,,,,,,,FEW,2200,BKN,8500,OVC,10000,,,VFR,,,,,,0.005,,,,,,METAR,196.0
KALS 242152Z AUTO 32005KT 10SM CLR 17/02 A3014 RMK AO2 LTG DSNT N RAB2055E26 SLP141 P0000 T01720022,KALS,2023-05-24T21:52:00Z,37.43,-105.87,17.2,2.2,320,5,,10.0,30.138779,1014.1,,TRUE,TRUE,,,,,,,CLR,,,,,,,,VFR,,,,,,0.005,,,,,,METAR,2299.0
KAFN 242152Z AUTO 36006KT 10SM FEW020 SCT043 OVC085 12/09 A3000 RMK AO2 RAE48 SLP167 P0001 T01220094,KAFN,2023-05-24T21:52:00Z,42.8,-72.0,12.2,9.4,360,6,,10.0,30.0,1016.7,,TRUE,TRUE,,,,,,,FEW,2000,SCT,4300,OVC,8500,,,VFR,,,,,,0.01,,,,,,METAR,308.0
KABQ 242152Z 20010G24KT 10SM FEW130 29/M04 A2998 RMK AO2 SLP065 T02891039,KABQ,2023-05-24T21:52:00Z,35.05,-106.62,28.9,-3.9,200,10,24,10.0,29.97933,1006.5,,,TRUE,,,,,,,FEW,13000,,,,,,,VFR,,,,,,,,,,,,METAR,1620.0
KABI 242152Z 11003KT 10SM CLR 26/18 A2997 RMK AO2 SLP126 T02610183,KABI,2023-05-24T21:52:00Z,32.42,-99.68,26.1,18.3,110,3,,10.0,29.970472,1012.6,,,TRUE,,,,,,,CLR,,,,,,,,VFR,,,,,,,,,,,,METAR,543.0
PTTP 242151Z VRB02KT 15SM FEW018 SCT130 BKN300 30/24 A2992 RMK SLP132 T03040242,PTTP,2023-05-24T21:51:00Z,6.97,158.22,30.4,24.2,0,2,,15.0,29.920275,1013.2,,,,,,,,,,FEW,1800,SCT,13000,BKN,30000,,,VFR,,,,,,,,,,,,SPECI,36.0
PKMR 242151Z 10005KT 15SM FEW014 SCT050 BKN110 OVC300 30/25 A2989 RMK SLP122 T02990254,PKMR,2023-05-24T21:51:00Z,7.08,171.38,29.9,25.4,100,5,,15.0,29.890747,1012.2,,,,,,,,,,FEW,1400,SCT,5000,BKN,11000,OVC,30000,VFR,,,,,,,,,,,,SPECI,7.0
MUGM 242151Z 22006KT 10SM FEW020 FEW040 BKN090 28/25 A2979 RMK AO2 SLP088 T02780250 $,MUGM,2023-05-24T21:51:00Z,19.9,-75.2,27.8,25.0,220,6,,10.0,29.790354,1008.8,,,TRUE,TRUE,,,,,,FEW,2000,FEW,4000,BKN,9000,,,VFR,,,,,,,,,,,,SPECI,21.0
KYNG 242151Z 36014KT 10SM FEW055 FEW250 21/09 A3010 RMK AO2 SLP191 T02060094,KYNG,2023-05-24T21:51:00Z,41.25,-80.67,20.6,9.4,360,14,,10.0,30.100393,1019.1,,,TRUE,,,,,,,FEW,5500,FEW,25000,,,,,VFR,,,,,,,,,,,,METAR,356.0
KXWA 242151Z AUTO 10016KT 10SM CLR 27/14 A2987 RMK AO2 SLP111 T02720139,KXWA,2023-05-24T21:51:00Z,48.27,-103.75,27.2,13.9,100,16,,10.0,29.870079,1011.1,,TRUE,TRUE,,,,,,,CLR,,,,,,,,VFR,,,,,,,,,,,,METAR,717.0
KVNY 242151Z 13007KT 10SM BKN031 21/11 A2992 RMK AO2 SLP126 T02060106,KVNY,2023-05-24T21:51:00Z,34.22,-118.48,20.6,10.6,130,7,,10.0,29.920275,1012.6,,,TRUE,,,,,,,BKN,3100,,,,,,,VFR,,,,,,,,,,,,METAR,241.0
KVCT 242151Z 03006KT 10SM FEW050 32/22 A2988 RMK AO2 SLP117 T03170217,KVCT,2023-05-24T21:51:00Z,28.87,-96.93,31.7,21.7,30,6,,10.0,29.878937,1011.7,,,TRUE,,,,,,,FEW,5000,,,,,,,VFR,,,,,,,,,,,,METAR,33.0
KUGN 242151Z 02011G23KT 10SM CLR 14/06 A3022 RMK AO2 SLP234 T01440061,KUGN,2023-05-24T21:51:00Z,42.42,-87.87,14.4,6.1,20,11,23,10.0,30.221457,1023.4,,,TRUE,,,,,,,CLR,,,,,,,,VFR,,,,,,,,,,,,METAR,217.0
KTPL 242151Z AUTO 09009KT FEW038 BKN050 26/19 A2994 RMK AO2 SLP131 T02610189 PWINO RVRNO $,KTPL,2023-05-24T21:51:00Z,31.15,-97.4,26.1,18.9,90,9,,,29.940945,1013.1,,TRUE,TRUE,TRUE,,,,TRUE,,FEW,3800,BKN,5000,,,,,,,,,,,,,,,,,METAR,206.0
KTEB 242151Z 17008G21KT 10SM BKN080 OVC095 22/08 A2990 RMK AO2 SLP123 T02170078,KTEB,2023-05-24T21:51:00Z,40.87,-74.05,21.7,7.8,170,8,21,10.0,29.899607,1012.3,,,TRUE,,,,,,,BKN,8000,OVC,9500,,,,,VFR,,,,,,,,,,,,METAR,3.0
KSTL 242151Z 08013G19KT 10SM FEW060 30/08 A3004 RMK AO2 SLP163 T03000083,KSTL,2023-05-24T21:51:00Z,38.75,-90.37,30.0,8.3,80,13,19,10.0,30.041338,1016.3,,,TRUE,,,,,,,FEW,6000,,,,,,,VFR,,,,,,,,,,,,METAR,163.0
KSNT 242151Z AUTO 00000KT 12/03 A3002 RMK AO1 SLP105 T01220028,KSNT,2023-05-24T21:51:00Z,44.17,-114.93,12.2,2.8,0,0,,,30.02067,1010.5,,TRUE,TRUE,,,,,,,,,,,,,,,,,,,,,,,,,,,METAR,1980.0
KSMX 242151Z 31011KT 10SM BKN026 16/09 A2997 RMK AO2 SLP150 T01560094,KSMX,2023-05-24T21:51:00Z,34.9,-120.45,15.6,9.4,310,11,,10.0,29.970472,1015.0,,,TRUE,,,,,,,BKN,2600,,,,,,,MVFR,,,,,,,,,,,,METAR,73.0
KSMO 242151Z 20008KT 10SM OVC036 18/11 A2994 RMK AO2 SLP139 T01780111,KSMO,2023-05-24T21:51:00Z,34.02,-118.45,17.8,11.1,200,8,,10.0,29.940945,1013.9,,,TRUE,,,,,,,OVC,3600,,,,,,,VFR,,,,,,,,,,,,METAR,56.0
KSJT 242151Z 15012G18KT 10SM CLR 29/13 A2994 RMK AO2 SLP116 T02940133,KSJT,2023-05-24T21:51:00Z,31.37,-100.5,29.4,13.3,150,12,18,10.0,29.940945,1011.6,,,TRUE,,,,,,,CLR,,,,,,,,VFR,,,,,,,,,,,,METAR,582.0
KSDB 242151Z AUTO 19018G29KT 10SM CLR 17/06 A2996 RMK AO2 PK WND 20030/2140 SLP108 T01670061 $,KSDB,2023-05-24T21:51:00Z,34.75,-118.72,16.7,6.1,190,18,29,10.0,29.958662,1010.8,,TRUE,TRUE,TRUE,,,,,,CLR,,,,,,,,VFR,,,,,,,,,,,,METAR,1377.0
KSAT 242151Z 03004KT 10SM FEW060 SCT110 SCT250 31/16 A2991 RMK AO2 SLP111 T03060156,KSAT,2023-05-24T21:51:00Z,29.53,-98.48,30.6,15.6,30,4,,10.0,29.911417,1011.1,,,TRUE,,,,,,,FEW,6000,SCT,11000,SCT,25000,,,VFR,,,,,,,,,,,,METAR,246.0
KSAD 242151Z AUTO VRB05G20KT 10SM CLR 33/M03 A2983 RMK AO2 SLP050 T03331028,KSAD,2023-05-24T21:51:00Z,32.85,-109.63,33.3,-2.8,0,5,20,10.0,29.828741,1005.0,,TRUE,TRUE,,,,,,,CLR,,,,,,,,VFR,,,,,,,,,,,,METAR,937.0
KROW 242151Z 13011G21KT 10SM CLR 33/12 A2990 RMK AO2 SLP056 T03280117,KROW,2023-05-24T21:51:00Z,33.3,-104.5,32.8,11.7,130,11,21,10.0,29.899607,1005.6,,,TRUE,,,,,,,CLR,,,,,,,,VFR,,,,,,,,,,,,METAR,1105.0
KRDU 242151Z 04011G15KT 10SM FEW065 FEW180 BKN250 25/04 A2998 RMK AO2 SLP148 T02500039,KRDU,2023-05-24T21:51:00Z,35.9,-78.78,25.0,3.9,40,11,15,10.0,29.97933,1014.8,,,TRUE,,,,,,,FEW,6500,FEW,18000,BKN,25000,,,VFR,,,,,,,,,,,,METAR,121.0
KPWM 242151Z 06005KT 6SM -RA BR FEW070 OVC090 11/09 A2998 RMK AO2 RAB06 SLP153 P0005 T01060089,KPWM,2023-05-24T21:51:00Z,43.65,-70.3,10.6,8.9,60,5,,6.0,29.97933,1015.3,,,TRUE,,,,,,-RA BR,FEW,7000,OVC,9000,,,,,VFR,,,,,,0.05,,,,,,METAR,15.0
KPVD 242151Z 16009KT 10SM FEW075 SCT120 BKN300 16/10 A2992 RMK AO2 SLP132 T01610100,KPVD,2023-05-24T21:51:00Z,41.72,-71.43,16.1,10.0,160,9,,10.0,29.920275,1013.2,,,TRUE,,,,,,,FEW,7500,SCT,12000,BKN,30000,,,VFR,,,,,,,,,,,,METAR,15.0
KPIT 242151Z 35014KT 10SM FEW065 SCT100 25/09 A3001 RMK AO2 SLP166 T02500094,KPIT,2023-05-24T21:51:00Z,40.47,-80.2,25.0,9.4,350,14,,10.0,30.008858,1016.6,,,TRUE,,,,,,,FEW,6500,SCT,10000,,,,,VFR,,,,,,,,,,,,METAR,339.0
KPHX 242151Z 19013KT 10SM CLR 37/M01 A2975 RMK AO2 SLP053 T03671011,KPHX,2023-05-24T21:51:00Z,33.43,-112.02,36.7,-1.1,190,13,,10.0,29.749016,1005.3,,,TRUE,,,,,,,CLR,,,,,,,,VFR,,,,,,,,,,,,METAR,338.0
KP59 242151Z AUTO 10007KT 07/M05 A3043 RMK AO1 SLP313 T00721050,KP59,2023-05-24T21:51:00Z,47.47,-87.88,7.2,-5.0,100,7,,,30.431103,1031.3,,TRUE,TRUE,,,,,,,,,,,,,,,,,,,,,,,,,,,METAR,185.0
KOXR 242151Z 27012KT 10SM BKN046 18/11 A2994 RMK AO2 SLP137 T01830111,KOXR,2023-05-24T21:51:00Z,34.2,-119.2,18.3,11.1,270,12,,10.0,29.940945,1013.7,,,TRUE,,,,,,,BKN,4600,,,,,,,VFR,,,,,,,,,,,,METAR,12.0
KORF 242151Z 01010KT 10SM CLR 20/10 A2997 RMK AO2 SLP148 T02000100,KORF,2023-05-24T21:51:00Z,36.9,-76.2,20.0,10.0,10,10,,10.0,29.970472,1014.8,,,TRUE,,,,,,,CLR,,,,,,,,VFR,,,,,,,,,,,,METAR,5.0
KORD 242151Z 03019KT 10SM BKN250 17/08 A3020 RMK AO2 PK WND 02027/2127 SLP225 T01670083,KORD,2023-05-24T21:51:00Z,41.95,-87.93,16.7,8.3,30,19,,10.0,30.200787,1022.5,,,TRUE,,,,,,,BKN,25000,,,,,,,VFR,,,,,,,,,,,,METAR,202.0
KOCF 242151Z 05003KT 10SM FEW029 SCT043 24/22 A2985 RMK AO2 RAE44 SLP109 T02440217 PNO $,KOCF,2023-05-24T21:51:00Z,29.17,-82.22,24.4,21.7,50,3,,10.0,29.84941,1010.9,,,TRUE,TRUE,,,,,,FEW,2900,SCT,4300,,,,,VFR,,,,,,,,,,,,METAR,24.0
KNYC 242151Z AUTO VRB04KT 10SM FEW110 20/05 A2994 RMK AO2 SLP130 T02000050 $,KNYC,2023-05-24T21:51:00Z,40.78,-73.97,20.0,5.0,0,4,,10.0,29.940945,1013.0,,TRUE,TRUE,TRUE,,,,,,FEW,11000,,,,,,,VFR,,,,,,,,,,,,METAR,33.0
KNBT 242151Z AUTO 01014KT 10SM CLR 23/14 A2992 RMK AO2 SLP135 T02280144 $,KNBT,2023-05-24T21:51:00Z,35.02,-76.47,22.8,14.4,10,14,,10.0,29.920275,1013.5,,TRUE,TRUE,TRUE,,,,,,CLR,,,,,,,,VFR,,,,,,,,,,,,METAR,5.0
KMYL 242151Z AUTO 30008G15KT 260V340 10SM SCT080 19/M02 A2991 RMK AO2 SLP108 T01891017 $,KMYL,2023-05-24T21:51:00Z,44.9,-116.1,18.9,-1.7,300,8,15,10.0,29.911417,1010.8,,TRUE,TRUE,TRUE,,,,,,SCT,8000,,,,,,,VFR,,,,,,,,,,,,METAR,1532.0
KLGA 242151Z 17012KT 10SM FEW055 SCT150 BKN250 20/03 A2991 RMK AO2 SLP129 T02000028,KLGA,2023-05-24T21:51:00Z,40.78,-73.88,20.0,2.8,170,12,,10.0,29.911417,1012.9,,,TRUE,,,,,,,FEW,5500,SCT,15000,BKN,25000,,,VFR,,,,,,,,,,,,METAR,9.0
KJFK 242151Z 18011KT 10SM FEW050 SCT250 BKN300 17/08 A2994 RMK AO2 SLP140 FU BKN300 T01670083,KJFK,2023-05-24T21:51:00Z,40.63,-73.77,16.7,8.3,180,11,,10.0,29.940945,1014.0,,,TRUE,,,,,,,FEW,5000,SCT,25000,BKN,30000,,,VFR,,,,,,,,,,,,METAR,3.0
KJCT 242151Z AUTO 12006KT 10SM CLR 28/17 A2995 RMK AO2 SLP109 T02830167,KJCT,2023-05-24T21:51:00Z,30.5,-99.77,28.3,16.7,120,6,,10.0,29.949802,1010.9,,TRUE,TRUE,,,,,,,CLR,,,,,,,,VFR,,,,,,,,,,,,METAR,522.0
KILG 242151Z 18010KT 10SM CLR 26/13 A2994 RMK AO2 SLP137 T02610128,KILG,2023-05-24T21:51:00Z,39.67,-75.6,26.1,12.8,180,10,,10.0,29.940945,1013.7,,,TRUE,,,,,,,CLR,,,,,,,,VFR,,,,,,,,,,,,METAR,22.0
KIGM 242151Z AUTO 21018G26KT 10SM CLR 31/01 A2988 RMK AO2 PK WND 24034/2052 SLP046 T03110011,KIGM,2023-05-24T21:51:00Z,35.25,-113.93,31.1,1.1,210,18,26,10.0,29.878937,1004.6,,TRUE,TRUE,,,,,,,CLR,,,,,,,,VFR,,,,,,,,,,,,METAR,1045.0
KHTS 242151Z 06005KT 10SM CLR 26/11 A3002 RMK AO2 SLP161 T02560106,KHTS,2023-05-24T21:51:00Z,38.37,-82.55,25.6,10.6,60,5,,10.0,30.02067,1016.1,,,TRUE,,,,,,,CLR,,,,,,,,VFR,,,,,,,,,,,,METAR,252.0
KHSE 242151Z AUTO 01009G22KT 330V070 10SM OVC008 17/16 A2991 RMK AO2 SLP127 T01670161,KHSE,2023-05-24T21:51:00Z,35.23,-75.62,16.7,16.1,10,9,22,10.0,29.911417,1012.7,,TRUE,TRUE,,,,,,,OVC,800,,,,,,,IFR,,,,,,,,,,,,METAR,4.0
KHDO 242151Z AUTO 07008KT 10SM SCT060 32/18 A2990 RMK AO2 SLP110 T03220183,KHDO,2023-05-24T21:51:00Z,29.37,-99.17,32.2,18.3,70,8,,10.0,29.899607,1011.0,,TRUE,TRUE,,,,,,,SCT,6000,,,,,,,VFR,,,,,,,,,,,,METAR,280.0
KGEU 242151Z 00000KT 10SM CLR 35/02 A2974,KGEU,2023-05-24T21:51:00Z,33.53,-112.3,35.0,2.0,0,0,,10.0,29.740158,,,,,,,,,,,CLR,,,,,,,,VFR,,,,,,,,,,,,METAR,319.0
KEWR 242151Z VRB03KT 10SM FEW050 SCT100 SCT180 BKN250 22/08 A2991 RMK AO2 SLP128 T02220078,KEWR,2023-05-24T21:51:00Z,40.68,-74.17,22.2,7.8,0,3,,10.0,29.911417,1012.8,,,TRUE,,,,,,,FEW,5000,SCT,10000,SCT,18000,BKN,25000,VFR,,,,,,,,,,,,METAR,2.0
KERI 242151Z 04018G28KT 10SM CLR 16/09 A3015 RMK AO2 PK WND 04028/2144 SLP210 T01610089,KERI,2023-05-24T21:51:00Z,42.08,-80.18,16.1,8.9,40,18,28,10.0,30.15059,1021.0,,,TRUE,,,,,,,CLR,,,,,,,,VFR,,,,,,,,,,,,METAR,222.0
KELP 242151Z 19005KT 10SM FEW120 36/M04 A2991 RMK AO2 SLP043 T03561039,KELP,2023-05-24T21:51:00Z,31.82,-106.35,35.6,-3.9,190,5,,10.0,29.911417,1004.3,,,TRUE,,,,,,,FEW,12000,,,,,,,VFR,,,,,,,,,,,,METAR,1205.0
KEKN 242151Z AUTO 33008KT 10SM CLR 23/09 A3006 RMK AO2 SLP178 T02280089,KEKN,2023-05-24T21:51:00Z,38.88,-79.85,22.8,8.9,330,8,,10.0,30.059055,1017.8,,TRUE,TRUE,,,,,,,CLR,,,,,,,,VFR,,,,,,,,,,,,METAR,596.0
KCWF 242151Z 06007KT 10SM SCT033 29/21 A2986,KCWF,2023-05-24T21:51:00Z,30.22,-93.15,29.0,21.0,60,7,,10.0,29.861221,,,,,,,,,,,SCT,3300,,,,,,,VFR,,,,,,,,,,,,METAR,4.0
KCSG 242151Z VRB03KT 10SM BKN110 25/14 A2993 RMK AO2 SLP130 T02500144,KCSG,2023-05-24T21:51:00Z,32.52,-84.95,25.0,14.4,0,3,,10.0,29.929134,1013.0,,,TRUE,,,,,,,BKN,11000,,,,,,,VFR,,,,,,,,,,,,METAR,120.0
KCRP 242151Z 12011KT 10SM FEW032 FEW050 31/21 A2988 RMK AO2 SLP115 T03060211 $,KCRP,2023-05-24T21:51:00Z,27.77,-97.5,30.6,21.1,120,11,,10.0,29.878937,1011.5,,,TRUE,TRUE,,,,,,FEW,3200,FEW,5000,,,,,VFR,,,,,,,,,,,,METAR,11.0
KCON 242151Z AUTO 31010KT 10SM -RA OVC049 13/11 A3000 RMK AO2 RAE19B49 SLP159 P0010 T01280106 $,KCON,2023-05-24T21:51:00Z,43.2,-71.5,12.8,10.6,310,10,,10.0,30.0,1015.9,,TRUE,TRUE,TRUE,,,,,-RA,OVC,4900,,,,,,,VFR,,,,,,0.1,,,,,,METAR,102.0
KCMH 242151Z 36015G21KT 10SM FEW070 SCT095 OVC250 26/12 A3004 RMK AO2 SLP167 T02560122,KCMH,2023-05-24T21:51:00Z,40.0,-82.88,25.6,12.2,360,15,21,10.0,30.041338,1016.7,,,TRUE,,,,,,,FEW,7000,SCT,9500,OVC,25000,,,VFR,,,,,,,,,,,,METAR,257.0
KCLE 242151Z 36017KT 10SM FEW080 FEW250 17/09 A3014 RMK AO2 SLP221 T01720094,KCLE,2023-05-24T21:51:00Z,41.42,-81.85,17.2,9.4,360,17,,10.0,30.138779,1022.1,,,TRUE,,,,,,,FEW,8000,FEW,25000,,,,,VFR,,,,,,,,,,,,METAR,237.0
KCDJ 242151Z AUTO 11006KT 26/19 A3006 RMK AO1 SLP170 T02610189,KCDJ,2023-05-24T21:51:00Z,39.82,-93.57,26.1,18.9,110,6,,,30.059055,1017.0,,TRUE,TRUE,,,,,,,,,,,,,,,,,,,,,,,,,,,METAR,234.0
KCAK 242151Z 01012KT 9SM FEW080 FEW250 20/11 A3009 RMK AO2 SLP186 T02000106,KCAK,2023-05-24T21:51:00Z,40.92,-81.45,20.0,10.6,10,12,,9.0,30.088583,1018.6,,,TRUE,,,,,,,FEW,8000,FEW,25000,,,,,VFR,,,,,,,,,,,,METAR,369.0
KBKW 242151Z AUTO 35010KT 10SM CLR 22/06 A3006 RMK AO2 SLP164 T02220061,KBKW,2023-05-24T21:51:00Z,37.8,-81.12,22.2,6.1,350,10,,10.0,30.059055,1016.4,,TRUE,TRUE,,,,,,,CLR,,,,,,,,VFR,,,,,,,,,,,,METAR,762.0
KBHK 242151Z AUTO 13020KT 8SM CLR 28/10 A2987 RMK AO2 PK WND 13027/2129 SLP092 T02780100,KBHK,2023-05-24T21:51:00Z,46.35,-104.25,27.8,10.0,130,20,,8.0,29.870079,1009.2,,TRUE,TRUE,,,,,,,CLR,,,,,,,,VFR,,,,,,,,,,,,METAR,904.0
KBGD 242151Z AUTO 11012G18KT 10SM FEW055 SCT070 BKN080 28/14 A2998 RMK AO2 SLP115 T02780139,KBGD,2023-05-24T21:51:00Z,35.7,-101.4,27.8,13.9,110,12,18,10.0,29.97933,1011.5,,TRUE,TRUE,,,,,,,FEW,5500,SCT,7000,BKN,8000,,,VFR,,,,,,,,,,,,METAR,928.0
KBAZ 242151Z 04015KT 10SM CLR 28/18 A2991 RMK AO2 PK WND 04027/2129 SLP121 T02780183,KBAZ,2023-05-24T21:51:00Z,29.72,-98.05,27.8,18.3,40,15,,10.0,29.911417,1012.1,,,TRUE,,,,,,,CLR,,,,,,,,VFR,,,,,,,,,,,,METAR,199.0
KAVX 242151Z AUTO 27007KT 10SM FEW010 OVC014 14/09 A2996 RMK AO2 SLP138 T01390094,KAVX,2023-05-24T21:51:00Z,33.4,-118.42,13.9,9.4,270,7,,10.0,29.958662,1013.8,,TRUE,TRUE,,,,,,,FEW,1000,OVC,1400,,,,,MVFR,,,,,,,,,,,,METAR,482.0
KATT 242151Z AUTO VRB06KT 10SM CLR 29/17 A2993 RMK AO2 SLP124 T02890172,KATT,2023-05-24T21:51:00Z,30.32,-97.77,28.9,17.2,0,6,,10.0,29.929134,1012.4,,TRUE,TRUE,,,,,,,CLR,,,,,,,,VFR,,,,,,,,,,,,METAR,203.0
KALB 242151Z 36007KT 10SM -RA SCT020 BKN048 OVC110 12/09 A3007 RMK AO2 SLP183 BINOVC P0002 T01220094,KALB,2023-05-24T21:51:00Z,42.75,-73.8,12.2,9.4,360,7,,10.0,30.070866,1018.3,,,TRUE,,,,,,-RA,SCT,2000,BKN,4800,OVC,11000,,,VFR,,,,,,0.02,,,,,,METAR,82.0
KAHN 242151Z 05006KT 10SM CLR 25/08 A2996 RMK AO2 SLP140 T02500078,KAHN,2023-05-24T21:51:00Z,33.95,-83.33,25.0,7.8,50,6,,10.0,29.958662,1014.0,,,TRUE,,,,,,,CLR,,,,,,,,VFR,,,,,,,,,,,,METAR,241.0
KACT 242151Z 14007KT 10SM FEW044 26/18 A2993 RMK AO2 SLP130 T02610183,KACT,2023-05-24T21:51:00Z,31.62,-97.23,26.1,18.3,140,7,,10.0,29.929134,1013.0,,,TRUE,,,,,,,FEW,4400,,,,,,,VFR,,,,,,,,,,,,METAR,150.0
KABE 242151Z 26006KT 10SM OVC080 25/09 A2991 RMK AO2 SLP128 T02500089,KABE,2023-05-24T21:51:00Z,40.65,-75.45,25.0,8.9,260,6,,10.0,29.911417,1012.8,,,TRUE,,,,,,,OVC,8000,,,,,,,VFR,,,,,,,,,,,,METAR,117.0
K6R6 242151Z AUTO 11013KT 28/18 A2996 RMK AO1 SLP110 T02780183,K6R6,2023-05-24T21:51:00Z,30.05,-102.22,27.8,18.3,110,13,,,29.958662,1011.0,,TRUE,TRUE,,,,,,,,,,,,,,,,,,,,,,,,,,,METAR,702.0
TJBQ 242150Z 03005KT 10SM SCT050 28/22 A2986,TJBQ,2023-05-24T21:50:00Z,18.5,-67.13,28.0,22.0,30,5,,10.0,29.861221,,,,,,,,,,,SCT,5000,,,,,,,VFR,,,,,,,,,,,,METAR,69.0
TIST 242150Z 14007KT 10SM FEW040 28/24 A2984,TIST,2023-05-24T21:50:00Z,18.33,-64.98,28.0,24.0,140,7,,10.0,29.840551,,,,,,,,,,,FEW,4000,,,,,,,VFR,,,,,,,,,,,,METAR,5.0
PTYA 242150Z 30007KT 12SM SCT016TCU BKN130 OVC300 29/26 A2979 RMK SHRAB18E26 TCU NE-E AND S SLP088 T02920263,PTYA,2023-05-24T21:50:00Z,9.48,138.08,29.2,26.3,300,7,,12.0,29.790354,1008.8,,,,,,,,,,SCT,1600,BKN,13000,OVC,30000,,,VFR,,,,,,,,,,,,SPECI,4.0
OOSH 242150Z AUTO 22002KT //// ////// 33/21 Q1004 RMK 1001,OOSH,2023-05-24T21:50:00Z,24.38,56.62,33.0,21.0,220,2,,,29.64567,,,TRUE,,,,,,,,,,,,,,,,,,,,,,,,,,,,METAR,35.0
OOSA 242150Z 22009KT 9999 BKN025 30/26 Q1011 NOSIG,OOSA,2023-05-24T21:50:00Z,17.03,54.1,30.0,26.0,220,9,,6.21,29.852362,,,,,,TRUE,,,,,BKN,2500,,,,,,,MVFR,,,,,,,,,,,,METAR,20.0
OOMS 242150Z 20019KT 6000 HZ NSC 37/19 Q1004 NOSIG,OOMS,2023-05-24T21:50:00Z,23.58,58.28,37.0,19.0,200,19,,3.73,29.64567,,,,,,TRUE,,,,HZ,CLR,,,,,,,,MVFR,,,,,,,,,,,,METAR,8.0
OOKB 242150Z AUTO VRB02KT CAVOK ////// 34/16 Q1004 NOSIG,OOKB,2023-05-24T21:50:00Z,26.17,56.23,34.0,16.0,0,2,,6.21,29.64567,,,TRUE,,,TRUE,,,,,CAVOK,,,,,,,,VFR,,,,,,,,,,,,METAR,30.0
OODQ 242150Z AUTO 21018KT CAVOK ////// 27/26 Q1009 NOSIG RMK RH93? 0,OODQ,2023-05-24T21:50:00Z,19.52,57.65,27.0,26.0,210,18,,6.21,29.793306,,,TRUE,,,TRUE,,,,,CAVOK,,,,,,,,VFR,,,,,,,,,,,,METAR,116.0
OOAD 242150Z AUTO 23008KT 9999 // NCD 31/22 Q1010 NOSIG,OOAD,2023-05-24T21:50:00Z,22.5,57.37,31.0,22.0,230,8,,6.21,29.822834,,,TRUE,,,TRUE,,,,,CLR,,,,,,,,VFR,,,,,,,,,,,,METAR,327.0
NSTU 242150Z VRB04KT 12SM FEW017 SCT040 BKN120 29/27 A2985 RMK SLP108 T02910270,NSTU,2023-05-24T21:50:00Z,-14.33,-170.72,29.1,27.0,0,4,,12.0,29.84941,1010.8,,,,,,,,,,FEW,1700,SCT,4000,BKN,12000,,,VFR,,,,,,,,,,,,METAR,8.0
MUVR 242150Z 17006KT 140V210 9000 FEW020 SCT030 OVC150 24/22 Q1008,MUVR,2023-05-24T21:50:00Z,23.03,-81.43,24.0,22.0,170,6,,5.59,29.763779,,,,,,,,,,,FEW,2000,SCT,3000,OVC,15000,,,VFR,,,,,,,,,,,,METAR,65.0
MUSC 242150Z VRB03KT 8000 FEW020 BKN035 22/21 Q1010,MUSC,2023-05-24T21:50:00Z,22.5,-79.92,22.0,21.0,0,3,,4.97,29.822834,,,,,,,,,,,FEW,2000,BKN,3500,,,,,MVFR,,,,,,,,,,,,METAR,97.0
MUHG 242150Z 05006KT 9000 SCT027 BKN150 26/25 Q1008,MUHG,2023-05-24T21:50:00Z,20.78,-76.32,26.0,25.0,50,6,,5.59,29.763779,,,,,,,,,,,SCT,2700,BKN,15000,,,,,VFR,,,,,,,,,,,,METAR,100.0
MUHA 242150Z VRB03KT 9000 FEW025 SCT040 27/22 Q1008,MUHA,2023-05-24T21:50:00Z,22.98,-82.42,27.0,22.0,0,3,,5.59,29.763779,,,,,,,,,,,FEW,2500,SCT,4000,,,,,VFR,,,,,,,,,,,,METAR,61.0
MUCU 242150Z 12005KT 9000 SCT020 27/23 Q1008,MUCU,2023-05-24T21:50:00Z,19.97,-75.83,27.0,23.0,120,5,,5.59,29.763779,,,,,,,,,,,SCT,2000,,,,,,,VFR,,,,,,,,,,,,METAR,70.0
MUCM 242150Z VRB02KT 9000 FEW018CB BKN020 28/24 Q1008,MUCM,2023-05-24T21:50:00Z,21.42,-77.85,28.0,24.0,0,2,,5.59,29.763779,,,,,,,,,,,FEW,1800,BKN,2000,,,,,MVFR,,,,,,,,,,,,METAR,125.0
MUCL 242150Z 24005KT 200V270 9000 FEW020TCU BKN100 29/23 Q1008,MUCL,2023-05-24T21:50:00Z,21.63,-81.55,29.0,23.0,240,5,,5.59,29.763779,,,,,,,,,,,FEW,2000,BKN,10000,,,,,VFR,,,,,,,,,,,,METAR,5.0
MSLP 242150Z 22009KT 190V260 9999 FEW023 FEW033TCU 32/24 Q1006 A2972 NOSIG RMK TCU NE,MSLP,2023-05-24T21:50:00Z,13.43,-89.05,32.0,24.0,220,9,,6.21,29.704725,,,,,,TRUE,,,,,FEW,2300,FEW,3300,,,,,VFR,,,,,,,,,,,,SPECI,25.0
LXGB 242150Z AUTO 05006KT 9999 NCD 18/16 Q1015,LXGB,2023-05-24T21:50:00Z,36.15,-5.33,18.0,16.0,50,6,,6.21,29.970472,,,TRUE,,,,,,,,CLR,,,,,,,,VFR,,,,,,,,,,,,METAR,5.0
LTFO 242150Z 17002KT 9999 SCT009 BKN028 16/14 Q1016,LTFO,2023-05-24T21:50:00Z,41.18,40.85,16.0,14.0,170,2,,6.21,30.0,,,,,,,,,,,SCT,900,BKN,2800,,,,,MVFR,,,,,,,,,,,,METAR,5.0
LTFM 242150Z 12004KT 9999 FEW006 SCT025 15/13 Q1015 NOSIG RMK RWY17L VRB01KT RWY34L 12003KT 080V190 RWY16R 00000KT RWY36 VRB01KT RWY18 VRB02KT,LTFM,2023-05-24T21:50:00Z,41.27,28.75,15.0,13.0,120,4,,6.21,29.970472,,,,,,TRUE,,,,,FEW,600,SCT,2500,,,,,VFR,,,,,,,,,,,,METAR,99.0
LTFJ 242150Z 06008KT 9999 SCT005 15/15 Q1014 NOSIG RMK RWY24 03004KT 360V060,LTFJ,2023-05-24T21:50:00Z,40.9,29.3,15.0,15.0,60,8,,6.21,29.940945,,,,,,TRUE,,,,,SCT,500,,,,,,,VFR,,,,,,,,,,,,SPECI,83.0
LTFH 242150Z 24004KT 6000 SCT019 BKN030 16/16 Q1014 NOSIG,LTFH,2023-05-24T21:50:00Z,41.27,36.57,16.0,16.0,240,4,,3.73,29.940945,,,,,,TRUE,,,,,SCT,1900,BKN,3000,,,,,MVFR,,,,,,,,,,,,METAR,7.0
LTFG 242150Z 11004KT CAVOK 17/15 Q1012,LTFG,2023-05-24T21:50:00Z,36.3,32.3,17.0,15.0,110,4,,6.21,29.88189,,,,,,,,,,,CAVOK,,,,,,,,VFR,,,,,,,,,,,,METAR,26.0
LTFE 242150Z 10003KT 9999 FEW035 15/15 Q1013 NOSIG RMK RWY10 11003KT 080V140,LTFE,2023-05-24T21:50:00Z,37.25,27.67,15.0,15.0,100,3,,6.21,29.911417,,,,,,TRUE,,,,,FEW,3500,,,,,,,VFR,,-0.3,,,,,,,,,,SPECI,6.0
LTFD 242150Z 07007KT CAVOK 15/11 Q1014,LTFD,2023-05-24T21:50:00Z,39.55,27.02,15.0,11.0,70,7,,6.21,29.940945,,,,,,,,,,,CAVOK,,,,,,,,VFR,,,,,,,,,,,,METAR,15.0
LTFC 242150Z 33004KT 9999 SCT035 09/09 Q1015 RMK RWY23 35002KT,LTFC,2023-05-24T21:50:00Z,37.87,30.38,9.0,9.0,330,4,,6.21,29.970472,,,,,,,,,,,SCT,3500,,,,,,,VFR,,,,,,,,,,,,SPECI,862.0
LTDA 242150Z 26003KT CAVOK 18/13 Q1011,LTDA,2023-05-24T21:50:00Z,36.37,36.28,18.0,13.0,260,3,,6.21,29.852362,,,,,,,,,,,CAVOK,,,,,,,,VFR,,,,,,,,,,,,METAR,80.0
LTCW 242150Z VRB02KT 9999 SCT030 BKN090 09/07 Q1023,LTCW,2023-05-24T21:50:00Z,37.55,44.23,9.0,7.0,0,2,,6.21,30.206694,,,,,,,,,,,SCT,3000,BKN,9000,,,,,VFR,,,,,,,,,,,,METAR,1852.0
LTCV 242150Z 22004KT 9999 FEW040 SCT100 BKN200 18/12 Q1014,LTCV,2023-05-24T21:50:00Z,37.37,42.07,18.0,12.0,220,4,,6.21,29.940945,,,,,,,,,,,FEW,4000,SCT,10000,BKN,20000,,,VFR,,,,,,,,,,,,METAR,620.0
LTCT 242150Z 33008KT 9999 FEW040 SCT100 17/09 Q1020,LTCT,2023-05-24T21:50:00Z,39.98,43.87,17.0,9.0,330,8,,6.21,30.11811,,,,,,,,,,,FEW,4000,SCT,10000,,,,,VFR,,,,,,,,,,,,METAR,936.0
LTCS 242150Z 07009KT CAVOK 16/06 Q1014 RMK RWY22 05007KT 6CI200,LTCS,2023-05-24T21:50:00Z,37.45,38.9,16.0,6.0,70,9,,6.21,29.940945,,,,,,,,,,,CAVOK,,,,,,,,VFR,,,,,,,,,,,,METAR,825.0
LTCN 242150Z VRB02KT 9999 SCT040 16/11 Q1013,LTCN,2023-05-24T21:50:00Z,37.53,36.95,16.0,11.0,0,2,,6.21,29.911417,,,,,,,,,,,SCT,4000,,,,,,,VFR,,,,,,,,,,,,METAR,505.0
LTCJ 242150Z 04006KT 310V060 9999 SCT040 BKN100 18/14 Q1014 NOSIG RMK RWY20 04004KT 360V060 3CU040 6AC100,LTCJ,2023-05-24T21:50:00Z,37.93,41.12,18.0,14.0,40,6,,6.21,29.940945,,,,,,TRUE,,,,,SCT,4000,BKN,10000,,,,,VFR,,,,,,,,,,,,SPECI,559.0
LTCI 242150Z 11003KT 060V120 9999 SCT030 BKN070 13/07 Q1024 NOSIG,LTCI,2023-05-24T21:50:00Z,38.47,43.33,13.0,7.0,110,3,,6.21,30.236221,,,,,,TRUE,,,,,SCT,3000,BKN,7000,,,,,VFR,,,,,,,,,,,,METAR,1654.0
LTCG 242150Z 18002KT 9999 SCT012 SCT035 15/15 Q1015 NOSIG RMK RWY29 VRB01KT,LTCG,2023-05-24T21:50:00Z,41.0,39.77,15.0,15.0,180,2,,6.21,29.970472,,,,,,TRUE,,,,,SCT,1200,SCT,3500,,,,,VFR,,,,,,,,,,,,SPECI,28.0
LTCF 242150Z 25007KT 9999 -SHRA FEW025CB SCT035 BKN080 09/08 Q1023 NOSIG,LTCF,2023-05-24T21:50:00Z,40.57,43.12,9.0,8.0,250,7,,6.21,30.206694,,,,,,TRUE,,,,-SHRA,FEW,2500,SCT,3500,BKN,8000,,,VFR,,,,,,,,,,,,METAR,1794.0
LTCE 242150Z 09013KT 9999 SCT035 09/06 Q1021 NOSIG RMK RWY08R 07012KT RWY26R 09013KT RWY08L 08008KT 040V120 4CU035,LTCE,2023-05-24T21:50:00Z,39.95,41.17,9.0,6.0,90,13,,6.21,30.147638,,,,,,TRUE,,,,,SCT,3500,,,,,,,VFR,,,,,,,,,,,,SPECI,1758.0
LTCD 242150Z VRB02KT CAVOK 11/06 Q1017 NOSIG,LTCD,2023-05-24T21:50:00Z,39.72,39.52,11.0,6.0,0,2,,6.21,30.029528,,,,,,TRUE,,,,,CAVOK,,,,,,,,VFR,,,,,,,,,,,,METAR,1146.0
LTCC 242150Z VRB01KT CAVOK 14/09 Q1015 NOSIG RMK RWY16 00000KT SKC,LTCC,2023-05-24T21:50:00Z,37.88,40.2,14.0,9.0,0,1,,6.21,29.970472,,,,,,TRUE,,,,,CAVOK,,,,,,,,VFR,,,,,,,,,,,,SPECI,676.0
LTCB 242150Z 16002KT 8000 BKN007 BKN028 16/15 Q1015 NOSIG,LTCB,2023-05-24T21:50:00Z,40.97,38.07,16.0,15.0,160,2,,4.97,29.970472,,,,,,TRUE,,,,,BKN,700,BKN,2800,,,,,IFR,,,,,,,,,,,,METAR,5.0
LTCA 242150Z 28005KT CAVOK 13/09 Q1016 NOSIG,LTCA,2023-05-24T21:50:00Z,38.6,39.28,13.0,9.0,280,5,,6.21,30.0,,,,,,TRUE,,,,,CAVOK,,,,,,,,VFR,,,,,,,,,,,,METAR,887.0
LTBY 242150Z 23004KT 9999 BKN030 12/12 Q1015,LTBY,2023-05-24T21:50:00Z,39.82,30.52,12.0,12.0,230,4,,6.21,29.970472,,,,,,,,,,,BKN,3000,,,,,,,MVFR,,,,,,,,,,,,METAR,788.0
LTBU 242150Z 02006KT 9999 SCT035 13/11 Q1014 RMK RWY22 35005KT,LTBU,2023-05-24T21:50:00Z,41.13,27.92,13.0,11.0,20,6,,6.21,29.940945,,,,,,,,,,,SCT,3500,,,,,,,VFR,,,,,,,,,,,,SPECI,165.0
LTBS 242150Z 04003KT 9999 SCT100 15/15 Q1013 NOSIG RMK RWY19 VRB02KT 3AC100,LTBS,2023-05-24T21:50:00Z,36.7,28.78,15.0,15.0,40,3,,6.21,29.911417,,,,,,TRUE,,,,,SCT,10000,,,,,,,VFR,,,,,,,,,,,,METAR,2.0
LTBR 242150Z 27004KT 9999 SCT035 SCT100 15/15 Q1014 NOSIG RMK RWY07 33003KT,LTBR,2023-05-24T21:50:00Z,40.25,29.57,15.0,15.0,270,4,,6.21,29.940945,,,,,,TRUE,,,,,SCT,3500,SCT,10000,,,,,VFR,,,,,,,,,,,,SPECI,233.0
LTBQ 242150Z 00000KT 8000 FEW015 BKN030 14/14 Q1014 NOSIG,LTBQ,2023-05-24T21:50:00Z,40.73,30.07,14.0,14.0,0,0,,4.97,29.940945,,,,,,TRUE,,,,,FEW,1500,BKN,3000,,,,,MVFR,,,,,,,,,,,,METAR,51.0
LTBJ 242150Z 00000KT CAVOK 16/14 Q1013 NOSIG RMK RWY16 27002KT,LTBJ,2023-05-24T21:50:00Z,38.28,27.15,16.0,14.0,0,0,,6.21,29.911417,,,,,,TRUE,,,,,CAVOK,,,,,,,,VFR,,,,,,,,,,,,METAR,123.0
LTBH 242150Z 09003KT CAVOK 14/12 Q1014,LTBH,2023-05-24T21:50:00Z,40.13,26.42,14.0,12.0,90,3,,6.21,29.940945,,,,,,,,,,,CAVOK,,,,,,,,VFR,,,,,,,,,,,,METAR,8.0
LTBF 242150Z 00000KT CAVOK 13/12 Q1014 NOSIG,LTBF,2023-05-24T21:50:00Z,39.62,27.92,13.0,12.0,0,0,,6.21,29.940945,,,,,,TRUE,,,,,CAVOK,,,,,,,,VFR,,,,,,,,,,,,METAR,95.0
LTBD 242150Z 07003KT 7000 NSC 16/15 Q1013,LTBD,2023-05-24T21:50:00Z,37.82,27.88,16.0,15.0,70,3,,4.35,29.911417,,,,,,,,,,,CLR,,,,,,,,MVFR,,,,,,,,,,,,METAR,29.0
LTBA 242150Z 04005KT 9999 SCT035 16/13 Q1014 RMK RWY23 05005KT,LTBA,2023-05-24T21:50:00Z,40.97,28.82,16.0,13.0,40,5,,6.21,29.940945,,,,,,,,,,,SCT,3500,,,,,,,VFR,,,,,,,,,,,,METAR,33.0
LTAZ 242150Z 14007KT 9999 FEW040 SCT080 12/08 Q1015 RMK RWY29 14005KT,LTAZ,2023-05-24T21:50:00Z,38.77,34.52,12.0,8.0,140,7,,6.21,29.970472,,,,,,,,,,,FEW,4000,SCT,8000,,,,,VFR,,,,,,,,,,,,SPECI,944.0
LTAY 242150Z 28001KT 7000 FEW003 SCT035 BKN100 12/12 Q1015 NOSIG,LTAY,2023-05-24T21:50:00Z,37.78,29.7,12.0,12.0,280,1,,4.35,29.970472,,,,,,TRUE,,,,,FEW,300,SCT,3500,BKN,10000,,,MVFR,,,,,,,,,,,,METAR,851.0
LTAW 242150Z 05004KT CAVOK 12/12 Q1015,LTAW,2023-05-24T21:50:00Z,40.3,36.37,12.0,12.0,50,4,,6.21,29.970472,,,,,,,,,,,CAVOK,,,,,,,,VFR,,,,,,,,,,,,METAR,561.0
LTAU 242150Z 00000KT CAVOK 08/06 Q1015 NOSIG RMK RWY07 32002KT,LTAU,2023-05-24T21:50:00Z,38.77,35.48,8.0,6.0,0,0,,6.21,29.970472,,,,,,TRUE,,,,,CAVOK,,,,,,,,VFR,,,,,,,,,,,,SPECI,1053.0
LTAT 242150Z 21003KT CAVOK 10/06 Q1016 NOSIG RMK RWY03 18004KT,LTAT,2023-05-24T21:50:00Z,38.43,38.08,10.0,6.0,210,3,,6.21,30.0,,,,,,TRUE,,,,,CAVOK,,,,,,,,VFR,,,,,,,,,,,,SPECI,850.0
LTAR 242150Z 13003KT 9999 FEW035 07/05 Q1018,LTAR,2023-05-24T21:50:00Z,39.8,36.9,7.0,5.0,130,3,,6.21,30.059055,,,,,,,,,,,FEW,3500,,,,,,,VFR,,,,,,,,,,,,METAR,1601.0
LTAP 242150Z VRB02KT 9999 SCT040 11/10 Q1014 NOSIG RMK RWY23 35005KT,LTAP,2023-05-24T21:50:00Z,40.83,35.52,11.0,10.0,0,2,,6.21,29.940945,,,,,,TRUE,,,,,SCT,4000,,,,,,,VFR,,,,,,,,,,,,SPECI,536.0
LTAN 242150Z 04004KT 360V060 9999 SCT040 12/11 Q1015 NOSIG,LTAN,2023-05-24T21:50:00Z,37.97,32.55,12.0,11.0,40,4,,6.21,29.970472,,,,,,TRUE,,,,,SCT,4000,,,,,,,VFR,,,,,,,,,,,,METAR,1029.0
LTAJ 242150Z VRB01KT CAVOK 18/08 Q1013 NOSIG RMK RWY10 00000KT 1AC100,LTAJ,2023-05-24T21:50:00Z,36.95,37.48,18.0,8.0,0,1,,6.21,29.911417,,,,,,TRUE,,,,,CAVOK,,,,,,,,VFR,,,,,,,,,,,,SPECI,684.0
LTAI 242150Z 34006KT 290V360 9999 SCT030 18/14 Q1012 NOSIG RMK RWY18C 33006KT 310V020 RWY36R 35006KT RWY18L 33004KT,LTAI,2023-05-24T21:50:00Z,36.9,30.8,18.0,14.0,340,6,,6.21,29.88189,,,,,,TRUE,,,,,SCT,3000,,,,,,,VFR,,,,,,,,,,,,METAR,50.0
LTAG 242150Z 04006KT 9999 FEW035 16/15 Q1010 NOSIG RMK 1CU035,LTAG,2023-05-24T21:50:00Z,37.0,35.42,16.0,15.0,40,6,,6.21,29.822834,,,,,,TRUE,,,,,FEW,3500,,,,,,,VFR,,,,,,,,,,,,SPECI,62.0
LTAF 242150Z 24004KT CAVOK 17/16 Q1010 NOSIG RMK RWY23 24005KT SKC,LTAF,2023-05-24T21:50:00Z,36.98,35.28,17.0,16.0,240,4,,6.21,29.822834,,,,,,TRUE,,,,,CAVOK,,,,,,,,VFR,,,,,,,,,,,,METAR,19.0
LTAE 242150Z 35004KT 300V020 CAVOK 09/08 Q1015 NOSIG RMK RWY21 03006KT,LTAE,2023-05-24T21:50:00Z,40.07,32.57,9.0,8.0,350,4,,6.21,29.970472,,,,,,TRUE,,,,,CAVOK,,,,,,,,VFR,,,,,,,,,,,,METAR,836.0
LTAC 242150Z 31005KT 9999 SCT040 11/10 Q1015 NOSIG RMK RWY21L 36003KT RWY03L 30003KT RWY21R 36003KT 330V030,LTAC,2023-05-24T21:50:00Z,40.12,32.98,11.0,10.0,310,5,,6.21,29.970472,,,,,,TRUE,,,,,SCT,4000,,,,,,,VFR,,,,,,,,,,,,SPECI,952.0
LGRX 242150Z 00000KT CAVOK 15/15 Q1014,LGRX,2023-05-24T21:50:00Z,38.17,21.42,15.0,15.0,0,0,,6.21,29.940945,,,,,,,,,,,CAVOK,,,,,,,,VFR,,,,,,,,,,,,METAR,16.0
LGPZ 242150Z 00000KT 9999 FEW035 17/17 Q1014,LGPZ,2023-05-24T21:50:00Z,38.92,20.77,17.0,17.0,0,0,,6.21,29.940945,,,,,,,,,,,FEW,3500,,,,,,,VFR,,,,,,,,,,,,METAR,3.0
LGLM 242150Z 00000KT 9999 FEW018 17/14 Q1012,LGLM,2023-05-24T21:50:00Z,39.92,25.23,17.0,14.0,0,0,,6.21,29.88189,,,,,,,,,,,FEW,1800,,,,,,,VFR,,,,,,,,,,,,METAR,4.0
LGHI 242150Z 17002KT CAVOK 15/12 Q1012,LGHI,2023-05-24T21:50:00Z,38.33,26.13,15.0,12.0,170,2,,6.21,29.88189,,,,,,,,,,,CAVOK,,,,,,,,VFR,,,,,,,,,,,,METAR,6.0
LGEL 242150Z 36004KT CAVOK 17/12 Q1014,LGEL,2023-05-24T21:50:00Z,38.07,23.55,17.0,12.0,360,4,,6.21,29.940945,,,,,,,,,,,CAVOK,,,,,,,,VFR,,,,,,,,,,,,METAR,21.0
LGBL 242150Z 00000KT 9999 FEW030 15/13 Q1014,LGBL,2023-05-24T21:50:00Z,39.22,22.8,15.0,13.0,0,0,,6.21,29.940945,,,,,,,,,,,FEW,3000,,,,,,,VFR,,,,,,,,,,,,METAR,13.0
LGAL 242150Z 00000KT 9999 FEW025 14/12 Q1013,LGAL,2023-05-24T21:50:00Z,40.85,25.95,14.0,12.0,0,0,,6.21,29.911417,,,,,,,,,,,FEW,2500,,,,,,,VFR,,,,,,,,,,,,METAR,5.0
LCRA 242150Z 06003KT 9999 SKC 19/17 Q1011 NOSIG,LCRA,2023-05-24T21:50:00Z,34.58,32.98,19.0,17.0,60,3,,6.21,29.852362,,,,,,TRUE,,,,,SKC,,,,,,,,VFR,,,,,,,,,,,,METAR,23.0
LCEN 242150Z 29009KT 9999 FEW025 18/16 Q1011 NOSIG RMK RWY11 29006KT,LCEN,2023-05-24T21:50:00Z,35.15,33.5,18.0,16.0,290,9,,6.21,29.852362,,,,,,TRUE,,,,,FEW,2500,,,,,,,VFR,,,,,,,,,,,,METAR,91.0
KWHP 242150Z 13006KT 7SM BR OVC021 18/11 A2997 RMK OBSERVER PT.,KWHP,2023-05-24T21:50:00Z,34.25,-118.42,18.0,11.0,130,6,,7.0,29.970472,,,,,,,,,,BR,OVC,2100,,,,,,,MVFR,,,,,,,,,,,,METAR,302.0
KVQQ 242150Z 04010KT 10SM SCT031 25/18 A2988,KVQQ,2023-05-24T21:50:00Z,30.22,-81.88,25.0,18.0,40,10,,10.0,29.878937,,,,,,,,,,,SCT,3100,,,,,,,VFR,,,,,,,,,,,,METAR,21.0
KTRK 242150Z 25014G20KT 10SM BKN080TCU 19/04 A2995 RMK TCU DSNT N THROUGH E,KTRK,2023-05-24T21:50:00Z,39.32,-120.13,19.0,4.0,250,14,20,10.0,29.949802,,,,,,,,,,,BKN,8000,,,,,,,VFR,,,,,,,,,,,,METAR,1800.0
KRYY 242150Z VRB05KT 10SM SCT050 26/12 A2997 RMK AO2 SLP138 T02560122 $,KRYY,2023-05-24T21:50:00Z,34.02,-84.6,25.6,12.2,0,5,,10.0,29.970472,1013.8,,,TRUE,TRUE,,,,,,SCT,5000,,,,,,,VFR,,,,,,,,,,,,METAR,306.0
KOQU 242150Z 18017KT 10SM FEW075 17/09 A2993,KOQU,2023-05-24T21:50:00Z,41.6,-71.42,17.0,9.0,180,17,,10.0,29.929134,,,,,,,,,,,FEW,7500,,,,,,,VFR,,,,,,,,,,,,METAR,6.0
KOMN 242150Z 04010KT 7SM SCT015 24/21 A2984,KOMN,2023-05-24T21:50:00Z,29.3,-81.12,24.0,21.0,40,10,,7.0,29.840551,,,,,,,,,,,SCT,1500,,,,,,,VFR,,,,,,,,,,,,METAR,7.0
KOLV 242150Z 05008KT 10SM FEW050 FEW120 28/15 A2998,KOLV,2023-05-24T21:50:00Z,34.98,-89.78,28.0,15.0,50,8,,10.0,29.97933,,,,,,,,,,,FEW,5000,FEW,12000,,,,,VFR,,,,,,,,,,,,METAR,124.0
KNQA 242150Z 05008KT 10SM CLR 28/16 A2998,KNQA,2023-05-24T21:50:00Z,35.35,-89.87,28.0,16.0,50,8,,10.0,29.97933,,,,,,,,,,,CLR,,,,,,,,VFR,,,,,,,,,,,,METAR,90.0
KLWB 242150Z 34006KT 10SM CLR 23/08 A3003,KLWB,2023-05-24T21:50:00Z,37.87,-80.4,23.0,8.0,340,6,,10.0,30.029528,,,,,,,,,,,CLR,,,,,,,,VFR,,,,,,,,,,,,METAR,702.0
KJWN 242150Z 05008G15KT 10SM HZ CLR 28/14 A2996,KJWN,2023-05-24T21:50:00Z,36.18,-86.88,28.0,14.0,50,8,15,10.0,29.958662,,,,,,,,,,HZ,CLR,,,,,,,,VFR,,,,,,,,,,,,METAR,149.0
KJQF 242150Z 06005KT 10SM CLR 24/03 A3001,KJQF,2023-05-24T21:50:00Z,35.38,-80.72,24.0,3.0,60,5,,10.0,30.008858,,,,,,,,,,,CLR,,,,,,,,VFR,,,,,,,,,,,,METAR,204.0
KHXD 242150Z 10007KT 10SM CLR 24/17 A2991,KHXD,2023-05-24T21:50:00Z,32.22,-80.7,24.0,17.0,100,7,,10.0,29.911417,,,,,,,,,,,CLR,,,,,,,,VFR,,,,,,,,,,,,METAR,5.0
KHSA 242150Z 35005KT 10SM SCT030 SCT042 26/19 A2987,KHSA,2023-05-24T21:50:00Z,30.37,-89.45,26.0,19.0,350,5,,10.0,29.870079,,,,,,,,,,,SCT,3000,SCT,4200,,,,,VFR,,,,,,,,,,,,METAR,6.0
KHQZ 242150Z 05006KT 10SM CLR 31/15 A2994,KHQZ,2023-05-24T21:50:00Z,32.75,-96.53,31.0,15.0,50,6,,10.0,29.940945,,,,,,,,,,,CLR,,,,,,,,VFR,,,,,,,,,,,,METAR,136.0
KHOB 242150Z 13010G16KT 090V150 10SM FEW050 30/14 A2995,KHOB,2023-05-24T21:50:00Z,32.67,-103.22,30.0,14.0,130,10,16,10.0,29.949802,,,,,,,,,,,FEW,5000,,,,,,,VFR,,,,,,,,,,,,METAR,1112.0
KHAI 242150Z AUTO 04014G22KT 360V060 10SM CLR 21/02 A3018 RMK AO2,KHAI,2023-05-24T21:50:00Z,41.97,-85.6,21.0,2.0,40,14,22,10.0,30.180119,,,TRUE,TRUE,,,,,,,CLR,,,,,,,,VFR,,,,,,,,,,,,METAR,250.0
KGYI 242150Z 09004KT 10SM SCT047 30/15 A2997,KGYI,2023-05-24T21:50:00Z,33.72,-96.67,30.0,15.0,90,4,,10.0,29.970472,,,,,,,,,,,SCT,4700,,,,,,,VFR,,,,,,,,,,,,METAR,227.0
KGPM 242150Z 06008KT 10SM SCT050 29/16 A2994,KGPM,2023-05-24T21:50:00Z,32.7,-97.05,29.0,16.0,60,8,,10.0,29.940945,,,,,,,,,,,SCT,5000,,,,,,,VFR,,,,,,,,,,,,METAR,178.0
KFWS 242150Z 05005KT 10SM SCT050 30/17 A2994,KFWS,2023-05-24T21:50:00Z,32.57,-97.3,30.0,17.0,50,5,,10.0,29.940945,,,,,,,,,,,SCT,5000,,,,,,,VFR,,,,,,,,,,,,METAR,211.0
KFIN 242150Z 03010G20KT 10SM SCT018 BKN031 24/21 A2985,KFIN,2023-05-24T21:50:00Z,29.47,-81.2,24.0,21.0,30,10,20,10.0,29.84941,,,,,,,,,,,SCT,1800,BKN,3100,,,,,VFR,,,,,,,,,,,,METAR,10.0
KEVB 242150Z 12006KT 4SM SCT021 23/22 A2983,KEVB,2023-05-24T21:50:00Z,29.05,-80.95,23.0,22.0,120,6,,4.0,29.828741,,,,,,,,,,,SCT,2100,,,,,,,MVFR,,,,,,,,,,,,METAR,2.0
KDPG 242150Z 19004KT 20SM SCT070 BKN100 BKN220 23/11 A2989 RMK VIRGA DSNT SW SLP078 T02320112,KDPG,2023-05-24T21:50:00Z,40.2,-112.93,23.2,11.2,190,4,,20.0,29.890747,1007.8,,,,,,,,,,SCT,7000,BKN,10000,BKN,22000,,,VFR,,,,,,,,,,,,SPECI,1324.0
KDAG 242150Z AUTO 19008G16KT 10SM CLR 33/M03 A2975 RMK AO2 SLP049 T03281033,KDAG,2023-05-24T21:50:00Z,34.85,-116.78,32.8,-3.3,190,8,16,10.0,29.749016,1004.9,,TRUE,TRUE,,,,,,,CLR,,,,,,,,VFR,,,,,,,,,,,,METAR,584.0
KANE 242150Z 09012G20KT 10SM SCT200 23/11 A3019,KANE,2023-05-24T21:50:00Z,45.15,-93.22,23.0,11.0,90,12,20,10.0,30.188976,,,,,,,,,,,SCT,20000,,,,,,,VFR,,,,,,,,,,,,METAR,276.0
KALN 242150Z 08003KT 10SM CLR 29/09 A3004,KALN,2023-05-24T21:50:00Z,38.88,-90.03,29.0,9.0,80,3,,10.0,30.041338,,,,,,,,,,,CLR,,,,,,,,VFR,,,,,,,,,,,,METAR,159.0
KADM 242150Z 10010KT 10SM SCT055 29/16 A2995,KADM,2023-05-24T21:50:00Z,34.3,-97.02,29.0,16.0,100,10,,10.0,29.949802,,,,,,,,,,,SCT,5500,,,,,,,VFR,,,,,,,,,,,,METAR,223.0
FHAW 242150Z 13015KT 9999 FEW020 SCT040 26/21 Q1013 TEMPO SCT020,FHAW,2023-05-24T21:50:00Z,-7.97,-14.4,26.0,21.0,130,15,,6.21,29.911417,,,,,,,,,,,FEW,2000,SCT,4000,,,,,VFR,,,,,,,,,,,,METAR,79.0
EYSA 242150Z 00000KT CAVOK 13/09 Q1018 NOSIG,EYSA,2023-05-24T21:50:00Z,55.9,23.4,13.0,9.0,0,0,,6.21,30.059055,,,,,,TRUE,,,,,CAVOK,,,,,,,,VFR,,,,,,,,,,,,METAR,135.0
ETNG 242150Z 00000KT 9999 SCT038 10/07 Q1024,ETNG,2023-05-24T21:50:00Z,50.97,6.03,10.0,7.0,0,0,,6.21,30.236221,,,,,,,,,,,SCT,3800,,,,,,,VFR,,,,,,,,,,,,METAR,76.0
ENST 242150Z 24018G29KT 9999 -SHRA FEW018CB SCT024 BKN033 06/03 Q1006 RMK WIND 300FT 25019G32KT,ENST,2023-05-24T21:50:00Z,65.97,12.47,6.0,3.0,240,18,29,6.21,29.704725,,,,,,,,,,-SHRA,FEW,1800,SCT,2400,BKN,3300,,,VFR,,,,,,,,,,,,METAR,17.0
EGYP 242150Z 01023KT CAVOK 07/04 Q0990,EGYP,2023-05-24T21:50:00Z,-51.82,-58.45,7.0,4.0,10,23,,6.21,29.232283,,,,,,,,,,,CAVOK,,,,,,,,VFR,,,,,,,,,,,,METAR,70.0
EGYM 242150Z AUTO 02004KT 9999 NCD 10/07 Q1027,EGYM,2023-05-24T21:50:00Z,52.63,0.57,10.0,7.0,20,4,,6.21,30.324802,,,TRUE,,,,,,,,CLR,,,,,,,,VFR,,,,,,,,,,,,METAR,25.0
EGYH 242150Z AUTO 05007KT 9999 FEW047/// 10/09 Q1027,EGYH,2023-05-24T21:50:00Z,52.87,0.15,10.0,9.0,50,7,,6.21,30.324802,,,TRUE,,,,,,,,FEW,4700,,,,,,,VFR,,,,,,,,,,,,METAR,5.0
EGYE 242150Z AUTO 15002KT //// ///////// ///// Q////,EGYE,2023-05-24T21:50:00Z,52.97,-0.57,,,150,2,,,,,,TRUE,,,,,,,,,,,,,,,,,,,,,,,,,,,,METAR,105.0
EGYD 242150Z AUTO 04001KT 9999 OVC042/// 12/09 Q1027,EGYD,2023-05-24T21:50:00Z,53.03,-0.5,12.0,9.0,40,1,,6.21,30.324802,,,TRUE,,,,,,,,OVC,4200,,,,,,,VFR,,,,,,,,,,,,METAR,65.0
EGXZ 242150Z AUTO 33005KT 9999 OVC035/// 14/08 Q1028,EGXZ,2023-05-24T21:50:00Z,54.2,-1.38,14.0,8.0,330,5,,6.21,30.35433,,,TRUE,,,,,,,,OVC,3500,,,,,,,VFR,,,,,,,,,,,,METAR,24.0
EGXV 242150Z AUTO 02003KT 9999 OVC038/// 13/09 Q1027,EGXV,2023-05-24T21:50:00Z,53.87,-0.45,13.0,9.0,20,3,,6.21,30.324802,,,TRUE,,,,,,,,OVC,3800,,,,,,,VFR,,,,,,,,,,,,METAR,6.0
EGXT 242150Z AUTO 02006KT 9999 NCD 12/08 Q1027,EGXT,2023-05-24T21:50:00Z,52.62,-0.47,12.0,8.0,20,6,,6.21,30.324802,,,TRUE,,,,,,,,CLR,,,,,,,,VFR,,,,,,,,,,,,METAR,74.0
EGXS 242150Z AUTO 29002KT 9999 FEW038/// OVC046/// 12/10 Q1027,EGXS,2023-05-24T21:50:00Z,53.48,0.15,12.0,10.0,290,2,,6.21,30.324802,,,TRUE,,,,,,,,FEW,3800,OVC,4600,,,,,VFR,,,,,,,,,,,,METAR,6.0
EGXE 242150Z AUTO 33004KT 9999 OVC037/// 13/08 Q1028,EGXE,2023-05-24T21:50:00Z,54.28,-1.52,13.0,8.0,330,4,,6.21,30.35433,,,TRUE,,,,,,,,OVC,3700,,,,,,,VFR,,,,,,,,,,,,METAR,30.0
EGXC 242150Z 36003KT 9999 SCT046 13/10 Q1027 RMK BLU,EGXC,2023-05-24T21:50:00Z,53.1,-0.17,13.0,10.0,360,3,,6.21,30.324802,,,,,,,,,,,SCT,4600,,,,,,,VFR,,,,,,,,,,,,SPECI,9.0
EGWC 242150Z AUTO 33007KT //// ///////// ///// Q////,EGWC,2023-05-24T21:50:00Z,52.63,-2.3,,,330,7,,,,,,TRUE,,,,,,,,,,,,,,,,,,,,,,,,,,,,SPECI,79.0
EGVP 242150Z 35007KT CAVOK 14/09 Q1026 NOSIG RMK BLU BLU,EGVP,2023-05-24T21:50:00Z,51.13,-1.57,14.0,9.0,350,7,,6.21,30.295275,,,,,,TRUE,,,,,CAVOK,,,,,,,,VFR,,,,,,,,,,,,SPECI,80.0
EGVO 242150Z 30003KT 9999 SKC 14/08 Q1026 NOSIG RMK BLU BLU,EGVO,2023-05-24T21:50:00Z,51.23,-0.95,14.0,8.0,300,3,,6.21,30.295275,,,,,,TRUE,,,,,SKC,,,,,,,,VFR,,,,,,,,,,,,SPECI,118.0
EGVN 242150Z 34009KT CAVOK 13/08 Q1027 NOSIG RMK BLU BLU,EGVN,2023-05-24T21:50:00Z,51.77,-1.58,13.0,8.0,340,9,,6.21,30.324802,,,,,,TRUE,,,,,CAVOK,,,,,,,,VFR,,,,,,,,,,,,SPECI,83.0
EGUW 242150Z 10004KT 9999 FEW045 11/07 Q1026 BECMG 7000 HZ RMK BLU BECMG WHT,EGUW,2023-05-24T21:50:00Z,52.12,0.97,11.0,7.0,100,4,,6.21,30.295275,,,,,,,,,,,FEW,4500,,,,,,,VFR,,,,,,,,,,,,SPECI,86.0
EGUB 242150Z 03007KT CAVOK 12/09 Q1026 NOSIG RMK BLU BLU,EGUB,2023-05-24T21:50:00Z,51.62,-1.08,12.0,9.0,30,7,,6.21,30.295275,,,,,,TRUE,,,,,CAVOK,,,,,,,,VFR,,,,,,,,,,,,SPECI,56.0
EGQS 242150Z 32007KT 9999 FEW030 10/06 Q1029 NOSIG RMK BLU BLU,EGQS,2023-05-24T21:50:00Z,57.72,-3.32,10.0,6.0,320,7,,6.21,30.383858,,,,,,TRUE,,,,,FEW,3000,,,,,,,VFR,,,,,,,,,,,,METAR,6.0
EGQM 242150Z AUTO 24005KT 9999 NCD 10/08 Q1028,EGQM,2023-05-24T21:50:00Z,55.42,-1.6,10.0,8.0,240,5,,6.21,30.35433,,,TRUE,,,,,,,,CLR,,,,,,,,VFR,,,,,,,,,,,,METAR,24.0
EGQL 242150Z 04009KT CAVOK 11/08 Q1028 RMK BLU,EGQL,2023-05-24T21:50:00Z,56.38,-2.87,11.0,8.0,40,9,,6.21,30.35433,,,,,,,,,,,CAVOK,,,,,,,,VFR,,,,,,,,,,,,METAR,11.0
EGQK 242150Z AUTO 30007KT 9999 NCD 09/06 Q1029,EGQK,2023-05-24T21:50:00Z,57.65,-3.57,9.0,6.0,300,7,,6.21,30.383858,,,TRUE,,,,,,,,CLR,,,,,,,,VFR,,,,,,,,,,,,METAR,5.0
EGQA 242150Z AUTO 19004KT 9999 FEW027/// 09/04 Q1029,EGQA,2023-05-24T21:50:00Z,57.83,-3.95,9.0,4.0,190,4,,6.21,30.383858,,,TRUE,,,,,,,,FEW,2700,,,,,,,VFR,,,,,,,,,,,,METAR,4.0
EGPD 242150Z AUTO VRB01KT 9999 BKN039 09/07 Q1029 NOSIG,EGPD,2023-05-24T21:50:00Z,57.2,-2.22,9.0,7.0,0,1,,6.21,30.383858,,,TRUE,,,TRUE,,,,,BKN,3900,,,,,,,VFR,,,,,,,,,,,,METAR,65.0
EGOV 242150Z AUTO 33010KT 9999 BKN026/// 12/10 Q1030,EGOV,2023-05-24T21:50:00Z,53.25,-4.53,12.0,10.0,330,10,,6.21,30.413385,,,TRUE,,,,,,,,BKN,2600,,,,,,,MVFR,,,,,,,,,,,,METAR,11.0
EGOS 242150Z AUTO 32006KT 9999 NCD 11/09 Q1028,EGOS,2023-05-24T21:50:00Z,52.8,-2.67,11.0,9.0,320,6,,6.21,30.35433,,,TRUE,,,,,,,,CLR,,,,,,,,VFR,,,,,,,,,,,,METAR,76.0
EGOP 242150Z AUTO 05006KT 9999 NCD 12/09 Q1028,EGOP,2023-05-24T21:50:00Z,51.72,-4.37,12.0,9.0,50,6,,6.21,30.35433,,,TRUE,,,,,,,,CLR,,,,,,,,VFR,,,,,,,,,,,,METAR,8.0
EGOM 242150Z 26007KT 9999 FEW038 10/07 Q1027 RMK BLU,EGOM,2023-05-24T21:50:00Z,55.05,-2.55,10.0,7.0,260,7,,6.21,30.324802,,,,,,,,,,,FEW,3800,,,,,,,VFR,,,,,,,,,,,,SPECI,286.0
EGNS 242150Z 31008KT 280V360 CAVOK 12/07 Q1029,EGNS,2023-05-24T21:50:00Z,54.08,-4.63,12.0,7.0,310,8,,6.21,30.383858,,,,,,,,,,,CAVOK,,,,,,,,VFR,,,,,,,,,,,,METAR,18.0
EGKK 242150Z 07007KT CAVOK 12/09 Q1026,EGKK,2023-05-24T21:50:00Z,51.13,-0.18,12.0,9.0,70,7,,6.21,30.295275,,,,,,,,,,,CAVOK,,,,,,,,VFR,,,,,,,,,,,,METAR,58.0
EGJB 242150Z 33005KT CAVOK 12/11 Q1025,EGJB,2023-05-24T21:50:00Z,49.42,-2.6,12.0,11.0,330,5,,6.21,30.265747,,,,,,,,,,,CAVOK,,,,,,,,VFR,,,,,,,,,,,,METAR,102.0
EGDY 242150Z 01008KT 9999 SKC 14/08 Q1026 NOSIG RMK BLU BLU,EGDY,2023-05-24T21:50:00Z,51.0,-2.63,14.0,8.0,10,8,,6.21,30.295275,,,,,,TRUE,,,,,SKC,,,,,,,,VFR,,,,,,,,,,,,METAR,21.0
EGDR 242150Z 35013KT CAVOK 12/10 Q1026 NOSIG RMK BLU BLU,EGDR,2023-05-24T21:50:00Z,50.08,-5.25,12.0,10.0,350,13,,6.21,30.295275,,,,,,TRUE,,,,,CAVOK,,,,,,,,VFR,,,,,,,,,,,,METAR,74.0
EGDM 242150Z AUTO 35009KT 9999 NCD 13/09 Q1026,EGDM,2023-05-24T21:50:00Z,51.17,-1.75,13.0,9.0,350,9,,6.21,30.295275,,,TRUE,,,,,,,,CLR,,,,,,,,VFR,,,,,,,,,,,,METAR,122.0
EEEI 242150Z AUTO VRB01KT CAVOK 10/08 Q1016,EEEI,2023-05-24T21:50:00Z,59.27,24.2,10.0,8.0,0,1,,6.21,30.0,,,TRUE,,,,,,,,CAVOK,,,,,,,,VFR,,,,,,,,,,,,METAR,19.0
BGSF 242150Z AUTO 04010KT 9999NDV NCD 06/M13 Q1013,BGSF,2023-05-24T21:50:00Z,67.0,-50.72,6.0,-13.0,40,10,,,29.911417,,,TRUE,,,,,,,,CLR,,,,,,,,,,,,,,,,,,,,SPECI,75.0
BGKK 242150Z 09008KT 9999 SCT060 02/M05 Q1002,BGKK,2023-05-24T21:50:00Z,65.57,-37.13,2.0,-5.0,90,8,,6.21,29.586615,,,,,,,,,,,SCT,6000,,,,,,,VFR,,,,,,,,,,,,METAR,37.0
BGJN 242150Z 12004KT 080V190 9999 BKN085 02/M07 Q1015,BGJN,2023-05-24T21:50:00Z,69.25,-51.07,2.0,-7.0,120,4,,6.21,29.970472,,,,,,,,,,,BKN,8500,,,,,,,VFR,,,,,,,,,,,,METAR,22.0
BGGH 242150Z 20013KT 9999 -SHSN FEW007 BKN014 02/M01 Q1014,BGGH,2023-05-24T21:50:00Z,64.2,-51.68,2.0,-1.0,200,13,,6.21,29.940945,,,,,,,,,,-SHSN,FEW,700,BKN,1400,,,,,MVFR,,,,,,,,,,,,METAR,76.0
BGBW 242150Z AUTO 24002KT 9000NDV -RASN FEW001/// BKN014/// BKN018/// 01/00 Q1018,BGBW,2023-05-24T21:50:00Z,61.17,-45.42,1.0,0.0,240,2,,,30.059055,,,TRUE,,,,,,,SN -RA,FEW,100,BKN,1400,BKN,1800,,,,,,,,,,,,,,,SPECI,49.0
MMZH 242149Z 22010KT 7SM SKC 33/24 A2978 RMK HZY MDT CU ALQDS,MMZH,2023-05-24T21:49:00Z,17.6,-101.47,33.0,24.0,220,10,,7.0,29.778543,,,,,,,,,,,SKC,,,,,,,,VFR,,,,,,,,,,,,METAR,9.0
MMGL 242149Z 32010KT 8SM FEW300 32/M03 A3003 RMK 8/001,MMGL,2023-05-24T21:49:00Z,20.52,-103.32,32.0,-3.0,320,10,,8.0,30.029528,,,,,,,,,,,FEW,30000,,,,,,,VFR,,,,,,,,,,,,METAR,1531.0
MMCT 242149Z 00000KT 8SM BKN020TCU 34/20 A2970 RMK 8/200 CI,MMCT,2023-05-24T21:49:00Z,20.63,-88.45,34.0,20.0,0,0,,8.0,29.698818,,,,,,,,,,,BKN,2000,,,,,,,MVFR,,,,,,,,,,,,SPECI,29.0
MMCS 242149Z 17009KT 10SM SKC 33/M03 A2994,MMCS,2023-05-24T21:49:00Z,31.63,-106.42,33.0,-3.0,170,9,,10.0,29.940945,,,,,,,,,,,SKC,,,,,,,,VFR,,,,,,,,,,,,METAR,1194.0
KSQL 242149Z 01010KT 10SM CLR 18/12 A2990,KSQL,2023-05-24T21:49:00Z,37.52,-122.25,18.0,12.0,10,10,,10.0,29.899607,,,,,,,,,,,CLR,,,,,,,,VFR,,,,,,,,,,,,METAR,1.0
MMVR 242148Z 07013KT 6SM BKN250 30/24 A2979 RMK 8/008 HZY,MMVR,2023-05-24T21:48:00Z,19.15,-96.18,30.0,24.0,70,13,,6.0,29.790354,,,,,,,,,,,BKN,25000,,,,,,,VFR,,,,,,,,,,,,METAR,26.0
MMTO 242148Z 28007KT 7SM SCT020TCU BKN080 BKN200 24/06 A3025 RMK 8/239 HZY,MMTO,2023-05-24T21:48:00Z,19.35,-99.57,24.0,6.0,280,7,,7.0,30.250984,,,,,,,,,,,SCT,2000,BKN,8000,BKN,20000,,,VFR,,,,,,,,,,,,METAR,2582.0
MMSL 242148Z 19004KT 10SM BKN260 32/10 A2986 RMK 8/008,MMSL,2023-05-24T21:48:00Z,22.95,-109.93,32.0,10.0,190,4,,10.0,29.861221,,,,,,,,,,,BKN,26000,,,,,,,VFR,,,,,,,,,,,,METAR,205.0
MMIO 242148Z 36015KT 10SM BKN200 27/12 A3010 RMK 8/008 CU,MMIO,2023-05-24T21:48:00Z,25.55,-100.93,27.0,12.0,360,15,,10.0,30.100393,,,,,,,,,,,BKN,20000,,,,,,,VFR,,,,,,,,,,,,METAR,1430.0
KRPX 242148Z AUTO 10SM 24/13 A2978 RMK Roundup ,KRPX,2023-05-24T21:48:00Z,46.47,-108.55,24.0,13.0,,,,10.0,29.778543,,,TRUE,,,,,,,,,,,,,,,,,,,,,,,,,,,,METAR,1062.0
KJDN 242148Z AUTO 28008KT 28/15 A2977 RMK AO1 SLP066 T02780150,KJDN,2023-05-24T21:48:00Z,47.33,-106.95,27.8,15.0,280,8,,,29.769686,1006.6,,TRUE,TRUE,,,,,,,,,,,,,,,,,,,,,,,,,,,METAR,802.0
KASG 242148Z 09006KT 10SM FEW080 SCT100 27/17 A3004,KASG,2023-05-24T21:48:00Z,36.17,-94.12,27.0,17.0,90,6,,10.0,30.041338,,,,,,,,,,,FEW,8000,SCT,10000,,,,,VFR,,,,,,,,,,,,METAR,410.0
KAEG 242148Z 21010G17KT 10SM CLR 28/M06 A3002,KAEG,2023-05-24T21:48:00Z,35.13,-106.8,28.0,-6.0,210,10,17,10.0,30.02067,,,,,,,,,,,CLR,,,,,,,,VFR,,,,,,,,,,,,METAR,1771.0
MMCB 242147Z 36005KT 5SM SCT030CB BKN090 30/15 A2995 RMK 8/960 SC N HZY,MMCB,2023-05-24T21:47:00Z,18.83,-99.27,30.0,15.0,360,5,,5.0,29.949802,,,,,,,,,,,SCT,3000,BKN,9000,,,,,MVFR,,,,,,,,,,,,METAR,1281.0
MMAA 242147Z 27008G18KT 5SM SCT100 OVC300 31/24 A2974 RMK 8/032 HZY BINOVC,MMAA,2023-05-24T21:47:00Z,16.75,-99.75,31.0,24.0,270,8,18,5.0,29.740158,,,,,,,,,,,SCT,10000,OVC,30000,,,,,MVFR,,,,,,,,,,,,METAR,5.0
KTOA 242147Z 30004KT 10SM BKN023 BKN038 19/11 A2995,KTOA,2023-05-24T21:47:00Z,33.8,-118.33,19.0,11.0,300,4,,10.0,29.949802,,,,,,,,,,,BKN,2300,BKN,3800,,,,,MVFR,,,,,,,,,,,,METAR,30.0
KSUA 242147Z 05010G18KT 7SM VCTS SCT008 SCT014 BKN023 25/21 A2982,KSUA,2023-05-24T21:47:00Z,27.18,-80.22,25.0,21.0,50,10,18,7.0,29.819881,,,,,,,,,,VCTS,SCT,800,SCT,1400,BKN,2300,,,MVFR,,,,,,,,,,,,METAR,4.0
KSEE 242147Z 22007KT 10SM OVC025 18/11 A2995,KSEE,2023-05-24T21:47:00Z,32.82,-116.97,18.0,11.0,220,7,,10.0,29.949802,,,,,,,,,,,OVC,2500,,,,,,,MVFR,,,,,,,,,,,,METAR,113.0
KRHV 242147Z 14009KT 10SM SKC 20/08 A2990,KRHV,2023-05-24T21:47:00Z,37.33,-121.82,20.0,8.0,140,9,,10.0,29.899607,,,,,,,,,,,SKC,,,,,,,,VFR,,,,,,,,,,,,METAR,37.0
KPOC 242147Z 24009KT 8SM FEW025 21/13 A2994,KPOC,2023-05-24T21:47:00Z,34.1,-117.77,21.0,13.0,240,9,,8.0,29.940945,,,,,,,,,,,FEW,2500,,,,,,,VFR,,,,,,,,,,,,METAR,304.0
KPAO 242147Z 35011KT 10SM SKC 18/11 A2989,KPAO,2023-05-24T21:47:00Z,37.47,-122.12,18.0,11.0,350,11,,10.0,29.890747,,,,,,,,,,,SKC,,,,,,,,VFR,,,,,,,,,,,,METAR,2.0
KLBE 242147Z 30007KT 10SM FEW050 24/11 A3001,KLBE,2023-05-24T21:47:00Z,40.27,-79.4,24.0,11.0,300,7,,10.0,30.008858,,,,,,,,,,,FEW,5000,,,,,,,VFR,,,,,,,,,,,,METAR,345.0
KGYR 242147Z 26009KT 10SM SKC 36/03 A2976,KGYR,2023-05-24T21:47:00Z,33.42,-112.37,36.0,3.0,260,9,,10.0,29.760826,,,,,,,,,,,SKC,,,,,,,,VFR,,,,,,,,,,,,METAR,292.0
KGYH 242147Z 09009KT 10SM CLR 24/07 A2997,KGYH,2023-05-24T21:47:00Z,34.75,-82.38,24.0,7.0,90,9,,10.0,29.970472,,,,,,,,,,,CLR,,,,,,,,VFR,,,,,,,,,,,,METAR,283.0
KFDK 242147Z 00000KT 7SM CLR 28/07 A2997,KFDK,2023-05-24T21:47:00Z,39.42,-77.37,28.0,7.0,0,0,,7.0,29.970472,,,,,,,,,,,CLR,,,,,,,,VFR,,,,,,,,,,,,METAR,82.0
KCWA 242147Z 10007KT 10SM OVC075 16/02 A3030,KCWA,2023-05-24T21:47:00Z,44.78,-89.67,16.0,2.0,100,7,,10.0,30.301182,,,,,,,,,,,OVC,7500,,,,,,,VFR,,,,,,,,,,,,METAR,387.0
KCQT 242147Z AUTO 00000KT 10SM BKN028 OVC037 19/12 A2994 RMK AO2 SLP139 T01890117,KCQT,2023-05-24T21:47:00Z,34.02,-118.28,18.9,11.7,0,0,,10.0,29.940945,1013.9,,TRUE,TRUE,,,,,,,BKN,2800,OVC,3700,,,,,MVFR,,,,,,,,,,,,METAR,51.0
KCIC 242147Z 15010G15KT 10SM CLR 25/11 A2982,KCIC,2023-05-24T21:47:00Z,39.78,-121.85,25.0,11.0,150,10,15,10.0,29.819881,,,,,,,,,,,CLR,,,,,,,,VFR,,,,,,,,,,,,METAR,72.0
KCHD 242147Z 22012KT 10SM CLR 36/M02 A2977,KCHD,2023-05-24T21:47:00Z,33.27,-111.82,36.0,-2.0,220,12,,10.0,29.769686,,,,,,,,,,,CLR,,,,,,,,VFR,,,,,,,,,,,,METAR,378.0
KADS 242147Z 07008KT 10SM BKN060 29/14 A2994,KADS,2023-05-24T21:47:00Z,32.97,-96.83,29.0,14.0,70,8,,10.0,29.940945,,,,,,,,,,,BKN,6000,,,,,,,VFR,,,,,,,,,,,,METAR,198.0
MMCL 242146Z 28011KT 10SM FEW080 BKN230 37/13 A2977 RMK 8/038,MMCL,2023-05-24T21:46:00Z,24.77,-107.47,37.0,13.0,280,11,,10.0,29.769686,,,,,,,,,,,FEW,8000,BKN,23000,,,,,VFR,,,,,,,,,,,,METAR,35.0
KBJC 242146Z 31008KT 10SM SCT035 BKN110 18/08 A3004 RMK TSE46,KBJC,2023-05-24T21:46:00Z,39.9,-105.1,18.0,8.0,310,8,,10.0,30.041338,,,,,,,,,,,SCT,3500,BKN,11000,,,,,VFR,,,,,,,,,,,,METAR,1694.0
TJIG 242145Z 08008KT 10SM SCT025 SCT040 BKN070 29/24 A2983,TJIG,2023-05-24T21:45:00Z,18.45,-66.1,29.0,24.0,80,8,,10.0,29.828741,,,,,,,,,,,SCT,2500,SCT,4000,BKN,7000,,,VFR,,,,,,,,,,,,METAR,3.0
SBPB 242145Z 12005KT 9999 SCT020 BKN100 ///// Q1010,SBPB,2023-05-24T21:45:00Z,-2.88,-41.72,,,120,5,,6.21,29.822834,,,,,,,,,,,SCT,2000,BKN,10000,,,,,VFR,,,,,,,,,,,,SPECI,3.0
SBCJ 242145Z 10002KT CAVOK 25/21 Q1014,SBCJ,2023-05-24T21:45:00Z,-6.12,-50.0,25.0,21.0,100,2,,6.21,29.940945,,,,,,,,,,,CAVOK,,,,,,,,VFR,,,,,,,,,,,,METAR,634.0
PALP 242145Z 06012KT 10SM OVC008 M03/M06 A3031,PALP,2023-05-24T21:45:00Z,70.33,-150.93,-3.0,-6.0,60,12,,10.0,30.31004,,,,,,,,,,,OVC,800,,,,,,,IFR,,,,,,,,,,,,METAR,4.0
PAKU 242145Z 07015KT 10SM R06/P6000FT BKN011 M04/M06 A3028,PAKU,2023-05-24T21:45:00Z,70.32,-149.6,-4.0,-6.0,70,15,,10.0,30.280512,,,,,,,,,,,BKN,1100,,,,,,,MVFR,,,,,,,,,,,,METAR,23.0
MMVA 242145Z 35006KT 5SM SCT018 BKN080 33/23 A2978 RMK 8/110 HZY,MMVA,2023-05-24T21:45:00Z,18.0,-92.82,33.0,23.0,350,6,,5.0,29.778543,,,,,,,,,,,SCT,1800,BKN,8000,,,,,MVFR,,,,,,,,,,,,METAR,13.0
MMMX 242145Z 31006KT 8SM SCT020TCU BKN220 27/05 A3016 NOSIG RMK 8/208 HZY ISOL AC,MMMX,2023-05-24T21:45:00Z,19.43,-99.08,27.0,5.0,310,6,,8.0,30.159449,,,,,,TRUE,,,,,SCT,2000,BKN,22000,,,,,VFR,,,,,,,,,,,,METAR,2224.0
MMMV 242145Z 04006KT 10SM SCT060 SCT200 34/20 A2981 RMK 8/502,MMMV,2023-05-24T21:45:00Z,26.95,-101.47,34.0,20.0,40,6,,10.0,29.811024,,,,,,,,,,,SCT,6000,SCT,20000,,,,,VFR,,,,,,,,,,,,METAR,567.0
MMCE 242145Z 01012KT 7SM SKC 30/23 A2979 RMK HZY CU,MMCE,2023-05-24T21:45:00Z,18.65,-91.8,30.0,23.0,10,12,,7.0,29.790354,,,,,,,,,,,SKC,,,,,,,,VFR,,,,,,,,,,,,METAR,5.0
LHSM 242145Z AUTO 31004KT CAVOK 15/12 Q1018,LHSM,2023-05-24T21:45:00Z,46.68,17.17,15.0,12.0,310,4,,6.21,30.059055,,,TRUE,,,,,,,,CAVOK,,,,,,,,VFR,,,,,,,,,,,,METAR,119.0
LHPR 242145Z AUTO 30006KT CAVOK 13/11 Q1018,LHPR,2023-05-24T21:45:00Z,47.63,17.82,13.0,11.0,300,6,,6.21,30.059055,,,TRUE,,,,,,,,CAVOK,,,,,,,,VFR,,,,,,,,,,,,METAR,127.0
LHPP 242145Z AUTO 02006KT CAVOK 17/12 Q1017,LHPP,2023-05-24T21:45:00Z,45.98,18.23,17.0,12.0,20,6,,6.21,30.029528,,,TRUE,,,,,,,,CAVOK,,,,,,,,VFR,,,,,,,,,,,,METAR,193.0
LHPA 242145Z 00000KT CAVOK 13/12 Q1019 NOSIG RMK BLU,LHPA,2023-05-24T21:45:00Z,47.35,17.5,13.0,12.0,0,0,,6.21,30.088583,,,,,,TRUE,,,,,CAVOK,,,,,,,,VFR,,,,,,,,,,,,METAR,143.0
LHDC 242145Z AUTO 03009KT CAVOK 17/15 Q1016 NOSIG,LHDC,2023-05-24T21:45:00Z,47.48,21.62,17.0,15.0,30,9,,6.21,30.0,,,TRUE,,,TRUE,,,,,CAVOK,,,,,,,,VFR,,,,,,,,,,,,METAR,105.0
KWDG 242145Z 11008KT 10SM 27/16 A2999,KWDG,2023-05-24T21:45:00Z,36.37,-97.78,27.0,16.0,110,8,,10.0,29.991142,,,,,,,,,,,,,,,,,,,,,,,,,,,,,,,METAR,352.0
KUES 242145Z 04007G15KT 10SM CLR 16/06 A3026,KUES,2023-05-24T21:45:00Z,43.05,-88.25,16.0,6.0,40,7,15,10.0,30.259842,,,,,,,,,,,CLR,,,,,,,,VFR,,,,,,,,,,,,METAR,273.0
KTZR 242145Z 02014G21KT 10SM FEW080 SCT100 26/12 A3005,KTZR,2023-05-24T21:45:00Z,39.9,-83.13,26.0,12.0,20,14,21,10.0,30.050198,,,,,,,,,,,FEW,8000,SCT,10000,,,,,VFR,,,,,,,,,,,,METAR,275.0
KSWF 242145Z 06013G24KT 10SM SCT050 BKN070 19/13 A2995,KSWF,2023-05-24T21:45:00Z,41.5,-74.08,19.0,13.0,60,13,24,10.0,29.949802,,,,,,,,,,,SCT,5000,BKN,7000,,,,,VFR,,,,,,,,,,,,METAR,139.0
KSAW 242145Z 03014G19KT 10SM CLR 06/M04 A3040,KSAW,2023-05-24T21:45:00Z,46.35,-87.4,6.0,-4.0,30,14,19,10.0,30.398623,,,,,,,,,,,CLR,,,,,,,,VFR,,,,,,,,,,,,METAR,359.0
KOUN 242145Z 11005KT 10SM BKN048 BKN065 27/15 A2997,KOUN,2023-05-24T21:45:00Z,35.25,-97.47,27.0,15.0,110,5,,10.0,29.970472,,,,,,,,,,,BKN,4800,BKN,6500,,,,,VFR,,,,,,,,,,,,METAR,359.0
KMWC 242145Z 04014G21KT 10SM CLR 14/01 A3027,KMWC,2023-05-24T21:45:00Z,43.12,-88.03,14.0,1.0,40,14,21,10.0,30.268702,,,,,,,,,,,CLR,,,,,,,,VFR,,,,,,,,,,,,METAR,225.0
KMWA 242145Z 05006KT 20SM SCT080 28/13 A3002,KMWA,2023-05-24T21:45:00Z,37.77,-89.02,28.0,13.0,50,6,,20.0,30.02067,,,,,,,,,,,SCT,8000,,,,,,,VFR,,,,,,,,,,,,METAR,142.0
KMMU 242145Z 23008G14KT 10SM BKN080 BKN090 26/11 A2990,KMMU,2023-05-24T21:45:00Z,40.78,-74.42,26.0,11.0,230,8,14,10.0,29.899607,,,,,,,,,,,BKN,8000,BKN,9000,,,,,VFR,,,,,,,,,,,,METAR,55.0
KJVL 242145Z 09015KT 7SM BKN200 22/05 A3029,KJVL,2023-05-24T21:45:00Z,42.62,-89.05,22.0,5.0,90,15,,7.0,30.28937,,,,,,,,,,,BKN,20000,,,,,,,VFR,,,,,,,,,,,,METAR,244.0
KHUM 242145Z 02007KT 7SM BKN031 BKN038 28/21 A2987,KHUM,2023-05-24T21:45:00Z,29.57,-90.67,28.0,21.0,20,7,,7.0,29.870079,,,,,,,,,,,BKN,3100,BKN,3800,,,,,VFR,,,,,,,,,,,,METAR,1.0
KGYY 242145Z 33010KT 10SM CLR 13/10 A3020,KGYY,2023-05-24T21:45:00Z,41.62,-87.42,13.0,10.0,330,10,,10.0,30.200787,,,,,,,,,,,CLR,,,,,,,,VFR,,,,,,,,,,,,METAR,179.0
KEMT 242145Z 20008KT 10SM BKN028 BKN032 21/13 A2993,KEMT,2023-05-24T21:45:00Z,34.08,-118.03,21.0,13.0,200,8,,10.0,29.929134,,,,,,,,,,,BKN,2800,BKN,3200,,,,,MVFR,,,,,,,,,,,,METAR,84.0
KCGF 242145Z 05012KT 10SM CLR 18/09 A3014,KCGF,2023-05-24T21:45:00Z,41.57,-81.47,18.0,9.0,50,12,,10.0,30.138779,,,,,,,,,,,CLR,,,,,,,,VFR,,,,,,,,,,,,METAR,265.0
KBBG 242145Z 12006KT 10SM CLR 27/13 A3005,KBBG,2023-05-24T21:45:00Z,36.53,-93.2,27.0,13.0,120,6,,10.0,30.050198,,,,,,,,,,,CLR,,,,,,,,VFR,,,,,,,,,,,,METAR,403.0
KBAK 242145Z 01008KT 10SM CLR 28/04 A3003,KBAK,2023-05-24T21:45:00Z,39.27,-85.9,28.0,4.0,10,8,,10.0,30.029528,,,,,,,,,,,CLR,,,,,,,,VFR,,,,,,,,,,,,METAR,199.0
KATW 242145Z 06012KT 10SM SCT035 SCT080 16/M02 A3029,KATW,2023-05-24T21:45:00Z,44.27,-88.52,16.0,-2.0,60,12,,10.0,30.28937,,,,,,,,,,,SCT,3500,SCT,8000,,,,,VFR,,,,,,,,,,,,METAR,266.0
MMTJ 242144Z 24008KT 7SM OVC018 17/12 A2998 RMK 8/6// HZY,MMTJ,2023-05-24T21:44:00Z,32.53,-116.97,17.0,12.0,240,8,,7.0,29.97933,,,,,,,,,,,OVC,1800,,,,,,,MVFR,,,,,,,,,,,,METAR,150.0
MMSM 242144Z 34008KT 8SM SCT020 SCT200 27/08 A3016 RMK 8/202 HZY,MMSM,2023-05-24T21:44:00Z,19.75,-99.02,27.0,8.0,340,8,,8.0,30.159449,,,,,,,,,,,SCT,2000,SCT,20000,,,,,VFR,,,,,,,,,,,,METAR,2250.0
MMQT 242144Z 29010KT 8SM SCT025 29/06 A3013 RMK 8/100,MMQT,2023-05-24T21:44:00Z,20.62,-100.18,29.0,6.0,290,10,,8.0,30.129921,,,,,,,,,,,SCT,2500,,,,,,,VFR,,,,,,,,,,,,METAR,1909.0
MMPR 242144Z 19014KT 12SM FEW230 30/24 A2978 RMK 8/001,MMPR,2023-05-24T21:44:00Z,20.67,-105.25,30.0,24.0,190,14,,12.0,29.778543,,,,,,,,,,,FEW,23000,,,,,,,VFR,,,,,,,,,,,,METAR,6.0
MMPB 242144Z 20010KT 7SM SCT025CB SCT090 BKN230 19/13 A3019 RMK 8/963 HZY PCPN S,MMPB,2023-05-24T21:44:00Z,19.17,-98.37,19.0,13.0,200,10,,7.0,30.188976,,,,,,,,,,,SCT,2500,SCT,9000,BKN,23000,,,VFR,,,,,,,,,,,,METAR,2250.0
MMGM 242144Z 21010KT 10SM SKC 33/13 A2976,MMGM,2023-05-24T21:44:00Z,27.95,-110.92,33.0,13.0,210,10,,10.0,29.760826,,,,,,,,,,,SKC,,,,,,,,VFR,,,,,,,,,,,,METAR,13.0
MMPQ 242143Z 36008KT 6SM BKN040 33/24 A2966 RMK 8/400 HZY,MMPQ,2023-05-24T21:43:00Z,17.53,-92.02,33.0,24.0,360,8,,6.0,29.660433,,,,,,,,,,,BKN,4000,,,,,,,VFR,,,,,,,,,,,,METAR,48.0
MMLP 242143Z 36007KT 10SM FEW100 BKN200 34/03 A2984 RMK 8/038,MMLP,2023-05-24T21:43:00Z,24.07,-110.37,34.0,3.0,360,7,,10.0,29.840551,,,,,,,,,,,FEW,10000,BKN,20000,,,,,VFR,,,,,,,,,,,,METAR,16.0
MMLM 242143Z 23014KT 10SM SCT100 OVC220 32/06 A2983 RMK 8/017,MMLM,2023-05-24T21:43:00Z,25.68,-109.08,32.0,6.0,230,14,,10.0,29.828741,,,,,,,,,,,SCT,10000,OVC,22000,,,,,VFR,,,,,,,,,,,,METAR,6.0
MMIA 242143Z 25010KT 5SM FEW020TCU FEW180 29/18 A2985 RMK 8/208 HZY,MMIA,2023-05-24T21:43:00Z,19.27,-103.57,29.0,18.0,250,10,,5.0,29.84941,,,,,,,,,,,FEW,2000,FEW,18000,,,,,MVFR,,,,,,,,,,,,METAR,744.0
MMCP 242143Z 32010G20KT 7SM SKC 31/23 A2977 RMK DSNT CB SW,MMCP,2023-05-24T21:43:00Z,19.82,-90.5,31.0,23.0,320,10,20,7.0,29.769686,,,,,,,,,,,SKC,,,,,,,,VFR,,,,,,,,,,,,METAR,9.0
MMCN 242143Z 21014KT 10SM SCT200 35/M01 A2977 RMK 8/008 HZY,MMCN,2023-05-24T21:43:00Z,27.4,-109.83,35.0,-1.0,210,14,,10.0,29.769686,,,,,,,,,,,SCT,20000,,,,,,,VFR,,,,,,,,,,,,METAR,57.0
MMBT 242143Z 00000KT 8SM SCT020 BKN120 33/23 A2979 RMK 8/730,MMBT,2023-05-24T21:43:00Z,15.77,-96.27,33.0,23.0,0,0,,8.0,29.790354,,,,,,,,,,,SCT,2000,BKN,12000,,,,,VFR,,,,,,,,,,,,METAR,137.0
MMUN 242142Z 06005KT 7SM SCT015 30/23 A2975 RMK 8/100 AC,MMUN,2023-05-24T21:42:00Z,21.03,-86.85,30.0,23.0,60,5,,7.0,29.749016,,,,,,,,,,,SCT,1500,,,,,,,VFR,,,,,,,,,,,,METAR,13.0
MMTG 242142Z 32016KT 6SM SCT040CB 36/20 A2975 RMK 8/300 HZY,MMTG,2023-05-24T21:42:00Z,16.57,-93.03,36.0,20.0,320,16,,6.0,29.749016,,,,,,,,,,,SCT,4000,,,,,,,VFR,,,,,,,,,,,,METAR,463.0
MMPA 242142Z 09006KT 7SM SCT020 32/24 A2980 RMK 8/100,MMPA,2023-05-24T21:42:00Z,20.6,-97.47,32.0,24.0,90,6,,7.0,29.799213,,,,,,,,,,,SCT,2000,,,,,,,VFR,,,,,,,,,,,,METAR,153.0
MMDO 242142Z 00000KT 8SM FEW030 OVC200 30/M11 A3009 RMK 8/107,MMDO,2023-05-24T21:42:00Z,24.12,-104.52,30.0,-11.0,0,0,,8.0,30.088583,,,,,,,,,,,FEW,3000,OVC,20000,,,,,VFR,,,,,,,,,,,,METAR,1863.0
MMSD 242141Z 15013KT 10SM BKN250 32/10 A2986 RMK 8/008,MMSD,2023-05-24T21:41:00Z,23.15,-109.72,32.0,10.0,150,13,,10.0,29.861221,,,,,,,,,,,BKN,25000,,,,,,,VFR,,,,,,,,,,,,METAR,107.0
MMNL 242141Z 10012KT 10SM BKN045 36/18 A2982 RMK 8/100,MMNL,2023-05-24T21:41:00Z,27.43,-99.57,36.0,18.0,100,12,,10.0,29.819881,,,,,,,,,,,BKN,4500,,,,,,,VFR,,,,,,,,,,,,METAR,146.0
MMAS 242141Z 28005KT 10SM FEW200 29/M10 A3009 RMK 8/006,MMAS,2023-05-24T21:41:00Z,21.7,-102.32,29.0,-10.0,280,5,,10.0,30.088583,,,,,,,,,,,FEW,20000,,,,,,,VFR,,,,,,,,,,,,METAR,1866.0
MMZO 242140Z 27010KT 12SM SCT020 SCT250 30/24 A2977 RMK 8/104,MMZO,2023-05-24T21:40:00Z,19.13,-104.57,30.0,24.0,270,10,,12.0,29.769686,,,,,,,,,,,SCT,2000,SCT,25000,,,,,VFR,,,,,,,,,,,,METAR,11.0
MMZC 242140Z E21009KT 10SM BKN200 28/M08 A3015 RMK 8/001,MMZC,2023-05-24T21:40:00Z,22.9,-102.68,28.0,-8.0,210,9,,10.0,30.15059,,,,,,,,,,,BKN,20000,,,,,,,VFR,,,,,,,,,,,,METAR,2175.0
MMTP 242140Z 23010KT 8SM FEW070 33/26 A2973 RMK 8/070 HZY DSNT TCU NE,MMTP,2023-05-24T21:40:00Z,14.78,-92.37,33.0,26.0,230,10,,8.0,29.731298,,,,,,,,,,,FEW,7000,,,,,,,VFR,,,,,,,,,,,,METAR,27.0
MMTM 242140Z E10010KT 10SM SCT020 BKN200 30/24 A2982 RMK 8/108,MMTM,2023-05-24T21:40:00Z,22.28,-97.87,30.0,24.0,100,10,,10.0,29.819881,,,,,,,,,,,SCT,2000,BKN,20000,,,,,VFR,,,,,,,,,,,,METAR,21.0
MMTC 242140Z 11004KT 8SM SCT020TCU BKN200 34/11 A2991 RMK 8/202 CB N HZY,MMTC,2023-05-24T21:40:00Z,25.57,-103.4,34.0,11.0,110,4,,8.0,29.911417,,,,,,,,,,,SCT,2000,BKN,20000,,,,,VFR,,,,,,,,,,,,METAR,1128.0
MMSP 242140Z 09008KT 10SM BKN030TCU 29/01 A3006 RMK 8/200,MMSP,2023-05-24T21:40:00Z,22.25,-100.93,29.0,1.0,90,8,,10.0,30.059055,,,,,,,,,,,BKN,3000,,,,,,,MVFR,,,,,,,,,,,,METAR,1841.0
MMRX 242140Z 14012KT 9SM SCT040 32/19 A2984 RMK 8/500,MMRX,2023-05-24T21:40:00Z,26.02,-98.22,32.0,19.0,140,12,,9.0,29.840551,,,,,,,,,,,SCT,4000,,,,,,,VFR,,,,,,,,,,,,METAR,45.0
MMPN 242140Z 10007KT 7SM FEW040CB BKN110 BKN270 27/18 A3006 RMK 8/368 HZY FU,MMPN,2023-05-24T21:40:00Z,19.38,-102.03,27.0,18.0,100,7,,7.0,30.059055,,,,,,,,,,,FEW,4000,BKN,11000,BKN,27000,,,VFR,,,,,,,,,,,,METAR,1602.0
MMPG 242140Z 05012KT 10SM SCT050 32/20 A2989 RMK 8/500,MMPG,2023-05-24T21:40:00Z,28.62,-100.53,32.0,20.0,50,12,,10.0,29.890747,,,,,,,,,,,SCT,5000,,,,,,,VFR,,,,,,,,,,,,METAR,224.0
MMMZ 242140Z 26006KT 15SM BKN240 31/21 A2980 RMK 8/002,MMMZ,2023-05-24T21:40:00Z,23.17,-106.27,31.0,21.0,260,6,,15.0,29.799213,,,,,,,,,,,BKN,24000,,,,,,,VFR,,,,,,,,,,,,METAR,7.0
MMMY 242140Z 14010KT 7SM BKN030 31/21 A2984 RMK 8/500 HZY,MMMY,2023-05-24T21:40:00Z,25.77,-100.1,31.0,21.0,140,10,,7.0,29.840551,,,,,,,,,,,BKN,3000,,,,,,,MVFR,,,,,,,,,,,,METAR,382.0
MMMM 242140Z 14003KT 7SM SCT030 32/04 A3007 RMK 8/200 HZY CI,MMMM,2023-05-24T21:40:00Z,19.85,-101.03,32.0,4.0,140,3,,7.0,30.070866,,,,,,,,,,,SCT,3000,,,,,,,VFR,,,,,,,,,,,,METAR,1840.0
MMMD 242140Z 36007KT 7SM SKC 34/19 A2976 RMK HZY CU SE S SW,MMMD,2023-05-24T21:40:00Z,20.95,-89.65,34.0,19.0,360,7,,7.0,29.760826,,,,,,,,,,,SKC,,,,,,,,VFR,,,,,,,,,,,,METAR,10.0
MMMA 242140Z 09012KT 10SM BKN022TCU 31/22 A2986 RMK 8/200,MMMA,2023-05-24T21:40:00Z,25.77,-97.52,31.0,22.0,90,12,,10.0,29.861221,,,,,,,,,,,BKN,2200,,,,,,,MVFR,,,,,,,,,,,,METAR,7.0
MMLT 242140Z 06010KT 10SM BKN240 31/11 A2980 RMK 8/002,MMLT,2023-05-24T21:40:00Z,25.98,-111.33,31.0,11.0,60,10,,10.0,29.799213,,,,,,,,,,,BKN,24000,,,,,,,VFR,,,,,,,,,,,,METAR,4.0
MMHO 242140Z 23008KT 10SM SKC 38/04 A2981 RMK HZY,MMHO,2023-05-24T21:40:00Z,29.08,-111.05,38.0,4.0,230,8,,10.0,29.811024,,,,,,,,,,,SKC,,,,,,,,VFR,,,,,,,,,,,,METAR,186.0
MMCZ 242140Z 32006KT 8SM BKN015CB 32/23 A2973 RMK 8/300 SC,MMCZ,2023-05-24T21:40:00Z,20.52,-86.92,32.0,23.0,320,6,,8.0,29.731298,,,,,,,,,,,BKN,1500,,,,,,,MVFR,,,,,,,,,,,,METAR,7.0
MMCU 242140Z 19007KT 10SM SCT030 33/M01 A2997 RMK 8/100 ISOL CI,MMCU,2023-05-24T21:40:00Z,28.7,-105.97,33.0,-1.0,190,7,,10.0,29.970472,,,,,,,,,,,SCT,3000,,,,,,,VFR,,,,,,,,,,,,METAR,1349.0
MMCM 242140Z 12014KT 7SM SCT020CB 32/25 A2973 RMK 8/300,MMCM,2023-05-24T21:40:00Z,18.5,-88.33,32.0,25.0,120,14,,7.0,29.731298,,,,,,,,,,,SCT,2000,,,,,,,VFR,,,,,,,,,,,,METAR,10.0
MMAN 242140Z 12008KT 8SM BKN030 30/20 A2988 RMK 8/500 HZY,MMAN,2023-05-24T21:40:00Z,25.87,-100.23,30.0,20.0,120,8,,8.0,29.878937,,,,,,,,,,,BKN,3000,,,,,,,MVFR,,,,,,,,,,,,METAR,447.0
KTFP 242135Z AUTO 13010G16KT 10SM CLR 30/21 A2985 RMK AO2 T02990209,KTFP,2023-05-24T21:35:00Z,27.92,-97.22,29.9,20.9,130,10,16,10.0,29.84941,,,TRUE,TRUE,,,,,,,CLR,,,,,,,,VFR,,,,,,,,,,,,METAR,5.0
KOCQ 242135Z AUTO 08009G14KT 050V110 10SM CLR 15/00 A3034 RMK AO1 T01470000,KOCQ,2023-05-24T21:35:00Z,44.87,-87.92,14.7,0.0,80,9,14,10.0,30.339567,,,TRUE,TRUE,,,,,,,CLR,,,,,,,,VFR,,,,,,,,,,,,SPECI,181.0
KEOE 242135Z AUTO 01007KT 10SM CLR 25/01 A2999 RMK AO2,KEOE,2023-05-24T21:35:00Z,34.32,-81.63,25.0,1.0,10,7,,10.0,29.991142,,,TRUE,TRUE,,,,,,,CLR,,,,,,,,VFR,,,,,,,,,,,,METAR,166.0
YPAD 242130Z 35010KT 9999 FEW022 SCT028 BKN040 16/11 Q1014 RF00.0/000.0,YPAD,2023-05-24T21:30:00Z,-34.95,138.52,16.0,11.0,350,10,,6.21,29.940945,,,,,,,,,,,FEW,2200,SCT,2800,BKN,4000,,,VFR,,,,,,,,,,,,METAR,2.0
UTSS 242130Z 08006KT 050V110 9999 NSC 18/01 Q1014 R09/70D NOSIG,UTSS,2023-05-24T21:30:00Z,39.7,66.98,18.0,1.0,80,6,,6.21,29.940945,,,,,,TRUE,,,,,CLR,,,,,,,,VFR,,,,,,,,,,,,METAR,665.0
UMIO 242130Z 32001MPS CAVOK 13/11 Q1017 NOSIG RMK QFE745/0994,UMIO,2023-05-24T21:30:00Z,54.43,30.3,13.0,11.0,320,2,,6.21,30.029528,,,,,,TRUE,,,,,CAVOK,,,,,,,,VFR,,,,,,,,,,,,METAR,189.0
UHMD 242130Z 18002MPS 2500 -RA BR OVC032 01/00 Q1016 RMK QFE761/1015,UHMD,2023-05-24T21:30:00Z,64.38,-173.23,1.0,0.0,180,4,,1.55,30.0,,,,,,,,,,-RA BR,OVC,3200,,,,,,,IFR,,,,,,,,,,,,SPECI,40.0
UATT 242130Z 10001MPS CAVOK 13/06 Q1025 NOSIG RMK QFE749/0999,UATT,2023-05-24T21:30:00Z,50.25,57.2,13.0,6.0,100,2,,6.21,30.265747,,,,,,TRUE,,,,,CAVOK,,,,,,,,VFR,,,,,,,,,,,,METAR,217.0
UATG 242130Z 11010MPS CAVOK 25/01 Q1016 NOSIG RMK QFE764/1019,UATG,2023-05-24T21:30:00Z,47.12,51.83,25.0,1.0,110,19,,6.21,30.0,,,,,,TRUE,,,,,CAVOK,,,,,,,,VFR,,,,,,,,,,,,SPECI,-23.0
UATE 242130Z 13002MPS CAVOK 19/14 Q1012 NOSIG RMK QFE757/1009,UATE,2023-05-24T21:30:00Z,43.87,51.1,19.0,14.0,130,4,,6.21,29.88189,,,,,,TRUE,,,,,CAVOK,,,,,,,,VFR,,,,,,,,,,,,METAR,21.0
UAKK 242130Z VRB01MPS CAVOK 01/M03 Q1022 NOSIG RMK QFE719/0959,UAKK,2023-05-24T21:30:00Z,49.68,73.35,1.0,-3.0,0,2,,6.21,30.177166,,,,,,TRUE,,,,,CAVOK,,,,,,,,VFR,,,,,,,,,,,,SPECI,532.0
UAII 242130Z VRB01MPS CAVOK 16/01 Q1014 NOSIG RMK QFE725/0967,UAII,2023-05-24T21:30:00Z,42.37,69.48,16.0,1.0,0,2,,6.21,29.940945,,,,,,TRUE,,,,,CAVOK,,,,,,,,VFR,,,,,,,,,,,,SPECI,410.0
UACC 242130Z 32001MPS CAVOK 12/01 Q1023 NOSIG RMK QFE735/0981,UACC,2023-05-24T21:30:00Z,51.02,71.47,12.0,1.0,320,2,,6.21,30.206694,,,,,,TRUE,,,,,CAVOK,,,,,,,,VFR,,,,,,,,,,,,METAR,354.0
UAAA 242130Z 00000MPS 9999 FEW100 09/04 Q1018 NOSIG,UAAA,2023-05-24T21:30:00Z,43.35,77.03,9.0,4.0,0,0,,6.21,30.059055,,,,,,TRUE,,,,,FEW,10000,,,,,,,VFR,,,,,,,,,,,,METAR,673.0
DAOO 242130Z 35003KT 320V020 9999 FEW020 17/14 Q1015,DAOO,2023-05-24T21:30:00Z,35.62,-0.62,17.0,14.0,350,3,,6.21,29.970472,,,,,,,,,,,FEW,2000,,,,,,,VFR,,,,,,,,,,,,METAR,87.0
DAON 242130Z 34003KT 9999 FEW026 16/12 Q1016,DAON,2023-05-24T21:30:00Z,35.02,-1.47,16.0,12.0,340,3,,6.21,30.0,,,,,,,,,,,FEW,2600,,,,,,,VFR,,,,,,,,,,,,METAR,245.0
DABC 242130Z VRB02KT 9999 SCT040 BKN100 12/11 Q1014,DABC,2023-05-24T21:30:00Z,36.27,6.62,12.0,11.0,0,2,,6.21,29.940945,,,,,,,,,,,SCT,4000,BKN,10000,,,,,VFR,,,,,,,,,,,,METAR,686.0
DABB 242130Z 16005KT 9999 FEW020 SCT033 17/15 Q1012,DABB,2023-05-24T21:30:00Z,36.82,7.82,17.0,15.0,160,5,,6.21,29.88189,,,,,,,,,,,FEW,2000,SCT,3300,,,,,VFR,,,,,,,,,,,,METAR,3.0
DAAT 242130Z 31013KT CAVOK 27/M03 Q1019,DAAT,2023-05-24T21:30:00Z,22.82,5.47,27.0,-3.0,310,13,,6.21,30.088583,,,,,,,,,,,CAVOK,,,,,,,,VFR,,,,,,,,,,,,METAR,1376.0
DAAG 242130Z 22005KT 9999 FEW023TCU FEW026CB BKN040 17/16 Q1014,DAAG,2023-05-24T21:30:00Z,36.68,3.22,17.0,16.0,220,5,,6.21,29.940945,,,,,,,,,,,FEW,2300,FEW,2600,BKN,4000,,,VFR,,,,,,,,,,,,METAR,18.0
KPRN 242126Z AUTO 06007G16KT 10SM SCT023 BKN050 BKN060 22/17 A2991 RMK AO2 T02170172,KPRN,2023-05-24T21:26:00Z,31.85,-86.62,21.7,17.2,60,7,16,10.0,29.911417,,,TRUE,TRUE,,,,,,,SCT,2300,BKN,5000,BKN,6000,,,VFR,,,,,,,,,,,,METAR,137.0
LGMK 242120Z 00000KT 9999 FEW020 18/13 Q1014,LGMK,2023-05-24T21:20:00Z,37.43,25.35,18.0,13.0,0,0,,6.21,29.940945,,,,,,,,,,,FEW,2000,,,,,,,VFR,,,,,,,,,,,,METAR,126.0
ETWM 242120Z AUTO 36003KT //// // ////// 09/07 Q1025 ///,ETWM,2023-05-24T21:20:00Z,52.72,7.33,9.0,7.0,360,3,,,30.265747,,,TRUE,,,,,,,,,,,,,,,,,,,,,,,,,,,,METAR,18.0
ETSN 242120Z 01003KT 9999 BKN130 BKN190 10/04 Q1020 BLU,ETSN,2023-05-24T21:20:00Z,48.72,11.22,10.0,4.0,10,3,,6.21,30.11811,,,,,,,,,,,BKN,13000,BKN,19000,,,,,VFR,,,,,,,,,,,,METAR,378.0
ETSL 242120Z 01003KT 9999 FEW035 SCT060 BKN100 10/06 Q1020 BLU,ETSL,2023-05-24T21:20:00Z,48.18,10.87,10.0,6.0,10,3,,6.21,30.11811,,,,,,,,,,,FEW,3500,SCT,6000,BKN,10000,,,VFR,,,,,,,,,,,,METAR,548.0
ETSI 242120Z AUTO 01001KT 9999 // ////// 10/05 Q1020 ///,ETSI,2023-05-24T21:20:00Z,48.72,11.53,10.0,5.0,10,1,,6.21,30.11811,,,TRUE,,,,,,,,,,,,,,,,,,,,,,,,,,,,METAR,366.0
ETSH 242120Z 26001KT 9999 FEW250 06/05 Q1023 BLU+,ETSH,2023-05-24T21:20:00Z,51.77,13.17,6.0,5.0,260,1,,6.21,30.206694,,,,,,,,,,,FEW,25000,,,,,,,VFR,,,,,,,,,,,,METAR,79.0
ETSB 242120Z AUTO 03007KT //// // ////// 08/04 Q1023 ///,ETSB,2023-05-24T21:20:00Z,50.17,7.07,8.0,4.0,30,7,,,30.206694,,,TRUE,,,,,,,,,,,,,,,,,,,,,,,,,,,,METAR,477.0
ETNW 242120Z 33006KT 9999 SCT300 10/08 Q1024 BLU+,ETNW,2023-05-24T21:20:00Z,52.45,9.42,10.0,8.0,330,6,,6.21,30.236221,,,,,,,,,,,SCT,30000,,,,,,,VFR,,,,,,,,,,,,METAR,57.0
ETNT 242120Z AUTO /////KT //// // ////// ///// Q//// ///,ETNT,2023-05-24T21:20:00Z,53.53,7.67,,,,,,,,,,TRUE,,,,,,,,,,,,,,,,,,,,,,,,,,,,METAR,5.0
ETNS 242120Z AUTO 27004KT 9000 // ////// 10/09 Q1023 ///,ETNS,2023-05-24T21:20:00Z,54.47,9.52,10.0,9.0,270,4,,5.59,30.206694,,,TRUE,,,,,,,,,,,,,,,,,,,,,,,,,,,,METAR,22.0
ETNN 242120Z VRB01KT 9999 FEW050 BKN070 09/07 Q1024 BLU,ETNN,2023-05-24T21:20:00Z,50.82,6.67,9.0,7.0,0,1,,6.21,30.236221,,,,,,,,,,,FEW,5000,BKN,7000,,,,,VFR,,,,,,,,,,,,METAR,108.0
ETNL 242120Z 25002KT 9999 10/08 Q1022 BLU+,ETNL,2023-05-24T21:20:00Z,53.92,12.27,10.0,8.0,250,2,,6.21,30.177166,,,,,,,,,,,,,,,,,,,,,,,,,,,,,,,METAR,40.0
ETNH 242120Z AUTO 26006KT 4200 // ////// 09/09 Q1023 ///,ETNH,2023-05-24T21:20:00Z,54.32,9.55,9.0,9.0,260,6,,2.61,30.206694,,,TRUE,,,,,,,,,,,,,,,,,,,,,,,,,,,,METAR,6.0
ETMN 242120Z 31004KT 9999 SCT010 09/07 Q1024 BLU+GRN TEMPO WHT,ETMN,2023-05-24T21:20:00Z,53.77,8.67,9.0,7.0,310,4,,6.21,30.236221,,,,,,,,,,,SCT,1000,,,,,,,VFR,,,,,,,,,,,,METAR,23.0
ETHS 242120Z 29004KT 9999 FEW240 09/08 Q1023 BLACKBLU+,ETHS,2023-05-24T21:20:00Z,52.92,10.18,9.0,8.0,290,4,,6.21,30.206694,,,,,,,,,,,FEW,24000,,,,,,,VFR,,,,,,,,,,,,METAR,71.0
ETHN 242120Z 04010KT 9999 FEW050 08/03 Q1021 BLU+,ETHN,2023-05-24T21:20:00Z,49.38,9.97,8.0,3.0,40,10,,6.21,30.147638,,,,,,,,,,,FEW,5000,,,,,,,VFR,,,,,,,,,,,,METAR,466.0
ETHL 242120Z 04004KT 9999 BKN040 SCT110 10/04 Q1020 BLU,ETHL,2023-05-24T21:20:00Z,48.22,9.92,10.0,4.0,40,4,,6.21,30.11811,,,,,,,,,,,BKN,4000,SCT,11000,,,,,VFR,,,,,,,,,,,,METAR,536.0
ETHF 242120Z 31004KT 9999 FEW035 09/06 Q1024 BLU+BLU+,ETHF,2023-05-24T21:20:00Z,51.12,9.28,9.0,6.0,310,4,,6.21,30.236221,,,,,,,,,,,FEW,3500,,,,,,,VFR,,,,,,,,,,,,METAR,171.0
ETHC 242120Z 29003KT 9999 09/08 Q1024 BLU+,ETHC,2023-05-24T21:20:00Z,52.6,10.02,9.0,8.0,290,3,,6.21,30.236221,,,,,,,,,,,,,,,,,,,,,,,,,,,,,,,METAR,35.0
ETHB 242120Z 02001KT 9999 FEW030 08/07 Q1024 BLU+,ETHB,2023-05-24T21:20:00Z,52.27,9.07,8.0,7.0,20,1,,6.21,30.236221,,,,,,,,,,,FEW,3000,,,,,,,VFR,,,,,,,,,,,,METAR,69.0
ETHA 242120Z AUTO 05010KT 9999 // ////// 08/06 Q1020 ///,ETHA,2023-05-24T21:20:00Z,47.83,10.87,8.0,6.0,50,10,,6.21,30.11811,,,TRUE,,,,,,,,,,,,,,,,,,,,,,,,,,,,METAR,738.0
ETGG 242120Z AUTO 31007KT 9999 // ////// 12/08 Q1023 ///,ETGG,2023-05-24T21:20:00Z,54.83,9.5,12.0,8.0,310,7,,6.21,30.206694,,,TRUE,,,,,,,,,,,,,,,,,,,,,,,,,,,,METAR,33.0
EGTK 242120Z 35008KT CAVOK 13/08 Q1026,EGTK,2023-05-24T21:20:00Z,51.83,-1.32,13.0,8.0,350,8,,6.21,30.295275,,,,,,,,,,,CAVOK,,,,,,,,VFR,,,,,,,,,,,,METAR,78.0
EGKB 242120Z 08004KT CAVOK 11/08 Q1026,EGKB,2023-05-24T21:20:00Z,51.32,0.02,11.0,8.0,80,4,,6.21,30.295275,,,,,,,,,,,CAVOK,,,,,,,,VFR,,,,,,,,,,,,METAR,183.0
RJOF 242118Z 09006KT 9999 -SHRA FEW030 BKN110 BKN150 18/13 Q1017 RMK 1CU030 5AC110 7AC150 A3005,RJOF,2023-05-24T21:18:00Z,34.03,131.55,18.0,13.0,90,6,,6.21,30.029528,,,,,,,,,,-SHRA,FEW,3000,BKN,11000,BKN,15000,,,VFR,,,,,,,,,,,,METAR,2.0
KI16 242118Z AUTO 10SM CLR 26/06 A3009 RMK AO2,KI16,2023-05-24T21:18:00Z,37.6,-81.57,26.0,6.0,,,,10.0,30.088583,,,TRUE,TRUE,,,,,,,CLR,,,,,,,,VFR,,,,,,,,,,,,SPECI,528.0
CYZG 242112Z 29009KT 10SM -SN OVC021 01/M01 A3006 RMK SC8 LST STFD OB/ NXT 251200Z SLP199,CYZG,2023-05-24T21:12:00Z,62.17,-75.67,1.0,-1.0,290,9,,10.0,30.059055,1019.9,,,,,,,,,-SN,OVC,2100,,,,,,,MVFR,,,,,,,,,,,,SPECI,217.0
