No errors
No warnings
136 ms
data source=metars
4991 results
raw_text,station_id,observation_time,latitude,longitude,temp_c,dewpoint_c,wind_dir_degrees,wind_speed_kt,wind_gust_kt,visibility_statute_mi,altim_in_hg,sea_level_pressure_mb,corrected,auto,auto_station,maintenance_indicator_on,no_signal,lightning_sensor_off,freezing_rain_sensor_off,present_weather_sensor_off,wx_string,sky_cover,cloud_base_ft_agl,sky_cover,cloud_base_ft_agl,sky_cover,cloud_base_ft_agl,sky_cover,cloud_base_ft_agl,flight_category,three_hr_pressure_tendency_mb,maxT_c,minT_c,maxT24hr_c,minT24hr_c,precip_in,pcp3hr_in,pcp6hr_in,pcp24hr_in,snow_in,vert_vis_ft,metar_type,elevation_m
ZMUB 302200Z 05005MPS 9999 FEW030CB BKN033 06/03 Q1001 NOSIG RMK QFE645.3 79 MOP,ZMUB,2023-05-30T22:00:00Z,47.83,106.75,6.0,3.0,50,10,,6.21,29.557087,,,,,,TRUE,,,,,FEW,3000,BKN,3300,,,,,VFR,,,,,,,,,,,,METAR,1300.0
ZMCK 302200Z 09005MPS 9999 FEW030CB BKN033 06/05 Q1001 NOSIG,ZMCK,2023-05-30T22:00:00Z,47.65,106.82,6.0,5.0,90,10,,6.21,29.557087,,,,,,TRUE,,,,,FEW,3000,BKN,3300,,,,,VFR,,,,,,,,,,,,METAR,1366.0
YPXM 302200Z AUTO 10008KT 9999 // OVC012 25/23 Q1013 RF00.0/000.2,YPXM,2023-05-30T22:00:00Z,-10.45,105.68,25.0,23.0,100,8,,6.21,29.911417,,,TRUE,,,,,,,,OVC,1200,,,,,,,MVFR,,,,,,,,,,,,SPECI,262.0
WIII 302200Z VRB04KT 4000 HZ FEW020 25/24 Q1010 NOSIG,WIII,2023-05-30T22:00:00Z,-6.13,106.67,25.0,24.0,0,4,,2.49,29.822834,,,,,,TRUE,,,,HZ,FEW,2000,,,,,,,IFR,,,,,,,,,,,,METAR,9.0
WARR 302200Z 19002KT 4000 HZ FEW030 24/24 Q1011 NOSIG ,WARR,2023-05-30T22:00:00Z,-7.37,112.78,24.0,24.0,190,2,,2.49,29.852362,,,,,,TRUE,,,,HZ,FEW,3000,,,,,,,IFR,,,,,,,,,,,,METAR,3.0
VNKT 302200Z VRB02KT 8000 FEW020 SCT030 20/16 Q1016 NOSIG,VNKT,2023-05-30T22:00:00Z,27.68,85.37,20.0,16.0,0,2,,4.97,30.0,,,,,,TRUE,,,,,FEW,2000,SCT,3000,,,,,MVFR,,,,,,,,,,,,METAR,1334.0
VGHS 302200Z 26006KT 3500 HZ SCT100 29/23 Q1005 NOSIG,VGHS,2023-05-30T22:00:00Z,23.85,90.4,29.0,23.0,260,6,,2.17,29.675198,,,,,,TRUE,,,,HZ,SCT,10000,,,,,,,IFR,,,,,,,,,,,,METAR,11.0
UBBY 302200Z 08006KT 9999 FEW040CB BKN100 25/14 Q1014 NOSIG RMK MT OP,UBBY,2023-05-30T22:00:00Z,41.57,46.67,25.0,14.0,80,6,,6.21,29.940945,,,,,,TRUE,,,,,FEW,4000,BKN,10000,,,,,VFR,,,,,,,,,,,,METAR,383.0
UBBN 302200Z 35004KT 9999 FEW046CB SCT100 14/13 Q1015 NOSIG RMK MT OP QFE686,UBBN,2023-05-30T22:00:00Z,39.18,45.45,14.0,13.0,350,4,,6.21,29.970472,,,,,,TRUE,,,,,FEW,4600,SCT,10000,,,,,VFR,,,,,,,,,,,,METAR,857.0
UBBL 302200Z 34003KT 9000 SCT055 22/18 Q1009 NOSIG RMK MT OP,UBBL,2023-05-30T22:00:00Z,38.75,48.82,22.0,18.0,340,3,,5.59,29.793306,,,,,,TRUE,,,,,SCT,5500,,,,,,,VFR,,,,,,,,,,,,METAR,-11.0
TQPF 302200Z 13011KT 9999 SCT020 28/24 Q1014,TQPF,2023-05-30T22:00:00Z,18.2,-63.05,28.0,24.0,130,11,,6.21,29.940945,,,,,,,,,,,SCT,2000,,,,,,,VFR,,,,,,,,,,,,METAR,33.0
TNCM 302200Z 11008KT 070V130 9999 FEW018 29/24 Q1015 NOSIG ,TNCM,2023-05-30T22:00:00Z,18.05,-63.12,29.0,24.0,110,8,,6.21,29.970472,,,,,,TRUE,,,,,FEW,1800,,,,,,,VFR,,,,,,,,,,,,METAR,9.0
TLPL 302200Z 10015KT 9999 BKN026 29/24 Q1013 NOSIG,TLPL,2023-05-30T22:00:00Z,13.75,-60.95,29.0,24.0,100,15,,6.21,29.911417,,,,,,TRUE,,,,,BKN,2600,,,,,,,MVFR,,,,,,,,,,,,METAR,13.0
SYCJ 302200Z 06006KT 7000 -TSRA SCT014CB BKN015 OVC036 26/25 Q1012 NOSIG RMK CB ALQDS,SYCJ,2023-05-30T22:00:00Z,6.5,-58.25,26.0,25.0,60,6,,4.35,29.88189,,,,,,TRUE,,,,-TSRA,SCT,1400,BKN,1500,OVC,3600,,,MVFR,,,,,,,,,,,,METAR,30.0
SVVG 302200Z 00000KT 8000 -DZ FEW030 BKN100 28/26 Q1009,SVVG,2023-05-30T22:00:00Z,8.62,-71.67,28.0,26.0,0,0,,4.97,29.793306,,,,,,,,,,-DZ,FEW,3000,BKN,10000,,,,,MVFR,,,,,,,,,,,,METAR,70.0
SVMI 302200Z 11004KT 9999 SCT016 BKN080 30/26 Q1010 REDZ,SVMI,2023-05-30T22:00:00Z,10.6,-67.0,30.0,26.0,110,4,,6.21,29.822834,,,,,,,,,,,SCT,1600,BKN,8000,,,,,VFR,,,,,,,,,,,,METAR,48.0
SVMG 302200Z 10012KT 9999 BKN060 ///// Q1011,SVMG,2023-05-30T22:00:00Z,10.92,-63.97,,,100,12,,6.21,29.852362,,,,,,,,,,,BKN,6000,,,,,,,VFR,,,,,,,,,,,,METAR,16.0
SVMC 302200Z 00000KT 9999 OVC030 ///// Q1009,SVMC,2023-05-30T22:00:00Z,10.57,-71.72,,,0,0,,6.21,29.793306,,,,,,,,,,,OVC,3000,,,,,,,MVFR,,,,,,,,,,,,METAR,76.0
SUMU 302200Z 00000KT CAVOK 14/09 Q1021 NOSIG,SUMU,2023-05-30T22:00:00Z,-34.83,-56.02,14.0,9.0,0,0,,6.21,30.147638,,,,,,TRUE,,,,,CAVOK,,,,,,,,VFR,,,,,,,,,,,,METAR,32.0
SUCA 302200Z 12002KT 060V180 CAVOK 14/11 Q1020,SUCA,2023-05-30T22:00:00Z,-34.45,-57.77,14.0,11.0,120,2,,6.21,30.11811,,,,,,,,,,,CAVOK,,,,,,,,VFR,,,,,,,,,,,,METAR,26.0
SUAA 302200Z 05005KT CAVOK 13/09 Q1020,SUAA,2023-05-30T22:00:00Z,-34.78,-56.25,13.0,9.0,50,5,,6.21,30.11811,,,,,,,,,,,CAVOK,,,,,,,,VFR,,,,,,,,,,,,METAR,48.0
SPZO 302200Z 30004KT 200V010 9999 NSC 20/M09 Q1030 NOSIG RMK TX21.8 PP000,SPZO,2023-05-30T22:00:00Z,-13.55,-71.93,20.0,-9.0,300,4,,6.21,30.413385,,,,,,TRUE,,,,,CLR,,,,,,,,VFR,,,,,,,,,,,,METAR,3249.0
SPYL 302200Z 20012KT CAVOK 27/22 Q1009 RMK TX30.2 BIRD HAZARD RWY 17/35 PP000,SPYL,2023-05-30T22:00:00Z,-4.57,-81.25,27.0,22.0,200,12,,6.21,29.793306,,,,,,,,,,,CAVOK,,,,,,,,VFR,,,,,,,,,,,,METAR,89.0
SPUR 302200Z 20009KT 170V230 9999 SCT030 31/21 Q1010 RMK TX32.2 BIRD HAZARD RWY 19/01 PP000,SPUR,2023-05-30T22:00:00Z,-5.17,-80.58,31.0,21.0,200,9,,6.21,29.822834,,,,,,,,,,,SCT,3000,,,,,,,VFR,,,,,,,,,,,,METAR,55.0
SPTU 302200Z VRB02KT 9999 SCT015 OVC100 22/19 Q1013 RMK TX24.0 BIRD HAZARD RWY 01/19 PP000,SPTU,2023-05-30T22:00:00Z,-12.62,-69.22,22.0,19.0,0,2,,6.21,29.911417,,,,,,,,,,,SCT,1500,OVC,10000,,,,,VFR,,,,,,,,,,,,METAR,213.0
SPTN 302200Z 22008KT 9999 SCT030 17/14 Q1015 RMK TX21.3 PP000,SPTN,2023-05-30T22:00:00Z,-18.03,-70.28,17.0,14.0,220,8,,6.21,29.970472,,,,,,,,,,,SCT,3000,,,,,,,VFR,,,,,,,,,,,,METAR,459.0
SPST 302200Z 17005KT 9999 FEW020 SCT080 28/23 Q1010 RMK TX33.4 PP000,SPST,2023-05-30T22:00:00Z,-6.52,-76.37,28.0,23.0,170,5,,6.21,29.822834,,,,,,,,,,,FEW,2000,SCT,8000,,,,,VFR,,,,,,,,,,,,METAR,282.0
SPSO 302200Z 22012KT 9999 FEW030 22/15 Q1013 RMK TX22.4 BIRD HAZARD RWY 22/04 PP000,SPSO,2023-05-30T22:00:00Z,-13.73,-76.22,22.0,15.0,220,12,,6.21,29.911417,,,,,,,,,,,FEW,3000,,,,,,,VFR,,,,,,,,,,,,METAR,8.0
SPRU 302200Z 16007KT 9000 NSC 24/20 Q1011 RMK TX26.1 PP000,SPRU,2023-05-30T22:00:00Z,-8.08,-79.12,24.0,20.0,160,7,,5.59,29.852362,,,,,,,,,,,CLR,,,,,,,,VFR,,,,,,,,,,,,METAR,23.0
SPQU 302200Z 26007KT CAVOK 17/M03 Q1027 NOSIG RMK TX21.2 PP000,SPQU,2023-05-30T22:00:00Z,-16.33,-71.57,17.0,-3.0,260,7,,6.21,30.324802,,,,,,TRUE,,,,,CAVOK,,,,,,,,VFR,,,,,,,,,,,,METAR,2527.0
SPQT 302200Z 15004KT 110V170 9999 FEW018 30/25 Q1009 NOSIG RMK TX32.3 PP000,SPQT,2023-05-30T22:00:00Z,-3.78,-73.32,30.0,25.0,150,4,,6.21,29.793306,,,,,,TRUE,,,,,FEW,1800,,,,,,,VFR,,,,,,,,,,,,METAR,92.0
SPNC 302200Z 06012KT 9999 FEW040 25/13 Q1018 RMK TX29.0 PP000,SPNC,2023-05-30T22:00:00Z,-9.87,-76.2,25.0,13.0,60,12,,6.21,30.059055,,,,,,,,,,,FEW,4000,,,,,,,VFR,,,,,,,,,,,,METAR,1856.0
SPME 302200Z 29007KT 9999 BKN014 28/24 Q1009 RMK BIRD HAZARD RWY 32/14 PP000,SPME,2023-05-30T22:00:00Z,-3.55,-80.4,28.0,24.0,290,7,,6.21,29.793306,,,,,,,,,,,BKN,1400,,,,,,,MVFR,,,,,,,,,,,,METAR,26.0
SPJR 302200Z 14006KT 9999 SCT025 SCT070 17/11 Q1026 RMK TX22.1 PP000,SPJR,2023-05-30T22:00:00Z,-7.13,-78.48,17.0,11.0,140,6,,6.21,30.295275,,,,,,,,,,,SCT,2500,SCT,7000,,,,,VFR,,,,,,,,,,,,METAR,2622.0
SPJL 302200Z /////KT CAVOK 12/M04 Q1037 RMK WIND RWY12 07008KT/TX17.3 PP000,SPJL,2023-05-30T22:00:00Z,-15.47,-70.15,12.0,-4.0,,,,6.21,30.620079,,,,,,,,,,,CAVOK,,,,,,,,VFR,,,,,,,,,,,,METAR,3837.0
SPJJ 302200Z 14006KT 9999 FEW050 20/// Q1031 RMK TX//./ PP000,SPJJ,2023-05-30T22:00:00Z,-11.77,-75.47,,,140,6,,6.21,30.442913,,,,,,,,,,,FEW,5000,,,,,,,VFR,,,,,,,,,,,,METAR,3322.0
SPJC 302200Z 17010KT 9999 BKN030 22/16 Q1012 NOSIG RMK TX23.7 PP000,SPJC,2023-05-30T22:00:00Z,-12.02,-77.12,22.0,16.0,170,10,,6.21,29.88189,,,,,,TRUE,,,,,BKN,3000,,,,,,,MVFR,,,,,,,,,,,,METAR,26.0
SPHO 302200Z 07003KT 030V110 CAVOK 24/M03 Q1025 RMK TX24.5 PP000,SPHO,2023-05-30T22:00:00Z,-13.17,-74.22,24.0,-3.0,70,3,,6.21,30.265747,,,,,,,,,,,CAVOK,,,,,,,,VFR,,,,,,,,,,,,METAR,2743.0
SPHI 302200Z 19013KT CAVOK 25/20 Q1010 RMK BIRD HAZARD RWY 19/01 TX29.2 PP000,SPHI,2023-05-30T22:00:00Z,-6.78,-79.82,25.0,20.0,190,13,,6.21,29.822834,,,,,,,,,,,CAVOK,,,,,,,,VFR,,,,,,,,,,,,METAR,33.0
SPCL 302200Z 11006KT 9999 SCT025 30/24 Q1011 RMK TX31.0 BIRD HAZARD RWY 02/20 PP000,SPCL,2023-05-30T22:00:00Z,-8.38,-74.58,30.0,24.0,110,6,,6.21,29.852362,,,,,,,,,,,SCT,2500,,,,,,,VFR,,,,,,,,,,,,METAR,154.0
SMZO 302200Z 00000KT 9999 FEW010 FEW012CB SCT020 25/24 Q1012 RETS NOSIG,SMZO,2023-05-30T22:00:00Z,5.82,-55.18,25.0,24.0,0,0,,6.21,29.88189,,,,,,TRUE,,,,,FEW,1000,FEW,1200,SCT,2000,,,VFR,,,,,,,,,,,,METAR,7.0
SMJP 302200Z 02003KT 9999 -SHRA FEW006 FEW012CB SCT020 25/24 Q1012 RETS NOSIG,SMJP,2023-05-30T22:00:00Z,5.45,-55.18,25.0,24.0,20,3,,6.21,29.88189,,,,,,TRUE,,,,-SHRA,FEW,600,FEW,1200,SCT,2000,,,VFR,,,,,,,,,,,,METAR,14.0
SLVR 302200Z 15004KT 9999 FEW010 BKN015 19/17 Q1017,SLVR,2023-05-30T22:00:00Z,-17.63,-63.13,19.0,17.0,150,4,,6.21,30.029528,,,,,,,,,,,FEW,1000,BKN,1500,,,,,MVFR,,,,,,,,,,,,METAR,377.0
SLLP 302200Z 12005KT 9999 NSC 12/M17 Q1038,SLLP,2023-05-30T22:00:00Z,-16.52,-68.17,12.0,-17.0,120,5,,6.21,30.649607,,,,,,,,,,,CLR,,,,,,,,VFR,,,,,,,,,,,,METAR,4061.0
SLCB 302200Z 13003KT 9999 NSC 20/M11 Q1023,SLCB,2023-05-30T22:00:00Z,-17.42,-66.18,20.0,-11.0,130,3,,6.21,30.206694,,,,,,,,,,,CLR,,,,,,,,VFR,,,,,,,,,,,,METAR,2560.0
SGES 302200Z 04002KT 9999 SCT030 19/17 Q1018,SGES,2023-05-30T22:00:00Z,-25.45,-54.85,19.0,17.0,40,2,,6.21,30.059055,,,,,,,,,,,SCT,3000,,,,,,,VFR,,,,,,,,,,,,METAR,256.0
SETN 302200Z 28006KT 230V320 9999 SCT026 BKN300 29/25 Q1007 RMK A2975,SETN,2023-05-30T22:00:00Z,0.98,-79.63,29.0,25.0,280,6,,6.21,29.734253,,,,,,,,,,,SCT,2600,BKN,30000,,,,,VFR,,,,,,,,,,,,METAR,10.0
SEST 302200Z 12011KT 9999 VCSH FEW005 BKN100 BKN200 28/25 Q1008 RMK A2977,SEST,2023-05-30T22:00:00Z,-0.9,-89.62,28.0,25.0,120,11,,6.21,29.763779,,,,,,,,,,VCSH,FEW,500,BKN,10000,BKN,20000,,,VFR,,,,,,,,,,,,METAR,13.0
SESM 302200Z 10007KT 9999 FEW023 26/21 Q1013 RMK A2993,SESM,2023-05-30T22:00:00Z,-1.5,-78.07,26.0,21.0,100,7,,6.21,29.911417,,,,,,,,,,,FEW,2300,,,,,,,VFR,,,,,,,,,,,,METAR,1056.0
SESA 302200Z 23010KT 9999 SCT010 28/24 Q1009 RMK A2981,SESA,2023-05-30T22:00:00Z,-2.2,-80.98,28.0,24.0,230,10,,6.21,29.793306,,,,,,,,,,,SCT,1000,,,,,,,VFR,,,,,,,,,,,,METAR,6.0
SEQM 302200Z 02011KT 350V060 9999 FEW030TCU SCT300 19/13 Q1023 NOSIG RMK A3022,SEQM,2023-05-30T22:00:00Z,-0.12,-78.35,19.0,13.0,20,11,,6.21,30.206694,,,,,,TRUE,,,,,FEW,3000,SCT,30000,,,,,VFR,,,,,,,,,,,,METAR,2386.0
SENL 302200Z 14003KT 9999 SCT020 SCT100 30/23 Q1009 RMK A2982,SENL,2023-05-30T22:00:00Z,0.1,-76.87,30.0,23.0,140,3,,6.21,29.793306,,,,,,,,,,,SCT,2000,SCT,10000,,,,,VFR,,,,,,,,,,,,METAR,293.0
SEMT 302200Z 20012KT 9999 SCT020 28/23 Q1008 RMK A2979,SEMT,2023-05-30T22:00:00Z,-0.95,-80.67,28.0,23.0,200,12,,6.21,29.763779,,,,,,,,,,,SCT,2000,,,,,,,VFR,,,,,,,,,,,,METAR,13.0
SEMC 302200Z 36005KT 9999 FEW036 26/19 Q1014 RMK A2995,SEMC,2023-05-30T22:00:00Z,-2.3,-78.12,26.0,19.0,360,5,,6.21,29.940945,,,,,,,,,,,FEW,3600,,,,,,,VFR,,,,,,,,,,,,METAR,1036.0
SELT 302200Z 17011KT 9999 BKN030 BKN100 14/10 Q1028,SELT,2023-05-30T22:00:00Z,-0.92,-78.62,14.0,10.0,170,11,,6.21,30.35433,,,,,,,,,,,BKN,3000,BKN,10000,,,,,MVFR,,,,,,,,,,,,METAR,2779.0
SEJD 302200Z 11002KT 9999 FEW023 SCT300 26/24 Q1010 RMK A2984,SEJD,2023-05-30T22:00:00Z,-1.07,-77.58,26.0,24.0,110,2,,6.21,29.822834,,,,,,,,,,,FEW,2300,SCT,30000,,,,,VFR,,,,,,,,,,,,METAR,376.0
SEGZ 302200Z 16002KT 9999 FEW020 30/25 Q1012,SEGZ,2023-05-30T22:00:00Z,-3.42,-78.57,30.0,25.0,160,2,,6.21,29.88189,,,,,,,,,,,FEW,2000,,,,,,,VFR,,,,,,,,,,,,METAR,805.0
SEGU 302200Z 15005KT 9999 FEW030 SCT100 31/24 Q1007 NOSIG RMK A2975,SEGU,2023-05-30T22:00:00Z,-2.15,-79.88,31.0,24.0,150,5,,6.21,29.734253,,,,,,TRUE,,,,,FEW,3000,SCT,10000,,,,,VFR,,,,,,,,,,,,METAR,6.0
SEGS 302200Z 17011KT 9999 FEW023 BKN100 30/22 Q1011 RMK A2986,SEGS,2023-05-30T22:00:00Z,-0.45,-90.27,30.0,22.0,170,11,,6.21,29.852362,,,,,,,,,,,FEW,2300,BKN,10000,,,,,VFR,,,,,,,,,,,,METAR,51.0
SECU 302200Z 05008KT 9999 FEW040 22/08 Q1023,SECU,2023-05-30T22:00:00Z,-2.88,-78.98,22.0,8.0,50,8,,6.21,30.206694,,,,,,,,,,,FEW,4000,,,,,,,VFR,,,,,,,,,,,,METAR,2516.0
SECA 302200Z 28014KT 9999 SCT040 27/17 Q1014 RMK A2996,SECA,2023-05-30T22:00:00Z,-4.0,-79.37,27.0,17.0,280,14,,6.21,29.940945,,,,,,,,,,,SCT,4000,,,,,,,VFR,,,,,,,,,,,,METAR,1237.0
SCVD 302200Z 03009KT 6000 -RA SCT016 OVC035 10/09 Q1014,SCVD,2023-05-30T22:00:00Z,-39.65,-73.08,10.0,9.0,30,9,,3.73,29.940945,,,,,,,,,,-RA,SCT,1600,OVC,3500,,,,,MVFR,,,,,,,,,,,,METAR,19.0
SCTN 302200Z AUTO 35021KT 9999 FEW014 OVC021 11/10 Q1009,SCTN,2023-05-30T22:00:00Z,-42.92,-72.7,11.0,10.0,350,21,,6.21,29.793306,,,TRUE,,,,,,,,FEW,1400,OVC,2100,,,,,MVFR,,,,,,,,,,,,METAR,8.0
SCTE 302200Z 03021KT 5000 +RA FEW006 OVC070 10/10 Q1011 NOSIG,SCTE,2023-05-30T22:00:00Z,-41.43,-73.08,10.0,10.0,30,21,,3.11,29.852362,,,,,,TRUE,,,,+RA,FEW,600,OVC,7000,,,,,MVFR,,,,,,,,,,,,METAR,85.0
SCTB 302200Z 00000KT 4000 HZ OVC100 17/06 Q1018,SCTB,2023-05-30T22:00:00Z,-33.45,-70.53,17.0,6.0,0,0,,2.49,30.059055,,,,,,,,,,HZ,OVC,10000,,,,,,,IFR,,,,,,,,,,,,METAR,655.0
SCSN 302200Z 25007KT 2500 BR OVC004 12/12 Q1019,SCSN,2023-05-30T22:00:00Z,-33.65,-71.62,12.0,12.0,250,7,,1.55,30.088583,,,,,,,,,,BR,OVC,400,,,,,,,LIFR,,,,,,,,,,,,METAR,73.0
SCSE 302200Z 28003KT 240V320 9999 FEW017 BKN200 14/12 Q1016,SCSE,2023-05-30T22:00:00Z,-29.92,-71.2,14.0,12.0,280,3,,6.21,30.0,,,,,,,,,,,FEW,1700,BKN,20000,,,,,VFR,,,,,,,,,,,,METAR,141.0
SCRM 302200Z 09022KT 1200 SHSN OVC004 M02/M05 Q0991 NOSIG,SCRM,2023-05-30T22:00:00Z,-62.18,-58.98,-2.0,-5.0,90,22,,0.75,29.26181,,,,,,TRUE,,,,SHSN,OVC,400,,,,,,,LIFR,,,,,,,,,,,,METAR,45.0
SCRG 302200Z 19005KT 4000 HZ BKN100 15/10 Q1018,SCRG,2023-05-30T22:00:00Z,-34.17,-70.77,15.0,10.0,190,5,,2.49,30.059055,,,,,,,,,,HZ,BKN,10000,,,,,,,IFR,,,,,,,,,,,,METAR,488.0
SCRD 302200Z 17005KT 8000 FEW070 OVC200 12/10 Q1018,SCRD,2023-05-30T22:00:00Z,-33.07,-71.55,12.0,10.0,170,5,,4.97,30.059055,,,,,,,,,,,FEW,7000,OVC,20000,,,,,MVFR,,,,,,,,,,,,METAR,342.0
SCQP 302200Z 06010KT 6000 -RA FEW019 OVC049 09/08 Q1015,SCQP,2023-05-30T22:00:00Z,-38.92,-72.65,9.0,8.0,60,10,,3.73,29.970472,,,,,,,,,,-RA,FEW,1900,OVC,4900,,,,,MVFR,,,,,,,,,,,,METAR,97.0
SCPQ 302200Z 35014KT 2000 -RA SCT002 OVC009 11/11 Q1008,SCPQ,2023-05-30T22:00:00Z,-42.33,-73.72,11.0,11.0,350,14,,1.24,29.763779,,,,,,,,,,-RA,SCT,200,OVC,900,,,,,IFR,,,,,,,,,,,,METAR,166.0
SCPD 302200Z 15004KT 5000 HZ BKN150 16/06 Q1018,SCPD,2023-05-30T22:00:00Z,,,16.0,6.0,150,4,,3.11,30.059055,,,,,,,,,,HZ,BKN,15000,,,,,,,MVFR,,,,,,,,,,,,METAR,
SCON 302200Z AUTO 01008KT 9999 SCT010/// BKN035/// OVC043/// 12/12 Q1008,SCON,2023-05-30T22:00:00Z,-43.13,-73.62,12.0,12.0,10,8,,6.21,29.763779,,,TRUE,,,,,,,,SCT,1000,BKN,3500,OVC,4300,,,VFR,,,,,,,,,,,,METAR,11.0
SCMK 302200Z 34011KT 9999 BKN004 OVC014 11/11 Q1006,SCMK,2023-05-30T22:00:00Z,-43.9,-73.73,11.0,11.0,340,11,,6.21,29.704725,,,,,,,,,,,BKN,400,OVC,1400,,,,,LIFR,,,,,,,,,,,,METAR,22.0
SCJO 302200Z 03008KT 360V070 8000 -RA SCT040 OVC050 11/08 Q1012,SCJO,2023-05-30T22:00:00Z,-40.6,-73.05,11.0,8.0,30,8,,4.97,29.88189,,,,,,,,,,-RA,SCT,4000,OVC,5000,,,,,MVFR,,,,,,,,,,,,METAR,61.0
SCIP 302200Z 27009KT 9999 FEW040 22/13 Q1019 NOSIG,SCIP,2023-05-30T22:00:00Z,-27.17,-109.43,22.0,13.0,270,9,,6.21,30.088583,,,,,,TRUE,,,,,FEW,4000,,,,,,,VFR,,,,,,,,,,,,METAR,48.0
SCIE 302200Z 01005KT 320V030 9999 -RA NSC 12/11 Q1018 RESHRA,SCIE,2023-05-30T22:00:00Z,-36.77,-73.07,12.0,11.0,10,5,,6.21,30.059055,,,,,,,,,,-RA,CLR,,,,,,,,VFR,,,,,,,,,,,,METAR,8.0
SCIC 302200Z VRB02KT 4000 HZ NSC 14/08 Q1018,SCIC,2023-05-30T22:00:00Z,-34.97,-71.22,14.0,8.0,0,2,,2.49,30.059055,,,,,,,,,,HZ,CLR,,,,,,,,IFR,,,,,,,,,,,,METAR,230.0
SCHR 302200Z AUTO VRB01KT CAVOK 11/07 Q0995,SCHR,2023-05-30T22:00:00Z,-47.23,-72.58,11.0,7.0,0,1,,6.21,29.379921,,,TRUE,,,,,,,,CAVOK,,,,,,,,VFR,,,,,,,,,,,,METAR,203.0
SCGE 302200Z 06005KT 6000 -SHRA OVC030 12/08 Q1018,SCGE,2023-05-30T22:00:00Z,-37.4,-72.42,12.0,8.0,60,5,,3.73,30.059055,,,,,,,,,,-SHRA,OVC,3000,,,,,,,MVFR,,,,,,,,,,,,METAR,122.0
SCFT 302200Z AUTO VRB03KT 3500 -RA BR BKN001/// OVC044/// 08/08 Q1008,SCFT,2023-05-30T22:00:00Z,-43.18,-71.85,8.0,8.0,0,3,,2.17,29.763779,,,TRUE,,,,,,,-RA BR,BKN,100,OVC,4400,,,,,LIFR,,,,,,,,,,,,METAR,345.0
SCFA 302200Z 21010KT 9999 BKN019 16/11 Q1015 NOSIG,SCFA,2023-05-30T22:00:00Z,-23.43,-70.43,16.0,11.0,210,10,,6.21,29.970472,,,,,,TRUE,,,,,BKN,1900,,,,,,,MVFR,,,,,,,,,,,,METAR,113.0
SCEL 302200Z 13005KT 6000 BKN170 BKN200 17/06 Q1018 NOSIG,SCEL,2023-05-30T22:00:00Z,-33.38,-70.78,17.0,6.0,130,5,,3.73,30.059055,,,,,,TRUE,,,,,BKN,17000,BKN,20000,,,,,MVFR,,,,,,,,,,,,METAR,478.0
SCDA 302200Z 21011KT 9999 OVC027 19/14 Q1014,SCDA,2023-05-30T22:00:00Z,-20.53,-70.17,19.0,14.0,210,11,,6.21,29.940945,,,,,,,,,,,OVC,2700,,,,,,,MVFR,,,,,,,,,,,,METAR,41.0
SCCY 302200Z VRB03KT 9999 BKN036 12/08 Q1002,SCCY,2023-05-30T22:00:00Z,-45.58,-72.1,12.0,8.0,0,3,,6.21,29.586615,,,,,,,,,,,BKN,3600,,,,,,,VFR,,,,,,,,,,,,METAR,301.0
SCCI 302200Z 00000KT 9999 FEW040 SCT060 06/05 Q0985 NOSIG,SCCI,2023-05-30T22:00:00Z,-53.0,-70.85,6.0,5.0,0,0,,6.21,29.084646,,,,,,TRUE,,,,,FEW,4000,SCT,6000,,,,,VFR,,,,,,,,,,,,METAR,37.0
SCCH 302200Z 19001KT 9999 BKN040 OVC150 13/09 Q1018,SCCH,2023-05-30T22:00:00Z,-36.57,-72.02,13.0,9.0,190,1,,6.21,30.059055,,,,,,,,,,,BKN,4000,OVC,15000,,,,,VFR,,,,,,,,,,,,METAR,148.0
SCCF 302200Z 26013KT CAVOK 20/M12 Q1027,SCCF,2023-05-30T22:00:00Z,-22.5,-68.9,20.0,-12.0,260,13,,6.21,30.324802,,,,,,,,,,,CAVOK,,,,,,,,VFR,,,,,,,,,,,,METAR,2290.0
SCBA 302200Z 25006KT 220V300 9999 SCT030 10/07 Q1001,SCBA,2023-05-30T22:00:00Z,-45.92,-71.68,10.0,7.0,250,6,,6.21,29.557087,,,,,,,,,,,SCT,3000,,,,,,,VFR,,,,,,,,,,,,METAR,516.0
SCAT 302200Z 25009KT 9999 SCT012 OVC015 13/11 Q1016,SCAT,2023-05-30T22:00:00Z,-27.27,-70.77,13.0,11.0,250,9,,6.21,30.0,,,,,,,,,,,SCT,1200,OVC,1500,,,,,MVFR,,,,,,,,,,,,METAR,209.0
SCAR 302200Z 21010KT 9999 OVC026 19/14 Q1014,SCAR,2023-05-30T22:00:00Z,-18.35,-70.33,19.0,14.0,210,10,,6.21,29.940945,,,,,,,,,,,OVC,2600,,,,,,,MVFR,,,,,,,,,,,,METAR,57.0
SCAP 302200Z AUTO VRB02KT 6000 -SHRA BR ////// 08/07 Q1010,SCAP,2023-05-30T22:00:00Z,-43.62,-71.8,8.0,7.0,0,2,,3.73,29.822834,,,TRUE,,,,,,,-SHRA BR,,,,,,,,,,,,,,,,,,,,,METAR,252.0
SBVT 302200Z 24006KT 9999 FEW040 SCT070 23/18 Q1021,SBVT,2023-05-30T22:00:00Z,-20.25,-40.28,23.0,18.0,240,6,,6.21,30.147638,,,,,,,,,,,FEW,4000,SCT,7000,,,,,VFR,,,,,,,,,,,,METAR,4.0
SBTT 302200Z 14004KT 9999 FEW019 FEW023TCU SCT100 27/23 Q1010,SBTT,2023-05-30T22:00:00Z,-4.25,-69.93,27.0,23.0,140,4,,6.21,29.822834,,,,,,,,,,,FEW,1900,FEW,2300,SCT,10000,,,VFR,,,,,,,,,,,,METAR,79.0
SBTF 302200Z 20004KT 9999 FEW021 FEW025TCU 28/25 Q1010,SBTF,2023-05-30T22:00:00Z,-3.37,-64.72,28.0,25.0,200,4,,6.21,29.822834,,,,,,,,,,,FEW,2100,FEW,2500,,,,,VFR,,,,,,,,,,,,METAR,55.0
SBTE 302200Z 00000KT 9999 SCT020 29/24 Q1012,SBTE,2023-05-30T22:00:00Z,-5.05,-42.82,29.0,24.0,0,0,,6.21,29.88189,,,,,,,,,,,SCT,2000,,,,,,,VFR,,,,,,,,,,,,METAR,60.0
SBSV 302200Z 15011KT 9999 SCT021 FEW023TCU BKN070 27/22 Q1018,SBSV,2023-05-30T22:00:00Z,-12.9,-38.32,27.0,22.0,150,11,,6.21,30.059055,,,,,,,,,,,SCT,2100,FEW,2300,BKN,7000,,,VFR,,,,,,,,,,,,METAR,9.0
SBSP 302200Z 13008KT 8000 BKN008 16/14 Q1024,SBSP,2023-05-30T22:00:00Z,-23.62,-46.65,16.0,14.0,130,8,,4.97,30.236221,,,,,,,,,,,BKN,800,,,,,,,IFR,,,,,,,,,,,,METAR,802.0
SBSN 302200Z 14004KT 9999 FEW020 27/25 Q1011,SBSN,2023-05-30T22:00:00Z,-2.42,-54.78,27.0,25.0,140,4,,6.21,29.852362,,,,,,,,,,,FEW,2000,,,,,,,VFR,,,,,,,,,,,,METAR,57.0
SBSL 302200Z 05009KT 9999 SCT017 29/25 Q1012,SBSL,2023-05-30T22:00:00Z,-2.58,-44.23,29.0,25.0,50,9,,6.21,29.88189,,,,,,,,,,,SCT,1700,,,,,,,VFR,,,,,,,,,,,,METAR,53.0
SBSJ 302200Z 16006KT 8000 -RA OVC026 17/15 Q1023,SBSJ,2023-05-30T22:00:00Z,-23.22,-45.87,17.0,15.0,160,6,,4.97,30.206694,,,,,,,,,,-RA,OVC,2600,,,,,,,MVFR,,,,,,,,,,,,METAR,640.0
SBSG 302200Z 12007KT 9999 SCT030 BKN100 27/23 Q1015,SBSG,2023-05-30T22:00:00Z,-5.77,-35.37,27.0,23.0,120,7,,6.21,29.970472,,,,,,,,,,,SCT,3000,BKN,10000,,,,,VFR,,,,,,,,,,,,METAR,83.0
SBRP 302200Z 18007KT 8000 -RA SCT020 BKN045 OVC080 19/17 Q1018,SBRP,2023-05-30T22:00:00Z,-21.13,-47.77,19.0,17.0,180,7,,4.97,30.059055,,,,,,,,,,-RA,SCT,2000,BKN,4500,OVC,8000,,,MVFR,,,,,,,,,,,,METAR,550.0
SBRJ 302200Z 11009KT 9999 FEW025 BKN070 22/18 Q1021,SBRJ,2023-05-30T22:00:00Z,-22.9,-43.17,22.0,18.0,110,9,,6.21,30.147638,,,,,,,,,,,FEW,2500,BKN,7000,,,,,VFR,,,,,,,,,,,,METAR,6.0
SBRF 302200Z 17013KT 9999 SCT023 27/22 Q1015,SBRF,2023-05-30T22:00:00Z,-8.13,-34.92,27.0,22.0,170,13,,6.21,29.970472,,,,,,,,,,,SCT,2300,,,,,,,VFR,,,,,,,,,,,,METAR,10.0
SBRB 302200Z 19003KT 9999 SCT013 BKN017 24/23 Q1013,SBRB,2023-05-30T22:00:00Z,-9.87,-67.88,24.0,23.0,190,3,,6.21,29.911417,,,,,,,,,,,SCT,1300,BKN,1700,,,,,MVFR,,,,,,,,,,,,METAR,190.0
SBPV 302200Z 21003KT 9999 SCT030 28/24 Q1011,SBPV,2023-05-30T22:00:00Z,-8.72,-63.9,28.0,24.0,210,3,,6.21,29.852362,,,,,,,,,,,SCT,3000,,,,,,,VFR,,,,,,,,,,,,METAR,89.0
SBPS 302200Z 22005KT 9999 FEW010 BKN015 22/21 Q1019,SBPS,2023-05-30T22:00:00Z,-16.43,-39.07,22.0,21.0,220,5,,6.21,30.088583,,,,,,,,,,,FEW,1000,BKN,1500,,,,,MVFR,,,,,,,,,,,,METAR,44.0
SBPL 302200Z 19009KT CAVOK 28/17 Q1017,SBPL,2023-05-30T22:00:00Z,-9.37,-40.57,28.0,17.0,190,9,,6.21,30.029528,,,,,,,,,,,CAVOK,,,,,,,,VFR,,,,,,,,,,,,METAR,386.0
SBPK 302200Z 16003KT 9999 FEW030 16/15 Q1020,SBPK,2023-05-30T22:00:00Z,-31.72,-52.33,16.0,15.0,160,3,,6.21,30.11811,,,,,,,,,,,FEW,3000,,,,,,,VFR,,,,,,,,,,,,METAR,17.0
SBPJ 302200Z 32002KT CAVOK 27/23 Q1013,SBPJ,2023-05-30T22:00:00Z,-10.28,-48.37,27.0,23.0,320,2,,6.21,29.911417,,,,,,,,,,,CAVOK,,,,,,,,VFR,,,,,,,,,,,,METAR,226.0
SBPA 302200Z 15004KT CAVOK 19/14 Q1019,SBPA,2023-05-30T22:00:00Z,-30.0,-51.17,19.0,14.0,150,4,,6.21,30.088583,,,,,,,,,,,CAVOK,,,,,,,,VFR,,,,,,,,,,,,METAR,3.0
SBOI 302200Z 09003KT 030V140 CAVOK 28/23 Q1013,SBOI,2023-05-30T22:00:00Z,3.85,-51.78,28.0,23.0,90,3,,6.21,29.911417,,,,,,,,,,,CAVOK,,,,,,,,VFR,,,,,,,,,,,,METAR,15.0
SBNF 302200Z 30003KT 9999 FEW006 SCT018 BKN045 18/17 Q1022,SBNF,2023-05-30T22:00:00Z,-26.88,-48.65,18.0,17.0,300,3,,6.21,30.177166,,,,,,,,,,,FEW,600,SCT,1800,BKN,4500,,,VFR,,,,,,,,,,,,METAR,5.0
SBMQ 302200Z 04007KT 9999 FEW030 29/26 Q1011,SBMQ,2023-05-30T22:00:00Z,0.05,-51.07,29.0,26.0,40,7,,6.21,29.852362,,,,,,,,,,,FEW,3000,,,,,,,VFR,,,,,,,,,,,,METAR,15.0
SBMO 302200Z 23005KT 9999 BKN019 25/23 Q1017,SBMO,2023-05-30T22:00:00Z,-9.52,-35.78,25.0,23.0,230,5,,6.21,30.029528,,,,,,,,,,,BKN,1900,,,,,,,MVFR,,,,,,,,,,,,METAR,116.0
SBMN 302200Z VRB02KT 9999 VCTS SCT030 FEW035CB 29/24 Q1010,SBMN,2023-05-30T22:00:00Z,-3.13,-59.98,29.0,24.0,0,2,,6.21,29.822834,,,,,,,,,,VCTS,SCT,3000,FEW,3500,,,,,VFR,,,,,,,,,,,,METAR,71.0
SBMA 302200Z 00000KT 9999 FEW023 26/26 Q1011,SBMA,2023-05-30T22:00:00Z,-5.37,-49.13,26.0,26.0,0,0,,6.21,29.852362,,,,,,,,,,,FEW,2300,,,,,,,VFR,,,,,,,,,,,,METAR,110.0
SBLO 302200Z 18004KT 9999 BKN012 OVC100 17/17 Q1020,SBLO,2023-05-30T22:00:00Z,-23.33,-51.12,17.0,17.0,180,4,,6.21,30.11811,,,,,,,,,,,BKN,1200,OVC,10000,,,,,MVFR,,,,,,,,,,,,METAR,563.0
SBKP 302200Z 12008KT 9999 -RA FEW040 SCT070 OVC100 17/15 Q1022,SBKP,2023-05-30T22:00:00Z,-23.0,-47.13,17.0,15.0,120,8,,6.21,30.177166,,,,,,,,,,-RA,FEW,4000,SCT,7000,OVC,10000,,,VFR,,,,,,,,,,,,METAR,659.0
SBJP 302200Z 14006KT CAVOK 26/23 Q1016,SBJP,2023-05-30T22:00:00Z,-7.15,-34.95,26.0,23.0,140,6,,6.21,30.0,,,,,,,,,,,CAVOK,,,,,,,,VFR,,,,,,,,,,,,METAR,66.0
SBGR 302200Z 13005KT 9999 -RA BKN011 OVC021 16/15 Q1023,SBGR,2023-05-30T22:00:00Z,-23.42,-46.47,16.0,15.0,130,5,,6.21,30.206694,,,,,,,,,,-RA,BKN,1100,OVC,2100,,,,,MVFR,,,,,,,,,,,,METAR,745.0
SBGO 302200Z VRB02KT CAVOK 26/15 Q1018,SBGO,2023-05-30T22:00:00Z,-16.62,-49.22,26.0,15.0,0,2,,6.21,30.059055,,,,,,,,,,,CAVOK,,,,,,,,VFR,,,,,,,,,,,,METAR,740.0
SBGL 302200Z 13004KT 9999 SCT020 BKN060 21/17 Q1021,SBGL,2023-05-30T22:00:00Z,-22.82,-43.25,21.0,17.0,130,4,,6.21,30.147638,,,,,,,,,,,SCT,2000,BKN,6000,,,,,VFR,,,,,,,,,,,,METAR,3.0
SBFZ 302200Z 10007KT CAVOK 28/24 Q1014,SBFZ,2023-05-30T22:00:00Z,-3.77,-38.52,28.0,24.0,100,7,,6.21,29.940945,,,,,,,,,,,CAVOK,,,,,,,,VFR,,,,,,,,,,,,METAR,32.0
SBFN 302200Z AUTO 15006KT 120V180 9999 SCT018 BKN022 27/24 Q1015,SBFN,2023-05-30T22:00:00Z,-3.85,-32.42,27.0,24.0,150,6,,6.21,29.970472,,,TRUE,,,,,,,,SCT,1800,BKN,2200,,,,,MVFR,,,,,,,,,,,,METAR,52.0
SBFL 302200Z 36004KT 9999 FEW036 BKN048 19/18 Q1022,SBFL,2023-05-30T22:00:00Z,-27.67,-48.53,19.0,18.0,360,4,,6.21,30.177166,,,,,,,,,,,FEW,3600,BKN,4800,,,,,VFR,,,,,,,,,,,,METAR,5.0
SBFI 302200Z 11003KT 9999 FEW020 SCT080 19/17 Q1019,SBFI,2023-05-30T22:00:00Z,-25.6,-54.48,19.0,17.0,110,3,,6.21,30.088583,,,,,,,,,,,FEW,2000,SCT,8000,,,,,VFR,,,,,,,,,,,,METAR,233.0
SBEG 302200Z 32002KT 9999 VCSH BKN020 FEW030TCU 28/27 Q1010 RERA,SBEG,2023-05-30T22:00:00Z,-3.03,-60.03,28.0,27.0,320,2,,6.21,29.822834,,,,,,,,,,VCSH,BKN,2000,FEW,3000,,,,,MVFR,,,,,,,,,,,,METAR,69.0
SBCY 302200Z 16006KT 9999 BKN009 OVC014 22/20 Q1017,SBCY,2023-05-30T22:00:00Z,-15.65,-56.12,22.0,20.0,160,6,,6.21,30.029528,,,,,,,,,,,BKN,900,OVC,1400,,,,,IFR,,,,,,,,,,,,METAR,182.0
SBCT 302200Z 09004KT 9999 OVC008 13/12 Q1023,SBCT,2023-05-30T22:00:00Z,-25.52,-49.17,13.0,12.0,90,4,,6.21,30.206694,,,,,,,,,,,OVC,800,,,,,,,IFR,,,,,,,,,,,,METAR,914.0
SBCP 302200Z 18006KT CAVOK 20/17 Q1022,SBCP,2023-05-30T22:00:00Z,-21.7,-41.3,20.0,17.0,180,6,,6.21,30.177166,,,,,,,,,,,CAVOK,,,,,,,,VFR,,,,,,,,,,,,METAR,15.0
SBCG 302200Z 05008KT 9999 FEW005 OVC100 18/17 Q1017,SBCG,2023-05-30T22:00:00Z,-20.47,-54.67,18.0,17.0,50,8,,6.21,30.029528,,,,,,,,,,,FEW,500,OVC,10000,,,,,VFR,,,,,,,,,,,,METAR,556.0
SBCF 302200Z 08008KT 9999 FEW040 19/14 Q1023,SBCF,2023-05-30T22:00:00Z,-19.63,-43.97,19.0,14.0,80,8,,6.21,30.206694,,,,,,,,,,,FEW,4000,,,,,,,VFR,,,,,,,,,,,,METAR,825.0
SBCB 302200Z 12002KT 9999 SCT030 BKN070 20/19 Q1022,SBCB,2023-05-30T22:00:00Z,-22.92,-42.08,20.0,19.0,120,2,,6.21,30.177166,,,,,,,,,,,SCT,3000,BKN,7000,,,,,VFR,,,,,,,,,,,,METAR,3.0
SBBV 302200Z 07004KT 9999 FEW030 FEW035TCU SCT100 30/22 Q1010,SBBV,2023-05-30T22:00:00Z,2.85,-60.7,30.0,22.0,70,4,,6.21,29.822834,,,,,,,,,,,FEW,3000,FEW,3500,SCT,10000,,,VFR,,,,,,,,,,,,METAR,80.0
SBBR 302200Z 07004KT 9999 SCT040 24/13 Q1020,SBBR,2023-05-30T22:00:00Z,-15.87,-47.92,24.0,13.0,70,4,,6.21,30.11811,,,,,,,,,,,SCT,4000,,,,,,,VFR,,,,,,,,,,,,METAR,1051.0
SBBG 302200Z AUTO 02003KT CAVOK 12/11 Q1020,SBBG,2023-05-30T22:00:00Z,-31.38,-54.12,12.0,11.0,20,3,,6.21,30.11811,,,TRUE,,,,,,,,CAVOK,,,,,,,,VFR,,,,,,,,,,,,METAR,182.0
SBBE 302200Z 08003KT CAVOK 27/25 Q1012,SBBE,2023-05-30T22:00:00Z,-1.37,-48.47,27.0,25.0,80,3,,6.21,29.88189,,,,,,,,,,,CAVOK,,,,,,,,VFR,,,,,,,,,,,,METAR,16.0
SBAR 302200Z 18010KT 9999 FEW020 SCT024 26/23 Q1017,SBAR,2023-05-30T22:00:00Z,-10.98,-37.07,26.0,23.0,180,10,,6.21,30.029528,,,,,,,,,,,FEW,2000,SCT,2400,,,,,VFR,,,,,,,,,,,,METAR,4.0
PLCH 302200Z 12007KT 9999 SCT019 BKN040 28/26 Q1010,PLCH,2023-05-30T22:00:00Z,1.98,-157.35,28.0,26.0,120,7,,6.21,29.822834,,,,,,,,,,,SCT,1900,BKN,4000,,,,,VFR,,,,,,,,,,,,METAR,5.0
PKWA 302200Z AUTO 17005KT 10SM CLR 25/23 A2992 RMK AO2 T02530228 TSNO,PKWA,2023-05-30T22:00:00Z,8.72,167.72,25.3,22.8,170,5,,10.0,29.920275,,,TRUE,TRUE,,,TRUE,,,,CLR,,,,,,,,VFR,,,,,,,,,,,,METAR,6.0
PADG 302200Z 23010KT 3SM -SN BR BKN007 OVC011 01/00 A2963,PADG,2023-05-30T22:00:00Z,68.03,-162.9,1.0,0.0,230,10,,3.0,29.630905,,,,,,,,,,-SN BR,BKN,700,OVC,1100,,,,,IFR,,,,,,,,,,,,SPECI,296.0
OSLK 302200Z 12004KT 9999 FEW026 SCT030 19/17 Q1016,OSLK,2023-05-30T22:00:00Z,35.4,35.95,19.0,17.0,120,4,,6.21,30.0,,,,,,,,,,,FEW,2600,SCT,3000,,,,,VFR,,,,,,,,,,,,METAR,47.0
OSDI 302200Z 20008KT CAVOK 14/02 Q1016,OSDI,2023-05-30T22:00:00Z,33.42,36.52,14.0,2.0,200,8,,6.21,30.0,,,,,,,,,,,CAVOK,,,,,,,,VFR,,,,,,,,,,,,METAR,614.0
ORSU 302200Z 35005KT CAVOK 19/14 Q1015,ORSU,2023-05-30T22:00:00Z,35.57,45.32,19.0,14.0,350,5,,6.21,29.970472,,,,,,,,,,,CAVOK,,,,,,,,VFR,,,,,,,,,,,,METAR,760.0
ORNI 302200Z 34006KT 7000 FEW040 31/15 Q1009,ORNI,2023-05-30T22:00:00Z,31.98,44.4,31.0,15.0,340,6,,4.35,29.793306,,,,,,,,,,,FEW,4000,,,,,,,MVFR,,,,,,,,,,,,METAR,33.0
ORMM 302200Z 30010KT 9999 FEW040 31/15 Q1007 NOSIG,ORMM,2023-05-30T22:00:00Z,30.53,47.67,31.0,15.0,300,10,,6.21,29.734253,,,,,,TRUE,,,,,FEW,4000,,,,,,,VFR,,,,,,,,,,,,METAR,2.0
ORER 302200Z VRB02KT 9000 FEW045 SCT080 24/07 Q1013,ORER,2023-05-30T22:00:00Z,36.23,43.97,24.0,7.0,0,2,,5.59,29.911417,,,,,,,,,,,FEW,4500,SCT,8000,,,,,VFR,,,,,,,,,,,,METAR,399.0
ORBI 302200Z 23006KT CAVOK 30/16 Q1009,ORBI,2023-05-30T22:00:00Z,33.27,44.23,30.0,16.0,230,6,,6.21,29.793306,,,,,,,,,,,CAVOK,,,,,,,,VFR,,,,,,,,,,,,METAR,37.0
OPST 302200Z 05004KT 4000 FU SCT040 SCT100 23/17 Q1006 NOSIG 71%,OPST,2023-05-30T22:00:00Z,32.53,74.37,23.0,17.0,50,4,,2.49,29.704725,,,,,,TRUE,,,,FU,SCT,4000,SCT,10000,,,,,IFR,,,,,,,,,,,,METAR,234.0
OPMT 302200Z 27004KT 4000 FU SCT040 BKN100 24/20 Q1006 TEMPO 05020KT 2000 TSRA FEW030CB,OPMT,2023-05-30T22:00:00Z,30.2,71.42,24.0,20.0,270,4,,2.49,29.704725,,,,,,,,,,FU,SCT,4000,BKN,10000,,,,,IFR,,,,,,,,,,,,METAR,122.0
OPKC 302200Z 24004KT 6000 SCT020 29/24 Q1008 NOSIG,OPKC,2023-05-30T22:00:00Z,24.9,67.13,29.0,24.0,240,4,,3.73,29.763779,,,,,,TRUE,,,,,SCT,2000,,,,,,,MVFR,,,,,,,,,,,,METAR,20.0
OLBA 302200Z VRB01KT 8000 21/15 Q1016 NOSIG,OLBA,2023-05-30T22:00:00Z,33.82,35.48,21.0,15.0,0,1,,4.97,30.0,,,,,,TRUE,,,,,,,,,,,,,,,,,,,,,,,,,METAR,29.0
OJAQ 302200Z 35012KT CAVOK 27/10 Q1013 NOSIG,OJAQ,2023-05-30T22:00:00Z,29.62,35.02,27.0,10.0,350,12,,6.21,29.911417,,,,,,TRUE,,,,,CAVOK,,,,,,,,VFR,,,,,,,,,,,,METAR,45.0
OJAM 302200Z 26005KT CAVOK 19/04 Q1018 NOSIG,OJAM,2023-05-30T22:00:00Z,31.98,35.98,19.0,4.0,260,5,,6.21,30.059055,,,,,,TRUE,,,,,CAVOK,,,,,,,,VFR,,,,,,,,,,,,METAR,765.0
OJAI 302200Z 16005KT 5000 HZ NSC 17/10 Q1017 NOSIG,OJAI,2023-05-30T22:00:00Z,31.72,36.0,17.0,10.0,160,5,,3.11,30.029528,,,,,,TRUE,,,,HZ,CLR,,,,,,,,MVFR,,,,,,,,,,,,METAR,723.0
OERK 302200Z 28006KT CAVOK 30/13 Q1014 NOSIG,OERK,2023-05-30T22:00:00Z,24.95,46.72,30.0,13.0,280,6,,6.21,29.940945,,,,,,TRUE,,,,,CAVOK,,,,,,,,VFR,,,,,,,,,,,,METAR,618.0
OEMA 302200Z 27009KT CAVOK 31/11 Q1015 NOSIG,OEMA,2023-05-30T22:00:00Z,24.55,39.7,31.0,11.0,270,9,,6.21,29.970472,,,,,,TRUE,,,,,CAVOK,,,,,,,,VFR,,,,,,,,,,,,METAR,639.0
OEJN 302200Z 30003KT CAVOK 30/24 Q1010 NOSIG,OEJN,2023-05-30T22:00:00Z,21.68,39.15,30.0,24.0,300,3,,6.21,29.822834,,,,,,TRUE,,,,,CAVOK,,,,,,,,VFR,,,,,,,,,,,,METAR,8.0
OEDR 302200Z 32008KT CAVOK 33/15 Q1005,OEDR,2023-05-30T22:00:00Z,26.27,50.17,33.0,15.0,320,8,,6.21,29.675198,,,,,,,,,,,CAVOK,,,,,,,,VFR,,,,,,,,,,,,METAR,17.0
OEDF 302200Z 32006KT CAVOK 31/16 Q1006 NOSIG,OEDF,2023-05-30T22:00:00Z,26.43,49.82,31.0,16.0,320,6,,6.21,29.704725,,,,,,TRUE,,,,,CAVOK,,,,,,,,VFR,,,,,,,,,,,,METAR,15.0
OEAB 302200Z 00000KT 9999 FEW020 17/11 Q1027 NOSIG,OEAB,2023-05-30T22:00:00Z,18.23,42.65,17.0,11.0,0,0,,6.21,30.324802,,,,,,TRUE,,,,,FEW,2000,,,,,,,VFR,,,,,,,,,,,,METAR,2092.0
NSFA 302200Z 03008KT 9999 BKN022 32/26 Q1013,NSFA,2023-05-30T22:00:00Z,-13.83,-172.0,32.0,26.0,30,8,,6.21,29.911417,,,,,,,,,,,BKN,2200,,,,,,,MVFR,,,,,,,,,,,,METAR,6.0
NIUE 302200Z 10008KT 9999 SCT018 27/21 Q1017,NIUE,2023-05-30T22:00:00Z,-19.07,-169.92,27.0,21.0,100,8,,6.21,30.029528,,,,,,,,,,,SCT,1800,,,,,,,VFR,,,,,,,,,,,,METAR,22.0
NGTA 302200Z 04004KT 9999 FEW019 30/25 Q1011,NGTA,2023-05-30T22:00:00Z,1.37,173.13,30.0,25.0,40,4,,6.21,29.852362,,,,,,,,,,,FEW,1900,,,,,,,VFR,,,,,,,,,,,,METAR,8.0
NGFU 302200Z VRB02KT 9999 FEW016CB FEW018TCU BKN300 31/27 Q1011,NGFU,2023-05-30T22:00:00Z,-8.52,179.18,31.0,27.0,0,2,,6.21,29.852362,,,,,,,,,,,FEW,1600,FEW,1800,BKN,30000,,,VFR,,,,,,,,,,,,METAR,2.0
NFTV 302200Z 10012KT 9999 FEW018 28/24 Q1015,NFTV,2023-05-30T22:00:00Z,-18.58,-173.97,28.0,24.0,100,12,,6.21,29.970472,,,,,,,,,,,FEW,1800,,,,,,,VFR,,,,,,,,,,,,METAR,71.0
NFTL 302200Z 09014KT 9999 FEW017TCU 27/28 Q1016,NFTL,2023-05-30T22:00:00Z,-19.78,-174.33,27.0,28.0,90,14,,6.21,30.0,,,,,,,,,,,FEW,1700,,,,,,,VFR,,,,,,,,,,,,METAR,10.0
NFTF 302200Z 06013KT 9999 FEW010 BKN017 27/24 Q1017,NFTF,2023-05-30T22:00:00Z,-21.23,-175.15,27.0,24.0,60,13,,6.21,30.029528,,,,,,,,,,,FEW,1000,BKN,1700,,,,,MVFR,,,,,,,,,,,,METAR,38.0
NFNM 302200Z 13013KT 9999 VCSH SCT018TCU 29/26 Q1013,NFNM,2023-05-30T22:00:00Z,-16.68,-179.87,29.0,26.0,130,13,,6.21,29.911417,,,,,,,,,,VCSH,SCT,1800,,,,,,,VFR,,,,,,,,,,,,METAR,21.0
NFNL 302200Z 09008KT 9999 SCT024 SCT047 29/24 Q1013,NFNL,2023-05-30T22:00:00Z,-16.47,179.33,29.0,24.0,90,8,,6.21,29.911417,,,,,,,,,,,SCT,2400,SCT,4700,,,,,VFR,,,,,,,,,,,,METAR,17.0
NFNA 302200Z 23003KT 180V270 9999 2000NE SHRA FEW008 SCT018TCU BKN045 27/25 Q1015,NFNA,2023-05-30T22:00:00Z,-18.05,178.57,27.0,25.0,230,3,,6.21,29.970472,,,,,,,,,,SHRA,FEW,800,SCT,1800,BKN,4500,,,VFR,,,,,,,,,,,,METAR,6.0
NFFN 302200Z VRB02KT 9999 FEW030 SCT300 30/24 Q1015 NOSIG,NFFN,2023-05-30T22:00:00Z,-17.75,177.45,30.0,24.0,0,2,,6.21,29.970472,,,,,,TRUE,,,,,FEW,3000,SCT,30000,,,,,VFR,,,,,,,,,,,,METAR,14.0
NCSW 302200Z AUTO NIL,NCSW,2023-05-30T22:00:00Z,,,,,,,,,,,,TRUE,,,,,,,,,,,,,,,,,,,,,,,,,,,,METAR,
NCRK 302200Z AUTO NIL,NCRK,2023-05-30T22:00:00Z,-10.02,-161.1,,,,,,,,,,TRUE,,,,,,,,,,,,,,,,,,,,,,,,,,,,METAR,7.0
NCPY 302200Z AUTO 09004KT //// ////// 30/25 Q1012,NCPY,2023-05-30T22:00:00Z,-9.02,-158.03,30.0,25.0,90,4,,,29.88189,,,TRUE,,,,,,,,,,,,,,,,,,,,,,,,,,,,METAR,2.0
NCPL 302200Z AUTO NIL,NCPL,2023-05-30T22:00:00Z,1.98,-157.48,,,,,,,,,,TRUE,,,,,,,,,,,,,,,,,,,,,,,,,,,,METAR,3.0
NCPK 302200Z AUTO 11004KT //// ////// 30/24 Q1012,NCPK,2023-05-30T22:00:00Z,-10.9,-165.83,30.0,24.0,110,4,,,29.88189,,,TRUE,,,,,,,,,,,,,,,,,,,,,,,,,,,,METAR,5.0
NCNS 302200Z AUTO NIL,NCNS,2023-05-30T22:00:00Z,,,,,,,,,,,,TRUE,,,,,,,,,,,,,,,,,,,,,,,,,,,,METAR,
NCMR 302200Z AUTO 11006KT //// ////// ///// Q1016,NCMR,2023-05-30T22:00:00Z,-19.85,-157.7,,,110,6,,,30.0,,,TRUE,,,,,,,,,,,,,,,,,,,,,,,,,,,,METAR,8.0
NCMK 302200Z AUTO 15008KT //// ////// 24/15 Q1015,NCMK,2023-05-30T22:00:00Z,-20.15,-157.33,24.0,15.0,150,8,,,29.970472,,,TRUE,,,,,,,,,,,,,,,,,,,,,,,,,,,,METAR,13.0
NCMH 302200Z AUTO NIL,NCMH,2023-05-30T22:00:00Z,-10.38,-161.0,,,,,,,,,,TRUE,,,,,,,,,,,,,,,,,,,,,,,,,,,,METAR,1.0
NCMG 302200Z AUTO 12006KT //// ////// ///// Q////,NCMG,2023-05-30T22:00:00Z,-21.88,-157.9,,,120,6,,,,,,TRUE,,,,,,,,,,,,,,,,,,,,,,,,,,,,METAR,14.0
NCAT 302200Z AUTO NIL,NCAT,2023-05-30T22:00:00Z,-19.97,-158.12,,,,,,,,,,TRUE,,,,,,,,,,,,,,,,,,,,,,,,,,,,METAR,11.0
NCAI 302200Z AUTO 16009KT //// ////// 26/21 Q1016,NCAI,2023-05-30T22:00:00Z,-18.82,-159.77,26.0,21.0,160,9,,,30.0,,,TRUE,,,,,,,,,,,,,,,,,,,,,,,,,,,,METAR,7.0
MZBZ 302200Z 09009KT 9999 FEW028 32/26 A2972 Q1006 NOSIG,MZBZ,2023-05-30T22:00:00Z,17.53,-88.3,32.0,26.0,90,9,,6.21,29.704725,,,,,,TRUE,,,,,FEW,2800,,,,,,,VFR,,,,,,,,,,,,METAR,6.0
MYGF 302200Z 05014KT 9999 BKN022 29/23 A2987,MYGF,2023-05-30T22:00:00Z,26.55,-78.7,29.0,23.0,50,14,,6.21,29.870079,,,,,,,,,,,BKN,2200,,,,,,,MVFR,,,,,,,,,,,,METAR,2.0
MYCB 302200Z AUTO 03004KT 9999 BKN021 //////CB 28/25 A2988,MYCB,2023-05-30T22:00:00Z,24.32,-75.45,28.0,25.0,30,4,,6.21,29.878937,,,TRUE,,,,,,,,BKN,2100,,,,,,,MVFR,,,,,,,,,,,,METAR,2.0
MYAF 302200Z AUTO VRB01KT //// // //////CB 27/25 A2986,MYAF,2023-05-30T22:00:00Z,24.68,-77.78,27.0,25.0,0,1,,,29.861221,,,TRUE,,,,,,,,,,,,,,,,,,,,,,,,,,,,METAR,2.0
MWCR 302200Z 01006KT 9999 -SHRA SCT014CB SCT030 25/25 Q1010,MWCR,2023-05-30T22:00:00Z,19.3,-81.37,25.0,25.0,10,6,,6.21,29.822834,,,,,,,,,,-SHRA,SCT,1400,SCT,3000,,,,,VFR,,,,,,,,,,,,METAR,4.0
MWCB 302200Z 14005KT 9999 -SHRA FEW016TCU SCT030 28/24 Q1011,MWCB,2023-05-30T22:00:00Z,19.68,-79.88,28.0,24.0,140,5,,6.21,29.852362,,,,,,,,,,-SHRA,FEW,1600,SCT,3000,,,,,VFR,,,,,,,,,,,,METAR,7.0
MRPV 302200Z 05003KT 2000 RA BR SCT005 BKN010 19/19 A2999 NOSIG,MRPV,2023-05-30T22:00:00Z,9.95,-84.15,19.0,19.0,50,3,,1.24,29.991142,,,,,,TRUE,,,,RA BR,SCT,500,BKN,1000,,,,,IFR,,,,,,,,,,,,METAR,998.0
MROC 302200Z 34006KT 320V040 5000 -RA BR FEW008 OVC015 21/20 A2994 NOSIG,MROC,2023-05-30T22:00:00Z,10.0,-84.22,21.0,20.0,340,6,,3.11,29.940945,,,,,,TRUE,,,,-RA BR,FEW,800,OVC,1500,,,,,MVFR,,,,,,,,,,,,METAR,900.0
MRLM 302200Z 04003KT 9999 FEW015TCU SCT020 BKN120 29/25 A2976,MRLM,2023-05-30T22:00:00Z,9.97,-83.03,29.0,25.0,40,3,,6.21,29.760826,,,,,,,,,,,FEW,1500,SCT,2000,BKN,12000,,,VFR,,,,,,,,,,,,METAR,2.0
MRLB 312200Z 15009KT 4000 1000NW -TSRA SCT010CB 24/24 A2979,MRLB,2023-05-30T22:00:00Z,10.6,-85.55,24.0,24.0,150,9,,2.49,29.790354,,,,,,,,,,-TSRA,SCT,1000,,,,,,,IFR,,,,,,,,,,,,METAR,79.0
MPTO 302200Z 15010KT 110V170 9999 SCT016CB 29/25 Q1008 NOSIG,MPTO,2023-05-30T22:00:00Z,9.05,-79.38,29.0,25.0,150,10,,6.21,29.763779,,,,,,TRUE,,,,,SCT,1600,,,,,,,VFR,,,,,,,,,,,,METAR,7.0
MPSM 302200Z 16005KT 9999 SCT020 29/24 Q1008,MPSM,2023-05-30T22:00:00Z,8.38,-80.13,29.0,24.0,160,5,,6.21,29.763779,,,,,,,,,,,SCT,2000,,,,,,,VFR,,,,,,,,,,,,METAR,36.0
MPPA 302200Z 18004KT 9999 FEW018 29/25 Q1007,MPPA,2023-05-30T22:00:00Z,8.92,-79.6,29.0,25.0,180,4,,6.21,29.734253,,,,,,,,,,,FEW,1800,,,,,,,VFR,,,,,,,,,,,,METAR,1.0
MHTG 302200Z 23004KT 9999 FEW032 BKN080 26/18 Q1015 A2997 NOSIG,MHTG,2023-05-30T22:00:00Z,14.07,-87.22,26.0,18.0,230,4,,6.21,29.970472,,,,,,TRUE,,,,,FEW,3200,BKN,8000,,,,,VFR,,,,,,,,,,,,METAR,1001.0
MHRO 302200Z 34004KT 9999 SCT026 BKN080 31/23 Q1007 A2974 NOSIG,MHRO,2023-05-30T22:00:00Z,16.32,-86.53,31.0,23.0,340,4,,6.21,29.734253,,,,,,TRUE,,,,,SCT,2600,BKN,8000,,,,,VFR,,,,,,,,,,,,METAR,6.0
MHPR 302200Z 18008KT 9999 FEW048 SCT100 28/19 Q1013 A2991 NOSIG,MHPR,2023-05-30T22:00:00Z,14.38,-87.62,28.0,19.0,180,8,,6.21,29.911417,,,,,,TRUE,,,,,FEW,4800,SCT,10000,,,,,VFR,,,,,,,,,,,,METAR,628.0
MHLM 302200Z 02013KT 9999 FEW030TCU SCT080 33/25 Q1006 A2971 NOSIG,MHLM,2023-05-30T22:00:00Z,15.45,-87.93,33.0,25.0,20,13,,6.21,29.704725,,,,,,TRUE,,,,,FEW,3000,SCT,8000,,,,,VFR,,,,,,,,,,,,METAR,32.0
MHLC 302200Z 02007KT 5000 FU FEW026 BKN080 32/23 Q1007 A2974 NOSIG,MHLC,2023-05-30T22:00:00Z,15.75,-86.85,32.0,23.0,20,7,,3.11,29.734253,,,,,,TRUE,,,,FU,FEW,2600,BKN,8000,,,,,MVFR,,,,,,,,,,,,METAR,13.0
MHCA 302200Z VRB02KT 9999 FEW030TCU BKN080 31/22 Q1009,MHCA,2023-05-30T22:00:00Z,14.87,-85.78,31.0,22.0,0,2,,6.21,29.793306,,,,,,,,,,,FEW,3000,BKN,8000,,,,,VFR,,,,,,,,,,,,METAR,386.0
MGZA 302200Z 00000KT 9999 FEW030TCU 35/21 QFE 981.3 FEW090 TCU DIST N,MGZA,2023-05-30T22:00:00Z,14.97,-89.53,35.0,21.0,0,0,,6.21,,,,,,,,,,,,FEW,3000,FEW,9000,,,,,VFR,,,,,,,,,,,,METAR,195.0
MGTU 302200Z 29004KT 9999 -TSRA SCT018 FEW020CB SCT060 25/24 CB/TS NE/ENE/E/ESE,MGTU,2023-05-30T22:00:00Z,,,25.0,24.0,290,4,,6.21,,,,,,,,,,,-TSRA TS,SCT,1800,FEW,2000,SCT,6000,,,VFR,,,,,,,,,,,,METAR,
MGRT 302200Z 05006KT 7000 TS BKN018 FEW025CB BKN090 25/24 Q1011 A2985 CB/TS/PCPN E/ESE/SE HZ VOL. STA MARIA Y SANTIAGUITO EN ACTIVIDAD,MGRT,2023-05-30T22:00:00Z,14.53,-91.7,25.0,24.0,50,6,,4.35,29.852362,,,,,,,,,,TS TS SA HZ,BKN,1800,FEW,2500,BKN,9000,,,MVFR,,,,,,,,,,,,METAR,209.0
MGQZ 302200Z 00000KT 8000 +DZ OVC016 16/13 QFE 771.4,MGQZ,2023-05-30T22:00:00Z,14.87,-91.5,16.0,13.0,0,0,,4.97,,,,,,,,,,,+DZ,OVC,1600,,,,,,,MVFR,,,,,,,,,,,,METAR,2378.0
MGPB 302200Z 03010KT 7000 FEW020 SCT090 34/25 Q1005 A2968 HZ CB DIST SSE/S,MGPB,2023-05-30T22:00:00Z,15.73,-88.58,34.0,25.0,30,10,,4.35,29.675198,,,,,,,,,,HZ,FEW,2000,SCT,9000,,,,,MVFR,,,,,,,,,,,,METAR,6.0
MGMT 302200Z 18004KT CAVOK 31/26 SCT070,MGMT,2023-05-30T22:00:00Z,,,31.0,26.0,180,4,,6.21,,,,,,,,,,,,SCT,7000,,,,,,,VFR,,,,,,,,,,,,METAR,
MGMM 302200Z 34004KT 9999 FEW020 38/20 Q1007 A2974,MGMM,2023-05-30T22:00:00Z,16.9,-89.87,38.0,20.0,340,4,,6.21,29.734253,,,,,,,,,,,FEW,2000,,,,,,,VFR,,,,,,,,,,,,METAR,105.0
MGHT 302200Z 36004KT 9999 SCT026 BKN028CB 18/16 CB/PCPN N/NE/E/SE CB S/SW RETS,MGHT,2023-05-30T22:00:00Z,15.32,-91.5,18.0,16.0,360,4,,6.21,,,,,,,,,,,,SCT,2600,BKN,2800,,,,,MVFR,,,,,,,,,,,,METAR,1875.0
MGGT 302200Z 21004KT 9999 SCT018 FEW025CB SCT090 BKN200 23/18 Q1017 A3003 CB NNE/NE,MGGT,2023-05-30T22:00:00Z,14.58,-90.53,23.0,18.0,210,4,,6.21,30.029528,,,,,,,,,,,SCT,1800,FEW,2500,SCT,9000,BKN,20000,VFR,,,,,,,,,,,,METAR,1497.0
MGES 302200Z 14004KT 9999 SCT020TCU FEW025CB 30/18 QFE 906.0 FEW090 FEW200 CB SSE/S TCU NE/ENE/SE,MGES,2023-05-30T22:00:00Z,14.57,-89.32,30.0,18.0,140,4,,6.21,,,,,,,,,,,,SCT,2000,FEW,2500,FEW,9000,FEW,20000,VFR,,,,,,,,,,,,METAR,948.0
MGCB 302200Z 09008KT 9999 BKN018 FEW024CB 26/17 QFE 868.0 CB SE/S/W,MGCB,2023-05-30T22:00:00Z,15.48,-90.42,26.0,17.0,90,8,,6.21,,,,,,,,,,,,BKN,1800,FEW,2400,,,,,MVFR,,,,,,,,,,,,METAR,1323.0
MDST 302200Z 12010KT 9999 FEW018CB FEW020 BKN300 29/23 Q1011 CB/ NE/E/SE/S/SW/W,MDST,2023-05-30T22:00:00Z,19.4,-70.6,29.0,23.0,120,10,,6.21,29.852362,,,,,,,,,,,FEW,1800,FEW,2000,BKN,30000,,,VFR,,,,,,,,,,,,METAR,175.0
MDSD 302200Z 16005KT 9999 FEW022 SCT300 29/25 Q1012,MDSD,2023-05-30T22:00:00Z,18.42,-69.67,29.0,25.0,160,5,,6.21,29.88189,,,,,,,,,,,FEW,2200,SCT,30000,,,,,VFR,,,,,,,,,,,,METAR,18.0
MDPP 302200Z 12015KT 9999 FEW020 BKN300 29/24 Q1010,MDPP,2023-05-30T22:00:00Z,19.75,-70.57,29.0,24.0,120,15,,6.21,29.822834,,,,,,,,,,,FEW,2000,BKN,30000,,,,,VFR,,,,,,,,,,,,METAR,9.0
MDPC 302200Z 11004KT 9999 FEW018CB SCT018 26/24 Q1013 CB/W/NW,MDPC,2023-05-30T22:00:00Z,18.57,-68.37,26.0,24.0,110,4,,6.21,29.911417,,,,,,,,,,,FEW,1800,SCT,1800,,,,,VFR,,,,,,,,,,,,METAR,10.0
MDLR 302200Z 11008KT 9999 BKN020 BKN300 30/25 Q1011,MDLR,2023-05-30T22:00:00Z,18.45,-68.92,30.0,25.0,110,8,,6.21,29.852362,,,,,,,,,,,BKN,2000,BKN,30000,,,,,MVFR,,,,,,,,,,,,METAR,66.0
MDJB 302200Z 17006KT 9999 SCT018 SCT300 28/23 Q1012,MDJB,2023-05-30T22:00:00Z,18.57,-69.98,28.0,23.0,170,6,,6.21,29.88189,,,,,,,,,,,SCT,1800,SCT,30000,,,,,VFR,,,,,,,,,,,,METAR,24.0
MDCY 302200Z 13004KT 9999 SCT018 SCT300 28/26 Q1010,MDCY,2023-05-30T22:00:00Z,19.27,-69.73,28.0,26.0,130,4,,6.21,29.822834,,,,,,,,,,,SCT,1800,SCT,30000,,,,,VFR,,,,,,,,,,,,METAR,4.0
MDBH 302200Z 13013KT 9999 FEW020CB SCT022 SCT080 BKN300 29/24 Q1012 CB/NE/W/NW/N,MDBH,2023-05-30T22:00:00Z,18.25,-71.12,29.0,24.0,130,13,,6.21,29.88189,,,,,,,,,,,FEW,2000,SCT,2200,SCT,8000,BKN,30000,VFR,,,,,,,,,,,,METAR,7.0
MBPV 302200Z 16005KT 9999 SCT025CB 29/23 Q1011,MBPV,2023-05-30T22:00:00Z,21.77,-72.27,29.0,23.0,160,5,,6.21,29.852362,,,,,,,,,,,SCT,2500,,,,,,,VFR,,,,,,,,,,,,METAR,7.0
LUKK 302200Z 35005KT CAVOK 16/09 Q1015 NOSIG,LUKK,2023-05-30T22:00:00Z,46.93,28.93,16.0,9.0,350,5,,6.21,29.970472,,,,,,TRUE,,,,,CAVOK,,,,,,,,VFR,,,,,,,,,,,,METAR,102.0
LGKP 302200Z AUTO VRB01KT //// // ////// 19/17 Q1014 RE//,LGKP,2023-05-30T22:00:00Z,35.42,27.15,19.0,17.0,0,1,,,29.940945,,,TRUE,,,,,,,,,,,,,,,,,,,,,,,,,,,,METAR,20.0
LEJR 302200Z AUTO 22005KT CAVOK 19/16 Q1018,LEJR,2023-05-30T22:00:00Z,36.75,-6.07,19.0,16.0,220,5,,6.21,30.059055,,,TRUE,,,,,,,,CAVOK,,,,,,,,VFR,,,,,,,,,,,,METAR,25.0
LBWN 302200Z AUTO 33002KT 9999 NCD 15/14 Q1015 NOSIG,LBWN,2023-05-30T22:00:00Z,43.22,27.82,15.0,14.0,330,2,,6.21,29.970472,,,TRUE,,,TRUE,,,,,CLR,,,,,,,,VFR,,,,,,,,,,,,METAR,74.0
LBSF 302200Z AUTO 11012KT 9999 SCT085/// 16/12 Q1017 NOSIG,LBSF,2023-05-30T22:00:00Z,42.65,23.37,16.0,12.0,110,12,,6.21,30.029528,,,TRUE,,,TRUE,,,,,SCT,8500,,,,,,,VFR,,,,,,,,,,,,METAR,592.0
LBPD 302200Z AUTO 30003KT 9999 FEW091/// OVC110/// 17/17 Q1017,LBPD,2023-05-30T22:00:00Z,42.05,24.85,17.0,17.0,300,3,,6.21,30.029528,,,TRUE,,,,,,,,FEW,9100,OVC,11000,,,,,VFR,,,,,,,,,,,,METAR,182.0
LBGO 302200Z AUTO VRB03KT 9999 NCD 15/15 Q1016,LBGO,2023-05-30T22:00:00Z,43.15,25.72,15.0,15.0,0,3,,6.21,30.0,,,TRUE,,,,,,,,CLR,,,,,,,,VFR,,,,,,,,,,,,METAR,84.0
LBBG 302200Z AUTO 25005KT 9999 NSC 17/16 Q1015 NOSIG,LBBG,2023-05-30T22:00:00Z,42.57,27.52,17.0,16.0,250,5,,6.21,29.970472,,,TRUE,,,TRUE,,,,,CLR,,,,,,,,VFR,,,,,,,,,,,,METAR,41.0
KS71 302200Z AUTO 00000KT 10SM 27/05 A2977 ,KS71,2023-05-30T22:00:00Z,48.6,-109.25,27.0,5.0,0,0,,10.0,29.769686,,,TRUE,,,,,,,,,,,,,,,,,,,,,,,,,,,,METAR,736.0
KQFX 302200Z AUTO 00000KT 9999 FEW150 SCT170 17/14 A2989 RMK A02 TSNO,KQFX,2023-05-30T22:00:00Z,,,17.0,14.0,0,0,,6.21,29.890747,,,TRUE,TRUE,,,TRUE,,,,FEW,15000,SCT,17000,,,,,VFR,,,,,,,,,,,,METAR,
KQFV 302200Z AUTO 09002KT 9999 BKN160 BKN180 13/12 A2996 RMK A02 TSNO,KQFV,2023-05-30T22:00:00Z,,,13.0,12.0,90,2,,6.21,29.958662,,,TRUE,TRUE,,,TRUE,,,,BKN,16000,BKN,18000,,,,,VFR,,,,,,,,,,,,METAR,
KQFU 302200Z AUTO 35002KT 9999 BKN150 BKN170 19/14 A2992 RMK A02 TSNO,KQFU,2023-05-30T22:00:00Z,,,19.0,14.0,350,2,,6.21,29.920275,,,TRUE,TRUE,,,TRUE,,,,BKN,15000,BKN,17000,,,,,VFR,,,,,,,,,,,,METAR,
KQEW 302200Z AUTO 27001KT 9999 CLR 15/12 A2992 RMK A02 TSNO,KQEW,2023-05-30T22:00:00Z,,,15.0,12.0,270,1,,6.21,29.920275,,,TRUE,TRUE,,,TRUE,,,,CLR,,,,,,,,VFR,,,,,,,,,,,,METAR,
KQEQ 302200Z AUTO 05003KT 9999 BKN150 17/15 A2991 RMK A02 TSNO,KQEQ,2023-05-30T22:00:00Z,,,17.0,15.0,50,3,,6.21,29.911417,,,TRUE,TRUE,,,TRUE,,,,BKN,15000,,,,,,,VFR,,,,,,,,,,,,METAR,
KQEP 302200Z AUTO 17001KT 2400 HZ SCT060 BKN150 BKN180 18/13 A2991 RMK A02 TSNO,KQEP,2023-05-30T22:00:00Z,,,18.0,13.0,170,1,,1.49,29.911417,,,TRUE,TRUE,,,TRUE,,,HZ,SCT,6000,BKN,15000,BKN,18000,,,IFR,,,,,,,,,,,,METAR,
KQEN 302200Z AUTO 08001KT 9999 BKN140 11/08 A2998 RMK A02 TSNO,KQEN,2023-05-30T22:00:00Z,,,11.0,8.0,80,1,,6.21,29.97933,,,TRUE,TRUE,,,TRUE,,,,BKN,14000,,,,,,,VFR,,,,,,,,,,,,METAR,
KMTK 302200Z AUTO 12007KT 10SM CLR 27/18 A2989 RMK A01,KMTK,2023-05-30T22:00:00Z,,,27.0,18.0,120,7,,10.0,29.890747,,,TRUE,TRUE,,,,,,,CLR,,,,,,,,VFR,,,,,,,,,,,,METAR,
KJYL 302200Z AUTO 14004KT 10SM SCT080 OVC110 25/19 A2994 RMK AO2 T02480193,KJYL,2023-05-30T22:00:00Z,32.65,-81.6,24.8,19.3,140,4,,10.0,29.940945,,,TRUE,TRUE,,,,,,,SCT,8000,OVC,11000,,,,,VFR,,,,,,,,,,,,METAR,54.0
KIKT 302200Z AUTO 13006KT 10SM CLR 26/20 A2989 RMK A01,KIKT,2023-05-30T22:00:00Z,28.52,-88.28,26.0,20.0,130,6,,10.0,29.890747,,,TRUE,TRUE,,,,,,,CLR,,,,,,,,VFR,,,,,,,,,,,,METAR,36.0
KHRF 302200Z AUTO 02013KT 10SM FEW095 26/06 A2979 RMK AO2 Hamilton ,KHRF,2023-05-30T22:00:00Z,46.25,-114.13,26.0,6.0,20,13,,10.0,29.790354,,,TRUE,TRUE,,,,,,,FEW,9500,,,,,,,VFR,,,,,,,,,,,,METAR,1112.0
KGUL 302200Z AUTO 09005KT 10SM FEW024 26/21 A2986 RMK A01,KGUL,2023-05-30T22:00:00Z,27.3,-93.53,26.0,21.0,90,5,,10.0,29.861221,,,TRUE,TRUE,,,,,,,FEW,2400,,,,,,,VFR,,,,,,,,,,,,METAR,20.0
KDSF 302200Z AUTO 09006KT 10SM CLR 26/18 A2989 RMK A01,KDSF,2023-05-30T22:00:00Z,28.35,-88.27,26.0,18.0,90,6,,10.0,29.890747,,,TRUE,TRUE,,,,,,,CLR,,,,,,,,VFR,,,,,,,,,,,,METAR,40.0
KBDN 302200Z AUTO 02011G16KT 10SM CLR 26/M02 A2986 RMK AO2,KBDN,2023-05-30T22:00:00Z,44.1,-121.2,26.0,-2.0,20,11,16,10.0,29.861221,,,TRUE,TRUE,,,,,,,CLR,,,,,,,,VFR,,,,,,,,,,,,METAR,1044.0
KATP 302200Z AUTO 13016KT 8SM CLR 25/19 A2988 RMK A01,KATP,2023-05-30T22:00:00Z,27.2,-90.03,25.0,19.0,130,16,,8.0,29.878937,,,TRUE,TRUE,,,,,,,CLR,,,,,,,,VFR,,,,,,,,,,,,SPECI,50.0
K3U3 302200Z AUTO 00000KT 10SM 23/04 A2989 ,K3U3,2023-05-30T22:00:00Z,46.15,-112.87,23.0,4.0,0,0,,10.0,29.890747,,,TRUE,,,,,,,,,,,,,,,,,,,,,,,,,,,,METAR,1534.0
K38S 302200Z AUTO 35005KT 10SM 23/08 A2991 ,K38S,2023-05-30T22:00:00Z,46.38,-112.77,23.0,8.0,350,5,,10.0,29.911417,,,TRUE,,,,,,,,,,,,,,,,,,,,,,,,,,,,METAR,1430.0
K1S3 302200Z AUTO 27007KT 10SM 28/06 A2978 ,K1S3,2023-05-30T22:00:00Z,46.27,-106.62,28.0,6.0,270,7,,10.0,29.778543,,,TRUE,,,,,,,,,,,,,,,,,,,,,,,,,,,,METAR,831.0
HECA 302200Z 07007KT 9999 SCT025 24/14 Q1015 NOSIG,HECA,2023-05-30T22:00:00Z,30.12,31.4,24.0,14.0,70,7,,6.21,29.970472,,,,,,TRUE,,,,,SCT,2500,,,,,,,VFR,,,,,,,,,,,,METAR,68.0
GVSV 302200Z 05030KT 9999 FEW018 BKN200 24/19 Q1015 NOSIG,GVSV,2023-05-30T22:00:00Z,16.83,-25.07,24.0,19.0,50,30,,6.21,29.970472,,,,,,TRUE,,,,,FEW,1800,BKN,20000,,,,,VFR,,,,,,,,,,,,METAR,16.0
GVNP 302200Z 01017KT CAVOK 25/17 Q1015 NOSIG,GVNP,2023-05-30T22:00:00Z,14.95,-23.48,25.0,17.0,10,17,,6.21,29.970472,,,,,,TRUE,,,,,CAVOK,,,,,,,,VFR,,,,,,,,,,,,METAR,70.0
GVAC 302200Z 03016KT 9999 FEW014 BKN100 BKN200 23/19 Q1016 NOSIG,GVAC,2023-05-30T22:00:00Z,16.73,-22.93,23.0,19.0,30,16,,6.21,30.0,,,,,,TRUE,,,,,FEW,1400,BKN,10000,BKN,20000,,,VFR,,,,,,,,,,,,METAR,54.0
GQPP 302200Z 36013KT 6000 NSC 21/15 Q1016 NOSIG,GQPP,2023-05-30T22:00:00Z,20.92,-17.02,21.0,15.0,360,13,,3.73,30.0,,,,,,TRUE,,,,,CLR,,,,,,,,MVFR,,,,,,,,,,,,METAR,5.0
GLRB 302200Z 00000KT 99999 TS BKN012 FEW023CB 26/25 Q1014 TEMPO TS RMK CB/SW-NW,GLRB,2023-05-30T22:00:00Z,6.25,-10.35,26.0,25.0,0,0,,6.21,29.940945,,,,,,,,,,TS,BKN,1200,FEW,2300,,,,,MVFR,,,,,,,,,,,,METAR,12.0
GBYD 302200Z 26010KT CAVOK 27/24 Q1012,GBYD,2023-05-30T22:00:00Z,13.33,-16.65,27.0,24.0,260,10,,6.21,29.88189,,,,,,,,,,,CAVOK,,,,,,,,VFR,,,,,,,,,,,,METAR,29.0
FQBR 302200Z 11003KT CAVOK 20/20 Q1019,FQBR,2023-05-30T22:00:00Z,-19.8,34.9,20.0,20.0,110,3,,6.21,30.088583,,,,,,,,,,,CAVOK,,,,,,,,VFR,,,,,,,,,,,,METAR,14.0
FMMT 302200Z 26007KT 9999 VCSH SCT017 BKN033 21/20 Q1020,FMMT,2023-05-30T22:00:00Z,-18.12,49.38,21.0,20.0,260,7,,6.21,30.11811,,,,,,,,,,VCSH,SCT,1700,BKN,3300,,,,,VFR,,,,,,,,,,,,METAR,13.0
FMMI 302200Z 11005KT 9999 FEW017 BKN020 14/14 Q1025 NOSIG,FMMI,2023-05-30T22:00:00Z,-18.8,47.47,14.0,14.0,110,5,,6.21,30.265747,,,,,,TRUE,,,,,FEW,1700,BKN,2000,,,,,MVFR,,,,,,,,,,,,METAR,1269.0
FLKK 302200Z 12002KT CAVOK 15/12 Q1024 NOSIG,FLKK,2023-05-30T22:00:00Z,-15.32,28.45,15.0,12.0,120,2,,6.21,30.236221,,,,,,TRUE,,,,,CAVOK,,,,,,,,VFR,,,,,,,,,,,,METAR,1149.0
DIAP 302200Z 17005KT 9999 SCT012 29/27 Q1013 NOSIG,DIAP,2023-05-30T22:00:00Z,5.25,-3.92,29.0,27.0,170,5,,6.21,29.911417,,,,,,TRUE,,,,,SCT,1200,,,,,,,VFR,,,,,,,,,,,,METAR,4.0
BKPR 302200Z VRB02KT 9999 SCT050 BKN083 15/14 Q1018 NOSIG,BKPR,2023-05-30T22:00:00Z,42.58,21.03,15.0,14.0,0,2,,6.21,30.059055,,,,,,TRUE,,,,,SCT,5000,BKN,8300,,,,,VFR,,,,,,,,,,,,METAR,545.0
AGGH 302200Z 16005KT 9999 FEW018 28/24 Q1011 NOSIG,AGGH,2023-05-30T22:00:00Z,-9.42,160.05,28.0,24.0,160,5,,6.21,29.852362,,,,,,TRUE,,,,,FEW,1800,,,,,,,VFR,,,,,,,,,,,,METAR,6.0
RODE 302159Z AUTO A2967 RMK AO2 SLPNO PWINO TSNO $ ,RODE,2023-05-30T21:59:00Z,26.72,127.77,,,,,,,29.66929,,,TRUE,TRUE,TRUE,,TRUE,,TRUE,,,,,,,,,,,,,,,,,,,,,,METAR,69.0
MUCF 302159Z AUTO 19006KT 130V230 29/24 Q1011,MUCF,2023-05-30T21:59:00Z,22.15,-80.4,29.0,24.0,190,6,,,29.852362,,,TRUE,,,,,,,,,,,,,,,,,,,,,,,,,,,,METAR,35.0
KP92 302159Z AUTO 00000KT 27/ A2988 RMK AO1 SLP117 T0267 ,KP92,2023-05-30T21:59:00Z,29.57,-91.53,26.7,,0,0,,,29.878937,1011.7,,TRUE,TRUE,,,,,,,,,,,,,,,,,,,,,,,,,,,METAR,1.0
KNOZ 302159Z AUTO 17018G24KT 10SM CLR 32/01 A2975 RMK AO2 SLP024 T03220006 ,KNOZ,2023-05-30T21:59:00Z,32.53,-114.5,32.2,0.6,170,18,24,10.0,29.749016,1002.4,,TRUE,TRUE,,,,,,,CLR,,,,,,,,VFR,,,,,,,,,,,,METAR,78.0
PANW 302158Z AUTO 18008KT 10SM -RA SCT009 SCT015 OVC022 04/03 A2973 RMK AO2 P0000,PANW,2023-05-30T21:58:00Z,59.45,-157.32,4.0,3.0,180,8,,10.0,29.731298,,,TRUE,TRUE,,,,,,-RA,SCT,900,SCT,1500,OVC,2200,,,MVFR,,,,,,0.005,,,,,,METAR,100.0
KROG 302158Z 24009KT 2 1/2SM +RA FEW016 BKN029 OVC038 21/17 A2997 RMK AO2 VIS 1 1/2V5 RAB28 SLP138 P0058 T02110172,KROG,2023-05-30T21:58:00Z,36.37,-94.1,21.1,17.2,240,9,,2.5,29.970472,1013.8,,,TRUE,,,,,,+RA,FEW,1600,BKN,2900,OVC,3800,,,IFR,,,,,,0.58,,,,,,METAR,407.0
KMRH 302158Z AUTO 04009G16KT 10SM FEW031 25/19 A2996 RMK AO2 SLP147 T02500189,KMRH,2023-05-30T21:58:00Z,34.73,-76.65,25.0,18.9,40,9,16,10.0,29.958662,1014.7,,TRUE,TRUE,,,,,,,FEW,3100,,,,,,,VFR,,,,,,,,,,,,METAR,2.0
KMEI 302158Z 10SM CLR 29/15 A2990 RMK AO2 SLP121 T02940150,KMEI,2023-05-30T21:58:00Z,32.33,-88.75,29.4,15.0,,,,10.0,29.899607,1012.1,,,TRUE,,,,,,,CLR,,,,,,,,VFR,,,,,,,,,,,,METAR,90.0
KLCH 302158Z AUTO 25011G25KT 1SM TS HZ SCT020 BKN035 OVC100 22/18 A2987 RMK AO2 WSHFT 2144 LTG DSNT ALQDS RAEMM P0003 T02220183 PWINO RVRNO $,KLCH,2023-05-30T21:58:00Z,30.13,-93.22,22.2,18.3,250,11,25,1.0,29.870079,,,TRUE,TRUE,TRUE,,,,TRUE,TS HZ,SCT,2000,BKN,3500,OVC,10000,,,IFR,,,,,,0.03,,,,,,SPECI,2.0
KEUF 302158Z AUTO VRB03KT 10SM CLR 27/16 A2991 RMK AO2 SLP125 T02720156 ,KEUF,2023-05-30T21:58:00Z,31.95,-85.13,27.2,15.6,0,3,,10.0,29.911417,1012.5,,TRUE,TRUE,,,,,,,CLR,,,,,,,,VFR,,,,,,,,,,,,METAR,87.0
KBCR 302158Z AUTO 34004KT 10SM FEW060 OVC080 27/16 A2990 RMK AO2 SLP082 T02720156 $ ,KBCR,2023-05-30T21:58:00Z,30.85,-85.6,27.2,15.6,340,4,,10.0,29.899607,1008.2,,TRUE,TRUE,TRUE,,,,,,FEW,6000,OVC,8000,,,,,VFR,,,,,,,,,,,,METAR,26.0
K0J4 302158Z AUTO 05005KT 10SM OVC080 28/14 A2992 RMK AO2 SLP127 T02780144 ,K0J4,2023-05-30T21:58:00Z,31.05,-86.32,27.8,14.4,50,5,,10.0,29.920275,1012.7,,TRUE,TRUE,,,,,,,OVC,8000,,,,,,,VFR,,,,,,,,,,,,METAR,96.0
CYPX 302158Z AUTO 34010KT 9SM BKN007 OVC036 05/04 A2972 RMK SLP068,CYPX,2023-05-30T21:58:00Z,60.03,-77.27,5.0,4.0,340,10,,9.0,29.719488,1006.8,,TRUE,,,,,,,,BKN,700,OVC,3600,,,,,IFR,,,,,,,,,,,,SPECI,10.0
CYIV 302158Z AUTO 01008KT 9SM FEW055 BKN076 OVC097 20/17 A2968 RMK PCPN 0.5MM PAST HR SLP055 DENSITY ALT 1800FT,CYIV,2023-05-30T21:58:00Z,53.85,-94.65,20.0,17.0,10,8,,9.0,29.681103,1005.5,,TRUE,,,,,,,,FEW,5500,BKN,7600,OVC,9700,,,VFR,,,,,,,,,,,,SPECI,234.0
CYEN 302158Z AUTO 24010KT 9SM FEW076 BKN120 BKN150 24/11 A2976 RMK LTNG DIST ALQDS SLP074 DENSITY ALT 3700FT,CYEN,2023-05-30T21:58:00Z,49.22,-102.97,24.0,11.0,240,10,,9.0,29.760826,1007.4,,TRUE,,,,,,,,FEW,7600,BKN,12000,BKN,15000,,,VFR,,,,,,,,,,,,SPECI,580.0
PHNG 302157Z 07010KT 10SM SCT026 28/21 A3005 RMK AO2 SLP170 T02830211 ,PHNG,2023-05-30T21:57:00Z,21.43,-157.77,28.3,21.1,70,10,,10.0,30.050198,1017.0,,,TRUE,,,,,,,SCT,2600,,,,,,,VFR,,,,,,,,,,,,METAR,1.0
KTOP 302157Z 30016G25KT 9SM TS BKN060 OVC080 26/14 A2986 RMK AO2 WSHFT 2143 LTG DSNT ALQDS TSB56 T02560139,KTOP,2023-05-30T21:57:00Z,39.07,-95.63,25.6,13.9,300,16,25,9.0,29.861221,,,,TRUE,,,,,,TS,BKN,6000,OVC,8000,,,,,VFR,,,,,,,,,,,,SPECI,268.0
KQOA 302157Z 16007KT 6000 FU SCT190 28/22 A2984 RMK AO2A SLP064 T02820215,KQOA,2023-05-30T21:57:00Z,,,28.2,21.5,160,7,,3.73,29.840551,1006.4,,,TRUE,,,,,,FU,SCT,19000,,,,,,,MVFR,,,,,,,,,,,,METAR,
KNYL 302157Z AUTO 17011G20KT 10SM CLR 33/03 A2973 RMK AO2 SLP065 T03280028,KNYL,2023-05-30T21:57:00Z,32.65,-114.62,32.8,2.8,170,11,20,10.0,29.731298,1006.5,,TRUE,TRUE,,,,,,,CLR,,,,,,,,VFR,,,,,,,,,,,,METAR,58.0
KNJM 302157Z AUTO 09003KT 7SM FEW043 FEW060 SCT070 24/19 A2997 RMK AO2 SLP152 T02440194 ,KNJM,2023-05-30T21:57:00Z,34.68,-77.02,24.4,19.4,90,3,,7.0,29.970472,1015.2,,TRUE,TRUE,,,,,,,FEW,4300,FEW,6000,SCT,7000,,,VFR,,,,,,,,,,,,METAR,5.0
KMNM 302157Z AUTO 15010KT 10SM CLR 27/09 A2996 RMK AO2 SLP159 T02670089 PNO $,KMNM,2023-05-30T21:57:00Z,45.12,-87.63,26.7,8.9,150,10,,10.0,29.958662,1015.9,,TRUE,TRUE,TRUE,,,,,,CLR,,,,,,,,VFR,,,,,,,,,,,,METAR,188.0
KINS 302157Z AUTO 13013G21KT 10SM OVC120 29/M03 A2977 RMK AO2 WSHFT 54 SLP040 $,KINS,2023-05-30T21:57:00Z,36.58,-115.68,29.0,-3.0,130,13,21,10.0,29.769686,1004.0,,TRUE,TRUE,TRUE,,,,,,OVC,12000,,,,,,,VFR,,,,,,,,,,,,SPECI,954.0
KFLG 302157Z 18010G22KT 140V210 10SM CLR 21/M07 A3010 RMK AO2 SLP113 T02111072,KFLG,2023-05-30T21:57:00Z,35.13,-111.67,21.1,-7.2,180,10,22,10.0,30.100393,1011.3,,,TRUE,,,,,,,CLR,,,,,,,,VFR,,,,,,,,,,,,METAR,2134.0
KCKC 302157Z AUTO 18007G15KT 140V210 10SM CLR 24/09 A2989 RMK AO2,KCKC,2023-05-30T21:57:00Z,47.83,-90.38,24.0,9.0,180,7,15,10.0,29.890747,,,TRUE,TRUE,,,,,,,CLR,,,,,,,,VFR,,,,,,,,,,,,METAR,544.0
KBBB 302157Z AUTO 22012G15KT 10SM SCT055 29/16 A2976 RMK AO2,KBBB,2023-05-30T21:57:00Z,45.32,-95.65,29.0,16.0,220,12,15,10.0,29.760826,,,TRUE,TRUE,,,,,,,SCT,5500,,,,,,,VFR,,,,,,,,,,,,METAR,315.0
KAQV 302157Z AUTO VRB04KT 10SM CLR 31/16 A2987 RMK AO2 SLP111 T03060156,KAQV,2023-05-30T21:57:00Z,31.4,-93.3,30.6,15.6,0,4,,10.0,29.870079,1011.1,,TRUE,TRUE,,,,,,,CLR,,,,,,,,VFR,,,,,,,,,,,,METAR,123.0
KADC 302157Z AUTO 25003KT 10SM -RA SCT013 24/19 A2977 RMK AO2 TSNO,KADC,2023-05-30T21:57:00Z,46.45,-95.22,24.0,19.0,250,3,,10.0,29.769686,,,TRUE,TRUE,,,TRUE,,,-RA,SCT,1300,,,,,,,VFR,,,,,,,,,,,,METAR,416.0
TJSJ 302156Z 00000KT 10SM FEW020 BKN060 BKN080 27/23 A2993 RMK AO2 SLP134 VCSH S T02670233,TJSJ,2023-05-30T21:56:00Z,18.43,-66.02,26.7,23.3,0,0,,10.0,29.929134,1013.4,,,TRUE,,,,,,,FEW,2000,BKN,6000,BKN,8000,,,VFR,,,,,,,,,,,,METAR,3.0
RJOI 302156Z 00000KT 9999 -RA FEW010 BKN020 OVC085 18/17 A2985 RMK AO2 RAB53 SLP109 P0002 T01830167,RJOI,2023-05-30T21:56:00Z,34.13,132.23,18.3,16.7,0,0,,6.21,29.84941,1010.9,,,TRUE,,,,,,-RA,FEW,1000,BKN,2000,OVC,8500,,,MVFR,,,,,,0.02,,,,,,METAR,2.0
PPIZ 302156Z AUTO 22010KT 10SM OVC011 M01/M03 A2964 RMK AO2 SLP041 T10061033 FZRANO,PPIZ,2023-05-30T21:56:00Z,69.73,-163.0,-0.6,-3.3,220,10,,10.0,29.639763,1004.1,,TRUE,TRUE,,,,TRUE,,,OVC,1100,,,,,,,MVFR,,,,,,,,,,,,METAR,5.0
PMDY 302156Z AUTO 10SM OVC019 25/21 A3016 RMK AO2 SLP215 T02500206 TSNO $,PMDY,2023-05-30T21:56:00Z,28.22,-177.37,25.0,20.6,,,,10.0,30.159449,1021.5,,TRUE,TRUE,TRUE,,TRUE,,,,OVC,1900,,,,,,,MVFR,,,,,,,,,,,,METAR,6.0
PHNY 302156Z AUTO 12003KT 10SM BKN024 23/18 A3010 RMK AO2 RAE23 SLP174 P0002 T02280183,PHNY,2023-05-30T21:56:00Z,20.77,-156.95,22.8,18.3,120,3,,10.0,30.100393,1017.4,,TRUE,TRUE,,,,,,,BKN,2400,,,,,,,MVFR,,,,,,0.02,,,,,,METAR,395.0
PFYU 302156Z 22003KT 10SM BKN040 14/ A2956,PFYU,2023-05-30T21:56:00Z,66.57,-145.23,14.0,,220,3,,10.0,29.56004,,,,,,,,,,,BKN,4000,,,,,,,VFR,,,,,,,,,,,,METAR,130.0
PFWS 302156Z AUTO 21008KT 10SM -RA BKN013 BKN020 OVC027 05/03 A2976 RMK AO2 SLP119 P0000 T00500028,PFWS,2023-05-30T21:56:00Z,58.7,-157.0,5.0,2.8,210,8,,10.0,29.760826,1011.9,,TRUE,TRUE,,,,,,-RA,BKN,1300,BKN,2000,OVC,2700,,,MVFR,,,,,,0.005,,,,,,METAR,40.0
PFSH 302156Z AUTO 28008KT 10SM OVC033 06/03 A2975 RMK AO2 SLP073 T00560028,PFSH,2023-05-30T21:56:00Z,64.37,-161.22,5.6,2.8,280,8,,10.0,29.749016,1007.3,,TRUE,TRUE,,,,,,,OVC,3300,,,,,,,VFR,,,,,,,,,,,,METAR,6.0
PFNO 302156Z AUTO 26008KT 10SM OVC012 03/00 A2976 RMK AO2 SLP160 T00280000 $,PFNO,2023-05-30T21:56:00Z,66.82,-161.02,2.8,0.0,260,8,,10.0,29.760826,1016.0,,TRUE,TRUE,TRUE,,,,,,OVC,1200,,,,,,,MVFR,,,,,,,,,,,,METAR,14.0
PFKW 302156Z AUTO 34004KT 10SM -RA BKN015 BKN026 OVC035 05/02 A2971 RMK AO2 SLP058 P0000 T00500017,PFKW,2023-05-30T21:56:00Z,60.8,-161.43,5.0,1.7,340,4,,10.0,29.71063,1005.8,,TRUE,TRUE,,,,,,-RA,BKN,1500,BKN,2600,OVC,3500,,,MVFR,,,,,,0.005,,,,,,METAR,4.0
PFKT 302156Z AUTO 35005KT 10SM 02/M03 A2984 RMK AO2 SLP106 T00171033 FZRANO $,PFKT,2023-05-30T21:56:00Z,65.33,-166.47,1.7,-3.3,350,5,,10.0,29.840551,1010.6,,TRUE,TRUE,TRUE,,,TRUE,,,,,,,,,,,,,,,,,,,,,,,METAR,8.0
PFEL 302156Z AUTO VRB04KT 10SM SCT009 BKN019 OVC025 04/03 A2976 RMK AO2 SLP078 T00440028,PFEL,2023-05-30T21:56:00Z,64.62,-162.27,4.4,2.8,0,4,,10.0,29.760826,1007.8,,TRUE,TRUE,,,,,,,SCT,900,BKN,1900,OVC,2500,,,MVFR,,,,,,,,,,,,METAR,50.0
PAZK 302156Z AUTO 21008KT 10SM -RA OVC020 04/01 A2964 RMK AO2 SLP074 P0000 T00440006,PAZK,2023-05-30T21:56:00Z,61.93,-147.17,4.4,0.6,210,8,,10.0,29.639763,1007.4,,TRUE,TRUE,,,,,,-RA,OVC,2000,,,,,,,MVFR,,,,,,0.005,,,,,,METAR,1002.0
PAWS 302156Z AUTO VRB04KT 10SM -RA BKN028 OVC040 09/03 A2977 RMK AO2 RAE08B30 SLP086 P0000 T00890033,PAWS,2023-05-30T21:56:00Z,61.57,-149.53,8.9,3.3,0,4,,10.0,29.769686,1008.6,,TRUE,TRUE,,,,,,-RA,BKN,2800,OVC,4000,,,,,MVFR,,,,,,0.005,,,,,,METAR,102.0
PAWN 302156Z AUTO 28010KT 10SM -RA BKN012 OVC017 02/00 RMK AO2 RAB10UPB11E18 SLPNO P0000 T00170000 FZRANO $,PAWN,2023-05-30T21:56:00Z,67.57,-162.98,1.7,0.0,280,10,,10.0,,,,TRUE,TRUE,TRUE,,,TRUE,,-RA,BKN,1200,OVC,1700,,,,,MVFR,,,,,,0.005,,,,,,METAR,26.0
PAWM 302156Z AUTO VRB04KT 8SM BKN027 OVC039 06/00 A2976 RMK AO2 SLP081 T00610000,PAWM,2023-05-30T21:56:00Z,64.68,-163.42,6.1,0.0,0,4,,8.0,29.760826,1008.1,,TRUE,TRUE,,,,,,,BKN,2700,OVC,3900,,,,,MVFR,,,,,,,,,,,,METAR,80.0
PAWG 302156Z 09008KT 10SM -RA SCT015 BKN035 OVC050 10/05 A2992,PAWG,2023-05-30T21:56:00Z,56.48,-132.37,10.0,5.0,90,8,,10.0,29.920275,,,,,,,,,,-RA,SCT,1500,BKN,3500,OVC,5000,,,VFR,,,,,,,,,,,,METAR,6.0
PAVD 302156Z 26009KT 7SM -RA SCT027 BKN035 OVC050 07/04 RMK AO2 SLPNO A2987 PCPN VRY LGT P0000 T00670039 $,PAVD,2023-05-30T21:56:00Z,61.13,-146.25,6.7,3.9,260,9,,7.0,,,,,TRUE,TRUE,,,,,-RA,SCT,2700,BKN,3500,OVC,5000,,,VFR,,,,,,0.005,,,,,,METAR,21.0
PAVC 302156Z AUTO 35020G25KT 6SM -RA BR OVC023 04/02 A2986 RMK AO2 PK WND 35027/2101 SLP114 T00440022 PNO $,PAVC,2023-05-30T21:56:00Z,55.12,-162.27,4.4,2.2,350,20,25,6.0,29.861221,1011.4,,TRUE,TRUE,TRUE,,,,,-RA BR,OVC,2300,,,,,,,MVFR,,,,,,,,,,,,METAR,48.0
PAUN 302156Z AUTO 30010KT 10SM OVC041 05/02 A2975 RMK AO2 SLP079 T00500022,PAUN,2023-05-30T21:56:00Z,63.88,-160.8,5.0,2.2,300,10,,10.0,29.749016,1007.9,,TRUE,TRUE,,,,,,,OVC,4100,,,,,,,VFR,,,,,,,,,,,,METAR,4.0
PATQ 302156Z AUTO 33003KT 10SM SCT012 BKN039 BKN080 04/01 A2963 RMK AO2 SLP037 T00390011 TSNO,PATQ,2023-05-30T21:56:00Z,70.47,-157.43,3.9,1.1,330,3,,10.0,29.630905,1003.7,,TRUE,TRUE,,,TRUE,,,,SCT,1200,BKN,3900,BKN,8000,,,VFR,,,,,,,,,,,,METAR,28.0
PATG 302156Z AUTO 10SM -RA BKN024 BKN030 OVC036 04/02 A2971 RMK AO2 RAB03 SLP061 P0000 T00390022,PATG,2023-05-30T21:56:00Z,59.05,-160.38,3.9,2.2,,,,10.0,29.71063,1006.1,,TRUE,TRUE,,,,,,-RA,BKN,2400,BKN,3000,OVC,3600,,,MVFR,,,,,,0.005,,,,,,METAR,1.0
PASX 302156Z AUTO 27012KT 10SM SCT028 BKN033 OVC060 09/04 A2978 RMK AO2 SLP090 T00940044,PASX,2023-05-30T21:56:00Z,60.48,-151.05,9.4,4.4,270,12,,10.0,29.778543,1009.0,,TRUE,TRUE,,,,,,,SCT,2800,BKN,3300,OVC,6000,,,VFR,,,,,,,,,,,,METAR,28.0
PASM 302156Z AUTO 35012KT 10SM OVC020 04/01 A2976 RMK AO2 SLP085 T00390006,PASM,2023-05-30T21:56:00Z,62.07,-163.3,3.9,0.6,350,12,,10.0,29.760826,1008.5,,TRUE,TRUE,,,,,,,OVC,2000,,,,,,,MVFR,,,,,,,,,,,,METAR,108.0
PASL 302156Z AUTO 14005KT 10SM -RA FEW009 OVC015 07/05 A2975 RMK AO2 SLP064 P0000 T00670050,PASL,2023-05-30T21:56:00Z,61.68,-157.15,6.7,5.0,140,5,,10.0,29.749016,1006.4,,TRUE,TRUE,,,,,,-RA,FEW,900,OVC,1500,,,,,MVFR,,,,,,0.005,,,,,,METAR,64.0
PASK 302156Z AUTO 26012KT 10SM BKN021 OVC090 03/01 A2976 RMK AO2 SLP075 T00330006,PASK,2023-05-30T21:56:00Z,66.6,-160.0,3.3,0.6,260,12,,10.0,29.760826,1007.5,,TRUE,TRUE,,,,,,,BKN,2100,OVC,9000,,,,,MVFR,,,,,,,,,,,,METAR,3.0
PASD 302156Z 30013KT 10SM SCT017 BKN021 BKN049 07/03 A2980 RMK AO2 RAE12 SLP094 T00670033 PNO $,PASD,2023-05-30T21:56:00Z,55.33,-160.52,6.7,3.3,300,13,,10.0,29.799213,1009.4,,,TRUE,TRUE,,,,,,SCT,1700,BKN,2100,BKN,4900,,,MVFR,,,,,,,,,,,,METAR,6.0
PARY 302156Z AUTO 29007KT 240V310 10SM OVC034 09/02 A2969 RMK AO2 SLP062 T00890017,PARY,2023-05-30T21:56:00Z,64.73,-155.47,8.9,1.7,290,7,,10.0,29.68996,1006.2,,TRUE,TRUE,,,,,,,OVC,3400,,,,,,,VFR,,,,,,,,,,,,METAR,185.0
PARS 302156Z AUTO VRB04KT 10SM SCT017 OVC060 06/02 A2972 RMK AO2 SLP066 T00610017 $,PARS,2023-05-30T21:56:00Z,61.77,-161.32,6.1,1.7,0,4,,10.0,29.719488,1006.6,,TRUE,TRUE,TRUE,,,,,,SCT,1700,OVC,6000,,,,,VFR,,,,,,,,,,,,METAR,15.0
PARC 302156Z AUTO VRB03KT 10SM FEW038 13/03 A2953 RMK AO2 SLP026 T01280028,PARC,2023-05-30T21:56:00Z,68.12,-145.58,12.8,2.8,0,3,,10.0,29.530512,1002.6,,TRUE,TRUE,,,,,,,FEW,3800,,,,,,,VFR,,,,,,,,,,,,METAR,626.0
PAPO 302156Z AUTO 22015KT 10SM OVC010 M01/M04 A2970 RMK AO2 SLP056 T10111039 FZRANO PNO $,PAPO,2023-05-30T21:56:00Z,68.35,-166.8,-1.1,-3.9,220,15,,10.0,29.698818,1005.6,,TRUE,TRUE,TRUE,,,TRUE,,,OVC,1000,,,,,,,MVFR,,,,,,,,,,,,METAR,4.0
PAPN 302156Z AUTO 23007KT 5SM -RA BR OVC012 04/03 A2975 RMK AO2 SLP075 P0000 T00440033,PAPN,2023-05-30T21:56:00Z,57.58,-157.57,4.4,3.3,230,7,,5.0,29.749016,1007.5,,TRUE,TRUE,,,,,,-RA BR,OVC,1200,,,,,,,MVFR,,,,,,0.005,,,,,,METAR,19.0
PAPM 302156Z AUTO 33015KT 5SM -RA BR BKN011 OVC020 03/02 A2973 RMK AO2 RAB46 SLP070 P0000 T00330017,PAPM,2023-05-30T21:56:00Z,59.02,-161.82,3.3,1.7,330,15,,5.0,29.731298,1007.0,,TRUE,TRUE,,,,,,-RA BR,BKN,1100,OVC,2000,,,,,MVFR,,,,,,0.005,,,,,,METAR,4.0
PAPH 302156Z AUTO 25011KT 3SM -RA BR BKN005 OVC010 04/03 A2977 RMK AO2 CIG 003V007 SLP080 P0000 T00390033,PAPH,2023-05-30T21:56:00Z,56.95,-158.62,3.9,3.3,250,11,,3.0,29.769686,1008.0,,TRUE,TRUE,,,,,,-RA BR,BKN,500,OVC,1000,,,,,IFR,,,,,,0.005,,,,,,METAR,29.0
PAOU 302156Z AUTO 30020KT 7SM SCT006 OVC011 02/01 A2982 RMK AO2 RAB2059E15UPB15E19 SLP098 T00220011 FZRANO PNO $,PAOU,2023-05-30T21:56:00Z,56.0,-161.17,2.2,1.1,300,20,,7.0,29.819881,1009.8,,TRUE,TRUE,TRUE,,,TRUE,,,SCT,600,OVC,1100,,,,,MVFR,,,,,,,,,,,,METAR,3.0
PAOH 302156Z AUTO 06011G15KT 10SM 09/05 A2982 RMK AO2 RAB2059E27 SLP097 T00890050 PNO $,PAOH,2023-05-30T21:56:00Z,58.1,-135.45,8.9,5.0,60,11,15,10.0,29.819881,1009.7,,TRUE,TRUE,TRUE,,,,,,,,,,,,,,,,,,,,,,,,,,METAR,0.0
PANV 302156Z AUTO 11005KT 10SM 06/03 A2971 RMK AO2 RAE48 SLP136 P0000 T00610028 TSNO $,PANV,2023-05-30T21:56:00Z,62.65,-160.18,6.1,2.8,110,5,,10.0,29.71063,1013.6,,TRUE,TRUE,TRUE,,TRUE,,,,,,,,,,,,,,,,,,0.005,,,,,,METAR,91.0
PANI 302156Z AUTO 31005KT 10SM BKN020 BKN024 06/02 A2976 RMK AO2 SLP070 T00610022 $,PANI,2023-05-30T21:56:00Z,61.58,-159.53,6.1,2.2,310,5,,10.0,29.760826,1007.0,,TRUE,TRUE,TRUE,,,,,,BKN,2000,BKN,2400,,,,,MVFR,,,,,,,,,,,,METAR,21.0
PAMY 302156Z AUTO 32019KT 10SM OVC016 02/M01 A2989 RMK AO2 PK WND 31026/2124 SLP119 T00171011 FZRANO PNO $,PAMY,2023-05-30T21:56:00Z,60.37,-166.27,1.7,-1.1,320,19,,10.0,29.890747,1011.9,,TRUE,TRUE,TRUE,,,TRUE,,,OVC,1600,,,,,,,MVFR,,,,,,,,,,,,METAR,14.0
PAMO 302156Z AUTO 33018KT 10SM OVC011 03/02 A2975 RMK AO2 UPE00B21E33RAB00E54 SLP081 P0000 T00330022,PAMO,2023-05-30T21:56:00Z,62.1,-163.68,3.3,2.2,330,18,,10.0,29.749016,1008.1,,TRUE,TRUE,,,,,,,OVC,1100,,,,,,,MVFR,,,,,,0.005,,,,,,METAR,93.0
PAMM 302156Z AUTO 16007KT 9SM -RA BKN016 BKN024 OVC030 08/06 A2996 RMK AO2 RAB05 SLP240 P0008 T00780061 $,PAMM,2023-05-30T21:56:00Z,55.13,-131.58,7.8,6.1,160,7,,9.0,29.958662,1024.0,,TRUE,TRUE,TRUE,,,,,-RA,BKN,1600,BKN,2400,OVC,3000,,,MVFR,,,,,,0.08,,,,,,METAR,0.0
PAMK 302156Z AUTO 35007KT 10SM BKN023 03/01 A2977 RMK AO2 SLP081 T00330011,PAMK,2023-05-30T21:56:00Z,63.48,-162.12,3.3,1.1,350,7,,10.0,29.769686,1008.1,,TRUE,TRUE,,,,,,,BKN,2300,,,,,,,MVFR,,,,,,,,,,,,METAR,31.0
PAMH 302156Z AUTO 21003KT 10SM FEW034 BKN050 11/03 A2967 RMK AO2 SLP046 T01110033,PAMH,2023-05-30T21:56:00Z,63.9,-152.28,11.1,3.3,210,3,,10.0,29.66929,1004.6,,TRUE,TRUE,,,,,,,FEW,3400,BKN,5000,,,,,VFR,,,,,,,,,,,,METAR,200.0
PAMB 302156Z AUTO 19006KT 7SM -RA BKN011 OVC017 04/02 A2971 RMK AO2 SLP065 P0001 T00390022 $,PAMB,2023-05-30T21:56:00Z,58.98,-159.05,3.9,2.2,190,6,,7.0,29.71063,1006.5,,TRUE,TRUE,TRUE,,,,,-RA,BKN,1100,OVC,1700,,,,,MVFR,,,,,,0.01,,,,,,METAR,28.0
PALG 302156Z AUTO 00000KT 10SM -RA BKN020 BKN035 OVC060 06/02 A2972 RMK AO2 RAB2057E13B29 SLP066 P0000 T00610022,PALG,2023-05-30T21:56:00Z,61.53,-160.33,6.1,2.2,0,0,,10.0,29.719488,1006.6,,TRUE,TRUE,,,,,,-RA,BKN,2000,BKN,3500,OVC,6000,,,MVFR,,,,,,0.005,,,,,,METAR,13.0
PAKP 302156Z AUTO 03008KT 10SM FEW013 OVC033 07/04 A2956 RMK AO2 RAE11 SLP037 P0000 T00720039,PAKP,2023-05-30T21:56:00Z,68.13,-151.73,7.2,3.9,30,8,,10.0,29.56004,1003.7,,TRUE,TRUE,,,,,,,FEW,1300,OVC,3300,,,,,VFR,,,,,,0.005,,,,,,METAR,649.0
PAKI 302156Z AUTO 10SM OVC016 04/01 A2979 RMK AO2 RAB30E43 SLP091 P0000 T00390006 $,PAKI,2023-05-30T21:56:00Z,59.93,-164.03,3.9,0.6,,,,10.0,29.790354,1009.1,,TRUE,TRUE,TRUE,,,,,,OVC,1600,,,,,,,MVFR,,,,,,0.005,,,,,,METAR,4.0
PAKH 302156Z AUTO 10SM OVC035 07/02 A2979 RMK AO2 SLP086 T00670022 TSNO $,PAKH,2023-05-30T21:56:00Z,56.93,-154.18,6.7,2.2,,,,10.0,29.790354,1008.6,,TRUE,TRUE,TRUE,,TRUE,,,,OVC,3500,,,,,,,VFR,,,,,,,,,,,,METAR,15.0
PAKF 302156Z AUTO 32013G27KT 4SM -RA OVC016 04/01 A2991 RMK AO2 PK WND 29033/2122 SLP128 P0001 T00390011,PAKF,2023-05-30T21:56:00Z,54.85,-163.42,3.9,1.1,320,13,27,4.0,29.911417,1012.8,,TRUE,TRUE,,,,,,-RA,OVC,1600,,,,,,,MVFR,,,,,,0.01,,,,,,METAR,2.0
PAJZ 302156Z AUTO 17008KT 9SM -RA SCT014 BKN027 OVC033 05/03 A2977 RMK AO2 SLP089 P0001 T00500028 $,PAJZ,2023-05-30T21:56:00Z,59.73,-157.27,5.0,2.8,170,8,,9.0,29.769686,1008.9,,TRUE,TRUE,TRUE,,,,,-RA,SCT,1400,BKN,2700,OVC,3300,,,MVFR,,,,,,0.01,,,,,,METAR,80.0
PAIN 302156Z AUTO 00000KT 10SM -RA SCT015 OVC023 05/03 A2969 RMK AO2 SLP072 T00500033 PNO $,PAIN,2023-05-30T21:56:00Z,63.73,-148.92,5.0,3.3,0,0,,10.0,29.68996,1007.2,,TRUE,TRUE,TRUE,,,,,-RA,SCT,1500,OVC,2300,,,,,MVFR,,,,,,,,,,,,METAR,525.0
PAIK 302156Z AUTO 21009KT 10SM OVC015 05/01 A2975 RMK AO2 SLP077 T00500011,PAIK,2023-05-30T21:56:00Z,66.98,-160.43,5.0,1.1,210,9,,10.0,29.749016,1007.7,,TRUE,TRUE,,,,,,,OVC,1500,,,,,,,MVFR,,,,,,,,,,,,METAR,49.0
PAIG 302156Z AUTO 25005KT 10SM -RA BKN013 OVC040 06/04 A2975 RMK AO2 SLP084 P0000 T00560039 $,PAIG,2023-05-30T21:56:00Z,59.32,-155.9,5.6,3.9,250,5,,10.0,29.749016,1008.4,,TRUE,TRUE,TRUE,,,,,-RA,BKN,1300,OVC,4000,,,,,MVFR,,,,,,0.005,,,,,,METAR,24.0
PAHY 302156Z AUTO 12009G16KT 10SM SCT024 BKN032 OVC090 09/05 A2991 RMK AO2 RAE07 SLP125 P0001 T00890050 $,PAHY,2023-05-30T21:56:00Z,55.2,-132.83,8.9,5.0,120,9,16,10.0,29.911417,1012.5,,TRUE,TRUE,TRUE,,,,,,SCT,2400,BKN,3200,OVC,9000,,,VFR,,,,,,0.01,,,,,,METAR,0.0
PAHL 302156Z AUTO VRB05KT 10SM FEW030 BKN036 OVC043 09/03 A2969 RMK AO2 SLP058 T00890028,PAHL,2023-05-30T21:56:00Z,65.7,-156.35,8.9,2.8,0,5,,10.0,29.68996,1005.8,,TRUE,TRUE,,,,,,,FEW,3000,BKN,3600,OVC,4300,,,VFR,,,,,,,,,,,,METAR,49.0
PAHC 302156Z AUTO VRB03KT 10SM BKN013 OVC041 06/03 A2972 RMK AO2 RAE45 SLP070 P0000 T00610033,PAHC,2023-05-30T21:56:00Z,62.18,-159.78,6.1,3.3,0,3,,10.0,29.719488,1007.0,,TRUE,TRUE,,,,,,,BKN,1300,OVC,4100,,,,,MVFR,,,,,,0.005,,,,,,METAR,21.0
PAGS 302156Z AUTO 12012KT 10SM BKN037 BKN044 11/04 A2983 RMK AO2 SLP100 T01110039,PAGS,2023-05-30T21:56:00Z,58.42,-135.7,11.1,3.9,120,12,,10.0,29.828741,1010.0,,TRUE,TRUE,,,,,,,BKN,3700,BKN,4400,,,,,VFR,,,,,,,,,,,,METAR,9.0
PAGN 302156Z AUTO 22004KT 6SM RA BR FEW018 BKN026 OVC031 07/07 A2986 RMK AO2 SLP101 P0009 T00720067,PAGN,2023-05-30T21:56:00Z,57.5,-134.58,7.2,6.7,220,4,,6.0,29.861221,1010.1,,TRUE,TRUE,,,,,,RA BR,FEW,1800,BKN,2600,OVC,3100,,,MVFR,,,,,,0.09,,,,,,METAR,2.0
PAFM 302156Z AUTO 28008KT 10SM BKN026 OVC031 08/02 A2972 RMK AO2 SLP071 T00780017,PAFM,2023-05-30T21:56:00Z,67.1,-157.85,7.8,1.7,280,8,,10.0,29.719488,1007.1,,TRUE,TRUE,,,,,,,BKN,2600,OVC,3100,,,,,MVFR,,,,,,,,,,,,METAR,79.0
PAFE 302156Z AUTO 14005KT 10SM -RA FEW014 BKN035 OVC045 08/06 A2988 RMK AO2 SLP130 P0007 T00780061 $,PAFE,2023-05-30T21:56:00Z,56.97,-133.92,7.8,6.1,140,5,,10.0,29.878937,1013.0,,TRUE,TRUE,TRUE,,,,,-RA,FEW,1400,BKN,3500,OVC,4500,,,VFR,,,,,,0.07,,,,,,METAR,1.0
PADU 302156Z 32015G24KT 5SM -RA BR OVC020 04/01 A3009 RMK AO2 PK WND 32028/2134 RAB33 SLP193 VIS LWR NW P0000 T00390011,PADU,2023-05-30T21:56:00Z,53.9,-166.53,3.9,1.1,320,15,24,5.0,30.088583,1019.3,,,TRUE,,,,,,-RA BR,OVC,2000,,,,,,,MVFR,,,,,,0.005,,,,,,METAR,4.0
PADM 302156Z AUTO VRB03KT 9SM -RA OVC019 05/02 A2976 RMK AO2 RAE08B24 SLP084 P0000 T00500017,PADM,2023-05-30T21:56:00Z,61.87,-162.03,5.0,1.7,0,3,,9.0,29.760826,1008.4,,TRUE,TRUE,,,,,,-RA,OVC,1900,,,,,,,MVFR,,,,,,0.005,,,,,,METAR,17.0
PADL 302156Z 18009KT 10SM -RA SCT013 OVC029 04/03 A2971 RMK AO2 SLP066 P0000 T00440033,PADL,2023-05-30T21:56:00Z,59.05,-158.5,4.4,3.3,180,9,,10.0,29.71063,1006.6,,,TRUE,,,,,,-RA,SCT,1300,OVC,2900,,,,,MVFR,,,,,,0.005,,,,,,METAR,20.0
PADK 302156Z AUTO 02007KT OVC006 05/04 A3036 RMK AO2 SLP282 T00500039 PWINO $,PADK,2023-05-30T21:56:00Z,51.88,-176.65,5.0,3.9,20,7,,,30.360237,1028.2,,TRUE,TRUE,TRUE,,,,TRUE,,OVC,600,,,,,,,,,,,,,,,,,,,METAR,3.0
PACM 302156Z AUTO 30024KT OVC011 01/00 A2988 RMK AO2 PK WND 31030/2122 SLP113 T00110000 PWINO FZRANO $,PACM,2023-05-30T21:56:00Z,61.85,-165.57,1.1,0.0,300,24,,,29.878937,1011.3,,TRUE,TRUE,TRUE,,,TRUE,TRUE,,OVC,1100,,,,,,,,,,,,,,,,,,,METAR,3.0
PABV 302156Z AUTO 27004KT 10SM -RA OVC031 09/04 A2978 RMK AO2 SLP089 P0000 T00940044,PABV,2023-05-30T21:56:00Z,61.42,-149.52,9.4,4.4,270,4,,10.0,29.778543,1008.9,,TRUE,TRUE,,,,,,-RA,OVC,3100,,,,,,,VFR,,,,,,0.005,,,,,,METAR,21.0
PABL 302156Z AUTO 30011KT 10SM OVC011 03/01 A2978 RMK AO2 SLP086 T00330006,PABL,2023-05-30T21:56:00Z,65.98,-161.15,3.3,0.6,300,11,,10.0,29.778543,1008.6,,TRUE,TRUE,,,,,,,OVC,1100,,,,,,,MVFR,,,,,,,,,,,,METAR,7.0
KYKN 302156Z AUTO 22006KT 10SM CLR 32/12 A2978 RMK AO2 SLP085 T03220117,KYKN,2023-05-30T21:56:00Z,42.92,-97.37,32.2,11.7,220,6,,10.0,29.778543,1008.5,,TRUE,TRUE,,,,,,,CLR,,,,,,,,VFR,,,,,,,,,,,,METAR,388.0
KY50 302156Z AUTO 16010KT 10SM CLR 31/07 A2992 RMK AO2 SLP126 T03110072 $,KY50,2023-05-30T21:56:00Z,44.03,-89.3,31.1,7.2,160,10,,10.0,29.920275,1012.6,,TRUE,TRUE,TRUE,,,,,,CLR,,,,,,,,VFR,,,,,,,,,,,,SPECI,261.0
KWWD 302156Z AUTO 05014G19KT 10SM CLR 17/11 A3015 RMK AO2 SLP213 T01720111 $,KWWD,2023-05-30T21:56:00Z,39.02,-74.92,17.2,11.1,50,14,19,10.0,30.15059,1021.3,,TRUE,TRUE,TRUE,,,,,,CLR,,,,,,,,VFR,,,,,,,,,,,,SPECI,4.0
KWVL 302156Z AUTO 20012G18KT 10SM CLR 18/06 A3013 RMK AO2 SLP229 T01830056,KWVL,2023-05-30T21:56:00Z,44.52,-69.67,18.3,5.6,200,12,18,10.0,30.129921,1022.9,,TRUE,TRUE,,,,,,,CLR,,,,,,,,VFR,,,,,,,,,,,,SPECI,87.0
KWMC 302156Z AUTO VRB06G14KT 10SM OVC090 26/05 A2984 RMK AO2 SLP063 T02560050,KWMC,2023-05-30T21:56:00Z,40.9,-117.8,25.6,5.0,0,6,14,10.0,29.840551,1006.3,,TRUE,TRUE,,,,,,,OVC,9000,,,,,,,VFR,,,,,,,,,,,,METAR,1311.0
KWJF 302156Z 23020G28KT 10SM CLR 21/08 A2989 RMK AO2 PK WND 24032/2104 SLP115 T02060078,KWJF,2023-05-30T21:56:00Z,34.73,-118.22,20.6,7.8,230,20,28,10.0,29.890747,1011.5,,,TRUE,,,,,,,CLR,,,,,,,,VFR,,,,,,,,,,,,METAR,712.0
KVPZ 302156Z AUTO 36007KT 10SM SCT090 BKN120 29/13 A2994 RMK AO2 SLP133 T02890128,KVPZ,2023-05-30T21:56:00Z,41.45,-87.0,28.9,12.8,360,7,,10.0,29.940945,1013.3,,TRUE,TRUE,,,,,,,SCT,9000,BKN,12000,,,,,VFR,,,,,,,,,,,,METAR,235.0
KVIS 302156Z AUTO VRB05KT 10SM CLR 24/11 A2990 RMK AO2 SLP130 T02440111,KVIS,2023-05-30T21:56:00Z,36.32,-119.4,24.4,11.1,0,5,,10.0,29.899607,1013.0,,TRUE,TRUE,,,,,,,CLR,,,,,,,,VFR,,,,,,,,,,,,METAR,92.0
KVBT 302156Z AUTO VRB04KT 10SM FEW080 29/16 A2994 RMK AO2 TSB37E53 SLP131 T02890161,KVBT,2023-05-30T21:56:00Z,36.35,-94.22,28.9,16.1,0,4,,10.0,29.940945,1013.1,,TRUE,TRUE,,,,,,,FEW,8000,,,,,,,VFR,,,,,,,,,,,,METAR,390.0
KUKI 302156Z AUTO 04006KT 10SM CLR 23/12 A2990 RMK AO2 SLP120 T02280122,KUKI,2023-05-30T21:56:00Z,39.12,-123.2,22.8,12.2,40,6,,10.0,29.899607,1012.0,,TRUE,TRUE,,,,,,,CLR,,,,,,,,VFR,,,,,,,,,,,,METAR,183.0
KUDG 302156Z AUTO 02009KT 10SM SCT095 24/19 A2997 RMK AO2 SLP149 T02390189,KUDG,2023-05-30T21:56:00Z,34.45,-79.88,23.9,18.9,20,9,,10.0,29.970472,1014.9,,TRUE,TRUE,,,,,,,SCT,9500,,,,,,,VFR,,,,,,,,,,,,METAR,57.0
KUCP 302156Z AUTO VRB04KT 10SM CLR 28/10 A3007 RMK AO2 SLP192 T02830100,KUCP,2023-05-30T21:56:00Z,41.03,-80.42,28.3,10.0,0,4,,10.0,30.070866,1019.2,,TRUE,TRUE,,,,,,,CLR,,,,,,,,VFR,,,,,,,,,,,,METAR,313.0
KTVF 302156Z AUTO 17006KT 10SM VCTS -RA FEW036 BKN065 OVC100 24/18 A2974 RMK AO2 TSB42RAB00 SLP070 P0000 T02440178,KTVF,2023-05-30T21:56:00Z,48.07,-96.17,24.4,17.8,170,6,,10.0,29.740158,1007.0,,TRUE,TRUE,,,,,,VCTS -RA,FEW,3600,BKN,6500,OVC,10000,,,VFR,,,,,,0.005,,,,,,SPECI,339.0
KTPH 302156Z AUTO 17017G27KT 10SM CLR 25/M02 A2992 RMK AO2 PK WND 19027/2147 SLP075 T02501022,KTPH,2023-05-30T21:56:00Z,38.05,-117.08,25.0,-2.2,170,17,27,10.0,29.920275,1007.5,,TRUE,TRUE,,,,,,,CLR,,,,,,,,VFR,,,,,,,,,,,,METAR,1647.0
KSUE 302156Z AUTO 13008KT 10SM CLR 26/08 A2997 RMK AO2 SLP146 T02610083,KSUE,2023-05-30T21:56:00Z,44.85,-87.42,26.1,8.3,130,8,,10.0,29.970472,1014.6,,TRUE,TRUE,,,,,,,CLR,,,,,,,,VFR,,,,,,,,,,,,METAR,215.0
KSRC 302156Z AUTO VRB04KT 10SM CLR 31/14 A2991 RMK AO2 SLP127 T03110144,KSRC,2023-05-30T21:56:00Z,35.22,-91.73,31.1,14.4,0,4,,10.0,29.911417,1012.7,,TRUE,TRUE,,,,,,,CLR,,,,,,,,VFR,,,,,,,,,,,,METAR,80.0
KSQI 302156Z AUTO 00000KT 10SM CLR 31/09 A2991 RMK AO2 SLP993 T03110094,KSQI,2023-05-30T21:56:00Z,41.75,-89.67,31.1,9.4,0,0,,10.0,29.911417,999.3,,TRUE,TRUE,,,,,,,CLR,,,,,,,,VFR,,,,,,,,,,,,METAR,196.0
KSPD 302156Z AUTO 19014KT 27/12 A2991 RMK AO1 PK WND 20028/2124 SLP066 T02720122,KSPD,2023-05-30T21:56:00Z,37.28,-102.62,27.2,12.2,190,14,,,29.911417,1006.6,,TRUE,TRUE,,,,,,,,,,,,,,,,,,,,,,,,,,,METAR,1340.0
KSOP 302156Z AUTO 03005KT 10SM FEW028 BKN080 OVC120 22/19 A3002 RMK AO2 SLP166 T02220189,KSOP,2023-05-30T21:56:00Z,35.23,-79.4,22.2,18.9,30,5,,10.0,30.02067,1016.6,,TRUE,TRUE,,,,,,,FEW,2800,BKN,8000,OVC,12000,,,VFR,,,,,,,,,,,,METAR,135.0
KSMP 302156Z AUTO 10SM CLR 12/00 A2997 RMK AO2 SLP143 T01220000,KSMP,2023-05-30T21:56:00Z,47.28,-121.33,12.2,0.0,,,,10.0,29.970472,1014.3,,TRUE,TRUE,,,,,,,CLR,,,,,,,,VFR,,,,,,,,,,,,METAR,1206.0
KSMN 302156Z AUTO 36006KT 10SM CLR 26/04 A2982 RMK AO2 LTG DSNT SW SLP797 T02560044,KSMN,2023-05-30T21:56:00Z,45.12,-113.87,25.6,4.4,360,6,,10.0,29.819881,979.7,,TRUE,TRUE,,,,,,,CLR,,,,,,,,VFR,,,,,,,,,,,,SPECI,1228.0
KSLG 302156Z AUTO 23009KT 10SM FEW050 29/17 A2993 RMK AO2 SLP124 T02890167,KSLG,2023-05-30T21:56:00Z,36.2,-94.48,28.9,16.7,230,9,,10.0,29.929134,1012.4,,TRUE,TRUE,,,,,,,FEW,5000,,,,,,,VFR,,,,,,,,,,,,METAR,361.0
KSLE 302156Z VRB04KT 10SM BKN042 18/06 A3001 RMK AO2 SLP163 T01780061,KSLE,2023-05-30T21:56:00Z,44.9,-123.0,17.8,6.1,0,4,,10.0,30.008858,1016.3,,,TRUE,,,,,,,BKN,4200,,,,,,,VFR,,,,,,,,,,,,METAR,63.0
KSKX 302156Z AUTO 28013KT 250V310 10SM CLR 26/M04 A3008 RMK AO2 SLP120 T02561044,KSKX,2023-05-30T21:56:00Z,36.45,-105.67,25.6,-4.4,280,13,,10.0,30.079725,1012.0,,TRUE,TRUE,,,,,,,CLR,,,,,,,,VFR,,,,,,,,,,,,METAR,2163.0
KSHV 302156Z 06006KT 10SM SCT065 BKN280 33/16 A2988 RMK SLPNO,KSHV,2023-05-30T21:56:00Z,32.45,-93.83,33.0,16.0,60,6,,10.0,29.878937,,,,,,,,,,,SCT,6500,BKN,28000,,,,,VFR,,,,,,,,,,,,METAR,70.0
KSGU 302156Z AUTO 32005KT 10SM CLR 30/M02 A2980 RMK AO2 SLP058 T03001022,KSGU,2023-05-30T21:56:00Z,37.03,-113.52,30.0,-2.2,320,5,,10.0,29.799213,1005.8,,TRUE,TRUE,,,,,,,CLR,,,,,,,,VFR,,,,,,,,,,,,METAR,877.0
KSGT 302156Z AUTO 05004KT 10SM CLR 29/13 A2991 RMK AO2 SLP127 T02940128,KSGT,2023-05-30T21:56:00Z,34.6,-91.57,29.4,12.8,50,4,,10.0,29.911417,1012.7,,TRUE,TRUE,,,,,,,CLR,,,,,,,,VFR,,,,,,,,,,,,METAR,67.0
KSGJ 302156Z 13013KT 10SM SCT050 27/21 A2990 RMK AO2 SLP124 T02670211 $,KSGJ,2023-05-30T21:56:00Z,29.97,-81.33,26.7,21.1,130,13,,10.0,29.899607,1012.4,,,TRUE,TRUE,,,,,,SCT,5000,,,,,,,VFR,,,,,,,,,,,,METAR,2.0
KSGH 302156Z AUTO 13012G17KT 10SM CLR 29/14 A2999 RMK AO2 SLP151 T02890144,KSGH,2023-05-30T21:56:00Z,39.83,-83.83,28.9,14.4,130,12,17,10.0,29.991142,1015.1,,TRUE,TRUE,,,,,,,CLR,,,,,,,,VFR,,,,,,,,,,,,METAR,318.0
KSFZ 302156Z AUTO VRB03KT 10SM CLR 19/07 A3021 RMK AO2 SLP230 T01890067,KSFZ,2023-05-30T21:56:00Z,41.92,-71.5,18.9,6.7,0,3,,10.0,30.209646,1023.0,,TRUE,TRUE,,,,,,,CLR,,,,,,,,VFR,,,,,,,,,,,,SPECI,129.0
KSFO 302156Z 26014G26KT 10SM FEW030 19/10 A2996 RMK AO2 PK WND 28027/2145 SLP144 T01890100,KSFO,2023-05-30T21:56:00Z,37.62,-122.37,18.9,10.0,260,14,26,10.0,29.958662,1014.4,,,TRUE,,,,,,,FEW,3000,,,,,,,VFR,,,,,,,,,,,,METAR,2.0
KSFM 302156Z AUTO VRB05KT 10SM CLR 18/06 A3020 RMK AO2 SLP230 T01830061,KSFM,2023-05-30T21:56:00Z,43.38,-70.72,18.3,6.1,0,5,,10.0,30.200787,1023.0,,TRUE,TRUE,,,,,,,CLR,,,,,,,,VFR,,,,,,,,,,,,SPECI,70.0
KSDY 302156Z AUTO 20009KT 10SM CLR 27/14 A2977 RMK AO2 SLP079 T02670144,KSDY,2023-05-30T21:56:00Z,47.7,-104.2,26.7,14.4,200,9,,10.0,29.769686,1007.9,,TRUE,TRUE,,,,,,,CLR,,,,,,,,VFR,,,,,,,,,,,,SPECI,600.0
KSDF 302156Z 16009KT 10SM SCT060 BKN070 BKN120 29/16 A2993 RMK AO2 SLP130 T02890156,KSDF,2023-05-30T21:56:00Z,38.18,-85.73,28.9,15.6,160,9,,10.0,29.929134,1013.0,,,TRUE,,,,,,,SCT,6000,BKN,7000,BKN,12000,,,VFR,,,,,,,,,,,,METAR,146.0
KSBP 302156Z AUTO 30009KT 10SM OVC033 17/11 A2997 RMK AO2 SLP148 T01720106,KSBP,2023-05-30T21:56:00Z,35.23,-120.63,17.2,10.6,300,9,,10.0,29.970472,1014.8,,TRUE,TRUE,,,,,,,OVC,3300,,,,,,,VFR,,,,,,,,,,,,METAR,52.0
KRUT 302156Z AUTO 24008KT 10SM CLR 27/10 A3011 RMK AO2 SLP190 T02670100 $,KRUT,2023-05-30T21:56:00Z,43.53,-72.95,26.7,10.0,240,8,,10.0,30.109253,1019.0,,TRUE,TRUE,TRUE,,,,,,CLR,,,,,,,,VFR,,,,,,,,,,,,METAR,238.0
KRKD 302156Z AUTO 20008KT 10SM CLR 14/07 A3021 RMK AO2 SLP229 T01440072,KRKD,2023-05-30T21:56:00Z,44.07,-69.1,14.4,7.2,200,8,,10.0,30.209646,1022.9,,TRUE,TRUE,,,,,,,CLR,,,,,,,,VFR,,,,,,,,,,,,METAR,15.0
KRDM 302156Z 35014G20KT 10SM CLR 26/01 A2986 RMK AO2 SLP093 T02610006,KRDM,2023-05-30T21:56:00Z,44.25,-121.15,26.1,0.6,350,14,20,10.0,29.861221,1009.3,,,TRUE,,,,,,,CLR,,,,,,,,VFR,,,,,,,,,,,,METAR,930.0
KPWT 302156Z AUTO 02004KT 10SM OVC044 15/08 A3004 RMK AO2 SLP178 T01500083,KPWT,2023-05-30T21:56:00Z,47.5,-122.77,15.0,8.3,20,4,,10.0,30.041338,1017.8,,TRUE,TRUE,,,,,,,OVC,4400,,,,,,,VFR,,,,,,,,,,,,METAR,143.0
KPWG 302156Z AUTO 11011KT 10SM FEW050 SCT060 SCT075 28/18 A2990 RMK AO2 SLP117 T02830183 $,KPWG,2023-05-30T21:56:00Z,31.48,-97.32,28.3,18.3,110,11,,10.0,29.899607,1011.7,,TRUE,TRUE,TRUE,,,,,,FEW,5000,SCT,6000,SCT,7500,,,VFR,,,,,,,,,,,,METAR,178.0
KPVU 302156Z VRB05KT 10SM CLR 27/M03 A2989 RMK AO2 SLP076 T02721033,KPVU,2023-05-30T21:56:00Z,40.22,-111.72,27.2,-3.3,0,5,,10.0,29.890747,1007.6,,,TRUE,,,,,,,CLR,,,,,,,,VFR,,,,,,,,,,,,METAR,1370.0
KPVG 302156Z AUTO 6SM -RA BR OVC006 17/17 A3007 RMK AO2 RAE04B45 SLP185 P0000 T01670167 $,KPVG,2023-05-30T21:56:00Z,36.78,-76.45,16.7,16.7,,,,6.0,30.070866,1018.5,,TRUE,TRUE,TRUE,,,,,-RA BR,OVC,600,,,,,,,IFR,,,,,,0.005,,,,,,METAR,7.0
KPVC 302156Z AUTO 14009KT 10SM CLR 15/08 A3024 RMK AO2 SLP239 T01500083,KPVC,2023-05-30T21:56:00Z,42.07,-70.22,15.0,8.3,140,9,,10.0,30.239174,1023.9,,TRUE,TRUE,,,,,,,CLR,,,,,,,,VFR,,,,,,,,,,,,METAR,1.0
KPTV 302156Z AUTO 36005KT 10SM FEW050 SCT060 26/11 A2990 RMK AO2 SLP122 T02560111,KPTV,2023-05-30T21:56:00Z,36.02,-119.07,25.6,11.1,360,5,,10.0,29.899607,1012.2,,TRUE,TRUE,,,,,,,FEW,5000,SCT,6000,,,,,VFR,,,,,,,,,,,,METAR,132.0
KPTN 302156Z AUTO 22006KT 10SM FEW038 BKN060 OVC100 23/20 A2991 RMK AO2 TSE19RAB08E43 SLP127 T02280200 PNO $,KPTN,2023-05-30T21:56:00Z,29.72,-91.33,22.8,20.0,220,6,,10.0,29.911417,1012.7,,TRUE,TRUE,TRUE,,,,,,FEW,3800,BKN,6000,OVC,10000,,,VFR,,,,,,,,,,,,METAR,2.0
KPRX 302156Z AUTO 09004KT 10SM FEW050 SCT060 29/19 A2991 RMK AO2 SLP124 T02890189,KPRX,2023-05-30T21:56:00Z,33.63,-95.45,28.9,18.9,90,4,,10.0,29.911417,1012.4,,TRUE,TRUE,,,,,,,FEW,5000,SCT,6000,,,,,VFR,,,,,,,,,,,,METAR,165.0
KPQI 302156Z AUTO 23010KT 10SM CLR 27/06 A3002 RMK AO2 SLP191 T02720061,KPQI,2023-05-30T21:56:00Z,46.68,-68.05,27.2,6.1,230,10,,10.0,30.02067,1019.1,,TRUE,TRUE,,,,,,,CLR,,,,,,,,VFR,,,,,,,,,,,,METAR,154.0
KPIB 302156Z AUTO 01007KT 10SM CLR 29/17 A2991 RMK AO2 SLP126 T02940167,KPIB,2023-05-30T21:56:00Z,31.47,-89.33,29.4,16.7,10,7,,10.0,29.911417,1012.6,,TRUE,TRUE,,,,,,,CLR,,,,,,,,VFR,,,,,,,,,,,,METAR,91.0
KP60 302156Z AUTO VRB03KT 12/02 A3009 RMK AO1 SLP150 T01220017,KP60,2023-05-30T21:56:00Z,44.55,-110.42,12.2,1.7,0,3,,,30.088583,1015.0,,TRUE,TRUE,,,,,,,,,,,,,,,,,,,,,,,,,,,METAR,2377.0
KP53 302156Z AUTO 18009G18KT 29/06 A2993 RMK AO1 SLP133 T02890061,KP53,2023-05-30T21:56:00Z,46.42,-86.65,28.9,6.1,180,9,18,,29.929134,1013.3,,TRUE,TRUE,,,,,,,,,,,,,,,,,,,,,,,,,,,METAR,185.0
KP28 302156Z AUTO 19009KT 31/17 A2985 RMK AO1 SLP094 T03060167 $ ,KP28,2023-05-30T21:56:00Z,37.28,-98.55,30.6,16.7,190,9,,,29.84941,1009.4,,TRUE,TRUE,TRUE,,,,,,,,,,,,,,,,,,,,,,,,,,METAR,469.0
KOWB 302156Z 12008KT 10SM SCT055 29/17 A2993 RMK AO2 SLP131 T02940167,KOWB,2023-05-30T21:56:00Z,37.72,-87.17,29.4,16.7,120,8,,10.0,29.929134,1013.1,,,TRUE,,,,,,,SCT,5500,,,,,,,VFR,,,,,,,,,,,,METAR,121.0
KOTH 302156Z 35020G28KT 10SM CLR 14/07 A3006 RMK AO2 PK WND 35028/2152 SLP178 T01440072,KOTH,2023-05-30T21:56:00Z,43.42,-124.25,14.4,7.2,350,20,28,10.0,30.059055,1017.8,,,TRUE,,,,,,,CLR,,,,,,,,VFR,,,,,,,,,,,,METAR,3.0
KOTG 302156Z AUTO 25008G21KT 10SM CLR 32/10 A2980 RMK AO2 SLP081 T03170100 PNO $,KOTG,2023-05-30T21:56:00Z,43.65,-95.57,31.7,10.0,250,8,21,10.0,29.799213,1008.1,,TRUE,TRUE,TRUE,,,,,,CLR,,,,,,,,VFR,,,,,,,,,,,,METAR,478.0
KOLU 302156Z AUTO 22005KT 10SM CLR 31/14 A2983 RMK AO2 SLP091 T03110144,KOLU,2023-05-30T21:56:00Z,41.45,-97.33,31.1,14.4,220,5,,10.0,29.828741,1009.1,,TRUE,TRUE,,,,,,,CLR,,,,,,,,VFR,,,,,,,,,,,,METAR,438.0
KOKK 302156Z AUTO 13009KT 10SM CLR 30/13 A2996 RMK AO2 SLP140 T03000133 PNO $,KOKK,2023-05-30T21:56:00Z,40.53,-86.07,30.0,13.3,130,9,,10.0,29.958662,1014.0,,TRUE,TRUE,TRUE,,,,,,CLR,,,,,,,,VFR,,,,,,,,,,,,METAR,251.0
KOFK 302156Z AUTO 27010G14KT 10SM 33/11 A2979 RMK AO2 SLP073 T03280111,KOFK,2023-05-30T21:56:00Z,41.98,-97.43,32.8,11.1,270,10,14,10.0,29.790354,1007.3,,TRUE,TRUE,,,,,,,,,,,,,,,,,,,,,,,,,,,METAR,476.0
KOCH 302156Z AUTO 19004KT 10SM TS OVC048 28/21 A2988 RMK AO2 LTG DSNT SE-W TSB45 SLP120 T02780206,KOCH,2023-05-30T21:56:00Z,31.57,-94.72,27.8,20.6,190,4,,10.0,29.878937,1012.0,,TRUE,TRUE,,,,,,TS,OVC,4800,,,,,,,VFR,,,,,,,,,,,,METAR,105.0
KOAJ 302156Z 00000KT 10SM FEW060 SCT075 BKN090 20/19 A3000 RMK AO2 RAE46 SLP159 P0029 T02000189,KOAJ,2023-05-30T21:56:00Z,34.82,-77.62,20.0,18.9,0,0,,10.0,30.0,1015.9,,,TRUE,,,,,,,FEW,6000,SCT,7500,BKN,9000,,,VFR,,,,,,0.29,,,,,,METAR,26.0
KNYG 302156Z AUTO 08009KT 7SM CLR 23/ A3012 RMK AO2 SLP199 T0228 $,KNYG,2023-05-30T21:56:00Z,38.5,-77.3,22.8,,80,9,,7.0,30.121063,1019.9,,TRUE,TRUE,TRUE,,,,,,CLR,,,,,,,,VFR,,,,,,,,,,,,METAR,2.0
KNXP 302156Z AUTO 15013G22KT 10SM CLR 31/M06 A2984 RMK AO2 SLP071 T03111056,KNXP,2023-05-30T21:56:00Z,34.28,-116.13,31.1,-5.6,150,13,22,10.0,29.840551,1007.1,,TRUE,TRUE,,,,,,,CLR,,,,,,,,VFR,,,,,,,,,,,,METAR,610.0
KNXF 302156Z AUTO 27013KT 10SM -RA SCT020 OVC044 19/12 A2997 RMK AO2 RAB31 SLP232 P0000 T01890122 $,KNXF,2023-05-30T21:56:00Z,33.28,-117.45,18.9,12.2,270,13,,10.0,29.970472,1023.2,,TRUE,TRUE,TRUE,,,,,-RA,SCT,2000,OVC,4400,,,,,VFR,,,,,,0.005,,,,,,METAR,28.0
KNUC 302156Z 30009KT 10SM FEW017 BKN043 BKN049 18/10 A3001 RMK AO2 SLP158 T01780100 $,KNUC,2023-05-30T21:56:00Z,33.02,-118.57,17.8,10.0,300,9,,10.0,30.008858,1015.8,,,TRUE,TRUE,,,,,,FEW,1700,BKN,4300,BKN,4900,,,VFR,,,,,,,,,,,,METAR,52.0
KNTU 302156Z 04016G26KT 7SM OVC008 17/16 A3005 RMK AO2 PK WND 04029/2106 SLP179 T01720156,KNTU,2023-05-30T21:56:00Z,36.82,-76.02,17.2,15.6,40,16,26,7.0,30.050198,1017.9,,,TRUE,,,,,,,OVC,800,,,,,,,IFR,,,,,,,,,,,,METAR,6.0
KNQI 302156Z 10011KT 10SM SCT045 32/22 A2985 RMK AO2 SLP103 CB DSNT NW T03170217 $,KNQI,2023-05-30T21:56:00Z,27.5,-97.82,31.7,21.7,100,11,,10.0,29.84941,1010.3,,,TRUE,TRUE,,,,,,SCT,4500,,,,,,,VFR,,,,,,,,,,,,METAR,15.0
KNPA 302156Z 21007KT 10SM FEW060 BKN080 BKN250 27/16 A2988 RMK AO2 SLP120 T02670161,KNPA,2023-05-30T21:56:00Z,30.35,-87.32,26.7,16.1,210,7,,10.0,29.878937,1012.0,,,TRUE,,,,,,,FEW,6000,BKN,8000,BKN,25000,,,VFR,,,,,,,,,,,,METAR,6.0
KNOG 302156Z AUTO 09014KT 10SM FEW050 SCT095 31/21 A2986 RMK AO2 SLP091 T03060211 TSNO PNO $,KNOG,2023-05-30T21:56:00Z,27.9,-98.05,30.6,21.1,90,14,,10.0,29.861221,1009.1,,TRUE,TRUE,TRUE,,TRUE,,,,FEW,5000,SCT,9500,,,,,VFR,,,,,,,,,,,,METAR,72.0
KNMM 302156Z 04005KT 10SM SCT060 27/15 A2991 RMK AO2 SLPNO T02670150,KNMM,2023-05-30T21:56:00Z,32.53,-88.53,26.7,15.0,40,5,,10.0,29.911417,,,,TRUE,,,,,,,SCT,6000,,,,,,,VFR,,,,,,,,,,,,METAR,94.0
KNLC 302156Z VRB06KT 10SM FEW030 SCT090 BKN190 26/10 A2989 RMK AO2 SLP120 RH/36 T02610100,KNLC,2023-05-30T21:56:00Z,36.32,-119.95,26.1,10.0,0,6,,10.0,29.890747,1012.0,,,TRUE,,,,,,,FEW,3000,SCT,9000,BKN,19000,,,VFR,,,,,,,,,,,,METAR,69.0
KNKT 302156Z 06010KT 10SM CLR 24/21 A2998 RMK AO2 SLP148 T02440206,KNKT,2023-05-30T21:56:00Z,34.9,-76.88,24.4,20.6,60,10,,10.0,29.97933,1014.8,,,TRUE,,,,,,,CLR,,,,,,,,VFR,,,,,,,,,,,,METAR,8.0
KNJK 302156Z VRB04KT 10SM FEW060 33/05 A2973 RMK AO2 SLP083 T03330050 $,KNJK,2023-05-30T21:56:00Z,32.82,-115.67,33.3,5.0,0,4,,10.0,29.731298,1008.3,,,TRUE,TRUE,,,,,,FEW,6000,,,,,,,VFR,,,,,,,,,,,,METAR,-15.0
KNGP 302156Z 11012KT 10SM FEW026 FEW045 SCT250 32/22 A2986 RMK AO2 SLP110 CB DSNT N AND E TCU DSNT NE T03170222,KNGP,2023-05-30T21:56:00Z,27.68,-97.28,31.7,22.2,110,12,,10.0,29.861221,1011.0,,,TRUE,,,,,,,FEW,2600,FEW,4500,SCT,25000,,,VFR,,,,,,,,,,,,METAR,5.0
KNFL 302156Z 14007KT 10SM SCT060 SCT100 SCT150 27/03 A2982 RMK AO2 SLP077 CB DSNT ALQDS T02670028,KNFL,2023-05-30T21:56:00Z,39.42,-118.7,26.7,2.8,140,7,,10.0,29.819881,1007.7,,,TRUE,,,,,,,SCT,6000,SCT,10000,SCT,15000,,,VFR,,,,,,,,,,,,METAR,1199.0
KNDZ 302156Z 03004KT 10SM BKN090 BKN250 28/16 A2989 RMK AO2 SLP107 T02830156 $,KNDZ,2023-05-30T21:56:00Z,30.7,-87.02,28.3,15.6,30,4,,10.0,29.890747,1010.7,,,TRUE,TRUE,,,,,,BKN,9000,BKN,25000,,,,,VFR,,,,,,,,,,,,METAR,51.0
KNCA 302156Z AUTO 25004KT 10SM SCT034 OVC110 21/19 A2997 RMK AO2 RAE23 SLP150 P0001 T02110194,KNCA,2023-05-30T21:56:00Z,34.72,-77.45,21.1,19.4,250,4,,10.0,29.970472,1015.0,,TRUE,TRUE,,,,,,,SCT,3400,OVC,11000,,,,,VFR,,,,,,0.01,,,,,,METAR,9.0
KNBC 302156Z AUTO 08007KT 10SM CLR 27/18 A2994 RMK AO2 SLP138 T02670183,KNBC,2023-05-30T21:56:00Z,32.47,-80.72,26.7,18.3,80,7,,10.0,29.940945,1013.8,,TRUE,TRUE,,,,,,,CLR,,,,,,,,VFR,,,,,,,,,,,,METAR,9.0
KMYR 302156Z 12007KT 10SM CLR 24/20 A2996 RMK AO2 SLP143 T02390200,KMYR,2023-05-30T21:56:00Z,33.68,-78.92,23.9,20.0,120,7,,10.0,29.958662,1014.3,,,TRUE,,,,,,,CLR,,,,,,,,VFR,,,,,,,,,,,,METAR,7.0
KMVN 302156Z AUTO 02004KT 10SM CLR 31/12 A2991 RMK AO2 SLP129 T03110117,KMVN,2023-05-30T21:56:00Z,38.32,-88.87,31.1,11.7,20,4,,10.0,29.911417,1012.9,,TRUE,TRUE,,,,,,,CLR,,,,,,,,VFR,,,,,,,,,,,,SPECI,145.0
KMTW 302156Z AUTO 14008KT 10SM CLR 23/09 A2997 RMK AO2 SLP150 T02330089,KMTW,2023-05-30T21:56:00Z,44.12,-87.67,23.3,8.9,140,8,,10.0,29.970472,1015.0,,TRUE,TRUE,,,,,,,CLR,,,,,,,,VFR,,,,,,,,,,,,SPECI,197.0
KMSV 302156Z AUTO VRB04KT 10SM CLR 22/06 A3018 RMK AO2 SLP218 T02220061,KMSV,2023-05-30T21:56:00Z,41.7,-74.78,22.2,6.1,0,4,,10.0,30.180119,1021.8,,TRUE,TRUE,,,,,,,CLR,,,,,,,,VFR,,,,,,,,,,,,METAR,427.0
KMRF 302156Z AUTO 17010G18KT 130V200 10SM CLR 32/02 A3000 RMK AO2 SLP091 T03170017,KMRF,2023-05-30T21:56:00Z,30.37,-104.02,31.7,1.7,170,10,18,10.0,30.0,1009.1,,TRUE,TRUE,,,,,,,CLR,,,,,,,,VFR,,,,,,,,,,,,METAR,1476.0
KMQY 302156Z 00000KT 10SM SCT055 28/16 A2995 RMK AO2 SLP145 T02830161,KMQY,2023-05-30T21:56:00Z,36.02,-86.52,28.3,16.1,0,0,,10.0,29.949802,1014.5,,,TRUE,,,,,,,SCT,5500,,,,,,,VFR,,,,,,,,,,,,METAR,156.0
KMOB 302156Z 31003KT 10SM BKN080 BKN220 30/13 A2989 RMK AO2 SLP120 T03000128,KMOB,2023-05-30T21:56:00Z,30.68,-88.25,30.0,12.8,310,3,,10.0,29.890747,1012.0,,,TRUE,,,,,,,BKN,8000,BKN,22000,,,,,VFR,,,,,,,,,,,,METAR,67.0
KMML 302156Z AUTO 20011KT 10SM CLR 31/16 A2977 RMK AO2 SLP076 T03060156 $,KMML,2023-05-30T21:56:00Z,44.45,-95.82,30.6,15.6,200,11,,10.0,29.769686,1007.6,,TRUE,TRUE,TRUE,,,,,,CLR,,,,,,,,VFR,,,,,,,,,,,,METAR,358.0
KMKY 302156Z AUTO 36003KT 10SM FEW065 29/21 A2986 RMK AO2 SLP113 T02940206 TSNO PNO $,KMKY,2023-05-30T21:56:00Z,26.0,-81.67,29.4,20.6,360,3,,10.0,29.861221,1011.3,,TRUE,TRUE,TRUE,,TRUE,,,,FEW,6500,,,,,,,VFR,,,,,,,,,,,,METAR,2.0
KMKT 302156Z AUTO 19013G20KT 10SM CLR 26/16 A2982 RMK AO2 PK WND 19029/2134 SLP093 T02610161 PNO $,KMKT,2023-05-30T21:56:00Z,44.22,-93.92,26.1,16.1,190,13,20,10.0,29.819881,1009.3,,TRUE,TRUE,TRUE,,,,,,CLR,,,,,,,,VFR,,,,,,,,,,,,SPECI,309.0
KMHS 302156Z AUTO VRB03KT 10SM -RA 17/14 A2991 RMK AO2 RAB19 SLP125 P0000 T01720139 $ ,KMHS,2023-05-30T21:56:00Z,41.32,-122.32,17.2,13.9,0,3,,10.0,29.911417,1012.5,,TRUE,TRUE,TRUE,,,,,-RA,,,,,,,,,,,,,,,0.005,,,,,,METAR,1080.0
KMEH 302156Z AUTO VRB04KT 10SM CLR 22/04 A2990 RMK AO2 SLP112 T02220044 ,KMEH,2023-05-30T21:56:00Z,45.52,-118.42,22.2,4.4,0,4,,10.0,29.899607,1011.2,,TRUE,TRUE,,,,,,,CLR,,,,,,,,VFR,,,,,,,,,,,,METAR,1138.0
KMDT 302156Z 10007KT 10SM CLR 27/06 A3011 RMK AO2 SLP194 T02670056,KMDT,2023-05-30T21:56:00Z,40.2,-76.77,26.7,5.6,100,7,,10.0,30.109253,1019.4,,,TRUE,,,,,,,CLR,,,,,,,,VFR,,,,,,,,,,,,METAR,91.0
KMBL 302156Z AUTO 31006KT 10SM CLR 26/09 A2998 RMK AO2 SLP149 T02610089,KMBL,2023-05-30T21:56:00Z,44.27,-86.25,26.1,8.9,310,6,,10.0,29.97933,1014.9,,TRUE,TRUE,,,,,,,CLR,,,,,,,,VFR,,,,,,,,,,,,METAR,187.0
KM19 302156Z AUTO 00000KT 10SM FEW080 31/11 A2991 RMK AO2 SLP125 T03060111 PNO $,KM19,2023-05-30T21:56:00Z,35.65,-91.17,30.6,11.1,0,0,,10.0,29.911417,1012.5,,TRUE,TRUE,TRUE,,,,,,FEW,8000,,,,,,,VFR,,,,,,,,,,,,METAR,72.0
KLZU 302156Z 10008KT 10SM FEW046 BKN085 24/14 A2997 RMK AO2 SLP152 T02440144,KLZU,2023-05-30T21:56:00Z,33.98,-83.97,24.4,14.4,100,8,,10.0,29.970472,1015.2,,,TRUE,,,,,,,FEW,4600,BKN,8500,,,,,VFR,,,,,,,,,,,,METAR,316.0
KLWS 302156Z VRB05KT 10SM CLR 28/07 A2977 RMK AO2 SLP071 T02830072,KLWS,2023-05-30T21:56:00Z,46.37,-117.02,28.3,7.2,0,5,,10.0,29.769686,1007.1,,,TRUE,,,,,,,CLR,,,,,,,,VFR,,,,,,,,,,,,METAR,435.0
KLRD 302156Z 09009G14KT 10SM FEW060 33/18 A2982 RMK AO2 SLP095 T03330178,KLRD,2023-05-30T21:56:00Z,27.55,-99.47,33.3,17.8,90,9,14,10.0,29.819881,1009.5,,,TRUE,,,,,,,FEW,6000,,,,,,,VFR,,,,,,,,,,,,METAR,150.0
KLNR 302156Z AUTO 14010KT 10SM CLR 32/06 A2990 RMK AO2 SLP117 T03170061,KLNR,2023-05-30T21:56:00Z,43.22,-90.18,31.7,6.1,140,10,,10.0,29.899607,1011.7,,TRUE,TRUE,,,,,,,CLR,,,,,,,,VFR,,,,,,,,,,,,METAR,218.0
KLGD 302156Z AUTO 33009KT 10SM CLR 27/07 A2982 RMK AO2 SLP079 T02670067,KLGD,2023-05-30T21:56:00Z,45.28,-118.0,26.7,6.7,330,9,,10.0,29.819881,1007.9,,TRUE,TRUE,,,,,,,CLR,,,,,,,,VFR,,,,,,,,,,,,METAR,827.0
KLEW 302156Z AUTO 17010G14KT 10SM CLR 18/07 A3017 RMK AO2 SLP224 T01780067 PNO $,KLEW,2023-05-30T21:56:00Z,44.03,-70.28,17.8,6.7,170,10,14,10.0,30.171259,1022.4,,TRUE,TRUE,TRUE,,,,,,CLR,,,,,,,,VFR,,,,,,,,,,,,SPECI,81.0
KLCI 302156Z AUTO 19009KT 10SM CLR 24/07 A3015 RMK AO2 SLP209 T02390072,KLCI,2023-05-30T21:56:00Z,43.57,-71.42,23.9,7.2,190,9,,10.0,30.15059,1020.9,,TRUE,TRUE,,,,,,,CLR,,,,,,,,VFR,,,,,,,,,,,,METAR,166.0
KLBT 302156Z AUTO 03010KT 10SM FEW039 28/18 A2996 RMK AO2 SLP144 T02780178,KLBT,2023-05-30T21:56:00Z,34.6,-79.07,27.8,17.8,30,10,,10.0,29.958662,1014.4,,TRUE,TRUE,,,,,,,FEW,3900,,,,,,,VFR,,,,,,,,,,,,METAR,37.0
KLBL 302156Z AUTO 17017G21KT 10SM CLR 30/16 A2989 RMK AO2 SLP091 T03000161,KLBL,2023-05-30T21:56:00Z,37.03,-100.97,30.0,16.1,170,17,21,10.0,29.890747,1009.1,,TRUE,TRUE,,,,,,,CLR,,,,,,,,VFR,,,,,,,,,,,,METAR,877.0
KLAS 302156Z 17006G15KT 10SM FEW120 FEW250 32/M01 A2976 RMK AO2 SLP054 T03171006,KLAS,2023-05-30T21:56:00Z,36.07,-115.17,31.7,-0.6,170,6,15,10.0,29.760826,1005.4,,,TRUE,,,,,,,FEW,12000,FEW,25000,,,,,VFR,,,,,,,,,,,,METAR,662.0
KKLS 302156Z AUTO 30007KT CLR 18/06 A3004 RMK AO2 SLP177 T01780056 PWINO $,KKLS,2023-05-30T21:56:00Z,46.12,-122.9,17.8,5.6,300,7,,,30.041338,1017.7,,TRUE,TRUE,TRUE,,,,TRUE,,CLR,,,,,,,,,,,,,,,,,,,,METAR,4.0
KJXN 302156Z 17006KT 10SM FEW080 FEW100 29/12 A2998 RMK AO2 SLP150 T02890117,KJXN,2023-05-30T21:56:00Z,42.27,-84.47,28.9,11.7,170,6,,10.0,29.97933,1015.0,,,TRUE,,,,,,,FEW,8000,FEW,10000,,,,,VFR,,,,,,,,,,,,METAR,303.0
KJRB 302156Z AUTO VRB03KT 9SM CLR 21/11 A3019 RMK AO2 SLP223 T02060106,KJRB,2023-05-30T21:56:00Z,40.7,-74.02,20.6,10.6,0,3,,9.0,30.188976,1022.3,,TRUE,TRUE,,,,,,,CLR,,,,,,,,VFR,,,,,,,,,,,,METAR,2.0
KJMS 302156Z AUTO 30011KT 10SM CLR 26/12 A2975 RMK AO2 SLP069 T02560122,KJMS,2023-05-30T21:56:00Z,46.93,-98.67,25.6,12.2,300,11,,10.0,29.749016,1006.9,,TRUE,TRUE,,,,,,,CLR,,,,,,,,VFR,,,,,,,,,,,,METAR,455.0
KJHW 302156Z AUTO 35008KT 10SM FEW080 BKN090 27/12 A3011 RMK AO2 SLP190 T02670122 PNO $,KJHW,2023-05-30T21:56:00Z,42.15,-79.27,26.7,12.2,350,8,,10.0,30.109253,1019.0,,TRUE,TRUE,TRUE,,,,,,FEW,8000,BKN,9000,,,,,VFR,,,,,,,,,,,,SPECI,520.0
KJAX 302156Z 10007KT 10SM BKN070 BKN120 OVC200 26/20 A2988 RMK AO2 SLP119 T02610200,KJAX,2023-05-30T21:56:00Z,30.5,-81.68,26.1,20.0,100,7,,10.0,29.878937,1011.9,,,TRUE,,,,,,,BKN,7000,BKN,12000,OVC,20000,,,VFR,,,,,,,,,,,,METAR,8.0
KJAC 302156Z 29013G26KT 10SM -TSRA OVC065 12/06 A3001 RMK AO2 PK WND 29026/2154 TSB25RAB30 SLP146 TS W MOV NE T01220056 PNO $,KJAC,2023-05-30T21:56:00Z,43.62,-110.73,12.2,5.6,290,13,26,10.0,30.008858,1014.6,,,TRUE,TRUE,,,,,-TSRA,OVC,6500,,,,,,,VFR,,,,,,,,,,,,METAR,1967.0
KIWD 302156Z AUTO 19012G17KT 10SM FEW090 28/12 A2989 RMK AO2 SLP117 T02780122,KIWD,2023-05-30T21:56:00Z,46.52,-90.12,27.8,12.2,190,12,17,10.0,29.890747,1011.7,,TRUE,TRUE,,,,,,,FEW,9000,,,,,,,VFR,,,,,,,,,,,,SPECI,373.0
KITH 302156Z 20007KT 140V210 10SM CLR 28/11 A3011 RMK AO2 SLP191 T02830106,KITH,2023-05-30T21:56:00Z,42.48,-76.45,28.3,10.6,200,7,,10.0,30.109253,1019.1,,,TRUE,,,,,,,CLR,,,,,,,,VFR,,,,,,,,,,,,METAR,338.0
KISP 302156Z 15012KT 10SM FEW070 SCT250 17/09 A3019 RMK AO2 SLP221 FU SCT070 T01720094,KISP,2023-05-30T21:56:00Z,40.8,-73.1,17.2,9.4,150,12,,10.0,30.188976,1022.1,,,TRUE,,,,,,,FEW,7000,SCT,25000,,,,,VFR,,,,,,,,,,,,METAR,25.0
KISM 302156Z 13005KT 10SM BKN070 BKN080 30/17 A2988 RMK AO2 SLP118 T03000172 PNO $,KISM,2023-05-30T21:56:00Z,28.28,-81.43,30.0,17.2,130,5,,10.0,29.878937,1011.8,,,TRUE,TRUE,,,,,,BKN,7000,BKN,8000,,,,,VFR,,,,,,,,,,,,METAR,25.0
KINW 302156Z AUTO 16013KT 10SM CLR 30/M06 A2993 RMK AO2 PK WND 24026/2058 SLP071 T03001061,KINW,2023-05-30T21:56:00Z,35.03,-110.72,30.0,-6.1,160,13,,10.0,29.929134,1007.1,,TRUE,TRUE,,,,,,,CLR,,,,,,,,VFR,,,,,,,,,,,,METAR,1492.0
KILE 302156Z AUTO 10008KT 10SM FEW060 32/18 A2988 RMK AO2 SLP107 T03220183,KILE,2023-05-30T21:56:00Z,31.08,-97.68,32.2,18.3,100,8,,10.0,29.878937,1010.7,,TRUE,TRUE,,,,,,,FEW,6000,,,,,,,VFR,,,,,,,,,,,,METAR,256.0
KI69 302156Z AUTO 13007KT 10SM CLR 29/15 A2999 RMK AO1 T02860149,KI69,2023-05-30T21:56:00Z,39.08,-84.22,28.6,14.9,130,7,,10.0,29.991142,,,TRUE,TRUE,,,,,,,CLR,,,,,,,,VFR,,,,,,,,,,,,METAR,238.0
KHYS 302156Z AUTO 15008KT 10SM SCT075 31/15 A2984 RMK AO2 SLPNO T03060150 $,KHYS,2023-05-30T21:56:00Z,38.85,-99.27,30.6,15.0,150,8,,10.0,29.840551,,,TRUE,TRUE,TRUE,,,,,,SCT,7500,,,,,,,VFR,,,,,,,,,,,,METAR,607.0
KHYI 302156Z 13006KT 10SM FEW055 31/18 A2987 RMK AO2 SLP107 T03110183,KHYI,2023-05-30T21:56:00Z,29.88,-97.87,31.1,18.3,130,6,,10.0,29.870079,1010.7,,,TRUE,,,,,,,FEW,5500,,,,,,,VFR,,,,,,,,,,,,METAR,180.0
KHYA 302156Z 13008KT 10SM CLR 13/08 A3022 RMK AO2 SLP235 T01330078,KHYA,2023-05-30T21:56:00Z,41.67,-70.27,13.3,7.8,130,8,,10.0,30.221457,1023.5,,,TRUE,,,,,,,CLR,,,,,,,,VFR,,,,,,,,,,,,METAR,11.0
KHWV 302156Z AUTO 16009KT 10SM CLR 17/08 A3020 RMK AO2 SLP227 T01720083,KHWV,2023-05-30T21:56:00Z,40.82,-72.87,17.2,8.3,160,9,,10.0,30.200787,1022.7,,TRUE,TRUE,,,,,,,CLR,,,,,,,,VFR,,,,,,,,,,,,METAR,20.0
KHPN 302156Z 14008KT 10SM CLR 19/09 A3018 RMK AO2 SLP220 T01890089,KHPN,2023-05-30T21:56:00Z,41.07,-73.7,18.9,8.9,140,8,,10.0,30.180119,1022.0,,,TRUE,,,,,,,CLR,,,,,,,,VFR,,,,,,,,,,,,METAR,113.0
KHND 302156Z 16014G23KT 10SM CLR 32/00 A2980 RMK AO2 SLP079 T03170000,KHND,2023-05-30T21:56:00Z,35.98,-115.13,31.7,0.0,160,14,23,10.0,29.799213,1007.9,,,TRUE,,,,,,,CLR,,,,,,,,VFR,,,,,,,,,,,,METAR,740.0
KHNB 302156Z AUTO 16008KT 10SM CLR 29/16 A2994 RMK AO2 SLP135 T02890161,KHNB,2023-05-30T21:56:00Z,38.25,-86.95,28.9,16.1,160,8,,10.0,29.940945,1013.5,,TRUE,TRUE,,,,,,,CLR,,,,,,,,VFR,,,,,,,,,,,,SPECI,159.0
KHEZ 302156Z AUTO VRB04KT 10SM CLR 29/14 A2990 RMK AO2 SLP122 T02940139,KHEZ,2023-05-30T21:56:00Z,31.62,-91.3,29.4,13.9,0,4,,10.0,29.899607,1012.2,,TRUE,TRUE,,,,,,,CLR,,,,,,,,VFR,,,,,,,,,,,,METAR,82.0
KHEF 302156Z 11008KT 10SM CLR 24/14 A3011 RMK AO2 SLP200 T02390139,KHEF,2023-05-30T21:56:00Z,38.72,-77.52,23.9,13.9,110,8,,10.0,30.109253,1020.0,,,TRUE,,,,,,,CLR,,,,,,,,VFR,,,,,,,,,,,,METAR,53.0
KHDN 302156Z AUTO 23010G17KT 10SM CLR 22/M03 A3000 RMK AO2 SLP094 T02221033,KHDN,2023-05-30T21:56:00Z,40.48,-107.22,22.2,-3.3,230,10,17,10.0,30.0,1009.4,,TRUE,TRUE,,,,,,,CLR,,,,,,,,VFR,,,,,,,,,,,,METAR,2012.0
KGXY 302156Z AUTO 18009KT 10SM VCTS CLR 26/12 A2992 RMK AO2 LTG DSNT SE TSB47 SLP099 T02560122,KGXY,2023-05-30T21:56:00Z,40.43,-104.62,25.6,12.2,180,9,,10.0,29.920275,1009.9,,TRUE,TRUE,,,,,,VCTS,CLR,,,,,,,,VFR,,,,,,,,,,,,METAR,1420.0
KGVQ 302156Z AUTO 04009KT 10SM CLR 27/14 A3008 RMK AO2 SLP180 T02670144,KGVQ,2023-05-30T21:56:00Z,43.03,-78.17,26.7,14.4,40,9,,10.0,30.079725,1018.0,,TRUE,TRUE,,,,,,,CLR,,,,,,,,VFR,,,,,,,,,,,,METAR,279.0
KGUC 302156Z AUTO 02010G24KT 10SM SCT120 21/M04 A3008 RMK AO2 SLP122 T02061044,KGUC,2023-05-30T21:56:00Z,38.52,-106.93,20.6,-4.4,20,10,24,10.0,30.079725,1012.2,,TRUE,TRUE,,,,,,,SCT,12000,,,,,,,VFR,,,,,,,,,,,,METAR,2337.0
KGTU 302156Z 07006KT 10SM FEW080 31/17 A2989 RMK AO2 SLP116 T03110167,KGTU,2023-05-30T21:56:00Z,30.68,-97.68,31.1,16.7,70,6,,10.0,29.890747,1011.6,,,TRUE,,,,,,,FEW,8000,,,,,,,VFR,,,,,,,,,,,,SPECI,232.0
KGTR 302156Z 02005KT 10SM SCT075 29/16 A2992 RMK AO2 SLP139 T02940161,KGTR,2023-05-30T21:56:00Z,33.45,-88.58,29.4,16.1,20,5,,10.0,29.920275,1013.9,,,TRUE,,,,,,,SCT,7500,,,,,,,VFR,,,,,,,,,,,,METAR,80.0
KGRD 302156Z AUTO 07006KT 10SM CLR 26/16 A2997 RMK AO2 SLP143 T02560161,KGRD,2023-05-30T21:56:00Z,34.25,-82.15,25.6,16.1,70,6,,10.0,29.970472,1014.3,,TRUE,TRUE,,,,,,,CLR,,,,,,,,VFR,,,,,,,,,,,,SPECI,188.0
KGPZ 302156Z AUTO 15011G18KT 10SM BKN048 BKN075 26/16 A2980 RMK AO2 LTG DSNT NW SLP090 T02610161,KGPZ,2023-05-30T21:56:00Z,47.22,-93.52,26.1,16.1,150,11,18,10.0,29.799213,1009.0,,TRUE,TRUE,,,,,,,BKN,4800,BKN,7500,,,,,VFR,,,,,,,,,,,,METAR,410.0
KGON 302156Z 12009KT 10SM CLR 16/07 A3020 RMK AO2 SLP227 T01560067,KGON,2023-05-30T21:56:00Z,41.33,-72.05,15.6,6.7,120,9,,10.0,30.200787,1022.7,,,TRUE,,,,,,,CLR,,,,,,,,VFR,,,,,,,,,,,,METAR,2.0
KGNR 302156Z AUTO 19007KT 160V220 23/08 A3008 RMK AO1 SLP187 T02330078,KGNR,2023-05-30T21:56:00Z,45.47,-69.55,23.3,7.8,190,7,,,30.079725,1018.7,,TRUE,TRUE,,,,,,,,,,,,,,,,,,,,,,,,,,,METAR,426.0
KGNA 302156Z AUTO 08005KT 11/06 A2988 RMK AO1 SLP121 T01060056,KGNA,2023-05-30T21:56:00Z,47.75,-90.35,10.6,5.6,80,5,,,29.878937,1012.1,,TRUE,TRUE,,,,,,,,,,,,,,,,,,,,,,,,,,,METAR,186.0
KGDV 302156Z AUTO 04008KT 10SM CLR 25/14 A2979 RMK AO2 SLP077 T02500144 TSNO,KGDV,2023-05-30T21:56:00Z,47.13,-104.8,25.0,14.4,40,8,,10.0,29.790354,1007.7,,TRUE,TRUE,,,TRUE,,,,CLR,,,,,,,,VFR,,,,,,,,,,,,METAR,749.0
KGBD 302156Z AUTO 20008G14KT 10SM FEW080 32/14 A2985 RMK AO2 SLP089 T03220144,KGBD,2023-05-30T21:56:00Z,38.35,-98.87,32.2,14.4,200,8,14,10.0,29.84941,1008.9,,TRUE,TRUE,,,,,,,FEW,8000,,,,,,,VFR,,,,,,,,,,,,METAR,573.0
KGAI 302156Z AUTO VRB05KT 10SM CLR 22/11 A3014 RMK AO2 SLP219 T02220106,KGAI,2023-05-30T21:56:00Z,39.17,-77.17,22.2,10.6,0,5,,10.0,30.138779,1021.9,,TRUE,TRUE,,,,,,,CLR,,,,,,,,VFR,,,,,,,,,,,,SPECI,151.0
KGAD 302156Z AUTO 05004KT 10SM CLR 28/17 A2993 RMK AO2 SLP135 T02780167 PNO $,KGAD,2023-05-30T21:56:00Z,33.97,-86.08,27.8,16.7,50,4,,10.0,29.929134,1013.5,,TRUE,TRUE,TRUE,,,,,,CLR,,,,,,,,VFR,,,,,,,,,,,,METAR,169.0
KFSD 302156Z VRB03KT 10SM FEW060 BKN250 32/13 A2977 RMK AO2 SLP070 T03170128,KFSD,2023-05-30T21:56:00Z,43.58,-96.75,31.7,12.8,0,3,,10.0,29.769686,1007.0,,,TRUE,,,,,,,FEW,6000,BKN,25000,,,,,VFR,,,,,,,,,,,,METAR,433.0
KFOD 302156Z AUTO 13010KT 10SM VCTS -RA SCT110 21/16 A2987 RMK AO2 PK WND 10033/2101 LTG DSNT ALQDS SLP124 P0003 T02060161,KFOD,2023-05-30T21:56:00Z,42.53,-94.17,20.6,16.1,130,10,,10.0,29.870079,1012.4,,TRUE,TRUE,,,,,,VCTS -RA,SCT,11000,,,,,,,VFR,,,,,,0.03,,,,,,SPECI,347.0
KFNL 302156Z 17009KT 10SM CLR 26/07 A2992 RMK AO2 LTG DSNT SE AND NW SLP078 T02560072,KFNL,2023-05-30T21:56:00Z,40.45,-105.02,25.6,7.2,170,9,,10.0,29.920275,1007.8,,,TRUE,,,,,,,CLR,,,,,,,,VFR,,,,,,,,,,,,METAR,1529.0
KFLP 302156Z AUTO 00000KT 10SM CLR 29/16 A2993 RMK AO2 SLP130 T02940161,KFLP,2023-05-30T21:56:00Z,36.28,-92.58,29.4,16.1,0,0,,10.0,29.929134,1013.0,,TRUE,TRUE,,,,,,,CLR,,,,,,,,VFR,,,,,,,,,,,,METAR,215.0
KFKL 302156Z AUTO 17010KT 10SM SCT080 27/09 A3010 RMK AO2 SLP186 T02720089,KFKL,2023-05-30T21:56:00Z,41.37,-79.87,27.2,8.9,170,10,,10.0,30.100393,1018.6,,TRUE,TRUE,,,,,,,SCT,8000,,,,,,,VFR,,,,,,,,,,,,SPECI,468.0
KFCI 302156Z AUTO 02005KT 10SM OVC024 19/17 RMK AO2 RAE03 SLPNO P0000 T01940172 $,KFCI,2023-05-30T21:56:00Z,37.4,-77.52,19.4,17.2,20,5,,10.0,,,,TRUE,TRUE,TRUE,,,,,,OVC,2400,,,,,,,MVFR,,,,,,0.005,,,,,,METAR,63.0
KFAM 302156Z AUTO 00000KT 10SM CLR 28/12 A2995 RMK AO2 SLP144 T02830117,KFAM,2023-05-30T21:56:00Z,37.77,-90.42,28.3,11.7,0,0,,10.0,29.949802,1014.4,,TRUE,TRUE,,,,,,,CLR,,,,,,,,VFR,,,,,,,,,,,,METAR,276.0
KEWK 302156Z AUTO 35009KT 10SM -TSRA FEW029 BKN070 OVC100 24/19 A2988 RMK AO2 LTG DSNT NE AND E AND W TSE45B46RAB19 SLP108 P0007 T02390189,KEWK,2023-05-30T21:56:00Z,38.05,-97.27,23.9,18.9,350,9,,10.0,29.878937,1010.8,,TRUE,TRUE,,,,,,-TSRA,FEW,2900,BKN,7000,OVC,10000,,,VFR,,,,,,0.07,,,,,,METAR,468.0
KEUL 302156Z AUTO 23014KT 10SM CLR 27/11 A2979 RMK AO2 LTG DSNT N AND E SLP068 T02670106,KEUL,2023-05-30T21:56:00Z,43.63,-116.62,26.7,10.6,230,14,,10.0,29.790354,1006.8,,TRUE,TRUE,,,,,,,CLR,,,,,,,,VFR,,,,,,,,,,,,METAR,741.0
KESC 302156Z AUTO 15007KT 10SM CLR 22/11 A2997 RMK AO2 SLP152 T02220106,KESC,2023-05-30T21:56:00Z,45.72,-87.08,22.2,10.6,150,7,,10.0,29.970472,1015.2,,TRUE,TRUE,,,,,,,CLR,,,,,,,,VFR,,,,,,,,,,,,METAR,180.0
KENV 302156Z AUTO 21024G37KT 10SM CLR 26/M01 A2988 RMK AO2 PK WND 20037/2153 WSHFT 2059 SLP086 T02561011 PNO $,KENV,2023-05-30T21:56:00Z,40.72,-114.02,25.6,-1.1,210,24,37,10.0,29.878937,1008.6,,TRUE,TRUE,TRUE,,,,,,CLR,,,,,,,,VFR,,,,,,,,,,,,METAR,1291.0
KELZ 302156Z AUTO VRB03KT 10SM CLR 26/08 A3014 RMK AO2 SLP196 T02560083,KELZ,2023-05-30T21:56:00Z,42.1,-77.98,25.6,8.3,0,3,,10.0,30.138779,1019.6,,TRUE,TRUE,,,,,,,CLR,,,,,,,,VFR,,,,,,,,,,,,METAR,639.0
KEKY 302156Z AUTO 09004KT 10SM BKN055 OVC070 26/16 A2994 RMK AO2 SLP985 T02610161,KEKY,2023-05-30T21:56:00Z,33.32,-86.93,26.1,16.1,90,4,,10.0,29.940945,998.5,,TRUE,TRUE,,,,,,,BKN,5500,OVC,7000,,,,,VFR,,,,,,,,,,,,METAR,213.0
KEKQ 302156Z AUTO 14005KT 10SM FEW048 SCT065 26/16 A2998 RMK AO2 SLP144 T02560161,KEKQ,2023-05-30T21:56:00Z,36.85,-84.85,25.6,16.1,140,5,,10.0,29.97933,1014.4,,TRUE,TRUE,,,,,,,FEW,4800,SCT,6500,,,,,VFR,,,,,,,,,,,,METAR,291.0
KEKO 302156Z AUTO 20013G20KT 10SM FEW110 26/M01 A2987 RMK AO2 SLP066 T02561011,KEKO,2023-05-30T21:56:00Z,40.82,-115.78,25.6,-1.1,200,13,20,10.0,29.870079,1006.6,,TRUE,TRUE,,,,,,,FEW,11000,,,,,,,VFR,,,,,,,,,,,,METAR,1541.0
KEHR 302156Z AUTO 10006KT 10SM BKN065 31/15 A2992 RMK AO2 SLP128 T03060150,KEHR,2023-05-30T21:56:00Z,37.82,-87.67,30.6,15.0,100,6,,10.0,29.920275,1012.8,,TRUE,TRUE,,,,,,,BKN,6500,,,,,,,VFR,,,,,,,,,,,,METAR,117.0
KEGE 302156Z 14008G14KT 110V170 10SM FEW120 24/M07 A3002 RMK AO2 SLP076 T02391067,KEGE,2023-05-30T21:56:00Z,39.63,-106.92,23.9,-6.7,140,8,14,10.0,30.02067,1007.6,,,TRUE,,,,,,,FEW,12000,,,,,,,VFR,,,,,,,,,,,,METAR,1993.0
KEEN 302156Z AUTO 10SM CLR 24/05 A3015 RMK AO2 SLP212 T02440050 $,KEEN,2023-05-30T21:56:00Z,42.88,-72.27,24.4,5.0,,,,10.0,30.15059,1021.2,,TRUE,TRUE,TRUE,,,,,,CLR,,,,,,,,VFR,,,,,,,,,,,,SPECI,143.0
KEED 302156Z AUTO 14007G20KT 100V180 10SM CLR 35/M05 A2972 RMK AO2 SLP034 T03501050,KEED,2023-05-30T21:56:00Z,34.77,-114.62,35.0,-5.0,140,7,20,10.0,29.719488,1003.4,,TRUE,TRUE,,,,,,,CLR,,,,,,,,VFR,,,,,,,,,,,,METAR,271.0
KEAU 302156Z 16011G20KT 10SM CLR 31/12 A2986 RMK AO2 SLP106 T03110117,KEAU,2023-05-30T21:56:00Z,44.87,-91.48,31.1,11.7,160,11,20,10.0,29.861221,1010.6,,,TRUE,,,,,,,CLR,,,,,,,,VFR,,,,,,,,,,,,METAR,271.0
KEAR 302156Z AUTO 22007KT 10SM CLR 29/17 A2987 RMK AO2 SLP096 T02890167,KEAR,2023-05-30T21:56:00Z,40.72,-99.0,28.9,16.7,220,7,,10.0,29.870079,1009.6,,TRUE,TRUE,,,,,,,CLR,,,,,,,,VFR,,,,,,,,,,,,METAR,649.0
KDYR 302156Z AUTO 11007KT 10SM SCT070 OVC085 30/15 A2993 RMK AO2 SLP138 T03000150,KDYR,2023-05-30T21:56:00Z,36.0,-89.4,30.0,15.0,110,7,,10.0,29.929134,1013.8,,TRUE,TRUE,,,,,,,SCT,7000,OVC,8500,,,,,VFR,,,,,,,,,,,,METAR,98.0
KDWU 302156Z AUTO 11005KT 10SM FEW120 28/19 A3000 RMK AO2 LTG DSNT NW SLP155 T02780194,KDWU,2023-05-30T21:56:00Z,38.55,-82.73,27.8,19.4,110,5,,10.0,30.0,1015.5,,TRUE,TRUE,,,,,,,FEW,12000,,,,,,,VFR,,,,,,,,,,,,METAR,165.0
KDVL 302156Z AUTO 20008KT 10SM CLR 27/12 A2974 RMK AO2 SLP077 T02720122,KDVL,2023-05-30T21:56:00Z,48.12,-98.92,27.2,12.2,200,8,,10.0,29.740158,1007.7,,TRUE,TRUE,,,,,,,CLR,,,,,,,,VFR,,,,,,,,,,,,METAR,439.0
KDUG 302156Z AUTO 21012G35KT 10SM CLR 32/00 A2994 RMK AO2 PK WND 21035/2153 SLP073 T03170000 TSNO,KDUG,2023-05-30T21:56:00Z,31.47,-109.6,31.7,0.0,210,12,35,10.0,29.940945,1007.3,,TRUE,TRUE,,,TRUE,,,,CLR,,,,,,,,VFR,,,,,,,,,,,,METAR,1260.0
KDIK 302156Z AUTO 25006KT 10SM FEW075 27/11 A2980 RMK AO2 SLP077 T02720106,KDIK,2023-05-30T21:56:00Z,46.8,-102.8,27.2,10.6,250,6,,10.0,29.799213,1007.7,,TRUE,TRUE,,,,,,,FEW,7500,,,,,,,VFR,,,,,,,,,,,,METAR,788.0
KDIJ 302156Z AUTO 28010G21KT 8SM +RA BKN065 BKN085 OVC100 16/07 A3002 RMK AO2 LTG DSNT ALQDS RAE20B52 SLP135 P0006 T01560067,KDIJ,2023-05-30T21:56:00Z,43.75,-111.1,15.6,6.7,280,10,21,8.0,30.02067,1013.5,,TRUE,TRUE,,,,,,+RA,BKN,6500,BKN,8500,OVC,10000,,,VFR,,,,,,0.06,,,,,,METAR,1896.0
KDAY 302156Z 13013G18KT 10SM SCT060 29/13 A2999 RMK AO2 SLP148 T02940133,KDAY,2023-05-30T21:56:00Z,39.9,-84.22,29.4,13.3,130,13,18,10.0,29.991142,1014.8,,,TRUE,,,,,,,SCT,6000,,,,,,,VFR,,,,,,,,,,,,METAR,303.0
KD07 302156Z AUTO 28003KT 29/10 A2982 RMK AO1 SLP084 T02890100,KD07,2023-05-30T21:56:00Z,45.03,-102.02,28.9,10.0,280,3,,,29.819881,1008.4,,TRUE,TRUE,,,,,,,,,,,,,,,,,,,,,,,,,,,METAR,786.0
KCXY 302156Z 12008KT 10SM CLR 26/06 A3011 RMK AO2 SLP196 T02610056,KCXY,2023-05-30T21:56:00Z,40.22,-76.85,26.1,5.6,120,8,,10.0,30.109253,1019.6,,,TRUE,,,,,,,CLR,,,,,,,,VFR,,,,,,,,,,,,METAR,102.0
KCWI 302156Z AUTO 18009KT 10SM CLR 32/07 A2991 RMK AO2 SLP126 T03170072,KCWI,2023-05-30T21:56:00Z,41.82,-90.32,31.7,7.2,180,9,,10.0,29.911417,1012.6,,TRUE,TRUE,,,,,,,CLR,,,,,,,,VFR,,,,,,,,,,,,METAR,212.0
KCVO 302156Z AUTO 32004KT 10SM FEW040 18/07 A3003 RMK AO2 SLP168 T01780067,KCVO,2023-05-30T21:56:00Z,44.5,-123.28,17.8,6.7,320,4,,10.0,30.029528,1016.8,,TRUE,TRUE,,,,,,,FEW,4000,,,,,,,VFR,,,,,,,,,,,,METAR,75.0
KCVN 302156Z AUTO 16015KT 10SM CLR 28/12 A2994 RMK AO2 SLP099 T02830122,KCVN,2023-05-30T21:56:00Z,34.42,-103.07,28.3,12.2,160,15,,10.0,29.940945,1009.9,,TRUE,TRUE,,,,,,,CLR,,,,,,,,VFR,,,,,,,,,,,,METAR,1278.0
KCTB 302156Z AUTO 25017G25KT 10SM CLR 25/02 A2979 RMK AO2 SLP062 T02500022,KCTB,2023-05-30T21:56:00Z,48.6,-112.37,25.0,2.2,250,17,25,10.0,29.790354,1006.2,,TRUE,TRUE,,,,,,,CLR,,,,,,,,VFR,,,,,,,,,,,,METAR,1172.0
KCOE 302156Z AUTO 22009KT 180V240 10SM 24/04 A2983 RMK AO2 SLP103 T02440044 PNO $,KCOE,2023-05-30T21:56:00Z,47.77,-116.82,24.4,4.4,220,9,,10.0,29.828741,1010.3,,TRUE,TRUE,TRUE,,,,,,,,,,,,,,,,,,,,,,,,,,METAR,693.0
KCOD 302156Z AUTO 22016G21KT 10SM VCTS BKN100 19/06 A2994 RMK AO2 PK WND 17027/2117 LTG DSNT E TSE07B52 SLP097 T01890056,KCOD,2023-05-30T21:56:00Z,44.52,-109.02,18.9,5.6,220,16,21,10.0,29.940945,1009.7,,TRUE,TRUE,,,,,,VCTS,BKN,10000,,,,,,,VFR,,,,,,,,,,,,METAR,1550.0
KCIU 302156Z AUTO 18007KT 10SM CLR 28/11 A3000 RMK AO2 SLP155 T02780106,KCIU,2023-05-30T21:56:00Z,46.25,-84.47,27.8,10.6,180,7,,10.0,30.0,1015.5,,TRUE,TRUE,,,,,,,CLR,,,,,,,,VFR,,,,,,,,,,,,SPECI,242.0
KCHS 302156Z 13010KT 10SM FEW060 BKN100 BKN200 26/16 A2994 RMK AO2 SLP139 T02610161,KCHS,2023-05-30T21:56:00Z,32.9,-80.03,26.1,16.1,130,10,,10.0,29.940945,1013.9,,,TRUE,,,,,,,FEW,6000,BKN,10000,BKN,20000,,,VFR,,,,,,,,,,,,METAR,12.0
KCEC 302156Z AUTO 18009KT 10SM CLR 13/09 A2999 RMK AO2 SLP156 T01330094,KCEC,2023-05-30T21:56:00Z,41.78,-124.23,13.3,9.4,180,9,,10.0,29.991142,1015.6,,TRUE,TRUE,,,,,,,CLR,,,,,,,,VFR,,,,,,,,,,,,METAR,17.0
KCAE 302156Z 03009KT 10SM FEW060 27/17 A2993 RMK AO2 SLP134 T02720167,KCAE,2023-05-30T21:56:00Z,33.93,-81.12,27.2,16.7,30,9,,10.0,29.929134,1013.4,,,TRUE,,,,,,,FEW,6000,,,,,,,VFR,,,,,,,,,,,,METAR,69.0
KBZN 302156Z 28014KT 10SM -RA FEW070 BKN090 BKN110 17/09 A2990 RMK AO2 PK WND 25027/2129 WSHFT 2125 RAB49 SLP098 P0000 T01670089,KBZN,2023-05-30T21:56:00Z,45.78,-111.17,16.7,8.9,280,14,,10.0,29.899607,1009.8,,,TRUE,,,,,,-RA,FEW,7000,BKN,9000,BKN,11000,,,VFR,,,,,,0.005,,,,,,METAR,1349.0
KBVX 302156Z AUTO VRB06KT 10SM BKN070 BKN090 31/15 A2992 RMK AO2 SLP130 T03110150,KBVX,2023-05-30T21:56:00Z,35.73,-91.65,31.1,15.0,0,6,,10.0,29.920275,1013.0,,TRUE,TRUE,,,,,,,BKN,7000,BKN,9000,,,,,VFR,,,,,,,,,,,,METAR,137.0
KBTP 302156Z AUTO 11011G18KT 10SM SCT085 28/08 A3008 RMK AO2 SLP185 T02780083 TSNO $,KBTP,2023-05-30T21:56:00Z,40.77,-79.95,27.8,8.3,110,11,18,10.0,30.079725,1018.5,,TRUE,TRUE,TRUE,,TRUE,,,,SCT,8500,,,,,,,VFR,,,,,,,,,,,,SPECI,375.0
KBOK 302156Z AUTO VRB04KT 10SM OVC011 13/10 A2999 RMK AO2 SLP156 T01330100,KBOK,2023-05-30T21:56:00Z,42.07,-124.28,13.3,10.0,0,4,,10.0,29.991142,1015.6,,TRUE,TRUE,,,,,,,OVC,1100,,,,,,,MVFR,,,,,,,,,,,,METAR,140.0
KBLM 302156Z AUTO 07009KT 10SM CLR 17/08 A3020 RMK AO2 SLP228 T01670078,KBLM,2023-05-30T21:56:00Z,40.17,-74.12,16.7,7.8,70,9,,10.0,30.200787,1022.8,,TRUE,TRUE,,,,,,,CLR,,,,,,,,VFR,,,,,,,,,,,,SPECI,45.0
KBKX 302156Z AUTO 15009KT 10SM CLR 29/15 A2979 RMK AO2 LTG DSNT NE SLP087 T02940150,KBKX,2023-05-30T21:56:00Z,44.3,-96.82,29.4,15.0,150,9,,10.0,29.790354,1008.7,,TRUE,TRUE,,,,,,,CLR,,,,,,,,VFR,,,,,,,,,,,,SPECI,494.0
KBIH 302156Z AUTO 12010G22KT 100V160 10SM CLR 28/M04 A2981 RMK AO2 SLP051 T02831044,KBIH,2023-05-30T21:56:00Z,37.37,-118.35,28.3,-4.4,120,10,22,10.0,29.811024,1005.1,,TRUE,TRUE,,,,,,,CLR,,,,,,,,VFR,,,,,,,,,,,,METAR,1252.0
KBID 302156Z AUTO 09008KT 10SM CLR 12/08 A3023 RMK AO2 SLP236 T01220083,KBID,2023-05-30T21:56:00Z,41.17,-71.58,12.2,8.3,90,8,,10.0,30.230314,1023.6,,TRUE,TRUE,,,,,,,CLR,,,,,,,,VFR,,,,,,,,,,,,METAR,32.0
KBHB 302156Z AUTO 19015KT 10SM CLR 14/07 A3019 RMK AO2 SLP224 T01390072,KBHB,2023-05-30T21:56:00Z,44.45,-68.37,13.9,7.2,190,15,,10.0,30.188976,1022.4,,TRUE,TRUE,,,,,,,CLR,,,,,,,,VFR,,,,,,,,,,,,SPECI,21.0
KAWO 302156Z AUTO 27005KT 10SM OVC030 14/07 A3006 RMK AO2 SLP182 T01390067,KAWO,2023-05-30T21:56:00Z,48.17,-122.17,13.9,6.7,270,5,,10.0,30.059055,1018.2,,TRUE,TRUE,,,,,,,OVC,3000,,,,,,,MVFR,,,,,,,,,,,,METAR,38.0
KAUM 302156Z AUTO 19011KT 10SM CLR 32/12 A2985 RMK AO2,KAUM,2023-05-30T21:56:00Z,43.67,-92.92,32.0,12.0,190,11,,10.0,29.84941,,,TRUE,TRUE,,,,,,,CLR,,,,,,,,VFR,,,,,,,,,,,,METAR,376.0
KASH 302156Z 12009KT 090V150 10SM CLR 23/10 A3018 RMK AO2 SLP222 T02330100,KASH,2023-05-30T21:56:00Z,42.78,-71.52,23.3,10.0,120,9,,10.0,30.180119,1022.2,,,TRUE,,,,,,,CLR,,,,,,,,VFR,,,,,,,,,,,,SPECI,56.0
KART 302156Z AUTO 25005KT 10SM CLR 26/10 A3007 RMK AO2 SLP178 T02610100,KART,2023-05-30T21:56:00Z,43.98,-76.03,26.1,10.0,250,5,,10.0,30.070866,1017.8,,TRUE,TRUE,,,,,,,CLR,,,,,,,,VFR,,,,,,,,,,,,METAR,100.0
KARG 302156Z AUTO 08005KT 10SM CLR 30/13 A2991 RMK AO2 SLP129 T03000128,KARG,2023-05-30T21:56:00Z,36.12,-90.92,30.0,12.8,80,5,,10.0,29.911417,1012.9,,TRUE,TRUE,,,,,,,CLR,,,,,,,,VFR,,,,,,,,,,,,METAR,82.0
KAND 302156Z AUTO 09007KT 10SM FEW048 SCT060 26/15 A2997 RMK AO2 SLP141 T02560150,KAND,2023-05-30T21:56:00Z,34.5,-82.72,25.6,15.0,90,7,,10.0,29.970472,1014.1,,TRUE,TRUE,,,,,,,FEW,4800,SCT,6000,,,,,VFR,,,,,,,,,,,,METAR,233.0
KALK 302156Z AUTO 20011G23KT 10SM CLR 29/M07 A3000 RMK AO2 PK WND 23027/2113 SLP066 T02941072,KALK,2023-05-30T21:56:00Z,31.6,-110.43,29.4,-7.2,200,11,23,10.0,30.0,1006.6,,TRUE,TRUE,,,,,,,CLR,,,,,,,,VFR,,,,,,,,,,,,METAR,1451.0
KAJO 302156Z AUTO 24014G18KT 10SM OVC049 18/13 A2995 RMK AO2 SLP138 T01830128,KAJO,2023-05-30T21:56:00Z,33.9,-117.6,18.3,12.8,240,14,18,10.0,29.949802,1013.8,,TRUE,TRUE,,,,,,,OVC,4900,,,,,,,VFR,,,,,,,,,,,,SPECI,161.0
KAIZ 302156Z AUTO 22008KT 10SM CLR 29/16 RMK AO2 SLPNO T02890161 $,KAIZ,2023-05-30T21:56:00Z,38.1,-92.53,28.9,16.1,220,8,,10.0,,,,TRUE,TRUE,TRUE,,,,,,CLR,,,,,,,,VFR,,,,,,,,,,,,METAR,263.0
KAFJ 302156Z AUTO 12007KT 10SM FEW070 28/12 A3008 RMK AO2 SLP180 T02780122,KAFJ,2023-05-30T21:56:00Z,40.13,-80.28,27.8,12.2,120,7,,10.0,30.079725,1018.0,,TRUE,TRUE,,,,,,,FEW,7000,,,,,,,VFR,,,,,,,,,,,,METAR,360.0
KADF 302156Z AUTO 00000KT 10SM 30/16 A2991 RMK AO2 SLP125 T03000161 $,KADF,2023-05-30T21:56:00Z,34.1,-93.07,30.0,16.1,0,0,,10.0,29.911417,1012.5,,TRUE,TRUE,TRUE,,,,,,,,,,,,,,,,,,,,,,,,,,METAR,54.0
K8D3 302156Z AUTO 27013G21KT 32/09 A2972 RMK AO1 SLP043 T03170089,K8D3,2023-05-30T21:56:00Z,45.67,-96.98,31.7,8.9,270,13,21,,29.719488,1004.3,,TRUE,TRUE,,,,,,,,,,,,,,,,,,,,,,,,,,,METAR,535.0
K2WX 302156Z AUTO 06007KT 26/12 A2980 RMK AO1 SLP073 T02610122,K2WX,2023-05-30T21:56:00Z,45.6,-103.55,26.1,12.2,60,7,,,29.799213,1007.3,,TRUE,TRUE,,,,,,,,,,,,,,,,,,,,,,,,,,,METAR,925.0
K1M4 302156Z AUTO 07005KT 10SM SCT048 BKN065 BKN090 28/16 A2997 RMK AO2 SLP133 T02780156,K1M4,2023-05-30T21:56:00Z,34.28,-87.6,27.8,15.6,70,5,,10.0,29.970472,1013.3,,TRUE,TRUE,,,,,,,SCT,4800,BKN,6500,BKN,9000,,,VFR,,,,,,,,,,,,METAR,283.0
TXKF 302155Z 14014KT 9000 -RA SCT007 BKN070 BKN110 OVC130 23/22 Q1016 ,TXKF,2023-05-30T21:55:00Z,32.37,-64.68,23.0,22.0,140,14,,5.59,30.0,,,,,,,,,,-RA,SCT,700,BKN,7000,BKN,11000,OVC,13000,VFR,,,,,,,,,,,,METAR,4.0
TJPS 302155Z AUTO 10006KT 10SM OVC060 28/23 A2991 RMK AO2 TSNO,TJPS,2023-05-30T21:55:00Z,18.02,-66.57,28.0,23.0,100,6,,10.0,29.911417,,,TRUE,TRUE,,,TRUE,,,,OVC,6000,,,,,,,VFR,,,,,,,,,,,,METAR,12.0
RKSO 302155Z 11004KT 10SM OVC031 17/17 A3000 RMK AO2A SLP163 ALSTG/SLP ESTMD T01730171 $,RKSO,2023-05-30T21:55:00Z,37.08,127.02,17.3,17.1,110,4,,10.0,30.0,1016.3,,,TRUE,TRUE,,,,,,OVC,3100,,,,,,,VFR,,,,,,,,,,,,METAR,10.0
RKSG 302155Z 10006KT 10SM BKN030 19/16 A2986 RMK AO2A SLP114 T01850157 $,RKSG,2023-05-30T21:55:00Z,36.97,127.02,18.5,15.7,100,6,,10.0,29.861221,1011.4,,,TRUE,TRUE,,,,,,BKN,3000,,,,,,,MVFR,,,,,,,,,,,,METAR,12.0
RKJK 302155Z 04007KT 9SM OVC018 20/17 A2983 RMK AO2A SLP105 T02000170 VISNO RWY18 $,RKJK,2023-05-30T21:55:00Z,35.9,126.62,20.0,17.0,40,7,,9.0,29.828741,1010.5,,,TRUE,TRUE,,,,,,OVC,1800,,,,,,,MVFR,,,,,,,,,,,,METAR,8.0
RJTY 302155Z 01005KT 10SM FEW030 OVC047 18/12 A2991 RMK AO2A SLP130 T01750124 $,RJTY,2023-05-30T21:55:00Z,35.75,139.33,17.5,12.4,10,5,,10.0,29.911417,1013.0,,,TRUE,TRUE,,,,,,FEW,3000,OVC,4700,,,,,VFR,,,,,,,,,,,,METAR,136.0
PWAK 302155Z AUTO 07012G17KT 8SM -RA M 25/23 A3004 RMK AO2 RAB24 SLP179 P0009 T02460228 CHINO RWY28 $,PWAK,2023-05-30T21:55:00Z,19.28,166.62,24.6,22.8,70,12,17,8.0,30.041338,1017.9,,TRUE,TRUE,TRUE,,,,,-RA,,,,,,,,,,,,,,,0.09,,,,,,METAR,7.0
PHSF 302155Z AUTO 26012G17KT 9SM SCT023 19/12 A3036 RMK AO2 SLP172 T01890119 $,PHSF,2023-05-30T21:55:00Z,19.77,-155.55,18.9,11.9,260,12,17,9.0,30.360237,1017.2,,TRUE,TRUE,TRUE,,,,,,SCT,2300,,,,,,,VFR,,,,,,,,,,,,METAR,1863.0
PHHI 302155Z AUTO 08011G18KT 10SM BKN031 26/17 A3008 RMK AO2 SLP177 T02610169,PHHI,2023-05-30T21:55:00Z,21.48,-158.05,26.1,16.9,80,11,18,10.0,30.079725,1017.7,,TRUE,TRUE,,,,,,,BKN,3100,,,,,,,VFR,,,,,,,,,,,,METAR,246.0
PGUA 302155Z 05009G16KT 3SM -RA BKN005 OVC010 23/22 A2989 RMK LGT DSNT SSW SLPNO WND DATA/ALSTG EST $,PGUA,2023-05-30T21:55:00Z,13.57,144.92,23.0,22.0,50,9,16,3.0,29.890747,,,,,TRUE,,,,,-RA,BKN,500,OVC,1000,,,,,IFR,,,,,,,,,,,,METAR,159.0
PATL 302155Z AUTO 00000KT 10SM BKN018 BKN080 07/03 A2973 RMK AO2 SLP074 T00730031 TSNO $,PATL,2023-05-30T21:55:00Z,62.9,-155.97,7.3,3.1,0,0,,10.0,29.731298,1007.4,,TRUE,TRUE,TRUE,,TRUE,,,,BKN,1800,BKN,8000,,,,,MVFR,,,,,,,,,,,,METAR,261.0
PATC 302155Z AUTO 27007KT 10SM BKN013 M02/M04 A2983 RMK AO2 SLP105 T10241045,PATC,2023-05-30T21:55:00Z,65.57,-167.92,-2.4,-4.5,270,7,,10.0,29.828741,1010.5,,TRUE,TRUE,,,,,,,BKN,1300,,,,,,,MVFR,,,,,,,,,,,,METAR,77.0
PASV 302155Z AUTO VRB06KT 10SM OVC011 04/01 A2969 RMK AO2 SLP068 T00370008,PASV,2023-05-30T21:55:00Z,61.1,-155.57,3.7,0.8,0,6,,10.0,29.68996,1006.8,,TRUE,TRUE,,,,,,,OVC,1100,,,,,,,MVFR,,,,,,,,,,,,METAR,462.0
PALU 302155Z AUTO 22026G32KT 150V230 10SM BKN009 OVC100 00/M02 A2964 RMK AO2 PK WND 23032/2141 SHSNB2020E2102 SLP035 T10041025,PALU,2023-05-30T21:55:00Z,68.88,-166.1,-0.4,-2.5,220,26,32,10.0,29.639763,1003.5,,TRUE,TRUE,,,,,,,BKN,900,OVC,10000,,,,,IFR,,,,,,,,,,,,METAR,8.0
PAIM 302155Z 24007KT 190V260 10SM BKN043 11/00 A2964 RMK AO2A LTG DSNT E SLP038 BWC LOW,PAIM,2023-05-30T21:55:00Z,66.0,-153.7,11.0,0.0,240,7,,10.0,29.639763,1003.8,,,TRUE,,,,,,,BKN,4300,,,,,,,VFR,,,,,,,,,,,,METAR,309.0
PAEH 302155Z AUTO 35016KT 270V070 10SM OVC008 02/02 A2974 RMK AO2 SLP078 T00210027,PAEH,2023-05-30T21:55:00Z,58.65,-162.07,2.1,2.7,350,16,,10.0,29.740158,1007.8,,TRUE,TRUE,,,,,,,OVC,800,,,,,,,IFR,,,,,,,,,,,,METAR,101.0
PACZ 302155Z AUTO 01036G43KT 300V140 10SM OVC006 M01/M02 A2979 RMK AO2 PK WND 36043/2116 SHRAB2041E2148 SLP096 T10091023,PACZ,2023-05-30T21:55:00Z,61.78,-166.03,-0.9,-2.3,10,36,43,10.0,29.790354,1009.6,,TRUE,TRUE,,,,,,,OVC,600,,,,,,,IFR,,,,,,,,,,,,METAR,129.0
PAAD 302155Z AUTO 00000KT 10SM OVC085 01/M01 A2962 RMK AO2 T00061009 PWINO,PAAD,2023-05-30T21:55:00Z,70.13,-146.28,0.6,-0.9,0,0,,10.0,29.619095,,,TRUE,TRUE,,,,,TRUE,,OVC,8500,,,,,,,VFR,,,,,,,,,,,,METAR,8.0
OPLA 302155Z 15022KT 4000 FU SCT040 BKN100 25/17 Q1006 TEMPO 15025G50KT 2000 TSRA FEW030CB RMK QFE980 A29.72,OPLA,2023-05-30T21:55:00Z,31.52,74.4,25.0,17.0,150,22,,2.49,29.704725,,,,,,,,,,FU,SCT,4000,BKN,10000,,,,,IFR,,,,,,,,,,,,METAR,217.0
OEPS 302155Z 29004KT 9999 BKN150 31/15 A2993 RMK AO2A SLP112 WND DATA ESTMD T03060145 404070284,OEPS,2023-05-30T21:55:00Z,24.07,47.58,30.6,14.5,290,4,,6.21,29.929134,1011.2,,,TRUE,,,,,,,BKN,15000,,,,,,,VFR,,,,40.7,28.4,,,,,,,SPECI,503.0
NZCM 302155Z AUTO 32007KT 9999 OVC038 M26/M30 A2918 RMK AO2 SLP887 T12561302,NZCM,2023-05-30T21:55:00Z,-77.85,166.67,-25.6,-30.2,320,7,,6.21,29.179134,988.7,,TRUE,TRUE,,,,,,,OVC,3800,,,,,,,VFR,,,,,,,,,,,,METAR,24.0
KY70 302155Z AUTO 12009KT 10SM SCT090 BKN120 31/10 A2997 RMK AO2 T03080095,KY70,2023-05-30T21:55:00Z,42.93,-85.07,30.8,9.5,120,9,,10.0,29.970472,,,TRUE,TRUE,,,,,,,SCT,9000,BKN,12000,,,,,VFR,,,,,,,,,,,,METAR,247.0
KY63 302155Z AUTO 35007G17KT 10SM -VCTSRA SCT034 SCT050 BKN080 21/17 A2979 RMK AO2 LTG DSNT ALQDS T02140172 P0001,KY63,2023-05-30T21:55:00Z,45.98,-96.0,21.4,17.2,350,7,17,10.0,29.790354,,,TRUE,TRUE,,,,,,VCTS -RA,SCT,3400,SCT,5000,BKN,8000,,,VFR,,,,,,0.01,,,,,,METAR,367.0
KY49 302155Z AUTO 20006KT 10SM TS SCT065 SCT085 SCT110 25/17 A2978 RMK AO2 LTG DSNT ALQS T02510170 P0001,KY49,2023-05-30T21:55:00Z,47.15,-94.65,25.1,17.0,200,6,,10.0,29.778543,,,TRUE,TRUE,,,,,,TS,SCT,6500,SCT,8500,SCT,11000,,,VFR,,,,,,0.01,,,,,,SPECI,413.0
KY31 302155Z AUTO 10006KT 10SM CLR 30/06 A2999 RMK AO2 T03020057,KY31,2023-05-30T21:55:00Z,44.25,-84.18,30.2,5.7,100,6,,10.0,29.991142,,,TRUE,TRUE,,,,,,,CLR,,,,,,,,VFR,,,,,,,,,,,,METAR,264.0
KXNX 302155Z AUTO 00000KT 10SM CLR 29/14 A2997 RMK A01,KXNX,2023-05-30T21:55:00Z,36.38,-86.42,29.0,14.0,0,0,,10.0,29.970472,,,TRUE,TRUE,,,,,,,CLR,,,,,,,,VFR,,,,,,,,,,,,METAR,178.0
KXNO 302155Z AUTO 01008KT 10SM CLR 28/26 A2992 RMK AO2 SLP132 T02760261 $,KXNO,2023-05-30T21:55:00Z,33.62,-81.07,27.6,26.1,10,8,,10.0,29.920275,1013.2,,TRUE,TRUE,TRUE,,,,,,CLR,,,,,,,,VFR,,,,,,,,,,,,METAR,94.0
KXMR 302155Z AUTO 12009KT 10SM CLR 28/19 A2987 RMK AO2 SLP118 T02780193 $,KXMR,2023-05-30T21:55:00Z,28.47,-80.57,27.8,19.3,120,9,,10.0,29.870079,1011.8,,TRUE,TRUE,TRUE,,,,,,CLR,,,,,,,,VFR,,,,,,,,,,,,METAR,5.0
KWYS 302155Z AUTO 19010G15KT 150V210 10SM FEW075 BKN100 18/05 A2998 RMK AO2,KWYS,2023-05-30T21:55:00Z,44.68,-111.12,18.0,5.0,190,10,15,10.0,29.97933,,,TRUE,TRUE,,,,,,,FEW,7500,BKN,10000,,,,,VFR,,,,,,,,,,,,METAR,2025.0
KWWR 302155Z AUTO 16011G14KT 10SM SCT060 30/14 A2992 RMK AO2,KWWR,2023-05-30T21:55:00Z,36.45,-99.52,30.0,14.0,160,11,14,10.0,29.920275,,,TRUE,TRUE,,,,,,,SCT,6000,,,,,,,VFR,,,,,,,,,,,,METAR,664.0
KWRB 302155Z AUTO 09007KT 10SM CLR 29/17 A2989 RMK AO2 SLP122 T02920167,KWRB,2023-05-30T21:55:00Z,32.63,-83.58,29.2,16.7,90,7,,10.0,29.890747,1012.2,,TRUE,TRUE,,,,,,,CLR,,,,,,,,VFR,,,,,,,,,,,,METAR,82.0
KWDG 302155Z 18009KT 10SM SCT100 31/18 A2986,KWDG,2023-05-30T21:55:00Z,36.37,-97.78,31.0,18.0,180,9,,10.0,29.861221,,,,,,,,,,,SCT,10000,,,,,,,VFR,,,,,,,,,,,,METAR,352.0
KVWU 302155Z AUTO 16006KT 10SM CLR 28/17 A2976 RMK AO2 LTG DSNT S,KVWU,2023-05-30T21:55:00Z,48.15,-94.52,28.0,17.0,160,6,,10.0,29.760826,,,TRUE,TRUE,,,,,,,CLR,,,,,,,,VFR,,,,,,,,,,,,METAR,359.0
KVVV 302155Z AUTO 18006KT 10SM CLR 29/17 A2975 RMK AO2,KVVV,2023-05-30T21:55:00Z,45.3,-96.42,29.0,17.0,180,6,,10.0,29.749016,,,TRUE,TRUE,,,,,,,CLR,,,,,,,,VFR,,,,,,,,,,,,SPECI,334.0
KVTP 302155Z AUTO 28005G14KT 10SM SCT090 14/M03 A3027 RMK AO2,KVTP,2023-05-30T21:55:00Z,37.5,-105.17,14.0,-3.0,280,5,14,10.0,30.268702,,,TRUE,TRUE,,,,,,,SCT,9000,,,,,,,VFR,,,,,,,,,,,,METAR,3086.0
KVTI 302155Z AUTO 13008G16KT 10SM CLR 33/07 A2987 RMK AO2 T03310066,KVTI,2023-05-30T21:55:00Z,42.22,-92.02,33.1,6.6,130,8,16,10.0,29.870079,,,TRUE,TRUE,,,,,,,CLR,,,,,,,,VFR,,,,,,,,,,,,METAR,256.0
KVPS 302155Z AUTO 21006KT 10SM BKN060 BKN075 26/18 A2988 RMK AO2 SLP125 T02620175 $,KVPS,2023-05-30T21:55:00Z,30.47,-86.52,26.2,17.5,210,6,,10.0,29.878937,1012.5,,TRUE,TRUE,TRUE,,,,,,BKN,6000,BKN,7500,,,,,VFR,,,,,,,,,,,,METAR,21.0
KVPC 302155Z AUTO 09010KT 10SM BKN090 29/15 A2994 RMK AO2,KVPC,2023-05-30T21:55:00Z,34.1,-84.85,29.0,15.0,90,10,,10.0,29.940945,,,TRUE,TRUE,,,,,,,BKN,9000,,,,,,,VFR,,,,,,,,,,,,METAR,234.0
KVOA 302155Z AUTO 10007KT 10SM CLR 29/16 A2990 RMK A01,KVOA,2023-05-30T21:55:00Z,29.23,-87.78,29.0,16.0,100,7,,10.0,29.899607,,,TRUE,TRUE,,,,,,,CLR,,,,,,,,VFR,,,,,,,,,,,,SPECI,53.0
KVLL 302155Z AUTO 10010G14KT 10SM CLR 30/11 A3004 RMK AO2 T03040108,KVLL,2023-05-30T21:55:00Z,42.55,-83.18,30.4,10.8,100,10,14,10.0,30.041338,,,TRUE,TRUE,,,,,,,CLR,,,,,,,,VFR,,,,,,,,,,,,METAR,214.0
KVKY 302155Z AUTO 13005KT 10SM CLR A2992 RMK A01,KVKY,2023-05-30T21:55:00Z,29.25,-88.43,,,130,5,,10.0,29.920275,,,TRUE,TRUE,,,,,,,CLR,,,,,,,,VFR,,,,,,,,,,,,METAR,32.0
KVKS 302155Z AUTO 02004KT 10SM BKN070 30/M33 A2988 RMK A01,KVKS,2023-05-30T21:55:00Z,32.23,-90.93,30.0,-33.0,20,4,,10.0,29.878937,,,TRUE,TRUE,,,,,,,BKN,7000,,,,,,,VFR,,,,,,,,,,,,METAR,31.0
KVHN 302155Z AUTO 18011KT 10SM CLR 35/M03 A2993 RMK AO2 T03541032,KVHN,2023-05-30T21:55:00Z,31.07,-104.78,35.4,-3.2,180,11,,10.0,29.929134,,,TRUE,TRUE,,,,,,,CLR,,,,,,,,VFR,,,,,,,,,,,,METAR,1200.0
KVDI 302155Z AUTO 09008KT 10SM OVC110 27/19 A2991 RMK AO2,KVDI,2023-05-30T21:55:00Z,32.2,-82.37,27.0,19.0,90,8,,10.0,29.911417,,,TRUE,TRUE,,,,,,,OVC,11000,,,,,,,VFR,,,,,,,,,,,,METAR,81.0
KVCV 302155Z AUTO 17018KT 9SM CLR 24/03 A2989 RMK AO2,KVCV,2023-05-30T21:55:00Z,34.58,-117.38,24.0,3.0,170,18,,9.0,29.890747,,,TRUE,TRUE,,,,,,,CLR,,,,,,,,VFR,,,,,,,,,,,,METAR,871.0
KVBG 302155Z 28009KT 10SM FEW013 BKN027 OVC033 15/12 A3000 RMK AO2A CIG 027V033 BKN V OVC SLP162 T01460119,KVBG,2023-05-30T21:55:00Z,34.73,-120.58,14.6,11.9,280,9,,10.0,30.0,1016.2,,,TRUE,,,,,,,FEW,1300,BKN,2700,OVC,3300,,,MVFR,,,,,,,,,,,,METAR,96.0
KVAF 302155Z AUTO 08011KT 10SM FEW018 27/20 A2989 RMK A01,KVAF,2023-05-30T21:55:00Z,27.35,-94.63,27.0,20.0,80,11,,10.0,29.890747,,,TRUE,TRUE,,,,,,,FEW,1800,,,,,,,VFR,,,,,,,,,,,,METAR,38.0
KVAD 302155Z AUTO 00000KT 10SM BKN075 30/13 A2987 RMK AO2 SLP115 T02950128 $,KVAD,2023-05-30T21:55:00Z,30.97,-83.2,29.5,12.8,0,0,,10.0,29.870079,1011.5,,TRUE,TRUE,TRUE,,,,,,BKN,7500,,,,,,,VFR,,,,,,,,,,,,METAR,70.0
KUYF 302155Z AUTO 15006KT 10SM SCT065 SCT080 SCT110 29/10 A3000 RMK AO2,KUYF,2023-05-30T21:55:00Z,39.93,-83.47,29.0,10.0,150,6,,10.0,30.0,,,TRUE,TRUE,,,,,,,SCT,6500,SCT,8000,SCT,11000,,,VFR,,,,,,,,,,,,METAR,326.0
KUVA 302155Z AUTO 12005KT CLR 29/20 A2989 RMK AO2 T02870202 PWINO,KUVA,2023-05-30T21:55:00Z,29.22,-99.75,28.7,20.2,120,5,,,29.890747,,,TRUE,TRUE,,,,,TRUE,,CLR,,,,,,,,,,,,,,,,,,,,METAR,285.0
KUSE 302155Z AUTO 10011KT 10SM FEW120 31/14 A2998 RMK AO2,KUSE,2023-05-30T21:55:00Z,41.62,-84.13,31.0,14.0,100,11,,10.0,29.97933,,,TRUE,TRUE,,,,,,,FEW,12000,,,,,,,VFR,,,,,,,,,,,,METAR,237.0
KUKT 302155Z AUTO 07006KT 10SM CLR 22/04 A3016 RMK A01,KUKT,2023-05-30T21:55:00Z,40.43,-75.38,22.0,4.0,70,6,,10.0,30.159449,,,TRUE,TRUE,,,,,,,CLR,,,,,,,,VFR,,,,,,,,,,,,METAR,156.0
KU69 302155Z AUTO VRB04G13KT 10SM CLR 24/M05 A2995 RMK A01,KU69,2023-05-30T21:55:00Z,40.2,-110.38,24.0,-5.0,0,4,13,10.0,29.949802,,,TRUE,TRUE,,,,,,,CLR,,,,,,,,VFR,,,,,,,,,,,,METAR,1776.0
KU55 302155Z AUTO 19014G21KT 10SM CLR 22/M12 A3004 RMK A01,KU55,2023-05-30T21:55:00Z,37.85,-112.38,22.0,-12.0,190,14,21,10.0,30.041338,,,TRUE,TRUE,,,,,,,CLR,,,,,,,,VFR,,,,,,,,,,,,METAR,2060.0
KTWM 302155Z AUTO 09005KT 10SM 24/14 A2984 RMK AO2,KTWM,2023-05-30T21:55:00Z,47.05,-91.75,24.0,14.0,90,5,,10.0,29.840551,,,TRUE,TRUE,,,,,,,,,,,,,,,,,,,,,,,,,,,METAR,331.0
KTTS 302155Z AUTO 13009KT 10SM CLR 27/19 A2988 RMK AO2 SLP123 T02740192 $,KTTS,2023-05-30T21:55:00Z,28.58,-80.67,27.4,19.2,130,9,,10.0,29.878937,1012.3,,TRUE,TRUE,TRUE,,,,,,CLR,,,,,,,,VFR,,,,,,,,,,,,METAR,1.0
KTTF 302155Z AUTO 14006KT 10SM CLR 27/13 A3001 RMK AO2 T02710125,KTTF,2023-05-30T21:55:00Z,41.93,-83.42,27.1,12.5,140,6,,10.0,30.008858,,,TRUE,TRUE,,,,,,,CLR,,,,,,,,VFR,,,,,,,,,,,,METAR,186.0
KTSP 302155Z AUTO 32016G21KT 9SM CLR 16/08 A2997 RMK AO2,KTSP,2023-05-30T21:55:00Z,35.13,-118.43,16.0,8.0,320,16,21,9.0,29.970472,,,TRUE,TRUE,,,,,,,CLR,,,,,,,,VFR,,,,,,,,,,,,METAR,1209.0
KTQV 302155Z AUTO 03012G19KT 10SM BKN018 OVC025 20/16 A3006 RMK A01,KTQV,2023-05-30T21:55:00Z,36.0,-78.93,20.0,16.0,30,12,19,10.0,30.059055,,,TRUE,TRUE,,,,,,,BKN,1800,OVC,2500,,,,,MVFR,,,,,,,,,,,,METAR,230.0
KTQH 302155Z AUTO 00000KT 10SM CLR 32/10 A2993 RMK AO2,KTQH,2023-05-30T21:55:00Z,35.93,-95.0,32.0,10.0,0,0,,10.0,29.929134,,,TRUE,TRUE,,,,,,,CLR,,,,,,,,VFR,,,,,,,,,,,,METAR,265.0
KTOB 302155Z AUTO 17016KT 10SM SCT080 SCT100 31/09 A2985 RMK AO2,KTOB,2023-05-30T21:55:00Z,44.02,-92.82,31.0,9.0,170,16,,10.0,29.84941,,,TRUE,TRUE,,,,,,,SCT,8000,SCT,10000,,,,,VFR,,,,,,,,,,,,METAR,394.0
KTNB 302155Z AUTO 10006KT 10SM SCT020 SCT075 18/13 A3012 RMK AO2 T01790126,KTNB,2023-05-30T21:55:00Z,36.2,-81.65,17.9,12.6,100,6,,10.0,30.121063,,,TRUE,TRUE,,,,,,,SCT,2000,SCT,7500,,,,,VFR,,,,,,,,,,,,METAR,958.0
KTMT 302155Z AUTO 24012G16KT 10SM SCT110 23/01 A2993 RMK AO2 T02330008,KTMT,2023-05-30T21:55:00Z,39.47,-117.2,23.3,0.8,240,12,16,10.0,29.929134,,,TRUE,TRUE,,,,,,,SCT,11000,,,,,,,VFR,,,,,,,,,,,,METAR,1748.0
KTKC 302155Z AUTO 22011KT 9SM CLR 29/16 A2979 RMK AO2,KTKC,2023-05-30T21:55:00Z,44.25,-95.62,29.0,16.0,220,11,,9.0,29.790354,,,TRUE,TRUE,,,,,,,CLR,,,,,,,,VFR,,,,,,,,,,,,METAR,408.0
KTIK 302155Z AUTO 19006KT 10SM FEW055 30/17 A2987 RMK AO2 SLP109 T02970172 $,KTIK,2023-05-30T21:55:00Z,35.4,-97.38,29.7,17.2,190,6,,10.0,29.870079,1010.9,,TRUE,TRUE,TRUE,,,,,,FEW,5500,,,,,,,VFR,,,,,,,,,,,,METAR,387.0
KTHA 302155Z AUTO 00000KT 10SM BKN050 BKN060 27/15 A2994 RMK A01,KTHA,2023-05-30T21:55:00Z,35.38,-86.25,27.0,15.0,0,0,,10.0,29.940945,,,TRUE,TRUE,,,,,,,BKN,5000,BKN,6000,,,,,VFR,,,,,,,,,,,,METAR,333.0
KTEW 302155Z AUTO 13005KT 10SM CLR 32/08 A2999 RMK AO2 T03220079,KTEW,2023-05-30T21:55:00Z,42.57,-84.42,32.2,7.9,130,5,,10.0,29.991142,,,TRUE,TRUE,,,,,,,CLR,,,,,,,,VFR,,,,,,,,,,,,METAR,281.0
KTDR 302155Z AUTO 26007KT 10SM CLR 28/17 A2984 RMK AO2 SLP108 T02820174 $,KTDR,2023-05-30T21:55:00Z,30.05,-85.52,28.2,17.4,260,7,,10.0,29.840551,1010.8,,TRUE,TRUE,TRUE,,,,,,CLR,,,,,,,,VFR,,,,,,,,,,,,METAR,4.0
KTCY 302155Z AUTO 29013G19KT 10SM CLR 25/08 A2988 RMK A01,KTCY,2023-05-30T21:55:00Z,37.68,-121.43,25.0,8.0,290,13,19,10.0,29.878937,,,TRUE,TRUE,,,,,,,CLR,,,,,,,,VFR,,,,,,,,,,,,METAR,51.0
KTCM 302155Z AUTO 32007KT 10SM SCT044 18/05 A3002 RMK AO2 SLP170 T01780047 $,KTCM,2023-05-30T21:55:00Z,47.13,-122.47,17.8,4.7,320,7,,10.0,30.02067,1017.0,,TRUE,TRUE,TRUE,,,,,,SCT,4400,,,,,,,VFR,,,,,,,,,,,,METAR,87.0
KTBN 302155Z AUTO 11008KT 10SM CLR 30/13 A2991 RMK AO2 SLP122 T02970130,KTBN,2023-05-30T21:55:00Z,37.73,-92.13,29.7,13.0,110,8,,10.0,29.911417,1012.2,,TRUE,TRUE,,,,,,,CLR,,,,,,,,VFR,,,,,,,,,,,,METAR,349.0
KTAZ 302155Z AUTO 22004KT 10SM CLR 31/10 A2992 RMK AO2 T03100099,KTAZ,2023-05-30T21:55:00Z,39.53,-89.33,31.0,9.9,220,4,,10.0,29.920275,,,TRUE,TRUE,,,,,,,CLR,,,,,,,,VFR,,,,,,,,,,,,METAR,188.0
KT89 302155Z AUTO 00000KT 10SM CLR 36/06 A2982 RMK A01,KT89,2023-05-30T21:55:00Z,29.27,-103.68,36.0,6.0,0,0,,10.0,29.819881,,,TRUE,TRUE,,,,,,,CLR,,,,,,,,VFR,,,,,,,,,,,,METAR,801.0
KT82 302155Z AUTO 00000KT 10SM CLR 29/16 A2991 RMK AO2 T02870163,KT82,2023-05-30T21:55:00Z,30.25,-98.92,28.7,16.3,0,0,,10.0,29.911417,,,TRUE,TRUE,,,,,,,CLR,,,,,,,,VFR,,,,,,,,,,,,METAR,509.0
KT78 302155Z AUTO VRB05G14KT 9SM SCT060 BKN070 30/21 A2986 RMK AO2 LTG DSNT NE AND E,KT78,2023-05-30T21:55:00Z,30.08,-94.7,30.0,21.0,0,5,14,9.0,29.861221,,,TRUE,TRUE,,,,,,,SCT,6000,BKN,7000,,,,,VFR,,,,,,,,,,,,METAR,21.0
KT74 302155Z AUTO 10SM SCT049 30/19 A2988 RMK AO2 T02960188,KT74,2023-05-30T21:55:00Z,30.57,-97.45,29.6,18.8,,,,10.0,29.878937,,,TRUE,TRUE,,,,,,,SCT,4900,,,,,,,VFR,,,,,,,,,,,,METAR,169.0
KT70 302155Z AUTO 12009KT 10SM CLR 32/20 A2983 RMK AO2 SLP089 T03180197 $,KT70,2023-05-30T21:55:00Z,29.12,-100.48,31.8,19.7,120,9,,10.0,29.828741,1008.9,,TRUE,TRUE,TRUE,,,,,,CLR,,,,,,,,VFR,,,,,,,,,,,,METAR,296.0
KT69 302155Z AUTO 13010KT 110V170 10SM FEW027 29/23 A2986 RMK A01,KT69,2023-05-30T21:55:00Z,28.03,-97.55,29.0,23.0,130,10,,10.0,29.861221,,,TRUE,TRUE,,,,,,,FEW,2700,,,,,,,VFR,,,,,,,,,,,,METAR,15.0
KT41 302155Z AUTO 12010KT 10SM SCT080 31/18 A2988 RMK AO2 T03120183,KT41,2023-05-30T21:55:00Z,29.67,-95.07,31.2,18.3,120,10,,10.0,29.878937,,,TRUE,TRUE,,,,,,,SCT,8000,,,,,,,VFR,,,,,,,,,,,,METAR,8.0
KSZY 302155Z AUTO 15004KT 10SM BKN095 27/16 A2993 RMK A01,KSZY,2023-05-30T21:55:00Z,35.2,-88.5,27.0,16.0,150,4,,10.0,29.929134,,,TRUE,TRUE,,,,,,,BKN,9500,,,,,,,VFR,,,,,,,,,,,,METAR,184.0
KSZL 302155Z 18008KT 10SM SCT055 BKN120 27/17 A2988 RMK AO2A LTG DSNT W SLP115 T02730166 $,KSZL,2023-05-30T21:55:00Z,38.73,-93.53,27.3,16.6,180,8,,10.0,29.878937,1011.5,,,TRUE,TRUE,,,,,,SCT,5500,BKN,12000,,,,,VFR,,,,,,,,,,,,METAR,259.0
KSYN 302155Z AUTO 17015G21KT 10SM BKN075 BKN090 BKN110 29/11 A2982 RMK AO2 T02940113,KSYN,2023-05-30T21:55:00Z,44.47,-93.02,29.4,11.3,170,15,21,10.0,29.819881,,,TRUE,TRUE,,,,,,,BKN,7500,BKN,9000,BKN,11000,,,VFR,,,,,,,,,,,,METAR,280.0
KSYM 302155Z AUTO VRB04KT 10SM FEW050 SCT065 SCT090 27/14 A3001 RMK AO2,KSYM,2023-05-30T21:55:00Z,38.22,-83.58,27.0,14.0,0,4,,10.0,30.008858,,,TRUE,TRUE,,,,,,,FEW,5000,SCT,6500,SCT,9000,,,VFR,,,,,,,,,,,,METAR,307.0
KSYI 302155Z AUTO 00000KT 10SM CLR 28/15 A2994 RMK A01,KSYI,2023-05-30T21:55:00Z,35.57,-86.45,28.0,15.0,0,0,,10.0,29.940945,,,TRUE,TRUE,,,,,,,CLR,,,,,,,,VFR,,,,,,,,,,,,METAR,244.0
KSXU 302155Z AUTO 14010G19KT 10SM CLR 30/05 A2991 RMK AO2 T03010053,KSXU,2023-05-30T21:55:00Z,34.93,-104.65,30.1,5.3,140,10,19,10.0,29.911417,,,TRUE,TRUE,,,,,,,CLR,,,,,,,,VFR,,,,,,,,,,,,METAR,1465.0
KSXS 302155Z AUTO 02007KT 10SM BKN070 26/16 A2989 RMK AO2 SLP121 T02600159,KSXS,2023-05-30T21:55:00Z,31.37,-85.85,26.0,15.9,20,7,,10.0,29.890747,1012.1,,TRUE,TRUE,,,,,,,BKN,7000,,,,,,,VFR,,,,,,,,,,,,METAR,120.0
KSXK 302155Z AUTO 22006G15KT 10SM SCT100 31/10 A2975 RMK AO2,KSXK,2023-05-30T21:55:00Z,42.98,-96.17,31.0,10.0,220,6,15,10.0,29.749016,,,TRUE,TRUE,,,,,,,SCT,10000,,,,,,,VFR,,,,,,,,,,,,METAR,430.0
KSVN 302155Z AUTO 10008KT 10SM FEW110 25/18 A2991 RMK AO2 SLP131 T02490176 $,KSVN,2023-05-30T21:55:00Z,32.02,-81.12,24.9,17.6,100,8,,10.0,29.911417,1013.1,,TRUE,TRUE,TRUE,,,,,,FEW,11000,,,,,,,VFR,,,,,,,,,,,,METAR,13.0
KSVE 302155Z AUTO 16007KT 10SM FEW080 OVC095 19/08 A2990 RMK AO2,KSVE,2023-05-30T21:55:00Z,40.37,-120.57,19.0,8.0,160,7,,10.0,29.899607,,,TRUE,TRUE,,,,,,,FEW,8000,OVC,9500,,,,,VFR,,,,,,,,,,,,METAR,1263.0
KSUU 302155Z 23023G28KT 10SM CLR 21/11 A2988 RMK AO2A PK WND 24029/49 SLP125 T02110106 $,KSUU,2023-05-30T21:55:00Z,38.27,-121.93,21.1,10.6,230,23,28,10.0,29.878937,1012.5,,,TRUE,TRUE,,,,,,CLR,,,,,,,,VFR,,,,,,,,,,,,METAR,9.0
KSTK 302155Z AUTO 18004KT 10SM CLR 27/16 A2986 RMK AO2 LTG DSNT SW AND NW,KSTK,2023-05-30T21:55:00Z,40.62,-103.27,27.0,16.0,180,4,,10.0,29.861221,,,TRUE,TRUE,,,,,,,CLR,,,,,,,,VFR,,,,,,,,,,,,METAR,1228.0
KSTF 302155Z AUTO 07008KT 10SM SCT060 SCT070 BKN080 29/17 A2991 RMK AO2,KSTF,2023-05-30T21:55:00Z,33.43,-88.85,29.0,17.0,70,8,,10.0,29.911417,,,TRUE,TRUE,,,,,,,SCT,6000,SCT,7000,BKN,8000,,,VFR,,,,,,,,,,,,METAR,99.0
KSTE 302155Z AUTO 19011G18KT 10SM CLR 32/M03 A2993 RMK AO2 T03171035,KSTE,2023-05-30T21:55:00Z,44.55,-89.53,31.7,-3.5,190,11,18,10.0,29.929134,,,TRUE,TRUE,,,,,,,CLR,,,,,,,,VFR,,,,,,,,,,,,METAR,335.0
KSRR 302155Z AUTO 13012G18KT 10SM FEW120 27/M03 A3011 RMK AO2,KSRR,2023-05-30T21:55:00Z,33.47,-105.52,27.0,-3.0,130,12,18,10.0,30.109253,,,TRUE,TRUE,,,,,,,FEW,12000,,,,,,,VFR,,,,,,,,,,,,METAR,2063.0
KSRE 302155Z AUTO VRB04KT 10SM FEW110 29/18 A2991 RMK AO2,KSRE,2023-05-30T21:55:00Z,35.27,-96.68,29.0,18.0,0,4,,10.0,29.911417,,,TRUE,TRUE,,,,,,,FEW,11000,,,,,,,VFR,,,,,,,,,,,,METAR,306.0
KSRB 302155Z AUTO 00000KT 10SM BKN050 BKN060 27/17 A2995 RMK AO2,KSRB,2023-05-30T21:55:00Z,36.05,-85.53,27.0,17.0,0,0,,10.0,29.949802,,,TRUE,TRUE,,,,,,,BKN,5000,BKN,6000,,,,,VFR,,,,,,,,,,,,METAR,303.0
KSPK 302155Z AUTO 34008KT 10SM CLR 26/01 A2988 RMK AO2,KSPK,2023-05-30T21:55:00Z,40.15,-111.67,26.0,1.0,340,8,,10.0,29.878937,,,TRUE,TRUE,,,,,,,CLR,,,,,,,,VFR,,,,,,,,,,,,METAR,1381.0
KSME 302155Z AUTO VRB03KT 10SM SCT060 28/15 A2994 RMK AO2,KSME,2023-05-30T21:55:00Z,37.05,-84.62,28.0,15.0,0,3,,10.0,29.940945,,,TRUE,TRUE,,,,,,,SCT,6000,,,,,,,VFR,,,,,,,,,,,,METAR,279.0
KSLO 302155Z AUTO 00000KT 10SM CLR 32/11 A2991 RMK AO2 T03160114,KSLO,2023-05-30T21:55:00Z,38.65,-88.97,31.6,11.4,0,0,,10.0,29.911417,,,TRUE,TRUE,,,,,,,CLR,,,,,,,,VFR,,,,,,,,,,,,METAR,173.0
KSLI 302155Z 21006KT 10SM BKN028 OVC044 18/12 A2994 RMK AO2A SLP142 T01840124,KSLI,2023-05-30T21:55:00Z,33.78,-118.03,18.4,12.4,210,6,,10.0,29.940945,1014.2,,,TRUE,,,,,,,BKN,2800,OVC,4400,,,,,MVFR,,,,,,,,,,,,METAR,8.0
KSLH 302155Z AUTO 04004KT 10SM CLR 18/12 A2998 RMK AO2,KSLH,2023-05-30T21:55:00Z,45.65,-84.52,18.0,12.0,40,4,,10.0,29.97933,,,TRUE,TRUE,,,,,,,CLR,,,,,,,,VFR,,,,,,,,,,,,METAR,193.0
KSKF 302155Z 10007KT 10SM FEW050 SCT065 30/24 A2984 RMK AO2A SLP099 T02970238,KSKF,2023-05-30T21:55:00Z,29.38,-98.57,29.7,23.8,100,7,,10.0,29.840551,1009.9,,,TRUE,,,,,,,FEW,5000,SCT,6500,,,,,VFR,,,,,,,,,,,,METAR,214.0
KSKA 302155Z AUTO 25006KT 10SM CLR 24/06 A2980 RMK AO2 SLP079 T02440057 $,KSKA,2023-05-30T21:55:00Z,47.62,-117.67,24.4,5.7,250,6,,10.0,29.799213,1007.9,,TRUE,TRUE,TRUE,,,,,,CLR,,,,,,,,VFR,,,,,,,,,,,,METAR,754.0
KSJX 302155Z AUTO 00000KT 10SM CLR 25/09 A3000 RMK AO2 T02450093,KSJX,2023-05-30T21:55:00Z,45.7,-85.57,24.5,9.3,0,0,,10.0,30.0,,,TRUE,TRUE,,,,,,,CLR,,,,,,,,VFR,,,,,,,,,,,,METAR,202.0
KSHM 302155Z AUTO 05007KT 10SM FEW160 23/03 A2997 RMK AO2 LTG DSNT N AND S SLP081 T02310031 $,KSHM,2023-05-30T21:55:00Z,38.8,-104.52,23.1,3.1,50,7,,10.0,29.970472,1008.1,,TRUE,TRUE,TRUE,,,,,,FEW,16000,,,,,,,VFR,,,,,,,,,,,,METAR,1900.0
KSGS 302155Z AUTO 20010G16KT 10SM SCT070 SCT120 31/12 A2980 RMK AO2 T03140120,KSGS,2023-05-30T21:55:00Z,44.87,-93.03,31.4,12.0,200,10,16,10.0,29.799213,,,TRUE,TRUE,,,,,,,SCT,7000,SCT,12000,,,,,VFR,,,,,,,,,,,,METAR,250.0
KSEZ 302155Z AUTO 13010G15KT 10SM CLR 28/M04 A2997 RMK AO2,KSEZ,2023-05-30T21:55:00Z,34.85,-111.78,28.0,-4.0,130,10,15,10.0,29.970472,,,TRUE,TRUE,,,,,,,CLR,,,,,,,,VFR,,,,,,,,,,,,METAR,1455.0
KSEQ 302155Z AUTO 07006KT 10SM FEW055 30/16 A2984 RMK AO2 SLP101 T03010161,KSEQ,2023-05-30T21:55:00Z,29.57,-97.9,30.1,16.1,70,6,,10.0,29.840551,1010.1,,TRUE,TRUE,,,,,,,FEW,5500,,,,,,,VFR,,,,,,,,,,,,METAR,160.0
KSEP 302155Z AUTO 16005KT 10SM CLR 31/16 A2993 RMK AO2 T03050157,KSEP,2023-05-30T21:55:00Z,32.22,-98.17,30.5,15.7,160,5,,10.0,29.929134,,,TRUE,TRUE,,,,,,,CLR,,,,,,,,VFR,,,,,,,,,,,,METAR,399.0
KSEM 302155Z AUTO 00000KT 10SM CLR 28/15 A2990 RMK AO2,KSEM,2023-05-30T21:55:00Z,32.35,-86.98,28.0,15.0,0,0,,10.0,29.899607,,,TRUE,TRUE,,,,,,,CLR,,,,,,,,VFR,,,,,,,,,,,,METAR,48.0
KSCX 302155Z AUTO VRB04KT 10SM CLR 26/15 A2998 RMK A01,KSCX,2023-05-30T21:55:00Z,36.45,-84.58,26.0,15.0,0,4,,10.0,29.97933,,,TRUE,TRUE,,,,,,,CLR,,,,,,,,VFR,,,,,,,,,,,,METAR,462.0
KSCK 302155Z 29008G15KT 270V340 10SM FEW002 26/11 A2988 RMK AO2 SLP118 T02560111,KSCK,2023-05-30T21:55:00Z,37.88,-121.22,25.6,11.1,290,8,15,10.0,29.878937,1011.8,,,TRUE,,,,,,,FEW,200,,,,,,,VFR,,,,,,,,,,,,METAR,8.0
KSCD 302155Z AUTO 00000KT 10SM OVC095 26/17 A2993 RMK AO2 T02600166,KSCD,2023-05-30T21:55:00Z,33.17,-86.3,26.0,16.6,0,0,,10.0,29.929134,,,TRUE,TRUE,,,,,,,OVC,9500,,,,,,,VFR,,,,,,,,,,,,METAR,164.0
KSAZ 302155Z AUTO 20005KT 10SM CLR 27/16 A2978 RMK AO2,KSAZ,2023-05-30T21:55:00Z,46.37,-94.8,27.0,16.0,200,5,,10.0,29.778543,,,TRUE,TRUE,,,,,,,CLR,,,,,,,,VFR,,,,,,,,,,,,METAR,391.0
KSAA 302155Z AUTO 33003KT 10SM CLR 21/M02 A3002 RMK AO2 LTG DSNT E,KSAA,2023-05-30T21:55:00Z,41.45,-106.8,21.0,-2.0,330,3,,10.0,30.02067,,,TRUE,TRUE,,,,,,,CLR,,,,,,,,VFR,,,,,,,,,,,,METAR,2093.0
KS85 302155Z AUTO 28005G10KT 10SM 28/10 A2974 RMK A01 Culbertson ,KS85,2023-05-30T21:55:00Z,48.15,-104.5,28.0,10.0,280,5,10,10.0,29.740158,,,TRUE,TRUE,,,,,,,,,,,,,,,,,,,,,,,,,,,METAR,596.0
KS39 302155Z AUTO 32012KT 10SM CLR 24/M04 A2987 RMK AO2,KS39,2023-05-30T21:55:00Z,44.28,-120.9,24.0,-4.0,320,12,,10.0,29.870079,,,TRUE,TRUE,,,,,,,CLR,,,,,,,,VFR,,,,,,,,,,,,METAR,987.0
KS24 302155Z AUTO 08011KT 10SM FEW075 29/15 A2999 RMK AO2,KS24,2023-05-30T21:55:00Z,41.3,-83.03,29.0,15.0,80,11,,10.0,29.991142,,,TRUE,TRUE,,,,,,,FEW,7500,,,,,,,VFR,,,,,,,,,,,,SPECI,203.0
KS21 302155Z AUTO 19014KT 10SM CLR 21/M01 A2994 RMK AO2,KS21,2023-05-30T21:55:00Z,43.88,-121.45,21.0,-1.0,190,14,,10.0,29.940945,,,TRUE,TRUE,,,,,,,CLR,,,,,,,,VFR,,,,,,,,,,,,METAR,1269.0
KS12 302155Z AUTO VRB05G14KT 10SM SCT040 17/07 A3002 RMK AO2 LTG DSNT S,KS12,2023-05-30T21:55:00Z,,,17.0,7.0,0,5,14,10.0,30.02067,,,TRUE,TRUE,,,,,,,SCT,4000,,,,,,,VFR,,,,,,,,,,,,METAR,
KRZR 302155Z AUTO 00000KT 10SM SCT110 27/18 A2993 RMK A01,KRZR,2023-05-30T21:55:00Z,35.22,-84.8,27.0,18.0,0,0,,10.0,29.929134,,,TRUE,TRUE,,,,,,,SCT,11000,,,,,,,VFR,,,,,,,,,,,,METAR,259.0
KRYW 302155Z AUTO 11004KT 10SM SCT050 30/17 A2990 RMK AO2 T02950173,KRYW,2023-05-30T21:55:00Z,30.5,-97.97,29.5,17.3,110,4,,10.0,29.899607,,,TRUE,TRUE,,,,,,,SCT,5000,,,,,,,VFR,,,,,,,,,,,,METAR,370.0
KRYN 302155Z AUTO 25011G17KT 10SM CLR 34/M08 A2982 RMK AO2,KRYN,2023-05-30T21:55:00Z,32.15,-111.17,34.0,-8.0,250,11,17,10.0,29.819881,,,TRUE,TRUE,,,,,,,CLR,,,,,,,,VFR,,,,,,,,,,,,METAR,731.0
KRVF 302155Z AUTO 13020G26KT 10SM CLR 20/07 A2991 RMK AO2,KRVF,2023-05-30T21:55:00Z,45.53,-112.3,20.0,7.0,130,20,26,10.0,29.911417,,,TRUE,TRUE,,,,,,,CLR,,,,,,,,VFR,,,,,,,,,,,,METAR,1445.0
KRTS 302155Z AUTO 29020G29KT 10SM BKN060 BKN075 20/05 A2992 RMK AO2,KRTS,2023-05-30T21:55:00Z,39.67,-119.88,20.0,5.0,290,20,29,10.0,29.920275,,,TRUE,TRUE,,,,,,,BKN,6000,BKN,7500,,,,,VFR,,,,,,,,,,,,METAR,1537.0
KRRT 302155Z AUTO 21005KT 10SM CLR 26/17 A2971 RMK AO2 LTG DSNT N AND NW,KRRT,2023-05-30T21:55:00Z,48.93,-95.33,26.0,17.0,210,5,,10.0,29.71063,,,TRUE,TRUE,,,,,,,CLR,,,,,,,,VFR,,,,,,,,,,,,METAR,327.0
KRQB 302155Z AUTO 21005KT 10SM CLR 30/08 A2998 RMK AO2 T02990080,KRQB,2023-05-30T21:55:00Z,43.72,-85.5,29.9,8.0,210,5,,10.0,29.97933,,,TRUE,TRUE,,,,,,,CLR,,,,,,,,VFR,,,,,,,,,,,,METAR,282.0
KROX 302155Z AUTO 24007KT 10SM CLR 28/14 A2972 RMK AO2 LTG DSNT NW,KROX,2023-05-30T21:55:00Z,48.85,-95.7,28.0,14.0,240,7,,10.0,29.719488,,,TRUE,TRUE,,,,,,,CLR,,,,,,,,VFR,,,,,,,,,,,,METAR,320.0
KROS 302155Z AUTO 21007KT 170V250 10SM SCT070 SCT080 BKN110 31/15 A2982 RMK AO2 LTG DSNT NE T03120150,KROS,2023-05-30T21:55:00Z,45.7,-92.95,31.2,15.0,210,7,,10.0,29.819881,,,TRUE,TRUE,,,,,,,SCT,7000,SCT,8000,BKN,11000,,,VFR,,,,,,,,,,,,METAR,282.0
KRNP 302155Z AUTO 14007KT 10SM SCT090 32/05 A2999 RMK AO2 T03200049,KRNP,2023-05-30T21:55:00Z,43.0,-84.13,32.0,4.9,140,7,,10.0,29.991142,,,TRUE,TRUE,,,,,,,SCT,9000,,,,,,,VFR,,,,,,,,,,,,METAR,224.0
KRNO 302155Z VRB03KT 10SM TS BKN100CB BKN230 25/04 A2986 RMK AO2 LTG DSNT NE AND SW TSB34 SLP064 OCNL LTGCG NE TS NE MOV W CB S MOV W T02500044 $,KRNO,2023-05-30T21:55:00Z,39.5,-119.77,25.0,4.4,0,3,,10.0,29.861221,1006.4,,,TRUE,TRUE,,,,,TS,BKN,10000,BKN,23000,,,,,VFR,,,,,,,,,,,,METAR,1344.0
KRNH 302155Z AUTO 17006KT 10SM SCT110 29/19 A2984 RMK AO2 T02850188,KRNH,2023-05-30T21:55:00Z,45.15,-92.53,28.5,18.8,170,6,,10.0,29.840551,,,TRUE,TRUE,,,,,,,SCT,11000,,,,,,,VFR,,,,,,,,,,,,METAR,302.0
KRND 302155Z AUTO 08006KT 10SM CLR 31/17 A2984 RMK AO2 SLP097 T03050165 TSNO $,KRND,2023-05-30T21:55:00Z,29.53,-98.27,30.5,16.5,80,6,,10.0,29.840551,1009.7,,TRUE,TRUE,TRUE,,TRUE,,,,CLR,,,,,,,,VFR,,,,,,,,,,,,METAR,224.0
KRNC 302155Z AUTO 00000KT 10SM BKN095 27/16 A2995 RMK A01,KRNC,2023-05-30T21:55:00Z,35.7,-85.85,27.0,16.0,0,0,,10.0,29.949802,,,TRUE,TRUE,,,,,,,BKN,9500,,,,,,,VFR,,,,,,,,,,,,METAR,310.0
KRMY 302155Z AUTO 19003KT 10SM SCT080 31/11 A2997 RMK AO2 T03140106,KRMY,2023-05-30T21:55:00Z,42.25,-84.95,31.4,10.6,190,3,,10.0,29.970472,,,TRUE,TRUE,,,,,,,SCT,8000,,,,,,,VFR,,,,,,,,,,,,METAR,285.0
KRLD 302155Z AUTO 15005KT 10SM CLR 29/04 A2977 RMK AO2 T02930040,KRLD,2023-05-30T21:55:00Z,46.3,-119.3,29.3,4.0,150,5,,10.0,29.769686,,,TRUE,TRUE,,,,,,,CLR,,,,,,,,VFR,,,,,,,,,,,,METAR,118.0
KRKW 302155Z AUTO VRB04KT 10SM FEW095 26/15 A2998 RMK A01,KRKW,2023-05-30T21:55:00Z,35.92,-84.68,26.0,15.0,0,4,,10.0,29.97933,,,TRUE,TRUE,,,,,,,FEW,9500,,,,,,,VFR,,,,,,,,,,,,METAR,505.0
KRKR 302155Z AUTO 00000KT 10SM CLR 30/14 A2990 RMK AO2,KRKR,2023-05-30T21:55:00Z,35.02,-94.62,30.0,14.0,0,0,,10.0,29.899607,,,TRUE,TRUE,,,,,,,CLR,,,,,,,,VFR,,,,,,,,,,,,METAR,136.0
KRIV 302155Z 30010KT 10SM SCT038 20/11 A2992 RMK AO2A SLP124 T02040113,KRIV,2023-05-30T21:55:00Z,33.87,-117.23,20.4,11.3,300,10,,10.0,29.920275,1012.4,,,TRUE,,,,,,,SCT,3800,,,,,,,VFR,,,,,,,,,,,,METAR,454.0
KRGK 302155Z AUTO 18007KT 10SM CLR 32/11 A2981 RMK AO2,KRGK,2023-05-30T21:55:00Z,44.58,-92.48,32.0,11.0,180,7,,10.0,29.811024,,,TRUE,TRUE,,,,,,,CLR,,,,,,,,VFR,,,,,,,,,,,,METAR,238.0
KREG 302155Z AUTO 17008KT 10SM CLR 29/20 A2987 RMK AO2 T02930200,KREG,2023-05-30T21:55:00Z,30.17,-90.93,29.3,20.0,170,8,,10.0,29.870079,,,TRUE,TRUE,,,,,,,CLR,,,,,,,,VFR,,,,,,,,,,,,METAR,3.0
KRCV 302155Z AUTO 20008KT 160V220 10SM SCT110 21/M06 A3012 RMK AO2 T02061065,KRCV,2023-05-30T21:55:00Z,37.72,-106.35,20.6,-6.5,200,8,,10.0,30.121063,,,TRUE,TRUE,,,,,,,SCT,11000,,,,,,,VFR,,,,,,,,,,,,METAR,2418.0
KQVF 302155Z AUTO 18006KT 9999 BKN055 24/21 A3000 RMK AO2 SLP161 WND DATA ESTMD T02440212,KQVF,2023-05-30T21:55:00Z,,,24.4,21.2,180,6,,6.21,30.0,1016.1,,TRUE,TRUE,,,,,,,BKN,5500,,,,,,,VFR,,,,,,,,,,,,METAR,
KQRH 302155Z AUTO VRB03KT 9999 CLR 30/26 A2975 RMK AO2 SLP077 WND DATA ESTMD T03030258,KQRH,2023-05-30T21:55:00Z,,,30.3,25.8,0,3,,6.21,29.749016,1007.7,,TRUE,TRUE,,,,,,,CLR,,,,,,,,VFR,,,,,,,,,,,,METAR,
KQHY 302155Z AUTO 22004KT 10SM SCT085 27/18 A2989 RMK AO2 SLP128 T02660184 TSNO $,KQHY,2023-05-30T21:55:00Z,,,26.6,18.4,220,4,,10.0,29.890747,1012.8,,TRUE,TRUE,TRUE,,TRUE,,,,SCT,8500,,,,,,,VFR,,,,,,,,,,,,METAR,
KQDG 302155Z AUTO 30008KT 9999 CLR 17/09 A2982 RMK AO2 SLP100 T01670086 $,KQDG,2023-05-30T21:55:00Z,,,16.7,8.6,300,8,,6.21,29.819881,1010.0,,TRUE,TRUE,TRUE,,,,,,CLR,,,,,,,,VFR,,,,,,,,,,,,METAR,
KQD3 302155Z AUTO VRB03KT 9999 CLR 30/25 A2981 RMK AO2 SLP079 WND DATA ESTMD T02990254,KQD3,2023-05-30T21:55:00Z,,,29.9,25.4,0,3,,6.21,29.811024,1007.9,,TRUE,TRUE,,,,,,,CLR,,,,,,,,VFR,,,,,,,,,,,,METAR,
KQBL 302155Z AUTO VRB04KT 10SM SCT085 26/19 A2991 RMK AO2 SLP127 WND DATA ESTMD T02640185,KQBL,2023-05-30T21:55:00Z,,,26.4,18.5,0,4,,10.0,29.911417,1012.7,,TRUE,TRUE,,,,,,,SCT,8500,,,,,,,VFR,,,,,,,,,,,,METAR,
KQAZ 302155Z AUTO 32004KT 9999 CLR 36/M00 A2985 RMK AO2 SLP098 WND DATA ESTMD T03581001,KQAZ,2023-05-30T21:55:00Z,,,35.8,-0.1,320,4,,6.21,29.84941,1009.8,,TRUE,TRUE,,,,,,,CLR,,,,,,,,VFR,,,,,,,,,,,,METAR,
KPZZ 302155Z AUTO 10009KT 10SM CLR 26/19 A2990 RMK A01,KPZZ,2023-05-30T21:55:00Z,28.43,-91.03,26.0,19.0,100,9,,10.0,29.899607,,,TRUE,TRUE,,,,,,,CLR,,,,,,,,VFR,,,,,,,,,,,,SPECI,25.0
KPZQ 302155Z AUTO 15012G16KT 10SM CLR 28/11 A3000 RMK AO2 T02790112,KPZQ,2023-05-30T21:55:00Z,45.4,-83.82,27.9,11.2,150,12,16,10.0,30.0,,,TRUE,TRUE,,,,,,,CLR,,,,,,,,VFR,,,,,,,,,,,,METAR,199.0
KPYX 302155Z AUTO 17009G15KT 10SM CLR 25/11 A2989 RMK AO2 T02500110,KPYX,2023-05-30T21:55:00Z,36.42,-100.75,25.0,11.0,170,9,15,10.0,29.890747,,,TRUE,TRUE,,,,,,,CLR,,,,,,,,VFR,,,,,,,,,,,,METAR,890.0
KPXE 302155Z AUTO 15003KT 7SM SCT100 28/15 A2992 RMK AO2 T02850155,KPXE,2023-05-30T21:55:00Z,32.52,-83.77,28.5,15.5,150,3,,7.0,29.920275,,,TRUE,TRUE,,,,,,,SCT,10000,,,,,,,VFR,,,,,,,,,,,,METAR,126.0
KPWD 302155Z AUTO 24008KT 10SM FEW080 27/09 A2976 RMK AO2,KPWD,2023-05-30T21:55:00Z,48.78,-104.52,27.0,9.0,240,8,,10.0,29.760826,,,TRUE,TRUE,,,,,,,FEW,8000,,,,,,,VFR,,,,,,,,,,,,METAR,690.0
KPWC 302155Z AUTO 14008G14KT 10SM SCT055 25/17 A2981 RMK AO2 LTG DSNT N AND E,KPWC,2023-05-30T21:55:00Z,46.72,-94.38,25.0,17.0,140,8,14,10.0,29.811024,,,TRUE,TRUE,,,,,,,SCT,5500,,,,,,,VFR,,,,,,,,,,,,METAR,394.0
KPVJ 302155Z AUTO 22004KT 10SM SCT050 30/17 A2990 RMK AO2 T03020173,KPVJ,2023-05-30T21:55:00Z,34.72,-97.22,30.2,17.3,220,4,,10.0,29.899607,,,TRUE,TRUE,,,,,,,SCT,5000,,,,,,,VFR,,,,,,,,,,,,METAR,287.0
KPVF 302155Z AUTO 23006KT 10SM CLR 20/09 A2996 RMK AO1,KPVF,2023-05-30T21:55:00Z,38.72,-120.75,20.0,9.0,230,6,,10.0,29.958662,,,TRUE,TRUE,,,,,,,CLR,,,,,,,,VFR,,,,,,,,,,,,METAR,788.0
KPVE 302155Z AUTO 00000KT 10SM OVC090 27/17 A2993 RMK A01,KPVE,2023-05-30T21:55:00Z,35.65,-88.2,27.0,17.0,0,0,,10.0,29.929134,,,TRUE,TRUE,,,,,,,OVC,9000,,,,,,,VFR,,,,,,,,,,,,METAR,146.0
KPUJ 302155Z AUTO 00000KT SCT050 BKN070 OVC090 24/14 A2997 RMK AO2 PWINO,KPUJ,2023-05-30T21:55:00Z,33.92,-84.93,24.0,14.0,0,0,,,29.970472,,,TRUE,TRUE,,,,,TRUE,,SCT,5000,BKN,7000,OVC,9000,,,,,,,,,,,,,,,METAR,385.0
KPRS 302155Z AUTO 18004KT 10SM CLR 36/07 A2987 RMK AO2 T03550069,KPRS,2023-05-30T21:55:00Z,29.63,-104.35,35.5,6.9,180,4,,10.0,29.870079,,,TRUE,TRUE,,,,,,,CLR,,,,,,,,VFR,,,,,,,,,,,,METAR,890.0
KPRO 302155Z AUTO 17012G24KT 10SM CLR 30/14 A2983 RMK AO2 T03010140,KPRO,2023-05-30T21:55:00Z,41.83,-94.17,30.1,14.0,170,12,24,10.0,29.828741,,,TRUE,TRUE,,,,,,,CLR,,,,,,,,VFR,,,,,,,,,,,,METAR,308.0
KPPO 302155Z AUTO 14009KT 10SM SCT080 SCT120 31/09 A2995 RMK AO2 T03060092,KPPO,2023-05-30T21:55:00Z,41.57,-86.73,30.6,9.2,140,9,,10.0,29.949802,,,TRUE,TRUE,,,,,,,SCT,8000,SCT,12000,,,,,VFR,,,,,,,,,,,,METAR,242.0
KPOV 302155Z AUTO 14006KT 10SM CLR 28/07 A3004 RMK AO2 T02790066 PWINO,KPOV,2023-05-30T21:55:00Z,41.22,-81.25,27.9,6.6,140,6,,10.0,30.041338,,,TRUE,TRUE,,,,,TRUE,,CLR,,,,,,,,VFR,,,,,,,,,,,,METAR,363.0
KPOE 302155Z AUTO 18003KT 10SM FEW240 26/18 A2988 RMK AO2 LTG DSNT S-SW SLP118 T02610182,KPOE,2023-05-30T21:55:00Z,31.05,-93.2,26.1,18.2,180,3,,10.0,29.878937,1011.8,,TRUE,TRUE,,,,,,,FEW,24000,,,,,,,VFR,,,,,,,,,,,,METAR,98.0
KPOB 302155Z AUTO 04010KT 10SM FEW033 BKN046 25/17 A2999 RMK AO2 SLP157 T02480165 $,KPOB,2023-05-30T21:55:00Z,35.17,-79.02,24.8,16.5,40,10,,10.0,29.991142,1015.7,,TRUE,TRUE,TRUE,,,,,,FEW,3300,BKN,4600,,,,,VFR,,,,,,,,,,,,METAR,57.0
KPO1 302155Z AUTO 28004KT 10SM CLR 28/11 A2975 RMK AO2 LTG DSNT SE,KPO1,2023-05-30T21:55:00Z,48.13,-105.17,28.0,11.0,280,4,,10.0,29.749016,,,TRUE,TRUE,,,,,,,CLR,,,,,,,,VFR,,,,,,,,,,,,METAR,621.0
KPNM 302155Z AUTO 17010G18KT 10SM 30/16 A2981 RMK AO2,KPNM,2023-05-30T21:55:00Z,45.53,-93.6,30.0,16.0,170,10,18,10.0,29.811024,,,TRUE,TRUE,,,,,,,,,,,,,,,,,,,,,,,,,,,METAR,298.0
KPKV 302155Z AUTO 12011G15KT 10SM CLR 29/22 A2988 RMK AO2 T02920216,KPKV,2023-05-30T21:55:00Z,28.65,-96.68,29.2,21.6,120,11,15,10.0,29.878937,,,TRUE,TRUE,,,,,,,CLR,,,,,,,,VFR,,,,,,,,,,,,METAR,8.0
KPJC 302155Z AUTO 11008KT 10SM CLR 29/06 A3005 RMK AO2,KPJC,2023-05-30T21:55:00Z,40.8,-80.17,29.0,6.0,110,8,,10.0,30.050198,,,TRUE,TRUE,,,,,,,CLR,,,,,,,,VFR,,,,,,,,,,,,METAR,273.0
KPHT 302155Z AUTO 00000KT 10SM FEW060 BKN075 OVC085 28/15 A2993 RMK A01,KPHT,2023-05-30T21:55:00Z,36.33,-88.38,28.0,15.0,0,0,,10.0,29.929134,,,TRUE,TRUE,,,,,,,FEW,6000,BKN,7500,OVC,8500,,,VFR,,,,,,,,,,,,METAR,172.0
KPHP 302155Z AUTO 09008KT 10SM CLR 31/11 A2979 RMK AO2 SLP070 T03060111,KPHP,2023-05-30T21:55:00Z,44.05,-101.6,30.6,11.1,90,8,,10.0,29.790354,1007.0,,TRUE,TRUE,,,,,,,CLR,,,,,,,,VFR,,,,,,,,,,,,METAR,673.0
KPHN 302155Z AUTO 15008KT 10SM CLR 30/09 A3002 RMK AO2,KPHN,2023-05-30T21:55:00Z,42.92,-82.52,30.0,9.0,150,8,,10.0,30.02067,,,TRUE,TRUE,,,,,,,CLR,,,,,,,,VFR,,,,,,,,,,,,METAR,195.0
KPEZ 302155Z AUTO 11003KT 10SM SCT050 31/18 A2986 RMK AO2 T03110182,KPEZ,2023-05-30T21:55:00Z,28.95,-98.52,31.1,18.2,110,3,,10.0,29.861221,,,TRUE,TRUE,,,,,,,SCT,5000,,,,,,,VFR,,,,,,,,,,,,METAR,126.0
KPEX 302155Z AUTO 21012G19KT 10SM SCT055 30/16 A2979 RMK AO2,KPEX,2023-05-30T21:55:00Z,45.37,-94.73,30.0,16.0,210,12,19,10.0,29.790354,,,TRUE,TRUE,,,,,,,SCT,5500,,,,,,,VFR,,,,,,,,,,,,METAR,359.0
KPCW 302155Z AUTO 07009KT 10SM CLR 26/18 A3000 RMK AO2,KPCW,2023-05-30T21:55:00Z,41.52,-82.87,26.0,18.0,70,9,,10.0,30.0,,,TRUE,TRUE,,,,,,,CLR,,,,,,,,VFR,,,,,,,,,,,,METAR,179.0
KPAM 302155Z AUTO 27010KT 10SM CLR 27/16 A2987 RMK AO2 SLP118 T02730162 $,KPAM,2023-05-30T21:55:00Z,30.07,-85.57,27.3,16.2,270,10,,10.0,29.870079,1011.8,,TRUE,TRUE,TRUE,,,,,,CLR,,,,,,,,VFR,,,,,,,,,,,,METAR,4.0
KP58 302155Z AUTO 12006KT 17/12 A3002 RMK AO1 SLP163 T01720122,KP58,2023-05-30T21:55:00Z,44.02,-82.8,17.2,12.2,120,6,,,30.02067,1016.3,,TRUE,TRUE,,,,,,,,,,,,,,,,,,,,,,,,,,,METAR,180.0
KP52 302155Z AUTO 19011G22KT 170V230 10SM CLR 30/M05 A2989 RMK AO2,KP52,2023-05-30T21:55:00Z,34.73,-112.03,30.0,-5.0,190,11,22,10.0,29.890747,,,TRUE,TRUE,,,,,,,CLR,,,,,,,,VFR,,,,,,,,,,,,METAR,1085.0
KP08 302155Z AUTO 19008G15KT 160V220 10SM CLR 35/M05 A2978 RMK AO2,KP08,2023-05-30T21:55:00Z,32.93,-111.43,35.0,-5.0,190,8,15,10.0,29.778543,,,TRUE,TRUE,,,,,,,CLR,,,,,,,,VFR,,,,,,,,,,,,METAR,477.0
KOZW 302155Z AUTO 12008KT 10SM SCT080 32/10 A3000 RMK AO2 T03150096,KOZW,2023-05-30T21:55:00Z,42.62,-83.98,31.5,9.6,120,8,,10.0,30.0,,,TRUE,TRUE,,,,,,,SCT,8000,,,,,,,VFR,,,,,,,,,,,,METAR,288.0
KOZR 302155Z AUTO 05005KT 10SM OVC070 26/15 A2989 RMK AO2 SLP122 T02610151,KOZR,2023-05-30T21:55:00Z,31.28,-85.72,26.1,15.1,50,5,,10.0,29.890747,1012.2,,TRUE,TRUE,,,,,,,OVC,7000,,,,,,,VFR,,,,,,,,,,,,METAR,90.0
KOXV 302155Z AUTO 17011KT 10SM CLR 30/13 A2987 RMK AO2,KOXV,2023-05-30T21:55:00Z,41.28,-93.12,30.0,13.0,170,11,,10.0,29.870079,,,TRUE,TRUE,,,,,,,CLR,,,,,,,,VFR,,,,,,,,,,,,METAR,280.0
KOXI 302155Z AUTO 12012KT 10SM CLR 31/11 A2994 RMK AO1,KOXI,2023-05-30T21:55:00Z,41.33,-86.67,31.0,11.0,120,12,,10.0,29.940945,,,TRUE,TRUE,,,,,,,CLR,,,,,,,,VFR,,,,,,,,,,,,METAR,208.0
KOWX 302155Z AUTO 13007KT 10SM SCT120 31/08 A2999 RMK AO1,KOWX,2023-05-30T21:55:00Z,41.03,-83.98,31.0,8.0,130,7,,10.0,29.991142,,,TRUE,TRUE,,,,,,,SCT,12000,,,,,,,VFR,,,,,,,,,,,,METAR,232.0
KOWI 302155Z AUTO 21019G25KT 6SM HZ SCT070 SCT090 28/19 A2985 RMK AO2 LTG DSNT W AND NW P0002 PWINO,KOWI,2023-05-30T21:55:00Z,38.53,-95.25,28.0,19.0,210,19,25,6.0,29.84941,,,TRUE,TRUE,,,,,TRUE,HZ,SCT,7000,SCT,9000,,,,,VFR,,,,,,0.02,,,,,,METAR,292.0
KOVL 302155Z AUTO 21013G17KT 5SM HZ CLR 30/13 A2978 RMK AO2,KOVL,2023-05-30T21:55:00Z,44.78,-95.03,30.0,13.0,210,13,17,5.0,29.778543,,,TRUE,TRUE,,,,,,HZ,CLR,,,,,,,,MVFR,,,,,,,,,,,,METAR,329.0
KOSC 302155Z AUTO 09007KT 10SM CLR 23/09 A3003 RMK AO2 T02340086,KOSC,2023-05-30T21:55:00Z,44.45,-83.4,23.4,8.6,90,7,,10.0,30.029528,,,TRUE,TRUE,,,,,,,CLR,,,,,,,,VFR,,,,,,,,,,,,METAR,191.0
KOSA 302155Z AUTO 13004KT 10SM SCT080 30/17 A2989 RMK AO2 T02990175,KOSA,2023-05-30T21:55:00Z,33.1,-94.97,29.9,17.5,130,4,,10.0,29.890747,,,TRUE,TRUE,,,,,,,SCT,8000,,,,,,,VFR,,,,,,,,,,,,METAR,108.0
KORS 302155Z AUTO 15009KT 10SM CLR 16/03 A3001 RMK AO2,KORS,2023-05-30T21:55:00Z,48.7,-122.92,16.0,3.0,150,9,,10.0,30.008858,,,TRUE,TRUE,,,,,,,CLR,,,,,,,,VFR,,,,,,,,,,,,METAR,7.0
KORK 302155Z AUTO VRB04KT 10SM SCT070 BKN080 30/14 A2991 RMK AO2,KORK,2023-05-30T21:55:00Z,34.83,-92.25,30.0,14.0,0,4,,10.0,29.911417,,,TRUE,TRUE,,,,,,,SCT,7000,BKN,8000,,,,,VFR,,,,,,,,,,,,METAR,166.0
KOPL 302155Z AUTO 35007KT 10SM SCT085 31/17 A2987 RMK AO2 T03090166,KOPL,2023-05-30T21:55:00Z,30.55,-92.1,30.9,16.6,350,7,,10.0,29.870079,,,TRUE,TRUE,,,,,,,SCT,8500,,,,,,,VFR,,,,,,,,,,,,METAR,22.0
KONZ 302155Z AUTO 16005KT 10SM CLR 27/13 A3001 RMK AO2 T02720133,KONZ,2023-05-30T21:55:00Z,42.1,-83.15,27.2,13.3,160,5,,10.0,30.008858,,,TRUE,TRUE,,,,,,,CLR,,,,,,,,VFR,,,,,,,,,,,,METAR,179.0
KONP 302155Z AUTO 33016G22KT 10SM CLR 13/06 A3010 RMK AO2,KONP,2023-05-30T21:55:00Z,44.57,-124.05,13.0,6.0,330,16,22,10.0,30.100393,,,TRUE,TRUE,,,,,,,CLR,,,,,,,,VFR,,,,,,,,,,,,METAR,43.0
KONA 302155Z AUTO 20006KT 10SM CLR 31/10 A2986 RMK AO2,KONA,2023-05-30T21:55:00Z,44.07,-91.7,31.0,10.0,200,6,,10.0,29.861221,,,TRUE,TRUE,,,,,,,CLR,,,,,,,,VFR,,,,,,,,,,,,SPECI,200.0
KOLG 302155Z AUTO 18012G16KT 10SM SCT060 SCT100 28/12 A2985 RMK AO1,KOLG,2023-05-30T21:55:00Z,46.3,-91.82,28.0,12.0,180,12,16,10.0,29.84941,,,TRUE,TRUE,,,,,,,SCT,6000,SCT,10000,,,,,VFR,,,,,,,,,,,,METAR,334.0
KOJA 302155Z AUTO 17008KT 10SM CLR 30/17 A2990 RMK AO2 T03000173,KOJA,2023-05-30T21:55:00Z,35.55,-98.67,30.0,17.3,170,8,,10.0,29.899607,,,TRUE,TRUE,,,,,,,CLR,,,,,,,,VFR,,,,,,,,,,,,METAR,490.0
KOEL 302155Z AUTO 18008KT 10SM CLR 28/13 A2984 RMK AO1 T02770134,KOEL,2023-05-30T21:55:00Z,39.12,-100.82,27.7,13.4,180,8,,10.0,29.840551,,,TRUE,TRUE,,,,,,,CLR,,,,,,,,VFR,,,,,,,,,,,,METAR,924.0
KOEB 302155Z AUTO 12006KT 10SM CLR 31/12 A2998 RMK AO2 T03090118,KOEB,2023-05-30T21:55:00Z,41.92,-85.05,30.9,11.8,120,6,,10.0,29.97933,,,TRUE,TRUE,,,,,,,CLR,,,,,,,,VFR,,,,,,,,,,,,METAR,291.0
KOAR 302155Z AUTO 30010KT 10SM SCT013 17/10 A2999 RMK AO2 PWINO,KOAR,2023-05-30T21:55:00Z,36.67,-121.77,17.0,10.0,300,10,,10.0,29.991142,,,TRUE,TRUE,,,,,TRUE,,SCT,1300,,,,,,,VFR,,,,,,,,,,,,METAR,41.0
KO86 302155Z AUTO VRB04KT 10SM 28/10 A2983 RMK A01,KO86,2023-05-30T21:55:00Z,40.98,-122.7,28.0,10.0,0,4,,10.0,29.828741,,,TRUE,TRUE,,,,,,,,,,,,,,,,,,,,,,,,,,,METAR,729.0
KO69 302155Z AUTO 28010G15KT 230V320 10SM OVC023 16/10 A2997 RMK A01,KO69,2023-05-30T21:55:00Z,38.25,-122.6,16.0,10.0,280,10,15,10.0,29.970472,,,TRUE,TRUE,,,,,,,OVC,2300,,,,,,,MVFR,,,,,,,,,,,,METAR,26.0
KNUQ 302155Z AUTO 35016KT 10SM CLR 19/12 A2994 RMK AO2,KNUQ,2023-05-30T21:55:00Z,37.4,-122.05,19.0,12.0,350,16,,10.0,29.940945,,,TRUE,TRUE,,,,,,,CLR,,,,,,,,VFR,,,,,,,,,,,,METAR,9.0
KNTD 302155Z 27012KT 7SM SCT028 BKN055 19/13 A2997 RMK AO2 SLP151 T01890128 VISNO S $,KNTD,2023-05-30T21:55:00Z,34.12,-119.12,18.9,12.8,270,12,,7.0,29.970472,1015.1,,,TRUE,TRUE,,,,,,SCT,2800,BKN,5500,,,,,VFR,,,,,,,,,,,,METAR,1.0
KNRN 302155Z AUTO 14010KT 10SM CLR 30/16 A2988 RMK AO2,KNRN,2023-05-30T21:55:00Z,39.85,-99.9,30.0,16.0,140,10,,10.0,29.878937,,,TRUE,TRUE,,,,,,,CLR,,,,,,,,VFR,,,,,,,,,,,,METAR,726.0
KNKX 302155Z 27011KT 10SM OVC025 17/11 A2997 RMK AO2 SLP144 T01720111 $,KNKX,2023-05-30T21:55:00Z,32.87,-117.13,17.2,11.1,270,11,,10.0,29.970472,1014.4,,,TRUE,TRUE,,,,,,OVC,2500,,,,,,,MVFR,,,,,,,,,,,,METAR,138.0
KNBG 302155Z 24005KT 10SM FEW040 SCT075 BKN110 OVC250 22/19 A2989 RMK AO2 WSHFT 2043 RAE40 TSE40 SLP120 T2 SET P0003 T02220194 $,KNBG,2023-05-30T21:55:00Z,29.83,-90.02,22.2,19.4,240,5,,10.0,29.890747,1012.0,,,TRUE,TRUE,,,,,,FEW,4000,SCT,7500,BKN,11000,OVC,25000,VFR,,,,,,0.03,,,,,,METAR,0.0
KN03 302155Z AUTO 17005KT 10SM CLR 27/08 A3011 RMK AO2,KN03,2023-05-30T21:55:00Z,42.6,-76.22,27.0,8.0,170,5,,10.0,30.109253,,,TRUE,TRUE,,,,,,,CLR,,,,,,,,VFR,,,,,,,,,,,,METAR,361.0
KMZH 302155Z AUTO 19008G20KT 152V222 10SM SCT060 SCT100 29/14 A2981 RMK AO2 LTG DSNT N SE AND S,KMZH,2023-05-30T21:55:00Z,46.42,-92.8,29.0,14.0,190,8,20,10.0,29.811024,,,TRUE,TRUE,,,,,,,SCT,6000,SCT,10000,,,,,VFR,,,,,,,,,,,,METAR,331.0
KMYP 302155Z AUTO 31011G16KT 10SM SCT047 BKN065 OVC110 08/M05 A3048 RMK AO2,KMYP,2023-05-30T21:55:00Z,38.48,-106.32,8.0,-5.0,310,11,16,10.0,30.481298,,,TRUE,TRUE,,,,,,,SCT,4700,BKN,6500,OVC,11000,,,VFR,,,,,,,,,,,,METAR,3629.0
KMXF 302155Z AUTO 09005KT 10SM FEW050 28/12 A2988 RMK AO2 SLP120 T02830122,KMXF,2023-05-30T21:55:00Z,32.38,-86.37,28.3,12.2,90,5,,10.0,29.878937,1012.0,,TRUE,TRUE,,,,,,,FEW,5000,,,,,,,VFR,,,,,,,,,,,,METAR,47.0
KMWN 302155Z 26024G29KT 45SM FEW080 SCT190 SCT220 13/04 RMK HZ DSNT ALQDS,KMWN,2023-05-30T21:55:00Z,44.27,-71.3,13.0,4.0,260,24,29,45.0,,,,,,,,,,,,FEW,8000,SCT,19000,SCT,22000,,,VFR,,,,,,,,,,,,METAR,1911.0
KMWM 302155Z AUTO 15008KT 10SM CLR 30/13 A2979 RMK AO2 LTG DSNT SE,KMWM,2023-05-30T21:55:00Z,43.9,-95.1,30.0,13.0,150,8,,10.0,29.790354,,,TRUE,TRUE,,,,,,,CLR,,,,,,,,VFR,,,,,,,,,,,,METAR,427.0
KMVE 302155Z AUTO 20007KT 10SM CLR 28/17 A2977 RMK AO2,KMVE,2023-05-30T21:55:00Z,44.97,-95.72,28.0,17.0,200,7,,10.0,29.769686,,,TRUE,TRUE,,,,,,,CLR,,,,,,,,VFR,,,,,,,,,,,,METAR,319.0
KMUO 302155Z 23019G27KT 10SM FEW030 BKN085 BKN160 BKN210 25/07 A2979 RMK AO2A PK WND 24030/30 SLP070 T02480065 $,KMUO,2023-05-30T21:55:00Z,43.03,-115.87,24.8,6.5,230,19,27,10.0,29.790354,1007.0,,,TRUE,TRUE,,,,,,FEW,3000,BKN,8500,BKN,16000,BKN,21000,VFR,,,,,,,,,,,,METAR,915.0
KMQJ 302155Z AUTO 11009KT 10SM SCT065 SCT075 SCT120 31/15 A2996 RMK AO1,KMQJ,2023-05-30T21:55:00Z,39.85,-85.9,31.0,15.0,110,9,,10.0,29.958662,,,TRUE,TRUE,,,,,,,SCT,6500,SCT,7500,SCT,12000,,,VFR,,,,,,,,,,,,METAR,262.0
KMQB 302155Z AUTO 14003KT 10SM CLR 31/10 A2993 RMK AO2 T03140096,KMQB,2023-05-30T21:55:00Z,40.52,-90.65,31.4,9.6,140,3,,10.0,29.929134,,,TRUE,TRUE,,,,,,,CLR,,,,,,,,VFR,,,,,,,,,,,,METAR,205.0
KMOX 302155Z AUTO 00000KT 10SM SCT060 27/11 A2977 RMK AO2,KMOX,2023-05-30T21:55:00Z,45.57,-95.97,27.0,11.0,0,0,,10.0,29.769686,,,TRUE,TRUE,,,,,,,SCT,6000,,,,,,,VFR,,,,,,,,,,,,METAR,346.0
KMOP 302155Z AUTO 07008KT 10SM BKN095 32/09 A2997 RMK AO2 T03170090,KMOP,2023-05-30T21:55:00Z,43.62,-84.73,31.7,9.0,70,8,,10.0,29.970472,,,TRUE,TRUE,,,,,,,BKN,9500,,,,,,,VFR,,,,,,,,,,,,METAR,229.0
KMNZ 302155Z AUTO 17007KT 10SM SCT050 29/17 A2991 RMK AO2 T02940173,KMNZ,2023-05-30T21:55:00Z,31.67,-98.15,29.4,17.3,170,7,,10.0,29.911417,,,TRUE,TRUE,,,,,,,SCT,5000,,,,,,,VFR,,,,,,,,,,,,METAR,397.0
KMNV 302155Z AUTO 12010KT 10SM 28/17 A2995 RMK A01,KMNV,2023-05-30T21:55:00Z,35.55,-84.38,28.0,17.0,120,10,,10.0,29.949802,,,TRUE,TRUE,,,,,,,,,,,,,,,,,,,,,,,,,,,METAR,306.0
KMMT 302155Z 06005KT 10SM FEW065 SCT100 27/17 A2993 RMK AO2A SLPNO T02660174 $,KMMT,2023-05-30T21:55:00Z,33.92,-80.8,26.6,17.4,60,5,,10.0,29.929134,,,,TRUE,TRUE,,,,,,FEW,6500,SCT,10000,,,,,VFR,,,,,,,,,,,,METAR,76.0
KMMI 302155Z AUTO 00000KT 10SM BKN100 26/17 A2997 RMK A01,KMMI,2023-05-30T21:55:00Z,35.4,-84.57,26.0,17.0,0,0,,10.0,29.970472,,,TRUE,TRUE,,,,,,,BKN,10000,,,,,,,VFR,,,,,,,,,,,,METAR,252.0
KMMH 302155Z AUTO 14009G16KT 10SM CLR 20/M08 A2999 RMK AO2 T02031076,KMMH,2023-05-30T21:55:00Z,37.62,-118.83,20.3,-7.6,140,9,16,10.0,29.991142,,,TRUE,TRUE,,,,,,,CLR,,,,,,,,VFR,,,,,,,,,,,,METAR,2167.0
KMKN 302155Z AUTO 15006KT 10SM 33/18 A2990 RMK AO2 T03320175,KMKN,2023-05-30T21:55:00Z,31.92,-98.6,33.2,17.5,150,6,,10.0,29.899607,,,TRUE,TRUE,,,,,,,,,,,,,,,,,,,,,,,,,,,METAR,428.0
KMKG 302155Z 26006KT 10SM SCT250 32/09 A2996 RMK AO2 SLP143 T03170094,KMKG,2023-05-30T21:55:00Z,43.17,-86.23,31.7,9.4,260,6,,10.0,29.958662,1014.3,,,TRUE,,,,,,,SCT,25000,,,,,,,VFR,,,,,,,,,,,,METAR,190.0
KMJQ 302155Z AUTO 19011G15KT 10SM SCT100 30/11 A2981 RMK AO2 PWINO,KMJQ,2023-05-30T21:55:00Z,43.63,-94.98,30.0,11.0,190,11,15,10.0,29.811024,,,TRUE,TRUE,,,,,TRUE,,SCT,10000,,,,,,,VFR,,,,,,,,,,,,METAR,439.0
KMIO 302155Z AUTO 17008G15KT 10SM FEW050 FEW060 29/18 A2989 RMK AO2,KMIO,2023-05-30T21:55:00Z,36.92,-94.88,29.0,18.0,170,8,15,10.0,29.890747,,,TRUE,TRUE,,,,,,,FEW,5000,FEW,6000,,,,,VFR,,,,,,,,,,,,METAR,245.0
KMGN 302155Z AUTO 21005KT 10SM CLR 22/09 A2997 RMK AO2 T02270094,KMGN,2023-05-30T21:55:00Z,45.43,-84.92,22.7,9.4,210,5,,10.0,29.970472,,,TRUE,TRUE,,,,,,,CLR,,,,,,,,VFR,,,,,,,,,,,,METAR,205.0
KMGG 302155Z AUTO 14003KT 10SM SCT055 BKN070 OVC085 27/18 A2980 RMK AO2 T02740182,KMGG,2023-05-30T21:55:00Z,45.23,-93.98,27.4,18.2,140,3,,10.0,29.799213,,,TRUE,TRUE,,,,,,,SCT,5500,BKN,7000,OVC,8500,,,VFR,,,,,,,,,,,,METAR,310.0
KMGE 302155Z 08006KT 10SM SCT050 BKN080 BKN200 25/14 A2995 RMK AO2A SLP137 T02510136 $,KMGE,2023-05-30T21:55:00Z,33.92,-84.52,25.1,13.6,80,6,,10.0,29.949802,1013.7,,,TRUE,TRUE,,,,,,SCT,5000,BKN,8000,BKN,20000,,,VFR,,,,,,,,,,,,METAR,309.0
KMEV 302155Z AUTO 31008KT 10SM CLR 23/04 A2987 RMK AO2 LTG DSNT NW,KMEV,2023-05-30T21:55:00Z,38.98,-119.75,23.0,4.0,310,8,,10.0,29.870079,,,TRUE,TRUE,,,,,,,CLR,,,,,,,,VFR,,,,,,,,,,,,METAR,1437.0
KMDS 302155Z AUTO 25010KT 10SM CLR 31/10 A2979 RMK AO2,KMDS,2023-05-30T21:55:00Z,44.02,-97.08,31.0,10.0,250,10,,10.0,29.790354,,,TRUE,TRUE,,,,,,,CLR,,,,,,,,VFR,,,,,,,,,,,,METAR,524.0
KMCF 302155Z AUTO 28005KT 10SM CLR 31/15 A2981 RMK AO2 SLP097 T03060146 FZRANO $,KMCF,2023-05-30T21:55:00Z,27.85,-82.52,30.6,14.6,280,5,,10.0,29.811024,1009.7,,TRUE,TRUE,TRUE,,,TRUE,,,CLR,,,,,,,,VFR,,,,,,,,,,,,METAR,3.0
KMCD 302155Z AUTO 09004KT 10SM CLR 17/10 A3001 RMK AO2 T01690098,KMCD,2023-05-30T21:55:00Z,45.85,-84.63,16.9,9.8,90,4,,10.0,30.008858,,,TRUE,TRUE,,,,,,,CLR,,,,,,,,VFR,,,,,,,,,,,,METAR,228.0
KMCC 302155Z AUTO 22009G17KT 10SM CLR 24/10 A2987 RMK AO2,KMCC,2023-05-30T21:55:00Z,38.67,-121.4,24.0,10.0,220,9,17,10.0,29.870079,,,TRUE,TRUE,,,,,,,CLR,,,,,,,,VFR,,,,,,,,,,,,METAR,21.0
KM75 302155Z AUTO 23005G11KT 10SM CLR 27/11 A2973 RMK A01,KM75,2023-05-30T21:55:00Z,48.37,-107.92,27.0,11.0,230,5,11,10.0,29.731298,,,TRUE,TRUE,,,,,,,CLR,,,,,,,,VFR,,,,,,,,,,,,METAR,687.0
KM54 302155Z AUTO 00000KT 10SM CLR 28/16 A2991 RMK A01,KM54,2023-05-30T21:55:00Z,36.18,-86.32,28.0,16.0,0,0,,10.0,29.911417,,,TRUE,TRUE,,,,,,,CLR,,,,,,,,VFR,,,,,,,,,,,,METAR,168.0
KM30 302155Z AUTO 00000KT 10SM SCT075 BKN090 30/11 A2992 RMK AO2 T03010111,KM30,2023-05-30T21:55:00Z,37.18,-88.75,30.1,11.1,0,0,,10.0,29.920275,,,TRUE,TRUE,,,,,,,SCT,7500,BKN,9000,,,,,VFR,,,,,,,,,,,,METAR,116.0
KM02 302155Z AUTO 00000KT 10SM SCT070 27/15 A2994 RMK A01,KM02,2023-05-30T21:55:00Z,36.13,-87.43,27.0,15.0,0,0,,10.0,29.940945,,,TRUE,TRUE,,,,,,,SCT,7000,,,,,,,VFR,,,,,,,,,,,,METAR,268.0
KLYV 302155Z AUTO 31009G17KT 10SM SCT085 30/11 A2978 RMK AO2,KLYV,2023-05-30T21:55:00Z,43.62,-96.22,30.0,11.0,310,9,17,10.0,29.778543,,,TRUE,TRUE,,,,,,,SCT,8500,,,,,,,VFR,,,,,,,,,,,,METAR,435.0
KLXY 302155Z AUTO 25007G15KT 10SM BKN120 24/20 A2990 RMK AO2 LTG DSNT N SE AND NW T02350199,KLXY,2023-05-30T21:55:00Z,31.63,-96.52,23.5,19.9,250,7,15,10.0,29.899607,,,TRUE,TRUE,,,,,,,BKN,12000,,,,,,,VFR,,,,,,,,,,,,METAR,164.0
KLXL 302155Z AUTO 17011G15KT 10SM SCT055 BKN070 BKN080 28/16 A2977 RMK AO2,KLXL,2023-05-30T21:55:00Z,45.95,-94.33,28.0,16.0,170,11,15,10.0,29.769686,,,TRUE,TRUE,,,,,,,SCT,5500,BKN,7000,BKN,8000,,,VFR,,,,,,,,,,,,METAR,335.0
KLWA 302155Z AUTO 35006KT 10SM CLR 30/13 A2995 RMK AO2 T02970133,KLWA,2023-05-30T21:55:00Z,42.35,-86.25,29.7,13.3,350,6,,10.0,29.949802,,,TRUE,TRUE,,,,,,,CLR,,,,,,,,VFR,,,,,,,,,,,,METAR,199.0
KLVN 302155Z AUTO 24004G15KT 10SM CLR 30/11 A2982 RMK AO2,KLVN,2023-05-30T21:55:00Z,44.63,-93.23,30.0,11.0,240,4,15,10.0,29.819881,,,TRUE,TRUE,,,,,,,CLR,,,,,,,,VFR,,,,,,,,,,,,SPECI,292.0
KLUG 302155Z AUTO 00000KT 10SM CLR 28/15 A2993 RMK A01,KLUG,2023-05-30T21:55:00Z,35.52,-86.8,28.0,15.0,0,0,,10.0,29.929134,,,TRUE,TRUE,,,,,,,CLR,,,,,,,,VFR,,,,,,,,,,,,METAR,218.0
KLUF 302155Z AUTO 00000KT 10SM FEW210 35/M06 A2973 RMK AO2 SLP053 T03511059 $,KLUF,2023-05-30T21:55:00Z,33.53,-112.37,35.1,-5.9,0,0,,10.0,29.731298,1005.3,,TRUE,TRUE,TRUE,,,,,,FEW,21000,,,,,,,VFR,,,,,,,,,,,,METAR,333.0
KLUD 302155Z AUTO 09006KT 7SM SCT050 SCT060 SCT085 26/19 A2990 RMK AO2 T02640186,KLUD,2023-05-30T21:55:00Z,33.25,-97.58,26.4,18.6,90,6,,7.0,29.899607,,,TRUE,TRUE,,,,,,,SCT,5000,SCT,6000,SCT,8500,,,VFR,,,,,,,,,,,,METAR,319.0
KLTS 302155Z 14009KT 10SM CLR 31/16 A2984 RMK AO2A SLP091 T03120156 $,KLTS,2023-05-30T21:55:00Z,34.67,-99.27,31.2,15.6,140,9,,10.0,29.840551,1009.1,,,TRUE,TRUE,,,,,,CLR,,,,,,,,VFR,,,,,,,,,,,,METAR,416.0
KLSV 302155Z AUTO 14008G24KT 10SM CLR 33/M04 A2972 RMK AO2 SLP042 T03291042 $,KLSV,2023-05-30T21:55:00Z,36.23,-115.05,32.9,-4.2,140,8,24,10.0,29.719488,1004.2,,TRUE,TRUE,TRUE,,,,,,CLR,,,,,,,,VFR,,,,,,,,,,,,METAR,563.0
KLSF 302155Z AUTO 08003KT 10SM CLR 29/15 A2988 RMK AO2 SLP122 T02870152 $,KLSF,2023-05-30T21:55:00Z,32.32,-84.97,28.7,15.2,80,3,,10.0,29.878937,1012.2,,TRUE,TRUE,TRUE,,,,,,CLR,,,,,,,,VFR,,,,,,,,,,,,METAR,68.0
KLRU 302155Z AUTO 19012G15KT 10SM CLR 33/M02 A2994 RMK AO2 T03281021,KLRU,2023-05-30T21:55:00Z,32.28,-106.92,32.8,-2.1,190,12,15,10.0,29.940945,,,TRUE,TRUE,,,,,,,CLR,,,,,,,,VFR,,,,,,,,,,,,METAR,1355.0
KLOR 302155Z AUTO 01003KT 10SM OVC065 26/17 A2990 RMK AO2 SLP107 T02570165,KLOR,2023-05-30T21:55:00Z,31.35,-85.75,25.7,16.5,10,3,,10.0,29.899607,1010.7,,TRUE,TRUE,,,,,,,OVC,6500,,,,,,,VFR,,,,,,,,,,,,METAR,92.0
KLNC 302155Z AUTO 00000KT 10SM VCTS CLR 28/19 A2992 RMK AO2 LTG DSNT S THRU N T02770187,KLNC,2023-05-30T21:55:00Z,32.58,-96.72,27.7,18.7,0,0,,10.0,29.920275,,,TRUE,TRUE,,,,,,VCTS,CLR,,,,,,,,VFR,,,,,,,,,,,,METAR,152.0
KLNA 302155Z AUTO 07009G16KT 10SM SCT027 BKN032 BKN039 29/22 A2987 RMK AO2 LTG DSNT SW T02890224,KLNA,2023-05-30T21:55:00Z,26.6,-80.08,28.9,22.4,70,9,16,10.0,29.870079,,,TRUE,TRUE,,,,,,,SCT,2700,BKN,3200,BKN,3900,,,VFR,,,,,,,,,,,,METAR,3.0
KLMS 302155Z AUTO 03005KT 10SM CLR 27/15 A2995 RMK AO2,KLMS,2023-05-30T21:55:00Z,,,27.0,15.0,30,5,,10.0,29.949802,,,TRUE,TRUE,,,,,,,CLR,,,,,,,,VFR,,,,,,,,,,,,METAR,
KLMO 302155Z AUTO 19003KT 10SM CLR 28/01 A2994 RMK AO2 T02830009,KLMO,2023-05-30T21:55:00Z,40.17,-105.17,28.3,0.9,190,3,,10.0,29.940945,,,TRUE,TRUE,,,,,,,CLR,,,,,,,,VFR,,,,,,,,,,,,METAR,1535.0
KLLJ 302155Z AUTO 24013G19KT 10SM OVC110 20/03 A2990 RMK AO2 RAE2057B15E30 SLP080 P0000 T02000033,KLLJ,2023-05-30T21:55:00Z,44.52,-114.22,20.0,3.3,240,13,19,10.0,29.899607,1008.0,,TRUE,TRUE,,,,,,,OVC,11000,,,,,,,VFR,,,,,,0.005,,,,,,METAR,1535.0
KLJF 302155Z AUTO 21007KT 174V264 10SM SCT065 29/13 A2979 RMK AO2,KLJF,2023-05-30T21:55:00Z,45.1,-94.52,29.0,13.0,210,7,,10.0,29.790354,,,TRUE,TRUE,,,,,,,SCT,6500,,,,,,,VFR,,,,,,,,,,,,METAR,347.0
KLIC 302155Z AUTO 00000KT 10SM CLR 26/07 A2996 RMK AO2 SLP075 T02560072,KLIC,2023-05-30T21:55:00Z,39.27,-103.67,25.6,7.2,0,0,,10.0,29.958662,1007.5,,TRUE,TRUE,,,,,,,CLR,,,,,,,,VFR,,,,,,,,,,,,METAR,1635.0
KLHM 302155Z AUTO 18006KT 150V210 10SM CLR 25/10 A2986 RMK AO1,KLHM,2023-05-30T21:55:00Z,38.92,-121.35,25.0,10.0,180,6,,10.0,29.861221,,,TRUE,TRUE,,,,,,,CLR,,,,,,,,VFR,,,,,,,,,,,,METAR,36.0
KLHB 302155Z AUTO 00000KT 10SM SCT050 SCT085 30/18 A2989 RMK AO2 LTG DSNT NE T02970184,KLHB,2023-05-30T21:55:00Z,30.87,-96.62,29.7,18.4,0,0,,10.0,29.890747,,,TRUE,TRUE,,,,,,,SCT,5000,SCT,8500,,,,,VFR,,,,,,,,,,,,METAR,83.0
KLGF 302155Z AUTO 20020G23KT M M CLR 34/M03 A2973 RMK AO2 SLP064 T03411033 RVRNO PWINO TSNO $,KLGF,2023-05-30T21:55:00Z,32.87,-114.4,34.1,-3.3,200,20,23,,29.731298,1006.4,,TRUE,TRUE,TRUE,,TRUE,,TRUE,,CLR,,,,,,,,,,,,,,,,,,,,METAR,118.0
KLDM 302155Z AUTO 25005KT 10SM CLR 26/07 A2997 RMK AO2 T02550073,KLDM,2023-05-30T21:55:00Z,43.97,-86.4,25.5,7.3,250,5,,10.0,29.970472,,,TRUE,TRUE,,,,,,,CLR,,,,,,,,VFR,,,,,,,,,,,,METAR,194.0
KLDJ 302155Z AUTO 17006KT 7SM CLR 19/05 A3019 RMK AO2 T01920049,KLDJ,2023-05-30T21:55:00Z,40.62,-74.25,19.2,4.9,170,6,,7.0,30.188976,,,TRUE,TRUE,,,,,,,CLR,,,,,,,,VFR,,,,,,,,,,,,METAR,6.0
KLCK 302155Z AUTO 12009KT 10SM SCT060 29/15 A2999 RMK AO2 T02930153,KLCK,2023-05-30T21:55:00Z,39.82,-82.92,29.3,15.3,120,9,,10.0,29.991142,,,TRUE,TRUE,,,,,,,SCT,6000,,,,,,,VFR,,,,,,,,,,,,METAR,225.0
KLCG 302155Z AUTO 27009KT 10SM CLR 32/13 A2980 RMK AO2 T03240128,KLCG,2023-05-30T21:55:00Z,42.25,-96.98,32.4,12.8,270,9,,10.0,29.799213,,,TRUE,TRUE,,,,,,,CLR,,,,,,,,VFR,,,,,,,,,,,,METAR,434.0
KKNB 302155Z AUTO 21012G22KT 10SM CLR 28/M09 A2997 RMK A01,KKNB,2023-05-30T21:55:00Z,37.02,-112.53,28.0,-9.0,210,12,22,10.0,29.970472,,,TRUE,TRUE,,,,,,,CLR,,,,,,,,VFR,,,,,,,,,,,,METAR,1476.0
KK88 302155Z AUTO 17012KT 10SM SCT055 SCT065 29/16 A2989 RMK AO1 T02890163,KK88,2023-05-30T21:55:00Z,37.87,-95.38,28.9,16.3,170,12,,10.0,29.890747,,,TRUE,TRUE,,,,,,,SCT,5500,SCT,6500,,,,,VFR,,,,,,,,,,,,METAR,308.0
KK70 302155Z AUTO 08008KT 050V110 10SM CLR 30/M22 A2983 RMK AO2 LTG DSNT NW,KK70,2023-05-30T21:55:00Z,25.32,-80.28,30.0,-22.0,80,8,,10.0,29.828741,,,TRUE,TRUE,,,,,,,CLR,,,,,,,,VFR,,,,,,,,,,,,METAR,20.0
KJYM 302155Z AUTO 13003KT 10SM SCT075 SCT100 BKN120 29/10 A2999 RMK AO2 T02910104,KJYM,2023-05-30T21:55:00Z,41.92,-84.58,29.1,10.4,130,3,,10.0,29.991142,,,TRUE,TRUE,,,,,,,SCT,7500,SCT,10000,BKN,12000,,,VFR,,,,,,,,,,,,METAR,357.0
KJWY 302155Z AUTO 01003KT 10SM -RA OVC110 22/19 A2995 RMK AO2 P0001 T02180189,KJWY,2023-05-30T21:55:00Z,32.45,-96.92,21.8,18.9,10,3,,10.0,29.949802,,,TRUE,TRUE,,,,,,-RA,OVC,11000,,,,,,,VFR,,,,,,0.01,,,,,,METAR,211.0
KJWG 302155Z AUTO 16006KT 10SM SCT055 BKN070 30/17 A2991 RMK AO2 T03000165,KJWG,2023-05-30T21:55:00Z,35.87,-98.42,30.0,16.5,160,6,,10.0,29.911417,,,TRUE,TRUE,,,,,,,SCT,5500,BKN,7000,,,,,VFR,,,,,,,,,,,,METAR,469.0
KJVY 302155Z AUTO 07007KT 030V100 10SM CLR 28/17 A2993 RMK AO2 LTG DSNT N AND E,KJVY,2023-05-30T21:55:00Z,38.37,-85.73,28.0,17.0,70,7,,10.0,29.929134,,,TRUE,TRUE,,,,,,,CLR,,,,,,,,VFR,,,,,,,,,,,,METAR,141.0
KJTC 302155Z AUTO 22012G24KT 10SM FEW080 SCT100 26/M05 A3009 RMK AO2,KJTC,2023-05-30T21:55:00Z,34.13,-109.32,26.0,-5.0,220,12,24,10.0,30.088583,,,TRUE,TRUE,,,,,,,FEW,8000,SCT,10000,,,,,VFR,,,,,,,,,,,,METAR,2148.0
KJPX 302155Z AUTO 11010KT 10SM CLR 14/06 A3021 RMK AO2 T01440062,KJPX,2023-05-30T21:55:00Z,40.95,-72.25,14.4,6.2,110,10,,10.0,30.209646,,,TRUE,TRUE,,,,,,,CLR,,,,,,,,VFR,,,,,,,,,,,,METAR,10.0
KJOT 302155Z AUTO 10004KT 10SM SCT110 32/12 A2992 RMK AO2 T03150120,KJOT,2023-05-30T21:55:00Z,41.52,-88.18,31.5,12.0,100,4,,10.0,29.920275,,,TRUE,TRUE,,,,,,,SCT,11000,,,,,,,VFR,,,,,,,,,,,,METAR,175.0
KJMR 302155Z AUTO 18007KT 10SM SCT019 SCT039 SCT055 24/17 A2986 RMK AO2 LTG DSNT NE THRU SW P0005,KJMR,2023-05-30T21:55:00Z,45.88,-93.27,24.0,17.0,180,7,,10.0,29.861221,,,TRUE,TRUE,,,,,,,SCT,1900,SCT,3900,SCT,5500,,,VFR,,,,,,0.05,,,,,,METAR,301.0
KJKJ 302155Z AUTO 21007G14KT 10SM CLR 30/12 A2971 RMK AO2 TSNO,KJKJ,2023-05-30T21:55:00Z,46.83,-96.67,30.0,12.0,210,7,14,10.0,29.71063,,,TRUE,TRUE,,,TRUE,,,,CLR,,,,,,,,VFR,,,,,,,,,,,,METAR,280.0
KJKA 302155Z 19006KT 10SM BKN080 28/17 A2998,KJKA,2023-05-30T21:55:00Z,30.28,-87.67,28.0,17.0,190,6,,10.0,29.97933,,,,,,,,,,,BKN,8000,,,,,,,VFR,,,,,,,,,,,,METAR,5.0
KIYA 302155Z AUTO 18005KT TS CLR 26/16 A2989 RMK AO2 LTG DSNT SE THRU W T02580159,KIYA,2023-05-30T21:55:00Z,29.98,-92.08,25.8,15.9,180,5,,,29.890747,,,TRUE,TRUE,,,,,,TS,CLR,,,,,,,,,,,,,,,,,,,,METAR,4.0
KIWA 302155Z 20007G14KT 10SM CLR 35/M03 A2978,KIWA,2023-05-30T21:55:00Z,33.3,-111.65,35.0,-3.0,200,7,14,10.0,29.778543,,,,,,,,,,,CLR,,,,,,,,VFR,,,,,,,,,,,,METAR,420.0
KISQ 302155Z AUTO 21003KT 10SM CLR 23/05 A2997 RMK AO2 T02290052,KISQ,2023-05-30T21:55:00Z,45.97,-86.17,22.9,5.2,210,3,,10.0,29.970472,,,TRUE,TRUE,,,,,,,CLR,,,,,,,,VFR,,,,,,,,,,,,SPECI,206.0
KIRS 302155Z AUTO 12007KT 10SM SCT080 SCT120 31/M01 A2996 RMK AO2 T03061011,KIRS,2023-05-30T21:55:00Z,41.8,-85.43,30.6,-1.1,120,7,,10.0,29.958662,,,TRUE,TRUE,,,,,,,SCT,8000,SCT,12000,,,,,VFR,,,,,,,,,,,,METAR,282.0
KIRK 302155Z AUTO 21005KT 10SM CLR 29/12 A2991 RMK AO2 SLP123 T02940122,KIRK,2023-05-30T21:55:00Z,40.1,-92.55,29.4,12.2,210,5,,10.0,29.911417,1012.3,,TRUE,TRUE,,,,,,,CLR,,,,,,,,VFR,,,,,,,,,,,,METAR,292.0
KIOB 302155Z AUTO 12005KT 10SM CLR 28/15 A3000 RMK AO2 PWINO,KIOB,2023-05-30T21:55:00Z,38.05,-83.98,28.0,15.0,120,5,,10.0,30.0,,,TRUE,TRUE,,,,,TRUE,,CLR,,,,,,,,VFR,,,,,,,,,,,,METAR,301.0
KINJ 302155Z AUTO 16011G19KT 10SM VCTS CLR 28/19 A2990 RMK AO2 LTG DSNT NW THRU E T02790186,KINJ,2023-05-30T21:55:00Z,32.08,-97.1,27.9,18.6,160,11,19,10.0,29.899607,,,TRUE,TRUE,,,,,,VCTS,CLR,,,,,,,,VFR,,,,,,,,,,,,METAR,208.0
KIMS 302155Z AUTO 10008KT 10SM SCT120 28/17 A2998 RMK AO2,KIMS,2023-05-30T21:55:00Z,38.75,-85.47,28.0,17.0,100,8,,10.0,29.97933,,,TRUE,TRUE,,,,,,,SCT,12000,,,,,,,VFR,,,,,,,,,,,,METAR,244.0
KIMM 302155Z AUTO 22006KT 10SM VCTS FEW046 FEW060 FEW075 A2985 RMK AO2 LTG DSNT E AND SE AND NW,KIMM,2023-05-30T21:55:00Z,26.43,-81.4,,,220,6,,10.0,29.84941,,,TRUE,TRUE,,,,,,VCTS,FEW,4600,FEW,6000,FEW,7500,,,VFR,,,,,,,,,,,,METAR,11.0
KIKW 302155Z AUTO 08009KT 10SM CLR 30/10 A2999 RMK AO2 T02990102,KIKW,2023-05-30T21:55:00Z,43.67,-84.27,29.9,10.2,80,9,,10.0,29.991142,,,TRUE,TRUE,,,,,,,CLR,,,,,,,,VFR,,,,,,,,,,,,METAR,190.0
KIFA 302155Z AUTO 16014KT 10SM CLR 29/14 A2988 RMK AO2 T02900140,KIFA,2023-05-30T21:55:00Z,42.47,-93.27,29.0,14.0,160,14,,10.0,29.878937,,,TRUE,TRUE,,,,,,,CLR,,,,,,,,VFR,,,,,,,,,,,,METAR,344.0
KIER 302155Z AUTO 07005KT 10SM SCT075 32/15 A2987 RMK AO2 T03160151,KIER,2023-05-30T21:55:00Z,31.73,-93.1,31.6,15.1,70,5,,10.0,29.870079,,,TRUE,TRUE,,,,,,,SCT,7500,,,,,,,VFR,,,,,,,,,,,,METAR,35.0
KICL 302155Z AUTO 00000KT 10SM FEW035 SCT044 BKN080 20/18 A2991 RMK AO2 P0001,KICL,2023-05-30T21:55:00Z,40.72,-95.02,20.0,18.0,0,0,,10.0,29.911417,,,TRUE,TRUE,,,,,,,FEW,3500,SCT,4400,BKN,8000,,,VFR,,,,,,0.01,,,,,,METAR,299.0
KIAB 302155Z AUTO 22011KT 10SM FEW065 31/16 A2984 RMK AO2 LTG DSNT SW SLP095 T03050157 $,KIAB,2023-05-30T21:55:00Z,37.62,-97.27,30.5,15.7,220,11,,10.0,29.840551,1009.5,,TRUE,TRUE,TRUE,,,,,,FEW,6500,,,,,,,VFR,,,,,,,,,,,,METAR,413.0
KI68 302155Z AUTO 10005KT 10SM FEW060 FEW075 SCT110 28/15 A2997 RMK AO2,KI68,2023-05-30T21:55:00Z,39.47,-84.25,28.0,15.0,100,5,,10.0,29.970472,,,TRUE,TRUE,,,,,,,FEW,6000,FEW,7500,SCT,11000,,,VFR,,,,,,,,,,,,METAR,274.0
KI23 302155Z AUTO 11010KT 10SM CLR 28/13 A3000 RMK AO1,KI23,2023-05-30T21:55:00Z,39.57,-83.42,28.0,13.0,110,10,,10.0,30.0,,,TRUE,TRUE,,,,,,,CLR,,,,,,,,VFR,,,,,,,,,,,,METAR,298.0
KI19 302155Z AUTO 13010G15KT 10SM CLR 29/15 A2997 RMK AO2,KI19,2023-05-30T21:55:00Z,39.7,-83.98,29.0,15.0,130,10,15,10.0,29.970472,,,TRUE,TRUE,,,,,,,CLR,,,,,,,,VFR,,,,,,,,,,,,METAR,285.0
KHZX 302155Z AUTO 21007G16KT 10SM CLR 28/14 A2980 RMK AO2 LTG DSNT NE AND NW,KHZX,2023-05-30T21:55:00Z,46.62,-93.32,28.0,14.0,210,7,16,10.0,29.799213,,,TRUE,TRUE,,,,,,,CLR,,,,,,,,VFR,,,,,,,,,,,,METAR,374.0
KHZL 302155Z AUTO 13004KT CLR 23/06 A3019 RMK AO2 PWINO,KHZL,2023-05-30T21:55:00Z,40.98,-76.0,23.0,6.0,130,4,,,30.188976,,,TRUE,TRUE,,,,,TRUE,,CLR,,,,,,,,,,,,,,,,,,,,METAR,481.0
KHZD 302155Z AUTO VRB04KT 10SM OVC085 28/16 A2992 RMK A01,KHZD,2023-05-30T21:55:00Z,36.08,-88.47,28.0,16.0,0,4,,10.0,29.920275,,,TRUE,TRUE,,,,,,,OVC,8500,,,,,,,VFR,,,,,,,,,,,,METAR,147.0
KHYX 302155Z AUTO 02009KT 10SM CLR 30/15 A2999 RMK AO2 T03020152,KHYX,2023-05-30T21:55:00Z,43.43,-83.87,30.2,15.2,20,9,,10.0,29.991142,,,TRUE,TRUE,,,,,,,CLR,,,,,,,,VFR,,,,,,,,,,,,METAR,181.0
KHYW 302155Z AUTO 00000KT 10SM SCT050 SCT075 25/18 A2994 RMK AO2,KHYW,2023-05-30T21:55:00Z,33.83,-79.12,25.0,18.0,0,0,,10.0,29.940945,,,TRUE,TRUE,,,,,,,SCT,5000,SCT,7500,,,,,VFR,,,,,,,,,,,,METAR,10.0
KHVE 302155Z AUTO 20007G18KT 10SM CLR 30/M08 A2989 RMK AO2,KHVE,2023-05-30T21:55:00Z,38.42,-110.7,30.0,-8.0,200,7,18,10.0,29.890747,,,TRUE,TRUE,,,,,,,CLR,,,,,,,,VFR,,,,,,,,,,,,METAR,1351.0
KHVC 302155Z AUTO 15005KT 10SM FEW085 30/16 A2992 RMK AO2,KHVC,2023-05-30T21:55:00Z,,,30.0,16.0,150,5,,10.0,29.920275,,,TRUE,TRUE,,,,,,,FEW,8500,,,,,,,VFR,,,,,,,,,,,,METAR,
KHUA 302155Z AUTO 06004KT 10SM SCT050 BKN060 BKN095 27/16 A2993 RMK AO2 SLP132 T02740163,KHUA,2023-05-30T21:55:00Z,34.68,-86.68,27.4,16.3,60,4,,10.0,29.929134,1013.2,,TRUE,TRUE,,,,,,,SCT,5000,BKN,6000,BKN,9500,,,VFR,,,,,,,,,,,,METAR,200.0
KHTH 302155Z AUTO 09008KT 060V120 10SM CLR 27/M03 A2983 RMK A01,KHTH,2023-05-30T21:55:00Z,38.55,-118.63,27.0,-3.0,90,8,,10.0,29.828741,,,TRUE,TRUE,,,,,,,CLR,,,,,,,,VFR,,,,,,,,,,,,METAR,1281.0
KHST 302155Z AUTO 09008KT 10SM SCT120 30/22 A2983 RMK AO2 LTG DSNT NW SLP105 T02980220,KHST,2023-05-30T21:55:00Z,25.48,-80.37,29.8,22.0,90,8,,10.0,29.828741,1010.5,,TRUE,TRUE,,,,,,,SCT,12000,,,,,,,VFR,,,,,,,,,,,,METAR,1.0
KHSG 302155Z AUTO 27008G15KT 10SM CLR 23/04 A2990 RMK AO2 LTG DSNT SE T02340040,KHSG,2023-05-30T21:55:00Z,43.72,-108.38,23.4,4.0,270,8,15,10.0,29.899607,,,TRUE,TRUE,,,,,,,CLR,,,,,,,,VFR,,,,,,,,,,,,METAR,1497.0
KHSD 302155Z AUTO 18007KT 160V220 10SM CLR 30/18 A2989 RMK A01,KHSD,2023-05-30T21:55:00Z,35.6,-97.72,30.0,18.0,180,7,,10.0,29.890747,,,TRUE,TRUE,,,,,,,CLR,,,,,,,,VFR,,,,,,,,,,,,METAR,358.0
KHSB 302155Z AUTO 00000KT 10SM SCT080 33/01 A2991 RMK AO2 T03310007,KHSB,2023-05-30T21:55:00Z,37.82,-88.55,33.1,0.7,0,0,,10.0,29.911417,,,TRUE,TRUE,,,,,,,SCT,8000,,,,,,,VFR,,,,,,,,,,,,METAR,118.0
KHRT 302155Z 21007KT 10SM SCT070 BKN200 26/17 A2987 RMK AO2A SLP117 T02630174,KHRT,2023-05-30T21:55:00Z,30.42,-86.68,26.3,17.4,210,7,,10.0,29.870079,1011.7,,,TRUE,,,,,,,SCT,7000,BKN,20000,,,,,VFR,,,,,,,,,,,,METAR,10.0
KHQU 302155Z AUTO 08009KT 040V110 10SM SCT100 27/16 A2995 RMK AO2 T02680164,KHQU,2023-05-30T21:55:00Z,33.53,-82.52,26.8,16.4,80,9,,10.0,29.949802,,,TRUE,TRUE,,,,,,,SCT,10000,,,,,,,VFR,,,,,,,,,,,,METAR,141.0
KHQG 302155Z AUTO 16014G21KT 10SM SCT055 29/15 A2989 RMK AO2 T02940148 PWINO,KHQG,2023-05-30T21:55:00Z,37.17,-101.37,29.4,14.8,160,14,21,10.0,29.890747,,,TRUE,TRUE,,,,,TRUE,,SCT,5500,,,,,,,VFR,,,,,,,,,,,,METAR,956.0
KHQG 302155Z AUTO 16014G21KT 10SM SCT055 29/15 A2989 RMK AO2 T02940148 PWINO,KHQG,2023-05-30T21:55:00Z,37.17,-101.37,29.4,14.8,160,14,21,10.0,29.890747,,,TRUE,TRUE,,,,,TRUE,,SCT,5500,,,,,,,VFR,,,,,,,,,,,,METAR,956.0
KHON 302155Z AUTO 26007KT 10SM FEW100 32/09 A2976 RMK AO2 SLP069 T03220094,KHON,2023-05-30T21:55:00Z,44.38,-98.23,32.2,9.4,260,7,,10.0,29.760826,1006.9,,TRUE,TRUE,,,,,,,FEW,10000,,,,,,,VFR,,,,,,,,,,,,METAR,391.0
KHOE 302155Z AUTO 00000KT 10SM CLR 30/13 A2989 RMK AO2 T02980132,KHOE,2023-05-30T21:55:00Z,31.05,-82.78,29.8,13.2,0,0,,10.0,29.890747,,,TRUE,TRUE,,,,,,,CLR,,,,,,,,VFR,,,,,,,,,,,,METAR,56.0
KHLR 302155Z AUTO 13010KT 10SM FEW055 31/17 A2988 RMK AO2 SLP108 T03070170,KHLR,2023-05-30T21:55:00Z,31.13,-97.72,30.7,17.0,130,10,,10.0,29.878937,1010.8,,TRUE,TRUE,,,,,,,FEW,5500,,,,,,,VFR,,,,,,,,,,,,METAR,271.0
KHLB 302155Z AUTO VRB06G11KT 10SM FEW055 FEW120 28/16 A2997 RMK A01,KHLB,2023-05-30T21:55:00Z,39.35,-85.27,28.0,16.0,0,6,11,10.0,29.970472,,,TRUE,TRUE,,,,,,,FEW,5500,FEW,12000,,,,,VFR,,,,,,,,,,,,METAR,297.0
KHIF 302155Z 24008KT 10SM CLR 26/03 A2988 RMK AO2A SLP065 T02580025,KHIF,2023-05-30T21:55:00Z,41.12,-111.97,25.8,2.5,240,8,,10.0,29.878937,1006.5,,,TRUE,,,,,,,CLR,,,,,,,,VFR,,,,,,,,,,,,METAR,1461.0
KHHF 302155Z AUTO 18009KT 10SM CLR 30/15 A2988 RMK AO2 T03000153,KHHF,2023-05-30T21:55:00Z,35.9,-100.4,30.0,15.3,180,9,,10.0,29.878937,,,TRUE,TRUE,,,,,,,CLR,,,,,,,,VFR,,,,,,,,,,,,METAR,729.0
KHFJ 302155Z AUTO 13004KT 10SM SCT070 BKN080 26/18 A2993 RMK AO2 LTG DSNT W,KHFJ,2023-05-30T21:55:00Z,36.9,-94.02,26.0,18.0,130,4,,10.0,29.929134,,,TRUE,TRUE,,,,,,,SCT,7000,BKN,8000,,,,,VFR,,,,,,,,,,,,METAR,398.0
KHFF 302155Z AUTO 07011G17KT 10SM BKN110 23/18 A2997 RMK AO2 SLP149 T02340183 $,KHFF,2023-05-30T21:55:00Z,35.03,-79.5,23.4,18.3,70,11,17,10.0,29.970472,1014.9,,TRUE,TRUE,TRUE,,,,,,BKN,11000,,,,,,,VFR,,,,,,,,,,,,METAR,100.0
KHEY 302155Z AUTO 09005KT 10SM OVC070 26/16 A2987 RMK AO2 SLP115 T02640157,KHEY,2023-05-30T21:55:00Z,31.35,-85.65,26.4,15.7,90,5,,10.0,29.870079,1011.5,,TRUE,TRUE,,,,,,,OVC,7000,,,,,,,VFR,,,,,,,,,,,,METAR,95.0
KHDC 302155Z AUTO 17005KT 10SM CLR 30/19 A2987 RMK AO2 T02970186,KHDC,2023-05-30T21:55:00Z,30.52,-90.42,29.7,18.6,170,5,,10.0,29.870079,,,TRUE,TRUE,,,,,,,CLR,,,,,,,,VFR,,,,,,,,,,,,METAR,12.0
KHCR 302155Z AUTO 10SM CLR 26/M03 A2994 RMK AO2,KHCR,2023-05-30T21:55:00Z,40.48,-111.43,26.0,-3.0,,,,10.0,29.940945,,,TRUE,TRUE,,,,,,,CLR,,,,,,,,VFR,,,,,,,,,,,,METAR,1708.0
KHCO 302155Z AUTO 04010G19KT 10SM -RA SCT075 BKN090 BKN110 21/17 A2973 RMK AO2 LTG DSNT ALQDS,KHCO,2023-05-30T21:55:00Z,48.75,-96.93,21.0,17.0,40,10,19,10.0,29.731298,,,TRUE,TRUE,,,,,,-RA,SCT,7500,BKN,9000,BKN,11000,,,VFR,,,,,,,,,,,,METAR,250.0
KHCD 302155Z AUTO 18008G14KT 10SM SCT060 SCT070 SCT090 30/15 A2980 RMK AO2 T03000153,KHCD,2023-05-30T21:55:00Z,44.87,-94.38,30.0,15.3,180,8,14,10.0,29.799213,,,TRUE,TRUE,,,,,,,SCT,6000,SCT,7000,SCT,9000,,,VFR,,,,,,,,,,,,METAR,320.0
KHBV 302155Z AUTO 13014G20KT 10SM SCT055 SCT080 BKN095 31/20 A2986 RMK AO2 T03130195,KHBV,2023-05-30T21:55:00Z,27.35,-98.73,31.3,19.5,130,14,20,10.0,29.861221,,,TRUE,TRUE,,,,,,,SCT,5500,SCT,8000,BKN,9500,,,VFR,,,,,,,,,,,,METAR,200.0
KHAI 302155Z AUTO 08008KT 10SM SCT120 32/09 A2997 RMK AO2 T03210088,KHAI,2023-05-30T21:55:00Z,41.97,-85.6,32.1,8.8,80,8,,10.0,29.970472,,,TRUE,TRUE,,,,,,,SCT,12000,,,,,,,VFR,,,,,,,,,,,,METAR,250.0
KHAF 302155Z AUTO 26006KT 9SM OVC026 15/11 A2999 RMK AO2,KHAF,2023-05-30T21:55:00Z,37.52,-122.5,15.0,11.0,260,6,,9.0,29.991142,,,TRUE,TRUE,,,,,,,OVC,2600,,,,,,,MVFR,,,,,,,,,,,,METAR,11.0
KGZS 302155Z AUTO 00000KT 28/16 RMK A01,KGZS,2023-05-30T21:55:00Z,35.15,-87.05,28.0,16.0,0,0,,,,,,TRUE,TRUE,,,,,,,,,,,,,,,,,,,,,,,,,,,METAR,198.0
KGYL 302155Z AUTO 18008G17KT 10SM CLR 30/16 A2979 RMK AO2 T02970161,KGYL,2023-05-30T21:55:00Z,44.77,-94.08,29.7,16.1,180,8,17,10.0,29.790354,,,TRUE,TRUE,,,,,,,CLR,,,,,,,,VFR,,,,,,,,,,,,METAR,304.0
KGYF 302155Z AUTO 04007G17KT 10SM VCTS SCT022 SCT027 25/20 A2985 RMK AO2 LTG DSNT NE THRU SE T02480195,KGYF,2023-05-30T21:55:00Z,26.13,-94.9,24.8,19.5,40,7,17,10.0,29.84941,,,TRUE,TRUE,,,,,,VCTS,SCT,2200,SCT,2700,,,,,VFR,,,,,,,,,,,,METAR,65.0
KGYB 302155Z AUTO 10006KT 10SM CLR 31/18 A2989 RMK AO2 T03060184,KGYB,2023-05-30T21:55:00Z,30.17,-96.98,30.6,18.4,100,6,,10.0,29.890747,,,TRUE,TRUE,,,,,,,CLR,,,,,,,,VFR,,,,,,,,,,,,METAR,140.0
KGXA 302155Z AUTO 31010KT 10SM FEW160 22/05 A2986 RMK AO2 SLP095 WND DATA ESTMD T02170047,KGXA,2023-05-30T21:55:00Z,34.57,-117.67,21.7,4.7,310,10,,10.0,29.861221,1009.5,,TRUE,TRUE,,,,,,,FEW,16000,,,,,,,VFR,,,,,,,,,,,,METAR,927.0
KGWB 302155Z AUTO 00000KT 10SM SCT070 29/14 A2998 RMK AO2,KGWB,2023-05-30T21:55:00Z,41.3,-85.07,29.0,14.0,0,0,,10.0,29.97933,,,TRUE,TRUE,,,,,,,SCT,7000,,,,,,,VFR,,,,,,,,,,,,METAR,268.0
KGUR 302155Z AUTO 10007KT 10SM TS SCT100 BKN120 OVC140 21/06 A2985 RMK AO2 TSB47 SLP103 T02140061,KGUR,2023-05-30T21:55:00Z,42.25,-104.72,21.4,6.1,100,7,,10.0,29.84941,1010.3,,TRUE,TRUE,,,,,,TS,SCT,10000,BKN,12000,OVC,14000,,,VFR,,,,,,,,,,,,METAR,1341.0
KGSB 302155Z 03016KT 10SM SCT025 BKN040 23/18 A2998 RMK AO2A SLP155 WND DATA ESTMD T02340180 $,KGSB,2023-05-30T21:55:00Z,35.33,-77.93,23.4,18.0,30,16,,10.0,29.97933,1015.5,,,TRUE,TRUE,,,,,,SCT,2500,BKN,4000,,,,,VFR,,,,,,,,,,,,METAR,33.0
KGRY 302155Z AUTO 09005KT 10SM CLR 25/20 A2989 RMK A01,KGRY,2023-05-30T21:55:00Z,27.63,-90.45,25.0,20.0,90,5,,10.0,29.890747,,,TRUE,TRUE,,,,,,,CLR,,,,,,,,VFR,,,,,,,,,,,,SPECI,58.0
KGRN 302155Z AUTO 00000KT 10SM CLR 29/07 A2984 RMK AO2 LTG DSNT SW T02850070,KGRN,2023-05-30T21:55:00Z,42.8,-102.17,28.5,7.0,0,0,,10.0,29.840551,,,TRUE,TRUE,,,,,,,CLR,,,,,,,,VFR,,,,,,,,,,,,METAR,1080.0
KGRK 302155Z AUTO 13006KT 10SM FEW055 29/17 A2987 RMK AO2 SLP105 T02930165,KGRK,2023-05-30T21:55:00Z,31.07,-97.83,29.3,16.5,130,6,,10.0,29.870079,1010.5,,TRUE,TRUE,,,,,,,FEW,5500,,,,,,,VFR,,,,,,,,,,,,METAR,311.0
KGRF 302155Z 35004KT 10SM SCT050 17/04 A2999 RMK AO2A SLP160 T01690042 $,KGRF,2023-05-30T21:55:00Z,47.07,-122.57,16.9,4.2,350,4,,10.0,29.991142,1016.0,,,TRUE,TRUE,,,,,,SCT,5000,,,,,,,VFR,,,,,,,,,,,,METAR,91.0
KGPI 302155Z 16012KT 10SM CLR 25/07 A2979 RMK AO2 SLP078 T02500067,KGPI,2023-05-30T21:55:00Z,48.32,-114.25,25.0,6.7,160,12,,10.0,29.790354,1007.8,,,TRUE,,,,,,,CLR,,,,,,,,VFR,,,,,,,,,,,,METAR,903.0
KGPC 302155Z AUTO 11006KT 10SM SCT055 SCT080 SCT120 28/16 A2995 RMK AO2 T02810157,KGPC,2023-05-30T21:55:00Z,39.63,-86.82,28.1,15.7,110,6,,10.0,29.949802,,,TRUE,TRUE,,,,,,,SCT,5500,SCT,8000,SCT,12000,,,VFR,,,,,,,,,,,,METAR,254.0
KGNG 302155Z AUTO 24009KT 10SM CLR 27/05 A2985 RMK AO2 LTG DSNT SE AND NW,KGNG,2023-05-30T21:55:00Z,42.92,-114.77,27.0,5.0,240,9,,10.0,29.84941,,,TRUE,TRUE,,,,,,,CLR,,,,,,,,VFR,,,,,,,,,,,,METAR,1128.0
KGLY 302155Z AUTO 16010KT 10SM FEW050 FEW060 30/17 A2989 RMK AO2,KGLY,2023-05-30T21:55:00Z,38.35,-93.68,30.0,17.0,160,10,,10.0,29.890747,,,TRUE,TRUE,,,,,,,FEW,5000,FEW,6000,,,,,VFR,,,,,,,,,,,,METAR,247.0
KGKT 302155Z AUTO 04010KT 10SM CLR 28/15 A2995 RMK A01,KGKT,2023-05-30T21:55:00Z,35.85,-83.53,28.0,15.0,40,10,,10.0,29.949802,,,TRUE,TRUE,,,,,,,CLR,,,,,,,,VFR,,,,,,,,,,,,METAR,305.0
KGHW 302155Z AUTO 18012G16KT 10SM CLR 28/17 A2979 RMK AO2,KGHW,2023-05-30T21:55:00Z,45.63,-95.32,28.0,17.0,180,12,16,10.0,29.790354,,,TRUE,TRUE,,,,,,,CLR,,,,,,,,VFR,,,,,,,,,,,,METAR,423.0
KGGI 302155Z AUTO 19009KT 10SM SCT075 32/12 A2989 RMK AO2 T03180123,KGGI,2023-05-30T21:55:00Z,41.72,-92.73,31.8,12.3,190,9,,10.0,29.890747,,,TRUE,TRUE,,,,,,,SCT,7500,,,,,,,VFR,,,,,,,,,,,,METAR,305.0
KGFA 302155Z AUTO 24011G17KT 10SM CLR 26/03 A2978 RMK AO2 SLP068 T02570030 $,KGFA,2023-05-30T21:55:00Z,47.5,-111.18,25.7,3.0,240,11,17,10.0,29.778543,1006.8,,TRUE,TRUE,TRUE,,,,,,CLR,,,,,,,,VFR,,,,,,,,,,,,METAR,1058.0
KGDJ 302155Z AUTO 17004KT 10SM CLR 30/16 A2990 RMK AO2 LTG DSNT E T03010155,KGDJ,2023-05-30T21:55:00Z,32.45,-97.82,30.1,15.5,170,4,,10.0,29.899607,,,TRUE,TRUE,,,,,,,CLR,,,,,,,,VFR,,,,,,,,,,,,METAR,235.0
KGDB 302155Z AUTO 17006KT 10SM CLR 31/17 A2979 RMK AO2 T03110166,KGDB,2023-05-30T21:55:00Z,44.75,-95.55,31.1,16.6,170,6,,10.0,29.790354,,,TRUE,TRUE,,,,,,,CLR,,,,,,,,VFR,,,,,,,,,,,,METAR,316.0
KGCY 302155Z AUTO 06005G11KT 10SM FEW070 24/14 A3000 RMK A01,KGCY,2023-05-30T21:55:00Z,36.2,-82.82,24.0,14.0,60,5,11,10.0,30.0,,,TRUE,TRUE,,,,,,,FEW,7000,,,,,,,VFR,,,,,,,,,,,,METAR,488.0
KGAO 302155Z AUTO 00000KT 10SM CLR 29/20 A2990 RMK AO2 T02890195,KGAO,2023-05-30T21:55:00Z,29.45,-90.27,28.9,19.5,0,0,,10.0,29.899607,,,TRUE,TRUE,,,,,,,CLR,,,,,,,,VFR,,,,,,,,,,,,METAR,0.0
KFYM 302155Z AUTO 10004KT 10SM CLR 27/17 A2996 RMK A01,KFYM,2023-05-30T21:55:00Z,35.07,-86.57,27.0,17.0,100,4,,10.0,29.958662,,,TRUE,TRUE,,,,,,,CLR,,,,,,,,VFR,,,,,,,,,,,,METAR,297.0
KFYG 302155Z AUTO 17007KT 160V220 10SM CLR 31/12 A2991 RMK AO2,KFYG,2023-05-30T21:55:00Z,38.58,-91.0,31.0,12.0,170,7,,10.0,29.911417,,,TRUE,TRUE,,,,,,,CLR,,,,,,,,VFR,,,,,,,,,,,,METAR,147.0
KFYE 302155Z AUTO 00000KT 10SM BKN090 28/16 A2991 RMK A01,KFYE,2023-05-30T21:55:00Z,35.2,-89.38,28.0,16.0,0,0,,10.0,29.911417,,,TRUE,TRUE,,,,,,,BKN,9000,,,,,,,VFR,,,,,,,,,,,,METAR,133.0
KFWB 302155Z AUTO 00000KT 9SM FEW120 27/17 A2996 RMK AO2 LTG DSNT NE,KFWB,2023-05-30T21:55:00Z,36.7,-93.4,27.0,17.0,0,0,,9.0,29.958662,,,TRUE,TRUE,,,,,,,FEW,12000,,,,,,,VFR,,,,,,,,,,,,METAR,392.0
KFTN 302155Z AUTO 12006G14KT 10SM CLR 32/19 A2985 RMK A01,KFTN,2023-05-30T21:55:00Z,28.22,-100.02,32.0,19.0,120,6,14,10.0,29.84941,,,TRUE,TRUE,,,,,,,CLR,,,,,,,,VFR,,,,,,,,,,,,METAR,236.0
KFSI 302155Z AUTO 15008KT 10SM CLR 29/18 A2985 RMK AO2 SLP100 T02920177 FZRANO $,KFSI,2023-05-30T21:55:00Z,34.65,-98.4,29.2,17.7,150,8,,10.0,29.84941,1010.0,,TRUE,TRUE,TRUE,,,TRUE,,,CLR,,,,,,,,VFR,,,,,,,,,,,,METAR,360.0
KFSE 302155Z AUTO 13003KT 10SM -TSRA SCT021 BKN050 OVC080 19/14 A2978 RMK AO2 LTG DSNT ALQDS P0001,KFSE,2023-05-30T21:55:00Z,47.58,-95.77,19.0,14.0,130,3,,10.0,29.778543,,,TRUE,TRUE,,,,,,-TSRA,SCT,2100,BKN,5000,OVC,8000,,,VFR,,,,,,0.01,,,,,,METAR,389.0
KFRI 302155Z 14014KT 10SM BKN060 30/17 A2982 RMK AO2A SLP087 T03010172 $,KFRI,2023-05-30T21:55:00Z,39.05,-96.77,30.1,17.2,140,14,,10.0,29.819881,1008.7,,,TRUE,TRUE,,,,,,BKN,6000,,,,,,,VFR,,,,,,,,,,,,METAR,232.0
KFOT 302155Z AUTO 30011G14KT 10SM OVC013 12/10 A2999 RMK AO1,KFOT,2023-05-30T21:55:00Z,40.55,-124.13,12.0,10.0,300,11,14,10.0,29.991142,,,TRUE,TRUE,,,,,,,OVC,1300,,,,,,,MVFR,,,,,,,,,,,,METAR,118.0
KFOA 302155Z AUTO 13004KT 10SM CLR 32/12 A2991 RMK AO2,KFOA,2023-05-30T21:55:00Z,38.67,-88.45,32.0,12.0,130,4,,10.0,29.911417,,,TRUE,TRUE,,,,,,,CLR,,,,,,,,VFR,,,,,,,,,,,,METAR,141.0
KFLY 302155Z AUTO 11008KT 10SM -RA SCT060 BKN090 21/04 A3007 RMK AO2 LTG DSNT S AND NW T02100044,KFLY,2023-05-30T21:55:00Z,38.95,-104.57,21.0,4.4,110,8,,10.0,30.070866,,,TRUE,TRUE,,,,,,-RA,SCT,6000,BKN,9000,,,,,VFR,,,,,,,,,,,,METAR,2096.0
KFKS 302155Z AUTO 26004KT 10SM CLR 25/10 A2998 RMK AO2 T02520103,KFKS,2023-05-30T21:55:00Z,44.63,-86.2,25.2,10.3,260,4,,10.0,29.97933,,,TRUE,TRUE,,,,,,,CLR,,,,,,,,VFR,,,,,,,,,,,,METAR,189.0
KFKA 302155Z AUTO 19011G17KT 10SM CLR 30/13 A2987 RMK AO2,KFKA,2023-05-30T21:55:00Z,43.68,-92.17,30.0,13.0,190,11,17,10.0,29.870079,,,TRUE,TRUE,,,,,,,CLR,,,,,,,,VFR,,,,,,,,,,,,METAR,388.0
KFHU 302155Z AUTO 22007G26KT 10SM CLR 29/M10 A2999 RMK AO2 PK WND 19026/45 SLP091 T02931101,KFHU,2023-05-30T21:55:00Z,31.58,-110.35,29.3,-10.1,220,7,26,10.0,29.991142,1009.1,,TRUE,TRUE,,,,,,,CLR,,,,,,,,VFR,,,,,,,,,,,,METAR,1424.0
KFGN 302155Z AUTO 17011KT 10SM CLR 21/15 A2971 RMK AO2,KFGN,2023-05-30T21:55:00Z,49.32,-94.9,21.0,15.0,170,11,,10.0,29.71063,,,TRUE,TRUE,,,,,,,CLR,,,,,,,,VFR,,,,,,,,,,,,SPECI,327.0
KFFX 302155Z AUTO 00000KT 10SM CLR 31/13 A2996 RMK AO2 T03120130,KFFX,2023-05-30T21:55:00Z,43.43,-86.0,31.2,13.0,0,0,,10.0,29.958662,,,TRUE,TRUE,,,,,,,CLR,,,,,,,,VFR,,,,,,,,,,,,METAR,234.0
KFFM 302155Z AUTO 00000KT 10SM CLR 29/16 A2974 RMK AO2 LTG DSNT E AND SE,KFFM,2023-05-30T21:55:00Z,46.28,-96.15,29.0,16.0,0,0,,10.0,29.740158,,,TRUE,TRUE,,,,,,,CLR,,,,,,,,VFR,,,,,,,,,,,,METAR,362.0
KFEW 302155Z 18014KT 10SM SCT030 BKN100 BKN250 23/03 A2998 RMK AO2A SLP090 T02300025 $,KFEW,2023-05-30T21:55:00Z,41.13,-104.87,23.0,2.5,180,14,,10.0,29.97933,1009.0,,,TRUE,TRUE,,,,,,SCT,3000,BKN,10000,BKN,25000,,,VFR,,,,,,,,,,,,METAR,1877.0
KFEP 302155Z AUTO 14004KT 10SM CLR 31/12 A2994 RMK AO2 T03110119,KFEP,2023-05-30T21:55:00Z,42.25,-89.58,31.1,11.9,140,4,,10.0,29.940945,,,TRUE,TRUE,,,,,,,CLR,,,,,,,,VFR,,,,,,,,,,,,METAR,255.0
KFBL 302155Z AUTO 19007KT 10SM CLR 29/13 A2983 RMK AO2,KFBL,2023-05-30T21:55:00Z,44.33,-93.32,29.0,13.0,190,7,,10.0,29.828741,,,TRUE,TRUE,,,,,,,CLR,,,,,,,,VFR,,,,,,,,,,,,METAR,318.0
KFBG 302155Z AUTO 04009KT 9SM FEW034 SCT100 24/17 A2997 RMK AO2 SLP150 T02390171 $,KFBG,2023-05-30T21:55:00Z,35.12,-78.92,23.9,17.1,40,9,,9.0,29.970472,1015.0,,TRUE,TRUE,TRUE,,,,,,FEW,3400,SCT,10000,,,,,VFR,,,,,,,,,,,,METAR,69.0
KF46 302155Z AUTO 10004KT 10SM CLR 27/18 A2992 RMK AO2 LTG DSNT SW AND W T02740180,KF46,2023-05-30T21:55:00Z,32.93,-96.43,27.4,18.0,100,4,,10.0,29.920275,,,TRUE,TRUE,,,,,,,CLR,,,,,,,,VFR,,,,,,,,,,,,METAR,175.0
KF44 302155Z AUTO 00000KT 10SM CLR 29/17 A2988 RMK AO2 LTG DSNT NE S AND W,KF44,2023-05-30T21:55:00Z,32.17,-95.83,29.0,17.0,0,0,,10.0,29.878937,,,TRUE,TRUE,,,,,,,CLR,,,,,,,,VFR,,,,,,,,,,,,METAR,137.0
KF17 302155Z AUTO 02003KT 10SM SCT085 31/15 A2989 RMK AO2,KF17,2023-05-30T21:55:00Z,31.83,-94.15,31.0,15.0,20,3,,10.0,29.890747,,,TRUE,TRUE,,,,,,,SCT,8500,,,,,,,VFR,,,,,,,,,,,,METAR,93.0
KF05 302155Z AUTO 17009G14KT 10SM CLR 32/15 A2988 RMK AO2 T03210145,KF05,2023-05-30T21:55:00Z,34.23,-99.28,32.1,14.5,170,9,14,10.0,29.878937,,,TRUE,TRUE,,,,,,,CLR,,,,,,,,VFR,,,,,,,,,,,,METAR,384.0
KF00 302155Z AUTO 00000KT 10SM BKN041 BKN049 28/20 A2991 RMK AO2 T02790198,KF00,2023-05-30T21:55:00Z,33.62,-96.18,27.9,19.8,0,0,,10.0,29.911417,,,TRUE,TRUE,,,,,,,BKN,4100,BKN,4900,,,,,VFR,,,,,,,,,,,,METAR,189.0
KEZZ 302155Z AUTO 20009KT 10SM CLR 30/16 A2989 RMK AO2 LTG DSNT SW AND NW T03010163,KEZZ,2023-05-30T21:55:00Z,39.72,-94.28,30.1,16.3,200,9,,10.0,29.890747,,,TRUE,TRUE,,,,,,,CLR,,,,,,,,VFR,,,,,,,,,,,,METAR,317.0
KEZP 302155Z AUTO 14012KT 10SM CLR 26/20 A2989 RMK A01,KEZP,2023-05-30T21:55:00Z,28.22,-92.8,26.0,20.0,140,12,,10.0,29.890747,,,TRUE,TRUE,,,,,,,CLR,,,,,,,,VFR,,,,,,,,,,,,METAR,30.0
KERY 302155Z AUTO 20009KT 10SM CLR 28/03 A2998 RMK AO2 T02820032,KERY,2023-05-30T21:55:00Z,46.3,-85.45,28.2,3.2,200,9,,10.0,29.97933,,,TRUE,TRUE,,,,,,,CLR,,,,,,,,VFR,,,,,,,,,,,,METAR,261.0
KERV 302155Z AUTO 00000KT 10SM CLR 29/17 A2991 RMK AO2 T02920171,KERV,2023-05-30T21:55:00Z,29.98,-99.08,29.2,17.1,0,0,,10.0,29.911417,,,TRUE,TRUE,,,,,,,CLR,,,,,,,,VFR,,,,,,,,,,,,METAR,483.0
KENL 302155Z AUTO 00000KT 10SM CLR 31/13 A2992 RMK AO2 T03080134,KENL,2023-05-30T21:55:00Z,38.52,-89.1,30.8,13.4,0,0,,10.0,29.920275,,,TRUE,TRUE,,,,,,,CLR,,,,,,,,VFR,,,,,,,,,,,,METAR,161.0
KEND 302155Z AUTO 16009KT 10SM FEW060 SCT070 31/17 A2985 RMK AO2 SLP098 T03100173 $,KEND,2023-05-30T21:55:00Z,36.33,-97.92,31.0,17.3,160,9,,10.0,29.84941,1009.8,,TRUE,TRUE,TRUE,,,,,,FEW,6000,SCT,7000,,,,,VFR,,,,,,,,,,,,METAR,392.0
KEMM 302155Z AUTO 10SM CLR 20/M05 A3004 RMK AO2 TSNO,KEMM,2023-05-30T21:55:00Z,41.82,-110.55,20.0,-5.0,,,,10.0,30.041338,,,TRUE,TRUE,,,TRUE,,,,CLR,,,,,,,,VFR,,,,,,,,,,,,METAR,2219.0
KELO 302155Z AUTO 18008G15KT 10SM CLR 26/12 A2984 RMK AO2 LTG DSNT NW,KELO,2023-05-30T21:55:00Z,47.82,-91.83,26.0,12.0,180,8,15,10.0,29.840551,,,TRUE,TRUE,,,,,,,CLR,,,,,,,,VFR,,,,,,,,,,,,METAR,438.0
KELA 302155Z AUTO 18010G16KT 10SM SCT046 SCT120 27/20 A2990 RMK AO2 LTG DSNT SW AND W T02660198,KELA,2023-05-30T21:55:00Z,29.6,-96.32,26.6,19.8,180,10,16,10.0,29.899607,,,TRUE,TRUE,,,,,,,SCT,4600,SCT,12000,,,,,VFR,,,,,,,,,,,,METAR,56.0
KEKS 302155Z AUTO 26019G28KT 10SM BKN080 BKN110 15/06 A3001 RMK AO2 LTG DSNT E AND S,KEKS,2023-05-30T21:55:00Z,45.27,-111.65,15.0,6.0,260,19,28,10.0,30.008858,,,TRUE,TRUE,,,,,,,BKN,8000,BKN,11000,,,,,VFR,,,,,,,,,,,,METAR,1636.0
KEKE 302155Z AUTO 09010KT 10SM CLR 26/19 A2982 RMK A01,KEKE,2023-05-30T21:55:00Z,28.5,-91.58,26.0,19.0,90,10,,10.0,29.819881,,,TRUE,TRUE,,,,,,,CLR,,,,,,,,VFR,,,,,,,,,,,,METAR,31.0
KEIK 302155Z AUTO 14013G21KT 10SM CLR 24/01 A2995 RMK AO2 LTG DSNT N THRU SE T02410009,KEIK,2023-05-30T21:55:00Z,40.02,-105.05,24.1,0.9,140,13,21,10.0,29.949802,,,TRUE,TRUE,,,,,,,CLR,,,,,,,,VFR,,,,,,,,,,,,METAR,1551.0
KEGI 302155Z AUTO 34004KT 10SM OVC080 28/15 A2988 RMK AO2 SLP118 T02830145 $,KEGI,2023-05-30T21:55:00Z,30.65,-86.52,28.3,14.5,340,4,,10.0,29.878937,1011.8,,TRUE,TRUE,TRUE,,,,,,OVC,8000,,,,,,,VFR,,,,,,,,,,,,METAR,59.0
KEFK 302155Z AUTO 00000KT 7SM SCT070 27/11 A3010 RMK AO2 T02740110,KEFK,2023-05-30T21:55:00Z,44.88,-72.23,27.4,11.0,0,0,,7.0,30.100393,,,TRUE,TRUE,,,,,,,SCT,7000,,,,,,,VFR,,,,,,,,,,,,METAR,282.0
KEDW 302155Z 26019G22KT 50SM FEW050 BKN150 BKN250 23/05 A2985 RMK AO2A SLP094 T02330052,KEDW,2023-05-30T21:55:00Z,34.9,-117.87,23.3,5.2,260,19,22,50.0,29.84941,1009.4,,,TRUE,,,,,,,FEW,5000,BKN,15000,BKN,25000,,,VFR,,,,,,,,,,,,METAR,698.0
KEDN 302155Z AUTO 02003KT 10SM OVC065 25/16 A2990 RMK AO2 T02520160 PWINO,KEDN,2023-05-30T21:55:00Z,31.3,-85.9,25.2,16.0,20,3,,10.0,29.899607,,,TRUE,TRUE,,,,,TRUE,,OVC,6500,,,,,,,VFR,,,,,,,,,,,,METAR,103.0
KEDJ 302155Z AUTO 10007KT 10SM FEW110 29/15 A3001 RMK A01,KEDJ,2023-05-30T21:55:00Z,40.37,-83.82,29.0,15.0,100,7,,10.0,30.008858,,,TRUE,TRUE,,,,,,,FEW,11000,,,,,,,VFR,,,,,,,,,,,,SPECI,341.0
KECS 302155Z AUTO 00000KT 10SM SCT100 24/05 A2987 RMK AO2,KECS,2023-05-30T21:55:00Z,43.88,-104.32,24.0,5.0,0,0,,10.0,29.870079,,,TRUE,TRUE,,,,,,,SCT,10000,,,,,,,VFR,,,,,,,,,,,,METAR,1273.0
KEBG 302155Z AUTO 07009KT 10SM CLR 30/22 A2984 RMK AO2 T02980217,KEBG,2023-05-30T21:55:00Z,26.45,-98.13,29.8,21.7,70,9,,10.0,29.840551,,,TRUE,TRUE,,,,,,,CLR,,,,,,,,VFR,,,,,,,,,,,,METAR,21.0
KEBA 302155Z AUTO 06004KT 10SM SCT044 27/16 A2996 RMK AO2 T02680157,KEBA,2023-05-30T21:55:00Z,34.1,-82.82,26.8,15.7,60,4,,10.0,29.958662,,,TRUE,TRUE,,,,,,,SCT,4400,,,,,,,VFR,,,,,,,,,,,,METAR,180.0
KEAT 302155Z AUTO VRB05KT 10SM CLR 26/03 A2977 RMK AO2 SLP074 T02560028,KEAT,2023-05-30T21:55:00Z,47.4,-120.2,25.6,2.8,0,5,,10.0,29.769686,1007.4,,TRUE,TRUE,,,,,,,CLR,,,,,,,,VFR,,,,,,,,,,,,METAR,375.0
KE42 302155Z AUTO 16015KT 10SM SCT055 29/17 A2991 RMK AO2 T02890165,KE42,2023-05-30T21:55:00Z,36.22,-101.2,28.9,16.5,160,15,,10.0,29.911417,,,TRUE,TRUE,,,,,,,SCT,5500,,,,,,,VFR,,,,,,,,,,,,METAR,942.0
KDZB 302155Z AUTO 11004KT 10SM SCT060 SCT070 31/15 A2989 RMK AO2 T03080151,KDZB,2023-05-30T21:55:00Z,30.53,-98.37,30.8,15.1,110,4,,10.0,29.890747,,,TRUE,TRUE,,,,,,,SCT,6000,SCT,7000,,,,,VFR,,,,,,,,,,,,METAR,329.0
KDYT 302155Z AUTO 02003KT 10SM FEW110 10/06 A2985 RMK AO2 LTG DSNT W,KDYT,2023-05-30T21:55:00Z,46.72,-92.03,10.0,6.0,20,3,,10.0,29.84941,,,TRUE,TRUE,,,,,,,FEW,11000,,,,,,,VFR,,,,,,,,,,,,METAR,185.0
KDYS 302155Z AUTO 11010G17KT 10SM CLR 30/16 A2985 RMK AO2 SLP068 T03030159,KDYS,2023-05-30T21:55:00Z,32.42,-99.83,30.3,15.9,110,10,17,10.0,29.84941,1006.8,,TRUE,TRUE,,,,,,,CLR,,,,,,,,VFR,,,,,,,,,,,,METAR,544.0
KDYB 302155Z AUTO 13007KT 110V170 8SM OVC110 26/19 A2994 RMK AO2,KDYB,2023-05-30T21:55:00Z,33.07,-80.28,26.0,19.0,130,7,,8.0,29.940945,,,TRUE,TRUE,,,,,,,OVC,11000,,,,,,,VFR,,,,,,,,,,,,METAR,15.0
KDXX 302155Z AUTO 18007KT 10SM CLR 30/16 A2977 RMK AO2,KDXX,2023-05-30T21:55:00Z,44.98,-96.18,30.0,16.0,180,7,,10.0,29.769686,,,TRUE,TRUE,,,,,,,CLR,,,,,,,,VFR,,,,,,,,,,,,METAR,327.0
KDWX 302155Z AUTO 25017KT 10SM VCTS SCT120 22/M01 A3003 RMK AO2 LTG DSNT NE T02171006,KDWX,2023-05-30T21:55:00Z,41.03,-107.5,21.7,-0.6,250,17,,10.0,30.029528,,,TRUE,TRUE,,,,,,VCTS,SCT,12000,,,,,,,VFR,,,,,,,,,,,,METAR,1974.0
KDWA 302155Z AUTO 21007G18KT 190V250 10SM CLR 25/12 A2986 RMK AO2,KDWA,2023-05-30T21:55:00Z,38.58,-121.85,25.0,12.0,210,7,18,10.0,29.861221,,,TRUE,TRUE,,,,,,,CLR,,,,,,,,VFR,,,,,,,,,,,,METAR,28.0
KDUX 302155Z AUTO 15012G20KT 10SM CLR 29/13 A2992 RMK AO2 T02850127,KDUX,2023-05-30T21:55:00Z,35.85,-102.02,28.5,12.7,150,12,20,10.0,29.920275,,,TRUE,TRUE,,,,,,,CLR,,,,,,,,VFR,,,,,,,,,,,,METAR,1129.0
KDUH 302155Z AUTO 08004KT 10SM CLR 29/13 A3000 RMK AO2 T02860130,KDUH,2023-05-30T21:55:00Z,41.73,-83.65,28.6,13.0,80,4,,10.0,30.0,,,TRUE,TRUE,,,,,,,CLR,,,,,,,,VFR,,,,,,,,,,,,SPECI,203.0
KDUA 302155Z AUTO 16005KT 10SM CLR 28/17 A2993 RMK AO2,KDUA,2023-05-30T21:55:00Z,33.95,-96.4,28.0,17.0,160,5,,10.0,29.929134,,,TRUE,TRUE,,,,,,,CLR,,,,,,,,VFR,,,,,,,,,,,,METAR,209.0
KDTL 302155Z AUTO 21007KT 10SM FEW050 SCT110 27/15 A2976 RMK AO2 LTG DSNT N AND NE,KDTL,2023-05-30T21:55:00Z,46.82,-95.88,27.0,15.0,210,7,,10.0,29.760826,,,TRUE,TRUE,,,,,,,FEW,5000,SCT,11000,,,,,VFR,,,,,,,,,,,,METAR,425.0
KDTA 302155Z AUTO 21009KT 10SM CLR 26/M09 A2990 RMK AO1,KDTA,2023-05-30T21:55:00Z,39.38,-112.5,26.0,-9.0,210,9,,10.0,29.899607,,,TRUE,TRUE,,,,,,,CLR,,,,,,,,VFR,,,,,,,,,,,,METAR,1452.0
KDRM 302155Z AUTO 15008KT 10SM CLR 22/10 A3001 RMK AO2 T02220096,KDRM,2023-05-30T21:55:00Z,46.0,-83.75,22.2,9.6,150,8,,10.0,30.008858,,,TRUE,TRUE,,,,,,,CLR,,,,,,,,VFR,,,,,,,,,,,,METAR,201.0
KDNV 302155Z AUTO 15009KT 10SM SCT075 32/13 A2992 RMK AO2 T03180126,KDNV,2023-05-30T21:55:00Z,40.2,-87.6,31.8,12.6,150,9,,10.0,29.920275,,,TRUE,TRUE,,,,,,,SCT,7500,,,,,,,VFR,,,,,,,,,,,,METAR,208.0
KDLZ 302155Z AUTO 13006KT 10SM CLR 28/13 A3001 RMK AO2,KDLZ,2023-05-30T21:55:00Z,40.28,-83.12,28.0,13.0,130,6,,10.0,30.008858,,,TRUE,TRUE,,,,,,,CLR,,,,,,,,VFR,,,,,,,,,,,,METAR,287.0
KDLP 302155Z AUTO VRB04KT 10SM FEW031 27/19 A2980 RMK A01,KDLP,2023-05-30T21:55:00Z,29.12,-89.55,27.0,19.0,0,4,,10.0,29.799213,,,TRUE,TRUE,,,,,,,FEW,3100,,,,,,,VFR,,,,,,,,,,,,METAR,31.0
KDLH 302155Z 11006KT 10SM CLR 23/13 A2985 RMK AO2 SLP106 T02280128,KDLH,2023-05-30T21:55:00Z,46.85,-92.2,22.8,12.8,110,6,,10.0,29.84941,1010.6,,,TRUE,,,,,,,CLR,,,,,,,,VFR,,,,,,,,,,,,METAR,434.0
KDLF 302155Z 12009KT 7SM CLR 32/18 A2980 RMK AO2A SLP080 T03220184 $,KDLF,2023-05-30T21:55:00Z,29.37,-100.78,32.2,18.4,120,9,,7.0,29.799213,1008.0,,,TRUE,TRUE,,,,,,CLR,,,,,,,,VFR,,,,,,,,,,,,METAR,328.0
KDKX 302155Z AUTO 00000KT 10SM FEW060 29/15 A2995 RMK A01,KDKX,2023-05-30T21:55:00Z,35.97,-83.87,29.0,15.0,0,0,,10.0,29.949802,,,TRUE,TRUE,,,,,,,FEW,6000,,,,,,,VFR,,,,,,,,,,,,METAR,253.0
KDEH 302155Z AUTO 17008G16KT 10SM CLR 30/06 A2987 RMK AO2,KDEH,2023-05-30T21:55:00Z,43.27,-91.73,30.0,6.0,170,8,16,10.0,29.870079,,,TRUE,TRUE,,,,,,,CLR,,,,,,,,VFR,,,,,,,,,,,,METAR,348.0
KD95 302155Z AUTO 16009KT 10SM CLR 31/09 A3001 RMK AO2 T03090093,KD95,2023-05-30T21:55:00Z,43.07,-83.27,30.9,9.3,160,9,,10.0,30.008858,,,TRUE,TRUE,,,,,,,CLR,,,,,,,,VFR,,,,,,,,,,,,METAR,253.0
KD39 302155Z AUTO 21013G19KT 10SM SCT050 SCT120 29/16 A2978 RMK AO2 T02900160,KD39,2023-05-30T21:55:00Z,45.7,-94.93,29.0,16.0,210,13,19,10.0,29.778543,,,TRUE,TRUE,,,,,,,SCT,5000,SCT,12000,,,,,VFR,,,,,,,,,,,,SPECI,378.0
KCZT 302155Z AUTO 10SM CLR 32/18 A2983 RMK AO2,KCZT,2023-05-30T21:55:00Z,28.52,-99.82,32.0,18.0,,,,10.0,29.828741,,,TRUE,TRUE,,,,,,,CLR,,,,,,,,VFR,,,,,,,,,,,,METAR,176.0
KCZL 302155Z AUTO 12005KT 10SM SCT080 SCT090 28/15 A2995 RMK AO2,KCZL,2023-05-30T21:55:00Z,34.47,-84.93,28.0,15.0,120,5,,10.0,29.949802,,,TRUE,TRUE,,,,,,,SCT,8000,SCT,9000,,,,,VFR,,,,,,,,,,,,METAR,197.0
KCXW 302155Z AUTO 00000KT 9SM CLR 30/16 A2990 RMK A01,KCXW,2023-05-30T21:55:00Z,35.02,-92.55,30.0,16.0,0,0,,9.0,29.899607,,,TRUE,TRUE,,,,,,,CLR,,,,,,,,VFR,,,,,,,,,,,,METAR,84.0
KCXU 302155Z AUTO 00000KT 10SM BKN070 27/15 A2990 RMK AO1 T02720145,KCXU,2023-05-30T21:55:00Z,31.22,-84.23,27.2,14.5,0,0,,10.0,29.899607,,,TRUE,TRUE,,,,,,,BKN,7000,,,,,,,VFR,,,,,,,,,,,,METAR,48.0
KCXP 302155Z AUTO 34004KT 10SM CLR 24/01 A2988 RMK AO2 LTG DSNT NW,KCXP,2023-05-30T21:55:00Z,39.18,-119.73,24.0,1.0,340,4,,10.0,29.878937,,,TRUE,TRUE,,,,,,,CLR,,,,,,,,VFR,,,,,,,,,,,,METAR,1431.0
KCWN 302155Z AUTO 30004KT 10SM FEW130 FEW160 SCT240 21/05 A3004 RMK AO2 LTG DSNT N AND SE SLP994 T02140049 $,KCWN,2023-05-30T21:55:00Z,38.75,-104.85,21.4,4.9,300,4,,10.0,30.041338,999.4,,TRUE,TRUE,TRUE,,,,,,FEW,13000,FEW,16000,SCT,24000,,,VFR,,,,,,,,,,,,METAR,2040.0
KCWC 302155Z AUTO 16011G15KT 7SM CLR 30/16 A2989 RMK AO2 T03010162,KCWC,2023-05-30T21:55:00Z,33.85,-98.48,30.1,16.2,160,11,15,7.0,29.890747,,,TRUE,TRUE,,,,,,,CLR,,,,,,,,VFR,,,,,,,,,,,,METAR,304.0
KCVS 302155Z AUTO 13009KT 10SM FEW190 29/11 A2992 RMK AO2 SLP074 T02920113 $,KCVS,2023-05-30T21:55:00Z,34.37,-103.32,29.2,11.3,130,9,,10.0,29.920275,1007.4,,TRUE,TRUE,TRUE,,,,,,FEW,19000,,,,,,,VFR,,,,,,,,,,,,METAR,1305.0
KCVH 302155Z AUTO 25014KT 10SM CLR 20/11 A2996 RMK A01,KCVH,2023-05-30T21:55:00Z,36.9,-121.42,20.0,11.0,250,14,,10.0,29.958662,,,TRUE,TRUE,,,,,,,CLR,,,,,,,,VFR,,,,,,,,,,,,METAR,68.0
KCUH 302155Z AUTO 17007KT 10SM SCT055 30/16 A2989 RMK AO2 LTG DSNT N T03020161,KCUH,2023-05-30T21:55:00Z,35.95,-96.77,30.2,16.1,170,7,,10.0,29.890747,,,TRUE,TRUE,,,,,,,SCT,5500,,,,,,,VFR,,,,,,,,,,,,METAR,274.0
KCTY 302155Z AUTO 25009KT 10SM CLR 29/16 A2989 RMK AO2,KCTY,2023-05-30T21:55:00Z,29.63,-83.1,29.0,16.0,250,9,,10.0,29.890747,,,TRUE,TRUE,,,,,,,CLR,,,,,,,,VFR,,,,,,,,,,,,METAR,12.0
KCSQ 302155Z AUTO 19014KT 10SM SCT055 SCT065 SCT090 29/16 A2986 RMK AO2,KCSQ,2023-05-30T21:55:00Z,41.02,-94.37,29.0,16.0,190,14,,10.0,29.861221,,,TRUE,TRUE,,,,,,,SCT,5500,SCT,6500,SCT,9000,,,VFR,,,,,,,,,,,,METAR,394.0
KCRX 302155Z AUTO 05005KT 10SM SCT050 BKN090 27/17 A2993 RMK AO2,KCRX,2023-05-30T21:55:00Z,34.92,-88.6,27.0,17.0,50,5,,10.0,29.929134,,,TRUE,TRUE,,,,,,,SCT,5000,BKN,9000,,,,,VFR,,,,,,,,,,,,METAR,128.0
KCQM 302155Z AUTO 19004KT 10SM CLR 27/13 A2981 RMK AO2,KCQM,2023-05-30T21:55:00Z,47.82,-92.68,27.0,13.0,190,4,,10.0,29.811024,,,TRUE,TRUE,,,,,,,CLR,,,,,,,,VFR,,,,,,,,,,,,METAR,406.0
KCQF 302155Z AUTO 01004KT 10SM BKN065 OVC075 29/14 A2988 RMK AO2,KCQF,2023-05-30T21:55:00Z,30.47,-87.88,29.0,14.0,10,4,,10.0,29.878937,,,TRUE,TRUE,,,,,,,BKN,6500,OVC,7500,,,,,VFR,,,,,,,,,,,,METAR,21.0
KCPU 302155Z AUTO 36004KT 10SM CLR 23/08 A2991 RMK AO2 T02250077,KCPU,2023-05-30T21:55:00Z,38.15,-120.65,22.5,7.7,360,4,,10.0,29.911417,,,TRUE,TRUE,,,,,,,CLR,,,,,,,,VFR,,,,,,,,,,,,METAR,400.0
KCPP 302155Z AUTO 00000KT 10SM CLR 26/16 A2995 RMK AO2,KCPP,2023-05-30T21:55:00Z,,,26.0,16.0,0,0,,10.0,29.949802,,,TRUE,TRUE,,,,,,,CLR,,,,,,,,VFR,,,,,,,,,,,,METAR,
KCOQ 302155Z AUTO 11005KT 10SM SCT012 SCT050 BKN070 20/13 A2983 RMK AO2 TSNO,KCOQ,2023-05-30T21:55:00Z,46.7,-92.5,20.0,13.0,110,5,,10.0,29.828741,,,TRUE,TRUE,,,TRUE,,,,SCT,1200,SCT,5000,BKN,7000,,,VFR,,,,,,,,,,,,METAR,390.0
KCOF 302155Z AUTO 10011KT 10SM CLR 28/20 A2987 RMK AO2 SLP119 T02790202 $,KCOF,2023-05-30T21:55:00Z,28.23,-80.6,27.9,20.2,100,11,,10.0,29.870079,1011.9,,TRUE,TRUE,TRUE,,,,,,CLR,,,,,,,,VFR,,,,,,,,,,,,METAR,1.0
KCNW 302155Z 11010KT 7SM SCT033 23/20 A2990,KCNW,2023-05-30T21:55:00Z,31.63,-97.07,23.0,20.0,110,10,,7.0,29.899607,,,,,,,,,,,SCT,3300,,,,,,,VFR,,,,,,,,,,,,METAR,139.0
KCNK 302155Z AUTO 10SM CLR 32/14 A2983 RMK AO2 SLP085 T03170139,KCNK,2023-05-30T21:55:00Z,39.55,-97.65,31.7,13.9,,,,10.0,29.828741,1008.5,,TRUE,TRUE,,,,,,,CLR,,,,,,,,VFR,,,,,,,,,,,,METAR,445.0
KCNI 302155Z AUTO 10008KT 080V140 10SM SCT048 SCT060 BKN080 25/15 A2998 RMK AO2 T02460149,KCNI,2023-05-30T21:55:00Z,34.32,-84.42,24.6,14.9,100,8,,10.0,29.97933,,,TRUE,TRUE,,,,,,,SCT,4800,SCT,6000,BKN,8000,,,VFR,,,,,,,,,,,,METAR,371.0
KCNC 302155Z AUTO 17009G16KT 10SM SCT070 30/14 A2987 RMK AO2,KCNC,2023-05-30T21:55:00Z,41.02,-93.37,30.0,14.0,170,9,16,10.0,29.870079,,,TRUE,TRUE,,,,,,,SCT,7000,,,,,,,VFR,,,,,,,,,,,,METAR,319.0
KCNB 302155Z AUTO 00000KT 10SM -DZ SCT035 SCT047 SCT055 28/16 A2978 RMK AO2 LTG DSNT SW T02750162,KCNB,2023-05-30T21:55:00Z,44.73,-96.27,27.5,16.2,0,0,,10.0,29.778543,,,TRUE,TRUE,,,,,,-DZ,SCT,3500,SCT,4700,SCT,5500,,,VFR,,,,,,,,,,,,METAR,363.0
KCMD 302155Z AUTO VRB03KT 4SM HZ FEW047 SCT070 SCT085 27/17 A2996 RMK AO2,KCMD,2023-05-30T21:55:00Z,34.27,-86.85,27.0,17.0,0,3,,4.0,29.958662,,,TRUE,TRUE,,,,,,HZ,FEW,4700,SCT,7000,SCT,8500,,,MVFR,,,,,,,,,,,,METAR,294.0
KCMA 302155Z 23007KT 10SM BKN055 20/11 A2996 RMK AO2 SLP152 T02000111,KCMA,2023-05-30T21:55:00Z,34.22,-119.1,20.0,11.1,230,7,,10.0,29.958662,1015.2,,,TRUE,,,,,,,BKN,5500,,,,,,,VFR,,,,,,,,,,,,METAR,20.0
KCKZ 302155Z AUTO 07007KT 10SM CLR 21/05 A3017 RMK AO2,KCKZ,2023-05-30T21:55:00Z,40.38,-75.28,21.0,5.0,70,7,,10.0,30.171259,,,TRUE,TRUE,,,,,,,CLR,,,,,,,,VFR,,,,,,,,,,,,METAR,160.0
KCKN 302155Z AUTO 00000KT 10SM SCT110 29/11 A2972 RMK AO2 LTG DSNT E AND SE,KCKN,2023-05-30T21:55:00Z,47.85,-96.62,29.0,11.0,0,0,,10.0,29.719488,,,TRUE,TRUE,,,,,,,SCT,11000,,,,,,,VFR,,,,,,,,,,,,SPECI,272.0
KCII 302155Z AUTO 00000KT 10SM 25/02 A2979 RMK A01 ,KCII,2023-05-30T21:55:00Z,47.83,-112.17,25.0,2.0,0,0,,10.0,29.790354,,,TRUE,TRUE,,,,,,,,,,,,,,,,,,,,,,,,,,,METAR,1202.0
KCFS 302155Z AUTO 15005KT 10SM SCT100 31/09 A2999 RMK AO2 T03110092,KCFS,2023-05-30T21:55:00Z,43.47,-83.45,31.1,9.2,150,5,,10.0,29.991142,,,TRUE,TRUE,,,,,,,SCT,10000,,,,,,,VFR,,,,,,,,,,,,SPECI,214.0
KCFE 302155Z AUTO 18009G15KT 10SM CLR 28/18 A2978 RMK AO2 LTG DSNT SW,KCFE,2023-05-30T21:55:00Z,45.17,-93.85,28.0,18.0,180,9,15,10.0,29.778543,,,TRUE,TRUE,,,,,,,CLR,,,,,,,,VFR,,,,,,,,,,,,METAR,292.0
KCEY 302155Z AUTO 00000KT 10SM OVC085 28/15 A2993 RMK A01,KCEY,2023-05-30T21:55:00Z,36.67,-88.37,28.0,15.0,0,0,,10.0,29.929134,,,TRUE,TRUE,,,,,,,OVC,8500,,,,,,,VFR,,,,,,,,,,,,METAR,172.0
KCDI 302155Z AUTO 15005KT 10SM CLR 28/15 A3003 RMK AO2 T02790150,KCDI,2023-05-30T21:55:00Z,39.97,-81.58,27.9,15.0,150,5,,10.0,30.029528,,,TRUE,TRUE,,,,,,,CLR,,,,,,,,VFR,,,,,,,,,,,,METAR,241.0
KCDD 302155Z AUTO 16006KT 7SM SCT050 25/13 A2983 RMK AO2 PWINO,KCDD,2023-05-30T21:55:00Z,48.27,-92.48,25.0,13.0,160,6,,7.0,29.828741,,,TRUE,TRUE,,,,,TRUE,,SCT,5000,,,,,,,VFR,,,,,,,,,,,,METAR,344.0
KCDA 302155Z AUTO 11006KT 10SM CLR 26/08 A3013 RMK AO2 T02570079,KCDA,2023-05-30T21:55:00Z,44.57,-72.02,25.7,7.9,110,6,,10.0,30.129921,,,TRUE,TRUE,,,,,,,CLR,,,,,,,,VFR,,,,,,,,,,,,METAR,357.0
KCCU 302155Z AUTO 15006KT 10SM SCT040 BKN060 OVC070 09/M07 A3040 RMK AO2,KCCU,2023-05-30T21:55:00Z,39.48,-106.15,9.0,-7.0,150,6,,10.0,30.398623,,,TRUE,TRUE,,,,,,,SCT,4000,BKN,6000,OVC,7000,,,VFR,,,,,,,,,,,,METAR,3672.0
KCCB 302155Z AUTO 25011KT 10SM BKN027 BKN033 OVC043 17/11 A2995 RMK AO2,KCCB,2023-05-30T21:55:00Z,34.12,-117.68,17.0,11.0,250,11,,10.0,29.949802,,,TRUE,TRUE,,,,,,,BKN,2700,BKN,3300,OVC,4300,,,MVFR,,,,,,,,,,,,METAR,440.0
KCBM 302155Z 07006KT 10SM SCT055 29/12 A2988 RMK AO2A SLP121 ALSTG/SLP ESTMD $,KCBM,2023-05-30T21:55:00Z,33.65,-88.45,29.0,12.0,70,6,,10.0,29.878937,1012.1,,,TRUE,TRUE,,,,,,SCT,5500,,,,,,,VFR,,,,,,,,,,,,METAR,59.0
KCBG 302155Z AUTO 17011G19KT 10SM CLR 32/17 A2981 RMK AO2 LTG DSNT NE,KCBG,2023-05-30T21:55:00Z,45.57,-93.27,32.0,17.0,170,11,19,10.0,29.811024,,,TRUE,TRUE,,,,,,,CLR,,,,,,,,VFR,,,,,,,,,,,,METAR,285.0
KCAO 302155Z AUTO 18017KT 10SM CLR 26/10 A2995 RMK AO2 PK WND 18027/2133 SLP079 T02610100,KCAO,2023-05-30T21:55:00Z,36.45,-103.15,26.1,10.0,180,17,,10.0,29.949802,1007.9,,TRUE,TRUE,,,,,,,CLR,,,,,,,,VFR,,,,,,,,,,,,METAR,1517.0
KC83 302155Z AUTO 25012G19KT 10SM CLR 24/09 A2990 RMK AO2,KC83,2023-05-30T21:55:00Z,37.83,-121.62,24.0,9.0,250,12,19,10.0,29.899607,,,TRUE,TRUE,,,,,,,CLR,,,,,,,,VFR,,,,,,,,,,,,METAR,16.0
KC09 302155Z AUTO 18006KT 10SM BKN100 32/11 A2991 RMK AO2 T03200112,KC09,2023-05-30T21:55:00Z,41.43,-88.42,32.0,11.2,180,6,,10.0,29.911417,,,TRUE,TRUE,,,,,,,BKN,10000,,,,,,,VFR,,,,,,,,,,,,METAR,179.0
KBYY 302155Z AUTO 14008KT 10SM CLR 26/22 A2989 RMK AO2 T02640219,KBYY,2023-05-30T21:55:00Z,28.97,-95.87,26.4,21.9,140,8,,10.0,29.890747,,,TRUE,TRUE,,,,,,,CLR,,,,,,,,VFR,,,,,,,,,,,,METAR,12.0
KBYS 302155Z AUTO 18015KT 10SM CLR 28/M01 A2977 RMK AO2 SLP059 T02801011 $,KBYS,2023-05-30T21:55:00Z,35.28,-116.63,28.0,-1.1,180,15,,10.0,29.769686,1005.9,,TRUE,TRUE,TRUE,,,,,,CLR,,,,,,,,VFR,,,,,,,,,,,,METAR,717.0
KBYL 302155Z AUTO 09006KT 10SM CLR 27/14 A2997 RMK AO1,KBYL,2023-05-30T21:55:00Z,36.8,-84.2,27.0,14.0,90,6,,10.0,29.970472,,,TRUE,TRUE,,,,,,,CLR,,,,,,,,VFR,,,,,,,,,,,,METAR,355.0
KBXK 302155Z AUTO 24010KT 210V270 9SM CLR 35/M02 A2976 RMK A01,KBXK,2023-05-30T21:55:00Z,33.42,-112.68,35.0,-2.0,240,10,,9.0,29.760826,,,TRUE,TRUE,,,,,,,CLR,,,,,,,,VFR,,,,,,,,,,,,METAR,303.0
KBXA 302155Z AUTO 16004KT 10SM BKN070 OVC085 30/20 A2988 RMK AO2 T02950196,KBXA,2023-05-30T21:55:00Z,30.82,-89.87,29.5,19.6,160,4,,10.0,29.878937,,,TRUE,TRUE,,,,,,,BKN,7000,OVC,8500,,,,,VFR,,,,,,,,,,,,METAR,35.0
KBWP 302155Z AUTO 05005KT 10SM FEW080 FEW095 SCT120 28/16 A2971 RMK AO2 LTG DSNT E,KBWP,2023-05-30T21:55:00Z,46.25,-96.62,28.0,16.0,50,5,,10.0,29.71063,,,TRUE,TRUE,,,,,,,FEW,8000,FEW,9500,SCT,12000,,,VFR,,,,,,,,,,,,METAR,294.0
KBVI 302155Z AUTO 08003KT 10SM CLR 29/05 A3007 RMK AO2 T02910052,KBVI,2023-05-30T21:55:00Z,40.77,-80.37,29.1,5.2,80,3,,10.0,30.070866,,,TRUE,TRUE,,,,,,,CLR,,,,,,,,VFR,,,,,,,,,,,,METAR,387.0
KBTN 302155Z AUTO 26008G18KT 10SM CLR 30/07 A2974 RMK AO2,KBTN,2023-05-30T21:55:00Z,45.82,-97.75,30.0,7.0,260,8,18,10.0,29.740158,,,TRUE,TRUE,,,,,,,CLR,,,,,,,,VFR,,,,,,,,,,,,METAR,400.0
KBTA 302155Z AUTO 17011G18KT 10SM SCT090 33/11 A2981 RMK AO2 LTG DSNT SE T03250106,KBTA,2023-05-30T21:55:00Z,41.42,-96.12,32.5,10.6,170,11,18,10.0,29.811024,,,TRUE,TRUE,,,,,,,SCT,9000,,,,,,,VFR,,,,,,,,,,,,METAR,400.0
KBQX 302155Z AUTO 10009G16KT 080V140 10SM FEW028 FEW035 27/21 A2989 RMK A01,KBQX,2023-05-30T21:55:00Z,28.5,-95.72,27.0,21.0,100,9,16,10.0,29.890747,,,TRUE,TRUE,,,,,,,FEW,2800,FEW,3500,,,,,VFR,,,,,,,,,,,,METAR,34.0
KBPC 302155Z AUTO 16011G17KT 10SM SCT050 30/15 A2990 RMK AO2,KBPC,2023-05-30T21:55:00Z,35.88,-101.03,30.0,15.0,160,11,17,10.0,29.899607,,,TRUE,TRUE,,,,,,,SCT,5000,,,,,,,VFR,,,,,,,,,,,,METAR,844.0
KBKD 302155Z AUTO 16004KT 5SM HZ CLR 32/16 A2988 RMK AO2 T03160160,KBKD,2023-05-30T21:55:00Z,32.72,-98.88,31.6,16.0,160,4,,5.0,29.878937,,,TRUE,TRUE,,,,,,HZ,CLR,,,,,,,,MVFR,,,,,,,,,,,,METAR,383.0
KBJI 302155Z AUTO 09007KT 10SM CLR 25/15 A2977 RMK AO2 LTG DSNT ALQS T02450152,KBJI,2023-05-30T21:55:00Z,47.5,-94.92,24.5,15.2,90,7,,10.0,29.769686,,,TRUE,TRUE,,,,,,,CLR,,,,,,,,VFR,,,,,,,,,,,,SPECI,422.0
KBIJ 302155Z AUTO 00000KT 10SM OVC070 26/14 A2991 RMK AO2,KBIJ,2023-05-30T21:55:00Z,31.4,-84.9,26.0,14.0,0,0,,10.0,29.911417,,,TRUE,TRUE,,,,,,,OVC,7000,,,,,,,VFR,,,,,,,,,,,,METAR,63.0
KBGF 302155Z AUTO 00000KT 10SM SCT080 BKN090 26/15 A2994 RMK A01,KBGF,2023-05-30T21:55:00Z,35.18,-86.07,26.0,15.0,0,0,,10.0,29.940945,,,TRUE,TRUE,,,,,,,SCT,8000,BKN,9000,,,,,VFR,,,,,,,,,,,,METAR,295.0
KBGE 302155Z AUTO 04007KT 10SM SCT050 OVC070 27/15 A2990 RMK AO2 T02730154,KBGE,2023-05-30T21:55:00Z,30.97,-84.63,27.3,15.4,40,7,,10.0,29.899607,,,TRUE,TRUE,,,,,,,SCT,5000,OVC,7000,,,,,VFR,,,,,,,,,,,,METAR,40.0
KBDH 302155Z AUTO 19005KT 10SM SCT060 31/16 A2980 RMK AO2,KBDH,2023-05-30T21:55:00Z,45.12,-95.13,31.0,16.0,190,5,,10.0,29.799213,,,TRUE,TRUE,,,,,,,SCT,6000,,,,,,,VFR,,,,,,,,,,,,METAR,341.0
KBAX 302155Z AUTO 12004KT 10SM CLR 28/17 A3001 RMK AO2 T02800170,KBAX,2023-05-30T21:55:00Z,43.78,-82.98,28.0,17.0,120,4,,10.0,30.008858,,,TRUE,TRUE,,,,,,,CLR,,,,,,,,VFR,,,,,,,,,,,,SPECI,229.0
KBAM 302155Z AUTO 19003KT 10SM SCT100 27/00 A2985 RMK AO1,KBAM,2023-05-30T21:55:00Z,40.6,-116.87,27.0,0.0,190,3,,10.0,29.84941,,,TRUE,TRUE,,,,,,,SCT,10000,,,,,,,VFR,,,,,,,,,,,,METAR,1381.0
KBAD 302155Z AUTO 08007KT 10SM CLR 32/13 A2987 RMK AO2 SLP117 T03190126,KBAD,2023-05-30T21:55:00Z,32.5,-93.67,31.9,12.6,80,7,,10.0,29.870079,1011.7,,TRUE,TRUE,,,,,,,CLR,,,,,,,,VFR,,,,,,,,,,,,METAR,49.0
KBAC 302155Z AUTO 27010G17KT 10SM CLR 29/12 A2974 RMK AO2,KBAC,2023-05-30T21:55:00Z,46.93,-98.02,29.0,12.0,270,10,17,10.0,29.740158,,,TRUE,TRUE,,,,,,,CLR,,,,,,,,VFR,,,,,,,,,,,,METAR,423.0
KBAB 302155Z AUTO 17010KT 10SM CLR 26/11 A2985 RMK AO2 SLP111 T02550113 $,KBAB,2023-05-30T21:55:00Z,39.13,-121.43,25.5,11.3,170,10,,10.0,29.84941,1011.1,,TRUE,TRUE,TRUE,,,,,,CLR,,,,,,,,VFR,,,,,,,,,,,,METAR,31.0
KAZC 302155Z AUTO 14006KT 10SM CLR 29/M06 A2996 RMK AO2,KAZC,2023-05-30T21:55:00Z,36.97,-113.02,29.0,-6.0,140,6,,10.0,29.958662,,,TRUE,TRUE,,,,,,,CLR,,,,,,,,VFR,,,,,,,,,,,,METAR,1476.0
KAXX 302155Z AUTO 25008KT 220V280 10SM SCT110 20/M03 A3017 RMK AO2 T02041028,KAXX,2023-05-30T21:55:00Z,36.42,-105.28,20.4,-2.8,250,8,,10.0,30.171259,,,TRUE,TRUE,,,,,,,SCT,11000,,,,,,,VFR,,,,,,,,,,,,METAR,2543.0
KAXV 302155Z AUTO 15010KT 10SM BKN065 30/14 A2998 RMK AO2,KAXV,2023-05-30T21:55:00Z,40.5,-84.3,30.0,14.0,150,10,,10.0,29.97933,,,TRUE,TRUE,,,,,,,BKN,6500,,,,,,,VFR,,,,,,,,,,,,METAR,278.0
KAXS 302155Z AUTO 16006KT 10SM CLR 32/14 A2989 RMK AO2 T03170140,KAXS,2023-05-30T21:55:00Z,34.7,-99.33,31.7,14.0,160,6,,10.0,29.890747,,,TRUE,TRUE,,,,,,,CLR,,,,,,,,VFR,,,,,,,,,,,,METAR,433.0
KAXH 302155Z AUTO 22004KT 10SM SCT048 BKN050 28/20 A2989 RMK AO2 T02810202,KAXH,2023-05-30T21:55:00Z,29.52,-95.48,28.1,20.2,220,4,,10.0,29.890747,,,TRUE,TRUE,,,,,,,SCT,4800,BKN,5000,,,,,VFR,,,,,,,,,,,,METAR,18.0
KAVQ 302155Z AUTO 23012G15KT 10SM 36/M08 A2979 RMK AO2 T03551083,KAVQ,2023-05-30T21:55:00Z,32.4,-111.22,35.5,-8.3,230,12,15,10.0,29.790354,,,TRUE,TRUE,,,,,,,,,,,,,,,,,,,,,,,,,,,METAR,618.0
KAST 302155Z AUTO 31013KT 10SM BKN049 15/05 A3009 RMK AO2 SLP189 T01500050,KAST,2023-05-30T21:55:00Z,46.15,-123.88,15.0,5.0,310,13,,10.0,30.088583,1018.9,,TRUE,TRUE,,,,,,,BKN,4900,,,,,,,VFR,,,,,,,,,,,,METAR,3.0
KASN 302155Z AUTO 00000KT 10SM OVC090 27/16 A2993 RMK AO2 T02700159,KASN,2023-05-30T21:55:00Z,33.57,-86.05,27.0,15.9,0,0,,10.0,29.929134,,,TRUE,TRUE,,,,,,,OVC,9000,,,,,,,VFR,,,,,,,,,,,,METAR,159.0
KARM 302155Z AUTO 10003KT 10SM SCT100 SCT120 26/21 A2991 RMK AO2 T02620211 TSNO,KARM,2023-05-30T21:55:00Z,29.25,-96.15,26.2,21.1,100,3,,10.0,29.911417,,,TRUE,TRUE,,,TRUE,,,,SCT,10000,SCT,12000,,,,,VFR,,,,,,,,,,,,METAR,29.0
KANQ 302155Z AUTO 15004KT 10SM CLR 29/13 A2997 RMK AO2,KANQ,2023-05-30T21:55:00Z,41.63,-85.08,29.0,13.0,150,4,,10.0,29.970472,,,TRUE,TRUE,,,,,,,CLR,,,,,,,,VFR,,,,,,,,,,,,METAR,299.0
KANJ 302155Z AUTO 15012G18KT 10SM CLR 29/11 A2998 RMK AO2 SLP146 T02890106,KANJ,2023-05-30T21:55:00Z,46.47,-84.37,28.9,10.6,150,12,18,10.0,29.97933,1014.6,,TRUE,TRUE,,,,,,,CLR,,,,,,,,VFR,,,,,,,,,,,,METAR,220.0
KANE 302155Z 18014G20KT 10SM SCT070 SCT130 BKN250 31/15 A2980 RMK TCU DSNT SE-NE,KANE,2023-05-30T21:55:00Z,45.15,-93.22,31.0,15.0,180,14,20,10.0,29.799213,,,,,,,,,,,SCT,7000,SCT,13000,BKN,25000,,,VFR,,,,,,,,,,,,METAR,276.0
KAMN 302155Z AUTO 12009KT 10SM SCT085 SCT110 32/09 A2998 RMK AO2 T03200089,KAMN,2023-05-30T21:55:00Z,43.32,-84.68,32.0,8.9,120,9,,10.0,29.97933,,,TRUE,TRUE,,,,,,,SCT,8500,SCT,11000,,,,,VFR,,,,,,,,,,,,METAR,228.0
KALX 302155Z AUTO 09003KT 10SM SCT080 27/16 A2993 RMK AO2 T02660157,KALX,2023-05-30T21:55:00Z,32.92,-85.97,26.6,15.7,90,3,,10.0,29.929134,,,TRUE,TRUE,,,,,,,SCT,8000,,,,,,,VFR,,,,,,,,,,,,METAR,198.0
KALM 302155Z AUTO 21009G16KT 10SM CLR 33/M05 A2989 RMK AO2,KALM,2023-05-30T21:55:00Z,32.83,-105.98,33.0,-5.0,210,9,16,10.0,29.890747,,,TRUE,TRUE,,,,,,,CLR,,,,,,,,VFR,,,,,,,,,,,,METAR,1267.0
KAJZ 302155Z AUTO 20005G15KT 10SM CLR 29/M13 A2993 RMK AO2 T02921128 PWINO,KAJZ,2023-05-30T21:55:00Z,38.78,-108.07,29.2,-12.8,200,5,15,10.0,29.929134,,,TRUE,TRUE,,,,,TRUE,,CLR,,,,,,,,VFR,,,,,,,,,,,,METAR,1583.0
KAJG 302155Z AUTO 20004KT 10SM VCTS SCT060 SCT070 SCT090 31/15 A2991 RMK AO2 T03140153,KAJG,2023-05-30T21:55:00Z,38.62,-87.73,31.4,15.3,200,4,,10.0,29.911417,,,TRUE,TRUE,,,,,,VCTS,SCT,6000,SCT,7000,SCT,9000,,,VFR,,,,,,,,,,,,METAR,130.0
KAIT 302155Z AUTO 00000KT 10SM -RA SCT065 25/17 A2979 RMK AO2 LTG DSNT ALQDS,KAIT,2023-05-30T21:55:00Z,46.53,-93.67,25.0,17.0,0,0,,10.0,29.790354,,,TRUE,TRUE,,,,,,-RA,SCT,6500,,,,,,,VFR,,,,,,,,,,,,METAR,367.0
KAGI 302155Z AUTO 10014KT 10SM CLR 29/19 A2987 RMK AO2 T02880188,KAGI,2023-05-30T21:55:00Z,27.55,-92.45,28.8,18.8,100,14,,10.0,29.870079,,,TRUE,TRUE,,,,,,,CLR,,,,,,,,VFR,,,,,,,,,,,,METAR,41.0
KAFF 302155Z 33014KT 10SM SCT090 BKN120 22/M01 A3002 RMK AO2A SLPNO T02191008,KAFF,2023-05-30T21:55:00Z,38.97,-104.82,21.9,-0.8,330,14,,10.0,30.02067,,,,TRUE,,,,,,,SCT,9000,BKN,12000,,,,,VFR,,,,,,,,,,,,METAR,2003.0
KAEL 302155Z AUTO 18009KT 10SM CLR 29/13 A2984 RMK AO2 LTG DSNT SW,KAEL,2023-05-30T21:55:00Z,43.68,-93.37,29.0,13.0,180,9,,10.0,29.840551,,,TRUE,TRUE,,,,,,,CLR,,,,,,,,VFR,,,,,,,,,,,,METAR,382.0
KAEJ 302155Z AUTO 28008G22KT 10SM SCT085 BKN100 18/M04 A3013 RMK AO2 LTG DSNT N T01751039,KAEJ,2023-05-30T21:55:00Z,38.82,-106.12,17.5,-3.9,280,8,22,10.0,30.129921,,,TRUE,TRUE,,,,,,,SCT,8500,BKN,10000,,,,,VFR,,,,,,,,,,,,METAR,2420.0
KACQ 302155Z AUTO 21012KT 10SM SCT070 BKN100 25/17 A2986 RMK AO2 LTG DSNT SW,KACQ,2023-05-30T21:55:00Z,44.07,-93.55,25.0,17.0,210,12,,10.0,29.861221,,,TRUE,TRUE,,,,,,,SCT,7000,BKN,10000,,,,,VFR,,,,,,,,,,,,SPECI,339.0
KACP 302155Z AUTO 00000KT 10SM CLR 29/21 A2988 RMK AO2 LTG DSNT S,KACP,2023-05-30T21:55:00Z,30.75,-92.68,29.0,21.0,0,0,,10.0,29.878937,,,TRUE,TRUE,,,,,,,CLR,,,,,,,,VFR,,,,,,,,,,,,METAR,31.0
KACB 302155Z AUTO 32003KT 10SM CLR 29/08 A2997 RMK AO2 T02880084,KACB,2023-05-30T21:55:00Z,44.98,-85.2,28.8,8.4,320,3,,10.0,29.970472,,,TRUE,TRUE,,,,,,,CLR,,,,,,,,VFR,,,,,,,,,,,,METAR,189.0
KABH 302155Z AUTO 15006KT 10SM FEW080 SCT160 26/02 A3000 RMK AO2 LTG DSNT N AND SW SLP086 T02550022,KABH,2023-05-30T21:55:00Z,38.75,-104.3,25.5,2.2,150,6,,10.0,30.0,1008.6,,TRUE,TRUE,,,,,,,FEW,8000,SCT,16000,,,,,VFR,,,,,,,,,,,,METAR,1838.0
KAAT 302155Z AUTO VRB05KT 10SM FEW055 FEW070 BKN100 23/09 A2989 RMK AO2 LTG DSNT NE SLP086 T02330089,KAAT,2023-05-30T21:55:00Z,41.48,-120.57,23.3,8.9,0,5,,10.0,29.890747,1008.6,,TRUE,TRUE,,,,,,,FEW,5500,FEW,7000,BKN,10000,,,VFR,,,,,,,,,,,,METAR,1336.0
KAAS 302155Z AUTO 18003KT 10SM CLR 28/16 A3000 RMK AO1,KAAS,2023-05-30T21:55:00Z,37.35,-85.32,28.0,16.0,180,3,,10.0,30.0,,,TRUE,TRUE,,,,,,,CLR,,,,,,,,VFR,,,,,,,,,,,,METAR,270.0
K9S9 302155Z AUTO 29020G25KT 10SM CLR 27/M09 A2986 RMK AO2 PWINO,K9S9,2023-05-30T21:55:00Z,45.45,-119.68,27.0,-9.0,290,20,25,10.0,29.861221,,,TRUE,TRUE,,,,,TRUE,,CLR,,,,,,,,VFR,,,,,,,,,,,,METAR,498.0
K9MN 302155Z AUTO 13011G16KT 110V170 10SM SCT080 BKN110 30/11 A2985 RMK AO1 T03010105,K9MN,2023-05-30T21:55:00Z,44.02,-92.48,30.1,10.5,130,11,16,10.0,29.84941,,,TRUE,TRUE,,,,,,,SCT,8000,BKN,11000,,,,,VFR,,,,,,,,,,,,METAR,308.0
K9L2 302155Z AUTO 21017G21KT 10SM FEW150 SCT310 24/03 A2985 RMK AO2 SLP092 T02400033,K9L2,2023-05-30T21:55:00Z,34.98,-117.87,24.0,3.3,210,17,21,10.0,29.84941,1009.2,,TRUE,TRUE,,,,,,,FEW,15000,SCT,31000,,,,,VFR,,,,,,,,,,,,METAR,697.0
K9A5 302155Z AUTO 06005KT 10SM BKN050 BKN070 OVC085 27/15 A2995 RMK AO2 T02690145,K9A5,2023-05-30T21:55:00Z,34.68,-85.28,26.9,14.5,60,5,,10.0,29.949802,,,TRUE,TRUE,,,,,,,BKN,5000,BKN,7000,OVC,8500,,,VFR,,,,,,,,,,,,METAR,234.0
K8A3 302155Z AUTO 20004KT 10SM FEW060 FEW100 26/16 A2996 RMK A01,K8A3,2023-05-30T21:55:00Z,36.42,-85.32,26.0,16.0,200,4,,10.0,29.958662,,,TRUE,TRUE,,,,,,,FEW,6000,FEW,10000,,,,,VFR,,,,,,,,,,,,METAR,413.0
K81R 302155Z AUTO 14006KT 10SM CLR 31/16 A2990 RMK AO2 T03050162,K81R,2023-05-30T21:55:00Z,31.23,-98.72,30.5,16.2,140,6,,10.0,29.899607,,,TRUE,TRUE,,,,,,,CLR,,,,,,,,VFR,,,,,,,,,,,,METAR,381.0
K6S8 302155Z AUTO 00000KT 10SM 27/04 A2982 RMK A01 Laurel ,K6S8,2023-05-30T21:55:00Z,45.7,-108.77,27.0,4.0,0,0,,10.0,29.819881,,,TRUE,TRUE,,,,,,,,,,,,,,,,,,,,,,,,,,,METAR,1072.0
K6S2 302155Z AUTO 34020G28KT 10SM CLR 15/08 A3004 RMK AO2,K6S2,2023-05-30T21:55:00Z,43.98,-124.12,15.0,8.0,340,20,28,10.0,30.041338,,,TRUE,TRUE,,,,,,,CLR,,,,,,,,VFR,,,,,,,,,,,,METAR,16.0
K6S0 302155Z AUTO 24010KT 10SM CLR 22/07 A2988 RMK A01,K6S0,2023-05-30T21:55:00Z,45.8,-109.97,22.0,7.0,240,10,,10.0,29.878937,,,TRUE,TRUE,,,,,,,CLR,,,,,,,,VFR,,,,,,,,,,,,METAR,1364.0
K6B0 302155Z AUTO 17006KT 10SM CLR 27/10 A3009 RMK AO2 T02700096,K6B0,2023-05-30T21:55:00Z,43.98,-73.1,27.0,9.6,170,6,,10.0,30.088583,,,TRUE,TRUE,,,,,,,CLR,,,,,,,,VFR,,,,,,,,,,,,SPECI,149.0
K65S 302155Z AUTO 18010KT 10SM CLR 24/06 A2979 RMK AO2,K65S,2023-05-30T21:55:00Z,48.73,-116.3,24.0,6.0,180,10,,10.0,29.790354,,,TRUE,TRUE,,,,,,,CLR,,,,,,,,VFR,,,,,,,,,,,,METAR,708.0
K63S 302155Z AUTO 16006G13KT 10SM CLR 24/06 A2979 RMK A01,K63S,2023-05-30T21:55:00Z,48.53,-117.88,24.0,6.0,160,6,13,10.0,29.790354,,,TRUE,TRUE,,,,,,,CLR,,,,,,,,VFR,,,,,,,,,,,,METAR,571.0
K5T9 302155Z AUTO 10010KT 10SM CLR 32/21 A2982 RMK A01,K5T9,2023-05-30T21:55:00Z,28.85,-100.52,32.0,21.0,100,10,,10.0,29.819881,,,TRUE,TRUE,,,,,,,CLR,,,,,,,,VFR,,,,,,,,,,,,METAR,269.0
K5A6 302155Z AUTO 00000KT 10SM 28/15 A2992 RMK AO2 T02820148,K5A6,2023-05-30T21:55:00Z,33.47,-89.73,28.2,14.8,0,0,,10.0,29.920275,,,TRUE,TRUE,,,,,,,,,,,,,,,,,,,,,,,,,,,METAR,109.0
K54A 302155Z AUTO 28005KT 10SM FEW065 SCT075 32/19 A2983 RMK AO2 LTG DSNT E AND SE,K54A,2023-05-30T21:55:00Z,26.85,-82.25,32.0,19.0,280,5,,10.0,29.828741,,,TRUE,TRUE,,,,,,,FEW,6500,SCT,7500,,,,,VFR,,,,,,,,,,,,METAR,2.0
K4V0 302155Z AUTO 21009G14KT 10SM SCT120 28/M05 A2991 RMK AO2 LTG DSNT NE T02771054,K4V0,2023-05-30T21:55:00Z,40.1,-108.77,27.7,-5.4,210,9,14,10.0,29.911417,,,TRUE,TRUE,,,,,,,SCT,12000,,,,,,,VFR,,,,,,,,,,,,METAR,1602.0
K4U6 302155Z AUTO 12014KT 10SM 22/16 A2976 RMK A01 Circle ,K4U6,2023-05-30T21:55:00Z,47.42,-105.57,22.0,16.0,120,14,,10.0,29.760826,,,TRUE,TRUE,,,,,,,,,,,,,,,,,,,,,,,,,,,METAR,739.0
K4S2 302155Z AUTO 30011G19KT 10SM CLR 19/03 A2991 RMK AO2,K4S2,2023-05-30T21:55:00Z,45.68,-121.55,19.0,3.0,300,11,19,10.0,29.911417,,,TRUE,TRUE,,,,,,,CLR,,,,,,,,VFR,,,,,,,,,,,,METAR,183.0
K4S1 302155Z AUTO 35020G28KT CLR 14/07 A2998 RMK AO2 PWINO,K4S1,2023-05-30T21:55:00Z,42.42,-124.42,14.0,7.0,350,20,28,,29.97933,,,TRUE,TRUE,,,,,TRUE,,CLR,,,,,,,,,,,,,,,,,,,,METAR,7.0
K4O4 302155Z AUTO 00000KT 6SM HZ CLR 28/19 A2991 RMK AO2,K4O4,2023-05-30T21:55:00Z,33.92,-94.87,28.0,19.0,0,0,,6.0,29.911417,,,TRUE,TRUE,,,,,,HZ,CLR,,,,,,,,VFR,,,,,,,,,,,,METAR,148.0
K4MR 302155Z AUTO 14008KT 10SM CLR 31/05 A2987 RMK AO2 SLP033 T03100054 $,K4MR,2023-05-30T21:55:00Z,34.3,-103.8,31.0,5.4,140,8,,10.0,29.870079,1003.3,,TRUE,TRUE,TRUE,,,,,,CLR,,,,,,,,VFR,,,,,,,,,,,,METAR,1339.0
K4I3 302155Z AUTO 09004KT 10SM SCT055 27/14 A3003 RMK AO2,K4I3,2023-05-30T21:55:00Z,40.33,-82.53,27.0,14.0,90,4,,10.0,30.029528,,,TRUE,TRUE,,,,,,,SCT,5500,,,,,,,VFR,,,,,,,,,,,,METAR,361.0
K4A9 302155Z AUTO 07005KT 10SM BKN050 BKN075 BKN085 27/15 A2994 RMK AO2 T02680150,K4A9,2023-05-30T21:55:00Z,34.47,-85.72,26.8,15.0,70,5,,10.0,29.940945,,,TRUE,TRUE,,,,,,,BKN,5000,BKN,7500,BKN,8500,,,VFR,,,,,,,,,,,,METAR,273.0
K46U 302155Z AUTO 00000KT 10SM CLR 21/07 A2997 RMK A01,K46U,2023-05-30T21:55:00Z,43.18,-111.05,21.0,7.0,0,0,,10.0,29.970472,,,TRUE,TRUE,,,,,,,CLR,,,,,,,,VFR,,,,,,,,,,,,METAR,1718.0
K40U 302155Z AUTO 05008KT 010V070 10SM BKN110 22/01 A2998 RMK AO2 T02160013,K40U,2023-05-30T21:55:00Z,40.98,-109.68,21.6,1.3,50,8,,10.0,29.97933,,,TRUE,TRUE,,,,,,,BKN,11000,,,,,,,VFR,,,,,,,,,,,,METAR,1882.0
K3S8 302155Z AUTO 01010G16KT 10SM CLR 26/05 A2990 RMK AO2,K3S8,2023-05-30T21:55:00Z,42.5,-123.4,26.0,5.0,10,10,16,10.0,29.899607,,,TRUE,TRUE,,,,,,,CLR,,,,,,,,VFR,,,,,,,,,,,,METAR,339.0
K3N8 302155Z AUTO 33007KT 10SM -VCTSRA BKN070 BKN085 OVC120 24/14 A2975 RMK AO2 LTG DSNT ALQS T02390135,K3N8,2023-05-30T21:55:00Z,47.25,-95.92,23.9,13.5,330,7,,10.0,29.749016,,,TRUE,TRUE,,,,,,VCTS -RA,BKN,7000,BKN,8500,OVC,12000,,,VFR,,,,,,,,,,,,METAR,379.0
K3L4 302155Z AUTO 16011KT 5SM BR CLR 23/21 A2987 RMK A01,K3L4,2023-05-30T21:55:00Z,29.8,-92.8,23.0,21.0,160,11,,5.0,29.870079,,,TRUE,TRUE,,,,,,BR,CLR,,,,,,,,MVFR,,,,,,,,,,,,METAR,1.0
K3AU 302155Z AUTO 21008KT 10SM SCT060 SCT075 30/13 A2988 RMK AO2,K3AU,2023-05-30T21:55:00Z,37.67,-97.08,30.0,13.0,210,8,,10.0,29.878937,,,TRUE,TRUE,,,,,,,SCT,6000,SCT,7500,,,,,VFR,,,,,,,,,,,,METAR,403.0
K33V 302155Z AUTO 24006KT 10SM SCT120 19/M07 A3011 RMK AO1,K33V,2023-05-30T21:55:00Z,40.75,-106.28,19.0,-7.0,240,6,,10.0,30.109253,,,TRUE,TRUE,,,,,,,SCT,12000,,,,,,,VFR,,,,,,,,,,,,METAR,2486.0
K33N 302155Z AUTO VRB05G14KT 10SM CLR 22/11 A3013 RMK A01,K33N,2023-05-30T21:55:00Z,39.22,-75.6,22.0,11.0,0,5,14,10.0,30.129921,,,TRUE,TRUE,,,,,,,CLR,,,,,,,,VFR,,,,,,,,,,,,METAR,17.0
K2V5 302155Z AUTO 13010KT 10SM SCT080 30/10 A2986 RMK AO2 LTG DSNT NW,K2V5,2023-05-30T21:55:00Z,40.1,-102.25,30.0,10.0,130,10,,10.0,29.861221,,,TRUE,TRUE,,,,,,,SCT,8000,,,,,,,VFR,,,,,,,,,,,,METAR,1117.0
K2G2 302155Z AUTO VRB06G15KT 10SM 27/11 A3005 RMK A01,K2G2,2023-05-30T21:55:00Z,40.37,-80.7,27.0,11.0,0,6,15,10.0,30.050198,,,TRUE,TRUE,,,,,,,,,,,,,,,,,,,,,,,,,,,METAR,365.0
K2DP 302155Z AUTO 36011KT 10SM SCT140 22/21 A2998 RMK AO2 SLPNO T02150211 $,K2DP,2023-05-30T21:55:00Z,35.68,-75.9,21.5,21.1,360,11,,10.0,29.97933,,,TRUE,TRUE,TRUE,,,,,,SCT,14000,,,,,,,VFR,,,,,,,,,,,,METAR,1.0
K2A0 302155Z AUTO 00000KT 10SM FEW070 OVC100 27/18 A2994 RMK A01,K2A0,2023-05-30T21:55:00Z,35.48,-84.93,27.0,18.0,0,0,,10.0,29.940945,,,TRUE,TRUE,,,,,,,FEW,7000,OVC,10000,,,,,VFR,,,,,,,,,,,,METAR,219.0
K28J 302155Z AUTO 21004KT 10SM BKN110 28/15 A2987 RMK AO2,K28J,2023-05-30T21:55:00Z,29.65,-81.68,28.0,15.0,210,4,,10.0,29.870079,,,TRUE,TRUE,,,,,,,BKN,11000,,,,,,,VFR,,,,,,,,,,,,METAR,9.0
K27K 302155Z AUTO 09006KT 10SM SCT050 SCT065 SCT080 26/15 A2999 RMK AO1,K27K,2023-05-30T21:55:00Z,38.23,-84.43,26.0,15.0,90,6,,10.0,29.991142,,,TRUE,TRUE,,,,,,,SCT,5000,SCT,6500,SCT,8000,,,VFR,,,,,,,,,,,,SPECI,283.0
K22N 302155Z AUTO 16004KT 10SM CLR 24/05 A3015 RMK AO2,K22N,2023-05-30T21:55:00Z,40.8,-75.77,24.0,5.0,160,4,,10.0,30.15059,,,TRUE,TRUE,,,,,,,CLR,,,,,,,,VFR,,,,,,,,,,,,METAR,159.0
K21D 302155Z AUTO 16007KT 130V220 10SM SCT110 29/16 A2983 RMK AO2,K21D,2023-05-30T21:55:00Z,45.0,-92.85,29.0,16.0,160,7,,10.0,29.828741,,,TRUE,TRUE,,,,,,,SCT,11000,,,,,,,VFR,,,,,,,,,,,,METAR,281.0
K1YT 302155Z AUTO 33007KT 10SM CLR 27/M03 A2976 RMK AO2 SLP074 T02651032 $,K1YT,2023-05-30T21:55:00Z,46.67,-120.45,26.5,-3.2,330,7,,10.0,29.760826,1007.4,,TRUE,TRUE,TRUE,,,,,,CLR,,,,,,,,VFR,,,,,,,,,,,,METAR,423.0
K1V6 302155Z AUTO 13013G17KT 10SM CLR 28/03 A2993 RMK AO2 LTG DSNT N AND E,K1V6,2023-05-30T21:55:00Z,38.43,-105.1,28.0,3.0,130,13,17,10.0,29.929134,,,TRUE,TRUE,,,,,,,CLR,,,,,,,,VFR,,,,,,,,,,,,METAR,1658.0
K1OW 302155Z AUTO 14012KT 10SM CLR 25/12 A3003 RMK AO2 LTG DSNT NW SLP109 T02460119 $,K1OW,2023-05-30T21:55:00Z,40.88,-104.0,24.6,11.9,140,12,,10.0,30.029528,1010.9,,TRUE,TRUE,TRUE,,,,,,CLR,,,,,,,,VFR,,,,,,,,,,,,METAR,1650.0
K1OM 302155Z AUTO 26003KT 10SM CLR 24/08 A2978 RMK AO2 SLP062 T02430078 $,K1OM,2023-05-30T21:55:00Z,47.33,-108.93,24.3,7.8,260,3,,10.0,29.778543,1006.2,,TRUE,TRUE,TRUE,,,,,,CLR,,,,,,,,VFR,,,,,,,,,,,,METAR,1088.0
K1NW 302155Z AUTO 17010KT 10SM M 26/13 A2989 RMK AO2 LTG DSNT N AND S SLP072 T02630134 $,K1NW,2023-05-30T21:55:00Z,40.63,-103.83,26.3,13.4,170,10,,10.0,29.890747,1007.2,,TRUE,TRUE,TRUE,,,,,,,,,,,,,,,,,,,,,,,,,,METAR,1461.0
K1MW 302155Z AUTO 16008KT 10SM CLR 27/13 A2987 RMK AO2 LTG DSNT SW AND NW SLP068 T02650129 $,K1MW,2023-05-30T21:55:00Z,40.7,-103.48,26.5,12.9,160,8,,10.0,29.870079,1006.8,,TRUE,TRUE,TRUE,,,,,,CLR,,,,,,,,VFR,,,,,,,,,,,,METAR,1338.0
K1MM 302155Z AUTO 31005KT 10SM CLR 24/05 A2981 RMK AO2 SLP075 T02360045 $,K1MM,2023-05-30T21:55:00Z,47.02,-109.63,23.6,4.5,310,5,,10.0,29.811024,1007.5,,TRUE,TRUE,TRUE,,,,,,CLR,,,,,,,,VFR,,,,,,,,,,,,METAR,1256.0
K1M5 302155Z AUTO 00000KT 10SM CLR 28/16 A2994 RMK A01,K1M5,2023-05-30T21:55:00Z,36.6,-86.48,28.0,16.0,0,0,,10.0,29.940945,,,TRUE,TRUE,,,,,,,CLR,,,,,,,,VFR,,,,,,,,,,,,METAR,239.0
K1JW 302155Z AUTO 13010KT 10SM CLR 26/13 M RMK AO2 LTG DSNT NW SLPNO T02610129 $,K1JW,2023-05-30T21:55:00Z,40.97,-103.2,26.1,12.9,130,10,,10.0,,,,TRUE,TRUE,TRUE,,,,,,CLR,,,,,,,,VFR,,,,,,,,,,,,METAR,1382.0
K1JM 302155Z AUTO 25004KT 10SM CLR 23/04 A2978 RMK AO2 SLP073 T02340038 $,K1JM,2023-05-30T21:55:00Z,47.75,-111.55,23.4,3.8,250,4,,10.0,29.778543,1007.3,,TRUE,TRUE,TRUE,,,,,,CLR,,,,,,,,VFR,,,,,,,,,,,,METAR,1154.0
K1IW 302155Z AUTO 17009KT 10SM CLR 27/15 A2986 RMK AO2 LTG DSNT NW SLP068 T02680145 $,K1IW,2023-05-30T21:55:00Z,41.05,-102.87,26.8,14.5,170,9,,10.0,29.861221,1006.8,,TRUE,TRUE,TRUE,,,,,,CLR,,,,,,,,VFR,,,,,,,,,,,,METAR,1294.0
K1IM 302155Z AUTO 26004KT 10SM M 25/05 A2975 RMK AO2 SLP059 T02460049 $,K1IM,2023-05-30T21:55:00Z,47.32,-111.47,24.6,4.9,260,4,,10.0,29.749016,1005.9,,TRUE,TRUE,TRUE,,,,,,,,,,,,,,,,,,,,,,,,,,METAR,1110.0
K1HW 302155Z AUTO 16008KT 10SM CLR 27/14 A2985 RMK AO2 LTG DSNT W SLP067 T02710141 $,K1HW,2023-05-30T21:55:00Z,41.32,-102.83,27.1,14.1,160,8,,10.0,29.84941,1006.7,,TRUE,TRUE,TRUE,,,,,,CLR,,,,,,,,VFR,,,,,,,,,,,,METAR,1265.0
K1HM 302155Z AUTO 00000KT 10SM CLR 24/05 A2977 RMK AO2 SLP062 T02420045 $,K1HM,2023-05-30T21:55:00Z,47.7,-111.95,24.2,4.5,0,0,,10.0,29.769686,1006.2,,TRUE,TRUE,TRUE,,,,,,CLR,,,,,,,,VFR,,,,,,,,,,,,METAR,1181.0
K1GM 302155Z AUTO 14004KT 10SM CLR 23/02 M RMK AO2 SLPNO T02290024 $,K1GM,2023-05-30T21:55:00Z,47.33,-112.1,22.9,2.4,140,4,,10.0,,,,TRUE,TRUE,TRUE,,,,,,CLR,,,,,,,,VFR,,,,,,,,,,,,METAR,1317.0
K1FW 302155Z AUTO 00000KT 10SM CLR 26/11 A2988 RMK AO2 SLP066 T02640113 $,K1FW,2023-05-30T21:55:00Z,41.37,-103.48,26.4,11.3,0,0,,10.0,29.878937,1006.6,,TRUE,TRUE,TRUE,,,,,,CLR,,,,,,,,VFR,,,,,,,,,,,,METAR,1451.0
K1F0 302155Z AUTO 14008KT 10SM SCT037 SCT043 SCT055 29/20 A2990 RMK AO2 T02940198,K1F0,2023-05-30T21:55:00Z,34.15,-97.12,29.4,19.8,140,8,,10.0,29.899607,,,TRUE,TRUE,,,,,,,SCT,3700,SCT,4300,SCT,5500,,,VFR,,,,,,,,,,,,METAR,256.0
K1EW 302155Z AUTO 14013G20KT 10SM CLR 26/11 A2990 RMK AO2 SLP067 T02550109 $,K1EW,2023-05-30T21:55:00Z,41.12,-103.98,25.5,10.9,140,13,20,10.0,29.899607,1006.7,,TRUE,TRUE,TRUE,,,,,,CLR,,,,,,,,VFR,,,,,,,,,,,,METAR,1609.0
K1EM 302155Z AUTO 35007KT 10SM CLR 24/06 A2980 RMK AO2 SLP073 T02410059 $,K1EM,2023-05-30T21:55:00Z,47.45,-109.42,24.1,5.9,350,7,,10.0,29.799213,1007.3,,TRUE,TRUE,TRUE,,,,,,CLR,,,,,,,,VFR,,,,,,,,,,,,METAR,1118.0
K1DW 302155Z AUTO 14010KT 10SM VCTS CLR 25/08 A2992 RMK AO2 SLP083 T02520082 $,K1DW,2023-05-30T21:55:00Z,41.37,-103.8,25.2,8.2,140,10,,10.0,29.920275,1008.3,,TRUE,TRUE,TRUE,,,,,VCTS,CLR,,,,,,,,VFR,,,,,,,,,,,,METAR,1539.0
K1DM 302155Z AUTO 32006KT 10SM FEW080 25/06 A2980 RMK AO2 SLP076 T02480055 $,K1DM,2023-05-30T21:55:00Z,47.37,-109.8,24.8,5.5,320,6,,10.0,29.799213,1007.6,,TRUE,TRUE,TRUE,,,,,,FEW,8000,,,,,,,VFR,,,,,,,,,,,,METAR,1093.0
K1D8 302155Z AUTO 27008G13KT 10SM CLR 30/12 A2977 RMK AO2,K1D8,2023-05-30T21:55:00Z,,,30.0,12.0,270,8,13,10.0,29.769686,,,TRUE,TRUE,,,,,,,CLR,,,,,,,,VFR,,,,,,,,,,,,METAR,
K1CW 302155Z AUTO 11011KT 10SM VCTS CLR 26/08 A2988 RMK AO2 SLP068 T02570078 $,K1CW,2023-05-30T21:55:00Z,41.58,-103.57,25.7,7.8,110,11,,10.0,29.878937,1006.8,,TRUE,TRUE,TRUE,,,,,VCTS,CLR,,,,,,,,VFR,,,,,,,,,,,,METAR,1370.0
K1CM 302155Z AUTO 00000KT 10SM CLR 22/08 A2984 RMK AO2 SLP081 T02200081 $,K1CM,2023-05-30T21:55:00Z,47.1,-110.17,22.0,8.1,0,0,,10.0,29.840551,1008.1,,TRUE,TRUE,TRUE,,,,,,CLR,,,,,,,,VFR,,,,,,,,,,,,METAR,1338.0
K1BW 302155Z AUTO 13007KT 10SM VCTS CLR 24/08 A2995 RMK AO2 SLP088 T02360076 $,K1BW,2023-05-30T21:55:00Z,41.52,-104.0,23.6,7.6,130,7,,10.0,29.949802,1008.8,,TRUE,TRUE,TRUE,,,,,VCTS,CLR,,,,,,,,VFR,,,,,,,,,,,,METAR,1606.0
K1AM 302155Z AUTO 30009KT 10SM CLR 24/07 A2980 RMK AO2 SLP073 T02380070 $,K1AM,2023-05-30T21:55:00Z,47.28,-110.8,23.8,7.0,300,9,,10.0,29.799213,1007.3,,TRUE,TRUE,TRUE,,,,,,CLR,,,,,,,,VFR,,,,,,,,,,,,METAR,1228.0
K1A9 302155Z AUTO 00000KT 10SM SCT055 SCT065 28/14 A2990 RMK AO2 T02780143,K1A9,2023-05-30T21:55:00Z,32.43,-86.52,27.8,14.3,0,0,,10.0,29.899607,,,TRUE,TRUE,,,,,,,SCT,5500,SCT,6500,,,,,VFR,,,,,,,,,,,,METAR,65.0
K18H 302155Z AUTO 00000KT 10SM BKN020 BKN026 OVC044 29/22 A2984 RMK A01,K18H,2023-05-30T21:55:00Z,26.13,-92.03,29.0,22.0,0,0,,10.0,29.840551,,,TRUE,TRUE,,,,,,,BKN,2000,BKN,2600,OVC,4400,,,MVFR,,,,,,,,,,,,METAR,30.0
K14Y 302155Z AUTO 22012KT 10SM CLR 27/16 A2978 RMK AO2,K14Y,2023-05-30T21:55:00Z,45.9,-94.87,27.0,16.0,220,12,,10.0,29.778543,,,TRUE,TRUE,,,,,,,CLR,,,,,,,,VFR,,,,,,,,,,,,METAR,404.0
K13K 302155Z AUTO 18012KT 10SM VCTS SCT050 SCT065 30/18 A2988 RMK AO2 LTG DSNT NW T03000178,K13K,2023-05-30T21:55:00Z,37.85,-96.3,30.0,17.8,180,12,,10.0,29.878937,,,TRUE,TRUE,,,,,,VCTS,SCT,5000,SCT,6500,,,,,VFR,,,,,,,,,,,,METAR,367.0
K11R 302155Z AUTO 13003KT 10SM CLR 31/18 A2987 RMK AO2 T03050184,K11R,2023-05-30T21:55:00Z,30.22,-96.37,30.5,18.4,130,3,,10.0,29.870079,,,TRUE,TRUE,,,,,,,CLR,,,,,,,,VFR,,,,,,,,,,,,METAR,87.0
K0V4 302155Z AUTO 08009KT 10SM SCT009 BKN022 OVC060 19/17 A3010 RMK AO1 P0001,K0V4,2023-05-30T21:55:00Z,37.15,-79.02,19.0,17.0,80,9,,10.0,30.100393,,,TRUE,TRUE,,,,,,,SCT,900,BKN,2200,OVC,6000,,,MVFR,,,,,,0.01,,,,,,METAR,186.0
K0R0 302155Z AUTO 04004KT A2991 RMK AO2 PWINO TSNO,K0R0,2023-05-30T21:55:00Z,31.3,-89.82,,,40,4,,,29.911417,,,TRUE,TRUE,,,TRUE,,TRUE,,,,,,,,,,,,,,,,,,,,,,METAR,76.0
K0F2 302155Z AUTO 10SM SCT055 30/17 A2990 RMK AO2 T02980171,K0F2,2023-05-30T21:55:00Z,33.6,-97.78,29.8,17.1,,,,10.0,29.899607,,,TRUE,TRUE,,,,,,,SCT,5500,,,,,,,VFR,,,,,,,,,,,,METAR,330.0
K0A9 302155Z AUTO VRB05KT 8SM CLR 24/15 A3001 RMK AO2,K0A9,2023-05-30T21:55:00Z,36.37,-82.17,24.0,15.0,0,5,,8.0,30.008858,,,TRUE,TRUE,,,,,,,CLR,,,,,,,,VFR,,,,,,,,,,,,METAR,479.0
K0A0 302155Z AUTO 19012G18KT 10SM CLR 32/M03 A2993 RMK AO2,K0A0,2023-05-30T21:55:00Z,32.98,-106.97,32.0,-3.0,190,12,18,10.0,29.929134,,,TRUE,TRUE,,,,,,,CLR,,,,,,,,VFR,,,,,,,,,,,,METAR,1401.0
ETOU 302155Z 05012G18KT 9999 CLR 18/06 A3020 RMK AO2A SLP228 T01750173,ETOU,2023-05-30T21:55:00Z,50.03,8.32,17.5,6.0,50,12,18,6.21,30.200787,1022.8,,,TRUE,,,,,,,CLR,,,,,,,,VFR,,,,,,,,,,,,METAR,141.0
ETAR 302155Z AUTO 09004KT 9999 CLR 10/07 A3016 RMK AO2 SLP217 T00980069 $,ETAR,2023-05-30T21:55:00Z,49.43,7.58,9.8,6.9,90,4,,6.21,30.159449,1021.7,,TRUE,TRUE,TRUE,,,,,,CLR,,,,,,,,VFR,,,,,,,,,,,,METAR,231.0
ETAD 302155Z AUTO 05010KT 9999 CLR 14/07 A3019 RMK AO2 SLP214 T01380069 $,ETAD,2023-05-30T21:55:00Z,49.98,6.7,13.8,6.9,50,10,,6.21,30.188976,1021.4,,TRUE,TRUE,TRUE,,,,,,CLR,,,,,,,,VFR,,,,,,,,,,,,METAR,365.0
EHWO 302155Z AUTO 05009KT 010V080 9999 NCD 12/08 Q1025 BLU,EHWO,2023-05-30T21:55:00Z,51.45,4.33,12.0,8.0,50,9,,6.21,30.265747,,,TRUE,,,,,,,,CLR,,,,,,,,VFR,,,,,,,,,,,,METAR,15.0
EHVL 302155Z AUTO 06009KT 9999 OVC014 12/08 Q1028 GRN,EHVL,2023-05-30T21:55:00Z,53.28,5.08,12.0,8.0,60,9,,6.21,30.35433,,,TRUE,,,,,,,,OVC,1400,,,,,,,MVFR,,,,,,,,,,,,METAR,2.0
EHVK 302155Z AUTO 03005KT 9999 OVC260 13/09 Q1025 BLU,EHVK,2023-05-30T21:55:00Z,51.65,5.7,13.0,9.0,30,5,,6.21,30.265747,,,TRUE,,,,,,,,OVC,26000,,,,,,,VFR,,,,,,,,,,,,METAR,20.0
EHSC 302155Z AUTO 03020KT 9999 ///////// 13/10 Q1027 W14/H15,EHSC,2023-05-30T21:55:00Z,51.93,3.67,13.0,10.0,30,20,,6.21,30.324802,,,TRUE,,,,,,,,,,,,,,,,,,,,,,,,,,,,METAR,19.0
EHSA 302155Z AUTO 02021KT 9999 ///////// 12/09 Q1027 W12/H15,EHSA,2023-05-30T21:55:00Z,52.0,3.28,12.0,9.0,20,21,,6.21,30.324802,,,TRUE,,,,,,,,,,,,,,,,,,,,,,,,,,,,METAR,18.0
EHRD 302155Z AUTO 03007KT 360V070 9999 OVC024 13/09 Q1026 NOSIG,EHRD,2023-05-30T21:55:00Z,51.95,4.45,13.0,9.0,30,7,,6.21,30.295275,,,TRUE,,,TRUE,,,,,OVC,2400,,,,,,,MVFR,,,,,,,,,,,,METAR,-4.0
EHPG 302155Z AUTO 05020KT 9999 BKN012 OVC015 12/09 Q1027,EHPG,2023-05-30T21:55:00Z,52.37,3.35,12.0,9.0,50,20,,6.21,30.324802,,,TRUE,,,,,,,,BKN,1200,OVC,1500,,,,,MVFR,,,,,,,,,,,,METAR,24.0
EHMG 302155Z AUTO 05013KT 9999 SCT012 OVC014 12/08 Q1029,EHMG,2023-05-30T21:55:00Z,53.62,4.97,12.0,8.0,50,13,,6.21,30.383858,,,TRUE,,,,,,,,SCT,1200,OVC,1400,,,,,MVFR,,,,,,,,,,,,METAR,30.0
EHMA 302155Z AUTO 06008KT 010V130 9999 OVC012 12/09 Q1028,EHMA,2023-05-30T21:55:00Z,53.5,5.95,12.0,9.0,60,8,,6.21,30.35433,,,TRUE,,,,,,,,OVC,1200,,,,,,,MVFR,,,,,,,,,,,,METAR,27.0
EHLW 302155Z AUTO 03008KT 350V060 9999 OVC015 11/09 Q1028 WHT,EHLW,2023-05-30T21:55:00Z,53.22,5.75,11.0,9.0,30,8,,6.21,30.35433,,,TRUE,,,,,,,,OVC,1500,,,,,,,MVFR,,,,,,,,,,,,METAR,1.0
EHLE 302155Z AUTO 04008KT 9999 NSC 11/09 Q1027,EHLE,2023-05-30T21:55:00Z,52.45,5.52,11.0,9.0,40,8,,6.21,30.324802,,,TRUE,,,,,,,,CLR,,,,,,,,VFR,,,,,,,,,,,,METAR,-3.0
EHKV 302155Z AUTO 05017KT 9999 FEW011 OVC013 11/08 Q1029,EHKV,2023-05-30T21:55:00Z,53.27,3.63,11.0,8.0,50,17,,6.21,30.383858,,,TRUE,,,,,,,,FEW,1100,OVC,1300,,,,,MVFR,,,,,,,,,,,,METAR,28.0
EHKD 302155Z AUTO 05011KT 020V080 9999 OVC016 12/09 Q1028 WHT,EHKD,2023-05-30T21:55:00Z,52.92,4.77,12.0,9.0,50,11,,6.21,30.35433,,,TRUE,,,,,,,,OVC,1600,,,,,,,MVFR,,,,,,,,,,,,METAR,1.0
EHJR 302155Z AUTO 05016KT //// // ///////// 11/08 Q1029 RE// W13/H14,EHJR,2023-05-30T21:55:00Z,53.22,3.22,11.0,8.0,50,16,,,30.383858,,,TRUE,,,,,,,,,,,,,,,,,,,,,,,,,,,,METAR,31.0
EHJA 302155Z AUTO 05019KT 9999 BKN010/// OVC012/// 11/08 Q1029,EHJA,2023-05-30T21:55:00Z,53.82,2.95,11.0,8.0,50,19,,6.21,30.383858,,,TRUE,,,,,,,,BKN,1000,OVC,1200,,,,,MVFR,,,,,,,,,,,,METAR,34.0
EHHW 302155Z AUTO 05008KT 9999 OVC010/// 11/09 Q1028,EHHW,2023-05-30T21:55:00Z,54.03,6.03,11.0,9.0,50,8,,6.21,30.35433,,,TRUE,,,,,,,,OVC,1000,,,,,,,MVFR,,,,,,,,,,,,METAR,10.0
EHGR 302155Z AUTO 03005KT 300V110 9999 OVC230 12/09 Q1026 BLU,EHGR,2023-05-30T21:55:00Z,51.55,4.93,12.0,9.0,30,5,,6.21,30.295275,,,TRUE,,,,,,,,OVC,23000,,,,,,,VFR,,,,,,,,,,,,METAR,12.0
EHGG 302155Z AUTO 02005KT 350V050 9999 NCD 10/09 Q1028,EHGG,2023-05-30T21:55:00Z,53.12,6.57,10.0,9.0,20,5,,6.21,30.35433,,,TRUE,,,,,,,,CLR,,,,,,,,VFR,,,,,,,,,,,,METAR,2.0
EHFD 302155Z AUTO 03016KT 9999 BKN003/// OVC005/// 10/08 Q1029,EHFD,2023-05-30T21:55:00Z,54.85,4.7,10.0,8.0,30,16,,6.21,30.383858,,,TRUE,,,,,,,,BKN,300,OVC,500,,,,,LIFR,,,,,,,,,,,,METAR,24.0
EHEH 302155Z AUTO 02006KT 360V060 9999 OVC230 12/09 Q1025 BLU,EHEH,2023-05-30T21:55:00Z,51.45,5.38,12.0,9.0,20,6,,6.21,30.265747,,,TRUE,,,,,,,,OVC,23000,,,,,,,VFR,,,,,,,,,,,,METAR,20.0
EHDV 302155Z AUTO 04019KT 330V100 9999 SCT009/// OVC010/// 11/08 Q1030,EHDV,2023-05-30T21:55:00Z,54.32,2.93,11.0,8.0,40,19,,6.21,30.413385,,,TRUE,,,,,,,,SCT,900,OVC,1000,,,,,MVFR,,,,,,,,,,,,METAR,36.0
EHDL 302155Z AUTO 03007KT 310V080 9999 OVC220 12/09 Q1026 BLU,EHDL,2023-05-30T21:55:00Z,52.07,5.88,12.0,9.0,30,7,,6.21,30.295275,,,TRUE,,,,,,,,OVC,22000,,,,,,,VFR,,,,,,,,,,,,METAR,49.0
EHBK 302155Z AUTO 04010KT 010V070 9999 NSC 13/10 Q1024,EHBK,2023-05-30T21:55:00Z,50.92,5.77,13.0,10.0,40,10,,6.21,30.236221,,,TRUE,,,,,,,,CLR,,,,,,,,VFR,,,,,,,,,,,,METAR,112.0
EHAM 302155Z 03009KT 360V070 9999 FEW015 BKN023 13/10 Q1027 NOSIG,EHAM,2023-05-30T21:55:00Z,52.32,4.78,13.0,10.0,30,9,,6.21,30.324802,,,,,,TRUE,,,,,FEW,1500,BKN,2300,,,,,MVFR,,,,,,,,,,,,METAR,-2.0
EHAK 302155Z AUTO 02016KT 340V050 9999 SCT008/// BKN009/// OVC010/// 10/08 Q1030,EHAK,2023-05-30T21:55:00Z,55.38,3.82,10.0,8.0,20,16,,6.21,30.413385,,,TRUE,,,,,,,,SCT,800,BKN,900,OVC,1000,,,IFR,,,,,,,,,,,,METAR,33.0
EGVA 302155Z AUTO 05010KT 9999 OVC018 12/10 A3036 RMK AO2 SLP285 T01200102 FZRANO $,EGVA,2023-05-30T21:55:00Z,51.67,-1.78,12.0,10.2,50,10,,6.21,30.360237,1028.5,,TRUE,TRUE,TRUE,,,TRUE,,,OVC,1800,,,,,,,MVFR,,,,,,,,,,,,METAR,84.0
EGUN 302155Z 04007KT 9999 FEW016 OVC023 11/11 A3038 RMK AO2A SLP291 T01070107 $,EGUN,2023-05-30T21:55:00Z,52.37,0.48,10.7,10.7,40,7,,6.21,30.380905,1029.1,,,TRUE,TRUE,,,,,,FEW,1600,OVC,2300,,,,,MVFR,,,,,,,,,,,,METAR,10.0
EGUL 302155Z AUTO 02008KT 9999 SCT021 11/10 A3038 RMK AO2 DZE2054 SLP291 T01060104 VISNO RWY24 $,EGUL,2023-05-30T21:55:00Z,52.42,0.57,10.6,10.4,20,8,,6.21,30.380905,1029.1,,TRUE,TRUE,TRUE,,,,,,SCT,2100,,,,,,,VFR,,,,,,,,,,,,METAR,8.0
PHOG 302154Z 05017G22KT 10SM FEW030 SCT060 29/18 A3005 RMK AO2 SLP181 T02890178,PHOG,2023-05-30T21:54:00Z,20.9,-156.43,28.9,17.8,50,17,22,10.0,30.050198,1018.1,,,TRUE,,,,,,,FEW,3000,SCT,6000,,,,,VFR,,,,,,,,,,,,METAR,14.0
PHMK 302154Z 04010G20KT 10SM FEW032 SCT045 BKN065 25/19 A3007 RMK AO2 SLP183 T02500194,PHMK,2023-05-30T21:54:00Z,21.15,-157.1,25.0,19.4,40,10,20,10.0,30.070866,1018.3,,,TRUE,,,,,,,FEW,3200,SCT,4500,BKN,6500,,,VFR,,,,,,,,,,,,METAR,135.0
PGUM 302154Z COR 08012G18KT 8SM -RA FEW022 BKN033 OVC065 25/24 A2991 RMK AO2 RAE32B53 SLP122 P0004 T02500239,PGUM,2023-05-30T21:54:00Z,13.48,144.8,25.0,23.9,80,12,18,8.0,29.911417,1012.2,TRUE,,TRUE,,,,,,-RA,FEW,2200,BKN,3300,OVC,6500,,,VFR,,,,,,0.04,,,,,,METAR,74.0
PGSN 302154Z 11015G20KT 10SMSM SCT016 BKN110 29/27 A2991,PGSN,2023-05-30T21:54:00Z,15.12,145.72,29.0,27.0,110,15,20,,29.911417,,,,,,,,,,,SCT,1600,BKN,11000,,,,,,,,,,,,,,,,,METAR,65.0
PAKN 302154Z 19007KT 7SM -RA BKN014 BKN024 OVC033 06/03 A2972 RMK AO2 SLP063 P0001 T00610033,PAKN,2023-05-30T21:54:00Z,58.68,-156.65,6.1,3.3,190,7,,7.0,29.719488,1006.3,,,TRUE,,,,,,-RA,BKN,1400,BKN,2400,OVC,3300,,,MVFR,,,,,,0.01,,,,,,METAR,20.0
PAHN 302154Z AUTO 13012G19KT SCT040 BKN075 BKN085 13/03 A2981 RMK AO2 SLP097 T01280033 TSNO $,PAHN,2023-05-30T21:54:00Z,59.25,-135.52,12.8,3.3,130,12,19,,29.811024,1009.7,,TRUE,TRUE,TRUE,,TRUE,,,,SCT,4000,BKN,7500,BKN,8500,,,,,,,,,,,,,,,METAR,15.0
KWLD 302154Z AUTO 20008KT 10SM CLR 30/18 A2988 RMK AO2 SLP107 T03000183,KWLD,2023-05-30T21:54:00Z,37.17,-97.03,30.0,18.3,200,8,,10.0,29.878937,1010.7,,TRUE,TRUE,,,,,,,CLR,,,,,,,,VFR,,,,,,,,,,,,METAR,351.0
KWAL 302154Z AUTO 04016G26KT 7SM BKN012 OVC023 17/14 A3012 RMK AO2 PK WND 05026/2143 SLP195 T01720139,KWAL,2023-05-30T21:54:00Z,37.93,-75.47,17.2,13.9,40,16,26,7.0,30.121063,1019.5,,TRUE,TRUE,,,,,,,BKN,1200,OVC,2300,,,,,MVFR,,,,,,,,,,,,METAR,10.0
KVTA 302154Z AUTO 08010KT 10SM BKN060 28/17 A3000 RMK AO2 SLP154 T02780167,KVTA,2023-05-30T21:54:00Z,40.02,-82.47,27.8,16.7,80,10,,10.0,30.0,1015.4,,TRUE,TRUE,,,,,,,BKN,6000,,,,,,,VFR,,,,,,,,,,,,METAR,268.0
KVSF 302154Z AUTO 18009KT 10SM CLR 26/07 A3013 RMK AO2 SLP203 T02610072,KVSF,2023-05-30T21:54:00Z,43.35,-72.52,26.1,7.2,180,9,,10.0,30.129921,1020.3,,TRUE,TRUE,,,,,,,CLR,,,,,,,,VFR,,,,,,,,,,,,METAR,176.0
KVAY 302154Z AUTO VRB06KT 10SM CLR 22/04 A3016 RMK AO2 SLP213 T02170044,KVAY,2023-05-30T21:54:00Z,39.93,-74.83,21.7,4.4,0,6,,10.0,30.159449,1021.3,,TRUE,TRUE,,,,,,,CLR,,,,,,,,VFR,,,,,,,,,,,,METAR,15.0
KUZA 302154Z AUTO VRB03KT 10SM SCT090 BKN110 23/18 A3001 RMK AO2 SLP151 T02330178,KUZA,2023-05-30T21:54:00Z,34.98,-81.05,23.3,17.8,0,3,,10.0,30.008858,1015.1,,TRUE,TRUE,,,,,,,SCT,9000,BKN,11000,,,,,VFR,,,,,,,,,,,,METAR,198.0
KUIN 302154Z AUTO 17010KT 10SM CLR 30/11 A2991 RMK AO2 SLP121 T03000106,KUIN,2023-05-30T21:54:00Z,39.95,-91.2,30.0,10.6,170,10,,10.0,29.911417,1012.1,,TRUE,TRUE,,,,,,,CLR,,,,,,,,VFR,,,,,,,,,,,,METAR,233.0
KTQE 302154Z AUTO 13008KT 10SM SCT100 33/13 A2978 RMK AO2 SLP070 T03330133,KTQE,2023-05-30T21:54:00Z,41.77,-96.18,33.3,13.3,130,8,,10.0,29.778543,1007.0,,TRUE,TRUE,,,,,,,SCT,10000,,,,,,,VFR,,,,,,,,,,,,METAR,312.0
KTAD 302154Z AUTO 14019G26KT 10SM SCT110 25/00 A2997 RMK AO2 PK WND 14026/2154 LTG DSNT SE AND S SLP078 T02500000,KTAD,2023-05-30T21:54:00Z,37.27,-104.33,25.0,0.0,140,19,26,10.0,29.970472,1007.8,,TRUE,TRUE,,,,,,,SCT,11000,,,,,,,VFR,,,,,,,,,,,,METAR,1751.0
KSYR 302154Z 03004KT 10SM FEW060 29/10 A3007 RMK AO2 SLP175 T02940100,KSYR,2023-05-30T21:54:00Z,43.12,-76.1,29.4,10.0,30,4,,10.0,30.070866,1017.5,,,TRUE,,,,,,,FEW,6000,,,,,,,VFR,,,,,,,,,,,,METAR,125.0
KSUS 302154Z 14005KT 10SM CLR 30/12 A2990 RMK AO2 SLP120 T03000117,KSUS,2023-05-30T21:54:00Z,38.65,-90.65,30.0,11.7,140,5,,10.0,29.899607,1012.0,,,TRUE,,,,,,,CLR,,,,,,,,VFR,,,,,,,,,,,,METAR,140.0
KSLC 302154Z 35011G14KT 10SM FEW090 SCT120 BKN150 BKN250 29/01 A2985 RMK AO2 PK WND 24027/2134 WSHFT 2122 SLP054 VIRGA T02940006,KSLC,2023-05-30T21:54:00Z,40.77,-111.97,29.4,0.6,350,11,14,10.0,29.84941,1005.4,,,TRUE,,,,,,,FEW,9000,SCT,12000,BKN,15000,BKN,25000,VFR,,,,,,,,,,,,METAR,1286.0
KSET 302154Z AUTO 19004KT 10SM CLR 32/11 A2990 RMK AO2 SLP120 T03170111,KSET,2023-05-30T21:54:00Z,38.93,-90.43,31.7,11.1,190,4,,10.0,29.899607,1012.0,,TRUE,TRUE,,,,,,,CLR,,,,,,,,VFR,,,,,,,,,,,,METAR,133.0
KSBY 302154Z 06010KT 10SM FEW021 19/14 A3012 RMK AO2 SLP201 T01940139,KSBY,2023-05-30T21:54:00Z,38.33,-75.5,19.4,13.9,60,10,,10.0,30.121063,1020.1,,,TRUE,,,,,,,FEW,2100,,,,,,,VFR,,,,,,,,,,,,METAR,14.0
KSBN 302154Z 14011KT 10SM FEW085 SCT110 32/12 A2995 RMK AO2 WSHFT 2121 SLP137 T03220122,KSBN,2023-05-30T21:54:00Z,41.7,-86.32,32.2,12.2,140,11,,10.0,29.949802,1013.7,,,TRUE,,,,,,,FEW,8500,SCT,11000,,,,,VFR,,,,,,,,,,,,METAR,236.0
KSBD 302154Z 28011G21KT 7SM SCT037 22/08 A2992,KSBD,2023-05-30T21:54:00Z,34.08,-117.25,22.0,8.0,280,11,21,7.0,29.920275,,,,,,,,,,,SCT,3700,,,,,,,VFR,,,,,,,,,,,,METAR,353.0
KRST 302154Z 20015G20KT 10SM FEW080 30/13 A2986 RMK AO2 SLP103 T03000128,KRST,2023-05-30T21:54:00Z,43.9,-92.5,30.0,12.8,200,15,20,10.0,29.861221,1010.3,,,TRUE,,,,,,,FEW,8000,,,,,,,VFR,,,,,,,,,,,,METAR,398.0
KRSP 302154Z AUTO 11005KT 10SM CLR 27/07 A3016 RMK AO2 SLP207 T02670067 $,KRSP,2023-05-30T21:54:00Z,39.65,-77.47,26.7,6.7,110,5,,10.0,30.159449,1020.7,,TRUE,TRUE,TRUE,,,,,,CLR,,,,,,,,VFR,,,,,,,,,,,,METAR,555.0
KROC 302154Z 05008KT 10SM FEW060 FEW300 27/13 A3008 RMK AO2 SLP187 T02670128,KROC,2023-05-30T21:54:00Z,43.12,-77.68,26.7,12.8,50,8,,10.0,30.079725,1018.7,,,TRUE,,,,,,,FEW,6000,FEW,30000,,,,,VFR,,,,,,,,,,,,METAR,166.0
KROA 302154Z 00000KT 10SM SCT012 BKN033 OVC050 18/18 A3013 RMK AO2 RAE37 SLP195 P0005 T01830178,KROA,2023-05-30T21:54:00Z,37.32,-79.97,18.3,17.8,0,0,,10.0,30.129921,1019.5,,,TRUE,,,,,,,SCT,1200,BKN,3300,OVC,5000,,,VFR,,,,,,0.05,,,,,,METAR,349.0
KRKS 302154Z AUTO 30008KT 10SM CLR 21/M02 A3003 RMK AO2 SLP105 T02061022,KRKS,2023-05-30T21:54:00Z,41.6,-109.07,20.6,-2.2,300,8,,10.0,30.029528,1010.5,,TRUE,TRUE,,,,,,,CLR,,,,,,,,VFR,,,,,,,,,,,,METAR,2062.0
KRIC 302154Z 04010KT 10SM FEW022 OVC031 21/16 A3009 RMK AO2 SLP193 T02060156,KRIC,2023-05-30T21:54:00Z,37.52,-77.32,20.6,15.6,40,10,,10.0,30.088583,1019.3,,,TRUE,,,,,,,FEW,2200,OVC,3100,,,,,VFR,,,,,,,,,,,,METAR,51.0
KRFD 302154Z 12008KT 10SM BKN100 BKN160 31/11 A2993 RMK AO2 SLP132 T03060106,KRFD,2023-05-30T21:54:00Z,42.2,-89.1,30.6,10.6,120,8,,10.0,29.929134,1013.2,,,TRUE,,,,,,,BKN,10000,BKN,16000,,,,,VFR,,,,,,,,,,,,METAR,222.0
KRDG 302154Z VRB05KT 10SM CLR 25/04 A3012 RMK AO2 SLP204 T02500044,KRDG,2023-05-30T21:54:00Z,40.37,-75.97,25.0,4.4,0,5,,10.0,30.121063,1020.4,,,TRUE,,,,,,,CLR,,,,,,,,VFR,,,,,,,,,,,,METAR,101.0
KRBL 302154Z AUTO 17012KT 10SM CLR 27/12 A2981 RMK AO2 LTG DSNT SW SLP092 T02720122,KRBL,2023-05-30T21:54:00Z,40.15,-122.25,27.2,12.2,170,12,,10.0,29.811024,1009.2,,TRUE,TRUE,,,,,,,CLR,,,,,,,,VFR,,,,,,,,,,,,METAR,107.0
KPTW 302154Z AUTO 10007KT 10SM CLR 22/04 A3016 RMK AO2 SLP211 T02220044,KPTW,2023-05-30T21:54:00Z,40.23,-75.55,22.2,4.4,100,7,,10.0,30.159449,1021.1,,TRUE,TRUE,,,,,,,CLR,,,,,,,,VFR,,,,,,,,,,,,METAR,88.0
KPSF 302154Z AUTO 22006KT 10SM CLR 23/06 A3015 RMK AO2 SLP193 T02330056,KPSF,2023-05-30T21:54:00Z,42.43,-73.28,23.3,5.6,220,6,,10.0,30.15059,1019.3,,TRUE,TRUE,,,,,,,CLR,,,,,,,,VFR,,,,,,,,,,,,METAR,352.0
KPNE 302154Z 10009KT 10SM CLR 22/04 A3017 RMK AO2 SLP216 T02170044,KPNE,2023-05-30T21:54:00Z,40.08,-75.02,21.7,4.4,100,9,,10.0,30.171259,1021.6,,,TRUE,,,,,,,CLR,,,,,,,,VFR,,,,,,,,,,,,METAR,32.0
KPLN 302154Z AUTO 02009KT 10SM CLR 29/11 A2999 RMK AO2 SLP156 T02890111,KPLN,2023-05-30T21:54:00Z,45.57,-84.8,28.9,11.1,20,9,,10.0,29.991142,1015.6,,TRUE,TRUE,,,,,,,CLR,,,,,,,,VFR,,,,,,,,,,,,METAR,215.0
KPIA 302154Z 16007KT 10SM CLR 33/08 A2990 RMK AO2 SLP121 T03280083,KPIA,2023-05-30T21:54:00Z,40.67,-89.68,32.8,8.3,160,7,,10.0,29.899607,1012.1,,,TRUE,,,,,,,CLR,,,,,,,,VFR,,,,,,,,,,,,METAR,200.0
KPHL 302154Z 08010KT 10SM FEW250 23/04 A3015 RMK AO2 SLP209 T02280039,KPHL,2023-05-30T21:54:00Z,39.87,-75.23,22.8,3.9,80,10,,10.0,30.15059,1020.9,,,TRUE,,,,,,,FEW,25000,,,,,,,VFR,,,,,,,,,,,,METAR,2.0
KPHF 302154Z 04008KT 360V070 6SM BR OVC008 17/16 A3008 RMK AO2 RAE13 SLP185 P0001 T01670161,KPHF,2023-05-30T21:54:00Z,37.13,-76.5,16.7,16.1,40,8,,6.0,30.079725,1018.5,,,TRUE,,,,,,BR,OVC,800,,,,,,,IFR,,,,,,0.01,,,,,,METAR,12.0
KORH 302154Z 18006KT 6SM HZ CLR 21/06 A3019 RMK AO2 SLP224 T02110061 $,KORH,2023-05-30T21:54:00Z,42.27,-71.87,21.1,6.1,180,6,,6.0,30.188976,1022.4,,,TRUE,TRUE,,,,,HZ,CLR,,,,,,,,VFR,,,,,,,,,,,,METAR,306.0
KOLS 302154Z AUTO 21010G23KT 10SM CLR 31/M04 A2994 RMK AO2 SLP075 T03111039,KOLS,2023-05-30T21:54:00Z,31.42,-110.85,31.1,-3.9,210,10,23,10.0,29.940945,1007.5,,TRUE,TRUE,,,,,,,CLR,,,,,,,,VFR,,,,,,,,,,,,METAR,1194.0
KOLM 302154Z VRB04KT 10SM OVC060 19/04 A3001 RMK AO2 SLP161 T01940039,KOLM,2023-05-30T21:54:00Z,46.97,-122.9,19.4,3.9,0,4,,10.0,30.008858,1016.1,,,TRUE,,,,,,,OVC,6000,,,,,,,VFR,,,,,,,,,,,,METAR,58.0
KOFP 302154Z AUTO VRB05KT 9SM OVC028 21/16 A3011 RMK AO2 SLP193 T02110156,KOFP,2023-05-30T21:54:00Z,37.7,-77.43,21.1,15.6,0,5,,9.0,30.109253,1019.3,,TRUE,TRUE,,,,,,,OVC,2800,,,,,,,MVFR,,,,,,,,,,,,METAR,63.0
KNAK 302154Z AUTO 03004KT 10SM CLR 23/12 A3012 RMK AO2 SLP202 T02280122 $,KNAK,2023-05-30T21:54:00Z,38.98,-76.48,22.8,12.2,30,4,,10.0,30.121063,1020.2,,TRUE,TRUE,TRUE,,,,,,CLR,,,,,,,,VFR,,,,,,,,,,,,METAR,2.0
KMVL 302154Z AUTO VRB04KT 10SM CLR 28/09 A3008 RMK AO2 SLP186 T02780094,KMVL,2023-05-30T21:54:00Z,44.53,-72.62,27.8,9.4,0,4,,10.0,30.079725,1018.6,,TRUE,TRUE,,,,,,,CLR,,,,,,,,VFR,,,,,,,,,,,,METAR,226.0
KMTP 302154Z AUTO VRB05KT 14/08 A3023 RMK AO1 SLP236 T01440078,KMTP,2023-05-30T21:54:00Z,41.07,-71.92,14.4,7.8,0,5,,,30.230314,1023.6,,TRUE,TRUE,,,,,,,,,,,,,,,,,,,,,,,,,,,METAR,2.0
KMTN 302154Z 08007KT 10SM CLR 23/09 A3013,KMTN,2023-05-30T21:54:00Z,39.32,-76.42,23.0,9.0,80,7,,10.0,30.129921,,,,,,,,,,,CLR,,,,,,,,VFR,,,,,,,,,,,,METAR,2.0
KMRY 302154Z 26013G20KT 10SM CLR 17/09 A2999 RMK AO2 SLP166 T01720094,KMRY,2023-05-30T21:54:00Z,36.58,-121.85,17.2,9.4,260,13,20,10.0,29.991142,1016.6,,,TRUE,,,,,,,CLR,,,,,,,,VFR,,,,,,,,,,,,METAR,51.0
KMOT 302154Z 32005KT 10SM CLR 28/13 A2973 RMK AO2 SLP061 T02780128,KMOT,2023-05-30T21:54:00Z,48.25,-101.27,27.8,12.8,320,5,,10.0,29.731298,1006.1,,,TRUE,,,,,,,CLR,,,,,,,,VFR,,,,,,,,,,,,METAR,507.0
KMKC 302154Z 18006KT 10SM FEW070 29/17 A2986 RMK AO2 SLP102 T02940172,KMKC,2023-05-30T21:54:00Z,39.12,-94.6,29.4,17.2,180,6,,10.0,29.861221,1010.2,,,TRUE,,,,,,,FEW,7000,,,,,,,VFR,,,,,,,,,,,,METAR,228.0
KMIV 302154Z AUTO 09010G14KT 10SM CLR 22/08 A3014 RMK AO2 SLP203 T02220078 $,KMIV,2023-05-30T21:54:00Z,39.37,-75.08,22.2,7.8,90,10,14,10.0,30.138779,1020.3,,TRUE,TRUE,TRUE,,,,,,CLR,,,,,,,,VFR,,,,,,,,,,,,METAR,18.0
KMGJ 302154Z AUTO VRB04KT 10SM CLR 22/07 A3015 RMK AO2 SLP209 T02220067,KMGJ,2023-05-30T21:54:00Z,41.52,-74.27,22.2,6.7,0,4,,10.0,30.15059,1020.9,,TRUE,TRUE,,,,,,,CLR,,,,,,,,VFR,,,,,,,,,,,,METAR,106.0
KMFI 302154Z AUTO 20013G20KT 10SM CLR 29/07 A2992 RMK AO2 SLP127 T02940072,KMFI,2023-05-30T21:54:00Z,44.63,-90.18,29.4,7.2,200,13,20,10.0,29.920275,1012.7,,TRUE,TRUE,,,,,,,CLR,,,,,,,,VFR,,,,,,,,,,,,METAR,383.0
KMEM 302154Z 06011G14KT 10SM FEW070 SCT090 BKN250 30/13 A2991 RMK AO2 SLP124 T03000133 $,KMEM,2023-05-30T21:54:00Z,35.07,-89.98,30.0,13.3,60,11,14,10.0,29.911417,1012.4,,,TRUE,TRUE,,,,,,FEW,7000,SCT,9000,BKN,25000,,,VFR,,,,,,,,,,,,METAR,78.0
KLYH 302154Z 10003KT 10SM FEW006 BKN032 OVC070 18/17 A3011 RMK AO2 SLP192 T01830172,KLYH,2023-05-30T21:54:00Z,37.32,-79.2,18.3,17.2,100,3,,10.0,30.109253,1019.2,,,TRUE,,,,,,,FEW,600,BKN,3200,OVC,7000,,,VFR,,,,,,,,,,,,METAR,282.0
KLWT 302154Z AUTO VRB03KT 10SM CLR 24/06 A2984 RMK AO2 SLP076 T02390061,KLWT,2023-05-30T21:54:00Z,47.05,-109.47,23.9,6.1,0,3,,10.0,29.840551,1007.6,,TRUE,TRUE,,,,,,,CLR,,,,,,,,VFR,,,,,,,,,,,,METAR,1254.0
KLWM 302154Z 12006KT 10SM CLR 19/08 A3021 RMK AO2 SLP229 T01890078,KLWM,2023-05-30T21:54:00Z,42.72,-71.13,18.9,7.8,120,6,,10.0,30.209646,1022.9,,,TRUE,,,,,,,CLR,,,,,,,,VFR,,,,,,,,,,,,METAR,42.0
KLNK 302154Z 30009KT 10SM CLR 34/10 A2982 RMK AO2 SLP084 T03390100,KLNK,2023-05-30T21:54:00Z,40.85,-96.77,33.9,10.0,300,9,,10.0,29.819881,1008.4,,,TRUE,,,,,,,CLR,,,,,,,,VFR,,,,,,,,,,,,METAR,357.0
KLEX 302154Z 08009G16KT 10SM FEW055 29/14 A2997 RMK AO2 SLP139 T02890144,KLEX,2023-05-30T21:54:00Z,38.03,-84.6,28.9,14.4,80,9,16,10.0,29.970472,1013.9,,,TRUE,,,,,,,FEW,5500,,,,,,,VFR,,,,,,,,,,,,METAR,294.0
KLAF 302154Z 10005KT 10SM CLR 30/14 A2992 RMK AO2 SLP127 T03000139,KLAF,2023-05-30T21:54:00Z,40.42,-86.93,30.0,13.9,100,5,,10.0,29.920275,1012.7,,,TRUE,,,,,,,CLR,,,,,,,,VFR,,,,,,,,,,,,METAR,182.0
KJST 302154Z AUTO 11005KT 10SM CLR 23/08 A3014 RMK AO2 SLP199 T02330078,KJST,2023-05-30T21:54:00Z,40.32,-78.83,23.3,7.8,110,5,,10.0,30.138779,1019.9,,TRUE,TRUE,,,,,,,CLR,,,,,,,,VFR,,,,,,,,,,,,METAR,695.0
KJAN 302154Z 02007KT 360V070 10SM BKN060 29/14 A2990 RMK AO2 SLP120 T02940144,KJAN,2023-05-30T21:54:00Z,32.32,-90.08,29.4,14.4,20,7,,10.0,29.899607,1012.0,,,TRUE,,,,,,,BKN,6000,,,,,,,VFR,,,,,,,,,,,,METAR,92.0
KIZG 302154Z AUTO 17009G18KT 10SM CLR 23/08 A3013 RMK AO2 SLP204 T02330078,KIZG,2023-05-30T21:54:00Z,43.98,-70.95,23.3,7.8,170,9,18,10.0,30.129921,1020.4,,TRUE,TRUE,,,,,,,CLR,,,,,,,,VFR,,,,,,,,,,,,METAR,138.0
KISW 302154Z AUTO 22011KT 10SM CLR 31/06 A2992 RMK AO2 SLP129 T03110061,KISW,2023-05-30T21:54:00Z,44.37,-89.83,31.1,6.1,220,11,,10.0,29.920275,1012.9,,TRUE,TRUE,,,,,,,CLR,,,,,,,,VFR,,,,,,,,,,,,METAR,311.0
KIPT 302154Z 12005KT 10SM CLR 28/08 A3009 RMK AO2 SLP186 T02780078,KIPT,2023-05-30T21:54:00Z,41.25,-76.92,27.8,7.8,120,5,,10.0,30.088583,1018.6,,,TRUE,,,,,,,CLR,,,,,,,,VFR,,,,,,,,,,,,METAR,160.0
KINT 302154Z 07010KT 10SM SCT021 BKN037 21/16 A3007 RMK AO2 SLP173 T02060156,KINT,2023-05-30T21:54:00Z,36.13,-80.22,20.6,15.6,70,10,,10.0,30.070866,1017.3,,,TRUE,,,,,,,SCT,2100,BKN,3700,,,,,VFR,,,,,,,,,,,,METAR,292.0
KINL 302154Z AUTO 16009G15KT 10SM CLR 27/15 A2976 RMK AO2 SLP076 T02670150,KINL,2023-05-30T21:54:00Z,48.57,-93.4,26.7,15.0,160,9,15,10.0,29.760826,1007.6,,TRUE,TRUE,,,,,,,CLR,,,,,,,,VFR,,,,,,,,,,,,METAR,353.0
KIND 302154Z 15005KT 10SM SCT060 BKN130 28/16 A2994 RMK AO2 SLP133 TCU DSNT S T02830156,KIND,2023-05-30T21:54:00Z,39.72,-86.27,28.3,15.6,150,5,,10.0,29.940945,1013.3,,,TRUE,,,,,,,SCT,6000,BKN,13000,,,,,VFR,,,,,,,,,,,,METAR,242.0
KIMT 302154Z AUTO 21008KT 10SM CLR 31/05 A2993 RMK AO2 SLP132 T03060050,KIMT,2023-05-30T21:54:00Z,45.82,-88.12,30.6,5.0,210,8,,10.0,29.929134,1013.2,,TRUE,TRUE,,,,,,,CLR,,,,,,,,VFR,,,,,,,,,,,,METAR,343.0
KILN 302154Z AUTO 14007KT 10SM FEW060 FEW110 27/14 A2999 RMK AO2 SLP148 T02720144,KILN,2023-05-30T21:54:00Z,39.43,-83.8,27.2,14.4,140,7,,10.0,29.991142,1014.8,,TRUE,TRUE,,,,,,,FEW,6000,FEW,11000,,,,,VFR,,,,,,,,,,,,METAR,325.0
KHWD 302154Z 30015KT 10SM CLR 19/11 A2996 RMK AO2 SLP154 T01890106,KHWD,2023-05-30T21:54:00Z,37.67,-122.12,18.9,10.6,300,15,,10.0,29.958662,1015.4,,,TRUE,,,,,,,CLR,,,,,,,,VFR,,,,,,,,,,,,METAR,9.0
KGSO 302154Z 05014KT 10SM BKN019 20/16 A3006 RMK AO2 SLP171 T02000156,KGSO,2023-05-30T21:54:00Z,36.1,-79.95,20.0,15.6,50,14,,10.0,30.059055,1017.1,,,TRUE,,,,,,,BKN,1900,,,,,,,MVFR,,,,,,,,,,,,METAR,275.0
KGED 302154Z AUTO 05013KT 10SM CLR 19/12 A3014 RMK AO2 SLP206 T01940122 PNO $,KGED,2023-05-30T21:54:00Z,38.68,-75.37,19.4,12.2,50,13,,10.0,30.138779,1020.6,,TRUE,TRUE,TRUE,,,,,,CLR,,,,,,,,VFR,,,,,,,,,,,,METAR,15.0
KGCN 302154Z 18010G21KT 10SM CLR 24/M08 A3006 RMK AO2 PK WND 24026/2124 SLP108 T02391078,KGCN,2023-05-30T21:54:00Z,35.95,-112.15,23.9,-7.8,180,10,21,10.0,30.059055,1010.8,,,TRUE,,,,,,,CLR,,,,,,,,VFR,,,,,,,,,,,,METAR,1993.0
KGCK 302154Z 16013G21KT 10SM CLR 29/16 A2987 RMK AO2 SLP081 T02940156,KGCK,2023-05-30T21:54:00Z,37.92,-100.72,29.4,15.6,160,13,21,10.0,29.870079,1008.1,,,TRUE,,,,,,,CLR,,,,,,,,VFR,,,,,,,,,,,,METAR,877.0
KFZY 302154Z AUTO 36004KT 10SM CLR 27/12 A3008 RMK AO2 SLP183 T02720122,KFZY,2023-05-30T21:54:00Z,43.35,-76.38,27.2,12.2,360,4,,10.0,30.079725,1018.3,,TRUE,TRUE,,,,,,,CLR,,,,,,,,VFR,,,,,,,,,,,,METAR,143.0
KFWA 302154Z 13011KT 10SM FEW080 SCT120 31/13 A2997 RMK AO2 SLP142 T03110128,KFWA,2023-05-30T21:54:00Z,40.98,-85.2,31.1,12.8,130,11,,10.0,29.970472,1014.2,,,TRUE,,,,,,,FEW,8000,SCT,12000,,,,,VFR,,,,,,,,,,,,METAR,243.0
KFIG 302154Z AUTO VRB05KT 10SM CLR 27/08 A3013 RMK AO2 SLP195 T02670083,KFIG,2023-05-30T21:54:00Z,41.05,-78.42,26.7,8.3,0,5,,10.0,30.129921,1019.5,,TRUE,TRUE,,,,,,,CLR,,,,,,,,VFR,,,,,,,,,,,,METAR,461.0
KFFZ 302154Z AUTO 20009KT 10SM CLR 35/M02 A2977 RMK AO2 SLP055 T03501017 $,KFFZ,2023-05-30T21:54:00Z,33.47,-111.72,35.0,-1.7,200,9,,10.0,29.769686,1005.5,,TRUE,TRUE,TRUE,,,,,,CLR,,,,,,,,VFR,,,,,,,,,,,,METAR,420.0
KEWN 302154Z 06009KT 10SM BKN034 BKN047 24/18 A2998 RMK AO2 SLP153 T02390183,KEWN,2023-05-30T21:54:00Z,35.07,-77.05,23.9,18.3,60,9,,10.0,29.97933,1015.3,,,TRUE,,,,,,,BKN,3400,BKN,4700,,,,,VFR,,,,,,,,,,,,METAR,3.0
KEVV 302154Z 08008KT 10SM FEW060 FEW080 29/16 A2992 RMK AO2 SLP128 T02940161,KEVV,2023-05-30T21:54:00Z,38.05,-87.52,29.4,16.1,80,8,,10.0,29.920275,1012.8,,,TRUE,,,,,,,FEW,6000,FEW,8000,,,,,VFR,,,,,,,,,,,,METAR,123.0
KEUG 302154Z 34009KT 10SM BKN034 19/08 A3002 RMK AO2 SLP165 T01890078,KEUG,2023-05-30T21:54:00Z,44.13,-123.22,18.9,7.8,340,9,,10.0,30.02067,1016.5,,,TRUE,,,,,,,BKN,3400,,,,,,,VFR,,,,,,,,,,,,METAR,109.0
KEFD 302154Z 15010KT 10SM FEW055 31/13 A2986,KEFD,2023-05-30T21:54:00Z,29.6,-95.17,31.0,13.0,150,10,,10.0,29.861221,,,,,,,,,,,FEW,5500,,,,,,,VFR,,,,,,,,,,,,METAR,9.0
KECG 302154Z 02011KT 6SM BR OVC007 19/18 A3003 RMK AO2 SLP168 T01940178,KECG,2023-05-30T21:54:00Z,36.27,-76.18,19.4,17.8,20,11,,6.0,30.029528,1016.8,,,TRUE,,,,,,BR,OVC,700,,,,,,,IFR,,,,,,,,,,,,METAR,2.0
KDYL 302154Z AUTO VRB04KT 10SM CLR 23/04 A3016 RMK AO2 SLP210 T02280039,KDYL,2023-05-30T21:54:00Z,40.33,-75.12,22.8,3.9,0,4,,10.0,30.159449,1021.0,,TRUE,TRUE,,,,,,,CLR,,,,,,,,VFR,,,,,,,,,,,,METAR,121.0
KDSV 302154Z AUTO 10007KT 10SM SCT090 29/12 A3006 RMK AO2 SLP184 T02890117,KDSV,2023-05-30T21:54:00Z,42.57,-77.72,28.9,11.7,100,7,,10.0,30.059055,1018.4,,TRUE,TRUE,,,,,,,SCT,9000,,,,,,,VFR,,,,,,,,,,,,METAR,195.0
KDSM 302154Z 16013KT 10SM FEW065TCU BKN250 31/14 A2986 RMK AO2 SLP102 CB DSNT SW-NW MOV NE TCU NW T03110144,KDSM,2023-05-30T21:54:00Z,41.53,-93.67,31.1,14.4,160,13,,10.0,29.861221,1010.2,,,TRUE,,,,,,,FEW,6500,BKN,25000,,,,,VFR,,,,,,,,,,,,METAR,286.0
KDMH 302154Z AUTO 25/08 A3012 RMK AO1 SLP200 T02500083,KDMH,2023-05-30T21:54:00Z,39.28,-76.62,25.0,8.3,,,,,30.121063,1020.0,,TRUE,TRUE,,,,,,,,,,,,,,,,,,,,,,,,,,,METAR,4.0
KDEC 302154Z 09003KT 10SM BKN100 33/10 A2991 RMK AO2 SLP121 T03280100,KDEC,2023-05-30T21:54:00Z,39.83,-88.87,32.8,10.0,90,3,,10.0,29.911417,1012.1,,,TRUE,,,,,,,BKN,10000,,,,,,,VFR,,,,,,,,,,,,METAR,205.0
KDDH 302154Z AUTO 32004KT 10SM CLR 26/10 A3013 RMK AO2 SLP198 T02610100 $,KDDH,2023-05-30T21:54:00Z,42.9,-73.25,26.1,10.0,320,4,,10.0,30.129921,1019.8,,TRUE,TRUE,TRUE,,,,,,CLR,,,,,,,,VFR,,,,,,,,,,,,SPECI,241.0
KCWF 302154Z VRB05KT 7SM TSRA BKN070 27/19 A2987 RMK OCNL LTGCG W RAB2040 TSB2051 TS W,KCWF,2023-05-30T21:54:00Z,30.22,-93.15,27.0,19.0,0,5,,7.0,29.870079,,,,,,,,,,TSRA,BKN,7000,,,,,,,VFR,,,,,,,,,,,,SPECI,4.0
KCRW 302154Z 15007KT 10SM SCT060 27/12 A3001 RMK AO2 SLP154 T02720117,KCRW,2023-05-30T21:54:00Z,38.38,-81.58,27.2,11.7,150,7,,10.0,30.008858,1015.4,,,TRUE,,,,,,,SCT,6000,,,,,,,VFR,,,,,,,,,,,,METAR,278.0
KCOU 302154Z 14005KT 10SM CLR 30/11 A2991 RMK AO2 SLP121 T03000106,KCOU,2023-05-30T21:54:00Z,38.82,-92.22,30.0,10.6,140,5,,10.0,29.911417,1012.1,,,TRUE,,,,,,,CLR,,,,,,,,VFR,,,,,,,,,,,,METAR,272.0
KCOS 302154Z 06011KT 10SM SCT110 BKN200 23/03 A3000 RMK AO2 RAB07E17 SLP085 P0000 T02330028,KCOS,2023-05-30T21:54:00Z,38.82,-104.68,23.3,2.8,60,11,,10.0,30.0,1008.5,,,TRUE,,,,,,,SCT,11000,BKN,20000,,,,,VFR,,,,,,0.005,,,,,,METAR,1886.0
KCEU 302154Z AUTO 05008KT 10SM SCT055 26/16 A2998 RMK AO2 SLP141 T02610156,KCEU,2023-05-30T21:54:00Z,34.67,-82.88,26.1,15.6,50,8,,10.0,29.97933,1014.1,,TRUE,TRUE,,,,,,,SCT,5500,,,,,,,VFR,,,,,,,,,,,,METAR,270.0
KCAR 302154Z AUTO 24006KT 10SM CLR 27/07 A3000 RMK AO2 SLP163 T02670067,KCAR,2023-05-30T21:54:00Z,46.87,-68.02,26.7,6.7,240,6,,10.0,30.0,1016.3,,TRUE,TRUE,,,,,,,CLR,,,,,,,,VFR,,,,,,,,,,,,METAR,189.0
KBWI 302154Z 06010KT 10SM BKN250 24/11 A3011 RMK AO2 SLP196 T02440106,KBWI,2023-05-30T21:54:00Z,39.17,-76.68,24.4,10.6,60,10,,10.0,30.109253,1019.6,,,TRUE,,,,,,,BKN,25000,,,,,,,VFR,,,,,,,,,,,,METAR,42.0
KBUY 302154Z AUTO 02009G16KT 10SM FEW021 FEW027 BKN035 20/16 A3005 RMK AO2 SLP172 T02000156,KBUY,2023-05-30T21:54:00Z,36.05,-79.47,20.0,15.6,20,9,16,10.0,30.050198,1017.2,,TRUE,TRUE,,,,,,,FEW,2100,FEW,2700,BKN,3500,,,VFR,,,,,,,,,,,,METAR,185.0
KBUF 302154Z 25004KT 10SM FEW080 FEW300 29/10 A3006 RMK AO2 SLP176 T02940100,KBUF,2023-05-30T21:54:00Z,42.93,-78.73,29.4,10.0,250,4,,10.0,30.059055,1017.6,,,TRUE,,,,,,,FEW,8000,FEW,30000,,,,,VFR,,,,,,,,,,,,METAR,217.0
KBTV 302154Z 19011KT 10SM FEW075 SCT250 28/09 A3006 RMK AO2 SLP179 T02830094,KBTV,2023-05-30T21:54:00Z,44.47,-73.15,28.3,9.4,190,11,,10.0,30.059055,1017.9,,,TRUE,,,,,,,FEW,7500,SCT,25000,,,,,VFR,,,,,,,,,,,,METAR,101.0
KBOS 302154Z 10016KT 10SM BKN300 16/09 A3020 RMK AO2 SLP227 T01560094,KBOS,2023-05-30T21:54:00Z,42.37,-71.02,15.6,9.4,100,16,,10.0,30.200787,1022.7,,,TRUE,,,,,,,BKN,30000,,,,,,,VFR,,,,,,,,,,,,METAR,4.0
KBFL 302154Z AUTO 33007KT 7SM OVC048 23/11 A2989 RMK AO2 SLP118 T02280106,KBFL,2023-05-30T21:54:00Z,35.43,-119.05,22.8,10.6,330,7,,7.0,29.890747,1011.8,,TRUE,TRUE,,,,,,,OVC,4800,,,,,,,VFR,,,,,,,,,,,,SPECI,146.0
KAVP 302154Z VRB05KT 10SM CLR 26/07 A3012 RMK AO2 SLP195 T02610067,KAVP,2023-05-30T21:54:00Z,41.33,-75.72,26.1,6.7,0,5,,10.0,30.121063,1019.5,,,TRUE,,,,,,,CLR,,,,,,,,VFR,,,,,,,,,,,,METAR,290.0
KAVL 302154Z VRB03KT 2 1/2SM -RA BR FEW027 OVC036 17/16 A3008 RMK AO2 RAB08 SLP171 P0008 T01720161,KAVL,2023-05-30T21:54:00Z,35.43,-82.53,17.2,16.1,0,3,,2.5,30.079725,1017.1,,,TRUE,,,,,,-RA BR,FEW,2700,OVC,3600,,,,,IFR,,,,,,0.08,,,,,,METAR,646.0
KAUW 302154Z AUTO 18010G19KT 10SM CLR 31/07 A2991 RMK AO2 SLP128 T03060067,KAUW,2023-05-30T21:54:00Z,44.93,-89.62,30.6,6.7,180,10,19,10.0,29.911417,1012.8,,TRUE,TRUE,,,,,,,CLR,,,,,,,,VFR,,,,,,,,,,,,METAR,367.0
KAPN 302154Z AUTO 12009KT 10SM CLR 24/11 A3001 RMK AO2 SLP164 T02390106,KAPN,2023-05-30T21:54:00Z,45.07,-83.57,23.9,10.6,120,9,,10.0,30.008858,1016.4,,TRUE,TRUE,,,,,,,CLR,,,,,,,,VFR,,,,,,,,,,,,METAR,208.0
KAPC 302154Z 27016KT 10SM SCT029 20/11 A2993 RMK AO2 WSHFT 2101 SLP127 T02000111,KAPC,2023-05-30T21:54:00Z,38.2,-122.28,20.0,11.1,270,16,,10.0,29.929134,1012.7,,,TRUE,,,,,,,SCT,2900,,,,,,,VFR,,,,,,,,,,,,METAR,5.0
KALO 302154Z 18011KT 10SM FEW080 33/11 A2985 RMK AO2 SLP101 T03280111,KALO,2023-05-30T21:54:00Z,42.55,-92.4,32.8,11.1,180,11,,10.0,29.84941,1010.1,,,TRUE,,,,,,,FEW,8000,,,,,,,VFR,,,,,,,,,,,,METAR,264.0
KAKR 302154Z AUTO 17009G15KT 10SM CLR 30/03 A3004 RMK AO2 SLP163 T03000033,KAKR,2023-05-30T21:54:00Z,41.03,-81.47,30.0,3.3,170,9,15,10.0,30.041338,1016.3,,TRUE,TRUE,,,,,,,CLR,,,,,,,,VFR,,,,,,,,,,,,METAR,319.0
KAKQ 302154Z AUTO 05004KT 2 1/2SM -RA BR BKN008 OVC011 18/17 A3007 RMK AO2 RAE15B44 SLP184 P0001 T01780167,KAKQ,2023-05-30T21:54:00Z,36.98,-77.0,17.8,16.7,50,4,,2.5,30.070866,1018.4,,TRUE,TRUE,,,,,,-RA BR,BKN,800,OVC,1100,,,,,IFR,,,,,,0.01,,,,,,METAR,34.0
KAKH 302154Z AUTO 06007KT 10SM BKN110 23/17 A3001 RMK AO2 SLP156 T02330167,KAKH,2023-05-30T21:54:00Z,35.2,-81.15,23.3,16.7,60,7,,10.0,30.008858,1015.6,,TRUE,TRUE,,,,,,,BKN,11000,,,,,,,VFR,,,,,,,,,,,,METAR,242.0
KACY 302154Z 07011KT 10SM CLR 17/09 A3017 RMK AO2 SLP215 T01720089,KACY,2023-05-30T21:54:00Z,39.45,-74.57,17.2,8.9,70,11,,10.0,30.171259,1021.5,,,TRUE,,,,,,,CLR,,,,,,,,VFR,,,,,,,,,,,,METAR,18.0
KAAO 302154Z AUTO 18009G17KT 10SM FEW060 29/16 A2986 RMK AO2 LTG DSNT NW-NE SLP100 T02940156,KAAO,2023-05-30T21:54:00Z,37.75,-97.22,29.4,15.6,180,9,17,10.0,29.861221,1010.0,,TRUE,TRUE,,,,,,,FEW,6000,,,,,,,VFR,,,,,,,,,,,,METAR,429.0
K1V4 302154Z AUTO 27/08 A3007 RMK AO1 SLP177 T02720078,K1V4,2023-05-30T21:54:00Z,44.42,-72.02,27.2,7.8,,,,,30.070866,1017.7,,TRUE,TRUE,,,,,,,,,,,,,,,,,,,,,,,,,,,METAR,213.0
K12N 302154Z AUTO VRB03KT 25/04 A3016 RMK AO1 SLP209 T02500039,K12N,2023-05-30T21:54:00Z,41.02,-74.73,25.0,3.9,0,3,,,30.159449,1020.9,,TRUE,TRUE,,,,,,,,,,,,,,,,,,,,,,,,,,,METAR,178.0
CYQW 302154Z AUTO 28019G27KT 8SM SCT091 BKN110 19/13 A2980 RMK LTNG DIST S WSHFT AT 2141Z PRESRR SLP094 DENSITY ALT 2800FT,CYQW,2023-05-30T21:54:00Z,52.77,-108.25,19.0,13.0,280,19,27,8.0,29.799213,1009.4,,TRUE,,,,,,,,SCT,9100,BKN,11000,,,,,VFR,,,,,,,,,,,,SPECI,545.0
TJNR 302153Z AUTO 21005KT 10SM BKN019 BKN029 27/24 A2995 RMK AO2 SLP142 T02670244,TJNR,2023-05-30T21:53:00Z,18.25,-65.63,26.7,24.4,210,5,,10.0,29.949802,1014.2,,TRUE,TRUE,,,,,,,BKN,1900,BKN,2900,,,,,MVFR,,,,,,,,,,,,METAR,7.0
TISX 302153Z 12009KT 10SM FEW020 28/23 A2994 RMK AO2 SLP137 T02830233,TISX,2023-05-30T21:53:00Z,17.7,-64.8,28.3,23.3,120,9,,10.0,29.940945,1013.7,,,TRUE,,,,,,,FEW,2000,,,,,,,VFR,,,,,,,,,,,,METAR,16.0
PTSA 302153Z VRB03KT 10SM BKN021 BKN130 BKN300 31/25 A2987 RMK FIRST,PTSA,2023-05-30T21:53:00Z,5.35,162.95,31.0,25.0,0,3,,10.0,29.870079,,,,,,,,,,,BKN,2100,BKN,13000,BKN,30000,,,MVFR,,,,,,,,,,,,METAR,3.0
PTPN 302153Z 15004KT 15SM SCT018 BKN130 OVC300 28/25 A2989 ,PTPN,2023-05-30T21:53:00Z,6.98,158.22,28.0,25.0,150,4,,15.0,29.890747,,,,,,,,,,,SCT,1800,BKN,13000,OVC,30000,,,VFR,,,,,,,,,,,,METAR,3.0
PTKK 302153Z 08008KT 14SM -SHRA SCT012CB BKN120 OVC280 26/25 A2986 RMK CB ALQDS MOV W SLP115 T02630254,PTKK,2023-05-30T21:53:00Z,7.47,151.85,26.3,25.4,80,8,,14.0,29.861221,1011.5,,,,,,,,,-SHRA,SCT,1200,BKN,12000,OVC,28000,,,VFR,,,,,,,,,,,,METAR,3.0
PHTO 302153Z 04006KT 10SM SCT025 SCT043 BKN070 27/21 A3007 RMK AO2 RAB2054E05 SLP181 P0002 T02720206,PHTO,2023-05-30T21:53:00Z,19.72,-155.05,27.2,20.6,40,6,,10.0,30.070866,1018.1,,,TRUE,,,,,,,SCT,2500,SCT,4300,BKN,7000,,,VFR,,,,,,0.02,,,,,,METAR,9.0
PHNL 302153Z 05017G22KT 10SM FEW025 SCT040 29/19 A3005 RMK AO2 PK WND 03028/2058 SLP174 T02890189 $,PHNL,2023-05-30T21:53:00Z,21.33,-157.93,28.9,18.9,50,17,22,10.0,30.050198,1017.4,,,TRUE,TRUE,,,,,,FEW,2500,SCT,4000,,,,,VFR,,,,,,,,,,,,METAR,2.0
PHLI 302153Z 05011KT 10SM FEW024 SCT031 27/22 A3010 RMK AO2 SLP188 T02670217,PHLI,2023-05-30T21:53:00Z,21.97,-159.33,26.7,21.7,50,11,,10.0,30.100393,1018.8,,,TRUE,,,,,,,FEW,2400,SCT,3100,,,,,VFR,,,,,,,,,,,,METAR,32.0
PHKO 302153Z 19011KT 10SM FEW045 BKN110 29/21 A3003 RMK AO2 SLP168 T02890206,PHKO,2023-05-30T21:53:00Z,19.73,-156.05,28.9,20.6,190,11,,10.0,30.029528,1016.8,,,TRUE,,,,,,,FEW,4500,BKN,11000,,,,,VFR,,,,,,,,,,,,METAR,11.0
PHJR 302153Z 06010G15KT 10SM SCT042 28/17 A3006 RMK AO2 SLP186 T02830172,PHJR,2023-05-30T21:53:00Z,21.32,-158.07,28.3,17.2,60,10,15,10.0,30.059055,1018.6,,,TRUE,,,,,,,SCT,4200,,,,,,,VFR,,,,,,,,,,,,METAR,9.0
PAYA 302153Z AUTO VRB04KT 10SM -RA OVC014 07/05 A2984 RMK AO2 RAB2059E17B32 SLP103 P0000 T00670050 TSNO $,PAYA,2023-05-30T21:53:00Z,59.52,-139.67,6.7,5.0,0,4,,10.0,29.840551,1010.3,,TRUE,TRUE,TRUE,,TRUE,,,-RA,OVC,1400,,,,,,,MVFR,,,,,,0.005,,,,,,METAR,9.0
PAWI 302153Z AUTO 24005KT 10SM SCT011 OVC022 01/M02 A2961 RMK AO2 SNB10E33 SLP028 P0000 T00061022 TSNO $,PAWI,2023-05-30T21:53:00Z,70.63,-160.02,0.6,-2.2,240,5,,10.0,29.610237,1002.8,,TRUE,TRUE,TRUE,,TRUE,,,,SCT,1100,OVC,2200,,,,,MVFR,,,,,,0.005,,,,,,METAR,12.0
PAWD 302153Z AUTO 17012KT 10SM OVC055 10/03 A2978 RMK AO2 SLP086 T01000028 TSNO,PAWD,2023-05-30T21:53:00Z,60.12,-149.42,10.0,2.8,170,12,,10.0,29.778543,1008.6,,TRUE,TRUE,,,TRUE,,,,OVC,5500,,,,,,,VFR,,,,,,,,,,,,METAR,3.0
PAVL 302153Z AUTO 25016KT 10SM BKN011 M01/M03 A2972 RMK AO2 SLP065 T10061033 TSNO,PAVL,2023-05-30T21:53:00Z,67.73,-164.55,-0.6,-3.3,250,16,,10.0,29.719488,1006.5,,TRUE,TRUE,,,TRUE,,,,BKN,1100,,,,,,,MVFR,,,,,,,,,,,,METAR,6.0
PATO 302153Z AUTO 11009G18KT 10SM CLR 09/01 A2979 RMK AO2 SLP089 T00940006 TSNO,PATO,2023-05-30T21:53:00Z,60.78,-148.85,9.4,0.6,110,9,18,10.0,29.790354,1008.9,,TRUE,TRUE,,,TRUE,,,,CLR,,,,,,,,VFR,,,,,,,,,,,,METAR,47.0
PATK 302153Z 19006KT 10SM SCT014 BKN021 OVC031 08/04 A2976 RMK AO2 RAE35 SLP080 P0001 T00780039,PATK,2023-05-30T21:53:00Z,62.32,-150.1,7.8,3.9,190,6,,10.0,29.760826,1008.0,,,TRUE,,,,,,,SCT,1400,BKN,2100,OVC,3100,,,MVFR,,,,,,0.01,,,,,,METAR,107.0
PASO 302153Z AUTO 17008G16KT 10SM OVC075 11/05 A2977 RMK AO2 SLP080 T01110050 TSNO,PASO,2023-05-30T21:53:00Z,59.45,-151.7,11.1,5.0,170,8,16,10.0,29.769686,1008.0,,TRUE,TRUE,,,TRUE,,,,OVC,7500,,,,,,,VFR,,,,,,,,,,,,METAR,20.0
PASN 302153Z AUTO 31018KT 10SM FEW021 06/M02 A3013 RMK AO2 PK WND 33026/2059 SLP204 T00561017 TSNO $,PASN,2023-05-30T21:53:00Z,57.15,-170.22,5.6,-1.7,310,18,,10.0,30.129921,1020.4,,TRUE,TRUE,TRUE,,TRUE,,,,FEW,2100,,,,,,,VFR,,,,,,,,,,,,METAR,8.0
PASI 302153Z 21011KT 6SM -RA FEW005 BKN031 OVC043 08/06 A2981 RMK AO2 SLP095 P0007 T00830056 $,PASI,2023-05-30T21:53:00Z,57.03,-135.35,8.3,5.6,210,11,,6.0,29.811024,1009.5,,,TRUE,TRUE,,,,,-RA,FEW,500,BKN,3100,OVC,4300,,,VFR,,,,,,0.07,,,,,,METAR,2.0
PASC 302153Z 23003KT 10SM FEW010 SCT042 OVC080 05/02 A2962 RMK AO2 SLP030 T00500017,PASC,2023-05-30T21:53:00Z,70.2,-148.47,5.0,1.7,230,3,,10.0,29.619095,1003.0,,,TRUE,,,,,,,FEW,1000,SCT,4200,OVC,8000,,,VFR,,,,,,,,,,,,METAR,17.0
PAQT 302153Z AUTO 27008KT 10SM OVC008 05/03 A2965 RMK AO2 SLP040 T00500028,PAQT,2023-05-30T21:53:00Z,70.22,-151.0,5.0,2.8,270,8,,10.0,29.648623,1004.0,,TRUE,TRUE,,,,,,,OVC,800,,,,,,,IFR,,,,,,,,,,,,METAR,11.0
PAOT 302153Z 28015KT 8SM SCT006 BKN014 OVC039 M01/M01 A2974 RMK AO2 SLP072 T10061006,PAOT,2023-05-30T21:53:00Z,66.88,-162.6,-0.6,-0.6,280,15,,8.0,29.740158,1007.2,,,TRUE,,,,,,,SCT,600,BKN,1400,OVC,3900,,,MVFR,,,,,,,,,,,,METAR,3.0
PAOR 302153Z 31007KT 10SM -RA SCT017 BKN037 OVC045 07/03 A2963 RMK AO2 RAB01E35B51 SLP050 RA DSNT S P0000 T00670028,PAOR,2023-05-30T21:53:00Z,62.97,-141.93,6.7,2.8,310,7,,10.0,29.630905,1005.0,,,TRUE,,,,,,-RA,SCT,1700,BKN,3700,OVC,4500,,,VFR,,,,,,0.005,,,,,,METAR,524.0
PAOM 302153Z 31010KT 10SM SCT033 06/M01 A2978 RMK AO2 SLP085 T00561006,PAOM,2023-05-30T21:53:00Z,64.5,-165.43,5.6,-0.6,310,10,,10.0,29.778543,1008.5,,,TRUE,,,,,,,SCT,3300,,,,,,,VFR,,,,,,,,,,,,METAR,6.0
PANN 302153Z AUTO 00000KT 4SM -RA BR SCT009 BKN042 OVC055 08/07 A2965 RMK AO2 SLP048 P0003 T00780067 TSNO,PANN,2023-05-30T21:53:00Z,64.55,-149.08,7.8,6.7,0,0,,4.0,29.648623,1004.8,,TRUE,TRUE,,,TRUE,,,-RA BR,SCT,900,BKN,4200,OVC,5500,,,MVFR,,,,,,0.03,,,,,,METAR,110.0
PANC 302153Z 30008KT 10SM -RA BKN045 OVC055 09/04 A2976 RMK AO2 RAB29 SLP080 P0000 T00890044,PANC,2023-05-30T21:53:00Z,61.17,-150.02,8.9,4.4,300,8,,10.0,29.760826,1008.0,,,TRUE,,,,,,-RA,BKN,4500,OVC,5500,,,,,VFR,,,,,,0.005,,,,,,METAR,39.0
PAMR 302153Z 28007KT 10SM -RA OVC039 10/02 A2976 RMK AO2 RAB13 SLP078 P0000 T01000022,PAMR,2023-05-30T21:53:00Z,61.22,-149.85,10.0,2.2,280,7,,10.0,29.760826,1007.8,,,TRUE,,,,,,-RA,OVC,3900,,,,,,,VFR,,,,,,0.005,,,,,,METAR,43.0
PAMC 302153Z AUTO 17005KT 10SM BKN024 OVC031 09/04 A2971 RMK AO2 SLP066 T00890039 TSNO,PAMC,2023-05-30T21:53:00Z,62.97,-155.62,8.9,3.9,170,5,,10.0,29.71063,1006.6,,TRUE,TRUE,,,TRUE,,,,BKN,2400,OVC,3100,,,,,MVFR,,,,,,,,,,,,METAR,101.0
PALH 302153Z 30011KT 10SM FEW038 OVC047 09/03 A2976 RMK AO2 RAB26E42 SLP079 P0000 T00890033,PALH,2023-05-30T21:53:00Z,61.18,-149.97,8.9,3.3,300,11,,10.0,29.760826,1007.9,,,TRUE,,,,,,,FEW,3800,OVC,4700,,,,,VFR,,,,,,0.005,,,,,,METAR,26.0
PAKW 302153Z AUTO 15007KT 10SM SCT026 SCT034 BKN110 09/06 A2987 RMK AO2 RAE13 SLP117 P0002 T00890056 TSNO $,PAKW,2023-05-30T21:53:00Z,55.58,-133.07,8.9,5.6,150,7,,10.0,29.870079,1011.7,,TRUE,TRUE,TRUE,,TRUE,,,,SCT,2600,SCT,3400,BKN,11000,,,VFR,,,,,,0.02,,,,,,METAR,7.0
PAKV 302153Z AUTO VRB03KT 10SM SCT023 BKN029 OVC035 08/03 A2974 RMK AO2 RAE16 SLP072 P0000 T00780033 TSNO,PAKV,2023-05-30T21:53:00Z,64.33,-158.72,7.8,3.3,0,3,,10.0,29.740158,1007.2,,TRUE,TRUE,,,TRUE,,,,SCT,2300,BKN,2900,OVC,3500,,,MVFR,,,,,,0.005,,,,,,METAR,53.0
PAKT 302153Z 14006KT 5SM RA BR BKN023 OVC036 08/06 A2994 RMK AO2 SLP138 HARBOR WIND 10015KT P0007 T00780061,PAKT,2023-05-30T21:53:00Z,55.35,-131.72,7.8,6.1,140,6,,5.0,29.940945,1013.8,,,TRUE,,,,,,RA BR,BKN,2300,OVC,3600,,,,,MVFR,,1.5,,,,0.07,,,,,,METAR,27.0
PAJN 302153Z 12016G23KT 10SM FEW033 SCT047 BKN070 OVC250 11/03 A2983 RMK AO2 SLP101 T01060033,PAJN,2023-05-30T21:53:00Z,58.35,-134.55,10.6,3.3,120,16,23,10.0,29.828741,1010.1,,,TRUE,,,,,,,FEW,3300,SCT,4700,BKN,7000,OVC,25000,VFR,,,,,,,,,,,,METAR,6.0
PAIL 302153Z AUTO 11004KT 10SM BKN016 OVC048 06/02 A2977 RMK AO2 SLP082 T00560017 TSNO,PAIL,2023-05-30T21:53:00Z,59.75,-154.92,5.6,1.7,110,4,,10.0,29.769686,1008.2,,TRUE,TRUE,,,TRUE,,,,BKN,1600,OVC,4800,,,,,MVFR,,,,,,,,,,,,METAR,44.0
PAHO 302153Z 26005KT 10SM OVC065 09/03 A2977 RMK AO2 SLP082 T00940028,PAHO,2023-05-30T21:53:00Z,59.63,-151.48,9.4,2.8,260,5,,10.0,29.769686,1008.2,,,TRUE,,,,,,,OVC,6500,,,,,,,VFR,,,,,,,,,,,,METAR,6.0
PAGY 302153Z AUTO 20018KT 10SM FEW065 11/02 A2978 RMK AO2 SLP084 T01110022 TSNO $,PAGY,2023-05-30T21:53:00Z,59.47,-135.32,11.1,2.2,200,18,,10.0,29.778543,1008.4,,TRUE,TRUE,TRUE,,TRUE,,,,FEW,6500,,,,,,,VFR,,,,,,,,,,,,METAR,7.0
PAFA 302153Z 25006KT 10SM -RA BKN008 OVC015 08/06 A2964 RMK AO2 SLP043 PCPN VRY LGT P0000 T00830056,PAFA,2023-05-30T21:53:00Z,64.8,-147.87,8.3,5.6,250,6,,10.0,29.639763,1004.3,,,TRUE,,,,,,-RA,BKN,800,OVC,1500,,,,,IFR,,,,,,0.005,,,,,,METAR,130.0
PAEN 302153Z 23014G20KT 10SM FEW040 OVC080 09/05 A2977 RMK AO2 SLP081 T00940050,PAEN,2023-05-30T21:53:00Z,60.57,-151.25,9.4,5.0,230,14,20,10.0,29.769686,1008.1,,,TRUE,,,,,,,FEW,4000,OVC,8000,,,,,VFR,,,,,,,,,,,,METAR,30.0
PAEG 302153Z AUTO 15004KT 10SM FEW039 SCT049 OVC065 11/05 A2957 RMK AO2 RAE03 SLP017 P0000 T01060050 TSNO,PAEG,2023-05-30T21:53:00Z,64.78,-141.15,10.6,5.0,150,4,,10.0,29.568897,1001.7,,TRUE,TRUE,,,TRUE,,,,FEW,3900,SCT,4900,OVC,6500,,,VFR,,,,,,0.005,,,,,,METAR,273.0
PADQ 302153Z 10009KT 10SM CLR 09/05 A2975 RMK AO2 SLP075 T00940050,PADQ,2023-05-30T21:53:00Z,57.75,-152.5,9.4,5.0,100,9,,10.0,29.749016,1007.5,,,TRUE,,,,,,,CLR,,,,,,,,VFR,,,,,,,,,,,,METAR,5.0
PADE 302153Z AUTO 28017KT 10SM OVC008 02/01 A2977 RMK AO2 SLP080 T00170006 TSNO,PADE,2023-05-30T21:53:00Z,66.07,-162.77,1.7,0.6,280,17,,10.0,29.769686,1008.0,,TRUE,TRUE,,,TRUE,,,,OVC,800,,,,,,,IFR,,,,,,,,,,,,METAR,5.0
PACV 302153Z 18003KT 10SM -RA FEW019 OVC049 08/04 A2983 RMK AO2 RAB13 SLP102 P0000 T00780039,PACV,2023-05-30T21:53:00Z,60.5,-145.47,7.8,3.9,180,3,,10.0,29.828741,1010.2,,,TRUE,,,,,,-RA,FEW,1900,OVC,4900,,,,,VFR,,,,,,0.005,,,,,,METAR,15.0
PACD 302153Z 31023G30KT 10SM BKN013 OVC021 04/01 A2989 RMK AO2 PK WND 31031/2119 SLP122 T00390011,PACD,2023-05-30T21:53:00Z,55.22,-162.72,3.9,1.1,310,23,30,10.0,29.890747,1012.2,,,TRUE,,,,,,,BKN,1300,OVC,2100,,,,,MVFR,,,,,,,,,,,,METAR,23.0
PABT 302153Z VRB03KT 10SM FEW031 FEW060 SCT100 14/02 A2958 RMK AO2 SLP024 T01440017,PABT,2023-05-30T21:53:00Z,66.92,-151.52,14.4,1.7,0,3,,10.0,29.58071,1002.4,,,TRUE,,,,,,,FEW,3100,FEW,6000,SCT,10000,,,VFR,,,,,,,,,,,,METAR,195.0
PABR 302153Z 25008KT 10SM OVC005 00/M02 A2964 RMK AO2 SLP037 T00001017,PABR,2023-05-30T21:53:00Z,71.28,-156.78,0.0,-1.7,250,8,,10.0,29.639763,1003.7,,,TRUE,,,,,,,OVC,500,,,,,,,IFR,,,,,,,,,,,,METAR,6.0
PABI 302153Z 30011KT 10SM SCT010 BKN017 OVC060 07/04 A2967 RMK AO2 RAE44 SLP058 SHRA VC ALQDS P0000 T00720039,PABI,2023-05-30T21:53:00Z,64.0,-145.72,7.2,3.9,300,11,,10.0,29.66929,1005.8,,,TRUE,,,,,,,SCT,1000,BKN,1700,OVC,6000,,,MVFR,,,,,,0.005,,,,,,METAR,388.0
PABE 302153Z 34010KT 7SM -RA BKN011 BKN024 OVC029 03/03 A2972 RMK AO2 RAB2055E37B42 SLP065 P0000 T00330028,PABE,2023-05-30T21:53:00Z,60.78,-161.83,3.3,2.8,340,10,,7.0,29.719488,1006.5,,,TRUE,,,,,,-RA,BKN,1100,BKN,2400,OVC,2900,,,MVFR,,,,,,0.005,,,,,,METAR,28.0
PAAQ 302153Z VRB03KT 10SM SCT031 SCT039 OVC047 12/04 A2974 RMK AO2 RAB2054E04B24E40 SLP074 P0000 T01170044,PAAQ,2023-05-30T21:53:00Z,61.6,-149.08,11.7,4.4,0,3,,10.0,29.740158,1007.4,,,TRUE,,,,,,,SCT,3100,SCT,3900,OVC,4700,,,VFR,,,,,,0.005,,,,,,METAR,68.0
MMPQ 302153Z 36009KT 6SM SCT090 35/24 A2962 RMK 8/020 HZY,MMPQ,2023-05-30T21:53:00Z,17.53,-92.02,35.0,24.0,360,9,,6.0,29.619095,,,,,,,,,,,SCT,9000,,,,,,,VFR,,,,,,,,,,,,METAR,48.0
KZZV 302153Z AUTO 10010KT 10SM FEW055 SCT070 28/16 A3002 RMK AO2 SLP158 T02830156,KZZV,2023-05-30T21:53:00Z,39.95,-81.9,28.3,15.6,100,10,,10.0,30.02067,1015.8,,TRUE,TRUE,,,,,,,FEW,5500,SCT,7000,,,,,VFR,,,,,,,,,,,,METAR,268.0
KYKM 302153Z AUTO VRB04KT 10SM CLR 27/00 A2980 RMK AO2 SLP083 T02670000,KYKM,2023-05-30T21:53:00Z,46.57,-120.53,26.7,0.0,0,4,,10.0,29.799213,1008.3,,TRUE,TRUE,,,,,,,CLR,,,,,,,,VFR,,,,,,,,,,,,METAR,319.0
KYIP 302153Z 13007G17KT 10SM CLR 29/13 A3001 RMK AO2 SLP157 T02940128,KYIP,2023-05-30T21:53:00Z,42.23,-83.53,29.4,12.8,130,7,17,10.0,30.008858,1015.7,,,TRUE,,,,,,,CLR,,,,,,,,VFR,,,,,,,,,,,,METAR,215.0
KXVG 302153Z AUTO 16013G18KT 10SM SCT050 BKN060 27/16 A2977 RMK AO2,KXVG,2023-05-30T21:53:00Z,46.98,-94.2,27.0,16.0,160,13,18,10.0,29.769686,,,TRUE,TRUE,,,,,,,SCT,5000,BKN,6000,,,,,VFR,,,,,,,,,,,,METAR,407.0
KXNA 302153Z 21008KT 10SM SCT055 29/16 A2993 RMK AO2 SLP122 T02890161,KXNA,2023-05-30T21:53:00Z,36.28,-94.3,28.9,16.1,210,8,,10.0,29.929134,1012.2,,,TRUE,,,,,,,SCT,5500,,,,,,,VFR,,,,,,,,,,,,METAR,390.0
KWVI 302153Z AUTO 25010KT 10SM BKN090 17/09 A2999 RMK AO2 SLP154 T01720094,KWVI,2023-05-30T21:53:00Z,36.93,-121.78,17.2,9.4,250,10,,10.0,29.991142,1015.4,,TRUE,TRUE,,,,,,,BKN,9000,,,,,,,VFR,,,,,,,,,,,,METAR,47.0
KWST 302153Z AUTO 12009KT 10SM CLR 16/07 A3021 RMK AO2 SLP230 T01560067,KWST,2023-05-30T21:53:00Z,41.35,-71.8,15.6,6.7,120,9,,10.0,30.209646,1023.0,,TRUE,TRUE,,,,,,,CLR,,,,,,,,VFR,,,,,,,,,,,,METAR,20.0
KWRL 302153Z AUTO 23009KT 10SM CLR 24/04 A2985 RMK AO2 SLP076 T02440044,KWRL,2023-05-30T21:53:00Z,43.97,-107.95,24.4,4.4,230,9,,10.0,29.84941,1007.6,,TRUE,TRUE,,,,,,,CLR,,,,,,,,VFR,,,,,,,,,,,,METAR,1281.0
KVUO 302153Z AUTO VRB04KT 10SM CLR 18/05 A3003 RMK AO2 SLP170 T01780050,KVUO,2023-05-30T21:53:00Z,45.62,-122.65,17.8,5.0,0,4,,10.0,30.029528,1017.0,,TRUE,TRUE,,,,,,,CLR,,,,,,,,VFR,,,,,,,,,,,,METAR,7.0
KVRB 302153Z 09012KT 10SM CLR 28/18 A2989 RMK AO2 SLP122 T02830183,KVRB,2023-05-30T21:53:00Z,27.65,-80.42,28.3,18.3,90,12,,10.0,29.890747,1012.2,,,TRUE,,,,,,,CLR,,,,,,,,VFR,,,,,,,,,,,,METAR,7.0
KVLD 302153Z VRB03KT 10SM CLR 31/14 A2988 RMK AO1 SLP125 T03060139,KVLD,2023-05-30T21:53:00Z,30.78,-83.27,30.6,13.9,0,3,,10.0,29.878937,1012.5,,,TRUE,,,,,,,CLR,,,,,,,,VFR,,,,,,,,,,,,METAR,59.0
KVIH 302153Z AUTO 17008KT 10SM CLR 30/12 A2994 RMK AO2 SLP129 T03000122,KVIH,2023-05-30T21:53:00Z,38.13,-91.77,30.0,12.2,170,8,,10.0,29.940945,1012.9,,TRUE,TRUE,,,,,,,CLR,,,,,,,,VFR,,,,,,,,,,,,METAR,342.0
KVGT 302153Z 14014G22KT 10SM CLR 32/M02 A2975 RMK AO2 SLP067 T03221017,KVGT,2023-05-30T21:53:00Z,36.22,-115.2,32.2,-1.7,140,14,22,10.0,29.749016,1006.7,,,TRUE,,,,,,,CLR,,,,,,,,VFR,,,,,,,,,,,,METAR,664.0
KVEL 302153Z AUTO 25015G19KT 10SM CLR 27/01 A2992 RMK AO2 SLP072 T02670006,KVEL,2023-05-30T21:53:00Z,40.45,-109.52,26.7,0.6,250,15,19,10.0,29.920275,1007.2,,TRUE,TRUE,,,,,,,CLR,,,,,,,,VFR,,,,,,,,,,,,METAR,1604.0
KVCB 302153Z AUTO 22015G21KT 10SM CLR 24/12 A2988 RMK AO2 SLP116 T02390117,KVCB,2023-05-30T21:53:00Z,38.38,-121.95,23.9,11.7,220,15,21,10.0,29.878937,1011.6,,TRUE,TRUE,,,,,,,CLR,,,,,,,,VFR,,,,,,,,,,,,METAR,30.0
KUUU 302153Z AUTO 14008KT 10SM CLR 14/09 A3021 RMK AO2 SLP230 T01390094,KUUU,2023-05-30T21:53:00Z,41.53,-71.28,13.9,9.4,140,8,,10.0,30.209646,1023.0,,TRUE,TRUE,,,,,,,CLR,,,,,,,,VFR,,,,,,,,,,,,METAR,45.0
KUTS 302153Z AUTO VRB03KT 10SM SCT055 32/17 A2987 RMK AO2 LTG DSNT N SLP110 T03170172,KUTS,2023-05-30T21:53:00Z,30.75,-95.58,31.7,17.2,0,3,,10.0,29.870079,1011.0,,TRUE,TRUE,,,,,,,SCT,5500,,,,,,,VFR,,,,,,,,,,,,METAR,103.0
KUNV 302153Z 12006KT 10SM CLR 25/08 A3013,KUNV,2023-05-30T21:53:00Z,40.85,-77.83,25.0,8.0,120,6,,10.0,30.129921,,,,,,,,,,,CLR,,,,,,,,VFR,,,,,,,,,,,,METAR,365.0
KUNO 302153Z AUTO 00000KT 10SM CLR 28/13 A2996 RMK AO2 SLP133 T02830128,KUNO,2023-05-30T21:53:00Z,36.88,-91.9,28.3,12.8,0,0,,10.0,29.958662,1013.3,,TRUE,TRUE,,,,,,,CLR,,,,,,,,VFR,,,,,,,,,,,,METAR,376.0
KUIL 302153Z AUTO 29008G16KT 270V330 10SM BKN035 15/04 A3009 RMK AO2 SLP190 T01500044,KUIL,2023-05-30T21:53:00Z,47.93,-124.55,15.0,4.4,290,8,16,10.0,30.088583,1019.0,,TRUE,TRUE,,,,,,,BKN,3500,,,,,,,VFR,,,,,,,,,,,,METAR,58.0
KUAO 302153Z COR 02006KT 10SM FEW047 17/06 A3003 RMK AO2 SLP166 T01720056,KUAO,2023-05-30T21:53:00Z,45.25,-122.77,17.2,5.6,20,6,,10.0,30.029528,1016.6,TRUE,,TRUE,,,,,,,FEW,4700,,,,,,,VFR,,,,,,,,,,,,METAR,60.0
KTZR 302153Z 14009KT 10SM FEW055 29/15 A3001,KTZR,2023-05-30T21:53:00Z,39.9,-83.13,29.0,15.0,140,9,,10.0,30.008858,,,,,,,,,,,FEW,5500,,,,,,,VFR,,,,,,,,,,,,METAR,275.0
KTYS 302153Z 04003KT 10SM FEW070 FEW100 27/14 A2994 RMK AO2 SLP131 T02720144,KTYS,2023-05-30T21:53:00Z,35.82,-83.98,27.2,14.4,40,3,,10.0,29.940945,1013.1,,,TRUE,,,,,,,FEW,7000,FEW,10000,,,,,VFR,,,,,,,,,,,,METAR,300.0
KTYR 302153Z 17006KT 10SM TS FEW036 SCT055 BKN075 27/21 A2989 RMK AO2 LTG DSNT S RAB23E52 TSB37 SLP114 P0000 T02670206,KTYR,2023-05-30T21:53:00Z,32.37,-95.4,26.7,20.6,170,6,,10.0,29.890747,1011.4,,,TRUE,,,,,,TS,FEW,3600,SCT,5500,BKN,7500,,,VFR,,,,,,0.005,,,,,,METAR,161.0
KTXK 302153Z 00000KT 10SM FEW080 32/14 A2990 RMK AO2 SLP120 T03170139,KTXK,2023-05-30T21:53:00Z,33.45,-93.98,31.7,13.9,0,0,,10.0,29.899607,1012.0,,,TRUE,,,,,,,FEW,8000,,,,,,,VFR,,,,,,,,,,,,METAR,118.0
KTWF 302153Z 24014G22KT 10SM VCTS BKN100 25/04 A2986 RMK AO2 LTG DSNT ALQDS SLP066 T02500044,KTWF,2023-05-30T21:53:00Z,42.48,-114.48,25.0,4.4,240,14,22,10.0,29.861221,1006.6,,,TRUE,,,,,,VCTS,BKN,10000,,,,,,,VFR,,,,,,,,,,,,METAR,1269.0
KTVR 302153Z AUTO 11004KT 10SM FEW075 31/13 A2989 RMK AO2 SLP128 T03060133 $,KTVR,2023-05-30T21:53:00Z,32.35,-91.03,30.6,13.3,110,4,,10.0,29.890747,1012.8,,TRUE,TRUE,TRUE,,,,,,FEW,7500,,,,,,,VFR,,,,,,,,,,,,METAR,25.0
KTVL 302153Z AUTO 07005KT 10SM OVC070 17/07 A2997 RMK AO2 LTG DSNT N SLP108 T01670067,KTVL,2023-05-30T21:53:00Z,38.9,-120.0,16.7,6.7,70,5,,10.0,29.970472,1010.8,,TRUE,TRUE,,,,,,,OVC,7000,,,,,,,VFR,,,,,,,,,,,,METAR,1907.0
KTVC 302153Z 02007KT 10SM SCT130 26/11 A2996 RMK AO2 SLP144 T02560111,KTVC,2023-05-30T21:53:00Z,44.73,-85.58,25.6,11.1,20,7,,10.0,29.958662,1014.4,,,TRUE,,,,,,,SCT,13000,,,,,,,VFR,,,,,,,,,,,,METAR,188.0
KTUS 302153Z 23015G23KT 10SM CLR 35/M05 A2985 RMK AO2 SLP056 T03501050,KTUS,2023-05-30T21:53:00Z,32.13,-110.95,35.0,-5.0,230,15,23,10.0,29.84941,1005.6,,,TRUE,,,,,,,CLR,,,,,,,,VFR,,,,,,,,,,,,METAR,776.0
KTUP 302153Z 01008KT 10SM FEW085 29/15 A2992 RMK AO2 SLP127 T02940150,KTUP,2023-05-30T21:53:00Z,34.27,-88.77,29.4,15.0,10,8,,10.0,29.920275,1012.7,,,TRUE,,,,,,,FEW,8500,,,,,,,VFR,,,,,,,,,,,,METAR,107.0
KTUL 302153Z 17008KT 10SM SCT060 SCT250 29/18 A2988 RMK AO2 SLP111 T02940183,KTUL,2023-05-30T21:53:00Z,36.2,-95.88,29.4,18.3,170,8,,10.0,29.878937,1011.1,,,TRUE,,,,,,,SCT,6000,SCT,25000,,,,,VFR,,,,,,,,,,,,METAR,196.0
KTTN 302153Z 08007KT 10SM CLR 21/02 A3016 RMK AO2 SLP207 T02060017,KTTN,2023-05-30T21:53:00Z,40.28,-74.82,20.6,1.7,80,7,,10.0,30.159449,1020.7,,,TRUE,,,,,,,CLR,,,,,,,,VFR,,,,,,,,,,,,METAR,58.0
KTTD 302153Z 25009KT 10SM CLR 19/06 A3002 RMK AO2 SLP165 T01890056,KTTD,2023-05-30T21:53:00Z,45.55,-122.42,18.9,5.6,250,9,,10.0,30.02067,1016.5,,,TRUE,,,,,,,CLR,,,,,,,,VFR,,,,,,,,,,,,METAR,8.0
KTRI 302153Z 12004KT 10SM SCT045 SCT075 25/14 A3002 RMK AO2 SLP144 T02500139,KTRI,2023-05-30T21:53:00Z,36.48,-82.4,25.0,13.9,120,4,,10.0,30.02067,1014.4,,,TRUE,,,,,,,SCT,4500,SCT,7500,,,,,VFR,,,,,,,,,,,,METAR,456.0
KTPA 302153Z 27006KT 10SM FEW050 SCT250 31/16 A2986 RMK AO2 SLP111 T03060161,KTPA,2023-05-30T21:53:00Z,27.97,-82.53,30.6,16.1,270,6,,10.0,29.861221,1011.1,,,TRUE,,,,,,,FEW,5000,SCT,25000,,,,,VFR,,,,,,,,,,,,METAR,2.0
KTOR 302153Z AUTO 27003KT 10SM SCT120 26/10 A2988 RMK AO2 LTG DSNT SW-N SLP081 T02560100,KTOR,2023-05-30T21:53:00Z,42.07,-104.15,25.6,10.0,270,3,,10.0,29.878937,1008.1,,TRUE,TRUE,,,,,,,SCT,12000,,,,,,,VFR,,,,,,,,,,,,METAR,1285.0
KTOI 302153Z AUTO 07004KT 10SM FEW065 28/14 A2991 RMK AO2 SLP124 T02780144,KTOI,2023-05-30T21:53:00Z,31.85,-86.02,27.8,14.4,70,4,,10.0,29.911417,1012.4,,TRUE,TRUE,,,,,,,FEW,6500,,,,,,,VFR,,,,,,,,,,,,METAR,120.0
KTMB 302153Z 10010KT 10SM VCTS FEW110 29/22 A2983 RMK AO2 LTG DSNT W AND NW SLP100 T02940217,KTMB,2023-05-30T21:53:00Z,25.65,-80.43,29.4,21.7,100,10,,10.0,29.828741,1010.0,,,TRUE,,,,,,VCTS,FEW,11000,,,,,,,VFR,,,,,,,,,,,,METAR,2.0
KTLH 302153Z 36006KT 10SM SCT055 29/16 A2988 RMK AO2 SLP116 T02890156,KTLH,2023-05-30T21:53:00Z,30.4,-84.35,28.9,15.6,360,6,,10.0,29.878937,1011.6,,,TRUE,,,,,,,SCT,5500,,,,,,,VFR,,,,,,,,,,,,METAR,17.0
KTKI 302153Z 35007KT 10SM -RA BKN110 22/21 A2992 RMK AO2 LTG DSNT S AND SW SLP130 P0002 T02220206,KTKI,2023-05-30T21:53:00Z,33.18,-96.58,22.2,20.6,350,7,,10.0,29.920275,1013.0,,,TRUE,,,,,,-RA,BKN,11000,,,,,,,VFR,,,,,,0.02,,,,,,METAR,173.0
KTIW 302153Z VRB03KT 10SM FEW048 17/05 A3003 RMK AO2 SLP169 T01720050,KTIW,2023-05-30T21:53:00Z,47.27,-122.58,17.2,5.0,0,3,,10.0,30.029528,1016.9,,,TRUE,,,,,,,FEW,4800,,,,,,,VFR,,,,,,,,,,,,METAR,89.0
KTHV 302153Z AUTO 10006KT 10SM CLR 25/07 A3012 RMK AO2 SLP200 T02500067,KTHV,2023-05-30T21:53:00Z,39.92,-76.88,25.0,6.7,100,6,,10.0,30.121063,1020.0,,TRUE,TRUE,,,,,,,CLR,,,,,,,,VFR,,,,,,,,,,,,METAR,141.0
KTDZ 302153Z AUTO 08012G22KT 10SM CLR 31/13 A3000 RMK AO2 SLP153 T03110128,KTDZ,2023-05-30T21:53:00Z,41.57,-83.48,31.1,12.8,80,12,22,10.0,30.0,1015.3,,TRUE,TRUE,,,,,,,CLR,,,,,,,,VFR,,,,,,,,,,,,METAR,189.0
KTCS 302153Z AUTO 16012G23KT 10SM CLR 32/M03 A2994 RMK AO2 SLP048 T03171033,KTCS,2023-05-30T21:53:00Z,33.23,-107.27,31.7,-3.3,160,12,23,10.0,29.940945,1004.8,,TRUE,TRUE,,,,,,,CLR,,,,,,,,VFR,,,,,,,,,,,,METAR,1471.0
KTCL 302153Z 34003KT 10SM BKN090 28/16 A2991 RMK AO2 SLP126 T02830156,KTCL,2023-05-30T21:53:00Z,33.22,-87.62,28.3,15.6,340,3,,10.0,29.911417,1012.6,,,TRUE,,,,,,,BKN,9000,,,,,,,VFR,,,,,,,,,,,,METAR,48.0
KSWO 302153Z 20007KT 10SM FEW085 32/18 A2987 RMK AO2 SLP103 T03170178,KSWO,2023-05-30T21:53:00Z,36.17,-97.08,31.7,17.8,200,7,,10.0,29.870079,1010.3,,,TRUE,,,,,,,FEW,8500,,,,,,,VFR,,,,,,,,,,,,METAR,293.0
KSTS 302153Z 18012G18KT 10SM BKN024 17/10 A2995 RMK AO2 SLP135 T01720100,KSTS,2023-05-30T21:53:00Z,38.5,-122.82,17.2,10.0,180,12,18,10.0,29.949802,1013.5,,,TRUE,,,,,,,BKN,2400,,,,,,,MVFR,,,,,,,,,,,,METAR,35.0
KSTP 302153Z 19012G17KT 10SM FEW100 SCT120 31/15 A2980 RMK AO2 SLP085 T03110150,KSTP,2023-05-30T21:53:00Z,44.93,-93.05,31.1,15.0,190,12,17,10.0,29.799213,1008.5,,,TRUE,,,,,,,FEW,10000,SCT,12000,,,,,VFR,,,,,,,,,,,,METAR,213.0
KSTJ 302153Z 17009KT 10SM FEW060 FEW085 31/17 A2985 RMK AO2 SLP100 T03110167,KSTJ,2023-05-30T21:53:00Z,39.77,-94.92,31.1,16.7,170,9,,10.0,29.84941,1010.0,,,TRUE,,,,,,,FEW,6000,FEW,8500,,,,,VFR,,,,,,,,,,,,METAR,247.0
KSTC 302153Z 19016G21KT 10SM -RA SCT075 30/15 A2978 RMK AO2 SLP086 P0000 T03000150,KSTC,2023-05-30T21:53:00Z,45.55,-94.05,30.0,15.0,190,16,21,10.0,29.778543,1008.6,,,TRUE,,,,,,-RA,SCT,7500,,,,,,,VFR,,,,,,0.005,,,,,,METAR,302.0
KSSI 302153Z AUTO 09006G16KT 10SM OVC090 26/21 A2991 RMK AO2 SLP130 T02610211,KSSI,2023-05-30T21:53:00Z,31.15,-81.38,26.1,21.1,90,6,16,10.0,29.911417,1013.0,,TRUE,TRUE,,,,,,,OVC,9000,,,,,,,VFR,,,,,,,,,,,,METAR,6.0
KSSF 302153Z 13004KT 10SM FEW047 31/19 A2984 RMK AO2 SLP096 T03060189 $,KSSF,2023-05-30T21:53:00Z,29.33,-98.47,30.6,18.9,130,4,,10.0,29.840551,1009.6,,,TRUE,TRUE,,,,,,FEW,4700,,,,,,,VFR,,,,,,,,,,,,METAR,175.0
KSRQ 302153Z 28011KT 10SM CLR 31/17 A2984 RMK AO2 SLP102 T03060172,KSRQ,2023-05-30T21:53:00Z,27.4,-82.57,30.6,17.2,280,11,,10.0,29.840551,1010.2,,,TRUE,,,,,,,CLR,,,,,,,,VFR,,,,,,,,,,,,METAR,5.0
KSPW 302153Z AUTO 19012KT 10SM CLR 33/11 A2980 RMK AO2 LTG DSNT E SLP078 T03280111,KSPW,2023-05-30T21:53:00Z,43.17,-95.22,32.8,11.1,190,12,,10.0,29.799213,1007.8,,TRUE,TRUE,,,,,,,CLR,,,,,,,,VFR,,,,,,,,,,,,METAR,407.0
KSPG 302153Z 00000KT 10SM CLR 32/17 A2984 RMK AO2 SLP104 T03170172,KSPG,2023-05-30T21:53:00Z,27.77,-82.63,31.7,17.2,0,0,,10.0,29.840551,1010.4,,,TRUE,,,,,,,CLR,,,,,,,,VFR,,,,,,,,,,,,METAR,1.0
KSPB 302153Z AUTO 28009G17KT 10SM FEW055 18/05 A3002 RMK AO2 SLP164 T01830050,KSPB,2023-05-30T21:53:00Z,45.77,-122.87,18.3,5.0,280,9,17,10.0,30.02067,1016.4,,TRUE,TRUE,,,,,,,FEW,5500,,,,,,,VFR,,,,,,,,,,,,METAR,15.0
KSNY 302153Z AUTO 14010G16KT 10SM CLR 27/16 A2987 RMK AO2 SLP069 T02670161,KSNY,2023-05-30T21:53:00Z,41.1,-102.98,26.7,16.1,140,10,16,10.0,29.870079,1006.9,,TRUE,TRUE,,,,,,,CLR,,,,,,,,VFR,,,,,,,,,,,,METAR,1307.0
KSNS 302153Z AUTO 29013KT 10SM CLR 20/10 A2997 RMK AO2 SLP157 T02000100,KSNS,2023-05-30T21:53:00Z,36.67,-121.6,20.0,10.0,290,13,,10.0,29.970472,1015.7,,TRUE,TRUE,,,,,,,CLR,,,,,,,,VFR,,,,,,,,,,,,METAR,20.0
KSNA 302153Z 24004KT 10SM FEW024 OVC033 18/11 A2997 RMK AO2 SLP147 T01830106,KSNA,2023-05-30T21:53:00Z,33.67,-117.87,18.3,10.6,240,4,,10.0,29.970472,1014.7,,,TRUE,,,,,,,FEW,2400,OVC,3300,,,,,VFR,,,,,,,,,,,,METAR,14.0
KSMQ 302153Z AUTO VRB05KT 9SM CLR 22/07 A3015 RMK AO2 SLP209 T02170072,KSMQ,2023-05-30T21:53:00Z,40.62,-74.67,21.7,7.2,0,5,,9.0,30.15059,1020.9,,TRUE,TRUE,,,,,,,CLR,,,,,,,,VFR,,,,,,,,,,,,METAR,30.0
KSMF 302153Z 20012KT 10SM FEW250 25/12 A2986 RMK AO2 SLP110 T02500117,KSMF,2023-05-30T21:53:00Z,38.7,-121.6,25.0,11.7,200,12,,10.0,29.861221,1011.0,,,TRUE,,,,,,,FEW,25000,,,,,,,VFR,,,,,,,,,,,,METAR,7.0
KSLN 302153Z 00000KT 10SM CLR 33/14 A2984 RMK AO2 SLP089 T03280139,KSLN,2023-05-30T21:53:00Z,38.8,-97.65,32.8,13.9,0,0,,10.0,29.840551,1008.9,,,TRUE,,,,,,,CLR,,,,,,,,VFR,,,,,,,,,,,,METAR,377.0
KSJC 302153Z 33012G21KT 10SM FEW010 FEW050 FEW110 21/12 A2994 RMK AO2 SLP136 T02060122,KSJC,2023-05-30T21:53:00Z,37.37,-121.92,20.6,12.2,330,12,21,10.0,29.940945,1013.6,,,TRUE,,,,,,,FEW,1000,FEW,5000,FEW,11000,,,VFR,,,,,,,,,,,,METAR,13.0
KSIY 302153Z AUTO 35005KT 10SM CLR 27/08 A2985 RMK AO2 LTG DSNT S AND SW SLP099 T02670083,KSIY,2023-05-30T21:53:00Z,41.77,-122.47,26.7,8.3,350,5,,10.0,29.84941,1009.9,,TRUE,TRUE,,,,,,,CLR,,,,,,,,VFR,,,,,,,,,,,,METAR,807.0
KSHR 302153Z AUTO 04003KT 10SM CLR 26/03 A2986 RMK AO2 SLP084 T02560033,KSHR,2023-05-30T21:53:00Z,44.77,-106.97,25.6,3.3,40,3,,10.0,29.861221,1008.4,,TRUE,TRUE,,,,,,,CLR,,,,,,,,VFR,,,,,,,,,,,,METAR,1212.0
KSHN 302153Z AUTO VRB05KT 10SM FEW040 FEW055 18/06 A2999 RMK AO2 SLP156 T01780061,KSHN,2023-05-30T21:53:00Z,47.23,-123.13,17.8,6.1,0,5,,10.0,29.991142,1015.6,,TRUE,TRUE,,,,,,,FEW,4000,FEW,5500,,,,,VFR,,,,,,,,,,,,METAR,84.0
KSGR 302153Z 26008KT 10SM CLR 26/22 A2988 RMK AO2 RAE21 SLP119 P0000 T02610217,KSGR,2023-05-30T21:53:00Z,29.62,-95.65,26.1,21.7,260,8,,10.0,29.878937,1011.9,,,TRUE,,,,,,,CLR,,,,,,,,VFR,,,,,,0.005,,,,,,METAR,22.0
KSFF 302153Z 21005KT 10SM CLR 26/03 A2981 RMK AO2 SLP084 T02560033 $,KSFF,2023-05-30T21:53:00Z,47.68,-117.32,25.6,3.3,210,5,,10.0,29.811024,1008.4,,,TRUE,TRUE,,,,,,CLR,,,,,,,,VFR,,,,,,,,,,,,METAR,593.0
KSFB 302153Z 13014KT 10SM FEW060 BKN085 29/17 A2988 RMK AO2 SLP115 T02890172,KSFB,2023-05-30T21:53:00Z,28.77,-81.23,28.9,17.2,130,14,,10.0,29.878937,1011.5,,,TRUE,,,,,,,FEW,6000,BKN,8500,,,,,VFR,,,,,,,,,,,,METAR,16.0
KSEG 302153Z AUTO VRB05KT 10SM CLR 27/07 A3011 RMK AO2 SLP193 T02670072,KSEG,2023-05-30T21:53:00Z,40.82,-76.87,26.7,7.2,0,5,,10.0,30.109253,1019.3,,TRUE,TRUE,,,,,,,CLR,,,,,,,,VFR,,,,,,,,,,,,METAR,136.0
KSEA 302153Z VRB03KT 10SM FEW027 BKN046 16/06 A3004 RMK AO2 SLP178 T01560061,KSEA,2023-05-30T21:53:00Z,47.45,-122.32,15.6,6.1,0,3,,10.0,30.041338,1017.8,,,TRUE,,,,,,,FEW,2700,BKN,4600,,,,,VFR,,,,,,,,,,,,METAR,115.0
KSDM 302153Z 28007KT 10SM FEW019 BKN024 OVC036 17/11 A2997 RMK AO2 SLP146 T01720111,KSDM,2023-05-30T21:53:00Z,32.58,-117.0,17.2,11.1,280,7,,10.0,29.970472,1014.6,,,TRUE,,,,,,,FEW,1900,BKN,2400,OVC,3600,,,MVFR,,,,,,,,,,,,METAR,161.0
KSDL 302153Z VRB06KT 10SM CLR 34/M02 A2979 RMK AO2 SLP061 T03441022,KSDL,2023-05-30T21:53:00Z,33.62,-111.92,34.4,-2.2,0,6,,10.0,29.790354,1006.1,,,TRUE,,,,,,,CLR,,,,,,,,VFR,,,,,,,,,,,,METAR,438.0
KSBM 302153Z AUTO 15008KT 10SM CLR 27/07 A2997 RMK AO2 SLP146 T02720072,KSBM,2023-05-30T21:53:00Z,43.78,-87.85,27.2,7.2,150,8,,10.0,29.970472,1014.6,,TRUE,TRUE,,,,,,,CLR,,,,,,,,VFR,,,,,,,,,,,,METAR,225.0
KSBA 302153Z 22009KT 10SM FEW030 BKN050 19/11 A2996 RMK AO2 SLP146 T01940106,KSBA,2023-05-30T21:53:00Z,34.43,-119.85,19.4,10.6,220,9,,10.0,29.958662,1014.6,,,TRUE,,,,,,,FEW,3000,BKN,5000,,,,,VFR,,,,,,,,,,,,METAR,2.0
KSAV 302153Z 12007KT 10SM FEW035 BKN085 BKN100 25/18 A2993 RMK AO2 SLP136 T02500183,KSAV,2023-05-30T21:53:00Z,32.12,-81.2,25.0,18.3,120,7,,10.0,29.929134,1013.6,,,TRUE,,,,,,,FEW,3500,BKN,8500,BKN,10000,,,VFR,,,,,,,,,,,,METAR,10.0
KSAF 302153Z 18005KT 10SM CLR 25/M06 A3003 RMK AO2 SLP077 T02501056,KSAF,2023-05-30T21:53:00Z,35.62,-106.1,25.0,-5.6,180,5,,10.0,30.029528,1007.7,,,TRUE,,,,,,,CLR,,,,,,,,VFR,,,,,,,,,,,,METAR,1918.0
KSAC 302153Z AUTO 21011KT 10SM CLR 24/11 A2988 RMK AO2 SLP117 T02390111,KSAC,2023-05-30T21:53:00Z,38.5,-121.5,23.9,11.1,210,11,,10.0,29.878937,1011.7,,TRUE,TRUE,,,,,,,CLR,,,,,,,,VFR,,,,,,,,,,,,METAR,5.0
KRXE 302153Z AUTO 23003KT 10SM CLR 23/06 A2990 RMK AO2 LTG DSNT NE-S SLP094 T02280061,KRXE,2023-05-30T21:53:00Z,43.83,-111.8,22.8,6.1,230,3,,10.0,29.899607,1009.4,,TRUE,TRUE,,,,,,,CLR,,,,,,,,VFR,,,,,,,,,,,,METAR,1483.0
KRWL 302153Z AUTO 27033G44KT 10SM FEW110 22/M04 A3002 RMK AO2 PK WND 26044/2152 SLP085 T02171039,KRWL,2023-05-30T21:53:00Z,41.8,-107.2,21.7,-3.9,270,33,44,10.0,30.02067,1008.5,,TRUE,TRUE,,,,,,,FEW,11000,,,,,,,VFR,,,,,,,,,,,,METAR,2066.0
KRWI 302153Z AUTO 03012KT 10SM OVC012 20/16 A3005 RMK AO2 SLP175 T02000161,KRWI,2023-05-30T21:53:00Z,35.85,-77.9,20.0,16.1,30,12,,10.0,30.050198,1017.5,,TRUE,TRUE,,,,,,,OVC,1200,,,,,,,MVFR,,,,,,,,,,,,METAR,46.0
KRWF 302153Z AUTO 17010KT 10SM FEW060 30/16 A2977 RMK AO2 SLP076 T03000161,KRWF,2023-05-30T21:53:00Z,44.55,-95.08,30.0,16.1,170,10,,10.0,29.769686,1007.6,,TRUE,TRUE,,,,,,,FEW,6000,,,,,,,VFR,,,,,,,,,,,,METAR,312.0
KRVS 302153Z 18010G16KT 10SM FEW050 30/17 A2988 RMK AO2 SLP123 T03000167,KRVS,2023-05-30T21:53:00Z,36.05,-95.98,30.0,16.7,180,10,16,10.0,29.878937,1012.3,,,TRUE,,,,,,,FEW,5000,,,,,,,VFR,,,,,,,,,,,,METAR,191.0
KRUE 302153Z AUTO 10004KT 10SM CLR 31/14 A2990 RMK AO2 SLP116 T03060144,KRUE,2023-05-30T21:53:00Z,35.25,-93.1,30.6,14.4,100,4,,10.0,29.899607,1011.6,,TRUE,TRUE,,,,,,,CLR,,,,,,,,VFR,,,,,,,,,,,,METAR,119.0
KRTN 302153Z AUTO 00000KT 10SM CLR 24/01 A3002 RMK AO2 PK WND 20036/2057 LTG DSNT NE-SE RAB05E18 SLP085 P0000 T02440006,KRTN,2023-05-30T21:53:00Z,36.73,-104.5,24.4,0.6,0,0,,10.0,30.02067,1008.5,,TRUE,TRUE,,,,,,,CLR,,,,,,,,VFR,,,,,,0.005,,,,,,METAR,1939.0
KRSW 302153Z 01005KT 8SM VCTS -RA FEW031 OVC055 23/22 A2987 RMK AO2 WSHFT 2048 LTG DSNT NW TSE10B14E53 SLP111 P0078 T02280222,KRSW,2023-05-30T21:53:00Z,26.53,-81.75,22.8,22.2,10,5,,8.0,29.870079,1011.1,,,TRUE,,,,,,VCTS -RA,FEW,3100,OVC,5500,,,,,VFR,,,,,,0.78,,,,,,METAR,8.0
KRSL 302153Z AUTO 00000KT 10SM FEW085 32/13 A2982 RMK AO2 SLP081 T03220133,KRSL,2023-05-30T21:53:00Z,38.87,-98.82,32.2,13.3,0,0,,10.0,29.819881,1008.1,,TRUE,TRUE,,,,,,,FEW,8500,,,,,,,VFR,,,,,,,,,,,,METAR,569.0
KRQE 302153Z AUTO 21013G24KT 10SM CLR 25/M07 A3006 RMK AO2 SLP080 T02501067,KRQE,2023-05-30T21:53:00Z,35.65,-109.07,25.0,-6.7,210,13,24,10.0,30.059055,1008.0,,TRUE,TRUE,,,,,,,CLR,,,,,,,,VFR,,,,,,,,,,,,METAR,2056.0
KRNT 302153Z VRB05KT 10SM OVC050 17/07 A3003 RMK AO2 SLP174 T01670067,KRNT,2023-05-30T21:53:00Z,47.5,-122.22,16.7,6.7,0,5,,10.0,30.029528,1017.4,,,TRUE,,,,,,,OVC,5000,,,,,,,VFR,,,,,,,,,,,,METAR,7.0
KRNM 302153Z 25010KT 10SM BKN020 OVC033 19/12 A2995 RMK AO2 SLP135 T01890117,KRNM,2023-05-30T21:53:00Z,33.03,-116.92,18.9,11.7,250,10,,10.0,29.949802,1013.5,,,TRUE,,,,,,,BKN,2000,OVC,3300,,,,,MVFR,,,,,,,,,,,,METAR,423.0
KRMG 302153Z AUTO 10007KT 070V130 10SM SCT090 29/13 A2992 RMK AO2 SLP125 T02890133,KRMG,2023-05-30T21:53:00Z,34.35,-85.17,28.9,13.3,100,7,,10.0,29.920275,1012.5,,TRUE,TRUE,,,,,,,SCT,9000,,,,,,,VFR,,,,,,,,,,,,METAR,196.0
KRME 302153Z 12003KT 10SM CLR 29/11 A3007 RMK AO2 SLP180 T02890106,KRME,2023-05-30T21:53:00Z,43.22,-75.4,28.9,10.6,120,3,,10.0,30.070866,1018.0,,,TRUE,,,,,,,CLR,,,,,,,,VFR,,,,,,,,,,,,METAR,146.0
KRKP 302153Z AUTO 11012KT 5SM HZ CLR 27/22 A2986 RMK AO2 SLP114 T02720217,KRKP,2023-05-30T21:53:00Z,28.08,-97.05,27.2,21.7,110,12,,5.0,29.861221,1011.4,,TRUE,TRUE,,,,,,HZ,CLR,,,,,,,,MVFR,,,,,,,,,,,,METAR,8.0
KRIW 302153Z AUTO 36015KT 10SM OVC100 21/03 A2994 RMK AO2 PK WND 35030/2136 WSHFT 2123 LTG DSNT SW AND W SLP090 T02110033,KRIW,2023-05-30T21:53:00Z,43.07,-108.43,21.1,3.3,360,15,,10.0,29.940945,1009.0,,TRUE,TRUE,,,,,,,OVC,10000,,,,,,,VFR,,,,,,,,,,,,METAR,1662.0
KRIL 302153Z AUTO 21014G22KT 10SM CLR 27/M07 A2993 RMK AO2 PK WND 20028/2134 WSHFT 2124 SLP079 T02671072,KRIL,2023-05-30T21:53:00Z,39.53,-107.73,26.7,-7.2,210,14,22,10.0,29.929134,1007.9,,TRUE,TRUE,,,,,,,CLR,,,,,,,,VFR,,,,,,,,,,,,METAR,1683.0
KRHI 302153Z AUTO 23009KT 10SM CLR 29/04 A2994 RMK AO2 SLP135 T02940044,KRHI,2023-05-30T21:53:00Z,45.63,-89.48,29.4,4.4,230,9,,10.0,29.940945,1013.5,,TRUE,TRUE,,,,,,,CLR,,,,,,,,VFR,,,,,,,,,,,,METAR,493.0
KRDD 302153Z 22008KT 10SM CLR 29/12 A2977 RMK AO2 LTG DSNT W AND NW SLP076 T02890117,KRDD,2023-05-30T21:53:00Z,40.52,-122.3,28.9,11.7,220,8,,10.0,29.769686,1007.6,,,TRUE,,,,,,,CLR,,,,,,,,VFR,,,,,,,,,,,,METAR,152.0
KRBG 302153Z AUTO 02010G18KT 10SM CLR 19/08 A2998 RMK AO2 SLP149 T01890078,KRBG,2023-05-30T21:53:00Z,43.23,-123.35,18.9,7.8,20,10,18,10.0,29.97933,1014.9,,TRUE,TRUE,,,,,,,CLR,,,,,,,,VFR,,,,,,,,,,,,METAR,152.0
KRBD 302153Z 01005KT 6SM -RA BR OVC110 23/22 A2991 RMK AO2 LTG DSNT ALQDS TSE26 SLP122 P0017 T02330217,KRBD,2023-05-30T21:53:00Z,32.68,-96.87,23.3,21.7,10,5,,6.0,29.911417,1012.2,,,TRUE,,,,,,-RA BR,OVC,11000,,,,,,,VFR,,,,,,0.17,,,,,,METAR,200.0
KRAL 302153Z 25012KT 10SM FEW047 21/12 A2993 RMK AO2 SLP122 T02110117,KRAL,2023-05-30T21:53:00Z,33.95,-117.45,21.1,11.7,250,12,,10.0,29.929134,1012.2,,,TRUE,,,,,,,FEW,4700,,,,,,,VFR,,,,,,,,,,,,METAR,254.0
KRAC 302153Z AUTO 12005KT 10SM CLR 27/09 A2998 RMK AO2 SLP149 T02670089,KRAC,2023-05-30T21:53:00Z,42.77,-87.82,26.7,8.9,120,5,,10.0,29.97933,1014.9,,TRUE,TRUE,,,,,,,CLR,,,,,,,,VFR,,,,,,,,,,,,METAR,203.0
KPWA 302153Z 17006KT 10SM FEW055 SCT090 29/18 A2989 RMK AO2 SLP107 T02940183,KPWA,2023-05-30T21:53:00Z,35.53,-97.65,29.4,18.3,170,6,,10.0,29.890747,1010.7,,,TRUE,,,,,,,FEW,5500,SCT,9000,,,,,VFR,,,,,,,,,,,,METAR,390.0
KPUW 302153Z AUTO 25008KT 9SM CLR 24/03 A2985 RMK AO2 SLP101 T02390033,KPUW,2023-05-30T21:53:00Z,46.75,-117.12,23.9,3.3,250,8,,9.0,29.84941,1010.1,,TRUE,TRUE,,,,,,,CLR,,,,,,,,VFR,,,,,,,,,,,,METAR,774.0
KPUC 302153Z AUTO 21011G19KT 10SM CLR 26/M06 A2996 RMK AO2 SLP076 T02611061,KPUC,2023-05-30T21:53:00Z,39.62,-110.75,26.1,-6.1,210,11,19,10.0,29.958662,1007.6,,TRUE,TRUE,,,,,,,CLR,,,,,,,,VFR,,,,,,,,,,,,METAR,1777.0
KPUB 302153Z 17015G21KT 10SM TS FEW080 FEW095 BKN120 26/02 A2993 RMK AO2 WSHFT 2127 TSB31 SLP079 T02610022,KPUB,2023-05-30T21:53:00Z,38.28,-104.5,26.1,2.2,170,15,21,10.0,29.929134,1007.9,,,TRUE,,,,,,TS,FEW,8000,FEW,9500,BKN,12000,,,VFR,,,,,,,,,,,,METAR,1441.0
KPTK 302153Z 11011KT 10SM FEW075 30/12 A3002 RMK SLPNO,KPTK,2023-05-30T21:53:00Z,42.67,-83.42,30.0,12.0,110,11,,10.0,30.02067,,,,,,,,,,,FEW,7500,,,,,,,VFR,,,,,,,,,,,,METAR,295.0
KPSX 302153Z AUTO 11010KT 10SM FEW029 28/20 A2988 RMK AO2 SLP116 T02780200,KPSX,2023-05-30T21:53:00Z,28.72,-96.25,27.8,20.0,110,10,,10.0,29.878937,1011.6,,TRUE,TRUE,,,,,,,FEW,2900,,,,,,,VFR,,,,,,,,,,,,METAR,4.0
KPSP 302153Z 33016G21KT 10SM CLR 31/07 A2977 RMK AO2 SLP077 T03110072 $,KPSP,2023-05-30T21:53:00Z,33.82,-116.5,31.1,7.2,330,16,21,10.0,29.769686,1007.7,,,TRUE,TRUE,,,,,,CLR,,,,,,,,VFR,,,,,,,,,,,,METAR,123.0
KPSC 302153Z 10SM CLR 29/04 A2977 RMK AO2 SLP078 T02890039,KPSC,2023-05-30T21:53:00Z,46.27,-119.12,28.9,3.9,,,,10.0,29.769686,1007.8,,,TRUE,,,,,,,CLR,,,,,,,,VFR,,,,,,,,,,,,METAR,121.0
KPRC 302153Z 18013KT 10SM CLR 26/M08 A2998 RMK AO2 SLP085 T02561083,KPRC,2023-05-30T21:53:00Z,34.65,-112.42,25.6,-8.3,180,13,,10.0,29.97933,1008.5,,,TRUE,,,,,,,CLR,,,,,,,,VFR,,,,,,,,,,,,METAR,1528.0
KPRB 302153Z AUTO 24008KT 200V260 10SM BKN070 22/09 A2994 RMK AO2 SLP135 T02170094,KPRB,2023-05-30T21:53:00Z,35.67,-120.63,21.7,9.4,240,8,,10.0,29.940945,1013.5,,TRUE,TRUE,,,,,,,BKN,7000,,,,,,,VFR,,,,,,,,,,,,METAR,249.0
KPQL 302153Z 17004KT 10SM CLR 28/18 A2988 RMK AO2 SLP119 T02830183,KPQL,2023-05-30T21:53:00Z,30.47,-88.53,28.3,18.3,170,4,,10.0,29.878937,1011.9,,,TRUE,,,,,,,CLR,,,,,,,,VFR,,,,,,,,,,,,METAR,4.0
KPOU 302153Z 24009KT 10SM CLR 23/06 A3014 RMK AO2 SLP204 T02330061,KPOU,2023-05-30T21:53:00Z,41.63,-73.88,23.3,6.1,240,9,,10.0,30.138779,1020.4,,,TRUE,,,,,,,CLR,,,,,,,,VFR,,,,,,,,,,,,METAR,45.0
KPOF 302153Z AUTO VRB03KT 10SM SCT080 30/11 A2990 RMK AO2 SLP122 T03000106,KPOF,2023-05-30T21:53:00Z,36.77,-90.32,30.0,10.6,0,3,,10.0,29.899607,1012.2,,TRUE,TRUE,,,,,,,SCT,8000,,,,,,,VFR,,,,,,,,,,,,METAR,99.0
KPNS 302153Z 19009KT 10SM OVC080 28/16 A2988 RMK AO2 SLP119 T02780161,KPNS,2023-05-30T21:53:00Z,30.48,-87.18,27.8,16.1,190,9,,10.0,29.878937,1011.9,,,TRUE,,,,,,,OVC,8000,,,,,,,VFR,,,,,,,,,,,,METAR,34.0
KPNC 302153Z AUTO 19007KT 10SM SCT055 31/18 A2987 RMK AO2 SLP100 T03060178,KPNC,2023-05-30T21:53:00Z,36.73,-97.1,30.6,17.8,190,7,,10.0,29.870079,1010.0,,TRUE,TRUE,,,,,,,SCT,5500,,,,,,,VFR,,,,,,,,,,,,METAR,304.0
KPMP 302153Z 07010KT 10SM FEW025 SCT085 29/22 A2985 RMK AO2 LTG DSNT W SLP108 T02890222,KPMP,2023-05-30T21:53:00Z,26.25,-80.12,28.9,22.2,70,10,,10.0,29.84941,1010.8,,,TRUE,,,,,,,FEW,2500,SCT,8500,,,,,VFR,,,,,,,,,,,,METAR,4.0
KPMD 302153Z 24018G25KT 10SM CLR 21/07 A2989 RMK AO2 SLP105 T02060067,KPMD,2023-05-30T21:53:00Z,34.63,-118.08,20.6,6.7,240,18,25,10.0,29.890747,1010.5,,,TRUE,,,,,,,CLR,,,,,,,,VFR,,,,,,,,,,,,METAR,764.0
KPKD 302153Z AUTO 18009KT 10SM CLR 28/16 A2976 RMK AO2 LTG DSNT NE SLP070 T02830161,KPKD,2023-05-30T21:53:00Z,46.9,-95.07,28.3,16.1,180,9,,10.0,29.760826,1007.0,,TRUE,TRUE,,,,,,,CLR,,,,,,,,VFR,,,,,,,,,,,,METAR,439.0
KPKB 302153Z 10006KT 10SM FEW055 SCT095 28/13 A3002 RMK AO2 SLP159 T02830133,KPKB,2023-05-30T21:53:00Z,39.35,-81.43,28.3,13.3,100,6,,10.0,30.02067,1015.9,,,TRUE,,,,,,,FEW,5500,SCT,9500,,,,,VFR,,,,,,,,,,,,METAR,245.0
KPIR 302153Z AUTO 09008KT 10SM CLR 30/12 A2978 RMK AO2 SLP070 T03000122,KPIR,2023-05-30T21:53:00Z,44.38,-100.28,30.0,12.2,90,8,,10.0,29.778543,1007.0,,TRUE,TRUE,,,,,,,CLR,,,,,,,,VFR,,,,,,,,,,,,METAR,524.0
KPIL 302153Z AUTO 07011KT 10SM CLR 29/22 A2984 RMK AO2 SLP105 T02940222,KPIL,2023-05-30T21:53:00Z,26.17,-97.33,29.4,22.2,70,11,,10.0,29.840551,1010.5,,TRUE,TRUE,,,,,,,CLR,,,,,,,,VFR,,,,,,,,,,,,METAR,5.0
KPIH 302153Z 31005KT 10SM SCT080 24/08 A2989 RMK AO2 SLP083 T02440083,KPIH,2023-05-30T21:53:00Z,42.92,-112.57,24.4,8.3,310,5,,10.0,29.890747,1008.3,,,TRUE,,,,,,,SCT,8000,,,,,,,VFR,,,,,,,,,,,,METAR,1357.0
KPIE 302153Z 29009KT 10SM CLR 29/20 A2986 RMK AO2 SLP112 T02890200,KPIE,2023-05-30T21:53:00Z,27.92,-82.68,28.9,20.0,290,9,,10.0,29.861221,1011.2,,,TRUE,,,,,,,CLR,,,,,,,,VFR,,,,,,,,,,,,METAR,1.0
KPHD 302153Z AUTO 12009KT 10SM FEW065 29/13 A3004 RMK AO2 SLP166 T02890128,KPHD,2023-05-30T21:53:00Z,40.47,-81.42,28.9,12.8,120,9,,10.0,30.041338,1016.6,,TRUE,TRUE,,,,,,,FEW,6500,,,,,,,VFR,,,,,,,,,,,,METAR,272.0
KPGD 302153Z 09006KT 10SM OVC075 31/16 A2985 RMK AO2 LTG DSNT S SLP108 T03110161,KPGD,2023-05-30T21:53:00Z,26.92,-82.0,31.1,16.1,90,6,,10.0,29.84941,1010.8,,,TRUE,,,,,,,OVC,7500,,,,,,,VFR,,,,,,,,,,,,METAR,7.0
KPGA 302153Z AUTO 17007G19KT 130V200 10SM CLR 31/M11 A2988 RMK AO2 SLP051 T03061106,KPGA,2023-05-30T21:53:00Z,36.92,-111.45,30.6,-10.6,170,7,19,10.0,29.878937,1005.1,,TRUE,TRUE,,,,,,,CLR,,,,,,,,VFR,,,,,,,,,,,,METAR,1310.0
KPEO 302153Z AUTO VRB04KT 10SM CLR 28/21 A3009 RMK AO2 SLP182 T02830206,KPEO,2023-05-30T21:53:00Z,42.65,-77.05,28.3,20.6,0,4,,10.0,30.088583,1018.2,,TRUE,TRUE,,,,,,,CLR,,,,,,,,VFR,,,,,,,,,,,,METAR,268.0
KPDX 302153Z 28007KT 10SM FEW055 18/04 A3002 RMK AO2 SLP165 T01830039,KPDX,2023-05-30T21:53:00Z,45.6,-122.62,18.3,3.9,280,7,,10.0,30.02067,1016.5,,,TRUE,,,,,,,FEW,5500,,,,,,,VFR,,,,,,,,,,,,METAR,7.0
KPDT 302153Z 30013G23KT 10SM CLR 27/01 A2982 RMK AO2 SLP082 T02670011,KPDT,2023-05-30T21:53:00Z,45.7,-118.83,26.7,1.1,300,13,23,10.0,29.819881,1008.2,,,TRUE,,,,,,,CLR,,,,,,,,VFR,,,,,,,,,,,,METAR,453.0
KPDK 302153Z 10005KT 10SM OVC095 26/14 A2996 RMK AO2 SLP136 T02560144,KPDK,2023-05-30T21:53:00Z,33.88,-84.3,25.6,14.4,100,5,,10.0,29.958662,1013.6,,,TRUE,,,,,,,OVC,9500,,,,,,,VFR,,,,,,,,,,,,METAR,299.0
KPBI 302153Z 06013KT 10SM SCT028 BKN039 BKN250 28/21 A2987 RMK AO2 SLP114 CB DSNT W T02830211,KPBI,2023-05-30T21:53:00Z,26.68,-80.1,28.3,21.1,60,13,,10.0,29.870079,1011.4,,,TRUE,,,,,,,SCT,2800,BKN,3900,BKN,25000,,,VFR,,,,,,,,,,,,METAR,4.0
KPBG 302153Z AUTO 14008KT 10SM CLR 26/09 A3005 RMK AO2 SLP177 T02560094,KPBG,2023-05-30T21:53:00Z,44.65,-73.47,25.6,9.4,140,8,,10.0,30.050198,1017.7,,TRUE,TRUE,,,,,,,CLR,,,,,,,,VFR,,,,,,,,,,,,METAR,61.0
KPBF 302153Z AUTO 10008KT 10SM FEW080 31/13 A2990 RMK AO2 SLP123 T03110128,KPBF,2023-05-30T21:53:00Z,34.18,-91.93,31.1,12.8,100,8,,10.0,29.899607,1012.3,,TRUE,TRUE,,,,,,,FEW,8000,,,,,,,VFR,,,,,,,,,,,,METAR,63.0
KPAH 302153Z 00000KT 10SM FEW090 31/12 A2990 RMK AO2 SLP123 T03060117,KPAH,2023-05-30T21:53:00Z,37.07,-88.77,30.6,11.7,0,0,,10.0,29.899607,1012.3,,,TRUE,,,,,,,FEW,9000,,,,,,,VFR,,,,,,,,,,,,METAR,125.0
KPAE 302153Z 34006KT 10SM SCT008 OVC017 12/08 A3005 RMK AO2 SLP177 T01220078,KPAE,2023-05-30T21:53:00Z,47.92,-122.28,12.2,7.8,340,6,,10.0,30.050198,1017.7,,,TRUE,,,,,,,SCT,800,OVC,1700,,,,,MVFR,,,,,,,,,,,,METAR,166.0
KP68 302153Z AUTO 15012G19KT 24/M05 A2992 RMK AO1 SLP070 T02391050,KP68,2023-05-30T21:53:00Z,39.6,-116.0,23.9,-5.0,150,12,19,,29.920275,1007.0,,TRUE,TRUE,,,,,,,,,,,,,,,,,,,,,,,,,,,METAR,1813.0
KOWD 302153Z 16007KT 10SM CLR 23/07 A3018 RMK AO2 SLP220 T02280067,KOWD,2023-05-30T21:53:00Z,42.18,-71.17,22.8,6.7,160,7,,10.0,30.180119,1022.0,,,TRUE,,,,,,,CLR,,,,,,,,VFR,,,,,,,,,,,,METAR,14.0
KOWA 302153Z AUTO 19011G18KT 10SM CLR 31/13 A2983 RMK AO2 LTG DSNT SW,KOWA,2023-05-30T21:53:00Z,44.12,-93.25,31.0,13.0,190,11,18,10.0,29.828741,,,TRUE,TRUE,,,,,,,CLR,,,,,,,,VFR,,,,,,,,,,,,METAR,345.0
KOVS 302153Z AUTO 19005G14KT 10SM CLR 32/06 A2990 RMK AO2 SLP123 T03170061,KOVS,2023-05-30T21:53:00Z,43.15,-90.68,31.7,6.1,190,5,14,10.0,29.899607,1012.3,,TRUE,TRUE,,,,,,,CLR,,,,,,,,VFR,,,,,,,,,,,,METAR,205.0
KOTM 302153Z AUTO 16010KT 10SM BKN080 31/12 A2988 RMK AO2 SLP110 T03060122,KOTM,2023-05-30T21:53:00Z,41.1,-92.45,30.6,12.2,160,10,,10.0,29.878937,1011.0,,TRUE,TRUE,,,,,,,BKN,8000,,,,,,,VFR,,,,,,,,,,,,METAR,254.0
KOSU 302153Z 12009KT 10SM SCT060 30/15 A3000 RMK AO2 SLP151 T03000150,KOSU,2023-05-30T21:53:00Z,40.08,-83.08,30.0,15.0,120,9,,10.0,30.0,1015.1,,,TRUE,,,,,,,SCT,6000,,,,,,,VFR,,,,,,,,,,,,METAR,276.0
KOSH 302153Z 20005KT 10SM CLR 31/08 A2993 RMK AO2 SLP123 T03060083,KOSH,2023-05-30T21:53:00Z,43.98,-88.55,30.6,8.3,200,5,,10.0,29.929134,1012.3,,,TRUE,,,,,,,CLR,,,,,,,,VFR,,,,,,,,,,,,METAR,239.0
KORL 302153Z 14007KT 10SM BKN080 OVC090 30/17 A2987 RMK AO2 SLP117 T03000167,KORL,2023-05-30T21:53:00Z,28.55,-81.33,30.0,16.7,140,7,,10.0,29.870079,1011.7,,,TRUE,,,,,,,BKN,8000,OVC,9000,,,,,VFR,,,,,,,,,,,,METAR,32.0
KORB 302153Z AUTO 16005KT 10SM SCT047 SCT050 25/16 A2979 RMK AO2,KORB,2023-05-30T21:53:00Z,48.02,-92.87,25.0,16.0,160,5,,10.0,29.790354,,,TRUE,TRUE,,,,,,,SCT,4700,SCT,5000,,,,,VFR,,,,,,,,,,,,METAR,407.0
KOQT 302153Z AUTO 09003KT 10SM FEW100 27/15 A2996 RMK AO2 SLP136 T02720150,KOQT,2023-05-30T21:53:00Z,36.02,-84.23,27.2,15.0,90,3,,10.0,29.958662,1013.6,,TRUE,TRUE,,,,,,,FEW,10000,,,,,,,VFR,,,,,,,,,,,,METAR,276.0
KOPF 302153Z 09012KT 10SM FEW035 28/20 A2985 RMK AO2 LTG DSNT SW-NW TSE19 SLP108 T02830200,KOPF,2023-05-30T21:53:00Z,25.92,-80.28,28.3,20.0,90,12,,10.0,29.84941,1010.8,,,TRUE,,,,,,,FEW,3500,,,,,,,VFR,,,,,,,,,,,,METAR,1.0
KONT 302153Z 24011KT 10SM FEW029 BKN046 19/12 A2994 RMK AO2 SLP131 T01890117,KONT,2023-05-30T21:53:00Z,34.05,-117.58,18.9,11.7,240,11,,10.0,29.940945,1013.1,,,TRUE,,,,,,,FEW,2900,BKN,4600,,,,,VFR,,,,,,,,,,,,METAR,279.0
KONO 302153Z AUTO 21016G22KT 10SM CLR 28/11 A2978 RMK AO2 LTG DSNT SE SLP070 T02780106,KONO,2023-05-30T21:53:00Z,44.02,-117.02,27.8,10.6,210,16,22,10.0,29.778543,1007.0,,TRUE,TRUE,,,,,,,CLR,,,,,,,,VFR,,,,,,,,,,,,METAR,668.0
KOMK 302153Z AUTO 16007G18KT 10SM CLR 28/04 A2976 RMK AO2 SLP071 T02780039,KOMK,2023-05-30T21:53:00Z,48.47,-119.52,27.8,3.9,160,7,18,10.0,29.760826,1007.1,,TRUE,TRUE,,,,,,,CLR,,,,,,,,VFR,,,,,,,,,,,,METAR,395.0
KOLF 302153Z AUTO 00000KT 10SM FEW070 27/12 A2974 RMK AO2 SLP066 T02720122,KOLF,2023-05-30T21:53:00Z,48.1,-105.58,27.2,12.2,0,0,,10.0,29.740158,1006.6,,TRUE,TRUE,,,,,,,FEW,7000,,,,,,,VFR,,,,,,,,,,,,METAR,605.0
KOJC 302153Z 17008KT 10SM FEW055 SCT100 28/17 A2987 RMK AO2 SLP106 T02830167,KOJC,2023-05-30T21:53:00Z,38.85,-94.73,28.3,16.7,170,8,,10.0,29.870079,1010.6,,,TRUE,,,,,,,FEW,5500,SCT,10000,,,,,VFR,,,,,,,,,,,,METAR,328.0
KOGD 302153Z 25009KT 10SM CLR 28/02 A2988 RMK AO2 SLP061 T02830022 $,KOGD,2023-05-30T21:53:00Z,41.2,-112.02,28.3,2.2,250,9,,10.0,29.878937,1006.1,,,TRUE,TRUE,,,,,,CLR,,,,,,,,VFR,,,,,,,,,,,,METAR,1356.0
KOGB 302153Z AUTO 04007KT 10SM FEW110 28/16 A2993 RMK AO2 SLP134 T02830161,KOGB,2023-05-30T21:53:00Z,33.47,-80.85,28.3,16.1,40,7,,10.0,29.929134,1013.4,,TRUE,TRUE,,,,,,,FEW,11000,,,,,,,VFR,,,,,,,,,,,,METAR,59.0
KODX 302153Z AUTO 26004KT 10SM CLR 29/16 A2983 RMK AO2 SLP090 T02940156,KODX,2023-05-30T21:53:00Z,41.62,-98.95,29.4,15.6,260,4,,10.0,29.828741,1009.0,,TRUE,TRUE,,,,,,,CLR,,,,,,,,VFR,,,,,,,,,,,,METAR,628.0
KODO 302153Z AUTO 16011G21KT 10SM CLR 34/08 A2987 RMK AO2 SLP064 T03440083 $,KODO,2023-05-30T21:53:00Z,31.92,-102.4,34.4,8.3,160,11,21,10.0,29.870079,1006.4,,TRUE,TRUE,TRUE,,,,,,CLR,,,,,,,,VFR,,,,,,,,,,,,METAR,912.0
KOAK 302153Z 27015KT 10SM FEW028 FEW140 18/10 A2997 RMK AO2 SLP148 T01830100,KOAK,2023-05-30T21:53:00Z,37.72,-122.23,18.3,10.0,270,15,,10.0,29.970472,1014.8,,,TRUE,,,,,,,FEW,2800,FEW,14000,,,,,VFR,,,,,,,,,,,,METAR,3.0
KNUW 302153Z 24011KT 10SM SCT030 BKN044 14/06 A3006 RMK AO2 SLP182 T01440061 $,KNUW,2023-05-30T21:53:00Z,48.35,-122.65,14.4,6.1,240,11,,10.0,30.059055,1018.2,,,TRUE,TRUE,,,,,,SCT,3000,BKN,4400,,,,,VFR,,,,,,,,,,,,METAR,14.0
KNUI 302153Z AUTO 07007KT 8SM OVC041 21/14 A3010 RMK AO2 SLP192 T02060144 $,KNUI,2023-05-30T21:53:00Z,38.15,-76.43,20.6,14.4,70,7,,8.0,30.100393,1019.2,,TRUE,TRUE,TRUE,,,,,,OVC,4100,,,,,,,VFR,,,,,,,,,,,,METAR,4.0
KNRS 302153Z 30012KT 10SM SCT021 BKN033 BKN041 18/11 A2999 RMK AO2 SLP155 T01830111 $,KNRS,2023-05-30T21:53:00Z,32.57,-117.12,18.3,11.1,300,12,,10.0,29.991142,1015.5,,,TRUE,TRUE,,,,,,SCT,2100,BKN,3300,BKN,4100,,,VFR,,,,,,,,,,,,METAR,15.0
KNQX 302153Z 23005KT 10SM FEW030 BKN180 BKN250 30/24 A2985 RMK AO2 SLP105 T03000239 $,KNQX,2023-05-30T21:53:00Z,24.57,-81.67,30.0,23.9,230,5,,10.0,29.84941,1010.5,,,TRUE,TRUE,,,,,,FEW,3000,BKN,18000,BKN,25000,,,VFR,,,,,,,,,,,,METAR,2.0
KNFG 302153Z AUTO 33009KT 10SM OVC048 19/13 A2997 RMK AO2 SLP146 T01940128 $,KNFG,2023-05-30T21:53:00Z,33.3,-117.35,19.4,12.8,330,9,,10.0,29.970472,1014.6,,TRUE,TRUE,TRUE,,,,,,OVC,4800,,,,,,,VFR,,,,,,,,,,,,METAR,21.0
KNEW 302153Z 16009KT 10SM FEW070 BKN090 26/18 A2989 RMK AO2 SLP116 T02610183,KNEW,2023-05-30T21:53:00Z,30.05,-90.03,26.1,18.3,160,9,,10.0,29.890747,1011.6,,,TRUE,,,,,,,FEW,7000,BKN,9000,,,,,VFR,,,,,,,,,,,,METAR,1.0
KMYV 302153Z AUTO 15011G17KT 10SM CLR 26/11 A2986 RMK AO2 SLP113 T02610111,KMYV,2023-05-30T21:53:00Z,39.1,-121.57,26.1,11.1,150,11,17,10.0,29.861221,1011.3,,TRUE,TRUE,,,,,,,CLR,,,,,,,,VFR,,,,,,,,,,,,METAR,18.0
KMYF 302153Z 28010KT 10SM OVC024 18/11 A2997 RMK AO2 SLP146 T01780106,KMYF,2023-05-30T21:53:00Z,32.82,-117.13,17.8,10.6,280,10,,10.0,29.970472,1014.6,,,TRUE,,,,,,,OVC,2400,,,,,,,MVFR,,,,,,,,,,,,METAR,128.0
KMWT 302153Z AUTO 00000KT 10SM FEW070 31/14 A2991 RMK AO2 SLP118 T03060139,KMWT,2023-05-30T21:53:00Z,34.55,-93.58,30.6,13.9,0,0,,10.0,29.911417,1011.8,,TRUE,TRUE,,,,,,,FEW,7000,,,,,,,VFR,,,,,,,,,,,,METAR,220.0
KMWL 302153Z AUTO 11006KT 10SM CLR 31/17 A2987 RMK AO2 SLP102 T03060172,KMWL,2023-05-30T21:53:00Z,32.78,-98.07,30.6,17.2,110,6,,10.0,29.870079,1010.2,,TRUE,TRUE,,,,,,,CLR,,,,,,,,VFR,,,,,,,,,,,,METAR,288.0
KMVY 302153Z 10008KT 10SM CLR 14/09 A3022 RMK AO2 SLP235 T01440089,KMVY,2023-05-30T21:53:00Z,41.4,-70.62,14.4,8.9,100,8,,10.0,30.221457,1023.5,,,TRUE,,,,,,,CLR,,,,,,,,VFR,,,,,,,,,,,,METAR,18.0
KMTO 302153Z AUTO 09005KT 10SM CLR 31/12 A2991 RMK AO2 SLP122 T03110117,KMTO,2023-05-30T21:53:00Z,39.47,-88.27,31.1,11.7,90,5,,10.0,29.911417,1012.2,,TRUE,TRUE,,,,,,,CLR,,,,,,,,VFR,,,,,,,,,,,,METAR,216.0
KMTJ 302153Z AUTO 23014G21KT 10SM CLR 27/M11 A2997 RMK AO2 PK WND 26027/2116 SLP073 T02721111,KMTJ,2023-05-30T21:53:00Z,38.5,-107.9,27.2,-11.1,230,14,21,10.0,29.970472,1007.3,,TRUE,TRUE,,,,,,,CLR,,,,,,,,VFR,,,,,,,,,,,,METAR,1755.0
KMTH 302153Z AUTO VRB03KT 10SM CLR 30/23 A2984 RMK AO2 SLP104 T03000228 $,KMTH,2023-05-30T21:53:00Z,24.73,-81.05,30.0,22.8,0,3,,10.0,29.840551,1010.4,,TRUE,TRUE,TRUE,,,,,,CLR,,,,,,,,VFR,,,,,,,,,,,,METAR,1.0
KMSY 302153Z 13008KT 10SM FEW035 SCT095 BKN120 26/19 A2989 RMK AO2 SLP124 T02560194,KMSY,2023-05-30T21:53:00Z,30.0,-90.25,25.6,19.4,130,8,,10.0,29.890747,1012.4,,,TRUE,,,,,,,FEW,3500,SCT,9500,BKN,12000,,,VFR,,,,,,,,,,,,METAR,0.0
KMSS 302153Z AUTO 27005KT 10SM CLR 27/10 A3006 RMK AO2 SLP179 T02720100,KMSS,2023-05-30T21:53:00Z,44.93,-74.85,27.2,10.0,270,5,,10.0,30.059055,1017.9,,TRUE,TRUE,,,,,,,CLR,,,,,,,,VFR,,,,,,,,,,,,METAR,60.0
KMSP 302153Z 21012G19KT 10SM FEW070TCU SCT120 BKN250 32/13 A2980 RMK AO2 SLP086 CB DSNT ALQDS MOV NE TCU N AND DSNT SE-NW T03170133,KMSP,2023-05-30T21:53:00Z,44.88,-93.23,31.7,13.3,210,12,19,10.0,29.799213,1008.6,,,TRUE,,,,,,,FEW,7000,SCT,12000,BKN,25000,,,VFR,,,,,,,,,,,,METAR,255.0
KMSO 302153Z 34006G16KT 10SM CLR 27/04 A2979 RMK AO2 SLP069 T02720044,KMSO,2023-05-30T21:53:00Z,46.92,-114.1,27.2,4.4,340,6,16,10.0,29.790354,1006.9,,,TRUE,,,,,,,CLR,,,,,,,,VFR,,,,,,,,,,,,METAR,974.0
KMSN 302153Z 19009KT 10SM SCT250 30/07 A2993 RMK AO2 SLP130 T03000072,KMSN,2023-05-30T21:53:00Z,43.13,-89.35,30.0,7.2,190,9,,10.0,29.929134,1013.0,,,TRUE,,,,,,,SCT,25000,,,,,,,VFR,,,,,,,,,,,,METAR,262.0
KMSL 302153Z AUTO VRB04KT 10SM BKN055 BKN070 29/16 A2992 RMK AO2 SLP127 T02940156,KMSL,2023-05-30T21:53:00Z,34.75,-87.6,29.4,15.6,0,4,,10.0,29.920275,1012.7,,TRUE,TRUE,,,,,,,BKN,5500,BKN,7000,,,,,VFR,,,,,,,,,,,,METAR,170.0
KMRB 302153Z 10007KT 10SM CLR 24/11 A3009 RMK AO2 SLP188 T02390106,KMRB,2023-05-30T21:53:00Z,39.4,-77.98,23.9,10.6,100,7,,10.0,30.088583,1018.8,,,TRUE,,,,,,,CLR,,,,,,,,VFR,,,,,,,,,,,,METAR,165.0
KMPO 302153Z AUTO 11006KT 10SM CLR 21/03 A3018 RMK AO2 SLP219 T02110033,KMPO,2023-05-30T21:53:00Z,41.13,-75.38,21.1,3.3,110,6,,10.0,30.180119,1021.9,,TRUE,TRUE,,,,,,,CLR,,,,,,,,VFR,,,,,,,,,,,,METAR,576.0
KMOD 302153Z VRB06G19KT 10SM CLR 24/10 A2987 RMK AO2 SLP116 T02440100,KMOD,2023-05-30T21:53:00Z,37.62,-120.95,24.4,10.0,0,6,19,10.0,29.870079,1011.6,,,TRUE,,,,,,,CLR,,,,,,,,VFR,,,,,,,,,,,,METAR,25.0
KMNN 302153Z AUTO 15011KT 10SM FEW065 29/14 A3001 RMK AO2 SLP156 T02890139,KMNN,2023-05-30T21:53:00Z,40.62,-83.07,28.9,13.9,150,11,,10.0,30.008858,1015.6,,TRUE,TRUE,,,,,,,FEW,6500,,,,,,,VFR,,,,,,,,,,,,METAR,301.0
KMMV 302153Z AUTO VRB03KT 10SM CLR 18/07 A3002 RMK AO2 SLP163 T01830067,KMMV,2023-05-30T21:53:00Z,45.2,-123.13,18.3,6.7,0,3,,10.0,30.02067,1016.3,,TRUE,TRUE,,,,,,,CLR,,,,,,,,VFR,,,,,,,,,,,,METAR,48.0
KMMK 302153Z AUTO VRB04KT 10SM CLR 19/08 A3018 RMK AO2 SLP220 T01940083 $,KMMK,2023-05-30T21:53:00Z,41.52,-72.83,19.4,8.3,0,4,,10.0,30.180119,1022.0,,TRUE,TRUE,TRUE,,,,,,CLR,,,,,,,,VFR,,,,,,,,,,,,METAR,30.0
KMLU 302153Z 04007KT 10SM FEW075 32/13 A2990 RMK AO2 SLP123 T03170128,KMLU,2023-05-30T21:53:00Z,32.52,-92.03,31.7,12.8,40,7,,10.0,29.899607,1012.3,,,TRUE,,,,,,,FEW,7500,,,,,,,VFR,,,,,,,,,,,,METAR,22.0
KMLT 302153Z AUTO VRB04KT 10SM CLR 25/09 A3007 RMK AO2 SLP189 T02500089,KMLT,2023-05-30T21:53:00Z,45.65,-68.7,25.0,8.9,0,4,,10.0,30.070866,1018.9,,TRUE,TRUE,,,,,,,CLR,,,,,,,,VFR,,,,,,,,,,,,METAR,121.0
KMLS 302153Z AUTO VRB05KT 10SM SCT075 26/11 A2978 RMK AO2 SLP068 T02610106,KMLS,2023-05-30T21:53:00Z,46.43,-105.88,26.1,10.6,0,5,,10.0,29.778543,1006.8,,TRUE,TRUE,,,,,,,SCT,7500,,,,,,,VFR,,,,,,,,,,,,METAR,800.0
KMLP 302153Z AUTO 10SM CLR 17/01 A2996 RMK AO2 SLP059 T01720006,KMLP,2023-05-30T21:53:00Z,47.45,-115.67,17.2,0.6,,,,10.0,29.958662,1005.9,,TRUE,TRUE,,,,,,,CLR,,,,,,,,VFR,,,,,,,,,,,,METAR,1837.0
KMLC 302153Z AUTO VRB03KT 10SM CLR 29/19 A2991 RMK AO2 SLP118 T02940189,KMLC,2023-05-30T21:53:00Z,34.88,-95.78,29.4,18.9,0,3,,10.0,29.911417,1011.8,,TRUE,TRUE,,,,,,,CLR,,,,,,,,VFR,,,,,,,,,,,,METAR,231.0
KMLB 302153Z 08010KT 10SM CLR 28/18 A2988 RMK AO2 SLP116 T02780183,KMLB,2023-05-30T21:53:00Z,28.1,-80.65,27.8,18.3,80,10,,10.0,29.878937,1011.6,,,TRUE,,,,,,,CLR,,,,,,,,VFR,,,,,,,,,,,,METAR,7.0
KMKO 302153Z AUTO 15004KT 10SM SCT075 SCT110 29/19 A2992 RMK AO2 SLP125 T02940189,KMKO,2023-05-30T21:53:00Z,35.65,-95.37,29.4,18.9,150,4,,10.0,29.920275,1012.5,,TRUE,TRUE,,,,,,,SCT,7500,SCT,11000,,,,,VFR,,,,,,,,,,,,METAR,184.0
KMKL 302153Z 13003KT 10SM OVC090 27/17 A2993 RMK AO2 SLP131 T02720167,KMKL,2023-05-30T21:53:00Z,35.6,-88.92,27.2,16.7,130,3,,10.0,29.929134,1013.1,,,TRUE,,,,,,,OVC,9000,,,,,,,VFR,,,,,,,,,,,,METAR,130.0
KMIW 302153Z AUTO 19012KT 10SM CLR 30/12 A2986 RMK AO2 SLP105 T03000122,KMIW,2023-05-30T21:53:00Z,42.12,-92.92,30.0,12.2,190,12,,10.0,29.861221,1010.5,,TRUE,TRUE,,,,,,,CLR,,,,,,,,VFR,,,,,,,,,,,,METAR,296.0
KMIE 302153Z 14003KT 10SM FEW060 FEW090 31/14 A2996 RMK AO2 SLP135 T03060144,KMIE,2023-05-30T21:53:00Z,40.23,-85.4,30.6,14.4,140,3,,10.0,29.958662,1013.5,,,TRUE,,,,,,,FEW,6000,FEW,9000,,,,,VFR,,,,,,,,,,,,METAR,286.0
KMIC 302153Z 20012G21KT 10SM CLR 30/14 A2979 RMK AO2 LTG DSNT W SLP082 T03000144,KMIC,2023-05-30T21:53:00Z,45.07,-93.35,30.0,14.4,200,12,21,10.0,29.790354,1008.2,,,TRUE,,,,,,,CLR,,,,,,,,VFR,,,,,,,,,,,,METAR,263.0
KMIA 302153Z 08010KT 10SM SCT033 SCT039 BKN120 BKN250 30/22 A2984 RMK AO2 LTG DSNT SW AND W SLP104 CB DSNT SW-NW T03000217,KMIA,2023-05-30T21:53:00Z,25.8,-80.32,30.0,21.7,80,10,,10.0,29.840551,1010.4,,,TRUE,,,,,,,SCT,3300,SCT,3900,BKN,12000,BKN,25000,VFR,,,,,,,,,,,,METAR,1.0
KMHT 302153Z 13006KT 10SM CLR 23/09 A3016 RMK AO2 SLP225 T02280089,KMHT,2023-05-30T21:53:00Z,42.93,-71.43,22.8,8.9,130,6,,10.0,30.159449,1022.5,,,TRUE,,,,,,,CLR,,,,,,,,VFR,,,,,,,,,,,,METAR,68.0
KMHE 302153Z AUTO 33004KT 10SM CLR 33/08 A2977 RMK AO2 SLP070 T03280083,KMHE,2023-05-30T21:53:00Z,43.77,-98.03,32.8,8.3,330,4,,10.0,29.769686,1007.0,,TRUE,TRUE,,,,,,,CLR,,,,,,,,VFR,,,,,,,,,,,,METAR,397.0
KMGY 302153Z AUTO 16005KT 10SM SCT060 29/14 A2998 RMK AO2 SLP144 T02890144,KMGY,2023-05-30T21:53:00Z,39.6,-84.23,28.9,14.4,160,5,,10.0,29.97933,1014.4,,TRUE,TRUE,,,,,,,SCT,6000,,,,,,,VFR,,,,,,,,,,,,METAR,290.0
KMGW 302153Z VRB05KT 10SM CLR 27/11 A3008 RMK AO2 SLP175 T02720106,KMGW,2023-05-30T21:53:00Z,39.65,-79.92,27.2,10.6,0,5,,10.0,30.079725,1017.5,,,TRUE,,,,,,,CLR,,,,,,,,VFR,,,,,,,,,,,,METAR,375.0
KMGM 302153Z 14004KT 10SM OVC060 28/16 A2991 RMK AO2 SLP125 T02780161,KMGM,2023-05-30T21:53:00Z,32.3,-86.4,27.8,16.1,140,4,,10.0,29.911417,1012.5,,,TRUE,,,,,,,OVC,6000,,,,,,,VFR,,,,,,,,,,,,METAR,64.0
KMFR 302153Z 29010G16KT 10SM CLR 27/08 A2984 RMK AO2 SLP094 T02720083,KMFR,2023-05-30T21:53:00Z,42.38,-122.87,27.2,8.3,290,10,16,10.0,29.840551,1009.4,,,TRUE,,,,,,,CLR,,,,,,,,VFR,,,,,,,,,,,,METAR,397.0
KMFE 302153Z 05009G15KT 10SM CLR 32/20 A2982 RMK AO2 SLP097 T03220200 $,KMFE,2023-05-30T21:53:00Z,26.18,-98.25,32.2,20.0,50,9,15,10.0,29.819881,1009.7,,,TRUE,TRUE,,,,,,CLR,,,,,,,,VFR,,,,,,,,,,,,METAR,29.0
KMER 302153Z 30005KT 10SM CLR 28/10 A2988,KMER,2023-05-30T21:53:00Z,37.38,-120.57,28.0,10.0,300,5,,10.0,29.878937,,,,,,,,,,,CLR,,,,,,,,VFR,,,,,,,,,,,,METAR,58.0
KMDW 302153Z 07013KT 10SM FEW095 FEW180 SCT250 30/09 A2993 RMK AO2 SLP127 T03000094,KMDW,2023-05-30T21:53:00Z,41.78,-87.75,30.0,9.4,70,13,,10.0,29.929134,1012.7,,,TRUE,,,,,,,FEW,9500,FEW,18000,SCT,25000,,,VFR,,,,,,,,,,,,METAR,186.0
KMCW 302153Z AUTO 19013G22KT 10SM FEW075 29/13 A2986 RMK AO2 SLP099 T02940128,KMCW,2023-05-30T21:53:00Z,43.15,-93.33,29.4,12.8,190,13,22,10.0,29.861221,1009.9,,TRUE,TRUE,,,,,,,FEW,7500,,,,,,,VFR,,,,,,,,,,,,METAR,363.0
KMCO 302153Z 12010KT 10SM FEW070 SCT250 31/17 A2987 RMK AO2 SLP114 T03060172,KMCO,2023-05-30T21:53:00Z,28.42,-81.33,30.6,17.2,120,10,,10.0,29.870079,1011.4,,,TRUE,,,,,,,FEW,7000,SCT,25000,,,,,VFR,,,,,,,,,,,,METAR,27.0
KMCN 302153Z 10005KT 10SM SCT060 BKN100 29/16 A2990 RMK AO2 SLP121 T02890156,KMCN,2023-05-30T21:53:00Z,32.68,-83.65,28.9,15.6,100,5,,10.0,29.899607,1012.1,,,TRUE,,,,,,,SCT,6000,BKN,10000,,,,,VFR,,,,,,,,,,,,METAR,104.0
KMCK 302153Z AUTO 12008KT 10SM CLR 29/18 A2984 RMK AO2 SLP081 T02890183,KMCK,2023-05-30T21:53:00Z,40.2,-100.58,28.9,18.3,120,8,,10.0,29.840551,1008.1,,TRUE,TRUE,,,,,,,CLR,,,,,,,,VFR,,,,,,,,,,,,METAR,780.0
KMCI 302153Z 23010KT 10SM FEW060 SCT100 BKN250 27/18 A2987 RMK AO2 SLP107 CB DSNT SW MOV NE T02720183,KMCI,2023-05-30T21:53:00Z,39.3,-94.73,27.2,18.3,230,10,,10.0,29.870079,1010.7,,,TRUE,,,,,,,FEW,6000,SCT,10000,BKN,25000,,,VFR,,,,,,,,,,,,METAR,308.0
KMCE 302153Z AUTO VRB04KT 10SM CLR 26/11 A2987 RMK AO2 SLP115 T02560106,KMCE,2023-05-30T21:53:00Z,37.28,-120.5,25.6,10.6,0,4,,10.0,29.870079,1011.5,,TRUE,TRUE,,,,,,,CLR,,,,,,,,VFR,,,,,,,,,,,,METAR,49.0
KMCB 302153Z AUTO 05008KT 10SM FEW075 30/12 A2988 RMK AO2 SLP113 T03000122,KMCB,2023-05-30T21:53:00Z,31.18,-90.47,30.0,12.2,50,8,,10.0,29.878937,1011.3,,TRUE,TRUE,,,,,,,FEW,7500,,,,,,,VFR,,,,,,,,,,,,METAR,124.0
KMBS 302153Z 06012KT 10SM CLR 29/11 A3000 RMK AO2 SLP154 T02940111 $,KMBS,2023-05-30T21:53:00Z,43.53,-84.08,29.4,11.1,60,12,,10.0,30.0,1015.4,,,TRUE,TRUE,,,,,,CLR,,,,,,,,VFR,,,,,,,,,,,,METAR,201.0
KMAI 302153Z AUTO 10005KT 10SM BKN050 BKN070 OVC080 27/16 A2989 RMK AO2 SLP119 T02720161,KMAI,2023-05-30T21:53:00Z,30.83,-85.18,27.2,16.1,100,5,,10.0,29.890747,1011.9,,TRUE,TRUE,,,,,,,BKN,5000,BKN,7000,OVC,8000,,,VFR,,,,,,,,,,,,METAR,33.0
KMAF 302153Z 16014G20KT 10SM CLR 34/10 A2986 RMK AO2 SLP063 T03390100,KMAF,2023-05-30T21:53:00Z,31.95,-102.2,33.9,10.0,160,14,20,10.0,29.861221,1006.3,,,TRUE,,,,,,,CLR,,,,,,,,VFR,,,,,,,,,,,,METAR,874.0
KMAE 302153Z AUTO 28008KT 10SM CLR 26/12 A2989 RMK AO2 SLP119 T02610117,KMAE,2023-05-30T21:53:00Z,36.98,-120.12,26.1,11.7,280,8,,10.0,29.890747,1011.9,,TRUE,TRUE,,,,,,,CLR,,,,,,,,VFR,,,,,,,,,,,,METAR,77.0
KLXV 302153Z AUTO 23011G19KT 10SM BKN100 13/M08 A3023 RMK AO2 PK WND 18029/2055 WSHFT 2044 LTG DSNT E SLP112 T01331083,KLXV,2023-05-30T21:53:00Z,39.23,-106.32,13.3,-8.3,230,11,19,10.0,30.230314,1011.2,,TRUE,TRUE,,,,,,,BKN,10000,,,,,,,VFR,,,,,,,,,,,,METAR,3027.0
KLXT 302153Z AUTO 18011G16KT 10SM FEW060 29/17 A2988 RMK AO2 LTG DSNT SE SLP110 T02940172,KLXT,2023-05-30T21:53:00Z,38.97,-94.37,29.4,17.2,180,11,16,10.0,29.878937,1011.0,,TRUE,TRUE,,,,,,,FEW,6000,,,,,,,VFR,,,,,,,,,,,,METAR,306.0
KLWV 302153Z AUTO 08007KT 10SM VCTS FEW120 29/17 A2992 RMK AO2 SLP128 T02940172,KLWV,2023-05-30T21:53:00Z,38.77,-87.6,29.4,17.2,80,7,,10.0,29.920275,1012.8,,TRUE,TRUE,,,,,,VCTS,FEW,12000,,,,,,,VFR,,,,,,,,,,,,METAR,128.0
KLWD 302153Z AUTO 19009KT 8SM CLR 28/15 A2987 RMK AO2 SLP109 T02830150,KLWD,2023-05-30T21:53:00Z,40.63,-93.9,28.3,15.0,190,9,,8.0,29.870079,1010.9,,TRUE,TRUE,,,,,,,CLR,,,,,,,,VFR,,,,,,,,,,,,METAR,345.0
KLVS 302153Z AUTO 23009G22KT 10SM CLR 27/M07 A3005 RMK AO2 PK WND 22029/2135 SLP067 T02671072,KLVS,2023-05-30T21:53:00Z,35.65,-105.13,26.7,-7.2,230,9,22,10.0,30.050198,1006.7,,TRUE,TRUE,,,,,,,CLR,,,,,,,,VFR,,,,,,,,,,,,METAR,2095.0
KLVM 302153Z AUTO 18010KT 10SM CLR 22/06 A2988 RMK AO2 LTG DSNT NE SLP082 T02220056,KLVM,2023-05-30T21:53:00Z,45.7,-110.43,22.2,5.6,180,10,,10.0,29.878937,1008.2,,TRUE,TRUE,,,,,,,CLR,,,,,,,,VFR,,,,,,,,,,,,METAR,1418.0
KLVK 302153Z 29016KT 10SM CLR 21/09 A2992 RMK AO2 SLP128 T02110094,KLVK,2023-05-30T21:53:00Z,37.7,-121.82,21.1,9.4,290,16,,10.0,29.920275,1012.8,,,TRUE,,,,,,,CLR,,,,,,,,VFR,,,,,,,,,,,,METAR,120.0
KLVJ 302153Z AUTO 15009KT 10SM CLR 31/18 A2988 RMK AO2 SLP119 T03060183,KLVJ,2023-05-30T21:53:00Z,29.52,-95.25,30.6,18.3,150,9,,10.0,29.878937,1011.9,,TRUE,TRUE,,,,,,,CLR,,,,,,,,VFR,,,,,,,,,,,,METAR,11.0
KLUK 302153Z 10004KT 10SM FEW060 SCT085 28/16 A2996 RMK AO2 SLP143 T02780156,KLUK,2023-05-30T21:53:00Z,39.1,-84.42,27.8,15.6,100,4,,10.0,29.958662,1014.3,,,TRUE,,,,,,,FEW,6000,SCT,8500,,,,,VFR,,,,,,,,,,,,METAR,144.0
KLSE 302153Z 18011KT 10SM CLR 32/06 A2987 RMK AO2 SLP106 T03170061,KLSE,2023-05-30T21:53:00Z,43.88,-91.25,31.7,6.1,180,11,,10.0,29.870079,1010.6,,,TRUE,,,,,,,CLR,,,,,,,,VFR,,,,,,,,,,,,METAR,198.0
KLPR 302153Z AUTO 07009KT 10SM FEW080 29/13 A3002 RMK AO2 SLP160 T02890133,KLPR,2023-05-30T21:53:00Z,41.35,-82.18,28.9,13.3,70,9,,10.0,30.02067,1016.0,,TRUE,TRUE,,,,,,,FEW,8000,,,,,,,VFR,,,,,,,,,,,,METAR,241.0
KLOZ 302153Z AUTO 09003KT 10SM FEW055 SCT070 27/16 A2998 RMK AO2 SLP142 T02670156,KLOZ,2023-05-30T21:53:00Z,37.08,-84.07,26.7,15.6,90,3,,10.0,29.97933,1014.2,,TRUE,TRUE,,,,,,,FEW,5500,SCT,7000,,,,,VFR,,,,,,,,,,,,METAR,361.0
KLOU 302153Z 13007KT 10SM FEW100 SCT120 28/16 A2993 RMK AO2 SLP132 T02780156 $,KLOU,2023-05-30T21:53:00Z,38.22,-85.67,27.8,15.6,130,7,,10.0,29.929134,1013.2,,,TRUE,TRUE,,,,,,FEW,10000,SCT,12000,,,,,VFR,,,,,,,,,,,,METAR,165.0
KLOL 302153Z AUTO VRB05KT 10SM CLR 26/00 A2982 RMK AO2 SLP066 T02610000,KLOL,2023-05-30T21:53:00Z,40.07,-118.57,26.1,0.0,0,5,,10.0,29.819881,1006.6,,TRUE,TRUE,,,,,,,CLR,,,,,,,,VFR,,,,,,,,,,,,METAR,1191.0
KLNS 302153Z 07007KT 10SM CLR 26/04 A3012 RMK AO2 SLP198 T02610039,KLNS,2023-05-30T21:53:00Z,40.12,-76.3,26.1,3.9,70,7,,10.0,30.121063,1019.8,,,TRUE,,,,,,,CLR,,,,,,,,VFR,,,,,,,,,,,,METAR,122.0
KLND 302153Z AUTO 33020G27KT 10SM TS BKN085 BKN110 20/03 A2992 RMK AO2 PK WND 34027/2149 LTG DSNT NW TSB49 SLP079 T02000028,KLND,2023-05-30T21:53:00Z,42.82,-108.73,20.0,2.8,330,20,27,10.0,29.920275,1007.9,,TRUE,TRUE,,,,,,TS,BKN,8500,BKN,11000,,,,,VFR,,,,,,,,,,,,METAR,1700.0
KLMT 302153Z 32010KT 10SM SCT060 23/09 A2989 RMK AO2 WSHFT 2128 SLP085 T02280089,KLMT,2023-05-30T21:53:00Z,42.15,-121.72,22.8,8.9,320,10,,10.0,29.890747,1008.5,,,TRUE,,,,,,,SCT,6000,,,,,,,VFR,,,,,,,,,,,,METAR,1246.0
KLLQ 302153Z AUTO 00000KT 10SM CLR 31/12 A2990 RMK AO2 SLP121 T03110122,KLLQ,2023-05-30T21:53:00Z,33.63,-91.75,31.1,12.2,0,0,,10.0,29.899607,1012.1,,TRUE,TRUE,,,,,,,CLR,,,,,,,,VFR,,,,,,,,,,,,METAR,86.0
KLKV 302153Z AUTO 02011KT 10SM FEW049 SCT080 OVC110 20/09 A2993 RMK AO2 LTG DSNT S SLP105 T02000089,KLKV,2023-05-30T21:53:00Z,42.17,-120.4,20.0,8.9,20,11,,10.0,29.929134,1010.5,,TRUE,TRUE,,,,,,,FEW,4900,SCT,8000,OVC,11000,,,VFR,,,,,,,,,,,,METAR,1440.0
KLIT 302153Z 07006KT 10SM SCT075 SCT250 32/13 A2990 RMK AO2 SLP125 T03170133,KLIT,2023-05-30T21:53:00Z,34.73,-92.23,31.7,13.3,70,6,,10.0,29.899607,1012.5,,,TRUE,,,,,,,SCT,7500,SCT,25000,,,,,VFR,,,,,,,,,,,,METAR,77.0
KLHX 302153Z AUTO 28004KT 10SM CLR 27/09 A2988 RMK AO2 LTG DSNT SE SLP064 T02720094,KLHX,2023-05-30T21:53:00Z,38.05,-103.52,27.2,9.4,280,4,,10.0,29.878937,1006.4,,TRUE,TRUE,,,,,,,CLR,,,,,,,,VFR,,,,,,,,,,,,METAR,1289.0
KLHQ 302153Z AUTO 11009KT 10SM FEW060 29/16 A3001 RMK AO2 SLP155 T02890156,KLHQ,2023-05-30T21:53:00Z,39.75,-82.67,28.9,15.6,110,9,,10.0,30.008858,1015.5,,TRUE,TRUE,,,,,,,FEW,6000,,,,,,,VFR,,,,,,,,,,,,METAR,259.0
KLGB 302153Z 24006KT 10SM OVC029 18/11 A2996 RMK AO2 SLP145 T01830106,KLGB,2023-05-30T21:53:00Z,33.82,-118.15,18.3,10.6,240,6,,10.0,29.958662,1014.5,,,TRUE,,,,,,,OVC,2900,,,,,,,MVFR,,,,,,,,,,,,METAR,10.0
KLFT 302153Z VRB03KT 10SM BKN060 32/17 A2987 RMK AO2 LTG DSNT S SLP113 T03220167,KLFT,2023-05-30T21:53:00Z,30.2,-91.97,32.2,16.7,0,3,,10.0,29.870079,1011.3,,,TRUE,,,,,,,BKN,6000,,,,,,,VFR,,,,,,,,,,,,METAR,9.0
KLFK 302153Z AUTO 00000KT 10SM CLR 31/19 A2987 RMK AO2 LTG DSNT ALQDS SLP110 T03110194,KLFK,2023-05-30T21:53:00Z,31.23,-94.75,31.1,19.4,0,0,,10.0,29.870079,1011.0,,TRUE,TRUE,,,,,,,CLR,,,,,,,,VFR,,,,,,,,,,,,METAR,87.0
KLEE 302153Z VRB04KT 10SM CLR 31/14 A2988 RMK AO2 SLP117 T03060144,KLEE,2023-05-30T21:53:00Z,28.82,-81.82,30.6,14.4,0,4,,10.0,29.878937,1011.7,,,TRUE,,,,,,,CLR,,,,,,,,VFR,,,,,,,,,,,,METAR,21.0
KLEB 302153Z 23009KT 10SM CLR 27/08 A3011 RMK AO2 SLP190 T02720083,KLEB,2023-05-30T21:53:00Z,43.63,-72.3,27.2,8.3,230,9,,10.0,30.109253,1019.0,,,TRUE,,,,,,,CLR,,,,,,,,VFR,,,,,,,,,,,,METAR,169.0
KLBX 302153Z AUTO 13007KT 10SM CLR 28/18 A2988 RMK AO2 SLP119 T02780183,KLBX,2023-05-30T21:53:00Z,29.12,-95.47,27.8,18.3,130,7,,10.0,29.878937,1011.9,,TRUE,TRUE,,,,,,,CLR,,,,,,,,VFR,,,,,,,,,,,,METAR,4.0
KLBF 302153Z AUTO 11006KT 10SM CLR 28/18 A2985 RMK AO2 SLP085 T02780183,KLBF,2023-05-30T21:53:00Z,41.12,-100.67,27.8,18.3,110,6,,10.0,29.84941,1008.5,,TRUE,TRUE,,,,,,,CLR,,,,,,,,VFR,,,,,,,,,,,,METAR,843.0
KLBB 302153Z 15014KT 10SM FEW050 FEW250 30/16 A2991 RMK AO2 SLP075 CB DSNT SW MOV E T03000161,KLBB,2023-05-30T21:53:00Z,33.67,-101.82,30.0,16.1,150,14,,10.0,29.911417,1007.5,,,TRUE,,,,,,,FEW,5000,FEW,25000,,,,,VFR,,,,,,,,,,,,METAR,996.0
KLAX 302153Z 26013G19KT 10SM FEW040 BKN055 18/12 A2996 RMK AO2 SLP146 T01780122 $,KLAX,2023-05-30T21:53:00Z,33.93,-118.38,17.8,12.2,260,13,19,10.0,29.958662,1014.6,,,TRUE,TRUE,,,,,,FEW,4000,BKN,5500,,,,,VFR,,,,,,,,,,,,METAR,30.0
KLAW 302153Z 14008G17KT 10SM FEW055 31/17 A2988 RMK AO2 SLP106 T03060172,KLAW,2023-05-30T21:53:00Z,34.55,-98.42,30.6,17.2,140,8,17,10.0,29.878937,1010.6,,,TRUE,,,,,,,FEW,5500,,,,,,,VFR,,,,,,,,,,,,METAR,328.0
KLAR 302153Z AUTO 10SM CLR 22/M05 A3001 RMK AO2 LTG DSNT NE AND E SLP068 T02221050 $,KLAR,2023-05-30T21:53:00Z,41.32,-105.67,22.2,-5.0,,,,10.0,30.008858,1006.8,,TRUE,TRUE,TRUE,,,,,,CLR,,,,,,,,VFR,,,,,,,,,,,,METAR,2217.0
KLAN 302153Z 14007KT 10SM FEW095 31/11 A2999 RMK AO2 SLP150 T03110106,KLAN,2023-05-30T21:53:00Z,42.78,-84.58,31.1,10.6,140,7,,10.0,29.991142,1015.0,,,TRUE,,,,,,,FEW,9500,,,,,,,VFR,,,,,,,,,,,,METAR,261.0
KLAA 302153Z AUTO 21016G26KT 10SM OVC100 30/09 A2982 RMK AO2 PK WND 17026/2151 LTG DSNT ALQDS SLP045 T03000089,KLAA,2023-05-30T21:53:00Z,38.07,-102.68,30.0,8.9,210,16,26,10.0,29.819881,1004.5,,TRUE,TRUE,,,,,,,OVC,10000,,,,,,,VFR,,,,,,,,,,,,METAR,1129.0
KJLN 302153Z 24010KT 10SM SCT050 30/16 A2990 RMK AO2 SLP115 T03000161,KJLN,2023-05-30T21:53:00Z,37.15,-94.5,30.0,16.1,240,10,,10.0,29.899607,1011.5,,,TRUE,,,,,,,SCT,5000,,,,,,,VFR,,,,,,,,,,,,METAR,297.0
KJKL 302153Z AUTO 00000KT 10SM SCT050 28/17 A2999 RMK AO2 SLP143 T02780167,KJKL,2023-05-30T21:53:00Z,37.6,-83.32,27.8,16.7,0,0,,10.0,29.991142,1014.3,,TRUE,TRUE,,,,,,,SCT,5000,,,,,,,VFR,,,,,,,,,,,,METAR,414.0
KJER 302153Z AUTO 25007KT 10SM CLR 26/05 A2985 RMK AO2 LTG DSNT SE-SW SLP074 T02610050,KJER,2023-05-30T21:53:00Z,42.72,-114.45,26.1,5.0,250,7,,10.0,29.84941,1007.4,,TRUE,TRUE,,,,,,,CLR,,,,,,,,VFR,,,,,,,,,,,,METAR,1226.0
KJEF 302153Z 16006KT 10SM SCT090 31/11 A2989 RMK AO2 SLP108 T03110106,KJEF,2023-05-30T21:53:00Z,38.6,-92.15,31.1,10.6,160,6,,10.0,29.890747,1010.8,,,TRUE,,,,,,,SCT,9000,,,,,,,VFR,,,,,,,,,,,,METAR,167.0
KJBR 302153Z AUTO 02006KT 10SM CLR 31/12 A2991 RMK AO2 SLP126 T03110117 $,KJBR,2023-05-30T21:53:00Z,35.83,-90.65,31.1,11.7,20,6,,10.0,29.911417,1012.6,,TRUE,TRUE,TRUE,,,,,,CLR,,,,,,,,VFR,,,,,,,,,,,,METAR,79.0
KIXD 302153Z 16008KT 10SM CLR 28/18 A2988 RMK AO2 LTG DSNT W SLP109 T02830183,KIXD,2023-05-30T21:53:00Z,38.82,-94.88,28.3,18.3,160,8,,10.0,29.878937,1010.9,,,TRUE,,,,,,,CLR,,,,,,,,VFR,,,,,,,,,,,,METAR,322.0
KIWI 302153Z AUTO 21011G15KT 10SM CLR 17/05 A3021 RMK AO2 SLP231 T01670050,KIWI,2023-05-30T21:53:00Z,43.97,-69.72,16.7,5.0,210,11,15,10.0,30.209646,1023.1,,TRUE,TRUE,,,,,,,CLR,,,,,,,,VFR,,,,,,,,,,,,METAR,16.0
KITR 302153Z AUTO 15010KT 10SM VCTS CLR 26/12 A2988 RMK AO2 LTG DSNT SE-SW SLP072 T02610122,KITR,2023-05-30T21:53:00Z,39.23,-102.28,26.1,12.2,150,10,,10.0,29.878937,1007.2,,TRUE,TRUE,,,,,,VCTS,CLR,,,,,,,,VFR,,,,,,,,,,,,METAR,1285.0
KIPL 302153Z AUTO 00000KT 10SM CLR 32/04 A2972 RMK AO2 SLP064 T03220039,KIPL,2023-05-30T21:53:00Z,32.83,-115.58,32.2,3.9,0,0,,10.0,29.719488,1006.4,,TRUE,TRUE,,,,,,,CLR,,,,,,,,VFR,,,,,,,,,,,,METAR,-16.0
KINK 302153Z AUTO 15008KT 10SM CLR 37/M01 A2981 RMK AO2 SLP042 T03721011,KINK,2023-05-30T21:53:00Z,31.78,-103.2,37.2,-1.1,150,8,,10.0,29.811024,1004.2,,TRUE,TRUE,,,,,,,CLR,,,,,,,,VFR,,,,,,,,,,,,METAR,857.0
KIML 302153Z AUTO 14009KT 10SM CLR 28/17 A2986 RMK AO2 SLP084 T02780167,KIML,2023-05-30T21:53:00Z,40.52,-101.62,27.8,16.7,140,9,,10.0,29.861221,1008.4,,TRUE,TRUE,,,,,,,CLR,,,,,,,,VFR,,,,,,,,,,,,METAR,997.0
KILM 302153Z 07007KT 10SM CLR 27/19 A2996 RMK AO2 SLP144 T02670189 $,KILM,2023-05-30T21:53:00Z,34.27,-77.9,26.7,18.9,70,7,,10.0,29.958662,1014.4,,,TRUE,TRUE,,,,,,CLR,,,,,,,,VFR,,,,,,,,,,,,METAR,9.0
KIDA 302153Z 21011G17KT 10SM FEW075 24/06 A2989 RMK AO2 LTG DSNT E SLP089 T02440061,KIDA,2023-05-30T21:53:00Z,43.52,-112.07,24.4,6.1,210,11,17,10.0,29.890747,1008.9,,,TRUE,,,,,,,FEW,7500,,,,,,,VFR,,,,,,,,,,,,METAR,1444.0
KICT 302153Z 20010G18KT 10SM SCT065 SCT180 SCT250 31/16 A2986 RMK AO2 LTG DSNT NW-NE SLP097 CB DSNT NW-N MOV SE T03110161,KICT,2023-05-30T21:53:00Z,37.65,-97.43,31.1,16.1,200,10,18,10.0,29.861221,1009.7,,,TRUE,,,,,,,SCT,6500,SCT,18000,SCT,25000,,,VFR,,,,,,,,,,,,METAR,428.0
KICR 302153Z AUTO 00000KT 10SM CLR 31/11 A2982 RMK AO2 SLP081 T03110111,KICR,2023-05-30T21:53:00Z,43.38,-99.85,31.1,11.1,0,0,,10.0,29.819881,1008.1,,TRUE,TRUE,,,,,,,CLR,,,,,,,,VFR,,,,,,,,,,,,METAR,618.0
KIAH 302153Z 16007G15KT 130V190 10SM FEW060 SCT080 SCT250 31/17 A2986 RMK AO2 SLP110 T03060167,KIAH,2023-05-30T21:53:00Z,30.0,-95.37,30.6,16.7,160,7,15,10.0,29.861221,1011.0,,,TRUE,,,,,,,FEW,6000,SCT,8000,SCT,25000,,,VFR,,,,,,,,,,,,METAR,27.0
KIAG 302153Z 26004KT 10SM CLR 29/13 A3005 RMK AO2 SLP172 T02940133,KIAG,2023-05-30T21:53:00Z,43.12,-78.93,29.4,13.3,260,4,,10.0,30.050198,1017.2,,,TRUE,,,,,,,CLR,,,,,,,,VFR,,,,,,,,,,,,METAR,179.0
KHZY 302153Z AUTO 17006KT 10SM CLR 29/09 A3006 RMK AO2 SLP173 T02940089 $,KHZY,2023-05-30T21:53:00Z,41.78,-80.7,29.4,8.9,170,6,,10.0,30.059055,1017.3,,TRUE,TRUE,TRUE,,,,,,CLR,,,,,,,,VFR,,,,,,,,,,,,METAR,279.0
KHYR 302153Z AUTO 19011G21KT 10SM FEW060 28/14 A2987 RMK AO2 SLP111 T02830144,KHYR,2023-05-30T21:53:00Z,46.02,-91.45,28.3,14.4,190,11,21,10.0,29.870079,1011.1,,TRUE,TRUE,,,,,,,FEW,6000,,,,,,,VFR,,,,,,,,,,,,METAR,369.0
KHWO 302153Z 06012KT 10SM FEW025 BKN100 28/22 A2986 RMK AO2 LTG DSNT SW-NW SLP110 T02830222,KHWO,2023-05-30T21:53:00Z,26.0,-80.23,28.3,22.2,60,12,,10.0,29.861221,1011.0,,,TRUE,,,,,,,FEW,2500,BKN,10000,,,,,VFR,,,,,,,,,,,,METAR,2.0
KHVR 302153Z AUTO 23013KT 10SM CLR 27/03 A2975 RMK AO2 SLP061 T02720028,KHVR,2023-05-30T21:53:00Z,48.55,-109.77,27.2,2.8,230,13,,10.0,29.749016,1006.1,,TRUE,TRUE,,,,,,,CLR,,,,,,,,VFR,,,,,,,,,,,,METAR,789.0
KHVN 302153Z 13010KT 10SM CLR 18/09 A3021 RMK AO2 SLP229 T01780089,KHVN,2023-05-30T21:53:00Z,41.27,-72.88,17.8,8.9,130,10,,10.0,30.209646,1022.9,,,TRUE,,,,,,,CLR,,,,,,,,VFR,,,,,,,,,,,,METAR,4.0
KHUL 302153Z AUTO 22009KT 10SM CLR 26/08 A3004 RMK AO2 SLP172 T02560078,KHUL,2023-05-30T21:53:00Z,46.12,-67.8,25.6,7.8,220,9,,10.0,30.041338,1017.2,,TRUE,TRUE,,,,,,,CLR,,,,,,,,VFR,,,,,,,,,,,,METAR,148.0
KHUF 302153Z 12008KT 10SM SCT065 31/18 A2993 RMK AO2 SLP130 T03060178,KHUF,2023-05-30T21:53:00Z,39.45,-87.32,30.6,17.8,120,8,,10.0,29.929134,1013.0,,,TRUE,,,,,,,SCT,6500,,,,,,,VFR,,,,,,,,,,,,METAR,174.0
KHTL 302153Z AUTO 20007KT 10SM BKN090 30/10 A3001 RMK AO2 SLP159 T03000100,KHTL,2023-05-30T21:53:00Z,44.35,-84.67,30.0,10.0,200,7,,10.0,30.008858,1015.9,,TRUE,TRUE,,,,,,,BKN,9000,,,,,,,VFR,,,,,,,,,,,,METAR,350.0
KHSV 302153Z 08004KT 10SM SCT050 SCT090 28/16 A2993 RMK AO2 SLP129 T02780156,KHSV,2023-05-30T21:53:00Z,34.65,-86.78,27.8,15.6,80,4,,10.0,29.929134,1012.9,,,TRUE,,,,,,,SCT,5000,SCT,9000,,,,,VFR,,,,,,,,,,,,METAR,190.0
KHSI 302153Z AUTO VRB03KT 10SM CLR 30/14 A2986 RMK AO2 SLP091 T03000144,KHSI,2023-05-30T21:53:00Z,40.6,-98.43,30.0,14.4,0,3,,10.0,29.861221,1009.1,,TRUE,TRUE,,,,,,,CLR,,,,,,,,VFR,,,,,,,,,,,,METAR,592.0
KHRO 302153Z AUTO 00000KT 10SM OVC110 26/17 A2996 RMK AO2 SLP133 T02560172,KHRO,2023-05-30T21:53:00Z,36.27,-93.15,25.6,17.2,0,0,,10.0,29.958662,1013.3,,TRUE,TRUE,,,,,,,OVC,11000,,,,,,,VFR,,,,,,,,,,,,METAR,417.0
KHRI 302153Z AUTO 25010G20KT 10SM CLR 28/01 A2979 RMK AO2 SLP082 T02780006,KHRI,2023-05-30T21:53:00Z,45.83,-119.27,27.8,0.6,250,10,20,10.0,29.790354,1008.2,,TRUE,TRUE,,,,,,,CLR,,,,,,,,VFR,,,,,,,,,,,,METAR,194.0
KHQM 302153Z AUTO 30015G28KT 10SM CLR 15/04 A3007 RMK AO2 PK WND 29028/2145 SLP186 T01500039,KHQM,2023-05-30T21:53:00Z,46.97,-123.93,15.0,3.9,300,15,28,10.0,30.070866,1018.6,,TRUE,TRUE,,,,,,,CLR,,,,,,,,VFR,,,,,,,,,,,,METAR,4.0
KHOU 302153Z 12010KT 10SM SCT050 BKN250 32/13 A2986 RMK AO2 SLP117 TCU DSNT N T03170133,KHOU,2023-05-30T21:53:00Z,29.63,-95.28,31.7,13.3,120,10,,10.0,29.861221,1011.7,,,TRUE,,,,,,,SCT,5000,BKN,25000,,,,,VFR,,,,,,,,,,,,METAR,13.0
KHOT 302153Z AUTO 00000KT 10SM BKN070 30/13 A2992 RMK AO2 SLP126 T03000133,KHOT,2023-05-30T21:53:00Z,34.48,-93.1,30.0,13.3,0,0,,10.0,29.920275,1012.6,,TRUE,TRUE,,,,,,,BKN,7000,,,,,,,VFR,,,,,,,,,,,,METAR,153.0
KHLN 302153Z 17013G20KT 10SM CLR 24/06 A2982 RMK AO2 SLP087 T02390061,KHLN,2023-05-30T21:53:00Z,46.6,-111.98,23.9,6.1,170,13,20,10.0,29.819881,1008.7,,,TRUE,,,,,,,CLR,,,,,,,,VFR,,,,,,,,,,,,METAR,1178.0
KHLG 302153Z 10009KT 10SM CLR 27/11 A3005 RMK AO2 SLP171 T02720111 $,KHLG,2023-05-30T21:53:00Z,40.17,-80.65,27.2,11.1,100,9,,10.0,30.050198,1017.1,,,TRUE,TRUE,,,,,,CLR,,,,,,,,VFR,,,,,,,,,,,,METAR,365.0
KHLC 302153Z AUTO 12005KT 10SM VCTS CLR 29/16 A2984 RMK AO2 LTG DSNT SW AND W SLP082 T02890156,KHLC,2023-05-30T21:53:00Z,39.37,-99.83,28.9,15.6,120,5,,10.0,29.840551,1008.2,,TRUE,TRUE,,,,,,VCTS,CLR,,,,,,,,VFR,,,,,,,,,,,,METAR,667.0
KHKY 302153Z AUTO 07005KT 10SM BKN100 22/16 A3003 RMK AO2 SLP150 T02220161,KHKY,2023-05-30T21:53:00Z,35.75,-81.38,22.2,16.1,70,5,,10.0,30.029528,1015.0,,TRUE,TRUE,,,,,,,BKN,10000,,,,,,,VFR,,,,,,,,,,,,METAR,357.0
KHKS 302153Z 04005KT 10SM FEW085 29/13 A2990 RMK AO2 SLP118 T02890133,KHKS,2023-05-30T21:53:00Z,32.33,-90.22,28.9,13.3,40,5,,10.0,29.899607,1011.8,,,TRUE,,,,,,,FEW,8500,,,,,,,VFR,,,,,,,,,,,,METAR,103.0
KHKA 302153Z AUTO 11004KT 10SM BKN085 30/13 A2991 RMK AO2 SLP125 T03000128 $,KHKA,2023-05-30T21:53:00Z,35.93,-89.83,30.0,12.8,110,4,,10.0,29.911417,1012.5,,TRUE,TRUE,TRUE,,,,,,BKN,8500,,,,,,,VFR,,,,,,,,,,,,METAR,78.0
KHJO 302153Z AUTO 29010KT 10SM CLR 26/11 A2990 RMK AO2 SLP125 T02610106,KHJO,2023-05-30T21:53:00Z,36.32,-119.62,26.1,10.6,290,10,,10.0,29.899607,1012.5,,TRUE,TRUE,,,,,,,CLR,,,,,,,,VFR,,,,,,,,,,,,METAR,73.0
KHIO 302153Z 28006KT 10SM SCT045 18/05 A3002 RMK AO2 SLP164 T01830050,KHIO,2023-05-30T21:53:00Z,45.55,-122.95,18.3,5.0,280,6,,10.0,30.02067,1016.4,,,TRUE,,,,,,,SCT,4500,,,,,,,VFR,,,,,,,,,,,,METAR,62.0
KHIB 302153Z AUTO 14009KT 10SM FEW100 24/14 A2981 RMK AO2 SLP094 T02440139,KHIB,2023-05-30T21:53:00Z,47.38,-92.83,24.4,13.9,140,9,,10.0,29.811024,1009.4,,TRUE,TRUE,,,,,,,FEW,10000,,,,,,,VFR,,,,,,,,,,,,METAR,409.0
KHHR 302153Z 25011KT 10SM OVC050 19/11 A2996 RMK AO2 SLP146 T01940106,KHHR,2023-05-30T21:53:00Z,33.92,-118.33,19.4,10.6,250,11,,10.0,29.958662,1014.6,,,TRUE,,,,,,,OVC,5000,,,,,,,VFR,,,,,,,,,,,,METAR,21.0
KHGR 302153Z 07006KT 10SM CLR 26/08 A3011 RMK AO2 SLP203 T02610078,KHGR,2023-05-30T21:53:00Z,39.7,-77.73,26.1,7.8,70,6,,10.0,30.109253,1020.3,,,TRUE,,,,,,,CLR,,,,,,,,VFR,,,,,,,,,,,,METAR,206.0
KHFD 302153Z COR 15008KT 8SM CLR 22/11 A3017 RMK AO2 SLP215 T02170106,KHFD,2023-05-30T21:53:00Z,41.73,-72.65,21.7,10.6,150,8,,8.0,30.171259,1021.5,TRUE,,TRUE,,,,,,,CLR,,,,,,,,VFR,,,,,,,,,,,,METAR,3.0
KHEI 302153Z AUTO 00000KT 10SM SCT080 28/09 A2982 RMK AO2 SLP084 T02830089,KHEI,2023-05-30T21:53:00Z,46.02,-102.65,28.3,8.9,0,0,,10.0,29.819881,1008.4,,TRUE,TRUE,,,,,,,SCT,8000,,,,,,,VFR,,,,,,,,,,,,METAR,824.0
KHBR 302153Z AUTO 18010G17KT 150V210 10SM FEW060 32/15 A2988 RMK AO2 SLP100 T03170150,KHBR,2023-05-30T21:53:00Z,34.98,-99.05,31.7,15.0,180,10,17,10.0,29.878937,1010.0,,TRUE,TRUE,,,,,,,FEW,6000,,,,,,,VFR,,,,,,,,,,,,METAR,475.0
KHBG 302153Z AUTO 02006KT 10SM FEW065 31/14 A2989 RMK AO2 SLP118 T03060144,KHBG,2023-05-30T21:53:00Z,31.27,-89.25,30.6,14.4,20,6,,10.0,29.890747,1011.8,,TRUE,TRUE,,,,,,,FEW,6500,,,,,,,VFR,,,,,,,,,,,,METAR,45.0
KHAO 302153Z AUTO 11005KT 10SM FEW060 29/16 A2997 RMK AO2 SLP144 T02940156,KHAO,2023-05-30T21:53:00Z,39.37,-84.52,29.4,15.6,110,5,,10.0,29.970472,1014.4,,TRUE,TRUE,,,,,,,FEW,6000,,,,,,,VFR,,,,,,,,,,,,METAR,185.0
KGZH 302153Z AUTO 03004KT 10SM CLR 28/14 A2991 RMK AO2 SLP124 T02780144,KGZH,2023-05-30T21:53:00Z,31.42,-87.05,27.8,14.4,30,4,,10.0,29.911417,1012.4,,TRUE,TRUE,,,,,,,CLR,,,,,,,,VFR,,,,,,,,,,,,METAR,77.0
KGWO 302153Z AUTO 00000KT 10SM OVC085 30/15 A2991 RMK AO2 SLP125 T03000150,KGWO,2023-05-30T21:53:00Z,33.5,-90.08,30.0,15.0,0,0,,10.0,29.911417,1012.5,,TRUE,TRUE,,,,,,,OVC,8500,,,,,,,VFR,,,,,,,,,,,,METAR,42.0
KGVL 302153Z AUTO 08010KT 10SM CLR 26/14 A2999 RMK AO2 SLP143 T02610139,KGVL,2023-05-30T21:53:00Z,34.27,-83.83,26.1,13.9,80,10,,10.0,29.991142,1014.3,,TRUE,TRUE,,,,,,,CLR,,,,,,,,VFR,,,,,,,,,,,,METAR,387.0
KGUY 302153Z AUTO 17013G19KT 10SM FEW060 29/16 A2988 RMK AO2 SLP072 T02890161,KGUY,2023-05-30T21:53:00Z,36.68,-101.5,28.9,16.1,170,13,19,10.0,29.878937,1007.2,,TRUE,TRUE,,,,,,,FEW,6000,,,,,,,VFR,,,,,,,,,,,,METAR,950.0
KGUP 302153Z AUTO 24015G29KT 10SM CLR 27/M05 A3003 RMK AO2 PK WND 25029/2148 SLP039 T02671050,KGUP,2023-05-30T21:53:00Z,35.52,-108.8,26.7,-5.0,240,15,29,10.0,30.029528,1003.9,,TRUE,TRUE,,,,,,,CLR,,,,,,,,VFR,,,,,,,,,,,,METAR,1972.0
KGTF 302153Z 25008KT 10SM CLR 26/04 A2979 RMK AO2 SLP066 T02560039,KGTF,2023-05-30T21:53:00Z,47.47,-111.38,25.6,3.9,250,8,,10.0,29.790354,1006.6,,,TRUE,,,,,,,CLR,,,,,,,,VFR,,,,,,,,,,,,METAR,1117.0
KGSP 302153Z 04011KT 10SM FEW041 BKN070 BKN100 23/16 A3000 RMK AO2 SLP150 T02330156,KGSP,2023-05-30T21:53:00Z,34.9,-82.22,23.3,15.6,40,11,,10.0,30.0,1015.0,,,TRUE,,,,,,,FEW,4100,BKN,7000,BKN,10000,,,VFR,,,,,,,,,,,,METAR,285.0
KGSH 302153Z AUTO 13012KT 10SM BKN075 32/13 A2996 RMK AO2 SLP138 T03220128,KGSH,2023-05-30T21:53:00Z,41.53,-85.78,32.2,12.8,130,12,,10.0,29.958662,1013.8,,TRUE,TRUE,,,,,,,BKN,7500,,,,,,,VFR,,,,,,,,,,,,METAR,252.0
KGRR 302153Z 13006KT 10SM FEW090 BKN110 31/13 A2997 RMK AO2 SLP145 T03060133,KGRR,2023-05-30T21:53:00Z,42.88,-85.52,30.6,13.3,130,6,,10.0,29.970472,1014.5,,,TRUE,,,,,,,FEW,9000,BKN,11000,,,,,VFR,,,,,,,,,,,,METAR,239.0
KGRI 302153Z VRB04KT 10SM CLR 31/14 A2985 RMK AO2 SLP095 T03110139,KGRI,2023-05-30T21:53:00Z,40.97,-98.32,31.1,13.9,0,4,,10.0,29.84941,1009.5,,,TRUE,,,,,,,CLR,,,,,,,,VFR,,,,,,,,,,,,METAR,562.0
KGRB 302153Z 13009G18KT 10SM CLR 31/08 A2993 RMK AO2 SLP134 T03110083,KGRB,2023-05-30T21:53:00Z,44.48,-88.13,31.1,8.3,130,9,18,10.0,29.929134,1013.4,,,TRUE,,,,,,,CLR,,,,,,,,VFR,,,,,,,,,,,,METAR,209.0
KGPT 302153Z 18008KT 10SM CLR 28/19 A2988 RMK AO2 SLP116 T02830189,KGPT,2023-05-30T21:53:00Z,30.42,-89.08,28.3,18.9,180,8,,10.0,29.878937,1011.6,,,TRUE,,,,,,,CLR,,,,,,,,VFR,,,,,,,,,,,,METAR,5.0
KGOK 302153Z AUTO 15008KT 10SM CLR 31/16 A2987 RMK AO2 SLP105 T03060161 $,KGOK,2023-05-30T21:53:00Z,35.85,-97.4,30.6,16.1,150,8,,10.0,29.870079,1010.5,,TRUE,TRUE,TRUE,,,,,,CLR,,,,,,,,VFR,,,,,,,,,,,,METAR,326.0
KGNV 302153Z 25010KT 10SM OVC070 27/18 A2990 RMK AO2 SLP124 T02670183,KGNV,2023-05-30T21:53:00Z,29.7,-82.28,26.7,18.3,250,10,,10.0,29.899607,1012.4,,,TRUE,,,,,,,OVC,7000,,,,,,,VFR,,,,,,,,,,,,METAR,41.0
KGMU 302153Z 08008G15KT 10SM FEW055 BKN090 25/15 A2999 RMK AO2 SLP148 T02500150,KGMU,2023-05-30T21:53:00Z,34.85,-82.35,25.0,15.0,80,8,15,10.0,29.991142,1014.8,,,TRUE,,,,,,,FEW,5500,BKN,9000,,,,,VFR,,,,,,,,,,,,METAR,309.0
KGLR 302153Z AUTO 17012G17KT 10SM SCT095 31/07 A3000 RMK AO2 SLP152 T03110072,KGLR,2023-05-30T21:53:00Z,45.02,-84.68,31.1,7.2,170,12,17,10.0,30.0,1015.2,,TRUE,TRUE,,,,,,,SCT,9500,,,,,,,VFR,,,,,,,,,,,,METAR,403.0
KGLH 302153Z 08005KT 10SM BKN085 30/13 A2989 RMK AO2 SLP127 T03000133,KGLH,2023-05-30T21:53:00Z,33.47,-90.98,30.0,13.3,80,5,,10.0,29.890747,1012.7,,,TRUE,,,,,,,BKN,8500,,,,,,,VFR,,,,,,,,,,,,METAR,40.0
KGLD 302153Z AUTO 18010KT 10SM FEW085 29/12 A2986 RMK AO2 LTG DSNT SW SLP069 T02890122,KGLD,2023-05-30T21:53:00Z,39.37,-101.7,28.9,12.2,180,10,,10.0,29.861221,1006.9,,TRUE,TRUE,,,,,,,FEW,8500,,,,,,,VFR,,,,,,,,,,,,METAR,1111.0
KGKY 302153Z 09008KT 10SM FEW120 28/17 A2990 RMK AO2 LTG DSNT ALQDS TSB2057E22 SLP115 T02780172,KGKY,2023-05-30T21:53:00Z,32.67,-97.1,27.8,17.2,90,8,,10.0,29.899607,1011.5,,,TRUE,,,,,,,FEW,12000,,,,,,,VFR,,,,,,,,,,,,METAR,189.0
KGKJ 302153Z AUTO VRB03KT 10SM FEW080 28/09 A3008 RMK AO2 SLP178 T02780089,KGKJ,2023-05-30T21:53:00Z,41.63,-80.22,27.8,8.9,0,3,,10.0,30.079725,1017.8,,TRUE,TRUE,,,,,,,FEW,8000,,,,,,,VFR,,,,,,,,,,,,METAR,428.0
KGJT 302153Z 28009G15KT 250V310 10SM CLR 29/M04 A2989 RMK AO2 SLP053 T02941044,KGJT,2023-05-30T21:53:00Z,39.13,-108.53,29.4,-4.4,280,9,15,10.0,29.890747,1005.3,,,TRUE,,,,,,,CLR,,,,,,,,VFR,,,,,,,,,,,,METAR,1475.0
KGIF 302153Z AUTO 08003KT 10SM CLR 29/15 A2988 RMK AO2 SLP115 T02940150,KGIF,2023-05-30T21:53:00Z,28.07,-81.75,29.4,15.0,80,3,,10.0,29.878937,1011.5,,TRUE,TRUE,,,,,,,CLR,,,,,,,,VFR,,,,,,,,,,,,METAR,44.0
KGGW 302153Z AUTO 28006KT 10SM CLR 28/11 A2974 RMK AO2 SLP061 T02830111,KGGW,2023-05-30T21:53:00Z,48.22,-106.62,28.3,11.1,280,6,,10.0,29.740158,1006.1,,TRUE,TRUE,,,,,,,CLR,,,,,,,,VFR,,,,,,,,,,,,METAR,698.0
KGGG 302153Z 09006KT 10SM CLR 31/17 A2987 RMK AO2 SLP110 T03110167,KGGG,2023-05-30T21:53:00Z,32.38,-94.72,31.1,16.7,90,6,,10.0,29.870079,1011.0,,,TRUE,,,,,,,CLR,,,,,,,,VFR,,,,,,,,,,,,METAR,107.0
KGFL 302153Z AUTO 17009KT 10SM CLR 26/09 A3010 RMK AO2 SLP193 T02560094,KGFL,2023-05-30T21:53:00Z,43.33,-73.62,25.6,9.4,170,9,,10.0,30.100393,1019.3,,TRUE,TRUE,,,,,,,CLR,,,,,,,,VFR,,,,,,,,,,,,METAR,99.0
KGFK 302153Z 14005KT 10SM SCT050 SCT085 28/13 A2969 RMK AO2 LTG DSNT N SLP050 ACC SW-NW T02830133,KGFK,2023-05-30T21:53:00Z,47.95,-97.18,28.3,13.3,140,5,,10.0,29.68996,1005.0,,,TRUE,,,,,,,SCT,5000,SCT,8500,,,,,VFR,,,,,,,,,,,,METAR,256.0
KGEZ 302153Z AUTO 12010G18KT 10SM CLR 32/14 A2994 RMK AO2 SLP133 T03170139,KGEZ,2023-05-30T21:53:00Z,39.58,-85.8,31.7,13.9,120,10,18,10.0,29.940945,1013.3,,TRUE,TRUE,,,,,,,CLR,,,,,,,,VFR,,,,,,,,,,,,METAR,245.0
KGEY 302153Z AUTO 21006KT 10SM BKN100 BKN120 26/04 A2982 RMK AO2 LTG DSNT W SLP069 T02610039,KGEY,2023-05-30T21:53:00Z,44.52,-108.08,26.1,3.9,210,6,,10.0,29.819881,1006.9,,TRUE,TRUE,,,,,,,BKN,10000,BKN,12000,,,,,VFR,,,,,,,,,,,,METAR,1191.0
KGEG 302153Z 20009G15KT 10SM FEW065 FEW210 24/05 A2982 RMK AO2 SLP084 T02440050,KGEG,2023-05-30T21:53:00Z,47.62,-117.53,24.4,5.0,200,9,15,10.0,29.819881,1008.4,,,TRUE,,,,,,,FEW,6500,FEW,21000,,,,,VFR,,,,,,,,,,,,METAR,718.0
KGCC 302153Z AUTO 08008KT 10SM CLR 21/11 A2988 RMK AO2 WSHFT 2115 SLP084 T02110111,KGCC,2023-05-30T21:53:00Z,44.33,-105.55,21.1,11.1,80,8,,10.0,29.878937,1008.4,,TRUE,TRUE,,,,,,,CLR,,,,,,,,VFR,,,,,,,,,,,,METAR,1328.0
KGAG 302153Z AUTO 18012G17KT 10SM CLR 31/15 A2988 RMK AO2 SLP091 T03110150,KGAG,2023-05-30T21:53:00Z,36.3,-99.77,31.1,15.0,180,12,17,10.0,29.878937,1009.1,,TRUE,TRUE,,,,,,,CLR,,,,,,,,VFR,,,,,,,,,,,,METAR,670.0
KFYV 302153Z 22005KT 10SM CLR 28/16 A2994 RMK AO2 SLP125 T02830156,KFYV,2023-05-30T21:53:00Z,36.02,-94.17,28.3,15.6,220,5,,10.0,29.940945,1012.5,,,TRUE,,,,,,,CLR,,,,,,,,VFR,,,,,,,,,,,,METAR,377.0
KFXE 302153Z 07012KT 10SM VCTS FEW027 SCT085 29/23 A2984 RMK AO2 LTG DSNT W AND NW SLP108 T02890228 PNO,KFXE,2023-05-30T21:53:00Z,26.2,-80.18,28.9,22.8,70,12,,10.0,29.840551,1010.8,,,TRUE,,,,,,VCTS,FEW,2700,SCT,8500,,,,,VFR,,,,,,,,,,,,METAR,3.0
KFWN 302153Z AUTO 00000KT 10SM CLR 23/04 A3016 RMK AO2 SLP213 T02330044,KFWN,2023-05-30T21:53:00Z,41.2,-74.63,23.3,4.4,0,0,,10.0,30.159449,1021.3,,TRUE,TRUE,,,,,,,CLR,,,,,,,,VFR,,,,,,,,,,,,METAR,129.0
KFVE 302153Z AUTO 27008KT 10SM CLR 27/01 A3001 RMK AO2 SLP158 T02720011,KFVE,2023-05-30T21:53:00Z,47.28,-68.3,27.2,1.1,270,8,,10.0,30.008858,1015.8,,TRUE,TRUE,,,,,,,CLR,,,,,,,,VFR,,,,,,,,,,,,METAR,299.0
KFUL 302153Z 20007KT 10SM BKN027 OVC049 19/12 A2995 RMK AO2 SLP141 T01890117,KFUL,2023-05-30T21:53:00Z,33.87,-117.98,18.9,11.7,200,7,,10.0,29.949802,1014.1,,,TRUE,,,,,,,BKN,2700,OVC,4900,,,,,MVFR,,,,,,,,,,,,METAR,23.0
KFTY 302153Z 07009KT 10SM OVC100 27/13 A2995 RMK AO2 SLP134 T02670133,KFTY,2023-05-30T21:53:00Z,33.78,-84.52,26.7,13.3,70,9,,10.0,29.949802,1013.4,,,TRUE,,,,,,,OVC,10000,,,,,,,VFR,,,,,,,,,,,,METAR,245.0
KFTW 302153Z 10015KT 10SM -TSRA BKN055 OVC070 27/19 A2987 RMK AO2 LTG DSNT N-E RAB44 TSB50 SLP106 P0000 T02720189,KFTW,2023-05-30T21:53:00Z,32.83,-97.37,27.2,18.9,100,15,,10.0,29.870079,1010.6,,,TRUE,,,,,,-TSRA,BKN,5500,OVC,7000,,,,,VFR,,,,,,0.005,,,,,,METAR,213.0
KFST 302153Z AUTO 13011G18KT 10SM FEW110 33/12 A2985 RMK AO2 WSHFT 2109 LTG DSNT S SLP056 T03330117,KFST,2023-05-30T21:53:00Z,30.92,-102.92,33.3,11.7,130,11,18,10.0,29.84941,1005.6,,TRUE,TRUE,,,,,,,FEW,11000,,,,,,,VFR,,,,,,,,,,,,METAR,917.0
KFSM 302153Z VRB04KT 10SM CLR 31/16 A2990 RMK AO2 SLP119 T03060156,KFSM,2023-05-30T21:53:00Z,35.33,-94.37,30.6,15.6,0,4,,10.0,29.899607,1011.9,,,TRUE,,,,,,,CLR,,,,,,,,VFR,,,,,,,,,,,,METAR,136.0
KFRM 302153Z AUTO 13013KT 10SM VCTS CLR 26/18 A2982 RMK AO2 LTG DSNT S TSE01B32E40B42E47B52 SLP095 T02610183,KFRM,2023-05-30T21:53:00Z,43.63,-94.42,26.1,18.3,130,13,,10.0,29.819881,1009.5,,TRUE,TRUE,,,,,,VCTS,CLR,,,,,,,,VFR,,,,,,,,,,,,METAR,353.0
KFRG 302153Z 11008KT 10SM CLR 18/11 A3019 RMK AO2 SLP223 T01830106,KFRG,2023-05-30T21:53:00Z,40.73,-73.42,18.3,10.6,110,8,,10.0,30.188976,1022.3,,,TRUE,,,,,,,CLR,,,,,,,,VFR,,,,,,,,,,,,METAR,23.0
KFPR 302153Z 08011KT 10SM CLR 28/19 A2989 RMK AO2 SLP120 T02780189,KFPR,2023-05-30T21:53:00Z,27.5,-80.38,27.8,18.9,80,11,,10.0,29.890747,1012.0,,,TRUE,,,,,,,CLR,,,,,,,,VFR,,,,,,,,,,,,METAR,7.0
KFOZ 302153Z AUTO 00000KT 10SM SCT048 25/16 A2984 RMK AO2,KFOZ,2023-05-30T21:53:00Z,47.77,-93.65,25.0,16.0,0,0,,10.0,29.840551,,,TRUE,TRUE,,,,,,,SCT,4800,,,,,,,VFR,,,,,,,,,,,,METAR,412.0
KFOK 302153Z 13009KT 10SM CLR 16/08 A3022 RMK AO2 SLP233 T01560083,KFOK,2023-05-30T21:53:00Z,40.85,-72.62,15.6,8.3,130,9,,10.0,30.221457,1023.3,,,TRUE,,,,,,,CLR,,,,,,,,VFR,,,,,,,,,,,,METAR,13.0
KFOE 302153Z 20009KT 10SM 29/17 A2985 RMK AO2 LTG DSNT ALQDS SLP099 T02940167 $,KFOE,2023-05-30T21:53:00Z,38.93,-95.65,29.4,16.7,200,9,,10.0,29.84941,1009.9,,,TRUE,TRUE,,,,,,,,,,,,,,,,,,,,,,,,,,METAR,315.0
KFNT 302153Z 14008KT 10SM CLR 29/13 A3000 RMK AO2 SLP154 T02890133,KFNT,2023-05-30T21:53:00Z,42.97,-83.75,28.9,13.3,140,8,,10.0,30.0,1015.4,,,TRUE,,,,,,,CLR,,,,,,,,VFR,,,,,,,,,,,,METAR,235.0
KFNB 302153Z AUTO 03009G15KT 10SM VCTS BKN070 BKN085 24/19 A2986 RMK AO2 LTG DSNT W-NE TSB32E47 SLP103 T02390194,KFNB,2023-05-30T21:53:00Z,40.07,-95.58,23.9,19.4,30,9,15,10.0,29.861221,1010.3,,TRUE,TRUE,,,,,,VCTS,BKN,7000,BKN,8500,,,,,VFR,,,,,,,,,,,,METAR,301.0
KFMY 302153Z 02013KT 1 1/2SM +TSRA BR BKN040 OVC048 23/21 A2988 RMK AO2 WSHFT 2138 RAE22B37 TSE2055B2058B29 SLP120 P0049 T02330211,KFMY,2023-05-30T21:53:00Z,26.58,-81.87,23.3,21.1,20,13,,1.5,29.878937,1012.0,,,TRUE,,,,,,+TSRA BR,BKN,4000,OVC,4800,,,,,IFR,,,,,,0.49,,,,,,METAR,4.0
KFMN 302153Z 17012G17KT 10SM CLR 28/M08 A2997 RMK AO2 WSHFT 2121 SLP098 T02831078,KFMN,2023-05-30T21:53:00Z,36.75,-108.23,28.3,-7.8,170,12,17,10.0,29.970472,1009.8,,,TRUE,,,,,,,CLR,,,,,,,,VFR,,,,,,,,,,,,METAR,1677.0
KFLO 302153Z 02005KT 10SM FEW049 SCT100 27/16 A2995 RMK AO2 SLP137 T02720161,KFLO,2023-05-30T21:53:00Z,34.18,-79.73,27.2,16.1,20,5,,10.0,29.949802,1013.7,,,TRUE,,,,,,,FEW,4900,SCT,10000,,,,,VFR,,,,,,,,,,,,METAR,43.0
KFLL 302153Z 08014KT 10SM FEW023 FEW070 SCT100 BKN170 BKN250 28/22 A2984 RMK AO2 TSB2057E26 SLP104 T02780222 $,KFLL,2023-05-30T21:53:00Z,26.07,-80.15,27.8,22.2,80,14,,10.0,29.840551,1010.4,,,TRUE,TRUE,,,,,,FEW,2300,FEW,7000,SCT,10000,BKN,17000,VFR,,,,,,,,,,,,METAR,1.0
KFLD 302153Z AUTO 20006G18KT 10SM CLR 31/08 A2994 RMK AO2 SLP133 T03060083,KFLD,2023-05-30T21:53:00Z,43.77,-88.48,30.6,8.3,200,6,18,10.0,29.940945,1013.3,,TRUE,TRUE,,,,,,,CLR,,,,,,,,VFR,,,,,,,,,,,,METAR,242.0
KFHR 302153Z AUTO 23009KT 10SM CLR 17/04 A3002 RMK AO2 SLP167 T01720044,KFHR,2023-05-30T21:53:00Z,48.52,-123.03,17.2,4.4,230,9,,10.0,30.02067,1016.7,,TRUE,TRUE,,,,,,,CLR,,,,,,,,VFR,,,,,,,,,,,,METAR,34.0
KFFT 302153Z AUTO 10006KT 10SM FEW060 29/16 A2996 RMK AO2 SLP137 T02890161,KFFT,2023-05-30T21:53:00Z,38.18,-84.9,28.9,16.1,100,6,,10.0,29.958662,1013.7,,TRUE,TRUE,,,,,,,FEW,6000,,,,,,,VFR,,,,,,,,,,,,METAR,235.0
KFFC 302153Z AUTO 10006KT 10SM FEW050 FEW080 SCT100 27/14 A2994 RMK AO2 SLP135 T02720144,KFFC,2023-05-30T21:53:00Z,33.35,-84.57,27.2,14.4,100,6,,10.0,29.940945,1013.5,,TRUE,TRUE,,,,,,,FEW,5000,FEW,8000,SCT,10000,,,VFR,,,,,,,,,,,,METAR,242.0
KFDY 302153Z AUTO 11011KT 10SM FEW110 31/13 A2997 RMK AO2 SLP141 T03110128,KFDY,2023-05-30T21:53:00Z,41.02,-83.67,31.1,12.8,110,11,,10.0,29.970472,1014.1,,TRUE,TRUE,,,,,,,FEW,11000,,,,,,,VFR,,,,,,,,,,,,METAR,247.0
KFDR 302153Z AUTO 16010G15KT 10SM FEW060 32/17 A2984 RMK AO2 SLP086 T03220167,KFDR,2023-05-30T21:53:00Z,34.35,-98.98,32.2,16.7,160,10,15,10.0,29.840551,1008.6,,TRUE,TRUE,,,,,,,FEW,6000,,,,,,,VFR,,,,,,,,,,,,METAR,378.0
KFCM 302153Z 18015G22KT 10SM BKN070 BKN095 30/15 A2979 RMK AO2 LTG DSNT NW RAB11E23 SLP083 P0000 T03000150,KFCM,2023-05-30T21:53:00Z,44.83,-93.47,30.0,15.0,180,15,22,10.0,29.790354,1008.3,,,TRUE,,,,,,,BKN,7000,BKN,9500,,,,,VFR,,,,,,0.005,,,,,,METAR,276.0
KFAY 302153Z 02008KT 10SM OVC110 25/18 A2998 RMK AO2 SLP145 T02500183,KFAY,2023-05-30T21:53:00Z,34.98,-78.88,25.0,18.3,20,8,,10.0,29.97933,1014.5,,,TRUE,,,,,,,OVC,11000,,,,,,,VFR,,,,,,,,,,,,METAR,57.0
KFAT 302153Z 31004KT 10SM FEW070 FEW200 24/11 A2989 RMK AO2 WSHFT 2128 SLP119 MTNS OBSC HZ DSNT N-E-S T02440111,KFAT,2023-05-30T21:53:00Z,36.78,-119.72,24.4,11.1,310,4,,10.0,29.890747,1011.9,,,TRUE,,,,,,,FEW,7000,FEW,20000,,,,,VFR,,,,,,,,,,,,METAR,102.0
KFAR 302153Z 19009KT 10SM FEW080 31/14 A2970 RMK AO2 LTG DSNT NE SLP052 T03110144,KFAR,2023-05-30T21:53:00Z,46.9,-96.82,31.1,14.4,190,9,,10.0,29.698818,1005.2,,,TRUE,,,,,,,FEW,8000,,,,,,,VFR,,,,,,,,,,,,METAR,276.0
KEYW 302153Z VRB06KT 10SM FEW020 29/23 A2985,KEYW,2023-05-30T21:53:00Z,24.55,-81.75,29.0,23.0,0,6,,10.0,29.84941,,,,,,,,,,,FEW,2000,,,,,,,VFR,,,,,,,,,,,,METAR,1.0
KEYE 302153Z AUTO VRB06KT 10SM CLR 29/16 A2994 RMK AO2 SLP133 T02940156,KEYE,2023-05-30T21:53:00Z,39.83,-86.3,29.4,15.6,0,6,,10.0,29.940945,1013.3,,TRUE,TRUE,,,,,,,CLR,,,,,,,,VFR,,,,,,,,,,,,METAR,248.0
KEWB 302153Z 15008KT 10SM CLR 14/08 A3021 RMK AO2 SLP230 T01440083,KEWB,2023-05-30T21:53:00Z,41.68,-70.95,14.4,8.3,150,8,,10.0,30.209646,1023.0,,,TRUE,,,,,,,CLR,,,,,,,,VFR,,,,,,,,,,,,METAR,22.0
KEVW 302153Z AUTO 26012G20KT 10SM SCT090 22/M01 A3002 RMK AO2 SLP083 T02171006 $,KEVW,2023-05-30T21:53:00Z,41.27,-111.03,21.7,-0.6,260,12,20,10.0,30.02067,1008.3,,TRUE,TRUE,TRUE,,,,,,SCT,9000,,,,,,,VFR,,,,,,,,,,,,METAR,2178.0
KESF 302153Z AUTO VRB05KT 10SM SCT090 31/16 A2987 RMK AO2 LTG DSNT SW SLP112 T03060156,KESF,2023-05-30T21:53:00Z,31.4,-92.28,30.6,15.6,0,5,,10.0,29.870079,1011.2,,TRUE,TRUE,,,,,,,SCT,9000,,,,,,,VFR,,,,,,,,,,,,METAR,27.0
KEQY 302153Z AUTO 00000KT 10SM SCT080 BKN120 21/18 A3000 RMK AO2 RAB2057E40 SLP160 P0004 T02060183,KEQY,2023-05-30T21:53:00Z,35.02,-80.62,20.6,18.3,0,0,,10.0,30.0,1016.0,,TRUE,TRUE,,,,,,,SCT,8000,BKN,12000,,,,,VFR,,,,,,0.04,,,,,,METAR,205.0
KEPH 302153Z AUTO VRB06KT 10SM CLR 26/02 A2978 RMK AO2 SLP077 T02610017,KEPH,2023-05-30T21:53:00Z,47.3,-119.52,26.1,1.7,0,6,,10.0,29.778543,1007.7,,TRUE,TRUE,,,,,,,CLR,,,,,,,,VFR,,,,,,,,,,,,METAR,382.0
KENW 302153Z 09007KT 10SM CLR 30/09 A2996 RMK AO2 SLP144 T03000094,KENW,2023-05-30T21:53:00Z,42.6,-87.93,30.0,9.4,90,7,,10.0,29.958662,1014.4,,,TRUE,,,,,,,CLR,,,,,,,,VFR,,,,,,,,,,,,METAR,222.0
KEMP 302153Z AUTO 17008KT 10SM CLR 28/17 A2985 RMK AO2 LTG DSNT W AND NW SLP101 T02830172,KEMP,2023-05-30T21:53:00Z,38.33,-96.2,28.3,17.2,170,8,,10.0,29.84941,1010.1,,TRUE,TRUE,,,,,,,CLR,,,,,,,,VFR,,,,,,,,,,,,METAR,366.0
KELY 302153Z AUTO 21013G24KT 10SM SCT110 21/M05 A2998 RMK AO2 PK WND 19032/2138 SLP076 T02061050,KELY,2023-05-30T21:53:00Z,39.3,-114.85,20.6,-5.0,210,13,24,10.0,29.97933,1007.6,,TRUE,TRUE,,,,,,,SCT,11000,,,,,,,VFR,,,,,,,,,,,,METAR,1906.0
KELN 302153Z AUTO 32024G33KT 10SM CLR 23/M01 A2982 RMK AO2 PK WND 32037/2110 SLP091 T02331006,KELN,2023-05-30T21:53:00Z,47.03,-120.53,23.3,-0.6,320,24,33,10.0,29.819881,1009.1,,TRUE,TRUE,,,,,,,CLR,,,,,,,,VFR,,,,,,,,,,,,METAR,532.0
KELM 302153Z AUTO 14008KT 10SM CLR 29/09 A3008 RMK AO2 SLP182 T02940089,KELM,2023-05-30T21:53:00Z,42.15,-76.9,29.4,8.9,140,8,,10.0,30.079725,1018.2,,TRUE,TRUE,,,,,,,CLR,,,,,,,,VFR,,,,,,,,,,,,METAR,287.0
KELD 302153Z AUTO 09007KT 10SM CLR 31/14 A2990 RMK AO2 SLP121 T03060144,KELD,2023-05-30T21:53:00Z,33.22,-92.82,30.6,14.4,90,7,,10.0,29.899607,1012.1,,TRUE,TRUE,,,,,,,CLR,,,,,,,,VFR,,,,,,,,,,,,METAR,76.0
KEEO 302153Z AUTO 22014G20KT 10SM CLR 24/M07 A2998 RMK AO2 PK WND 18026/2055 SLP081 T02441072,KEEO,2023-05-30T21:53:00Z,40.05,-107.88,24.4,-7.2,220,14,20,10.0,29.97933,1008.1,,TRUE,TRUE,,,,,,,CLR,,,,,,,,VFR,,,,,,,,,,,,METAR,1957.0
KECP 302153Z VRB05KT 10SM BKN055 BKN080 28/17 A2987 RMK AO1 SLP126 T02780167,KECP,2023-05-30T21:53:00Z,30.35,-85.8,27.8,16.7,0,5,,10.0,29.870079,1012.6,,,TRUE,,,,,,,BKN,5500,BKN,8000,,,,,VFR,,,,,,,,,,,,METAR,17.0
KDXR 302153Z 16007KT 5SM HZ CLR 20/03 A3019 RMK AO2 SLP223 T02000033,KDXR,2023-05-30T21:53:00Z,41.37,-73.48,20.0,3.3,160,7,,5.0,30.188976,1022.3,,,TRUE,,,,,,HZ,CLR,,,,,,,,MVFR,,,,,,,,,,,,METAR,138.0
KDWH 302153Z AUTO 11005KT 10SM SCT070 BKN120 30/18 A2986 RMK AO2 SLP110 T03000178,KDWH,2023-05-30T21:53:00Z,30.07,-95.55,30.0,17.8,110,5,,10.0,29.861221,1011.0,,TRUE,TRUE,,,,,,,SCT,7000,BKN,12000,,,,,VFR,,,,,,,,,,,,METAR,46.0
KDVT 302153Z 15009G19KT 10SM CLR 34/M02 A2977 RMK AO2 SLP056 T03391022,KDVT,2023-05-30T21:53:00Z,33.68,-112.07,33.9,-2.2,150,9,19,10.0,29.769686,1005.6,,,TRUE,,,,,,,CLR,,,,,,,,VFR,,,,,,,,,,,,METAR,454.0
KDVP 302153Z AUTO 21007KT 10SM CLR 29/14 A2981 RMK AO2 T02890137,KDVP,2023-05-30T21:53:00Z,43.98,-95.78,28.9,13.7,210,7,,10.0,29.811024,,,TRUE,TRUE,,,,,,,CLR,,,,,,,,VFR,,,,,,,,,,,,METAR,493.0
KDUJ 302153Z AUTO VRB05KT 10SM CLR 27/08 A3012 RMK AO2 SLP188 T02720083,KDUJ,2023-05-30T21:53:00Z,41.17,-78.9,27.2,8.3,0,5,,10.0,30.121063,1018.8,,TRUE,TRUE,,,,,,,CLR,,,,,,,,VFR,,,,,,,,,,,,METAR,552.0
KDTW 302153Z 12007KT 10SM FEW060 29/12 A3002 RMK AO2 SLP162 T02890117,KDTW,2023-05-30T21:53:00Z,42.23,-83.33,28.9,11.7,120,7,,10.0,30.02067,1016.2,,,TRUE,,,,,,,FEW,6000,,,,,,,VFR,,,,,,,,,,,,METAR,192.0
KDTS 302153Z 21006KT 10SM FEW060 SCT080 27/18 A2989 RMK AO2 SLP119 T02720178,KDTS,2023-05-30T21:53:00Z,30.4,-86.47,27.2,17.8,210,6,,10.0,29.890747,1011.9,,,TRUE,,,,,,,FEW,6000,SCT,8000,,,,,VFR,,,,,,,,,,,,METAR,5.0
KDTO 302153Z 11012G18KT 10SM FEW065 FEW080 26/20 A2991 RMK AO2 LTG DSNT E-SW RAE43 TSE08 SLP120 P0002 T02560200 $,KDTO,2023-05-30T21:53:00Z,33.2,-97.2,25.6,20.0,110,12,18,10.0,29.911417,1012.0,,,TRUE,TRUE,,,,,,FEW,6500,FEW,8000,,,,,VFR,,,,,,0.02,,,,,,METAR,199.0
KDTN 302153Z 10005KT 10SM FEW080 32/14 A2988 RMK AO2 SLP116 T03170144,KDTN,2023-05-30T21:53:00Z,32.55,-93.75,31.7,14.4,100,5,,10.0,29.878937,1011.6,,,TRUE,,,,,,,FEW,8000,,,,,,,VFR,,,,,,,,,,,,METAR,53.0
KDRT 302153Z AUTO 13009G18KT 10SM CLR 33/18 A2982 RMK AO2 SLP088 T03330183,KDRT,2023-05-30T21:53:00Z,29.37,-100.92,33.3,18.3,130,9,18,10.0,29.819881,1008.8,,TRUE,TRUE,,,,,,,CLR,,,,,,,,VFR,,,,,,,,,,,,METAR,303.0
KDRO 302153Z AUTO 24009KT 10SM CLR 24/M04 A3007 RMK AO2 SLP116 T02441039,KDRO,2023-05-30T21:53:00Z,37.15,-107.77,24.4,-3.9,240,9,,10.0,30.070866,1011.6,,TRUE,TRUE,,,,,,,CLR,,,,,,,,VFR,,,,,,,,,,,,METAR,2021.0
KDRA 302153Z AUTO 25017G25KT 10SM FEW120 29/01 A2980 RMK AO2 PK WND 24030/2143 SLP044 T02940006,KDRA,2023-05-30T21:53:00Z,36.62,-116.03,29.4,0.6,250,17,25,10.0,29.799213,1004.4,,TRUE,TRUE,,,,,,,FEW,12000,,,,,,,VFR,,,,,,,,,,,,METAR,988.0
KDNL 302153Z AUTO 06007KT 10SM SCT075 27/16 A2994 RMK AO2 SLP134 T02720156,KDNL,2023-05-30T21:53:00Z,33.47,-82.03,27.2,15.6,60,7,,10.0,29.940945,1013.4,,TRUE,TRUE,,,,,,,SCT,7500,,,,,,,VFR,,,,,,,,,,,,METAR,126.0
KDMO 302153Z AUTO 19009KT 10SM CLR 29/15 A2991 RMK AO2 SLP122 T02940150,KDMO,2023-05-30T21:53:00Z,38.72,-93.17,29.4,15.0,190,9,,10.0,29.911417,1012.2,,TRUE,TRUE,,,,,,,CLR,,,,,,,,VFR,,,,,,,,,,,,METAR,271.0
KDMN 302153Z AUTO 22007G16KT 180V250 10SM FEW120 32/M01 A2993 RMK AO2 SLP059 T03221011,KDMN,2023-05-30T21:53:00Z,32.27,-107.72,32.2,-1.1,220,7,16,10.0,29.929134,1005.9,,TRUE,TRUE,,,,,,,FEW,12000,,,,,,,VFR,,,,,,,,,,,,METAR,1310.0
KDLS 302153Z AUTO 32017G25KT 10SM CLR 22/04 A2987 RMK AO2 PK WND 32030/2054 SLP112 T02170044,KDLS,2023-05-30T21:53:00Z,45.62,-121.17,21.7,4.4,320,17,25,10.0,29.870079,1011.2,,TRUE,TRUE,,,,,,,CLR,,,,,,,,VFR,,,,,,,,,,,,METAR,71.0
KDLN 302153Z AUTO 12013KT 10SM CLR 18/07 A2991 RMK AO2 LTG DSNT W SLP088 T01830072,KDLN,2023-05-30T21:53:00Z,45.25,-112.55,18.3,7.2,120,13,,10.0,29.911417,1008.8,,TRUE,TRUE,,,,,,,CLR,,,,,,,,VFR,,,,,,,,,,,,METAR,1586.0
KDKK 302153Z AUTO 36004KT 10SM CLR 28/11 A3007 RMK AO2 SLP180 T02830111,KDKK,2023-05-30T21:53:00Z,42.5,-79.28,28.3,11.1,360,4,,10.0,30.070866,1018.0,,TRUE,TRUE,,,,,,,CLR,,,,,,,,VFR,,,,,,,,,,,,METAR,205.0
KDHT 302153Z AUTO 19016KT 10SM CLR 27/13 A2992 RMK AO2 SLP076 T02720133,KDHT,2023-05-30T21:53:00Z,36.02,-102.55,27.2,13.3,190,16,,10.0,29.920275,1007.6,,TRUE,TRUE,,,,,,,CLR,,,,,,,,VFR,,,,,,,,,,,,METAR,1217.0
KDHN 302153Z 01005KT 10SM OVC070 27/16 A2994 RMK AO2 SLP133 T02720156,KDHN,2023-05-30T21:53:00Z,31.32,-85.45,27.2,15.6,10,5,,10.0,29.940945,1013.3,,,TRUE,,,,,,,OVC,7000,,,,,,,VFR,,,,,,,,,,,,METAR,113.0
KDGW 302153Z AUTO 13007KT 10SM CLR 26/05 A2989 RMK AO2 LTG DSNT E SLP072 T02610050,KDGW,2023-05-30T21:53:00Z,42.8,-105.38,26.1,5.0,130,7,,10.0,29.890747,1007.2,,TRUE,TRUE,,,,,,,CLR,,,,,,,,VFR,,,,,,,,,,,,METAR,1503.0
KDFW 302153Z 06005KT 6SM R17C/4000VP6000FT -TSRA FEW035 SCT055CB BKN090 BKN140 BKN250 23/18 A2989 RMK AO2 PK WND 05026/2119 WSHFT 2104 LTG DSNT ALQDS RAB2057 PRESFR SLP114 FRQ LTGICCG NW-NE-E TS NW-NE-E MOV SW P0005 T02280178,KDFW,2023-05-30T21:53:00Z,32.9,-97.02,22.8,17.8,60,5,,6.0,29.890747,1011.4,,,TRUE,,,,,,-TSRA,FEW,3500,SCT,5500,BKN,9000,BKN,14000,VFR,,,,,,0.05,,,,,,METAR,168.0
KDFI 302153Z AUTO 14006KT 10SM FEW120 31/13 A2997 RMK AO2 SLP143 T03060133,KDFI,2023-05-30T21:53:00Z,41.33,-84.43,30.6,13.3,140,6,,10.0,29.970472,1014.3,,TRUE,TRUE,,,,,,,FEW,12000,,,,,,,VFR,,,,,,,,,,,,METAR,215.0
KDEW 302153Z AUTO 26006KT 10SM CLR 25/06 A2982 RMK AO2 SLP089 T02500061,KDEW,2023-05-30T21:53:00Z,47.97,-117.43,25.0,6.1,260,6,,10.0,29.819881,1008.9,,TRUE,TRUE,,,,,,,CLR,,,,,,,,VFR,,,,,,,,,,,,METAR,672.0
KDET 302153Z 16012KT 10SM CLR 31/09 A3001 RMK AO2 SLP160 T03060094,KDET,2023-05-30T21:53:00Z,42.4,-83.02,30.6,9.4,160,12,,10.0,30.008858,1016.0,,,TRUE,,,,,,,CLR,,,,,,,,VFR,,,,,,,,,,,,METAR,190.0
KDEN 302153Z 11021G33KT 10SM SCT090 BKN110 BKN160 BKN220 19/04 A2999 RMK AO2 PK WND 14040/2126 LTG DSNT ALQDS RAE2058 TSE2055 SLP096 VIRGA P0000 T01940044,KDEN,2023-05-30T21:53:00Z,39.85,-104.65,19.4,4.4,110,21,33,10.0,29.991142,1009.6,,,TRUE,,,,,,,SCT,9000,BKN,11000,BKN,16000,BKN,22000,VFR,,,,,,0.005,,,,,,METAR,1656.0
KDCU 302153Z AUTO 28004KT 10SM OVC060 28/16 A2994 RMK AO2 SLP132 T02830156,KDCU,2023-05-30T21:53:00Z,34.65,-86.95,28.3,15.6,280,4,,10.0,29.940945,1013.2,,TRUE,TRUE,,,,,,,OVC,6000,,,,,,,VFR,,,,,,,,,,,,METAR,180.0
KDBQ 302153Z 18008KT 10SM CLR 30/08 A2992 RMK AO2 SLP125 T03000083,KDBQ,2023-05-30T21:53:00Z,42.4,-90.7,30.0,8.3,180,8,,10.0,29.920275,1012.5,,,TRUE,,,,,,,CLR,,,,,,,,VFR,,,,,,,,,,,,METAR,317.0
KDAN 302153Z AUTO 05007KT 10SM OVC010 18/16 A3008 RMK AO2 CIG 009V013 SLP178 T01830156,KDAN,2023-05-30T21:53:00Z,36.57,-79.33,18.3,15.6,50,7,,10.0,30.079725,1017.8,,TRUE,TRUE,,,,,,,OVC,1000,,,,,,,MVFR,,,,,,,,,,,,METAR,170.0
KDAL 302153Z 05007KT 7SM -TSRA BKN050CB BKN085 BKN250 22/18 A2991 RMK AO2 WSHFT 2126 PRESFR SLP122 FRQ LTGICCCCG TS W-N-E-SE MOV SW CB DSNT SE MOV SW P0000 T02220183,KDAL,2023-05-30T21:53:00Z,32.85,-96.85,22.2,18.3,50,7,,7.0,29.911417,1012.2,,,TRUE,,,,,,-TSRA,BKN,5000,BKN,8500,BKN,25000,,,VFR,,,,,,0.005,,,,,,METAR,148.0
KDAB 302153Z 09008KT 10SM FEW050 FEW085 BKN200 28/17 A2989 RMK AO2 SLP121 T02830167,KDAB,2023-05-30T21:53:00Z,29.18,-81.07,28.3,16.7,90,8,,10.0,29.890747,1012.1,,,TRUE,,,,,,,FEW,5000,FEW,8500,BKN,20000,,,VFR,,,,,,,,,,,,METAR,8.0
KCYS 302153Z AUTO 16014G24KT 10SM CLR 24/05 A2996 RMK AO2 LTG DSNT W-NE SLP070 T02390050,KCYS,2023-05-30T21:53:00Z,41.15,-104.8,23.9,5.0,160,14,24,10.0,29.958662,1007.0,,TRUE,TRUE,,,,,,,CLR,,,,,,,,VFR,,,,,,,,,,,,METAR,1868.0
KCXO 302153Z 13007KT 10SM CLR 31/18 A2987 RMK AO2 SLP112 T03110183,KCXO,2023-05-30T21:53:00Z,30.35,-95.42,31.1,18.3,130,7,,10.0,29.870079,1011.2,,,TRUE,,,,,,,CLR,,,,,,,,VFR,,,,,,,,,,,,METAR,69.0
KCUT 302153Z AUTO 22007KT 180V280 10SM CLR 23/03 A2995 RMK AO2 LTG DSNT NE SLP083 T02330033,KCUT,2023-05-30T21:53:00Z,43.73,-103.62,23.3,3.3,220,7,,10.0,29.949802,1008.3,,TRUE,TRUE,,,,,,,CLR,,,,,,,,VFR,,,,,,,,,,,,METAR,1700.0
KCUB 302153Z AUTO 07006KT 10SM CLR 27/16 A2995 RMK AO2 SLP140 T02670161,KCUB,2023-05-30T21:53:00Z,33.97,-81.0,26.7,16.1,70,6,,10.0,29.949802,1014.0,,TRUE,TRUE,,,,,,,CLR,,,,,,,,VFR,,,,,,,,,,,,METAR,55.0
KCSV 302153Z AUTO VRB03KT 10SM OVC100 24/16 A3000 RMK AO2 SLP146 T02390156,KCSV,2023-05-30T21:53:00Z,35.95,-85.08,23.9,15.6,0,3,,10.0,30.0,1014.6,,TRUE,TRUE,,,,,,,OVC,10000,,,,,,,VFR,,,,,,,,,,,,METAR,569.0
KCSM 302153Z VRB06KT 10SM FEW055 29/16 A2990 RMK AO2 SLP103 T02890156,KCSM,2023-05-30T21:53:00Z,35.35,-99.2,28.9,15.6,0,6,,10.0,29.899607,1010.3,,,TRUE,,,,,,,FEW,5500,,,,,,,VFR,,,,,,,,,,,,METAR,586.0
KCRS 302153Z AUTO 07006KT 10SM BKN055 BKN070 OVC095 31/19 A2990 RMK AO2 LTG DSNT E AND W AND NW SLP120 T03060189,KCRS,2023-05-30T21:53:00Z,32.03,-96.4,30.6,18.9,70,6,,10.0,29.899607,1012.0,,TRUE,TRUE,,,,,,,BKN,5500,BKN,7000,OVC,9500,,,VFR,,,,,,,,,,,,METAR,136.0
KCRQ 302153Z 27009G16KT 10SM OVC020 18/11 A2996 RMK AO2 SLP144 T01780111,KCRQ,2023-05-30T21:53:00Z,33.13,-117.28,17.8,11.1,270,9,16,10.0,29.958662,1014.4,,,TRUE,,,,,,,OVC,2000,,,,,,,MVFR,,,,,,,,,,,,METAR,96.0
KCRG 302153Z 12008KT 10SM BKN085 27/21 A2989 RMK AO2 SLP122 T02670206,KCRG,2023-05-30T21:53:00Z,30.33,-81.52,26.7,20.6,120,8,,10.0,29.890747,1012.2,,,TRUE,,,,,,,BKN,8500,,,,,,,VFR,,,,,,,,,,,,METAR,12.0
KCRE 302153Z 10007KT 10SM CLR 24/19 A2994 RMK AO1 SLP141 T02440189,KCRE,2023-05-30T21:53:00Z,33.82,-78.72,24.4,18.9,100,7,,10.0,29.940945,1014.1,,,TRUE,,,,,,,CLR,,,,,,,,VFR,,,,,,,,,,,,METAR,9.0
KCQC 302153Z AUTO 29011G17KT 10SM FEW110 25/M02 A3010 RMK AO2 SLP101 T02501022,KCQC,2023-05-30T21:53:00Z,35.0,-105.67,25.0,-2.2,290,11,17,10.0,30.100393,1010.1,,TRUE,TRUE,,,,,,,FEW,11000,,,,,,,VFR,,,,,,,,,,,,METAR,2163.0
KCPS 302153Z 19003KT 10SM FEW080 31/13 A2990 RMK AO2 SLP123 T03060128 $,KCPS,2023-05-30T21:53:00Z,38.53,-90.15,30.6,12.8,190,3,,10.0,29.899607,1012.3,,,TRUE,TRUE,,,,,,FEW,8000,,,,,,,VFR,,,,,,,,,,,,METAR,125.0
KCPR 302153Z 31015G24KT 10SM CLR 24/02 A2993 RMK AO2 PK WND 32026/2127 WSHFT 2046 RAB21E31 SLP081 P0000 T02390022,KCPR,2023-05-30T21:53:00Z,42.9,-106.47,23.9,2.2,310,15,24,10.0,29.929134,1008.1,,,TRUE,,,,,,,CLR,,,,,,,,VFR,,,,,,0.005,,,,,,METAR,1623.0
KCOT 302153Z AUTO 11006KT 10SM CLR 33/19 A2984 RMK AO2 SLP096 T03330189,KCOT,2023-05-30T21:53:00Z,28.45,-99.22,33.3,18.9,110,6,,10.0,29.840551,1009.6,,TRUE,TRUE,,,,,,,CLR,,,,,,,,VFR,,,,,,,,,,,,METAR,144.0
KCNY 302153Z AUTO 10SM CLR 29/M14 A2987 RMK AO2 PK WND 26027/2124 SLP060 T02891144,KCNY,2023-05-30T21:53:00Z,38.77,-109.75,28.9,-14.4,,,,10.0,29.870079,1006.0,,TRUE,TRUE,,,,,,,CLR,,,,,,,,VFR,,,,,,,,,,,,METAR,1392.0
KCNO 302153Z 23013KT 10SM FEW030 BKN048 19/12 A2995 RMK AO2 SLP138 T01940117,KCNO,2023-05-30T21:53:00Z,33.98,-117.62,19.4,11.7,230,13,,10.0,29.949802,1013.8,,,TRUE,,,,,,,FEW,3000,BKN,4800,,,,,VFR,,,,,,,,,,,,METAR,191.0
KCNM 302153Z AUTO 10005KT 10SM CLR 35/M02 A2982 RMK AO2 SLP036 T03501022,KCNM,2023-05-30T21:53:00Z,32.33,-104.25,35.0,-2.2,100,5,,10.0,29.819881,1003.6,,TRUE,TRUE,,,,,,,CLR,,,,,,,,VFR,,,,,,,,,,,,METAR,993.0
KCMX 302153Z AUTO 04008KT 10SM CLR 28/08 A2990 RMK AO2 SLP121 T02830078,KCMX,2023-05-30T21:53:00Z,47.17,-88.48,28.3,7.8,40,8,,10.0,29.899607,1012.1,,TRUE,TRUE,,,,,,,CLR,,,,,,,,VFR,,,,,,,,,,,,METAR,326.0
KCMI 302153Z 11006KT 10SM FEW070 33/11 A2992 RMK AO2 SLP124 T03280106,KCMI,2023-05-30T21:53:00Z,40.03,-88.27,32.8,10.6,110,6,,10.0,29.920275,1012.4,,,TRUE,,,,,,,FEW,7000,,,,,,,VFR,,,,,,,,,,,,METAR,227.0
KCLM 302153Z AUTO 29012G21KT 10SM CLR 14/05 A3006 RMK AO2 SLP178 T01390050,KCLM,2023-05-30T21:53:00Z,48.12,-123.5,13.9,5.0,290,12,21,10.0,30.059055,1017.8,,TRUE,TRUE,,,,,,,CLR,,,,,,,,VFR,,,,,,,,,,,,METAR,81.0
KCLL 302153Z 20003KT 10SM FEW050 SCT060 31/18 A2987 RMK AO2 SLP110 T03110178,KCLL,2023-05-30T21:53:00Z,30.58,-96.37,31.1,17.8,200,3,,10.0,29.870079,1011.0,,,TRUE,,,,,,,FEW,5000,SCT,6000,,,,,VFR,,,,,,,,,,,,METAR,96.0
KCKB 302153Z 11012G16KT 10SM FEW055 27/13 A3004 RMK AO2 SLP160 T02670128,KCKB,2023-05-30T21:53:00Z,39.3,-80.22,26.7,12.8,110,12,16,10.0,30.041338,1016.0,,,TRUE,,,,,,,FEW,5500,,,,,,,VFR,,,,,,,,,,,,METAR,368.0
KCHO 302153Z 06007KT 10SM OVC037 24/14 A3011 RMK AO2 SLP189 T02390144,KCHO,2023-05-30T21:53:00Z,38.13,-78.45,23.9,14.4,60,7,,10.0,30.109253,1018.9,,,TRUE,,,,,,,OVC,3700,,,,,,,VFR,,,,,,,,,,,,METAR,193.0
KCHA 302153Z 03005KT 10SM BKN050TCU BKN070 BKN090 27/15 A2994 RMK AO2 SLP133 TCU OHD T02720150,KCHA,2023-05-30T21:53:00Z,35.03,-85.2,27.2,15.0,30,5,,10.0,29.940945,1013.3,,,TRUE,,,,,,,BKN,5000,BKN,7000,BKN,9000,,,VFR,,,,,,,,,,,,METAR,203.0
KCGI 302153Z AUTO 12004KT 10SM BKN090 30/16 A2991 RMK AO2 SLP125 T03000161,KCGI,2023-05-30T21:53:00Z,37.23,-89.58,30.0,16.1,120,4,,10.0,29.911417,1012.5,,TRUE,TRUE,,,,,,,BKN,9000,,,,,,,VFR,,,,,,,,,,,,METAR,103.0
KCEZ 302153Z AUTO 24008G17KT 10SM CLR 26/M04 A3002 RMK AO2 SLP098 T02561044,KCEZ,2023-05-30T21:53:00Z,37.3,-108.63,25.6,-4.4,240,8,17,10.0,30.02067,1009.8,,TRUE,TRUE,,,,,,,CLR,,,,,,,,VFR,,,,,,,,,,,,METAR,1801.0
KCEW 302153Z AUTO 00000KT 10SM OVC085 28/16 A2990 RMK AO2 SLPNO T02780161,KCEW,2023-05-30T21:53:00Z,30.78,-86.52,27.8,16.1,0,0,,10.0,29.899607,,,TRUE,TRUE,,,,,,,OVC,8500,,,,,,,VFR,,,,,,,,,,,,METAR,47.0
KCDW 302153Z 10006KT 10SM CLR 22/06 A3017 RMK AO2 SLP220 T02220061,KCDW,2023-05-30T21:53:00Z,40.88,-74.28,22.2,6.1,100,6,,10.0,30.171259,1022.0,,,TRUE,,,,,,,CLR,,,,,,,,VFR,,,,,,,,,,,,METAR,52.0
KCDS 302153Z AUTO 13009G16KT 10SM CLR 31/14 A2986 RMK AO2 SLP086 T03060144,KCDS,2023-05-30T21:53:00Z,34.43,-100.28,30.6,14.4,130,9,16,10.0,29.861221,1008.6,,TRUE,TRUE,,,,,,,CLR,,,,,,,,VFR,,,,,,,,,,,,METAR,595.0
KCDR 302153Z AUTO VRB05KT 10SM CLR 30/10 A2981 RMK AO2 LTG DSNT W SLP074 T03000100,KCDR,2023-05-30T21:53:00Z,42.83,-103.1,30.0,10.0,0,5,,10.0,29.811024,1007.4,,TRUE,TRUE,,,,,,,CLR,,,,,,,,VFR,,,,,,,,,,,,METAR,1002.0
KCDC 302153Z AUTO 20015G23KT 10SM CLR 26/M07 A2996 RMK AO2 SLP076 T02561067,KCDC,2023-05-30T21:53:00Z,37.7,-113.1,25.6,-6.7,200,15,23,10.0,29.958662,1007.6,,TRUE,TRUE,,,,,,,CLR,,,,,,,,VFR,,,,,,,,,,,,METAR,1703.0
KCCR 302153Z 22013KT 10SM CLR 20/09 A2993 RMK AO2 SLP123 T02000089,KCCR,2023-05-30T21:53:00Z,38.0,-122.05,20.0,8.9,220,13,,10.0,29.929134,1012.3,,,TRUE,,,,,,,CLR,,,,,,,,VFR,,,,,,,,,,,,METAR,6.0
KCAG 302153Z AUTO 21013KT 10SM CLR 23/M08 A2996 RMK AO2 PK WND 23028/2122 SLP094 T02331078,KCAG,2023-05-30T21:53:00Z,40.5,-107.52,23.3,-7.8,210,13,,10.0,29.958662,1009.4,,TRUE,TRUE,,,,,,,CLR,,,,,,,,VFR,,,,,,,,,,,,METAR,1888.0
KBYI 302153Z AUTO 00000KT 10SM VCTS CLR 25/06 A2985 RMK AO2 LTG DSNT S-W SLP071 T02500061,KBYI,2023-05-30T21:53:00Z,42.55,-113.77,25.0,6.1,0,0,,10.0,29.84941,1007.1,,TRUE,TRUE,,,,,,VCTS,CLR,,,,,,,,VFR,,,,,,,,,,,,METAR,1263.0
KBYG 302153Z AUTO 05007KT 020V090 10SM CLR 23/08 A2991 RMK AO2 SLP077 T02330078,KBYG,2023-05-30T21:53:00Z,44.38,-106.72,23.3,7.8,50,7,,10.0,29.911417,1007.7,,TRUE,TRUE,,,,,,,CLR,,,,,,,,VFR,,,,,,,,,,,,METAR,1503.0
KBWG 302153Z AUTO VRB04KT 10SM CLR 29/16 A2994 RMK AO2 SLP133 T02890161,KBWG,2023-05-30T21:53:00Z,36.97,-86.42,28.9,16.1,0,4,,10.0,29.940945,1013.3,,TRUE,TRUE,,,,,,,CLR,,,,,,,,VFR,,,,,,,,,,,,METAR,159.0
KBVY 302153Z 14011KT 10SM CLR 14/08 RMK AO2 SLPNO T01390083 $,KBVY,2023-05-30T21:53:00Z,42.58,-70.92,13.9,8.3,140,11,,10.0,,,,,TRUE,TRUE,,,,,,CLR,,,,,,,,VFR,,,,,,,,,,,,METAR,28.0
KBVO 302153Z AUTO 18008KT 10SM FEW055 31/19 A2989 RMK AO2 SLP111 T03060194,KBVO,2023-05-30T21:53:00Z,36.77,-96.02,30.6,19.4,180,8,,10.0,29.890747,1011.1,,TRUE,TRUE,,,,,,,FEW,5500,,,,,,,VFR,,,,,,,,,,,,METAR,210.0
KBUR 302153Z 26007KT 10SM BKN035 OVC050 19/10 A2995 RMK AO2 SLP131 T01890100,KBUR,2023-05-30T21:53:00Z,34.2,-118.37,18.9,10.0,260,7,,10.0,29.949802,1013.1,,,TRUE,,,,,,,BKN,3500,OVC,5000,,,,,VFR,,,,,,,,,,,,METAR,221.0
KBTR 302153Z 08004KT 10SM CLR 32/17 A2986 RMK AO2 SLP110 T03170167,KBTR,2023-05-30T21:53:00Z,30.53,-91.15,31.7,16.7,80,4,,10.0,29.861221,1011.0,,,TRUE,,,,,,,CLR,,,,,,,,VFR,,,,,,,,,,,,METAR,20.0
KBTM 302153Z AUTO VRB03KT 10SM FEW120 22/02 A2992 RMK AO2 SLP088 T02220022,KBTM,2023-05-30T21:53:00Z,45.97,-112.5,22.2,2.2,0,3,,10.0,29.920275,1008.8,,TRUE,TRUE,,,,,,,FEW,12000,,,,,,,VFR,,,,,,,,,,,,METAR,1680.0
KBTL 302153Z 15008KT 10SM FEW120 31/11 A2998 RMK AO2 SLP146 T03110111,KBTL,2023-05-30T21:53:00Z,42.32,-85.25,31.1,11.1,150,8,,10.0,29.97933,1014.6,,,TRUE,,,,,,,FEW,12000,,,,,,,VFR,,,,,,,,,,,,METAR,282.0
KBRO 302153Z 27005KT 10SM FEW070 BKN095 OVC110 26/23 A2984 RMK AO2 LTG DSNT S RAE30 SLP104 P0014 T02560233,KBRO,2023-05-30T21:53:00Z,25.92,-97.42,25.6,23.3,270,5,,10.0,29.840551,1010.4,,,TRUE,,,,,,,FEW,7000,BKN,9500,OVC,11000,,,VFR,,,,,,0.14,,,,,,METAR,6.0
KBRL 302153Z AUTO 16007KT 10SM CLR 30/08 A2990 RMK AO2 SLP119 T03000083,KBRL,2023-05-30T21:53:00Z,40.77,-91.13,30.0,8.3,160,7,,10.0,29.899607,1011.9,,TRUE,TRUE,,,,,,,CLR,,,,,,,,VFR,,,,,,,,,,,,METAR,208.0
KBRD 302153Z AUTO 08004KT 9SM FEW060 24/20 A2978 RMK AO2 RAE04B17E29 TSE01 SLP080 P0000 T02390200,KBRD,2023-05-30T21:53:00Z,46.4,-94.13,23.9,20.0,80,4,,9.0,29.778543,1008.0,,TRUE,TRUE,,,,,,,FEW,6000,,,,,,,VFR,,,,,,0.005,,,,,,METAR,372.0
KBPT 302153Z 17011KT 10SM FEW048 31/21 A2985 RMK AO2 LTG DSNT N-E SLP109 T03110206,KBPT,2023-05-30T21:53:00Z,29.95,-94.03,31.1,20.6,170,11,,10.0,29.84941,1010.9,,,TRUE,,,,,,,FEW,4800,,,,,,,VFR,,,,,,,,,,,,METAR,6.0
KBPK 302153Z AUTO 20005KT 10SM CLR 28/14 A2993 RMK AO2 SLP126 T02830139,KBPK,2023-05-30T21:53:00Z,36.37,-92.47,28.3,13.9,200,5,,10.0,29.929134,1012.6,,TRUE,TRUE,,,,,,,CLR,,,,,,,,VFR,,,,,,,,,,,,METAR,279.0
KBPI 302153Z AUTO 35014KT 10SM FEW100 17/01 A3005 RMK AO2 SLP110 T01720006,KBPI,2023-05-30T21:53:00Z,42.58,-110.1,17.2,0.6,350,14,,10.0,30.050198,1011.0,,TRUE,TRUE,,,,,,,FEW,10000,,,,,,,VFR,,,,,,,,,,,,METAR,2120.0
KBOI 302153Z 23011KT 4SM TSRA FEW080 OVC100 21/12 A2980 RMK AO2 PK WND 19026/2126 WSHFT 2123 LTG DSNT N AND NE RAB13 TSB05E20B28 SLP071 P0011 T02110117,KBOI,2023-05-30T21:53:00Z,43.57,-116.23,21.1,11.7,230,11,,4.0,29.799213,1007.1,,,TRUE,,,,,,TSRA,FEW,8000,OVC,10000,,,,,MVFR,,,,,,0.11,,,,,,METAR,860.0
KBNO 302153Z AUTO VRB05KT 10SM CLR 24/07 A2987 RMK AO2 SLP082 T02390067,KBNO,2023-05-30T21:53:00Z,43.6,-118.95,23.9,6.7,0,5,,10.0,29.870079,1008.2,,TRUE,TRUE,,,,,,,CLR,,,,,,,,VFR,,,,,,,,,,,,METAR,1263.0
KBNA 302153Z 09006KT 10SM SCT060 28/15 A2995 RMK AO2 SLP135 T02830150,KBNA,2023-05-30T21:53:00Z,36.12,-86.68,28.3,15.0,90,6,,10.0,29.949802,1013.5,,,TRUE,,,,,,,SCT,6000,,,,,,,VFR,,,,,,,,,,,,METAR,168.0
KBMQ 302153Z AUTO 12008KT 10SM FEW060 31/17 A2990 RMK AO2 SLP109 T03060167,KBMQ,2023-05-30T21:53:00Z,30.73,-98.23,30.6,16.7,120,8,,10.0,29.899607,1010.9,,TRUE,TRUE,,,,,,,FEW,6000,,,,,,,VFR,,,,,,,,,,,,METAR,387.0
KBMG 302153Z 09006KT 10SM CLR 28/16 A2995 RMK AO2 SLP135 T02780161,KBMG,2023-05-30T21:53:00Z,39.15,-86.62,27.8,16.1,90,6,,10.0,29.949802,1013.5,,,TRUE,,,,,,,CLR,,,,,,,,VFR,,,,,,,,,,,,METAR,254.0
KBLI 302153Z 16013G21KT 10SM CLR 16/07 A3002 RMK AO2 SLP173 T01610067,KBLI,2023-05-30T21:53:00Z,48.8,-122.53,16.1,6.7,160,13,21,10.0,30.02067,1017.3,,,TRUE,,,,,,,CLR,,,,,,,,VFR,,,,,,,,,,,,METAR,46.0
KBKV 302153Z 29007KT 10SM FEW065 30/17 A2988 RMK AO2 SLP116 T03000172,KBKV,2023-05-30T21:53:00Z,28.47,-82.45,30.0,17.2,290,7,,10.0,29.878937,1011.6,,,TRUE,,,,,,,FEW,6500,,,,,,,VFR,,,,,,,,,,,,METAR,21.0
KBKL 302153Z 05012G16KT 10SM FEW090 22/14 A3001 RMK AO2 SLP159 T02220144,KBKL,2023-05-30T21:53:00Z,41.53,-81.67,22.2,14.4,50,12,16,10.0,30.008858,1015.9,,,TRUE,,,,,,,FEW,9000,,,,,,,VFR,,,,,,,,,,,,METAR,177.0
KBKE 302153Z AUTO 33006KT 10SM CLR 24/09 A2984 RMK AO2 LTG DSNT SE SLP086 T02440089,KBKE,2023-05-30T21:53:00Z,44.85,-117.82,24.4,8.9,330,6,,10.0,29.840551,1008.6,,TRUE,TRUE,,,,,,,CLR,,,,,,,,VFR,,,,,,,,,,,,METAR,1025.0
KBIV 302153Z AUTO 32005KT 10SM CLR 32/11 A2996 RMK AO2 SLP140 T03170106,KBIV,2023-05-30T21:53:00Z,42.75,-86.1,31.7,10.6,320,5,,10.0,29.958662,1014.0,,TRUE,TRUE,,,,,,,CLR,,,,,,,,VFR,,,,,,,,,,,,METAR,207.0
KBIL 302153Z VRB03KT 10SM SCT090 27/05 A2982 RMK AO2 SLP067 CB SHRA DSNT SE S-W T02720050,KBIL,2023-05-30T21:53:00Z,45.8,-108.55,27.2,5.0,0,3,,10.0,29.819881,1006.7,,,TRUE,,,,,,,SCT,9000,,,,,,,VFR,,,,,,,,,,,,METAR,1089.0
KBHM 302153Z 09005KT 10SM BKN090 27/16 A2995 RMK AO2 SLP135 T02670156,KBHM,2023-05-30T21:53:00Z,33.57,-86.75,26.7,15.6,90,5,,10.0,29.949802,1013.5,,,TRUE,,,,,,,BKN,9000,,,,,,,VFR,,,,,,,,,,,,METAR,191.0
KBGR 302153Z 17015G23KT 10SM SCT250 18/06 A3013 RMK AO2 SLP202 T01830061,KBGR,2023-05-30T21:53:00Z,44.8,-68.82,18.3,6.1,170,15,23,10.0,30.129921,1020.2,,,TRUE,,,,,,,SCT,25000,,,,,,,VFR,,,,,,,,,,,,METAR,45.0
KBGM 302153Z 16006KT 10SM CLR 26/08 A3014 RMK AO2 SLP197 T02610078,KBGM,2023-05-30T21:53:00Z,42.22,-75.98,26.1,7.8,160,6,,10.0,30.138779,1019.7,,,TRUE,,,,,,,CLR,,,,,,,,VFR,,,,,,,,,,,,METAR,485.0
KBFM 302153Z 08006KT 10SM BKN070 29/14 A2989 RMK AO2 SLP122 T02890144,KBFM,2023-05-30T21:53:00Z,30.62,-88.07,28.9,14.4,80,6,,10.0,29.890747,1012.2,,,TRUE,,,,,,,BKN,7000,,,,,,,VFR,,,,,,,,,,,,METAR,7.0
KBFI 302153Z VRB06KT 10SM BKN023 BKN042 BKN049 15/07 A3004 RMK AO2 SLP172 T01500067,KBFI,2023-05-30T21:53:00Z,47.55,-122.32,15.0,6.7,0,6,,10.0,30.041338,1017.2,,,TRUE,,,,,,,BKN,2300,BKN,4200,BKN,4900,,,MVFR,,,,,,,,,,,,METAR,7.0
KBFF 302153Z AUTO 12012KT 10SM CLR 28/11 A2986 RMK AO2 SLP071 T02780111,KBFF,2023-05-30T21:53:00Z,41.87,-103.6,27.8,11.1,120,12,,10.0,29.861221,1007.1,,TRUE,TRUE,,,,,,,CLR,,,,,,,,VFR,,,,,,,,,,,,METAR,1204.0
KBFD 302153Z AUTO 19003KT 10SM CLR 25/12 A3013 RMK AO2 SLP190 T02500117,KBFD,2023-05-30T21:53:00Z,41.8,-78.63,25.0,11.7,190,3,,10.0,30.129921,1019.0,,TRUE,TRUE,,,,,,,CLR,,,,,,,,VFR,,,,,,,,,,,,METAR,642.0
KBEH 302153Z AUTO VRB03KT 10SM CLR 30/11 A2995 RMK AO2 SLP138 T03000111,KBEH,2023-05-30T21:53:00Z,42.13,-86.42,30.0,11.1,0,3,,10.0,29.949802,1013.8,,TRUE,TRUE,,,,,,,CLR,,,,,,,,VFR,,,,,,,,,,,,METAR,196.0
KBDE 302153Z AUTO 17012G19KT 10SM SCT110 28/16 A2974 RMK AO2 SLP067 T02830156,KBDE,2023-05-30T21:53:00Z,48.73,-94.62,28.3,15.6,170,12,19,10.0,29.740158,1006.7,,TRUE,TRUE,,,,,,,SCT,11000,,,,,,,VFR,,,,,,,,,,,,METAR,330.0
KBCT 302153Z 10012G19KT 10SM SCT026 29/22 A2986,KBCT,2023-05-30T21:53:00Z,26.38,-80.1,29.0,22.0,100,12,19,10.0,29.861221,,,,,,,,,,,SCT,2600,,,,,,,VFR,,,,,,,,,,,,METAR,3.0
KBCE 302153Z AUTO 20008G19KT 10SM CLR 19/M06 A3009 RMK AO2 SLP100 T01941056,KBCE,2023-05-30T21:53:00Z,37.7,-112.15,19.4,-5.6,200,8,19,10.0,30.088583,1010.0,,TRUE,TRUE,,,,,,,CLR,,,,,,,,VFR,,,,,,,,,,,,METAR,2311.0
KBBW 302153Z AUTO 15009KT 10SM CLR 29/15 A2986 RMK AO2 SLP089 T02890150,KBBW,2023-05-30T21:53:00Z,41.43,-99.63,28.9,15.0,150,9,,10.0,29.861221,1008.9,,TRUE,TRUE,,,,,,,CLR,,,,,,,,VFR,,,,,,,,,,,,METAR,771.0
KBAF 302153Z 19006KT 10SM CLR 23/05 A3016 RMK AO2 SLP213 T02330050,KBAF,2023-05-30T21:53:00Z,42.17,-72.72,23.3,5.0,190,6,,10.0,30.159449,1021.3,,,TRUE,,,,,,,CLR,,,,,,,,VFR,,,,,,,,,,,,METAR,80.0
KAZO 302153Z 17006KT 10SM FEW080 32/11 A2997 RMK AO2 SLP142 T03170111,KAZO,2023-05-30T21:53:00Z,42.23,-85.55,31.7,11.1,170,6,,10.0,29.970472,1014.2,,,TRUE,,,,,,,FEW,8000,,,,,,,VFR,,,,,,,,,,,,METAR,264.0
KAXN 302153Z AUTO 20005KT 10SM FEW050 27/15 A2980 RMK AO2 LTG DSNT W AND NW SLP086 T02670150,KAXN,2023-05-30T21:53:00Z,45.87,-95.4,26.7,15.0,200,5,,10.0,29.799213,1008.6,,TRUE,TRUE,,,,,,,FEW,5000,,,,,,,VFR,,,,,,,,,,,,METAR,433.0
KAWM 302153Z AUTO 04006KT 10SM FEW075 29/13 A2989 RMK AO2 SLPNO T02940128,KAWM,2023-05-30T21:53:00Z,35.13,-90.23,29.4,12.8,40,6,,10.0,29.890747,,,TRUE,TRUE,,,,,,,FEW,7500,,,,,,,VFR,,,,,,,,,,,,METAR,64.0
KAUS 302153Z 12005KT 10SM SCT050 31/19 A2986 RMK AO2 SLP102 T03110189 $,KAUS,2023-05-30T21:53:00Z,30.18,-97.68,31.1,18.9,120,5,,10.0,29.861221,1010.2,,,TRUE,TRUE,,,,,,SCT,5000,,,,,,,VFR,,,,,,,,,,,,METAR,148.0
KAUG 302153Z AUTO 19008G17KT 10SM CLR 18/05 A3017 RMK AO2 SLP217 T01830050,KAUG,2023-05-30T21:53:00Z,44.32,-69.8,18.3,5.0,190,8,17,10.0,30.171259,1021.7,,TRUE,TRUE,,,,,,,CLR,,,,,,,,VFR,,,,,,,,,,,,METAR,107.0
KATY 302153Z AUTO 27010KT 10SM CLR 31/08 A2977 RMK AO2 LTG DSNT SE SLP069 T03110083,KATY,2023-05-30T21:53:00Z,44.9,-97.15,31.1,8.3,270,10,,10.0,29.769686,1006.9,,TRUE,TRUE,,,,,,,CLR,,,,,,,,VFR,,,,,,,,,,,,METAR,531.0
KASX 302153Z AUTO 34006KT 10SM CLR 27/16 A2986 RMK AO2 SLP109 T02720156,KASX,2023-05-30T21:53:00Z,46.55,-90.92,27.2,15.6,340,6,,10.0,29.861221,1010.9,,TRUE,TRUE,,,,,,,CLR,,,,,,,,VFR,,,,,,,,,,,,METAR,249.0
KASE 302153Z 15006G15KT 10SM SCT110 19/M09 A3010 RMK AO2 SLP086 T01941089,KASE,2023-05-30T21:53:00Z,39.23,-106.87,19.4,-8.9,150,6,15,10.0,30.100393,1008.6,,,TRUE,,,,,,,SCT,11000,,,,,,,VFR,,,,,,,,,,,,METAR,2384.0
KASD 302153Z AUTO 16007KT 10SM CLR 29/20 A2988 RMK AO2 SLP117 T02890200,KASD,2023-05-30T21:53:00Z,30.35,-89.82,28.9,20.0,160,7,,10.0,29.878937,1011.7,,TRUE,TRUE,,,,,,,CLR,,,,,,,,VFR,,,,,,,,,,,,METAR,8.0
KARB 302153Z 14009KT 10SM CLR 29/14 A3000 RMK AO2 SLP156 T02890139,KARB,2023-05-30T21:53:00Z,42.22,-83.73,28.9,13.9,140,9,,10.0,30.0,1015.6,,,TRUE,,,,,,,CLR,,,,,,,,VFR,,,,,,,,,,,,METAR,251.0
KARA 302153Z 20010KT 10SM VCTS FEW041 BKN060 OVC100 29/19 A2987 RMK AO2 LTG DSNT SW SLP113 T02890194,KARA,2023-05-30T21:53:00Z,30.03,-91.88,28.9,19.4,200,10,,10.0,29.870079,1011.3,,,TRUE,,,,,,VCTS,FEW,4100,BKN,6000,OVC,10000,,,VFR,,,,,,,,,,,,METAR,5.0
KAQP 302153Z AUTO 22007KT 10SM 29/14 A2975 RMK AO2,KAQP,2023-05-30T21:53:00Z,45.22,-96.0,29.0,14.0,220,7,,10.0,29.749016,,,TRUE,TRUE,,,,,,,,,,,,,,,,,,,,,,,,,,,METAR,312.0
KAPF 302153Z 00000KT 10SM CLR 29/22 A2985 RMK AO2 LTG DSNT N SLP106 T02940217,KAPF,2023-05-30T21:53:00Z,26.15,-81.77,29.4,21.7,0,0,,10.0,29.84941,1010.6,,,TRUE,,,,,,,CLR,,,,,,,,VFR,,,,,,,,,,,,METAR,2.0
KAPA 302153Z 24018G32KT 8SM -TSRA SCT035 BKN085CB BKN120 BKN220 18/04 A3004 RMK AO2 PK WND 34039/2134 WSHFT 2044 RAB29 TSB29 SLP130 OCNL LTGICCG VC SE-S TS VC SE-S MOV NE P0002 T01780039,KAPA,2023-05-30T21:53:00Z,39.57,-104.85,17.8,3.9,240,18,32,8.0,30.041338,1013.0,,,TRUE,,,,,,-TSRA,SCT,3500,BKN,8500,BKN,12000,BKN,22000,VFR,,,,,,0.02,,,,,,METAR,1791.0
KAOO 302153Z AUTO 10006KT 10SM CLR 26/07 A3013 RMK AO2 SLP196 T02560067,KAOO,2023-05-30T21:53:00Z,40.3,-78.32,25.6,6.7,100,6,,10.0,30.129921,1019.6,,TRUE,TRUE,,,,,,,CLR,,,,,,,,VFR,,,,,,,,,,,,METAR,450.0
KAOH 302153Z AUTO 13009KT 10SM BKN110 29/14 A2999 RMK AO2 SLP148 T02890144,KAOH,2023-05-30T21:53:00Z,40.7,-84.02,28.9,14.4,130,9,,10.0,29.991142,1014.8,,TRUE,TRUE,,,,,,,BKN,11000,,,,,,,VFR,,,,,,,,,,,,METAR,294.0
KANB 302153Z AUTO 00000KT 10SM FEW060 SCT075 BKN100 27/16 A2992 RMK AO2 SLP127 T02720156,KANB,2023-05-30T21:53:00Z,33.58,-85.85,27.2,15.6,0,0,,10.0,29.920275,1012.7,,TRUE,TRUE,,,,,,,FEW,6000,SCT,7500,BKN,10000,,,VFR,,,,,,,,,,,,METAR,187.0
KAMW 302153Z AUTO 18012KT 10SM FEW080 29/15 A2984 RMK AO2 LTG DSNT W AND NW SLP096 T02890150,KAMW,2023-05-30T21:53:00Z,41.98,-93.62,28.9,15.0,180,12,,10.0,29.840551,1009.6,,TRUE,TRUE,,,,,,,FEW,8000,,,,,,,VFR,,,,,,,,,,,,METAR,282.0
KAMA 302153Z 14016G21KT 10SM CLR 29/16 A2991 RMK AO2 SLP077 T02890161,KAMA,2023-05-30T21:53:00Z,35.22,-101.72,28.9,16.1,140,16,21,10.0,29.911417,1007.7,,,TRUE,,,,,,,CLR,,,,,,,,VFR,,,,,,,,,,,,METAR,1102.0
KALW 302153Z 25009G15KT 220V280 10SM CLR 26/04 A2981 RMK AO2 SLP087 T02560039,KALW,2023-05-30T21:53:00Z,46.1,-118.28,25.6,3.9,250,9,15,10.0,29.811024,1008.7,,,TRUE,,,,,,,CLR,,,,,,,,VFR,,,,,,,,,,,,METAR,355.0
KALI 302153Z AUTO 08011KT 1 1/2SM +RA BR FEW044 SCT055 BKN070 25/23 A2985 RMK AO2 RAB44 SLP104 P0002 T02500233,KALI,2023-05-30T21:53:00Z,27.73,-98.02,25.0,23.3,80,11,,1.5,29.84941,1010.4,,TRUE,TRUE,,,,,,+RA BR,FEW,4400,SCT,5500,BKN,7000,,,IFR,,,,,,0.02,,,,,,METAR,52.0
KAKO 302153Z AUTO 18008KT 160V220 10SM CLR 26/11 A2991 RMK AO2 SLP079 T02560106,KAKO,2023-05-30T21:53:00Z,40.17,-103.22,25.6,10.6,180,8,,10.0,29.911417,1007.9,,TRUE,TRUE,,,,,,,CLR,,,,,,,,VFR,,,,,,,,,,,,METAR,1431.0
KAIA 302153Z AUTO 18006KT 10SM CLR 28/08 A2985 RMK AO2 SLP073 T02830083,KAIA,2023-05-30T21:53:00Z,42.05,-102.8,28.3,8.3,180,6,,10.0,29.84941,1007.3,,TRUE,TRUE,,,,,,,CLR,,,,,,,,VFR,,,,,,,,,,,,METAR,1198.0
KAGS 302153Z 10006KT 10SM BKN120 27/17 A2992 RMK AO2 SLP128 T02670167,KAGS,2023-05-30T21:53:00Z,33.37,-81.97,26.7,16.7,100,6,,10.0,29.920275,1012.8,,,TRUE,,,,,,,BKN,12000,,,,,,,VFR,,,,,,,,,,,,METAR,40.0
KAGC 302153Z 15011KT 10SM CLR 28/08 A3006 RMK AO2 SLP177 T02830078,KAGC,2023-05-30T21:53:00Z,40.35,-79.92,28.3,7.8,150,11,,10.0,30.059055,1017.7,,,TRUE,,,,,,,CLR,,,,,,,,VFR,,,,,,,,,,,,METAR,380.0
KAFW 302153Z 07012G28KT 4SM R16L/3500V4500FT +TSRA BKN050CB OVC100 24/19 A2989 RMK AO2 PK WND 07028/2144 RAB21 TSB30 SLP110 FRQ LTGICCG ALQDS TS ALQDS MOV SLO SW P0003 T02390189,KAFW,2023-05-30T21:53:00Z,32.97,-97.32,23.9,18.9,70,12,28,4.0,29.890747,1011.0,,,TRUE,,,,,,+TSRA,BKN,5000,OVC,10000,,,,,MVFR,,,,,,0.03,,,,,,METAR,208.0
KAEX 302153Z 00000KT 9SM BKN080 BKN110 32/15 A2987 RMK AO2 LTG DSNT S SLP116 T03170150,KAEX,2023-05-30T21:53:00Z,31.33,-92.57,31.7,15.0,0,0,,9.0,29.870079,1011.6,,,TRUE,,,,,,,BKN,8000,BKN,11000,,,,,VFR,,,,,,,,,,,,METAR,25.0
KADG 302153Z AUTO 13012G19KT 10SM CLR 30/14 A2999 RMK AO2 SLP153 T03000144,KADG,2023-05-30T21:53:00Z,41.87,-84.08,30.0,14.4,130,12,19,10.0,29.991142,1015.3,,TRUE,TRUE,,,,,,,CLR,,,,,,,,VFR,,,,,,,,,,,,METAR,244.0
KACV 302153Z AUTO 31009KT 10SM OVC014 11/09 A3000 RMK AO2 SLP163 T01110089,KACV,2023-05-30T21:53:00Z,40.98,-124.1,11.1,8.9,310,9,,10.0,30.0,1016.3,,TRUE,TRUE,,,,,,,OVC,1400,,,,,,,MVFR,,,,,,,,,,,,METAR,63.0
KACK 302153Z 09009KT 10SM CLR 12/08 A3023 RMK AO2 SLP237 T01220083,KACK,2023-05-30T21:53:00Z,41.25,-70.07,12.2,8.3,90,9,,10.0,30.230314,1023.7,,,TRUE,,,,,,,CLR,,,,,,,,VFR,,,,,,,,,,,,METAR,12.0
KABY 302153Z 16008KT 10SM SCT060 29/14 A2990 RMK AO2 SLP125 T02890139,KABY,2023-05-30T21:53:00Z,31.53,-84.2,28.9,13.9,160,8,,10.0,29.899607,1012.5,,,TRUE,,,,,,,SCT,6000,,,,,,,VFR,,,,,,,,,,,,METAR,60.0
KABR 302153Z AUTO 31006G14KT 10SM SCT090 32/11 A2976 RMK AO2 SLP069 T03220106,KABR,2023-05-30T21:53:00Z,45.45,-98.42,32.2,10.6,310,6,14,10.0,29.760826,1006.9,,TRUE,TRUE,,,,,,,SCT,9000,,,,,,,VFR,,,,,,,,,,,,METAR,397.0
KAAF 302153Z AUTO 21011KT 10SM CLR 27/16 A2989 RMK AO2 SLP120 T02720161,KAAF,2023-05-30T21:53:00Z,29.73,-85.03,27.2,16.1,210,11,,10.0,29.890747,1012.0,,TRUE,TRUE,,,,,,,CLR,,,,,,,,VFR,,,,,,,,,,,,METAR,5.0
K1IN 302153Z AUTO 35011KT 10SM CLR 26/11 A2975 RMK AO2 WSHFT 51 LTG DSNT SE-W SLP074 $,K1IN,2023-05-30T21:53:00Z,,,26.0,11.0,350,11,,10.0,29.749016,1007.4,,TRUE,TRUE,TRUE,,,,,,CLR,,,,,,,,VFR,,,,,,,,,,,,SPECI,
PATA 302152Z 25005KT 10SM SCT120 13/04 A2966 RMK AO2 SLP045 T01280039,PATA,2023-05-30T21:52:00Z,65.17,-152.1,12.8,3.9,250,5,,10.0,29.660433,1004.5,,,TRUE,,,,,,,SCT,12000,,,,,,,VFR,,,,,,,,,,,,METAR,62.0
PABA 302152Z AUTO 33006KT 10SM CLR 01/M01 A2963 RMK AO2 SLP040 T00111006 FZRANO,PABA,2023-05-30T21:52:00Z,70.13,-143.58,1.1,-0.6,330,6,,10.0,29.630905,1004.0,,TRUE,TRUE,,,,TRUE,,,CLR,,,,,,,,VFR,,,,,,,,,,,,METAR,1.0
MMCT 302152Z 00000KT 7SM BKN020CB BKN120 OVC250 34/22 A2972 RMK 8/363 PCPN DSNT N,MMCT,2023-05-30T21:52:00Z,20.63,-88.45,34.0,22.0,0,0,,7.0,29.719488,,,,,,,,,,,BKN,2000,BKN,12000,OVC,25000,,,MVFR,,,,,,,,,,,,METAR,29.0
MMAA 302152Z 22005G15KT 5SM SCT015 33/26 A2974 RMK 8/100 HZY DSNT CB NW ISOL AC,MMAA,2023-05-30T21:52:00Z,16.75,-99.75,33.0,26.0,220,5,15,5.0,29.740158,,,,,,,,,,,SCT,1500,,,,,,,MVFR,,,,,,,,,,,,METAR,5.0
KVTN 302152Z AUTO 14010KT 10SM FEW085 29/12 A2983 RMK AO2 SLP082 T02940117,KVTN,2023-05-30T21:52:00Z,42.87,-100.55,29.4,11.7,140,10,,10.0,29.828741,1008.2,,TRUE,TRUE,,,,,,,FEW,8500,,,,,,,VFR,,,,,,,,,,,,METAR,790.0
KTRM 302152Z AUTO VRB04KT 10SM CLR 33/01 A2971 RMK AO2 SLP064 T03280006 $,KTRM,2023-05-30T21:52:00Z,33.63,-116.17,32.8,0.6,0,4,,10.0,29.71063,1006.4,,TRUE,TRUE,TRUE,,,,,,CLR,,,,,,,,VFR,,,,,,,,,,,,METAR,-39.0
KTOL 302152Z 08010KT 10SM CLR 31/14 A2999 RMK AO2 SLP150 T03110144,KTOL,2023-05-30T21:52:00Z,41.58,-83.8,31.1,14.4,80,10,,10.0,29.991142,1015.0,,,TRUE,,,,,,,CLR,,,,,,,,VFR,,,,,,,,,,,,METAR,206.0
KTAN 302152Z AUTO 15007KT 10SM CLR 19/06 A3020 RMK AO2 SLP228 T01940061,KTAN,2023-05-30T21:52:00Z,41.88,-71.02,19.4,6.1,150,7,,10.0,30.200787,1022.8,,TRUE,TRUE,,,,,,,CLR,,,,,,,,VFR,,,,,,,,,,,,METAR,8.0
KSUX 302152Z 22013KT 10SM SCT100 32/12 A2977 RMK AO2 SLP070 T03220117,KSUX,2023-05-30T21:52:00Z,42.38,-96.38,32.2,11.7,220,13,,10.0,29.769686,1007.0,,,TRUE,,,,,,,SCT,10000,,,,,,,VFR,,,,,,,,,,,,METAR,332.0
KSPS 302152Z 13007KT 10SM SCT050 31/17 A2987 RMK AO2 SLP101 T03110172,KSPS,2023-05-30T21:52:00Z,33.98,-98.5,31.1,17.2,130,7,,10.0,29.870079,1010.1,,,TRUE,,,,,,,SCT,5000,,,,,,,VFR,,,,,,,,,,,,METAR,310.0
KSPI 302152Z 15007KT 10SM CLR 31/10 A2991 RMK AO2 SLP124 T03110100,KSPI,2023-05-30T21:52:00Z,39.85,-89.68,31.1,10.0,150,7,,10.0,29.911417,1012.4,,,TRUE,,,,,,,CLR,,,,,,,,VFR,,,,,,,,,,,,METAR,179.0
KSGF 302152Z 13004KT 10SM TS SCT049 BKN065 27/17 A2993 RMK AO2 LTG DSNT S TSB46 SLP123 T02670172,KSGF,2023-05-30T21:52:00Z,37.23,-93.38,26.7,17.2,130,4,,10.0,29.929134,1012.3,,,TRUE,,,,,,TS,SCT,4900,BKN,6500,,,,,VFR,,,,,,,,,,,,METAR,387.0
KREO 302152Z AUTO 33016KT 22/08 A2985 RMK AO1 PRESFR SLP082 T02170083,KREO,2023-05-30T21:52:00Z,42.58,-117.87,21.7,8.3,330,16,,,29.84941,1008.2,,TRUE,TRUE,,,,,,,,,,,,,,,,,,,,,,,,,,,METAR,1237.0
KRAP 302152Z 04008KT 10SM +TSRA FEW090 BKN110 19/15 A2983 RMK AO2 RAB2053 TSB03E18B31 SLP089 TS OVHD MOV NE WITH OCNL LTGICCG OHD P0001 T01940150 $,KRAP,2023-05-30T21:52:00Z,44.05,-103.05,19.4,15.0,40,8,,10.0,29.828741,1008.9,,,TRUE,TRUE,,,,,+TSRA,FEW,9000,BKN,11000,,,,,VFR,,,,,,0.01,,,,,,METAR,965.0
KPYM 302152Z AUTO 11007KT 10SM CLR 18/08 A3021 RMK AO2 SLP232 T01780078,KPYM,2023-05-30T21:52:00Z,41.92,-70.73,17.8,7.8,110,7,,10.0,30.209646,1023.2,,TRUE,TRUE,,,,,,,CLR,,,,,,,,VFR,,,,,,,,,,,,METAR,42.0
KPWK 302152Z 07007KT 10SM CLR 29/10 A2995 RMK AO2 SLP140 T02890100,KPWK,2023-05-30T21:52:00Z,42.12,-87.9,28.9,10.0,70,7,,10.0,29.949802,1014.0,,,TRUE,,,,,,,CLR,,,,,,,,VFR,,,,,,,,,,,,METAR,194.0
KPPF 302152Z AUTO 18007KT 10SM CLR 29/18 A2990 RMK AO2 SLP114 T02940178,KPPF,2023-05-30T21:52:00Z,37.33,-95.5,29.4,17.8,180,7,,10.0,29.899607,1011.4,,TRUE,TRUE,,,,,,,CLR,,,,,,,,VFR,,,,,,,,,,,,METAR,265.0
KP69 302152Z AUTO 17006KT 28/09 A2973 RMK AO1 SLP048 T02830094,KP69,2023-05-30T21:52:00Z,46.15,-115.6,28.3,9.4,170,6,,,29.731298,1004.8,,TRUE,TRUE,,,,,,,,,,,,,,,,,,,,,,,,,,,METAR,447.0
KORE 302152Z AUTO 19008KT 10SM CLR 23/03 A3017 RMK AO2 SLP217 T02330028,KORE,2023-05-30T21:52:00Z,42.57,-72.28,23.3,2.8,190,8,,10.0,30.171259,1021.7,,TRUE,TRUE,,,,,,,CLR,,,,,,,,VFR,,,,,,,,,,,,METAR,165.0
KOMA 302152Z 17019KT 10SM FEW055 FEW080 SCT160 BKN250 31/16 A2981 RMK AO2 PK WND 18027/2140 LTG DSNT E SLP086 CB DSNT E-SE T03110161,KOMA,2023-05-30T21:52:00Z,41.32,-95.9,31.1,16.1,170,19,,10.0,29.811024,1008.6,,,TRUE,,,,,,,FEW,5500,FEW,8000,SCT,16000,BKN,25000,VFR,,,,,,,,,,,,METAR,299.0
KOKC 302152Z 19009KT 10SM FEW055 SCT070 SCT250 29/18 A2990 RMK AO2 SLP110 T02940178,KOKC,2023-05-30T21:52:00Z,35.38,-97.6,29.4,17.8,190,9,,10.0,29.899607,1011.0,,,TRUE,,,,,,,FEW,5500,SCT,7000,SCT,25000,,,VFR,,,,,,,,,,,,METAR,391.0
KOKB 302152Z AUTO 28010G18KT 10SM BKN020 BKN049 20/13 A2996 RMK AO2 SLP144 T02000128,KOKB,2023-05-30T21:52:00Z,33.22,-117.35,20.0,12.8,280,10,18,10.0,29.958662,1014.4,,TRUE,TRUE,,,,,,,BKN,2000,BKN,4900,,,,,MVFR,,,,,,,,,,,,METAR,7.0
KNZY 302152Z 29008KT 10SM FEW024 SCT033 BKN042 18/12 A2997 RMK AO2 SLP148 T01780117,KNZY,2023-05-30T21:52:00Z,32.7,-117.22,17.8,11.7,290,8,,10.0,29.970472,1014.8,,,TRUE,,,,,,,FEW,2400,SCT,3300,BKN,4200,,,VFR,,,,,,,,,,,,METAR,4.0
KNRB 302152Z 12009KT 10SM FEW030 BKN090 BKN250 27/22 A2990 RMK AO2 SLP123 T02670217,KNRB,2023-05-30T21:52:00Z,30.38,-81.42,26.7,21.7,120,9,,10.0,29.899607,1012.3,,,TRUE,,,,,,,FEW,3000,BKN,9000,BKN,25000,,,VFR,,,,,,,,,,,,METAR,4.0
KNHK 302152Z 04010KT 10SM BKN050 BKN280 23/13 A3011 RMK AO2 SLP196 T02330133 $,KNHK,2023-05-30T21:52:00Z,38.28,-76.4,23.3,13.3,40,10,,10.0,30.109253,1019.6,,,TRUE,TRUE,,,,,,BKN,5000,BKN,28000,,,,,VFR,,,,,,,,,,,,METAR,5.0
KNFW 302152Z 12018G26KT 2SM +TSRA OVC060CB 27/19 A2989 RMK AO2 PK WND 11026/2152 RAB32 TSB51 SLP105 OCNL LTGICCC SE TS 4 SE MOV SE P0008 T02670194 VISNO S $,KNFW,2023-05-30T21:52:00Z,32.78,-97.43,26.7,19.4,120,18,26,2.0,29.890747,1010.5,,,TRUE,TRUE,,,,,+TSRA,OVC,6000,,,,,,,IFR,,,,,,0.08,,,,,,METAR,188.0
KN60 302152Z AUTO 29006KT 27/10 A2975 RMK AO1 SLP068 T02670100,KN60,2023-05-30T21:52:00Z,47.65,-101.43,26.7,10.0,290,6,,,29.749016,1006.8,,TRUE,TRUE,,,,,,,,,,,,,,,,,,,,,,,,,,,METAR,582.0
KMWH 302152Z 19008KT 10SM CLR 27/05 A2979 RMK AO2 SLP081 T02670050,KMWH,2023-05-30T21:52:00Z,47.2,-119.32,26.7,5.0,190,8,,10.0,29.790354,1008.1,,,TRUE,,,,,,,CLR,,,,,,,,VFR,,,,,,,,,,,,METAR,355.0
KMLI 302152Z 16010KT 10SM CLR 33/07 A2988 RMK AO2 SLP115 T03280067,KMLI,2023-05-30T21:52:00Z,41.45,-90.52,32.8,6.7,160,10,,10.0,29.878937,1011.5,,,TRUE,,,,,,,CLR,,,,,,,,VFR,,,,,,,,,,,,METAR,174.0
KMLF 302152Z AUTO 10SM FEW120 26/M04 A2991 RMK AO2 SLP076 T02561044,KMLF,2023-05-30T21:52:00Z,38.42,-113.02,25.6,-4.4,,,,10.0,29.911417,1007.6,,TRUE,TRUE,,,,,,,FEW,12000,,,,,,,VFR,,,,,,,,,,,,METAR,1537.0
KMKE 302152Z 11007KT 10SM FEW170 SCT250 27/09 A2996 RMK AO2 SLP142 T02670089,KMKE,2023-05-30T21:52:00Z,42.95,-87.9,26.7,8.9,110,7,,10.0,29.958662,1014.2,,,TRUE,,,,,,,FEW,17000,SCT,25000,,,,,VFR,,,,,,,,,,,,METAR,203.0
KMHK 302152Z 28006KT 10SM CLR 33/15 A2983 RMK AO2 LTG DSNT E SLP091 T03330150,KMHK,2023-05-30T21:52:00Z,39.13,-96.68,33.3,15.0,280,6,,10.0,29.828741,1009.1,,,TRUE,,,,,,,CLR,,,,,,,,VFR,,,,,,,,,,,,METAR,320.0
KMFD 302152Z 10010KT 10SM SCT060 28/13 A3003 RMK AO2 SLP162 T02780133,KMFD,2023-05-30T21:52:00Z,40.82,-82.52,27.8,13.3,100,10,,10.0,30.029528,1016.2,,,TRUE,,,,,,,SCT,6000,,,,,,,VFR,,,,,,,,,,,,METAR,394.0
KMEB 302152Z AUTO 03007KT 10SM OVC100 23/18 A2999 RMK AO2 RAE26 SLP151 P0001 T02280183,KMEB,2023-05-30T21:52:00Z,34.78,-79.37,22.8,18.3,30,7,,10.0,29.991142,1015.1,,TRUE,TRUE,,,,,,,OVC,10000,,,,,,,VFR,,,,,,0.01,,,,,,METAR,65.0
KMDH 302152Z VRB03KT 9SM CLR 31/13 A2991 RMK AO2 SLP124 T03060133,KMDH,2023-05-30T21:52:00Z,37.78,-89.25,30.6,13.3,0,3,,9.0,29.911417,1012.4,,,TRUE,,,,,,,CLR,,,,,,,,VFR,,,,,,,,,,,,METAR,122.0
KMBG 302152Z AUTO 30004KT 10SM CLR 31/11 A2977 RMK AO2 SLP068 T03110111,KMBG,2023-05-30T21:52:00Z,45.55,-100.42,31.1,11.1,300,4,,10.0,29.769686,1006.8,,TRUE,TRUE,,,,,,,CLR,,,,,,,,VFR,,,,,,,,,,,,METAR,515.0
KLWC 302152Z AUTO 10005KT 10SM CLR 28/18 A2987 RMK AO1 LTG DSNT W AND NW SLP108 T02830178,KLWC,2023-05-30T21:52:00Z,39.02,-95.22,28.3,17.8,100,5,,10.0,29.870079,1010.8,,TRUE,TRUE,,,,,,,CLR,,,,,,,,VFR,,,,,,,,,,,,METAR,252.0
KIOW 302152Z AUTO 18009G16KT 130V200 10SM CLR 31/09 A2989 RMK AO2 SLP118 T03110089,KIOW,2023-05-30T21:52:00Z,41.63,-91.55,31.1,8.9,180,9,16,10.0,29.890747,1011.8,,TRUE,TRUE,,,,,,,CLR,,,,,,,,VFR,,,,,,,,,,,,METAR,199.0
KIJD 302152Z AUTO 18006KT 9SM CLR 20/08 A3018 RMK AO2 SLP221 T02000083,KIJD,2023-05-30T21:52:00Z,41.75,-72.18,20.0,8.3,180,6,,9.0,30.180119,1022.1,,TRUE,TRUE,,,,,,,CLR,,,,,,,,VFR,,,,,,,,,,,,METAR,73.0
KIEN 302152Z AUTO 00000KT 10SM CLR 29/08 A2983 RMK AO2 LTG DSNT S SLP076 T02940083,KIEN,2023-05-30T21:52:00Z,43.03,-102.52,29.4,8.3,0,0,,10.0,29.828741,1007.6,,TRUE,TRUE,,,,,,,CLR,,,,,,,,VFR,,,,,,,,,,,,METAR,1002.0
KIAD 302152Z 06007KT 10SM FEW070 BKN250 24/12 A3011 RMK AO2 SLP195 T02440122,KIAD,2023-05-30T21:52:00Z,38.93,-77.45,24.4,12.2,60,7,,10.0,30.109253,1019.5,,,TRUE,,,,,,,FEW,7000,BKN,25000,,,,,VFR,,,,,,,,,,,,METAR,90.0
KHUT 302152Z COR 19010G17KT 10SM CLR 32/15 A2985 RMK AO2 LTG DSNT E SLP083 T03220150,KHUT,2023-05-30T21:52:00Z,38.07,-97.87,32.2,15.0,190,10,17,10.0,29.84941,1008.3,TRUE,,TRUE,,,,,,,CLR,,,,,,,,VFR,,,,,,,,,,,,METAR,464.0
KHRL 302152Z 04010KT 10SM FEW031 FEW100 29/23 A2983 RMK AO2 SLP101 T02940228,KHRL,2023-05-30T21:52:00Z,26.23,-97.65,29.4,22.8,40,10,,10.0,29.828741,1010.1,,,TRUE,,,,,,,FEW,3100,FEW,10000,,,,,VFR,,,,,,,,,,,,METAR,9.0
KHIE 302152Z AUTO 28004KT 10SM CLR 26/06 A3011 RMK AO2 SLP198 T02610056,KHIE,2023-05-30T21:52:00Z,44.37,-71.55,26.1,5.6,280,4,,10.0,30.109253,1019.8,,TRUE,TRUE,,,,,,,CLR,,,,,,,,VFR,,,,,,,,,,,,METAR,321.0
KGLS 302152Z 13010KT 10SM SCT027 28/20 A2989 RMK AO2 SLP121 T02830200,KGLS,2023-05-30T21:52:00Z,29.27,-94.87,28.3,20.0,130,10,,10.0,29.890747,1012.1,,,TRUE,,,,,,,SCT,2700,,,,,,,VFR,,,,,,,,,,,,METAR,2.0
KFIT 302152Z AUTO 14006KT 8SM CLR 23/04 A3017 RMK AO2 SLP219 T02330044,KFIT,2023-05-30T21:52:00Z,42.55,-71.75,23.3,4.4,140,6,,8.0,30.171259,1021.9,,TRUE,TRUE,,,,,,,CLR,,,,,,,,VFR,,,,,,,,,,,,METAR,102.0
KEST 302152Z AUTO 16024G34KT 10SM SCT080 26/17 A2982 RMK AO2 PK WND 18034/2146 LTG DSNT E-S SLP089 T02560172,KEST,2023-05-30T21:52:00Z,43.4,-94.75,25.6,17.2,160,24,34,10.0,29.819881,1008.9,,TRUE,TRUE,,,,,,,SCT,8000,,,,,,,VFR,,,,,,,,,,,,METAR,401.0
KDVN 302152Z AUTO 16011KT 10SM CLR 33/08 A2991 RMK AO2 SLP120 T03280078,KDVN,2023-05-30T21:52:00Z,41.62,-90.58,32.8,7.8,160,11,,10.0,29.911417,1012.0,,TRUE,TRUE,,,,,,,CLR,,,,,,,,VFR,,,,,,,,,,,,METAR,227.0
KDPA 302152Z 10006KT 10SM SCT100 31/11 A2992 RMK AO2 SLP128 T03110111,KDPA,2023-05-30T21:52:00Z,41.88,-88.25,31.1,11.1,100,6,,10.0,29.920275,1012.8,,,TRUE,,,,,,,SCT,10000,,,,,,,VFR,,,,,,,,,,,,METAR,228.0
KDDC 302152Z AUTO 17010KT 9SM CLR 31/12 A2988 RMK AO2 SLP088 T03060122,KDDC,2023-05-30T21:52:00Z,37.77,-99.97,30.6,12.2,170,10,,9.0,29.878937,1008.8,,TRUE,TRUE,,,,,,,CLR,,,,,,,,VFR,,,,,,,,,,,,METAR,786.0
KDCA 302152Z 09009KT 10SM FEW040 BKN250 23/13 A3012 RMK AO2 SLP197 T02330128,KDCA,2023-05-30T21:52:00Z,38.85,-77.03,23.3,12.8,90,9,,10.0,30.121063,1019.7,,,TRUE,,,,,,,FEW,4000,BKN,25000,,,,,VFR,,,,,,,,,,,,METAR,4.0
KCVG 302152Z 12011KT 10SM FEW055 28/16 A2997 RMK AO2 SLP140 MDT CU N TCU DSNT W T02830161,KCVG,2023-05-30T21:52:00Z,39.05,-84.67,28.3,16.1,120,11,,10.0,29.970472,1014.0,,,TRUE,,,,,,,FEW,5500,,,,,,,VFR,,,,,,,,,,,,METAR,264.0
KCQX 302152Z AUTO 10007KT 10SM FEW016 14/09 A3025 RMK AO2 SLP244 T01390094,KCQX,2023-05-30T21:52:00Z,41.68,-70.0,13.9,9.4,100,7,,10.0,30.250984,1024.4,,TRUE,TRUE,,,,,,,FEW,1600,,,,,,,VFR,,,,,,,,,,,,METAR,17.0
KCNU 302152Z AUTO 18010KT 10SM FEW055 30/19 A2988 RMK AO2 SLP108 T03000189,KCNU,2023-05-30T21:52:00Z,37.67,-95.48,30.0,18.9,180,10,,10.0,29.878937,1010.8,,TRUE,TRUE,,,,,,,FEW,5500,,,,,,,VFR,,,,,,,,,,,,METAR,301.0
KCLT 302152Z 07012KT 10SM SCT029TCU SCT040 BKN110 24/16 A3001 RMK AO2 SLP169 TCU E-SE T02390156,KCLT,2023-05-30T21:52:00Z,35.22,-80.95,23.9,15.6,70,12,,10.0,30.008858,1016.9,,,TRUE,,,,,,,SCT,2900,SCT,4000,BKN,11000,,,VFR,,,,,,,,,,,,METAR,223.0
KCKV 302152Z AUTO 20003KT 10SM SCT060 BKN080 28/16 A2993 RMK AO2 SLP128 T02830156,KCKV,2023-05-30T21:52:00Z,36.62,-87.42,28.3,15.6,200,3,,10.0,29.929134,1012.8,,TRUE,TRUE,,,,,,,SCT,6000,BKN,8000,,,,,VFR,,,,,,,,,,,,METAR,166.0
KCID 302152Z 16007G16KT 10SM CLR 31/06 A2988 RMK AO2 SLP112 T03110061,KCID,2023-05-30T21:52:00Z,41.88,-91.72,31.1,6.1,160,7,16,10.0,29.878937,1011.2,,,TRUE,,,,,,,CLR,,,,,,,,VFR,,,,,,,,,,,,METAR,257.0
KCFV 302152Z AUTO 19008KT 10SM CLR 29/19 A2987 RMK AO2 SLP109 T02940189,KCFV,2023-05-30T21:52:00Z,37.08,-95.57,29.4,18.9,190,8,,10.0,29.870079,1010.9,,TRUE,TRUE,,,,,,,CLR,,,,,,,,VFR,,,,,,,,,,,,METAR,228.0
KBML 302152Z AUTO 33004KT 10SM CLR 27/06 A3010 RMK AO2 SLP194 T02720056,KBML,2023-05-30T21:52:00Z,44.58,-71.18,27.2,5.6,330,4,,10.0,30.100393,1019.4,,TRUE,TRUE,,,,,,,CLR,,,,,,,,VFR,,,,,,,,,,,,METAR,344.0
KBLU 302152Z AUTO 28006KT 10SM BKN018 BKN023 OVC070 13/09 A3002 RMK AO2 LTG DSNT N AND NE SLP113 T01330089,KBLU,2023-05-30T21:52:00Z,39.28,-120.7,13.3,8.9,280,6,,10.0,30.02067,1011.3,,TRUE,TRUE,,,,,,,BKN,1800,BKN,2300,OVC,7000,,,MVFR,,,,,,,,,,,,METAR,1605.0
KBLH 302152Z AUTO 16013G21KT 10SM CLR 33/03 A2973 RMK AO2 SLP062 T03330033,KBLH,2023-05-30T21:52:00Z,33.62,-114.72,33.3,3.3,160,13,21,10.0,29.731298,1006.2,,TRUE,TRUE,,,,,,,CLR,,,,,,,,VFR,,,,,,,,,,,,METAR,119.0
KBLF 302152Z AUTO VRB06KT 10SM FEW036 20/13 A3011 RMK AO2 SLP170 T02000128,KBLF,2023-05-30T21:52:00Z,37.3,-81.2,20.0,12.8,0,6,,10.0,30.109253,1017.0,,TRUE,TRUE,,,,,,,FEW,3600,,,,,,,VFR,,,,,,,,,,,,METAR,871.0
KBKB 302152Z AUTO 00000KT 10SM OVC085 24/19 A2986 RMK AO2 SLP139 T02440194,KBKB,2023-05-30T21:52:00Z,31.02,-92.92,24.4,19.4,0,0,,10.0,29.861221,1013.9,,TRUE,TRUE,,,,,,,OVC,8500,,,,,,,VFR,,,,,,,,,,,,METAR,74.0
KBIS 302152Z 32011KT 10SM CLR 29/13 A2976 RMK AO2 SLP072 T02890128,KBIS,2023-05-30T21:52:00Z,46.77,-100.75,28.9,12.8,320,11,,10.0,29.760826,1007.2,,,TRUE,,,,,,,CLR,,,,,,,,VFR,,,,,,,,,,,,METAR,506.0
KBDR 302152Z 09008KT 10SM CLR 16/09 A3020 RMK AO2 SLP227 T01610089,KBDR,2023-05-30T21:52:00Z,41.17,-73.13,16.1,8.9,90,8,,10.0,30.200787,1022.7,,,TRUE,,,,,,,CLR,,,,,,,,VFR,,,,,,,,,,,,METAR,5.0
KBAN 302152Z AUTO VRB03KT 10SM BKN100 18/M01 A2995 RMK AO2 SLP063 T01831006 PWINO $,KBAN,2023-05-30T21:52:00Z,38.35,-119.52,18.3,-0.6,0,3,,10.0,29.949802,1006.3,,TRUE,TRUE,TRUE,,,,TRUE,,BKN,10000,,,,,,,VFR,,,,,,,,,,,,METAR,2067.0
KATL 302152Z 08009KT 10SM FEW048TCU SCT080 BKN095 26/15 A2996 RMK AO2 SLP136 TCU N-NE SW-W MDT CU OHD-E T02610150 $,KATL,2023-05-30T21:52:00Z,33.63,-84.45,26.1,15.0,80,9,,10.0,29.958662,1013.6,,,TRUE,TRUE,,,,,,FEW,4800,SCT,8000,BKN,9500,,,VFR,,,,,,,,,,,,METAR,309.0
KARR 302152Z 07006KT 9SM OVC100 30/12 A2992 RMK AO2 SLP128 T03000117,KARR,2023-05-30T21:52:00Z,41.77,-88.48,30.0,11.7,70,6,,9.0,29.920275,1012.8,,,TRUE,,,,,,,OVC,10000,,,,,,,VFR,,,,,,,,,,,,METAR,213.0
KAQW 302152Z AUTO 00000KT 10SM CLR 26/07 A3013 RMK AO2 SLP201 T02610072,KAQW,2023-05-30T21:52:00Z,42.7,-73.17,26.1,7.2,0,0,,10.0,30.129921,1020.1,,TRUE,TRUE,,,,,,,CLR,,,,,,,,VFR,,,,,,,,,,,,METAR,196.0
KALS 302152Z AUTO 21005G16KT 10SM FEW110 24/M04 A3007 RMK AO2 SLP105 T02441039,KALS,2023-05-30T21:52:00Z,37.43,-105.87,24.4,-3.9,210,5,16,10.0,30.070866,1010.5,,TRUE,TRUE,,,,,,,FEW,11000,,,,,,,VFR,,,,,,,,,,,,METAR,2299.0
KAFN 302152Z AUTO VRB06KT 10SM CLR 23/04 A3018 RMK AO2 SLP225 T02330039,KAFN,2023-05-30T21:52:00Z,42.8,-72.0,23.3,3.9,0,6,,10.0,30.180119,1022.5,,TRUE,TRUE,,,,,,,CLR,,,,,,,,VFR,,,,,,,,,,,,METAR,308.0
KABQ 302152Z 19019G27KT 9SM BKN120 BKN140 29/M03 A2999 RMK AO2 PK WND 17027/2152 SLP070 VIRGA SE-SW T02891028,KABQ,2023-05-30T21:52:00Z,35.05,-106.62,28.9,-2.8,190,19,27,9.0,29.991142,1007.0,,,TRUE,,,,,,,BKN,12000,BKN,14000,,,,,VFR,,,,,,,,,,,,METAR,1620.0
KABI 302152Z 14012KT 10SM CLR 31/17 A2989 RMK AO2 SLP097 T03060172,KABI,2023-05-30T21:52:00Z,32.42,-99.68,30.6,17.2,140,12,,10.0,29.890747,1009.7,,,TRUE,,,,,,,CLR,,,,,,,,VFR,,,,,,,,,,,,METAR,543.0
CYLJ 302152Z CCA 28005KT 8SM -RA FEW030 BKN080 17/13 A2975 RMK SC1AC6 HZ -RA INTMT SLP086 DENSITY ALT 2400FT,CYLJ,2023-05-30T21:52:00Z,54.12,-108.52,17.0,13.0,280,5,,8.0,29.749016,1008.6,,,,,,,,,-RA,FEW,3000,BKN,8000,,,,,VFR,,,,,,,,,,,,SPECI,481.0
PKMR 302151Z 05004KT 15SM FEW015 SCT050 BKN120 OVC300 30/26 A2986 RMK SLP115 T02980257,PKMR,2023-05-30T21:51:00Z,7.08,171.38,29.8,25.7,50,4,,15.0,29.861221,1011.5,,,,,,,,,,FEW,1500,SCT,5000,BKN,12000,OVC,30000,VFR,,,,,,,,,,,,METAR,7.0
PHBK 302151Z AUTO 30006KT 10SM BKN046 27/19 A3006 RMK AO2 SLP180 T02720189,PHBK,2023-05-30T21:51:00Z,22.03,-159.78,27.2,18.9,300,6,,10.0,30.059055,1018.0,,TRUE,TRUE,,,,,,,BKN,4600,,,,,,,VFR,,,,,,,,,,,,METAR,5.0
PAMD 302151Z AUTO VRB03KT 10SM SCT040 OVC048 08/02 A2982 RMK AO2 RAE2059 SLP085 T00830017 PNO $,PAMD,2023-05-30T21:51:00Z,59.43,-146.3,8.3,1.7,0,3,,10.0,29.819881,1008.5,,TRUE,TRUE,TRUE,,,,,,SCT,4000,OVC,4800,,,,,VFR,,,,,,,,,,,,METAR,20.0
MUGM 302151Z 16005KT 10SM FEW030 SCT130 OVC250 28/25 A2988 RMK AO2 SLP118 T02830250 $,MUGM,2023-05-30T21:51:00Z,19.9,-75.2,28.3,25.0,160,5,,10.0,29.878937,1011.8,,,TRUE,TRUE,,,,,,FEW,3000,SCT,13000,OVC,25000,,,VFR,,,,,,,,,,,,METAR,21.0
MTPP 302151Z 17006KT 140V200 9000 SCT024CB BKN040 29/24 Q1010 A2985,MTPP,2023-05-30T21:51:00Z,18.57,-72.3,29.0,24.0,170,6,,5.59,29.822834,,,,,,,,,,,SCT,2400,BKN,4000,,,,,VFR,,,,,,,,,,,,METAR,36.0
MMQT 302151Z 32006KT 10SM SCT030 28/03 A3014 RMK 8/100,MMQT,2023-05-30T21:51:00Z,20.62,-100.18,28.0,3.0,320,6,,10.0,30.138779,,,,,,,,,,,SCT,3000,,,,,,,VFR,,,,,,,,,,,,METAR,1909.0
KYNG 302151Z 12009KT 10SM FEW065 28/09 A3007 RMK AO2 SLP175 T02830089,KYNG,2023-05-30T21:51:00Z,41.25,-80.67,28.3,8.9,120,9,,10.0,30.070866,1017.5,,,TRUE,,,,,,,FEW,6500,,,,,,,VFR,,,,,,,,,,,,METAR,356.0
KXWA 302151Z AUTO 28006KT 10SM FEW075 27/11 A2978 RMK AO2 LTG DSNT E SLP079 T02720106,KXWA,2023-05-30T21:51:00Z,48.27,-103.75,27.2,10.6,280,6,,10.0,29.778543,1007.9,,TRUE,TRUE,,,,,,,FEW,7500,,,,,,,VFR,,,,,,,,,,,,METAR,717.0
KVNY 302151Z 28005KT 10SM FEW037 OVC044 19/10 A2994 RMK AO2 SLP133 T01890100,KVNY,2023-05-30T21:51:00Z,34.22,-118.48,18.9,10.0,280,5,,10.0,29.940945,1013.3,,,TRUE,,,,,,,FEW,3700,OVC,4400,,,,,VFR,,,,,,,,,,,,METAR,241.0
KVCT 302151Z 10014G22KT 10SM FEW040 30/21 A2987 RMK AO2 SLP112 T03000206,KVCT,2023-05-30T21:51:00Z,28.87,-96.93,30.0,20.6,100,14,22,10.0,29.870079,1011.2,,,TRUE,,,,,,,FEW,4000,,,,,,,VFR,,,,,,,,,,,,METAR,33.0
KUGN 302151Z 09009KT 10SM CLR 27/08 A2996 RMK AO2 SLP137 T02670083,KUGN,2023-05-30T21:51:00Z,42.42,-87.87,26.7,8.3,90,9,,10.0,29.958662,1013.7,,,TRUE,,,,,,,CLR,,,,,,,,VFR,,,,,,,,,,,,METAR,217.0
KTPL 302151Z AUTO 09008KT SCT015 BKN034 OVC047 22/18 A2992 RMK AO2 LTG DSNT SE SLP121 P0039 T02220183 PWINO RVRNO $,KTPL,2023-05-30T21:51:00Z,31.15,-97.4,22.2,18.3,90,8,,,29.920275,1012.1,,TRUE,TRUE,TRUE,,,,TRUE,,SCT,1500,BKN,3400,OVC,4700,,,,,,,,,0.39,,,,,,METAR,206.0
KTEB 302151Z VRB04KT 10SM CLR 21/09 A3016 RMK AO2 SLP212 T02110089,KTEB,2023-05-30T21:51:00Z,40.87,-74.05,21.1,8.9,0,4,,10.0,30.159449,1021.2,,,TRUE,,,,,,,CLR,,,,,,,,VFR,,,,,,,,,,,,METAR,3.0
KSTL 302151Z VRB06KT 10SM SCT080 BKN250 32/12 A2992 RMK AO2 SLP120 T03170122,KSTL,2023-05-30T21:51:00Z,38.75,-90.37,31.7,12.2,0,6,,10.0,29.920275,1012.0,,,TRUE,,,,,,,SCT,8000,BKN,25000,,,,,VFR,,,,,,,,,,,,METAR,163.0
KSNT 302151Z AUTO 15008G19KT 17/03 A2998 RMK AO1 SLP081 T01720028,KSNT,2023-05-30T21:51:00Z,44.17,-114.93,17.2,2.8,150,8,19,,29.97933,1008.1,,TRUE,TRUE,,,,,,,,,,,,,,,,,,,,,,,,,,,METAR,1980.0
KSMX 302151Z 30013KT 10SM OVC030 16/11 A2998 RMK AO2 SLP155 T01610106,KSMX,2023-05-30T21:51:00Z,34.9,-120.45,16.1,10.6,300,13,,10.0,29.97933,1015.5,,,TRUE,,,,,,,OVC,3000,,,,,,,MVFR,,,,,,,,,,,,METAR,73.0
KSMO 302151Z 24008KT 10SM OVC055 17/11 A2996 RMK AO2 SLP145 T01720111,KSMO,2023-05-30T21:51:00Z,34.02,-118.45,17.2,11.1,240,8,,10.0,29.958662,1014.5,,,TRUE,,,,,,,OVC,5500,,,,,,,VFR,,,,,,,,,,,,METAR,56.0
KSLK 302151Z AUTO 24005KT 10SM CLR 27/08 A3009 RMK AO2 SLP188 T02670083,KSLK,2023-05-30T21:51:00Z,44.4,-74.2,26.7,8.3,240,5,,10.0,30.088583,1018.8,,TRUE,TRUE,,,,,,,CLR,,,,,,,,VFR,,,,,,,,,,,,METAR,502.0
KSJT 302151Z 15005KT 10SM CLR 32/17 A2986 RMK AO2 SLP088 T03220167,KSJT,2023-05-30T21:51:00Z,31.37,-100.5,32.2,16.7,150,5,,10.0,29.861221,1008.8,,,TRUE,,,,,,,CLR,,,,,,,,VFR,,,,,,,,,,,,METAR,582.0
KSDB 302151Z AUTO 17009G20KT 10SM CLR 14/07 A2998 RMK AO2 SLP123 T01390072,KSDB,2023-05-30T21:51:00Z,34.75,-118.72,13.9,7.2,170,9,20,10.0,29.97933,1012.3,,TRUE,TRUE,,,,,,,CLR,,,,,,,,VFR,,,,,,,,,,,,METAR,1377.0
KSAT 302151Z 16008KT 10SM SCT060 31/18 A2987 RMK AO2 SLP097 T03060183,KSAT,2023-05-30T21:51:00Z,29.53,-98.48,30.6,18.3,160,8,,10.0,29.870079,1009.7,,,TRUE,,,,,,,SCT,6000,,,,,,,VFR,,,,,,,,,,,,METAR,246.0
KSAN 302151Z 31010G15KT 10SM BKN026 BKN042 18/11 A2999 RMK AO2 SLP155 T01830111,KSAN,2023-05-30T21:51:00Z,32.73,-117.18,18.3,11.1,310,10,15,10.0,29.991142,1015.5,,,TRUE,,,,,,,BKN,2600,BKN,4200,,,,,MVFR,,,,,,,,,,,,METAR,3.0
KSAD 302151Z AUTO 18014G22KT 10SM CLR 33/02 A2983 RMK AO2 SLP046 T03330017,KSAD,2023-05-30T21:51:00Z,32.85,-109.63,33.3,1.7,180,14,22,10.0,29.828741,1004.6,,TRUE,TRUE,,,,,,,CLR,,,,,,,,VFR,,,,,,,,,,,,METAR,937.0
KROW 302151Z 23013G29KT 10SM CLR 36/M01 A2985 RMK AO2 PK WND 24029/2146 SLP037 T03611006,KROW,2023-05-30T21:51:00Z,33.3,-104.5,36.1,-0.6,230,13,29,10.0,29.84941,1003.7,,,TRUE,,,,,,,CLR,,,,,,,,VFR,,,,,,,,,,,,METAR,1105.0
KRDU 302151Z 04011KT 10SM BKN017 BKN025 BKN250 21/16 A3005 RMK AO2 SLP173 T02110161,KRDU,2023-05-30T21:51:00Z,35.9,-78.78,21.1,16.1,40,11,,10.0,30.050198,1017.3,,,TRUE,,,,,,,BKN,1700,BKN,2500,BKN,25000,,,MVFR,,,,,,,,,,,,METAR,121.0
KPWM 302151Z 18013G18KT 9SM CLR 15/05 A3020 RMK AO2 SLP225 T01500050,KPWM,2023-05-30T21:51:00Z,43.65,-70.3,15.0,5.0,180,13,18,9.0,30.200787,1022.5,,,TRUE,,,,,,,CLR,,,,,,,,VFR,,,,,,,,,,,,METAR,15.0
KPVD 302151Z 14007KT 10SM SCT250 17/09 A3021 RMK AO2 SLP230 FU SCT250 T01670094,KPVD,2023-05-30T21:51:00Z,41.72,-71.43,16.7,9.4,140,7,,10.0,30.209646,1023.0,,,TRUE,,,,,,,SCT,25000,,,,,,,VFR,,,,,,,,,,,,METAR,15.0
KPIT 302151Z 13012KT 10SM FEW080 28/07 A3006 RMK AO2 SLP177 T02830067,KPIT,2023-05-30T21:51:00Z,40.47,-80.2,28.3,6.7,130,12,,10.0,30.059055,1017.7,,,TRUE,,,,,,,FEW,8000,,,,,,,VFR,,,,,,,,,,,,METAR,339.0
KPHX 302151Z 21010KT 10SM FEW120 FEW250 BKN300 37/M02 A2974 RMK AO2 SLP049 T03671022,KPHX,2023-05-30T21:51:00Z,33.43,-112.02,36.7,-2.2,210,10,,10.0,29.740158,1004.9,,,TRUE,,,,,,,FEW,12000,FEW,25000,BKN,30000,,,VFR,,,,,,,,,,,,METAR,338.0
KP59 302151Z AUTO 18009KT 28/ A2989 RMK AO1 SLP112 T0278,KP59,2023-05-30T21:51:00Z,47.47,-87.88,27.8,,180,9,,,29.890747,1011.2,,TRUE,TRUE,,,,,,,,,,,,,,,,,,,,,,,,,,,METAR,185.0
KOXR 302151Z 27011KT 10SM OVC055 19/12 A2996 RMK AO2 SLP145 T01890117,KOXR,2023-05-30T21:51:00Z,34.2,-119.2,18.9,11.7,270,11,,10.0,29.958662,1014.5,,,TRUE,,,,,,,OVC,5500,,,,,,,VFR,,,,,,,,,,,,METAR,12.0
KOXC 302151Z 16005KT 5SM HZ CLR 18/07 A3020 RMK AO2 SLP237 T01830072,KOXC,2023-05-30T21:51:00Z,41.47,-73.13,18.3,7.2,160,5,,5.0,30.200787,1023.7,,,TRUE,,,,,,HZ,CLR,,,,,,,,MVFR,,,,,,,,,,,,METAR,211.0
KORF 302151Z 05014G24KT 7SM OVC008 16/16 A3006 RMK AO2 RAE37 SLP177 P0000 T01610161,KORF,2023-05-30T21:51:00Z,36.9,-76.2,16.1,16.1,50,14,24,7.0,30.059055,1017.7,,,TRUE,,,,,,,OVC,800,,,,,,,IFR,,,,,,0.005,,,,,,METAR,5.0
KORD 302151Z 08011KT 10SM FEW080 FEW190 SCT250 31/10 A2993 RMK AO2 SLP129 T03110100,KORD,2023-05-30T21:51:00Z,41.95,-87.93,31.1,10.0,80,11,,10.0,29.929134,1012.9,,,TRUE,,,,,,,FEW,8000,FEW,19000,SCT,25000,,,VFR,,,,,,,,,,,,METAR,202.0
KOCF 302151Z 32007KT 10SM BKN070 28/19 A2989 RMK AO2 SLP120 T02830194 $,KOCF,2023-05-30T21:51:00Z,29.17,-82.22,28.3,19.4,320,7,,10.0,29.890747,1012.0,,,TRUE,TRUE,,,,,,BKN,7000,,,,,,,VFR,,,,,,,,,,,,METAR,24.0
KNYC 302151Z AUTO VRB04KT 10SM CLR 21/08 A3020 RMK AO2 SLP218 T02060083,KNYC,2023-05-30T21:51:00Z,40.78,-73.97,20.6,8.3,0,4,,10.0,30.200787,1021.8,,TRUE,TRUE,,,,,,,CLR,,,,,,,,VFR,,,,,,,,,,,,METAR,33.0
KNBT 302151Z AUTO 06010KT 10SM CLR 26/20 A2998 RMK AO2 SLP155 T02560200,KNBT,2023-05-30T21:51:00Z,35.02,-76.47,25.6,20.0,60,10,,10.0,29.97933,1015.5,,TRUE,TRUE,,,,,,,CLR,,,,,,,,VFR,,,,,,,,,,,,METAR,5.0
KMYL 302151Z AUTO 08007KT 10SM FEW080 FEW120 17/12 A2990 RMK AO2 RAE32 TSE05 SLP098 P0021 T01670122,KMYL,2023-05-30T21:51:00Z,44.9,-116.1,16.7,12.2,80,7,,10.0,29.899607,1009.8,,TRUE,TRUE,,,,,,,FEW,8000,FEW,12000,,,,,VFR,,,,,,0.21,,,,,,METAR,1532.0
KMPV 302151Z AUTO 18007KT 10SM CLR 26/09 A3015 RMK AO2 SLP207 T02610089,KMPV,2023-05-30T21:51:00Z,44.2,-72.57,26.1,8.9,180,7,,10.0,30.15059,1020.7,,TRUE,TRUE,,,,,,,CLR,,,,,,,,VFR,,,,,,,,,,,,METAR,336.0
KLWB 302151Z 13006KT 10SM SCT065 BKN075 BKN110 20/16 A3011,KLWB,2023-05-30T21:51:00Z,37.87,-80.4,20.0,16.0,130,6,,10.0,30.109253,,,,,,,,,,,SCT,6500,BKN,7500,BKN,11000,,,VFR,,,,,,,,,,,,METAR,702.0
KLGU 302151Z AUTO 23005KT 10SM CLR 25/07 A2987 RMK AO2 LTG DSNT NW SLP071 T02500067,KLGU,2023-05-30T21:51:00Z,41.78,-111.85,25.0,6.7,230,5,,10.0,29.870079,1007.1,,TRUE,TRUE,,,,,,,CLR,,,,,,,,VFR,,,,,,,,,,,,METAR,1359.0
KLGA 302151Z 05012KT 10SM FEW200 FEW250 19/09 A3017 RMK AO2 SLP217 FU FEW200 T01940094 $,KLGA,2023-05-30T21:51:00Z,40.78,-73.88,19.4,9.4,50,12,,10.0,30.171259,1021.7,,,TRUE,TRUE,,,,,,FEW,20000,FEW,25000,,,,,VFR,,,,,,,,,,,,METAR,9.0
KJFK 302151Z 13011KT 10SM FEW250 SCT300 17/09 A3019 RMK AO2 SLP222 FU SCT300 T01670094,KJFK,2023-05-30T21:51:00Z,40.63,-73.77,16.7,9.4,130,11,,10.0,30.188976,1022.2,,,TRUE,,,,,,,FEW,25000,SCT,30000,,,,,VFR,,,,,,,,,,,,METAR,3.0
KJCT 302151Z AUTO 08009KT 060V140 10SM FEW060 32/18 A2988 RMK AO2 SLP085 T03170178,KJCT,2023-05-30T21:51:00Z,30.5,-99.77,31.7,17.8,80,9,,10.0,29.878937,1008.5,,TRUE,TRUE,,,,,,,FEW,6000,,,,,,,VFR,,,,,,,,,,,,METAR,522.0
KILG 302151Z 06011KT 10SM CLR 25/06 A3013 RMK AO2 SLP203 T02500056,KILG,2023-05-30T21:51:00Z,39.67,-75.6,25.0,5.6,60,11,,10.0,30.129921,1020.3,,,TRUE,,,,,,,CLR,,,,,,,,VFR,,,,,,,,,,,,METAR,22.0
KIGM 302151Z AUTO 23015G26KT 10SM CLR 30/M07 A2987 RMK AO2 PK WND 10027/2133 SLP047 T03001067,KIGM,2023-05-30T21:51:00Z,35.25,-113.93,30.0,-6.7,230,15,26,10.0,29.870079,1004.7,,TRUE,TRUE,,,,,,,CLR,,,,,,,,VFR,,,,,,,,,,,,METAR,1045.0
KHTS 302151Z 11006KT 10SM CLR 26/18 A2999 RMK AO2 SLP151 T02560183 $,KHTS,2023-05-30T21:51:00Z,38.37,-82.55,25.6,18.3,110,6,,10.0,29.991142,1015.1,,,TRUE,TRUE,,,,,,CLR,,,,,,,,VFR,,,,,,,,,,,,METAR,252.0
KHSE 302151Z AUTO 02008KT 340V050 10SM FEW011 23/20 A2999 RMK AO2 SLP154 T02280200,KHSE,2023-05-30T21:51:00Z,35.23,-75.62,22.8,20.0,20,8,,10.0,29.991142,1015.4,,TRUE,TRUE,,,,,,,FEW,1100,,,,,,,VFR,,,,,,,,,,,,METAR,4.0
KHDO 302151Z AUTO 12008KT 10SM CLR 31/19 A2987 RMK AO2 SLP102 T03060194,KHDO,2023-05-30T21:51:00Z,29.37,-99.17,30.6,19.4,120,8,,10.0,29.870079,1010.2,,TRUE,TRUE,,,,,,,CLR,,,,,,,,VFR,,,,,,,,,,,,METAR,280.0
KEWR 302151Z 16006KT 7SM SCT250 20/08 A3017 RMK AO2 SLP217 FU SCT250 T02000083,KEWR,2023-05-30T21:51:00Z,40.68,-74.17,20.0,8.3,160,6,,7.0,30.171259,1021.7,,,TRUE,,,,,,,SCT,25000,,,,,,,VFR,,,,,,,,,,,,METAR,2.0
KERI 302151Z 05008KT 10SM FEW085 27/11 A3006 RMK AO2 SLP174 T02720111,KERI,2023-05-30T21:51:00Z,42.08,-80.18,27.2,11.1,50,8,,10.0,30.059055,1017.4,,,TRUE,,,,,,,FEW,8500,,,,,,,VFR,,,,,,,,,,,,METAR,222.0
KELP 302151Z 23007G19KT 10SM SCT140 SCT250 36/M03 A2989 RMK AO2 PK WND 18026/2127 SLP035 T03561028,KELP,2023-05-30T21:51:00Z,31.82,-106.35,35.6,-2.8,230,7,19,10.0,29.890747,1003.5,,,TRUE,,,,,,,SCT,14000,SCT,25000,,,,,VFR,,,,,,,,,,,,METAR,1205.0
KEKN 302151Z AUTO VRB04KT 10SM CLR 23/12 A3010 RMK AO2 SLP188 T02330117,KEKN,2023-05-30T21:51:00Z,38.88,-79.85,23.3,11.7,0,4,,10.0,30.100393,1018.8,,TRUE,TRUE,,,,,,,CLR,,,,,,,,VFR,,,,,,,,,,,,METAR,596.0
KDAW 302151Z AUTO 16006KT 10SM CLR 19/08 A3019 RMK AO2 SLP220 T01940078,KDAW,2023-05-30T21:51:00Z,43.28,-70.92,19.4,7.8,160,6,,10.0,30.188976,1022.0,,TRUE,TRUE,,,,,,,CLR,,,,,,,,VFR,,,,,,,,,,,,METAR,100.0
KCSG 302151Z 00000KT 10SM CLR 28/14 A2990 RMK AO2 SLP122 T02780139,KCSG,2023-05-30T21:51:00Z,32.52,-84.95,27.8,13.9,0,0,,10.0,29.899607,1012.2,,,TRUE,,,,,,,CLR,,,,,,,,VFR,,,,,,,,,,,,METAR,120.0
KCRP 302151Z 13011KT 10SM FEW024 FEW036 SCT130 SCT180 BKN220 31/20 A2986 RMK AO2 LTG DSNT N TSE25 SLP108 TS DSIPT CB DSNT N NE E SE W TCU DSNT NW T03060200,KCRP,2023-05-30T21:51:00Z,27.77,-97.5,30.6,20.0,130,11,,10.0,29.861221,1010.8,,,TRUE,,,,,,,FEW,2400,FEW,3600,SCT,13000,SCT,18000,VFR,,,,,,,,,,,,METAR,11.0
KCON 302151Z AUTO 15008KT 10SM CLR 23/07 A3016 RMK AO2 SLP214 T02330072,KCON,2023-05-30T21:51:00Z,43.2,-71.5,23.3,7.2,150,8,,10.0,30.159449,1021.4,,TRUE,TRUE,,,,,,,CLR,,,,,,,,VFR,,,,,,,,,,,,METAR,102.0
KCMH 302151Z 18008KT 10SM SCT060 29/16 A3000 RMK AO2 SLP151 T02890161,KCMH,2023-05-30T21:51:00Z,40.0,-82.88,28.9,16.1,180,8,,10.0,30.0,1015.1,,,TRUE,,,,,,,SCT,6000,,,,,,,VFR,,,,,,,,,,,,METAR,257.0
KCLE 302151Z 10010KT 10SM FEW085 30/07 A3001 RMK AO2 SLP170 T03000072,KCLE,2023-05-30T21:51:00Z,41.42,-81.85,30.0,7.2,100,10,,10.0,30.008858,1017.0,,,TRUE,,,,,,,FEW,8500,,,,,,,VFR,,,,,,,,,,,,METAR,237.0
KCDJ 302151Z AUTO VRB06KT 30/15 A2988 RMK AO1 SLP108 T03000150,KCDJ,2023-05-30T21:51:00Z,39.82,-93.57,30.0,15.0,0,6,,,29.878937,1010.8,,TRUE,TRUE,,,,,,,,,,,,,,,,,,,,,,,,,,,METAR,234.0
KCAK 302151Z 14013KT 10SM FEW070 27/11 A3004 RMK AO2 SLP166 T02720106,KCAK,2023-05-30T21:51:00Z,40.92,-81.45,27.2,10.6,140,13,,10.0,30.041338,1016.6,,,TRUE,,,,,,,FEW,7000,,,,,,,VFR,,,,,,,,,,,,METAR,369.0
KBKW 302151Z AUTO 12007KT 10SM CLR 22/13 A3009 RMK AO2 SLP167 T02220128,KBKW,2023-05-30T21:51:00Z,37.8,-81.12,22.2,12.8,120,7,,10.0,30.088583,1016.7,,TRUE,TRUE,,,,,,,CLR,,,,,,,,VFR,,,,,,,,,,,,METAR,762.0
KBHK 302151Z AUTO 00000KT 10SM FEW002 27/09 A2983 RMK AO2 LTG DSNT S SLP083 T02670094 $,KBHK,2023-05-30T21:51:00Z,46.35,-104.25,26.7,9.4,0,0,,10.0,29.828741,1008.3,,TRUE,TRUE,TRUE,,,,,,FEW,200,,,,,,,VFR,,,,,,,,,,,,METAR,904.0
KBGD 302151Z AUTO 12011G19KT 10SM CLR 31/16 A2990 RMK AO2 SLP082 T03060156,KBGD,2023-05-30T21:51:00Z,35.7,-101.4,30.6,15.6,120,11,19,10.0,29.899607,1008.2,,TRUE,TRUE,,,,,,,CLR,,,,,,,,VFR,,,,,,,,,,,,METAR,928.0
KBED 302151Z 12009KT 6SM HZ CLR 19/09 A3018 RMK AO2 SLP232 T01940089,KBED,2023-05-30T21:51:00Z,42.47,-71.3,19.4,8.9,120,9,,6.0,30.180119,1023.2,,,TRUE,,,,,,HZ,CLR,,,,,,,,VFR,,,,,,,,,,,,METAR,39.0
KBDL 302151Z 16006KT 10SM SCT300 23/06 A3016 RMK AO2 SLP212 FU SCT300 T02330061,KBDL,2023-05-30T21:51:00Z,41.93,-72.68,23.3,6.1,160,6,,10.0,30.159449,1021.2,,,TRUE,,,,,,,SCT,30000,,,,,,,VFR,,,,,,,,,,,,METAR,52.0
KBAZ 302151Z 14009KT 10SM FEW055 31/18 A2985 RMK AO2 SLP101 T03110183,KBAZ,2023-05-30T21:51:00Z,29.72,-98.05,31.1,18.3,140,9,,10.0,29.84941,1010.1,,,TRUE,,,,,,,FEW,5500,,,,,,,VFR,,,,,,,,,,,,METAR,199.0
KAVX 302151Z AUTO 26008KT 10SM BKN010 BKN016 OVC026 14/09 A2999 RMK AO2 SLP148 T01390094 $,KAVX,2023-05-30T21:51:00Z,33.4,-118.42,13.9,9.4,260,8,,10.0,29.991142,1014.8,,TRUE,TRUE,TRUE,,,,,,BKN,1000,BKN,1600,OVC,2600,,,MVFR,,,,,,,,,,,,METAR,482.0
KATT 302151Z AUTO 15007KT 10SM CLR 32/18 A2988 RMK AO2 SLP105 T03170183,KATT,2023-05-30T21:51:00Z,30.32,-97.77,31.7,18.3,150,7,,10.0,29.878937,1010.5,,TRUE,TRUE,,,,,,,CLR,,,,,,,,VFR,,,,,,,,,,,,METAR,203.0
KALB 302151Z 18010KT 10SM FEW250 26/07 A3013 RMK AO2 SLP202 T02610072,KALB,2023-05-30T21:51:00Z,42.75,-73.8,26.1,7.2,180,10,,10.0,30.129921,1020.2,,,TRUE,,,,,,,FEW,25000,,,,,,,VFR,,,,,,,,,,,,METAR,82.0
KAHN 302151Z 07008KT 10SM FEW090 27/15 A2996 RMK AO2 SLP138 T02670150,KAHN,2023-05-30T21:51:00Z,33.95,-83.33,26.7,15.0,70,8,,10.0,29.958662,1013.8,,,TRUE,,,,,,,FEW,9000,,,,,,,VFR,,,,,,,,,,,,METAR,241.0
KACT 302151Z 12011KT 10SM CLR 26/18 A2989 RMK AO2 PK WND 12026/2106 SLP115 T02610183,KACT,2023-05-30T21:51:00Z,31.62,-97.23,26.1,18.3,120,11,,10.0,29.890747,1011.5,,,TRUE,,,,,,,CLR,,,,,,,,VFR,,,,,,,,,,,,METAR,150.0
KABE 302151Z 11006KT 10SM CLR 23/03 A3015 RMK AO2 SLP208 T02330033,KABE,2023-05-30T21:51:00Z,40.65,-75.45,23.3,3.3,110,6,,10.0,30.15059,1020.8,,,TRUE,,,,,,,CLR,,,,,,,,VFR,,,,,,,,,,,,METAR,117.0
K6R6 302151Z AUTO 12010KT 31/18 A2993 RMK AO1 SLP101 T03060183 $,K6R6,2023-05-30T21:51:00Z,30.05,-102.22,30.6,18.3,120,10,,,29.929134,1010.1,,TRUE,TRUE,TRUE,,,,,,,,,,,,,,,,,,,,,,,,,,METAR,702.0
TJBQ 302150Z 00000KT 10SM SCT065 OVC075 26/23 A2993,TJBQ,2023-05-30T21:50:00Z,18.5,-67.13,26.0,23.0,0,0,,10.0,29.929134,,,,,,,,,,,SCT,6500,OVC,7500,,,,,VFR,,,,,,,,,,,,METAR,69.0
TIST 302150Z 15011KT 10SM FEW030 29/24 A2993,TIST,2023-05-30T21:50:00Z,18.33,-64.98,29.0,24.0,150,11,,10.0,29.929134,,,,,,,,,,,FEW,3000,,,,,,,VFR,,,,,,,,,,,,METAR,5.0
PTYA 302150Z VRB02KT 12SM FEW017 SCT130 BKN300 27/26 A2982 RMK SLP100 T02720264,PTYA,2023-05-30T21:50:00Z,9.48,138.08,27.2,26.4,0,2,,12.0,29.819881,1010.0,,,,,,,,,,FEW,1700,SCT,13000,BKN,30000,,,VFR,,,,,,,,,,,,METAR,4.0
PGWT 302150Z 09012KT 7SM -RA FEW014 BKN060 OVC110 27/25 RMK FIRST,PGWT,2023-05-30T21:50:00Z,14.98,145.62,27.0,25.0,90,12,,7.0,,,,,,,,,,,-RA,FEW,1400,BKN,6000,OVC,11000,,,VFR,,,,,,,,,,,,METAR,84.0
PGRO 302150Z 08013KT 7SM SCT012 BKN065 OVC100 26/23 A2988,PGRO,2023-05-30T21:50:00Z,14.18,145.25,26.0,23.0,80,13,,7.0,29.878937,,,,,,,,,,,SCT,1200,BKN,6500,OVC,10000,,,VFR,,,,,,,,,,,,METAR,181.0
NSTU 302150Z 10012KT 12SM SCT017 SCT035 30/27 A2993 RMK SLP135 T02980274,NSTU,2023-05-30T21:50:00Z,-14.33,-170.72,29.8,27.4,100,12,,12.0,29.929134,1013.5,,,,,,,,,,SCT,1700,SCT,3500,,,,,VFR,,,,,,,,,,,,METAR,8.0
MUVR 302150Z 23003KT 9000 FEW018CB SCT020 31/21 Q1010,MUVR,2023-05-30T21:50:00Z,23.03,-81.43,31.0,21.0,230,3,,5.59,29.822834,,,,,,,,,,,FEW,1800,SCT,2000,,,,,VFR,,,,,,,,,,,,METAR,65.0
MUSC 302150Z 12005KT 090V170 9000 BKN020 24/22 Q1011,MUSC,2023-05-30T21:50:00Z,22.5,-79.92,24.0,22.0,120,5,,5.59,29.852362,,,,,,,,,,,BKN,2000,,,,,,,MVFR,,,,,,,,,,,,METAR,97.0
MUHG 302150Z 15007KT 9000 FEW027 BKN190 28/24 Q1012,MUHG,2023-05-30T21:50:00Z,20.78,-76.32,28.0,24.0,150,7,,5.59,29.88189,,,,,,,,,,,FEW,2700,BKN,19000,,,,,VFR,,,,,,,,,,,,METAR,100.0
MUHA 302150Z VRB04KT 5000 SHRA BKN020TCU 26/21 Q1010,MUHA,2023-05-30T21:50:00Z,22.98,-82.42,26.0,21.0,0,4,,3.11,29.822834,,,,,,,,,,SHRA,BKN,2000,,,,,,,MVFR,,,,,,,,,,,,METAR,61.0
MUCU 302150Z VRB03KT 8000 SCT018CB BKN030 27/24 Q1012,MUCU,2023-05-30T21:50:00Z,19.97,-75.83,27.0,24.0,0,3,,4.97,29.88189,,,,,,,,,,,SCT,1800,BKN,3000,,,,,MVFR,,,,,,,,,,,,METAR,70.0
MUCM 302150Z 11004KT 070V130 9000 SCT020 BKN080 26/23 Q1011,MUCM,2023-05-30T21:50:00Z,21.42,-77.85,26.0,23.0,110,4,,5.59,29.852362,,,,,,,,,,,SCT,2000,BKN,8000,,,,,VFR,,,,,,,,,,,,METAR,125.0
MUCL 302150Z 18008KT 140V210 9000 FEW020 BKN090 29/23 Q1010,MUCL,2023-05-30T21:50:00Z,21.63,-81.55,29.0,23.0,180,8,,5.59,29.822834,,,,,,,,,,,FEW,2000,BKN,9000,,,,,VFR,,,,,,,,,,,,METAR,5.0
MUCC 302150Z 23004KT 9000 SCT020 BKN200 28/23 Q1010,MUCC,2023-05-30T21:50:00Z,22.47,-78.33,28.0,23.0,230,4,,5.59,29.822834,,,,,,,,,,,SCT,2000,BKN,20000,,,,,VFR,,,,,,,,,,,,METAR,7.0
MSLP 302150Z 24006KT 200V260 9999 FEW027 FEW033TCU 30/23 Q1008 A2977 NOSIG RMK TCU NW,MSLP,2023-05-30T21:50:00Z,13.43,-89.05,30.0,23.0,240,6,,6.21,29.763779,,,,,,TRUE,,,,,FEW,2700,FEW,3300,,,,,VFR,,,,,,,,,,,,METAR,25.0
MMZH 302150Z 25014KT 6SM SKC 33/25 A2975 RMK HZ DSNT CB E MDT CU ALQDS,MMZH,2023-05-30T21:50:00Z,17.6,-101.47,33.0,25.0,250,14,,6.0,29.749016,,,,,,,,,,,SKC,,,,,,,,VFR,,,,,,,,,,,,METAR,9.0
MMCB 302150Z 20007KT 6SM FEW020 32/13 A2996 RMK 8/100 HZY,MMCB,2023-05-30T21:50:00Z,18.83,-99.27,32.0,13.0,200,7,,6.0,29.958662,,,,,,,,,,,FEW,2000,,,,,,,VFR,,,,,,,,,,,,METAR,1281.0
LTFO 302150Z 23021KT 9999 SCT007 BKN025 19/18 Q1013,LTFO,2023-05-30T21:50:00Z,41.18,40.85,19.0,18.0,230,21,,6.21,29.911417,,,,,,,,,,,SCT,700,BKN,2500,,,,,MVFR,,,,,,,,,,,,METAR,5.0
LTFM 302150Z 03007KT 350V060 9999 BKN005 BKN020 17/15 Q1016 NOSIG,LTFM,2023-05-30T21:50:00Z,41.27,28.75,17.0,15.0,30,7,,6.21,30.0,,,,,,TRUE,,,,,BKN,500,BKN,2000,,,,,IFR,,,,,,,,,,,,METAR,99.0
LTFJ 302150Z 06006KT 280V080 9999 BKN015 18/17 Q1015 NOSIG,LTFJ,2023-05-30T21:50:00Z,40.9,29.3,18.0,17.0,60,6,,6.21,29.970472,,,,,,TRUE,,,,,BKN,1500,,,,,,,MVFR,,,,,,,,,,,,METAR,83.0
LTFH 302150Z 29007KT 260V320 8000 FEW006 SCT030 BKN100 18/18 Q1013 NOSIG,LTFH,2023-05-30T21:50:00Z,41.27,36.57,18.0,18.0,290,7,,4.97,29.911417,,,,,,TRUE,,,,,FEW,600,SCT,3000,BKN,10000,,,MVFR,,,,,,,,,,,,METAR,7.0
LTFG 302150Z 12004KT 9999 SCT030 17/16 Q1015,LTFG,2023-05-30T21:50:00Z,36.3,32.3,17.0,16.0,120,4,,6.21,29.970472,,,,,,,,,,,SCT,3000,,,,,,,VFR,,,,,,,,,,,,METAR,26.0
LTFE 302150Z 09003KT 9999 FEW035 17/16 Q1015 NOSIG,LTFE,2023-05-30T21:50:00Z,37.25,27.67,17.0,16.0,90,3,,6.21,29.970472,,,,,,TRUE,,,,,FEW,3500,,,,,,,VFR,,,,,,,,,,,,METAR,6.0
LTFD 302150Z 04004KT 9999 FEW035 SCT180 18/15 Q1015,LTFD,2023-05-30T21:50:00Z,39.55,27.02,18.0,15.0,40,4,,6.21,29.970472,,,,,,,,,,,FEW,3500,SCT,18000,,,,,VFR,,,,,,,,,,,,METAR,15.0
LTFC 302150Z 04004KT 9999 SCT030 BKN080 12/12 Q1017,LTFC,2023-05-30T21:50:00Z,37.87,30.38,12.0,12.0,40,4,,6.21,30.029528,,,,,,,,,,,SCT,3000,BKN,8000,,,,,VFR,,,,,,,,,,,,METAR,862.0
LTDA 302150Z 24005KT 210V290 9999 FEW035 20/15 Q1014 NOSIG,LTDA,2023-05-30T21:50:00Z,36.37,36.28,20.0,15.0,240,5,,6.21,29.940945,,,,,,TRUE,,,,,FEW,3500,,,,,,,VFR,,,,,,,,,,,,METAR,80.0
LTCW 302150Z VRB02KT 9999 FEW030 SCT070 09/07 Q1021,LTCW,2023-05-30T21:50:00Z,37.55,44.23,9.0,7.0,0,2,,6.21,30.147638,,,,,,,,,,,FEW,3000,SCT,7000,,,,,VFR,,,,,,,,,,,,METAR,1852.0
LTCV 302150Z 24007KT 9999 FEW040 SCT100 18/14 Q1013,LTCV,2023-05-30T21:50:00Z,37.37,42.07,18.0,14.0,240,7,,6.21,29.911417,,,,,,,,,,,FEW,4000,SCT,10000,,,,,VFR,,,,,,,,,,,,METAR,620.0
LTCT 302150Z 25007KT 130V280 9999 FEW035 SCT080 BKN150 19/08 Q1016,LTCT,2023-05-30T21:50:00Z,39.98,43.87,19.0,8.0,250,7,,6.21,30.0,,,,,,,,,,,FEW,3500,SCT,8000,BKN,15000,,,VFR,,,,,,,,,,,,METAR,936.0
LTCS 302150Z 28004KT 240V310 CAVOK 18/09 Q1015,LTCS,2023-05-30T21:50:00Z,37.45,38.9,18.0,9.0,280,4,,6.21,29.970472,,,,,,,,,,,CAVOK,,,,,,,,VFR,,,,,,,,,,,,METAR,825.0
LTCN 302150Z 27011KT CAVOK 18/13 Q1015,LTCN,2023-05-30T21:50:00Z,37.53,36.95,18.0,13.0,270,11,,6.21,29.970472,,,,,,,,,,,CAVOK,,,,,,,,VFR,,,,,,,,,,,,METAR,505.0
LTCJ 302150Z 01003KT 320V060 9999 FEW040 SCT100 17/13 Q1014 NOSIG,LTCJ,2023-05-30T21:50:00Z,37.93,41.12,17.0,13.0,10,3,,6.21,29.940945,,,,,,TRUE,,,,,FEW,4000,SCT,10000,,,,,VFR,,,,,,,,,,,,METAR,559.0
LTCI 302150Z 20002KT 9999 FEW020TCU SCT030 11/08 Q1024 NOSIG,LTCI,2023-05-30T21:50:00Z,38.47,43.33,11.0,8.0,200,2,,6.21,30.236221,,,,,,TRUE,,,,,FEW,2000,SCT,3000,,,,,VFR,,,,,,,,,,,,METAR,1654.0
LTCG 302150Z VRB02KT 9999 BKN100 18/17 Q1013 NOSIG,LTCG,2023-05-30T21:50:00Z,41.0,39.77,18.0,17.0,0,2,,6.21,29.911417,,,,,,TRUE,,,,,BKN,10000,,,,,,,VFR,,,,,,,,,,,,METAR,28.0
LTCF 302150Z 27006KT 240V300 9999 SCT035 BKN070 11/07 Q1021 NOSIG,LTCF,2023-05-30T21:50:00Z,40.57,43.12,11.0,7.0,270,6,,6.21,30.147638,,,,,,TRUE,,,,,SCT,3500,BKN,7000,,,,,VFR,,,,,,,,,,,,METAR,1794.0
LTCE 302150Z 22002KT CAVOK 07/06 Q1021 NOSIG,LTCE,2023-05-30T21:50:00Z,39.95,41.17,7.0,6.0,220,2,,6.21,30.147638,,,,,,TRUE,,,,,CAVOK,,,,,,,,VFR,,,,,,,,,,,,METAR,1758.0
LTCD 302150Z VRB01KT 9999 FEW045 BKN080 09/08 Q1018 NOSIG,LTCD,2023-05-30T21:50:00Z,39.72,39.52,9.0,8.0,0,1,,6.21,30.059055,,,,,,TRUE,,,,,FEW,4500,BKN,8000,,,,,VFR,,,,,,,,,,,,METAR,1146.0
LTCC 302150Z VRB02KT CAVOK 15/11 Q1015 NOSIG,LTCC,2023-05-30T21:50:00Z,37.88,40.2,15.0,11.0,0,2,,6.21,29.970472,,,,,,TRUE,,,,,CAVOK,,,,,,,,VFR,,,,,,,,,,,,METAR,676.0
LTCB 302150Z 16005KT 100V210 9999 SCT008 FEW035CB 18/16 Q1012 NOSIG,LTCB,2023-05-30T21:50:00Z,40.97,38.07,18.0,16.0,160,5,,6.21,29.88189,,,,,,TRUE,,,,,SCT,800,FEW,3500,,,,,VFR,,,,,,,,,,,,METAR,5.0
LTCA 302150Z 23004KT 200V270 CAVOK 12/10 Q1016 NOSIG,LTCA,2023-05-30T21:50:00Z,38.6,39.28,12.0,10.0,230,4,,6.21,30.0,,,,,,TRUE,,,,,CAVOK,,,,,,,,VFR,,,,,,,,,,,,METAR,887.0
LTBY 302150Z 23003KT 9999 SCT040 SCT100 12/12 Q1017,LTBY,2023-05-30T21:50:00Z,39.82,30.52,12.0,12.0,230,3,,6.21,30.029528,,,,,,,,,,,SCT,4000,SCT,10000,,,,,VFR,,,,,,,,,,,,METAR,788.0
LTBU 302150Z 34004KT CAVOK 15/14 Q1015,LTBU,2023-05-30T21:50:00Z,41.13,27.92,15.0,14.0,340,4,,6.21,29.970472,,,,,,,,,,,CAVOK,,,,,,,,VFR,,,,,,,,,,,,METAR,165.0
LTBS 302150Z 04003KT 9999 SCT025 17/16 Q1015 NOSIG,LTBS,2023-05-30T21:50:00Z,36.7,28.78,17.0,16.0,40,3,,6.21,29.970472,,,,,,TRUE,,,,,SCT,2500,,,,,,,VFR,,,,,,,,,,,,METAR,2.0
LTBR 302150Z VRB01KT 8000 SCT030 SCT090 16/15 Q1015 NOSIG,LTBR,2023-05-30T21:50:00Z,40.25,29.57,16.0,15.0,0,1,,4.97,29.970472,,,,,,TRUE,,,,,SCT,3000,SCT,9000,,,,,MVFR,,,,,,,,,,,,METAR,233.0
LTBQ 302150Z VRB01KT 6000 SCT015 BKN023 16/15 Q1015 NOSIG,LTBQ,2023-05-30T21:50:00Z,40.73,30.07,16.0,15.0,0,1,,3.73,29.970472,,,,,,TRUE,,,,,SCT,1500,BKN,2300,,,,,MVFR,,,,,,,,,,,,METAR,51.0
LTBJ 302150Z 00000KT 9999 SCT030 BKN100 18/18 Q1014 NOSIG,LTBJ,2023-05-30T21:50:00Z,38.28,27.15,18.0,18.0,0,0,,6.21,29.940945,,,,,,TRUE,,,,,SCT,3000,BKN,10000,,,,,VFR,,,,,,,,,,,,METAR,123.0
LTBH 302150Z VRB01KT 9999 SCT035 BKN100 17/15 Q1015,LTBH,2023-05-30T21:50:00Z,40.13,26.42,17.0,15.0,0,1,,6.21,29.970472,,,,,,,,,,,SCT,3500,BKN,10000,,,,,VFR,,,,,,,,,,,,METAR,8.0
LTBF 302150Z 00000KT 9999 SCT035 SCT100 17/16 Q1015 NOSIG,LTBF,2023-05-30T21:50:00Z,39.62,27.92,17.0,16.0,0,0,,6.21,29.970472,,,,,,TRUE,,,,,SCT,3500,SCT,10000,,,,,VFR,,,,,,,,,,,,METAR,95.0
LTBD 302150Z 30002KT 9999 FEW030 SCT090 17/17 Q1015,LTBD,2023-05-30T21:50:00Z,37.82,27.88,17.0,17.0,300,2,,6.21,29.970472,,,,,,,,,,,FEW,3000,SCT,9000,,,,,VFR,,,,,,,,,,,,METAR,29.0
LTBA 302150Z 35008KT 9999 BKN014 18/16 Q1015,LTBA,2023-05-30T21:50:00Z,40.97,28.82,18.0,16.0,350,8,,6.21,29.970472,,,,,,,,,,,BKN,1400,,,,,,,MVFR,,,,,,,,,,,,METAR,33.0
LTAZ 302150Z 21003KT 9999 SCT040 BKN100 14/12 Q1017,LTAZ,2023-05-30T21:50:00Z,38.77,34.52,14.0,12.0,210,3,,6.21,30.029528,,,,,,,,,,,SCT,4000,BKN,10000,,,,,VFR,,,,,,,,,,,,METAR,944.0
LTAY 302150Z 00000KT 9999 SCT030 BKN090 14/14 Q1017 NOSIG,LTAY,2023-05-30T21:50:00Z,37.78,29.7,14.0,14.0,0,0,,6.21,30.029528,,,,,,TRUE,,,,,SCT,3000,BKN,9000,,,,,VFR,,,,,,,,,,,,METAR,851.0
LTAU 302150Z 05001KT 9999 SCT040 BKN100 13/10 Q1017 NOSIG,LTAU,2023-05-30T21:50:00Z,38.77,35.48,13.0,10.0,50,1,,6.21,30.029528,,,,,,TRUE,,,,,SCT,4000,BKN,10000,,,,,VFR,,,,,,,,,,,,METAR,1053.0
LTAT 302150Z 18003KT CAVOK 12/08 Q1017 NOSIG,LTAT,2023-05-30T21:50:00Z,38.43,38.08,12.0,8.0,180,3,,6.21,30.029528,,,,,,TRUE,,,,,CAVOK,,,,,,,,VFR,,,,,,,,,,,,METAR,850.0
LTAR 302150Z 19004KT 9999 SCT035 SCT080 07/05 Q1019,LTAR,2023-05-30T21:50:00Z,39.8,36.9,7.0,5.0,190,4,,6.21,30.088583,,,,,,,,,,,SCT,3500,SCT,8000,,,,,VFR,,,,,,,,,,,,METAR,1601.0
LTAP 302150Z 14003KT 100V160 9999 BKN040 BKN080 16/14 Q1013 RESHRA NOSIG,LTAP,2023-05-30T21:50:00Z,40.83,35.52,16.0,14.0,140,3,,6.21,29.911417,,,,,,TRUE,,,,,BKN,4000,BKN,8000,,,,,VFR,,,,,,,,,,,,METAR,536.0
LTAN 302150Z VRB02KT 9999 SCT040 SCT100 14/12 Q1017 NOSIG,LTAN,2023-05-30T21:50:00Z,37.97,32.55,14.0,12.0,0,2,,6.21,30.029528,,,,,,TRUE,,,,,SCT,4000,SCT,10000,,,,,VFR,,,,,,,,,,,,METAR,1029.0
LTAJ 302150Z 00000KT CAVOK 15/10 Q1014 NOSIG,LTAJ,2023-05-30T21:50:00Z,36.95,37.48,15.0,10.0,0,0,,6.21,29.940945,,,,,,TRUE,,,,,CAVOK,,,,,,,,VFR,,,,,,,,,,,,METAR,684.0
LTAI 302150Z 34004KT 230V360 9999 BKN030 19/18 Q1015 NOSIG,LTAI,2023-05-30T21:50:00Z,36.9,30.8,19.0,18.0,340,4,,6.21,29.970472,,,,,,TRUE,,,,,BKN,3000,,,,,,,MVFR,,,,,,,,,,,,METAR,50.0
LTAF 302150Z VRB02KT CAVOK 19/18 Q1014 NOSIG,LTAF,2023-05-30T21:50:00Z,36.98,35.28,19.0,18.0,0,2,,6.21,29.940945,,,,,,TRUE,,,,,CAVOK,,,,,,,,VFR,,,,,,,,,,,,METAR,19.0
LTAC 302150Z 19003KT 130V260 9999 SCT025 SCT080 14/13 Q1015 NOSIG,LTAC,2023-05-30T21:50:00Z,40.12,32.98,14.0,13.0,190,3,,6.21,29.970472,,,,,,TRUE,,,,,SCT,2500,SCT,8000,,,,,VFR,,,,,,,,,,,,METAR,952.0
LSZS 302150Z AUTO VRB02KT 9999 FEW095 SCT///CB 07/03 Q1021,LSZS,2023-05-30T21:50:00Z,46.53,9.88,7.0,3.0,0,2,,6.21,30.147638,,,TRUE,,,,,,,,FEW,9500,,,,,,,VFR,,,,,,,,,,,,METAR,1708.0
LSZR 302150Z AUTO 08005KT 020V120 CAVOK 18/08 Q1018,LSZR,2023-05-30T21:50:00Z,47.48,9.57,18.0,8.0,80,5,,6.21,30.059055,,,TRUE,,,,,,,,CAVOK,,,,,,,,VFR,,,,,,,,,,,,METAR,396.0
LSZL 302150Z AUTO 24009KT 9999NDV SCT090 BKN110 BKN170 17/14 Q1019 RMK,LSZL,2023-05-30T21:50:00Z,46.17,8.88,17.0,14.0,240,9,,,30.088583,,,TRUE,,,,,,,,SCT,9000,BKN,11000,BKN,17000,,,,,,,,,,,,,,,METAR,198.0
LSZH 302150Z AUTO 03007KT CAVOK 18/07 Q1018 NOSIG,LSZH,2023-05-30T21:50:00Z,47.48,8.53,18.0,7.0,30,7,,6.21,30.059055,,,TRUE,,,TRUE,,,,,CAVOK,,,,,,,,VFR,,,,,,,,,,,,METAR,424.0
LSZG 302150Z AUTO 07008KT CAVOK 18/07 Q1017,LSZG,2023-05-30T21:50:00Z,47.17,7.42,18.0,7.0,70,8,,6.21,30.029528,,,TRUE,,,,,,,,CAVOK,,,,,,,,VFR,,,,,,,,,,,,METAR,428.0
LSZC 302150Z AUTO VRB03KT CAVOK 17/09 Q1017,LSZC,2023-05-30T21:50:00Z,46.97,8.38,17.0,9.0,0,3,,6.21,30.029528,,,TRUE,,,,,,,,CAVOK,,,,,,,,VFR,,,,,,,,,,,,METAR,445.0
LSZB 302150Z AUTO VRB05KT CAVOK 18/07 Q1017,LSZB,2023-05-30T21:50:00Z,46.92,7.5,18.0,7.0,0,5,,6.21,30.029528,,,TRUE,,,,,,,,CAVOK,,,,,,,,VFR,,,,,,,,,,,,METAR,510.0
LSZA 302150Z AUTO 17004KT 130V200 9000 FEW011 SCT050CB BKN060 16/16 Q1019 RETSRA,LSZA,2023-05-30T21:50:00Z,46.0,8.92,16.0,16.0,170,4,,5.59,30.088583,,,TRUE,,,,,,,,FEW,1100,SCT,5000,BKN,6000,,,VFR,,,,,,,,,,,,METAR,276.0
LSMP 302150Z AUTO 04005KT 9999NDV NCD 15/09 Q1017 RMK,LSMP,2023-05-30T21:50:00Z,46.83,6.92,15.0,9.0,40,5,,,30.029528,,,TRUE,,,,,,,,CLR,,,,,,,,,,,,,,,,,,,,METAR,490.0
LSMM 302150Z AUTO 10005KT 050V150 9999NDV NCD 17/09 Q1017 RMK,LSMM,2023-05-30T21:50:00Z,46.75,8.12,17.0,9.0,100,5,,,30.029528,,,TRUE,,,,,,,,CLR,,,,,,,,,,,,,,,,,,,,METAR,570.0
LSME 302150Z AUTO 02004KT 9999NDV NCD 18/09 Q1017 RMK,LSME,2023-05-30T21:50:00Z,47.1,8.3,18.0,9.0,20,4,,,30.029528,,,TRUE,,,,,,,,CLR,,,,,,,,,,,,,,,,,,,,METAR,427.0
LSMD 302150Z AUTO 06003KT 330V120 9999NDV NCD 18/08 Q1018 RMK,LSMD,2023-05-30T21:50:00Z,47.4,8.65,18.0,8.0,60,3,,,30.059055,,,TRUE,,,,,,,,CLR,,,,,,,,,,,,,,,,,,,,METAR,436.0
LSMA 302150Z AUTO 04007KT 9999NDV NCD 19/08 Q1017 RMK,LSMA,2023-05-30T21:50:00Z,46.95,8.28,19.0,8.0,40,7,,,30.029528,,,TRUE,,,,,,,,CLR,,,,,,,,,,,,,,,,,,,,METAR,441.0
LSGS 302150Z AUTO VRB01KT 9999 FEW090 19/11 Q1015,LSGS,2023-05-30T21:50:00Z,46.22,7.32,19.0,11.0,0,1,,6.21,29.970472,,,TRUE,,,,,,,,FEW,9000,,,,,,,VFR,,,,,,,,,,,,METAR,482.0
LSGG 302150Z AUTO VRB02KT CAVOK 19/10 Q1015 NOSIG,LSGG,2023-05-30T21:50:00Z,46.25,6.12,19.0,10.0,0,2,,6.21,29.970472,,,TRUE,,,TRUE,,,,,CAVOK,,,,,,,,VFR,,,,,,,,,,,,METAR,411.0
LSGC 302150Z AUTO 01005KT CAVOK 12/07 Q1019,LSGC,2023-05-30T21:50:00Z,47.08,6.8,12.0,7.0,10,5,,6.21,30.088583,,,TRUE,,,,,,,,CAVOK,,,,,,,,VFR,,,,,,,,,,,,METAR,1018.0
LOWW 302150Z 34008KT CAVOK 15/08 Q1021 NOSIG,LOWW,2023-05-30T21:50:00Z,48.12,16.57,15.0,8.0,340,8,,6.21,30.147638,,,,,,TRUE,,,,,CAVOK,,,,,,,,VFR,,,,,,,,,,,,METAR,179.0
LOWS 302150Z AUTO 03009KT 9999 FEW090 13/09 Q1021,LOWS,2023-05-30T21:50:00Z,47.78,13.02,13.0,9.0,30,9,,6.21,30.147638,,,TRUE,,,,,,,,FEW,9000,,,,,,,VFR,,,,,,,,,,,,METAR,427.0
LOWL 302150Z AUTO 07010KT 9999 NCD 17/05 Q1021,LOWL,2023-05-30T21:50:00Z,48.22,14.18,17.0,5.0,70,10,,6.21,30.147638,,,TRUE,,,,,,,,CLR,,,,,,,,VFR,,,,,,,,,,,,METAR,290.0
LOWK 302150Z AUTO VRB02KT 9999 SCT080 13/12 Q1021,LOWK,2023-05-30T21:50:00Z,46.65,14.32,13.0,12.0,0,2,,6.21,30.147638,,,TRUE,,,,,,,,SCT,8000,,,,,,,VFR,,,,,,,,,,,,METAR,450.0
LOWI 302150Z AUTO VRB01KT 9999 FEW060 SCT090 BKN100 14/12 Q1020,LOWI,2023-05-30T21:50:00Z,47.27,11.33,14.0,12.0,0,1,,6.21,30.11811,,,TRUE,,,,,,,,FEW,6000,SCT,9000,BKN,10000,,,VFR,,,,,,,,,,,,METAR,570.0
LOWG 302150Z AUTO 33004KT 9999 FEW080 16/07 Q1020,LOWG,2023-05-30T21:50:00Z,47.0,15.43,16.0,7.0,330,4,,6.21,30.11811,,,TRUE,,,,,,,,FEW,8000,,,,,,,VFR,,,,,,,,,,,,METAR,337.0
LLBG 302150Z VRB03KT CAVOK 21/16 Q1014 NOSIG,LLBG,2023-05-30T21:50:00Z,32.0,34.88,21.0,16.0,0,3,,6.21,29.940945,,,,,,TRUE,,,,,CAVOK,,,,,,,,VFR,,,,,,,,,,,,METAR,35.0
LIRZ 302150Z AUTO 03005KT 9999 NCD 15/13 Q1015,LIRZ,2023-05-30T21:50:00Z,43.1,12.5,15.0,13.0,30,5,,6.21,29.970472,,,TRUE,,,,,,,,CLR,,,,,,,,VFR,,,,,,,,,,,,METAR,206.0
LIRQ 302150Z VRB02KT CAVOK 17/13 Q1014,LIRQ,2023-05-30T21:50:00Z,43.8,11.2,17.0,13.0,0,2,,6.21,29.940945,,,,,,,,,,,CAVOK,,,,,,,,VFR,,,,,,,,,,,,METAR,33.0
LIRN 302150Z 34003KT 230V010 CAVOK 19/12 Q1014 NOSIG,LIRN,2023-05-30T21:50:00Z,40.88,14.3,19.0,12.0,340,3,,6.21,29.940945,,,,,,TRUE,,,,,CAVOK,,,,,,,,VFR,,,,,,,,,,,,METAR,76.0
LIRF 302150Z 01003KT CAVOK 17/14 Q1013 NOSIG,LIRF,2023-05-30T21:50:00Z,41.78,12.23,17.0,14.0,10,3,,6.21,29.911417,,,,,,TRUE,,,,,CAVOK,,,,,,,,VFR,,,,,,,,,,,,METAR,2.0
LIRA 302150Z 16003KT CAVOK 19/12 Q1014,LIRA,2023-05-30T21:50:00Z,41.8,12.58,19.0,12.0,160,3,,6.21,29.940945,,,,,,,,,,,CAVOK,,,,,,,,VFR,,,,,,,,,,,,METAR,101.0
LIPZ 302150Z 35010KT CAVOK 19/12 Q1017 NOSIG,LIPZ,2023-05-30T21:50:00Z,45.5,12.35,19.0,12.0,350,10,,6.21,30.029528,,,,,,TRUE,,,,,CAVOK,,,,,,,,VFR,,,,,,,,,,,,METAR,3.0
LIPY 302150Z AUTO 18003KT 140V210 9999 NCD 17/14 Q1015,LIPY,2023-05-30T21:50:00Z,43.62,13.37,17.0,14.0,180,3,,6.21,29.970472,,,TRUE,,,,,,,,CLR,,,,,,,,VFR,,,,,,,,,,,,METAR,11.0
LIPX 302150Z 07010KT 040V100 9999 SCT080 22/10 Q1017,LIPX,2023-05-30T21:50:00Z,45.38,10.87,22.0,10.0,70,10,,6.21,30.029528,,,,,,,,,,,SCT,8000,,,,,,,VFR,,,,,,,,,,,,METAR,67.0
LIPR 302150Z AUTO 21003KT 9999 NCD 17/14 Q1015,LIPR,2023-05-30T21:50:00Z,44.02,12.62,17.0,14.0,210,3,,6.21,29.970472,,,TRUE,,,,,,,,CLR,,,,,,,,VFR,,,,,,,,,,,,METAR,10.0
LIPQ 302150Z AUTO 34003KT 9999 BKN210/// 17/15 Q1017,LIPQ,2023-05-30T21:50:00Z,45.82,13.47,17.0,15.0,340,3,,6.21,30.029528,,,TRUE,,,,,,,,BKN,21000,,,,,,,VFR,,,,,,,,,,,,METAR,6.0
LIPO 302150Z AUTO 02008KT 9999 -RA BKN073/// 18/15 Q1017,LIPO,2023-05-30T21:50:00Z,45.42,10.33,18.0,15.0,20,8,,6.21,30.029528,,,TRUE,,,,,,,-RA,BKN,7300,,,,,,,VFR,,,,,,,,,,,,METAR,104.0
LIPE 302150Z 06003KT CAVOK 18/14 Q1016,LIPE,2023-05-30T21:50:00Z,44.52,11.3,18.0,14.0,60,3,,6.21,30.0,,,,,,,,,,,CAVOK,,,,,,,,VFR,,,,,,,,,,,,METAR,37.0
LIMZ 302150Z AUTO VRB02KT 9999 BKN054/// BKN200/// 17/14 Q1016,LIMZ,2023-05-30T21:50:00Z,44.53,7.62,17.0,14.0,0,2,,6.21,30.0,,,TRUE,,,,,,,,BKN,5400,BKN,20000,,,,,VFR,,,,,,,,,,,,METAR,377.0
LIML 302150Z 07009KT 9999 VCTS FEW030CB BKN070 19/14 Q1017 RESHRA TEMPO 4000 TSRA,LIML,2023-05-30T21:50:00Z,45.47,9.27,19.0,14.0,70,9,,6.21,30.029528,,,,,,,,,,VCTS,FEW,3000,BKN,7000,,,,,VFR,,,,,,,,,,,,METAR,109.0
LIMJ 302150Z AUTO 05007KT 020V080 9999 SCT160/// 24/11 Q1014,LIMJ,2023-05-30T21:50:00Z,44.42,8.83,24.0,11.0,50,7,,6.21,29.940945,,,TRUE,,,,,,,,SCT,16000,,,,,,,VFR,,,,,,,,,,,,METAR,3.0
LIMF 302150Z 33013KT 8000 +TSRA BKN030CB OVC050 17/14 Q1017,LIMF,2023-05-30T21:50:00Z,45.22,7.65,17.0,14.0,330,13,,4.97,30.029528,,,,,,,,,,+TSRA,BKN,3000,OVC,5000,,,,,MVFR,,,,,,,,,,,,METAR,295.0
LIME 302150Z AUTO 01005KT 9999 BKN093/// 18/13 Q1017,LIME,2023-05-30T21:50:00Z,45.67,9.7,18.0,13.0,10,5,,6.21,30.029528,,,TRUE,,,,,,,,BKN,9300,,,,,,,VFR,,,,,,,,,,,,METAR,239.0
LIMC 302150Z 01013KT 8000 -TSRA SCT040CB BKN050 17/16 Q1018 NOSIG,LIMC,2023-05-30T21:50:00Z,45.62,8.72,17.0,16.0,10,13,,4.97,30.059055,,,,,,TRUE,,,,-TSRA,SCT,4000,BKN,5000,,,,,MVFR,,,,,,,,,,,,METAR,221.0
LIEO 302150Z 26003KT CAVOK 18/14 Q1014,LIEO,2023-05-30T21:50:00Z,40.88,9.52,18.0,14.0,260,3,,6.21,29.940945,,,,,,,,,,,CAVOK,,,,,,,,VFR,,,,,,,,,,,,METAR,8.0
LIEE 302150Z VRB02KT CAVOK 18/15 Q1013,LIEE,2023-05-30T21:50:00Z,39.25,9.07,18.0,15.0,0,2,,6.21,29.911417,,,,,,,,,,,CAVOK,,,,,,,,VFR,,,,,,,,,,,,METAR,1.0
LIEA 302150Z 30003KT CAVOK 16/15 Q1013,LIEA,2023-05-30T21:50:00Z,40.62,8.28,16.0,15.0,300,3,,6.21,29.911417,,,,,,,,,,,CAVOK,,,,,,,,VFR,,,,,,,,,,,,METAR,22.0
LICR 302150Z AUTO 06003KT 9999 NCD 18/13 Q1014,LICR,2023-05-30T21:50:00Z,38.07,15.65,18.0,13.0,60,3,,6.21,29.940945,,,TRUE,,,,,,,,CLR,,,,,,,,VFR,,,,,,,,,,,,METAR,16.0
LICJ 302150Z 14003KT CAVOK 21/18 Q1013,LICJ,2023-05-30T21:50:00Z,38.17,13.08,21.0,18.0,140,3,,6.21,29.911417,,,,,,,,,,,CAVOK,,,,,,,,VFR,,,,,,,,,,,,METAR,20.0
LICD 302150Z AUTO 04005KT 9999 SCT120/// 20/18 Q1014,LICD,2023-05-30T21:50:00Z,35.5,12.62,20.0,18.0,40,5,,6.21,29.940945,,,TRUE,,,,,,,,SCT,12000,,,,,,,VFR,,,,,,,,,,,,METAR,20.0
LICC 302150Z 08006KT CAVOK 20/19 Q1014,LICC,2023-05-30T21:50:00Z,37.47,15.05,20.0,19.0,80,6,,6.21,29.940945,,,,,,,,,,,CAVOK,,,,,,,,VFR,,,,,,,,,,,,METAR,6.0
LICB 302150Z AUTO 06002KT 9999 BKN160/// 18/15 Q1014,LICB,2023-05-30T21:50:00Z,37.0,14.62,18.0,15.0,60,2,,6.21,29.940945,,,TRUE,,,,,,,,BKN,16000,,,,,,,VFR,,,,,,,,,,,,METAR,212.0
LICA 302150Z AUTO 08005KT 9000 NCD 18/17 Q1014,LICA,2023-05-30T21:50:00Z,38.9,16.25,18.0,17.0,80,5,,5.59,29.940945,,,TRUE,,,,,,,,CLR,,,,,,,,VFR,,,,,,,,,,,,METAR,7.0
LIBR 302150Z 34003KT CAVOK 18/17 Q1014,LIBR,2023-05-30T21:50:00Z,40.65,17.95,18.0,17.0,340,3,,6.21,29.940945,,,,,,,,,,,CAVOK,,,,,,,,VFR,,,,,,,,,,,,METAR,5.0
LIBP 302150Z AUTO 24005KT 9999 BKN120/// BKN160/// 17/16 Q1015,LIBP,2023-05-30T21:50:00Z,42.42,14.18,17.0,16.0,240,5,,6.21,29.970472,,,TRUE,,,,,,,,BKN,12000,BKN,16000,,,,,VFR,,,,,,,,,,,,METAR,10.0
LIBD 302150Z 21003KT 9999 FEW030 16/15 Q1015,LIBD,2023-05-30T21:50:00Z,41.13,16.77,16.0,15.0,210,3,,6.21,29.970472,,,,,,,,,,,FEW,3000,,,,,,,VFR,,,,,,,,,,,,METAR,42.0
LGTS 302150Z VRB03KT 9999 FEW025 18/18 Q1015 NOSIG,LGTS,2023-05-30T21:50:00Z,40.52,22.97,18.0,18.0,0,3,,6.21,29.970472,,,,,,TRUE,,,,,FEW,2500,,,,,,,VFR,,,,,,,,,,,,METAR,4.0
LGSR 302150Z 25004KT 9999 FEW025 19/18 Q1015,LGSR,2023-05-30T21:50:00Z,36.4,25.48,19.0,18.0,250,4,,6.21,29.970472,,,,,,,,,,,FEW,2500,,,,,,,VFR,,,,,,,,,,,,METAR,31.0
LGSO 302150Z AUTO 08004KT 040V100 //// -RA ////// 19/15 Q1015 RE//,LGSO,2023-05-30T21:50:00Z,37.42,24.95,19.0,15.0,80,4,,,29.970472,,,TRUE,,,,,,,-RA,,,,,,,,,,,,,,,,,,,,,METAR,71.0
LGSA 302150Z VRB03KT 9999 FEW018 19/17 Q1014,LGSA,2023-05-30T21:50:00Z,35.53,24.13,19.0,17.0,0,3,,6.21,29.940945,,,,,,,,,,,FEW,1800,,,,,,,VFR,,,,,,,,,,,,METAR,122.0
LGRX 302150Z 00000KT 9999 FEW020 21/16 Q1015,LGRX,2023-05-30T21:50:00Z,38.17,21.42,21.0,16.0,0,0,,6.21,29.970472,,,,,,,,,,,FEW,2000,,,,,,,VFR,,,,,,,,,,,,METAR,16.0
LGRP 302150Z VRB03KT 9999 FEW018 SCT020 19/17 Q1014 NOSIG,LGRP,2023-05-30T21:50:00Z,36.4,28.08,19.0,17.0,0,3,,6.21,29.940945,,,,,,TRUE,,,,,FEW,1800,SCT,2000,,,,,VFR,,,,,,,,,,,,METAR,3.0
LGPZ 302150Z 06008KT 9999 FEW025 SCT080 19/17 Q1015,LGPZ,2023-05-30T21:50:00Z,38.92,20.77,19.0,17.0,60,8,,6.21,29.970472,,,,,,,,,,,FEW,2500,SCT,8000,,,,,VFR,,,,,,,,,,,,METAR,3.0
LGPA 302150Z AUTO 06004KT //// // ////// 17/14 Q1015 RE//,LGPA,2023-05-30T21:50:00Z,37.02,25.1,17.0,14.0,60,4,,,29.970472,,,TRUE,,,,,,,,,,,,,,,,,,,,,,,,,,,,METAR,42.0
LGLM 302150Z 35005KT CAVOK 17/16 Q1015,LGLM,2023-05-30T21:50:00Z,39.92,25.23,17.0,16.0,350,5,,6.21,29.970472,,,,,,,,,,,CAVOK,,,,,,,,VFR,,,,,,,,,,,,METAR,4.0
LGKZ 302150Z AUTO VRB03KT //// // ////// 13/12 Q1017 RE//,LGKZ,2023-05-30T21:50:00Z,40.28,21.83,13.0,12.0,0,3,,,30.029528,,,TRUE,,,,,,,,,,,,,,,,,,,,,,,,,,,,METAR,615.0
LGKR 302150Z 00000KT 9999 FEW025 20/18 Q1014 NOSIG,LGKR,2023-05-30T21:50:00Z,39.62,19.92,20.0,18.0,0,0,,6.21,29.940945,,,,,,TRUE,,,,,FEW,2500,,,,,,,VFR,,,,,,,,,,,,METAR,2.0
LGKO 302150Z 17003KT 9999 FEW014 18/15 Q1015,LGKO,2023-05-30T21:50:00Z,36.8,27.08,18.0,15.0,170,3,,6.21,29.970472,,,,,,,,,,,FEW,1400,,,,,,,VFR,,,,,,,,,,,,METAR,130.0
LGKL 302150Z AUTO VRB03KT //// // ////// 16/15 Q1014 RE//,LGKL,2023-05-30T21:50:00Z,37.07,22.02,16.0,15.0,0,3,,,29.940945,,,TRUE,,,,,,,,,,,,,,,,,,,,,,,,,,,,METAR,4.0
LGIR 302150Z 19004KT 9999 FEW020 17/16 Q1015 NOSIG,LGIR,2023-05-30T21:50:00Z,35.33,25.17,17.0,16.0,190,4,,6.21,29.970472,,,,,,TRUE,,,,,FEW,2000,,,,,,,VFR,,,,,,,,,,,,METAR,37.0
LGEL 302150Z VRB02KT 9999 FEW025 18/15 Q1015,LGEL,2023-05-30T21:50:00Z,38.07,23.55,18.0,15.0,0,2,,6.21,29.970472,,,,,,,,,,,FEW,2500,,,,,,,VFR,,,,,,,,,,,,METAR,21.0
LGBL 302150Z 00000KT 9999 FEW030 16/15 Q1015,LGBL,2023-05-30T21:50:00Z,39.22,22.8,16.0,15.0,0,0,,6.21,29.970472,,,,,,,,,,,FEW,3000,,,,,,,VFR,,,,,,,,,,,,METAR,13.0
LGAV 302150Z 00000KT 9999 FEW025 18/14 Q1016 NOSIG,LGAV,2023-05-30T21:50:00Z,37.93,23.95,18.0,14.0,0,0,,6.21,30.0,,,,,,TRUE,,,,,FEW,2500,,,,,,,VFR,,,,,,,,,,,,METAR,83.0
LGAL 302150Z 00000KT 9999 SCT030 18/16 Q1015,LGAL,2023-05-30T21:50:00Z,40.85,25.95,18.0,16.0,0,0,,6.21,29.970472,,,,,,,,,,,SCT,3000,,,,,,,VFR,,,,,,,,,,,,METAR,5.0
LGAD 302150Z 00000KT 9999 FEW020TCU 17/16 Q1014,LGAD,2023-05-30T21:50:00Z,37.92,21.28,17.0,16.0,0,0,,6.21,29.940945,,,,,,,,,,,FEW,2000,,,,,,,VFR,,,,,,,,,,,,METAR,8.0
LCRA 302150Z 28003KT 9999 SKC 19/16 Q1014 NOSIG,LCRA,2023-05-30T21:50:00Z,34.58,32.98,19.0,16.0,280,3,,6.21,29.940945,,,,,,TRUE,,,,,SKC,,,,,,,,VFR,,,,,,,,,,,,METAR,23.0
LCEN 302150Z 29006KT 9999 FEW020 18/16 Q1015 NOSIG,LCEN,2023-05-30T21:50:00Z,35.15,33.5,18.0,16.0,290,6,,6.21,29.970472,,,,,,TRUE,,,,,FEW,2000,,,,,,,VFR,,,,,,,,,,,,METAR,91.0
LATI 302150Z VRB03KT 9999 FEW120 17/16 Q1015 NOSIG,LATI,2023-05-30T21:50:00Z,41.42,19.72,17.0,16.0,0,3,,6.21,29.970472,,,,,,TRUE,,,,,FEW,12000,,,,,,,VFR,,,,,,,,,,,,METAR,32.0
KWHP 302150Z 18008KT 10SM BKN030 18/09 A2998 RMK OBSERVER PT.,KWHP,2023-05-30T21:50:00Z,34.25,-118.42,18.0,9.0,180,8,,10.0,29.97933,,,,,,,,,,,BKN,3000,,,,,,,MVFR,,,,,,,,,,,,METAR,302.0
KVQQ 302150Z 07007KT 10SM SCT065 28/21 A2988,KVQQ,2023-05-30T21:50:00Z,30.22,-81.88,28.0,21.0,70,7,,10.0,29.878937,,,,,,,,,,,SCT,6500,,,,,,,VFR,,,,,,,,,,,,METAR,21.0
KUCY 302150Z AUTO 07004G17KT 10SM BKN070 BKN085 30/14 A2990 RMK A01,KUCY,2023-05-30T21:50:00Z,36.38,-88.98,30.0,14.0,70,4,17,10.0,29.899607,,,TRUE,TRUE,,,,,,,BKN,7000,BKN,8500,,,,,VFR,,,,,,,,,,,,METAR,97.0
KTRK 302150Z 01006KT 10SM VCTS SCT070 BKN090CB 14/08 A3000 RMK TS VC NE MOV N,KTRK,2023-05-30T21:50:00Z,39.32,-120.13,14.0,8.0,10,6,,10.0,30.0,,,,,,,,,,VCTS,SCT,7000,BKN,9000,,,,,VFR,,,,,,,,,,,,METAR,1800.0
KSUT 302150Z AUTO 07008KT 10SM CLR 26/18 A2996 RMK AO2 T02630180,KSUT,2023-05-30T21:50:00Z,33.93,-78.08,26.3,18.0,70,8,,10.0,29.958662,,,TRUE,TRUE,,,,,,,CLR,,,,,,,,VFR,,,,,,,,,,,,METAR,6.0
KSUN 302150Z 32008KT 10SM -RA BKN070 BKN085 18/12 A2996,KSUN,2023-05-30T21:50:00Z,43.5,-114.28,18.0,12.0,320,8,,10.0,29.958662,,,,,,,,,,-RA,BKN,7000,BKN,8500,,,,,VFR,,,,,,,,,,,,METAR,1619.0
KRYY 302150Z VRB05G15KT 10SM OVC090 26/13 A2997 RMK AO2 SLP139 T02560133 $,KRYY,2023-05-30T21:50:00Z,34.02,-84.6,25.6,13.3,0,5,15,10.0,29.970472,1013.9,,,TRUE,TRUE,,,,,,OVC,9000,,,,,,,VFR,,,,,,,,,,,,METAR,306.0
KRHP 302150Z AUTO 25007KT 10SM SCT065 BKN090 25/14 A2999 RMK AO2 T02500138,KRHP,2023-05-30T21:50:00Z,35.18,-83.85,25.0,13.8,250,7,,10.0,29.991142,,,TRUE,TRUE,,,,,,,SCT,6500,BKN,9000,,,,,VFR,,,,,,,,,,,,METAR,515.0
KRCZ 302150Z AUTO 02010KT 10SM SCT037 SCT043 SCT055 25/17 A2998 RMK AO2 T02540169,KRCZ,2023-05-30T21:50:00Z,34.88,-79.77,25.4,16.9,20,10,,10.0,29.97933,,,TRUE,TRUE,,,,,,,SCT,3700,SCT,4300,SCT,5500,,,VFR,,,,,,,,,,,,METAR,110.0
KQFW 302150Z AUTO 01006KT 9999 FEW046 BKN160 BKN1100 14/11 A2976 RMK A02 TSNO,KQFW,2023-05-30T21:50:00Z,,,14.0,11.0,10,6,,6.21,29.760826,,,TRUE,TRUE,,,TRUE,,,,FEW,4600,BKN,16000,,,,,VFR,,,,,,,,,,,,METAR,
KQFT 302150Z AUTO 35003KT 9999 OVC150 18/14 A2989 RMK A02 TSNO,KQFT,2023-05-30T21:50:00Z,,,18.0,14.0,350,3,,6.21,29.890747,,,TRUE,TRUE,,,TRUE,,,,OVC,15000,,,,,,,VFR,,,,,,,,,,,,METAR,
KQFB 302150Z AUTO 29003KT 9999 BKN150 17/14 A2995 RMK A02 TSNO,KQFB,2023-05-30T21:50:00Z,,,17.0,14.0,290,3,,6.21,29.949802,,,TRUE,TRUE,,,TRUE,,,,BKN,15000,,,,,,,VFR,,,,,,,,,,,,METAR,
KQEY 302150Z AUTO 09002KT 9999 BKN150 17/13 A2961 RMK A02 TSNO,KQEY,2023-05-30T21:50:00Z,,,17.0,13.0,90,2,,6.21,29.610237,,,TRUE,TRUE,,,TRUE,,,,BKN,15000,,,,,,,VFR,,,,,,,,,,,,METAR,
KQEX 302150Z AUTO 01001KT 9999 CLR 25/17 / RMK A02 TSNO,KQEX,2023-05-30T21:50:00Z,,,25.0,17.0,10,1,,6.21,,,,TRUE,TRUE,,,TRUE,,,,CLR,,,,,,,,VFR,,,,,,,,,,,,METAR,
KQEV 302150Z AUTO 08004KT 9999 OVC031 18/11 A2985 RMK A02 TSNO,KQEV,2023-05-30T21:50:00Z,,,18.0,11.0,80,4,,6.21,29.84941,,,TRUE,TRUE,,,TRUE,,,,OVC,3100,,,,,,,VFR,,,,,,,,,,,,METAR,
KQER 302150Z AUTO 17002KT 4800 HZ BKN160 15/12 A2987 RMK A02 TSNO,KQER,2023-05-30T21:50:00Z,,,15.0,12.0,170,2,,2.98,29.870079,,,TRUE,TRUE,,,TRUE,,,HZ,BKN,16000,,,,,,,IFR,,,,,,,,,,,,METAR,
KQEJ 302150Z AUTO 02001KT 9999 SCT170 BKN210 14/11 A2991 RMK A02 TSNO,KQEJ,2023-05-30T21:50:00Z,,,14.0,11.0,20,1,,6.21,29.911417,,,TRUE,TRUE,,,TRUE,,,,SCT,17000,BKN,21000,,,,,VFR,,,,,,,,,,,,METAR,
KQEI 302150Z AUTO 00000KT 9999 BKN160 12/11 A2993 RMK A02 TSNO,KQEI,2023-05-30T21:50:00Z,,,12.0,11.0,0,0,,6.21,29.929134,,,TRUE,TRUE,,,TRUE,,,,BKN,16000,,,,,,,VFR,,,,,,,,,,,,METAR,
KOQU 302150Z 19011KT 10SM SKC 18/08 A3022,KOQU,2023-05-30T21:50:00Z,41.6,-71.42,18.0,8.0,190,11,,10.0,30.221457,,,,,,,,,,,SKC,,,,,,,,VFR,,,,,,,,,,,,METAR,6.0
KOMN 302150Z 10007KT 7SM CLR 28/18 A2989,KOMN,2023-05-30T21:50:00Z,29.3,-81.12,28.0,18.0,100,7,,7.0,29.890747,,,,,,,,,,,CLR,,,,,,,,VFR,,,,,,,,,,,,METAR,7.0
KOLV 302150Z 05008KT 10SM BKN090 28/14 A2992,KOLV,2023-05-30T21:50:00Z,34.98,-89.78,28.0,14.0,50,8,,10.0,29.920275,,,,,,,,,,,BKN,9000,,,,,,,VFR,,,,,,,,,,,,METAR,124.0
KNQA 302150Z 18003KT 10SM FEW085 29/14 A2990,KNQA,2023-05-30T21:50:00Z,35.35,-89.87,29.0,14.0,180,3,,10.0,29.899607,,,,,,,,,,,FEW,8500,,,,,,,VFR,,,,,,,,,,,,METAR,90.0
KMRC 302150Z AUTO 00000KT 10SM FEW070 27/14 A2992 RMK A01,KMRC,2023-05-30T21:50:00Z,35.55,-87.18,27.0,14.0,0,0,,10.0,29.920275,,,TRUE,TRUE,,,,,,,FEW,7000,,,,,,,VFR,,,,,,,,,,,,METAR,205.0
KMQI 302150Z AUTO 03007KT 10SM BKN120 20/17 A3002 RMK AO2 T02000171,KMQI,2023-05-30T21:50:00Z,35.92,-75.7,20.0,17.1,30,7,,10.0,30.02067,,,TRUE,TRUE,,,,,,,BKN,12000,,,,,,,VFR,,,,,,,,,,,,METAR,3.0
KMHR 302150Z AUTO 23012G18KT 10SM CLR 23/08 A2987 RMK AO2 LTG DSNT NE,KMHR,2023-05-30T21:50:00Z,38.55,-121.28,23.0,8.0,230,12,18,10.0,29.870079,,,TRUE,TRUE,,,,,,,CLR,,,,,,,,VFR,,,,,,,,,,,,METAR,30.0
KM91 302150Z AUTO 00000KT 10SM FEW060 FEW070 28/16 A2993 RMK A01,KM91,2023-05-30T21:50:00Z,36.53,-86.92,28.0,16.0,0,0,,10.0,29.929134,,,TRUE,TRUE,,,,,,,FEW,6000,FEW,7000,,,,,VFR,,,,,,,,,,,,METAR,214.0
KM04 302150Z AUTO 08006KT 10SM BKN090 30/14 A2991 RMK A01,KM04,2023-05-30T21:50:00Z,35.58,-89.58,30.0,14.0,80,6,,10.0,29.911417,,,TRUE,TRUE,,,,,,,BKN,9000,,,,,,,VFR,,,,,,,,,,,,METAR,83.0
KLHZ 302150Z AUTO 02006KT 10SM OVC014 18/16 A3008 RMK AO2,KLHZ,2023-05-30T21:50:00Z,36.02,-78.33,18.0,16.0,20,6,,10.0,30.079725,,,TRUE,TRUE,,,,,,,OVC,1400,,,,,,,MVFR,,,,,,,,,,,,METAR,104.0
KJWN 302150Z 06003KT 10SM CLR 28/14 A2992,KJWN,2023-05-30T21:50:00Z,36.18,-86.88,28.0,14.0,60,3,,10.0,29.920275,,,,,,,,,,,CLR,,,,,,,,VFR,,,,,,,,,,,,METAR,149.0
KJQF 302150Z 09010KT 7SM SCT026 BKN032 21/17 A3005,KJQF,2023-05-30T21:50:00Z,35.38,-80.72,21.0,17.0,90,10,,7.0,30.050198,,,,,,,,,,,SCT,2600,BKN,3200,,,,,VFR,,,,,,,,,,,,METAR,204.0
KIXA 302150Z AUTO 03008KT 10SM SCT010 OVC020 17/17 A3006 RMK AO2,KIXA,2023-05-30T21:50:00Z,36.33,-77.63,17.0,17.0,30,8,,10.0,30.059055,,,TRUE,TRUE,,,,,,,SCT,1000,OVC,2000,,,,,MVFR,,,,,,,,,,,,METAR,43.0
KHXD 302150Z 10009G14KT 10SM CLR 25/21 A2995,KHXD,2023-05-30T21:50:00Z,32.22,-80.7,25.0,21.0,100,9,14,10.0,29.949802,,,,,,,,,,,CLR,,,,,,,,VFR,,,,,,,,,,,,METAR,5.0
KHQZ 302150Z 00000KT 7SM SCT042 BKN085 28/20 A2991,KHQZ,2023-05-30T21:50:00Z,32.75,-96.53,28.0,20.0,0,0,,7.0,29.911417,,,,,,,,,,,SCT,4200,BKN,8500,,,,,VFR,,,,,,,,,,,,METAR,136.0
KHOB 302150Z 17007KT 10SM SCT120 34/01 A2988,KHOB,2023-05-30T21:50:00Z,32.67,-103.22,34.0,1.0,170,7,,10.0,29.878937,,,,,,,,,,,SCT,12000,,,,,,,VFR,,,,,,,,,,,,METAR,1112.0
KHNZ 302150Z AUTO 04010KT 7SM BKN010 OVC015 17/17 A3008 RMK AO2 T01670166,KHNZ,2023-05-30T21:50:00Z,36.37,-78.53,16.7,16.6,40,10,,7.0,30.079725,,,TRUE,TRUE,,,,,,,BKN,1000,OVC,1500,,,,,MVFR,,,,,,,,,,,,METAR,158.0
KGYI 302150Z 16003KT 10SM CLR 27/23 A2993,KGYI,2023-05-30T21:50:00Z,33.72,-96.67,27.0,23.0,160,3,,10.0,29.929134,,,,,,,,,,,CLR,,,,,,,,VFR,,,,,,,,,,,,METAR,227.0
KGWW 302150Z AUTO 01017G20KT 10SM SCT022 BKN028 22/17 A3003 RMK AO2 T02220174,KGWW,2023-05-30T21:50:00Z,35.47,-77.97,22.2,17.4,10,17,20,10.0,30.029528,,,TRUE,TRUE,,,,,,,SCT,2200,BKN,2800,,,,,MVFR,,,,,,,,,,,,METAR,40.0
KGPM 302150Z 09006KT 10SM SKC 28/17 A2991,KGPM,2023-05-30T21:50:00Z,32.7,-97.05,28.0,17.0,90,6,,10.0,29.911417,,,,,,,,,,,SKC,,,,,,,,VFR,,,,,,,,,,,,METAR,178.0
KGOO 302150Z AUTO VRB05KT 10SM FEW032 20/10 A2994 RMK A01,KGOO,2023-05-30T21:50:00Z,39.22,-121.0,20.0,10.0,0,5,,10.0,29.940945,,,TRUE,TRUE,,,,,,,FEW,3200,,,,,,,VFR,,,,,,,,,,,,METAR,950.0
KFIN 302150Z 14012KT 10SM CLR 28/18 A2989,KFIN,2023-05-30T21:50:00Z,29.47,-81.2,28.0,18.0,140,12,,10.0,29.890747,,,,,,,,,,,CLR,,,,,,,,VFR,,,,,,,,,,,,SPECI,10.0
KFFA 302150Z AUTO 01005KT 10SM BKN110 19/17 A3000 RMK AO2 T01930171,KFFA,2023-05-30T21:50:00Z,36.02,-75.67,19.3,17.1,10,5,,10.0,30.0,,,TRUE,TRUE,,,,,,,BKN,11000,,,,,,,VFR,,,,,,,,,,,,METAR,2.0
KFDK 302150Z 10009KT 10SM CLR 27/07 A3011,KFDK,2023-05-30T21:50:00Z,39.42,-77.37,27.0,7.0,100,9,,10.0,30.109253,,,,,,,,,,,CLR,,,,,,,,VFR,,,,,,,,,,,,METAR,82.0
KEYF 302150Z AUTO 07006G15KT 10SM SCT034 BKN043 BKN060 25/18 A2998 RMK AO2 T02540177,KEYF,2023-05-30T21:50:00Z,34.6,-78.58,25.4,17.7,70,6,15,10.0,29.97933,,,TRUE,TRUE,,,,,,,SCT,3400,BKN,4300,BKN,6000,,,VFR,,,,,,,,,,,,METAR,39.0
KEXX 302150Z AUTO 04006KT 10SM SCT035 BKN043 BKN049 23/16 A3003 RMK AO2 T02330160,KEXX,2023-05-30T21:50:00Z,35.78,-80.3,23.3,16.0,40,6,,10.0,30.029528,,,TRUE,TRUE,,,,,,,SCT,3500,BKN,4300,BKN,4900,,,VFR,,,,,,,,,,,,METAR,221.0
KEVB 302150Z 14013KT 10SM FEW030 28/19 A2990,KEVB,2023-05-30T21:50:00Z,29.05,-80.95,28.0,19.0,140,13,,10.0,29.899607,,,,,,,,,,,FEW,3000,,,,,,,VFR,,,,,,,,,,,,METAR,2.0
KDPG 302150Z 15006KT 35SM SCT120 SCT170 26/M04 A2990 RMK SLP078 T02651037,KDPG,2023-05-30T21:50:00Z,40.2,-112.93,26.5,-3.7,150,6,,35.0,29.899607,1007.8,,,,,,,,,,SCT,12000,SCT,17000,,,,,VFR,,,,,,,,,,,,METAR,1324.0
KDAG 302150Z AUTO 35005KT 10SM CLR 29/01 A2979 RMK AO2 SLP066 T02890006,KDAG,2023-05-30T21:50:00Z,34.85,-116.78,28.9,0.6,350,5,,10.0,29.790354,1006.6,,TRUE,TRUE,,,,,,,CLR,,,,,,,,VFR,,,,,,,,,,,,METAR,584.0
KCGS 302150Z AUTO 07006KT 10SM CLR 23/12 A3012 RMK AO2 T02270125,KCGS,2023-05-30T21:50:00Z,38.98,-76.92,22.7,12.5,70,6,,10.0,30.121063,,,TRUE,TRUE,,,,,,,CLR,,,,,,,,VFR,,,,,,,,,,,,METAR,15.0
KALN 302150Z 15004KT 10SM SCT075 29/12 A2992,KALN,2023-05-30T21:50:00Z,38.88,-90.03,29.0,12.0,150,4,,10.0,29.920275,,,,,,,,,,,SCT,7500,,,,,,,VFR,,,,,,,,,,,,METAR,159.0
KAFP 302150Z AUTO 06007KT 030V090 10SM CLR 26/17 A2999 RMK AO2 T02560169,KAFP,2023-05-30T21:50:00Z,35.02,-80.08,25.6,16.9,60,7,,10.0,29.991142,,,TRUE,TRUE,,,,,,,CLR,,,,,,,,VFR,,,,,,,,,,,,METAR,91.0
KADM 302150Z 13010KT 10SM CLR 30/19 A2989,KADM,2023-05-30T21:50:00Z,34.3,-97.02,30.0,19.0,130,10,,10.0,29.890747,,,,,,,,,,,CLR,,,,,,,,VFR,,,,,,,,,,,,METAR,223.0
K2M2 302150Z AUTO VRB03KT 10SM CLR 27/15 A2994 RMK A01,K2M2,2023-05-30T21:50:00Z,35.23,-87.25,27.0,15.0,0,3,,10.0,29.940945,,,TRUE,TRUE,,,,,,,CLR,,,,,,,,VFR,,,,,,,,,,,,METAR,286.0
K1A5 302150Z AUTO 13004KT 10SM BKN090 24/14 A3005 RMK AO2 T02370135,K1A5,2023-05-30T21:50:00Z,35.22,-83.42,23.7,13.5,130,4,,10.0,30.050198,,,TRUE,TRUE,,,,,,,BKN,9000,,,,,,,VFR,,,,,,,,,,,,METAR,611.0
EYVI 302150Z 02009KT CAVOK 11/04 Q1021 NOSIG,EYVI,2023-05-30T21:50:00Z,54.63,25.28,11.0,4.0,20,9,,6.21,30.147638,,,,,,TRUE,,,,,CAVOK,,,,,,,,VFR,,,,,,,,,,,,METAR,180.0
EYSA 302150Z 29003KT CAVOK 06/02 Q1024 NOSIG,EYSA,2023-05-30T21:50:00Z,55.9,23.4,6.0,2.0,290,3,,6.21,30.236221,,,,,,TRUE,,,,,CAVOK,,,,,,,,VFR,,,,,,,,,,,,METAR,135.0
EYPA 302150Z AUTO 00000KT 9999 NCD 05/04 Q1025,EYPA,2023-05-30T21:50:00Z,55.97,21.08,5.0,4.0,0,0,,6.21,30.265747,,,TRUE,,,,,,,,CLR,,,,,,,,VFR,,,,,,,,,,,,METAR,15.0
EYKA 302150Z AUTO 36004KT 9999 NCD 10/04 Q1022,EYKA,2023-05-30T21:50:00Z,54.97,24.08,10.0,4.0,360,4,,6.21,30.177166,,,TRUE,,,,,,,,CLR,,,,,,,,VFR,,,,,,,,,,,,METAR,68.0
EVVA 302150Z AUTO VRB01KT CAVOK 03/03 Q1024,EVVA,2023-05-30T21:50:00Z,57.35,21.55,3.0,3.0,0,1,,6.21,30.236221,,,TRUE,,,,,,,,CAVOK,,,,,,,,VFR,,,,,,,,,,,,METAR,1.0
EVRA 302150Z VRB02KT CAVOK 08/05 Q1022 NOSIG,EVRA,2023-05-30T21:50:00Z,56.92,23.97,8.0,5.0,0,2,,6.21,30.177166,,,,,,TRUE,,,,,CAVOK,,,,,,,,VFR,,,,,,,,,,,,METAR,7.0
EVLA 302150Z AUTO 00000KT 1400 R24/P2000N R06/1100U BR NCD 03/03 Q1024,EVLA,2023-05-30T21:50:00Z,56.52,21.1,3.0,3.0,0,0,,0.87,30.236221,,,TRUE,,,,,,,BR,CLR,,,,,,,,LIFR,,,,,,,,,,,,METAR,5.0
EVGA 302150Z VRB02KT CAVOK 08/05 Q1022 NOSIG,EVGA,2023-05-30T21:50:00Z,56.78,24.85,8.0,5.0,0,2,,6.21,30.177166,,,,,,TRUE,,,,,CAVOK,,,,,,,,VFR,,,,,,,,,,,,METAR,61.0
ETNG 302150Z 04005KT CAVOK 14/10 Q1024,ETNG,2023-05-30T21:50:00Z,50.97,6.03,14.0,10.0,40,5,,6.21,30.236221,,,,,,,,,,,CAVOK,,,,,,,,VFR,,,,,,,,,,,,SPECI,76.0
ESUT 302150Z AUTO 33009KT 300V360 9999 -RA BKN015/// BKN021/// OVC029/// 05/05 Q1006,ESUT,2023-05-30T21:50:00Z,65.8,15.08,5.0,5.0,330,9,,6.21,29.704725,,,TRUE,,,,,,,-RA,BKN,1500,BKN,2100,OVC,2900,,,MVFR,,,,,,,,,,,,METAR,457.0
ESUP 302150Z AUTO 19006KT 150V220 9999 OVC067/// 06/03 Q1002,ESUP,2023-05-30T21:50:00Z,67.25,23.07,6.0,3.0,190,6,,6.21,29.586615,,,TRUE,,,,,,,,OVC,6700,,,,,,,VFR,,,,,,,,,,,,METAR,164.0
ESTL 302150Z AUTO 00000KT 9999 NCD 09/06 Q1026,ESTL,2023-05-30T21:50:00Z,56.07,13.2,9.0,6.0,0,0,,6.21,30.295275,,,TRUE,,,,,,,,CLR,,,,,,,,VFR,,,,,,,,,,,,METAR,39.0
ESTA 302150Z AUTO 04002KT 9999 NCD 08/05 Q1026,ESTA,2023-05-30T21:50:00Z,56.28,12.83,8.0,5.0,40,2,,6.21,30.295275,,,TRUE,,,,,,,,CLR,,,,,,,,VFR,,,,,,,,,,,,METAR,19.0
ESSV 302150Z AUTO 20011KT 9999 NCD 09/08 Q1023,ESSV,2023-05-30T21:50:00Z,57.67,18.35,9.0,8.0,200,11,,6.21,30.206694,,,TRUE,,,,,,,,CLR,,,,,,,,VFR,,,,,,,,,,,,METAR,38.0
ESST 302150Z AUTO VRB02KT 9999 NCD 13/05 Q1019,ESST,2023-05-30T21:50:00Z,60.15,12.98,13.0,5.0,0,2,,6.21,30.088583,,,TRUE,,,,,,,,CLR,,,,,,,,VFR,,,,,,,,,,,,METAR,110.0
ESSP 302150Z AUTO 22006KT 9999 NCD 13/01 Q1021,ESSP,2023-05-30T21:50:00Z,58.58,16.25,13.0,1.0,220,6,,6.21,30.147638,,,TRUE,,,,,,,,CLR,,,,,,,,VFR,,,,,,,,,,,,METAR,3.0
ESSL 302150Z 23007KT CAVOK 13/02 Q1022,ESSL,2023-05-30T21:50:00Z,58.4,15.67,13.0,2.0,230,7,,6.21,30.177166,,,,,,,,,,,CAVOK,,,,,,,,VFR,,,,,,,,,,,,METAR,51.0
ESSD 302150Z AUTO 23008KT 9999 NCD 15/04 Q1017,ESSD,2023-05-30T21:50:00Z,60.42,15.5,15.0,4.0,230,8,,6.21,30.029528,,,TRUE,,,,,,,,CLR,,,,,,,,VFR,,,,,,,,,,,,METAR,151.0
ESSB 302150Z AUTO 20006KT 9999 NCD 12/05 Q1020,ESSB,2023-05-30T21:50:00Z,59.35,17.93,12.0,5.0,200,6,,6.21,30.11811,,,TRUE,,,,,,,,CLR,,,,,,,,VFR,,,,,,,,,,,,METAR,14.0
ESSA 302150Z 19007KT CAVOK 10/04 Q1019 NOSIG,ESSA,2023-05-30T21:50:00Z,59.65,17.93,10.0,4.0,190,7,,6.21,30.088583,,,,,,TRUE,,,,,CAVOK,,,,,,,,VFR,,,,,,,,,,,,METAR,36.0
ESOW 302150Z AUTO 21007KT 9999 NCD 14/03 Q1019,ESOW,2023-05-30T21:50:00Z,59.58,16.63,14.0,3.0,210,7,,6.21,30.088583,,,TRUE,,,,,,,,CLR,,,,,,,,VFR,,,,,,,,,,,,METAR,7.0
ESOK 302150Z AUTO 23008KT 9999 NCD 13/04 Q1020,ESOK,2023-05-30T21:50:00Z,59.45,13.33,13.0,4.0,230,8,,6.21,30.11811,,,TRUE,,,,,,,,CLR,,,,,,,,VFR,,,,,,,,,,,,METAR,101.0
ESOH 302150Z AUTO 13005KT 100V160 9999 NCD 13/05 Q1019,ESOH,2023-05-30T21:50:00Z,60.02,13.58,13.0,5.0,130,5,,6.21,30.088583,,,TRUE,,,,,,,,CLR,,,,,,,,VFR,,,,,,,,,,,,METAR,145.0
ESOE 302150Z 24012KT CAVOK 14/05 Q1020,ESOE,2023-05-30T21:50:00Z,59.22,15.05,14.0,5.0,240,12,,6.21,30.11811,,,,,,,,,,,CAVOK,,,,,,,,VFR,,,,,,,,,,,,METAR,57.0
ESNZ 302150Z AUTO 25010KT 9999 OVC033/// 09/M05 Q1015,ESNZ,2023-05-30T21:50:00Z,63.18,14.5,9.0,-5.0,250,10,,6.21,29.970472,,,TRUE,,,,,,,,OVC,3300,,,,,,,VFR,,,,,,,,,,,,METAR,360.0
ESNX 302150Z AUTO 23011KT 190V250 9999 OVC055/// 08/04 Q1005,ESNX,2023-05-30T21:50:00Z,65.58,19.28,8.0,4.0,230,11,,6.21,29.675198,,,TRUE,,,,,,,,OVC,5500,,,,,,,VFR,,,,,,,,,,,,METAR,380.0
ESNV 302150Z AUTO 24013KT 200V260 8000 FEW019/// SCT027/// OVC038/// 08/05 Q1010,ESNV,2023-05-30T21:50:00Z,64.58,16.83,8.0,5.0,240,13,,4.97,29.822834,,,TRUE,,,,,,,,FEW,1900,SCT,2700,OVC,3800,,,MVFR,,,,,,,,,,,,METAR,348.0
ESNU 302150Z 24009KT 9999 FEW039 BKN092 12/05 Q1011,ESNU,2023-05-30T21:50:00Z,63.78,20.28,12.0,5.0,240,9,,6.21,29.852362,,,,,,,,,,,FEW,3900,BKN,9200,,,,,VFR,,,,,,,,,,,,METAR,8.0
ESNS 302150Z AUTO 24013KT 9999 FEW037/// OVC110/// 12/05 Q1008,ESNS,2023-05-30T21:50:00Z,64.62,21.07,12.0,5.0,240,13,,6.21,29.763779,,,TRUE,,,,,,,,FEW,3700,OVC,11000,,,,,VFR,,,,,,,,,,,,METAR,41.0
ESNQ 302150Z AUTO 21015KT 9999 BKN025/// OVC034/// 06/03 Q0999,ESNQ,2023-05-30T21:50:00Z,67.82,20.33,6.0,3.0,210,15,,6.21,29.498032,,,TRUE,,,,,,,,BKN,2500,OVC,3400,,,,,MVFR,,,,,,,,,,,,METAR,447.0
ESNO 302150Z AUTO 24009KT 9999 -DZ OVC072/// 10/07 Q1013 REDZ,ESNO,2023-05-30T21:50:00Z,63.4,18.97,10.0,7.0,240,9,,6.21,29.911417,,,TRUE,,,,,,,-DZ,OVC,7200,,,,,,,VFR,,,,,,,,,,,,METAR,100.0
ESNN 302150Z AUTO VRB03KT 9999 FEW110/// 09/06 Q1015,ESNN,2023-05-30T21:50:00Z,62.52,17.43,9.0,6.0,0,3,,6.21,29.970472,,,TRUE,,,,,,,,FEW,11000,,,,,,,VFR,,,,,,,,,,,,METAR,4.0
ESNL 302150Z AUTO 24008KT 200V280 9999 BKN024/// OVC054/// 09/05 Q1010,ESNL,2023-05-30T21:50:00Z,64.55,18.72,9.0,5.0,240,8,,6.21,29.822834,,,TRUE,,,,,,,,BKN,2400,OVC,5400,,,,,MVFR,,,,,,,,,,,,METAR,220.0
ESNK 302150Z AUTO 20003KT 170V230 9999 SCT059/// BKN082/// OVC100/// 12/05 Q1014,ESNK,2023-05-30T21:50:00Z,63.03,17.77,12.0,5.0,200,3,,6.21,29.940945,,,TRUE,,,,,,,,SCT,5900,BKN,8200,OVC,10000,,,VFR,,,,,,,,,,,,METAR,4.0
ESNG 302150Z AUTO 21012KT 9999 OVC070/// 08/03 Q1001,ESNG,2023-05-30T21:50:00Z,67.13,20.82,8.0,3.0,210,12,,6.21,29.557087,,,TRUE,,,,,,,,OVC,7000,,,,,,,VFR,,,,,,,,,,,,METAR,300.0
ESND 302150Z AUTO 31011KT 280V340 9999 FEW094/// 12/04 Q1017,ESND,2023-05-30T21:50:00Z,62.05,14.42,12.0,4.0,310,11,,6.21,30.029528,,,TRUE,,,,,,,,FEW,9400,,,,,,,VFR,,,,,,,,,,,,METAR,352.0
ESMX 302150Z AUTO 25005KT 220V280 9999 NCD 12/06 Q1024,ESMX,2023-05-30T21:50:00Z,56.92,14.72,12.0,6.0,250,5,,6.21,30.236221,,,TRUE,,,,,,,,CLR,,,,,,,,VFR,,,,,,,,,,,,METAR,176.0
ESMT 302150Z AUTO 24003KT 9999 NCD 11/09 Q1026,ESMT,2023-05-30T21:50:00Z,56.68,12.82,11.0,9.0,240,3,,6.21,30.295275,,,TRUE,,,,,,,,CLR,,,,,,,,VFR,,,,,,,,,,,,METAR,24.0
ESMS 302150Z 23005KT CAVOK 12/04 Q1026,ESMS,2023-05-30T21:50:00Z,55.53,13.37,12.0,4.0,230,5,,6.21,30.295275,,,,,,,,,,,CAVOK,,,,,,,,VFR,,,,,,,,,,,,METAR,68.0
ESMQ 302150Z AUTO 20006KT 9999 NCD 11/07 Q1024,ESMQ,2023-05-30T21:50:00Z,56.68,16.3,11.0,7.0,200,6,,6.21,30.236221,,,TRUE,,,,,,,,CLR,,,,,,,,VFR,,,,,,,,,,,,METAR,3.0
ESMK 302150Z AUTO 28004KT 9999 NCD 12/05 Q1025,ESMK,2023-05-30T21:50:00Z,55.92,14.08,12.0,5.0,280,4,,6.21,30.265747,,,TRUE,,,,,,,,CLR,,,,,,,,VFR,,,,,,,,,,,,METAR,20.0
ESKS 302150Z AUTO 20004KT 9999 NCD 14/05 Q1017,ESKS,2023-05-30T21:50:00Z,61.17,12.83,14.0,5.0,200,4,,6.21,30.029528,,,TRUE,,,,,,,,CLR,,,,,,,,VFR,,,,,,,,,,,,METAR,503.0
ESKM 302150Z AUTO 23009KT 200V260 9999 NCD 17/05 Q1015,ESKM,2023-05-30T21:50:00Z,60.97,14.52,17.0,5.0,230,9,,6.21,29.970472,,,TRUE,,,,,,,,CLR,,,,,,,,VFR,,,,,,,,,,,,METAR,184.0
ESGT 302150Z 20008KT CAVOK 13/06 Q1023,ESGT,2023-05-30T21:50:00Z,58.32,12.33,13.0,6.0,200,8,,6.21,30.206694,,,,,,,,,,,CAVOK,,,,,,,,VFR,,,,,,,,,,,,METAR,40.0
ESGP 302150Z AUTO 23004KT 9999 NCD 11/08 Q1024,ESGP,2023-05-30T21:50:00Z,57.77,11.87,11.0,8.0,230,4,,6.21,30.236221,,,TRUE,,,,,,,,CLR,,,,,,,,VFR,,,,,,,,,,,,METAR,15.0
ESGJ 302150Z 22005KT CAVOK 11/05 Q1023,ESGJ,2023-05-30T21:50:00Z,57.77,14.07,11.0,5.0,220,5,,6.21,30.206694,,,,,,,,,,,CAVOK,,,,,,,,VFR,,,,,,,,,,,,METAR,224.0
ESGG 302150Z 22007KT CAVOK 10/05 Q1024,ESGG,2023-05-30T21:50:00Z,57.67,12.3,10.0,5.0,220,7,,6.21,30.236221,,,,,,,,,,,CAVOK,,,,,,,,VFR,,,,,,,,,,,,METAR,152.0
ENZV 302150Z 33012KT CAVOK 09/06 Q1029,ENZV,2023-05-30T21:50:00Z,58.88,5.63,9.0,6.0,330,12,,6.21,30.383858,,,,,,,,,,,CAVOK,,,,,,,,VFR,,,,,,,,,,,,METAR,7.0
ENWV 302150Z AUTO 35015KT 9999NDV OVC014/// 09/07 Q1031 W///S3,ENWV,2023-05-30T21:50:00Z,56.28,3.4,9.0,7.0,350,15,,,30.442913,,,TRUE,,,,,,,,OVC,1400,,,,,,,,,,,,,,,,,,,METAR,30.0
ENVD 302150Z 08006KT 9999 -RA FEW035 SCT055 05/04 Q1002,ENVD,2023-05-30T21:50:00Z,70.07,29.85,5.0,4.0,80,6,,6.21,29.586615,,,,,,,,,,-RA,FEW,3500,SCT,5500,,,,,VFR,,,,,,,,,,,,METAR,39.0
ENVA 302150Z 25023KT 9999 VCSH BKN026 11/07 Q1018 RMK WIND 670FT 26021G34KT,ENVA,2023-05-30T21:50:00Z,63.47,10.92,11.0,7.0,250,23,,6.21,30.059055,,,,,,,,,,VCSH,BKN,2600,,,,,,,MVFR,,,,,,,,,,,,METAR,12.0
ENUN 302150Z AUTO 29040G50KT 9999NDV OVC010/// 06/// Q1007 W07/S6,ENUN,2023-05-30T21:50:00Z,,,7.0,,290,40,50,,29.734253,,,TRUE,,,,,,,,OVC,1000,,,,,,,,,,,,,,,,,,,METAR,
ENUG 302150Z AUTO 15006KT 100V220 9999NDV -SHRA BKN011/// OVC030/// 04/02 Q0998 W///S4,ENUG,2023-05-30T21:50:00Z,71.3,22.25,4.0,2.0,150,6,,,29.468504,,,TRUE,,,,,,,-SHRA,BKN,1100,OVC,3000,,,,,,,,,,,,,,,,,METAR,30.0
ENTO 302150Z 27005KT CAVOK 14/08 Q1020,ENTO,2023-05-30T21:50:00Z,59.2,10.27,14.0,8.0,270,5,,6.21,30.11811,,,,,,,,,,,CAVOK,,,,,,,,VFR,,,,,,,,,,,,METAR,84.0
ENTC 302150Z 21008KT 9999 -SHRA FEW009 BKN022 05/03 Q0998 RMK WIND 2600FT 17024KT,ENTC,2023-05-30T21:50:00Z,69.68,18.92,5.0,3.0,210,8,,6.21,29.468504,,,,,,,,,,-SHRA,FEW,900,BKN,2200,,,,,MVFR,,,,,,,,,,,,METAR,9.0
ENSS 302150Z AUTO VRB01KT 9999 -SHRA FEW036/// BKN055/// BKN074/// 06/03 Q1002 RMK WIND 0500FT 21007KT,ENSS,2023-05-30T21:50:00Z,70.35,31.05,6.0,3.0,0,1,,6.21,29.586615,,,TRUE,,,,,,,-SHRA,FEW,3600,BKN,5500,BKN,7400,,,VFR,,,-0.7,,,,,,,,,METAR,13.0
ENSR 302150Z AUTO VRB02KT 9999 -RA FEW021/// BKN036/// BKN062/// 05/04 Q0998 RMK WIND RWY32 VRB02KT WIND 1118FT 23006KT,ENSR,2023-05-30T21:50:00Z,69.78,20.97,5.0,4.0,0,2,,6.21,29.468504,,,TRUE,,,,,,,-RA,FEW,2100,BKN,3600,BKN,6200,,,VFR,,,,,,,,,,,,METAR,5.0
ENSL 302150Z AUTO 32017KT 9999NDV OVC013/// 10/07 Q1032 W08/S3,ENSL,2023-05-30T21:50:00Z,58.37,1.9,10.0,7.0,320,17,,,30.47244,,,TRUE,,,,,,,,OVC,1300,,,,,,,,,,,,,,,,,,,METAR,50.0
ENSK 302150Z AUTO 28022KT 9000 -RA ///021/// 06/05 Q1001 REDZ,ENSK,2023-05-30T21:50:00Z,68.57,15.02,6.0,5.0,280,22,,5.59,29.557087,,,TRUE,,,,,,,-RA,,,,,,,,,,,,,,,,,,,,,METAR,3.0
ENSH 302150Z AUTO 26009KT 230V300 9999 -RA NCD 07/05 Q1001 RMK WIND 0150FT 26006KT,ENSH,2023-05-30T21:50:00Z,68.25,14.67,7.0,5.0,260,9,,6.21,29.557087,,,TRUE,,,,,,,-RA,CLR,,,,,,,,VFR,,,,,,,,,,,,METAR,9.0
ENSG 302150Z AUTO 25015KT 9999 -DZ FEW013/// BKN018/// OVC024/// 07/04 Q1027 RMK WIND 3806FT 28032KT,ENSG,2023-05-30T21:50:00Z,61.15,7.13,7.0,4.0,250,15,,6.21,30.324802,,,TRUE,,,,,,,-DZ,FEW,1300,BKN,1800,OVC,2400,,,MVFR,,,,,,,,,,,,METAR,493.0
ENSF 302150Z AUTO 26027KT 9999NDV OVC010/// ///// Q//// W///S4,ENSF,2023-05-30T21:50:00Z,61.25,1.85,,,260,27,,,,,,TRUE,,,,,,,,OVC,1000,,,,,,,,,,,,,,,,,,,METAR,15.0
ENSE 302150Z AUTO 28022KT //// OVC010/// 10/08 Q1027 W///S4,ENSE,2023-05-30T21:50:00Z,61.45,2.15,10.0,8.0,280,22,,,30.324802,,,TRUE,,,,,,,,OVC,1000,,,,,,,,,,,,,,,,,,,METAR,10.0
ENSD 302150Z VRB08KT 9999 FEW020 SCT032 BKN040 11/05 Q1026 RMK WIND RWY26 VRB02KT WIND 1140FT 18009KT,ENSD,2023-05-30T21:50:00Z,61.82,6.12,11.0,5.0,0,8,,6.21,30.295275,,,,,,,,,,,FEW,2000,SCT,3200,BKN,4000,,,VFR,,,,,,,,,,,,METAR,61.0
ENSB 302150Z 24014KT 3400 -SN FEW010 BKN020 01/M01 Q0996 RMK WIND 1400FT 25011KT,ENSB,2023-05-30T21:50:00Z,78.25,15.47,1.0,-1.0,240,14,,2.11,29.409449,,,,,,,,,,-SN,FEW,1000,BKN,2000,,,,,IFR,,,,,,,,,,,,METAR,30.0
ENRY 302150Z AUTO 11003KT 080V170 9999 NCD 10/08 Q1021,ENRY,2023-05-30T21:50:00Z,59.37,10.77,10.0,8.0,110,3,,6.21,30.147638,,,TRUE,,,,,,,,CLR,,,,,,,,VFR,,,,,,,,,,,,METAR,45.0
ENRS 302150Z AUTO 27026KT 9999 -SHRA FEW018/// OVC031/// 07/05 Q1004,ENRS,2023-05-30T21:50:00Z,67.52,12.1,7.0,5.0,270,26,,6.21,29.64567,,,TRUE,,,,,,,-SHRA,FEW,1800,OVC,3100,,,,,VFR,,,,,,,,,,,,METAR,4.0
ENRO 302150Z AUTO 24006KT 9999 OVC035/// 09/03 Q1018,ENRO,2023-05-30T21:50:00Z,62.57,11.33,9.0,3.0,240,6,,6.21,30.059055,,,TRUE,,,,,,,,OVC,3500,,,,,,,VFR,,,,,,,,,,,,METAR,624.0
ENRM 302150Z AUTO 25016KT 7000 DZRA BKN005/// OVC007/// 08/08 Q1014,ENRM,2023-05-30T21:50:00Z,64.83,11.13,8.0,8.0,250,16,,4.35,29.940945,,,TRUE,,,,,,,DZ RA,BKN,500,OVC,700,,,,,IFR,,,,,,,,,,,,METAR,4.0
ENRA 302150Z AUTO 28005KT 230V310 9999 -RA FEW016/// BKN028/// OVC037/// 06/06 Q1007,ENRA,2023-05-30T21:50:00Z,66.37,14.3,6.0,6.0,280,5,,6.21,29.734253,,,TRUE,,,,,,,-RA,FEW,1600,BKN,2800,OVC,3700,,,MVFR,,,,,,,,,,,,METAR,66.0
ENQR 302150Z AUTO 26020KT 9000NDV OVC009/// 10/08 Q1026 W10/S4,ENQR,2023-05-30T21:50:00Z,61.52,2.22,10.0,8.0,260,20,,,30.295275,,,TRUE,,,,,,,,OVC,900,,,,,,,,,,,,,,,,,,,METAR,10.0
ENQC 302150Z AUTO 23019KT 9999NDV FEW012/// OVC020/// 09/09 Q1028 W///S3,ENQC,2023-05-30T21:50:00Z,60.88,3.62,9.0,9.0,230,19,,,30.35433,,,TRUE,,,,,,,,FEW,1200,OVC,2000,,,,,,,,,,,,,,,,,METAR,20.0
ENQA 302150Z AUTO 27018KT 9999NDV OVC020/// 09/08 Q1029 W13/S3,ENQA,2023-05-30T21:50:00Z,60.65,3.72,9.0,8.0,270,18,,,30.383858,,,TRUE,,,,,,,,OVC,2000,,,,,,,,,,,,,,,,,,,METAR,90.0
ENOV 302150Z 25009KT 210V300 9999 -SHRA BKN026 11/06 Q1026 RMK WIND RWY24 24010KT WIND 2090FT 25020KT,ENOV,2023-05-30T21:50:00Z,62.17,6.07,11.0,6.0,250,9,,6.21,30.295275,,,,,,,,,,-SHRA,BKN,2600,,,,,,,MVFR,,,,,,,,,,,,METAR,72.0
ENOL 302150Z 26025G37KT 8000 -RADZ BKN009 09/08 Q1019,ENOL,2023-05-30T21:50:00Z,63.7,9.6,9.0,8.0,260,25,37,4.97,30.088583,,,,,,,,,,-RA -DZ,BKN,900,,,,,,,IFR,,,,,,,,,,,,METAR,9.0
ENOA 302150Z 28019KT 9999 BKN022 09/08 Q1029 W///S4,ENOA,2023-05-30T21:50:00Z,60.5,2.83,9.0,8.0,280,19,,6.21,30.383858,,,,,,,,,,,BKN,2200,,,,,,,MVFR,,,,,,,,,,,,METAR,5.0
ENNM 302150Z AUTO 25015KT 9999 DZRA 09/07 Q1015,ENNM,2023-05-30T21:50:00Z,64.47,11.57,9.0,7.0,250,15,,6.21,29.970472,,,TRUE,,,,,,,DZ RA,,,,,,,,,,,,,,,,,,,,,METAR,2.0
ENNE 302150Z AUTO 27039KT 9999NDV OVC019/// 08/05 Q1010 W///S5,ENNE,2023-05-30T21:50:00Z,66.03,8.08,8.0,5.0,270,39,,,29.822834,,,TRUE,,,,,,,,OVC,1900,,,,,,,,,,,,,,,,,,,METAR,10.0
ENNA 302150Z AUTO 16003KT 9999 -RA ///020/// 05/03 Q1000 RMK WIND 1800FT 18015KT,ENNA,2023-05-30T21:50:00Z,70.07,24.97,5.0,3.0,160,3,,6.21,29.52756,,,TRUE,,,,,,,-RA,,,,,,,,,,,,,,,,,,,,,METAR,12.0
ENMS 302150Z AUTO 01004KT 280V100 7000 -RA FEW001/// SCT024/// 08/05 Q1009 RMK WIND 412FT VRB07G17KT,ENMS,2023-05-30T21:50:00Z,65.78,13.22,8.0,5.0,10,4,,4.35,29.793306,,,TRUE,,,,,,,-RA,FEW,100,SCT,2400,,,,,MVFR,,,,,,,,,,,,METAR,44.0
ENML 302150Z 26021KT 9999 -SHRA SCT012 BKN025 10/08 Q1023,ENML,2023-05-30T21:50:00Z,62.75,7.27,10.0,8.0,260,21,,6.21,30.206694,,,,,,,,,,-SHRA,SCT,1200,BKN,2500,,,,,MVFR,,,,,,,,,,,,METAR,3.0
ENMH 302150Z 00000KT 9999 BKN043 05/01 Q1001,ENMH,2023-05-30T21:50:00Z,71.02,27.82,5.0,1.0,0,0,,6.21,29.557087,,,,,,,,,,,BKN,4300,,,,,,,VFR,,,,,,,,,,,,METAR,10.0
ENLE 302150Z 34018KT 9999 BKN015 09/07 Q1031 W11/S4,ENLE,2023-05-30T21:50:00Z,56.53,3.22,9.0,7.0,340,18,,6.21,30.442913,,,,,,,,,,,BKN,1500,,,,,,,MVFR,,,,,,,,,,,,METAR,10.0
ENLA 302150Z AUTO 32016KT 9999NDV BKN009/// 09/07 Q1030 W///S3,ENLA,2023-05-30T21:50:00Z,57.1,2.83,9.0,7.0,320,16,,,30.413385,,,TRUE,,,,,,,,BKN,900,,,,,,,,,,,,,,,,,,,METAR,10.0
ENKR 302150Z 18006KT 9999 FEW045 BKN059 06/03 Q1002 RMK WIND 731FT 21015KT,ENKR,2023-05-30T21:50:00Z,69.72,29.88,6.0,3.0,180,6,,6.21,29.586615,,,,,,,,,,,FEW,4500,BKN,5900,,,,,VFR,,,-1.5,,,,,,,,,METAR,86.0
ENKB 302150Z AUTO 25024G36KT 4000 DZ OVC006/// 09/08 Q1021 RMK WIND 745FT 26040G50KT,ENKB,2023-05-30T21:50:00Z,63.12,7.82,9.0,8.0,250,24,36,2.49,30.147638,,,TRUE,,,,,,,DZ,OVC,600,,,,,,,IFR,,,,,,,,,,,,METAR,62.0
ENJS 302150Z 33015KT 9999 OVC015 09/06 Q1032 W09/S/,ENJS,2023-05-30T21:50:00Z,,,9.0,6.0,330,15,,6.21,30.47244,,,,,,,,,,,OVC,1500,,,,,,,MVFR,,,,,,,,,,,,METAR,
ENHV 302150Z VRB02KT 9999 -RA SCT015 OVC037 04/02 Q1001,ENHV,2023-05-30T21:50:00Z,71.02,25.97,4.0,2.0,0,2,,6.21,29.557087,,,,,,,,,,-RA,SCT,1500,OVC,3700,,,,,VFR,,,,,,,,,,,,METAR,13.0
ENHM 302150Z AUTO /////KT //// BKN019/// OVC022/// 09/09 Q1031 W10/S/,ENHM,2023-05-30T21:50:00Z,59.57,2.23,9.0,9.0,,,,,30.442913,,,TRUE,,,,,,,,BKN,1900,OVC,2200,,,,,,,,,,,,,,,,,METAR,10.0
ENHK 302150Z AUTO 08006KT 9999 -RA NCD 05/03 Q0998,ENHK,2023-05-30T21:50:00Z,70.48,22.13,5.0,3.0,80,6,,6.21,29.468504,,,TRUE,,,,,,,-RA,CLR,,,,,,,,VFR,,,,,,,,,,,,METAR,6.0
ENHF 302150Z 12006KT 090V160 9999 FEW022 BKN036 05/02 Q0998 RMK WIND 1254FT 14010KT,ENHF,2023-05-30T21:50:00Z,70.67,23.67,5.0,2.0,120,6,,6.21,29.468504,,,,,,,,,,,FEW,2200,BKN,3600,,,,,VFR,,,,,,,,,,,,METAR,79.0
ENHE 302150Z 27032KT 9999 FEW012 SCT050 08/06 Q1013 W///S5,ENHE,2023-05-30T21:50:00Z,65.33,2.33,8.0,6.0,270,32,,6.21,29.911417,,,,,,,,,,,FEW,1200,SCT,5000,,,,,VFR,,,,,,,,,,,,METAR,10.0
ENHD 302150Z AUTO 34012KT 9999 OVC025/// 09/08 Q1029,ENHD,2023-05-30T21:50:00Z,59.35,5.22,9.0,8.0,340,12,,6.21,30.383858,,,TRUE,,,,,,,,OVC,2500,,,,,,,MVFR,,,,,,,,,,,,METAR,22.0
ENGM 302150Z 19003KT CAVOK 12/05 Q1019,ENGM,2023-05-30T21:50:00Z,60.2,11.07,12.0,5.0,190,3,,6.21,30.088583,,,,,,,,,,,CAVOK,,,,,,,,VFR,,,,,,,,,,,,METAR,204.0
ENFL 302150Z AUTO 22013KT 3700NDV -SHRA BR OVC006/// 09/08 Q1028,ENFL,2023-05-30T21:50:00Z,61.57,5.02,9.0,8.0,220,13,,,30.35433,,,TRUE,,,,,,,-SHRA BR,OVC,600,,,,,,,,,,,,,,,,,,,METAR,1.0
ENFB 302150Z AUTO 26025KT 9999NDV OVC011/// ///// Q//// W///S4,ENFB,2023-05-30T21:50:00Z,61.2,1.83,,,260,25,,,,,,TRUE,,,,,,,,OVC,1100,,,,,,,,,,,,,,,,,,,METAR,10.0
ENEV 302150Z 25017G27KT 220V290 8000 -RA SCT006 BKN012 07/06 Q1000 RMK WIND 1400FT 24029KT,ENEV,2023-05-30T21:50:00Z,68.48,16.67,7.0,6.0,250,17,27,4.97,29.52756,,,,,,,,,,-RA,SCT,600,BKN,1200,,,,,MVFR,,,,,,,,,,,,METAR,26.0
ENDU 302150Z VRB02KT 9999 -RA FEW008 SCT025 BKN035 05/04 Q0999 RMK WIND 1100FT 20014KT WIND 2200FT 21015KT,ENDU,2023-05-30T21:50:00Z,69.05,18.55,5.0,4.0,0,2,,6.21,29.498032,,,,,,,,,,-RA,FEW,800,SCT,2500,BKN,3500,,,VFR,,,1.4,,,,,,,,,METAR,65.0
ENDR 302150Z AUTO 27038KT 9000NDV OVC009/// 08/07 Q1016 W///S6,ENDR,2023-05-30T21:50:00Z,64.35,7.77,8.0,7.0,270,38,,,30.0,,,TRUE,,,,,,,,OVC,900,,,,,,,,,,,,,,,,,,,METAR,10.0
ENCN 302150Z AUTO 18007KT 9999 NCD 14/08 Q1023,ENCN,2023-05-30T21:50:00Z,58.2,8.07,14.0,8.0,180,7,,6.21,30.206694,,,TRUE,,,,,,,,CLR,,,,,,,,VFR,,,,,,,,,,,,METAR,17.0
ENBV 302150Z AUTO 14003KT 9999 SCT044/// BKN057/// OVC073/// 05/01 Q1001,ENBV,2023-05-30T21:50:00Z,70.87,29.02,5.0,1.0,140,3,,6.21,29.557087,,,TRUE,,,,,,,,SCT,4400,BKN,5700,OVC,7300,,,VFR,,,,,,,,,,,,METAR,13.0
ENBS 302150Z AUTO 15010KT 9999 SCT035/// BKN045/// 05/M00 Q1001,ENBS,2023-05-30T21:50:00Z,70.62,29.68,5.0,0.0,150,10,,6.21,29.557087,,,TRUE,,,,,,,,SCT,3500,BKN,4500,,,,,VFR,,,,,,,,,,,,METAR,144.0
ENBR 302150Z 30005KT 270V340 9999 FEW017 BKN030 09/09 Q1030 RMK WIND 1200FT 30009KT,ENBR,2023-05-30T21:50:00Z,60.28,5.22,9.0,9.0,300,5,,6.21,30.413385,,,,,,,,,,,FEW,1700,BKN,3000,,,,,MVFR,,,,,,,,,,,,METAR,49.0
ENBO 302150Z 25020KT 6000 -DZ FEW009 SCT015 BKN020 07/07 Q1005,ENBO,2023-05-30T21:50:00Z,67.27,14.37,7.0,7.0,250,20,,3.73,29.675198,,,,,,,,,,-DZ,FEW,900,SCT,1500,BKN,2000,,,MVFR,,,,,,,,,,,,METAR,13.0
ENBN 302150Z AUTO 25013KT 9999NDV OVC007/// 08/07 Q1012,ENBN,2023-05-30T21:50:00Z,65.47,12.22,8.0,7.0,250,13,,,29.88189,,,TRUE,,,,,,,,OVC,700,,,,,,,,,,,,,,,,,,,METAR,3.0
ENBL 302150Z VRB02KT 1200 RADZ BR SCT003 BKN005 07/06 Q1028,ENBL,2023-05-30T21:50:00Z,61.4,5.77,7.0,6.0,0,2,,0.75,30.35433,,,,,,,,,,RA DZ BR,SCT,300,BKN,500,,,,,LIFR,,,,,,,,,,,,METAR,313.0
ENAT 302150Z 15006KT 9999 -DZ BKN044 06/04 Q0999 RMK WIND 700FT 18009KT,ENAT,2023-05-30T21:50:00Z,69.97,23.37,6.0,4.0,150,6,,6.21,29.498032,,,,,,,,,,-DZ,BKN,4400,,,,,,,VFR,,,,,,,,,,,,METAR,3.0
ENAN 302150Z 25018KT 4500 RA BR SCT005 BKN021 07/05 Q0998,ENAN,2023-05-30T21:50:00Z,69.3,16.13,7.0,5.0,250,18,,2.8,29.468504,,,,,,,,,,RA BR,SCT,500,BKN,2100,,,,,IFR,,,,,,,,,,,,METAR,13.0
ENAL 302150Z AUTO 23021KT 4100 DZ OVC003/// 09/09 Q1024,ENAL,2023-05-30T21:50:00Z,62.57,6.12,9.0,9.0,230,21,,2.55,30.236221,,,TRUE,,,,,,,DZ,OVC,300,,,,,,,LIFR,,,,,,,,,,,,METAR,21.0
ELLX 302150Z 04012KT CAVOK 14/07 Q1022 NOSIG,ELLX,2023-05-30T21:50:00Z,49.63,6.2,14.0,7.0,40,12,,6.21,30.177166,,,,,,TRUE,,,,,CAVOK,,,,,,,,VFR,,,,,,,,,,,,METAR,374.0
EKYT 302150Z AUTO 26008KT 9999 NCD 11/08 Q1026,EKYT,2023-05-30T21:50:00Z,57.1,9.87,11.0,8.0,260,8,,6.21,30.295275,,,TRUE,,,,,,,,CLR,,,,,,,,VFR,,,,,,,,,,,,METAR,2.0
EKVG 302150Z AUTO 27011KT 9999 -DZ OVC011/// 09/07 Q1029 RMK OVC012/// WIND SKEID 29021KT,EKVG,2023-05-30T21:50:00Z,62.07,-7.27,9.0,7.0,270,11,,6.21,30.383858,,,TRUE,,,,,,,-DZ,OVC,1100,,,,,,,MVFR,,,,,,,,,,,,METAR,89.0
EKVD 302150Z AUTO 21004KT //// ///////// 13/09 Q1027,EKVD,2023-05-30T21:50:00Z,55.43,9.32,13.0,9.0,210,4,,,30.324802,,,TRUE,,,,,,,,,,,,,,,,,,,,,,,,,,,,METAR,41.0
EKSP 302150Z 23003KT CAVOK 12/09 Q1027 RMK FEW250,EKSP,2023-05-30T21:50:00Z,55.22,9.27,12.0,9.0,230,3,,6.21,30.324802,,,,,,,,,,,CAVOK,,,,,,,,VFR,,,,,,,,,,,,METAR,40.0
EKSB 302150Z AUTO 23004KT 9999 NCD 11/07 Q1027,EKSB,2023-05-30T21:50:00Z,54.97,9.8,11.0,7.0,230,4,,6.21,30.324802,,,TRUE,,,,,,,,CLR,,,,,,,,VFR,,,,,,,,,,,,METAR,23.0
EKRS 302150Z AUTO VRB01KT 9999 NCD 11/11 Q1027,EKRS,2023-05-30T21:50:00Z,55.42,11.8,11.0,11.0,0,1,,6.21,30.324802,,,TRUE,,,,,,,,CLR,,,,,,,,VFR,,,,,,,,,,,,METAR,34.0
EKRN 302150Z AUTO 32003KT 9999 NCD 11/06 Q1026,EKRN,2023-05-30T21:50:00Z,55.07,14.75,11.0,6.0,320,3,,6.21,30.295275,,,TRUE,,,,,,,,CLR,,,,,,,,VFR,,,,,,,,,,,,METAR,14.0
EKRK 302150Z AUTO 29002KT 9999 NCD 10/06 Q1027,EKRK,2023-05-30T21:50:00Z,55.58,12.13,10.0,6.0,290,2,,6.21,30.324802,,,TRUE,,,,,,,,CLR,,,,,,,,VFR,,,,,,,,,,,,METAR,40.0
EKKA 302150Z AUTO 28005KT 9999 NCD 10/06 Q1027,EKKA,2023-05-30T21:50:00Z,56.3,9.12,10.0,6.0,280,5,,6.21,30.324802,,,TRUE,,,,,,,,CLR,,,,,,,,VFR,,,,,,,,,,,,METAR,50.0
EKEB 302150Z AUTO 30007KT 9999 NCD 10/08 Q1028,EKEB,2023-05-30T21:50:00Z,55.52,8.55,10.0,8.0,300,7,,6.21,30.35433,,,TRUE,,,,,,,,CLR,,,,,,,,VFR,,,,,,,,,,,,METAR,29.0
EKCH 302150Z AUTO 33001KT 9999 NCD 12/07 Q1027 NOSIG,EKCH,2023-05-30T21:50:00Z,55.62,12.67,12.0,7.0,330,1,,6.21,30.324802,,,TRUE,,,TRUE,,,,,CLR,,,,,,,,VFR,,,,,,,,,,,,METAR,4.0
EKBI 302150Z AUTO 29002KT 9999 NCD 09/07 Q1027,EKBI,2023-05-30T21:50:00Z,55.73,9.15,9.0,7.0,290,2,,6.21,30.324802,,,TRUE,,,,,,,,CLR,,,,,,,,VFR,,,,,,,,,,,,METAR,67.0
EKAH 302150Z AUTO 23003KT 9999 NCD 12/05 Q1027,EKAH,2023-05-30T21:50:00Z,56.28,10.62,12.0,5.0,230,3,,6.21,30.324802,,,TRUE,,,,,,,,CLR,,,,,,,,VFR,,,,,,,,,,,,METAR,25.0
EGYP 302150Z 33030KT 9999 FEW012 BKN090 09/07 Q0994 NOSIG,EGYP,2023-05-30T21:50:00Z,-51.82,-58.45,9.0,7.0,330,30,,6.21,29.350393,,,,,,TRUE,,,,,FEW,1200,BKN,9000,,,,,VFR,,,,,,,,,,,,METAR,70.0
EGXW 302150Z 03008KT 9999 -DZ FEW005 OVC008 10/09 Q1030 TEMPO SCT005 RMK GRN TEMPO YLO1,EGXW,2023-05-30T21:50:00Z,53.18,-0.52,10.0,9.0,30,8,,6.21,30.413385,,,,,,,,,,-DZ,FEW,500,OVC,800,,,,,IFR,,,,,,,,,,,,METAR,70.0
EGXC 302150Z 02007KT 7000 -DZ BKN009 OVC015 11/09 Q1030 RMK GRN,EGXC,2023-05-30T21:50:00Z,53.1,-0.17,11.0,9.0,20,7,,4.35,30.413385,,,,,,,,,,-DZ,BKN,900,OVC,1500,,,,,IFR,,,,,,,,,,,,METAR,9.0
EGVP 302150Z 04010KT 9999 BKN018 12/08 Q1028 NOSIG RMK WHT WHT,EGVP,2023-05-30T21:50:00Z,51.13,-1.57,12.0,8.0,40,10,,6.21,30.35433,,,,,,TRUE,,,,,BKN,1800,,,,,,,MVFR,,,,,,,,,,,,METAR,80.0
EGVO 302150Z 03011KT 9999 OVC018 12/08 Q1028 NOSIG RMK WHT WHT,EGVO,2023-05-30T21:50:00Z,51.23,-0.95,12.0,8.0,30,11,,6.21,30.35433,,,,,,TRUE,,,,,OVC,1800,,,,,,,MVFR,,,,,,,,,,,,METAR,118.0
EGVN 302150Z 05009KT 9999 OVC017 12/08 Q1029 TEMPO BKN012 RMK WHT TEMPO GRN,EGVN,2023-05-30T21:50:00Z,51.77,-1.58,12.0,8.0,50,9,,6.21,30.383858,,,,,,,,,,,OVC,1700,,,,,,,MVFR,,,,,,,,,,,,METAR,83.0
EGUB 302150Z 03010KT 9999 OVC015 12/08 Q1028 TEMPO SCT014 RMK WHT TEMPO GRN,EGUB,2023-05-30T21:50:00Z,51.62,-1.08,12.0,8.0,30,10,,6.21,30.35433,,,,,,,,,,,OVC,1500,,,,,,,MVFR,,,,,,,,,,,,METAR,56.0
EGTE 302150Z 02006KT 350V070 CAVOK 12/09 Q1027,EGTE,2023-05-30T21:50:00Z,50.73,-3.42,12.0,9.0,20,6,,6.21,30.324802,,,,,,,,,,,CAVOK,,,,,,,,VFR,,,,,,,,,,,,METAR,30.0
EGSY 302150Z AUTO 07010KT 9999 BKN026/// 12/08 Q1028,EGSY,2023-05-30T21:50:00Z,51.4,-3.43,12.0,8.0,70,10,,6.21,30.35433,,,TRUE,,,,,,,,BKN,2600,,,,,,,MVFR,,,,,,,,,,,,METAR,46.0
EGSS 302150Z AUTO 05009KT 9999 OVC017 11/08 Q1029,EGSS,2023-05-30T21:50:00Z,51.88,0.22,11.0,8.0,50,9,,6.21,30.383858,,,TRUE,,,,,,,,OVC,1700,,,,,,,MVFR,,,,,,,,,,,,METAR,101.0
EGSH 302150Z AUTO 02008KT 9999 FEW007/// SCT012/// OVC016/// 11/09 Q1029,EGSH,2023-05-30T21:50:00Z,52.68,1.28,11.0,9.0,20,8,,6.21,30.383858,,,TRUE,,,,,,,,FEW,700,SCT,1200,OVC,1600,,,MVFR,,,,,,,,,,,,METAR,21.0
EGQS 302150Z 08008KT 9999 FEW013 11/08 Q1034 BECMG SCT013 RMK BLU BECMG GRN,EGQS,2023-05-30T21:50:00Z,57.72,-3.32,11.0,8.0,80,8,,6.21,30.531496,,,,,,,,,,,FEW,1300,,,,,,,VFR,,,,,,,,,,,,METAR,6.0
EGQL 302150Z 09007KT 9999 OVC013 12/10 Q1033 RMK GRN,EGQL,2023-05-30T21:50:00Z,56.38,-2.87,12.0,10.0,90,7,,6.21,30.501968,,,,,,,,,,,OVC,1300,,,,,,,MVFR,,,,,,,,,,,,METAR,11.0
EGPU 302150Z AUTO 36009KT 9999 NCD 11/10 Q1032,EGPU,2023-05-30T21:50:00Z,56.5,-6.88,11.0,10.0,360,9,,6.21,30.47244,,,TRUE,,,,,,,,CLR,,,,,,,,VFR,,,,,,,,,,,,METAR,12.0
EGPO 302150Z AUTO 34004KT 9999 BKN017/// 09/07 Q1034,EGPO,2023-05-30T21:50:00Z,58.22,-6.32,9.0,7.0,340,4,,6.21,30.531496,,,TRUE,,,,,,,,BKN,1700,,,,,,,MVFR,,,,,,,,,,,,METAR,10.0
EGPL 302150Z AUTO 01010KT 9999 SCT004/// 09/07 Q1034,EGPL,2023-05-30T21:50:00Z,57.47,-7.37,9.0,7.0,10,10,,6.21,30.531496,,,TRUE,,,,,,,,SCT,400,,,,,,,VFR,,,,,,,,,,,,METAR,3.0
EGPK 302150Z VRB02KT CAVOK 12/10 Q1031,EGPK,2023-05-30T21:50:00Z,55.5,-4.58,12.0,10.0,0,2,,6.21,30.442913,,,,,,,,,,,CAVOK,,,,,,,,VFR,,,,,,,,,,,,METAR,14.0
EGPI 302150Z AUTO 03003KT 9999 NCD 08/07 Q1031,EGPI,2023-05-30T21:50:00Z,55.68,-6.25,8.0,7.0,30,3,,6.21,30.442913,,,TRUE,,,,,,,,CLR,,,,,,,,VFR,,,,,,,,,,,,METAR,17.0
EGPH 302150Z 05009KT CAVOK 11/10 Q1032,EGPH,2023-05-30T21:50:00Z,55.95,-3.35,11.0,10.0,50,9,,6.21,30.47244,,,,,,,,,,,CAVOK,,,,,,,,VFR,,,,,,,,,,,,METAR,29.0
EGPF 302150Z AUTO 07009KT 9999 NCD 14/09 Q1032,EGPF,2023-05-30T21:50:00Z,55.87,-4.42,14.0,9.0,70,9,,6.21,30.47244,,,TRUE,,,,,,,,CLR,,,,,,,,VFR,,,,,,,,,,,,METAR,8.0
EGPE 302150Z AUTO 05004KT 9999 NCD 09/08 Q1033,EGPE,2023-05-30T21:50:00Z,57.53,-4.05,9.0,8.0,50,4,,6.21,30.501968,,,TRUE,,,,,,,,CLR,,,,,,,,VFR,,,,,,,,,,,,METAR,7.0
EGPD 302150Z AUTO 18005KT 9999 OVC016 11/09 Q1034 TEMPO BKN014,EGPD,2023-05-30T21:50:00Z,57.2,-2.22,11.0,9.0,180,5,,6.21,30.531496,,,TRUE,,,,,,,,OVC,1600,,,,,,,MVFR,,,,,,,,,,,,METAR,65.0
EGPC 302150Z AUTO 30007KT 9999 OVC013/// 10/07 Q1034,EGPC,2023-05-30T21:50:00Z,58.45,-3.08,10.0,7.0,300,7,,6.21,30.531496,,,TRUE,,,,,,,,OVC,1300,,,,,,,MVFR,,,,,,,,,,,,METAR,38.0
EGPB 302150Z AUTO 26004KT 9999 SCT013/// BKN032/// 09/07 Q1032,EGPB,2023-05-30T21:50:00Z,59.87,-1.3,9.0,7.0,260,4,,6.21,30.47244,,,TRUE,,,,,,,,SCT,1300,BKN,3200,,,,,VFR,,,,,,,,,,,,METAR,2.0
EGPA 302150Z AUTO 30006KT 9999 OVC015/// 10/06 Q1033,EGPA,2023-05-30T21:50:00Z,58.95,-2.9,10.0,6.0,300,6,,6.21,30.501968,,,TRUE,,,,,,,,OVC,1500,,,,,,,MVFR,,,,,,,,,,,,METAR,15.0
EGOS 302150Z 08005KT CAVOK 13/08 Q1030 TEMPO SCT022 RMK BLU TEMPO WHT,EGOS,2023-05-30T21:50:00Z,52.8,-2.67,13.0,8.0,80,5,,6.21,30.413385,,,,,,,,,,,CAVOK,,,,,,,,VFR,,,,,,,,,,,,METAR,76.0
EGNX 302150Z 04009KT 010V080 9999 BKN011 11/08 Q1030,EGNX,2023-05-30T21:50:00Z,52.82,-1.32,11.0,8.0,40,9,,6.21,30.413385,,,,,,,,,,,BKN,1100,,,,,,,MVFR,,,,,,,,,,,,METAR,91.0
EGNT 302150Z 10005KT 9999 BKN015 11/08 Q1033,EGNT,2023-05-30T21:50:00Z,55.03,-1.7,11.0,8.0,100,5,,6.21,30.501968,,,,,,,,,,,BKN,1500,,,,,,,MVFR,,,,,,,,,,,,METAR,77.0
EGNS 302150Z 36008KT CAVOK 15/09 Q1030,EGNS,2023-05-30T21:50:00Z,54.08,-4.63,15.0,9.0,360,8,,6.21,30.413385,,,,,,,,,,,CAVOK,,,,,,,,VFR,,,,,,,,,,,,METAR,18.0
EGNM 302150Z 05005KT 360V080 9999 BKN016 10/07 Q1031,EGNM,2023-05-30T21:50:00Z,53.87,-1.65,10.0,7.0,50,5,,6.21,30.442913,,,,,,,,,,,BKN,1600,,,,,,,MVFR,,,,,,,,,,,,METAR,221.0
EGNJ 302150Z AUTO 03011KT 9999 -RA OVC010/// 11/10 Q1031,EGNJ,2023-05-30T21:50:00Z,53.57,-0.35,11.0,10.0,30,11,,6.21,30.442913,,,TRUE,,,,,,,-RA,OVC,1000,,,,,,,MVFR,,,,,,,,,,,,METAR,23.0
EGMD 302150Z AUTO 04017KT 9999 OVC017/// 12/09 Q1027,EGMD,2023-05-30T21:50:00Z,50.95,0.93,12.0,9.0,40,17,,6.21,30.324802,,,TRUE,,,,,,,,OVC,1700,,,,,,,MVFR,,,,,,,,,,,,METAR,4.0
EGLL 302150Z AUTO 05010G21KT 9999 OVC020 13/08 Q1028,EGLL,2023-05-30T21:50:00Z,51.48,-0.45,13.0,8.0,50,10,21,6.21,30.35433,,,TRUE,,,,,,,,OVC,2000,,,,,,,MVFR,,,,,,,,,,,,METAR,26.0
EGLF 302150Z AUTO 03009KT 350V070 9999 OVC019/// 12/08 Q1028,EGLF,2023-05-30T21:50:00Z,51.28,-0.77,12.0,8.0,30,9,,6.21,30.35433,,,TRUE,,,,,,,,OVC,1900,,,,,,,MVFR,,,,,,,,,,,,METAR,65.0
EGLC 302150Z AUTO 06011KT 9999 BKN021 OVC025 13/07 Q1029,EGLC,2023-05-30T21:50:00Z,51.5,0.05,13.0,7.0,60,11,,6.21,30.383858,,,TRUE,,,,,,,,BKN,2100,OVC,2500,,,,,MVFR,,,,,,,,,,,,METAR,10.0
EGKK 302150Z 04017KT 9999 BKN020 12/08 Q1027,EGKK,2023-05-30T21:50:00Z,51.13,-0.18,12.0,8.0,40,17,,6.21,30.324802,,,,,,,,,,,BKN,2000,,,,,,,MVFR,,,,,,,,,,,,METAR,58.0
EGJB 302150Z 07017G27KT 9999 FEW014 12/09 Q1025,EGJB,2023-05-30T21:50:00Z,49.42,-2.6,12.0,9.0,70,17,27,6.21,30.265747,,,,,,,,,,,FEW,1400,,,,,,,VFR,,,,,,,,,,,,METAR,102.0
EGHQ 302150Z AUTO 18004KT 130V210 9999 NCD 13/10 Q1026,EGHQ,2023-05-30T21:50:00Z,50.43,-5.0,13.0,10.0,180,4,,6.21,30.295275,,,TRUE,,,,,,,,CLR,,,,,,,,VFR,,,,,,,,,,,,METAR,101.0
EGHH 302150Z 05010KT 9999 BKN023 13/08 Q1027,EGHH,2023-05-30T21:50:00Z,50.78,-1.83,13.0,8.0,50,10,,6.21,30.324802,,,,,,,,,,,BKN,2300,,,,,,,MVFR,,,,,,,,,,,,METAR,9.0
EGGW 302150Z AUTO 03012KT 9999 BKN009 OVC013 10/08 Q1029,EGGW,2023-05-30T21:50:00Z,51.87,-0.37,10.0,8.0,30,12,,6.21,30.383858,,,TRUE,,,,,,,,BKN,900,OVC,1300,,,,,IFR,,,,,,,,,,,,METAR,159.0
EGGP 302150Z 05005KT CAVOK 13/08 Q1030,EGGP,2023-05-30T21:50:00Z,53.33,-2.85,13.0,8.0,50,5,,6.21,30.413385,,,,,,,,,,,CAVOK,,,,,,,,VFR,,,,,,,,,,,,METAR,23.0
EGGD 302150Z AUTO 05016KT 9999 OVC019 12/08 Q1028,EGGD,2023-05-30T21:50:00Z,51.37,-2.72,12.0,8.0,50,16,,6.21,30.35433,,,TRUE,,,,,,,,OVC,1900,,,,,,,MVFR,,,,,,,,,,,,METAR,182.0
EGFF 302150Z AUTO 07009KT 9999 OVC024 13/08 Q1028,EGFF,2023-05-30T21:50:00Z,51.38,-3.35,13.0,8.0,70,9,,6.21,30.35433,,,TRUE,,,,,,,,OVC,2400,,,,,,,MVFR,,,,,,,,,,,,METAR,65.0
EGDY 302150Z 05017KT 9999 BKN022 13/08 Q1027 NOSIG RMK WHT WHT,EGDY,2023-05-30T21:50:00Z,51.0,-2.63,13.0,8.0,50,17,,6.21,30.324802,,,,,,TRUE,,,,,BKN,2200,,,,,,,MVFR,,,,,,,,,,,,METAR,21.0
EGDR 302150Z 04006KT CAVOK 12/10 Q1026 NOSIG RMK BLU BLU,EGDR,2023-05-30T21:50:00Z,50.08,-5.25,12.0,10.0,40,6,,6.21,30.295275,,,,,,TRUE,,,,,CAVOK,,,,,,,,VFR,,,,,,,,,,,,METAR,74.0
EGCK 302150Z AUTO 04010KT 9999 NCD 14/11 Q1029,EGCK,2023-05-30T21:50:00Z,53.1,-4.33,14.0,11.0,40,10,,6.21,30.383858,,,TRUE,,,,,,,,CLR,,,,,,,,VFR,,,,,,,,,,,,METAR,6.0
EGCC 302150Z AUTO 07005KT 9999 FEW022 12/08 Q1031,EGCC,2023-05-30T21:50:00Z,53.35,-2.27,12.0,8.0,70,5,,6.21,30.442913,,,TRUE,,,,,,,,FEW,2200,,,,,,,VFR,,,,,,,,,,,,METAR,78.0
EGBB 302150Z 05009KT 020V090 9999 OVC014 12/08 Q1030,EGBB,2023-05-30T21:50:00Z,52.47,-1.75,12.0,8.0,50,9,,6.21,30.413385,,,,,,,,,,,OVC,1400,,,,,,,MVFR,,,,,,,,,,,,METAR,91.0
EGAC 302150Z AUTO 02003KT 9999 NCD 14/06 Q1031,EGAC,2023-05-30T21:50:00Z,54.62,-5.87,14.0,6.0,20,3,,6.21,30.442913,,,TRUE,,,,,,,,CLR,,,,,,,,VFR,,,,,,,,,,,,METAR,2.0
EGAA 302150Z AUTO 34004KT 9999 NCD 13/09 Q1031,EGAA,2023-05-30T21:50:00Z,54.65,-6.22,13.0,9.0,340,4,,6.21,30.442913,,,TRUE,,,,,,,,CLR,,,,,,,,VFR,,,,,,,,,,,,METAR,65.0
EFVA 302150Z AUTO 22010KT CAVOK 09/05 Q1014,EFVA,2023-05-30T21:50:00Z,63.05,21.77,9.0,5.0,220,10,,6.21,29.940945,,,TRUE,,,,,,,,CAVOK,,,,,,,,VFR,,,,,,,,,,,,METAR,4.0
EFUT 302150Z AUTO 21006KT CAVOK 09/03 Q1017,EFUT,2023-05-30T21:50:00Z,60.88,26.93,9.0,3.0,210,6,,6.21,30.029528,,,TRUE,,,,,,,,CAVOK,,,,,,,,VFR,,,,,,,,,,,,METAR,104.0
EFTU 302150Z AUTO 23007KT CAVOK 09/03 Q1019,EFTU,2023-05-30T21:50:00Z,60.52,22.27,9.0,3.0,230,7,,6.21,30.088583,,,TRUE,,,,,,,,CAVOK,,,,,,,,VFR,,,,,,,,,,,,METAR,47.0
EFTP 302150Z AUTO 23006KT CAVOK 07/02 Q1017,EFTP,2023-05-30T21:50:00Z,61.42,23.62,7.0,2.0,230,6,,6.21,30.029528,,,TRUE,,,,,,,,CAVOK,,,,,,,,VFR,,,,,,,,,,,,METAR,111.0
EFSI 302150Z AUTO 22008KT 190V250 9999 -SHRA NSC 09/02 Q1014,EFSI,2023-05-30T21:50:00Z,62.7,22.83,9.0,2.0,220,8,,6.21,29.940945,,,TRUE,,,,,,,-SHRA,CLR,,,,,,,,VFR,,,,,,,,,,,,METAR,90.0
EFSA 302150Z AUTO 23003KT 210V270 CAVOK 04/03 Q1016,EFSA,2023-05-30T21:50:00Z,61.95,28.93,4.0,3.0,230,3,,6.21,30.0,,,TRUE,,,,,,,,CAVOK,,,,,,,,VFR,,,,,,,,,,,,METAR,90.0
EFRO 302150Z AUTO 21010KT 9999 -SHRA OVC036 07/02 Q1005,EFRO,2023-05-30T21:50:00Z,66.57,25.82,7.0,2.0,210,10,,6.21,29.675198,,,TRUE,,,,,,,-SHRA,OVC,3600,,,,,,,VFR,,,,,,,,,,,,METAR,201.0
EFPO 302150Z AUTO 19006KT CAVOK 08/03 Q1017,EFPO,2023-05-30T21:50:00Z,61.47,21.8,8.0,3.0,190,6,,6.21,30.029528,,,TRUE,,,,,,,,CAVOK,,,,,,,,VFR,,,,,,,,,,,,METAR,10.0
EFOU 302150Z AUTO 22009KT 190V250 CAVOK 10/03 Q1008,EFOU,2023-05-30T21:50:00Z,64.92,25.37,10.0,3.0,220,9,,6.21,29.763779,,,TRUE,,,,,,,,CAVOK,,,,,,,,VFR,,,,,,,,,,,,METAR,15.0
EFMI 302150Z AUTO VRB01KT CAVOK 04/03 Q1016,EFMI,2023-05-30T21:50:00Z,61.68,27.2,4.0,3.0,0,1,,6.21,30.0,,,TRUE,,,,,,,,CAVOK,,,,,,,,VFR,,,,,,,,,,,,METAR,99.0
EFMA 302150Z AUTO 20008KT CAVOK 09/07 Q1019,EFMA,2023-05-30T21:50:00Z,60.12,19.9,9.0,7.0,200,8,,6.21,30.088583,,,TRUE,,,,,,,,CAVOK,,,,,,,,VFR,,,,,,,,,,,,METAR,6.0
EFLP 302150Z AUTO 22003KT CAVOK 06/03 Q1017,EFLP,2023-05-30T21:50:00Z,61.03,28.15,6.0,3.0,220,3,,6.21,30.029528,,,TRUE,,,,,,,,CAVOK,,,,,,,,VFR,,,,,,,,,,,,METAR,102.0
EFKU 302150Z AUTO 24007KT CAVOK 10/02 Q1014,EFKU,2023-05-30T21:50:00Z,63.02,27.8,10.0,2.0,240,7,,6.21,29.940945,,,TRUE,,,,,,,,CAVOK,,,,,,,,VFR,,,,,,,,,,,,METAR,92.0
EFKT 302150Z AUTO 21006KT 170V230 9999 -RA OVC027 05/03 Q1002,EFKT,2023-05-30T21:50:00Z,67.7,24.85,5.0,3.0,210,6,,6.21,29.586615,,,TRUE,,,,,,,-RA,OVC,2700,,,,,,,MVFR,,,,,,,,,,,,METAR,190.0
EFKS 302150Z AUTO 21009KT 9999 OVC035 08/01 Q1007,EFKS,2023-05-30T21:50:00Z,66.0,29.23,8.0,1.0,210,9,,6.21,29.734253,,,TRUE,,,,,,,,OVC,3500,,,,,,,VFR,,,,,,,,,,,,METAR,270.0
EFKK 302150Z AUTO 20010KT 9999 -SHRA NSC 09/04 Q1011,EFKK,2023-05-30T21:50:00Z,63.72,23.13,9.0,4.0,200,10,,6.21,29.852362,,,TRUE,,,,,,,-SHRA,CLR,,,,,,,,VFR,,,,,,,,,,,,METAR,25.0
EFKI 302150Z AUTO 21006KT 180V240 CAVOK 10/01 Q1011,EFKI,2023-05-30T21:50:00Z,64.27,27.67,10.0,1.0,210,6,,6.21,29.852362,,,TRUE,,,,,,,,CAVOK,,,,,,,,VFR,,,,,,,,,,,,METAR,132.0
EFKE 302150Z AUTO 21012KT CAVOK 09/04 Q1006,EFKE,2023-05-30T21:50:00Z,65.78,24.57,9.0,4.0,210,12,,6.21,29.704725,,,TRUE,,,,,,,,CAVOK,,,,,,,,VFR,,,,,,,,,,,,METAR,15.0
EFJY 302150Z AUTO 25005KT CAVOK 09/02 Q1015,EFJY,2023-05-30T21:50:00Z,62.4,25.68,9.0,2.0,250,5,,6.21,29.970472,,,TRUE,,,,,,,,CAVOK,,,,,,,,VFR,,,,,,,,,,,,METAR,139.0
EFJO 302150Z AUTO 21003KT CAVOK 04/02 Q1014,EFJO,2023-05-30T21:50:00Z,62.67,29.62,4.0,2.0,210,3,,6.21,29.940945,,,TRUE,,,,,,,,CAVOK,,,,,,,,VFR,,,,,,,,,,,,METAR,118.0
EFIV 302150Z AUTO 22011KT 190V250 9999 -SHRA OVC040 08/M00 Q1002,EFIV,2023-05-30T21:50:00Z,68.62,27.42,8.0,0.0,220,11,,6.21,29.586615,,,TRUE,,,,,,,-SHRA,OVC,4000,,,,,,,VFR,,,,,,,,,,,,METAR,145.0
EFHK 302150Z 27004KT CAVOK 07/02 Q1018 NOSIG,EFHK,2023-05-30T21:50:00Z,60.32,24.97,7.0,2.0,270,4,,6.21,30.059055,,,,,,TRUE,,,,,CAVOK,,,,,,,,VFR,,,,,,,,,,,,METAR,56.0
EFHA 302150Z AUTO 25009KT CAVOK 09/01 Q1016,EFHA,2023-05-30T21:50:00Z,61.85,24.8,9.0,1.0,250,9,,6.21,30.0,,,TRUE,,,,,,,,CAVOK,,,,,,,,VFR,,,,,,,,,,,,METAR,144.0
EFET 302150Z AUTO 18008KT 9999 -RA FEW041 04/02 Q1000,EFET,2023-05-30T21:50:00Z,68.37,23.43,4.0,2.0,180,8,,6.21,29.52756,,,TRUE,,,,,,,-RA,FEW,4100,,,,,,,VFR,,,,,,,,,,,,METAR,300.0
EETU 302150Z AUTO 27005KT 9999 NCD 05/04 Q1020,EETU,2023-05-30T21:50:00Z,58.32,26.68,5.0,4.0,270,5,,6.21,30.11811,,,TRUE,,,,,,,,CLR,,,,,,,,VFR,,,,,,,,,,,,METAR,67.0
EETN 302150Z 26009KT CAVOK 08/05 Q1020 NOSIG,EETN,2023-05-30T21:50:00Z,59.4,24.82,8.0,5.0,260,9,,6.21,30.11811,,,,,,TRUE,,,,,CAVOK,,,,,,,,VFR,,,,,,,,,,,,METAR,41.0
EEPU 302150Z AUTO 31003KT 9999 NCD 07/04 Q1021,EEPU,2023-05-30T21:50:00Z,58.42,24.47,7.0,4.0,310,3,,6.21,30.147638,,,TRUE,,,,,,,,CLR,,,,,,,,VFR,,,,,,,,,,,,METAR,13.0
EEKE 302150Z AUTO 28004KT 250V320 9999NDV NCD 07/06 Q1023,EEKE,2023-05-30T21:50:00Z,58.23,22.52,7.0,6.0,280,4,,,30.206694,,,TRUE,,,,,,,,CLR,,,,,,,,,,,,,,,,,,,,METAR,4.0
EEEI 302150Z AUTO 24005KT CAVOK 04/03 Q1021,EEEI,2023-05-30T21:50:00Z,59.27,24.2,4.0,3.0,240,5,,6.21,30.147638,,,TRUE,,,,,,,,CAVOK,,,,,,,,VFR,,,,,,,,,,,,METAR,19.0
EDXW 302150Z AUTO 32007KT 9999 // NCD 11/09 Q1028,EDXW,2023-05-30T21:50:00Z,54.92,8.33,11.0,9.0,320,7,,6.21,30.35433,,,TRUE,,,,,,,,CLR,,,,,,,,VFR,,,,,,,,,,,,METAR,8.0
EDWE 302150Z AUTO 34005KT 9999 // OVC021/// 11/09 Q1028,EDWE,2023-05-30T21:50:00Z,53.38,7.23,11.0,9.0,340,5,,6.21,30.35433,,,TRUE,,,,,,,,OVC,2100,,,,,,,MVFR,,,,,,,,,,,,METAR,0.0
EDVK 302150Z AUTO VRB02KT 9999 // NCD 11/09 Q1025,EDVK,2023-05-30T21:50:00Z,51.4,9.37,11.0,9.0,0,2,,6.21,30.265747,,,TRUE,,,,,,,,CLR,,,,,,,,VFR,,,,,,,,,,,,METAR,277.0
EDVE 302150Z AUTO 36004KT 290V080 9999 NCD 14/08 Q1026,EDVE,2023-05-30T21:50:00Z,52.32,10.55,14.0,8.0,360,4,,6.21,30.295275,,,TRUE,,,,,,,,CLR,,,,,,,,VFR,,,,,,,,,,,,METAR,83.0
EDTY 302150Z AUTO 08007KT 9999 // NCD 13/04 Q1022,EDTY,2023-05-30T21:50:00Z,49.12,9.78,13.0,4.0,80,7,,6.21,30.177166,,,TRUE,,,,,,,,CLR,,,,,,,,VFR,,,,,,,,,,,,METAR,398.0
EDTL 302150Z AUTO 02004KT 330V040 9999 // NCD 17/05 Q1019,EDTL,2023-05-30T21:50:00Z,48.37,7.83,17.0,5.0,20,4,,6.21,30.088583,,,TRUE,,,,,,,,CLR,,,,,,,,VFR,,,,,,,,,,,,METAR,152.0
EDSB 302150Z 01007KT CAVOK 18/02 Q1019,EDSB,2023-05-30T21:50:00Z,48.78,8.08,18.0,2.0,10,7,,6.21,30.088583,,,,,,,,,,,CAVOK,,,,,,,,VFR,,,,,,,,,,,,METAR,122.0
EDQM 302150Z AUTO 34004KT 9999 // NCD 11/04 Q1024,EDQM,2023-05-30T21:50:00Z,50.3,11.85,11.0,4.0,340,4,,6.21,30.236221,,,TRUE,,,,,,,,CLR,,,,,,,,VFR,,,,,,,,,,,,METAR,578.0
EDNY 302150Z AUTO 01009KT 9999 BKN240/// 16/08 Q1019,EDNY,2023-05-30T21:50:00Z,47.67,9.52,16.0,8.0,10,9,,6.21,30.088583,,,TRUE,,,,,,,,BKN,24000,,,,,,,VFR,,,,,,,,,,,,METAR,411.0
EDMO 302150Z AUTO 05005KT 9999 // NCD 14/07 Q1021,EDMO,2023-05-30T21:50:00Z,48.07,11.27,14.0,7.0,50,5,,6.21,30.147638,,,TRUE,,,,,,,,CLR,,,,,,,,VFR,,,,,,,,,,,,METAR,587.0
EDMA 302150Z AUTO 06011KT 9999 // NCD 16/05 Q1021,EDMA,2023-05-30T21:50:00Z,48.42,10.92,16.0,5.0,60,11,,6.21,30.147638,,,TRUE,,,,,,,,CLR,,,,,,,,VFR,,,,,,,,,,,,METAR,462.0
EDLW 302150Z AUTO 06005KT 030V090 9999 // NCD 12/09 Q1026,EDLW,2023-05-30T21:50:00Z,51.52,7.62,12.0,9.0,60,5,,6.21,30.295275,,,TRUE,,,,,,,,CLR,,,,,,,,VFR,,,,,,,,,,,,METAR,122.0
EDLV 302150Z AUTO 04005KT 350V080 9999 // SCT240/// 14/09 Q1026,EDLV,2023-05-30T21:50:00Z,51.6,6.15,14.0,9.0,40,5,,6.21,30.295275,,,TRUE,,,,,,,,SCT,24000,,,,,,,VFR,,,,,,,,,,,,METAR,27.0
EDLP 302150Z 15001KT CAVOK 11/09 Q1026,EDLP,2023-05-30T21:50:00Z,51.62,8.62,11.0,9.0,150,1,,6.21,30.295275,,,,,,,,,,,CAVOK,,,,,,,,VFR,,,,,,,,,,,,METAR,211.0
EDLN 302150Z AUTO 04006KT 360V080 9999 // FEW250/// 14/09 Q1025,EDLN,2023-05-30T21:50:00Z,51.23,6.5,14.0,9.0,40,6,,6.21,30.265747,,,TRUE,,,,,,,,FEW,25000,,,,,,,VFR,,,,,,,,,,,,METAR,38.0
EDJA 302150Z AUTO 08007KT 9999 // NCD 14/07 Q1020,EDJA,2023-05-30T21:50:00Z,47.98,10.23,14.0,7.0,80,7,,6.21,30.11811,,,TRUE,,,,,,,,CLR,,,,,,,,VFR,,,,,,,,,,,,METAR,625.0
EDHL 302150Z AUTO 05001KT 9999 // NCD 10/07 Q1027,EDHL,2023-05-30T21:50:00Z,53.8,10.72,10.0,7.0,50,1,,6.21,30.324802,,,TRUE,,,,,,,,CLR,,,,,,,,VFR,,,,,,,,,,,,METAR,13.0
EDHK 302150Z AUTO 34002KT 9999 // NCD 09/07 Q1028,EDHK,2023-05-30T21:50:00Z,54.38,10.15,9.0,7.0,340,2,,6.21,30.35433,,,TRUE,,,,,,,,CLR,,,,,,,,VFR,,,,,,,,,,,,METAR,24.0
EDHI 302150Z AUTO 03003KT 9999 // NCD 14/05 Q1027,EDHI,2023-05-30T21:50:00Z,53.53,9.83,14.0,5.0,30,3,,6.21,30.324802,,,TRUE,,,,,,,,CLR,,,,,,,,VFR,,,,,,,,,,,,METAR,5.0
EDGS 302150Z AUTO 10008KT 9999 // FEW240/// 12/09 Q1024,EDGS,2023-05-30T21:50:00Z,50.7,8.08,12.0,9.0,100,8,,6.21,30.236221,,,TRUE,,,,,,,,FEW,24000,,,,,,,VFR,,,,,,,,,,,,METAR,595.0
EDFM 302150Z AUTO 01006KT 9999 // NCD 17/05 Q1021,EDFM,2023-05-30T21:50:00Z,49.47,8.52,17.0,5.0,10,6,,6.21,30.147638,,,TRUE,,,,,,,,CLR,,,,,,,,VFR,,,,,,,,,,,,METAR,94.0
EDFH 302150Z 06003KT 360V150 CAVOK 13/07 Q1023,EDFH,2023-05-30T21:50:00Z,49.95,7.27,13.0,7.0,60,3,,6.21,30.206694,,,,,,,,,,,CAVOK,,,,,,,,VFR,,,,,,,,,,,,METAR,494.0
EDDW 302150Z AUTO 36005KT CAVOK 12/09 Q1027,EDDW,2023-05-30T21:50:00Z,53.03,8.8,12.0,9.0,360,5,,6.21,30.324802,,,TRUE,,,,,,,,CAVOK,,,,,,,,VFR,,,,,,,,,,,,METAR,5.0
EDDV 302150Z AUTO 32002KT CAVOK 12/09 Q1026,EDDV,2023-05-30T21:50:00Z,52.47,9.68,12.0,9.0,320,2,,6.21,30.295275,,,TRUE,,,,,,,,CAVOK,,,,,,,,VFR,,,,,,,,,,,,METAR,53.0
EDDS 302150Z AUTO 06008KT CAVOK 16/03 Q1020,EDDS,2023-05-30T21:50:00Z,48.68,9.22,16.0,3.0,60,8,,6.21,30.11811,,,TRUE,,,,,,,,CAVOK,,,,,,,,VFR,,,,,,,,,,,,METAR,374.0
EDDR 302150Z AUTO 04010KT CAVOK 15/07 Q1021,EDDR,2023-05-30T21:50:00Z,49.22,7.1,15.0,7.0,40,10,,6.21,30.147638,,,TRUE,,,,,,,,CAVOK,,,,,,,,VFR,,,,,,,,,,,,METAR,317.0
EDDP 302150Z AUTO 04006KT CAVOK 13/07 Q1024 NOSIG,EDDP,2023-05-30T21:50:00Z,51.43,12.23,13.0,7.0,40,6,,6.21,30.236221,,,TRUE,,,TRUE,,,,,CAVOK,,,,,,,,VFR,,,,,,,,,,,,METAR,129.0
EDDN 302150Z AUTO 05004KT 360V110 CAVOK 15/03 Q1023,EDDN,2023-05-30T21:50:00Z,49.5,11.05,15.0,3.0,50,4,,6.21,30.206694,,,TRUE,,,,,,,,CAVOK,,,,,,,,VFR,,,,,,,,,,,,METAR,312.0
EDDM 302150Z AUTO 04008KT CAVOK 15/07 Q1021 NOSIG,EDDM,2023-05-30T21:50:00Z,48.35,11.82,15.0,7.0,40,8,,6.21,30.147638,,,TRUE,,,TRUE,,,,,CAVOK,,,,,,,,VFR,,,,,,,,,,,,METAR,445.0
EDDL 302150Z AUTO 04009KT CAVOK 14/09 Q1025 NOSIG,EDDL,2023-05-30T21:50:00Z,51.3,6.77,14.0,9.0,40,9,,6.21,30.265747,,,TRUE,,,TRUE,,,,,CAVOK,,,,,,,,VFR,,,,,,,,,,,,METAR,37.0
EDDK 302150Z AUTO 06009KT CAVOK 15/10 Q1024 NOSIG,EDDK,2023-05-30T21:50:00Z,50.87,7.15,15.0,10.0,60,9,,6.21,30.236221,,,TRUE,,,TRUE,,,,,CAVOK,,,,,,,,VFR,,,,,,,,,,,,METAR,92.0
EDDH 302150Z AUTO 32002KT CAVOK 09/07 Q1027 NOSIG,EDDH,2023-05-30T21:50:00Z,53.63,10.0,9.0,7.0,320,2,,6.21,30.324802,,,TRUE,,,TRUE,,,,,CAVOK,,,,,,,,VFR,,,,,,,,,,,,METAR,8.0
EDDG 302150Z AUTO 03006KT 360V070 CAVOK 12/09 Q1026 NOSIG,EDDG,2023-05-30T21:50:00Z,52.13,7.7,12.0,9.0,30,6,,6.21,30.295275,,,TRUE,,,TRUE,,,,,CAVOK,,,,,,,,VFR,,,,,,,,,,,,METAR,46.0
EDDF 302150Z AUTO 03011KT CAVOK 17/06 Q1022 NOSIG,EDDF,2023-05-30T21:50:00Z,50.05,8.6,17.0,6.0,30,11,,6.21,30.177166,,,TRUE,,,TRUE,,,,,CAVOK,,,,,,,,VFR,,,,,,,,,,,,METAR,113.0
EDDE 302150Z AUTO 33004KT CAVOK 12/08 Q1025,EDDE,2023-05-30T21:50:00Z,50.98,10.97,12.0,8.0,330,4,,6.21,30.265747,,,TRUE,,,,,,,,CAVOK,,,,,,,,VFR,,,,,,,,,,,,METAR,314.0
EDDC 302150Z AUTO VRB01KT CAVOK 15/04 Q1024,EDDC,2023-05-30T21:50:00Z,51.13,13.75,15.0,4.0,0,1,,6.21,30.236221,,,TRUE,,,,,,,,CAVOK,,,,,,,,VFR,,,,,,,,,,,,METAR,227.0
EDDB 302150Z AUTO 04008KT CAVOK 15/06 Q1025 NOSIG,EDDB,2023-05-30T21:50:00Z,52.38,13.53,15.0,6.0,40,8,,6.21,30.265747,,,TRUE,,,TRUE,,,,,CAVOK,,,,,,,,VFR,,,,,,,,,,,,METAR,48.0
EDBC 302150Z AUTO 34006KT 9999 // NCD 13/07 Q1025,EDBC,2023-05-30T21:50:00Z,51.85,11.42,13.0,7.0,340,6,,6.21,30.265747,,,TRUE,,,,,,,,CLR,,,,,,,,VFR,,,,,,,,,,,,METAR,178.0
EDAH 302150Z AUTO 36004KT 9999 // NCD 09/06 Q1026,EDAH,2023-05-30T21:50:00Z,53.87,14.15,9.0,6.0,360,4,,6.21,30.295275,,,TRUE,,,,,,,,CLR,,,,,,,,VFR,,,,,,,,,,,,METAR,22.0
EDAC 302150Z AUTO 14002KT 9999 // NCD 10/06 Q1024,EDAC,2023-05-30T21:50:00Z,50.98,12.5,10.0,6.0,140,2,,6.21,30.236221,,,TRUE,,,,,,,,CLR,,,,,,,,VFR,,,,,,,,,,,,METAR,193.0
EBOS 302150Z 04012KT 9999 SCT010 BKN012 12/09 Q1026 NOSIG,EBOS,2023-05-30T21:50:00Z,51.2,2.87,12.0,9.0,40,12,,6.21,30.295275,,,,,,TRUE,,,,,SCT,1000,BKN,1200,,,,,MVFR,,,,,,,,,,,,METAR,5.0
EBLG 302150Z 03008KT CAVOK 13/09 Q1024 NOSIG,EBLG,2023-05-30T21:50:00Z,50.63,5.45,13.0,9.0,30,8,,6.21,30.236221,,,,,,TRUE,,,,,CAVOK,,,,,,,,VFR,,,,,,,,,,,,METAR,187.0
EBCI 302150Z 04011KT CAVOK 13/09 Q1024 NOSIG,EBCI,2023-05-30T21:50:00Z,50.47,4.45,13.0,9.0,40,11,,6.21,30.236221,,,,,,TRUE,,,,,CAVOK,,,,,,,,VFR,,,,,,,,,,,,METAR,176.0
EBBR 302150Z 04007KT CAVOK 12/09 Q1025 NOSIG,EBBR,2023-05-30T21:50:00Z,50.9,4.52,12.0,9.0,40,7,,6.21,30.265747,,,,,,TRUE,,,,,CAVOK,,,,,,,,VFR,,,,,,,,,,,,METAR,49.0
EBAW 302150Z AUTO 03008KT 360V060 9999 // VV/// 13/08 Q1025,EBAW,2023-05-30T21:50:00Z,51.2,4.47,13.0,8.0,30,8,,6.21,30.265747,,,TRUE,,,,,,,,OVX,0,,,,,,,LIFR,,,,,,,,,,,,METAR,7.0
CYTE 302150Z AUTO 30014KT 9SM -RA OVC015 00/M02 A2974 RMK SLP076,CYTE,2023-05-30T21:50:00Z,64.22,-76.52,0.0,-2.0,300,14,,9.0,29.740158,1007.6,,TRUE,,,,,,,-RA,OVC,1500,,,,,,,MVFR,,,,,,,,,,,,SPECI,49.0
BGSF 302150Z AUTO 13006KT 9999NDV SCT085/// BKN110/// 11/M04 Q1012,BGSF,2023-05-30T21:50:00Z,67.0,-50.72,11.0,-4.0,130,6,,,29.88189,,,TRUE,,,,,,,,SCT,8500,BKN,11000,,,,,,,,,,,,,,,,,METAR,75.0
BGKK 302150Z AUTO 28004KT 9999NDV NCD 05/M03 Q1021,BGKK,2023-05-30T21:50:00Z,65.57,-37.13,5.0,-3.0,280,4,,,30.147638,,,TRUE,,,,,,,,CLR,,,,,,,,,,,,,,,,,,,,METAR,37.0
BGJN 302150Z AUTO 00000KT 4000NDV -RASN OVC004/// 01/00 Q1015,BGJN,2023-05-30T21:50:00Z,69.25,-51.07,1.0,0.0,0,0,,,29.970472,,,TRUE,,,,,,,SN -RA,OVC,400,,,,,,,,,,,,,,,,,,,METAR,22.0
BGGH 302150Z 18013KT 9999 BKN060 09/M00 Q1014,BGGH,2023-05-30T21:50:00Z,64.2,-51.68,9.0,0.0,180,13,,6.21,29.940945,,,,,,,,,,,BKN,6000,,,,,,,VFR,,,,,,,,,,,,METAR,76.0
BGBW 302150Z VRB03KT 9999 BKN085 08/03 Q1018,BGBW,2023-05-30T21:50:00Z,61.17,-45.42,8.0,3.0,0,3,,6.21,30.059055,,,,,,,,,,,BKN,8500,,,,,,,VFR,,,,,,,,,,,,METAR,49.0
YBHM 302149Z AUTO 16019KT 9999 // SCT006 BKN014 OVC022 18/17 Q1021,YBHM,2023-05-30T21:49:00Z,-20.35,148.95,18.0,17.0,160,19,,6.21,30.147638,,,TRUE,,,,,,,,SCT,600,BKN,1400,OVC,2200,,,MVFR,,,,,,,,,,,,SPECI,4.0
MMCN 302149Z 19011KT 10SM SKC 33/05 A2979 RMK HZY,MMCN,2023-05-30T21:49:00Z,27.4,-109.83,33.0,5.0,190,11,,10.0,29.790354,,,,,,,,,,,SKC,,,,,,,,VFR,,,,,,,,,,,,METAR,57.0
KFME 302149Z AUTO 08005KT CLR 22/11 A3015 RMK AO1,KFME,2023-05-30T21:49:00Z,39.08,-76.77,22.0,11.0,80,5,,,30.15059,,,TRUE,TRUE,,,,,,,CLR,,,,,,,,,,,,,,,,,,,,METAR,43.0
K2W6 302149Z AUTO 05004KT 10SM CLR 21/12 A3013 RMK AO1 P0001,K2W6,2023-05-30T21:49:00Z,38.32,-76.55,21.0,12.0,50,4,,10.0,30.129921,,,TRUE,TRUE,,,,,,,CLR,,,,,,,,VFR,,,,,,0.01,,,,,,METAR,40.0
RJOZ 302148Z 15010KT 9999 -SHRA FEW005 BKN010 BKN015 19/18 Q1010 RMK 1ST005 5CU010 7CU015 A2983,RJOZ,2023-05-30T21:48:00Z,34.03,131.05,19.0,18.0,150,10,,6.21,29.822834,,,,,,,,,,-SHRA,FEW,500,BKN,1000,BKN,1500,,,MVFR,,,,,,,,,,,,METAR,4.0
MMMX 302148Z 22005KT 8SM BKN020 26/00 A3019 NOSIG RMK 8/200 HZY,MMMX,2023-05-30T21:48:00Z,19.43,-99.08,26.0,0.0,220,5,,8.0,30.188976,,,,,,TRUE,,,,,BKN,2000,,,,,,,MVFR,,,,,,,,,,,,METAR,2224.0
MMGL 302148Z 20004G16KT 10SM SKC 32/M08 A3004,MMGL,2023-05-30T21:48:00Z,20.52,-103.32,32.0,-8.0,200,4,16,10.0,30.041338,,,,,,,,,,,SKC,,,,,,,,VFR,,,,,,,,,,,,METAR,1531.0
KJDN 302148Z AUTO 29010KT 28/08 A2977 RMK AO1 SLP070 T02780083,KJDN,2023-05-30T21:48:00Z,47.33,-106.95,27.8,8.3,290,10,,,29.769686,1007.0,,TRUE,TRUE,,,,,,,,,,,,,,,,,,,,,,,,,,,METAR,802.0
KGEU 302148Z VRB04KT 10SM FEW250 35/M02 A2972,KGEU,2023-05-30T21:48:00Z,33.53,-112.3,35.0,-2.0,0,4,,10.0,29.719488,,,,,,,,,,,FEW,25000,,,,,,,VFR,,,,,,,,,,,,METAR,319.0
KASG 302148Z 20008G15KT 10SM SCT055 BKN110 28/19 A2994,KASG,2023-05-30T21:48:00Z,36.17,-94.12,28.0,19.0,200,8,15,10.0,29.940945,,,,,,,,,,,SCT,5500,BKN,11000,,,,,VFR,,,,,,,,,,,,METAR,410.0
OKAS 302147Z 27021G25KT 0800 DS FEW005 32/14 A2979 RMK SLP082 FZRANO $,OKAS,2023-05-30T21:47:00Z,29.35,47.52,32.0,14.0,270,21,25,0.5,29.790354,1008.2,,,,TRUE,,,TRUE,,DS,FEW,500,,,,,,,LIFR,,,,,,,,,,,,SPECI,144.0
MMCV 302147Z 02006KT 10SM SCT020 32/18 A2981 RMK 8/100,MMCV,2023-05-30T21:47:00Z,23.72,-98.97,32.0,18.0,20,6,,10.0,29.811024,,,,,,,,,,,SCT,2000,,,,,,,VFR,,,,,,,,,,,,METAR,230.0
KTOA 302147Z 26011KT 10SM SCT020 BKN035 18/11 A2997,KTOA,2023-05-30T21:47:00Z,33.8,-118.33,18.0,11.0,260,11,,10.0,29.970472,,,,,,,,,,,SCT,2000,BKN,3500,,,,,VFR,,,,,,,,,,,,METAR,30.0
KTIX 302147Z 12010KT 7SM SCT120 31/16 A2990,KTIX,2023-05-30T21:47:00Z,28.5,-80.8,31.0,16.0,120,10,,7.0,29.899607,,,,,,,,,,,SCT,12000,,,,,,,VFR,,,,,,,,,,,,METAR,10.0
KSUA 302147Z 07010KT 7SM FEW025 28/18 A2989,KSUA,2023-05-30T21:47:00Z,27.18,-80.22,28.0,18.0,70,10,,7.0,29.890747,,,,,,,,,,,FEW,2500,,,,,,,VFR,,,,,,,,,,,,METAR,4.0
KSQL 302147Z 25013KT 10SM FEW025 18/10 A2996,KSQL,2023-05-30T21:47:00Z,37.52,-122.25,18.0,10.0,250,13,,10.0,29.958662,,,,,,,,,,,FEW,2500,,,,,,,VFR,,,,,,,,,,,,METAR,1.0
KSEE 302147Z 25008KT 10SM SCT030 OVC037 19/12 A2997,KSEE,2023-05-30T21:47:00Z,32.82,-116.97,19.0,12.0,250,8,,10.0,29.970472,,,,,,,,,,,SCT,3000,OVC,3700,,,,,VFR,,,,,,,,,,,,METAR,113.0
KRHV 302147Z 32010KT 10SM FEW050 22/11 A2994,KRHV,2023-05-30T21:47:00Z,37.33,-121.82,22.0,11.0,320,10,,10.0,29.940945,,,,,,,,,,,FEW,5000,,,,,,,VFR,,,,,,,,,,,,METAR,37.0
KPOC 302147Z 21008KT 10SM BKN029 OVC040 18/11 A2996,KPOC,2023-05-30T21:47:00Z,34.1,-117.77,18.0,11.0,210,8,,10.0,29.958662,,,,,,,,,,,BKN,2900,OVC,4000,,,,,MVFR,,,,,,,,,,,,METAR,304.0
KPAO 302147Z 35013G22KT 10SM FEW030 19/13 A2995,KPAO,2023-05-30T21:47:00Z,37.47,-122.12,19.0,13.0,350,13,22,10.0,29.949802,,,,,,,,,,,FEW,3000,,,,,,,VFR,,,,,,,,,,,,METAR,2.0
KLBE 302147Z 12012KT 10SM CLR 28/07 A3009,KLBE,2023-05-30T21:47:00Z,40.27,-79.4,28.0,7.0,120,12,,10.0,30.088583,,,,,,,,,,,CLR,,,,,,,,VFR,,,,,,,,,,,,METAR,345.0
KIFP 302147Z 21015KT 10SM CLR 34/M06 A2971,KIFP,2023-05-30T21:47:00Z,35.15,-114.57,34.0,-6.0,210,15,,10.0,29.71063,,,,,,,,,,,CLR,,,,,,,,VFR,,,,,,,,,,,,METAR,210.0
KHSA 302147Z 21006G11KT 10SM FEW080 27/19 A2988,KHSA,2023-05-30T21:47:00Z,30.37,-89.45,27.0,19.0,210,6,11,10.0,29.878937,,,,,,,,,,,FEW,8000,,,,,,,VFR,,,,,,,,,,,,METAR,6.0
KGYR 302147Z 25013KT 10SM FEW250 36/M02 A2975,KGYR,2023-05-30T21:47:00Z,33.42,-112.37,36.0,-2.0,250,13,,10.0,29.749016,,,,,,,,,,,FEW,25000,,,,,,,VFR,,,,,,,,,,,,METAR,292.0
KGYH 302147Z 07007KT 10SM SCT045 26/15 A2999,KGYH,2023-05-30T21:47:00Z,34.75,-82.38,26.0,15.0,70,7,,10.0,29.991142,,,,,,,,,,,SCT,4500,,,,,,,VFR,,,,,,,,,,,,METAR,283.0
KCWA 302147Z 17010G15KT 10SM CLR 28/09 A2994,KCWA,2023-05-30T21:47:00Z,44.78,-89.67,28.0,9.0,170,10,15,10.0,29.940945,,,,,,,,,,,CLR,,,,,,,,VFR,,,,,,,,,,,,METAR,387.0
KCQT 302147Z AUTO 25005KT 10SM OVC055 20/11 A2996 RMK AO2 SLP144 T02000106,KCQT,2023-05-30T21:47:00Z,34.02,-118.28,20.0,10.6,250,5,,10.0,29.958662,1014.4,,TRUE,TRUE,,,,,,,OVC,5500,,,,,,,VFR,,,,,,,,,,,,METAR,51.0
KCIC 302147Z 11010KT 10SM CLR 24/11 A2985,KCIC,2023-05-30T21:47:00Z,39.78,-121.85,24.0,11.0,110,10,,10.0,29.84941,,,,,,,,,,,CLR,,,,,,,,VFR,,,,,,,,,,,,METAR,72.0
KCHD 302147Z 20005G11KT 10SM CLR 35/M04 A2976,KCHD,2023-05-30T21:47:00Z,33.27,-111.82,35.0,-4.0,200,5,11,10.0,29.760826,,,,,,,,,,,CLR,,,,,,,,VFR,,,,,,,,,,,,METAR,378.0
KCFO 302147Z 27025G35KT 10SM BKN065 18/03 A3002,KCFO,2023-05-30T21:47:00Z,39.78,-104.55,18.0,3.0,270,25,35,10.0,30.02067,,,,,,,,,,,BKN,6500,,,,,,,VFR,,,,,,,,,,,,METAR,1672.0
KAEG 302147Z 20013G18KT 10SM BKN100 29/M06 A3001 RMK VIRGA OHD,KAEG,2023-05-30T21:47:00Z,35.13,-106.8,29.0,-6.0,200,13,18,10.0,30.008858,,,,,,,,,,,BKN,10000,,,,,,,VFR,,,,,,,,,,,,METAR,1771.0
KADS 302147Z 18014G21KT 10SM -TSRA SCT021 BKN050 21/16 A2993 RMK LTG DSNT ALL QDTS,KADS,2023-05-30T21:47:00Z,32.97,-96.83,21.0,16.0,180,14,21,10.0,29.929134,,,,,,,,,,-TSRA,SCT,2100,BKN,5000,,,,,VFR,,,,,,,,,,,,METAR,198.0
MMSM 302146Z 32008KT 9SM SCT020TCU 26/01 A3019 RMK 8/200 HZY ISOL AC,MMSM,2023-05-30T21:46:00Z,19.75,-99.02,26.0,1.0,320,8,,9.0,30.188976,,,,,,,,,,,SCT,2000,,,,,,,VFR,,,,,,,,,,,,METAR,2250.0
MMMD 302146Z 36012G22KT 7SM FEW020 SCT300 32/23 A2975 RMK 8/403 CB SE,MMMD,2023-05-30T21:46:00Z,20.95,-89.65,32.0,23.0,360,12,22,7.0,29.749016,,,,,,,,,,,FEW,2000,SCT,30000,,,,,VFR,,,,,,,,,,,,METAR,10.0
MMCM 302146Z 13010KT 7SM SCT020 SCT200 32/24 A2973 RMK 8/508 HZY,MMCM,2023-05-30T21:46:00Z,18.5,-88.33,32.0,24.0,130,10,,7.0,29.731298,,,,,,,,,,,SCT,2000,SCT,20000,,,,,VFR,,,,,,,,,,,,METAR,10.0
KSAW 302146Z 18014KT 10SM CLR 29/06 A2994,KSAW,2023-05-30T21:46:00Z,46.35,-87.4,29.0,6.0,180,14,,10.0,29.940945,,,,,,,,,,,CLR,,,,,,,,VFR,,,,,,,,,,,,METAR,359.0
TJIG 302145Z 16003KT 10SM SCT030 OVC060 27/24 A2993,TJIG,2023-05-30T21:45:00Z,18.45,-66.1,27.0,24.0,160,3,,10.0,29.929134,,,,,,,,,,,SCT,3000,OVC,6000,,,,,VFR,,,,,,,,,,,,METAR,3.0
SBPB 302145Z 09012KT 9999 FEW020 ///// Q1012,SBPB,2023-05-30T21:45:00Z,-2.88,-41.72,,,90,12,,6.21,29.88189,,,,,,,,,,,FEW,2000,,,,,,,VFR,,,,,,,,,,,,SPECI,3.0
PALP 302145Z VRB03KT 10SM SCT006 BKN038 04/02 A2965,PALP,2023-05-30T21:45:00Z,70.33,-150.93,4.0,2.0,0,3,,10.0,29.648623,,,,,,,,,,,SCT,600,BKN,3800,,,,,VFR,,,,,,,,,,,,METAR,4.0
PAFB 302145Z 25010KT 5SM -DZ BR BKN006 OVC009 08/07 A2964 RMK AO2A CIG 006V009 SLP045 FZRANO $,PAFB,2023-05-30T21:45:00Z,64.83,-147.62,8.0,7.0,250,10,,5.0,29.639763,1004.5,,,TRUE,TRUE,,,TRUE,,-DZ BR,BKN,600,OVC,900,,,,,IFR,,,,,,,,,,,,METAR,137.0
MMSL 302145Z 26007KT 10SM SKC 27/13 A2986 RMK CU,MMSL,2023-05-30T21:45:00Z,22.95,-109.93,27.0,13.0,260,7,,10.0,29.861221,,,,,,,,,,,SKC,,,,,,,,VFR,,,,,,,,,,,,METAR,205.0
MMPS 302145Z 21006KT 6SM FEW020 32/24 A2978 RMK 8/100 DSNT CB N HZY,MMPS,2023-05-30T21:45:00Z,15.87,-97.08,32.0,24.0,210,6,,6.0,29.778543,,,,,,,,,,,FEW,2000,,,,,,,VFR,,,,,,,,,,,,METAR,65.0
MMLP 302145Z 19007KT 10SM SKC 32/06 A2984 RMK ISOL CU,MMLP,2023-05-30T21:45:00Z,24.07,-110.37,32.0,6.0,190,7,,10.0,29.840551,,,,,,,,,,,SKC,,,,,,,,VFR,,,,,,,,,,,,METAR,16.0
MMCU 302145Z 23008KT 10SM SCT030 32/03 A2997 RMK 8/100 MDTCU,MMCU,2023-05-30T21:45:00Z,28.7,-105.97,32.0,3.0,230,8,,10.0,29.970472,,,,,,,,,,,SCT,3000,,,,,,,VFR,,,,,,,,,,,,METAR,1349.0
MMCE 302145Z 36015KT 6SM SCT015 BKN280 30/25 A2976 RMK 8/108 HZY,MMCE,2023-05-30T21:45:00Z,18.65,-91.8,30.0,25.0,360,15,,6.0,29.760826,,,,,,,,,,,SCT,1500,BKN,28000,,,,,VFR,,,,,,,,,,,,METAR,5.0
LMML 302145Z 06008KT 9999 FEW018 20/18 Q1013 NOSIG,LMML,2023-05-30T21:45:00Z,35.85,14.47,20.0,18.0,60,8,,6.21,29.911417,,,,,,TRUE,,,,,FEW,1800,,,,,,,VFR,,,,,,,,,,,,METAR,78.0
LIRP 302145Z 10003KT CAVOK 19/14 Q1014 NOSIG,LIRP,2023-05-30T21:45:00Z,43.68,10.38,19.0,14.0,100,3,,6.21,29.940945,,,,,,TRUE,,,,,CAVOK,,,,,,,,VFR,,,,,,,,,,,,METAR,1.0
LHSN 302145Z 35006KT CAVOK 18/13 Q1017 NOSIG RMK BLU,LHSN,2023-05-30T21:45:00Z,47.12,20.23,18.0,13.0,350,6,,6.21,30.029528,,,,,,TRUE,,,,,CAVOK,,,,,,,,VFR,,,,,,,,,,,,METAR,89.0
LHKE 302145Z 36008KT CAVOK 19/12 Q1017 NOSIG RMK BLU,LHKE,2023-05-30T21:45:00Z,46.92,19.75,19.0,12.0,360,8,,6.21,30.029528,,,,,,TRUE,,,,,CAVOK,,,,,,,,VFR,,,,,,,,,,,,METAR,113.0
KW29 302145Z AUTO 09008KT 10SM CLR 23/10 A3012 RMK AO2 T02310099,KW29,2023-05-30T21:45:00Z,38.98,-76.33,23.1,9.9,90,8,,10.0,30.121063,,,TRUE,TRUE,,,,,,,CLR,,,,,,,,VFR,,,,,,,,,,,,METAR,1.0
KVUJ 302145Z AUTO 08003KT 10SM -RA SCT029 BKN046 OVC065 20/19 A3006 RMK AO2 P0004 T02010187,KVUJ,2023-05-30T21:45:00Z,35.42,-80.15,20.1,18.7,80,3,,10.0,30.059055,,,TRUE,TRUE,,,,,,-RA,SCT,2900,BKN,4600,OVC,6500,,,VFR,,,,,,0.04,,,,,,METAR,174.0
KUKF 302145Z AUTO 06007G14KT 10SM CLR 21/14 A3011 RMK AO2,KUKF,2023-05-30T21:45:00Z,36.22,-81.1,21.0,14.0,60,7,14,10.0,30.109253,,,TRUE,TRUE,,,,,,,CLR,,,,,,,,VFR,,,,,,,,,,,,METAR,383.0
KUES 302145Z 09010KT 10SM CLR 28/09 A2997,KUES,2023-05-30T21:45:00Z,43.05,-88.25,28.0,9.0,90,10,,10.0,29.970472,,,,,,,,,,,CLR,,,,,,,,VFR,,,,,,,,,,,,METAR,273.0
KTTA 302145Z AUTO 04008G14KT 10SM SCT030 BKN037 23/16 A3003 RMK AO2 T02310159,KTTA,2023-05-30T21:45:00Z,35.58,-79.1,23.1,15.9,40,8,14,10.0,30.029528,,,TRUE,TRUE,,,,,,,SCT,3000,BKN,3700,,,,,VFR,,,,,,,,,,,,METAR,71.0
KTDF 302145Z AUTO 02007KT 10SM OVC011 17/15 A3010 RMK AO2,KTDF,2023-05-30T21:45:00Z,36.28,-78.98,17.0,15.0,20,7,,10.0,30.100393,,,TRUE,TRUE,,,,,,,OVC,1100,,,,,,,MVFR,,,,,,,,,,,,METAR,180.0
KSWF 302145Z 15008KT 10SM SKC 22/05 A3016,KSWF,2023-05-30T21:45:00Z,41.5,-74.08,22.0,5.0,150,8,,10.0,30.159449,,,,,,,,,,,SKC,,,,,,,,VFR,,,,,,,,,,,,METAR,139.0
KSVH 302145Z AUTO 04009G16KT 10SM BKN034 BKN048 24/16 A3002 RMK AO2 T02410163,KSVH,2023-05-30T21:45:00Z,35.75,-80.95,24.1,16.3,40,9,16,10.0,30.02067,,,TRUE,TRUE,,,,,,,BKN,3400,BKN,4800,,,,,VFR,,,,,,,,,,,,METAR,286.0
KSIF 302145Z AUTO 07005KT 10SM BKN014 OVC021 19/16 A3008 RMK AO2 T01850158,KSIF,2023-05-30T21:45:00Z,36.43,-79.85,18.5,15.8,70,5,,10.0,30.079725,,,TRUE,TRUE,,,,,,,BKN,1400,OVC,2100,,,,,MVFR,,,,,,,,,,,,METAR,206.0
KSCR 302145Z AUTO 03010G15KT 10SM SCT026 OVC034 22/17 A3004 RMK AO2 T02150172,KSCR,2023-05-30T21:45:00Z,35.7,-79.5,21.5,17.2,30,10,15,10.0,30.041338,,,TRUE,TRUE,,,,,,,SCT,2600,OVC,3400,,,,,VFR,,,,,,,,,,,,METAR,182.0
KRUQ 302145Z AUTO 05009G16KT 10SM SCT033 SCT040 BKN060 23/15 A3002 RMK AO2 T02290154,KRUQ,2023-05-30T21:45:00Z,35.65,-80.52,22.9,15.4,50,9,16,10.0,30.02067,,,TRUE,TRUE,,,,,,,SCT,3300,SCT,4000,BKN,6000,,,VFR,,,,,,,,,,,,METAR,231.0
KPGV 302145Z AUTO 02011KT 7SM SCT018 BKN028 BKN034 22/20 A3002 RMK AO2,KPGV,2023-05-30T21:45:00Z,35.63,-77.4,22.0,20.0,20,11,,7.0,30.02067,,,TRUE,TRUE,,,,,,,SCT,1800,BKN,2800,BKN,3400,,,MVFR,,,,,,,,,,,,METAR,6.0
KOUN 302145Z 14008KT 10SM SCT050 BKN080 30/17 A2989,KOUN,2023-05-30T21:45:00Z,35.25,-97.47,30.0,17.0,140,8,,10.0,29.890747,,,,,,,,,,,SCT,5000,BKN,8000,,,,,VFR,,,,,,,,,,,,METAR,359.0
KONX 302145Z AUTO 03014G21KT 7SM OVC006 19/18 A3003 RMK AO2 T01850176,KONX,2023-05-30T21:45:00Z,36.4,-76.02,18.5,17.6,30,14,21,7.0,30.029528,,,TRUE,TRUE,,,,,,,OVC,600,,,,,,,IFR,,,,,,,,,,,,METAR,4.0
KOCW 302145Z AUTO 01012G19KT 10SM BKN021 BKN025 BKN038 22/17 A3002 RMK AO2 T02180167,KOCW,2023-05-30T21:45:00Z,35.57,-77.05,21.8,16.7,10,12,19,10.0,30.02067,,,TRUE,TRUE,,,,,,,BKN,2100,BKN,2500,BKN,3800,,,MVFR,,,,,,,,,,,,METAR,10.0
KMWK 302145Z AUTO 09009G14KT 10SM SCT024 SCT035 BKN050 21/16 A3008 RMK AO2 T02130160,KMWK,2023-05-30T21:45:00Z,36.47,-80.55,21.3,16.0,90,9,14,10.0,30.079725,,,TRUE,TRUE,,,,,,,SCT,2400,SCT,3500,BKN,5000,,,VFR,,,,,,,,,,,,METAR,374.0
KMWC 302145Z 12006KT 10SM CLR 26/03 A2998,KMWC,2023-05-30T21:45:00Z,43.12,-88.03,26.0,3.0,120,6,,10.0,29.97933,,,,,,,,,,,CLR,,,,,,,,VFR,,,,,,,,,,,,METAR,225.0
KMWA 302145Z 01004KT 20SM SCT085 31/13 A2992,KMWA,2023-05-30T21:45:00Z,37.77,-89.02,31.0,13.0,10,4,,20.0,29.920275,,,,,,,,,,,SCT,8500,,,,,,,VFR,,,,,,,,,,,,METAR,142.0
KMRN 302145Z AUTO 00000KT 10SM SCT030 BKN080 OVC100 21/18 A3005 RMK AO2 P0005 T02080178,KMRN,2023-05-30T21:45:00Z,35.82,-81.62,20.8,17.8,0,0,,10.0,30.050198,,,TRUE,TRUE,,,,,,,SCT,3000,BKN,8000,OVC,10000,,,VFR,,,,,,0.05,,,,,,METAR,375.0
KMMU 302145Z 12003KT 10SM SCT250 22/07 A3017,KMMU,2023-05-30T21:45:00Z,40.78,-74.42,22.0,7.0,120,3,,10.0,30.171259,,,,,,,,,,,SCT,25000,,,,,,,VFR,,,,,,,,,,,,METAR,55.0
KMCZ 302145Z AUTO 03007G16KT 350V060 10SM OVC014 20/17 A3004 RMK AO2 T01980171,KMCZ,2023-05-30T21:45:00Z,,,19.8,17.1,30,7,16,10.0,30.041338,,,TRUE,TRUE,,,,,,,OVC,1400,,,,,,,MVFR,,,,,,,,,,,,METAR,
KLOT 302145Z VRB05KT 10SM CLR 32/11 A2993,KLOT,2023-05-30T21:45:00Z,41.6,-88.1,32.0,11.0,0,5,,10.0,29.929134,,,,,,,,,,,CLR,,,,,,,,VFR,,,,,,,,,,,,METAR,205.0
KJVL 302145Z 19005KT 10SM BKN250 31/03 A2993,KJVL,2023-05-30T21:45:00Z,42.62,-89.05,31.0,3.0,190,5,,10.0,29.929134,,,,,,,,,,,BKN,25000,,,,,,,VFR,,,,,,,,,,,,METAR,244.0
KJNX 302145Z AUTO 03015G18KT 10SM SCT027 OVC038 23/17 A3003 RMK AO2,KJNX,2023-05-30T21:45:00Z,35.53,-78.38,23.0,17.0,30,15,18,10.0,30.029528,,,TRUE,TRUE,,,,,,,SCT,2700,OVC,3800,,,,,VFR,,,,,,,,,,,,METAR,41.0
KIPJ 302145Z AUTO 00000KT 10SM SCT050 BKN075 OVC110 20/18 A3003 RMK AO2 T02000181,KIPJ,2023-05-30T21:45:00Z,35.48,-81.17,20.0,18.1,0,0,,10.0,30.029528,,,TRUE,TRUE,,,,,,,SCT,5000,BKN,7500,OVC,11000,,,VFR,,,,,,,,,,,,METAR,266.0
KHRJ 302145Z AUTO 05008KT 10SM SCT031 SCT044 SCT055 24/17 A3002 RMK AO2 T02440171,KHRJ,2023-05-30T21:45:00Z,35.38,-78.73,24.4,17.1,50,8,,10.0,30.02067,,,TRUE,TRUE,,,,,,,SCT,3100,SCT,4400,SCT,5500,,,VFR,,,,,,,,,,,,METAR,55.0
KHBI 302145Z AUTO 05007G14KT 010V070 10SM SCT031 BKN039 22/16 A3005 RMK AO2 T02160155,KHBI,2023-05-30T21:45:00Z,35.65,-79.9,21.6,15.5,50,7,14,10.0,30.050198,,,TRUE,TRUE,,,,,,,SCT,3100,BKN,3900,,,,,VFR,,,,,,,,,,,,METAR,199.0
KGYY 302145Z 03010KT 10SM CLR 24/14 A2995,KGYY,2023-05-30T21:45:00Z,41.62,-87.42,24.0,14.0,30,10,,10.0,29.949802,,,,,,,,,,,CLR,,,,,,,,VFR,,,,,,,,,,,,METAR,179.0
KGEV 302145Z AUTO 10007KT 10SM SCT031 SCT039 19/12 A3012 RMK AO2 T01870118,KGEV,2023-05-30T21:45:00Z,36.43,-81.42,18.7,11.8,100,7,,10.0,30.121063,,,TRUE,TRUE,,,,,,,SCT,3100,SCT,3900,,,,,VFR,,,,,,,,,,,,METAR,961.0
KFWS 302145Z 09010KT 10SM SCT050 28/17 A2990,KFWS,2023-05-30T21:45:00Z,32.57,-97.3,28.0,17.0,90,10,,10.0,29.899607,,,,,,,,,,,SCT,5000,,,,,,,VFR,,,,,,,,,,,,METAR,211.0
KFQD 302145Z AUTO 00000KT 10SM OVC080 22/18 A3004 RMK AO2,KFQD,2023-05-30T21:45:00Z,35.42,-81.93,22.0,18.0,0,0,,10.0,30.041338,,,TRUE,TRUE,,,,,,,OVC,8000,,,,,,,VFR,,,,,,,,,,,,METAR,325.0
KFMH 302145Z 15008KT 10SM CLR 14/06 A3023,KFMH,2023-05-30T21:45:00Z,41.65,-70.52,14.0,6.0,150,8,,10.0,30.230314,,,,,,,,,,,CLR,,,,,,,,VFR,,,,,,,,,,,,METAR,35.0
KESN 302145Z 09009KT 10SM CLR 21/11 A3013,KESN,2023-05-30T21:45:00Z,38.8,-76.07,21.0,11.0,90,9,,10.0,30.129921,,,,,,,,,,,CLR,,,,,,,,VFR,,,,,,,,,,,,METAR,14.0
KEMT 302145Z 22003KT 10SM BKN048 20/10 A2995,KEMT,2023-05-30T21:45:00Z,34.08,-118.03,20.0,10.0,220,3,,10.0,29.949802,,,,,,,,,,,BKN,4800,,,,,,,VFR,,,,,,,,,,,,METAR,84.0
KEHO 302145Z AUTO 03008KT 10SM SCT027 BKN070 OVC110 23/17 A3001 RMK AO2 T02250172,KEHO,2023-05-30T21:45:00Z,35.25,-81.6,22.5,17.2,30,8,,10.0,30.008858,,,TRUE,TRUE,,,,,,,SCT,2700,BKN,7000,OVC,11000,,,VFR,,,,,,,,,,,,METAR,261.0
KEDE 302145Z AUTO 01009KT 10SM OVC011 21/20 A3004 RMK AO2 T02050195,KEDE,2023-05-30T21:45:00Z,36.03,-76.57,20.5,19.5,10,9,,10.0,30.041338,,,TRUE,TRUE,,,,,,,OVC,1100,,,,,,,MVFR,,,,,,,,,,,,METAR,4.0
KDPL 302145Z AUTO 01007G15KT 7SM SCT060 OVC085 22/19 A3000 RMK AO2,KDPL,2023-05-30T21:45:00Z,35.0,-77.97,22.0,19.0,10,7,15,7.0,30.0,,,TRUE,TRUE,,,,,,,SCT,6000,OVC,8500,,,,,VFR,,,,,,,,,,,,METAR,39.0
KDMW 302145Z AUTO 11007KT 090V150 10SM CLR 28/08 A3013 RMK AO2,KDMW,2023-05-30T21:45:00Z,39.6,-77.0,28.0,8.0,110,7,,10.0,30.129921,,,TRUE,TRUE,,,,,,,CLR,,,,,,,,VFR,,,,,,,,,,,,METAR,239.0
KCTZ 302145Z AUTO 01009G15KT 10SM SCT039 SCT049 SCT065 26/19 A2999 RMK AO2 T02560193,KCTZ,2023-05-30T21:45:00Z,34.98,-78.37,25.6,19.3,10,9,15,10.0,29.991142,,,TRUE,TRUE,,,,,,,SCT,3900,SCT,4900,SCT,6500,,,VFR,,,,,,,,,,,,METAR,43.0
KCPC 302145Z AUTO 05005KT 7SM SCT046 SCT055 SCT065 27/16 A2996 RMK AO2 T02720157,KCPC,2023-05-30T21:45:00Z,34.28,-78.72,27.2,15.7,50,5,,7.0,29.958662,,,TRUE,TRUE,,,,,,,SCT,4600,SCT,5500,SCT,6500,,,VFR,,,,,,,,,,,,METAR,27.0
KCGF 302145Z 12010KT 10SM FEW040 29/11 A3004,KCGF,2023-05-30T21:45:00Z,41.57,-81.47,29.0,11.0,120,10,,10.0,30.041338,,,,,,,,,,,FEW,4000,,,,,,,VFR,,,,,,,,,,,,METAR,265.0
KCGE 302145Z AUTO 06010KT 10SM CLR 21/13 A3012 RMK A01,KCGE,2023-05-30T21:45:00Z,38.53,-76.03,21.0,13.0,60,10,,10.0,30.121063,,,TRUE,TRUE,,,,,,,CLR,,,,,,,,VFR,,,,,,,,,,,,METAR,5.0
KCBE 302145Z AUTO 14006KT 10SM CLR 27/10 A3014 RMK AO2 T02690098,KCBE,2023-05-30T21:45:00Z,39.62,-78.77,26.9,9.8,140,6,,10.0,30.138779,,,TRUE,TRUE,,,,,,,CLR,,,,,,,,VFR,,,,,,,,,,,,METAR,226.0
KBBG 302145Z 00000KT 10SM SCT120 26/18 A2996 RMK LTG DSNT N AND S,KBBG,2023-05-30T21:45:00Z,36.53,-93.2,26.0,18.0,0,0,,10.0,29.958662,,,,,,,,,,,SCT,12000,,,,,,,VFR,,,,,,,,,,,,METAR,403.0
KBAK 302145Z 12006KT 10SM SCT060 27/14 A2995,KBAK,2023-05-30T21:45:00Z,39.27,-85.9,27.0,14.0,120,6,,10.0,29.949802,,,,,,,,,,,SCT,6000,,,,,,,VFR,,,,,,,,,,,,METAR,199.0
KATW 302145Z 15012KT 10SM SCT120 30/06 A2993,KATW,2023-05-30T21:45:00Z,44.27,-88.52,30.0,6.0,150,12,,10.0,29.929134,,,,,,,,,,,SCT,12000,,,,,,,VFR,,,,,,,,,,,,METAR,266.0
KASJ 302145Z AUTO 02008KT 10SM BKN010 OVC020 18/18 A3006 RMK AO2 T01820182,KASJ,2023-05-30T21:45:00Z,36.28,-77.17,18.2,18.2,20,8,,10.0,30.059055,,,TRUE,TRUE,,,,,,,BKN,1000,OVC,2000,,,,,MVFR,,,,,,,,,,,,METAR,20.0
KACZ 302145Z AUTO 02004KT 10SM -RA SCT047 SCT060 OVC100 20/19 A2998 RMK AO2 P0030 T01990187,KACZ,2023-05-30T21:45:00Z,,,19.9,18.7,20,4,,10.0,29.97933,,,TRUE,TRUE,,,,,,-RA,SCT,4700,SCT,6000,OVC,10000,,,VFR,,,,,,0.3,,,,,,METAR,
K7W6 302145Z AUTO 01010KT 10SM BKN024 OVC037 23/19 A2999 RMK AO2 T02250191,K7W6,2023-05-30T21:45:00Z,35.55,-75.95,22.5,19.1,10,10,,10.0,29.991142,,,TRUE,TRUE,,,,,,,BKN,2400,OVC,3700,,,,,MVFR,,,,,,,,,,,,METAR,1.0
K2G4 302145Z AUTO 13013G19KT 10SM CLR 22/07 A3017 RMK AO2,K2G4,2023-05-30T21:45:00Z,39.58,-79.33,22.0,7.0,130,13,19,10.0,30.171259,,,TRUE,TRUE,,,,,,,CLR,,,,,,,,VFR,,,,,,,,,,,,METAR,908.0
K24A 302145Z AUTO 14005KT 10SM 22/12 A3006 RMK AO2 T02180120,K24A,2023-05-30T21:45:00Z,35.32,-83.2,21.8,12.0,140,5,,10.0,30.059055,,,TRUE,TRUE,,,,,,,,,,,,,,,,,,,,,,,,,,,METAR,864.0
CZST 302145Z 21006KT 130V240 15SM BKN050 OVC110 11/05 A2992 RMK SC5AS3 SLP135,CZST,2023-05-30T21:45:00Z,55.93,-129.98,11.0,5.0,210,6,,15.0,29.920275,1013.5,,,,,,,,,,BKN,5000,OVC,11000,,,,,VFR,,,,,,,,,,,,SPECI,10.0
CWPF 302145Z AUTO 23016KT 14/02 RMK AO1 PK WND 23019/2137 SLP160 T01350015 58005,CWPF,2023-05-30T21:45:00Z,48.43,-123.43,13.5,1.5,230,16,,,,1016.0,,TRUE,TRUE,,,,,,,,,,,,,,,,-0.5,,,,,,,,,,,METAR,5.0
MMVR 302144Z 03014KT 4SM FEW100 32/24 A2974 RMK 8/030 HZY,MMVR,2023-05-30T21:44:00Z,19.15,-96.18,32.0,24.0,30,14,,4.0,29.740158,,,,,,,,,,,FEW,10000,,,,,,,MVFR,,,,,,,,,,,,METAR,26.0
MMTG 302144Z 28007KT 5SM SCT040CB 37/16 A2974 RMK 8/300 HZY / CB VC NE,MMTG,2023-05-30T21:44:00Z,16.57,-93.03,37.0,16.0,280,7,,5.0,29.740158,,,,,,,,,,,SCT,4000,,,,,,,MVFR,,,,,,,,,,,,METAR,463.0
MMPG 302144Z 12008KT 10SM FEW040 31/20 A2987 RMK 8/100,MMPG,2023-05-30T21:44:00Z,28.62,-100.53,31.0,20.0,120,8,,10.0,29.870079,,,,,,,,,,,FEW,4000,,,,,,,VFR,,,,,,,,,,,,METAR,224.0
MMPB 302144Z 16006KT 9SM SCT025 26/05 A3019 RMK 8/200 HZY,MMPB,2023-05-30T21:44:00Z,19.17,-98.37,26.0,5.0,160,6,,9.0,30.188976,,,,,,,,,,,SCT,2500,,,,,,,VFR,,,,,,,,,,,,METAR,2250.0
MMNL 302144Z 09010KT 10SM SKC 34/18 A2982 RMK ISOL CU,MMNL,2023-05-30T21:44:00Z,27.43,-99.57,34.0,18.0,90,10,,10.0,29.819881,,,,,,,,,,,SKC,,,,,,,,VFR,,,,,,,,,,,,METAR,146.0
MMIO 302144Z 36008KT 10SM SKC 28/12 A3014 RMK SC,MMIO,2023-05-30T21:44:00Z,25.55,-100.93,28.0,12.0,360,8,,10.0,30.138779,,,,,,,,,,,SKC,,,,,,,,VFR,,,,,,,,,,,,METAR,1430.0
MMEP 302144Z 34012KT 12SM SKC 32/13 A2996 RMK ISOL SC,MMEP,2023-05-30T21:44:00Z,21.42,-104.85,32.0,13.0,340,12,,12.0,29.958662,,,,,,,,,,,SKC,,,,,,,,VFR,,,,,,,,,,,,METAR,921.0
MMDO 302144Z 33008KT 10SM SKC 30/M05 A3007,MMDO,2023-05-30T21:44:00Z,24.12,-104.52,30.0,-5.0,330,8,,10.0,30.070866,,,,,,,,,,,SKC,,,,,,,,VFR,,,,,,,,,,,,METAR,1863.0
MMCZ 302144Z 14011KT 8SM FEW015 33/24 A2974 RMK 8/500 TCU N,MMCZ,2023-05-30T21:44:00Z,20.52,-86.92,33.0,24.0,140,11,,8.0,29.740158,,,,,,,,,,,FEW,1500,,,,,,,VFR,,,,,,,,,,,,METAR,7.0
MMCS 302144Z 17014KT 10SM SCT030 34/M02 A2991 RMK 8/100,MMCS,2023-05-30T21:44:00Z,31.63,-106.42,34.0,-2.0,170,14,,10.0,29.911417,,,,,,,,,,,SCT,3000,,,,,,,VFR,,,,,,,,,,,,METAR,1194.0
KSAR 302144Z AUTO 19003KT 10SM BKN100 30/13 A2993 RMK AO2,KSAR,2023-05-30T21:44:00Z,38.15,-89.7,30.0,13.0,190,3,,10.0,29.929134,,,TRUE,TRUE,,,,,,,BKN,10000,,,,,,,VFR,,,,,,,,,,,,SPECI,162.0
KRCA 302144Z AUTO 06004KT 8SM FEW006 FEW022 SCT050 BKN075 BKN110 BKN200 24/11 A2983 RMK AO2 LTG DSNT S TSB29E44 SLP087 $,KRCA,2023-05-30T21:44:00Z,44.15,-103.12,24.0,11.0,60,4,,8.0,29.828741,1008.7,,TRUE,TRUE,TRUE,,,,,,FEW,600,FEW,2200,SCT,5000,BKN,7500,VFR,,,,,,,,,,,,METAR,993.0
KCVX 302144Z AUTO 34004KT 10SM CLR 25/05 A2999 RMK AO2,KCVX,2023-05-30T21:44:00Z,45.3,-85.27,25.0,5.0,340,4,,10.0,29.991142,,,TRUE,TRUE,,,,,,,CLR,,,,,,,,VFR,,,,,,,,,,,,SPECI,196.0
YPPH 302143Z 02005KT 2500 -SHRA BR FEW018 SCT040 BKN052 15/15 Q1016,YPPH,2023-05-30T21:43:00Z,-31.93,115.98,15.0,15.0,20,5,,1.55,30.0,,,,,,,,,,-SHRA BR,FEW,1800,SCT,4000,BKN,5200,,,IFR,,,,,,,,,,,,SPECI,16.0
MMTJ 302143Z 26012KT 8SM BKN020 OVC035 17/12 A3000 RMK 8/5// HZY,MMTJ,2023-05-30T21:43:00Z,32.53,-116.97,17.0,12.0,260,12,,8.0,30.0,,,,,,,,,,,BKN,2000,OVC,3500,,,,,MVFR,,,,,,,,,,,,METAR,150.0
MMRX 302143Z 07008KT 10SM BKN045 31/17 A2982 RMK 8/400 TCU E CI,MMRX,2023-05-30T21:43:00Z,26.02,-98.22,31.0,17.0,70,8,,10.0,29.819881,,,,,,,,,,,BKN,4500,,,,,,,VFR,,,,,,,,,,,,METAR,45.0
MMPA 302143Z 06010KT 7SM SKC 33/23 A2978 RMK HZY,MMPA,2023-05-30T21:43:00Z,20.6,-97.47,33.0,23.0,60,10,,7.0,29.778543,,,,,,,,,,,SKC,,,,,,,,VFR,,,,,,,,,,,,METAR,153.0
MMLO 302143Z 28007KT 10SM SCT030 32/M01 A3013 RMK 8/500,MMLO,2023-05-30T21:43:00Z,21.0,-101.47,32.0,-1.0,280,7,,10.0,30.129921,,,,,,,,,,,SCT,3000,,,,,,,VFR,,,,,,,,,,,,METAR,1805.0
MMLM 302143Z 22015KT 10SM SKC 29/11 A2984,MMLM,2023-05-30T21:43:00Z,25.68,-109.08,29.0,11.0,220,15,,10.0,29.840551,,,,,,,,,,,SKC,,,,,,,,VFR,,,,,,,,,,,,METAR,6.0
DAUT 302143Z 03014KT 4000 HZ NSC 26/11 Q1012,DAUT,2023-05-30T21:43:00Z,29.25,0.27,26.0,11.0,30,14,,2.49,29.88189,,,,,,,,,,HZ,CLR,,,,,,,,IFR,,,,,,,,,,,,SPECI,307.0
CYET 302143Z AUTO 13004KT 9SM FEW035 SCT120 17/11 A2968 RMK LTNG DIST N PCPN 3.5MM PAST HR SLP047 DENSITY ALT 4300FT,CYET,2023-05-30T21:43:00Z,53.57,-116.47,17.0,11.0,130,4,,9.0,29.681103,1004.7,,TRUE,,,,,,,,FEW,3500,SCT,12000,,,,,VFR,,,,,,,,,,,,SPECI,925.0
CYBU 302143Z AUTO VRB06KT 4SM HZ CLR 29/09 A2973 RMK SLP067 DENSITY ALT 3400FT,CYBU,2023-05-30T21:43:00Z,53.32,-104.0,29.0,9.0,0,6,,4.0,29.731298,1006.7,,TRUE,,,,,,,HZ,CLR,,,,,,,,MVFR,,,,,,,,,,,,SPECI,369.0
MMTP 302142Z 05005KT 8SM SCT015CB BKN070 31/27 A2979 RMK 8/370 CB 1ST QUAD,MMTP,2023-05-30T21:42:00Z,14.78,-92.37,31.0,27.0,50,5,,8.0,29.790354,,,,,,,,,,,SCT,1500,BKN,7000,,,,,VFR,,,,,,,,,,,,METAR,27.0
MMBT 302142Z 23010KT 8SM FEW020 BKN220 32/23 A2981 RMK 8/103,MMBT,2023-05-30T21:42:00Z,15.77,-96.27,32.0,23.0,230,10,,8.0,29.811024,,,,,,,,,,,FEW,2000,BKN,22000,,,,,VFR,,,,,,,,,,,,METAR,137.0
MMAS 302142Z 15006KT 10SM FEW050 27/M04 A3010 RMK 8/100,MMAS,2023-05-30T21:42:00Z,21.7,-102.32,27.0,-4.0,150,6,,10.0,30.100393,,,,,,,,,,,FEW,5000,,,,,,,VFR,,,,,,,,,,,,METAR,1866.0
KGXF 302142Z AUTO 22017G25KT 10SM CLR 36/M05 A2973 RMK AO2 WSHFT 40 SLP055 FZRANO $,KGXF,2023-05-30T21:42:00Z,32.88,-112.72,36.0,-5.0,220,17,25,10.0,29.731298,1005.5,,TRUE,TRUE,TRUE,,,TRUE,,,CLR,,,,,,,,VFR,,,,,,,,,,,,SPECI,261.0
KEVM 302142Z AUTO 15009G16KT 10SM BKN048 25/16 A2984 RMK AO2 LTG DSNT S AND SW,KEVM,2023-05-30T21:42:00Z,47.42,-92.5,25.0,16.0,150,9,16,10.0,29.840551,,,TRUE,TRUE,,,,,,,BKN,4800,,,,,,,VFR,,,,,,,,,,,,SPECI,419.0
MMZC 302141Z E00000KT 10SM SCT040 27/02 A3014 RMK 8/100,MMZC,2023-05-30T21:41:00Z,22.9,-102.68,27.0,2.0,0,0,,10.0,30.138779,,,,,,,,,,,SCT,4000,,,,,,,VFR,,,,,,,,,,,,METAR,2175.0
MMVA 302141Z 35008KT 6SM SKC 34/24 A2975 RMK HZY,MMVA,2023-05-30T21:41:00Z,18.0,-92.82,34.0,24.0,350,8,,6.0,29.749016,,,,,,,,,,,SKC,,,,,,,,VFR,,,,,,,,,,,,METAR,13.0
MMTC 302141Z 05009KT 10SM FEW030 FEW100 34/M03 A2994 RMK 8/170 ISOLCI,MMTC,2023-05-30T21:41:00Z,25.57,-103.4,34.0,-3.0,50,9,,10.0,29.940945,,,,,,,,,,,FEW,3000,FEW,10000,,,,,VFR,,,,,,,,,,,,METAR,1128.0
MMSD 302141Z 13014KT 10SM SKC 30/11 A2985 RMK CU AC,MMSD,2023-05-30T21:41:00Z,23.15,-109.72,30.0,11.0,130,14,,10.0,29.84941,,,,,,,,,,,SKC,,,,,,,,VFR,,,,,,,,,,,,METAR,107.0
MMMZ 302141Z 27012KT 15SM SKC 30/22 A2981,MMMZ,2023-05-30T21:41:00Z,23.17,-106.27,30.0,22.0,270,12,,15.0,29.811024,,,,,,,,,,,SKC,,,,,,,,VFR,,,,,,,,,,,,METAR,7.0
MMGM 302141Z 20011KT 10SM SKC 31/18 A2978,MMGM,2023-05-30T21:41:00Z,27.95,-110.92,31.0,18.0,200,11,,10.0,29.778543,,,,,,,,,,,SKC,,,,,,,,VFR,,,,,,,,,,,,METAR,13.0
CYKJ 302141Z AUTO VRB06KT 6SM HZ CLR 23/02 A2979 RMK SLP091 DENSITY ALT 3100FT,CYKJ,2023-05-30T21:41:00Z,57.25,-105.62,23.0,2.0,0,6,,6.0,29.790354,1009.1,,TRUE,,,,,,,HZ,CLR,,,,,,,,VFR,,,,,,,,,,,,SPECI,519.0
MMZO 302140Z 28030KT 10SM SKC 30/26 A2972 RMK HZY,MMZO,2023-05-30T21:40:00Z,19.13,-104.57,30.0,26.0,280,30,,10.0,29.719488,,,,,,,,,,,SKC,,,,,,,,VFR,,,,,,,,,,,,METAR,11.0
MMUN 302140Z 01012KT 3SM TSRA BKN008CB OVC070 21/20 A2983 RMK 60315 8/96/ LWR VIS W FQT LTGIC OVHD TSRAB37,MMUN,2023-05-30T21:40:00Z,21.03,-86.85,21.0,20.0,10,12,,3.0,29.828741,,,,,,,,,,TSRA,BKN,800,OVC,7000,,,,,IFR,,,,,,,3.15,,,,,METAR,13.0
MMTO 302140Z 29008KT 6SM BKN020TCU 23/03 A3027 RMK 8/200 HZY,MMTO,2023-05-30T21:40:00Z,19.35,-99.57,23.0,3.0,290,8,,6.0,30.268702,,,,,,,,,,,BKN,2000,,,,,,,MVFR,,,,,,,,,,,,METAR,2582.0
MMTM 302140Z E09012KT 10S SKC 31/23 A2978 RMK CI,MMTM,2023-05-30T21:40:00Z,22.28,-97.87,31.0,23.0,90,12,,,29.778543,,,,,,,,,,,SKC,,,,,,,,,,,,,,,,,,,,METAR,21.0
MMSP 302140Z 00000KT 10SM BKN030TCU 28/00 A3008 RMK 8/200 ISOL AC,MMSP,2023-05-30T21:40:00Z,22.25,-100.93,28.0,0.0,0,0,,10.0,30.079725,,,,,,,,,,,BKN,3000,,,,,,,MVFR,,,,,,,,,,,,METAR,1841.0
MMPR 302140Z 21015KT 11SM FEW030 29/23 A2981 RMK 8/500 HZY,MMPR,2023-05-30T21:40:00Z,20.67,-105.25,29.0,23.0,210,15,,11.0,29.811024,,,,,,,,,,,FEW,3000,,,,,,,VFR,,,,,,,,,,,,METAR,6.0
MMPN 302140Z 18012KT 7SM SKC 28/16 A3004 RMK HZY TCU ARND DSTN CB E,MMPN,2023-05-30T21:40:00Z,19.38,-102.03,28.0,16.0,180,12,,7.0,30.041338,,,,,,,,,,,SKC,,,,,,,,VFR,,,,,,,,,,,,METAR,1602.0
MMOX 302140Z 21007KT 10SM SCT030 SCT120 29/09 A3005 RMK 8/120 FU HZ CB FRMG N,MMOX,2023-05-30T21:40:00Z,17.0,-96.72,29.0,9.0,210,7,,10.0,30.050198,,,,,,,,,,,SCT,3000,SCT,12000,,,,,VFR,,,,,,,,,,,,METAR,1528.0
MMMY 302140Z 12010KT 15SM FEW035TCU 32/20 A2983 RMK 8/200,MMMY,2023-05-30T21:40:00Z,25.77,-100.1,32.0,20.0,120,10,,15.0,29.828741,,,,,,,,,,,FEW,3500,,,,,,,VFR,,,,,,,,,,,,METAR,382.0
MMMV 302140Z 04006KT 10SM SCT050 34/15 A2981 RMK 8/500,MMMV,2023-05-30T21:40:00Z,26.95,-101.47,34.0,15.0,40,6,,10.0,29.811024,,,,,,,,,,,SCT,5000,,,,,,,VFR,,,,,,,,,,,,METAR,567.0
MMMT 302140Z 36015KT 6SM BKN120 29/24 A2972 RMK 8/020 HZY,MMMT,2023-05-30T21:40:00Z,18.1,-94.57,29.0,24.0,360,15,,6.0,29.719488,,,,,,,,,,,BKN,12000,,,,,,,VFR,,,,,,,,,,,,METAR,15.0
MMMM 302140Z 04005KT 8SM SCT035 29/03 A3010 RMK 8/100,MMMM,2023-05-30T21:40:00Z,19.85,-101.03,29.0,3.0,40,5,,8.0,30.100393,,,,,,,,,,,SCT,3500,,,,,,,VFR,,,,,,,,,,,,METAR,1840.0
MMML 302140Z 33004KT 10SM SKC 32/03 A2974,MMML,2023-05-30T21:40:00Z,32.62,-115.23,32.0,3.0,330,4,,10.0,29.740158,,,,,,,,,,,SKC,,,,,,,,VFR,,,,,,,,,,,,METAR,21.0
MMMA 302140Z 04009KT 10SM VCTS BKN020CB BKN080 26/23 A2985 RMK 60145 8/360 OCNL LTGCCCG TS MOVG N SE OCNL DROPS,MMMA,2023-05-30T21:40:00Z,25.77,-97.52,26.0,23.0,40,9,,10.0,29.84941,,,,,,,,,,VCTS,BKN,2000,BKN,8000,,,,,MVFR,,,,,,,1.45,,,,,METAR,7.0
MMLT 302140Z 16008KT 10SM SKC 29/16 A2980,MMLT,2023-05-30T21:40:00Z,25.98,-111.33,29.0,16.0,160,8,,10.0,29.799213,,,,,,,,,,,SKC,,,,,,,,VFR,,,,,,,,,,,,METAR,4.0
MMIA 302140Z 24012KT 6SM SCT025 32/23 A2981 RMK 8/500 HZY,MMIA,2023-05-30T21:40:00Z,19.27,-103.57,32.0,23.0,240,12,,6.0,29.811024,,,,,,,,,,,SCT,2500,,,,,,,VFR,,,,,,,,,,,,METAR,744.0
MMHO 302140Z 21013KT 10SM SKC 37/05 A2982 RMK HZY,MMHO,2023-05-30T21:40:00Z,29.08,-111.05,37.0,5.0,210,13,,10.0,29.819881,,,,,,,,,,,SKC,,,,,,,,VFR,,,,,,,,,,,,METAR,186.0
MMCP 302140Z 34010G20KT 7SM SKC 31/24 A2977 RMK HZY,MMCP,2023-05-30T21:40:00Z,19.82,-90.5,31.0,24.0,340,10,20,7.0,29.769686,,,,,,,,,,,SKC,,,,,,,,VFR,,,,,,,,,,,,METAR,9.0
MMCL 302140Z 27010KT 10SM SKC 33/19 A2979 RMK HZY,MMCL,2023-05-30T21:40:00Z,24.77,-107.47,33.0,19.0,270,10,,10.0,29.790354,,,,,,,,,,,SKC,,,,,,,,VFR,,,,,,,,,,,,METAR,35.0
MMAN 302140Z 10005KT 15SM FEW035TCU 32/19 A2986 RMK 8/200 RTS,MMAN,2023-05-30T21:40:00Z,25.87,-100.23,32.0,19.0,100,5,,15.0,29.861221,,,,,,,,,,,FEW,3500,,,,,,,VFR,,,,,,,,,,,,METAR,447.0
KW40 302140Z AUTO 02015G22KT 10SM BKN029 BKN035 BKN085 24/17 A3001 RMK AO2 T02350173,KW40,2023-05-30T21:40:00Z,35.22,-78.03,23.5,17.3,20,15,22,10.0,30.008858,,,TRUE,TRUE,,,,,,,BKN,2900,BKN,3500,BKN,8500,,,MVFR,,,,,,,,,,,,METAR,50.0
KSNH 302140Z AUTO 07003KT 10SM OVC090 27/16 A2992 RMK A01,KSNH,2023-05-30T21:40:00Z,35.17,-88.22,27.0,16.0,70,3,,10.0,29.920275,,,TRUE,TRUE,,,,,,,OVC,9000,,,,,,,VFR,,,,,,,,,,,,METAR,142.0
KMHV 302140Z AUTO 21020G25KT 10SM CLR 25/03 A2986 RMK AO2,KMHV,2023-05-30T21:40:00Z,35.07,-118.15,25.0,3.0,210,20,25,10.0,29.861221,,,TRUE,TRUE,,,,,,,CLR,,,,,,,,VFR,,,,,,,,,,,,METAR,841.0
KI35 302140Z AUTO 00000KT 10SM BKN100 28/15 A3000 RMK AO2,KI35,2023-05-30T21:40:00Z,36.87,-83.37,28.0,15.0,0,0,,10.0,30.0,,,TRUE,TRUE,,,,,,,BKN,10000,,,,,,,VFR,,,,,,,,,,,,METAR,467.0
KGZN 302140Z AUTO 14009KT 100V160 10SM CLR 29/15 A2989 RMK AO2,KGZN,2023-05-30T21:40:00Z,32.37,-99.02,29.0,15.0,140,9,,10.0,29.890747,,,TRUE,TRUE,,,,,,,CLR,,,,,,,,VFR,,,,,,,,,,,,METAR,522.0
KETC 302140Z AUTO 01007KT 5SM BR OVC013 20/17 A3004 RMK AO2 T01970174,KETC,2023-05-30T21:40:00Z,35.93,-77.55,19.7,17.4,10,7,,5.0,30.041338,,,TRUE,TRUE,,,,,,BR,OVC,1300,,,,,,,MVFR,,,,,,,,,,,,METAR,15.0
CYYN 302140Z AUTO 23018G24KT 9SM BKN086 26/09 A2972 RMK SLP045 DENSITY ALT 4900FT,CYYN,2023-05-30T21:40:00Z,50.28,-107.68,26.0,9.0,230,18,24,9.0,29.719488,1004.5,,TRUE,,,,,,,,BKN,8600,,,,,,,VFR,,,,,,,,,,,,SPECI,814.0
K2V6 302139Z AUTO 19007KT 10SM 28/07 A2989 RMK AO2,K2V6,2023-05-30T21:39:00Z,40.1,-102.72,28.0,7.0,190,7,,10.0,29.890747,,,TRUE,TRUE,,,,,,,,,,,,,,,,,,,,,,,,,,,SPECI,1257.0
RKPM 302138Z 30005KT 0100 FG VV002 18/17 A2982 RMK CIG002,RKPM,2023-05-30T21:38:00Z,33.28,126.15,18.0,17.0,300,5,,0.06,29.819881,,,,,,,,,,FG,OVX,0,,,,,,,LIFR,,,,,,,,,,,200,SPECI,53.0
RCSS 302138Z 06008KT 350V120 5000 -SHRA SCT010 SCT020 BKN040 27/25 Q1000 NOSIG RMK A2955,RCSS,2023-05-30T21:38:00Z,25.07,121.55,27.0,25.0,60,8,,3.11,29.52756,,,,,,TRUE,,,,-SHRA,SCT,1000,SCT,2000,BKN,4000,,,MVFR,,,,,,,,,,,,METAR,8.0
PATE 302138Z AUTO 31005KT 10SM BKN018 01/M04 A2982 RMK AO2 FZRANO,PATE,2023-05-30T21:38:00Z,65.23,-166.33,1.0,-4.0,310,5,,10.0,29.819881,,,TRUE,TRUE,,,,TRUE,,,BKN,1800,,,,,,,MVFR,,,,,,,,,,,,SPECI,93.0
KC75 302138Z AUTO 00000KT 10SM CLR 31/14 A2990 RMK AO2,KC75,2023-05-30T21:38:00Z,41.02,-89.38,31.0,14.0,0,0,,10.0,29.899607,,,TRUE,TRUE,,,,,,,CLR,,,,,,,,VFR,,,,,,,,,,,,SPECI,166.0
CYER 302138Z AUTO 35013G19KT 9SM BKN009 BKN240 10/07 A2975 RMK SLP077,CYER,2023-05-30T21:38:00Z,56.02,-87.68,10.0,7.0,350,13,19,9.0,29.749016,1007.7,,TRUE,,,,,,,,BKN,900,BKN,24000,,,,,IFR,,,,,,,,,,,,SPECI,11.0
KSFY 302137Z AUTO 24006KT 10SM CLR 32/07 A2991 RMK AO2,KSFY,2023-05-30T21:37:00Z,42.05,-90.12,32.0,7.0,240,6,,10.0,29.911417,,,TRUE,TRUE,,,,,,,CLR,,,,,,,,VFR,,,,,,,,,,,,METAR,188.0
KHHW 302137Z AUTO 00000KT 10SM SCT046 29/17 A2991 RMK AO2,KHHW,2023-05-30T21:37:00Z,34.03,-95.55,29.0,17.0,0,0,,10.0,29.911417,,,TRUE,TRUE,,,,,,,SCT,4600,,,,,,,VFR,,,,,,,,,,,,SPECI,178.0
KDUB 302136Z AUTO 24012G16KT 10SM BKN065 BKN090 BKN120 16/01 A3003 RMK AO2,KDUB,2023-05-30T21:36:00Z,43.55,-109.68,16.0,1.0,240,12,16,10.0,30.029528,,,TRUE,TRUE,,,,,,,BKN,6500,BKN,9000,BKN,12000,,,VFR,,,,,,,,,,,,METAR,2205.0
KAPS 302136Z AUTO 13005KT 10SM CLR 28/19 A2988 RMK AO2,KAPS,2023-05-30T21:36:00Z,30.08,-90.58,28.0,19.0,130,5,,10.0,29.878937,,,TRUE,TRUE,,,,,,,CLR,,,,,,,,VFR,,,,,,,,,,,,METAR,1.0
PAKX 302135Z AUTO 27004KT 10SM SCT024 OVC055 06/02 A2974 RMK AO2,PAKX,2023-05-30T21:35:00Z,60.2,-154.32,6.0,2.0,270,4,,10.0,29.740158,,,TRUE,TRUE,,,,,,,SCT,2400,OVC,5500,,,,,VFR,,,,,,,,,,,,METAR,88.0
KZPH 302135Z AUTO 00000KT 10SM CLR 30/14 A2988 RMK A02 T02990142,KZPH,2023-05-30T21:35:00Z,28.23,-82.15,29.9,14.2,0,0,,10.0,29.878937,,,TRUE,TRUE,,,,,,,CLR,,,,,,,,VFR,,,,,,,,,,,,METAR,26.0
KZER 302135Z AUTO 12009KT 10SM CLR 24/06 A3018 RMK AO2,KZER,2023-05-30T21:35:00Z,40.7,-76.37,24.0,6.0,120,9,,10.0,30.180119,,,TRUE,TRUE,,,,,,,CLR,,,,,,,,VFR,,,,,,,,,,,,SPECI,518.0
KY51 302135Z AUTO 16009G15KT 10SM CLR 30/09 A2993 RMK AO1 T03010088,KY51,2023-05-30T21:35:00Z,43.58,-90.9,30.1,8.8,160,9,15,10.0,29.929134,,,TRUE,TRUE,,,,,,,CLR,,,,,,,,VFR,,,,,,,,,,,,SPECI,390.0
KY19 302135Z AUTO 30008G15KT 10SM CLR 27/15 A2978 RMK AO2,KY19,2023-05-30T21:35:00Z,46.77,-100.9,27.0,15.0,300,8,15,10.0,29.778543,,,TRUE,TRUE,,,,,,,CLR,,,,,,,,VFR,,,,,,,,,,,,SPECI,591.0
KXSA 302135Z AUTO 06005KT 10SM BKN035 BKN041 OVC048 20/16 A3012 RMK AO2 T02020163,KXSA,2023-05-30T21:35:00Z,37.87,-76.9,20.2,16.3,60,5,,10.0,30.121063,,,TRUE,TRUE,,,,,,,BKN,3500,BKN,4100,OVC,4800,,,VFR,,,,,,,,,,,,SPECI,41.0
KXLL 302135Z AUTO 09007KT 10SM CLR 23/01 A3016 RMK AO2,KXLL,2023-05-30T21:35:00Z,40.57,-75.48,23.0,1.0,90,7,,10.0,30.159449,,,TRUE,TRUE,,,,,,,CLR,,,,,,,,VFR,,,,,,,,,,,,SPECI,118.0
KX60 302135Z AUTO 36004KT 10SM BKN085 OVC100 25/22 A2989 RMK AO2 T02510224,KX60,2023-05-30T21:35:00Z,29.35,-82.47,25.1,22.4,360,4,,10.0,29.890747,,,TRUE,TRUE,,,,,,,BKN,8500,OVC,10000,,,,,VFR,,,,,,,,,,,,SPECI,21.0
KX07 302135Z AUTO 10007KT 10SM BKN060 OVC070 31/18 A2986 RMK A01,KX07,2023-05-30T21:35:00Z,27.9,-81.62,31.0,18.0,100,7,,10.0,29.861221,,,TRUE,TRUE,,,,,,,BKN,6000,OVC,7000,,,,,VFR,,,,,,,,,,,,SPECI,36.0
KWDR 302135Z AUTO 00000KT 10SM SCT047 OVC085 25/13 A2998 RMK AO2,KWDR,2023-05-30T21:35:00Z,33.98,-83.67,25.0,13.0,0,0,,10.0,29.97933,,,TRUE,TRUE,,,,,,,SCT,4700,OVC,8500,,,,,VFR,,,,,,,,,,,,METAR,280.0
KW96 302135Z AUTO 04004KT 10SM BKN017 BKN023 OVC028 20/17 A3009 RMK AO1 T01970165,KW96,2023-05-30T21:35:00Z,37.5,-77.12,19.7,16.5,40,4,,10.0,30.088583,,,TRUE,TRUE,,,,,,,BKN,1700,BKN,2300,OVC,2800,,,MVFR,,,,,,,,,,,,SPECI,35.0
KW81 302135Z AUTO 06003KT 7SM OVC012 17/16 A3010 RMK AO1 T01680155,KW81,2023-05-30T21:35:00Z,37.18,-78.1,16.8,15.5,60,3,,7.0,30.100393,,,TRUE,TRUE,,,,,,,OVC,1200,,,,,,,MVFR,,,,,,,,,,,,SPECI,121.0
KW78 302135Z AUTO 05005KT 10SM OVC016 19/15 A3009 RMK AO1 T01920151,KW78,2023-05-30T21:35:00Z,36.7,-78.85,19.2,15.1,50,5,,10.0,30.088583,,,TRUE,TRUE,,,,,,,OVC,1600,,,,,,,MVFR,,,,,,,,,,,,SPECI,120.0
KW75 302135Z AUTO 05006KT 5SM SCT010 OVC022 18/16 A3010 RMK AO1 T01770164,KW75,2023-05-30T21:35:00Z,37.6,-76.45,17.7,16.4,50,6,,5.0,30.100393,,,TRUE,TRUE,,,,,,,SCT,1000,OVC,2200,,,,,MVFR,,,,,,,,,,,,SPECI,8.0
KW63 302135Z AUTO 04003KT 10SM OVC013 19/17 A3008 RMK AO1,KW63,2023-05-30T21:35:00Z,36.6,-78.55,19.0,17.0,40,3,,10.0,30.079725,,,TRUE,TRUE,,,,,,,OVC,1300,,,,,,,MVFR,,,,,,,,,,,,METAR,126.0
KW31 302135Z AUTO 02004KT 4SM OVC006 M36/M37 A3010 RMK AO1 T13611367,KW31,2023-05-30T21:35:00Z,36.95,-78.18,-36.1,-36.7,20,4,,4.0,30.100393,,,TRUE,TRUE,,,,,,,OVC,600,,,,,,,IFR,,,,,,,,,,,,SPECI,159.0
KW22 302135Z AUTO 11009KT 10SM CLR 29/14 A3007 RMK AO2,KW22,2023-05-30T21:35:00Z,39.0,-80.27,29.0,14.0,110,9,,10.0,30.070866,,,TRUE,TRUE,,,,,,,CLR,,,,,,,,VFR,,,,,,,,,,,,METAR,497.0
KW13 302135Z AUTO 10008KT 10SM SCT065 22/13 A3012 RMK AO1 T02220126,KW13,2023-05-30T21:35:00Z,38.08,-78.95,22.2,12.6,100,8,,10.0,30.121063,,,TRUE,TRUE,,,,,,,SCT,6500,,,,,,,VFR,,,,,,,,,,,,METAR,440.0
KVYS 302135Z AUTO 13007KT 10SM SCT100 33/10 A2991 RMK AO2 T03300099,KVYS,2023-05-30T21:35:00Z,41.35,-89.15,33.0,9.9,130,7,,10.0,29.911417,,,TRUE,TRUE,,,,,,,SCT,10000,,,,,,,VFR,,,,,,,,,,,,SPECI,198.0
KVNW 302135Z AUTO 14009KT 10SM SCT075 SCT095 32/11 A2998 RMK AO2,KVNW,2023-05-30T21:35:00Z,40.87,-84.62,32.0,11.0,140,9,,10.0,29.97933,,,TRUE,TRUE,,,,,,,SCT,7500,SCT,9500,,,,,VFR,,,,,,,,,,,,SPECI,238.0
KVNC 302135Z AUTO 30012KT 10SM CLR 30/19 A2985 RMK AO2,KVNC,2023-05-30T21:35:00Z,27.07,-82.43,30.0,19.0,300,12,,10.0,29.84941,,,TRUE,TRUE,,,,,,,CLR,,,,,,,,VFR,,,,,,,,,,,,SPECI,4.0
KVGC 302135Z AUTO 16005KT 10SM CLR 28/07 A3011 RMK AO2,KVGC,2023-05-30T21:35:00Z,42.85,-75.57,28.0,7.0,160,5,,10.0,30.109253,,,TRUE,TRUE,,,,,,,CLR,,,,,,,,VFR,,,,,,,,,,,,SPECI,346.0
KVDF 302135Z AUTO 00000KT 10SM SCT065 BKN075 31/18 A2987 RMK AO2,KVDF,2023-05-30T21:35:00Z,28.02,-82.33,31.0,18.0,0,0,,10.0,29.870079,,,TRUE,TRUE,,,,,,,SCT,6500,BKN,7500,,,,,VFR,,,,,,,,,,,,SPECI,5.0
KVBW 302135Z AUTO 12004KT 10SM BKN050 25/13 A3010 RMK AO1 T02480134,KVBW,2023-05-30T21:35:00Z,38.37,-78.97,24.8,13.4,120,4,,10.0,30.100393,,,TRUE,TRUE,,,,,,,BKN,5000,,,,,,,VFR,,,,,,,,,,,,SPECI,362.0
KUXL 302135Z AUTO 28007G21KT 10SM -RA BKN050 BKN060 OVC070 25/18 A2988 RMK AO2 T02490184,KUXL,2023-05-30T21:35:00Z,30.13,-93.38,24.9,18.4,280,7,21,10.0,29.878937,,,TRUE,TRUE,,,,,,-RA,BKN,5000,BKN,6000,OVC,7000,,,VFR,,,,,,,,,,,,METAR,2.0
KUUV 302135Z AUTO 00000KT 10SM CLR 29/10 A2996 RMK AO2,KUUV,2023-05-30T21:35:00Z,38.23,-91.17,29.0,10.0,0,0,,10.0,29.958662,,,TRUE,TRUE,,,,,,,CLR,,,,,,,,VFR,,,,,,,,,,,,METAR,284.0
KUTA 302135Z AUTO 05005KT 10SM SCT080 29/14 A2990 RMK AO2 T02910139 $,KUTA,2023-05-30T21:35:00Z,34.68,-90.35,29.1,13.9,50,5,,10.0,29.899607,,,TRUE,TRUE,TRUE,,,,,,SCT,8000,,,,,,,VFR,,,,,,,,,,,,SPECI,58.0
KUOX 302135Z AUTO 05006KT 10SM CLR 29/14 A2994 RMK AO2,KUOX,2023-05-30T21:35:00Z,34.38,-89.53,29.0,14.0,50,6,,10.0,29.940945,,,TRUE,TRUE,,,,,,,CLR,,,,,,,,VFR,,,,,,,,,,,,SPECI,123.0
KUNU 302135Z AUTO 14009KT 10SM CLR 30/08 A2995 RMK AO2 T02990079,KUNU,2023-05-30T21:35:00Z,43.42,-88.7,29.9,7.9,140,9,,10.0,29.949802,,,TRUE,TRUE,,,,,,,CLR,,,,,,,,VFR,,,,,,,,,,,,SPECI,281.0
KUNI 302135Z AUTO 11008KT 070V140 10SM SCT055 SCT075 29/14 A3001 RMK AO2 T02910139,KUNI,2023-05-30T21:35:00Z,39.22,-82.23,29.1,13.9,110,8,,10.0,30.008858,,,TRUE,TRUE,,,,,,,SCT,5500,SCT,7500,,,,,VFR,,,,,,,,,,,,SPECI,232.0
KUMP 302135Z AUTO 19007KT 10SM SCT065 32/16 A2995 RMK AO2 T03180160,KUMP,2023-05-30T21:35:00Z,39.93,-86.05,31.8,16.0,190,7,,10.0,29.949802,,,TRUE,TRUE,,,,,,,SCT,6500,,,,,,,VFR,,,,,,,,,,,,SPECI,247.0
KUKL 302135Z AUTO 23013G17KT 10SM VCTS SCT050 SCT065 31/17 A2987 RMK AO2 LTG DSNT N E AND W T03060170,KUKL,2023-05-30T21:35:00Z,38.3,-95.73,30.6,17.0,230,13,17,10.0,29.870079,,,TRUE,TRUE,,,,,,VCTS,SCT,5000,SCT,6500,,,,,VFR,,,,,,,,,,,,METAR,357.0
KUBE 302135Z AUTO 18015G18KT 10SM BKN090 BKN120 27/17 A2988 RMK AO2,KUBE,2023-05-30T21:35:00Z,45.5,-91.98,27.0,17.0,180,15,18,10.0,29.878937,,,TRUE,TRUE,,,,,,,BKN,9000,BKN,12000,,,,,VFR,,,,,,,,,,,,METAR,376.0
KU64 302135Z AUTO 17016G20KT 10SM CLR 23/M11 A3008 RMK AO2 T02251107 $,KU64,2023-05-30T21:35:00Z,,,22.5,-10.7,170,16,20,10.0,30.079725,,,TRUE,TRUE,TRUE,,,,,,CLR,,,,,,,,VFR,,,,,,,,,,,,SPECI,
KU42 302135Z AUTO 34006KT 10SM BKN120 27/M03 A2990 RMK AO1 T02661028,KU42,2023-05-30T21:35:00Z,40.62,-111.98,26.6,-2.8,340,6,,10.0,29.899607,,,TRUE,TRUE,,,,,,,BKN,12000,,,,,,,VFR,,,,,,,,,,,,METAR,1399.0
KTYQ 302135Z AUTO 17005KT 10SM CLR 29/15 A2996 RMK AO2 T02880147,KTYQ,2023-05-30T21:35:00Z,40.03,-86.25,28.8,14.7,170,5,,10.0,29.958662,,,TRUE,TRUE,,,,,,,CLR,,,,,,,,VFR,,,,,,,,,,,,SPECI,279.0
KTXW 302135Z AUTO 05012KT 10SM CLR 31/20 A2984 RMK AO2 T03140200,KTXW,2023-05-30T21:35:00Z,26.18,-97.97,31.4,20.0,50,12,,10.0,29.840551,,,TRUE,TRUE,,,,,,,CLR,,,,,,,,VFR,,,,,,,,,,,,METAR,21.0
KTWT 302135Z AUTO 15005KT 10SM SCT085 BKN120 30/14 A2991 RMK AO2,KTWT,2023-05-30T21:35:00Z,37.55,-87.95,30.0,14.0,150,5,,10.0,29.911417,,,TRUE,TRUE,,,,,,,SCT,8500,BKN,12000,,,,,VFR,,,,,,,,,,,,SPECI,113.0
KTVY 302135Z AUTO 36014KT 10SM CLR 28/M09 A2988 RMK AO2,KTVY,2023-05-30T21:35:00Z,40.62,-112.35,28.0,-9.0,360,14,,10.0,29.878937,,,TRUE,TRUE,,,,,,,CLR,,,,,,,,VFR,,,,,,,,,,,,SPECI,1310.0
KTVK 302135Z AUTO 14010KT 9SM SCT041 SCT065 BKN110 30/11 A2990 RMK AO2,KTVK,2023-05-30T21:35:00Z,40.68,-92.9,30.0,11.0,140,10,,9.0,29.899607,,,TRUE,TRUE,,,,,,,SCT,4100,SCT,6500,BKN,11000,,,VFR,,,,,,,,,,,,SPECI,311.0
KTVI 302135Z AUTO 27003KT 10SM OVC080 27/15 A2991 RMK AO2,KTVI,2023-05-30T21:35:00Z,30.9,-83.88,27.0,15.0,270,3,,10.0,29.911417,,,TRUE,TRUE,,,,,,,OVC,8000,,,,,,,VFR,,,,,,,,,,,,METAR,74.0
KTQK 302135Z AUTO 20010G17KT 10SM SCT060 32/15 A2988 RMK AO2 T03170146,KTQK,2023-05-30T21:35:00Z,38.47,-100.88,31.7,14.6,200,10,17,10.0,29.878937,,,TRUE,TRUE,,,,,,,SCT,6000,,,,,,,VFR,,,,,,,,,,,,METAR,906.0
KTPF 302135Z AUTO 24003KT 10SM BKN110 31/17 A2986 RMK AO2,KTPF,2023-05-30T21:35:00Z,27.92,-82.45,31.0,17.0,240,3,,10.0,29.861221,,,TRUE,TRUE,,,,,,,BKN,11000,,,,,,,VFR,,,,,,,,,,,,SPECI,1.0
KTOC 302135Z AUTO 04006KT 10SM SCT043 26/16 A2999 RMK AO2 T02620156,KTOC,2023-05-30T21:35:00Z,34.6,-83.3,26.2,15.6,40,6,,10.0,29.991142,,,TRUE,TRUE,,,,,,,SCT,4300,,,,,,,VFR,,,,,,,,,,,,METAR,292.0
KTNU 302135Z AUTO 17012G18KT 9SM FEW070 31/13 A2986 RMK A01,KTNU,2023-05-30T21:35:00Z,41.67,-93.02,31.0,13.0,170,12,18,9.0,29.861221,,,TRUE,TRUE,,,,,,,FEW,7000,,,,,,,VFR,,,,,,,,,,,,SPECI,287.0
KTMK 302135Z AUTO 32019G28KT 10SM BKN049 16/05 A3007 RMK AO2,KTMK,2023-05-30T21:35:00Z,45.42,-123.82,16.0,5.0,320,19,28,10.0,30.070866,,,TRUE,TRUE,,,,,,,BKN,4900,,,,,,,VFR,,,,,,,,,,,,METAR,8.0
KTME 302135Z AUTO 21010KT 9SM FEW120 24/21 A2990 RMK AO2,KTME,2023-05-30T21:35:00Z,29.8,-95.9,24.0,21.0,210,10,,9.0,29.899607,,,TRUE,TRUE,,,,,,,FEW,12000,,,,,,,VFR,,,,,,,,,,,,METAR,49.0
KTMA 302135Z AUTO 00000KT 10SM CLR 28/15 A2990 RMK AO2 T02800147 $,KTMA,2023-05-30T21:35:00Z,31.43,-83.48,28.0,14.7,0,0,,10.0,29.899607,,,TRUE,TRUE,TRUE,,,,,,CLR,,,,,,,,VFR,,,,,,,,,,,,METAR,105.0
KTKX 302135Z AUTO VRB04KT 10SM CLR 32/12 A2990 RMK AO2,KTKX,2023-05-30T21:35:00Z,36.22,-90.03,32.0,12.0,0,4,,10.0,29.899607,,,TRUE,TRUE,,,,,,,CLR,,,,,,,,VFR,,,,,,,,,,,,SPECI,73.0
KTIP 302135Z AUTO 14005KT 10SM CLR 32/08 A2992 RMK AO2 T03170078,KTIP,2023-05-30T21:35:00Z,40.28,-88.15,31.7,7.8,140,5,,10.0,29.920275,,,TRUE,TRUE,,,,,,,CLR,,,,,,,,VFR,,,,,,,,,,,,SPECI,224.0
KTIF 302135Z AUTO 15008KT 10SM SCT070 29/12 A2987 RMK AO2 T02860124,KTIF,2023-05-30T21:35:00Z,41.97,-100.57,28.6,12.4,150,8,,10.0,29.870079,,,TRUE,TRUE,,,,,,,SCT,7000,,,,,,,VFR,,,,,,,,,,,,SPECI,888.0
KTEX 302135Z AUTO 16006G15KT 10SM SCT120 18/M23 A3021 RMK AO2 LTG DSNT NW,KTEX,2023-05-30T21:35:00Z,37.95,-107.9,18.0,-23.0,160,6,15,10.0,30.209646,,,TRUE,TRUE,,,,,,,SCT,12000,,,,,,,VFR,,,,,,,,,,,,METAR,2760.0
KTBX 302135Z AUTO 10SM -RA SCT085 15/00 A3014 RMK AO2,KTBX,2023-05-30T21:35:00Z,43.47,-108.23,15.0,0.0,,,,10.0,30.138779,,,TRUE,TRUE,,,,,,-RA,SCT,8500,,,,,,,VFR,,,,,,,,,,,,METAR,2230.0
KTBR 302135Z AUTO 00000KT 10SM OVC090 22/16 A2993 RMK AO2 T02230156 PWINO,KTBR,2023-05-30T21:35:00Z,32.48,-81.73,22.3,15.6,0,0,,10.0,29.929134,,,TRUE,TRUE,,,,,TRUE,,OVC,9000,,,,,,,VFR,,,,,,,,,,,,METAR,54.0
KT35 302135Z AUTO 04009G16KT 10SM VCTS SCT047 SCT050 BKN065 24/19 A2989 RMK AO2 LTG DSNT NW THRU E T02360191,KT35,2023-05-30T21:35:00Z,30.88,-96.97,23.6,19.1,40,9,16,10.0,29.890747,,,TRUE,TRUE,,,,,,VCTS,SCT,4700,SCT,5000,BKN,6500,,,VFR,,,,,,,,,,,,SPECI,122.0
KT20 302135Z AUTO 14007KT 10SM SCT055 32/19 A2986 RMK AO2 T03190192,KT20,2023-05-30T21:35:00Z,29.52,-97.47,31.9,19.2,140,7,,10.0,29.861221,,,TRUE,TRUE,,,,,,,SCT,5500,,,,,,,VFR,,,,,,,,,,,,SPECI,107.0
KSZT 302135Z AUTO 19005G14KT 10SM CLR 25/06 A2981 RMK AO2,KSZT,2023-05-30T21:35:00Z,48.3,-116.57,25.0,6.0,190,5,14,10.0,29.811024,,,TRUE,TRUE,,,,,,,CLR,,,,,,,,VFR,,,,,,,,,,,,METAR,649.0
KSYF 302135Z AUTO 00000KT 10SM CLR A2986 RMK AO2 PWINO,KSYF,2023-05-30T21:35:00Z,39.77,-101.8,,,0,0,,10.0,29.861221,,,TRUE,TRUE,,,,,TRUE,,CLR,,,,,,,,VFR,,,,,,,,,,,,METAR,1041.0
KSWW 302135Z AUTO 17007G16KT 10SM CLR 33/14 A2992 RMK AO2 T03250142,KSWW,2023-05-30T21:35:00Z,32.47,-100.47,32.5,14.2,170,7,16,10.0,29.920275,,,TRUE,TRUE,,,,,,,CLR,,,,,,,,VFR,,,,,,,,,,,,METAR,718.0
KSUZ 302135Z AUTO 00000KT 9SM CLR 30/14 A2991 RMK A01,KSUZ,2023-05-30T21:35:00Z,34.58,-92.48,30.0,14.0,0,0,,9.0,29.911417,,,TRUE,TRUE,,,,,,,CLR,,,,,,,,VFR,,,,,,,,,,,,SPECI,114.0
KSUW 302135Z AUTO 05004KT 10SM CLR 16/07 A2986 RMK AO2 T01560070,KSUW,2023-05-30T21:35:00Z,46.68,-92.1,15.6,7.0,50,4,,10.0,29.861221,,,TRUE,TRUE,,,,,,,CLR,,,,,,,,VFR,,,,,,,,,,,,SPECI,205.0
KSPF 302135Z AUTO 11009KT 10SM -RA CLR 18/13 A2990 RMK AO2 LTG DSNT E AND W AND NW,KSPF,2023-05-30T21:35:00Z,44.47,-103.78,18.0,13.0,110,9,,10.0,29.899607,,,TRUE,TRUE,,,,,,-RA,CLR,,,,,,,,VFR,,,,,,,,,,,,METAR,1191.0
KSPA 302135Z AUTO 05011G17KT 10SM BKN039 BKN045 BKN065 23/15 A2999 RMK AO2,KSPA,2023-05-30T21:35:00Z,34.92,-81.95,23.0,15.0,50,11,17,10.0,29.991142,,,TRUE,TRUE,,,,,,,BKN,3900,BKN,4500,BKN,6500,,,VFR,,,,,,,,,,,,SPECI,242.0
KSOW 302135Z AUTO 24013G19KT 200V260 10SM CLR 25/M07 A3008 RMK AO2,KSOW,2023-05-30T21:35:00Z,34.27,-110.0,25.0,-7.0,240,13,19,10.0,30.079725,,,TRUE,TRUE,,,,,,,CLR,,,,,,,,VFR,,,,,,,,,,,,SPECI,1954.0
KSOA 302135Z AUTO 10003G10KT 10SM 32/14 A2993 RMK AO2,KSOA,2023-05-30T21:35:00Z,30.58,-100.65,32.0,14.0,100,3,10,10.0,29.929134,,,TRUE,TRUE,,,,,,,,,,,,,,,,,,,,,,,,,,,METAR,654.0
KSNL 302135Z AUTO 23007KT 10SM CLR 31/16 A2991 RMK AO2 T03080155,KSNL,2023-05-30T21:35:00Z,35.35,-96.95,30.8,15.5,230,7,,10.0,29.911417,,,TRUE,TRUE,,,,,,,CLR,,,,,,,,VFR,,,,,,,,,,,,METAR,327.0
KSNC 302135Z AUTO 13004KT 10SM CLR 18/08 A3020 RMK AO2,KSNC,2023-05-30T21:35:00Z,41.38,-72.5,18.0,8.0,130,4,,10.0,30.200787,,,TRUE,TRUE,,,,,,,CLR,,,,,,,,VFR,,,,,,,,,,,,SPECI,114.0
KSMS 302135Z AUTO 36009KT 10SM SCT110 27/18 A2996 RMK AO2,KSMS,2023-05-30T21:35:00Z,34.0,-80.37,27.0,18.0,360,9,,10.0,29.958662,,,TRUE,TRUE,,,,,,,SCT,11000,,,,,,,VFR,,,,,,,,,,,,SPECI,53.0
KSLR 302135Z AUTO 00000KT 10SM CLR 31/17 A2992 RMK AO2 LTG DSNT S T03050173,KSLR,2023-05-30T21:35:00Z,33.17,-95.62,30.5,17.3,0,0,,10.0,29.920275,,,TRUE,TRUE,,,,,,,CLR,,,,,,,,VFR,,,,,,,,,,,,SPECI,144.0
KSLB 302135Z AUTO 24009G18KT 10SM CLR 31/11 A2982 RMK AO2,KSLB,2023-05-30T21:35:00Z,42.6,-95.23,31.0,11.0,240,9,18,10.0,29.819881,,,TRUE,TRUE,,,,,,,CLR,,,,,,,,VFR,,,,,,,,,,,,METAR,450.0
KSJS 302135Z AUTO 05006KT 10SM SCT120 27/17 A3001 RMK AO2 T02740169,KSJS,2023-05-30T21:35:00Z,37.75,-82.63,27.4,16.9,50,6,,10.0,30.008858,,,TRUE,TRUE,,,,,,,SCT,12000,,,,,,,VFR,,,,,,,,,,,,METAR,359.0
KSIK 302135Z AUTO 11005KT 10SM SCT075 32/12 A2991 RMK AO2,KSIK,2023-05-30T21:35:00Z,36.9,-89.57,32.0,12.0,110,5,,10.0,29.911417,,,TRUE,TRUE,,,,,,,SCT,7500,,,,,,,VFR,,,,,,,,,,,,SPECI,95.0
KSHL 302135Z AUTO 20012G17KT 10SM CLR 31/12 A2977 RMK AO2,KSHL,2023-05-30T21:35:00Z,43.22,-95.83,31.0,12.0,200,12,17,10.0,29.769686,,,TRUE,TRUE,,,,,,,CLR,,,,,,,,VFR,,,,,,,,,,,,METAR,430.0
KSHD 302135Z AUTO 12006KT 10SM SCT046 BKN085 23/14 A3012 RMK AO2 T02310137,KSHD,2023-05-30T21:35:00Z,38.27,-78.9,23.1,13.7,120,6,,10.0,30.121063,,,TRUE,TRUE,,,,,,,SCT,4600,BKN,8500,,,,,VFR,,,,,,,,,,,,SPECI,360.0
KSFQ 302135Z AUTO 04009G14KT 4SM -RA OVC005 18/18 A3007 RMK AO2 P0005 T01760175,KSFQ,2023-05-30T21:35:00Z,36.68,-76.6,17.6,17.5,40,9,14,4.0,30.070866,,,TRUE,TRUE,,,,,,-RA,OVC,500,,,,,,,IFR,,,,,,0.05,,,,,,SPECI,19.0
KSEF 302135Z AUTO 11006KT 10SM SCT085 31/16 A2987 RMK AO2 LTG DSNT S T03050163,KSEF,2023-05-30T21:35:00Z,27.45,-81.35,30.5,16.3,110,6,,10.0,29.870079,,,TRUE,TRUE,,,,,,,SCT,8500,,,,,,,VFR,,,,,,,,,,,,METAR,17.0
KSDC 302135Z AUTO 04003KT 10SM CLR 26/10 A3009 RMK AO2,KSDC,2023-05-30T21:35:00Z,43.23,-77.12,26.0,10.0,40,3,,10.0,30.088583,,,TRUE,TRUE,,,,,,,CLR,,,,,,,,VFR,,,,,,,,,,,,SPECI,127.0
KSDA 302135Z AUTO VRB05KT 9SM SCT120 21/16 A2987 RMK AO2,KSDA,2023-05-30T21:35:00Z,40.75,-95.42,21.0,16.0,0,5,,9.0,29.870079,,,TRUE,TRUE,,,,,,,SCT,12000,,,,,,,VFR,,,,,,,,,,,,METAR,293.0
KSBS 302135Z AUTO 23003KT 10SM CLR 22/M05 A3001 RMK AO1 T02221048,KSBS,2023-05-30T21:35:00Z,40.52,-106.87,22.2,-4.8,230,3,,10.0,30.008858,,,TRUE,TRUE,,,,,,,CLR,,,,,,,,VFR,,,,,,,,,,,,METAR,2097.0
KSBO 302135Z AUTO 06007KT 10SM BKN120 28/18 A2993 RMK AO2,KSBO,2023-05-30T21:35:00Z,32.62,-82.37,28.0,18.0,60,7,,10.0,29.929134,,,TRUE,TRUE,,,,,,,BKN,12000,,,,,,,VFR,,,,,,,,,,,,METAR,98.0
KS52 302135Z AUTO 16007KT 10SM OVC100 26/02 A2977 RMK AO2 T02610017,KS52,2023-05-30T21:35:00Z,48.42,-120.15,26.1,1.7,160,7,,10.0,29.769686,,,TRUE,TRUE,,,,,,,OVC,10000,,,,,,,VFR,,,,,,,,,,,,METAR,517.0
KS32 302135Z AUTO 27007G12KT 10SM FEW070 FEW095 29/11 A2973 RMK AO2 TSNO,KS32,2023-05-30T21:35:00Z,47.42,-98.1,29.0,11.0,270,7,12,10.0,29.731298,,,TRUE,TRUE,,,TRUE,,,,FEW,7000,FEW,9500,,,,,VFR,,,,,,,,,,,,SPECI,435.0
KS25 302135Z AUTO 26005KT 10SM SCT065 SCT075 26/13 A2978 RMK AO2,KS25,2023-05-30T21:35:00Z,47.8,-103.25,26.0,13.0,260,5,,10.0,29.778543,,,TRUE,TRUE,,,,,,,SCT,6500,SCT,7500,,,,,VFR,,,,,,,,,,,,SPECI,632.0
KRZT 302135Z AUTO 12006KT 10SM SCT060 SCT065 SCT085 28/12 A3001 RMK AO2 PWINO,KRZT,2023-05-30T21:35:00Z,39.43,-83.02,28.0,12.0,120,6,,10.0,30.008858,,,TRUE,TRUE,,,,,TRUE,,SCT,6000,SCT,6500,SCT,8500,,,VFR,,,,,,,,,,,,METAR,217.0
KRWV 302135Z AUTO 00000KT 10SM CLR 30/18 A2988 RMK AO2 LTG DSNT NW T02960175,KRWV,2023-05-30T21:35:00Z,30.52,-96.7,29.6,17.5,0,0,,10.0,29.878937,,,TRUE,TRUE,,,,,,,CLR,,,,,,,,VFR,,,,,,,,,,,,METAR,116.0
KRVL 302135Z AUTO 00000KT 9SM CLR 27/08 A3012 RMK AO2,KRVL,2023-05-30T21:35:00Z,40.68,-77.63,27.0,8.0,0,0,,9.0,30.121063,,,TRUE,TRUE,,,,,,,CLR,,,,,,,,VFR,,,,,,,,,,,,SPECI,250.0
KRVJ 302135Z AUTO 09013G18KT 10SM SCT065 28/18 A2991 RMK AO2 T02750185,KRVJ,2023-05-30T21:35:00Z,32.07,-82.15,27.5,18.5,90,13,18,10.0,29.911417,,,TRUE,TRUE,,,,,,,SCT,6500,,,,,,,VFR,,,,,,,,,,,,METAR,60.0
KRUG 302135Z AUTO 28007KT 10SM CLR 25/15 A2974 RMK AO2 LTG DSNT NW,KRUG,2023-05-30T21:35:00Z,48.38,-100.02,25.0,15.0,280,7,,10.0,29.740158,,,TRUE,TRUE,,,,,,,CLR,,,,,,,,VFR,,,,,,,,,,,,SPECI,469.0
KRSN 302135Z AUTO 03007KT 10SM FEW070 31/15 A2989 RMK AO2 T03060147 $,KRSN,2023-05-30T21:35:00Z,32.52,-92.58,30.6,14.7,30,7,,10.0,29.890747,,,TRUE,TRUE,TRUE,,,,,,FEW,7000,,,,,,,VFR,,,,,,,,,,,,SPECI,86.0
KRQO 302135Z AUTO 16007KT 5SM HZ SCT050 BKN065 28/18 A2992 RMK AO2 T02810178,KRQO,2023-05-30T21:35:00Z,35.47,-98.0,28.1,17.8,160,7,,5.0,29.920275,,,TRUE,TRUE,,,,,,HZ,SCT,5000,BKN,6500,,,,,MVFR,,,,,,,,,,,,METAR,431.0
KRPJ 302135Z AUTO 13007KT 10SM BKN100 31/07 A2993 RMK AO2 T03080069 TSNO,KRPJ,2023-05-30T21:35:00Z,41.88,-89.08,30.8,6.9,130,7,,10.0,29.929134,,,TRUE,TRUE,,,TRUE,,,,BKN,10000,,,,,,,VFR,,,,,,,,,,,,METAR,234.0
KRPH 302135Z AUTO 18005KT 10SM FEW065 30/18 A2987 RMK AO2 T03030176 $,KRPH,2023-05-30T21:35:00Z,33.12,-98.55,30.3,17.6,180,5,,10.0,29.870079,,,TRUE,TRUE,TRUE,,,,,,FEW,6500,,,,,,,VFR,,,,,,,,,,,,METAR,341.0
KRPD 302135Z AUTO 17013G17KT 10SM SCT110 29/17 A2988 RMK AO2 T02880171,KRPD,2023-05-30T21:35:00Z,45.42,-91.77,28.8,17.1,170,13,17,10.0,29.878937,,,TRUE,TRUE,,,,,,,SCT,11000,,,,,,,VFR,,,,,,,,,,,,SPECI,334.0
KRMN 302135Z AUTO 08006KT 10SM CLR 24/11 A3012 RMK AO2 T02390111,KRMN,2023-05-30T21:35:00Z,38.4,-77.45,23.9,11.1,80,6,,10.0,30.121063,,,TRUE,TRUE,,,,,,,CLR,,,,,,,,VFR,,,,,,,,,,,,SPECI,50.0
KRID 302135Z AUTO 15012G15KT 10SM SCT110 29/13 A3000 RMK AO2,KRID,2023-05-30T21:35:00Z,39.75,-84.85,29.0,13.0,150,12,15,10.0,30.0,,,TRUE,TRUE,,,,,,,SCT,11000,,,,,,,VFR,,,,,,,,,,,,SPECI,346.0
KRGA 302135Z AUTO 10005KT 10SM SCT055 28/16 A2999 RMK AO2,KRGA,2023-05-30T21:35:00Z,37.63,-84.33,28.0,16.0,100,5,,10.0,29.991142,,,TRUE,TRUE,,,,,,,SCT,5500,,,,,,,VFR,,,,,,,,,,,,METAR,301.0
KRDK 302135Z AUTO 17008G13KT 10SM FEW034 SCT055 BKN065 22/17 A2988 RMK AO2,KRDK,2023-05-30T21:35:00Z,41.02,-95.27,22.0,17.0,170,8,13,10.0,29.878937,,,TRUE,TRUE,,,,,,,FEW,3400,SCT,5500,BKN,6500,,,VFR,,,,,,,,,,,,SPECI,317.0
KRCX 302135Z AUTO 19009G15KT 10SM SCT100 29/15 A2992 RMK AO2 T02850151,KRCX,2023-05-30T21:35:00Z,45.5,-91.0,28.5,15.1,190,9,15,10.0,29.920275,,,TRUE,TRUE,,,,,,,SCT,10000,,,,,,,VFR,,,,,,,,,,,,SPECI,373.0
KRCR 302135Z AUTO 00000KT 10SM CLR 30/13 A2995 RMK AO2,KRCR,2023-05-30T21:35:00Z,41.07,-86.18,30.0,13.0,0,0,,10.0,29.949802,,,TRUE,TRUE,,,,,,,CLR,,,,,,,,VFR,,,,,,,,,,,,METAR,240.0
KRCM 302135Z AUTO 15005KT 10SM SCT055 SCT095 SCT120 27/15 A2990 RMK AO2 LTG DSNT SW AND NW,KRCM,2023-05-30T21:35:00Z,38.78,-93.8,27.0,15.0,150,5,,10.0,29.899607,,,TRUE,TRUE,,,,,,,SCT,5500,SCT,9500,SCT,12000,,,VFR,,,,,,,,,,,,SPECI,242.0
KRBW 302135Z AUTO 00000KT 10SM OVC090 23/18 A2995 RMK AO2,KRBW,2023-05-30T21:35:00Z,32.92,-80.63,23.0,18.0,0,0,,10.0,29.949802,,,TRUE,TRUE,,,,,,,OVC,9000,,,,,,,VFR,,,,,,,,,,,,SPECI,30.0
KRBO 302135Z AUTO 11009KT 10SM SCT045 SCT055 A2986 RMK AO2,KRBO,2023-05-30T21:35:00Z,27.78,-97.68,,,110,9,,10.0,29.861221,,,TRUE,TRUE,,,,,,,SCT,4500,SCT,5500,,,,,VFR,,,,,,,,,,,,METAR,24.0
KRAW 302135Z AUTO 21007KT 10SM CLR 26/16 A2993 RMK AO2 LTG DSNT W,KRAW,2023-05-30T21:35:00Z,38.35,-93.35,26.0,16.0,210,7,,10.0,29.929134,,,TRUE,TRUE,,,,,,,CLR,,,,,,,,VFR,,,,,,,,,,,,METAR,285.0
KRAS 302135Z AUTO 09012KT 10SM CLR 29/21 A2988 RMK AO2 T02900215,KRAS,2023-05-30T21:35:00Z,27.82,-97.08,29.0,21.5,90,12,,10.0,29.878937,,,TRUE,TRUE,,,,,,,CLR,,,,,,,,VFR,,,,,,,,,,,,METAR,3.0
KPVW 302135Z AUTO 16011G17KT 10SM CLR 28/15 A2993 RMK AO2 P0001 T02810151,KPVW,2023-05-30T21:35:00Z,34.17,-101.72,28.1,15.1,160,11,17,10.0,29.929134,,,TRUE,TRUE,,,,,,,CLR,,,,,,,,VFR,,,,,,0.01,,,,,,SPECI,1029.0
KPTT 302135Z AUTO 15009G16KT 10SM CLR 31/15 A2988 RMK AO2 T03050147,KPTT,2023-05-30T21:35:00Z,37.7,-98.75,30.5,14.7,150,9,16,10.0,29.878937,,,TRUE,TRUE,,,,,,,CLR,,,,,,,,VFR,,,,,,,,,,,,METAR,594.0
KPTS 302135Z AUTO 17007KT 10SM SCT050 SCT090 29/19 A2989 RMK AO2 LTG DSNT N AND NW T02900185 PWINO,KPTS,2023-05-30T21:35:00Z,37.45,-94.73,29.0,18.5,170,7,,10.0,29.890747,,,TRUE,TRUE,,,,,TRUE,,SCT,5000,SCT,9000,,,,,VFR,,,,,,,,,,,,METAR,286.0
KPTD 302135Z AUTO 28009KT 250V310 10SM CLR 27/09 A3007 RMK AO2,KPTD,2023-05-30T21:35:00Z,44.68,-74.95,27.0,9.0,280,9,,10.0,30.070866,,,TRUE,TRUE,,,,,,,CLR,,,,,,,,VFR,,,,,,,,,,,,SPECI,144.0
KPTB 302135Z AUTO 36005KT 5SM BR SCT008 OVC022 18/17 A3009 RMK AO2 T01830172,KPTB,2023-05-30T21:35:00Z,37.17,-77.52,18.3,17.2,360,5,,5.0,30.088583,,,TRUE,TRUE,,,,,,BR,SCT,800,OVC,2200,,,,,MVFR,,,,,,,,,,,,METAR,56.0
KPSO 302135Z AUTO 20007KT 180V240 10SM SCT120 22/M05 A3014 RMK AO2 T02151055,KPSO,2023-05-30T21:35:00Z,37.28,-107.05,21.5,-5.5,200,7,,10.0,30.138779,,,TRUE,TRUE,,,,,,,SCT,12000,,,,,,,VFR,,,,,,,,,,,,METAR,2332.0
KPSN 302135Z AUTO 18005KT 10SM CLR 29/19 A2988 RMK AO2 LTG DSNT E AND S,KPSN,2023-05-30T21:35:00Z,31.78,-95.7,29.0,19.0,180,5,,10.0,29.878937,,,TRUE,TRUE,,,,,,,CLR,,,,,,,,VFR,,,,,,,,,,,,METAR,124.0
KPSK 302135Z AUTO 07010G15KT 7SM -RA SCT017 BKN048 OVC060 18/16 A3011 RMK AO2 T01840160,KPSK,2023-05-30T21:35:00Z,37.13,-80.67,18.4,16.0,70,10,15,7.0,30.109253,,,TRUE,TRUE,,,,,,-RA,SCT,1700,BKN,4800,OVC,6000,,,VFR,,,,,,,,,,,,SPECI,629.0
KPRG 302135Z AUTO 00000KT 10SM SCT110 31/17 A2993 RMK AO2 T03070168,KPRG,2023-05-30T21:35:00Z,39.7,-87.67,30.7,16.8,0,0,,10.0,29.929134,,,TRUE,TRUE,,,,,,,SCT,11000,,,,,,,VFR,,,,,,,,,,,,METAR,197.0
KPPQ 302135Z AUTO 20004KT 10SM CLR 30/13 A2993 RMK AO2 T03000126,KPPQ,2023-05-30T21:35:00Z,39.63,-90.78,30.0,12.6,200,4,,10.0,29.929134,,,TRUE,TRUE,,,,,,,CLR,,,,,,,,VFR,,,,,,,,,,,,METAR,215.0
KPPA 302135Z AUTO 15014G18KT 10SM 30/17 A2993 RMK AO2 T02970169,KPPA,2023-05-30T21:35:00Z,35.62,-101.0,29.7,16.9,150,14,18,10.0,29.929134,,,TRUE,TRUE,,,,,,,,,,,,,,,,,,,,,,,,,,,METAR,989.0
KPOY 302135Z AUTO 27012KT 10SM CLR 23/M03 A2989 RMK AO2 LTG DSNT N AND NW,KPOY,2023-05-30T21:35:00Z,44.87,-108.8,23.0,-3.0,270,12,,10.0,29.890747,,,TRUE,TRUE,,,,,,,CLR,,,,,,,,VFR,,,,,,,,,,,,METAR,1547.0
KPNT 302135Z AUTO 12003KT 10SM OVC110 32/06 A2991 RMK AO2 T03160062,KPNT,2023-05-30T21:35:00Z,40.92,-88.62,31.6,6.2,120,3,,10.0,29.911417,,,TRUE,TRUE,,,,,,,OVC,11000,,,,,,,VFR,,,,,,,,,,,,METAR,199.0
KPNA 302135Z AUTO 32006G09KT 10SM SCT041 SCT050 BKN100 14/01 A3011 RMK AO2,KPNA,2023-05-30T21:35:00Z,42.8,-109.8,14.0,1.0,320,6,9,10.0,30.109253,,,TRUE,TRUE,,,,,,,SCT,4100,SCT,5000,BKN,10000,,,VFR,,,,,,,,,,,,METAR,2158.0
KPMV 302135Z AUTO 15015KT 10SM VCTS CLR 28/16 A2984 RMK AO2 LTG DSNT NE THRU S T02780160,KPMV,2023-05-30T21:35:00Z,40.95,-95.92,27.8,16.0,150,15,,10.0,29.840551,,,TRUE,TRUE,,,,,,VCTS,CLR,,,,,,,,VFR,,,,,,,,,,,,METAR,365.0
KPLU 302135Z AUTO 00000KT 10SM SCT044 18/04 A3003 RMK AO2,KPLU,2023-05-30T21:35:00Z,47.1,-122.28,18.0,4.0,0,0,,10.0,30.029528,,,TRUE,TRUE,,,,,,,SCT,4400,,,,,,,VFR,,,,,,,,,,,,METAR,164.0
KPLR 302135Z AUTO 00000KT 10SM SCT090 28/16 A2993 RMK A01,KPLR,2023-05-30T21:35:00Z,33.57,-86.25,28.0,16.0,0,0,,10.0,29.929134,,,TRUE,TRUE,,,,,,,SCT,9000,,,,,,,VFR,,,,,,,,,,,,SPECI,145.0
KPLD 302135Z AUTO 15008KT 10SM SCT065 SCT090 SCT120 30/11 A2997 RMK AO2,KPLD,2023-05-30T21:35:00Z,40.45,-84.98,30.0,11.0,150,8,,10.0,29.970472,,,TRUE,TRUE,,,,,,,SCT,6500,SCT,9000,SCT,12000,,,VFR,,,,,,,,,,,,SPECI,282.0
KPIM 302135Z AUTO 15004KT 10SM SCT090 27/14 A2993 RMK AO2 T02730137,KPIM,2023-05-30T21:35:00Z,32.83,-84.88,27.3,13.7,150,4,,10.0,29.929134,,,TRUE,TRUE,,,,,,,SCT,9000,,,,,,,VFR,,,,,,,,,,,,METAR,274.0
KPEQ 302135Z AUTO 15003KT 10SM CLR 36/00 A2982 RMK AO2 T03621004,KPEQ,2023-05-30T21:35:00Z,31.38,-103.52,36.2,-0.4,150,3,,10.0,29.819881,,,TRUE,TRUE,,,,,,,CLR,,,,,,,,VFR,,,,,,,,,,,,METAR,794.0
KPEA 302135Z AUTO 20007KT 10SM SCT070 SCT080 30/14 A2987 RMK AO2 T03040144,KPEA,2023-05-30T21:35:00Z,41.4,-92.95,30.4,14.4,200,7,,10.0,29.870079,,,TRUE,TRUE,,,,,,,SCT,7000,SCT,8000,,,,,VFR,,,,,,,,,,,,METAR,264.0
KPDC 302135Z AUTO 13009KT 10SM CLR 31/05 A2989 RMK AO2 T03080047,KPDC,2023-05-30T21:35:00Z,43.02,-91.12,30.8,4.7,130,9,,10.0,29.890747,,,TRUE,TRUE,,,,,,,CLR,,,,,,,,VFR,,,,,,,,,,,,SPECI,201.0
KPCZ 302135Z AUTO 15009G14KT 10SM CLR 32/02 A2993 RMK AO2 T03180021,KPCZ,2023-05-30T21:35:00Z,44.33,-89.02,31.8,2.1,150,9,14,10.0,29.929134,,,TRUE,TRUE,,,,,,,CLR,,,,,,,,VFR,,,,,,,,,,,,METAR,248.0
KPCD 302135Z AUTO 13006KT 10SM BKN070 BKN090 31/16 A2991 RMK AO2 T03110160,KPCD,2023-05-30T21:35:00Z,37.87,-89.87,31.1,16.0,130,6,,10.0,29.911417,,,TRUE,TRUE,,,,,,,BKN,7000,BKN,9000,,,,,VFR,,,,,,,,,,,,SPECI,112.0
KPBX 302135Z AUTO 14003KT 10SM CLR 24/16 A3002 RMK AO2 T02420159,KPBX,2023-05-30T21:35:00Z,37.57,-82.57,24.2,15.9,140,3,,10.0,30.02067,,,TRUE,TRUE,,,,,,,CLR,,,,,,,,VFR,,,,,,,,,,,,METAR,447.0
KPBH 302135Z AUTO 20009G14KT 10SM CLR 27/11 A2992 RMK AO2 T02690107,KPBH,2023-05-30T21:35:00Z,45.7,-90.4,26.9,10.7,200,9,14,10.0,29.920275,,,TRUE,TRUE,,,,,,,CLR,,,,,,,,VFR,,,,,,,,,,,,SPECI,445.0
KPAN 302135Z AUTO 20009G15KT 10SM CLR 26/M02 A3003 RMK AO2 PWINO TSNO,KPAN,2023-05-30T21:35:00Z,34.25,-111.33,26.0,-2.0,200,9,15,10.0,30.029528,,,TRUE,TRUE,,,TRUE,,TRUE,,CLR,,,,,,,,VFR,,,,,,,,,,,,METAR,1575.0
KOZS 302135Z AUTO 18003KT 10SM CLR 27/13 A2993 RMK AO2,KOZS,2023-05-30T21:35:00Z,37.97,-92.68,27.0,13.0,180,3,,10.0,29.929134,,,TRUE,TRUE,,,,,,,CLR,,,,,,,,VFR,,,,,,,,,,,,SPECI,321.0
KOZA 302135Z AUTO 16009KT 10SM CLR 33/12 A2991 RMK AO2,KOZA,2023-05-30T21:35:00Z,30.73,-101.2,33.0,12.0,160,9,,10.0,29.911417,,,TRUE,TRUE,,,,,,,CLR,,,,,,,,VFR,,,,,,,,,,,,SPECI,721.0
KOYM 302135Z AUTO 12006KT 10SM SCT080 BKN100 OVC120 26/08 A3016 RMK AO2 PWINO,KOYM,2023-05-30T21:35:00Z,41.42,-78.5,26.0,8.0,120,6,,10.0,30.159449,,,TRUE,TRUE,,,,,TRUE,,SCT,8000,BKN,10000,OVC,12000,,,VFR,,,,,,,,,,,,SPECI,582.0
KORG 302135Z AUTO 21007KT 10SM VCTS SCT060 SCT080 BKN100 32/17 A2988 RMK AO2 LTG DSNT NW THRU NE T03210172,KORG,2023-05-30T21:35:00Z,30.07,-93.8,32.1,17.2,210,7,,10.0,29.878937,,,TRUE,TRUE,,,,,,VCTS,SCT,6000,SCT,8000,BKN,10000,,,VFR,,,,,,,,,,,,METAR,2.0
KOPN 302135Z AUTO 13005KT 10SM BKN100 27/10 A2995 RMK AO2,KOPN,2023-05-30T21:35:00Z,32.95,-84.27,27.0,10.0,130,5,,10.0,29.949802,,,TRUE,TRUE,,,,,,,BKN,10000,,,,,,,VFR,,,,,,,,,,,,METAR,241.0
KOOA 302135Z AUTO 21010G15KT 10SM SCT070 SCT090 33/12 A2988 RMK AO2 T03260116,KOOA,2023-05-30T21:35:00Z,41.23,-92.5,32.6,11.6,210,10,15,10.0,29.878937,,,TRUE,TRUE,,,,,,,SCT,7000,SCT,9000,,,,,VFR,,,,,,,,,,,,METAR,256.0
KONM 302135Z AUTO 11013G16KT 10SM CLR 31/M04 A2993 RMK AO2 T03081036,KONM,2023-05-30T21:35:00Z,34.02,-106.9,30.8,-3.6,110,13,16,10.0,29.929134,,,TRUE,TRUE,,,,,,,CLR,,,,,,,,VFR,,,,,,,,,,,,SPECI,1467.0
KONL 302135Z AUTO 16003KT 10SM CLR 30/12 A2984 RMK AO2 T02980116,KONL,2023-05-30T21:35:00Z,42.47,-98.68,29.8,11.6,160,3,,10.0,29.840551,,,TRUE,TRUE,,,,,,,CLR,,,,,,,,VFR,,,,,,,,,,,,METAR,619.0
KOMH 302135Z AUTO 11007KT 10SM BKN034 21/15 A3013 RMK AO2,KOMH,2023-05-30T21:35:00Z,38.25,-78.05,21.0,15.0,110,7,,10.0,30.129921,,,TRUE,TRUE,,,,,,,BKN,3400,,,,,,,VFR,,,,,,,,,,,,SPECI,136.0
KOLZ 302135Z AUTO 16012KT 10SM CLR 31/09 A2989 RMK A01,KOLZ,2023-05-30T21:35:00Z,42.67,-91.97,31.0,9.0,160,12,,10.0,29.890747,,,TRUE,TRUE,,,,,,,CLR,,,,,,,,VFR,,,,,,,,,,,,METAR,328.0
KOKZ 302135Z AUTO 07008KT 10SM BKN120 27/15 A2992 RMK AO2 T02750147,KOKZ,2023-05-30T21:35:00Z,32.97,-82.83,27.5,14.7,70,8,,10.0,29.920275,,,TRUE,TRUE,,,,,,,BKN,12000,,,,,,,VFR,,,,,,,,,,,,METAR,128.0
KOKV 302135Z AUTO 14008KT 10SM CLR 23/11 A3011 RMK AO2,KOKV,2023-05-30T21:35:00Z,39.13,-78.15,23.0,11.0,140,8,,10.0,30.109253,,,TRUE,TRUE,,,,,,,CLR,,,,,,,,VFR,,,,,,,,,,,,SPECI,213.0
KOKM 302135Z AUTO 15008G18KT 10SM SCT050 SCT075 SCT110 31/18 A2991 RMK AO2 T03060180,KOKM,2023-05-30T21:35:00Z,35.67,-95.95,30.6,18.0,150,8,18,10.0,29.911417,,,TRUE,TRUE,,,,,,,SCT,5000,SCT,7500,SCT,11000,,,VFR,,,,,,,,,,,,METAR,215.0
KOIN 302135Z AUTO 08006KT 10SM CLR 31/17 A2989 RMK AO1 T03050173,KOIN,2023-05-30T21:35:00Z,39.83,-100.53,30.5,17.3,80,6,,10.0,29.890747,,,TRUE,TRUE,,,,,,,CLR,,,,,,,,VFR,,,,,,,,,,,,SPECI,810.0
KOGS 302135Z AUTO VRB04G10KT 10SM CLR 27/09 A3004 RMK AO2,KOGS,2023-05-30T21:35:00Z,44.67,-75.47,27.0,9.0,0,4,10,10.0,30.041338,,,TRUE,TRUE,,,,,,,CLR,,,,,,,,VFR,,,,,,,,,,,,METAR,88.0
KOGA 302135Z AUTO 15008KT 10SM CLR 29/16 A2987 RMK AO2 T02860162,KOGA,2023-05-30T21:35:00Z,41.12,-101.77,28.6,16.2,150,8,,10.0,29.870079,,,TRUE,TRUE,,,,,,,CLR,,,,,,,,VFR,,,,,,,,,,,,METAR,991.0
KOEO 302135Z AUTO 17012G18KT 10SM SCT065 31/17 A2986 RMK AO2 T03110170,KOEO,2023-05-30T21:35:00Z,45.32,-92.7,31.1,17.0,170,12,18,10.0,29.861221,,,TRUE,TRUE,,,,,,,SCT,6500,,,,,,,VFR,,,,,,,,,,,,SPECI,269.0
KOBE 302135Z AUTO VRB05G11KT 10SM CLR 30/17 A2986 RMK AO2 LTG DSNT S,KOBE,2023-05-30T21:35:00Z,27.27,-80.85,30.0,17.0,0,5,11,10.0,29.861221,,,TRUE,TRUE,,,,,,,CLR,,,,,,,,VFR,,,,,,,,,,,,METAR,11.0
KO32 302135Z AUTO 27006KT 8SM FEW048 24/11 A2988 RMK AO2 T02370112 $,KO32,2023-05-30T21:35:00Z,36.67,-119.45,23.7,11.2,270,6,,8.0,29.878937,,,TRUE,TRUE,TRUE,,,,,,FEW,4800,,,,,,,VFR,,,,,,,,,,,,METAR,117.0
KO22 302135Z AUTO 18004KT 10SM CLR 22/08 A2992 RMK A01,KO22,2023-05-30T21:35:00Z,38.03,-120.42,22.0,8.0,180,4,,10.0,29.920275,,,TRUE,TRUE,,,,,,,CLR,,,,,,,,VFR,,,,,,,,,,,,METAR,637.0
KNOW 302135Z AUTO 30013KT 10SM CLR 14/07 A3005 RMK AO2 T01370066,KNOW,2023-05-30T21:35:00Z,48.13,-123.4,13.7,6.6,300,13,,10.0,30.050198,,,TRUE,TRUE,,,,,,,CLR,,,,,,,,VFR,,,,,,,,,,,,SPECI,3.0
KN79 302135Z AUTO 17005KT 10SM CLR 25/07 A3012 RMK AO2 T02510069,KN79,2023-05-30T21:35:00Z,,,25.1,6.9,170,5,,10.0,30.121063,,,TRUE,TRUE,,,,,,,CLR,,,,,,,,VFR,,,,,,,,,,,,SPECI,
KN38 302135Z AUTO 14009KT 10SM BKN075 26/07 A3013 RMK AO2,KN38,2023-05-30T21:35:00Z,41.73,-77.4,26.0,7.0,140,9,,10.0,30.129921,,,TRUE,TRUE,,,,,,,BKN,7500,,,,,,,VFR,,,,,,,,,,,,SPECI,576.0
KMZZ 302135Z AUTO 18005KT 7SM CLR 29/14 A2997 RMK AO2 T02890141,KMZZ,2023-05-30T21:35:00Z,40.48,-85.68,28.9,14.1,180,5,,7.0,29.970472,,,TRUE,TRUE,,,,,,,CLR,,,,,,,,VFR,,,,,,,,,,,,METAR,260.0
KMYZ 302135Z AUTO 00000KT 10SM VCTS CLR 30/15 A2984 RMK AO2 LTG DSNT NE THRU S,KMYZ,2023-05-30T21:35:00Z,39.85,-96.63,30.0,15.0,0,0,,10.0,29.840551,,,TRUE,TRUE,,,,,,VCTS,CLR,,,,,,,,VFR,,,,,,,,,,,,METAR,388.0
KMWO 302135Z AUTO 10006KT 10SM SCT060 SCT070 SCT120 28/13 A2998 RMK AO2 T02800135,KMWO,2023-05-30T21:35:00Z,39.53,-84.4,28.0,13.5,100,6,,10.0,29.97933,,,TRUE,TRUE,,,,,,,SCT,6000,SCT,7000,SCT,12000,,,VFR,,,,,,,,,,,,METAR,197.0
KMUT 302135Z AUTO 19007KT 10SM 32/08 A2990 RMK AO2,KMUT,2023-05-30T21:35:00Z,41.37,-91.15,32.0,8.0,190,7,,10.0,29.899607,,,TRUE,TRUE,,,,,,,,,,,,,,,,,,,,,,,,,,,METAR,166.0
KMTV 302135Z AUTO 08009KT 10SM OVC016 19/15 A3011 RMK AO2 T01860149,KMTV,2023-05-30T21:35:00Z,36.63,-80.02,18.6,14.9,80,9,,10.0,30.109253,,,TRUE,TRUE,,,,,,,OVC,1600,,,,,,,MVFR,,,,,,,,,,,,METAR,276.0
KMRJ 302135Z AUTO 20007G15KT 10SM CLR 31/01 A2996 RMK AO2 PWINO,KMRJ,2023-05-30T21:35:00Z,42.88,-90.23,31.0,1.0,200,7,15,10.0,29.958662,,,TRUE,TRUE,,,,,TRUE,,CLR,,,,,,,,VFR,,,,,,,,,,,,SPECI,350.0
KMQW 302135Z AUTO 06005KT 10SM SCT065 33/16 A2989 RMK AO2 T03300159,KMQW,2023-05-30T21:35:00Z,32.1,-82.88,33.0,15.9,60,5,,10.0,29.890747,,,TRUE,TRUE,,,,,,,SCT,6500,,,,,,,VFR,,,,,,,,,,,,METAR,62.0
KMQS 302135Z AUTO 06004G12KT 10SM CLR 23/04 A3015 RMK AO2,KMQS,2023-05-30T21:35:00Z,39.98,-75.87,23.0,4.0,60,4,12,10.0,30.15059,,,TRUE,TRUE,,,,,,,CLR,,,,,,,,VFR,,,,,,,,,,,,SPECI,200.0
KMPZ 302135Z AUTO 16006G14KT 10SM CLR 31/07 A2990 RMK AO2,KMPZ,2023-05-30T21:35:00Z,40.95,-91.52,31.0,7.0,160,6,14,10.0,29.899607,,,TRUE,TRUE,,,,,,,CLR,,,,,,,,VFR,,,,,,,,,,,,SPECI,222.0
KMNI 302135Z AUTO 08003KT 10SM OVC110 26/16 A2994 RMK AO2,KMNI,2023-05-30T21:35:00Z,33.58,-80.22,26.0,16.0,80,3,,10.0,29.940945,,,TRUE,TRUE,,,,,,,OVC,11000,,,,,,,VFR,,,,,,,,,,,,METAR,29.0
KMLJ 302135Z AUTO VRB03KT 10SM FEW060 FEW075 OVC100 28/17 A2992 RMK AO2,KMLJ,2023-05-30T21:35:00Z,33.15,-83.25,28.0,17.0,0,3,,10.0,29.920275,,,TRUE,TRUE,,,,,,,FEW,6000,FEW,7500,OVC,10000,,,VFR,,,,,,,,,,,,METAR,115.0
KMLE 302135Z AUTO 18005KT 10SM SCT090 32/12 A2981 RMK AO2 LTG DSNT NE THRU S T03210115,KMLE,2023-05-30T21:35:00Z,41.2,-96.12,32.1,11.5,180,5,,10.0,29.811024,,,TRUE,TRUE,,,,,,,SCT,9000,,,,,,,VFR,,,,,,,,,,,,METAR,318.0
KMKS 302135Z AUTO 15003KT 10SM OVC100 26/18 A2994 RMK AO2,KMKS,2023-05-30T21:35:00Z,33.18,-80.03,26.0,18.0,150,3,,10.0,29.940945,,,TRUE,TRUE,,,,,,,OVC,10000,,,,,,,VFR,,,,,,,,,,,,METAR,22.0
KMKJ 302135Z AUTO 11006KT 10SM BKN039 BKN049 21/13 A3011 RMK AO2 T02080127,KMKJ,2023-05-30T21:35:00Z,36.88,-81.33,20.8,12.7,110,6,,10.0,30.109253,,,TRUE,TRUE,,,,,,,BKN,3900,BKN,4900,,,,,VFR,,,,,,,,,,,,SPECI,777.0
KMJD 302135Z AUTO 16008KT 10SM SCT041 SCT070 28/22 A2987 RMK AO2,KMJD,2023-05-30T21:35:00Z,30.48,-89.65,28.0,22.0,160,8,,10.0,29.870079,,,TRUE,TRUE,,,,,,,SCT,4100,SCT,7000,,,,,VFR,,,,,,,,,,,,METAR,17.0
KMHP 302135Z AUTO 09009KT 10SM SCT047 BKN065 OVC075 25/17 A2993 RMK AO2 T02480168,KMHP,2023-05-30T21:35:00Z,32.37,-82.08,24.8,16.8,90,9,,10.0,29.929134,,,TRUE,TRUE,,,,,,,SCT,4700,BKN,6500,OVC,7500,,,VFR,,,,,,,,,,,,METAR,60.0
KMHL 302135Z AUTO 15006KT 10SM SCT065 SCT085 29/15 A2991 RMK AO2,KMHL,2023-05-30T21:35:00Z,39.1,-93.2,29.0,15.0,150,6,,10.0,29.911417,,,TRUE,TRUE,,,,,,,SCT,6500,SCT,8500,,,,,VFR,,,,,,,,,,,,METAR,236.0
KMGR 302135Z AUTO 34003KT 10SM OVC075 28/15 A2990 RMK AO2 T02820148,KMGR,2023-05-30T21:35:00Z,31.08,-83.8,28.2,14.8,340,3,,10.0,29.899607,,,TRUE,TRUE,,,,,,,OVC,7500,,,,,,,VFR,,,,,,,,,,,,SPECI,86.0
KMFV 302135Z AUTO 06017G21KT 7SM OVC011 15/13 A3010 RMK AO2 T01480125,KMFV,2023-05-30T21:35:00Z,37.63,-75.77,14.8,12.5,60,17,21,7.0,30.100393,,,TRUE,TRUE,,,,,,,OVC,1100,,,,,,,MVFR,,,,,,,,,,,,SPECI,13.0
KMEZ 302135Z AUTO VRB03KT 10SM CLR 28/17 A2994 RMK AO2 T02780170,KMEZ,2023-05-30T21:35:00Z,34.55,-94.2,27.8,17.0,0,3,,10.0,29.940945,,,TRUE,TRUE,,,,,,,CLR,,,,,,,,VFR,,,,,,,,,,,,SPECI,320.0
KMDZ 302135Z AUTO 17016G19KT 10SM SCT120 29/06 A2993 RMK AO2 T02910062 PWINO,KMDZ,2023-05-30T21:35:00Z,45.1,-90.3,29.1,6.2,170,16,19,10.0,29.929134,,,TRUE,TRUE,,,,,TRUE,,SCT,12000,,,,,,,VFR,,,,,,,,,,,,SPECI,446.0
KMDQ 302135Z AUTO 12005KT 10SM BKN050 BKN060 BKN085 28/14 A2995 RMK A02 T02780144,KMDQ,2023-05-30T21:35:00Z,34.87,-86.55,27.8,14.4,120,5,,10.0,29.949802,,,TRUE,TRUE,,,,,,,BKN,5000,BKN,6000,BKN,8500,,,VFR,,,,,,,,,,,,METAR,221.0
KMDD 302135Z AUTO 15012G15KT 10SM CLR 34/10 A2988 RMK AO2 T03400098,KMDD,2023-05-30T21:35:00Z,32.03,-102.1,34.0,9.8,150,12,15,10.0,29.878937,,,TRUE,TRUE,,,,,,,CLR,,,,,,,,VFR,,,,,,,,,,,,METAR,853.0
KMCJ 302135Z AUTO VRB06G17KT 10SM FEW060 31/15 A2986 RMK A01,KMCJ,2023-05-30T21:35:00Z,29.72,-95.4,31.0,15.0,0,6,17,10.0,29.861221,,,TRUE,TRUE,,,,,,,FEW,6000,,,,,,,VFR,,,,,,,,,,,,SPECI,70.0
KMBY 302135Z AUTO 13008KT 122V192 10SM CLR 32/08 A2991 RMK AO2,KMBY,2023-05-30T21:35:00Z,39.47,-92.43,32.0,8.0,130,8,,10.0,29.911417,,,TRUE,TRUE,,,,,,,CLR,,,,,,,,VFR,,,,,,,,,,,,SPECI,263.0
KMAW 302135Z AUTO 16004KT 10SM OVC080 31/09 A2992 RMK AO1,KMAW,2023-05-30T21:35:00Z,36.6,-90.0,31.0,9.0,160,4,,10.0,29.920275,,,TRUE,TRUE,,,,,,,OVC,8000,,,,,,,VFR,,,,,,,,,,,,METAR,88.0
KMAO 302135Z AUTO 05008KT 10SM CLR 27/17 A2995 RMK AO2,KMAO,2023-05-30T21:35:00Z,34.18,-79.33,27.0,17.0,50,8,,10.0,29.949802,,,TRUE,TRUE,,,,,,,CLR,,,,,,,,VFR,,,,,,,,,,,,SPECI,27.0
KMAN 302135Z AUTO 26012G18KT 10SM CLR 26/09 A2980 RMK A01,KMAN,2023-05-30T21:35:00Z,43.58,-116.52,26.0,9.0,260,12,18,10.0,29.799213,,,TRUE,TRUE,,,,,,,CLR,,,,,,,,VFR,,,,,,,,,,,,SPECI,773.0
KM40 302135Z AUTO 06005KT 10SM SCT055 SCT065 BKN080 28/17 A2993 RMK AO2,KM40,2023-05-30T21:35:00Z,33.87,-88.48,28.0,17.0,60,5,,10.0,29.929134,,,TRUE,TRUE,,,,,,,SCT,5500,SCT,6500,BKN,8000,,,VFR,,,,,,,,,,,,SPECI,68.0
KM25 302135Z AUTO 00000KT 10SM OVC080 29/13 A2994 RMK AO2 PWINO,KM25,2023-05-30T21:35:00Z,36.77,-88.58,29.0,13.0,0,0,,10.0,29.940945,,,TRUE,TRUE,,,,,TRUE,,OVC,8000,,,,,,,VFR,,,,,,,,,,,,METAR,157.0
KM21 302135Z AUTO 10008KT 10SM BKN055 BKN075 30/16 A2993 RMK AO2 T02960164,KM21,2023-05-30T21:35:00Z,37.22,-87.15,29.6,16.4,100,8,,10.0,29.929134,,,TRUE,TRUE,,,,,,,BKN,5500,BKN,7500,,,,,VFR,,,,,,,,,,,,SPECI,127.0
KM01 302135Z AUTO VRB04KT 10SM FEW075 31/13 A2988 RMK AO2 T03110127 $,KM01,2023-05-30T21:35:00Z,35.2,-90.05,31.1,12.7,0,4,,10.0,29.878937,,,TRUE,TRUE,TRUE,,,,,,FEW,7500,,,,,,,VFR,,,,,,,,,,,,SPECI,68.0
KLYO 302135Z AUTO 20008G18KT 10SM CLR 32/15 A2986 RMK AO2 T03150146,KLYO,2023-05-30T21:35:00Z,38.35,-98.23,31.5,14.6,200,8,18,10.0,29.861221,,,TRUE,TRUE,,,,,,,CLR,,,,,,,,VFR,,,,,,,,,,,,METAR,515.0
KLXN 302135Z AUTO 16006KT 10SM CLR 29/18 A2988 RMK AO2 T02880181,KLXN,2023-05-30T21:35:00Z,40.78,-99.77,28.8,18.1,160,6,,10.0,29.878937,,,TRUE,TRUE,,,,,,,CLR,,,,,,,,VFR,,,,,,,,,,,,METAR,734.0
KLVL 302135Z AUTO 35003KT 10SM BKN008 OVC013 19/17 A3009 RMK AO1 T01860174,KLVL,2023-05-30T21:35:00Z,36.78,-77.8,18.6,17.4,350,3,,10.0,30.088583,,,TRUE,TRUE,,,,,,,BKN,800,OVC,1300,,,,,IFR,,,,,,,,,,,,SPECI,98.0
KLUX 302135Z AUTO 08005KT 10SM SCT090 25/16 A2997 RMK AO2,KLUX,2023-05-30T21:35:00Z,34.5,-81.95,25.0,16.0,80,5,,10.0,29.970472,,,TRUE,TRUE,,,,,,,SCT,9000,,,,,,,VFR,,,,,,,,,,,,SPECI,213.0
KLUV 302135Z AUTO 13017G27KT 10SM BKN090 BKN120 32/14 A2991 RMK AO2,KLUV,2023-05-30T21:35:00Z,32.75,-101.92,32.0,14.0,130,17,27,10.0,29.911417,,,TRUE,TRUE,,,,,,,BKN,9000,BKN,12000,,,,,VFR,,,,,,,,,,,,SPECI,910.0
KLUM 302135Z 14010G13KT 10SM CLR 32/07 A2986 RMK AO2 T03170065 PWINO,KLUM,2023-05-30T21:35:00Z,44.9,-91.87,31.7,6.5,140,10,13,10.0,29.861221,,,,TRUE,,,,,TRUE,,CLR,,,,,,,,VFR,,,,,,,,,,,,SPECI,271.0
KLUL 302135Z AUTO 36005KT 10SM SCT060 BKN075 28/14 A2990 RMK A02 T02830142,KLUL,2023-05-30T21:35:00Z,31.67,-89.17,28.3,14.2,360,5,,10.0,29.899607,,,TRUE,TRUE,,,,,,,SCT,6000,BKN,7500,,,,,VFR,,,,,,,,,,,,METAR,74.0
KLUA 302135Z AUTO 02007KT 10SM CLR 26/11 A3011 RMK AO2,KLUA,2023-05-30T21:35:00Z,38.67,-78.5,26.0,11.0,20,7,,10.0,30.109253,,,TRUE,TRUE,,,,,,,CLR,,,,,,,,VFR,,,,,,,,,,,,SPECI,273.0
KLRJ 302135Z AUTO 21006G18KT 10SM CLR 33/12 A2976 RMK AO2,KLRJ,2023-05-30T21:35:00Z,42.77,-96.2,33.0,12.0,210,6,18,10.0,29.760826,,,TRUE,TRUE,,,,,,,CLR,,,,,,,,VFR,,,,,,,,,,,,METAR,363.0
KLQK 302135Z AUTO 06007KT 10SM BKN045 BKN060 BKN070 26/16 A2998 RMK AO2 T02640162,KLQK,2023-05-30T21:35:00Z,34.82,-82.7,26.4,16.2,60,7,,10.0,29.97933,,,TRUE,TRUE,,,,,,,BKN,4500,BKN,6000,BKN,7000,,,VFR,,,,,,,,,,,,METAR,291.0
KLOM 302135Z AUTO 07006KT 10SM CLR 22/07 A3016 RMK AO2 T02250065,KLOM,2023-05-30T21:35:00Z,40.13,-75.27,22.5,6.5,70,6,,10.0,30.159449,,,TRUE,TRUE,,,,,,,CLR,,,,,,,,VFR,,,,,,,,,,,,METAR,87.0
KLNQ 302135Z AUTO 09004KT 10SM BKN095 29/20 A2990 RMK AO2 T02900204,KLNQ,2023-05-30T21:35:00Z,29.35,-89.43,29.0,20.4,90,4,,10.0,29.899607,,,TRUE,TRUE,,,,,,,BKN,9500,,,,,,,VFR,,,,,,,,,,,,METAR,1.0
KLNP 302135Z AUTO 08005KT 10SM BKN110 22/12 A3008 RMK AO2,KLNP,2023-05-30T21:35:00Z,36.98,-82.52,22.0,12.0,80,5,,10.0,30.079725,,,TRUE,TRUE,,,,,,,BKN,11000,,,,,,,VFR,,,,,,,,,,,,SPECI,817.0
KLNN 302135Z AUTO 05008KT 10SM CLR 26/11 A3003 RMK AO1 T02590113,KLNN,2023-05-30T21:35:00Z,41.68,-81.38,25.9,11.3,50,8,,10.0,30.029528,,,TRUE,TRUE,,,,,,,CLR,,,,,,,,VFR,,,,,,,,,,,,METAR,190.0
KLNL 302135Z AUTO 23008KT 200V260 10SM BKN120 29/03 A2995 RMK AO2 T02850025,KLNL,2023-05-30T21:35:00Z,46.15,-89.22,28.5,2.5,230,8,,10.0,29.949802,,,TRUE,TRUE,,,,,,,BKN,12000,,,,,,,VFR,,,,,,,,,,,,SPECI,517.0
KLLN 302135Z AUTO 14013G19KT 10SM CLR 30/14 A2993 RMK AO2,KLLN,2023-05-30T21:35:00Z,33.55,-102.37,30.0,14.0,140,13,19,10.0,29.929134,,,TRUE,TRUE,,,,,,,CLR,,,,,,,,VFR,,,,,,,,,,,,METAR,1071.0
KLKU 302135Z AUTO 06007KT 10SM SCT025 BKN050 20/15 A3013 RMK AO2 T02050149,KLKU,2023-05-30T21:35:00Z,38.02,-77.97,20.5,14.9,60,7,,10.0,30.129921,,,TRUE,TRUE,,,,,,,SCT,2500,BKN,5000,,,,,VFR,,,,,,,,,,,,SPECI,146.0
KLKR 302135Z AUTO 05006G13KT 9SM FEW070 SCT080 SCT110 21/17 A3000 RMK AO2,KLKR,2023-05-30T21:35:00Z,34.72,-80.85,21.0,17.0,50,6,13,9.0,30.0,,,TRUE,TRUE,,,,,,,FEW,7000,SCT,8000,SCT,11000,,,VFR,,,,,,,,,,,,SPECI,166.0
KLGC 302135Z AUTO 14005KT 10SM BKN090 28/13 A2993 RMK AO2 T02790133,KLGC,2023-05-30T21:35:00Z,33.0,-85.07,27.9,13.3,140,5,,10.0,29.929134,,,TRUE,TRUE,,,,,,,BKN,9000,,,,,,,VFR,,,,,,,,,,,,METAR,209.0
KLCQ 302135Z AUTO 22003KT 10SM CLR 28/15 A2988 RMK AO2,KLCQ,2023-05-30T21:35:00Z,30.18,-82.58,28.0,15.0,220,3,,10.0,29.878937,,,TRUE,TRUE,,,,,,,CLR,,,,,,,,VFR,,,,,,,,,,,,METAR,59.0
KLBO 302135Z AUTO 25005KT 10SM BKN050 28/13 A2996 RMK AO2,KLBO,2023-05-30T21:35:00Z,37.65,-92.65,28.0,13.0,250,5,,10.0,29.958662,,,TRUE,TRUE,,,,,,,BKN,5000,,,,,,,VFR,,,,,,,,,,,,SPECI,399.0
KLAM 302135Z AUTO 23009G20KT 8SM FEW120 25/M08 A3009 RMK AO2 T02471075 $,KLAM,2023-05-30T21:35:00Z,35.87,-106.27,24.7,-7.5,230,9,20,8.0,30.088583,,,TRUE,TRUE,TRUE,,,,,,FEW,12000,,,,,,,VFR,,,,,,,,,,,,METAR,2166.0
KL35 302135Z AUTO 36008KT 324V044 10SM CLR 16/M08 A3001 RMK AO2,KL35,2023-05-30T21:35:00Z,34.27,-116.85,16.0,-8.0,360,8,,10.0,30.008858,,,TRUE,TRUE,,,,,,,CLR,,,,,,,,VFR,,,,,,,,,,,,SPECI,2062.0
KL18 302135Z AUTO 25012KT 10SM SCT023 SCT027 OVC043 19/12 A2996 RMK AO2,KL18,2023-05-30T21:35:00Z,33.35,-117.25,19.0,12.0,250,12,,10.0,29.958662,,,TRUE,TRUE,,,,,,,SCT,2300,SCT,2700,OVC,4300,,,VFR,,,,,,,,,,,,SPECI,215.0
KL08 302135Z AUTO VRB06G14KT 10SM CLR 32/M04 A2974 RMK AO2,KL08,2023-05-30T21:35:00Z,33.27,-116.32,32.0,-4.0,0,6,14,10.0,29.740158,,,TRUE,TRUE,,,,,,,CLR,,,,,,,,VFR,,,,,,,,,,,,SPECI,156.0
KKY8 302135Z AUTO 09004KT 10SM FEW055 28/17 A2993 RMK A01,KKY8,2023-05-30T21:35:00Z,37.95,-86.87,28.0,17.0,90,4,,10.0,29.929134,,,TRUE,TRUE,,,,,,,FEW,5500,,,,,,,VFR,,,,,,,,,,,,SPECI,124.0
KK82 302135Z AUTO 23008KT 10SM CLR 30/16 A2986 RMK AO2 T03030156,KK82,2023-05-30T21:35:00Z,39.77,-98.8,30.3,15.6,230,8,,10.0,29.861221,,,TRUE,TRUE,,,,,,,CLR,,,,,,,,VFR,,,,,,,,,,,,METAR,548.0
KJZP 302135Z AUTO 12007KT 10SM SCT047 BKN085 26/13 A2999 RMK AO2 T02580134,KJZP,2023-05-30T21:35:00Z,34.45,-84.47,25.8,13.4,120,7,,10.0,29.991142,,,TRUE,TRUE,,,,,,,SCT,4700,BKN,8500,,,,,VFR,,,,,,,,,,,,METAR,462.0
KJZI 302135Z AUTO 11010KT 10SM CLR 26/17 A2996 RMK AO2,KJZI,2023-05-30T21:35:00Z,32.7,-80.0,26.0,17.0,110,10,,10.0,29.958662,,,TRUE,TRUE,,,,,,,CLR,,,,,,,,VFR,,,,,,,,,,,,SPECI,5.0
KJYR 302135Z AUTO 28009KT 240V300 10SM CLR 30/12 A2984 RMK AO2 LTG DSNT SE,KJYR,2023-05-30T21:35:00Z,40.9,-97.62,30.0,12.0,280,9,,10.0,29.840551,,,TRUE,TRUE,,,,,,,CLR,,,,,,,,VFR,,,,,,,,,,,,METAR,508.0
KJYO 302135Z AUTO 10006KT 10SM CLR 25/10 A3013 RMK AO2,KJYO,2023-05-30T21:35:00Z,39.07,-77.57,25.0,10.0,100,6,,10.0,30.129921,,,TRUE,TRUE,,,,,,,CLR,,,,,,,,VFR,,,,,,,,,,,,SPECI,112.0
KJSV 302135Z AUTO 00000KT 10SM CLR 31/17 A2990 RMK AO2,KJSV,2023-05-30T21:35:00Z,35.43,-94.8,31.0,17.0,0,0,,10.0,29.899607,,,TRUE,TRUE,,,,,,,CLR,,,,,,,,VFR,,,,,,,,,,,,METAR,158.0
KJSO 302135Z AUTO 00000KT 10SM BKN120 27/17 A2992 RMK AO2 T02720174 TSNO,KJSO,2023-05-30T21:35:00Z,31.87,-95.22,27.2,17.4,0,0,,10.0,29.920275,,,TRUE,TRUE,,,TRUE,,,,BKN,12000,,,,,,,VFR,,,,,,,,,,,,SPECI,204.0
KJRO 302135Z AUTO 07003KT 10SM CLR 28/15 A3001 RMK AO2,KJRO,2023-05-30T21:35:00Z,38.98,-82.58,28.0,15.0,70,3,,10.0,30.008858,,,TRUE,TRUE,,,,,,,CLR,,,,,,,,VFR,,,,,,,,,,,,METAR,224.0
KJHN 302135Z AUTO 16015G22KT 10SM SCT060 31/14 A2988 RMK AO2 T03120140,KJHN,2023-05-30T21:35:00Z,37.58,-101.73,31.2,14.0,160,15,22,10.0,29.878937,,,TRUE,TRUE,,,,,,,SCT,6000,,,,,,,VFR,,,,,,,,,,,,METAR,1013.0
KJFZ 302135Z AUTO 12005G17KT 10SM SCT045 23/13 A3009 RMK AO2 T02270129,KJFZ,2023-05-30T21:35:00Z,37.07,-81.8,22.7,12.9,120,5,17,10.0,30.088583,,,TRUE,TRUE,,,,,,,SCT,4500,,,,,,,VFR,,,,,,,,,,,,SPECI,809.0
KJFX 302135Z AUTO 12004KT 10SM BKN095 27/17 A2993 RMK AO2,KJFX,2023-05-30T21:35:00Z,33.9,-87.32,27.0,17.0,120,4,,10.0,29.929134,,,TRUE,TRUE,,,,,,,BKN,9500,,,,,,,VFR,,,,,,,,,,,,SPECI,144.0
KJES 302135Z AUTO 11006KT 10SM SCT025 BKN065 OVC110 27/20 A2993 RMK AO2,KJES,2023-05-30T21:35:00Z,31.55,-81.88,27.0,20.0,110,6,,10.0,29.929134,,,TRUE,TRUE,,,,,,,SCT,2500,BKN,6500,OVC,11000,,,VFR,,,,,,,,,,,,METAR,26.0
KJDD 302135Z AUTO 34005KT 10SM SCT050 30/19 A2989 RMK AO2 LTG DSNT S,KJDD,2023-05-30T21:35:00Z,32.75,-95.5,30.0,19.0,340,5,,10.0,29.890747,,,TRUE,TRUE,,,,,,,SCT,5000,,,,,,,VFR,,,,,,,,,,,,METAR,127.0
KJCA 302135Z AUTO 05008KT 10SM SCT046 26/14 A2998 RMK AO2 T02630144,KJCA,2023-05-30T21:35:00Z,34.18,-83.57,26.3,14.4,50,8,,10.0,29.97933,,,TRUE,TRUE,,,,,,,SCT,4600,,,,,,,VFR,,,,,,,,,,,,METAR,287.0
KJAS 302135Z AUTO 09010KT 9SM CLR 26/22 A2988 RMK AO2 LTG DSNT E-S,KJAS,2023-05-30T21:35:00Z,30.88,-94.03,26.0,22.0,90,10,,9.0,29.878937,,,TRUE,TRUE,,,,,,,CLR,,,,,,,,VFR,,,,,,,,,,,,METAR,60.0
KJAQ 302135Z AUTO 27005KT 10SM SCT050 21/09 A2993 RMK AO1 T02060090,KJAQ,2023-05-30T21:35:00Z,38.37,-120.8,20.6,9.0,270,5,,10.0,29.929134,,,TRUE,TRUE,,,,,,,SCT,5000,,,,,,,VFR,,,,,,,,,,,,SPECI,518.0
KIZA 302135Z AUTO 23004KT 9SM -RA OVC028 16/11 A2998 RMK AO2,KIZA,2023-05-30T21:35:00Z,34.6,-120.07,16.0,11.0,230,4,,9.0,29.97933,,,TRUE,TRUE,,,,,,-RA,OVC,2800,,,,,,,MVFR,,,,,,,,,,,,METAR,200.0
KIUA 302135Z AUTO 34007KT 10SM CLR 28/13 A3009 RMK AO2 T02770134,KIUA,2023-05-30T21:35:00Z,42.92,-77.33,27.7,13.4,340,7,,10.0,30.088583,,,TRUE,TRUE,,,,,,,CLR,,,,,,,,VFR,,,,,,,,,,,,SPECI,248.0
KINF 302135Z AUTO 00000KT 5SM HZ SCT065 30/18 A2988 RMK AO2,KINF,2023-05-30T21:35:00Z,28.8,-82.32,30.0,18.0,0,0,,5.0,29.878937,,,TRUE,TRUE,,,,,,HZ,SCT,6500,,,,,,,MVFR,,,,,,,,,,,,SPECI,14.0
KIKV 302135Z AUTO 18008G14KT 6SM HZ FEW065 30/15 A2986 RMK AO2,KIKV,2023-05-30T21:35:00Z,41.68,-93.57,30.0,15.0,180,8,14,6.0,29.861221,,,TRUE,TRUE,,,,,,HZ,FEW,6500,,,,,,,VFR,,,,,,,,,,,,METAR,270.0
KIKK 302135Z AUTO 10005KT 10SM CLR 32/07 A2992 RMK AO2 T03170074 PWINO,KIKK,2023-05-30T21:35:00Z,41.07,-87.85,31.7,7.4,100,5,,10.0,29.920275,,,TRUE,TRUE,,,,,TRUE,,CLR,,,,,,,,VFR,,,,,,,,,,,,METAR,188.0
KIKG 302135Z AUTO 06008KT 10SM SCT050 BKN075 31/19 A2985 RMK AO2 T03080191,KIKG,2023-05-30T21:35:00Z,27.55,-98.03,30.8,19.1,60,8,,10.0,29.84941,,,TRUE,TRUE,,,,,,,SCT,5000,BKN,7500,,,,,VFR,,,,,,,,,,,,METAR,37.0
KIJX 302135Z AUTO 21005KT 10SM BKN080 31/13 A2991 RMK AO2 T03060128,KIJX,2023-05-30T21:35:00Z,39.77,-90.25,30.6,12.8,210,5,,10.0,29.911417,,,TRUE,TRUE,,,,,,,BKN,8000,,,,,,,VFR,,,,,,,,,,,,METAR,187.0
KIIY 302135Z AUTO 06004KT 10SM SCT041 27/17 A2995 RMK AO2 T02690168,KIIY,2023-05-30T21:35:00Z,33.78,-82.82,26.9,16.8,60,4,,10.0,29.949802,,,TRUE,TRUE,,,,,,,SCT,4100,,,,,,,VFR,,,,,,,,,,,,METAR,192.0
KIIB 302135Z AUTO 16013KT 10SM CLR 30/09 A2990 RMK AO2 T03050092,KIIB,2023-05-30T21:35:00Z,42.45,-91.95,30.5,9.2,160,13,,10.0,29.899607,,,TRUE,TRUE,,,,,,,CLR,,,,,,,,VFR,,,,,,,,,,,,METAR,294.0
KIDP 302135Z AUTO 19008KT 10SM SCT050 30/19 A2989 RMK AO2 LTG DSNT NW T02960186,KIDP,2023-05-30T21:35:00Z,37.17,-95.78,29.6,18.6,190,8,,10.0,29.890747,,,TRUE,TRUE,,,,,,,SCT,5000,,,,,,,VFR,,,,,,,,,,,,METAR,252.0
KIDI 302135Z AUTO 13012G17KT 10SM FEW080 28/07 A3014 RMK A01,KIDI,2023-05-30T21:35:00Z,40.63,-79.1,28.0,7.0,130,12,17,10.0,30.138779,,,TRUE,TRUE,,,,,,,FEW,8000,,,,,,,VFR,,,,,,,,,,,,SPECI,425.0
KIBM 302135Z AUTO 13008KT 10SM CLR 26/11 A2992 RMK AO2 T02550112,KIBM,2023-05-30T21:35:00Z,41.18,-103.68,25.5,11.2,130,8,,10.0,29.920275,,,TRUE,TRUE,,,,,,,CLR,,,,,,,,VFR,,,,,,,,,,,,METAR,1494.0
KI95 302135Z AUTO 16009KT 10SM FEW060 FEW080 FEW110 29/15 A2998 RMK A01,KI95,2023-05-30T21:35:00Z,,,29.0,15.0,160,9,,10.0,29.97933,,,TRUE,TRUE,,,,,,,FEW,6000,FEW,8000,FEW,11000,,,VFR,,,,,,,,,,,,METAR,
KI75 302135Z AUTO 17009KT 10SM SCT065 SCT080 32/14 A2987 RMK AO2 T03170144,KI75,2023-05-30T21:35:00Z,41.05,-93.68,31.7,14.4,170,9,,10.0,29.870079,,,TRUE,TRUE,,,,,,,SCT,6500,SCT,8000,,,,,VFR,,,,,,,,,,,,METAR,336.0
KI74 302135Z AUTO 13007KT 10SM SCT060 OVC110 28/15 A3001 RMK AO2,KI74,2023-05-30T21:35:00Z,40.12,-83.75,28.0,15.0,130,7,,10.0,30.008858,,,TRUE,TRUE,,,,,,,SCT,6000,OVC,11000,,,,,VFR,,,,,,,,,,,,SPECI,322.0
KI63 302135Z AUTO 16006KT 10SM CLR 30/11 A2991 RMK AO2 T03000109,KI63,2023-05-30T21:35:00Z,39.98,-90.8,30.0,10.9,160,6,,10.0,29.911417,,,TRUE,TRUE,,,,,,,CLR,,,,,,,,VFR,,,,,,,,,,,,METAR,221.0
KHZE 302135Z AUTO VRB06G12KT 10SM CLR 27/13 A2978 RMK AO2,KHZE,2023-05-30T21:35:00Z,47.28,-101.58,27.0,13.0,0,6,12,10.0,29.778543,,,TRUE,TRUE,,,,,,,CLR,,,,,,,,VFR,,,,,,,,,,,,SPECI,542.0
KHWY 302135Z AUTO 12007KT 10SM CLR 25/12 A3012 RMK AO2 T02470122,KHWY,2023-05-30T21:35:00Z,38.58,-77.72,24.7,12.2,120,7,,10.0,30.121063,,,TRUE,TRUE,,,,,,,CLR,,,,,,,,VFR,,,,,,,,,,,,METAR,93.0
KHVS 302135Z AUTO 06007KT 10SM SCT090 SCT120 26/18 A2997 RMK AO2,KHVS,2023-05-30T21:35:00Z,34.4,-80.12,26.0,18.0,60,7,,10.0,29.970472,,,TRUE,TRUE,,,,,,,SCT,9000,SCT,12000,,,,,VFR,,,,,,,,,,,,SPECI,110.0
KHRX 302135Z AUTO 10SM CLR 30/15 A2993 RMK AO2 T03000145 TSNO,KHRX,2023-05-30T21:35:00Z,34.87,-102.33,30.0,14.5,,,,10.0,29.929134,,,TRUE,TRUE,,,TRUE,,,,CLR,,,,,,,,VFR,,,,,,,,,,,,METAR,1153.0
KHPT 302135Z AUTO 18011KT 10SM CLR 28/11 A2986 RMK AO2,KHPT,2023-05-30T21:35:00Z,42.72,-93.23,28.0,11.0,180,11,,10.0,29.861221,,,TRUE,TRUE,,,,,,,CLR,,,,,,,,VFR,,,,,,,,,,,,METAR,354.0
KHNR 302135Z AUTO 20011G18KT 10SM CLR 30/17 A2982 RMK A01,KHNR,2023-05-30T21:35:00Z,41.58,-95.33,30.0,17.0,200,11,18,10.0,29.819881,,,TRUE,TRUE,,,,,,,CLR,,,,,,,,VFR,,,,,,,,,,,,METAR,364.0
KHMZ 302135Z AUTO 13008KT 10SM CLR 25/08 A3011 RMK AO2 T02450083,KHMZ,2023-05-30T21:35:00Z,40.08,-78.52,24.5,8.3,130,8,,10.0,30.109253,,,TRUE,TRUE,,,,,,,CLR,,,,,,,,VFR,,,,,,,,,,,,METAR,351.0
KHMP 302135Z AUTO 09007KT 10SM SCT050 SCT055 OVC085 26/15 A2998 RMK AO2 T02570152,KHMP,2023-05-30T21:35:00Z,33.38,-84.33,25.7,15.2,90,7,,10.0,29.97933,,,TRUE,TRUE,,,,,,,SCT,5000,SCT,5500,OVC,8500,,,VFR,,,,,,,,,,,,METAR,263.0
KHMN 302135Z AUTO 18010G17KT 10SM FEW140 35/M03 A2992 RMK AO2 WSHFT 34 SLP059 $,KHMN,2023-05-30T21:35:00Z,32.85,-106.1,35.0,-3.0,180,10,17,10.0,29.920275,1005.9,,TRUE,TRUE,TRUE,,,,,,FEW,14000,,,,,,,VFR,,,,,,,,,,,,SPECI,1240.0
KHLX 302135Z AUTO 06011G17KT 10SM SCT034 SCT047 SCT080 21/14 A3009 RMK AO2 T02050135,KHLX,2023-05-30T21:35:00Z,36.77,-80.82,20.5,13.5,60,11,17,10.0,30.088583,,,TRUE,TRUE,,,,,,,SCT,3400,SCT,4700,SCT,8000,,,VFR,,,,,,,,,,,,SPECI,819.0
KHJH 302135Z AUTO 31005KT 10SM CLR 32/11 A2984 RMK AO2 LTG DSNT E AND SE T03210109,KHJH,2023-05-30T21:35:00Z,40.15,-97.58,32.1,10.9,310,5,,10.0,29.840551,,,TRUE,TRUE,,,,,,,CLR,,,,,,,,VFR,,,,,,,,,,,,METAR,449.0
KHHG 302135Z AUTO 12010KT 10SM CLR 30/14 A2996 RMK AO2 T03020142,KHHG,2023-05-30T21:35:00Z,40.85,-85.45,30.2,14.2,120,10,,10.0,29.958662,,,TRUE,TRUE,,,,,,,CLR,,,,,,,,VFR,,,,,,,,,,,,METAR,247.0
KHFY 302135Z AUTO 18007KT 10SM BKN060 BKN100 BKN120 30/17 A2996 RMK AO2 T02990167,KHFY,2023-05-30T21:35:00Z,39.63,-86.08,29.9,16.7,180,7,,10.0,29.958662,,,TRUE,TRUE,,,,,,,BKN,6000,BKN,10000,BKN,12000,,,VFR,,,,,,,,,,,,SPECI,250.0
KHEQ 302135Z AUTO 13013KT 10SM CLR 30/12 A2988 RMK AO2,KHEQ,2023-05-30T21:35:00Z,40.57,-102.28,30.0,12.0,130,13,,10.0,29.878937,,,TRUE,TRUE,,,,,,,CLR,,,,,,,,VFR,,,,,,,,,,,,METAR,1136.0
KHEG 302135Z AUTO 06008KT 10SM FEW065 FEW085 27/20 A2990 RMK AO2,KHEG,2023-05-30T21:35:00Z,30.28,-81.8,27.0,20.0,60,8,,10.0,29.899607,,,TRUE,TRUE,,,,,,,FEW,6500,FEW,8500,,,,,VFR,,,,,,,,,,,,METAR,25.0
KHDL 302135Z AUTO 00000KT 10SM OVC060 26/16 A2991 RMK AO2,KHDL,2023-05-30T21:35:00Z,31.37,-85.32,26.0,16.0,0,0,,10.0,29.911417,,,TRUE,TRUE,,,,,,,OVC,6000,,,,,,,VFR,,,,,,,,,,,,METAR,109.0
KHDE 302135Z AUTO 20006KT 10SM CLR 27/16 A2988 RMK AO2 T02740164,KHDE,2023-05-30T21:35:00Z,40.45,-99.33,27.4,16.4,200,6,,10.0,29.878937,,,TRUE,TRUE,,,,,,,CLR,,,,,,,,VFR,,,,,,,,,,,,METAR,703.0
KHAE 302135Z AUTO 00000KT 10SM CLR 31/08 A2992 RMK AO2,KHAE,2023-05-30T21:35:00Z,39.73,-91.45,31.0,8.0,0,0,,10.0,29.920275,,,TRUE,TRUE,,,,,,,CLR,,,,,,,,VFR,,,,,,,,,,,,SPECI,230.0
KGZL 302135Z AUTO 14006KT 10SM CLR 31/17 A2990 RMK AO2,KGZL,2023-05-30T21:35:00Z,35.28,-95.1,31.0,17.0,140,6,,10.0,29.899607,,,TRUE,TRUE,,,,,,,CLR,,,,,,,,VFR,,,,,,,,,,,,METAR,176.0
KGWR 302135Z AUTO 26013KT 10SM SCT080 SCT090 30/11 A2973 RMK A01,KGWR,2023-05-30T21:35:00Z,46.22,-97.65,30.0,11.0,260,13,,10.0,29.731298,,,TRUE,TRUE,,,,,,,SCT,8000,SCT,9000,,,,,VFR,,,,,,,,,,,,SPECI,381.0
KGVT 302135Z AUTO 05005KT 10SM SCT041 SCT110 29/19 A2990 RMK AO2 TSNO T02880193,KGVT,2023-05-30T21:35:00Z,33.07,-96.07,28.8,19.3,50,5,,10.0,29.899607,,,TRUE,TRUE,,,TRUE,,,,SCT,4100,SCT,11000,,,,,VFR,,,,,,,,,,,,SPECI,165.0
KGVE 302135Z AUTO 10005KT 10SM SCT033 SCT049 23/15 A3011 RMK AO1 T02270153,KGVE,2023-05-30T21:35:00Z,38.15,-78.17,22.7,15.3,100,5,,10.0,30.109253,,,TRUE,TRUE,,,,,,,SCT,3300,SCT,4900,,,,,VFR,,,,,,,,,,,,SPECI,138.0
KGPH 302135Z AUTO 23004KT 10SM CLR 30/14 A2988 RMK AO2 LTG DSNT SW AND NW,KGPH,2023-05-30T21:35:00Z,39.33,-94.32,30.0,14.0,230,4,,10.0,29.878937,,,TRUE,TRUE,,,,,,,CLR,,,,,,,,VFR,,,,,,,,,,,,SPECI,233.0
KGOP 302135Z AUTO 18009KT 10SM VCTS CLR 31/17 A2989 RMK AO2 LTG DSNT NE-SE,KGOP,2023-05-30T21:35:00Z,31.42,-97.8,31.0,17.0,180,9,,10.0,29.890747,,,TRUE,TRUE,,,,,,VCTS,CLR,,,,,,,,VFR,,,,,,,,,,,,METAR,272.0
KGNT 302135Z AUTO 21007KT 10SM SCT120 25/M08 A3006 RMK AO2 T02531077,KGNT,2023-05-30T21:35:00Z,35.17,-107.9,25.3,-7.7,210,7,,10.0,30.059055,,,TRUE,TRUE,,,,,,,SCT,12000,,,,,,,VFR,,,,,,,,,,,,METAR,1988.0
KGNB 302135Z AUTO 13007KT 090V160 10SM CLR 21/M04 A3013 RMK AO2 T02061045,KGNB,2023-05-30T21:35:00Z,40.08,-105.92,20.6,-4.5,130,7,,10.0,30.129921,,,TRUE,TRUE,,,,,,,CLR,,,,,,,,VFR,,,,,,,,,,,,SPECI,2500.0
KGMJ 302135Z AUTO 22011KT 10SM FEW050 FEW060 29/19 A2990 RMK AO2 LTG DSNT E AND NW,KGMJ,2023-05-30T21:35:00Z,36.6,-94.73,29.0,19.0,220,11,,10.0,29.899607,,,TRUE,TRUE,,,,,,,FEW,5000,FEW,6000,,,,,VFR,,,,,,,,,,,,METAR,251.0
KGLW 302135Z AUTO 16005KT 10SM SCT049 28/17 A2995 RMK AO2 T02800171,KGLW,2023-05-30T21:35:00Z,37.03,-85.95,28.0,17.1,160,5,,10.0,29.949802,,,TRUE,TRUE,,,,,,,SCT,4900,,,,,,,VFR,,,,,,,,,,,,METAR,216.0
KGIC 302135Z AUTO 03003KT 10SM BKN110 23/10 A2985 RMK AO1,KGIC,2023-05-30T21:35:00Z,45.95,-116.12,23.0,10.0,30,3,,10.0,29.84941,,,TRUE,TRUE,,,,,,,BKN,11000,,,,,,,VFR,,,,,,,,,,,,METAR,1002.0
KGHG 302135Z AUTO 14010G16KT 10SM CLR 15/09 A3022 RMK AO2,KGHG,2023-05-30T21:35:00Z,42.1,-70.67,15.0,9.0,140,10,16,10.0,30.221457,,,TRUE,TRUE,,,,,,,CLR,,,,,,,,VFR,,,,,,,,,,,,SPECI,3.0
KGGP 302135Z AUTO 14012KT 10SM SCT085 SCT120 31/11 A2995 RMK AO2,KGGP,2023-05-30T21:35:00Z,40.72,-86.37,31.0,11.0,140,12,,10.0,29.949802,,,TRUE,TRUE,,,,,,,SCT,8500,SCT,12000,,,,,VFR,,,,,,,,,,,,METAR,224.0
KGGF 302135Z AUTO 15008G15KT 10SM CLR 28/17 A2987 RMK AO2,KGGF,2023-05-30T21:35:00Z,40.87,-101.73,28.0,17.0,150,8,15,10.0,29.870079,,,TRUE,TRUE,,,,,,,CLR,,,,,,,,VFR,,,,,,,,,,,,SPECI,1044.0
KGGE 302135Z AUTO 11005KT 10SM CLR 26/16 A2995 RMK AO2,KGGE,2023-05-30T21:35:00Z,33.32,-79.32,26.0,16.0,110,5,,10.0,29.949802,,,TRUE,TRUE,,,,,,,CLR,,,,,,,,VFR,,,,,,,,,,,,SPECI,9.0
KGDA 302135Z AUTO 06003KT 10SM CLR 30/14 A2993 RMK AO2 T03000141 PWINO,KGDA,2023-05-30T21:35:00Z,37.33,-88.1,30.0,14.1,60,3,,10.0,29.929134,,,TRUE,TRUE,,,,,TRUE,,CLR,,,,,,,,VFR,,,,,,,,,,,,METAR,199.0
KGCM 302135Z AUTO 15009KT 10SM CLR 29/20 A2990 RMK AO2,KGCM,2023-05-30T21:35:00Z,36.3,-95.48,29.0,20.0,150,9,,10.0,29.899607,,,TRUE,TRUE,,,,,,,CLR,,,,,,,,VFR,,,,,,,,,,,,METAR,215.0
KGCD 302135Z AUTO 28009KT 10SM CLR 25/04 A2985 RMK AO2 T02540041,KGCD,2023-05-30T21:35:00Z,44.4,-118.97,25.4,4.1,280,9,,10.0,29.84941,,,TRUE,TRUE,,,,,,,CLR,,,,,,,,VFR,,,,,,,,,,,,METAR,1122.0
KGBG 302135Z AUTO 14005KT 10SM CLR 33/11 A2992 RMK AO2 T03270113 TSNO,KGBG,2023-05-30T21:35:00Z,40.93,-90.43,32.7,11.3,140,5,,10.0,29.920275,,,TRUE,TRUE,,,TRUE,,,,CLR,,,,,,,,VFR,,,,,,,,,,,,METAR,230.0
KGAF 302135Z AUTO 23011G17KT 9SM FEW080 SCT110 28/11 A2969 RMK AO2,KGAF,2023-05-30T21:35:00Z,48.4,-97.37,28.0,11.0,230,11,17,9.0,29.68996,,,TRUE,TRUE,,,,,,,FEW,8000,SCT,11000,,,,,VFR,,,,,,,,,,,,SPECI,250.0
KFZG 302135Z AUTO 14003KT 10SM SCT060 30/14 A2990 RMK AO2 T02950141,KFZG,2023-05-30T21:35:00Z,31.68,-83.27,29.5,14.1,140,3,,10.0,29.899607,,,TRUE,TRUE,,,,,,,SCT,6000,,,,,,,VFR,,,,,,,,,,,,METAR,105.0
KFYJ 302135Z AUTO 00000KT 3SM SCT010 BKN019 OVC038 18/17 A3010 RMK AO1 P0003 T01810172,KFYJ,2023-05-30T21:35:00Z,37.52,-76.77,18.1,17.2,0,0,,3.0,30.100393,,,TRUE,TRUE,,,,,,,SCT,1000,BKN,1900,OVC,3800,,,MVFR,,,,,,0.03,,,,,,SPECI,3.0
KFXY 302135Z AUTO 17015KT 10SM CLR 29/14 A2985 RMK AO2,KFXY,2023-05-30T21:35:00Z,43.23,-93.62,29.0,14.0,170,15,,10.0,29.84941,,,TRUE,TRUE,,,,,,,CLR,,,,,,,,VFR,,,,,,,,,,,,METAR,366.0
KFWC 302135Z AUTO 07004KT 10SM CLR 31/10 A2990 RMK AO1 T03090096,KFWC,2023-05-30T21:35:00Z,38.38,-88.42,30.9,9.6,70,4,,10.0,29.899607,,,TRUE,TRUE,,,,,,,CLR,,,,,,,,VFR,,,,,,,,,,,,METAR,131.0
KFVX 302135Z AUTO 04003KT 10SM BKN017 OVC021 19/18 A3010 RMK AO2 T01900176,KFVX,2023-05-30T21:35:00Z,37.35,-78.43,19.0,17.6,40,3,,10.0,30.100393,,,TRUE,TRUE,,,,,,,BKN,1700,OVC,2100,,,,,MVFR,,,,,,,,,,,,SPECI,129.0
KFSW 302135Z AUTO 20004KT 10SM 31/11 A2990 RMK AO2,KFSW,2023-05-30T21:35:00Z,40.67,-91.32,31.0,11.0,200,4,,10.0,29.899607,,,TRUE,TRUE,,,,,,,,,,,,,,,,,,,,,,,,,,,METAR,219.0
KFRR 302135Z AUTO 10005KT 10SM CLR 25/12 A3011 RMK AO1,KFRR,2023-05-30T21:35:00Z,38.92,-78.25,25.0,12.0,100,5,,10.0,30.109253,,,TRUE,TRUE,,,,,,,CLR,,,,,,,,VFR,,,,,,,,,,,,METAR,213.0
KFRH 302135Z AUTO 00000KT 10SM SCT050 SCT085 26/14 A2995 RMK AO1,KFRH,2023-05-30T21:35:00Z,38.5,-86.63,26.0,14.0,0,0,,10.0,29.949802,,,TRUE,TRUE,,,,,,,SCT,5000,SCT,8500,,,,,VFR,,,,,,,,,,,,SPECI,241.0
KFPY 302135Z AUTO 22009KT 10SM CLR 30/16 A2989 RMK AO2 T03040162,KFPY,2023-05-30T21:35:00Z,30.07,-83.57,30.4,16.2,220,9,,10.0,29.890747,,,TRUE,TRUE,,,,,,,CLR,,,,,,,,VFR,,,,,,,,,,,,METAR,12.0
KFMM 302135Z AUTO 10SM CLR 26/15 A2991 RMK AO2,KFMM,2023-05-30T21:35:00Z,40.33,-103.8,26.0,15.0,,,,10.0,29.911417,,,TRUE,TRUE,,,,,,,CLR,,,,,,,,VFR,,,,,,,,,,,,METAR,1376.0
KFKR 302135Z AUTO 10012KT 10SM SCT070 SCT090 SCT120 30/14 A2993 RMK AO2,KFKR,2023-05-30T21:35:00Z,40.27,-86.57,30.0,14.0,100,12,,10.0,29.929134,,,TRUE,TRUE,,,,,,,SCT,7000,SCT,9000,SCT,12000,,,VFR,,,,,,,,,,,,METAR,260.0
KFKN 302135Z AUTO 03006KT 5SM BR OVC009 18/17 A3007 RMK AO2 T01760167,KFKN,2023-05-30T21:35:00Z,36.7,-76.9,17.6,16.7,30,6,,5.0,30.070866,,,TRUE,TRUE,,,,,,BR,OVC,900,,,,,,,IFR,,,,,,,,,,,,SPECI,9.0
KFHB 302135Z AUTO 09007KT 10SM OVC080 24/ A2989 RMK AO2,KFHB,2023-05-30T21:35:00Z,30.62,-81.47,24.0,,90,7,,10.0,29.890747,,,TRUE,TRUE,,,,,,,OVC,8000,,,,,,,VFR,,,,,,,,,,,,METAR,4.0
KFFL 302135Z AUTO 17006G15KT 10SM CLR 31/05 A2989 RMK A01,KFFL,2023-05-30T21:35:00Z,41.05,-91.97,31.0,5.0,170,6,15,10.0,29.890747,,,TRUE,TRUE,,,,,,,CLR,,,,,,,,VFR,,,,,,,,,,,,METAR,240.0
KFET 302135Z AUTO 23008KT 10SM CLR 32/13 A2981 RMK AO2 LTG DSNT NE THRU S T03220126,KFET,2023-05-30T21:35:00Z,41.45,-96.52,32.2,12.6,230,8,,10.0,29.811024,,,TRUE,TRUE,,,,,,,CLR,,,,,,,,VFR,,,,,,,,,,,,METAR,366.0
KFDW 302135Z AUTO 03004KT 10SM SCT060 BKN070 OVC100 23/16 A2997 RMK AO1,KFDW,2023-05-30T21:35:00Z,34.32,-81.12,23.0,16.0,30,4,,10.0,29.970472,,,TRUE,TRUE,,,,,,,SCT,6000,BKN,7000,OVC,10000,,,VFR,,,,,,,,,,,,METAR,174.0
KFBR 302135Z AUTO 26013G18KT 10SM BKN110 24/M05 A3004 RMK AO2 LTG DSNT NW T02381054,KFBR,2023-05-30T21:35:00Z,41.4,-110.4,23.8,-5.4,260,13,18,10.0,30.041338,,,TRUE,TRUE,,,,,,,BKN,11000,,,,,,,VFR,,,,,,,,,,,,METAR,2140.0
KEZF 302135Z AUTO 04009KT 10SM CLR 23/12 A3010 RMK AO2 T02300124,KEZF,2023-05-30T21:35:00Z,38.27,-77.45,23.0,12.4,40,9,,10.0,30.100393,,,TRUE,TRUE,,,,,,,CLR,,,,,,,,VFR,,,,,,,,,,,,SPECI,26.0
KETN 302135Z AUTO 19007KT 10SM CLR 29/17 A2990 RMK AO2 T02920170,KETN,2023-05-30T21:35:00Z,32.42,-98.82,29.2,17.0,190,7,,10.0,29.899607,,,TRUE,TRUE,,,,,,,CLR,,,,,,,,VFR,,,,,,,,,,,,METAR,445.0
KETH 302135Z AUTO 25010KT 220V280 10SM CLR 32/12 A2974 RMK AO2 LTG DSNT NE,KETH,2023-05-30T21:35:00Z,45.78,-96.55,32.0,12.0,250,10,,10.0,29.740158,,,TRUE,TRUE,,,,,,,CLR,,,,,,,,VFR,,,,,,,,,,,,SPECI,309.0
KETB 302135Z AUTO 11008KT 10SM CLR 26/07 A2997 RMK AO2,KETB,2023-05-30T21:35:00Z,43.42,-88.13,26.0,7.0,110,8,,10.0,29.970472,,,TRUE,TRUE,,,,,,,CLR,,,,,,,,VFR,,,,,,,,,,,,SPECI,269.0
KEQA 302135Z AUTO 18011G15KT 10SM SCT065 SCT075 SCT085 31/16 A2988 RMK AO2,KEQA,2023-05-30T21:35:00Z,37.78,-96.82,31.0,16.0,180,11,15,10.0,29.878937,,,TRUE,TRUE,,,,,,,SCT,6500,SCT,7500,SCT,8500,,,VFR,,,,,,,,,,,,SPECI,422.0
KEOK 302135Z AUTO 16004KT 10SM CLR 30/11 A2990 RMK A01,KEOK,2023-05-30T21:35:00Z,40.47,-91.42,30.0,11.0,160,4,,10.0,29.899607,,,TRUE,TRUE,,,,,,,CLR,,,,,,,,VFR,,,,,,,,,,,,METAR,206.0
KEOE 302135Z AUTO 07008KT 10SM CLR 26/15 A2999 RMK AO2,KEOE,2023-05-30T21:35:00Z,34.32,-81.63,26.0,15.0,70,8,,10.0,29.991142,,,TRUE,TRUE,,,,,,,CLR,,,,,,,,VFR,,,,,,,,,,,,SPECI,166.0
KEMV 302135Z AUTO 36006KT 10SM OVC011 18/16 A3009 RMK AO2 T01800164,KEMV,2023-05-30T21:35:00Z,36.68,-77.48,18.0,16.4,360,6,,10.0,30.088583,,,TRUE,TRUE,,,,,,,OVC,1100,,,,,,,MVFR,,,,,,,,,,,,SPECI,35.0
KELK 302135Z AUTO 18010G16KT 10SM CLR 30/17 A2990 RMK AO2 SLP411 T02970170 $,KELK,2023-05-30T21:35:00Z,35.43,-99.4,29.7,17.0,180,10,16,10.0,29.899607,1041.1,,TRUE,TRUE,TRUE,,,,,,CLR,,,,,,,,VFR,,,,,,,,,,,,SPECI,603.0
KEKX 302135Z AUTO 17005KT 10SM CLR 27/16 A2995 RMK AO2 T02660156,KEKX,2023-05-30T21:35:00Z,37.68,-85.92,26.6,15.6,170,5,,10.0,29.949802,,,TRUE,TRUE,,,,,,,CLR,,,,,,,,VFR,,,,,,,,,,,,SPECI,234.0
KEKM 302135Z 11008KT 10SM FEW080 32/12 A2996 RMK AO2 T03190122 $,KEKM,2023-05-30T21:35:00Z,41.72,-86.0,31.9,12.2,110,8,,10.0,29.958662,,,,TRUE,TRUE,,,,,,FEW,8000,,,,,,,VFR,,,,,,,,,,,,SPECI,236.0
KEGT 302135Z AUTO 17010KT 10SM SCT065 31/17 A2988 RMK AO2 T03090172,KEGT,2023-05-30T21:35:00Z,37.32,-97.38,30.9,17.2,170,10,,10.0,29.878937,,,TRUE,TRUE,,,,,,,SCT,6500,,,,,,,VFR,,,,,,,,,,,,METAR,387.0
KEFT 302135Z AUTO 16011G14KT 10SM CLR 31/06 A2993 RMK AO2 T03050061,KEFT,2023-05-30T21:35:00Z,42.62,-89.6,30.5,6.1,160,11,14,10.0,29.929134,,,TRUE,TRUE,,,,,,,CLR,,,,,,,,VFR,,,,,,,,,,,,SPECI,332.0
KEDC 302135Z AUTO 10003KT 8SM OVC050 29/18 A2987 RMK AO2,KEDC,2023-05-30T21:35:00Z,30.4,-97.57,29.0,18.0,100,3,,8.0,29.870079,,,TRUE,TRUE,,,,,,,OVC,5000,,,,,,,VFR,,,,,,,,,,,,SPECI,184.0
KECU 302135Z AUTO 15012KT 10SM CLR 30/18 A2996 RMK AO2,KECU,2023-05-30T21:35:00Z,29.95,-100.17,30.0,18.0,150,12,,10.0,29.958662,,,TRUE,TRUE,,,,,,,CLR,,,,,,,,VFR,,,,,,,,,,,,METAR,725.0
KEBS 302135Z AUTO 28018G24KT 9SM BKN065 BKN095 OVC120 23/16 A2986 RMK AO2,KEBS,2023-05-30T21:35:00Z,42.43,-93.87,23.0,16.0,280,18,24,9.0,29.861221,,,TRUE,TRUE,,,,,,,BKN,6500,BKN,9500,OVC,12000,,,VFR,,,,,,,,,,,,SPECI,340.0
KE41 302135Z AUTO 14013G16KT 10SM CLR 33/12 A2990 RMK AO2 T03280125,KE41,2023-05-30T21:35:00Z,31.2,-101.47,32.8,12.5,140,13,16,10.0,29.899607,,,TRUE,TRUE,,,,,,,CLR,,,,,,,,VFR,,,,,,,,,,,,METAR,825.0
KE38 302135Z AUTO 00000KT 10SM CLR 32/00 A3001 RMK AO2 T03171005,KE38,2023-05-30T21:35:00Z,30.38,-103.68,31.7,-0.5,0,0,,10.0,30.008858,,,TRUE,TRUE,,,,,,,CLR,,,,,,,,VFR,,,,,,,,,,,,METAR,1372.0
KE16 302135Z AUTO 21009G15KT 10SM CLR 20/09 A2996 RMK AO2 PWINO PNO,KE16,2023-05-30T21:35:00Z,37.08,-121.6,20.0,9.0,210,9,15,10.0,29.958662,,,TRUE,TRUE,,,,,TRUE,,CLR,,,,,,,,VFR,,,,,,,,,,,,METAR,84.0
KE11 302135Z AUTO 12014G19KT 10SM CLR 34/10 A2989 RMK AO2 T03350099,KE11,2023-05-30T21:35:00Z,32.33,-102.53,33.5,9.9,120,14,19,10.0,29.890747,,,TRUE,TRUE,,,,,,,CLR,,,,,,,,VFR,,,,,,,,,,,,SPECI,966.0
KDZJ 302135Z AUTO 12009KT 10SM SCT055 SCT085 SCT090 25/15 A3000 RMK AO2 T02480146,KDZJ,2023-05-30T21:35:00Z,34.85,-84.0,24.8,14.6,120,9,,10.0,30.0,,,TRUE,TRUE,,,,,,,SCT,5500,SCT,8500,SCT,9000,,,VFR,,,,,,,,,,,,METAR,578.0
KDYA 302135Z AUTO 03003KT 10SM SCT050 SCT070 27/16 A2991 RMK AO2 T02710164,KDYA,2023-05-30T21:35:00Z,32.47,-87.95,27.1,16.4,30,3,,10.0,29.911417,,,TRUE,TRUE,,,,,,,SCT,5000,SCT,7000,,,,,VFR,,,,,,,,,,,,SPECI,33.0
KDVO 302135Z AUTO 23012G18KT 10SM FEW029 18/10 A2995 RMK AO2,KDVO,2023-05-30T21:35:00Z,38.15,-122.55,18.0,10.0,230,12,18,10.0,29.949802,,,TRUE,TRUE,,,,,,,FEW,2900,,,,,,,VFR,,,,,,,,,,,,METAR,1.0
KDUC 302135Z AUTO 15009KT 10SM SCT050 30/17 A2991 RMK AO2 T02960173,KDUC,2023-05-30T21:35:00Z,34.47,-97.97,29.6,17.3,150,9,,10.0,29.911417,,,TRUE,TRUE,,,,,,,SCT,5000,,,,,,,VFR,,,,,,,,,,,,METAR,339.0
KDRI 302135Z AUTO 26004KT 8SM -RA VCTS FEW090 24/22 A2991 RMK AO2 P0000 T02400217 $,KDRI,2023-05-30T21:35:00Z,30.83,-93.33,24.0,21.7,260,4,,8.0,29.911417,,,TRUE,TRUE,TRUE,,,,,-RA VCTS,FEW,9000,,,,,,,VFR,,,,,,0.005,,,,,,SPECI,59.0
KDQH 302135Z AUTO 00000KT 10SM CLR 30/12 A2990 RMK AO2 T02960124,KDQH,2023-05-30T21:35:00Z,31.48,-82.87,29.6,12.4,0,0,,10.0,29.899607,,,TRUE,TRUE,,,,,,,CLR,,,,,,,,VFR,,,,,,,,,,,,METAR,76.0
KDNS 302135Z AUTO 23012KT 10SM CLR 30/13 A2983 RMK AO2,KDNS,2023-05-30T21:35:00Z,41.98,-95.37,30.0,13.0,230,12,,10.0,29.828741,,,TRUE,TRUE,,,,,,,CLR,,,,,,,,VFR,,,,,,,,,,,,METAR,382.0
KDNN 302135Z AUTO 00000KT 10SM FEW060 BKN090 27/16 A2994 RMK AO2 T02680159,KDNN,2023-05-30T21:35:00Z,34.72,-84.87,26.8,15.9,0,0,,10.0,29.940945,,,TRUE,TRUE,,,,,,,FEW,6000,BKN,9000,,,,,VFR,,,,,,,,,,,,SPECI,216.0
KDNA 302135Z AUTO 22008G17KT 130V260 10SM CLR 33/M04 A2993 RMK AO2,KDNA,2023-05-30T21:35:00Z,31.88,-106.7,33.0,-4.0,220,8,17,10.0,29.929134,,,TRUE,TRUE,,,,,,,CLR,,,,,,,,VFR,,,,,,,,,,,,SPECI,1254.0
KDLO 302135Z AUTO 35004KT 10SM OVC050 22/08 A2990 RMK AO2 T02170082,KDLO,2023-05-30T21:35:00Z,35.75,-119.23,21.7,8.2,350,4,,10.0,29.899607,,,TRUE,TRUE,,,,,,,OVC,5000,,,,,,,VFR,,,,,,,,,,,,METAR,97.0
KDLL 302135Z AUTO 00000KT 10SM CLR 31/07 A2993 RMK AO2 T03130066,KDLL,2023-05-30T21:35:00Z,43.52,-89.77,31.3,6.6,0,0,,10.0,29.929134,,,TRUE,TRUE,,,,,,,CLR,,,,,,,,VFR,,,,,,,,,,,,SPECI,297.0
KDKR 302135Z AUTO 00000KT 10SM FEW050 BKN060 BKN070 30/19 A2987 RMK AO2 LTG DSNT W-NE,KDKR,2023-05-30T21:35:00Z,31.3,-95.4,30.0,19.0,0,0,,10.0,29.870079,,,TRUE,TRUE,,,,,,,FEW,5000,BKN,6000,BKN,7000,,,VFR,,,,,,,,,,,,METAR,105.0
KDKB 302135Z AUTO 12006KT 10SM OVC095 29/13 A2995 RMK AO2 T02940134,KDKB,2023-05-30T21:35:00Z,41.93,-88.7,29.4,13.4,120,6,,10.0,29.949802,,,TRUE,TRUE,,,,,,,OVC,9500,,,,,,,VFR,,,,,,,,,,,,METAR,277.0
KDCY 302135Z AUTO 09004KT 10SM -RA SCT050 SCT065 BKN090 28/19 A2993 RMK AO2 T02780188,KDCY,2023-05-30T21:35:00Z,38.7,-87.13,27.8,18.8,90,4,,10.0,29.929134,,,TRUE,TRUE,,,,,,-RA,SCT,5000,SCT,6500,BKN,9000,,,VFR,,,,,,,,,,,,METAR,143.0
KDBN 302135Z AUTO 10008KT 10SM OVC110 30/15 A2993 RMK AO2,KDBN,2023-05-30T21:35:00Z,32.57,-82.98,30.0,15.0,100,8,,10.0,29.929134,,,TRUE,TRUE,,,,,,,OVC,11000,,,,,,,VFR,,,,,,,,,,,,SPECI,90.0
KD73 302135Z AUTO 07008KT 020V080 10SM SCT095 26/15 A2996 RMK AO2 T02620153,KD73,2023-05-30T21:35:00Z,33.78,-83.7,26.2,15.3,70,8,,10.0,29.958662,,,TRUE,TRUE,,,,,,,SCT,9500,,,,,,,VFR,,,,,,,,,,,,METAR,254.0
KD60 302135Z AUTO 27010KT 7SM VCTS RA FEW039 SCT045 SCT055 22/16 A2980 RMK AO2,KD60,2023-05-30T21:35:00Z,48.38,-102.9,22.0,16.0,270,10,,7.0,29.799213,,,TRUE,TRUE,,,,,,VCTS RA,FEW,3900,SCT,4500,SCT,5500,,,VFR,,,,,,,,,,,,SPECI,682.0
KD57 302135Z AUTO 33008KT 10SM CLR 27/12 A2979 RMK AO2,KD57,2023-05-30T21:35:00Z,46.82,-101.87,27.0,12.0,330,8,,10.0,29.790354,,,TRUE,TRUE,,,,,,,CLR,,,,,,,,VFR,,,,,,,,,,,,SPECI,636.0
KD55 302135Z AUTO 07013KT 10SM FEW070 FEW100 26/15 A2974 RMK AO2 LTG DSNT E AND SE,KD55,2023-05-30T21:35:00Z,48.75,-98.4,26.0,15.0,70,13,,10.0,29.740158,,,TRUE,TRUE,,,,,,,FEW,7000,FEW,10000,,,,,VFR,,,,,,,,,,,,SPECI,488.0
KD50 302135Z AUTO 00000KT 10SM CLR 25/10 A2977 RMK AO2,KD50,2023-05-30T21:35:00Z,48.93,-103.3,25.0,10.0,0,0,,10.0,29.769686,,,TRUE,TRUE,,,,,,,CLR,,,,,,,,VFR,,,,,,,,,,,,SPECI,591.0
KCYD 302135Z AUTO 10011KT 10SM CLR 26/17 A2992 RMK A02 T02610174,KCYD,2023-05-30T21:35:00Z,28.17,-89.22,26.1,17.4,100,11,,10.0,29.920275,,,TRUE,TRUE,,,,,,,CLR,,,,,,,,VFR,,,,,,,,,,,,METAR,30.0
KCWV 302135Z AUTO 00000KT 7SM OVC110 25/20 A2993 RMK AO2 T02500198,KCWV,2023-05-30T21:35:00Z,32.2,-81.87,25.0,19.8,0,0,,7.0,29.929134,,,TRUE,TRUE,,,,,,,OVC,11000,,,,,,,VFR,,,,,,,,,,,,METAR,32.0
KCVC 302135Z AUTO 09005KT 10SM OVC090 25/16 A2995 RMK AO2,KCVC,2023-05-30T21:35:00Z,33.63,-83.85,25.0,16.0,90,5,,10.0,29.949802,,,TRUE,TRUE,,,,,,,OVC,9000,,,,,,,VFR,,,,,,,,,,,,METAR,240.0
KCTJ 302135Z AUTO 04004KT 10SM SCT055 BKN090 26/13 A2998 RMK AO2 T02580134,KCTJ,2023-05-30T21:35:00Z,33.63,-85.15,25.8,13.4,40,4,,10.0,29.97933,,,TRUE,TRUE,,,,,,,SCT,5500,BKN,9000,,,,,VFR,,,,,,,,,,,,METAR,351.0
KCQW 302135Z AUTO 08008KT 10SM SCT080 24/19 A2998 RMK AO2,KCQW,2023-05-30T21:35:00Z,34.72,-79.95,24.0,19.0,80,8,,10.0,29.97933,,,TRUE,TRUE,,,,,,,SCT,8000,,,,,,,VFR,,,,,,,,,,,,SPECI,67.0
KCQB 302135Z AUTO 18006KT 10SM SCT050 SCT090 BKN110 31/19 A2991 RMK AO2 T03060186,KCQB,2023-05-30T21:35:00Z,35.72,-96.82,30.6,18.6,180,6,,10.0,29.911417,,,TRUE,TRUE,,,,,,,SCT,5000,SCT,9000,BKN,11000,,,VFR,,,,,,,,,,,,METAR,298.0
KCPW 302135Z AUTO 23018G28KT 10SM CLR 08/M07 A3043 RMK AO2 LTG DSNT W,KCPW,2023-05-30T21:35:00Z,37.45,-106.8,8.0,-7.0,230,18,28,10.0,30.431103,,,TRUE,TRUE,,,,,,,CLR,,,,,,,,VFR,,,,,,,,,,,,SPECI,3570.0
KCPT 302135Z AUTO 17007KT 10SM CLR 31/16 A2990 RMK A01 LTG DSNT E AND SE,KCPT,2023-05-30T21:35:00Z,32.35,-97.43,31.0,16.0,170,7,,10.0,29.899607,,,TRUE,TRUE,,,,,,,CLR,,,,,,,,VFR,,,,,,,,,,,,SPECI,260.0
KCPK 302135Z AUTO 04007KT 7SM OVC007 17/16 A3005 RMK AO2 T01720160,KCPK,2023-05-30T21:35:00Z,36.67,-76.32,17.2,16.0,40,7,,7.0,30.050198,,,TRUE,TRUE,,,,,,,OVC,700,,,,,,,IFR,,,,,,,,,,,,SPECI,4.0
KCPF 302135Z AUTO 00000KT 10SM BKN060 BKN080 26/15 A2999 RMK AO2,KCPF,2023-05-30T21:35:00Z,37.38,-83.27,26.0,15.0,0,0,,10.0,29.991142,,,TRUE,TRUE,,,,,,,BKN,6000,BKN,8000,,,,,VFR,,,,,,,,,,,,SPECI,382.0
KCOM 302135Z AUTO 16004KT 10SM CLR 29/16 A2991 RMK AO2 T02930155,KCOM,2023-05-30T21:35:00Z,31.83,-99.4,29.3,15.5,160,4,,10.0,29.911417,,,TRUE,TRUE,,,,,,,CLR,,,,,,,,VFR,,,,,,,,,,,,METAR,516.0
KCMR 302135Z AUTO 20012G24KT 10SM CLR 22/M12 A3008 RMK AO2,KCMR,2023-05-30T21:35:00Z,35.3,-112.2,22.0,-12.0,200,12,24,10.0,30.079725,,,TRUE,TRUE,,,,,,,CLR,,,,,,,,VFR,,,,,,,,,,,,SPECI,2039.0
KCLW 302135Z AUTO 30007KT 10SM CLR 28/18 A2987 RMK AO2,KCLW,2023-05-30T21:35:00Z,27.98,-82.75,28.0,18.0,300,7,,10.0,29.870079,,,TRUE,TRUE,,,,,,,CLR,,,,,,,,VFR,,,,,,,,,,,,SPECI,21.0
KCLS 302135Z AUTO 22008G16KT 210V290 10SM FEW060 18/04 A3002 RMK AO2,KCLS,2023-05-30T21:35:00Z,46.68,-122.98,18.0,4.0,220,8,16,10.0,30.02067,,,TRUE,TRUE,,,,,,,FEW,6000,,,,,,,VFR,,,,,,,,,,,,SPECI,52.0
KCLI 302135Z AUTO 19009G19KT 150V220 10SM CLR 30/07 A2994 RMK AO2 T03010072,KCLI,2023-05-30T21:35:00Z,44.62,-88.73,30.1,7.2,190,9,19,10.0,29.940945,,,TRUE,TRUE,,,,,,,CLR,,,,,,,,VFR,,,,,,,,,,,,SPECI,248.0
KCKP 302135Z AUTO 21009G16KT 10SM CLR 31/13 A2980 RMK AO2 LTG DSNT E AND SE T03120127,KCKP,2023-05-30T21:35:00Z,42.73,-95.55,31.2,12.7,210,9,16,10.0,29.799213,,,TRUE,TRUE,,,,,,,CLR,,,,,,,,VFR,,,,,,,,,,,,METAR,369.0
KCKM 302135Z AUTO 35004KT 10SM 31/13 A2991 RMK A01,KCKM,2023-05-30T21:35:00Z,34.3,-90.52,31.0,13.0,350,4,,10.0,29.911417,,,TRUE,TRUE,,,,,,,,,,,,,,,,,,,,,,,,,,,SPECI,52.0
KCKI 302135Z AUTO 10003KT 10SM OVC100 26/15 A2994 RMK AO2,KCKI,2023-05-30T21:35:00Z,33.72,-79.85,26.0,15.0,100,3,,10.0,29.940945,,,TRUE,TRUE,,,,,,,OVC,10000,,,,,,,VFR,,,,,,,,,,,,SPECI,19.0
KCKF 302135Z AUTO 00000KT 10SM OVC002 29/13 A2991 RMK AO2 T02880128,KCKF,2023-05-30T21:35:00Z,31.98,-83.77,28.8,12.8,0,0,,10.0,29.911417,,,TRUE,TRUE,,,,,,,OVC,200,,,,,,,LIFR,,,,,,,,,,,,METAR,92.0
KCIN 302135Z AUTO 09011KT 10SM BKN055 BKN065 BKN080 23/20 A2984 RMK AO2,KCIN,2023-05-30T21:35:00Z,42.03,-94.78,23.0,20.0,90,11,,10.0,29.840551,,,TRUE,TRUE,,,,,,,BKN,5500,BKN,6500,BKN,8000,,,VFR,,,,,,,,,,,,METAR,365.0
KCHK 302135Z AUTO 18008KT 150V210 10SM SCT050 29/18 A2987 RMK AO2,KCHK,2023-05-30T21:35:00Z,35.1,-97.97,29.0,18.0,180,8,,10.0,29.870079,,,TRUE,TRUE,,,,,,,SCT,5000,,,,,,,VFR,,,,,,,,,,,,METAR,346.0
KCGC 302135Z AUTO 30005KT 10SM CLR 29/13 A2988 RMK AO2,KCGC,2023-05-30T21:35:00Z,28.87,-82.57,29.0,13.0,300,5,,10.0,29.878937,,,TRUE,TRUE,,,,,,,CLR,,,,,,,,VFR,,,,,,,,,,,,SPECI,3.0
KCFJ 302135Z AUTO 16006KT 10SM SCT120 28/09 A2994 RMK AO2 T02810091,KCFJ,2023-05-30T21:35:00Z,39.98,-86.92,28.1,9.1,160,6,,10.0,29.940945,,,TRUE,TRUE,,,,,,,SCT,12000,,,,,,,VFR,,,,,,,,,,,,SPECI,243.0
KCFD 302135Z AUTO 09004KT 10SM CLR 30/17 A2990 RMK AO2 T03000171,KCFD,2023-05-30T21:35:00Z,30.72,-96.33,30.0,17.1,90,4,,10.0,29.899607,,,TRUE,TRUE,,,,,,,CLR,,,,,,,,VFR,,,,,,,,,,,,METAR,106.0
KCDN 302135Z AUTO 02007KT 10SM FEW065 OVC080 24/17 A2998 RMK AO2,KCDN,2023-05-30T21:35:00Z,34.28,-80.57,24.0,17.0,20,7,,10.0,29.97933,,,TRUE,TRUE,,,,,,,FEW,6500,OVC,8000,,,,,VFR,,,,,,,,,,,,SPECI,90.0
KCDH 302135Z AUTO VRB05KT 5SM HZ FEW080 31/13 A2989 RMK AO2,KCDH,2023-05-30T21:35:00Z,33.62,-92.77,31.0,13.0,0,5,,5.0,29.890747,,,TRUE,TRUE,,,,,,HZ,FEW,8000,,,,,,,MVFR,,,,,,,,,,,,SPECI,38.0
KCCY 302135Z AUTO 15012G19KT 10SM SCT075 31/13 A2986 RMK AO2,KCCY,2023-05-30T21:35:00Z,43.07,-92.62,31.0,13.0,150,12,19,10.0,29.861221,,,TRUE,TRUE,,,,,,,SCT,7500,,,,,,,VFR,,,,,,,,,,,,METAR,340.0
KCCO 302135Z AUTO 11005KT 10SM SCT050 SCT070 SCT095 26/14 A2994 RMK AO2 T02590136,KCCO,2023-05-30T21:35:00Z,33.32,-84.77,25.9,13.6,110,5,,10.0,29.940945,,,TRUE,TRUE,,,,,,,SCT,5000,SCT,7000,SCT,9500,,,VFR,,,,,,,,,,,,METAR,290.0
KCCA 302135Z AUTO VRB03KT 10SM CLR 30/15 A2992 RMK AO2,KCCA,2023-05-30T21:35:00Z,35.6,-92.45,30.0,15.0,0,3,,10.0,29.920275,,,TRUE,TRUE,,,,,,,CLR,,,,,,,,VFR,,,,,,,,,,,,SPECI,152.0
KCBF 302135Z AUTO 18015G23KT 10SM CLR 29/15 A2982 RMK AO2,KCBF,2023-05-30T21:35:00Z,41.27,-95.77,29.0,15.0,180,15,23,10.0,29.819881,,,TRUE,TRUE,,,,,,,CLR,,,,,,,,VFR,,,,,,,,,,,,METAR,379.0
KCAV 302135Z AUTO 23017KT 10SM CLR 28/15 A2987 RMK A01,KCAV,2023-05-30T21:35:00Z,42.75,-93.77,28.0,15.0,230,17,,10.0,29.870079,,,TRUE,TRUE,,,,,,,CLR,,,,,,,,VFR,,,,,,,,,,,,METAR,352.0
KC65 302135Z AUTO 09010G17KT 10SM BKN075 31/12 A2995 RMK A01,KC65,2023-05-30T21:35:00Z,41.37,-86.3,31.0,12.0,90,10,17,10.0,29.949802,,,TRUE,TRUE,,,,,,,BKN,7500,,,,,,,VFR,,,,,,,,,,,,METAR,241.0
KC62 302135Z AUTO 12007KT 10SM SCT070 SCT095 30/13 A2998 RMK AO2 T03010130,KC62,2023-05-30T21:35:00Z,41.47,-85.25,30.1,13.0,120,7,,10.0,29.97933,,,TRUE,TRUE,,,,,,,SCT,7000,SCT,9500,,,,,VFR,,,,,,,,,,,,SPECI,304.0
KC35 302135Z AUTO 16006G10KT 10SM CLR 31/08 A2992 RMK AO2 T03120075 PWINO,KC35,2023-05-30T21:35:00Z,43.53,-89.98,31.2,7.5,160,6,10,10.0,29.920275,,,TRUE,TRUE,,,,,TRUE,,CLR,,,,,,,,VFR,,,,,,,,,,,,SPECI,272.0
KC29 302135Z AUTO 20007KT 10SM CLR 31/04 A2994 RMK AO1 T03140039,KC29,2023-05-30T21:35:00Z,43.12,-89.53,31.4,3.9,200,7,,10.0,29.940945,,,TRUE,TRUE,,,,,,,CLR,,,,,,,,VFR,,,,,,,,,,,,SPECI,282.0
KC07 302135Z AUTO 17003KT 10SM SCT100 SCT120 12/M07 A3028 RMK AO2 LTG DSNT W,KC07,2023-05-30T21:35:00Z,40.35,-106.7,12.0,-7.0,170,3,,10.0,30.280512,,,TRUE,TRUE,,,,,,,SCT,10000,SCT,12000,,,,,VFR,,,,,,,,,,,,METAR,3224.0
KBWW 302135Z AUTO 24006KT 10SM FEW100 26/09 A2984 RMK AO2 LTG DSNT W,KBWW,2023-05-30T21:35:00Z,46.17,-103.3,26.0,9.0,240,6,,10.0,29.840551,,,TRUE,TRUE,,,,,,,FEW,10000,,,,,,,VFR,,,,,,,,,,,,SPECI,911.0
KBVU 302135Z AUTO 15021KT 10SM CLR 32/M05 A2978 RMK AO2,KBVU,2023-05-30T21:35:00Z,35.95,-114.87,32.0,-5.0,150,21,,10.0,29.778543,,,TRUE,TRUE,,,,,,,CLR,,,,,,,,VFR,,,,,,,,,,,,SPECI,654.0
KBVS 302135Z AUTO 21009KT 10SM BKN045 16/07 A3005 RMK A01,KBVS,2023-05-30T21:35:00Z,48.47,-122.42,16.0,7.0,210,9,,10.0,30.050198,,,TRUE,TRUE,,,,,,,BKN,4500,,,,,,,VFR,,,,,,,,,,,,METAR,31.0
KBVN 302135Z AUTO 25006KT 10SM CLR 29/14 A2984 RMK AO2 LTG DSNT SE T02870144,KBVN,2023-05-30T21:35:00Z,41.73,-98.05,28.7,14.4,250,6,,10.0,29.840551,,,TRUE,TRUE,,,,,,,CLR,,,,,,,,VFR,,,,,,,,,,,,METAR,547.0
KBRY 302135Z AUTO 14004KT 10SM FEW055 29/17 A2993 RMK AO2 T02860165,KBRY,2023-05-30T21:35:00Z,37.82,-85.5,28.6,16.5,140,4,,10.0,29.929134,,,TRUE,TRUE,,,,,,,FEW,5500,,,,,,,VFR,,,,,,,,,,,,SPECI,192.0
KBRG 302135Z AUTO 00000KT 10SM CLR 29/M04 A2998 RMK AO2 T02911038,KBRG,2023-05-30T21:35:00Z,34.65,-106.83,29.1,-3.8,0,0,,10.0,29.97933,,,TRUE,TRUE,,,,,,,CLR,,,,,,,,VFR,,,,,,,,,,,,SPECI,1585.0
KBQP 302135Z AUTO 00000KT SCT080 28/15 A2991 RMK AO2 T02810149 PWINO,KBQP,2023-05-30T21:35:00Z,32.75,-91.88,28.1,14.9,0,0,,,29.911417,,,TRUE,TRUE,,,,,TRUE,,SCT,8000,,,,,,,,,,,,,,,,,,,METAR,50.0
KBQK 302135Z AUTO 08011KT 10SM SCT090 BKN110 25/20 A2991 RMK AO2 T02520202,KBQK,2023-05-30T21:35:00Z,31.25,-81.47,25.2,20.2,80,11,,10.0,29.911417,,,TRUE,TRUE,,,,,,,SCT,9000,BKN,11000,,,,,VFR,,,,,,,,,,,,METAR,7.0
KBPG 302135Z AUTO 11012G17KT 10SM CLR 32/14 A2989 RMK AO2 T03180139,KBPG,2023-05-30T21:35:00Z,32.22,-101.52,31.8,13.9,110,12,17,10.0,29.890747,,,TRUE,TRUE,,,,,,,CLR,,,,,,,,VFR,,,,,,,,,,,,METAR,782.0
KBNW 302135Z AUTO 21010G16KT 10SM CLR 29/15 A2984 RMK AO2,KBNW,2023-05-30T21:35:00Z,42.03,-93.83,29.0,15.0,210,10,16,10.0,29.840551,,,TRUE,TRUE,,,,,,,CLR,,,,,,,,VFR,,,,,,,,,,,,METAR,350.0
KBNL 302135Z AUTO 06006KT 10SM FEW049 BKN085 BKN110 26/17 A2994 RMK AO2,KBNL,2023-05-30T21:35:00Z,33.25,-81.38,26.0,17.0,60,6,,10.0,29.940945,,,TRUE,TRUE,,,,,,,FEW,4900,BKN,8500,BKN,11000,,,VFR,,,,,,,,,,,,SPECI,76.0
KBMT 302135Z AUTO 14004KT 10SM SCT060 SCT065 BKN080 31/17 A2986 RMK AO2 LTG DSNT NE AND E T03090166,KBMT,2023-05-30T21:35:00Z,30.07,-94.22,30.9,16.6,140,4,,10.0,29.861221,,,TRUE,TRUE,,,,,,,SCT,6000,SCT,6500,BKN,8000,,,VFR,,,,,,,,,,,,METAR,8.0
KBKT 302135Z AUTO 02005KT 7SM OVC007 17/17 A3010 RMK AO1 T01740172,KBKT,2023-05-30T21:35:00Z,37.07,-77.95,17.4,17.2,20,5,,7.0,30.100393,,,TRUE,TRUE,,,,,,,OVC,700,,,,,,,IFR,,,,,,,,,,,,SPECI,134.0
KBKS 302135Z AUTO 14006KT 6SM HZ SCT048 27/24 A2985 RMK AO2 RAE2104 SLP068 P0008 T02690245 $,KBKS,2023-05-30T21:35:00Z,27.2,-98.12,26.9,24.5,140,6,,6.0,29.84941,1006.8,,TRUE,TRUE,TRUE,,,,,HZ,SCT,4800,,,,,,,VFR,,,,,,0.08,,,,,,SPECI,34.0
KBKN 302135Z AUTO 15008KT FEW055 FEW075 32/18 A2988 RMK AO2,KBKN,2023-05-30T21:35:00Z,36.75,-97.35,32.0,18.0,150,8,,,29.878937,,,TRUE,TRUE,,,,,,,FEW,5500,FEW,7500,,,,,,,,,,,,,,,,,SPECI,208.0
KBIE 302135Z AUTO 21006G09KT 10SM VCTS CLR 31/13 A2984 RMK AO2 LTG DSNT E THRU S T03070127,KBIE,2023-05-30T21:35:00Z,40.28,-96.75,30.7,12.7,210,6,9,10.0,29.840551,,,TRUE,TRUE,,,,,,VCTS,CLR,,,,,,,,VFR,,,,,,,,,,,,METAR,398.0
KBHC 302135Z AUTO 00000KT 10SM CLR 30/14 A2988 RMK AO2,KBHC,2023-05-30T21:35:00Z,31.72,-82.4,30.0,14.0,0,0,,10.0,29.878937,,,TRUE,TRUE,,,,,,,CLR,,,,,,,,VFR,,,,,,,,,,,,METAR,61.0
KBEC 302135Z AUTO 18009KT 10SM SCT060 29/15 A2987 RMK AO2 LTG DSNT NW THRU NE T02910154,KBEC,2023-05-30T21:35:00Z,37.7,-97.22,29.1,15.4,180,9,,10.0,29.870079,,,TRUE,TRUE,,,,,,,SCT,6000,,,,,,,VFR,,,,,,,,,,,,METAR,421.0
KBDU 302135Z AUTO 02003KT 10SM CLR 25/00 A2995 RMK AO2,KBDU,2023-05-30T21:35:00Z,40.03,-105.23,25.0,0.0,20,3,,10.0,29.949802,,,TRUE,TRUE,,,,,,,CLR,,,,,,,,VFR,,,,,,,,,,,,METAR,1614.0
KBDG 302135Z AUTO 14011G18KT 130V190 10SM 25/M07 A3009 RMK AO1 T02521071,KBDG,2023-05-30T21:35:00Z,37.58,-109.47,25.2,-7.1,140,11,18,10.0,30.088583,,,TRUE,TRUE,,,,,,,,,,,,,,,,,,,,,,,,,,,SPECI,1778.0
KBCK 302135Z AUTO 17006KT 10SM CLR 31/05 A2989 RMK AO2 T03140053,KBCK,2023-05-30T21:35:00Z,44.25,-90.85,31.4,5.3,170,6,,10.0,29.890747,,,TRUE,TRUE,,,,,,,CLR,,,,,,,,VFR,,,,,,,,,,,,SPECI,256.0
KBCB 302135Z AUTO 07009KT 10SM SCT049 SCT075 OVC090 18/18 A3015 RMK AO2 P0001 T01800180,KBCB,2023-05-30T21:35:00Z,37.22,-80.42,18.0,18.0,70,9,,10.0,30.15059,,,TRUE,TRUE,,,,,,,SCT,4900,SCT,7500,OVC,9000,,,VFR,,,,,,0.01,,,,,,METAR,642.0
KBBD 302135Z AUTO 13007G13KT 10SM FEW048 SCT060 30/16 A2991 RMK AO2,KBBD,2023-05-30T21:35:00Z,31.18,-99.32,30.0,16.0,130,7,13,10.0,29.911417,,,TRUE,TRUE,,,,,,,FEW,4800,SCT,6000,,,,,VFR,,,,,,,,,,,,METAR,554.0
KAZE 302135Z AUTO 20003KT 7SM SCT070 30/13 A2988 RMK AO2 T03010125,KAZE,2023-05-30T21:35:00Z,31.88,-82.65,30.1,12.5,200,3,,7.0,29.878937,,,TRUE,TRUE,,,,,,,SCT,7000,,,,,,,VFR,,,,,,,,,,,,METAR,78.0
KAYS 302135Z AUTO 00000KT 10SM SCT075 30/15 A2988 RMK AO2 T02990149,KAYS,2023-05-30T21:35:00Z,31.25,-82.4,29.9,14.9,0,0,,10.0,29.878937,,,TRUE,TRUE,,,,,,,SCT,7500,,,,,,,VFR,,,,,,,,,,,,SPECI,42.0
KAXA 302135Z AUTO 18026G36KT 10SM FEW110 27/14 A2984 RMK A01,KAXA,2023-05-30T21:35:00Z,43.07,-94.27,27.0,14.0,180,26,36,10.0,29.840551,,,TRUE,TRUE,,,,,,,FEW,11000,,,,,,,VFR,,,,,,,,,,,,METAR,371.0
KAWG 302135Z AUTO 19011KT 10SM CLR 31/06 A2988 RMK AO2,KAWG,2023-05-30T21:35:00Z,41.27,-91.67,31.0,6.0,190,11,,10.0,29.878937,,,TRUE,TRUE,,,,,,,CLR,,,,,,,,VFR,,,,,,,,,,,,METAR,229.0
KAVC 302135Z AUTO 02007KT 10SM BKN007 OVC012 18/18 A3014 RMK AO2 T01820180,KAVC,2023-05-30T21:35:00Z,36.68,-78.05,18.2,18.0,20,7,,10.0,30.138779,,,TRUE,TRUE,,,,,,,BKN,700,OVC,1200,,,,,IFR,,,,,,,,,,,,SPECI,119.0
KAUN 302135Z AUTO 18008G14KT 150V210 10SM CLR 21/10 A2992 RMK A01,KAUN,2023-05-30T21:35:00Z,38.95,-121.08,21.0,10.0,180,8,14,10.0,29.920275,,,TRUE,TRUE,,,,,,,CLR,,,,,,,,VFR,,,,,,,,,,,,METAR,453.0
KAUH 302135Z AUTO 27008KT 10SM CLR 30/15 A2986 RMK AO2 LTG DSNT SE T02990150,KAUH,2023-05-30T21:35:00Z,40.88,-98.0,29.9,15.0,270,8,,10.0,29.861221,,,TRUE,TRUE,,,,,,,CLR,,,,,,,,VFR,,,,,,,,,,,,METAR,549.0
KATS 302135Z AUTO 19014KT 10SM CLR 34/01 A2988 RMK AO2,KATS,2023-05-30T21:35:00Z,32.85,-104.47,34.0,1.0,190,14,,10.0,29.878937,,,TRUE,TRUE,,,,,,,CLR,,,,,,,,VFR,,,,,,,,,,,,SPECI,1073.0
KASW 302135Z AUTO 16006KT 10SM SCT075 SCT120 31/13 A2996 RMK AO2 T03090132,KASW,2023-05-30T21:35:00Z,41.27,-85.83,30.9,13.2,160,6,,10.0,29.958662,,,TRUE,TRUE,,,,,,,SCT,7500,SCT,12000,,,,,VFR,,,,,,,,,,,,METAR,253.0
KASL 302135Z AUTO 00000KT 10SM CLR 31/16 A2987 RMK AO2 T03080161 $,KASL,2023-05-30T21:35:00Z,32.52,-94.3,30.8,16.1,0,0,,10.0,29.870079,,,TRUE,TRUE,TRUE,,,,,,CLR,,,,,,,,VFR,,,,,,,,,,,,SPECI,104.0
KAQX 302135Z AUTO 08006KT 10SM BKN120 27/18 A2992 RMK AO2,KAQX,2023-05-30T21:35:00Z,32.98,-81.27,27.0,18.0,80,6,,10.0,29.920275,,,TRUE,TRUE,,,,,,,BKN,12000,,,,,,,VFR,,,,,,,,,,,,SPECI,48.0
KAQO 302135Z AUTO VRB04KT 10SM CLR 31/17 A2988 RMK AO2,KAQO,2023-05-30T21:35:00Z,30.78,-98.67,31.0,17.0,0,4,,10.0,29.878937,,,TRUE,TRUE,,,,,,,CLR,,,,,,,,VFR,,,,,,,,,,,,METAR,334.0
KAPY 302135Z AUTO 05005KT 7SM 34/16 A2983 RMK AO2 T03400162 TSNO,KAPY,2023-05-30T21:35:00Z,26.97,-99.25,34.0,16.2,50,5,,7.0,29.828741,,,TRUE,TRUE,,,TRUE,,,,,,,,,,,,,,,,,,,,,,,,SPECI,129.0
KANW 302135Z AUTO 00000KT 10SM CLR 29/12 A2986 RMK AO2 T02860124,KANW,2023-05-30T21:35:00Z,42.57,-100.0,28.6,12.4,0,0,,10.0,29.861221,,,TRUE,TRUE,,,,,,,CLR,,,,,,,,VFR,,,,,,,,,,,,METAR,788.0
KAJR 302135Z AUTO 07006KT 7SM BKN041 BKN060 26/15 A2999 RMK AO2 T02550147,KAJR,2023-05-30T21:35:00Z,34.5,-83.55,25.5,14.7,70,6,,7.0,29.991142,,,TRUE,TRUE,,,,,,,BKN,4100,BKN,6000,,,,,VFR,,,,,,,,,,,,METAR,441.0
KAIO 302135Z AUTO 22024G31KT 10SM CLR 27/19 A2984 RMK AO2,KAIO,2023-05-30T21:35:00Z,41.4,-95.03,27.0,19.0,220,24,31,10.0,29.840551,,,TRUE,TRUE,,,,,,,CLR,,,,,,,,VFR,,,,,,,,,,,,METAR,349.0
KAIK 302135Z AUTO 07006KT 10SM SCT050 27/16 A2995 RMK AO2 T02750157,KAIK,2023-05-30T21:35:00Z,33.65,-81.68,27.5,15.7,70,6,,10.0,29.949802,,,TRUE,TRUE,,,,,,,SCT,5000,,,,,,,VFR,,,,,,,,,,,,SPECI,155.0
KAIG 302135Z AUTO 20012G18KT 10SM CLR 28/08 A2996 RMK AO2 T02810079,KAIG,2023-05-30T21:35:00Z,45.15,-89.12,28.1,7.9,200,12,18,10.0,29.958662,,,TRUE,TRUE,,,,,,,CLR,,,,,,,,VFR,,,,,,,,,,,,SPECI,462.0
KAHQ 302135Z AUTO 22009G14KT 10SM 33/10 A2982 RMK AO2 T03270102,KAHQ,2023-05-30T21:35:00Z,41.23,-96.6,32.7,10.2,220,9,14,10.0,29.819881,,,TRUE,TRUE,,,,,,,,,,,,,,,,,,,,,,,,,,,METAR,372.0
KAGO 302135Z AUTO VRB05KT 10SM CLR 30/14 A2988 RMK A01,KAGO,2023-05-30T21:35:00Z,33.23,-93.22,30.0,14.0,0,5,,10.0,29.878937,,,TRUE,TRUE,,,,,,,CLR,,,,,,,,VFR,,,,,,,,,,,,SPECI,91.0
KAFO 302135Z AUTO 33005KT 10SM VCTS SCT070 SCT090 BKN110 15/04 A3000 RMK AO2 LTG DSNT SW AND W,KAFO,2023-05-30T21:35:00Z,42.72,-110.95,15.0,4.0,330,5,,10.0,30.0,,,TRUE,TRUE,,,,,,VCTS,SCT,7000,SCT,9000,BKN,11000,,,VFR,,,,,,,,,,,,SPECI,1881.0
KAFK 302135Z AUTO 15012KT 10SM TS CLR 24/16 A2987 RMK AO2 LTG DSNT NE THRU S T02400156,KAFK,2023-05-30T21:35:00Z,40.6,-95.85,24.0,15.6,150,12,,10.0,29.870079,,,TRUE,TRUE,,,,,,TS,CLR,,,,,,,,VFR,,,,,,,,,,,,METAR,353.0
KADU 302135Z AUTO 09012G19KT 10SM SCT002 OVC060 23/18 A2987 RMK AO2 P0011 PWINO,KADU,2023-05-30T21:35:00Z,41.7,-94.92,23.0,18.0,90,12,19,10.0,29.870079,,,TRUE,TRUE,,,,,TRUE,,SCT,200,OVC,6000,,,,,VFR,,,,,,0.11,,,,,,METAR,391.0
KADT 302135Z AUTO 00000KT 10SM CLR 31/12 A2990 RMK AO2 T03080118,KADT,2023-05-30T21:35:00Z,39.83,-101.05,30.8,11.8,0,0,,10.0,29.899607,,,TRUE,TRUE,,,,,,,CLR,,,,,,,,VFR,,,,,,,,,,,,METAR,899.0
KADH 302135Z AUTO 12006KT 10SM CLR 27/21 A2993 RMK AO2 LTG DSNT SW,KADH,2023-05-30T21:35:00Z,34.8,-96.67,27.0,21.0,120,6,,10.0,29.929134,,,TRUE,TRUE,,,,,,,CLR,,,,,,,,VFR,,,,,,,,,,,,METAR,301.0
KACJ 302135Z AUTO 00000KT 10SM SCT070 SCT080 28/14 A2991 RMK AO2 T02790141,KACJ,2023-05-30T21:35:00Z,32.12,-84.18,27.9,14.1,0,0,,10.0,29.911417,,,TRUE,TRUE,,,,,,,SCT,7000,SCT,8000,,,,,VFR,,,,,,,,,,,,SPECI,140.0
KAAA 302135Z AUTO 19003KT 10SM 32/09 A2991 RMK AO2 T03240093,KAAA,2023-05-30T21:35:00Z,40.17,-89.33,32.4,9.3,190,3,,10.0,29.911417,,,TRUE,TRUE,,,,,,,,,,,,,,,,,,,,,,,,,,,METAR,179.0
KA39 302135Z AUTO 19012G17KT 10SM SCT100 BKN120 37/M03 A2980 RMK AO2,KA39,2023-05-30T21:35:00Z,32.98,-111.92,37.0,-3.0,190,12,17,10.0,29.799213,,,TRUE,TRUE,,,,,,,SCT,10000,BKN,12000,,,,,VFR,,,,,,,,,,,,SPECI,391.0
K9V9 302135Z AUTO 00000KT 10SM CLR 31/10 A2980 RMK AO2 T03070104,K9V9,2023-05-30T21:35:00Z,43.77,-99.32,30.7,10.4,0,0,,10.0,29.799213,,,TRUE,TRUE,,,,,,,CLR,,,,,,,,VFR,,,,,,,,,,,,METAR,511.0
K9D7 302135Z AUTO VRB04G13KT 10SM FEW085 28/11 A2974 RMK AO2 TSNO,K9D7,2023-05-30T21:35:00Z,48.48,-99.23,28.0,11.0,0,4,13,10.0,29.740158,,,TRUE,TRUE,,,TRUE,,,,FEW,8500,,,,,,,VFR,,,,,,,,,,,,SPECI,451.0
K96D 302135Z AUTO 18005KT 10SM CLR 18/18 A2971 RMK AO2 LTG DSNT E AND SW,K96D,2023-05-30T21:35:00Z,48.93,-97.9,18.0,18.0,180,5,,10.0,29.71063,,,TRUE,TRUE,,,,,,,CLR,,,,,,,,VFR,,,,,,,,,,,,SPECI,290.0
K8W2 302135Z AUTO 06008G14KT 7SM CLR 25/11 A3010 RMK AO1 T02500106,K8W2,2023-05-30T21:35:00Z,38.65,-78.7,25.0,10.6,60,8,14,7.0,30.100393,,,TRUE,TRUE,,,,,,,CLR,,,,,,,,VFR,,,,,,,,,,,,SPECI,295.0
K8T6 302135Z AUTO 10004KT 10SM BKN055 BKN075 BKN100 31/20 A2984 RMK AO2,K8T6,2023-05-30T21:35:00Z,28.37,-98.12,31.0,20.0,100,4,,10.0,29.840551,,,TRUE,TRUE,,,,,,,BKN,5500,BKN,7500,BKN,10000,,,VFR,,,,,,,,,,,,METAR,39.0
K8B0 302135Z AUTO 21006KT 10SM CLR 25/05 A3013 RMK AO2,K8B0,2023-05-30T21:35:00Z,44.98,-70.65,25.0,5.0,210,6,,10.0,30.129921,,,TRUE,TRUE,,,,,,,CLR,,,,,,,,VFR,,,,,,,,,,,,SPECI,552.0
K8A0 302135Z AUTO 09003KT 10SM SCT046 SCT065 SCT080 27/16 A2995 RMK AO2,K8A0,2023-05-30T21:35:00Z,34.23,-86.25,27.0,16.0,90,3,,10.0,29.949802,,,TRUE,TRUE,,,,,,,SCT,4600,SCT,6500,SCT,8000,,,VFR,,,,,,,,,,,,METAR,313.0
K82V 302135Z AUTO 13008KT 10SM 24/08 A2993 RMK AO2,K82V,2023-05-30T21:35:00Z,41.15,-104.13,24.0,8.0,130,8,,10.0,29.929134,,,TRUE,TRUE,,,,,,,,,,,,,,,,,,,,,,,,,,,METAR,1563.0
K7W4 302135Z AUTO 10SM OVC028 20/15 A3011 RMK AO1 T02000152,K7W4,2023-05-30T21:35:00Z,37.97,-77.75,20.0,15.2,,,,10.0,30.109253,,,TRUE,TRUE,,,,,,,OVC,2800,,,,,,,MVFR,,,,,,,,,,,,SPECI,115.0
K7L2 302135Z AUTO 30011KT 10SM CLR 29/13 A2980 RMK AO2,K7L2,2023-05-30T21:35:00Z,46.22,-100.25,29.0,13.0,300,11,,10.0,29.799213,,,TRUE,TRUE,,,,,,,CLR,,,,,,,,VFR,,,,,,,,,,,,SPECI,541.0
K7BM 302135Z AUTO 25014G23KT 10SM SCT048 BKN075 OVC095 12/M04 A3027 RMK AO2 LTG DSNT NE,K7BM,2023-05-30T21:35:00Z,38.78,-106.22,12.0,-4.0,250,14,23,10.0,30.268702,,,TRUE,TRUE,,,,,,,SCT,4800,BKN,7500,OVC,9500,,,VFR,,,,,,,,,,,,METAR,2996.0
K77S 302135Z AUTO 33010KT 10SM OVC032 17/09 A3001 RMK A01,K77S,2023-05-30T21:35:00Z,43.93,-123.0,17.0,9.0,330,10,,10.0,30.008858,,,TRUE,TRUE,,,,,,,OVC,3200,,,,,,,VFR,,,,,,,,,,,,SPECI,161.0
K6R3 302135Z AUTO 17003KT 10SM CLR 32/16 A2988 RMK AO2 LTG DSNT N T03230156,K6R3,2023-05-30T21:35:00Z,30.35,-95.0,32.3,15.6,170,3,,10.0,29.878937,,,TRUE,TRUE,,,,,,,CLR,,,,,,,,VFR,,,,,,,,,,,,METAR,44.0
K6P9 302135Z AUTO 18007KT 10SM CLR 29/17 A2991 RMK AO2 T02910169,K6P9,2023-05-30T21:35:00Z,32.43,-98.6,29.1,16.9,180,7,,10.0,29.911417,,,TRUE,TRUE,,,,,,,CLR,,,,,,,,VFR,,,,,,,,,,,,SPECI,451.0
K6B9 302135Z AUTO VRB04KT 10SM CLR 28/10 A3009 RMK AO2,K6B9,2023-05-30T21:35:00Z,42.92,-76.43,28.0,10.0,0,4,,10.0,30.088583,,,TRUE,TRUE,,,,,,,CLR,,,,,,,,VFR,,,,,,,,,,,,SPECI,306.0
K6A2 302135Z AUTO 07003KT 10SM SCT048 BKN095 25/14 A2995 RMK AO2,K6A2,2023-05-30T21:35:00Z,33.23,-84.27,25.0,14.0,70,3,,10.0,29.949802,,,TRUE,TRUE,,,,,,,SCT,4800,BKN,9500,,,,,VFR,,,,,,,,,,,,METAR,290.0
K6A1 302135Z AUTO 08005KT 10SM SCT055 BKN090 29/13 A2992 RMK AO2 T02850130,K6A1,2023-05-30T21:35:00Z,32.57,-84.25,28.5,13.0,80,5,,10.0,29.920275,,,TRUE,TRUE,,,,,,,SCT,5500,BKN,9000,,,,,VFR,,,,,,,,,,,,METAR,198.0
K66R 302135Z AUTO 14008KT 10SM SCT032 SCT038 BKN090 25/19 A2991 RMK AO2 LTG DSNT SE T02500193,K66R,2023-05-30T21:35:00Z,29.65,-96.52,25.0,19.3,140,8,,10.0,29.911417,,,TRUE,TRUE,,,,,,,SCT,3200,SCT,3800,BKN,9000,,,VFR,,,,,,,,,,,,METAR,70.0
K5SM 302135Z AUTO 21007G19KT 170V230 10SM SCT120 13/M09 A3032 RMK AO2 LTG DSNT NW,K5SM,2023-05-30T21:35:00Z,39.43,-107.38,13.0,-9.0,210,7,19,10.0,30.318897,,,TRUE,TRUE,,,,,,,SCT,12000,,,,,,,VFR,,,,,,,,,,,,METAR,3229.0
K5H4 302135Z AUTO 30009KT 270V330 10SM SCT070 SCT100 27/13 A2975 RMK AO2,K5H4,2023-05-30T21:35:00Z,47.78,-99.93,27.0,13.0,300,9,,10.0,29.749016,,,TRUE,TRUE,,,,,,,SCT,7000,SCT,10000,,,,,VFR,,,,,,,,,,,,SPECI,490.0
K5C1 302135Z AUTO 00000KT 10SM SCT050 28/17 A2991 RMK AO1,K5C1,2023-05-30T21:35:00Z,29.72,-98.7,28.0,17.0,0,0,,10.0,29.911417,,,TRUE,TRUE,,,,,,,SCT,5000,,,,,,,VFR,,,,,,,,,,,,METAR,422.0
K57C 302135Z AUTO 13007G14KT CLR 30/10 A2995 RMK AO2 T02980101 PWINO,K57C,2023-05-30T21:35:00Z,42.8,-88.37,29.8,10.1,130,7,14,,29.949802,,,TRUE,TRUE,,,,,TRUE,,CLR,,,,,,,,,,,,,,,,,,,,SPECI,454.0
K54J 302135Z AUTO 04003KT 10SM SCT050 OVC080 27/14 A2990 RMK AO2 T02690140,K54J,2023-05-30T21:35:00Z,30.73,-86.15,26.9,14.0,40,3,,10.0,29.899607,,,TRUE,TRUE,,,,,,,SCT,5000,OVC,8000,,,,,VFR,,,,,,,,,,,,SPECI,87.0
K4V1 302135Z AUTO 13015G20KT 10SM CLR 27/01 A2999 RMK AO2 T02670005,K4V1,2023-05-30T21:35:00Z,37.7,-104.78,26.7,0.5,130,15,20,10.0,29.991142,,,TRUE,TRUE,,,,,,,CLR,,,,,,,,VFR,,,,,,,,,,,,METAR,1847.0
K4R5 302135Z AUTO 09003KT 10SM BKN100 21/10 A2986 RMK AO2 T02050097,K4R5,2023-05-30T21:35:00Z,46.78,-90.77,20.5,9.7,90,3,,10.0,29.861221,,,TRUE,TRUE,,,,,,,BKN,10000,,,,,,,VFR,,,,,,,,,,,,SPECI,195.0
K4M9 302135Z AUTO VRB06KT 10SM CLR 31/16 A2992 RMK AO2 PWINO,K4M9,2023-05-30T21:35:00Z,36.4,-90.65,31.0,16.0,0,6,,10.0,29.920275,,,TRUE,TRUE,,,,,TRUE,,CLR,,,,,,,,VFR,,,,,,,,,,,,SPECI,86.0
K4F2 302135Z AUTO 08004KT 10SM CLR 31/17 A2988 RMK AO2 LTG DSNT W T03120173,K4F2,2023-05-30T21:35:00Z,32.18,-94.3,31.2,17.3,80,4,,10.0,29.878937,,,TRUE,TRUE,,,,,,,CLR,,,,,,,,VFR,,,,,,,,,,,,METAR,76.0
K4BM 302135Z AUTO 16009G17KT 130V190 10SM SCT090 SCT120 15/M08 A3037 RMK AO2 LTG DSNT SW,K4BM,2023-05-30T21:35:00Z,39.05,-105.52,15.0,-8.0,160,9,17,10.0,30.369095,,,TRUE,TRUE,,,,,,,SCT,9000,SCT,12000,,,,,VFR,,,,,,,,,,,,METAR,3432.0
K4A6 302135Z AUTO 06004KT 10SM FEW050 SCT060 BKN090 27/18 A2994 RMK AO2,K4A6,2023-05-30T21:35:00Z,34.68,-86.0,27.0,18.0,60,4,,10.0,29.940945,,,TRUE,TRUE,,,,,,,FEW,5000,SCT,6000,BKN,9000,,,VFR,,,,,,,,,,,,SPECI,191.0
K49A 302135Z AUTO 13007KT 100V160 10SM BKN080 26/16 A2997 RMK AO2,K49A,2023-05-30T21:35:00Z,34.63,-84.53,26.0,16.0,130,7,,10.0,29.970472,,,TRUE,TRUE,,,,,,,BKN,8000,,,,,,,VFR,,,,,,,,,,,,METAR,449.0
K48A 302135Z AUTO 08009KT 10SM SCT060 SCT080 BKN100 28/16 A2991 RMK AO2 T02830158,K48A,2023-05-30T21:35:00Z,32.4,-83.27,28.3,15.8,80,9,,10.0,29.911417,,,TRUE,TRUE,,,,,,,SCT,6000,SCT,8000,BKN,10000,,,VFR,,,,,,,,,,,,SPECI,115.0
K46D 302135Z AUTO 26007G13KT 10SM FEW060 28/12 A2976 RMK AO2,K46D,2023-05-30T21:35:00Z,47.45,-99.15,28.0,12.0,260,7,13,10.0,29.760826,,,TRUE,TRUE,,,,,,,FEW,6000,,,,,,,VFR,,,,,,,,,,,,SPECI,488.0
K42J 302135Z AUTO 22005KT 10SM FEW085 BKN110 29/15 A2987 RMK A01,K42J,2023-05-30T21:35:00Z,29.85,-82.05,29.0,15.0,220,5,,10.0,29.870079,,,TRUE,TRUE,,,,,,,FEW,8500,BKN,11000,,,,,VFR,,,,,,,,,,,,SPECI,57.0
K41U 302135Z AUTO 28003KT 10SM CLR 25/M04 A2995 RMK AO1 T02541045,K41U,2023-05-30T21:35:00Z,39.33,-111.6,25.4,-4.5,280,3,,10.0,29.949802,,,TRUE,TRUE,,,,,,,CLR,,,,,,,,VFR,,,,,,,,,,,,METAR,1676.0
K3T5 302135Z AUTO VRB03KT 10SM FEW055 31/19 A2985 RMK AO2 T03060190 $,K3T5,2023-05-30T21:35:00Z,29.9,-96.95,30.6,19.0,0,3,,10.0,29.84941,,,TRUE,TRUE,TRUE,,,,,,FEW,5500,,,,,,,VFR,,,,,,,,,,,,SPECI,96.0
K3LF 302135Z AUTO 00000KT 10SM CLR 30/11 A2994 RMK AO2 T02970111,K3LF,2023-05-30T21:35:00Z,39.17,-89.67,29.7,11.1,0,0,,10.0,29.940945,,,TRUE,TRUE,,,,,,,CLR,,,,,,,,VFR,,,,,,,,,,,,METAR,207.0
K3K3 302135Z AUTO 16011G15KT 10SM 31/14 A2987 RMK AO2,K3K3,2023-05-30T21:35:00Z,38.0,-101.75,31.0,14.0,160,11,15,10.0,29.870079,,,TRUE,TRUE,,,,,,,,,,,,,,,,,,,,,,,,,,,METAR,1010.0
K3F3 302135Z AUTO 02004KT 10SM CLR 31/16 A2992 RMK AO2 LTG DSNT SW T03140159,K3F3,2023-05-30T21:35:00Z,32.07,-93.77,31.4,15.9,20,4,,10.0,29.920275,,,TRUE,TRUE,,,,,,,CLR,,,,,,,,VFR,,,,,,,,,,,,METAR,96.0
K35A 302135Z AUTO 07006KT 10SM SCT044 BKN095 27/15 A3001 RMK A02 T02680149,K35A,2023-05-30T21:35:00Z,34.68,-81.63,26.8,14.9,70,6,,10.0,30.008858,,,TRUE,TRUE,,,,,,,SCT,4400,BKN,9500,,,,,VFR,,,,,,,,,,,,METAR,186.0
K2R9 302135Z AUTO 05005KT 10SM CLR A2987 RMK AO2 LTG DSNT SE,K2R9,2023-05-30T21:35:00Z,28.82,-97.87,,,50,5,,10.0,29.870079,,,TRUE,TRUE,,,,,,,CLR,,,,,,,,VFR,,,,,,,,,,,,METAR,88.0
K2J9 302135Z AUTO VRB04KT 10SM FEW080 28/16 A2991 RMK AO2,K2J9,2023-05-30T21:35:00Z,30.6,-84.55,28.0,16.0,0,4,,10.0,29.911417,,,TRUE,TRUE,,,,,,,FEW,8000,,,,,,,VFR,,,,,,,,,,,,METAR,62.0
K2J5 302135Z AUTO 03006KT 10SM BKN044 OVC060 26/18 A2993 RMK AO2 T02640177,K2J5,2023-05-30T21:35:00Z,32.9,-81.97,26.4,17.7,30,6,,10.0,29.929134,,,TRUE,TRUE,,,,,,,BKN,4400,OVC,6000,,,,,VFR,,,,,,,,,,,,METAR,72.0
K2I0 302135Z AUTO 15004KT 10SM SCT120 31/15 A2993 RMK AO2 T03110147,K2I0,2023-05-30T21:35:00Z,37.35,-87.4,31.1,14.7,150,4,,10.0,29.929134,,,TRUE,TRUE,,,,,,,SCT,12000,,,,,,,VFR,,,,,,,,,,,,SPECI,127.0
K2G9 302135Z AUTO 10004KT 10SM CLR 23/07 A3014 RMK AO2,K2G9,2023-05-30T21:35:00Z,40.03,-79.02,23.0,7.0,100,4,,10.0,30.138779,,,TRUE,TRUE,,,,,,,CLR,,,,,,,,VFR,,,,,,,,,,,,METAR,677.0
K2D5 302135Z AUTO 28009KT 250V310 10SM CLR 29/11 A2976 RMK AO2,K2D5,2023-05-30T21:35:00Z,46.17,-98.08,29.0,11.0,280,9,,10.0,29.760826,,,TRUE,TRUE,,,,,,,CLR,,,,,,,,VFR,,,,,,,,,,,,SPECI,407.0
K20V 302135Z AUTO 18011KT 10SM SCT120 20/M04 A3007 RMK AO2,K20V,2023-05-30T21:35:00Z,40.05,-106.37,20.0,-4.0,180,11,,10.0,30.070866,,,TRUE,TRUE,,,,,,,SCT,12000,,,,,,,VFR,,,,,,,,,,,,METAR,2259.0
K20U 302135Z AUTO VRB06G11KT 10SM CLR 27/10 A2983 RMK AO2,K20U,2023-05-30T21:35:00Z,46.93,-103.98,27.0,10.0,0,6,11,10.0,29.828741,,,TRUE,TRUE,,,,,,,CLR,,,,,,,,VFR,,,,,,,,,,,,SPECI,839.0
K1S5 302135Z AUTO 00000KT 10SM CLR 27/02 A2979 RMK AO2 T02660017,K1S5,2023-05-30T21:35:00Z,46.33,-119.97,26.6,1.7,0,0,,10.0,29.790354,,,TRUE,TRUE,,,,,,,CLR,,,,,,,,VFR,,,,,,,,,,,,SPECI,228.0
K1R8 302135Z AUTO 04004KT 10SM BKN055 OVC070 28/15 A2988 RMK AO2,K1R8,2023-05-30T21:35:00Z,30.87,-87.82,28.0,15.0,40,4,,10.0,29.878937,,,TRUE,TRUE,,,,,,,BKN,5500,OVC,7000,,,,,VFR,,,,,,,,,,,,METAR,76.0
K1R7 302135Z AUTO 00000KT 10SM CLR 29/13 A2991 RMK AO2 PWINO,K1R7,2023-05-30T21:35:00Z,31.6,-90.42,29.0,13.0,0,0,,10.0,29.911417,,,TRUE,TRUE,,,,,TRUE,,CLR,,,,,,,,VFR,,,,,,,,,,,,SPECI,142.0
K1H2 302135Z AUTO 00000KT 10SM CLR 32/10 A2993 RMK AO2 T03160099,K1H2,2023-05-30T21:35:00Z,39.07,-88.53,31.6,9.9,0,0,,10.0,29.929134,,,TRUE,TRUE,,,,,,,CLR,,,,,,,,VFR,,,,,,,,,,,,METAR,174.0
K1A6 302135Z AUTO 15004KT 10SM CLR 28/15 A2999 RMK AO2 T02830147,K1A6,2023-05-30T21:35:00Z,36.62,-83.73,28.3,14.7,150,4,,10.0,29.991142,,,TRUE,TRUE,,,,,,,CLR,,,,,,,,VFR,,,,,,,,,,,,METAR,348.0
K18A 302135Z AUTO 08007KT 040V120 10SM SCT046 26/14 A3004 RMK AO2 T02600144,K18A,2023-05-30T21:35:00Z,34.35,-83.13,26.0,14.4,80,7,,10.0,30.041338,,,TRUE,TRUE,,,,,,,SCT,4600,,,,,,,VFR,,,,,,,,,,,,METAR,260.0
K17J 302135Z AUTO 00000KT 10SM OVC065 27/14 A2990 RMK AO2 T02720139,K17J,2023-05-30T21:35:00Z,31.0,-84.87,27.2,13.9,0,0,,10.0,29.899607,,,TRUE,TRUE,,,,,,,OVC,6500,,,,,,,VFR,,,,,,,,,,,,METAR,42.0
K15M 302135Z AUTO 05005KT 10SM BKN080 27/15 A2994 RMK AO2 T02700149 $,K15M,2023-05-30T21:35:00Z,34.77,-88.17,27.0,14.9,50,5,,10.0,29.940945,,,TRUE,TRUE,TRUE,,,,,,BKN,8000,,,,,,,VFR,,,,,,,,,,,,SPECI,192.0
K10G 302135Z AUTO 14008KT 10SM CLR 27/12 A3005 RMK AO2,K10G,2023-05-30T21:35:00Z,40.53,-81.95,27.0,12.0,140,8,,10.0,30.050198,,,TRUE,TRUE,,,,,,,CLR,,,,,,,,VFR,,,,,,,,,,,,SPECI,371.0
K0VG 302135Z AUTO 00000KT 10SM CLR 27/15 A3000 RMK AO2,K0VG,2023-05-30T21:35:00Z,36.65,-83.22,27.0,15.0,0,0,,10.0,30.0,,,TRUE,TRUE,,,,,,,CLR,,,,,,,,VFR,,,,,,,,,,,,SPECI,426.0
K0S9 302135Z AUTO 00000KT 10SM OVC031 14/06 A3005 RMK AO2,K0S9,2023-05-30T21:35:00Z,48.05,-122.82,14.0,6.0,0,0,,10.0,30.050198,,,TRUE,TRUE,,,,,,,OVC,3100,,,,,,,VFR,,,,,,,,,,,,SPECI,33.0
K08D 302135Z AUTO 29007G14KT 10SM FEW070 26/12 A2977 RMK AO2 LTG DSNT SE AND NW,K08D,2023-05-30T21:35:00Z,48.3,-102.4,26.0,12.0,290,7,14,10.0,29.769686,,,TRUE,TRUE,,,,,,,FEW,7000,,,,,,,VFR,,,,,,,,,,,,SPECI,683.0
K06D 302135Z AUTO 31008G13KT 10SM CLR 26/11 A2975 RMK AO2 LTG DSNT SW-N,K06D,2023-05-30T21:35:00Z,48.88,-99.62,26.0,11.0,310,8,13,10.0,29.749016,,,TRUE,TRUE,,,,,,,CLR,,,,,,,,VFR,,,,,,,,,,,,SPECI,554.0
K06C 302135Z AUTO 11009G14KT 10SM CLR 31/15 A2994 RMK AO2 T03130149,K06C,2023-05-30T21:35:00Z,41.98,-88.1,31.3,14.9,110,9,14,10.0,29.940945,,,TRUE,TRUE,,,,,,,CLR,,,,,,,,VFR,,,,,,,,,,,,METAR,243.0
K04V 302135Z AUTO 10004KT 10SM SCT120 22/M05 A3013 RMK AO2,K04V,2023-05-30T21:35:00Z,38.1,-106.17,22.0,-5.0,100,4,,10.0,30.129921,,,TRUE,TRUE,,,,,,,SCT,12000,,,,,,,VFR,,,,,,,,,,,,METAR,2389.0
KMNE 302134Z AUTO 05004KT 10SM CLR 31/17 A2990 RMK AO2 LTG DSNT W,KMNE,2023-05-30T21:34:00Z,32.65,-93.3,31.0,17.0,50,4,,10.0,29.899607,,,TRUE,TRUE,,,,,,,CLR,,,,,,,,VFR,,,,,,,,,,,,SPECI,84.0
CYOD 302133Z 08009KT 4SM FU BKN070 24/10 A2973 RMK AC5 DENSITY ALT 3626FT SLP074,CYOD,2023-05-30T21:33:00Z,54.4,-110.28,24.0,10.0,80,9,,4.0,29.731298,1007.4,,,,,,,,,FU,BKN,7000,,,,,,,MVFR,,,,,,,,,,,,SPECI,540.0
CZSJ 302131Z AUTO 02003KT 360V090 9SM -RA FEW076 SCT098 BKN140 21/18 A2966 RMK SLP049 DENSITY ALT 2200FT,CZSJ,2023-05-30T21:31:00Z,53.07,-93.35,21.0,18.0,20,3,,9.0,29.660433,1004.9,,TRUE,,,,,,,-RA,FEW,7600,SCT,9800,BKN,14000,,,VFR,,,,,,,,,,,,SPECI,286.0
CYQV 302131Z AUTO 13005KT 080V180 9SM FEW110 SCT140 BKN160 20/12 A2974 RMK SLP074 DENSITY ALT 2800FT,CYQV,2023-05-30T21:31:00Z,51.27,-102.47,20.0,12.0,130,5,,9.0,29.740158,1007.4,,TRUE,,,,,,,,FEW,11000,SCT,14000,BKN,16000,,,VFR,,,,,,,,,,,,SPECI,493.0
ZYTX 302130Z 12003MPS CAVOK 16/09 Q1010 NOSIG,ZYTX,2023-05-30T21:30:00Z,41.63,123.48,16.0,9.0,120,6,,6.21,29.822834,,,,,,TRUE,,,,,CAVOK,,,,,,,,VFR,,,,,,,,,,,,METAR,56.0
ZYTL 302130Z 26002MPS CAVOK 16/10 Q1011 NOSIG,ZYTL,2023-05-30T21:30:00Z,38.97,121.55,16.0,10.0,260,4,,6.21,29.852362,,,,,,TRUE,,,,,CAVOK,,,,,,,,VFR,,,,,,,,,,,,METAR,33.0
ZWWW 302130Z 15002MPS CAVOK 17/01 Q1019 NOSIG,ZWWW,2023-05-30T21:30:00Z,43.9,87.47,17.0,1.0,150,4,,6.21,30.088583,,,,,,TRUE,,,,,CAVOK,,,,,,,,VFR,,,,,,,,,,,,METAR,654.0
ZSSS 302130Z 01004MPS 9999 SCT015 OVC033 22/19 Q1008 NOSIG,ZSSS,2023-05-30T21:30:00Z,31.2,121.33,22.0,19.0,10,8,,6.21,29.763779,,,,,,TRUE,,,,,SCT,1500,OVC,3300,,,,,VFR,,,,,,,,,,,,METAR,2.0
ZSPD 302130Z 02004MPS 9999 BKN009 21/20 Q1008 NOSIG,ZSPD,2023-05-30T21:30:00Z,31.15,121.8,21.0,20.0,20,8,,6.21,29.763779,,,,,,TRUE,,,,,BKN,900,,,,,,,IFR,,,,,,,,,,,,METAR,4.0
ZSHC 302130Z 06003MPS 8000 BKN013 BKN023 24/22 Q1007 NOSIG,ZSHC,2023-05-30T21:30:00Z,30.22,120.43,24.0,22.0,60,6,,4.97,29.734253,,,,,,TRUE,,,,,BKN,1300,BKN,2300,,,,,MVFR,,,,,,,,,,,,METAR,8.0
ZGGG 302130Z 34003MPS CAVOK 31/24 Q1002 NOSIG,ZGGG,2023-05-30T21:30:00Z,23.4,113.3,31.0,24.0,340,6,,6.21,29.586615,,,,,,TRUE,,,,,CAVOK,,,,,,,,VFR,,,,,,,,,,,,METAR,11.0
ZBYN 302130Z 15001MPS 6000 NSC 16/14 Q1013 NOSIG,ZBYN,2023-05-30T21:30:00Z,37.73,112.63,16.0,14.0,150,2,,3.73,29.911417,,,,,,TRUE,,,,,CLR,,,,,,,,MVFR,,,,,,,,,,,,METAR,778.0
ZBTJ 302130Z 00000MPS 8000 NSC 17/15 Q1010 NOSIG,ZBTJ,2023-05-30T21:30:00Z,39.12,117.35,17.0,15.0,0,0,,4.97,29.822834,,,,,,TRUE,,,,,CLR,,,,,,,,MVFR,,,,,,,,,,,,METAR,4.0
ZBAD 302130Z 17002MPS CAVOK 15/13 Q1009 NOSIG,ZBAD,2023-05-30T21:30:00Z,39.5,116.42,15.0,13.0,170,4,,6.21,29.793306,,,,,,TRUE,,,,,CAVOK,,,,,,,,VFR,,,,,,,,,,,,METAR,25.0
ZBAA 302130Z 09001MPS CAVOK 16/15 Q1010 NOSIG,ZBAA,2023-05-30T21:30:00Z,40.07,116.6,16.0,15.0,90,2,,6.21,29.822834,,,,,,TRUE,,,,,CAVOK,,,,,,,,VFR,,,,,,,,,,,,METAR,31.0
YWLM 302130Z 32007KT CAVOK 11/07 Q1021,YWLM,2023-05-30T21:30:00Z,-32.8,151.83,11.0,7.0,320,7,,6.21,30.147638,,,,,,,,,,,CAVOK,,,,,,,,VFR,,,,,,,,,,,,METAR,7.0
YSTW 302130Z AUTO 11005KT 9999 // NCD 04/04 Q1025 RF00.0/000.0,YSTW,2023-05-30T21:30:00Z,-31.08,150.85,4.0,4.0,110,5,,6.21,30.265747,,,TRUE,,,,,,,,CLR,,,,,,,,VFR,,,,,,,,,,,,SPECI,404.0
YSSY 302130Z 32007KT CAVOK 12/08 Q1021,YSSY,2023-05-30T21:30:00Z,-33.95,151.17,12.0,8.0,320,7,,6.21,30.147638,,,,,,,,,,,CAVOK,,,,,,,,VFR,,,,,,,,,,,,METAR,3.0
YSRI 302130Z AUTO 00000KT 9999 // NCD 05/05 Q1021 RF00.0/000.0,YSRI,2023-05-30T21:30:00Z,-33.6,150.77,5.0,5.0,0,0,,6.21,30.147638,,,TRUE,,,,,,,,CLR,,,,,,,,VFR,,,,,,,,,,,,METAR,19.0
YSNF 302130Z AUTO 21006KT 9999 // NCD 19/13 Q1023 RF00.0/000.2,YSNF,2023-05-30T21:30:00Z,-29.03,167.93,19.0,13.0,210,6,,6.21,30.206694,,,TRUE,,,,,,,,CLR,,,,,,,,VFR,,,,,,,,,,,,METAR,113.0
YSDU 302130Z AUTO 12004KT 9999 // OVC044 08/07 Q1023 RF00.0/000.0,YSDU,2023-05-30T21:30:00Z,-32.22,148.57,8.0,7.0,120,4,,6.21,30.206694,,,TRUE,,,,,,,,OVC,4400,,,,,,,VFR,,,,,,,,,,,,METAR,285.0
YSCB 302130Z AUTO 36007KT 9999 // OVC032 11/09 Q1020 RF00.0/000.0,YSCB,2023-05-30T21:30:00Z,-35.3,149.18,11.0,9.0,360,7,,6.21,30.11811,,,TRUE,,,,,,,,OVC,3200,,,,,,,VFR,,,,,,,,,,,,METAR,577.0
YPWR 302130Z AUTO 34005KT 9999 // NCD 13/09 Q1022 RF00.0/000.0,YPWR,2023-05-30T21:30:00Z,-31.15,136.82,13.0,9.0,340,5,,6.21,30.177166,,,TRUE,,,,,,,,CLR,,,,,,,,VFR,,,,,,,,,,,,METAR,169.0
YPTN 302130Z AUTO 13006KT 9999 // NCD 11/07 Q1017 RF00.0/000.0,YPTN,2023-05-30T21:30:00Z,-14.52,132.38,11.0,7.0,130,6,,6.21,30.029528,,,TRUE,,,,,,,,CLR,,,,,,,,VFR,,,,,,,,,,,,METAR,135.0
YPPD 302130Z AUTO 16006KT 9999 // NCD 13/03 Q1017 RF00.0/000.0,YPPD,2023-05-30T21:30:00Z,-20.37,118.62,13.0,3.0,160,6,,6.21,30.029528,,,TRUE,,,,,,,,CLR,,,,,,,,VFR,,,,,,,,,,,,METAR,6.0
YPLM 302130Z AUTO 23005KT 9999 // NCD 11/00 Q1017 RF00.0/000.0,YPLM,2023-05-30T21:30:00Z,-22.23,114.08,11.0,0.0,230,5,,6.21,30.029528,,,TRUE,,,,,,,,CLR,,,,,,,,VFR,,,,,,,,,,,,METAR,5.0
YPKU 302130Z AUTO 12004KT 9999 // NCD 10/06 Q1017 RF00.0////./,YPKU,2023-05-30T21:30:00Z,-15.77,128.7,10.0,6.0,120,4,,6.21,30.029528,,,TRUE,,,,,,,,CLR,,,,,,,,VFR,,,,,,,,,,,,SPECI,42.0
YPKG 302130Z AUTO 36003KT 9999 // BKN125 14/M03 Q1017 RF00.0/000.0,YPKG,2023-05-30T21:30:00Z,-30.78,121.45,14.0,-3.0,360,3,,6.21,30.029528,,,TRUE,,,,,,,,BKN,12500,,,,,,,VFR,,,,,,,,,,,,SPECI,372.0
YPJT 302130Z AUTO 36001KT 4000 BR SCT017 BKN022 BKN032 15/15 Q1016,YPJT,2023-05-30T21:30:00Z,-32.1,115.88,15.0,15.0,360,1,,2.49,30.0,,,TRUE,,,,,,,BR,SCT,1700,BKN,2200,BKN,3200,,,IFR,,,,,,,,,,,,SPECI,29.0
YPGV 302130Z AUTO 15006KT 9999 // SCT039 21/18 Q1014 RF00.0/000.0,YPGV,2023-05-30T21:30:00Z,-12.27,136.82,21.0,18.0,150,6,,6.21,29.940945,,,TRUE,,,,,,,,SCT,3900,,,,,,,VFR,,,,,,,,,,,,SPECI,53.0
YPEA 302130Z AUTO 03004KT 9999 // SCT019 BKN025 BKN044 14/13 Q1016,YPEA,2023-05-30T21:30:00Z,-31.67,116.02,14.0,13.0,30,4,,6.21,30.0,,,TRUE,,,,,,,,SCT,1900,BKN,2500,BKN,4400,,,MVFR,,,,,,,,,,,,METAR,38.0
YPDN 302130Z 12008KT CAVOK 19/11 Q1015,YPDN,2023-05-30T21:30:00Z,-12.42,130.9,19.0,11.0,120,8,,6.21,29.970472,,,,,,,,,,,CAVOK,,,,,,,,VFR,,,,,,,,,,,,METAR,32.0
YPCC 302130Z AUTO 13013KT 9999 // BKN021 27/24 Q1012 RF00.0/000.2,YPCC,2023-05-30T21:30:00Z,-12.18,96.83,27.0,24.0,130,13,,6.21,29.88189,,,TRUE,,,,,,,,BKN,2100,,,,,,,MVFR,,,,,,,,,,,,METAR,3.0
YPAD 302130Z 03010KT 9999 FEW030 SCT140 14/12 Q1019 RF00.0/000.2,YPAD,2023-05-30T21:30:00Z,-34.95,138.52,14.0,12.0,30,10,,6.21,30.088583,,,,,,,,,,,FEW,3000,SCT,14000,,,,,VFR,,,,,,,,,,,,SPECI,2.0
YMML 302130Z 35012KT 9999 FEW023 SCT125 BKN140 15/11 Q1016 RF00.0/000.0,YMML,2023-05-30T21:30:00Z,-37.67,144.82,15.0,11.0,350,12,,6.21,30.0,,,,,,,,,,,FEW,2300,SCT,12500,BKN,14000,,,VFR,,,,,,,,,,,,METAR,115.0
YMLT 302130Z AUTO 34018KT 9999 // SCT025 BKN031 OVC057 14/10 Q1006,YMLT,2023-05-30T21:30:00Z,-41.53,147.2,14.0,10.0,340,18,,6.21,29.704725,,,TRUE,,,,,,,,SCT,2500,BKN,3100,OVC,5700,,,VFR,,,,,,,,,,,,SPECI,167.0
YMHB 302130Z 32013KT 9999 FEW030 BKN050 16/09 Q1000 RF00.0/000.0,YMHB,2023-05-30T21:30:00Z,-42.83,147.52,16.0,9.0,320,13,,6.21,29.52756,,,,,,,,,,,FEW,3000,BKN,5000,,,,,VFR,,,,,,,,,,,,SPECI,2.0
YMAV 302130Z AUTO 32007KT 9999 // NCD 15/11 Q1015 RF00.0/000.0,YMAV,2023-05-30T21:30:00Z,-38.03,144.48,15.0,11.0,320,7,,6.21,29.970472,,,TRUE,,,,,,,,CLR,,,,,,,,VFR,,,,,,,,,,,,SPECI,11.0
YLHI 302130Z AUTO 25009KT 9999 // SCT033 19/12 Q1023 RF00.0/000.0,YLHI,2023-05-30T21:30:00Z,-31.53,159.07,19.0,12.0,250,9,,6.21,30.206694,,,TRUE,,,,,,,,SCT,3300,,,,,,,VFR,,,,,,,,,,,,METAR,2.0
YHID 302130Z AUTO 14013KT 9999 // BKN029 26/22 Q1013 RF00.0/000.0,YHID,2023-05-30T21:30:00Z,-10.58,142.3,26.0,22.0,140,13,,6.21,29.911417,,,TRUE,,,,,,,,BKN,2900,,,,,,,MVFR,,,,,,,,,,,,METAR,5.0
YGLA 302130Z AUTO 21006KT 9999 // NCD 10/06 Q1023 RF00.0/000.0,YGLA,2023-05-30T21:30:00Z,-23.87,151.22,10.0,6.0,210,6,,6.21,30.206694,,,TRUE,,,,,,,,CLR,,,,,,,,VFR,,,,,,,,,,,,METAR,17.0
YGEL 302130Z AUTO 03010KT 9999 // SCT084 BKN120 17/16 Q1016,YGEL,2023-05-30T21:30:00Z,-28.8,114.7,17.0,16.0,30,10,,6.21,30.0,,,TRUE,,,,,,,,SCT,8400,BKN,12000,,,,,VFR,,,,,,,,,,,,METAR,32.0
YFRT 302130Z AUTO 35007KT 9999 // NCD 11/M02 Q1018 RF00.0/000.0,YFRT,2023-05-30T21:30:00Z,-30.83,128.12,11.0,-2.0,350,7,,6.21,30.059055,,,TRUE,,,,,,,,CLR,,,,,,,,VFR,,,,,,,,,,,,SPECI,159.0
YCIN 302130Z AUTO 11007KT 9999 // NCD 15/02 Q1015 RF00.0/000.0,YCIN,2023-05-30T21:30:00Z,-17.58,123.83,15.0,2.0,110,7,,6.21,29.970472,,,TRUE,,,,,,,,CLR,,,,,,,,VFR,,,,,,,,,,,,SPECI,83.0
YCFS 302130Z AUTO 00000KT 9999 // NCD 08/07 Q1023 RF00.0/000.0,YCFS,2023-05-30T21:30:00Z,-30.32,153.12,8.0,7.0,0,0,,6.21,30.206694,,,TRUE,,,,,,,,CLR,,,,,,,,VFR,,,,,,,,,,,,METAR,2.0
YBWW 302130Z AUTO 15002KT 9999 // NCD 03/02 Q1024 RF00.0/000.0,YBWW,2023-05-30T21:30:00Z,-27.55,151.8,3.0,2.0,150,2,,6.21,30.236221,,,TRUE,,,,,,,,CLR,,,,,,,,VFR,,,,,,,,,,,,METAR,460.0
YBTL 302130Z 21002KT 9999 SCT025 SCT030 BKN045 19/10 Q1020 RF00.0/000.0,YBTL,2023-05-30T21:30:00Z,-19.25,146.75,19.0,10.0,210,2,,6.21,30.11811,,,,,,,,,,,SCT,2500,SCT,3000,BKN,4500,,,VFR,,,,,,,,,,,,METAR,4.0
YBSU 302130Z AUTO 29005KT 9999 // NCD 10/09 Q1023 RF00.0/000.0,YBSU,2023-05-30T21:30:00Z,-26.6,153.08,10.0,9.0,290,5,,6.21,30.206694,,,TRUE,,,,,,,,CLR,,,,,,,,VFR,,,,,,,,,,,,METAR,4.0
YBRM 302130Z AUTO 07003KT 9999 // NCD 09/07 Q1016 RF00.0/000.0,YBRM,2023-05-30T21:30:00Z,-17.93,122.23,9.0,7.0,70,3,,6.21,30.0,,,TRUE,,,,,,,,CLR,,,,,,,,VFR,,,,,,,,,,,,METAR,11.0
YBRK 302130Z AUTO 00000KT 9999 // NCD 09/07 Q1023 RF00.0/000.0,YBRK,2023-05-30T21:30:00Z,-23.37,150.47,9.0,7.0,0,0,,6.21,30.206694,,,TRUE,,,,,,,,CLR,,,,,,,,VFR,,,,,,,,,,,,METAR,10.0
YBMA 302130Z AUTO 15002KT 9999 // NCD 06/00 Q1020 RF00.0/000.0,YBMA,2023-05-30T21:30:00Z,-20.67,139.48,6.0,0.0,150,2,,6.21,30.11811,,,TRUE,,,,,,,,CLR,,,,,,,,VFR,,,,,,,,,,,,METAR,346.0
YBLN 302130Z AUTO 08005KT 9999 // BKN092 BKN110 14/14 Q1015,YBLN,2023-05-30T21:30:00Z,-33.68,115.4,14.0,14.0,80,5,,6.21,29.970472,,,TRUE,,,,,,,,BKN,9200,BKN,11000,,,,,VFR,,,,,,,,,,,,METAR,17.0
YBCS 302130Z AUTO 18009KT 9999 // NCD 22/16 Q1017 RF00.0/000.0,YBCS,2023-05-30T21:30:00Z,-16.87,145.75,22.0,16.0,180,9,,6.21,30.029528,,,TRUE,,,,,,,,CLR,,,,,,,,VFR,,,,,,,,,,,,METAR,2.0
YBCG 302130Z AUTO 29003KT 9999 // NCD 10/09 Q1023 RF00.0/000.0,YBCG,2023-05-30T21:30:00Z,-28.17,153.5,10.0,9.0,290,3,,6.21,30.206694,,,TRUE,,,,,,,,CLR,,,,,,,,VFR,,,,,,,,,,,,METAR,5.0
YBBN 302130Z 20007KT CAVOK 09/07 Q1024 ALOFT,YBBN,2023-05-30T21:30:00Z,-27.38,153.13,9.0,7.0,200,7,,6.21,30.236221,,,,,,,,,,,CAVOK,,,,,,,,VFR,,,,,,,,,,,,METAR,3.0
YBAS 302130Z AUTO /////KT 9999 // NCD 03/01 Q1022 RF00.0/000.0,YBAS,2023-05-30T21:30:00Z,-23.8,133.9,3.0,1.0,,,,6.21,30.177166,,,TRUE,,,,,,,,CLR,,,,,,,,VFR,,,,,,,,,,,,METAR,549.0
YAMB 302130Z 00000KT CAVOK 04/03 Q1024,YAMB,2023-05-30T21:30:00Z,-27.63,152.72,4.0,3.0,0,0,,6.21,30.236221,,,,,,,,,,,CAVOK,,,,,,,,VFR,,,,,,,,,,,,METAR,26.0
WSSS 302130Z 18008KT 9999 SCT016 BKN300 28/26 Q1009 NOSIG,WSSS,2023-05-30T21:30:00Z,1.37,103.97,28.0,26.0,180,8,,6.21,29.793306,,,,,,TRUE,,,,,SCT,1600,BKN,30000,,,,,VFR,,,,,,,,,,,,METAR,17.0
WMKP 302130Z 00000KT 8000 FEW017CB 28/25 Q1008 NOSIG,WMKP,2023-05-30T21:30:00Z,5.28,100.27,28.0,25.0,0,0,,4.97,29.763779,,,,,,TRUE,,,,,FEW,1700,,,,,,,MVFR,,,,,,,,,,,,METAR,4.0
WMKK 302130Z 31003KT 260V010 5000 TSRA FEW006 FEW016CB SCT028 24/23 Q1009 RETSRA NOSIG,WMKK,2023-05-30T21:30:00Z,2.75,101.72,24.0,23.0,310,3,,3.11,29.793306,,,,,,TRUE,,,,TSRA,FEW,600,FEW,1600,SCT,2800,,,MVFR,,,,,,,,,,,,METAR,21.0
WIPP 302130Z AUTO 20003KT 1600NDV R11/P2000N R29/P2000N BR BKN043 BKN180 25/25 Q1009,WIPP,2023-05-30T21:30:00Z,-2.88,104.7,25.0,25.0,200,3,,1.24,29.793306,,,TRUE,,,,,,,BR,BKN,4300,BKN,18000,,,,,IFR,,,,,,,,,,,,METAR,7.0
WIOO 302130Z 00000KT 6000 FEW012 24/23 Q1009 NOSIG,WIOO,2023-05-30T21:30:00Z,-0.15,109.4,24.0,23.0,0,0,,3.73,29.793306,,,,,,TRUE,,,,,FEW,1200,,,,,,,MVFR,,,,,,,,,,,,METAR,4.0
WILL 302130Z 00000KT CAVOK 24/22 Q1010 NOSIG,WILL,2023-05-30T21:30:00Z,-5.25,105.18,24.0,22.0,0,0,,6.21,29.822834,,,,,,TRUE,,,,,CAVOK,,,,,,,,VFR,,,,,,,,,,,,METAR,83.0
WIDD 302130Z 18004KT 9999 FEW014 27/24 Q1011 NOSIG,WIDD,2023-05-30T21:30:00Z,1.12,104.12,27.0,24.0,180,4,,6.21,29.852362,,,,,,TRUE,,,,,FEW,1400,,,,,,,VFR,,,,,,,,,,,,METAR,26.0
WBSB 302130Z 18002KT 9999 FEW014 BKN280 25/24 Q1009 NOSIG,WBSB,2023-05-30T21:30:00Z,4.93,114.92,25.0,24.0,180,2,,6.21,29.793306,,,,,,TRUE,,,,,FEW,1400,BKN,28000,,,,,VFR,,,,,,,,,,,,METAR,15.0
WBKK 302130Z 11004KT 9999 FEW015 26/23 Q1008 NOSIG,WBKK,2023-05-30T21:30:00Z,5.93,116.05,26.0,23.0,110,4,,6.21,29.763779,,,,,,TRUE,,,,,FEW,1500,,,,,,,VFR,,,,,,,,,,,,METAR,9.0
WBGG 302130Z 00000KT 9999 FEW020 24/23 Q1009 NOSIG,WBGG,2023-05-30T21:30:00Z,1.48,110.35,24.0,23.0,0,0,,6.21,29.793306,,,,,,TRUE,,,,,FEW,2000,,,,,,,VFR,,,,,,,,,,,,METAR,26.0
WAYY 302130Z 06007KT 8000 FEW012CB BKN014 25/25 Q1012 NOSIG RMK CB AT E AND SW,WAYY,2023-05-30T21:30:00Z,-4.53,136.88,25.0,25.0,60,7,,4.97,29.88189,,,,,,TRUE,,,,,FEW,1200,BKN,1400,,,,,MVFR,,,,,,,,,,,,METAR,32.0
WATT 302130Z 10006KT 8000 FEW018 25/23 Q1013 NOSIG,WATT,2023-05-30T21:30:00Z,-10.17,123.67,25.0,23.0,100,6,,4.97,29.911417,,,,,,TRUE,,,,,FEW,1800,,,,,,,MVFR,,,,,,,,,,,,METAR,104.0
WAQQ 302130Z 33002KT 8000 SCT015 24/23 Q1010,WAQQ,2023-05-30T21:30:00Z,3.33,117.57,24.0,23.0,330,2,,4.97,29.822834,,,,,,,,,,,SCT,1500,,,,,,,MVFR,,,,,,,,,,,,METAR,6.0
WAPP 302130Z 16009KT 120V200 6000 -RA FEW015CB SCT016 27/25 Q1010 NOSIG RMK CB TO SW AND S,WAPP,2023-05-30T21:30:00Z,-3.7,128.08,27.0,25.0,160,9,,3.73,29.822834,,,,,,TRUE,,,,-RA,FEW,1500,SCT,1600,,,,,MVFR,,,,,,,,,,,,METAR,20.0
WAOO 302130Z AUTO 25002KT 4200 BR SCT060 25/25 Q1009,WAOO,2023-05-30T21:30:00Z,-3.45,114.77,25.0,25.0,250,2,,2.61,29.793306,,,TRUE,,,,,,,BR,SCT,6000,,,,,,,IFR,,,,,,,,,,,,METAR,23.0
WAMM 302130Z VRB01KT 9999 FEW020 23/22 Q1010 NOSIG,WAMM,2023-05-30T21:30:00Z,1.55,124.92,23.0,22.0,0,1,,6.21,29.822834,,,,,,TRUE,,,,,FEW,2000,,,,,,,VFR,,,,,,,,,,,,METAR,86.0
WALL 302130Z 23005KT 9999 SCT020 27/26 Q1009 NOSIG,WALL,2023-05-30T21:30:00Z,-1.27,116.9,27.0,26.0,230,5,,6.21,29.793306,,,,,,TRUE,,,,,SCT,2000,,,,,,,VFR,,,,,,,,,,,,METAR,3.0
WAKK 302130Z 10005KT 9999 FEW018 25/24 Q1012 NOSIG,WAKK,2023-05-30T21:30:00Z,-8.52,140.42,25.0,24.0,100,5,,6.21,29.88189,,,,,,TRUE,,,,,FEW,1800,,,,,,,VFR,,,,,,,,,,,,METAR,5.0
WAJJ 302130Z 00000KT 9999 FEW013 26/23 Q1010 NOSIG,WAJJ,2023-05-30T21:30:00Z,-2.58,140.52,26.0,23.0,0,0,,6.21,29.822834,,,,,,TRUE,,,,,FEW,1300,,,,,,,VFR,,,,,,,,,,,,METAR,93.0
WAHS 302130Z AUTO 19003KT 140V250 8000 FEW050 BKN060 OVC075 26/23 Q1010,WAHS,2023-05-30T21:30:00Z,-6.98,110.38,26.0,23.0,190,3,,4.97,29.822834,,,TRUE,,,,,,,,FEW,5000,BKN,6000,OVC,7500,,,MVFR,,,,,,,,,,,,METAR,3.0
WADL 302130Z 12004KT 6000 FEW016 24/23 Q1013 NOSIG,WADL,2023-05-30T21:30:00Z,-8.75,116.28,24.0,23.0,120,4,,3.73,29.911417,,,,,,TRUE,,,,,FEW,1600,,,,,,,MVFR,,,,,,,,,,,,METAR,97.0
WADD 302130Z 12009KT 7000 -RA FEW014CB BKN015 25/24 Q1012 TEMPO TL2230 7000 -RA,WADD,2023-05-30T21:30:00Z,-8.73,115.17,25.0,24.0,120,9,,4.35,29.88189,,,,,,,,,,-RA,FEW,1400,BKN,1500,,,,,MVFR,,,,,,,,,,,,METAR,3.0
WABB 302130Z VRB02KT 9999 FEW018 26/26 Q1010 NOSIG,WABB,2023-05-30T21:30:00Z,-1.18,136.12,26.0,26.0,0,2,,6.21,29.822834,,,,,,TRUE,,,,,FEW,1800,,,,,,,VFR,,,,,,,,,,,,METAR,12.0
WAAA 302130Z 11003KT 7000 -RA FEW019 24/22 Q1011 NOSIG,WAAA,2023-05-30T21:30:00Z,-5.07,119.55,24.0,22.0,110,3,,4.35,29.852362,,,,,,TRUE,,,,-RA,FEW,1900,,,,,,,MVFR,,,,,,,,,,,,METAR,13.0
VYYY 302130Z 23003KT 6000 SCT020 FEW025CB SCT110 28/25 Q1004,VYYY,2023-05-30T21:30:00Z,16.9,96.13,28.0,25.0,230,3,,3.73,29.64567,,,,,,,,,,,SCT,2000,FEW,2500,SCT,11000,,,MVFR,,,,,,,,,,,,METAR,31.0
VVVD 302130Z AUTO VRB02KT 9999 NCD 27/26 Q1004 NOSIG,VVVD,2023-05-30T21:30:00Z,21.12,107.42,27.0,26.0,0,2,,6.21,29.64567,,,TRUE,,,TRUE,,,,,CLR,,,,,,,,VFR,,,,,,,,,,,,METAR,8.0
VVTS 302130Z 25003KT 9000 SCT023 27/27 Q1007 NOSIG,VVTS,2023-05-30T21:30:00Z,10.82,106.67,27.0,27.0,250,3,,5.59,29.734253,,,,,,TRUE,,,,,SCT,2300,,,,,,,VFR,,,,,,,,,,,,METAR,10.0
VVPQ 302130Z 25008KT 9999 SCT015 27/25 Q1006 NOSIG,VVPQ,2023-05-30T21:30:00Z,10.23,103.97,27.0,25.0,250,8,,6.21,29.704725,,,,,,TRUE,,,,,SCT,1500,,,,,,,VFR,,,,,,,,,,,,METAR,8.0
VVPB 302130Z 27001KT 9999 FEW015 27/26 Q1005 NOSIG,VVPB,2023-05-30T21:30:00Z,16.38,107.7,27.0,26.0,270,1,,6.21,29.675198,,,,,,TRUE,,,,,FEW,1500,,,,,,,VFR,,,,,,,,,,,,METAR,15.0
VVNB 302130Z 07005KT 6000 NSC 27/25 Q1003 NOSIG,VVNB,2023-05-30T21:30:00Z,21.22,105.8,27.0,25.0,70,5,,3.73,29.616142,,,,,,TRUE,,,,,CLR,,,,,,,,MVFR,,,,,,,,,,,,METAR,6.0
VVDN 302130Z 23002KT 9999 FEW015 26/25 Q1004 NOSIG,VVDN,2023-05-30T21:30:00Z,16.03,108.2,26.0,25.0,230,2,,6.21,29.64567,,,,,,TRUE,,,,,FEW,1500,,,,,,,VFR,,,,,,,,,,,,METAR,7.0
VVCT 302130Z 22005KT 9999 FEW015 SCT040 25/25 Q1006 NOSIG,VVCT,2023-05-30T21:30:00Z,10.08,105.72,25.0,25.0,220,5,,6.21,29.704725,,,,,,TRUE,,,,,FEW,1500,SCT,4000,,,,,VFR,,,,,,,,,,,,METAR,6.0
VVCR 302130Z 00000KT CAVOK 27/25 Q1006 NOSIG,VVCR,2023-05-30T21:30:00Z,12.0,109.22,27.0,25.0,0,0,,6.21,29.704725,,,,,,TRUE,,,,,CAVOK,,,,,,,,VFR,,,,,,,,,,,,METAR,12.0
VVCI 302130Z 31003KT CAVOK 28/25 Q1003 NOSIG,VVCI,2023-05-30T21:30:00Z,20.82,106.73,28.0,25.0,310,3,,6.21,29.616142,,,,,,TRUE,,,,,CAVOK,,,,,,,,VFR,,,,,,,,,,,,METAR,6.0
VTSS 302130Z VRB02KT 9999 FEW020 BKN100 26/25 Q1008 NOSIG,VTSS,2023-05-30T21:30:00Z,6.92,100.38,26.0,25.0,0,2,,6.21,29.763779,,,,,,TRUE,,,,,FEW,2000,BKN,10000,,,,,VFR,,,,,,,,,,,,METAR,28.0
VTSP 302130Z 30009KT 9999 FEW020 26/25 Q1007 NOSIG,VTSP,2023-05-30T21:30:00Z,8.12,98.32,26.0,25.0,300,9,,6.21,29.734253,,,,,,TRUE,,,,,FEW,2000,,,,,,,VFR,,,,,,,,,,,,METAR,12.0
VTCC 302130Z 00000KT 9999 FEW035 25/24 Q1006 NOSIG,VTCC,2023-05-30T21:30:00Z,18.77,98.97,25.0,24.0,0,0,,6.21,29.704725,,,,,,TRUE,,,,,FEW,3500,,,,,,,VFR,,,,,,,,,,,,METAR,308.0
VTBU 302130Z 24004KT 8000 FEW020 29/25 Q1006 NOSIG,VTBU,2023-05-30T21:30:00Z,12.68,101.0,29.0,25.0,240,4,,4.97,29.704725,,,,,,TRUE,,,,,FEW,2000,,,,,,,MVFR,,,,,,,,,,,,METAR,12.0
VTBS 302130Z 09003KT 7000 FEW020 28/25 Q1005 NOSIG,VTBS,2023-05-30T21:30:00Z,13.68,100.75,28.0,25.0,90,3,,4.35,29.675198,,,,,,TRUE,,,,,FEW,2000,,,,,,,MVFR,,,,,,,,,,,,METAR,1.0
VTBD 302130Z 00000KT 8000 FEW020 27/26 Q1005 NOSIG,VTBD,2023-05-30T21:30:00Z,13.92,100.6,27.0,26.0,0,0,,4.97,29.675198,,,,,,TRUE,,,,,FEW,2000,,,,,,,MVFR,,,,,,,,,,,,METAR,6.0
VOTV 302130Z 04003KT 3000 BR FEW015 FEW025CB SCT080 30/25 Q1008 NOSIG,VOTV,2023-05-30T21:30:00Z,8.48,76.92,30.0,25.0,40,3,,1.86,29.763779,,,,,,TRUE,,,,BR,FEW,1500,FEW,2500,SCT,8000,,,IFR,,,,,,,,,,,,METAR,9.0
VOTR 302130Z VRB01KT 4000 BR FEW016 SCT080 25/23 Q1008 NOSIG,VOTR,2023-05-30T21:30:00Z,10.77,78.72,25.0,23.0,0,1,,2.49,29.763779,,,,,,TRUE,,,,BR,FEW,1600,SCT,8000,,,,,IFR,,,,,,,,,,,,METAR,90.0
VOMM 302130Z 20003KT 5000 BR FEW020 28/25 Q1007 NOSIG,VOMM,2023-05-30T21:30:00Z,13.0,80.17,28.0,25.0,200,3,,3.11,29.734253,,,,,,TRUE,,,,BR,FEW,2000,,,,,,,MVFR,,,,,,,,,,,,METAR,7.0
VOML 302130Z 00000KT 6000 FEW015 28/24 Q1008 NOSIG,VOML,2023-05-30T21:30:00Z,12.97,74.88,28.0,24.0,0,0,,3.73,29.763779,,,,,,TRUE,,,,,FEW,1500,,,,,,,MVFR,,,,,,,,,,,,METAR,100.0
VOKN 302130Z 31004KT 2500 -TSRA SCT012 FEW025CB BKN080 24/23 Q1009 NOSIG,VOKN,2023-05-30T21:30:00Z,11.92,75.55,24.0,23.0,310,4,,1.55,29.793306,,,,,,TRUE,,,,-TSRA,SCT,1200,FEW,2500,BKN,8000,,,IFR,,,,,,,,,,,,METAR,105.0
VOHS 302130Z VRB04KT 5000 HZ FEW015 SCT100 24/20 Q1011 NOSIG,VOHS,2023-05-30T21:30:00Z,17.23,78.43,24.0,20.0,0,4,,3.11,29.852362,,,,,,TRUE,,,,HZ,FEW,1500,SCT,10000,,,,,MVFR,,,,,,,,,,,,METAR,607.0
VOGA 302130Z 10003KT 5000 HZ NSC 26/21 Q1009 NOSIG,VOGA,2023-05-30T21:30:00Z,,,26.0,21.0,100,3,,3.11,29.793306,,,,,,TRUE,,,,HZ,CLR,,,,,,,,MVFR,,,,,,,,,,,,METAR,
VOCL 302130Z 10004KT 6000 FEW015 SCT080 FEW025CB 25/23 Q1008 NOSIG,VOCL,2023-05-30T21:30:00Z,11.13,75.95,25.0,23.0,100,4,,3.73,29.763779,,,,,,TRUE,,,,,FEW,1500,SCT,8000,FEW,2500,,,MVFR,,,,,,,,,,,,METAR,104.0
VOCI 302130Z 10004KT 3500 BR SCT012 SCT080 26/25 Q1008 NOSIG,VOCI,2023-05-30T21:30:00Z,10.15,76.4,26.0,25.0,100,4,,2.17,29.763779,,,,,,TRUE,,,,BR,SCT,1200,SCT,8000,,,,,IFR,,,,,,,,,,,,METAR,8.0
VOBL 302130Z 29005KT 6000 SCT012 BKN080 21/19 Q1013 NOSIG,VOBL,2023-05-30T21:30:00Z,13.2,77.7,21.0,19.0,290,5,,3.73,29.911417,,,,,,TRUE,,,,,SCT,1200,BKN,8000,,,,,MVFR,,,,,,,,,,,,METAR,908.0
VMMC 302130Z 29005KT CAVOK 31/26 Q1001 NOSIG,VMMC,2023-05-30T21:30:00Z,22.15,113.58,31.0,26.0,290,5,,6.21,29.557087,,,,,,TRUE,,,,,CAVOK,,,,,,,,VFR,,,,,,,,,,,,METAR,1.0
VIJP 302130Z 29005KT 4000 HZ SCT030 SCT100 24/19 Q1009 NOSIG,VIJP,2023-05-30T21:30:00Z,26.82,75.8,24.0,19.0,290,5,,2.49,29.793306,,,,,,TRUE,,,,HZ,SCT,3000,SCT,10000,,,,,IFR,,,,,,,,,,,,METAR,383.0
VIDP 302130Z 26004KT 1200 R28/2000 R29L/2000 BR SCT035 FEW040CB BKN100 23/22 Q1006 NOSIG,VIDP,2023-05-30T21:30:00Z,28.57,77.12,23.0,22.0,260,4,,0.75,29.704725,,,,,,TRUE,,,,BR,SCT,3500,FEW,4000,BKN,10000,,,LIFR,,,,,,,,,,,,METAR,236.0
VIAR 302130Z 14010KT 3000 -TSRA SCT030 FEW035CB BKN090 24/21 Q1007 NOSIG,VIAR,2023-05-30T21:30:00Z,31.7,74.8,24.0,21.0,140,10,,1.86,29.734253,,,,,,TRUE,,,,-TSRA,SCT,3000,FEW,3500,BKN,9000,,,IFR,,,,,,,,,,,,METAR,226.0
VHHH 302130Z 22005KT CAVOK 32/26 Q1002 NOSIG,VHHH,2023-05-30T21:30:00Z,22.32,113.92,32.0,26.0,220,5,,6.21,29.586615,,,,,,TRUE,,,,,CAVOK,,,,,,,,VFR,,,,,,,,,,,,METAR,9.0
VEPT 302130Z 00000KT 3000 BR FEW100 32/27 Q1004 NOSIG,VEPT,2023-05-30T21:30:00Z,25.6,85.08,32.0,27.0,0,0,,1.86,29.64567,,,,,,TRUE,,,,BR,FEW,10000,,,,,,,IFR,,,,,,,,,,,,METAR,53.0
VEGT 302130Z 00000KT 3000 BR FEW018 SCT100 27/26 Q1005 NOSIG,VEGT,2023-05-30T21:30:00Z,26.1,91.58,27.0,26.0,0,0,,1.86,29.675198,,,,,,TRUE,,,,BR,FEW,1800,SCT,10000,,,,,IFR,,,,,,,,,,,,METAR,50.0
VECC 302130Z 19007KT 3500 HZ FEW100 30/28 Q1004 NOSIG,VECC,2023-05-30T21:30:00Z,22.65,88.43,30.0,28.0,190,7,,2.17,29.64567,,,,,,TRUE,,,,HZ,FEW,10000,,,,,,,IFR,,,,,,,,,,,,METAR,11.0
VEBS 302130Z 00000KT 3000 HZ FEW018 SCT100 26/26 Q1006 NOSIG,VEBS,2023-05-30T21:30:00Z,20.25,85.82,26.0,26.0,0,0,,1.86,29.704725,,,,,,TRUE,,,,HZ,FEW,1800,SCT,10000,,,,,IFR,,,,,,,,,,,,METAR,42.0
VDSV 302130Z VRB01KT 9000 SCT015 FEW017CB SCT040 27/26 Q1006 RMK CB:NE,VDSV,2023-05-30T21:30:00Z,10.58,103.63,27.0,26.0,0,1,,5.59,29.704725,,,,,,,,,,,SCT,1500,FEW,1700,SCT,4000,,,VFR,,,,,,,,,,,,METAR,1.0
VDPP 302130Z 18004KT 9999 SCT015 SCT040 27/25 Q1005,VDPP,2023-05-30T21:30:00Z,11.55,104.83,27.0,25.0,180,4,,6.21,29.675198,,,,,,,,,,,SCT,1500,SCT,4000,,,,,VFR,,,,,,,,,,,,METAR,10.0
VANP 302130Z 35002KT 3000 HZ FEW020 SCT100 30/20 Q1009 NOSIG,VANP,2023-05-30T21:30:00Z,21.08,79.05,30.0,20.0,350,2,,1.86,29.793306,,,,,,TRUE,,,,HZ,FEW,2000,SCT,10000,,,,,IFR,,,,,,,,,,,,METAR,309.0
VABB 302130Z 33005KT 3500 BR FEW020 30/27 Q1008 NOSIG,VABB,2023-05-30T21:30:00Z,19.1,72.87,30.0,27.0,330,5,,2.17,29.763779,,,,,,TRUE,,,,BR,FEW,2000,,,,,,,IFR,,,,,,,,,,,,METAR,14.0
VAAH 302130Z VRB02KT 4000 FU BKN060 29/16 Q1007 TEMPO 3000 -RA,VAAH,2023-05-30T21:30:00Z,23.07,72.63,29.0,16.0,0,2,,2.49,29.734253,,,,,,,,,,FU,BKN,6000,,,,,,,IFR,,,,,,,,,,,,METAR,52.0
UWWW 302130Z 10003MPS 9999 -RA FEW033 20/14 Q1012 R15/CLRD60 NOSIG RMK QFE748/0997,UWWW,2023-05-30T21:30:00Z,53.5,50.17,20.0,14.0,100,6,,6.21,29.88189,,,,,,TRUE,,,,-RA,FEW,3300,,,,,,,VFR,,,,,,,,,,,,SPECI,124.0
UWUU 302130Z 13002MPS 9999 SCT040 18/14 Q1016 R14R/0///60 NOSIG,UWUU,2023-05-30T21:30:00Z,54.57,55.87,18.0,14.0,130,4,,6.21,30.0,,,,,,TRUE,,,,,SCT,4000,,,,,,,VFR,,,,,,,,,,,,SPECI,137.0
UWSG 302130Z 27002MPS 230V340 9999 SCT050CB 19/14 Q1007 R08/CLRD70 NOSIG RMK QFE753/1004,UWSG,2023-05-30T21:30:00Z,51.72,46.17,19.0,14.0,270,4,,6.21,29.734253,,,,,,TRUE,,,,,SCT,5000,,,,,,,VFR,,,,,,,,,,,,METAR,31.0
UWPS 302130Z 34005MPS 9999 BKN026CB 15/14 Q1009 R02/CLRD60 TEMPO -TSRA RMK QFE738,UWPS,2023-05-30T21:30:00Z,54.12,45.2,15.0,14.0,340,10,,6.21,29.793306,,,,,,,,,,,BKN,2600,,,,,,,MVFR,,,,,,,,,,,,METAR,206.0
UWOO 302130Z 09003MPS CAVOK 19/07 Q1016 R26/CLRD60 NOSIG RMK QFE752/1002,UWOO,2023-05-30T21:30:00Z,51.8,55.47,19.0,7.0,90,6,,6.21,30.0,,,,,,TRUE,,,,,CAVOK,,,,,,,,VFR,,,,,,,,,,,,SPECI,90.0
UWLL 302130Z VRB01MPS 9999 BKN040CB 19/16 Q1010 R20/290250 NOSIG RMK QFE747/0997,UWLL,2023-05-30T21:30:00Z,54.27,48.23,19.0,16.0,0,2,,6.21,29.822834,,,,,,TRUE,,,,,BKN,4000,,,,,,,VFR,,,,,,,,,,,,METAR,119.0
UWKS 302130Z 35003MPS 9999 SCT040CB 16/13 Q1011 R24/010060 TEMPO -TSRA RMK QFE744,UWKS,2023-05-30T21:30:00Z,56.08,47.35,16.0,13.0,350,6,,6.21,29.852362,,,,,,,,,,,SCT,4000,,,,,,,VFR,,,,,,,,,,,,METAR,165.0
UWKE 302130Z 18006MPS 9999 SCT050CB 22/09 Q1013 R21/090070 NOSIG RMK QFE743/0991,UWKE,2023-05-30T21:30:00Z,55.57,52.08,22.0,9.0,180,12,,6.21,29.911417,,,,,,TRUE,,,,,SCT,5000,,,,,,,VFR,,,,,,,,,,,,SPECI,193.0
UWKD 302130Z 17003MPS 9999 SCT050CB 18/14 Q1011 R11/290050 NOSIG RMK QFE748/0997,UWKD,2023-05-30T21:30:00Z,55.62,49.28,18.0,14.0,170,6,,6.21,29.852362,,,,,,TRUE,,,,,SCT,5000,,,,,,,VFR,,,,,,,,,,,,SPECI,114.0
UWGG 302130Z 31001MPS 9999 SCT033 14/14 Q1012 R36R/290050 NOSIG,UWGG,2023-05-30T21:30:00Z,56.23,43.78,14.0,14.0,310,2,,6.21,29.88189,,,,,,TRUE,,,,,SCT,3300,,,,,,,VFR,,,,,,,,,,,,METAR,73.0
UUYY 302130Z 03002MPS CAVOK 12/10 Q1014 R36/CLRD61 NOSIG RMK QFE751/1002,UUYY,2023-05-30T21:30:00Z,61.65,50.83,12.0,10.0,30,4,,6.21,29.940945,,,,,,TRUE,,,,,CAVOK,,,,,,,,VFR,,,,,,,,,,,,METAR,107.0
UUWW 302130Z 32003MPS 300V110 CAVOK 12/07 Q1013 R24/000070 NOSIG,UUWW,2023-05-30T21:30:00Z,55.6,37.27,12.0,7.0,320,6,,6.21,29.911417,,,,,,TRUE,,,,,CAVOK,,,,,,,,VFR,,,,,,,,,,,,SPECI,195.0
UUOO 302130Z 32003MPS CAVOK 14/12 Q1012 R30/010070 NOSIG RMK QFE745,UUOO,2023-05-30T21:30:00Z,51.82,39.23,14.0,12.0,320,6,,6.21,29.88189,,,,,,TRUE,,,,,CAVOK,,,,,,,,VFR,,,,,,,,,,,,METAR,154.0
UUOL 302130Z 32003MPS CAVOK 12/12 Q1012 R33/090060 NOSIG,UUOL,2023-05-30T21:30:00Z,52.7,39.53,12.0,12.0,320,6,,6.21,29.88189,,,,,,TRUE,,,,,CAVOK,,,,,,,,VFR,,,,,,,,,,,,METAR,176.0
UUOK 302130Z AUTO 14001MPS 9999 // 10/09 Q1014 RMK QFE742/0990,UUOK,2023-05-30T21:30:00Z,51.75,36.28,10.0,9.0,140,2,,6.21,29.940945,,,TRUE,,,,,,,,,,,,,,,,,,,,,,,,,,,,METAR,203.0
UUOB 302130Z 01002MPS CAVOK 13/08 Q1013 R11/010070 NOSIG,UUOB,2023-05-30T21:30:00Z,50.65,36.58,13.0,8.0,10,4,,6.21,29.911417,,,,,,TRUE,,,,,CAVOK,,,,,,,,VFR,,,,,,,,,,,,METAR,218.0
UUMO 302130Z 29002MPS CAVOK 09/07 Q1013 R25/CLRD60 NOSIG RMK QFE744/0992,UUMO,2023-05-30T21:30:00Z,55.52,37.5,9.0,7.0,290,4,,6.21,29.911417,,,,,,TRUE,,,,,CAVOK,,,,,,,,VFR,,,,,,,,,,,,METAR,167.0
UUEE 302130Z 35005MPS 310V020 CAVOK 13/08 Q1013 R24L/CLRD62 R24C/CLRD62 NOSIG,UUEE,2023-05-30T21:30:00Z,55.97,37.42,13.0,8.0,350,10,,6.21,29.911417,,,,,,TRUE,,,,,CAVOK,,,,,,,,VFR,,,,,,,,,,,,METAR,186.0
UUDL 302130Z 00000MPS CAVOK 09/07 Q1012 R23/010060 NOSIG RMK QFE751,UUDL,2023-05-30T21:30:00Z,57.57,40.17,9.0,7.0,0,0,,6.21,29.88189,,,,,,TRUE,,,,,CAVOK,,,,,,,,VFR,,,,,,,,,,,,METAR,88.0
UUDD 302130Z 21001MPS CAVOK 13/06 Q1012 R14R/CLRD60 NOSIG,UUDD,2023-05-30T21:30:00Z,55.4,37.9,13.0,6.0,210,2,,6.21,29.88189,,,,,,TRUE,,,,,CAVOK,,,,,,,,VFR,,,,,,,,,,,,SPECI,165.0
UUBW 302130Z 22002MPS CAVOK 13/08 Q1012 R30/010060 NOSIG RMK QFE749,UUBW,2023-05-30T21:30:00Z,55.55,38.15,13.0,8.0,220,4,,6.21,29.88189,,,,,,TRUE,,,,,CAVOK,,,,,,,,VFR,,,,,,,,,,,,METAR,111.0
UUBP 302130Z AUTO 29001MPS 9999 NCD 14/06 Q1014 NOSIG RMK QFE742/0990,UUBP,2023-05-30T21:30:00Z,53.22,34.18,14.0,6.0,290,2,,6.21,29.940945,,,TRUE,,,TRUE,,,,,CLR,,,,,,,,VFR,,,,,,,,,,,,METAR,197.0
UUBC 302130Z 29002MPS 270V330 CAVOK 08/08 Q1013 R31/CLRD60 NOSIG RMK QFE743/0991,UUBC,2023-05-30T21:30:00Z,54.55,36.37,8.0,8.0,290,4,,6.21,29.911417,,,,,,TRUE,,,,,CAVOK,,,,,,,,VFR,,,,,,,,,,,,METAR,198.0
UTTT 302130Z 08008KT CAVOK 20/06 Q1009 R08R/CLRD70 NOSIG,UTTT,2023-05-30T21:30:00Z,41.27,69.27,20.0,6.0,80,8,,6.21,29.793306,,,,,,TRUE,,,,,CAVOK,,,,,,,,VFR,,,,,,,,,,,,SPECI,429.0
UTST 302130Z 03002KT CAVOK 22/07 Q1007 R25/CLRD70 NOSIG,UTST,2023-05-30T21:30:00Z,37.28,67.32,22.0,7.0,30,2,,6.21,29.734253,,,,,,TRUE,,,,,CAVOK,,,,,,,,VFR,,,,,,,,,,,,SPECI,311.0
UTSS 302130Z 15006KT 110V170 9999 NSC 20/07 Q1010 R09/70D NOSIG,UTSS,2023-05-30T21:30:00Z,39.7,66.98,20.0,7.0,150,6,,6.21,29.822834,,,,,,TRUE,,,,,CLR,,,,,,,,VFR,,,,,,,,,,,,METAR,665.0
UTSK 302130Z 07006KT CAVOK 24/06 Q1008 R16/CLRD70,UTSK,2023-05-30T21:30:00Z,38.8,65.77,24.0,6.0,70,6,,6.21,29.763779,,,,,,,,,,,CAVOK,,,,,,,,VFR,,,,,,,,,,,,SPECI,399.0
UTSB 302130Z 35006KT CAVOK 21/04 Q1008 R01/CLRD70 NOSIG,UTSB,2023-05-30T21:30:00Z,39.77,64.48,21.0,4.0,350,6,,6.21,29.763779,,,,,,TRUE,,,,,CAVOK,,,,,,,,VFR,,,,,,,,,,,,SPECI,225.0
UTSA 302130Z 14006KT 9999 NSC 20/M01 Q1009 R07/CLRD70 NOSIG,UTSA,2023-05-30T21:30:00Z,40.12,65.17,20.0,-1.0,140,6,,6.21,29.793306,,,,,,TRUE,,,,,CLR,,,,,,,,VFR,,,,,,,,,,,,SPECI,346.0
UTNU 302130Z 04006KT CAVOK 19/01 Q1011 R31/CLRD70 NOSIG,UTNU,2023-05-30T21:30:00Z,41.58,60.63,19.0,1.0,40,6,,6.21,29.852362,,,,,,TRUE,,,,,CAVOK,,,,,,,,VFR,,,,,,,,,,,,SPECI,97.0
UTNN 302130Z 02004KT CAVOK 21/M01 Q1012 R33/CLRD60 NOSIG,UTNN,2023-05-30T21:30:00Z,42.48,59.63,21.0,-1.0,20,4,,6.21,29.88189,,,,,,TRUE,,,,,CAVOK,,,,,,,,VFR,,,,,,,,,,,,SPECI,76.0
UTFF 302130Z 00000KT 9999 NSC 21/05 Q1010 R18/CLRD70,UTFF,2023-05-30T21:30:00Z,40.37,71.73,21.0,5.0,0,0,,6.21,29.822834,,,,,,,,,,,CLR,,,,,,,,VFR,,,,,,,,,,,,METAR,612.0
UTDT 302130Z 07003MPS 9999 FEW120 20/09 Q1006 R35/CLRD70 RMK QFE716/0954,UTDT,2023-05-30T21:30:00Z,37.87,68.87,20.0,9.0,70,6,,6.21,29.704725,,,,,,,,,,,FEW,12000,,,,,,,VFR,,,,,,,,,,,,METAR,443.0
UTDL 302130Z 25004MPS 9999 NSC 22/05 Q1009 R26/CLRD70 NOSIG RMK QFE719/0959,UTDL,2023-05-30T21:30:00Z,40.22,69.7,22.0,5.0,250,8,,6.21,29.793306,,,,,,TRUE,,,,,CLR,,,,,,,,VFR,,,,,,,,,,,,SPECI,436.0
UTDK 302130Z 02006MPS 9999 NSC 23/07 Q1009 R01/09//70 RMK QFE700/0933,UTDK,2023-05-30T21:30:00Z,37.98,69.8,23.0,7.0,20,12,,6.21,29.793306,,,,,,,,,,,CLR,,,,,,,,VFR,,,,,,,,,,,,METAR,675.0
UTDD 302130Z 08002MPS 9999 NSC 19/06 Q1011 R09/D NOSIG RMK QFE690/0920,UTDD,2023-05-30T21:30:00Z,38.53,68.82,19.0,6.0,80,4,,6.21,29.852362,,,,,,TRUE,,,,,CLR,,,,,,,,VFR,,,,,,,,,,,,METAR,785.0
USTR 302130Z 24001MPS CAVOK 12/07 Q1021 R21/090065 R30/090065 NOSIG,USTR,2023-05-30T21:30:00Z,57.18,65.32,12.0,7.0,240,2,,6.21,30.147638,,,,,,TRUE,,,,,CAVOK,,,,,,,,VFR,,,,,,,,,,,,SPECI,93.0
USSS 302130Z VRB01MPS CAVOK 16/09 Q1020 R08R/010060 NOSIG RMK QFE745/0994,USSS,2023-05-30T21:30:00Z,56.75,60.78,16.0,9.0,0,2,,6.21,30.11811,,,,,,TRUE,,,,,CAVOK,,,,,,,,VFR,,,,,,,,,,,,SPECI,222.0
USRR 302130Z 28003MPS CAVOK 11/09 Q1017 R25/290055 NOSIG RMK QFE758,USRR,2023-05-30T21:30:00Z,61.33,73.42,11.0,9.0,280,6,,6.21,30.029528,,,,,,TRUE,,,,,CAVOK,,,,,,,,VFR,,,,,,,,,,,,SPECI,52.0
USPP 302130Z 12004MPS CAVOK 18/11 Q1016 R21/090060 TEMPO 1000 SHRA BKN011CB RMK QFE751,USPP,2023-05-30T21:30:00Z,57.92,56.02,18.0,11.0,120,8,,6.21,30.0,,,,,,,,,,,CAVOK,,,,,,,,VFR,,,,,,,,,,,,SPECI,120.0
USNN 302130Z 20003MPS 9999 FEW030CB 15/09 Q1017 R21/0///65 TEMPO 2000 TSRA RMK QFE758,USNN,2023-05-30T21:30:00Z,60.95,76.48,15.0,9.0,200,6,,6.21,30.029528,,,,,,,,,,,FEW,3000,,,,,,,VFR,,,,,,,,,,,,SPECI,52.0
USHH 302130Z 27001MPS CAVOK 12/08 Q1020 R06/010060 NOSIG,USHH,2023-05-30T21:30:00Z,61.03,69.08,12.0,8.0,270,2,,6.21,30.11811,,,,,,TRUE,,,,,CAVOK,,,,,,,,VFR,,,,,,,,,,,,METAR,46.0
USDA 302130Z AUTO 27008MPS 6000 ///002/// 01/01 Q1010 RMK QFE756/1008,USDA,2023-05-30T21:30:00Z,71.2,72.05,1.0,1.0,270,16,,3.73,29.822834,,,TRUE,,,,,,,,,,,,,,,,,,,,,,,,,,,,METAR,5.0
USCM 302130Z 14003MPS 4000 HZ SCT040 18/07 Q1020 R36/090060 NOSIG RMK QFE727,USCM,2023-05-30T21:30:00Z,53.4,58.75,18.0,7.0,140,6,,2.49,30.11811,,,,,,TRUE,,,,HZ,SCT,4000,,,,,,,IFR,,,,,,,,,,,,METAR,425.0
USCC 302130Z 00000MPS CAVOK 18/10 Q1020 R09/000060 NOSIG RMK QFE744,USCC,2023-05-30T21:30:00Z,55.3,61.5,18.0,10.0,0,0,,6.21,30.11811,,,,,,TRUE,,,,,CAVOK,,,,,,,,VFR,,,,,,,,,,,,SPECI,227.0
URWW 302130Z 27003MPS CAVOK 20/17 Q1008 R23/010070 TEMPO 1500 TSRAGR BKN004 BKN030CB,URWW,2023-05-30T21:30:00Z,48.78,44.33,20.0,17.0,270,6,,6.21,29.763779,,,,,,,,,,,CAVOK,,,,,,,,VFR,,,,,,,,,,,,SPECI,131.0
URWI 302130Z AUTO 28007MPS 9999 // NSC 18/17 Q1011,URWI,2023-05-30T21:30:00Z,46.37,44.33,18.0,17.0,280,14,,6.21,29.852362,,,TRUE,,,,,,,,CLR,,,,,,,,VFR,,,,,,,,,,,,SPECI,145.0
URWA 302130Z 14003MPS 120V200 CAVOK 21/20 Q1008 R27/010070 NOSIG RMK QFE758/1011,URWA,2023-05-30T21:30:00Z,46.28,47.98,21.0,20.0,140,6,,6.21,29.763779,,,,,,TRUE,,,,,CAVOK,,,,,,,,VFR,,,,,,,,,,,,SPECI,-19.0
URSS 302130Z 04003MPS 9999 NSC 16/15 Q1011 R02/010070 R06/010070 NOSIG RMK R06/34001MPS QFE757,URSS,2023-05-30T21:30:00Z,43.45,39.92,16.0,15.0,40,6,,6.21,29.852362,,,,,,TRUE,,,,,CLR,,,,,,,,VFR,,,,,,,,,,,,SPECI,4.0
URRP 302130Z 25002MPS 2500 -SHRA BR FEW/// SCT026CB 18/18 Q1012 R23/290053 TEMPO VRB07G15MPS -TSRAGR BKN002 BKN020CB RMK QFE751/1001,URRP,2023-05-30T21:30:00Z,47.5,39.92,18.0,18.0,250,4,,1.55,29.88189,,,,,,,,,,-SHRA BR,SCT,2600,,,,,,,IFR,,,,,,,,,,,,METAR,73.0
URMT 302130Z 33003MPS CAVOK 15/14 Q1014 R25/120060 NOSIG RMK QFE722,URMT,2023-05-30T21:30:00Z,45.12,42.12,15.0,14.0,330,6,,6.21,29.940945,,,,,,TRUE,,,,,CAVOK,,,,,,,,VFR,,,,,,,,,,,,SPECI,448.0
URMO 302130Z AUTO 14002MPS 090V170 9999 // ///////// 16/14 Q1013 RMK QFE715/0954,URMO,2023-05-30T21:30:00Z,43.2,44.6,16.0,14.0,140,4,,6.21,29.911417,,,TRUE,,,,,,,,,,,,,,,,,,,,,,,,,,,,METAR,505.0
URMM 302130Z 28002MPS 9999 NSC 14/14 Q1013 R12/090070 TEMPO 0300 FG BKN002 RMK QFE732/0976,URMM,2023-05-30T21:30:00Z,44.22,43.07,14.0,14.0,280,4,,6.21,29.911417,,,,,,,,,,,CLR,,,,,,,,VFR,,,,,,,,,,,,METAR,318.0
URML 302130Z 27005MPS 9999 NSC 26/17 Q1009 R32/01//70 NOSIG RMK QFE756/1009,URML,2023-05-30T21:30:00Z,42.82,47.65,26.0,17.0,270,10,,6.21,29.793306,,,,,,TRUE,,,,,CLR,,,,,,,,VFR,,,,,,,,,,,,SPECI,4.0
URMG 302130Z 31003MPS 270V340 CAVOK 22/14 Q1011 R26/090070 NOSIG RMK QFE744/0992,URMG,2023-05-30T21:30:00Z,43.38,45.7,22.0,14.0,310,6,,6.21,29.852362,,,,,,TRUE,,,,,CAVOK,,,,,,,,VFR,,,,,,,,,,,,METAR,160.0
URKK 302130Z 12002MPS 7000 NSC 16/16 Q1012 R23L/290060 TEMPO 0200 FG SCT001 RMK QFE756,URKK,2023-05-30T21:30:00Z,45.03,39.15,16.0,16.0,120,4,,4.35,29.88189,,,,,,,,,,,CLR,,,,,,,,MVFR,,,,,,,,,,,,SPECI,29.0
URKA 302130Z 15003MPS 9999 BKN/// 15/15 Q1011 R22/010070 TEMPO 0200 FG SCT001 BKN020CB RMK QFE754/1005,URKA,2023-05-30T21:30:00Z,45.0,37.35,15.0,15.0,150,6,,6.21,29.852362,,,,,,,,,,,,,,,,,,,,,,,,,,,,,,,METAR,41.0
UOOO 302130Z 16008MPS CAVOK 05/M00 Q1017 R19/CLRD60 NOSIG RMK QFE747/0996,UOOO,2023-05-30T21:30:00Z,69.32,87.33,5.0,0.0,160,16,,6.21,30.029528,,,,,,TRUE,,,,,CAVOK,,,,,,,,VFR,,,,,,,,,,,,SPECI,177.0
UNWW 302130Z 32004MPS 9999 -SHRA BKN030CB 10/07 Q1019 R19/290250 NOSIG RMK QFE737,UNWW,2023-05-30T21:30:00Z,53.82,86.88,10.0,7.0,320,8,,6.21,30.088583,,,,,,TRUE,,,,-SHRA,BKN,3000,,,,,,,MVFR,,,,,,,,,,,,SPECI,307.0
UNTT 302130Z 24002MPS CAVOK 07/04 Q1019 R03/////// NOSIG RMK QFE748,UNTT,2023-05-30T21:30:00Z,56.38,85.22,7.0,4.0,240,4,,6.21,30.088583,,,,,,TRUE,,,,,CAVOK,,,,,,,,VFR,,,,,,,,,,,,METAR,179.0
UNOO 302130Z 12004MPS 9999 SCT033CB 14/10 Q1020 R07/290155 NOSIG RMK QFE756,UNOO,2023-05-30T21:30:00Z,54.97,73.32,14.0,10.0,120,8,,6.21,30.11811,,,,,,TRUE,,,,,SCT,3300,,,,,,,VFR,,,,,,,,,,,,SPECI,85.0
UNNT 302130Z 27003MPS CAVOK 06/M00 Q1020 R25/090070 R34/090070 NOSIG RMK QFE755/1007,UNNT,2023-05-30T21:30:00Z,55.02,82.65,6.0,0.0,270,6,,6.21,30.11811,,,,,,TRUE,,,,,CAVOK,,,,,,,,VFR,,,,,,,,,,,,SPECI,106.0
UNKL 302130Z 28002MPS 8000 NSC 09/09 Q1018 R29/290150 NOSIG RMK QFE738,UNKL,2023-05-30T21:30:00Z,56.17,92.48,9.0,9.0,280,4,,4.97,30.059055,,,,,,TRUE,,,,,CLR,,,,,,,,MVFR,,,,,,,,,,,,SPECI,278.0
UNEE 302130Z 30005MPS CAVOK 12/05 Q1019 R23/CLRD60 NOSIG RMK QFE741,UNEE,2023-05-30T21:30:00Z,55.27,86.1,12.0,5.0,300,10,,6.21,30.088583,,,,,,TRUE,,,,,CAVOK,,,,,,,,VFR,,,,,,,,,,,,SPECI,261.0
UNBB 302130Z 20002MPS CAVOK 11/05 Q1020 R06/CLRD66 NOSIG RMK QFE742,UNBB,2023-05-30T21:30:00Z,53.37,83.53,11.0,5.0,200,4,,6.21,30.11811,,,,,,TRUE,,,,,CAVOK,,,,,,,,VFR,,,,,,,,,,,,SPECI,249.0
UNAA 302130Z 15001MPS 4800 BR FEW013 09/09 Q1017 R02/290154 NOSIG RMK QFE740,UNAA,2023-05-30T21:30:00Z,53.75,91.4,9.0,9.0,150,2,,2.98,30.029528,,,,,,TRUE,,,,BR,FEW,1300,,,,,,,IFR,,,,,,,,,,,,SPECI,249.0
UMMS 302130Z 04002MPS 360V080 CAVOK 12/08 Q1020 NOSIG,UMMS,2023-05-30T21:30:00Z,53.88,28.03,12.0,8.0,40,4,,6.21,30.11811,,,,,,TRUE,,,,,CAVOK,,,,,,,,VFR,,,,,,,,,,,,METAR,196.0
UMKK 302130Z 33003MPS CAVOK 10/06 Q1024 R24/CLRD95 NOSIG RMK QFE767/1023,UMKK,2023-05-30T21:30:00Z,54.88,20.57,10.0,6.0,330,6,,6.21,30.236221,,,,,,TRUE,,,,,CAVOK,,,,,,,,VFR,,,,,,,,,,,,METAR,6.0
UMIO 302130Z 36002MPS 320V030 CAVOK 09/05 Q1019 NOSIG RMK QFE746/0995,UMIO,2023-05-30T21:30:00Z,54.43,30.3,9.0,5.0,360,4,,6.21,30.088583,,,,,,TRUE,,,,,CAVOK,,,,,,,,VFR,,,,,,,,,,,,METAR,189.0
ULMM 302130Z 16004MPS CAVOK 07/01 Q1004 R13/090070 NOSIG RMK QFE746,ULMM,2023-05-30T21:30:00Z,68.78,32.75,7.0,1.0,160,8,,6.21,29.64567,,,,,,TRUE,,,,,CAVOK,,,,,,,,VFR,,,,,,,,,,,,METAR,79.0
ULLI 302130Z 28004MPS CAVOK 07/06 Q1018 R28R/090060 NOSIG,ULLI,2023-05-30T21:30:00Z,59.8,30.27,7.0,6.0,280,8,,6.21,30.059055,,,,,,TRUE,,,,,CAVOK,,,,,,,,VFR,,,,,,,,,,,,SPECI,25.0
UIUU 302130Z VRB01MPS 9999 SCT043CB 11/04 Q1006 R08/CLRD60 NOSIG RMK QFE710/0946,UIUU,2023-05-30T21:30:00Z,51.8,107.45,11.0,4.0,0,2,,6.21,29.704725,,,,,,TRUE,,,,,SCT,4300,,,,,,,VFR,,,,,,,,,,,,SPECI,508.0
UIII 302130Z 32004MPS 9999 -SHRA OVC004CB 09/08 Q1010 R30/290150 NOSIG RMK QBB140 QFE713/0951,UIII,2023-05-30T21:30:00Z,52.27,104.37,9.0,8.0,320,8,,6.21,29.822834,,,,,,TRUE,,,,-SHRA,OVC,400,,,,,,,LIFR,,,,,,,,,,,,SPECI,480.0
UIBB 302130Z AUTO 29002MPS 270V330 9999 // NSC 09/07 Q1013 RMK QFE717/0956,UIBB,2023-05-30T21:30:00Z,56.37,101.7,9.0,7.0,290,4,,6.21,29.911417,,,TRUE,,,,,,,,CLR,,,,,,,,VFR,,,,,,,,,,,,SPECI,485.0
UIAA 302130Z 02003MPS 9999 FEW050CB 12/M05 Q1009 R29/70D NOSIG RMK QFE698/0931,UIAA,2023-05-30T21:30:00Z,52.02,113.32,12.0,-5.0,20,6,,6.21,29.793306,,,,,,TRUE,,,,,FEW,5000,,,,,,,VFR,,,,,,,,,,,,METAR,650.0
UHWW 302130Z 08002MPS 9999 NSC 09/08 Q1012 R25L/0///70 NOSIG RMK QFE758,UHWW,2023-05-30T21:30:00Z,43.4,132.15,9.0,8.0,80,4,,6.21,29.88189,,,,,,TRUE,,,,,CLR,,,,,,,,VFR,,,,,,,,,,,,METAR,11.0
UHSS 302130Z 28001MPS 9999 NSC 09/05 Q1004 R01/70D NOSIG RMK QFE752/1002,UHSS,2023-05-30T21:30:00Z,46.88,142.72,9.0,5.0,280,2,,6.21,29.64567,,,,,,TRUE,,,,,CLR,,,,,,,,VFR,,,,,,,,,,,,METAR,14.0
UHPP 302130Z 12007G12MPS 090V160 9999 FEW013 OVC020CB 08/05 Q1011 R16R/290243 NOSIG RMK MT OBSC QFE755/1007,UHPP,2023-05-30T21:30:00Z,53.17,158.45,8.0,5.0,120,14,23,6.21,29.852362,,,,,,TRUE,,,,,FEW,1300,OVC,2000,,,,,MVFR,,,,,,,,,,,,METAR,33.0
UHMM 302130Z 09003MPS 9999 SCT040CB 12/02 Q1012 R10/70D NOSIG RMK QFE744 R28/10004MPS,UHMM,2023-05-30T21:30:00Z,59.92,150.72,12.0,2.0,90,6,,6.21,29.88189,,,,,,TRUE,,,,,SCT,4000,,,,,,,VFR,,,,,,,,,,,,METAR,175.0
UHMD 302130Z 19006MPS 8000 VCFG BKN100 01/M02 Q1013 RMK QFE759/1012,UHMD,2023-05-30T21:30:00Z,64.38,-173.23,1.0,-2.0,190,12,,4.97,29.911417,,,,,,,,,,VCFG,BKN,10000,,,,,,,MVFR,,,,,,,,,,,,SPECI,40.0
UHMA 302130Z 21004MPS CAVOK 10/00 Q1014 R19/70D NOSIG RMK MID 20003MPS END R19/20003MPS QFE755/1007,UHMA,2023-05-30T21:30:00Z,64.73,177.73,10.0,0.0,210,8,,6.21,29.940945,,,,,,TRUE,,,,,CAVOK,,,,,,,,VFR,,,0.3,,,,,,,,,METAR,53.0
UHHH 302130Z 26003MPS 230V310 CAVOK 11/07 Q1007 R88/090060 NOSIG RMK QFE749/0999,UHHH,2023-05-30T21:30:00Z,48.52,135.18,11.0,7.0,260,6,,6.21,29.734253,,,,,,TRUE,,,,,CAVOK,,,,,,,,VFR,,,,,,,,,,,,METAR,74.0
UHBB 302130Z 34003MPS 5000 -SHRA SCT005 BKN033CB 10/10 Q1007 RESHRA R36/290250 TEMPO 2100 -SHRA BKN003 BKN020CB RMK QBB150 QFE738/0984,UHBB,2023-05-30T21:30:00Z,50.43,127.42,10.0,10.0,340,6,,3.11,29.734253,,,,,,,,,,-SHRA,SCT,500,BKN,3300,,,,,MVFR,,,,,,,,,,,,METAR,185.0
UGTB 302130Z 27007KT 240V320 CAVOK 22/14 Q1013 NOSIG,UGTB,2023-05-30T21:30:00Z,41.67,44.95,22.0,14.0,270,7,,6.21,29.911417,,,,,,TRUE,,,,,CAVOK,,,,,,,,VFR,,,,,,,,,,,,METAR,468.0
UGSB 302130Z 06004KT 020V080 CAVOK 19/19 Q1011 NOSIG,UGSB,2023-05-30T21:30:00Z,41.62,41.6,19.0,19.0,60,4,,6.21,29.852362,,,,,,TRUE,,,,,CAVOK,,,,,,,,VFR,,,,,,,,,,,,METAR,32.0
UGMS 302130Z AUTO VRB02KT //// ////// 08/08 Q1021,UGMS,2023-05-30T21:30:00Z,43.05,42.75,8.0,8.0,0,2,,,30.147638,,,TRUE,,,,,,,,,,,,,,,,,,,,,,,,,,,,METAR,1442.0
UGKO 302130Z 18003KT CAVOK 18/17 Q1010 NOSIG,UGKO,2023-05-30T21:30:00Z,42.18,42.48,18.0,17.0,180,3,,6.21,29.822834,,,,,,TRUE,,,,,CAVOK,,,,,,,,VFR,,,,,,,,,,,,METAR,44.0
UGAM 302130Z AUTO 11004G17KT 060V150 //// ////// 16/14 Q1014,UGAM,2023-05-30T21:30:00Z,42.53,43.13,16.0,14.0,110,4,17,,29.940945,,,TRUE,,,,,,,,,,,,,,,,,,,,,,,,,,,,METAR,544.0
UERR 302130Z 02006MPS CAVOK 08/04 Q1017 R25/CLRD60 NOSIG RMK QFE732/0976,UERR,2023-05-30T21:30:00Z,62.53,114.05,8.0,4.0,20,12,,6.21,30.029528,,,,,,TRUE,,,,,CAVOK,,,,,,,,VFR,,,,,,,,,,,,SPECI,352.0
UEEE 302130Z 23001MPS CAVOK 14/02 Q1010 R05/09//60 NOSIG RMK QFE749,UEEE,2023-05-30T21:30:00Z,62.08,129.77,14.0,2.0,230,2,,6.21,29.822834,,,,,,TRUE,,,,,CAVOK,,,,,,,,VFR,,,,,,,,,,,,METAR,106.0
UDYZ 302130Z 34002KT 9999 SCT040CB 16/14 Q1016 NOSIG,UDYZ,2023-05-30T21:30:00Z,40.15,44.4,16.0,14.0,340,2,,6.21,30.0,,,,,,TRUE,,,,,SCT,4000,,,,,,,VFR,,,,,,,,,,,,METAR,851.0
UDSG 302130Z 32003KT 260V340 9999 SCT046CB 13/10 Q1020 NOSIG,UDSG,2023-05-30T21:30:00Z,40.75,43.87,13.0,10.0,320,3,,6.21,30.11811,,,,,,TRUE,,,,,SCT,4600,,,,,,,VFR,,,,,,,,,,,,METAR,1515.0
UCFO 302130Z 15002MPS 9999 FEW050CB 19/08 Q1011 NOSIG,UCFO,2023-05-30T21:30:00Z,40.6,72.8,19.0,8.0,150,4,,6.21,29.852362,,,,,,TRUE,,,,,FEW,5000,,,,,,,VFR,,,,,,,,,,,,METAR,881.0
UCFM 302130Z 15002MPS CAVOK 14/06 Q1015 NOSIG,UCFM,2023-05-30T21:30:00Z,43.07,74.48,14.0,6.0,150,4,,6.21,29.970472,,,,,,TRUE,,,,,CAVOK,,,,,,,,VFR,,,,,,,,,,,,METAR,632.0
UBBZ 302130Z AUTO 25008KT 9999 // ///////// 24/16 Q1013,UBBZ,2023-05-30T21:30:00Z,39.1,46.73,24.0,16.0,250,8,,6.21,29.911417,,,TRUE,,,,,,,,,,,,,,,,,,,,,,,,,,,,METAR,489.0
UBBG 302130Z 23012KT 9999 FEW040CB BKN100 27/12 Q1010 NOSIG,UBBG,2023-05-30T21:30:00Z,40.73,46.32,27.0,12.0,230,12,,6.21,29.822834,,,,,,TRUE,,,,,FEW,4000,BKN,10000,,,,,VFR,,,,,,,,,,,,METAR,333.0
UBBF 302130Z AUTO 28006KT 9999 // NSC 22/15 Q1010,UBBF,2023-05-30T21:30:00Z,39.6,47.2,22.0,15.0,280,6,,6.21,29.822834,,,TRUE,,,,,,,,CLR,,,,,,,,VFR,,,,,,,,,,,,METAR,370.0
UBBB 302130Z 32010KT CAVOK 24/17 Q1008 NOSIG,UBBB,2023-05-30T21:30:00Z,40.47,50.07,24.0,17.0,320,10,,6.21,29.763779,,,,,,TRUE,,,,,CAVOK,,,,,,,,VFR,,,,,,,,,,,,METAR,94.0
UAUU 302130Z 06002MPS CAVOK 21/11 Q1020 NOSIG RMK QFE750/1000,UAUU,2023-05-30T21:30:00Z,53.2,63.55,21.0,11.0,60,4,,6.21,30.11811,,,,,,TRUE,,,,,CAVOK,,,,,,,,VFR,,,,,,,,,,,,METAR,177.0
UATT 302130Z 00000MPS CAVOK 18/07 Q1019 NOSIG RMK QFE744/0993,UATT,2023-05-30T21:30:00Z,50.25,57.2,18.0,7.0,0,0,,6.21,30.088583,,,,,,TRUE,,,,,CAVOK,,,,,,,,VFR,,,,,,,,,,,,METAR,217.0
UATG 302130Z 15007MPS 9999 SCT033CB 27/08 Q1010 NOSIG RMK QFE760/1013,UATG,2023-05-30T21:30:00Z,47.12,51.83,27.0,8.0,150,14,,6.21,29.822834,,,,,,TRUE,,,,,SCT,3300,,,,,,,VFR,,,,,,,,,,,,SPECI,-23.0
UATE 302130Z 11004MPS 9999 FEW060CB 26/03 Q1009 NOSIG RMK QFE755/1006,UATE,2023-05-30T21:30:00Z,43.87,51.1,26.0,3.0,110,8,,6.21,29.793306,,,,,,TRUE,,,,,FEW,6000,,,,,,,VFR,,,,,,,,,,,,METAR,21.0
UASP 302130Z 16002MPS CAVOK 08/01 Q1021 NOSIG RMK QFE755/1007,UASP,2023-05-30T21:30:00Z,52.2,77.07,8.0,1.0,160,4,,6.21,30.147638,,,,,,TRUE,,,,,CAVOK,,,,,,,,VFR,,,,,,,,,,,,METAR,122.0
UARR 302130Z 12006MPS 9999 SCT050CB 25/03 Q1010 NOSIG RMK QFE754/1005,UARR,2023-05-30T21:30:00Z,51.15,51.53,25.0,3.0,120,12,,6.21,29.822834,,,,,,TRUE,,,,,SCT,5000,,,,,,,VFR,,,,,,,,,,,,METAR,33.0
UAKK 302130Z 01003MPS 9999 BKN050CB 14/09 Q1021 NOSIG RMK QFE718/0958,UAKK,2023-05-30T21:30:00Z,49.68,73.35,14.0,9.0,10,6,,6.21,30.147638,,,,,,TRUE,,,,,BKN,5000,,,,,,,VFR,,,,,,,,,,,,METAR,532.0
UAIT 302130Z 08008MPS CAVOK 23/M01 Q1011 NOSIG RMK QFE734/0978,UAIT,2023-05-30T21:30:00Z,43.32,68.55,23.0,-1.0,80,16,,6.21,29.852362,,,,,,TRUE,,,,,CAVOK,,,,,,,,VFR,,,,,,,,,,,,METAR,301.0
UAII 302130Z 06004MPS CAVOK 21/M02 Q1010 NOSIG RMK QFE722/0963,UAII,2023-05-30T21:30:00Z,42.37,69.48,21.0,-2.0,60,8,,6.21,29.822834,,,,,,TRUE,,,,,CAVOK,,,,,,,,VFR,,,,,,,,,,,,METAR,410.0
UADD 302130Z 24003MPS 9999 NSC 13/01 Q1014 NOSIG RMK QFE704/0938,UADD,2023-05-30T21:30:00Z,42.85,71.3,13.0,1.0,240,6,,6.21,29.940945,,,,,,TRUE,,,,,CLR,,,,,,,,VFR,,,,,,,,,,,,METAR,663.0
UACC 302130Z 24003MPS CAVOK 16/09 Q1019 NOSIG RMK QFE733/0977,UACC,2023-05-30T21:30:00Z,51.02,71.47,16.0,9.0,240,6,,6.21,30.088583,,,,,,TRUE,,,,,CAVOK,,,,,,,,VFR,,,,,,,,,,,,METAR,354.0
UAAA 302130Z 00000MPS 9999 NSC 12/05 Q1017 NOSIG,UAAA,2023-05-30T21:30:00Z,43.35,77.03,12.0,5.0,0,0,,6.21,30.029528,,,,,,TRUE,,,,,CLR,,,,,,,,VFR,,,,,,,,,,,,METAR,673.0
TFFR 302130Z AUTO 13012KT CAVOK 28/22 Q1013,TFFR,2023-05-30T21:30:00Z,16.27,-61.53,28.0,22.0,130,12,,6.21,29.911417,,,TRUE,,,,,,,,CAVOK,,,,,,,,VFR,,,,,,,,,,,,METAR,6.0
TFFF 302130Z AUTO 10012KT 9999 FEW026 30/23 Q1013,TFFF,2023-05-30T21:30:00Z,14.6,-61.0,30.0,23.0,100,12,,6.21,29.911417,,,TRUE,,,,,,,,FEW,2600,,,,,,,VFR,,,,,,,,,,,,METAR,3.0
SOCA 302130Z AUTO 10006KT CAVOK 28/23 Q1012,SOCA,2023-05-30T21:30:00Z,4.82,-52.37,28.0,23.0,100,6,,6.21,29.88189,,,TRUE,,,,,,,,CAVOK,,,,,,,,VFR,,,,,,,,,,,,METAR,7.0
SBCJ 302130Z 07002KT 9999 FEW030 23/21 Q1016,SBCJ,2023-05-30T21:30:00Z,-6.12,-50.0,23.0,21.0,70,2,,6.21,30.0,,,,,,,,,,,FEW,3000,,,,,,,VFR,,,,,,,,,,,,SPECI,634.0
ROAH 302130Z 11016G26KT 9999 FEW009 BKN011 28/25 Q1002,ROAH,2023-05-30T21:30:00Z,26.18,127.65,28.0,25.0,110,16,26,6.21,29.586615,,,,,,,,,,,FEW,900,BKN,1100,,,,,MVFR,,,,,,,,,,,,METAR,6.0
RKSI 302130Z 11009KT 080V140 9999 BKN035 BKN140 20/12 Q1011 NOSIG,RKSI,2023-05-30T21:30:00Z,37.47,126.45,20.0,12.0,110,9,,6.21,29.852362,,,,,,TRUE,,,,,BKN,3500,BKN,14000,,,,,VFR,,,,,,,,,,,,METAR,7.0
RJTT 302130Z 07011KT 9999 -SHRA FEW015 SCT020 BKN040 18/16 Q1011 BECMG TL2200 04012KT,RJTT,2023-05-30T21:30:00Z,35.55,139.77,18.0,16.0,70,11,,6.21,29.852362,,,,,,,,,,-SHRA,FEW,1500,SCT,2000,BKN,4000,,,VFR,,,,,,,,,,,,METAR,5.0
RJOR 302130Z 00000KT 9999 FEW001 SCT015 BKN140 18/15 Q1012,RJOR,2023-05-30T21:30:00Z,35.52,134.17,18.0,15.0,0,0,,6.21,29.88189,,,,,,,,,,,FEW,100,SCT,1500,BKN,14000,,,VFR,,,,,,,,,,,,METAR,11.0
RJOE 302130Z 25005KT 9999 -SHRA FEW015 SCT025 BKN080 18/17 Q1010 RMK 1CU015 3CU025 5AC080 A2983,RJOE,2023-05-30T21:30:00Z,34.52,136.67,18.0,17.0,250,5,,6.21,29.822834,,,,,,,,,,-SHRA,FEW,1500,SCT,2500,BKN,8000,,,VFR,,,,,,,,,,,,METAR,6.0
RJOC 302130Z 05011KT 9999 FEW008 SCT015 BKN140 18/16 Q1011,RJOC,2023-05-30T21:30:00Z,35.42,132.88,18.0,16.0,50,11,,6.21,29.852362,,,,,,,,,,,FEW,800,SCT,1500,BKN,14000,,,VFR,,,,,,,,,,,,METAR,2.0
RJNG 302130Z VRB01KT 9999 FEW030 SCT100 BKN140 19/17 Q1009 RMK 1CU030 3AC100 5AC140 A2981,RJNG,2023-05-30T21:30:00Z,35.38,136.87,19.0,17.0,0,1,,6.21,29.793306,,,,,,,,,,,FEW,3000,SCT,10000,BKN,14000,,,VFR,,,,,,,,,,,,METAR,39.0
RJGG 302130Z 28008KT 9999 -RA FEW020 BKN100 BKN140 20/17 Q1009 NOSIG,RJGG,2023-05-30T21:30:00Z,34.87,136.8,20.0,17.0,280,8,,6.21,29.793306,,,,,,TRUE,,,,-RA,FEW,2000,BKN,10000,BKN,14000,,,VFR,,,,,,,,,,,,METAR,5.0
RJFF 302130Z VRB02KT 9999 -RA FEW003 BKN060 BKN070 19/18 Q1010 NOSIG,RJFF,2023-05-30T21:30:00Z,33.58,130.45,19.0,18.0,0,2,,6.21,29.822834,,,,,,TRUE,,,,-RA,FEW,300,BKN,6000,BKN,7000,,,VFR,,,,,,,,,,,,METAR,7.0
RJDC 302130Z 18007KT 8000 -SHRA FEW004 SCT006 BKN015 19/18 Q1010,RJDC,2023-05-30T21:30:00Z,33.92,131.27,19.0,18.0,180,7,,4.97,29.822834,,,,,,,,,,-SHRA,FEW,400,SCT,600,BKN,1500,,,MVFR,,,,,,,,,,,,METAR,5.0
RJCC 302130Z 18003KT 160V220 9999 FEW015 09/07 Q1010,RJCC,2023-05-30T21:30:00Z,42.77,141.68,9.0,7.0,180,3,,6.21,29.822834,,,,,,,,,,,FEW,1500,,,,,,,VFR,,,,,,,,,,,,METAR,19.0
RJBB 302130Z VRB01KT 9999 -RA FEW006 SCT070 OVC100 18/17 Q1011 BECMG 04007KT,RJBB,2023-05-30T21:30:00Z,34.43,135.25,18.0,17.0,0,1,,6.21,29.852362,,,,,,,,,,-RA,FEW,600,SCT,7000,OVC,10000,,,VFR,,,,,,,,,,,,METAR,8.0
RJAA 302130Z 06008KT 9999 FEW030 BKN045 18/14 Q1011 BECMG 08010KT,RJAA,2023-05-30T21:30:00Z,35.77,140.38,18.0,14.0,60,8,,6.21,29.852362,,,,,,,,,,,FEW,3000,BKN,4500,,,,,VFR,,,,,,,,,,,,METAR,36.0
RCTP 302130Z 05020KT 9000 -RA FEW004 BKN006 BKN012 26/26 Q1000 NOSIG RMK A2955,RCTP,2023-05-30T21:30:00Z,25.07,121.22,26.0,26.0,50,20,,5.59,29.52756,,,,,,TRUE,,,,-RA,FEW,400,BKN,600,BKN,1200,,,IFR,,,,,,,,,,,,METAR,33.0
RCNN 302130Z 00000KT 9999 FEW012 SCT200 26/23 Q0997 NOSIG RMK A2946,RCNN,2023-05-30T21:30:00Z,22.93,120.2,26.0,23.0,0,0,,6.21,29.438976,,,,,,TRUE,,,,,FEW,1200,SCT,20000,,,,,VFR,,,,,,,,,,,,METAR,15.0
RCMQ 302130Z 03010KT 9999 FEW006 BKN030 26/23 Q0998 NOSIG RMK A2949,RCMQ,2023-05-30T21:30:00Z,24.27,120.62,26.0,23.0,30,10,,6.21,29.468504,,,,,,TRUE,,,,,FEW,600,BKN,3000,,,,,MVFR,,,,,,,,,,,,METAR,202.0
OTBD 302130Z AUTO 33010KT 300V010 CAVOK 34/16 Q1005 NOSIG,OTBD,2023-05-30T21:30:00Z,25.25,51.57,34.0,16.0,330,10,,6.21,29.675198,,,TRUE,,,TRUE,,,,,CAVOK,,,,,,,,VFR,,,,,,,,,,,,METAR,13.0
OPPS 302130Z 18004KT 6000 HZ BKN120 24/15 Q1010,OPPS,2023-05-30T21:30:00Z,33.98,71.52,24.0,15.0,180,4,,3.73,29.822834,,,,,,,,,,HZ,BKN,12000,,,,,,,MVFR,,,,,,,,,,,,METAR,356.0
OPIS 302130Z 27011KT 6000 FEW040 SCT100 22/16 Q1008 NOSIG,OPIS,2023-05-30T21:30:00Z,33.55,72.83,22.0,16.0,270,11,,3.73,29.763779,,,,,,TRUE,,,,,FEW,4000,SCT,10000,,,,,MVFR,,,,,,,,,,,,METAR,542.0
OIYY 302130Z 11002KT 9999 FEW100 31/02 Q1013,OIYY,2023-05-30T21:30:00Z,31.9,54.28,31.0,2.0,110,2,,6.21,29.911417,,,,,,,,,,,FEW,10000,,,,,,,VFR,,,,,,,,,,,,METAR,1226.0
OITT 302130Z 02006KT 9999 FEW030 16/07 Q1018 A3008,OITT,2023-05-30T21:30:00Z,38.13,46.23,16.0,7.0,20,6,,6.21,30.059055,,,,,,,,,,,FEW,3000,,,,,,,VFR,,,,,,,,,,,,METAR,1353.0
OISS 302130Z 00000KT CAVOK 23/06 Q1016 A3001,OISS,2023-05-30T21:30:00Z,29.53,52.58,23.0,6.0,0,0,,6.21,30.0,,,,,,,,,,,CAVOK,,,,,,,,VFR,,,,,,,,,,,,METAR,1484.0
OIMM 302130Z 20004KT CAVOK 23/05 Q1015 A2999,OIMM,2023-05-30T21:30:00Z,36.23,59.63,23.0,5.0,200,4,,6.21,29.970472,,,,,,,,,,,CAVOK,,,,,,,,VFR,,,,,,,,,,,,METAR,995.0
OIKB 302130Z VRB02KT 4000 HZ FEW100 30/24 Q1003 A2964,OIKB,2023-05-30T21:30:00Z,27.22,56.37,30.0,24.0,0,2,,2.49,29.616142,,,,,,,,,,HZ,FEW,10000,,,,,,,IFR,,,,,,,,,,,,METAR,6.0
OIII 302130Z 25010KT 9999 FEW045 BKN110 28/05 Q1015 A2999,OIII,2023-05-30T21:30:00Z,35.68,51.3,28.0,5.0,250,10,,6.21,29.970472,,,,,,,,,,,FEW,4500,BKN,11000,,,,,VFR,,,,,,,,,,,,METAR,1182.0
OIFM 302130Z 28006KT CAVOK 21/05 Q1018 A3008,OIFM,2023-05-30T21:30:00Z,32.75,51.87,21.0,5.0,280,6,,6.21,30.059055,,,,,,,,,,,CAVOK,,,,,,,,VFR,,,,,,,,,,,,METAR,1539.0
OEDM 302130Z 30015KT 5000 BLDU FEW025CB BKN040 26/15 Q1018 TEMPO 4000 BLDU,OEDM,2023-05-30T21:30:00Z,24.45,44.12,26.0,15.0,300,15,,3.11,30.059055,,,,,,,,,,BLDU,FEW,2500,BKN,4000,,,,,MVFR,,,,,,,,,,,,SPECI,922.0
OBBI 302130Z 31011KT CAVOK 31/23 Q1006 NOSIG,OBBI,2023-05-30T21:30:00Z,26.27,50.63,31.0,23.0,310,11,,6.21,29.704725,,,,,,TRUE,,,,,CAVOK,,,,,,,,VFR,,,,,,,,,,,,METAR,6.0
NZWN 302130Z AUTO 01010KT 9999 NCD 14/07 Q1012,NZWN,2023-05-30T21:30:00Z,-41.32,174.8,14.0,7.0,10,10,,6.21,29.88189,,,TRUE,,,,,,,,CLR,,,,,,,,VFR,,,,,,,,,,,,METAR,12.0
NZCH 302130Z AUTO 10002KT 9999 NCD 07/05 Q1008,NZCH,2023-05-30T21:30:00Z,-43.48,172.52,7.0,5.0,100,2,,6.21,29.763779,,,TRUE,,,,,,,,CLR,,,,,,,,VFR,,,,,,,,,,,,METAR,36.0
NZAA 302130Z AUTO 19004KT 9999 FEW047/// 15/14 Q1015,NZAA,2023-05-30T21:30:00Z,-37.02,174.8,15.0,14.0,190,4,,6.21,29.970472,,,TRUE,,,,,,,,FEW,4700,,,,,,,VFR,,,,,,,,,,,,METAR,7.0
NWWW 302130Z AUTO VRB02KT CAVOK 21/18 Q1020 NOSIG,NWWW,2023-05-30T21:30:00Z,-22.02,166.22,21.0,18.0,0,2,,6.21,30.11811,,,TRUE,,,TRUE,,,,,CAVOK,,,,,,,,VFR,,,,,,,,,,,,METAR,16.0
NTAA 302130Z VRB03KT 9999 -RA FEW020 BKN046 28/24 Q1012 NOSIG,NTAA,2023-05-30T21:30:00Z,-17.55,-149.62,28.0,24.0,0,3,,6.21,29.88189,,,,,,TRUE,,,,-RA,FEW,2000,BKN,4600,,,,,VFR,,,,,,,,,,,,METAR,2.0
NLWW 302130Z 09011KT 9999 FEW020 30/26 Q1012 TEMPO 2500 BKN009 SCT018CB,NLWW,2023-05-30T21:30:00Z,-13.23,-176.18,30.0,26.0,90,11,,6.21,29.88189,,,,,,,,,,,FEW,2000,,,,,,,VFR,,,,,,,,,,,,METAR,24.0
NCRG 302130Z AUTO 08012KT 050V130 9999 BKN047/// BKN055/// 25/14 Q1018,NCRG,2023-05-30T21:30:00Z,-21.2,-159.82,25.0,14.0,80,12,,6.21,30.059055,,,TRUE,,,,,,,,BKN,4700,BKN,5500,,,,,VFR,,,,,,,,,,,,METAR,7.0
LZZI 302130Z 09001KT CAVOK 11/09 Q1021,LZZI,2023-05-30T21:30:00Z,49.23,18.62,11.0,9.0,90,1,,6.21,30.147638,,,,,,,,,,,CAVOK,,,,,,,,VFR,,,,,,,,,,,,METAR,311.0
LZTT 302130Z 07005KT 9999 FEW060 12/07 Q1022,LZTT,2023-05-30T21:30:00Z,49.07,20.25,12.0,7.0,70,5,,6.21,30.177166,,,,,,,,,,,FEW,6000,,,,,,,VFR,,,,,,,,,,,,METAR,693.0
LZPP 302130Z AUTO 33007KT 9999 14/09 Q1020,LZPP,2023-05-30T21:30:00Z,48.62,17.83,14.0,9.0,330,7,,6.21,30.11811,,,TRUE,,,,,,,,,,,,,,,,,,,,,,,,,,,,METAR,160.0
LZKZ 302130Z 36012KT CAVOK 19/08 Q1020 NOSIG,LZKZ,2023-05-30T21:30:00Z,48.67,21.23,19.0,8.0,360,12,,6.21,30.11811,,,,,,TRUE,,,,,CAVOK,,,,,,,,VFR,,,,,,,,,,,,METAR,227.0
LZIB 302130Z 01008KT CAVOK 17/07 Q1019 NOSIG,LZIB,2023-05-30T21:30:00Z,48.17,17.22,17.0,7.0,10,8,,6.21,30.088583,,,,,,TRUE,,,,,CAVOK,,,,,,,,VFR,,,,,,,,,,,,METAR,129.0
LYVR 302130Z AUTO VRB01KT CAVOK 15/15 Q1017,LYVR,2023-05-30T21:30:00Z,45.13,21.32,15.0,15.0,0,1,,6.21,30.029528,,,TRUE,,,,,,,,CAVOK,,,,,,,,VFR,,,,,,,,,,,,METAR,82.0
LYTV 302130Z AUTO VRB02KT CAVOK 17/16 Q1015,LYTV,2023-05-30T21:30:00Z,42.4,18.72,17.0,16.0,0,2,,6.21,29.970472,,,TRUE,,,,,,,,CAVOK,,,,,,,,VFR,,,,,,,,,,,,METAR,3.0
LYPG 302130Z 33002KT 9999 FEW040 18/16 Q1015 NOSIG,LYPG,2023-05-30T21:30:00Z,42.37,19.25,18.0,16.0,330,2,,6.21,29.970472,,,,,,TRUE,,,,,FEW,4000,,,,,,,VFR,,,,,,,,,,,,METAR,32.0
LYNI 302130Z 16003KT 9999 FEW045 17/15 Q1016 NOSIG,LYNI,2023-05-30T21:30:00Z,43.33,21.85,17.0,15.0,160,3,,6.21,30.0,,,,,,TRUE,,,,,FEW,4500,,,,,,,VFR,,,,,,,,,,,,METAR,197.0
LYKV 302130Z 18001KT 9999 SCT006 14/14 Q1017 NOSIG,LYKV,2023-05-30T21:30:00Z,43.82,20.58,14.0,14.0,180,1,,6.21,30.029528,,,,,,TRUE,,,,,SCT,600,,,,,,,VFR,,,,,,,,,,,,METAR,209.0
LYBT 302130Z 27007KT CAVOK 16/16 Q1017 NOSIG,LYBT,2023-05-30T21:30:00Z,44.93,20.25,16.0,16.0,270,7,,6.21,30.029528,,,,,,TRUE,,,,,CAVOK,,,,,,,,VFR,,,,,,,,,,,,METAR,78.0
LYBE 302130Z 28006KT 9999 SCT040 16/15 Q1017 NOSIG,LYBE,2023-05-30T21:30:00Z,44.82,20.28,16.0,15.0,280,6,,6.21,30.029528,,,,,,TRUE,,,,,SCT,4000,,,,,,,VFR,,,,,,,,,,,,METAR,93.0
LWSK 302130Z 18001KT 9999 FEW040 BKN070 16/15 Q1017 NOSIG,LWSK,2023-05-30T21:30:00Z,41.97,21.63,16.0,15.0,180,1,,6.21,30.029528,,,,,,TRUE,,,,,FEW,4000,BKN,7000,,,,,VFR,,,,,,,,,,,,METAR,232.0
LRTR 302130Z VRB02KT CAVOK 15/15 Q1016 NOSIG,LRTR,2023-05-30T21:30:00Z,45.82,21.33,15.0,15.0,0,2,,6.21,30.0,,,,,,TRUE,,,,,CAVOK,,,,,,,,VFR,,,,,,,,,,,,METAR,104.0
LRTM 302130Z AUTO 09003KT 9999 NCD 15/13 Q1017,LRTM,2023-05-30T21:30:00Z,46.47,24.42,15.0,13.0,90,3,,6.21,30.029528,,,TRUE,,,,,,,,CLR,,,,,,,,VFR,,,,,,,,,,,,METAR,289.0
LRSV 302130Z 33009KT CAVOK 19/08 Q1018,LRSV,2023-05-30T21:30:00Z,47.68,26.35,19.0,8.0,330,9,,6.21,30.059055,,,,,,,,,,,CAVOK,,,,,,,,VFR,,,,,,,,,,,,METAR,406.0
LRSM 302130Z AUTO 18004KT 9999 NCD 14/13 Q1017,LRSM,2023-05-30T21:30:00Z,47.7,22.88,14.0,13.0,180,4,,6.21,30.029528,,,TRUE,,,,,,,,CLR,,,,,,,,VFR,,,,,,,,,,,,METAR,123.0
LRSB 302130Z 28008KT 9999 -RA FEW033 OVC070 15/14 Q1018 RERA,LRSB,2023-05-30T21:30:00Z,45.78,24.08,15.0,14.0,280,8,,6.21,30.059055,,,,,,,,,,-RA,FEW,3300,OVC,7000,,,,,VFR,,,,,,,,,,,,METAR,442.0
LROP 302130Z 36003KT 330V040 CAVOK 20/13 Q1016 NOSIG,LROP,2023-05-30T21:30:00Z,44.57,26.1,20.0,13.0,360,3,,6.21,30.0,,,,,,TRUE,,,,,CAVOK,,,,,,,,VFR,,,,,,,,,,,,METAR,92.0
LROD 302130Z AUTO 07005KT 9999 FEW110/// 17/13 Q1017,LROD,2023-05-30T21:30:00Z,47.03,21.88,17.0,13.0,70,5,,6.21,30.029528,,,TRUE,,,,,,,,FEW,11000,,,,,,,VFR,,,,,,,,,,,,METAR,132.0
LRIA 302130Z 23005KT CAVOK 15/08 Q1016,LRIA,2023-05-30T21:30:00Z,47.17,27.62,15.0,8.0,230,5,,6.21,30.0,,,,,,,,,,,CAVOK,,,,,,,,VFR,,,,,,,,,,,,METAR,71.0
LRCV 302130Z 04005KT CAVOK 16/16 Q1016,LRCV,2023-05-30T21:30:00Z,44.32,23.88,16.0,16.0,40,5,,6.21,30.0,,,,,,,,,,,CAVOK,,,,,,,,VFR,,,,,,,,,,,,METAR,192.0
LRCL 302130Z 28005KT CAVOK 15/12 Q1018,LRCL,2023-05-30T21:30:00Z,46.78,23.68,15.0,12.0,280,5,,6.21,30.059055,,,,,,,,,,,CAVOK,,,,,,,,VFR,,,,,,,,,,,,METAR,313.0
LRCK 302130Z 27006KT CAVOK 14/12 Q1015 NOSIG,LRCK,2023-05-30T21:30:00Z,44.37,28.48,14.0,12.0,270,6,,6.21,29.970472,,,,,,TRUE,,,,,CAVOK,,,,,,,,VFR,,,,,,,,,,,,METAR,108.0
LRBS 302130Z 00000KT CAVOK 20/14 Q1016 NOSIG,LRBS,2023-05-30T21:30:00Z,44.5,26.08,20.0,14.0,0,0,,6.21,30.0,,,,,,TRUE,,,,,CAVOK,,,,,,,,VFR,,,,,,,,,,,,METAR,91.0
LRBM 302130Z AUTO 01003KT 340V050 9999 SCT140/// 14/13 Q1018,LRBM,2023-05-30T21:30:00Z,47.67,23.47,14.0,13.0,10,3,,6.21,30.059055,,,TRUE,,,,,,,,SCT,14000,,,,,,,VFR,,,,,,,,,,,,METAR,180.0
LRBC 302130Z 01004KT CAVOK 17/07 Q1017,LRBC,2023-05-30T21:30:00Z,46.52,26.92,17.0,7.0,10,4,,6.21,30.029528,,,,,,,,,,,CAVOK,,,,,,,,VFR,,,,,,,,,,,,METAR,183.0
LRAR 302130Z VRB02KT CAVOK 16/15 Q1016,LRAR,2023-05-30T21:30:00Z,46.18,21.27,16.0,15.0,0,2,,6.21,30.0,,,,,,,,,,,CAVOK,,,,,,,,VFR,,,,,,,,,,,,METAR,102.0
LQTZ 302130Z VRB02KT 7000 -RA SCT010 BKN030 15/15 Q1018,LQTZ,2023-05-30T21:30:00Z,44.47,18.73,15.0,15.0,0,2,,4.35,30.059055,,,,,,,,,,-RA,SCT,1000,BKN,3000,,,,,MVFR,,,,,,,,,,,,METAR,242.0
LQSA 302130Z 31004KT 9999 -RA SCT020 BKN050 14/14 Q1018,LQSA,2023-05-30T21:30:00Z,43.82,18.32,14.0,14.0,310,4,,6.21,30.059055,,,,,,,,,,-RA,SCT,2000,BKN,5000,,,,,VFR,,,,,,,,,,,,METAR,505.0
LQMO 302130Z VRB02KT 9999 FEW085 17/13 Q1014,LQMO,2023-05-30T21:30:00Z,43.28,17.83,17.0,13.0,0,2,,6.21,29.940945,,,,,,,,,,,FEW,8500,,,,,,,VFR,,,,,,,,,,,,METAR,49.0
LQBK 302130Z 15003KT 110V170 9999 FEW017 SCT043 15/15 Q1018 NOSIG,LQBK,2023-05-30T21:30:00Z,44.93,17.3,15.0,15.0,150,3,,6.21,30.059055,,,,,,TRUE,,,,,FEW,1700,SCT,4300,,,,,VFR,,,,,,,,,,,,METAR,114.0
LPPT 302130Z 29005KT 260V320 9999 FEW020 17/14 Q1018,LPPT,2023-05-30T21:30:00Z,38.77,-9.13,17.0,14.0,290,5,,6.21,30.059055,,,,,,,,,,,FEW,2000,,,,,,,VFR,,,,,,,,,,,,METAR,98.0
LPPS 302130Z 19005KT 9999 FEW015 20/17 Q1018,LPPS,2023-05-30T21:30:00Z,33.07,-16.35,20.0,17.0,190,5,,6.21,30.059055,,,,,,,,,,,FEW,1500,,,,,,,VFR,,,,,,,,,,,,METAR,89.0
LPPR 302130Z 24004KT CAVOK 17/16 Q1017,LPPR,2023-05-30T21:30:00Z,41.23,-8.68,17.0,16.0,240,4,,6.21,30.029528,,,,,,,,,,,CAVOK,,,,,,,,VFR,,,,,,,,,,,,METAR,64.0
LPPD 302130Z 03010KT 9999 SCT018 17/14 Q1013,LPPD,2023-05-30T21:30:00Z,37.73,-25.68,17.0,14.0,30,10,,6.21,29.911417,,,,,,,,,,,SCT,1800,,,,,,,VFR,,,,,,,,,,,,METAR,62.0
LPMA 302130Z VRB02KT 9999 FEW015 19/16 Q1018,LPMA,2023-05-30T21:30:00Z,32.7,-16.77,19.0,16.0,0,2,,6.21,30.059055,,,,,,,,,,,FEW,1500,,,,,,,VFR,,,,,,,,,,,,METAR,54.0
LPFR 302130Z 29010KT CAVOK 20/14 Q1018,LPFR,2023-05-30T21:30:00Z,37.02,-7.97,20.0,14.0,290,10,,6.21,30.059055,,,,,,,,,,,CAVOK,,,,,,,,VFR,,,,,,,,,,,,METAR,3.0
LPCS 302130Z 29004KT 9999 FEW014 17/14 Q1018,LPCS,2023-05-30T21:30:00Z,38.73,-9.35,17.0,14.0,290,4,,6.21,30.059055,,,,,,,,,,,FEW,1400,,,,,,,VFR,,,,,,,,,,,,METAR,99.0
LPAZ 302130Z 06015KT 9999 -RA SCT010 SCT044 17/15 Q1010,LPAZ,2023-05-30T21:30:00Z,36.97,-25.17,17.0,15.0,60,15,,6.21,29.822834,,,,,,,,,,-RA,SCT,1000,SCT,4400,,,,,VFR,,,,,,,,,,,,METAR,96.0
LKTB 302130Z 32004KT CAVOK 14/03 Q1022 NOSIG,LKTB,2023-05-30T21:30:00Z,49.15,16.68,14.0,3.0,320,4,,6.21,30.177166,,,,,,TRUE,,,,,CAVOK,,,,,,,,VFR,,,,,,,,,,,,METAR,233.0
LKPR 302130Z 06003KT CAVOK 13/02 Q1024 NOSIG,LKPR,2023-05-30T21:30:00Z,50.1,14.27,13.0,2.0,60,3,,6.21,30.236221,,,,,,TRUE,,,,,CAVOK,,,,,,,,VFR,,,,,,,,,,,,METAR,364.0
LKPD 302130Z 23003KT CAVOK 11/06 Q1023 RMK BLU,LKPD,2023-05-30T21:30:00Z,50.02,15.73,11.0,6.0,230,3,,6.21,30.206694,,,,,,,,,,,CAVOK,,,,,,,,VFR,,,,,,,,,,,,SPECI,226.0
LKNA 302130Z 34007KT CAVOK 13/02 Q1022 RMK BLU,LKNA,2023-05-30T21:30:00Z,49.17,16.12,13.0,2.0,340,7,,6.21,30.177166,,,,,,,,,,,CAVOK,,,,,,,,VFR,,,,,,,,,,,,SPECI,460.0
LKMT 302130Z 04005KT CAVOK 12/06 Q1022 NOSIG,LKMT,2023-05-30T21:30:00Z,49.68,18.12,12.0,6.0,40,5,,6.21,30.177166,,,,,,TRUE,,,,,CAVOK,,,,,,,,VFR,,,,,,,,,,,,METAR,251.0
LKCV 302130Z VRB01KT CAVOK 13/05 Q1023 NOSIG RMK BLU BLU,LKCV,2023-05-30T21:30:00Z,49.93,15.38,13.0,5.0,0,1,,6.21,30.206694,,,,,,TRUE,,,,,CAVOK,,,,,,,,VFR,,,,,,,,,,,,SPECI,234.0
LJPZ 302130Z AUTO 13005KT 9999 NSC 18/11 Q1017,LJPZ,2023-05-30T21:30:00Z,45.47,13.62,18.0,11.0,130,5,,6.21,30.029528,,,TRUE,,,,,,,,CLR,,,,,,,,VFR,,,,,,,,,,,,METAR,2.0
LJMB 302130Z AUTO 36005KT 9999 NCD 15/08 Q1020,LJMB,2023-05-30T21:30:00Z,46.47,15.67,15.0,8.0,360,5,,6.21,30.11811,,,TRUE,,,,,,,,CLR,,,,,,,,VFR,,,,,,,,,,,,METAR,263.0
LJLJ 302130Z 11010KT 9999 FEW075 17/07 Q1019 NOSIG,LJLJ,2023-05-30T21:30:00Z,46.22,14.47,17.0,7.0,110,10,,6.21,30.088583,,,,,,TRUE,,,,,FEW,7500,,,,,,,VFR,,,,,,,,,,,,METAR,363.0
LJCE 302130Z AUTO 20002KT 9999 NSC 16/13 Q1019,LJCE,2023-05-30T21:30:00Z,45.9,15.52,16.0,13.0,200,2,,6.21,30.088583,,,TRUE,,,,,,,,CLR,,,,,,,,VFR,,,,,,,,,,,,METAR,153.0
LIPL 302130Z 02008KT 9999 -RA FEW030CB SCT040 19/16 Q1016 RETS RMK OVC VIS MIN 8000 WIND THR31 /////KT WIND THR13 02006KT BLU,LIPL,2023-05-30T21:30:00Z,45.42,10.27,19.0,16.0,20,8,,6.21,30.0,,,,,,,,,,-RA,FEW,3000,SCT,4000,,,,,VFR,,,,,,,,,,,,SPECI,96.0
LHBP 302130Z 35006KT CAVOK 18/11 Q1018 NOSIG,LHBP,2023-05-30T21:30:00Z,47.43,19.27,18.0,11.0,350,6,,6.21,30.059055,,,,,,TRUE,,,,,CAVOK,,,,,,,,VFR,,,,,,,,,,,,METAR,141.0
LFYR 302130Z AUTO VRB03KT CAVOK 18/09 Q1019,LFYR,2023-05-30T21:30:00Z,47.32,1.68,18.0,9.0,0,3,,6.21,30.088583,,,TRUE,,,,,,,,CAVOK,,,,,,,,VFR,,,,,,,,,,,,METAR,83.0
LFVP 302130Z AUTO 26016KT CAVOK 06/03 Q1018,LFVP,2023-05-30T21:30:00Z,46.77,-56.18,6.0,3.0,260,16,,6.21,30.059055,,,TRUE,,,,,,,,CAVOK,,,,,,,,VFR,,,,,,,,,,,,METAR,5.0
LFTW 302130Z AUTO 03015G25KT 360V070 7000 +TSRA FEW043/// BKN070/// OVC094/// ///CB 18/15 Q1016,LFTW,2023-05-30T21:30:00Z,43.75,4.42,18.0,15.0,30,15,25,4.35,30.0,,,TRUE,,,,,,,+TSRA,FEW,4300,BKN,7000,OVC,9400,,,MVFR,,,,,,,,,,,,SPECI,91.0
LFTH 302130Z AUTO 33007KT CAVOK 21/12 Q1013 NOSIG,LFTH,2023-05-30T21:30:00Z,43.1,6.15,21.0,12.0,330,7,,6.21,29.911417,,,TRUE,,,TRUE,,,,,CAVOK,,,,,,,,VFR,,,,,,,,,,,,METAR,3.0
LFSX 302130Z AUTO 28003KT 250V320 CAVOK 19/M38 Q1017,LFSX,2023-05-30T21:30:00Z,47.77,6.35,19.0,-38.0,280,3,,6.21,30.029528,,,TRUE,,,,,,,,CAVOK,,,,,,,,VFR,,,,,,,,,,,,METAR,266.0
LFST 302130Z AUTO 02008KT CAVOK 17/04 Q1020 NOSIG,LFST,2023-05-30T21:30:00Z,48.53,7.63,17.0,4.0,20,8,,6.21,30.11811,,,TRUE,,,TRUE,,,,,CAVOK,,,,,,,,VFR,,,,,,,,,,,,METAR,149.0
LFSO 302130Z AUTO 06010KT CAVOK 17/05 Q1020 NOSIG,LFSO,2023-05-30T21:30:00Z,48.57,5.97,17.0,5.0,60,10,,6.21,30.11811,,,TRUE,,,TRUE,,,,,CAVOK,,,,,,,,VFR,,,,,,,,,,,,METAR,328.0
LFSN 302130Z AUTO 04009KT CAVOK 15/06 Q1020,LFSN,2023-05-30T21:30:00Z,48.68,6.22,15.0,6.0,40,9,,6.21,30.11811,,,TRUE,,,,,,,,CAVOK,,,,,,,,VFR,,,,,,,,,,,,METAR,214.0
LFSL 302130Z AUTO 03005KT CAVOK 21/09 Q1016,LFSL,2023-05-30T21:30:00Z,45.03,1.48,21.0,9.0,30,5,,6.21,30.0,,,TRUE,,,,,,,,CAVOK,,,,,,,,VFR,,,,,,,,,,,,METAR,300.0
LFSI 302130Z AUTO 04006KT CAVOK 17/07 Q1020,LFSI,2023-05-30T21:30:00Z,48.62,4.9,17.0,7.0,40,6,,6.21,30.11811,,,TRUE,,,,,,,,CAVOK,,,,,,,,VFR,,,,,,,,,,,,METAR,136.0
LFSG 302130Z AUTO 03010KT CAVOK 15/07 Q1019,LFSG,2023-05-30T21:30:00Z,48.33,6.07,15.0,7.0,30,10,,6.21,30.088583,,,TRUE,,,,,,,,CAVOK,,,,,,,,VFR,,,,,,,,,,,,METAR,320.0
LFSD 302130Z AUTO 01006KT 340V040 CAVOK 17/09 Q1017,LFSD,2023-05-30T21:30:00Z,47.27,5.08,17.0,9.0,10,6,,6.21,30.029528,,,TRUE,,,,,,,,CAVOK,,,,,,,,VFR,,,,,,,,,,,,METAR,218.0
LFSB 302130Z AUTO 34007KT CAVOK 16/09 Q1018 NOSIG,LFSB,2023-05-30T21:30:00Z,47.6,7.52,16.0,9.0,340,7,,6.21,30.059055,,,TRUE,,,TRUE,,,,,CAVOK,,,,,,,,VFR,,,,,,,,,,,,METAR,262.0
LFRZ 302130Z AUTO 02011KT CAVOK 18/12 Q1020 NOSIG,LFRZ,2023-05-30T21:30:00Z,47.32,-2.17,18.0,12.0,20,11,,6.21,30.11811,,,TRUE,,,TRUE,,,,,CAVOK,,,,,,,,VFR,,,,,,,,,,,,METAR,2.0
LFRV 302130Z AUTO 03014KT CAVOK 14/11 Q1021,LFRV,2023-05-30T21:30:00Z,47.72,-2.72,14.0,11.0,30,14,,6.21,30.147638,,,TRUE,,,,,,,,CAVOK,,,,,,,,VFR,,,,,,,,,,,,METAR,132.0
LFRT 302130Z AUTO 05014KT 9999 OVC010 12/10 Q1023,LFRT,2023-05-30T21:30:00Z,48.53,-2.85,12.0,10.0,50,14,,6.21,30.206694,,,TRUE,,,,,,,,OVC,1000,,,,,,,MVFR,,,,,,,,,,,,METAR,134.0
LFRS 302130Z AUTO 05013KT 010V080 CAVOK 20/08 Q1019 NOSIG,LFRS,2023-05-30T21:30:00Z,47.17,-1.6,20.0,8.0,50,13,,6.21,30.088583,,,TRUE,,,TRUE,,,,,CAVOK,,,,,,,,VFR,,,,,,,,,,,,METAR,26.0
LFRQ 302130Z AUTO 04014KT CAVOK 13/09 Q1022,LFRQ,2023-05-30T21:30:00Z,47.97,-4.17,13.0,9.0,40,14,,6.21,30.177166,,,TRUE,,,,,,,,CAVOK,,,,,,,,VFR,,,,,,,,,,,,METAR,94.0
LFRN 302130Z AUTO 03008KT CAVOK 15/10 Q1021 NOSIG,LFRN,2023-05-30T21:30:00Z,48.07,-1.73,15.0,10.0,30,8,,6.21,30.147638,,,TRUE,,,TRUE,,,,,CAVOK,,,,,,,,VFR,,,,,,,,,,,,METAR,35.0
LFRM 302130Z AUTO 02009KT CAVOK 18/06 Q1021,LFRM,2023-05-30T21:30:00Z,47.95,0.2,18.0,6.0,20,9,,6.21,30.147638,,,TRUE,,,,,,,,CAVOK,,,,,,,,VFR,,,,,,,,,,,,METAR,51.0
LFRL 302130Z AUTO 06011KT CAVOK 13/09 Q1022 NOSIG,LFRL,2023-05-30T21:30:00Z,48.27,-4.43,13.0,9.0,60,11,,6.21,30.177166,,,TRUE,,,TRUE,,,,,CAVOK,,,,,,,,VFR,,,,,,,,,,,,METAR,80.0
LFRK 302130Z AUTO 04014KT 360V070 9999 OVC013 12/10 Q1024,LFRK,2023-05-30T21:30:00Z,49.17,-0.45,12.0,10.0,40,14,,6.21,30.236221,,,TRUE,,,,,,,,OVC,1300,,,,,,,MVFR,,,,,,,,,,,,METAR,66.0
LFRJ 302130Z AUTO 06012KT CAVOK 12/09 Q1023 NOSIG,LFRJ,2023-05-30T21:30:00Z,48.52,-4.15,12.0,9.0,60,12,,6.21,30.206694,,,TRUE,,,TRUE,,,,,CAVOK,,,,,,,,VFR,,,,,,,,,,,,METAR,109.0
LFRI 302130Z AUTO 05012KT CAVOK 19/12 Q1018,LFRI,2023-05-30T21:30:00Z,46.7,-1.37,19.0,12.0,50,12,,6.21,30.059055,,,TRUE,,,,,,,,CAVOK,,,,,,,,VFR,,,,,,,,,,,,METAR,89.0
LFRH 302130Z AUTO 03010KT CAVOK 14/10 Q1021 NOSIG,LFRH,2023-05-30T21:30:00Z,47.77,-3.45,14.0,10.0,30,10,,6.21,30.147638,,,TRUE,,,TRUE,,,,,CAVOK,,,,,,,,VFR,,,,,,,,,,,,METAR,46.0
LFRG 302130Z AUTO 03010KT 010V070 9999 OVC012 11/09 Q1024,LFRG,2023-05-30T21:30:00Z,49.37,0.15,11.0,9.0,30,10,,6.21,30.236221,,,TRUE,,,,,,,,OVC,1200,,,,,,,MVFR,,,,,,,,,,,,METAR,146.0
LFRD 302130Z AUTO 05011KT 9999 BKN014 13/10 Q1023 TEMPO 05015G25KT BKN008,LFRD,2023-05-30T21:30:00Z,48.58,-2.07,13.0,10.0,50,11,,6.21,30.206694,,,TRUE,,,,,,,,BKN,1400,,,,,,,MVFR,,,,,,,,,,,,METAR,56.0
LFRC 302130Z AUTO 06016KT 020V080 9999 OVC014 12/09 Q1025,LFRC,2023-05-30T21:30:00Z,49.63,-1.47,12.0,9.0,60,16,,6.21,30.265747,,,TRUE,,,,,,,,OVC,1400,,,,,,,MVFR,,,,,,,,,,,,METAR,137.0
LFRB 302130Z AUTO 06010KT CAVOK 12/09 Q1023 TEMPO 06015G25KT,LFRB,2023-05-30T21:30:00Z,48.45,-4.42,12.0,9.0,60,10,,6.21,30.206694,,,TRUE,,,,,,,,CAVOK,,,,,,,,VFR,,,,,,,,,,,,SPECI,91.0
LFQQ 302130Z AUTO 01011KT CAVOK 13/10 Q1025 NOSIG,LFQQ,2023-05-30T21:30:00Z,50.57,3.1,13.0,10.0,10,11,,6.21,30.265747,,,TRUE,,,TRUE,,,,,CAVOK,,,,,,,,VFR,,,,,,,,,,,,METAR,43.0
LFQB 302130Z AUTO 02007KT 350V050 CAVOK 17/08 Q1019,LFQB,2023-05-30T21:30:00Z,48.32,4.02,17.0,8.0,20,7,,6.21,30.088583,,,TRUE,,,,,,,,CAVOK,,,,,,,,VFR,,,,,,,,,,,,METAR,107.0
LFQA 302130Z AUTO 02010KT CAVOK 15/07 Q1021,LFQA,2023-05-30T21:30:00Z,49.2,4.15,15.0,7.0,20,10,,6.21,30.147638,,,TRUE,,,,,,,,CAVOK,,,,,,,,VFR,,,,,,,,,,,,METAR,92.0
LFPV 302130Z AUTO 03010KT 350V050 CAVOK 17/08 Q1021 NOSIG,LFPV,2023-05-30T21:30:00Z,48.77,2.2,17.0,8.0,30,10,,6.21,30.147638,,,TRUE,,,TRUE,,,,,CAVOK,,,,,,,,VFR,,,,,,,,,,,,METAR,171.0
LFPT 302130Z AUTO 03013KT CAVOK 14/10 Q1022,LFPT,2023-05-30T21:30:00Z,49.1,2.03,14.0,10.0,30,13,,6.21,30.177166,,,TRUE,,,,,,,,CAVOK,,,,,,,,VFR,,,,,,,,,,,,METAR,91.0
LFPO 302130Z AUTO 03012KT CAVOK 18/07 Q1021 NOSIG,LFPO,2023-05-30T21:30:00Z,48.72,2.38,18.0,7.0,30,12,,6.21,30.147638,,,TRUE,,,TRUE,,,,,CAVOK,,,,,,,,VFR,,,,,,,,,,,,METAR,88.0
LFPN 302130Z AUTO 04009KT CAVOK 17/08 Q1021,LFPN,2023-05-30T21:30:00Z,48.75,2.12,17.0,8.0,40,9,,6.21,30.147638,,,TRUE,,,,,,,,CAVOK,,,,,,,,VFR,,,,,,,,,,,,METAR,152.0
LFPM 302130Z AUTO 01007KT CAVOK 15/07 Q1021,LFPM,2023-05-30T21:30:00Z,48.62,2.67,15.0,7.0,10,7,,6.21,30.147638,,,TRUE,,,,,,,,CAVOK,,,,,,,,VFR,,,,,,,,,,,,METAR,91.0
LFPG 302130Z 01009KT 360V110 CAVOK 16/09 Q1022 NOSIG,LFPG,2023-05-30T21:30:00Z,49.02,2.53,16.0,9.0,10,9,,6.21,30.177166,,,,,,TRUE,,,,,CAVOK,,,,,,,,VFR,,,,,,,,,,,,METAR,107.0
LFPB 302130Z AUTO 36008KT CAVOK 17/09 Q1021 NOSIG,LFPB,2023-05-30T21:30:00Z,48.97,2.42,17.0,9.0,360,8,,6.21,30.147638,,,TRUE,,,TRUE,,,,,CAVOK,,,,,,,,VFR,,,,,,,,,,,,METAR,50.0
LFOZ 302130Z AUTO 03007KT 360V070 CAVOK 17/06 Q1020,LFOZ,2023-05-30T21:30:00Z,47.9,2.17,17.0,6.0,30,7,,6.21,30.11811,,,TRUE,,,,,,,,CAVOK,,,,,,,,VFR,,,,,,,,,,,,METAR,121.0
LFOV 302130Z AUTO 02010KT CAVOK 15/11 Q1021,LFOV,2023-05-30T21:30:00Z,48.03,-0.75,15.0,11.0,20,10,,6.21,30.147638,,,TRUE,,,,,,,,CAVOK,,,,,,,,VFR,,,,,,,,,,,,METAR,99.0
LFOT 302130Z AUTO 03006KT 350V080 CAVOK 16/07 Q1020 NOSIG,LFOT,2023-05-30T21:30:00Z,47.43,0.72,16.0,7.0,30,6,,6.21,30.11811,,,TRUE,,,TRUE,,,,,CAVOK,,,,,,,,VFR,,,,,,,,,,,,METAR,107.0
LFOP 302130Z AUTO 01012KT CAVOK 12/09 Q1023,LFOP,2023-05-30T21:30:00Z,49.37,1.17,12.0,9.0,10,12,,6.21,30.206694,,,TRUE,,,,,,,,CAVOK,,,,,,,,VFR,,,,,,,,,,,,METAR,149.0
LFOK 302130Z AUTO 02010KT CAVOK 14/08 Q1020 NOSIG,LFOK,2023-05-30T21:30:00Z,48.78,4.15,14.0,8.0,20,10,,6.21,30.11811,,,TRUE,,,TRUE,,,,,CAVOK,,,,,,,,VFR,,,,,,,,,,,,METAR,166.0
LFOJ 302130Z AUTO 02009KT CAVOK 14/07 Q1020 NOSIG,LFOJ,2023-05-30T21:30:00Z,47.98,1.75,14.0,7.0,20,9,,6.21,30.11811,,,TRUE,,,TRUE,,,,,CAVOK,,,,,,,,VFR,,,,,,,,,,,,METAR,122.0
LFOH 302130Z AUTO 05017KT 9999 OVC013 12/09 Q1024,LFOH,2023-05-30T21:30:00Z,49.52,0.08,12.0,9.0,50,17,,6.21,30.236221,,,TRUE,,,,,,,,OVC,1300,,,,,,,MVFR,,,,,,,,,,,,METAR,87.0
LFOE 302130Z AUTO 04011KT CAVOK 14/10 Q1023 NOSIG,LFOE,2023-05-30T21:30:00Z,49.02,1.22,14.0,10.0,40,11,,6.21,30.206694,,,TRUE,,,TRUE,,,,,CAVOK,,,,,,,,VFR,,,,,,,,,,,,METAR,132.0
LFOB 302130Z AUTO 36010KT CAVOK 12/10 Q1023 NOSIG,LFOB,2023-05-30T21:30:00Z,49.47,2.12,12.0,10.0,360,10,,6.21,30.206694,,,TRUE,,,TRUE,,,,,CAVOK,,,,,,,,VFR,,,,,,,,,,,,METAR,99.0
LFOA 302130Z AUTO 03011KT CAVOK 18/10 Q1018 NOSIG,LFOA,2023-05-30T21:30:00Z,47.05,2.63,18.0,10.0,30,11,,6.21,30.059055,,,TRUE,,,TRUE,,,,,CAVOK,,,,,,,,VFR,,,,,,,,,,,,METAR,174.0
LFMY 302130Z AUTO VRB02KT 9999 //////CB 19/14 Q1015,LFMY,2023-05-30T21:30:00Z,43.6,5.1,19.0,14.0,0,2,,6.21,29.970472,,,TRUE,,,,,,,,,,,,,,,,,,,,,,,,,,,,METAR,57.0
LFMV 302130Z AUTO 19004KT 100V250 9999 RA FEW058/// OVC096/// ///CB 18/14 Q1014,LFMV,2023-05-30T21:30:00Z,43.9,4.9,18.0,14.0,190,4,,6.21,29.940945,,,TRUE,,,,,,,RA,FEW,5800,OVC,9600,,,,,VFR,,,,,,,,,,,,SPECI,33.0
LFMU 302130Z AUTO 22004KT CAVOK 21/12 Q1014,LFMU,2023-05-30T21:30:00Z,43.32,3.35,21.0,12.0,220,4,,6.21,29.940945,,,TRUE,,,,,,,,CAVOK,,,,,,,,VFR,,,,,,,,,,,,METAR,14.0
LFMT 302130Z AUTO 25005KT 9999 ///CB 22/12 Q1013 TEMPO VRB15G25KT TSRA BECMG NSC,LFMT,2023-05-30T21:30:00Z,43.57,3.97,22.0,12.0,250,5,,6.21,29.911417,,,TRUE,,,,,,,,,,,,,,,,,,,,,,,,,,,,SPECI,1.0
LFMP 302130Z AUTO 21005KT 180V240 CAVOK 21/10 Q1014 NOSIG,LFMP,2023-05-30T21:30:00Z,42.73,2.87,21.0,10.0,210,5,,6.21,29.940945,,,TRUE,,,TRUE,,,,,CAVOK,,,,,,,,VFR,,,,,,,,,,,,METAR,41.0
LFMO 302130Z AUTO VRB02KT 9999 -RA //////CB 18/17 Q1015 TEMPO 2000 TSRA BECMG NSC,LFMO,2023-05-30T21:30:00Z,44.13,4.87,18.0,17.0,0,2,,6.21,29.970472,,,TRUE,,,,,,,-RA,,,,,,,,,,,,,,,,,,,,,SPECI,56.0
LFMN 302130Z 33011KT 9999 FEW080 SCT130 BKN180 21/14 Q1014 RETSRA NOSIG,LFMN,2023-05-30T21:30:00Z,43.65,7.2,21.0,14.0,330,11,,6.21,29.940945,,,,,,TRUE,,,,,FEW,8000,SCT,13000,BKN,18000,,,VFR,,,,,,,,,,,,METAR,4.0
LFML 302130Z AUTO 08009KT CAVOK 21/13 Q1014 NOSIG,LFML,2023-05-30T21:30:00Z,43.45,5.22,21.0,13.0,80,9,,6.21,29.940945,,,TRUE,,,TRUE,,,,,CAVOK,,,,,,,,VFR,,,,,,,,,,,,METAR,20.0
LFMK 302130Z AUTO VRB02KT CAVOK 16/14 Q1015,LFMK,2023-05-30T21:30:00Z,43.22,2.32,16.0,14.0,0,2,,6.21,29.970472,,,TRUE,,,,,,,,CAVOK,,,,,,,,VFR,,,,,,,,,,,,METAR,124.0
LFMI 302130Z AUTO 09003KT 050V120 9999 //////CB 22/15 Q1014 TEMPO 4000 SHRA,LFMI,2023-05-30T21:30:00Z,43.52,4.93,22.0,15.0,90,3,,6.21,29.940945,,,TRUE,,,,,,,,,,,,,,,,,,,,,,,,,,,,SPECI,20.0
LFMH 302130Z AUTO VRB03KT CAVOK 17/10 Q1017,LFMH,2023-05-30T21:30:00Z,45.52,4.28,17.0,10.0,0,3,,6.21,30.029528,,,TRUE,,,,,,,,CAVOK,,,,,,,,VFR,,,,,,,,,,,,METAR,400.0
LFMD 302130Z AUTO 35005KT 320V050 9999 BKN100/// OVC140/// ///CB 20/12 Q1013,LFMD,2023-05-30T21:30:00Z,43.53,6.95,20.0,12.0,350,5,,6.21,29.911417,,,TRUE,,,,,,,,BKN,10000,OVC,14000,,,,,VFR,,,,,,,,,,,,SPECI,2.0
LFMC 302130Z AUTO 27003KT 240V300 9999 ////// 19/13 Q1014,LFMC,2023-05-30T21:30:00Z,43.37,6.38,19.0,13.0,270,3,,6.21,29.940945,,,TRUE,,,,,,,,,,,,,,,,,,,,,,,,,,,,METAR,79.0
LFLY 302130Z AUTO 34008KT CAVOK 21/12 Q1015 NOSIG,LFLY,2023-05-30T21:30:00Z,45.72,4.95,21.0,12.0,340,8,,6.21,29.970472,,,TRUE,,,TRUE,,,,,CAVOK,,,,,,,,VFR,,,,,,,,,,,,METAR,197.0
LFLX 302130Z AUTO 02008KT CAVOK 15/11 Q1018 NOSIG,LFLX,2023-05-30T21:30:00Z,46.87,1.73,15.0,11.0,20,8,,6.21,30.059055,,,TRUE,,,TRUE,,,,,CAVOK,,,,,,,,VFR,,,,,,,,,,,,METAR,157.0
LFLW 302130Z AUTO 10003KT CAVOK 14/12 Q1017,LFLW,2023-05-30T21:30:00Z,44.88,2.42,14.0,12.0,100,3,,6.21,30.029528,,,TRUE,,,,,,,,CAVOK,,,,,,,,VFR,,,,,,,,,,,,METAR,638.0
LFLS 302130Z AUTO VRB03KT 9999 FEW066 BKN084 19/09 Q1015,LFLS,2023-05-30T21:30:00Z,45.37,5.32,19.0,9.0,0,3,,6.21,29.970472,,,TRUE,,,,,,,,FEW,6600,BKN,8400,,,,,VFR,,,,,,,,,,,,METAR,386.0
LFLP 302130Z AUTO 04003KT 340V100 CAVOK 18/08 Q1016,LFLP,2023-05-30T21:30:00Z,45.92,6.1,18.0,8.0,40,3,,6.21,30.0,,,TRUE,,,,,,,,CAVOK,,,,,,,,VFR,,,,,,,,,,,,METAR,460.0
LFLN 302130Z AUTO 32003KT CAVOK 15/10 Q1017,LFLN,2023-05-30T21:30:00Z,46.42,4.02,15.0,10.0,320,3,,6.21,30.029528,,,TRUE,,,,,,,,CAVOK,,,,,,,,VFR,,,,,,,,,,,,METAR,238.0
LFLL 302130Z 34005KT CAVOK 20/12 Q1015 NOSIG,LFLL,2023-05-30T21:30:00Z,45.72,5.07,20.0,12.0,340,5,,6.21,29.970472,,,,,,TRUE,,,,,CAVOK,,,,,,,,VFR,,,,,,,,,,,,METAR,234.0
LFLC 302130Z AUTO 35004KT CAVOK 18/10 Q1017 NOSIG,LFLC,2023-05-30T21:30:00Z,45.78,3.17,18.0,10.0,350,4,,6.21,30.029528,,,TRUE,,,TRUE,,,,,CAVOK,,,,,,,,VFR,,,,,,,,,,,,METAR,325.0
LFLB 302130Z AUTO 18003KT CAVOK 14/11 Q1015,LFLB,2023-05-30T21:30:00Z,45.63,5.87,14.0,11.0,180,3,,6.21,29.970472,,,TRUE,,,,,,,,CAVOK,,,,,,,,VFR,,,,,,,,,,,,METAR,234.0
LFKS 302130Z AUTO 26005KT 240V300 CAVOK 19/13 Q1013,LFKS,2023-05-30T21:30:00Z,41.92,9.4,19.0,13.0,260,5,,6.21,29.911417,,,TRUE,,,,,,,,CAVOK,,,,,,,,VFR,,,,,,,,,,,,METAR,22.0
LFKJ 302130Z AUTO 05007KT 9999 BKN012 19/16 Q1013 BECMG NSC,LFKJ,2023-05-30T21:30:00Z,41.92,8.8,19.0,16.0,50,7,,6.21,29.911417,,,TRUE,,,,,,,,BKN,1200,,,,,,,MVFR,,,,,,,,,,,,SPECI,9.0
LFKF 302130Z AUTO 02003KT CAVOK 16/14 Q1014 NOSIG,LFKF,2023-05-30T21:30:00Z,41.5,9.08,16.0,14.0,20,3,,6.21,29.940945,,,TRUE,,,TRUE,,,,,CAVOK,,,,,,,,VFR,,,,,,,,,,,,METAR,15.0
LFKC 302130Z AUTO 17004KT 140V210 CAVOK 18/11 Q1013,LFKC,2023-05-30T21:30:00Z,42.52,8.8,18.0,11.0,170,4,,6.21,29.911417,,,TRUE,,,,,,,,CAVOK,,,,,,,,VFR,,,,,,,,,,,,METAR,38.0
LFKB 302130Z AUTO 21004KT CAVOK 17/13 Q1013 NOSIG,LFKB,2023-05-30T21:30:00Z,42.55,9.48,17.0,13.0,210,4,,6.21,29.911417,,,TRUE,,,TRUE,,,,,CAVOK,,,,,,,,VFR,,,,,,,,,,,,METAR,7.0
LFJR 302130Z AUTO 04007KT 010V070 CAVOK 18/06 Q1020,LFJR,2023-05-30T21:30:00Z,47.57,-0.32,18.0,6.0,40,7,,6.21,30.11811,,,TRUE,,,,,,,,CAVOK,,,,,,,,VFR,,,,,,,,,,,,METAR,50.0
LFJL 302130Z AUTO 05007KT CAVOK 14/06 Q1021 NOSIG,LFJL,2023-05-30T21:30:00Z,48.97,6.25,14.0,6.0,50,7,,6.21,30.147638,,,TRUE,,,TRUE,,,,,CAVOK,,,,,,,,VFR,,,,,,,,,,,,METAR,259.0
LFGJ 302130Z AUTO 01007KT 9000 NSC 17/10 Q1016,LFGJ,2023-05-30T21:30:00Z,47.05,5.43,17.0,10.0,10,7,,5.59,30.0,,,TRUE,,,,,,,,CLR,,,,,,,,VFR,,,,,,,,,,,,METAR,191.0
LFGA 302130Z AUTO 36008KT CAVOK 18/05 Q1019,LFGA,2023-05-30T21:30:00Z,48.1,7.35,18.0,5.0,360,8,,6.21,30.088583,,,TRUE,,,,,,,,CAVOK,,,,,,,,VFR,,,,,,,,,,,,METAR,191.0
LFCR 302130Z AUTO 00000KT CAVOK 15/13 Q1017 NOSIG,LFCR,2023-05-30T21:30:00Z,44.4,2.47,15.0,13.0,0,0,,6.21,30.029528,,,TRUE,,,TRUE,,,,,CAVOK,,,,,,,,VFR,,,,,,,,,,,,METAR,576.0
LFCK 302130Z AUTO 12005KT CAVOK 16/14 Q1016,LFCK,2023-05-30T21:30:00Z,43.55,2.28,16.0,14.0,120,5,,6.21,30.0,,,TRUE,,,,,,,,CAVOK,,,,,,,,VFR,,,,,,,,,,,,METAR,223.0
LFBZ 302130Z AUTO 24003KT 210V280 9999 FEW008 SCT072 18/17 Q1016 TEMPO BKN005,LFBZ,2023-05-30T21:30:00Z,43.47,-1.53,18.0,17.0,240,3,,6.21,30.0,,,TRUE,,,,,,,,FEW,800,SCT,7200,,,,,VFR,,,,,,,,,,,,SPECI,70.0
LFBY 302130Z AUTO 24005KT 5000 // ////// 18/18 Q1016,LFBY,2023-05-30T21:30:00Z,43.68,-1.07,18.0,18.0,240,5,,3.11,30.0,,,TRUE,,,,,,,,,,,,,,,,,,,,,,,,,,,,METAR,32.0
LFBX 302130Z AUTO 00000KT CAVOK 16/12 Q1015,LFBX,2023-05-30T21:30:00Z,45.2,0.82,16.0,12.0,0,0,,6.21,29.970472,,,TRUE,,,,,,,,CAVOK,,,,,,,,VFR,,,,,,,,,,,,METAR,97.0
LFBU 302130Z AUTO 02009KT CAVOK 20/12 Q1017,LFBU,2023-05-30T21:30:00Z,45.72,0.22,20.0,12.0,20,9,,6.21,30.029528,,,TRUE,,,,,,,,CAVOK,,,,,,,,VFR,,,,,,,,,,,,METAR,124.0
LFBT 302130Z AUTO 20007KT 9999 BKN100 17/13 Q1017 NOSIG,LFBT,2023-05-30T21:30:00Z,43.18,0.0,17.0,13.0,200,7,,6.21,30.029528,,,TRUE,,,TRUE,,,,,BKN,10000,,,,,,,VFR,,,,,,,,,,,,METAR,359.0
LFBP 302130Z AUTO 25006KT CAVOK 19/15 Q1016 NOSIG,LFBP,2023-05-30T21:30:00Z,43.38,-0.42,19.0,15.0,250,6,,6.21,30.0,,,TRUE,,,TRUE,,,,,CAVOK,,,,,,,,VFR,,,,,,,,,,,,METAR,182.0
LFBO 302130Z AUTO 27009KT CAVOK 22/15 Q1015 NOSIG,LFBO,2023-05-30T21:30:00Z,43.62,1.37,22.0,15.0,270,9,,6.21,29.970472,,,TRUE,,,TRUE,,,,,CAVOK,,,,,,,,VFR,,,,,,,,,,,,METAR,150.0
LFBM 302130Z AUTO 21003KT 170V280 CAVOK 18/17 Q1015 BECMG 2000 BR BKN004,LFBM,2023-05-30T21:30:00Z,43.92,-0.5,18.0,17.0,210,3,,6.21,29.970472,,,TRUE,,,,,,,,CAVOK,,,,,,,,VFR,,,,,,,,,,,,SPECI,56.0
LFBL 302130Z AUTO 02009KT CAVOK 18/12 Q1017 NOSIG,LFBL,2023-05-30T21:30:00Z,45.87,1.17,18.0,12.0,20,9,,6.21,30.029528,,,TRUE,,,TRUE,,,,,CAVOK,,,,,,,,VFR,,,,,,,,,,,,METAR,402.0
LFBI 302130Z AUTO 02010KT CAVOK 19/11 Q1018 NOSIG,LFBI,2023-05-30T21:30:00Z,46.58,0.32,19.0,11.0,20,10,,6.21,30.059055,,,TRUE,,,TRUE,,,,,CAVOK,,,,,,,,VFR,,,,,,,,,,,,METAR,117.0
LFBH 302130Z AUTO 04009KT CAVOK 19/12 Q1017 NOSIG,LFBH,2023-05-30T21:30:00Z,46.18,-1.2,19.0,12.0,40,9,,6.21,30.029528,,,TRUE,,,TRUE,,,,,CAVOK,,,,,,,,VFR,,,,,,,,,,,,METAR,18.0
LFBG 302130Z AUTO 01007KT CAVOK 21/12 Q1016 NOSIG,LFBG,2023-05-30T21:30:00Z,45.67,-0.32,21.0,12.0,10,7,,6.21,30.0,,,TRUE,,,TRUE,,,,,CAVOK,,,,,,,,VFR,,,,,,,,,,,,METAR,28.0
LFBE 302130Z AUTO VRB02KT CAVOK 17/13 Q1015,LFBE,2023-05-30T21:30:00Z,44.82,0.52,17.0,13.0,0,2,,6.21,29.970472,,,TRUE,,,,,,,,CAVOK,,,,,,,,VFR,,,,,,,,,,,,METAR,49.0
LFBD 302130Z AUTO 04008KT CAVOK 24/12 Q1015 NOSIG,LFBD,2023-05-30T21:30:00Z,44.82,-0.7,24.0,12.0,40,8,,6.21,29.970472,,,TRUE,,,TRUE,,,,,CAVOK,,,,,,,,VFR,,,,,,,,,,,,METAR,48.0
LFBC 302130Z AUTO VRB03KT CAVOK 18/16 Q1015 NOSIG,LFBC,2023-05-30T21:30:00Z,44.52,-1.12,18.0,16.0,0,3,,6.21,29.970472,,,TRUE,,,TRUE,,,,,CAVOK,,,,,,,,VFR,,,,,,,,,,,,METAR,22.0
LFBA 302130Z AUTO 29006KT CAVOK 20/16 Q1015,LFBA,2023-05-30T21:30:00Z,44.17,0.6,20.0,16.0,290,6,,6.21,29.970472,,,TRUE,,,,,,,,CAVOK,,,,,,,,VFR,,,,,,,,,,,,METAR,68.0
LFAT 302130Z AUTO 06008KT 350V100 9999 BKN020 12/08 Q1025,LFAT,2023-05-30T21:30:00Z,50.52,1.62,12.0,8.0,60,8,,6.21,30.265747,,,TRUE,,,,,,,,BKN,2000,,,,,,,MVFR,,,,,,,,,,,,METAR,2.0
LFAQ 302130Z AUTO 01012KT CAVOK 12/10 Q1023,LFAQ,2023-05-30T21:30:00Z,49.97,2.7,12.0,10.0,10,12,,6.21,30.206694,,,TRUE,,,,,,,,CAVOK,,,,,,,,VFR,,,,,,,,,,,,METAR,107.0
LEZL 302130Z 21007KT 170V240 CAVOK 22/16 Q1017 NOSIG,LEZL,2023-05-30T21:30:00Z,37.42,-5.9,22.0,16.0,210,7,,6.21,30.029528,,,,,,TRUE,,,,,CAVOK,,,,,,,,VFR,,,,,,,,,,,,METAR,26.0
LEZG 302130Z 25008KT 220V280 9999 FEW050TCU SCT080 21/13 Q1016,LEZG,2023-05-30T21:30:00Z,41.67,-1.02,21.0,13.0,250,8,,6.21,30.0,,,,,,,,,,,FEW,5000,SCT,8000,,,,,VFR,,,,,,,,,,,,METAR,245.0
LEXJ 302130Z AUTO 00000KT 9000 NCD 17/17 Q1017,LEXJ,2023-05-30T21:30:00Z,43.42,-3.82,17.0,17.0,0,0,,5.59,30.029528,,,TRUE,,,,,,,,CLR,,,,,,,,VFR,,,,,,,,,,,,METAR,1.0
LEVX 302130Z VRB02KT 9999 FEW012 15/14 Q1017 NOSIG,LEVX,2023-05-30T21:30:00Z,42.23,-8.62,15.0,14.0,0,2,,6.21,30.029528,,,,,,TRUE,,,,,FEW,1200,,,,,,,VFR,,,,,,,,,,,,METAR,253.0
LEVT 302130Z VRB01KT CAVOK 15/13 Q1017,LEVT,2023-05-30T21:30:00Z,42.87,-2.72,15.0,13.0,0,1,,6.21,30.029528,,,,,,,,,,,CAVOK,,,,,,,,VFR,,,,,,,,,,,,METAR,501.0
LEVS 302130Z AUTO VRB02KT 9999 BKN028 BKN033 15/13 Q1018,LEVS,2023-05-30T21:30:00Z,40.37,-3.78,15.0,13.0,0,2,,6.21,30.059055,,,TRUE,,,,,,,,BKN,2800,BKN,3300,,,,,MVFR,,,,,,,,,,,,METAR,683.0
LEVD 302130Z AUTO 23004KT CAVOK 14/11 Q1018,LEVD,2023-05-30T21:30:00Z,41.72,-4.85,14.0,11.0,230,4,,6.21,30.059055,,,TRUE,,,,,,,,CAVOK,,,,,,,,VFR,,,,,,,,,,,,METAR,844.0
LEVC 302130Z 25002KT CAVOK 19/15 Q1015 NOSIG,LEVC,2023-05-30T21:30:00Z,39.5,-0.47,19.0,15.0,250,2,,6.21,29.970472,,,,,,TRUE,,,,,CAVOK,,,,,,,,VFR,,,,,,,,,,,,METAR,58.0
LETU 302130Z AUTO 00000KT 9999 FEW077/// 20/11 Q1016,LETU,2023-05-30T21:30:00Z,,,20.0,11.0,0,0,,6.21,30.0,,,TRUE,,,,,,,,FEW,7700,,,,,,,VFR,,,,,,,,,,,,METAR,
LETO 302130Z 00000KT CAVOK 13/13 Q1017 NOSIG,LETO,2023-05-30T21:30:00Z,40.48,-3.47,13.0,13.0,0,0,,6.21,30.029528,,,,,,TRUE,,,,,CAVOK,,,,,,,,VFR,,,,,,,,,,,,METAR,598.0
LETL 302130Z AUTO 12005KT CAVOK 12/10 Q1019,LETL,2023-05-30T21:30:00Z,40.42,-1.22,12.0,10.0,120,5,,6.21,30.088583,,,TRUE,,,,,,,,CAVOK,,,,,,,,VFR,,,,,,,,,,,,METAR,1024.0
LEST 302130Z VRB01KT 8000 R17///// R35/P2000 SCT009 OVC025 15/15 Q1018 TEMPO 3000 BR BKN009,LEST,2023-05-30T21:30:00Z,42.88,-8.42,15.0,15.0,0,1,,4.97,30.059055,,,,,,,,,,,SCT,900,OVC,2500,,,,,MVFR,,,,,,,,,,,,SPECI,363.0
LESO 302130Z AUTO 23003KT 200V270 CAVOK 19/17 Q1016,LESO,2023-05-30T21:30:00Z,43.35,-1.8,19.0,17.0,230,3,,6.21,30.0,,,TRUE,,,,,,,,CAVOK,,,,,,,,VFR,,,,,,,,,,,,METAR,3.0
LESB 302130Z AUTO 34005KT CAVOK 18/13 Q1015,LESB,2023-05-30T21:30:00Z,39.6,2.7,18.0,13.0,340,5,,6.21,29.970472,,,TRUE,,,,,,,,CAVOK,,,,,,,,VFR,,,,,,,,,,,,METAR,48.0
LESA 302130Z AUTO 30005KT 260V320 8000 -RA SCT016 BKN024 BKN029 15/13 Q1018,LESA,2023-05-30T21:30:00Z,40.95,-5.5,15.0,13.0,300,5,,4.97,30.059055,,,TRUE,,,,,,,-RA,SCT,1600,BKN,2400,BKN,2900,,,MVFR,,,,,,,,,,,,METAR,788.0
LERT 302130Z 27012KT 240V300 CAVOK 20/16 Q1018 NOSIG,LERT,2023-05-30T21:30:00Z,36.63,-6.33,20.0,16.0,270,12,,6.21,30.059055,,,,,,TRUE,,,,,CAVOK,,,,,,,,VFR,,,,,,,,,,,,METAR,27.0
LERS 302130Z 24003KT CAVOK 19/17 Q1015,LERS,2023-05-30T21:30:00Z,41.13,1.17,19.0,17.0,240,3,,6.21,29.970472,,,,,,,,,,,CAVOK,,,,,,,,VFR,,,,,,,,,,,,METAR,68.0
LEPP 302130Z VRB01KT CAVOK 15/13 Q1017,LEPP,2023-05-30T21:30:00Z,42.77,-1.65,15.0,13.0,0,1,,6.21,30.029528,,,,,,,,,,,CAVOK,,,,,,,,VFR,,,,,,,,,,,,METAR,448.0
LEPA 302130Z VRB02KT 9999 FEW020 18/15 Q1015 NOSIG,LEPA,2023-05-30T21:30:00Z,39.55,2.73,18.0,15.0,0,2,,6.21,29.970472,,,,,,TRUE,,,,,FEW,2000,,,,,,,VFR,,,,,,,,,,,,METAR,8.0
LEMO 302130Z 21006KT 190V250 CAVOK 18/14 Q1018 NOSIG,LEMO,2023-05-30T21:30:00Z,37.17,-5.62,18.0,14.0,210,6,,6.21,30.059055,,,,,,TRUE,,,,,CAVOK,,,,,,,,VFR,,,,,,,,,,,,METAR,82.0
LEMI 302130Z AUTO 23003KT CAVOK 17/15 Q1017,LEMI,2023-05-30T21:30:00Z,37.8,-1.12,17.0,15.0,230,3,,6.21,30.029528,,,TRUE,,,,,,,,CAVOK,,,,,,,,VFR,,,,,,,,,,,,METAR,193.0
LEMH 302130Z 29004KT 9999 FEW015 17/16 Q1014,LEMH,2023-05-30T21:30:00Z,39.87,4.22,17.0,16.0,290,4,,6.21,29.940945,,,,,,,,,,,FEW,1500,,,,,,,VFR,,,,,,,,,,,,METAR,82.0
LEMG 302130Z 29007KT 250V320 CAVOK 22/09 Q1016 NOSIG,LEMG,2023-05-30T21:30:00Z,36.67,-4.47,22.0,9.0,290,7,,6.21,30.0,,,,,,TRUE,,,,,CAVOK,,,,,,,,VFR,,,,,,,,,,,,METAR,5.0
LEMD 302130Z VRB01KT CAVOK 14/13 Q1017 NOSIG,LEMD,2023-05-30T21:30:00Z,40.45,-3.57,14.0,13.0,0,1,,6.21,30.029528,,,,,,TRUE,,,,,CAVOK,,,,,,,,VFR,,,,,,,,,,,,METAR,589.0
LELO 302130Z AUTO 29004KT 270V330 CAVOK 16/13 Q1017,LELO,2023-05-30T21:30:00Z,42.45,-2.32,16.0,13.0,290,4,,6.21,30.029528,,,TRUE,,,,,,,,CAVOK,,,,,,,,VFR,,,,,,,,,,,,METAR,352.0
LELN 302130Z AUTO 27005KT CAVOK 14/10 Q1019,LELN,2023-05-30T21:30:00Z,42.58,-5.65,14.0,10.0,270,5,,6.21,30.088583,,,TRUE,,,,,,,,CAVOK,,,,,,,,VFR,,,,,,,,,,,,METAR,911.0
LELL 302130Z AUTO 28005KT CAVOK 18/12 Q1015,LELL,2023-05-30T21:30:00Z,41.52,2.1,18.0,12.0,280,5,,6.21,29.970472,,,TRUE,,,,,,,,CAVOK,,,,,,,,VFR,,,,,,,,,,,,METAR,136.0
LELC 302130Z AUTO 25003KT 220V280 CAVOK 19/16 Q1016,LELC,2023-05-30T21:30:00Z,37.77,-0.8,19.0,16.0,250,3,,6.21,30.0,,,TRUE,,,,,,,,CAVOK,,,,,,,,VFR,,,,,,,,,,,,METAR,3.0
LEIB 302130Z VRB01KT CAVOK 18/16 Q1015 NOSIG,LEIB,2023-05-30T21:30:00Z,38.87,1.38,18.0,16.0,0,1,,6.21,29.970472,,,,,,TRUE,,,,,CAVOK,,,,,,,,VFR,,,,,,,,,,,,METAR,4.0
LEHC 302130Z AUTO 02003KT 350V050 CAVOK 18/10 Q1017,LEHC,2023-05-30T21:30:00Z,42.08,-0.32,18.0,10.0,20,3,,6.21,30.029528,,,TRUE,,,,,,,,CAVOK,,,,,,,,VFR,,,,,,,,,,,,METAR,540.0
LEGR 302130Z AUTO 25003KT 9999 FEW067 18/09 Q1018,LEGR,2023-05-30T21:30:00Z,37.18,-3.78,18.0,9.0,250,3,,6.21,30.059055,,,TRUE,,,,,,,,FEW,6700,,,,,,,VFR,,,,,,,,,,,,METAR,560.0
LEGE 302130Z 00000KT CAVOK 17/13 Q1015,LEGE,2023-05-30T21:30:00Z,41.9,2.77,17.0,13.0,0,0,,6.21,29.970472,,,,,,,,,,,CAVOK,,,,,,,,VFR,,,,,,,,,,,,METAR,140.0
LEDA 302130Z AUTO 08003KT 040V120 CAVOK 18/13 Q1016,LEDA,2023-05-30T21:30:00Z,41.73,0.53,18.0,13.0,80,3,,6.21,30.0,,,TRUE,,,,,,,,CAVOK,,,,,,,,VFR,,,,,,,,,,,,METAR,352.0
LECO 302130Z VRB01KT 9999 OVC012 16/15 Q1018 NOSIG,LECO,2023-05-30T21:30:00Z,43.3,-8.37,16.0,15.0,0,1,,6.21,30.059055,,,,,,TRUE,,,,,OVC,1200,,,,,,,MVFR,,,,,,,,,,,,METAR,80.0
LECH 302130Z AUTO 23003KT 200V260 9000 NCD 17/14 Q1016,LECH,2023-05-30T21:30:00Z,40.2,0.07,17.0,14.0,230,3,,5.59,30.0,,,TRUE,,,,,,,,CLR,,,,,,,,VFR,,,,,,,,,,,,METAR,360.0
LEBT 302130Z AUTO VRB01KT CAVOK 16/13 Q1016,LEBT,2023-05-30T21:30:00Z,39.58,-0.45,16.0,13.0,0,1,,6.21,30.0,,,TRUE,,,,,,,,CAVOK,,,,,,,,VFR,,,,,,,,,,,,METAR,50.0
LEBR 302130Z AUTO 28003KT 250V310 9999 FEW084/// 19/12 Q1016,LEBR,2023-05-30T21:30:00Z,42.2,-1.43,19.0,12.0,280,3,,6.21,30.0,,,TRUE,,,,,,,,FEW,8400,,,,,,,VFR,,,,,,,,,,,,METAR,347.0
LEBL 302130Z 27004KT 9999 FEW030 19/16 Q1015 NOSIG,LEBL,2023-05-30T21:30:00Z,41.28,2.07,19.0,16.0,270,4,,6.21,29.970472,,,,,,TRUE,,,,,FEW,3000,,,,,,,VFR,,,,,,,,,,,,METAR,2.0
LEBG 302130Z AUTO 14004KT 100V190 CAVOK 13/10 Q1019,LEBG,2023-05-30T21:30:00Z,42.37,-3.62,13.0,10.0,140,4,,6.21,30.088583,,,TRUE,,,,,,,,CAVOK,,,,,,,,VFR,,,,,,,,,,,,METAR,892.0
LEBB 302130Z VRB02KT 9000 NSC 18/16 Q1017 NOSIG,LEBB,2023-05-30T21:30:00Z,43.28,-2.92,18.0,16.0,0,2,,5.59,30.029528,,,,,,TRUE,,,,,CLR,,,,,,,,VFR,,,,,,,,,,,,METAR,38.0
LEBA 302130Z AUTO 22008KT 190V270 CAVOK 20/14 Q1017,LEBA,2023-05-30T21:30:00Z,37.85,-4.83,20.0,14.0,220,8,,6.21,30.029528,,,TRUE,,,,,,,,CAVOK,,,,,,,,VFR,,,,,,,,,,,,METAR,88.0
LEAS 302130Z 00000KT 9999 OVC012 17/16 Q1018 NOSIG,LEAS,2023-05-30T21:30:00Z,43.57,-6.03,17.0,16.0,0,0,,6.21,30.059055,,,,,,TRUE,,,,,OVC,1200,,,,,,,MVFR,,,,,,,,,,,,METAR,120.0
LEAM 302130Z AUTO 09003KT 9999 BKN100 20/17 Q1016,LEAM,2023-05-30T21:30:00Z,36.85,-2.37,20.0,17.0,90,3,,6.21,30.0,,,TRUE,,,,,,,,BKN,10000,,,,,,,VFR,,,,,,,,,,,,METAR,16.0
LEAL 302130Z 21003KT 170V240 CAVOK 17/16 Q1016 NOSIG,LEAL,2023-05-30T21:30:00Z,38.27,-0.55,17.0,16.0,210,3,,6.21,30.0,,,,,,TRUE,,,,,CAVOK,,,,,,,,VFR,,,,,,,,,,,,METAR,26.0
LEAG 302130Z AUTO 31013KT CAVOK 20/14 Q1017,LEAG,2023-05-30T21:30:00Z,36.12,-5.45,20.0,14.0,310,13,,6.21,30.029528,,,TRUE,,,,,,,,CAVOK,,,,,,,,VFR,,,,,,,,,,,,METAR,4.0
LEAB 302130Z VRB02KT 9999 FEW040 14/13 Q1018 NOSIG,LEAB,2023-05-30T21:30:00Z,38.95,-1.85,14.0,13.0,0,2,,6.21,30.059055,,,,,,TRUE,,,,,FEW,4000,,,,,,,VFR,,,,,,,,,,,,METAR,704.0
LDZD 302130Z 06009KT CAVOK 19/10 Q1015,LDZD,2023-05-30T21:30:00Z,44.1,15.33,19.0,10.0,60,9,,6.21,29.970472,,,,,,,,,,,CAVOK,,,,,,,,VFR,,,,,,,,,,,,METAR,82.0
LDZA 302130Z 29003KT 270V360 CAVOK 16/14 Q1018 NOSIG,LDZA,2023-05-30T21:30:00Z,45.72,16.07,16.0,14.0,290,3,,6.21,30.059055,,,,,,TRUE,,,,,CAVOK,,,,,,,,VFR,,,,,,,,,,,,METAR,103.0
LDSP 302130Z VRB04KT CAVOK 19/12 Q1015 NOSIG,LDSP,2023-05-30T21:30:00Z,43.53,16.3,19.0,12.0,0,4,,6.21,29.970472,,,,,,TRUE,,,,,CAVOK,,,,,,,,VFR,,,,,,,,,,,,METAR,16.0
LDRI 302130Z 10013G27KT 9999 SCT047 22/06 Q1017,LDRI,2023-05-30T21:30:00Z,45.22,14.57,22.0,6.0,100,13,27,6.21,30.029528,,,,,,,,,,,SCT,4700,,,,,,,VFR,,,,,,,,,,,,METAR,80.0
LDPL 302130Z 07014KT CAVOK 21/12 Q1016,LDPL,2023-05-30T21:30:00Z,44.88,13.92,21.0,12.0,70,14,,6.21,30.0,,,,,,,,,,,CAVOK,,,,,,,,VFR,,,,,,,,,,,,METAR,63.0
LDOS 302130Z 23010KT 9999 SCT037 16/15 Q1018 RETS,LDOS,2023-05-30T21:30:00Z,45.47,18.82,16.0,15.0,230,10,,6.21,30.059055,,,,,,,,,,,SCT,3700,,,,,,,VFR,,,,,,,,,,,,METAR,82.0
LDDU 302130Z 30004KT 9999 FEW046 20/13 Q1015 NOSIG,LDDU,2023-05-30T21:30:00Z,42.57,18.27,20.0,13.0,300,4,,6.21,29.970472,,,,,,TRUE,,,,,FEW,4600,,,,,,,VFR,,,,,,,,,,,,METAR,156.0
LCPH 302130Z 36003KT 9999 FEW020 19/15 Q1015 NOSIG,LCPH,2023-05-30T21:30:00Z,34.72,32.47,19.0,15.0,360,3,,6.21,29.970472,,,,,,TRUE,,,,,FEW,2000,,,,,,,VFR,,,,,,,,,,,,METAR,8.0
LCLK 302130Z 29004KT 240V310 CAVOK 19/17 Q1014 NOSIG,LCLK,2023-05-30T21:30:00Z,34.87,33.62,19.0,17.0,290,4,,6.21,29.940945,,,,,,TRUE,,,,,CAVOK,,,,,,,,VFR,,,,,,,,,,,,METAR,2.0
KXBP 302130Z AUTO 18005KT 10SM CLR 31/15 A2990 RMK AO2 T03090153,KXBP,2023-05-30T21:30:00Z,33.18,-97.83,30.9,15.3,180,5,,10.0,29.899607,,,TRUE,TRUE,,,,,,,CLR,,,,,,,,VFR,,,,,,,,,,,,METAR,256.0
KX26 302130Z AUTO 08010KT 28/19 A2990 RMK AO2 TSNO T02830185,KX26,2023-05-30T21:30:00Z,27.82,-80.5,28.3,18.5,80,10,,,29.899607,,,TRUE,TRUE,,,TRUE,,,,,,,,,,,,,,,,,,,,,,,,SPECI,5.0
KVVS 302130Z AUTO 14012G16KT 10SM CLR 27/07 A3009 RMK AO2 T02720075,KVVS,2023-05-30T21:30:00Z,39.95,-79.65,27.2,7.5,140,12,16,10.0,30.088583,,,TRUE,TRUE,,,,,,,CLR,,,,,,,,VFR,,,,,,,,,,,,SPECI,386.0
KVES 302130Z AUTO 18005KT 10SM SCT065 SCT075 SCT100 30/10 A2998 RMK AO2,KVES,2023-05-30T21:30:00Z,40.2,-84.53,30.0,10.0,180,5,,10.0,29.97933,,,TRUE,TRUE,,,,,,,SCT,6500,SCT,7500,SCT,10000,,,VFR,,,,,,,,,,,,SPECI,308.0
KU68 302130Z AUTO 18003KT 10SM CLR 26/00 A2984 RMK AO2 LTG DSNT NW,KU68,2023-05-30T21:30:00Z,44.92,-108.45,26.0,0.0,180,3,,10.0,29.840551,,,TRUE,TRUE,,,,,,,CLR,,,,,,,,VFR,,,,,,,,,,,,SPECI,1244.0
KPMU 302130Z AUTO 00000KT 10SM CLR 30/14 A2991 RMK AO2,KPMU,2023-05-30T21:30:00Z,34.37,-89.9,30.0,14.0,0,0,,10.0,29.911417,,,TRUE,TRUE,,,,,,,CLR,,,,,,,,VFR,,,,,,,,,,,,SPECI,67.0
KOLY 302130Z AUTO 16005KT 10SM BKN120 31/09 A2992 RMK AO2 T03120093 PWINO,KOLY,2023-05-30T21:30:00Z,38.72,-88.18,31.2,9.3,160,5,,10.0,29.920275,,,TRUE,TRUE,,,,,TRUE,,BKN,12000,,,,,,,VFR,,,,,,,,,,,,SPECI,144.0
KMPR 302130Z AUTO 15007KT 10SM CLR 27/15 A2986 RMK AO2 T02720150,KMPR,2023-05-30T21:30:00Z,38.35,-97.68,27.2,15.0,150,7,,10.0,29.861221,,,TRUE,TRUE,,,,,,,CLR,,,,,,,,VFR,,,,,,,,,,,,SPECI,455.0
KGNC 302130Z AUTO 13008KT 10SM CLR 32/09 A2993 RMK AO2 T03220094,KGNC,2023-05-30T21:30:00Z,32.68,-102.65,32.2,9.4,130,8,,10.0,29.929134,,,TRUE,TRUE,,,,,,,CLR,,,,,,,,VFR,,,,,,,,,,,,METAR,1002.0
KFSK 302130Z AUTO 20012G17KT 10SM SCT050 30/18 A2989 RMK AO2 T03020179,KFSK,2023-05-30T21:30:00Z,37.8,-94.77,30.2,17.9,200,12,17,10.0,29.890747,,,TRUE,TRUE,,,,,,,SCT,5000,,,,,,,VFR,,,,,,,,,,,,SPECI,276.0
KEAN 302130Z AUTO 18010KT 10SM CLR 21/05 A2990 RMK AO2 LTG DSNT SE AND SW T02140052,KEAN,2023-05-30T21:30:00Z,42.05,-104.93,21.4,5.2,180,10,,10.0,29.899607,,,TRUE,TRUE,,,,,,,CLR,,,,,,,,VFR,,,,,,,,,,,,METAR,1452.0
KDVK 302130Z AUTO 00000KT 10SM SCT060 SCT070 BKN100 26/16 A2998 RMK AO2,KDVK,2023-05-30T21:30:00Z,37.58,-84.77,26.0,16.0,0,0,,10.0,29.97933,,,TRUE,TRUE,,,,,,,SCT,6000,SCT,7000,BKN,10000,,,VFR,,,,,,,,,,,,SPECI,309.0
KDED 302130Z AUTO 10012KT 10SM SCT075 30/18 A2989 RMK AO2 T03010185,KDED,2023-05-30T21:30:00Z,29.07,-81.28,30.1,18.5,100,12,,10.0,29.890747,,,TRUE,TRUE,,,,,,,SCT,7500,,,,,,,VFR,,,,,,,,,,,,SPECI,21.0
KBMC 302130Z AUTO 23008KT 10SM CLR 26/01 A2989 RMK AO1 T02630013,KBMC,2023-05-30T21:30:00Z,41.55,-112.07,26.3,1.3,230,8,,10.0,29.890747,,,TRUE,TRUE,,,,,,,CLR,,,,,,,,VFR,,,,,,,,,,,,METAR,1289.0
KBJC 302130Z 13015G25KT 10SM BKN100 23/01 A3000,KBJC,2023-05-30T21:30:00Z,39.9,-105.1,23.0,1.0,130,15,25,10.0,30.0,,,,,,,,,,,BKN,10000,,,,,,,VFR,,,,,,,,,,,,SPECI,1694.0
KANK 302130Z AUTO 18004G15KT 10SM CLR A3015 RMK AO1,KANK,2023-05-30T21:30:00Z,38.53,-106.05,,,180,4,15,10.0,30.15059,,,TRUE,TRUE,,,,,,,CLR,,,,,,,,VFR,,,,,,,,,,,,METAR,2293.0
K19S 302130Z AUTO 18013KT 10SM CLR 31/14 A2989 RMK AO2 T03130136,K19S,2023-05-30T21:30:00Z,37.48,-100.83,31.3,13.6,180,13,,10.0,29.890747,,,TRUE,TRUE,,,,,,,CLR,,,,,,,,VFR,,,,,,,,,,,,SPECI,886.0
HUEN 302130Z 05002KT 9999 FEW022 FEW024CB 22/20 Q1019,HUEN,2023-05-30T21:30:00Z,0.03,32.45,22.0,20.0,50,2,,6.21,30.088583,,,,,,,,,,,FEW,2200,FEW,2400,,,,,VFR,,,,,,,,,,,,METAR,1147.0
HRYR 302130Z 32002KT 9999 FEW026 SCT100 21/15 Q1023 NOSIG,HRYR,2023-05-30T21:30:00Z,-1.97,30.13,21.0,15.0,320,2,,6.21,30.206694,,,,,,TRUE,,,,,FEW,2600,SCT,10000,,,,,VFR,,,,,,,,,,,,METAR,1493.0
GQNO 302130Z 34014KT 8000 NSC 28/17 Q1011 NOSIG,GQNO,2023-05-30T21:30:00Z,18.3,-15.97,28.0,17.0,340,14,,4.97,29.852362,,,,,,TRUE,,,,,CLR,,,,,,,,MVFR,,,,,,,,,,,,METAR,1.0
GOBD 302130Z 35005KT 9000 NSC 28/19 Q1013 NOSIG,GOBD,2023-05-30T21:30:00Z,14.67,-17.07,28.0,19.0,350,5,,5.59,29.911417,,,,,,TRUE,,,,,CLR,,,,,,,,VFR,,,,,,,,,,,,METAR,90.0
GMTT 302130Z 28005KT 9999 FEW020 19/18 Q1018 NOSIG,GMTT,2023-05-30T21:30:00Z,35.72,-5.9,19.0,18.0,280,5,,6.21,30.059055,,,,,,TRUE,,,,,FEW,2000,,,,,,,VFR,,,,,,,,,,,,METAR,19.0
GMMX 302130Z 02012KT 330V050 9999 SCT023 22/12 Q1017 NOSIG,GMMX,2023-05-30T21:30:00Z,31.62,-8.03,22.0,12.0,20,12,,6.21,30.029528,,,,,,TRUE,,,,,SCT,2300,,,,,,,VFR,,,,,,,,,,,,METAR,465.0
GMMN 302130Z 03008KT 9999 FEW020 19/16 Q1018 NOSIG,GMMN,2023-05-30T21:30:00Z,33.37,-7.58,19.0,16.0,30,8,,6.21,30.059055,,,,,,TRUE,,,,,FEW,2000,,,,,,,VFR,,,,,,,,,,,,METAR,196.0
GMME 302130Z 00000KT 6000 NSC 17/16 Q1018 NOSIG,GMME,2023-05-30T21:30:00Z,34.05,-6.77,17.0,16.0,0,0,,3.73,30.059055,,,,,,TRUE,,,,,CLR,,,,,,,,MVFR,,,,,,,,,,,,METAR,84.0
GMFO 302130Z 11003KT 9999 FEW030 SCT230 16/08 Q1019 NOSIG,GMFO,2023-05-30T21:30:00Z,34.78,-1.92,16.0,8.0,110,3,,6.21,30.088583,,,,,,TRUE,,,,,FEW,3000,SCT,23000,,,,,VFR,,,,,,,,,,,,METAR,452.0
GMFF 302130Z 30005KT 9999 SCT023 FEW033TCU 18/11 Q1019 NOSIG,GMFF,2023-05-30T21:30:00Z,33.92,-4.97,18.0,11.0,300,5,,6.21,30.088583,,,,,,TRUE,,,,,SCT,2300,FEW,3300,,,,,VFR,,,,,,,,,,,,METAR,575.0
GMAD 302130Z 18012KT 8000 NSC 20/17 Q1015 NOSIG,GMAD,2023-05-30T21:30:00Z,30.32,-9.42,20.0,17.0,180,12,,4.97,29.970472,,,,,,TRUE,,,,,CLR,,,,,,,,MVFR,,,,,,,,,,,,METAR,66.0
GEML 302130Z 28012KT 230V320 CAVOK 21/12 Q1017,GEML,2023-05-30T21:30:00Z,35.27,-2.95,21.0,12.0,280,12,,6.21,30.029528,,,,,,,,,,,CAVOK,,,,,,,,VFR,,,,,,,,,,,,METAR,48.0
GECE 302130Z AUTO 28010KT 240V310 CAVOK 21/13 Q1017,GECE,2023-05-30T21:30:00Z,35.88,-5.3,21.0,13.0,280,10,,6.21,30.029528,,,TRUE,,,,,,,,CAVOK,,,,,,,,VFR,,,,,,,,,,,,METAR,2.0
GCXO 302130Z 28003KT 250V320 9999 FEW005 16/14 Q1021 NOSIG,GCXO,2023-05-30T21:30:00Z,28.48,-16.35,16.0,14.0,280,3,,6.21,30.147638,,,,,,TRUE,,,,,FEW,500,,,,,,,VFR,,,,,,,,,,,,METAR,623.0
GCTS 302130Z 15003KT 130V190 9999 BKN030 22/15 Q1020 NOSIG,GCTS,2023-05-30T21:30:00Z,28.05,-16.57,22.0,15.0,150,3,,6.21,30.11811,,,,,,TRUE,,,,,BKN,3000,,,,,,,MVFR,,,,,,,,,,,,METAR,59.0
GCRR 302130Z 34004KT 300V040 9999 FEW025 21/16 Q1019,GCRR,2023-05-30T21:30:00Z,28.95,-13.58,21.0,16.0,340,4,,6.21,30.088583,,,,,,,,,,,FEW,2500,,,,,,,VFR,,,,,,,,,,,,METAR,9.0
GCLP 302130Z 01009KT 9999 FEW030 21/17 Q1019 NOSIG,GCLP,2023-05-30T21:30:00Z,27.92,-15.38,21.0,17.0,10,9,,6.21,30.088583,,,,,,TRUE,,,,,FEW,3000,,,,,,,VFR,,,,,,,,,,,,METAR,16.0
GCLA 302130Z AUTO VRB01KT 9999 SCT028 22/16 Q1020,GCLA,2023-05-30T21:30:00Z,28.62,-17.75,22.0,16.0,0,1,,6.21,30.11811,,,TRUE,,,,,,,,SCT,2800,,,,,,,VFR,,,,,,,,,,,,METAR,20.0
GCHI 302130Z AUTO 35006KT 320V020 CAVOK 21/15 Q1020,GCHI,2023-05-30T21:30:00Z,27.82,-17.88,21.0,15.0,350,6,,6.21,30.11811,,,TRUE,,,,,,,,CAVOK,,,,,,,,VFR,,,,,,,,,,,,METAR,21.0
GCGM 302130Z AUTO 09002KT CAVOK 21/13 Q1020 RMK R09/09003KT 060V120 ARP/09003KT 050V140,GCGM,2023-05-30T21:30:00Z,28.03,-17.22,21.0,13.0,90,2,,6.21,30.11811,,,TRUE,,,,,,,,CAVOK,,,,,,,,VFR,,,,,,,,,,,,METAR,217.0
GCFV 302130Z 04008KT 9999 FEW040 21/17 Q1019,GCFV,2023-05-30T21:30:00Z,28.43,-13.87,21.0,17.0,40,8,,6.21,30.088583,,,,,,,,,,,FEW,4000,,,,,,,VFR,,,,,,,,,,,,METAR,11.0
GABS 302130Z 00000KT CAVOK 30/23 Q1011 NOSIG,GABS,2023-05-30T21:30:00Z,12.53,-7.95,30.0,23.0,0,0,,6.21,29.852362,,,,,,TRUE,,,,,CAVOK,,,,,,,,VFR,,,,,,,,,,,,METAR,375.0
FMEP 302130Z AUTO 05007KT CAVOK 21/15 Q1019,FMEP,2023-05-30T21:30:00Z,-21.32,55.42,21.0,15.0,50,7,,6.21,30.088583,,,TRUE,,,,,,,,CAVOK,,,,,,,,VFR,,,,,,,,,,,,METAR,21.0
FMEE 302130Z AUTO 19006KT CAVOK 19/17 Q1019 NOSIG,FMEE,2023-05-30T21:30:00Z,-20.88,55.52,19.0,17.0,190,6,,6.21,30.088583,,,TRUE,,,TRUE,,,,,CAVOK,,,,,,,,VFR,,,,,,,,,,,,METAR,20.0
FMCZ 302130Z AUTO 16005KT CAVOK 26/23 Q1016 NOSIG,FMCZ,2023-05-30T21:30:00Z,-12.8,45.27,26.0,23.0,160,5,,6.21,30.0,,,TRUE,,,TRUE,,,,,CAVOK,,,,,,,,VFR,,,,,,,,,,,,METAR,7.0
EPWR 302130Z 31003KT CAVOK 11/04 Q1024,EPWR,2023-05-30T21:30:00Z,51.1,16.88,11.0,4.0,310,3,,6.21,30.236221,,,,,,,,,,,CAVOK,,,,,,,,VFR,,,,,,,,,,,,METAR,118.0
EPWA 302130Z 02010KT CAVOK 17/05 Q1023 NOSIG,EPWA,2023-05-30T21:30:00Z,52.17,20.97,17.0,5.0,20,10,,6.21,30.206694,,,,,,TRUE,,,,,CAVOK,,,,,,,,VFR,,,,,,,,,,,,METAR,107.0
EPSY 302130Z 36005KT CAVOK 08/03 Q1024,EPSY,2023-05-30T21:30:00Z,53.47,20.93,8.0,3.0,360,5,,6.21,30.236221,,,,,,,,,,,CAVOK,,,,,,,,VFR,,,,,,,,,,,,METAR,136.0
EPSC 302130Z 36004KT CAVOK 11/03 Q1026,EPSC,2023-05-30T21:30:00Z,53.58,14.9,11.0,3.0,360,4,,6.21,30.295275,,,,,,,,,,,CAVOK,,,,,,,,VFR,,,,,,,,,,,,METAR,47.0
EPRZ 302130Z 35007KT CAVOK 14/08 Q1021,EPRZ,2023-05-30T21:30:00Z,50.1,22.02,14.0,8.0,350,7,,6.21,30.147638,,,,,,,,,,,CAVOK,,,,,,,,VFR,,,,,,,,,,,,METAR,206.0
EPPO 302130Z 02008KT CAVOK 15/06 Q1024,EPPO,2023-05-30T21:30:00Z,52.42,16.83,15.0,6.0,20,8,,6.21,30.236221,,,,,,,,,,,CAVOK,,,,,,,,VFR,,,,,,,,,,,,METAR,87.0
EPMO 302130Z 34005KT CAVOK 13/04 Q1023,EPMO,2023-05-30T21:30:00Z,52.45,20.65,13.0,4.0,340,5,,6.21,30.206694,,,,,,,,,,,CAVOK,,,,,,,,VFR,,,,,,,,,,,,METAR,102.0
EPLL 302130Z 01005KT CAVOK 15/05 Q1023,EPLL,2023-05-30T21:30:00Z,51.72,19.4,15.0,5.0,10,5,,6.21,30.206694,,,,,,,,,,,CAVOK,,,,,,,,VFR,,,,,,,,,,,,METAR,176.0
EPLB 302130Z 31006KT CAVOK 11/06 Q1021,EPLB,2023-05-30T21:30:00Z,51.23,22.72,11.0,6.0,310,6,,6.21,30.147638,,,,,,,,,,,CAVOK,,,,,,,,VFR,,,,,,,,,,,,METAR,206.0
EPKT 302130Z 01001KT CAVOK 08/05 Q1023,EPKT,2023-05-30T21:30:00Z,50.47,19.08,8.0,5.0,10,1,,6.21,30.206694,,,,,,,,,,,CAVOK,,,,,,,,VFR,,,,,,,,,,,,METAR,296.0
EPKK 302130Z 01008KT CAVOK 15/05 Q1022,EPKK,2023-05-30T21:30:00Z,50.07,19.8,15.0,5.0,10,8,,6.21,30.177166,,,,,,,,,,,CAVOK,,,,,,,,VFR,,,,,,,,,,,,METAR,237.0
EPGD 302130Z VRB02KT CAVOK 08/07 Q1025,EPGD,2023-05-30T21:30:00Z,54.37,18.47,8.0,7.0,0,2,,6.21,30.265747,,,,,,,,,,,CAVOK,,,,,,,,VFR,,,,,,,,,,,,METAR,136.0
EPBY 302130Z 05008KT CAVOK 13/05 Q1025,EPBY,2023-05-30T21:30:00Z,53.1,18.0,13.0,5.0,50,8,,6.21,30.265747,,,,,,,,,,,CAVOK,,,,,,,,VFR,,,,,,,,,,,,METAR,66.0
EINN 302130Z 05005KT CAVOK 18/10 Q1029 NOSIG,EINN,2023-05-30T21:30:00Z,52.7,-8.92,18.0,10.0,50,5,,6.21,30.383858,,,,,,TRUE,,,,,CAVOK,,,,,,,,VFR,,,,,,,,,,,,METAR,20.0
EIDW 302130Z 05006KT 9999 FEW019 12/08 Q1031 NOSIG,EIDW,2023-05-30T21:30:00Z,53.42,-6.28,12.0,8.0,50,6,,6.21,30.442913,,,,,,TRUE,,,,,FEW,1900,,,,,,,VFR,,,,,,,,,,,,METAR,75.0
EICK 302130Z VRB02KT 9999 FEW030 SCT200 14/09 Q1029 NOSIG,EICK,2023-05-30T21:30:00Z,51.85,-8.47,14.0,9.0,0,2,,6.21,30.383858,,,,,,TRUE,,,,,FEW,3000,SCT,20000,,,,,VFR,,,,,,,,,,,,METAR,158.0
DTTJ 302130Z 06005KT 9999 FEW030 21/16 Q1013 NOSIG,DTTJ,2023-05-30T21:30:00Z,33.87,10.77,21.0,16.0,60,5,,6.21,29.911417,,,,,,TRUE,,,,,FEW,3000,,,,,,,VFR,,,,,,,,,,,,METAR,3.0
DTTA 302130Z VRB02KT 9999 SCT023 18/17 Q1014,DTTA,2023-05-30T21:30:00Z,36.85,10.22,18.0,17.0,0,2,,6.21,29.940945,,,,,,,,,,,SCT,2300,,,,,,,VFR,,,,,,,,,,,,METAR,4.0
DTNH 302130Z 24004KT 9999 FEW026 SCT033 17/16 Q1014,DTNH,2023-05-30T21:30:00Z,36.07,10.43,17.0,16.0,240,4,,6.21,29.940945,,,,,,,,,,,FEW,2600,SCT,3300,,,,,VFR,,,,,,,,,,,,METAR,1.0
DTMB 302130Z 02003KT 8000 SCT020 SCT026 20/19 Q1014,DTMB,2023-05-30T21:30:00Z,35.77,10.75,20.0,19.0,20,3,,4.97,29.940945,,,,,,,,,,,SCT,2000,SCT,2600,,,,,MVFR,,,,,,,,,,,,METAR,1.0
DAOO 302130Z 23003KT 9999 FEW020 19/15 Q1017,DAOO,2023-05-30T21:30:00Z,35.62,-0.62,19.0,15.0,230,3,,6.21,30.029528,,,,,,,,,,,FEW,2000,,,,,,,VFR,,,,,,,,,,,,METAR,87.0
DAON 302130Z 00000KT 9999 FEW026 18/10 Q1018,DAON,2023-05-30T21:30:00Z,35.02,-1.47,18.0,10.0,0,0,,6.21,30.059055,,,,,,,,,,,FEW,2600,,,,,,,VFR,,,,,,,,,,,,METAR,245.0
DABC 302130Z VRB02KT 8000 SCT020 BKN090 15/13 Q1016,DABC,2023-05-30T21:30:00Z,36.27,6.62,15.0,13.0,0,2,,4.97,30.0,,,,,,,,,,,SCT,2000,BKN,9000,,,,,MVFR,,,,,,,,,,,,METAR,686.0
DABB 302130Z 19005KT 8000 FEW010 17/15 Q1014,DABB,2023-05-30T21:30:00Z,36.82,7.82,17.0,15.0,190,5,,4.97,29.940945,,,,,,,,,,,FEW,1000,,,,,,,MVFR,,,,,,,,,,,,METAR,3.0
DAAT 302130Z 29015KT 6000 NSC 25/02 Q1019,DAAT,2023-05-30T21:30:00Z,22.82,5.47,25.0,2.0,290,15,,3.73,30.088583,,,,,,,,,,,CLR,,,,,,,,MVFR,,,,,,,,,,,,METAR,1376.0
DAAG 302130Z 23005KT 210V270 9999 FEW023TCU FEW026CB SCT080 18/15 Q1016,DAAG,2023-05-30T21:30:00Z,36.68,3.22,18.0,15.0,230,5,,6.21,30.0,,,,,,,,,,,FEW,2300,FEW,2600,SCT,8000,,,VFR,,,,,,,,,,,,METAR,18.0
BIKF 302130Z 24012KT 9999 BKN017 OVC025 07/04 Q1028,BIKF,2023-05-30T21:30:00Z,63.98,-22.6,7.0,4.0,240,12,,6.21,30.35433,,,,,,,,,,,BKN,1700,OVC,2500,,,,,MVFR,,,,,,,,,,,,METAR,49.0
RKSQ 302129Z 09007KT 9999 BKN020 BKN030 18/15 A2990 RMK CIG020,RKSQ,2023-05-30T21:29:00Z,37.67,125.7,18.0,15.0,90,7,,6.21,29.899607,,,,,,,,,,,BKN,2000,BKN,3000,,,,,MVFR,,,,,,,,,,,,SPECI,6.0
MKJS 302129Z VRB02KT 9999 -RA SCT018 SCT018CB 24/23 Q1011,MKJS,2023-05-30T21:29:00Z,18.5,-77.92,24.0,23.0,0,2,,6.21,29.852362,,,,,,,,,,-RA,SCT,1800,SCT,1800,,,,,VFR,,,,,,,,,,,,SPECI,3.0
KCAD 302128Z AUTO 18006KT 10SM SCT095 31/08 A2999 RMK AO2,KCAD,2023-05-30T21:28:00Z,44.27,-85.42,31.0,8.0,180,6,,10.0,29.991142,,,TRUE,TRUE,,,,,,,SCT,9500,,,,,,,VFR,,,,,,,,,,,,SPECI,397.0
RJFY 302126Z 22004KT 9999 FEW003 SCT005 BKN015 25/24 Q1007 RMK 2ST003 3ST005 7CU015 A2976,RJFY,2023-05-30T21:26:00Z,31.37,130.83,25.0,24.0,220,4,,6.21,29.734253,,,,,,,,,,,FEW,300,SCT,500,BKN,1500,,,MVFR,,,,,,,,,,,,METAR,59.0
PAFR 302126Z AUTO 35003KT 10SM OVC026 09/04 A2976 RMK AO2 RAB2056E26 SLP085 $,PAFR,2023-05-30T21:26:00Z,61.27,-149.65,9.0,4.0,350,3,,10.0,29.760826,1008.5,,TRUE,TRUE,TRUE,,,,,,OVC,2600,,,,,,,MVFR,,,,,,,,,,,,SPECI,106.0
KBKF 302126Z 07014KT 10SM VCTS FEW055 SCT070 BKN110 BKN200 17/06 A3001 RMK AO2A PRESFR SLP112,KBKF,2023-05-30T21:26:00Z,39.72,-104.75,17.0,6.0,70,14,,10.0,30.008858,1011.2,,,TRUE,,,,,,VCTS,FEW,5500,SCT,7000,BKN,11000,BKN,20000,VFR,,,,,,,,,,,,SPECI,1703.0
EHFS 302125Z AUTO 01011KT 330V050 9999 NCD 13/11 Q1026,EHFS,2023-05-30T21:25:00Z,51.45,3.6,13.0,11.0,10,11,,6.21,30.295275,,,TRUE,,,,,,,,CLR,,,,,,,,VFR,,,,,,,,,,,,METAR,1.0
EBLB 302125Z AUTO 05006KT 9999 NCD 12/07 Q1024 BLU,EBLB,2023-05-30T21:25:00Z,50.47,6.17,12.0,7.0,50,6,,6.21,30.236221,,,TRUE,,,,,,,,CLR,,,,,,,,VFR,,,,,,,,,,,,METAR,563.0
EBFS 302125Z 04008KT 9999 FEW300 14/08 Q1023 BLU BLU,EBFS,2023-05-30T21:25:00Z,50.23,4.65,14.0,8.0,40,8,,6.21,30.206694,,,,,,,,,,,FEW,30000,,,,,,,VFR,,,,,,,,,,,,METAR,276.0
EBFN 302125Z 03013KT 9999 BKN012 BKN018 12/10 Q1026 GRN WHT TEMPO GRN,EBFN,2023-05-30T21:25:00Z,51.08,2.65,12.0,10.0,30,13,,6.21,30.295275,,,,,,,,,,,BKN,1200,BKN,1800,,,,,MVFR,,,,,,,,,,,,METAR,9.0
EBDT 302125Z AUTO 04010KT 9999 NCD 13/09 Q1025 BLU,EBDT,2023-05-30T21:25:00Z,51.02,5.07,13.0,9.0,40,10,,6.21,30.265747,,,TRUE,,,,,,,,CLR,,,,,,,,VFR,,,,,,,,,,,,METAR,25.0
EBCV 302125Z AUTO 02011KT 9999 FEW085/// SCT100/// BKN120/// 14/09 Q1024 BLU,EBCV,2023-05-30T21:25:00Z,50.57,3.82,14.0,9.0,20,11,,6.21,30.236221,,,TRUE,,,,,,,,FEW,8500,SCT,10000,BKN,12000,,,VFR,,,,,,,,,,,,METAR,56.0
EBBL 302125Z 03008KT 9999 FEW250 13/09 Q1025 BLU BLU,EBBL,2023-05-30T21:25:00Z,51.17,5.47,13.0,9.0,30,8,,6.21,30.265747,,,,,,,,,,,FEW,25000,,,,,,,VFR,,,,,,,,,,,,METAR,50.0
EBBE 302125Z 04008KT 9999 FEW300 13/09 Q1024 BLU BLU,EBBE,2023-05-30T21:25:00Z,50.75,4.77,13.0,9.0,40,8,,6.21,30.236221,,,,,,,,,,,FEW,30000,,,,,,,VFR,,,,,,,,,,,,METAR,127.0
CYWG 302125Z 21013G18KT 190V300 15SM SCT055 BKN130 OVC230 22/16 A2971 RMK CU3AC3CI2 WSHFT 2119 CB EMBD E-S MOVG NE VIRGA SW SLP062 DENSITY ALT 2000FT,CYWG,2023-05-30T21:25:00Z,49.9,-97.23,22.0,16.0,210,13,18,15.0,29.71063,1006.2,,,,,,,,,,SCT,5500,BKN,13000,OVC,23000,,,VFR,,,,,,,,,,,,SPECI,238.0
CYQZ 302125Z AUTO 29004KT 260V330 9SM FEW096 18/02 A2980 RMK SLP097 DENSITY ALT 2700FT,CYQZ,2023-05-30T21:25:00Z,53.02,-122.52,18.0,2.0,290,4,,9.0,29.799213,1009.7,,TRUE,,,,,,,,FEW,9600,,,,,,,VFR,,,,,,,,,,,,SPECI,548.0
CYZP 302124Z AUTO 21005KT 190V290 9SM FEW025 SCT035 BKN046 11/06 A2996 RMK SLP146,CYZP,2023-05-30T21:24:00Z,53.25,-131.82,11.0,6.0,210,5,,9.0,29.958662,1014.6,,TRUE,,,,,,,,FEW,2500,SCT,3500,BKN,4600,,,VFR,,,,,,,,,,,,SPECI,7.0
K1LN 302123Z AUTO 32022G91KT 10SM SQ SCT070 SCT100 26/12 A2976 RMK AO2 WSHFT 21 LTG DSNT E AND W-NW SLP073 $,K1LN,2023-05-30T21:23:00Z,,,26.0,12.0,320,22,91,10.0,29.760826,1007.3,,TRUE,TRUE,TRUE,,,,,SQ,SCT,7000,SCT,10000,,,,,VFR,,,,,,,,,,,,SPECI,
CYXP 302123Z 25005KT 2 1/2SM BR OVC020 01/01 A2960 RMK FG4SC4 SLP029,CYXP,2023-05-30T21:23:00Z,66.15,-65.72,1.0,1.0,250,5,,2.5,29.601377,1002.9,,,,,,,,,BR,OVC,2000,,,,,,,IFR,,,,,,,,,,,,SPECI,29.0
CYHD 302122Z AUTO 19008KT 9SM FEW050 BKN100 20/18 A2978 RMK SLP088 DENSITY ALT 2400FT,CYHD,2023-05-30T21:22:00Z,49.82,-92.75,20.0,18.0,190,8,,9.0,29.778543,1008.8,,TRUE,,,,,,,,FEW,5000,BKN,10000,,,,,VFR,,,,,,,,,,,,SPECI,414.0
LXGB 302120Z AUTO 28016KT 9999 NCD 20/15 Q1017,LXGB,2023-05-30T21:20:00Z,36.15,-5.33,20.0,15.0,280,16,,6.21,30.029528,,,TRUE,,,,,,,,CLR,,,,,,,,VFR,,,,,,,,,,,,METAR,5.0
LGIO 302120Z AUTO 00000KT //// // ////// 12/12 Q1017 RE//,LGIO,2023-05-30T21:20:00Z,39.7,20.82,12.0,12.0,0,0,,,30.029528,,,TRUE,,,,,,,,,,,,,,,,,,,,,,,,,,,,METAR,476.0
KOWP 302120Z AUTO 19004KT 10SM SCT050 32/18 A2993 RMK AO2 T03150181,KOWP,2023-05-30T21:20:00Z,36.18,-96.15,31.5,18.1,190,4,,10.0,29.929134,,,TRUE,TRUE,,,,,,,SCT,5000,,,,,,,VFR,,,,,,,,,,,,METAR,267.0
ETWM 302120Z AUTO 02006KT //// // ////// 12/09 Q1027 ///,ETWM,2023-05-30T21:20:00Z,52.72,7.33,12.0,9.0,20,6,,,30.324802,,,TRUE,,,,,,,,,,,,,,,,,,,,,,,,,,,,METAR,18.0
ETSN 302120Z 06006KT 9999 15/02 Q1021 BLU+,ETSN,2023-05-30T21:20:00Z,48.72,11.22,15.0,2.0,60,6,,6.21,30.147638,,,,,,,,,,,,,,,,,,,,,,,,,,,,,,,METAR,378.0
ETSL 302120Z 05006KT 9999 FEW120 12/07 Q1021 BLU+,ETSL,2023-05-30T21:20:00Z,48.18,10.87,12.0,7.0,50,6,,6.21,30.147638,,,,,,,,,,,FEW,12000,,,,,,,VFR,,,,,,,,,,,,METAR,548.0
ETSI 302120Z AUTO 06009KT 9999 // ////// 17/02 Q1021 ///,ETSI,2023-05-30T21:20:00Z,48.72,11.53,17.0,2.0,60,9,,6.21,30.147638,,,TRUE,,,,,,,,,,,,,,,,,,,,,,,,,,,,METAR,366.0
ETSH 302120Z 01002KT 9999 FEW300 11/03 Q1024 BLU+,ETSH,2023-05-30T21:20:00Z,51.77,13.17,11.0,3.0,10,2,,6.21,30.236221,,,,,,,,,,,FEW,30000,,,,,,,VFR,,,,,,,,,,,,METAR,79.0
ETSB 302120Z AUTO 06009KT //// // ////// 14/06 Q1023 ///,ETSB,2023-05-30T21:20:00Z,50.17,7.07,14.0,6.0,60,9,,,30.206694,,,TRUE,,,,,,,,,,,,,,,,,,,,,,,,,,,,METAR,477.0
ETNW 302120Z 34004KT 9999 FEW270 12/09 Q1026 BLU+,ETNW,2023-05-30T21:20:00Z,52.45,9.42,12.0,9.0,340,4,,6.21,30.295275,,,,,,,,,,,FEW,27000,,,,,,,VFR,,,,,,,,,,,,METAR,57.0
ETNT 302120Z AUTO 01003KT //// // ////// 10/08 Q1028 ///,ETNT,2023-05-30T21:20:00Z,53.53,7.67,10.0,8.0,10,3,,,30.35433,,,TRUE,,,,,,,,,,,,,,,,,,,,,,,,,,,,METAR,5.0
ETNS 302120Z AUTO 02002KT 9999 // ////// 11/08 Q1027 ///,ETNS,2023-05-30T21:20:00Z,54.47,9.52,11.0,8.0,20,2,,6.21,30.324802,,,TRUE,,,,,,,,,,,,,,,,,,,,,,,,,,,,METAR,22.0
ETNN 302120Z 04007KT 9999 SCT300 14/10 Q1024 BLU+,ETNN,2023-05-30T21:20:00Z,50.82,6.67,14.0,10.0,40,7,,6.21,30.236221,,,,,,,,,,,SCT,30000,,,,,,,VFR,,,,,,,,,,,,METAR,108.0
ETNL 302120Z 34001KT 9999 FEW300 11/04 Q1027 BLU+,ETNL,2023-05-30T21:20:00Z,53.92,12.27,11.0,4.0,340,1,,6.21,30.324802,,,,,,,,,,,FEW,30000,,,,,,,VFR,,,,,,,,,,,,METAR,40.0
ETNH 302120Z AUTO 06001KT 5000 // ////// 09/07 Q1027 ///,ETNH,2023-05-30T21:20:00Z,54.32,9.55,9.0,7.0,60,1,,3.11,30.324802,,,TRUE,,,,,,,,,,,,,,,,,,,,,,,,,,,,METAR,6.0
ETMN 302120Z 34004KT 9999 FEW026 10/09 Q1027 BLU+BLU+,ETMN,2023-05-30T21:20:00Z,53.77,8.67,10.0,9.0,340,4,,6.21,30.324802,,,,,,,,,,,FEW,2600,,,,,,,VFR,,,,,,,,,,,,METAR,23.0
ETHS 302120Z 02003KT 9999 FEW280 12/07 Q1026 BLACKBLU+,ETHS,2023-05-30T21:20:00Z,52.92,10.18,12.0,7.0,20,3,,6.21,30.295275,,,,,,,,,,,FEW,28000,,,,,,,VFR,,,,,,,,,,,,METAR,71.0
ETHN 302120Z 06010KT 9999 13/03 Q1022 BLU+BLU+,ETHN,2023-05-30T21:20:00Z,49.38,9.97,13.0,3.0,60,10,,6.21,30.177166,,,,,,,,,,,,,,,,,,,,,,,,,,,,,,,METAR,466.0
ETHL 302120Z 05005KT 9999 FEW300 14/07 Q1020 BLU+,ETHL,2023-05-30T21:20:00Z,48.22,9.92,14.0,7.0,50,5,,6.21,30.11811,,,,,,,,,,,FEW,30000,,,,,,,VFR,,,,,,,,,,,,METAR,536.0
ETHF 302120Z 01005KT 9999 SCT270 14/09 Q1025 BLU+,ETHF,2023-05-30T21:20:00Z,51.12,9.28,14.0,9.0,10,5,,6.21,30.265747,,,,,,,,,,,SCT,27000,,,,,,,VFR,,,,,,,,,,,,METAR,171.0
ETHC 302120Z 34003KT 9999 FEW280 13/09 Q1026 BLU+,ETHC,2023-05-30T21:20:00Z,52.6,10.02,13.0,9.0,340,3,,6.21,30.295275,,,,,,,,,,,FEW,28000,,,,,,,VFR,,,,,,,,,,,,METAR,35.0
ETHB 302120Z VRB01KT 9999 SCT300 11/09 Q1026 BLU+BLU+,ETHB,2023-05-30T21:20:00Z,52.27,9.07,11.0,9.0,0,1,,6.21,30.295275,,,,,,,,,,,SCT,30000,,,,,,,VFR,,,,,,,,,,,,METAR,69.0
ETHA 302120Z AUTO 06007KT 9999 // ////// 12/07 Q1021 ///,ETHA,2023-05-30T21:20:00Z,47.83,10.87,12.0,7.0,60,7,,6.21,30.147638,,,TRUE,,,,,,,,,,,,,,,,,,,,,,,,,,,,METAR,738.0
ETGG 302120Z AUTO 28005KT 9999 // ////// 10/08 Q1027 ///,ETGG,2023-05-30T21:20:00Z,54.83,9.5,10.0,8.0,280,5,,6.21,30.324802,,,TRUE,,,,,,,,,,,,,,,,,,,,,,,,,,,,METAR,33.0
ESPA 302120Z 22007KT CAVOK 11/04 Q1006,ESPA,2023-05-30T21:20:00Z,65.53,22.12,11.0,4.0,220,7,,6.21,29.704725,,,,,,,,,,,CAVOK,,,,,,,,VFR,,,,,,,,,,,,METAR,12.0
ESKN 302120Z 22006KT CAVOK 11/02 Q1021,ESKN,2023-05-30T21:20:00Z,58.78,16.92,11.0,2.0,220,6,,6.21,30.147638,,,,,,,,,,,CAVOK,,,,,,,,VFR,,,,,,,,,,,,METAR,41.0
ENST 302120Z 23010KT 9999 -RA SCT005 BKN008 08/07 Q1010 RMK WIND 300FT 28012KT,ENST,2023-05-30T21:20:00Z,65.97,12.47,8.0,7.0,230,10,,6.21,29.822834,,,,,,,,,,-RA,SCT,500,BKN,800,,,,,IFR,,,,,,,,,,,,SPECI,17.0
ENGC 302120Z 27024KT 9999 FEW015 BKN030 09/08 Q1028 W08/S4,ENGC,2023-05-30T21:20:00Z,61.02,2.02,9.0,8.0,270,24,,6.21,30.35433,,,,,,,,,,,FEW,1500,BKN,3000,,,,,MVFR,,,,,,,,,,,,SPECI,10.0
EGYH 302120Z AUTO 06015KT 9999 // OVC013/// 11/09 Q1030,EGYH,2023-05-30T21:20:00Z,52.87,0.15,11.0,9.0,60,15,,6.21,30.413385,,,TRUE,,,,,,,,OVC,1300,,,,,,,MVFR,,,,,,,,,,,,SPECI,5.0
EGYE 302120Z AUTO 04009KT //// ///////// ///// Q////,EGYE,2023-05-30T21:20:00Z,52.97,-0.57,,,40,9,,,,,,TRUE,,,,,,,,,,,,,,,,,,,,,,,,,,,,METAR,105.0
EGYD 302120Z AUTO 03009KT 9999 -DZ OVC007/// 10/09 Q1031,EGYD,2023-05-30T21:20:00Z,53.03,-0.5,10.0,9.0,30,9,,6.21,30.442913,,,TRUE,,,,,,,-DZ,OVC,700,,,,,,,IFR,,,,,,,,,,,,METAR,65.0
EGXZ 302120Z AUTO 05006KT 9999 OVC020/// 11/07 Q1032,EGXZ,2023-05-30T21:20:00Z,54.2,-1.38,11.0,7.0,50,6,,6.21,30.47244,,,TRUE,,,,,,,,OVC,2000,,,,,,,MVFR,,,,,,,,,,,,METAR,24.0
EGXV 302120Z AUTO 04007KT 9999 OVC013/// 11/09 Q1031,EGXV,2023-05-30T21:20:00Z,53.87,-0.45,11.0,9.0,40,7,,6.21,30.442913,,,TRUE,,,,,,,,OVC,1300,,,,,,,MVFR,,,,,,,,,,,,METAR,6.0
EGXT 302120Z AUTO 03010KT 9999 -DZ OVC009/// 10/09 Q1030,EGXT,2023-05-30T21:20:00Z,52.62,-0.47,10.0,9.0,30,10,,6.21,30.413385,,,TRUE,,,,,,,-DZ,OVC,900,,,,,,,IFR,,,,,,,,,,,,METAR,74.0
EGXS 302120Z AUTO 02017KT 9999 -DZ OVC007/// 11/09 Q1031,EGXS,2023-05-30T21:20:00Z,53.48,0.15,11.0,9.0,20,17,,6.21,30.442913,,,TRUE,,,,,,,-DZ,OVC,700,,,,,,,IFR,,,,,,,,,,,,METAR,6.0
EGXE 302120Z AUTO 05008KT 9999 OVC018/// 11/08 Q1032,EGXE,2023-05-30T21:20:00Z,54.28,-1.52,11.0,8.0,50,8,,6.21,30.47244,,,TRUE,,,,,,,,OVC,1800,,,,,,,MVFR,,,,,,,,,,,,METAR,30.0
EGWU 302120Z AUTO 06013KT 9999 OVC018/// 13/08 Q1028,EGWU,2023-05-30T21:20:00Z,51.55,-0.42,13.0,8.0,60,13,,6.21,30.35433,,,TRUE,,,,,,,,OVC,1800,,,,,,,MVFR,,,,,,,,,,,,METAR,33.0
EGWC 302120Z AUTO 05004KT //// ///////// ///// Q////,EGWC,2023-05-30T21:20:00Z,52.63,-2.3,,,50,4,,,,,,TRUE,,,,,,,,,,,,,,,,,,,,,,,,,,,,SPECI,79.0
EGUW 302120Z AUTO 03011KT 7000 +DZ OVC003/// 10/09 Q1028,EGUW,2023-05-30T21:20:00Z,52.12,0.97,10.0,9.0,30,11,,4.35,30.35433,,,TRUE,,,,,,,+DZ,OVC,300,,,,,,,LIFR,,,,,,,,,,,,METAR,86.0
EGTK 302120Z 04013KT 9999 OVC015 11/08 Q1029,EGTK,2023-05-30T21:20:00Z,51.83,-1.32,11.0,8.0,40,13,,6.21,30.383858,,,,,,,,,,,OVC,1500,,,,,,,MVFR,,,,,,,,,,,,METAR,78.0
EGQM 302120Z AUTO 12005KT 9999 OVC014/// 11/09 Q1033,EGQM,2023-05-30T21:20:00Z,55.42,-1.6,11.0,9.0,120,5,,6.21,30.501968,,,TRUE,,,,,,,,OVC,1400,,,,,,,MVFR,,,,,,,,,,,,METAR,24.0
EGQK 302120Z AUTO 08008KT 9999 NCD 10/09 Q1033,EGQK,2023-05-30T21:20:00Z,57.65,-3.57,10.0,9.0,80,8,,6.21,30.501968,,,TRUE,,,,,,,,CLR,,,,,,,,VFR,,,,,,,,,,,,METAR,5.0
EGQA 302120Z AUTO 08004KT 9999 OVC016/// 11/10 Q1033,EGQA,2023-05-30T21:20:00Z,57.83,-3.95,11.0,10.0,80,4,,6.21,30.501968,,,TRUE,,,,,,,,OVC,1600,,,,,,,MVFR,,,,,,,,,,,,METAR,4.0
EGOV 302120Z AUTO 02005KT 9999 NCD 13/10 Q1030,EGOV,2023-05-30T21:20:00Z,53.25,-4.53,13.0,10.0,20,5,,6.21,30.413385,,,TRUE,,,,,,,,CLR,,,,,,,,VFR,,,,,,,,,,,,METAR,11.0
EGOP 302120Z AUTO 07008KT 9999 NCD 14/09 Q1028,EGOP,2023-05-30T21:20:00Z,51.72,-4.37,14.0,9.0,70,8,,6.21,30.35433,,,TRUE,,,,,,,,CLR,,,,,,,,VFR,,,,,,,,,,,,METAR,8.0
EGOM 302120Z AUTO 08011KT 9999 NCD 09/08 Q1031,EGOM,2023-05-30T21:20:00Z,55.05,-2.55,9.0,8.0,80,11,,6.21,30.442913,,,TRUE,,,,,,,,CLR,,,,,,,,VFR,,,,,,,,,,,,METAR,286.0
EGKB 302120Z 04012KT 010V070 9999 BKN016 11/08 Q1028,EGKB,2023-05-30T21:20:00Z,51.32,0.02,11.0,8.0,40,12,,6.21,30.35433,,,,,,,,,,,BKN,1600,,,,,,,MVFR,,,,,,,,,,,,METAR,183.0
EGDM 302120Z AUTO 04015KT 9999 OVC015/// 12/08 Q1028,EGDM,2023-05-30T21:20:00Z,51.17,-1.75,12.0,8.0,40,15,,6.21,30.35433,,,TRUE,,,,,,,,OVC,1500,,,,,,,MVFR,,,,,,,,,,,,METAR,122.0
KFAF 302117Z 06010G14KT 10SM OVC009 18/17 A3006 RMK AO2A RAB11E17 SLP183 $,KFAF,2023-05-30T21:17:00Z,37.13,-76.62,18.0,17.0,60,10,14,10.0,30.059055,1018.3,,,TRUE,TRUE,,,,,,OVC,900,,,,,,,IFR,,,,,,,,,,,,METAR,3.0
KW99 302116Z AUTO 10005KT 10SM SCT060 26/13 A3010 RMK AO2,KW99,2023-05-30T21:16:00Z,39.0,-79.15,26.0,13.0,100,5,,10.0,30.100393,,,TRUE,TRUE,,,,,,,SCT,6000,,,,,,,VFR,,,,,,,,,,,,SPECI,288.0
K40B 302116Z AUTO VRB04G12KT 26/M01 A3005 RMK AO1 SLP169 T02641010 57011,K40B,2023-05-30T21:16:00Z,46.62,-69.52,26.4,-1.0,0,4,12,,30.050198,1016.9,,TRUE,TRUE,,,,,,,,,,,,,,,,-1.1,,,,,,,,,,,SPECI,344.0
LHSM 302115Z AUTO 33005KT CAVOK 15/14 Q1019,LHSM,2023-05-30T21:15:00Z,46.68,17.17,15.0,14.0,330,5,,6.21,30.088583,,,TRUE,,,,,,,,CAVOK,,,,,,,,VFR,,,,,,,,,,,,METAR,119.0
LHPR 302115Z AUTO 33004KT 270V350 CAVOK 15/10 Q1019,LHPR,2023-05-30T21:15:00Z,47.63,17.82,15.0,10.0,330,4,,6.21,30.088583,,,TRUE,,,,,,,,CAVOK,,,,,,,,VFR,,,,,,,,,,,,METAR,127.0
LHPP 302115Z AUTO 27005KT 230V300 9999 //////TCU 15/13 Q1018,LHPP,2023-05-30T21:15:00Z,45.98,18.23,15.0,13.0,270,5,,6.21,30.059055,,,TRUE,,,,,,,,,,,,,,,,,,,,,,,,,,,,SPECI,193.0
LHPA 302115Z 00000KT CAVOK 15/11 Q1019 NOSIG RMK BLU,LHPA,2023-05-30T21:15:00Z,47.35,17.5,15.0,11.0,0,0,,6.21,30.088583,,,,,,TRUE,,,,,CAVOK,,,,,,,,VFR,,,,,,,,,,,,METAR,143.0
LHDC 302115Z AUTO 35006KT CAVOK 19/12 Q1017 NOSIG,LHDC,2023-05-30T21:15:00Z,47.48,21.62,19.0,12.0,350,6,,6.21,30.029528,,,TRUE,,,TRUE,,,,,CAVOK,,,,,,,,VFR,,,,,,,,,,,,METAR,105.0
KMCX 302115Z AUTO 15004KT 10SM SCT120 32/12 A2993 RMK AO2 T03150115,KMCX,2023-05-30T21:15:00Z,40.72,-86.77,31.5,11.5,150,4,,10.0,29.929134,,,TRUE,TRUE,,,,,,,SCT,12000,,,,,,,VFR,,,,,,,,,,,,METAR,205.0
KGLE 302115Z AUTO 15011KT 10SM CLR 29/17 A2992 RMK AO2 T02920172 PWINO,KGLE,2023-05-30T21:15:00Z,33.65,-97.2,29.2,17.2,150,11,,10.0,29.920275,,,TRUE,TRUE,,,,,TRUE,,CLR,,,,,,,,VFR,,,,,,,,,,,,SPECI,250.0
KBWD 302115Z AUTO 19009KT 6SM CLR 30/16 A2990 RMK AO1,KBWD,2023-05-30T21:15:00Z,31.8,-98.95,30.0,16.0,190,9,,6.0,29.899607,,,TRUE,TRUE,,,,,,,CLR,,,,,,,,VFR,,,,,,,,,,,,SPECI,420.0
K5R8 302115Z AUTO 18003KT 10SM SCT095 26/18 A2990 RMK AO2 T02610184,K5R8,2023-05-30T21:15:00Z,30.43,-93.47,26.1,18.4,180,3,,10.0,29.899607,,,TRUE,TRUE,,,,,,,SCT,9500,,,,,,,VFR,,,,,,,,,,,,SPECI,26.0
PAEI 302114Z AUTO 23005KT 3SM -DZ BR BKN006 OVC012 07/06 A2962 RMK AO2 DZE2055DZB07 SLP037 $,PAEI,2023-05-30T21:14:00Z,64.67,-147.1,7.0,6.0,230,5,,3.0,29.619095,1003.7,,TRUE,TRUE,TRUE,,,,,-DZ BR,BKN,600,OVC,1200,,,,,IFR,,,,,,,,,,,,SPECI,166.0
CYCB 302114Z 13011KT 15SM OVC010 M02/M04 A3009 RMK SC8 SLP195,CYCB,2023-05-30T21:14:00Z,69.1,-105.12,-2.0,-4.0,130,11,,15.0,30.088583,1019.5,,,,,,,,,,OVC,1000,,,,,,,MVFR,,,,,,,,,,,,SPECI,19.0
KOFF 302113Z 14018G24KT 10SM FEW007 SCT190 32/15 A2984 RMK AO2A SLP101 $,KOFF,2023-05-30T21:13:00Z,41.12,-95.92,32.0,15.0,140,18,24,10.0,29.840551,1010.1,,,TRUE,TRUE,,,,,,FEW,700,SCT,19000,,,,,VFR,,,,,,,,,,,,SPECI,308.0
CYXL 302111Z 25007KT 220V300 15SM -SHRA FEW016 SCT080 BKN140 20/17 A2980 RMK CU1AC3AC2 TCU ASOCTD SLP095 DENSITY ALT 2400FT,CYXL,2023-05-30T21:11:00Z,50.12,-91.9,20.0,17.0,250,7,,15.0,29.799213,1009.5,,,,,,,,,-SHRA,FEW,1600,SCT,8000,BKN,14000,,,VFR,,,,,,,,,,,,SPECI,381.0
VCBI 302110Z 15006KT 120V200 9999 SCT016 27/26 Q1009 NOSIG,VCBI,2023-05-30T21:10:00Z,7.17,79.88,27.0,26.0,150,6,,6.21,29.793306,,,,,,TRUE,,,,,SCT,1600,,,,,,,VFR,,,,,,,,,,,,METAR,10.0
PART 1 OF 2 METAR ,PART,2023-05-30T21:10:00Z,,,,,,,,,,,,,,,,,,,,,,,,,,,,,,,,,,,,,,,,METAR,
SBLB 302106Z AUTO 13011KT 9999 FEW012 OVC044 22/19 Q1022 W///S4,SBLB,2023-05-30T21:06:00Z,-22.1,-39.92,22.0,19.0,130,11,,6.21,30.177166,,,TRUE,,,,,,,,FEW,1200,OVC,4400,,,,,VFR,,,,,,,,,,,,METAR,10.0
KDMA 302105Z AUTO 19010G19KT 10SM CLR 33/M05 A2984 RMK AO2 WSHFT 2057 SLP103 $,KDMA,2023-05-30T21:05:00Z,32.17,-110.88,33.0,-5.0,190,10,19,10.0,29.840551,1010.3,,TRUE,TRUE,TRUE,,,,,,CLR,,,,,,,,VFR,,,,,,,,,,,,METAR,804.0
CYBR 302105Z 31009KT 15SM VCSH FEW050CB SCT140 BKN180 BKN250 23/14 A2972 RMK CB2AC1AC2CI2 SLP069 DENSITY ALT 2800FT,CYBR,2023-05-30T21:05:00Z,49.92,-99.95,23.0,14.0,310,9,,15.0,29.719488,1006.9,,,,,,,,,VCSH,FEW,5000,SCT,14000,BKN,18000,BKN,25000,VFR,,,,,,,,,,,,SPECI,405.0
SVVL 302103Z AUTO ///01KT NCD ///// Q////,SVVL,2023-05-30T21:03:00Z,9.33,-70.58,,,,,,,,,,TRUE,,,,,,,,CLR,,,,,,,,,,,,,,,,,,,,SPECI,575.0
SVVA 302103Z AUTO 06006KT NCD 25/24 Q1013,SVVA,2023-05-30T21:03:00Z,10.15,-67.92,25.0,24.0,60,6,,,29.911417,,,TRUE,,,,,,,,CLR,,,,,,,,,,,,,,,,,,,,METAR,428.0
SVSR 302103Z AUTO NIL,SVSR,2023-05-30T21:03:00Z,7.87,-67.43,,,,,,,,,,TRUE,,,,,,,,,,,,,,,,,,,,,,,,,,,,SPECI,49.0
SVSA 302103Z AUTO NIL,SVSA,2023-05-30T21:03:00Z,7.83,-72.45,,,,,,,,,,TRUE,,,,,,,,,,,,,,,,,,,,,,,,,,,,SPECI,383.0
SVPR 302103Z AUTO 24007KT NCD 29/21 Q1012,SVPR,2023-05-30T21:03:00Z,8.3,-62.77,29.0,21.0,240,7,,,29.88189,,,TRUE,,,,,,,,CLR,,,,,,,,,,,,,,,,,,,,METAR,140.0
SVPA 302103Z AUTO NIL,SVPA,2023-05-30T21:03:00Z,5.62,-67.6,,,,,,,,,,TRUE,,,,,,,,,,,,,,,,,,,,,,,,,,,,METAR,77.0
SVMT 302103Z AUTO 31004KT NCD 27/27 Q1010,SVMT,2023-05-30T21:03:00Z,9.75,-63.17,27.0,27.0,310,4,,,29.822834,,,TRUE,,,,,,,,CLR,,,,,,,,,,,,,,,,,,,,METAR,67.0
SVLO 302103Z AUTO NIL,SVLO,2023-05-30T21:03:00Z,11.8,-66.18,,,,,,,,,,TRUE,,,,,,,,,,,,,,,,,,,,,,,,,,,,SPECI,3.0
SVJM 302103Z AUTO 27003KT NCD 23/23 Q1013,SVJM,2023-05-30T21:03:00Z,9.92,-67.38,23.0,23.0,270,3,,,29.911417,,,TRUE,,,,,,,,CLR,,,,,,,,,,,,,,,,,,,,METAR,448.0
SVGU 302103Z AUTO 26002KT NCD 30/23 Q1012,SVGU,2023-05-30T21:03:00Z,9.03,-69.75,30.0,23.0,260,2,,,29.88189,,,TRUE,,,,,,,,CLR,,,,,,,,,,,,,,,,,,,,METAR,165.0
SVGD 302103Z AUTO 06003KT NCD 27/25 Q1013,SVGD,2023-05-30T21:03:00Z,7.22,-70.75,27.0,25.0,60,3,,,29.911417,,,TRUE,,,,,,,,CLR,,,,,,,,,,,,,,,,,,,,METAR,129.0
SVFM 302103Z AUTO NIL,SVFM,2023-05-30T21:03:00Z,10.48,-66.83,,,,,,,,,,TRUE,,,,,,,,,,,,,,,,,,,,,,,,,,,,METAR,852.0
SVCS 302103Z AUTO 31004KT NCD 22/20 Q1016,SVCS,2023-05-30T21:03:00Z,10.3,-66.82,22.0,20.0,310,4,,,30.0,,,TRUE,,,,,,,,CLR,,,,,,,,,,,,,,,,,,,,METAR,656.0
SVCB 302103Z AUTO 24005KT NCD 30/21 Q1010,SVCB,2023-05-30T21:03:00Z,8.12,-63.53,30.0,21.0,240,5,,,29.822834,,,TRUE,,,,,,,,CLR,,,,,,,,,,,,,,,,,,,,METAR,47.0
SVBS 302103Z AUTO 17006KT NCD 23/22 Q1015,SVBS,2023-05-30T21:03:00Z,10.25,-67.65,23.0,22.0,170,6,,,29.970472,,,TRUE,,,,,,,,CLR,,,,,,,,,,,,,,,,,,,,METAR,435.0
SVBM 302103Z AUTO 15011KT NCD 26/16 Q1013,SVBM,2023-05-30T21:03:00Z,10.05,-69.37,26.0,16.0,150,11,,,29.911417,,,TRUE,,,,,,,,CLR,,,,,,,,,,,,,,,,,,,,METAR,624.0
SVBI 302103Z AUTO /////KT NCD 23/23 Q1016,SVBI,2023-05-30T21:03:00Z,8.62,-70.22,23.0,23.0,,,,,30.0,,,TRUE,,,,,,,,CLR,,,,,,,,,,,,,,,,,,,,METAR,185.0
SVBC 302103Z AUTO 30004KT NCD 26/25 Q1012,SVBC,2023-05-30T21:03:00Z,10.12,-64.68,26.0,25.0,300,4,,,29.88189,,,TRUE,,,,,,,,CLR,,,,,,,,,,,,,,,,,,,,METAR,7.0
PAHX 302102Z AUTO 23003KT 8SM -RA OVC012 06/04 A2973 RMK AO2 SLP067 P0000 60002 T00560039 51011,PAHX,2023-05-30T21:02:00Z,62.7,-159.57,5.6,3.9,230,3,,8.0,29.731298,1006.7,,TRUE,TRUE,,,,,,-RA,OVC,1200,,,,,,,MVFR,1.1,,,,,0.005,0.02,,,,,METAR,20.0
PAFS 302101Z AUTO VRB06KT 10SM BKN020 OVC027 09/04 A2971 RMK AO2 SLP066 60000 T00890044 55000,PAFS,2023-05-30T21:01:00Z,63.02,-154.35,8.9,4.4,0,6,,10.0,29.71063,1006.6,,TRUE,TRUE,,,,,,,BKN,2000,OVC,2700,,,,,MVFR,0.0,,,,,,0.005,,,,,METAR,131.0
ZYHB 302100Z VRB01MPS CAVOK 12/07 Q1009 NOSIG,ZYHB,2023-05-30T21:00:00Z,45.62,126.25,12.0,7.0,0,2,,6.21,29.793306,,,,,,TRUE,,,,,CAVOK,,,,,,,,VFR,,,,,,,,,,,,METAR,134.0
ZYCC 302100Z 18003MPS CAVOK 14/08 Q1011 NOSIG,ZYCC,2023-05-30T21:00:00Z,43.98,125.68,14.0,8.0,180,6,,6.21,29.852362,,,,,,TRUE,,,,,CAVOK,,,,,,,,VFR,,,,,,,,,,,,METAR,211.0
ZWSH 302100Z 32005MPS 6000 FEW040 21/01 Q1016 NOSIG,ZWSH,2023-05-30T21:00:00Z,39.55,76.02,21.0,1.0,320,10,,3.73,30.0,,,,,,TRUE,,,,,FEW,4000,,,,,,,MVFR,,,,,,,,,,,,METAR,1374.0
ZUUU 302100Z 02003MPS 9999 FEW050 27/21 Q1003 NOSIG,ZUUU,2023-05-30T21:00:00Z,30.58,103.95,27.0,21.0,20,6,,6.21,29.616142,,,,,,TRUE,,,,,FEW,5000,,,,,,,VFR,,,,,,,,,,,,METAR,494.0
ZUTF 302100Z VRB01MPS CAVOK 27/22 Q1002 NOSIG,ZUTF,2023-05-30T21:00:00Z,30.3,104.43,27.0,22.0,0,2,,6.21,29.586615,,,,,,TRUE,,,,,CAVOK,,,,,,,,VFR,,,,,,,,,,,,METAR,443.0
ZUGY 302100Z VRB01MPS CAVOK 22/20 Q1011 NOSIG,ZUGY,2023-05-30T21:00:00Z,26.53,106.8,22.0,20.0,0,2,,6.21,29.852362,,,,,,TRUE,,,,,CAVOK,,,,,,,,VFR,,,,,,,,,,,,METAR,1130.0
ZUCK 302100Z 36003MPS CAVOK 25/23 Q1003 NOSIG,ZUCK,2023-05-30T21:00:00Z,29.72,106.63,25.0,23.0,360,6,,6.21,29.616142,,,,,,TRUE,,,,,CAVOK,,,,,,,,VFR,,,,,,,,,,,,METAR,416.0
ZSQD 302100Z 30001MPS CAVOK 15/13 Q1010 NOSIG,ZSQD,2023-05-30T21:00:00Z,36.27,120.38,15.0,13.0,300,2,,6.21,29.822834,,,,,,TRUE,,,,,CAVOK,,,,,,,,VFR,,,,,,,,,,,,METAR,8.0
ZSOF 302100Z 34002MPS 3300 BR OVC046 21/20 Q1009 BECMG AT2200 2700,ZSOF,2023-05-30T21:00:00Z,31.98,116.97,21.0,20.0,340,4,,2.05,29.793306,,,,,,,,,,BR,OVC,4600,,,,,,,IFR,,,,,,,,,,,,SPECI,23.0
ZSNJ 302100Z VRB01MPS 3000 BR BKN008 OVC020 21/21 Q1008 NOSIG,ZSNJ,2023-05-30T21:00:00Z,31.75,118.87,21.0,21.0,0,2,,1.86,29.763779,,,,,,TRUE,,,,BR,BKN,800,OVC,2000,,,,,IFR,,,,,,,,,,,,METAR,27.0
ZSNB 302100Z 02002MPS 350V050 5000 BR SCT016 24/22 Q1006 NOSIG,ZSNB,2023-05-30T21:00:00Z,29.83,121.47,24.0,22.0,20,4,,3.11,29.704725,,,,,,TRUE,,,,BR,SCT,1600,,,,,,,MVFR,,,,,,,,,,,,METAR,5.0
ZSFZ 302100Z 01004MPS 340V040 9999 BKN019 26/23 Q1003 NOSIG,ZSFZ,2023-05-30T21:00:00Z,25.93,119.67,26.0,23.0,10,8,,6.21,29.616142,,,,,,TRUE,,,,,BKN,1900,,,,,,,MVFR,,,,,,,,,,,,METAR,14.0
ZSAM 302100Z 04004MPS CAVOK 28/22 Q1002 NOSIG,ZSAM,2023-05-30T21:00:00Z,24.53,118.13,28.0,22.0,40,8,,6.21,29.586615,,,,,,TRUE,,,,,CAVOK,,,,,,,,VFR,,,,,,,,,,,,METAR,13.0
ZPPP 302100Z VRB01MPS CAVOK 17/14 Q1019 NOSIG,ZPPP,2023-05-30T21:00:00Z,25.0,102.65,17.0,14.0,0,2,,6.21,30.088583,,,,,,TRUE,,,,,CAVOK,,,,,,,,VFR,,,,,,,,,,,,METAR,1885.0
ZLXY 302100Z 06005MPS CAVOK 21/18 Q1008 NOSIG,ZLXY,2023-05-30T21:00:00Z,34.43,108.75,21.0,18.0,60,10,,6.21,29.763779,,,,,,TRUE,,,,,CAVOK,,,,,,,,VFR,,,,,,,,,,,,METAR,478.0
ZLLL 302100Z 35006MPS 9999 -RA OVC046 11/08 Q1021 NOSIG,ZLLL,2023-05-30T21:00:00Z,36.52,103.62,11.0,8.0,350,12,,6.21,30.147638,,,,,,TRUE,,,,-RA,OVC,4600,,,,,,,VFR,,,,,,,,,,,,METAR,1939.0
ZJSY 302100Z 32002MPS CAVOK 26/24 Q1004 NOSIG,ZJSY,2023-05-30T21:00:00Z,18.3,109.42,26.0,24.0,320,4,,6.21,29.64567,,,,,,TRUE,,,,,CAVOK,,,,,,,,VFR,,,,,,,,,,,,METAR,27.0
ZJHK 302100Z 25001MPS CAVOK 25/24 Q1003 NOSIG,ZJHK,2023-05-30T21:00:00Z,19.93,110.43,25.0,24.0,250,2,,6.21,29.616142,,,,,,TRUE,,,,,CAVOK,,,,,,,,VFR,,,,,,,,,,,,METAR,21.0
ZHHH 302100Z 35002MPS 310V030 9999 BKN033 22/20 Q1008 NOSIG,ZHHH,2023-05-30T21:00:00Z,30.78,114.22,22.0,20.0,350,4,,6.21,29.763779,,,,,,TRUE,,,,,BKN,3300,,,,,,,VFR,,,,,,,,,,,,METAR,33.0
ZHCC 302100Z VRB01MPS 5000 BR NSC 18/17 Q1011 NOSIG,ZHCC,2023-05-30T21:00:00Z,34.52,113.83,18.0,17.0,0,2,,3.11,29.852362,,,,,,TRUE,,,,BR,CLR,,,,,,,,MVFR,,,,,,,,,,,,METAR,149.0
ZGSZ 302100Z 27002MPS CAVOK 31/27 Q1001 NOSIG,ZGSZ,2023-05-30T21:00:00Z,22.63,113.8,31.0,27.0,270,4,,6.21,29.557087,,,,,,TRUE,,,,,CAVOK,,,,,,,,VFR,,,,,,,,,,,,METAR,18.0
ZGOW 302100Z 33001MPS CAVOK 26/24 Q1002 NOSIG,ZGOW,2023-05-30T21:00:00Z,23.55,116.5,26.0,24.0,330,2,,6.21,29.586615,,,,,,TRUE,,,,,CAVOK,,,,,,,,VFR,,,,,,,,,,,,METAR,4.0
ZGNN 302100Z 32001MPS CAVOK 25/24 Q1004 NOSIG,ZGNN,2023-05-30T21:00:00Z,22.62,108.17,25.0,24.0,320,2,,6.21,29.64567,,,,,,TRUE,,,,,CAVOK,,,,,,,,VFR,,,,,,,,,,,,METAR,128.0
ZGKL 302100Z VRB01MPS CAVOK 26/25 Q1005 NOSIG,ZGKL,2023-05-30T21:00:00Z,25.22,110.03,26.0,25.0,0,2,,6.21,29.675198,,,,,,TRUE,,,,,CAVOK,,,,,,,,VFR,,,,,,,,,,,,METAR,151.0
ZGHA 302100Z 34004MPS 9000 BKN023 25/22 Q1007 NOSIG,ZGHA,2023-05-30T21:00:00Z,28.18,113.22,25.0,22.0,340,8,,5.59,29.734253,,,,,,TRUE,,,,,BKN,2300,,,,,,,MVFR,,,,,,,,,,,,METAR,61.0
ZBSJ 302100Z 18001MPS 3500 BR NSC 16/16 Q1010 NOSIG,ZBSJ,2023-05-30T21:00:00Z,38.28,114.7,16.0,16.0,180,2,,2.17,29.822834,,,,,,TRUE,,,,BR,CLR,,,,,,,,IFR,,,,,,,,,,,,METAR,70.0
ZBHH 302100Z 07002MPS 040V120 6000 NSC 13/12 Q1011 NOSIG,ZBHH,2023-05-30T21:00:00Z,40.85,111.82,13.0,12.0,70,4,,3.73,29.852362,,,,,,TRUE,,,,,CLR,,,,,,,,MVFR,,,,,,,,,,,,METAR,1081.0
WSSL 302100Z 21003KT 180V240 9999 FEW018 BKN300 28/26 Q1008,WSSL,2023-05-30T21:00:00Z,1.42,103.87,28.0,26.0,210,3,,6.21,29.763779,,,,,,,,,,,FEW,1800,BKN,30000,,,,,VFR,,,,,,,,,,,,METAR,11.0
WSAP 302100Z 17008KT 9999 FEW016 BKN300 29/25 Q1009,WSAP,2023-05-30T21:00:00Z,1.37,103.92,29.0,25.0,170,8,,6.21,29.793306,,,,,,,,,,,FEW,1600,BKN,30000,,,,,VFR,,,,,,,,,,,,METAR,20.0
WMSA 302100Z 00000KT 9999 -TSRA FEW017CB 25/24 Q1009 RETSRA,WMSA,2023-05-30T21:00:00Z,3.13,101.55,25.0,24.0,0,0,,6.21,29.793306,,,,,,,,,,-TSRA,FEW,1700,,,,,,,VFR,,,,,,,,,,,,METAR,19.0
WMKN 302100Z 18004KT 140V220 9999 FEW017CB 26/24 Q1008,WMKN,2023-05-30T21:00:00Z,5.37,103.1,26.0,24.0,180,4,,6.21,29.763779,,,,,,,,,,,FEW,1700,,,,,,,VFR,,,,,,,,,,,,METAR,12.0
WMKM 302100Z VRB01KT 9999 FEW017CB SCT028 26/24 Q1010,WMKM,2023-05-30T21:00:00Z,2.27,102.25,26.0,24.0,0,1,,6.21,29.822834,,,,,,,,,,,FEW,1700,SCT,2800,,,,,VFR,,,,,,,,,,,,METAR,9.0
WMKL 302100Z 00000KT 9999 -RA FEW017CB SCT025 26/25 Q1008,WMKL,2023-05-30T21:00:00Z,6.32,99.72,26.0,25.0,0,0,,6.21,29.763779,,,,,,,,,,-RA,FEW,1700,SCT,2500,,,,,VFR,,,,,,,,,,,,METAR,4.0
WMKJ 302100Z 00000KT 9000 FEW020 27/26 Q1008,WMKJ,2023-05-30T21:00:00Z,1.63,103.67,27.0,26.0,0,0,,5.59,29.763779,,,,,,,,,,,FEW,2000,,,,,,,VFR,,,,,,,,,,,,METAR,38.0
WMKI 302100Z VRB02KT 8000 FEW026 26/24 Q1009,WMKI,2023-05-30T21:00:00Z,4.57,101.08,26.0,24.0,0,2,,4.97,29.793306,,,,,,,,,,,FEW,2600,,,,,,,MVFR,,,,,,,,,,,,METAR,37.0
WMKE 302100Z AUTO 00000KT //// // ////// 26/26 Q1008,WMKE,2023-05-30T21:00:00Z,4.53,103.43,26.0,26.0,0,0,,,29.763779,,,TRUE,,,,,,,,,,,,,,,,,,,,,,,,,,,,METAR,5.0
WMKD 302100Z 00000KT 9999 FEW003 27/26 Q1008 NOSIG,WMKD,2023-05-30T21:00:00Z,3.77,103.22,27.0,26.0,0,0,,6.21,29.763779,,,,,,TRUE,,,,,FEW,300,,,,,,,VFR,,,,,,,,,,,,METAR,18.0
WMKC 302100Z 00000KT 9999 FEW020 25/24 Q1007,WMKC,2023-05-30T21:00:00Z,6.17,102.28,25.0,24.0,0,0,,6.21,29.734253,,,,,,,,,,,FEW,2000,,,,,,,VFR,,,,,,,,,,,,METAR,7.0
WMKB 302100Z 06003KT 8000 FEW024 28/24 Q1008 NOSIG,WMKB,2023-05-30T21:00:00Z,5.47,100.38,28.0,24.0,60,3,,4.97,29.763779,,,,,,TRUE,,,,,FEW,2400,,,,,,,MVFR,,,,,,,,,,,,METAR,4.0
WMKA 302100Z 00000KT 9000 TS FEW010 FEW017CB SCT028 26/25 Q1008,WMKA,2023-05-30T21:00:00Z,6.2,100.4,26.0,25.0,0,0,,5.59,29.763779,,,,,,,,,,TS,FEW,1000,FEW,1700,SCT,2800,,,VFR,,,,,,,,,,,,METAR,5.0
WMBA 302100Z 00000KT 8000 SCT030 27/25 Q1008,WMBA,2023-05-30T21:00:00Z,4.22,100.7,27.0,25.0,0,0,,4.97,29.763779,,,,,,,,,,,SCT,3000,,,,,,,MVFR,,,,,,,,,,,,METAR,9.0
WMAU 302100Z 24004KT 7000 FEW002 25/24 Q1009,WMAU,2023-05-30T21:00:00Z,2.38,103.88,25.0,24.0,240,4,,4.35,29.793306,,,,,,,,,,,FEW,200,,,,,,,MVFR,,,,,,,,,,,,METAR,5.0
WIMM 302100Z 00000KT 2000 BR SCT017 25/25 Q1008 NOSIG,WIMM,2023-05-30T21:00:00Z,3.57,98.67,25.0,25.0,0,0,,1.24,29.763779,,,,,,TRUE,,,,BR,SCT,1700,,,,,,,IFR,,,,,,,,,,,,METAR,27.0
WIHH 302100Z 00000KT 4000 HZ FEW018 26/25 Q1009 NOSIG METAR WIDD NIL,WIHH,2023-05-30T21:00:00Z,-6.27,106.88,26.0,25.0,0,0,,2.49,29.793306,,,,,,TRUE,,,,HZ,FEW,1800,,,,,,,IFR,,,,,,,,,,,,METAR,26.0
WBKW 302100Z 00000KT 9999 FEW016 24/23 Q1008,WBKW,2023-05-30T21:00:00Z,4.32,118.12,24.0,23.0,0,0,,6.21,29.763779,,,,,,,,,,,FEW,1600,,,,,,,VFR,,,,,,,,,,,,METAR,17.0
WBKT 302100Z 24003KT 9999 FEW014 26/25 Q1008,WBKT,2023-05-30T21:00:00Z,6.92,116.83,26.0,25.0,240,3,,6.21,29.763779,,,,,,,,,,,FEW,1400,,,,,,,VFR,,,,,,,,,,,,METAR,11.0
WBKS 302100Z VRB02KT 9999 FEW016 25/25 Q1008,WBKS,2023-05-30T21:00:00Z,5.9,118.07,25.0,25.0,0,2,,6.21,29.763779,,,,,,,,,,,FEW,1600,,,,,,,VFR,,,,,,,,,,,,METAR,13.0
WBKL 302100Z VRB01KT 9999 FEW035 27/23 Q1008,WBKL,2023-05-30T21:00:00Z,5.3,115.25,27.0,23.0,0,1,,6.21,29.763779,,,,,,,,,,,FEW,3500,,,,,,,VFR,,,,,,,,,,,,METAR,29.0
WBGY 302100Z AUTO VRB02KT //// // ////// 24/24 Q1009,WBGY,2023-05-30T21:00:00Z,1.22,111.45,24.0,24.0,0,2,,,29.793306,,,TRUE,,,,,,,,,,,,,,,,,,,,,,,,,,,,METAR,13.0
WBGS 302100Z VRB03KT 9999 SCT018 25/24 Q1009,WBGS,2023-05-30T21:00:00Z,2.27,111.98,25.0,24.0,0,3,,6.21,29.793306,,,,,,,,,,,SCT,1800,,,,,,,VFR,,,,,,,,,,,,METAR,26.0
WBGR 302100Z 14006KT 9999 FEW016 25/22 Q1008,WBGR,2023-05-30T21:00:00Z,4.32,113.98,25.0,22.0,140,6,,6.21,29.763779,,,,,,,,,,,FEW,1600,,,,,,,VFR,,,,,,,,,,,,METAR,18.0
WBGB 302100Z 13003KT 9999 FEW016 25/24 Q1009,WBGB,2023-05-30T21:00:00Z,3.12,113.02,25.0,24.0,130,3,,6.21,29.793306,,,,,,,,,,,FEW,1600,,,,,,,VFR,,,,,,,,,,,,METAR,34.0
VTUU 302100Z VRB02KT 9999 FEW040 27/27 Q1006 NOSIG,VTUU,2023-05-30T21:00:00Z,15.25,104.87,27.0,27.0,0,2,,6.21,29.704725,,,,,,TRUE,,,,,FEW,4000,,,,,,,VFR,,,,,,,,,,,,METAR,119.0
VTUK 302100Z 18003KT 9000 NSC 27/25 Q1006 NOSIG,VTUK,2023-05-30T21:00:00Z,16.47,102.78,27.0,25.0,180,3,,5.59,29.704725,,,,,,TRUE,,,,,CLR,,,,,,,,VFR,,,,,,,,,,,,METAR,190.0
VTSG 302100Z VRB01KT 8000 FEW020 25/24 Q1008 NOSIG,VTSG,2023-05-30T21:00:00Z,8.1,98.98,25.0,24.0,0,1,,4.97,29.763779,,,,,,TRUE,,,,,FEW,2000,,,,,,,MVFR,,,,,,,,,,,,METAR,32.0
VTCT 302100Z 20002KT 9999 FEW025 26/25 Q1007 NOSIG,VTCT,2023-05-30T21:00:00Z,19.95,99.88,26.0,25.0,200,2,,6.21,29.734253,,,,,,TRUE,,,,,FEW,2500,,,,,,,VFR,,,,,,,,,,,,METAR,389.0
VRMM 302100Z 23008KT 9999 TS FEW018 FEW019CB 29/26 Q1009 RETS CB WSW TEMPO 5000 SHRA,VRMM,2023-05-30T21:00:00Z,4.2,73.52,29.0,26.0,230,8,,6.21,29.793306,,,,,,,,,,TS,FEW,1800,FEW,1900,,,,,VFR,,,,,,,,,,,,METAR,2.0
VRMH 302100Z 25005KT 9999 FEW018 29/26 Q1009,VRMH,2023-05-30T21:00:00Z,6.75,73.17,29.0,26.0,250,5,,6.21,29.793306,,,,,,,,,,,FEW,1800,,,,,,,VFR,,,,,,,,,,,,METAR,1.0
VRMG 302100Z 22008KT 9999 FEW017 FEW018CB SCT270 29/25 Q1010 CB W TEMPO 5000 TSRA,VRMG,2023-05-30T21:00:00Z,-0.7,73.15,29.0,25.0,220,8,,6.21,29.822834,,,,,,,,,,,FEW,1700,FEW,1800,SCT,27000,,,VFR,,,,,,,,,,,,METAR,2.0
VOPB 302100Z VRB02KT 5000 BR SCT014 SCT220 26/24 Q1007 NOSIG,VOPB,2023-05-30T21:00:00Z,11.63,92.73,26.0,24.0,0,2,,3.11,29.734253,,,,,,TRUE,,,,BR,SCT,1400,SCT,22000,,,,,MVFR,,,,,,,,,,,,METAR,1.0
VOCB 302100Z VRB03KT 4000 BR FEW015 BKN080 27/23 Q1010 NOSIG,VOCB,2023-05-30T21:00:00Z,11.02,77.03,27.0,23.0,0,3,,2.49,29.822834,,,,,,TRUE,,,,BR,FEW,1500,BKN,8000,,,,,IFR,,,,,,,,,,,,METAR,394.0
VILK 302100Z VRB02KT 4000 BR SCT020 FEW030CB BKN100 27/24 Q1006 TEMPO 3000 RA,VILK,2023-05-30T21:00:00Z,26.75,80.88,27.0,24.0,0,2,,2.49,29.704725,,,,,,,,,,BR,SCT,2000,FEW,3000,BKN,10000,,,IFR,,,,,,,,,,,,METAR,121.0
VERC 302100Z 00000KT 4000 HZ SCT020 BKN100 29/22 Q1009 NOSIG,VERC,2023-05-30T21:00:00Z,23.32,85.32,29.0,22.0,0,0,,2.49,29.793306,,,,,,TRUE,,,,HZ,SCT,2000,BKN,10000,,,,,IFR,,,,,,,,,,,,METAR,646.0
VEGY 302100Z 00000KT 4500 HZ NSC 31/22 Q1005,VEGY,2023-05-30T21:00:00Z,24.75,84.95,31.0,22.0,0,0,,2.8,29.675198,,,,,,,,,,HZ,CLR,,,,,,,,IFR,,,,,,,,,,,,METAR,115.0
VEBN 302100Z 27003KT 3000 BR FEW100 28/24 Q1005 NOSIG,VEBN,2023-05-30T21:00:00Z,25.45,82.85,28.0,24.0,270,3,,1.86,29.675198,,,,,,TRUE,,,,BR,FEW,10000,,,,,,,IFR,,,,,,,,,,,,METAR,81.0
VDSR 302100Z 24002KT 9000 SCT015 SCT040 27/25 Q1005,VDSR,2023-05-30T21:00:00Z,13.42,103.8,27.0,25.0,240,2,,5.59,29.675198,,,,,,,,,,,SCT,1500,SCT,4000,,,,,VFR,,,,,,,,,,,,METAR,16.0
VAID 302100Z 02003KT 5000 HZ NSC 23/16 Q1012 NOSIG,VAID,2023-05-30T21:00:00Z,22.72,75.8,23.0,16.0,20,3,,3.11,29.88189,,,,,,TRUE,,,,HZ,CLR,,,,,,,,MVFR,,,,,,,,,,,,METAR,564.0
VAAU 302100Z 00000KT 6000 FEW020 29/18 Q1010 NOSIG,VAAU,2023-05-30T21:00:00Z,19.85,75.4,29.0,18.0,0,0,,3.73,29.822834,,,,,,TRUE,,,,,FEW,2000,,,,,,,MVFR,,,,,,,,,,,,METAR,578.0
UWOR 302100Z 20004MPS CAVOK 18/07 Q1020 R25/CLRD65 NOSIG RMK QFE741/0989,UWOR,2023-05-30T21:00:00Z,51.07,58.6,18.0,7.0,200,8,,6.21,30.11811,,,,,,TRUE,,,,,CAVOK,,,,,,,,VFR,,,,,,,,,,,,METAR,270.0
UWLW 302100Z 11002MPS 9999 SCT040CB 19/15 Q1011 R02/CLRD60 NOSIG RMK QFE751/1002,UWLW,2023-05-30T21:00:00Z,54.4,48.8,19.0,15.0,110,4,,6.21,29.852362,,,,,,TRUE,,,,,SCT,4000,,,,,,,VFR,,,,,,,,,,,,SPECI,67.0
UTO8 M M M 152/09/-04/1009/M/ 6004 53MM,UTO8,2023-05-30T21:00:00Z,,,,,,,,3.73,,,,,,,,,,,,,,,,,,,,,,,,,,,,,,,,METAR,
UTFN 302100Z 32006KT 290V350 9999 NSC 22/04 Q1009 R28/CLRD70 NOSIG,UTFN,2023-05-30T21:00:00Z,40.98,71.57,22.0,4.0,320,6,,6.21,29.793306,,,,,,TRUE,,,,,CLR,,,,,,,,VFR,,,,,,,,,,,,METAR,477.0
UTAV 302100Z 03008KT CAVOK 24/00 Q1008 R31/CLRD70 NOSIG,UTAV,2023-05-30T21:00:00Z,39.08,63.62,24.0,0.0,30,8,,6.21,29.763779,,,,,,TRUE,,,,,CAVOK,,,,,,,,VFR,,,,,,,,,,,,SPECI,187.0
UTAT 302100Z 01006KT CAVOK 21/06 Q1012 R08/CLRD70 NOSIG,UTAT,2023-05-30T21:00:00Z,41.77,59.83,21.0,6.0,10,6,,6.21,29.88189,,,,,,TRUE,,,,,CAVOK,,,,,,,,VFR,,,,,,,,,,,,SPECI,84.0
UTAM 302100Z 32004KT 6000 NSC 23/05 Q1010 R88/CLRD70 NOSIG,UTAM,2023-05-30T21:00:00Z,37.62,61.9,23.0,5.0,320,4,,3.73,29.822834,,,,,,TRUE,,,,,CLR,,,,,,,,MVFR,,,,,,,,,,,,SPECI,218.0
UTAK 302100Z 27006KT CAVOK 27/03 Q1009 R16R/CLRD70 NOSIG,UTAK,2023-05-30T21:00:00Z,40.05,53.0,27.0,3.0,270,6,,6.21,29.793306,,,,,,TRUE,,,,,CAVOK,,,,,,,,VFR,,,,,,,,,,,,SPECI,83.0
UTAA 302100Z 10006KT 9999 NSC 25/02 Q1009 R88/70D NOSIG,UTAA,2023-05-30T21:00:00Z,37.98,58.37,25.0,2.0,100,6,,6.21,29.793306,,,,,,TRUE,,,,,CLR,,,,,,,,VFR,,,,,,,,,,,,METAR,207.0
URMN 302100Z 23002MPS 9999 NSC 18/15 Q1012 R24/////// NOSIG RMK QFE723,URMN,2023-05-30T21:00:00Z,43.52,43.63,18.0,15.0,230,4,,6.21,29.88189,,,,,,TRUE,,,,,CLR,,,,,,,,VFR,,,,,,,,,,,,SPECI,424.0
UMGG 302100Z 35005MPS CAVOK 15/11 Q1016 NOSIG,UMGG,2023-05-30T21:00:00Z,52.53,31.02,15.0,11.0,350,10,,6.21,30.0,,,,,,TRUE,,,,,CAVOK,,,,,,,,VFR,,,,,,,,,,,,METAR,135.0
ULPB 302100Z AUTO 18002MPS 150V250 9999 // NCD 05/05 Q1015 RMK QFE757/1010,ULPB,2023-05-30T21:00:00Z,61.88,34.15,5.0,5.0,180,4,,6.21,29.970472,,,TRUE,,,,,,,,CLR,,,,,,,,VFR,,,,,,,,,,,,METAR,41.0
ULOO 302100Z VRB01MPS CAVOK 10/04 Q1020 R01/090060 NOSIG RMK QFE760,ULOO,2023-05-30T21:00:00Z,57.78,28.4,10.0,4.0,0,2,,6.21,30.11811,,,,,,TRUE,,,,,CAVOK,,,,,,,,VFR,,,,,,,,,,,,METAR,46.0
UERP 302100Z 35004MPS 9999 FEW040 M00/M05 Q1024 R35/090060 NOSIG RMK QFE724,UERP,2023-05-30T21:00:00Z,66.4,112.03,0.0,-5.0,350,8,,6.21,30.236221,,,,,,TRUE,,,,,FEW,4000,,,,,,,VFR,,,,,,,,,,,,METAR,514.0
UCFL 302100Z 33002MPS 9999 NSC 12/M00 Q1021,UCFL,2023-05-30T21:00:00Z,42.58,76.7,12.0,0.0,330,4,,6.21,30.147638,,,,,,,,,,,CLR,,,,,,,,VFR,,,,,,,,,,,,METAR,1654.0
UASK 302100Z 08002MPS 5000 BR NSC 06/06 Q1021 NOSIG RMK QFE740/0987,UASK,2023-05-30T21:00:00Z,50.03,82.5,6.0,6.0,80,4,,3.11,30.147638,,,,,,TRUE,,,,BR,CLR,,,,,,,,MVFR,,,,,,,,,,,,METAR,285.0
UAOO 302100Z 06004MPS CAVOK 19/01 Q1015 NOSIG RMK QFE749/0999,UAOO,2023-05-30T21:00:00Z,44.7,65.6,19.0,1.0,60,8,,6.21,29.970472,,,,,,TRUE,,,,,CAVOK,,,,,,,,VFR,,,,,,,,,,,,METAR,130.0
TVSA 302100Z 03006KT 9999 SCT016 28/25 Q1012 NOSIG ,TVSA,2023-05-30T21:00:00Z,13.15,-61.15,28.0,25.0,30,6,,6.21,29.88189,,,,,,TRUE,,,,,SCT,1600,,,,,,,VFR,,,,,,,,,,,,METAR,3.0
TUPJ 302100Z 15007KT 10SM SCT020 29/23 A2994 RMK Q1013 VIS 16KM,TUPJ,2023-05-30T21:00:00Z,18.43,-64.53,29.0,23.0,150,7,,10.0,29.940945,,,,,,,,,,,SCT,2000,,,,,,,VFR,,,,,,,,,,,,METAR,6.0
TTPP 302100Z 13005KT 9999 FEW018 30/24 Q1010 NOSIG,TTPP,2023-05-30T21:00:00Z,10.58,-61.35,30.0,24.0,130,5,,6.21,29.822834,,,,,,TRUE,,,,,FEW,1800,,,,,,,VFR,,,,,,,,,,,,METAR,11.0
TTCP 302100Z 13007KT 9999 VCSH FEW017 29/25 Q1011 NOSIG RMK VCSH NE,TTCP,2023-05-30T21:00:00Z,11.15,-60.85,29.0,25.0,130,7,,6.21,29.852362,,,,,,TRUE,,,,VCSH,FEW,1700,,,,,,,VFR,,,,,,,,,,,,SPECI,13.0
TRPG 302100Z 10014KT 9999 FEW020 28/24 Q1014,TRPG,2023-05-30T21:00:00Z,16.78,-62.2,28.0,24.0,100,14,,6.21,29.940945,,,,,,,,,,,FEW,2000,,,,,,,VFR,,,,,,,,,,,,METAR,170.0
TNCC 302100Z 09012KT 9999 SCT020 29/25 Q1010 NOSIG,TNCC,2023-05-30T21:00:00Z,12.2,-68.97,29.0,25.0,90,12,,6.21,29.822834,,,,,,TRUE,,,,,SCT,2000,,,,,,,VFR,,,,,,,,,,,,METAR,10.0
TNCA 302100Z 08017KT 9999 BKN023 30/25 Q1009 NOSIG,TNCA,2023-05-30T21:00:00Z,12.5,-70.0,30.0,25.0,80,17,,6.21,29.793306,,,,,,TRUE,,,,,BKN,2300,,,,,,,MVFR,,,,,,,,,,,,METAR,7.0
TLPC 302100Z 09010KT 9999 BKN023 30/25 Q1013 NOSIG,TLPC,2023-05-30T21:00:00Z,14.02,-61.0,30.0,25.0,90,10,,6.21,29.911417,,,,,,TRUE,,,,,BKN,2300,,,,,,,MVFR,,,,,,,,,,,,METAR,8.0
TKPN 302100Z 11006KT 9999 FEW020 29/24 Q1013,TKPN,2023-05-30T21:00:00Z,17.2,-62.58,29.0,24.0,110,6,,6.21,29.911417,,,,,,,,,,,FEW,2000,,,,,,,VFR,,,,,,,,,,,,METAR,12.0
TKPK 302100Z 12009KT 9999 FEW023 30/22 Q1013,TKPK,2023-05-30T21:00:00Z,17.3,-62.72,30.0,22.0,120,9,,6.21,29.911417,,,,,,,,,,,FEW,2300,,,,,,,VFR,,,,,,,,,,,,METAR,62.0
TGPY 302100Z 08019KT 9999 FEW019 29/26 Q1011 NOSIG RMK VCSH-SE,TGPY,2023-05-30T21:00:00Z,12.0,-61.78,29.0,26.0,80,19,,6.21,29.852362,,,,,,TRUE,,,,,FEW,1900,,,,,,,VFR,,,,,,,,,,,,METAR,12.0
TDPD 302100Z 12009KT 9999 BKN020 29/24 Q1014,TDPD,2023-05-30T21:00:00Z,15.55,-61.3,29.0,24.0,120,9,,6.21,29.940945,,,,,,,,,,,BKN,2000,,,,,,,MVFR,,,,,,,,,,,,METAR,13.0
TDCF 302100Z 15003KT 9999 SCT019 32/20 Q1012,TDCF,2023-05-30T21:00:00Z,15.33,-61.4,32.0,20.0,150,3,,6.21,29.88189,,,,,,,,,,,SCT,1900,,,,,,,VFR,,,,,,,,,,,,METAR,4.0
TBPB 302100Z 07008KT 9999 FEW014 29/25 Q1012 NOSIG,TBPB,2023-05-30T21:00:00Z,13.07,-59.48,29.0,25.0,70,8,,6.21,29.88189,,,,,,TRUE,,,,,FEW,1400,,,,,,,VFR,,,,,,,,,,,,METAR,55.0
TAPA 302100Z 10007KT 040V150 9999 SCT022 28/22 Q1013 NOSIG,TAPA,2023-05-30T21:00:00Z,17.13,-61.78,28.0,22.0,100,7,,6.21,29.911417,,,,,,TRUE,,,,,SCT,2200,,,,,,,VFR,,,,,,,,,,,,METAR,15.0
SYMB 302100Z 22006KT 9999 SCT020 BKN100 29/24 Q//// NOSIG,SYMB,2023-05-30T21:00:00Z,8.2,-59.78,29.0,24.0,220,6,,6.21,,,,,,,TRUE,,,,,SCT,2000,BKN,10000,,,,,VFR,,,,,,,,,,,,METAR,13.0
SYLT 302100Z 31010KT 9999 BKN016 31/24 Q//// NOSIG,SYLT,2023-05-30T21:00:00Z,3.37,-59.78,31.0,24.0,310,10,,6.21,,,,,,,TRUE,,,,,BKN,1600,,,,,,,MVFR,,,,,,,,,,,,METAR,88.0
"SYEC 302100Z 02006KT 9999 VCSH FEW017CB SCT038 30/25 Q1011 NOSIG RMK CB SSE-WNW, VCSH S-WSW",SYEC,2023-05-30T21:00:00Z,6.8,-58.1,30.0,25.0,20,6,,6.21,29.852362,,,,,,TRUE,,,,VCSH,FEW,1700,SCT,3800,,,,,VFR,,,,,,,,,,,,METAR,2.0
SULS 302100Z 02004KT 360V070 9999 FEW040 14/11 Q1021,SULS,2023-05-30T21:00:00Z,-34.87,-55.1,14.0,11.0,20,4,,6.21,30.147638,,,,,,,,,,,FEW,4000,,,,,,,VFR,,,,,,,,,,,,METAR,22.0
SPPY 302100Z 03006KT 9999 SCT020 BKN050 17/13 Q1026 RMK TX20.8 PP000,SPPY,2023-05-30T21:00:00Z,-6.22,-77.85,17.0,13.0,30,6,,6.21,30.295275,,,,,,,,,,,SCT,2000,BKN,5000,,,,,VFR,,,,,,,,,,,,METAR,2536.0
SPMS 302100Z 00000KT 9999 FEW015 SCT100 28/24 Q1010 RMK BIRD HAZARD RWY 09/27 PP000,SPMS,2023-05-30T21:00:00Z,-5.9,-76.12,28.0,24.0,0,0,,6.21,29.822834,,,,,,,,,,,FEW,1500,SCT,10000,,,,,VFR,,,,,,,,,,,,METAR,149.0
SPLO 302100Z 18008KT 9999 OVC035 22/18 Q1014 RMK TX23.8 PP000,SPLO,2023-05-30T21:00:00Z,-17.7,-71.35,22.0,18.0,180,8,,6.21,29.940945,,,,,,,,,,,OVC,3500,,,,,,,VFR,,,,,,,,,,,,METAR,25.0
SPJE 302100Z 12008KT 9999 FEW040 30/23 Q1011 RMK TX32.4 BIRD HAZARD RWY 16/34 PP000,SPJE,2023-05-30T21:00:00Z,,,30.0,23.0,120,8,,6.21,29.852362,,,,,,,,,,,FEW,4000,,,,,,,VFR,,,,,,,,,,,,METAR,
SPEO 302100Z 19015KT CAVOK 25/19 Q1011 RMK BIRD HAZARD RWY 01 PP000,SPEO,2023-05-30T21:00:00Z,-9.17,-78.52,25.0,19.0,190,15,,6.21,29.852362,,,,,,,,,,,CAVOK,,,,,,,,VFR,,,,,,,,,,,,METAR,13.0
SLTR 302100Z 00000KT 9999 BKN015 24/20 Q1014,SLTR,2023-05-30T21:00:00Z,-14.83,-64.92,24.0,20.0,0,0,,6.21,29.940945,,,,,,,,,,,BKN,1500,,,,,,,MVFR,,,,,,,,,,,,METAR,157.0
SLTJ 302100Z 13004KT 9999 NSC 23/04 Q1020,SLTJ,2023-05-30T21:00:00Z,-21.55,-64.72,23.0,4.0,130,4,,6.21,30.11811,,,,,,,,,,,CLR,,,,,,,,VFR,,,,,,,,,,,,METAR,1850.0
SLSV 302100Z 19006KT 9999 OVC012 19/17 Q1016,SLSV,2023-05-30T21:00:00Z,-16.4,-61.05,19.0,17.0,190,6,,6.21,30.0,,,,,,,,,,,OVC,1200,,,,,,,MVFR,,,,,,,,,,,,METAR,450.0
SLSA 302100Z 17005KT 9999 SCT015 OVC070 24/19 Q1014,SLSA,2023-05-30T21:00:00Z,-13.77,-65.43,24.0,19.0,170,5,,6.21,29.940945,,,,,,,,,,,SCT,1500,OVC,7000,,,,,VFR,,,,,,,,,,,,METAR,144.0
SLRI 302100Z 19008KT 5000 -DZ BKN004 BKN010 OVC070 23/22 Q1014,SLRI,2023-05-30T21:00:00Z,-11.02,-66.08,23.0,22.0,190,8,,3.11,29.940945,,,,,,,,,,-DZ,BKN,400,BKN,1000,OVC,7000,,,LIFR,,,,,,,,,,,,METAR,136.0
SLMG 302100Z 00000KT 9999 SCT020 OVC070 24/21 Q1015,SLMG,2023-05-30T21:00:00Z,-13.27,-64.07,24.0,21.0,0,0,,6.21,29.970472,,,,,,,,,,,SCT,2000,OVC,7000,,,,,VFR,,,,,,,,,,,,METAR,146.0
SLET 302100Z 15010KT 9999 FEW012 BKN017 19/16 Q1017,SLET,2023-05-30T21:00:00Z,-17.8,-63.17,19.0,16.0,150,10,,6.21,30.029528,,,,,,,,,,,FEW,1200,BKN,1700,,,,,MVFR,,,,,,,,,,,,METAR,421.0
SLCP 302100Z 00000KT 9999 OVC013 19/17 Q1018,SLCP,2023-05-30T21:00:00Z,-16.15,-62.02,19.0,17.0,0,0,,6.21,30.059055,,,,,,,,,,,OVC,1300,,,,,,,MVFR,,,,,,,,,,,,METAR,502.0
SLCO 302100Z 18005KT 9999 BKN008 OVC015 24/23 Q1013,SLCO,2023-05-30T21:00:00Z,-11.03,-68.78,24.0,23.0,180,5,,6.21,29.911417,,,,,,,,,,,BKN,800,OVC,1500,,,,,IFR,,,,,,,,,,,,METAR,238.0
SLCA 302100Z 18003KT 9999 BKN027 19/15 Q1020,SLCA,2023-05-30T21:00:00Z,-20.0,-63.53,19.0,15.0,180,3,,6.21,30.11811,,,,,,,,,,,BKN,2700,,,,,,,MVFR,,,,,,,,,,,,METAR,796.0
SLAL 302100Z 04005KT 9999 NSC 18/M09 Q1030,SLAL,2023-05-30T21:00:00Z,-19.23,-65.15,18.0,-9.0,40,5,,6.21,30.413385,,,,,,,,,,,CLR,,,,,,,,VFR,,,,,,,,,,,,METAR,3109.0
SKVV 302100Z 00000KT 9999 FEW023 31/22 Q1010 RMK A2983,SKVV,2023-05-30T21:00:00Z,4.17,-73.62,31.0,22.0,0,0,,6.21,29.822834,,,,,,,,,,,FEW,2300,,,,,,,VFR,,,,,,,,,,,,METAR,421.0
SKVP 302100Z 00000KT 9999 SCT015TCU SCT080 32/23 Q1010 RMK TCU/SE/N A2983,SKVP,2023-05-30T21:00:00Z,10.43,-73.25,32.0,23.0,0,0,,6.21,29.822834,,,,,,,,,,,SCT,1500,SCT,8000,,,,,VFR,,,,,,,,,,,,METAR,137.0
SKUI 302100Z 15003KT 9999 SCT035 31/24 Q1006 RMK A2974,SKUI,2023-05-30T21:00:00Z,5.68,-76.63,31.0,24.0,150,3,,6.21,29.704725,,,,,,,,,,,SCT,3500,,,,,,,VFR,,,,,,,,,,,,METAR,55.0
SKUC 302100Z VRB02KT 9999 SCT017 SCT100 27/24 Q1011 RMK A2987,SKUC,2023-05-30T21:00:00Z,7.07,-70.73,27.0,24.0,0,2,,6.21,29.852362,,,,,,,,,,,SCT,1700,SCT,10000,,,,,VFR,,,,,,,,,,,,METAR,127.0
SKSP 302100Z 11006KT 060V200 9999 FEW018 31/25 Q1008 RMK A2978,SKSP,2023-05-30T21:00:00Z,12.58,-81.72,31.0,25.0,110,6,,6.21,29.763779,,,,,,,,,,,FEW,1800,,,,,,,VFR,,,,,,,,,,,,METAR,6.0
SKSM 302100Z 36012KT 9999 TS FEW015CB BKN200 34/25 Q1008 RMK CB/SE/S A2978,SKSM,2023-05-30T21:00:00Z,11.12,-74.22,34.0,25.0,360,12,,6.21,29.763779,,,,,,,,,,TS,FEW,1500,BKN,20000,,,,,VFR,,,,,,,,,,,,METAR,5.0
SKRH 302100Z 03006KT 9999 SCT018 BKN080 30/26 Q1008 RMK A2978,SKRH,2023-05-30T21:00:00Z,11.52,-72.92,30.0,26.0,30,6,,6.21,29.763779,,,,,,,,,,,SCT,1800,BKN,8000,,,,,VFR,,,,,,,,,,,,METAR,11.0
SKRG 302100Z 26004KT 9999 VCSH FEW018CB SCT200 18/15 Q1023 RETSRA BECMG FM2140 SCT020 RMK CB VCSH/NW/N A3023,SKRG,2023-05-30T21:00:00Z,6.17,-75.42,18.0,15.0,260,4,,6.21,30.206694,,,,,,,,,,VCSH,FEW,1800,SCT,20000,,,,,VFR,,,,,,,,,,,,METAR,2132.0
SKPV 302100Z 09004KT 070V150 9999 FEW017 32/27 Q1008 RMK A2979,SKPV,2023-05-30T21:00:00Z,13.37,-81.35,32.0,27.0,90,4,,6.21,29.763779,,,,,,,,,,,FEW,1700,,,,,,,VFR,,,,,,,,,,,,METAR,7.0
SKPS 302100Z VRB03KT 9999 SCT020 23/17 Q1018 RMK A3007,SKPS,2023-05-30T21:00:00Z,1.4,-77.28,23.0,17.0,0,3,,6.21,30.059055,,,,,,,,,,,SCT,2000,,,,,,,VFR,,,,,,,,,,,,METAR,1798.0
SKPE 302100Z 34006KT 9999 FEW016 SCT080 26/19 Q1015 RMK A2998,SKPE,2023-05-30T21:00:00Z,4.82,-75.73,26.0,19.0,340,6,,6.21,29.970472,,,,,,,,,,,FEW,1600,SCT,8000,,,,,VFR,,,,,,,,,,,,METAR,1341.0
SKPC 302100Z 02006KT 9999 FEW017 BKN070 28/24 Q1010 RMK A2984,SKPC,2023-05-30T21:00:00Z,6.18,-67.5,28.0,24.0,20,6,,6.21,29.822834,,,,,,,,,,,FEW,1700,BKN,7000,,,,,VFR,,,,,,,,,,,,METAR,51.0
SKNV 302100Z 27003KT 9999 FEW035 31/21 Q1009 RMK A2981,SKNV,2023-05-30T21:00:00Z,2.93,-75.28,31.0,21.0,270,3,,6.21,29.793306,,,,,,,,,,,FEW,3500,,,,,,,VFR,,,,,,,,,,,,METAR,449.0
SKMR 302100Z 04005KT 310V070 9999 SCT017 33/25 Q1007 RMK A2975,SKMR,2023-05-30T21:00:00Z,8.82,-75.83,33.0,25.0,40,5,,6.21,29.734253,,,,,,,,,,,SCT,1700,,,,,,,VFR,,,,,,,,,,,,METAR,12.0
SKMD 302100Z 18005KT 9999 TS VCSH SCT035CB BKN100 24/16 Q1017 RMK CB VCSH/N/NE/NW A3006,SKMD,2023-05-30T21:00:00Z,6.22,-75.58,24.0,16.0,180,5,,6.21,30.029528,,,,,,,,,,TS VCSH,SCT,3500,BKN,10000,,,,,VFR,,,,,,,,,,,,METAR,1491.0
SKLT 302100Z 17006KT 130V210 9999 SCT017 BKN250 29/25 Q1008 RMK A2979,SKLT,2023-05-30T21:00:00Z,-4.2,-69.93,29.0,25.0,170,6,,6.21,29.763779,,,,,,,,,,,SCT,1700,BKN,25000,,,,,VFR,,,,,,,,,,,,METAR,78.0
SKLC 302100Z 18008KT 130V280 9999 SCT025TCU 33/25 Q1007 RMK TCUE A2975,SKLC,2023-05-30T21:00:00Z,7.82,-76.72,33.0,25.0,180,8,,6.21,29.734253,,,,,,,,,,,SCT,2500,,,,,,,VFR,,,,,,,,,,,,METAR,20.0
SKIP 302100Z 07010KT 9999 SCT018 16/10 Q1028 RMK A3036,SKIP,2023-05-30T21:00:00Z,0.85,-77.67,16.0,10.0,70,10,,6.21,30.35433,,,,,,,,,,,SCT,1800,,,,,,,VFR,,,,,,,,,,,,METAR,2964.0
SKIB 302100Z 10003KT 9999 BKN030 26/20 Q1016 RMK A3000,SKIB,2023-05-30T21:00:00Z,4.42,-75.12,26.0,20.0,100,3,,6.21,30.0,,,,,,,,,,,BKN,3000,,,,,,,MVFR,,,,,,,,,,,,METAR,899.0
SKEJ 302100Z 19003KT 9999 FEW017 SCT200 32/23 Q1007 RMK A2977,SKEJ,2023-05-30T21:00:00Z,7.02,-73.8,32.0,23.0,190,3,,6.21,29.734253,,,,,,,,,,,FEW,1700,SCT,20000,,,,,VFR,,,,,,,,,,,,METAR,123.0
SKCL 302100Z 02003KT 9999 FEW020 BKN120 28/19 Q1012 NOSIG RMK A2990,SKCL,2023-05-30T21:00:00Z,3.53,-76.37,28.0,19.0,20,3,,6.21,29.88189,,,,,,TRUE,,,,,FEW,2000,BKN,12000,,,,,VFR,,,,,,,,,,,,METAR,967.0
SKCG 302100Z 27007KT 230V300 9999 SCT015 BKN100 30/26 Q1007 RMK A2975,SKCG,2023-05-30T21:00:00Z,10.43,-75.52,30.0,26.0,270,7,,6.21,29.734253,,,,,,,,,,,SCT,1500,BKN,10000,,,,,VFR,,,,,,,,,,,,METAR,6.0
SKCC 302100Z 26004KT 9999 SCT015 SCT070 28/23 Q1011 RETS RMK A2987,SKCC,2023-05-30T21:00:00Z,7.92,-72.52,28.0,23.0,260,4,,6.21,29.852362,,,,,,,,,,,SCT,1500,SCT,7000,,,,,VFR,,,,,,,,,,,,METAR,308.0
SKBQ 302100Z 27004KT 230V010 9999 VCSH BKN015CB SCT070 28/24 Q1008 RETS TEMPO RA RMK CB VCSH/W/SE A2979,SKBQ,2023-05-30T21:00:00Z,10.87,-74.77,28.0,24.0,270,4,,6.21,29.763779,,,,,,,,,,VCSH,BKN,1500,SCT,7000,,,,,MVFR,,,,,,,,,,,,METAR,23.0
SKBO 302100Z 31009KT 9999 VCSH SCT020 SCT070 18/12 Q1025 NOSIG RMK VCSH/N A3027,SKBO,2023-05-30T21:00:00Z,4.7,-74.15,18.0,12.0,310,9,,6.21,30.265747,,,,,,TRUE,,,,VCSH,SCT,2000,SCT,7000,,,,,VFR,,,,,,,,,,,,METAR,2547.0
SKBG 302100Z 33007KT 9999 SCT010 SCT100 25/21 Q1014 RMK A2995,SKBG,2023-05-30T21:00:00Z,7.13,-73.18,25.0,21.0,330,7,,6.21,29.940945,,,,,,,,,,,SCT,1000,SCT,10000,,,,,VFR,,,,,,,,,,,,METAR,1187.0
SKAR 302100Z 00000KT 9999 SCT022 SCT090 26/20 Q1014 RMK A2995,SKAR,2023-05-30T21:00:00Z,4.45,-75.77,26.0,20.0,0,0,,6.21,29.940945,,,,,,,,,,,SCT,2200,SCT,9000,,,,,VFR,,,,,,,,,,,,METAR,1214.0
SGEN 302100Z 00000KT 9999 FEW030 23/18Q1018,SGEN,2023-05-30T21:00:00Z,-27.23,-55.83,,,0,0,,6.21,30.059055,,,,,,,,,,,FEW,3000,,,,,,,VFR,,,,,,,,,,,,METAR,202.0
SGCO 302100Z 16004KT 9999 BKN030 BKN070 24/21 Q1016,SGCO,2023-05-30T21:00:00Z,-23.43,-57.42,24.0,21.0,160,4,,6.21,30.0,,,,,,,,,,,BKN,3000,BKN,7000,,,,,MVFR,,,,,,,,,,,,METAR,74.0
SGAS 302100Z 03005KT 9999 FEW013 SCT033 BKN080 21/18 Q1017,SGAS,2023-05-30T21:00:00Z,-25.25,-57.52,21.0,18.0,30,5,,6.21,30.029528,,,,,,,,,,,FEW,1300,SCT,3300,BKN,8000,,,VFR,,,,,,,,,,,,METAR,83.0
SETU 302100Z 12007KT 9999 BKN020 17/09 Q1030,SETU,2023-05-30T21:00:00Z,0.82,-77.7,17.0,9.0,120,7,,6.21,30.413385,,,,,,,,,,,BKN,2000,,,,,,,MVFR,,,,,,,,,,,,METAR,2936.0
SERO 302100Z 33005KT 9999 FEW016 30/25 Q1008,SERO,2023-05-30T21:00:00Z,-3.43,-79.98,30.0,25.0,330,5,,6.21,29.763779,,,,,,,,,,,FEW,1600,,,,,,,VFR,,,,,,,,,,,,METAR,6.0
SERB 302100Z 08015KT 9999 BKN040 20/14 Q1026,SERB,2023-05-30T21:00:00Z,-1.65,-78.67,20.0,14.0,80,15,,6.21,30.295275,,,,,,,,,,,BKN,4000,,,,,,,VFR,,,,,,,,,,,,METAR,2788.0
SECO 302100Z 18007KT 9999 SCT030 BKN100 31/24 Q1009 RMK A2981,SECO,2023-05-30T21:00:00Z,-0.45,-76.98,31.0,24.0,180,7,,6.21,29.793306,,,,,,,,,,,SCT,3000,BKN,10000,,,,,VFR,,,,,,,,,,,,METAR,256.0
SCVM 302100Z 24007KT 9999 SCT070 BKN200 14/10 Q1018,SCVM,2023-05-30T21:00:00Z,-32.95,-71.48,14.0,10.0,240,7,,6.21,30.059055,,,,,,,,,,,SCT,7000,BKN,20000,,,,,VFR,,,,,,,,,,,,METAR,136.0
SCIR 302100Z 23010KT 8000 OVC010 15/15 Q1020,SCIR,2023-05-30T21:00:00Z,-33.67,-78.93,15.0,15.0,230,10,,4.97,30.11811,,,,,,,,,,,OVC,1000,,,,,,,MVFR,,,,,,,,,,,,METAR,132.0
SCCC 302100Z 04004KT 9999 SCT040 14/04 Q0998,SCCC,2023-05-30T21:00:00Z,-46.58,-71.7,14.0,4.0,40,4,,6.21,29.468504,,,,,,,,,,,SCT,4000,,,,,,,VFR,,,,,,,,,,,,METAR,305.0
SCAS 302100Z 18007KT 9999 -SHRA FEW026 OVC036 12/11 Q1004,SCAS,2023-05-30T21:00:00Z,-45.4,-72.67,12.0,11.0,180,7,,6.21,29.64567,,,,,,,,,,-SHRA,FEW,2600,OVC,3600,,,,,VFR,,,,,,,,,,,,METAR,8.0
SBYS 302100Z 19007KT 4000 RA BKN040 OVC070 18/17 Q1020,SBYS,2023-05-30T21:00:00Z,-21.97,-47.33,18.0,17.0,190,7,,2.49,30.11811,,,,,,,,,,RA,BKN,4000,OVC,7000,,,,,IFR,,,,,,,,,,,,METAR,600.0
SBVH 302100Z 05004KT 9999 SCT030 SCT080 24/20 Q1015,SBVH,2023-05-30T21:00:00Z,-12.68,-60.08,24.0,20.0,50,4,,6.21,29.970472,,,,,,,,,,,SCT,3000,SCT,8000,,,,,VFR,,,,,,,,,,,,METAR,615.0
SBUY 302100Z 12008KT 9999 SCT025 FEW030TCU BKN070 25/23 Q1010,SBUY,2023-05-30T21:00:00Z,-4.88,-65.35,25.0,23.0,120,8,,6.21,29.822834,,,,,,,,,,,SCT,2500,FEW,3000,BKN,7000,,,VFR,,,,,,,,,,,,METAR,44.0
SBUR 302100Z 03006KT 5000 HZ SCT040 25/17 Q1018,SBUR,2023-05-30T21:00:00Z,-19.77,-47.97,25.0,17.0,30,6,,3.11,30.059055,,,,,,,,,,HZ,SCT,4000,,,,,,,MVFR,,,,,,,,,,,,METAR,807.0
SBUL 302100Z 04008KT 9999 FEW049 BKN100 24/15 Q1019,SBUL,2023-05-30T21:00:00Z,-18.87,-48.22,24.0,15.0,40,8,,6.21,30.088583,,,,,,,,,,,FEW,4900,BKN,10000,,,,,VFR,,,,,,,,,,,,METAR,945.0
SBTU 302100Z AUTO /////KT ///V/// //// // ///////// ///// Q////,SBTU,2023-05-30T21:00:00Z,-3.78,-49.72,,,,,,,,,,TRUE,,,,,,,,,,,,,,,,,,,,,,,,,,,,METAR,250.0
SBTA 302100Z 05005KT 020V080 9999 BKN035 OVC100 18/14 Q1021,SBTA,2023-05-30T21:00:00Z,-23.03,-45.5,18.0,14.0,50,5,,6.21,30.147638,,,,,,,,,,,BKN,3500,OVC,10000,,,,,VFR,,,,,,,,,,,,METAR,578.0
SBST 302100Z /////KT 4000 -DZ BR FEW021 OVC045 20/18 Q1021,SBST,2023-05-30T21:00:00Z,-23.92,-46.3,20.0,18.0,,,,2.49,30.147638,,,,,,,,,,-DZ BR,FEW,2100,OVC,4500,,,,,IFR,,,,,,,,,,,,METAR,5.0
SBSR 302100Z 17008KT 3000 -RA BR OVC005 18/17 Q1019,SBSR,2023-05-30T21:00:00Z,-20.8,-49.4,18.0,17.0,170,8,,1.86,30.088583,,,,,,,,,,-RA BR,OVC,500,,,,,,,IFR,,,,,,,,,,,,METAR,537.0
SBSM 302100Z 14003KT CAVOK 16/14 Q1019,SBSM,2023-05-30T21:00:00Z,-29.72,-53.7,16.0,14.0,140,3,,6.21,30.088583,,,,,,,,,,,CAVOK,,,,,,,,VFR,,,,,,,,,,,,METAR,86.0
SBSC 302100Z 11003KT CAVOK 22/17 Q1021,SBSC,2023-05-30T21:00:00Z,-22.92,-43.72,22.0,17.0,110,3,,6.21,30.147638,,,,,,,,,,,CAVOK,,,,,,,,VFR,,,,,,,,,,,,METAR,6.0
SBPP 302100Z 04004KT 5000 BR OVC007 17/16 Q1019,SBPP,2023-05-30T21:00:00Z,-22.55,-55.7,17.0,16.0,40,4,,3.11,30.088583,,,,,,,,,,BR,OVC,700,,,,,,,IFR,,,,,,,,,,,,METAR,650.0
SBPF 302100Z 05007KT 9999 FEW015 SCT070 16/13 Q1021,SBPF,2023-05-30T21:00:00Z,-28.25,-52.33,16.0,13.0,50,7,,6.21,30.147638,,,,,,,,,,,FEW,1500,SCT,7000,,,,,VFR,,,,,,,,,,,,METAR,720.0
SBNT 302100Z 14011KT 9999 SCT049 BKN080 27/24 Q1014,SBNT,2023-05-30T21:00:00Z,-5.92,-35.25,27.0,24.0,140,11,,6.21,29.940945,,,,,,,,,,,SCT,4900,BKN,8000,,,,,VFR,,,,,,,,,,,,METAR,51.0
SBNM 302100Z 23004KT 9999 FEW025 20/15 Q1018,SBNM,2023-05-30T21:00:00Z,-28.27,-54.17,20.0,15.0,230,4,,6.21,30.059055,,,,,,,,,,,FEW,2500,,,,,,,VFR,,,,,,,,,,,,METAR,325.0
SBMY 302100Z AUTO 17003KT 140V200 CAVOK 29/25 Q1010,SBMY,2023-05-30T21:00:00Z,-5.82,-61.28,29.0,25.0,170,3,,6.21,29.822834,,,TRUE,,,,,,,,CAVOK,,,,,,,,VFR,,,,,,,,,,,,METAR,44.0
SBMT 302100Z 13007KT 9999 BKN015 BKN017 16/15 Q1022,SBMT,2023-05-30T21:00:00Z,-23.52,-46.63,16.0,15.0,130,7,,6.21,30.177166,,,,,,,,,,,BKN,1500,BKN,1700,,,,,MVFR,,,,,,,,,,,,METAR,722.0
SBMS 302100Z 05006KT 9999 TS BKN020 FEW030CB SCT090 26/25 Q1013,SBMS,2023-05-30T21:00:00Z,-5.2,-37.37,26.0,25.0,50,6,,6.21,29.911417,,,,,,,,,,TS,BKN,2000,FEW,3000,SCT,9000,,,MVFR,,,,,,,,,,,,METAR,23.0
SBMK 302100Z 09008KT 9999 FEW045 22/14 Q1020,SBMK,2023-05-30T21:00:00Z,-16.7,-43.82,22.0,14.0,90,8,,6.21,30.11811,,,,,,,,,,,FEW,4500,,,,,,,VFR,,,,,,,,,,,,METAR,665.0
SBMG 302100Z 16003KT 9999 FEW020 BKN100 16/16 Q1019,SBMG,2023-05-30T21:00:00Z,-23.48,-52.02,16.0,16.0,160,3,,6.21,30.088583,,,,,,,,,,,FEW,2000,BKN,10000,,,,,VFR,,,,,,,,,,,,METAR,543.0
SBME 302100Z 15004KT 9999 FEW025 22/19 Q1021,SBME,2023-05-30T21:00:00Z,-22.35,-41.77,22.0,19.0,150,4,,6.21,30.147638,,,,,,,,,,,FEW,2500,,,,,,,VFR,,,,,,,,,,,,METAR,2.0
SBLS 302100Z 13009KT 9999 BKN036 20/13 Q1022,SBLS,2023-05-30T21:00:00Z,-19.67,-43.88,20.0,13.0,130,9,,6.21,30.177166,,,,,,,,,,,BKN,3600,,,,,,,VFR,,,,,,,,,,,,METAR,850.0
SBLE 302100Z AUTO 07005KT CAVOK 24/19 Q1018,SBLE,2023-05-30T21:00:00Z,-12.48,-41.28,24.0,19.0,70,5,,6.21,30.059055,,,TRUE,,,,,,,,CAVOK,,,,,,,,VFR,,,,,,,,,,,,METAR,495.0
SBKG 302100Z 13006KT CAVOK 25/20 Q1017,SBKG,2023-05-30T21:00:00Z,-7.27,-35.88,25.0,20.0,130,6,,6.21,30.029528,,,,,,,,,,,CAVOK,,,,,,,,VFR,,,,,,,,,,,,METAR,499.0
SBJV 302100Z 18003KT 150V230 5000 -RADZ BR BKN008 BKN025 18/17 Q1022,SBJV,2023-05-30T21:00:00Z,-26.22,-48.8,18.0,17.0,180,3,,3.11,30.177166,,,,,,,,,,-RA -DZ BR,BKN,800,BKN,2500,,,,,IFR,,,,,,,,,,,,METAR,3.0
SBJU 302100Z 18004KT 9999 FEW020 29/18 Q1017,SBJU,2023-05-30T21:00:00Z,-7.22,-39.27,29.0,18.0,180,4,,6.21,30.029528,,,,,,,,,,,FEW,2000,,,,,,,VFR,,,,,,,,,,,,METAR,407.0
SBJR 302100Z 12004KT 9999 FEW025 BKN070 ///// Q1021,SBJR,2023-05-30T21:00:00Z,-22.98,-43.37,,,120,4,,6.21,30.147638,,,,,,,,,,,FEW,2500,BKN,7000,,,,,VFR,,,,,,,,,,,,METAR,5.0
SBJE 302100Z 06007KT 9999 FEW020 31/23 Q1012,SBJE,2023-05-30T21:00:00Z,-2.9,-40.35,31.0,23.0,60,7,,6.21,29.88189,,,,,,,,,,,FEW,2000,,,,,,,VFR,,,,,,,,,,,,METAR,25.0
SBIP 302100Z AUTO 33001KT CAVOK 21/14 Q1020,SBIP,2023-05-30T21:00:00Z,-19.47,-42.48,21.0,14.0,330,1,,6.21,30.11811,,,TRUE,,,,,,,,CAVOK,,,,,,,,VFR,,,,,,,,,,,,METAR,240.0
SBIL 302100Z 25007KT 9999 BKN030 26/22 Q1019,SBIL,2023-05-30T21:00:00Z,-14.8,-39.02,26.0,22.0,250,7,,6.21,30.088583,,,,,,,,,,,BKN,3000,,,,,,,MVFR,,,,,,,,,,,,METAR,9.0
SBIH 302100Z 18005KT 9999 SCT020 FEW025TCU BKN080 25/24 Q1011,SBIH,2023-05-30T21:00:00Z,-4.25,-56.0,25.0,24.0,180,5,,6.21,29.852362,,,,,,,,,,,SCT,2000,FEW,2500,BKN,8000,,,VFR,,,,,,,,,,,,METAR,30.0
SBHT 302100Z 08004KT 9999 SCT030TCU SCT100 37/23 Q1011,SBHT,2023-05-30T21:00:00Z,-3.25,-52.27,37.0,23.0,80,4,,6.21,29.852362,,,,,,,,,,,SCT,3000,SCT,10000,,,,,VFR,,,,,,,,,,,,METAR,105.0
SBGW 302100Z 01004KT 9999 FEW030 BKN100 18/15 Q1022,SBGW,2023-05-30T21:00:00Z,-22.78,-45.2,18.0,15.0,10,4,,6.21,30.177166,,,,,,,,,,,FEW,3000,BKN,10000,,,,,VFR,,,,,,,,,,,,METAR,539.0
SBFS 302100Z 17010KT 9999 FEW020 22/19 Q1022,SBFS,2023-05-30T21:00:00Z,-22.02,-41.07,22.0,19.0,170,10,,6.21,30.177166,,,,,,,,,,,FEW,2000,,,,,,,VFR,,,,,,,,,,,,METAR,3.0
SBES 302100Z 00000KT 9999 FEW040 19/18 Q1022,SBES,2023-05-30T21:00:00Z,-22.82,-42.1,19.0,18.0,0,0,,6.21,30.177166,,,,,,,,,,,FEW,4000,,,,,,,VFR,,,,,,,,,,,,METAR,16.0
SBDN 302100Z 09009KT 9999 SCT006 SCT045 BKN080 17/17 Q1018,SBDN,2023-05-30T21:00:00Z,-22.18,-51.43,17.0,17.0,90,9,,6.21,30.059055,,,,,,,,,,,SCT,600,SCT,4500,BKN,8000,,,VFR,,,,,,,,,,,,METAR,438.0
SBCZ 302100Z 24005KT 9999 FEW025 SCT090 29/24 Q1011,SBCZ,2023-05-30T21:00:00Z,-7.58,-72.77,29.0,24.0,240,5,,6.21,29.852362,,,,,,,,,,,FEW,2500,SCT,9000,,,,,VFR,,,,,,,,,,,,METAR,193.0
SBCX 302100Z 06006KT CAVOK 16/09 Q1021,SBCX,2023-05-30T21:00:00Z,-29.2,-51.18,16.0,9.0,60,6,,6.21,30.147638,,,,,,,,,,,CAVOK,,,,,,,,VFR,,,,,,,,,,,,METAR,752.0
SBCR 302100Z 32003KT 210V360 2000 BR OVC002 19/19 Q1017,SBCR,2023-05-30T21:00:00Z,-19.0,-57.67,19.0,19.0,320,3,,1.24,30.029528,,,,,,,,,,BR,OVC,200,,,,,,,LIFR,,,,,,,,,,,,METAR,142.0
SBCO 302100Z 13003KT 9999 FEW030 SCT045 19/15 Q1019,SBCO,2023-05-30T21:00:00Z,-29.95,-51.15,19.0,15.0,130,3,,6.21,30.088583,,,,,,,,,,,FEW,3000,SCT,4500,,,,,VFR,,,,,,,,,,,,METAR,8.0
SBCH 302100Z 06005KT 9999 FEW015 OVC080 18/16 Q1021,SBCH,2023-05-30T21:00:00Z,-27.13,-52.67,18.0,16.0,60,5,,6.21,30.147638,,,,,,,,,,,FEW,1500,OVC,8000,,,,,VFR,,,,,,,,,,,,METAR,639.0
SBCC 302100Z 33003KT 9999 FEW045 FEW050TCU 26/22 Q1013,SBCC,2023-05-30T21:00:00Z,-9.33,-54.95,26.0,22.0,330,3,,6.21,29.911417,,,,,,,,,,,FEW,4500,FEW,5000,,,,,VFR,,,,,,,,,,,,METAR,540.0
SBCA 302100Z 09007KT 9999 FEW020 SCT100 16/14 Q1021,SBCA,2023-05-30T21:00:00Z,-25.0,-53.5,16.0,14.0,90,7,,6.21,30.147638,,,,,,,,,,,FEW,2000,SCT,10000,,,,,VFR,,,,,,,,,,,,METAR,753.0
SBBW 302100Z 00000KT 9999 SCT020 FEW025TCU BKN090 30/21 Q1015,SBBW,2023-05-30T21:00:00Z,-15.87,-52.38,30.0,21.0,0,0,,6.21,29.970472,,,,,,,,,,,SCT,2000,FEW,2500,BKN,9000,,,VFR,,,,,,,,,,,,METAR,354.0
SBBU 302100Z 19005KT 3000 -RA BR SCT004 BKN030 OVC070 17/16 Q1021,SBBU,2023-05-30T21:00:00Z,-22.33,-49.07,17.0,16.0,190,5,,1.86,30.147638,,,,,,,,,,-RA BR,SCT,400,BKN,3000,OVC,7000,,,IFR,,,,,,,,,,,,METAR,616.0
SBBI 302100Z 10005KT 8000 BKN007 BKN011 14/12 Q1023,SBBI,2023-05-30T21:00:00Z,-25.4,-49.23,14.0,12.0,100,5,,4.97,30.206694,,,,,,,,,,,BKN,700,BKN,1100,,,,,IFR,,,,,,,,,,,,METAR,928.0
SBBH 302100Z 10008KT 9999 BKN040 20/13 Q1022,SBBH,2023-05-30T21:00:00Z,-19.85,-43.95,20.0,13.0,100,8,,6.21,30.177166,,,,,,,,,,,BKN,4000,,,,,,,VFR,,,,,,,,,,,,METAR,799.0
SBAX 302100Z 10009KT 9999 SCT020 21/16 Q1020,SBAX,2023-05-30T21:00:00Z,-19.57,-46.97,21.0,16.0,100,9,,6.21,30.11811,,,,,,,,,,,SCT,2000,,,,,,,VFR,,,,,,,,,,,,METAR,989.0
SBAN 302100Z VRB02KT CAVOK 22/14 Q1020,SBAN,2023-05-30T21:00:00Z,-16.22,-48.97,22.0,14.0,0,2,,6.21,30.11811,,,,,,,,,,,CAVOK,,,,,,,,VFR,,,,,,,,,,,,METAR,1131.0
SBAF 302100Z 26001KT 9999 SCT040 BKN066 ///// Q1021,SBAF,2023-05-30T21:00:00Z,-22.87,-43.38,,,260,1,,6.21,30.147638,,,,,,,,,,,SCT,4000,BKN,6600,,,,,VFR,,,,,,,,,,,,METAR,34.0
SAZS 302100Z 30016KT 9999 BKN043 BKN050 11/04 Q1012 RMK PP///,SAZS,2023-05-30T21:00:00Z,-41.15,-71.17,11.0,4.0,300,16,,6.21,29.88189,,,,,,,,,,,BKN,4300,BKN,5000,,,,,VFR,,,,,,,,,,,,METAR,843.0
SAZN 302100Z 00000KT CAVOK 16/04 Q1011,SAZN,2023-05-30T21:00:00Z,-38.95,-68.15,16.0,4.0,0,0,,6.21,29.852362,,,,,,,,,,,CAVOK,,,,,,,,VFR,,,,,,,,,,,,METAR,273.0
SAZM 302100Z 02003KT CAVOK 14/08 Q1018 RMK PP///,SAZM,2023-05-30T21:00:00Z,-37.92,-57.57,14.0,8.0,20,3,,6.21,30.059055,,,,,,,,,,,CAVOK,,,,,,,,VFR,,,,,,,,,,,,METAR,17.0
SAWH 302100Z 03011KT 9999 FEW045 11/06 Q0981 RMK PP000,SAWH,2023-05-30T21:00:00Z,-54.85,-68.3,11.0,6.0,30,11,,6.21,28.966536,,,,,,,,,,,FEW,4500,,,,,,,VFR,,,,,,,,,,,,METAR,22.0
SAWG 302100Z 32015KT CAVOK 15/07 Q0987,SAWG,2023-05-30T21:00:00Z,-51.62,-69.27,15.0,7.0,320,15,,6.21,29.143702,,,,,,,,,,,CAVOK,,,,,,,,VFR,,,,,,,,,,,,METAR,15.0
SAWE 302100Z 25002KT 0050 R26/0600D FG NSC 04/04 Q0986 RMK PP999,SAWE,2023-05-30T21:00:00Z,-53.78,-67.75,4.0,4.0,250,2,,0.03,29.114174,,,,,,,,,,FG,CLR,,,,,,,,LIFR,,,,,,,,,,,,METAR,22.0
SAVC 302100Z 30012KT CAVOK 18/06 Q1002 RMK PP000,SAVC,2023-05-30T21:00:00Z,-45.78,-67.47,18.0,6.0,300,12,,6.21,29.586615,,,,,,,,,,,CAVOK,,,,,,,,VFR,,,,,,,,,,,,METAR,58.0
SASJ 302100Z 07009KT CAVOK 16/12 Q1018 RMK PP000,SASJ,2023-05-30T21:00:00Z,-24.38,-65.1,16.0,12.0,70,9,,6.21,30.059055,,,,,,,,,,,CAVOK,,,,,,,,VFR,,,,,,,,,,,,METAR,913.0
SASA 302100Z 04008KT CAVOK 20/10 Q1018 RMK PP000,SASA,2023-05-30T21:00:00Z,-24.85,-65.48,20.0,10.0,40,8,,6.21,30.059055,,,,,,,,,,,CAVOK,,,,,,,,VFR,,,,,,,,,,,,METAR,1235.0
SARP 302100Z 36002KT CAVOK 23/18 Q1018,SARP,2023-05-30T21:00:00Z,-27.38,-55.97,23.0,18.0,360,2,,6.21,30.059055,,,,,,,,,,,CAVOK,,,,,,,,VFR,,,,,,,,,,,,METAR,123.0
SARL 302100Z 09003KT CAVOK 18/14 Q1018,SARL,2023-05-30T21:00:00Z,-29.68,-57.15,18.0,14.0,90,3,,6.21,30.059055,,,,,,,,,,,CAVOK,,,,,,,,VFR,,,,,,,,,,,,METAR,70.0
SARI 302100Z 07003KT 9999 SCT046 BKN200 19/17 Q1019 RMK PP000,SARI,2023-05-30T21:00:00Z,-25.73,-54.47,19.0,17.0,70,3,,6.21,30.088583,,,,,,,,,,,SCT,4600,BKN,20000,,,,,VFR,,,,,,,,,,,,METAR,268.0
SARF 302100Z 20002KT 9999 FEW025 22/19 Q1017,SARF,2023-05-30T21:00:00Z,-26.22,-58.22,22.0,19.0,200,2,,6.21,30.029528,,,,,,,,,,,FEW,2500,,,,,,,VFR,,,,,,,,,,,,METAR,65.0
SARE 302100Z 15003KT 100V180 CAVOK 21/14 Q1017 RMK PP///,SARE,2023-05-30T21:00:00Z,-27.43,-59.05,21.0,14.0,150,3,,6.21,30.029528,,,,,,,,,,,CAVOK,,,,,,,,VFR,,,,,,,,,,,,METAR,52.0
SARC 302100Z 27002KT CAVOK 21/17 Q1017,SARC,2023-05-30T21:00:00Z,-27.43,-58.77,21.0,17.0,270,2,,6.21,30.029528,,,,,,,,,,,CAVOK,,,,,,,,VFR,,,,,,,,,,,,METAR,60.0
SAOC 302100Z 36010KT CAVOK 17/09 Q1015,SAOC,2023-05-30T21:00:00Z,-33.08,-64.27,17.0,9.0,360,10,,6.21,29.970472,,,,,,,,,,,CAVOK,,,,,,,,VFR,,,,,,,,,,,,METAR,422.0
SANT 302100Z 11004KT 080V150 9000 OVC020 15/12 Q1017 RMK PP000,SANT,2023-05-30T21:00:00Z,-26.85,-65.1,15.0,12.0,110,4,,5.59,30.029528,,,,,,,,,,,OVC,2000,,,,,,,MVFR,,,,,,,,,,,,METAR,446.0
SAME 302100Z 03006KT CAVOK 17/05 Q1014,SAME,2023-05-30T21:00:00Z,-32.82,-68.78,17.0,5.0,30,6,,6.21,29.940945,,,,,,,,,,,CAVOK,,,,,,,,VFR,,,,,,,,,,,,METAR,709.0
SAEZ 302100Z 05006KT CAVOK 15/10 Q1019 NOSIG RMK PP000,SAEZ,2023-05-30T21:00:00Z,-34.82,-58.53,15.0,10.0,50,6,,6.21,30.088583,,,,,,TRUE,,,,,CAVOK,,,,,,,,VFR,,,,,,,,,,,,METAR,16.0
SADF 302100Z 07005KT CAVOK 14/10 Q1019 PP000,SADF,2023-05-30T21:00:00Z,-34.45,-58.58,14.0,10.0,70,5,,6.21,30.088583,,,,,,,,,,,CAVOK,,,,,,,,VFR,,,,,,,,,,,,METAR,4.0
SACO 302100Z 06005KT CAVOK 18/10 Q1016 NOSIG RMK PP000,SACO,2023-05-30T21:00:00Z,-31.32,-64.22,18.0,10.0,60,5,,6.21,30.0,,,,,,TRUE,,,,,CAVOK,,,,,,,,VFR,,,,,,,,,,,,METAR,474.0
SABE 302100Z 02005KT 330V080 CAVOK 16/09 Q1020 NOSIG RMK PP000,SABE,2023-05-30T21:00:00Z,-34.57,-58.42,16.0,9.0,20,5,,6.21,30.11811,,,,,,TRUE,,,,,CAVOK,,,,,,,,VFR,,,,,,,,,,,,METAR,3.0
SAAR 302100Z 07005KT CAVOK 15/12 Q1018 RMK PP000,SAAR,2023-05-30T21:00:00Z,-32.92,-60.77,15.0,12.0,70,5,,6.21,30.059055,,,,,,,,,,,CAVOK,,,,,,,,VFR,,,,,,,,,,,,METAR,24.0
RPVP 302100Z 21006KT 9999 FEW019 BKN080 27/25 Q1007 RMK A2974,RPVP,2023-05-30T21:00:00Z,9.75,118.75,27.0,25.0,210,6,,6.21,29.734253,,,,,,,,,,,FEW,1900,BKN,8000,,,,,VFR,,,,,,,,,,,,METAR,15.0
RPVM 302100Z 22013KT 9999 FEW020 BKN100 28/24 Q1007 NOSIG RMK A2974,RPVM,2023-05-30T21:00:00Z,10.32,123.98,28.0,24.0,220,13,,6.21,29.734253,,,,,,TRUE,,,,,FEW,2000,BKN,10000,,,,,VFR,,,,,,,,,,,,METAR,9.0
RPVD 302100Z 20004KT 9999 FEW015 BKN220 26/25 Q1007 RMK A2974,RPVD,2023-05-30T21:00:00Z,9.33,123.3,26.0,25.0,200,4,,6.21,29.734253,,,,,,,,,,,FEW,1500,BKN,22000,,,,,VFR,,,,,,,,,,,,METAR,11.0
RPMZ 302100Z 27003KT 9999 FEW017 SCT300 27/26 Q1009 RMK A2980,RPMZ,2023-05-30T21:00:00Z,6.92,122.07,27.0,26.0,270,3,,6.21,29.793306,,,,,,,,,,,FEW,1700,SCT,30000,,,,,VFR,,,,,,,,,,,,METAR,8.0
RPMD 302100Z 20004KT 9999 VCSH FEW015 BKN260 27/27 Q1009 RMK A2980 VCSH ESE,RPMD,2023-05-30T21:00:00Z,7.12,125.65,27.0,27.0,200,4,,6.21,29.793306,,,,,,,,,,VCSH,FEW,1500,BKN,26000,,,,,VFR,,,,,,,,,,,,METAR,19.0
RPLL 302100Z 24007KT 9999 FEW023 SCT100 28/26 Q1002 NOSIG RMK A2959,RPLL,2023-05-30T21:00:00Z,14.52,121.0,28.0,26.0,240,7,,6.21,29.586615,,,,,,TRUE,,,,,FEW,2300,SCT,10000,,,,,VFR,,,,,,,,,,,,METAR,15.0
RPLI 302100Z 27009KT 230V310 8000 FEW017CB BKN020 28/26 Q1000 RMK A2953 CB SE,RPLI,2023-05-30T21:00:00Z,18.17,120.52,28.0,26.0,270,9,,4.97,29.52756,,,,,,,,,,,FEW,1700,BKN,2000,,,,,MVFR,,,,,,,,,,,,METAR,5.0
RPLC 302100Z 27009KT 230V310 8000 FEW017CB BKN020 28/26 Q1000 RMK A2953 CB SE,RPLC,2023-05-30T21:00:00Z,15.18,120.55,28.0,26.0,270,9,,4.97,29.52756,,,,,,,,,,,FEW,1700,BKN,2000,,,,,MVFR,,,,,,,,,,,,METAR,138.0
RPLB 302100Z 27013KT 9999 FEW020 SCT080 BKN300 30/24 Q1003 NOSIG RMK A2962,RPLB,2023-05-30T21:00:00Z,14.8,120.27,30.0,24.0,270,13,,6.21,29.616142,,,,,,TRUE,,,,,FEW,2000,SCT,8000,BKN,30000,,,VFR,,,,,,,,,,,,METAR,19.0
ROYN 302100Z AUTO 04025KT 6000 SCT012 BKN050 27/25 Q0997,ROYN,2023-05-30T21:00:00Z,24.47,122.97,27.0,25.0,40,25,,3.73,29.438976,,,TRUE,,,,,,,,SCT,1200,BKN,5000,,,,,MVFR,,,,,,,,,,,,METAR,21.0
RORY 302100Z AUTO 11014KT 9999 FEW017 OVC210 26/25 Q1004,RORY,2023-05-30T21:00:00Z,27.05,128.4,26.0,25.0,110,14,,6.21,29.64567,,,TRUE,,,,,,,,FEW,1700,OVC,21000,,,,,VFR,,,,,,,,,,,,METAR,13.0
RORT 302100Z AUTO 07014G30KT 360V120 9999 -RA FEW016 SCT037 BKN100 26/24 Q0996,RORT,2023-05-30T21:00:00Z,24.63,124.7,26.0,24.0,70,14,30,6.21,29.409449,,,TRUE,,,,,,,-RA,FEW,1600,SCT,3700,BKN,10000,,,VFR,,,,,,,,,,,,METAR,9.0
RORS 302100Z AUTO 10020KT 6000 -RA FEW005 SCT037 BKN080 //////TCU 25/24 Q0997,RORS,2023-05-30T21:00:00Z,24.82,125.15,25.0,24.0,100,20,,3.73,29.438976,,,TRUE,,,,,,,-RA,FEW,500,SCT,3700,BKN,8000,,,MVFR,,,,,,,,,,,,SPECI,13.0
RORK 302100Z AUTO 14015KT 4600 BR FEW003 BKN230 25/24 Q1006,RORK,2023-05-30T21:00:00Z,25.93,131.32,25.0,24.0,140,15,,2.86,29.704725,,,TRUE,,,,,,,BR,FEW,300,BKN,23000,,,,,IFR,,,,,,,,,,,,METAR,11.0
ROMY 302100Z AUTO 09019G30KT 7000 RA FEW009 SCT090 BKN100 //////TCU 25/24 Q0997,ROMY,2023-05-30T21:00:00Z,24.78,125.27,25.0,24.0,90,19,30,4.35,29.438976,,,TRUE,,,,,,,RA,FEW,900,SCT,9000,BKN,10000,,,MVFR,,,,,,,,,,,,SPECI,38.0
ROMD 302100Z AUTO 15009KT 120V190 6000 OVC002 25/25 Q1006,ROMD,2023-05-30T21:00:00Z,25.83,131.25,25.0,25.0,150,9,,3.73,29.704725,,,TRUE,,,,,,,,OVC,200,,,,,,,LIFR,,,,,,,,,,,,METAR,45.0
ROIG 302100Z AUTO 06031KT 7000 -RA SCT015 BKN017 OVC060 27/25 Q0995,ROIG,2023-05-30T21:00:00Z,24.38,124.23,27.0,25.0,60,31,,4.35,29.379921,,,TRUE,,,,,,,-RA,SCT,1500,BKN,1700,OVC,6000,,,MVFR,,,,,,,,,,,,METAR,37.0
RKTU 302100Z 10001KT CAVOK 13/12 Q1012,RKTU,2023-05-30T21:00:00Z,36.7,127.5,13.0,12.0,100,1,,6.21,29.88189,,,,,,,,,,,CAVOK,,,,,,,,VFR,,,,,,,,,,,,METAR,46.0
RKTN 302100Z 01003KT 9999 FEW030 BKN180 16/14 Q1012,RKTN,2023-05-30T21:00:00Z,35.88,128.65,16.0,14.0,10,3,,6.21,29.88189,,,,,,,,,,,FEW,3000,BKN,18000,,,,,VFR,,,,,,,,,,,,METAR,25.0
RKSS 302100Z 10007KT CAVOK 20/12 Q1011 NOSIG,RKSS,2023-05-30T21:00:00Z,37.55,126.78,20.0,12.0,100,7,,6.21,29.852362,,,,,,TRUE,,,,,CAVOK,,,,,,,,VFR,,,,,,,,,,,,METAR,18.0
RKSM 302100Z 21004KT 9999 BKN140 18/12 A2987,RKSM,2023-05-30T21:00:00Z,37.43,127.12,18.0,12.0,210,4,,6.21,29.870079,,,,,,,,,,,BKN,14000,,,,,,,VFR,,,,,,,,,,,,METAR,18.0
RKPK 302100Z 29001KT CAVOK 17/14 Q1011,RKPK,2023-05-30T21:00:00Z,35.17,128.93,17.0,14.0,290,1,,6.21,29.852362,,,,,,,,,,,CAVOK,,,,,,,,VFR,,,,,,,,,,,,METAR,3.0
RKPC 302100Z 09014KT 8000 -RA SCT007 BKN030 OVC080 18/17 Q1010 NOSIG,RKPC,2023-05-30T21:00:00Z,33.5,126.48,18.0,17.0,90,14,,4.97,29.822834,,,,,,TRUE,,,,-RA,SCT,700,BKN,3000,OVC,8000,,,MVFR,,,,,,,,,,,,METAR,23.0
RKNY 302100Z AUTO 25005KT 9999 NCD 13/11 Q1012,RKNY,2023-05-30T21:00:00Z,38.07,128.67,13.0,11.0,250,5,,6.21,29.88189,,,TRUE,,,,,,,,CLR,,,,,,,,VFR,,,,,,,,,,,,METAR,76.0
RKJB 302100Z 08001KT 6000 FEW040 BKN110 19/17 Q1010 NOSIG,RKJB,2023-05-30T21:00:00Z,34.98,126.38,19.0,17.0,80,1,,3.73,29.822834,,,,,,TRUE,,,,,FEW,4000,BKN,11000,,,,,MVFR,,,,,,,,,,,,METAR,16.0
RJSM 302100Z 24007KT 9999 FEW030 SCT200 13/07 Q1011,RJSM,2023-05-30T21:00:00Z,40.7,141.37,13.0,7.0,240,7,,6.21,29.852362,,,,,,,,,,,FEW,3000,SCT,20000,,,,,VFR,,,,,,,,,,,,METAR,31.0
RJOS 302100Z 28007KT 9999 -RA FEW008 SCT025 OVC080 17/15 Q1011,RJOS,2023-05-30T21:00:00Z,34.12,134.62,17.0,15.0,280,7,,6.21,29.852362,,,,,,,,,,-RA,FEW,800,SCT,2500,OVC,8000,,,VFR,,,,,,,,,,,,METAR,3.0
RJOO 302100Z AUTO 32003KT 290V350 9999 -RA NSC 18/16 Q1011,RJOO,2023-05-30T21:00:00Z,34.78,135.43,18.0,16.0,320,3,,6.21,29.852362,,,TRUE,,,,,,,-RA,CLR,,,,,,,,VFR,,,,,,,,,,,,METAR,11.0
RJOK 302100Z AUTO 36006KT 9999 -RA OVC049 //////TCU 18/17 Q1009,RJOK,2023-05-30T21:00:00Z,33.53,133.67,18.0,17.0,360,6,,6.21,29.793306,,,TRUE,,,,,,,-RA,OVC,4900,,,,,,,VFR,,,,,,,,,,,,SPECI,7.0
RJOH 302100Z 06012KT 9999 FEW005 BKN010 BKN150 19/17 Q1011,RJOH,2023-05-30T21:00:00Z,35.48,133.25,19.0,17.0,60,12,,6.21,29.852362,,,,,,,,,,,FEW,500,BKN,1000,BKN,15000,,,MVFR,,,,,,,,,,,,METAR,6.0
RJNK 302100Z 08004KT 060V120 9999 FEW010 SCT160 BKN230 16/14 Q1011,RJNK,2023-05-30T21:00:00Z,36.38,136.42,16.0,14.0,80,4,,6.21,29.852362,,,,,,,,,,,FEW,1000,SCT,16000,BKN,23000,,,VFR,,,,,,,,,,,,METAR,7.0
RJKI 302100Z AUTO 15003KT 100V240 9999 BKN006 OVC009 26/25 Q1007,RJKI,2023-05-30T21:00:00Z,28.32,129.92,26.0,25.0,150,3,,6.21,29.734253,,,TRUE,,,,,,,,BKN,600,OVC,900,,,,,IFR,,,,,,,,,,,,METAR,6.0
RJKA 302100Z AUTO 18004KT 7000 SCT008 OVC010 25/25 Q1006,RJKA,2023-05-30T21:00:00Z,28.42,129.72,25.0,25.0,180,4,,4.35,29.704725,,,TRUE,,,,,,,,SCT,800,OVC,1000,,,,,MVFR,,,,,,,,,,,,METAR,7.0
RJFR 302100Z 19009KT 9999 -RA FEW005 SCT060 BKN080 18/17 Q1010,RJFR,2023-05-30T21:00:00Z,33.83,131.03,18.0,17.0,190,9,,6.21,29.822834,,,,,,,,,,-RA,FEW,500,SCT,6000,BKN,8000,,,VFR,,,,,,,,,,,,METAR,9.0
RJFM 302100Z AUTO 06011KT 8000 -TSRA BKN010 OVC016 //////CB 20/19 Q1009,RJFM,2023-05-30T21:00:00Z,31.87,131.43,20.0,19.0,60,11,,4.97,29.793306,,,TRUE,,,,,,,-TSRA,BKN,1000,OVC,1600,,,,,MVFR,,,,,,,,,,,,SPECI,10.0
RJFK 302100Z 25003KT 210V270 3000 R34/P2000N -SHRA BCFG BR FEW001 SCT002 BKN003 23/23 Q1008,RJFK,2023-05-30T21:00:00Z,31.8,130.72,23.0,23.0,250,3,,1.86,29.763779,,,,,,,,,,-SHRA BCFG BR,FEW,100,SCT,200,BKN,300,,,LIFR,,,,,,,,,,,,METAR,271.0
RJDB 302100Z AUTO 03006KT 9999 FEW003 SCT005 BKN009 19/19 Q1009,RJDB,2023-05-30T21:00:00Z,33.75,129.78,19.0,19.0,30,6,,6.21,29.793306,,,TRUE,,,,,,,,FEW,300,SCT,500,BKN,900,,,IFR,,,,,,,,,,,,METAR,13.0
RJAW 302100Z 15007KT 9999 SCT008 SCT012 26/25 Q1012 RMK 4ST008 4CU012 A2991 WIND BY EQPT/25,RJAW,2023-05-30T21:00:00Z,24.78,141.32,26.0,25.0,150,7,,6.21,29.88189,,,,,,,,,,,SCT,800,SCT,1200,,,,,VFR,,,,,,,,,,,,SPECI,116.0
RJAH 302100Z 05012KT 9999 FEW030 SCT050 BKN080 18/13 Q1010,RJAH,2023-05-30T21:00:00Z,36.17,140.42,18.0,13.0,50,12,,6.21,29.822834,,,,,,,,,,,FEW,3000,SCT,5000,BKN,8000,,,VFR,,,,,,,,,,,,METAR,31.0
RCKH 302100Z 08003KT 9000 FEW012 SCT060 BKN220 26/23 Q0996 NOSIG RMK A2943,RCKH,2023-05-30T21:00:00Z,22.57,120.33,26.0,23.0,80,3,,5.59,29.409449,,,,,,TRUE,,,,,FEW,1200,SCT,6000,BKN,22000,,,VFR,,,,,,,,,,,,METAR,6.0
OTHH 302100Z AUTO 32013KT CAVOK 33/17 Q1005 NOSIG,OTHH,2023-05-30T21:00:00Z,25.27,51.6,33.0,17.0,320,13,,6.21,29.675198,,,TRUE,,,TRUE,,,,,CAVOK,,,,,,,,VFR,,,,,,,,,,,,METAR,3.0
OSAP 302100Z 28014KT CAVOK 19/13 Q1016,OSAP,2023-05-30T21:00:00Z,36.17,37.22,19.0,13.0,280,14,,6.21,30.0,,,,,,,,,,,CAVOK,,,,,,,,VFR,,,,,,,,,,,,METAR,390.0
OPSK 302100Z 09008KT 4000 VCTS FEW030CB SCT040 BKN100 27/18 Q1007 TEMPO VCTS UPTO 2300Z,OPSK,2023-05-30T21:00:00Z,27.72,68.8,27.0,18.0,90,8,,2.49,29.734253,,,,,,,,,,VCTS,FEW,3000,SCT,4000,BKN,10000,,,IFR,,,,,,,,,,,,METAR,62.0
OPNH 302100Z 23006KT 5000 HZ FEW035 SCT100 25/22 Q1007,OPNH,2023-05-30T21:00:00Z,26.22,68.38,25.0,22.0,230,6,,3.11,29.734253,,,,,,,,,,HZ,FEW,3500,SCT,10000,,,,,MVFR,,,,,,,,,,,,METAR,30.0
OMSJ 302100Z 11004KT CAVOK 30/19 Q1005 NOSIG,OMSJ,2023-05-30T21:00:00Z,25.32,55.52,30.0,19.0,110,4,,6.21,29.675198,,,,,,TRUE,,,,,CAVOK,,,,,,,,VFR,,,,,,,,,,,,METAR,33.0
OMRK 302100Z 17003KT CAVOK 29/19 Q1004 A2967,OMRK,2023-05-30T21:00:00Z,25.62,55.93,29.0,19.0,170,3,,6.21,29.64567,,,,,,,,,,,CAVOK,,,,,,,,VFR,,,,,,,,,,,,METAR,18.0
OMFJ 302100Z 02010KT 6000 NSC 29/28 Q1004 A2965,OMFJ,2023-05-30T21:00:00Z,25.1,56.32,29.0,28.0,20,10,,3.73,29.64567,,,,,,,,,,,CLR,,,,,,,,MVFR,,,,,,,,,,,,METAR,27.0
OMDW 302100Z 29004KT 270V330 CAVOK 30/19 Q1005 NOSIG,OMDW,2023-05-30T21:00:00Z,24.9,55.17,30.0,19.0,290,4,,6.21,29.675198,,,,,,TRUE,,,,,CAVOK,,,,,,,,VFR,,,,,,,,,,,,METAR,34.0
OMDB 302100Z 10006KT CAVOK 33/19 Q1004 NOSIG,OMDB,2023-05-30T21:00:00Z,25.25,55.37,33.0,19.0,100,6,,6.21,29.64567,,,,,,TRUE,,,,,CAVOK,,,,,,,,VFR,,,,,,,,,,,,METAR,5.0
OMAL 302100Z 32004KT CAVOK 32/18 Q1006 NOSIG,OMAL,2023-05-30T21:00:00Z,24.25,55.6,32.0,18.0,320,4,,6.21,29.704725,,,,,,TRUE,,,,,CAVOK,,,,,,,,VFR,,,,,,,,,,,,METAR,247.0
OMAD 302100Z VRB02KT CAVOK 31/25 Q1004 NOSIG,OMAD,2023-05-30T21:00:00Z,24.42,54.47,31.0,25.0,0,2,,6.21,29.64567,,,,,,TRUE,,,,,CAVOK,,,,,,,,VFR,,,,,,,,,,,,METAR,9.0
OMAA 302100Z 08004KT 040V100 CAVOK 31/24 Q1004 NOSIG,OMAA,2023-05-30T21:00:00Z,24.42,54.65,31.0,24.0,80,4,,6.21,29.64567,,,,,,TRUE,,,,,CAVOK,,,,,,,,VFR,,,,,,,,,,,,METAR,13.0
OKKK 302100Z 28003KT 8000 FEW040 SCT080 33/14 Q1007 NOSIG,OKKK,2023-05-30T21:00:00Z,,,33.0,14.0,280,3,,4.97,29.734253,,,,,,TRUE,,,,,FEW,4000,SCT,8000,,,,,MVFR,,,,,,,,,,,,METAR,
OIZJ 302100Z 31006KT 3000 BR NSC 29/28 Q1002,OIZJ,2023-05-30T21:00:00Z,25.65,57.8,29.0,28.0,310,6,,1.86,29.586615,,,,,,,,,,BR,CLR,,,,,,,,IFR,,,,,,,,,,,,METAR,6.0
OIZI 302100Z 26008KT 6000 NSC 34/09 Q1007,OIZI,2023-05-30T21:00:00Z,27.23,60.72,34.0,9.0,260,8,,3.73,29.734253,,,,,,,,,,,CLR,,,,,,,,MVFR,,,,,,,,,,,,METAR,622.0
OIZH 302100Z 16006KT CAVOK 20/M07 Q1015 A2998,OIZH,2023-05-30T21:00:00Z,29.47,60.92,20.0,-7.0,160,6,,6.21,29.970472,,,,,,,,,,,CAVOK,,,,,,,,VFR,,,,,,,,,,,,METAR,1378.0
OIZB 302100Z 31012KT CAVOK 27/M06 Q1007,OIZB,2023-05-30T21:00:00Z,31.1,61.55,27.0,-6.0,310,12,,6.21,29.734253,,,,,,,,,,,CAVOK,,,,,,,,VFR,,,,,,,,,,,,METAR,483.0
OITZ 302100Z 00000KT CAVOK 15/09 Q1019 A3011,OITZ,2023-05-30T21:00:00Z,36.77,48.37,15.0,9.0,0,0,,6.21,30.088583,,,,,,,,,,,CAVOK,,,,,,,,VFR,,,,,,,,,,,,METAR,1630.0
OITR 302100Z 27006KT 9999 SCT035 16/07 Q1017 A3003,OITR,2023-05-30T21:00:00Z,37.67,45.07,16.0,7.0,270,6,,6.21,30.029528,,,,,,,,,,,SCT,3500,,,,,,,VFR,,,,,,,,,,,,METAR,1312.0
OITP 302100Z 28006KT 9999 FEW040 23/19 Q1007,OITP,2023-05-30T21:00:00Z,39.6,47.88,23.0,19.0,280,6,,6.21,29.734253,,,,,,,,,,,FEW,4000,,,,,,,VFR,,,,,,,,,,,,METAR,72.0
OITM 302100Z 10004KT CAVOK 17/06 Q1018,OITM,2023-05-30T21:00:00Z,37.35,46.15,17.0,6.0,100,4,,6.21,30.059055,,,,,,,,,,,CAVOK,,,,,,,,VFR,,,,,,,,,,,,METAR,1340.0
OITL 302100Z 07006KT CAVOK 13/12 Q1017,OITL,2023-05-30T21:00:00Z,38.33,48.42,13.0,12.0,70,6,,6.21,30.029528,,,,,,,,,,,CAVOK,,,,,,,,VFR,,,,,,,,,,,,METAR,1314.0
OISY 302100Z 00000KT 9999 SCT045 21/04 Q1022,OISY,2023-05-30T21:00:00Z,30.7,51.55,21.0,4.0,0,0,,6.21,30.177166,,,,,,,,,,,SCT,4500,,,,,,,VFR,,,,,,,,,,,,METAR,1800.0
OISL 302100Z 00000KT CAVOK 29/10 Q1008 A2979,OISL,2023-05-30T21:00:00Z,27.67,54.37,29.0,10.0,0,0,,6.21,29.763779,,,,,,,,,,,CAVOK,,,,,,,,VFR,,,,,,,,,,,,METAR,804.0
OISF 302100Z 01004KT CAVOK 23/04 Q1015 A2998,OISF,2023-05-30T21:00:00Z,28.9,53.72,23.0,4.0,10,4,,6.21,29.970472,,,,,,,,,,,CAVOK,,,,,,,,VFR,,,,,,,,,,,,METAR,1305.0
OINR 302100Z 00000KT 9999 SCT026 BKN090 24/21 Q1008,OINR,2023-05-30T21:00:00Z,36.9,50.67,24.0,21.0,0,0,,6.21,29.763779,,,,,,,,,,,SCT,2600,BKN,9000,,,,,VFR,,,,,,,,,,,,METAR,-19.0
OINN 302100Z 00000KT 9999 SCT031 BKN180 24/22 Q1007,OINN,2023-05-30T21:00:00Z,36.67,51.47,24.0,22.0,0,0,,6.21,29.734253,,,,,,,,,,,SCT,3100,BKN,18000,,,,,VFR,,,,,,,,,,,,METAR,-25.0
OING 302100Z 21006KT CAVOK 25/18 Q1011,OING,2023-05-30T21:00:00Z,36.9,54.4,25.0,18.0,210,6,,6.21,29.852362,,,,,,,,,,,CAVOK,,,,,,,,VFR,,,,,,,,,,,,METAR,0.0
OINE 302100Z 20010KT CAVOK 25/15 Q1010,OINE,2023-05-30T21:00:00Z,37.38,55.45,25.0,15.0,200,10,,6.21,29.822834,,,,,,,,,,,CAVOK,,,,,,,,VFR,,,,,,,,,,,,METAR,125.0
OIMT 302100Z AUTO 07004KT //// // ////// 31/01 Q1008,OIMT,2023-05-30T21:00:00Z,33.67,56.88,31.0,1.0,70,4,,,29.763779,,,TRUE,,,,,,,,,,,,,,,,,,,,,,,,,,,,METAR,693.0
OIMN 302100Z 32006KT CAVOK 20/M00 Q1015,OIMN,2023-05-30T21:00:00Z,37.48,57.3,20.0,0.0,320,6,,6.21,29.970472,,,,,,,,,,,CAVOK,,,,,,,,VFR,,,,,,,,,,,,METAR,1065.0
OIMJ 302100Z AUTO 06010KT //// // ////// 24/02 Q1014,OIMJ,2023-05-30T21:00:00Z,36.43,55.1,24.0,2.0,60,10,,,29.940945,,,TRUE,,,,,,,,,,,,,,,,,,,,,,,,,,,,METAR,1285.0
OIMB 302100Z 09004KT CAVOK 18/M12 Q1016 A3002,OIMB,2023-05-30T21:00:00Z,32.9,59.28,18.0,-12.0,90,4,,6.21,30.0,,,,,,,,,,,CAVOK,,,,,,,,VFR,,,,,,,,,,,,METAR,1512.0
OIKQ 302100Z 21006KT 6000 NSC 29/24 Q1003,OIKQ,2023-05-30T21:00:00Z,26.75,55.9,29.0,24.0,210,6,,3.73,29.616142,,,,,,,,,,,CLR,,,,,,,,MVFR,,,,,,,,,,,,METAR,9.0
OIKK 302100Z 08004KT 9999 FEW100 22/01 Q1018 A3007,OIKK,2023-05-30T21:00:00Z,30.25,56.97,22.0,1.0,80,4,,6.21,30.059055,,,,,,,,,,,FEW,10000,,,,,,,VFR,,,,,,,,,,,,METAR,1749.0
OIIP 302100Z 29004KT 9999 FEW040 BKN090 25/07 Q1015 A2997,OIIP,2023-05-30T21:00:00Z,35.78,50.83,25.0,7.0,290,4,,6.21,29.970472,,,,,,,,,,,FEW,4000,BKN,9000,,,,,VFR,,,,,,,,,,,,METAR,1270.0
OIIE 302100Z 23006KT 9999 FEW040CB SCT045 BKN100 28/07 Q1014,OIIE,2023-05-30T21:00:00Z,35.42,51.15,28.0,7.0,230,6,,6.21,29.940945,,,,,,,,,,,FEW,4000,SCT,4500,BKN,10000,,,VFR,,,,,,,,,,,,METAR,993.0
OIHH 302100Z 15004KT 9999 FEW040 17/10 Q1020 A3014,OIHH,2023-05-30T21:00:00Z,34.87,48.55,17.0,10.0,150,4,,6.21,30.11811,,,,,,,,,,,FEW,4000,,,,,,,VFR,,,,,,,,,,,,METAR,1742.0
OIFS 302100Z 16004KT CAVOK 13/03 Q1023,OIFS,2023-05-30T21:00:00Z,32.28,50.85,13.0,3.0,160,4,,6.21,30.206694,,,,,,,,,,,CAVOK,,,,,,,,VFR,,,,,,,,,,,,METAR,2042.0
OICS 302100Z 00000KT CAVOK 18/09 Q1018 A3009,OICS,2023-05-30T21:00:00Z,35.25,47.02,18.0,9.0,0,0,,6.21,30.059055,,,,,,,,,,,CAVOK,,,,,,,,VFR,,,,,,,,,,,,METAR,1369.0
OICK 302100Z 16004KT 9999 FEW100 BKN190 22/12 Q1015,OICK,2023-05-30T21:00:00Z,33.43,48.28,22.0,12.0,160,4,,6.21,29.970472,,,,,,,,,,,FEW,10000,BKN,19000,,,,,VFR,,,,,,,,,,,,METAR,1156.0
OICI 302100Z 00000KT CAVOK 21/10 Q1019 A3011,OICI,2023-05-30T21:00:00Z,33.58,46.4,21.0,10.0,0,0,,6.21,30.088583,,,,,,,,,,,CAVOK,,,,,,,,VFR,,,,,,,,,,,,METAR,1323.0
OICC 302100Z 28008KT 9999 FEW090 BKN200 21/09 Q1018 A3007,OICC,2023-05-30T21:00:00Z,34.35,47.17,21.0,9.0,280,8,,6.21,30.059055,,,,,,,,,,,FEW,9000,BKN,20000,,,,,VFR,,,,,,,,,,,,METAR,1310.0
OIBP 302100Z 00000KT 7000 NSC 28/21 Q1003 A2964,OIBP,2023-05-30T21:00:00Z,27.38,52.73,28.0,21.0,0,0,,4.35,29.616142,,,,,,,,,,,CLR,,,,,,,,MVFR,,,,,,,,,,,,METAR,13.0
OIBL 302100Z 34006KT 6000 NSC 31/21 Q1002,OIBL,2023-05-30T21:00:00Z,26.53,54.82,31.0,21.0,340,6,,3.73,29.586615,,,,,,,,,,,CLR,,,,,,,,MVFR,,,,,,,,,,,,METAR,25.0
OIBK 302100Z 32006KT 2000 BR FEW020 28/28 Q1003,OIBK,2023-05-30T21:00:00Z,26.53,53.98,28.0,28.0,320,6,,1.24,29.616142,,,,,,,,,,BR,FEW,2000,,,,,,,IFR,,,,,,,,,,,,METAR,27.0
OIBJ 302100Z AUTO VRB02KT //// // ////// 29/12 Q1010,OIBJ,2023-05-30T21:00:00Z,27.82,52.35,29.0,12.0,0,2,,,29.822834,,,TRUE,,,,,,,,,,,,,,,,,,,,,,,,,,,,METAR,647.0
OIBB 302100Z 32006KT CAVOK 31/22 Q1005 A2968,OIBB,2023-05-30T21:00:00Z,28.93,50.83,31.0,22.0,320,6,,6.21,29.675198,,,,,,,,,,,CAVOK,,,,,,,,VFR,,,,,,,,,,,,METAR,15.0
OIAW 302100Z 32006KT 9999 FEW040 BKN100 35/13 Q1005,OIAW,2023-05-30T21:00:00Z,31.33,48.77,35.0,13.0,320,6,,6.21,29.675198,,,,,,,,,,,FEW,4000,BKN,10000,,,,,VFR,,,,,,,,,,,,METAR,25.0
OIAM 302100Z 30006KT 9999 BKN040 32/14 Q1005,OIAM,2023-05-30T21:00:00Z,30.55,49.15,32.0,14.0,300,6,,6.21,29.675198,,,,,,,,,,,BKN,4000,,,,,,,VFR,,,,,,,,,,,,METAR,7.0
OIAH 302100Z 27006KT CAVOK 30/11 Q1011,OIAH,2023-05-30T21:00:00Z,30.33,50.83,30.0,11.0,270,6,,6.21,29.852362,,,,,,,,,,,CAVOK,,,,,,,,VFR,,,,,,,,,,,,METAR,730.0
OIAA 302100Z 30006KT 9999 FEW035CB BKN040 33/15 Q1006,OIAA,2023-05-30T21:00:00Z,30.35,48.22,33.0,15.0,300,6,,6.21,29.704725,,,,,,,,,,,FEW,3500,BKN,4000,,,,,VFR,,,,,,,,,,,,METAR,4.0
OEYN 302100Z 22003KT CAVOK 30/26 Q1008 NOSIG,OEYN,2023-05-30T21:00:00Z,24.13,38.07,30.0,26.0,220,3,,6.21,29.763779,,,,,,TRUE,,,,,CAVOK,,,,,,,,VFR,,,,,,,,,,,,METAR,20.0
OEWJ 302100Z 32004KT CAVOK 27/21 Q1011 NOSIG,OEWJ,2023-05-30T21:00:00Z,26.18,36.47,27.0,21.0,320,4,,6.21,29.852362,,,,,,TRUE,,,,,CAVOK,,,,,,,,VFR,,,,,,,,,,,,METAR,8.0
OEWD 302100Z 31010KT 9999 FEW030 SCT080 29/12 Q1012,OEWD,2023-05-30T21:00:00Z,20.5,45.2,29.0,12.0,310,10,,6.21,29.88189,,,,,,,,,,,FEW,3000,SCT,8000,,,,,VFR,,,,,,,,,,,,METAR,629.0
OETR 302100Z 31007KT 9999 SCT040 20/10 Q1017 NOSIG,OETR,2023-05-30T21:00:00Z,31.7,38.73,20.0,10.0,310,7,,6.21,30.029528,,,,,,TRUE,,,,,SCT,4000,,,,,,,VFR,,,,,,,,,,,,METAR,854.0
OETF 302100Z 27006KT CAVOK 21/15 Q1022 NOSIG,OETF,2023-05-30T21:00:00Z,21.47,40.53,21.0,15.0,270,6,,6.21,30.177166,,,,,,TRUE,,,,,CAVOK,,,,,,,,VFR,,,,,,,,,,,,METAR,1460.0
OETB 302100Z 36010KT CAVOK 26/08 Q1015 NOSIG,OETB,2023-05-30T21:00:00Z,28.37,36.62,26.0,8.0,360,10,,6.21,29.970472,,,,,,TRUE,,,,,CAVOK,,,,,,,,VFR,,,,,,,,,,,,METAR,770.0
OESK 302100Z 36007KT 9999 FEW040 26/12 Q1017 NOSIG,OESK,2023-05-30T21:00:00Z,29.78,40.1,26.0,12.0,360,7,,6.21,30.029528,,,,,,TRUE,,,,,FEW,4000,,,,,,,VFR,,,,,,,,,,,,METAR,671.0
OESH 302100Z 31006KT 9999 FEW040 34/13 Q1012 NOSIG,OESH,2023-05-30T21:00:00Z,17.47,47.12,34.0,13.0,310,6,,6.21,29.88189,,,,,,TRUE,,,,,FEW,4000,,,,,,,VFR,,,,,,,,,,,,METAR,720.0
OERR 302100Z 00000KT 9999 BKN030 26/18 Q1014 NOSIG,OERR,2023-05-30T21:00:00Z,30.9,41.13,26.0,18.0,0,0,,6.21,29.940945,,,,,,TRUE,,,,,BKN,3000,,,,,,,MVFR,,,,,,,,,,,,METAR,554.0
OERF 302100Z 16005KT 8000 BKN040 28/15 Q1012 NOSIG,OERF,2023-05-30T21:00:00Z,29.62,43.48,28.0,15.0,160,5,,4.97,29.88189,,,,,,TRUE,,,,,BKN,4000,,,,,,,MVFR,,,,,,,,,,,,METAR,441.0
OEPA 302100Z 24027KT 0800 SS BKN035 27/14 Q1012 TEMPO 0500,OEPA,2023-05-30T21:00:00Z,28.33,46.12,27.0,14.0,240,27,,0.5,29.88189,,,,,,,,,,SS,BKN,3500,,,,,,,LIFR,,,,,,,,,,,,METAR,361.0
OENG 302100Z 24012KT 9999 SCT030 BKN090 24/16 Q1019 NOSIG,OENG,2023-05-30T21:00:00Z,17.62,44.42,24.0,16.0,240,12,,6.21,30.088583,,,,,,TRUE,,,,,SCT,3000,BKN,9000,,,,,VFR,,,,,,,,,,,,METAR,1210.0
OEMN 302100Z 00000KT CAVOK 32/19 Q1014,OEMN,2023-05-30T21:00:00Z,,,32.0,19.0,0,0,,6.21,29.940945,,,,,,,,,,,CAVOK,,,,,,,,VFR,,,,,,,,,,,,METAR,
OEKM 302100Z 00000KT 9999 FEW022 17/12 Q1026 NOSIG,OEKM,2023-05-30T21:00:00Z,18.3,42.78,17.0,12.0,0,0,,6.21,30.295275,,,,,,TRUE,,,,,FEW,2200,,,,,,,VFR,,,,,,,,,,,,METAR,2038.0
OEKJ 302100Z 30008KT CAVOK 31/15 Q1014,OEKJ,2023-05-30T21:00:00Z,24.07,47.58,31.0,15.0,300,8,,6.21,29.940945,,,,,,,,,,,CAVOK,,,,,,,,VFR,,,,,,,,,,,,METAR,487.0
OEHL 302100Z 00000KT 9999 SCT040 23/17 Q1017,OEHL,2023-05-30T21:00:00Z,27.43,41.68,23.0,17.0,0,0,,6.21,30.029528,,,,,,,,,,,SCT,4000,,,,,,,VFR,,,,,,,,,,,,METAR,1002.0
OEGT 302100Z 32006KT CAVOK 21/10 Q1016 NOSIG,OEGT,2023-05-30T21:00:00Z,31.42,37.27,21.0,10.0,320,6,,6.21,30.0,,,,,,TRUE,,,,,CAVOK,,,,,,,,VFR,,,,,,,,,,,,METAR,512.0
OEGS 302100Z 11013KT 9999 BKN040 22/18 Q1015,OEGS,2023-05-30T21:00:00Z,26.3,43.77,22.0,18.0,110,13,,6.21,29.970472,,,,,,,,,,,BKN,4000,,,,,,,VFR,,,,,,,,,,,,METAR,647.0
OEGN 302100Z 00000KT 9999 FEW030 30/21 Q1011 NOSIG,OEGN,2023-05-30T21:00:00Z,16.9,42.58,30.0,21.0,0,0,,6.21,29.852362,,,,,,TRUE,,,,,FEW,3000,,,,,,,VFR,,,,,,,,,,,,METAR,5.0
OEBH 302100Z 16005KT 9999 FEW040 24/19 Q1018 NOSIG,OEBH,2023-05-30T21:00:00Z,19.98,42.62,24.0,19.0,160,5,,6.21,30.059055,,,,,,TRUE,,,,,FEW,4000,,,,,,,VFR,,,,,,,,,,,,METAR,1167.0
OEBA 302100Z 24003KT 9999 SCT030 20/14 Q1023 NOSIG,OEBA,2023-05-30T21:00:00Z,20.3,41.63,20.0,14.0,240,3,,6.21,30.206694,,,,,,TRUE,,,,,SCT,3000,,,,,,,VFR,,,,,,,,,,,,METAR,1659.0
OEAO 302100Z 23008KT CAVOK 29/08 Q1014 NOSIG,OEAO,2023-05-30T21:00:00Z,26.48,38.12,29.0,8.0,230,8,,6.21,29.940945,,,,,,TRUE,,,,,CAVOK,,,,,,,,VFR,,,,,,,,,,,,METAR,615.0
OEAH 302100Z 32006KT CAVOK 32/10 Q1008 NOSIG,OEAH,2023-05-30T21:00:00Z,25.28,49.48,32.0,10.0,320,6,,6.21,29.763779,,,,,,TRUE,,,,,CAVOK,,,,,,,,VFR,,,,,,,,,,,,METAR,180.0
NVVW 302100Z VRB02KT 9999 SCT020 BKN130 25/20 Q1016,NVVW,2023-05-30T21:00:00Z,-19.45,169.22,25.0,20.0,0,2,,6.21,30.0,,,,,,,,,,,SCT,2000,BKN,13000,,,,,VFR,,,,,,,,,,,,METAR,5.0
NVVV 302100Z 10004KT 9999 SCT020 BKN130 25/21 Q1016,NVVV,2023-05-30T21:00:00Z,-17.68,168.3,25.0,21.0,100,4,,6.21,30.0,,,,,,,,,,,SCT,2000,BKN,13000,,,,,VFR,,,,,,,,,,,,METAR,23.0
NVVA 302100Z 12006KT 9999 BKN020 24/19 Q1017,NVVA,2023-05-30T21:00:00Z,-20.25,169.77,24.0,19.0,120,6,,6.21,30.029528,,,,,,,,,,,BKN,2000,,,,,,,MVFR,,,,,,,,,,,,METAR,7.0
NVSS 302100Z 15006KT 9999 FEW025 27/21 Q1015,NVSS,2023-05-30T21:00:00Z,-15.52,167.22,27.0,21.0,150,6,,6.21,29.970472,,,,,,,,,,,FEW,2500,,,,,,,VFR,,,,,,,,,,,,METAR,47.0
NVSG 302100Z 14012KT 9999 FEW020 26/21 Q1014,NVSG,2023-05-30T21:00:00Z,-15.3,167.97,26.0,21.0,140,12,,6.21,29.940945,,,,,,,,,,,FEW,2000,,,,,,,VFR,,,,,,,,,,,,METAR,31.0
NVSC 302100Z 15012KT 9999 SCT018 28/23 Q1014,NVSC,2023-05-30T21:00:00Z,-13.85,167.55,28.0,23.0,150,12,,6.21,29.940945,,,,,,,,,,,SCT,1800,,,,,,,VFR,,,,,,,,,,,,METAR,11.0
NFNS 302100Z 15002KT 9999 FEW020 28/25 Q1014,NFNS,2023-05-30T21:00:00Z,-16.82,179.33,28.0,25.0,150,2,,6.21,29.940945,,,,,,,,,,,FEW,2000,,,,,,,VFR,,,,,,,,,,,,METAR,4.0
MYNN 302100Z 07005KT 030V090 9999 SCT018 BKN018 BKN080 28/24 A2989,MYNN,2023-05-30T21:00:00Z,25.03,-77.47,28.0,24.0,70,5,,6.21,29.890747,,,,,,,,,,,SCT,1800,BKN,1800,BKN,8000,,,MVFR,,,,,,,,,,,,METAR,5.0
MPMG 302100Z 16008KT 9999 SCT018CB 30/25 Q1008 NOSIG,MPMG,2023-05-30T21:00:00Z,8.98,-79.57,30.0,25.0,160,8,,6.21,29.763779,,,,,,TRUE,,,,,SCT,1800,,,,,,,VFR,,,,,,,,,,,,METAR,6.0
MPDA 302100Z 18010KT 140V220 9000 VCSH SCT012CB BKN090 30/24 Q1008,MPDA,2023-05-30T21:00:00Z,8.4,-82.43,30.0,24.0,180,10,,5.59,29.763779,,,,,,,,,,VCSH,SCT,1200,BKN,9000,,,,,VFR,,,,,,,,,,,,METAR,15.0
MPBO 302100Z 05008KT 9999 SCT030 SCT090 31/27 Q1007,MPBO,2023-05-30T21:00:00Z,9.35,-82.25,31.0,27.0,50,8,,6.21,29.734253,,,,,,,,,,,SCT,3000,SCT,9000,,,,,VFR,,,,,,,,,,,,METAR,2.0
MNRS 302100Z 00000KT 9999 SCT015CB BKN070 33/25 Q1007 CB/4/C,MNRS,2023-05-30T21:00:00Z,11.42,-85.82,33.0,25.0,0,0,,6.21,29.734253,,,,,,,,,,,SCT,1500,BKN,7000,,,,,VFR,,,,,,,,,,,,METAR,53.0
MNPC 302100Z 09006KT 6000 VCRA FEW014CB SCT016TCU 30/26 Q1007 CBRA/SW TCURA/E/SE/S 1AC100 1CS300,MNPC,2023-05-30T21:00:00Z,14.05,-83.38,30.0,26.0,90,6,,3.73,29.734253,,,,,,,,,,VCRA RA RA,FEW,1400,SCT,1600,,,,,MVFR,,,,,,,,,,,,METAR,10.0
MNMG 302100Z 16006KT 9999 FEW020CB SCT070 35/22 Q1005 A2971 CB/NE/SW TCU/E/SE/W 1CU025 2CI300 NOSIG,MNMG,2023-05-30T21:00:00Z,12.15,-86.17,35.0,22.0,160,6,,6.21,29.675198,,,,,,TRUE,,,,,FEW,2000,SCT,7000,,,,,VFR,,,,,,,,,,,,METAR,59.0
MNJU 302100Z 09008KT 9999 SCT020TCU SCT080 32/22 Q1007 TCU/ 4/C,MNJU,2023-05-30T21:00:00Z,12.08,-85.37,32.0,22.0,90,8,,6.21,29.734253,,,,,,,,,,,SCT,2000,SCT,8000,,,,,VFR,,,,,,,,,,,,METAR,85.0
MNJG 302100Z 00000KT 9999 BKN020 28/16 Q1008,MNJG,2023-05-30T21:00:00Z,13.13,-86.02,28.0,16.0,0,0,,6.21,29.763779,,,,,,,,,,,BKN,2000,,,,,,,MVFR,,,,,,,,,,,,METAR,981.0
MNCH 302100Z 36006KT 9999 SCT025TCU SCT300 32/25 Q1008 TCU/N/NE/E 1AC090,MNCH,2023-05-30T21:00:00Z,12.63,-87.13,32.0,25.0,360,6,,6.21,29.763779,,,,,,,,,,,SCT,2500,SCT,30000,,,,,VFR,,,,,,,,,,,,METAR,70.0
MNBL 302100Z 27004KT 9999 BKN017 SCT070 29/27 Q1008,MNBL,2023-05-30T21:00:00Z,12.0,-83.77,29.0,27.0,270,4,,6.21,29.763779,,,,,,,,,,,BKN,1700,SCT,7000,,,,,MVFR,,,,,,,,,,,,METAR,10.0
MKJP 302100Z VRB02KT 9999 SCT018 FEW020CB 27/24 Q1010,MKJP,2023-05-30T21:00:00Z,17.93,-76.78,27.0,24.0,0,2,,6.21,29.822834,,,,,,,,,,,SCT,1800,FEW,2000,,,,,VFR,,,,,,,,,,,,METAR,3.0
MHYR 302100Z 09006KT 9999 SCT025TCU BKN080 31/20,MHYR,2023-05-30T21:00:00Z,15.13,-87.13,31.0,20.0,90,6,,6.21,,,,,,,,,,,,SCT,2500,BKN,8000,,,,,VFR,,,,,,,,,,,,METAR,682.0
MHTR 302100Z 00000KT 9999 FEW025 BKN080 31/25,MHTR,2023-05-30T21:00:00Z,15.93,-85.93,31.0,25.0,0,0,,6.21,,,,,,,,,,,,FEW,2500,BKN,8000,,,,,VFR,,,,,,,,,,,,METAR,3.0
MHTE 302100Z 04006KT 8000 SCT024TCU SCT080 33/26 Q1006,MHTE,2023-05-30T21:00:00Z,15.78,-87.48,33.0,26.0,40,6,,4.97,29.704725,,,,,,,,,,,SCT,2400,SCT,8000,,,,,MVFR,,,,,,,,,,,,METAR,7.0
MHSR 302100Z 22005KT 6000 SCT030TCU SCT100 30/15,MHSR,2023-05-30T21:00:00Z,14.78,-88.78,30.0,15.0,220,5,,3.73,,,,,,,,,,,,SCT,3000,SCT,10000,,,,,MVFR,,,,,,,,,,,,METAR,1087.0
MHPL 302100Z 14012KT 9999 SCT025 34/25 Q1008,MHPL,2023-05-30T21:00:00Z,15.27,-83.78,34.0,25.0,140,12,,6.21,29.763779,,,,,,,,,,,SCT,2500,,,,,,,VFR,,,,,,,,,,,,METAR,13.0
MHNO 302100Z 18004KT 9999 FEW040TCU 30/20,MHNO,2023-05-30T21:00:00Z,14.43,-89.18,30.0,20.0,180,4,,6.21,,,,,,,,,,,,FEW,4000,,,,,,,VFR,,,,,,,,,,,,METAR,790.0
MHLE 302100Z 15004KT 9999 SCT022TCU FEW024CB BKN070 22/18,MHLE,2023-05-30T21:00:00Z,14.28,-88.17,22.0,18.0,150,4,,6.21,,,,,,,,,,,,SCT,2200,FEW,2400,BKN,7000,,,VFR,,,,,,,,,,,,METAR,1688.0
MHGS 302100Z 36004KT 9999 SCT044TCU SCT080 29/22,MHGS,2023-05-30T21:00:00Z,14.57,-88.6,29.0,22.0,360,4,,6.21,,,,,,,,,,,,SCT,4400,SCT,8000,,,,,VFR,,,,,,,,,,,,METAR,913.0
MHCH 302100Z 00000KT 9999 SCT030TCU BKN070 33/26,MHCH,2023-05-30T21:00:00Z,13.32,-87.15,33.0,26.0,0,0,,6.21,,,,,,,,,,,,SCT,3000,BKN,7000,,,,,VFR,,,,,,,,,,,,METAR,58.0
MDAB 302100Z 09008KT 9999 BKN020 29/24 Q1011,MDAB,2023-05-30T21:00:00Z,19.2,-69.43,29.0,24.0,90,8,,6.21,29.852362,,,,,,,,,,,BKN,2000,,,,,,,MVFR,,,,,,,,,,,,METAR,28.0
LPMT 302100Z 28006KT 250V310 9999 FEW030 19/13 Q1018,LPMT,2023-05-30T21:00:00Z,38.7,-9.05,19.0,13.0,280,6,,6.21,30.059055,,,,,,,,,,,FEW,3000,,,,,,,VFR,,,,,,,,,,,,METAR,4.0
LPMR 302100Z 25002KT 9999 FEW009 17/15 Q1018,LPMR,2023-05-30T21:00:00Z,39.82,-8.88,17.0,15.0,250,2,,6.21,30.059055,,,,,,,,,,,FEW,900,,,,,,,VFR,,,,,,,,,,,,METAR,50.0
LPLA 302100Z /////KT 9999 -SHRA FEW012 BKN015 FEW018TCU 18/17 Q1015,LPLA,2023-05-30T21:00:00Z,38.77,-27.1,18.0,17.0,,,,6.21,29.970472,,,,,,,,,,-SHRA,FEW,1200,BKN,1500,FEW,1800,,,MVFR,,,,,,,,,,,,METAR,60.0
LPBJ 302100Z 29009KT CAVOK 18/12 Q1018,LPBJ,2023-05-30T21:00:00Z,38.08,-7.93,18.0,12.0,290,9,,6.21,30.059055,,,,,,,,,,,CAVOK,,,,,,,,VFR,,,,,,,,,,,,METAR,196.0
LKLN 302100Z AUTO VRB02KT 9999 // NCD 14/03 Q1023,LKLN,2023-05-30T21:00:00Z,49.68,13.27,14.0,3.0,0,2,,6.21,30.206694,,,TRUE,,,,,,,,CLR,,,,,,,,VFR,,,,,,,,,,,,SPECI,353.0
LKKV 302100Z 08004KT CAVOK 10/01 Q1024,LKKV,2023-05-30T21:00:00Z,50.2,12.92,10.0,1.0,80,4,,6.21,30.236221,,,,,,,,,,,CAVOK,,,,,,,,VFR,,,,,,,,,,,,METAR,600.0
LKKB 302100Z 07004KT CAVOK 15/03 Q1024,LKKB,2023-05-30T21:00:00Z,50.12,14.53,15.0,3.0,70,4,,6.21,30.236221,,,,,,,,,,,CAVOK,,,,,,,,VFR,,,,,,,,,,,,METAR,281.0
LFRO 302100Z AUTO 06010KT 030V110 9999 SCT016 13/10 Q1024,LFRO,2023-05-30T21:00:00Z,48.75,-3.47,13.0,10.0,60,10,,6.21,30.236221,,,TRUE,,,,,,,,SCT,1600,,,,,,,VFR,,,,,,,,,,,,METAR,86.0
LEAO 302100Z 30003KT 280V350 9999 FEW049 17/11 Q1017,LEAO,2023-05-30T21:00:00Z,38.95,-3.73,17.0,11.0,300,3,,6.21,30.029528,,,,,,,,,,,FEW,4900,,,,,,,VFR,,,,,,,,,,,,METAR,621.0
KNEL 302100Z AUTO 07010KT CLR 20/02 A3017 RMK AO2 SLP214 T02000022 58013 $,KNEL,2023-05-30T21:00:00Z,40.03,-74.33,20.0,2.2,70,10,,,30.171259,1021.4,,TRUE,TRUE,TRUE,,,,,,CLR,,,,,,,,,-1.3,,,,,,,,,,,SPECI,26.0
KJAU 302100Z AUTO VRB04KT 10SM CLR 27/14 A3001 RMK A01,KJAU,2023-05-30T21:00:00Z,36.33,-84.17,27.0,14.0,0,4,,10.0,30.008858,,,TRUE,TRUE,,,,,,,CLR,,,,,,,,VFR,,,,,,,,,,,,METAR,350.0
HTZA 302100Z 15010KT 9999 FEW016 27/23 Q1017 NOSIG,HTZA,2023-05-30T21:00:00Z,-6.22,39.22,27.0,23.0,150,10,,6.21,30.029528,,,,,,TRUE,,,,,FEW,1600,,,,,,,VFR,,,,,,,,,,,,METAR,19.0
HTMW 302100Z 14003KT 9999 SCT020 FEW021CB 22/14 Q1020 NOSIG,HTMW,2023-05-30T21:00:00Z,-2.43,32.92,22.0,14.0,140,3,,6.21,30.11811,,,,,,TRUE,,,,,SCT,2000,FEW,2100,,,,,VFR,,,,,,,,,,,,METAR,1144.0
HTKJ 302100Z 00000KT 9999 BKN023 19/17 Q1023 NOSIG,HTKJ,2023-05-30T21:00:00Z,-3.42,37.07,19.0,17.0,0,0,,6.21,30.206694,,,,,,TRUE,,,,,BKN,2300,,,,,,,MVFR,,,,,,,,,,,,METAR,893.0
HTDA 302100Z 24005KT 9999 FEW012 24/23 Q1018 NOSIG,HTDA,2023-05-30T21:00:00Z,-6.88,39.2,24.0,23.0,240,5,,6.21,30.059055,,,,,,TRUE,,,,,FEW,1200,,,,,,,VFR,,,,,,,,,,,,METAR,53.0
HKNW 302100Z 00000KT 9999 BKN019 17/14 Q1026,HKNW,2023-05-30T21:00:00Z,-1.32,36.82,17.0,14.0,0,0,,6.21,30.295275,,,,,,,,,,,BKN,1900,,,,,,,MVFR,,,,,,,,,,,,METAR,1666.0
HKNK 302100Z 00000KT 9999 FEW018 17/13,HKNK,2023-05-30T21:00:00Z,-0.3,36.17,17.0,13.0,0,0,,6.21,,,,,,,,,,,,FEW,1800,,,,,,,VFR,,,,,,,,,,,,METAR,1900.0
HKNI 302100Z 14005KT 9999 SCT018 BKN080 16/15,HKNI,2023-05-30T21:00:00Z,-0.33,36.92,16.0,15.0,140,5,,6.21,,,,,,,,,,,,SCT,1800,BKN,8000,,,,,VFR,,,,,,,,,,,,METAR,1769.0
HKME 302100Z 18005KT 9999 OVC015 17/15,HKME,2023-05-30T21:00:00Z,0.07,37.65,17.0,15.0,180,5,,6.21,,,,,,,,,,,,OVC,1500,,,,,,,MVFR,,,,,,,,,,,,METAR,1609.0
HKLO 302100Z 06003KT SKC 29/16 Q1012,HKLO,2023-05-30T21:00:00Z,3.12,35.62,29.0,16.0,60,3,,,29.88189,,,,,,,,,,,SKC,,,,,,,,,,,,,,,,,,,,METAR,503.0
HKKT 302100Z 00000KT CAVOK 17/16,HKKT,2023-05-30T21:00:00Z,0.97,34.97,17.0,16.0,0,0,,6.21,,,,,,,,,,,,CAVOK,,,,,,,,VFR,,,,,,,,,,,,METAR,1829.0
HKKI 302100Z 05005KT 9999 FEW018CB BKN080 20/18 Q1021,HKKI,2023-05-30T21:00:00Z,-0.1,34.75,20.0,18.0,50,5,,6.21,30.147638,,,,,,,,,,,FEW,1800,BKN,8000,,,,,VFR,,,,,,,,,,,,METAR,1152.0
HKJK 302100Z 16004KT 9999 BKN018 17/15 Q1025 NOSIG,HKJK,2023-05-30T21:00:00Z,-1.32,36.92,17.0,15.0,160,4,,6.21,30.265747,,,,,,TRUE,,,,,BKN,1800,,,,,,,MVFR,,,,,,,,,,,,METAR,1615.0
HKGO 302100Z AUTO 07004KT 14/14 Q1028 A30.36,HKGO,2023-05-30T21:00:00Z,,,14.0,14.0,70,4,,,30.35433,,,TRUE,,,,,,,,,,,,,,,,,,,,,,,,,,,,METAR,
HETR 302100Z 33011KT CAVOK 28/14 Q1012,HETR,2023-05-30T21:00:00Z,28.22,33.65,28.0,14.0,330,11,,6.21,29.88189,,,,,,,,,,,CAVOK,,,,,,,,VFR,,,,,,,,,,,,METAR,35.0
HESW 302100Z 11009KT CAVOK 28/07 Q1011,HESW,2023-05-30T21:00:00Z,29.35,25.5,28.0,7.0,110,9,,6.21,29.852362,,,,,,,,,,,CAVOK,,,,,,,,VFR,,,,,,,,,,,,METAR,101.0
HESN 302100Z 36007KT CAVOK 31/04 Q1013 NOSIG,HESN,2023-05-30T21:00:00Z,23.97,32.82,31.0,4.0,360,7,,6.21,29.911417,,,,,,TRUE,,,,,CAVOK,,,,,,,,VFR,,,,,,,,,,,,METAR,197.0
HESH 302100Z 04004KT CAVOK 28/12 Q1012 NOSIG,HESH,2023-05-30T21:00:00Z,27.97,34.38,28.0,12.0,40,4,,6.21,29.88189,,,,,,TRUE,,,,,CAVOK,,,,,,,,VFR,,,,,,,,,,,,METAR,50.0
HESG 302100Z 31004KT CAVOK 30/04 Q1011 NOSIG,HESG,2023-05-30T21:00:00Z,26.33,31.75,30.0,4.0,310,4,,6.21,29.852362,,,,,,TRUE,,,,,CAVOK,,,,,,,,VFR,,,,,,,,,,,,METAR,70.0
HEPS 302100Z 09006KT CAVOK 23/18 Q1015 NOSIG,HEPS,2023-05-30T21:00:00Z,31.28,32.25,23.0,18.0,90,6,,6.21,29.970472,,,,,,TRUE,,,,,CAVOK,,,,,,,,VFR,,,,,,,,,,,,METAR,2.0
HEMM 302100Z 08015KT CAVOK 21/18 Q1014 NOSIG,HEMM,2023-05-30T21:00:00Z,31.32,27.22,21.0,18.0,80,15,,6.21,29.940945,,,,,,TRUE,,,,,CAVOK,,,,,,,,VFR,,,,,,,,,,,,METAR,26.0
HEMA 302100Z 27006KT CAVOK 27/10 Q1013 NOSIG,HEMA,2023-05-30T21:00:00Z,25.55,34.58,27.0,10.0,270,6,,6.21,29.911417,,,,,,TRUE,,,,,CAVOK,,,,,,,,VFR,,,,,,,,,,,,METAR,77.0
HELX 302100Z 17002KT CAVOK 29/06 Q1012 NOSIG,HELX,2023-05-30T21:00:00Z,25.67,32.7,29.0,6.0,170,2,,6.21,29.88189,,,,,,TRUE,,,,,CAVOK,,,,,,,,VFR,,,,,,,,,,,,METAR,86.0
HEGN 302100Z 27005KT CAVOK 29/03 Q1012 NOSIG,HEGN,2023-05-30T21:00:00Z,27.18,33.8,29.0,3.0,270,5,,6.21,29.88189,,,,,,TRUE,,,,,CAVOK,,,,,,,,VFR,,,,,,,,,,,,METAR,14.0
HEBL 302100Z 00000KT CAVOK 29/04 Q1013 NOSIG,HEBL,2023-05-30T21:00:00Z,22.38,31.62,29.0,4.0,0,0,,6.21,29.911417,,,,,,TRUE,,,,,CAVOK,,,,,,,,VFR,,,,,,,,,,,,METAR,184.0
HEBA 302100Z 06008KT CAVOK 21/17 Q1014 NOSIG,HEBA,2023-05-30T21:00:00Z,30.92,29.7,21.0,17.0,60,8,,6.21,29.940945,,,,,,TRUE,,,,,CAVOK,,,,,,,,VFR,,,,,,,,,,,,METAR,41.0
HEAT 302100Z 32005KT CAVOK 28/03 Q1015 NOSIG,HEAT,2023-05-30T21:00:00Z,27.05,31.02,28.0,3.0,320,5,,6.21,29.970472,,,,,,TRUE,,,,,CAVOK,,,,,,,,VFR,,,,,,,,,,,,METAR,229.0
HDAM 302100Z 200/06KT CAVOK 32/26 Q1010,HDAM,2023-05-30T21:00:00Z,11.55,43.17,32.0,26.0,,,,6.21,29.822834,,,,,,,,,,,CAVOK,,,,,,,,VFR,,,,,,,,,,,,METAR,6.0
HAAB 302100Z 36008KT 9999 SCT025 17/11 Q1029,HAAB,2023-05-30T21:00:00Z,8.97,38.78,17.0,11.0,360,8,,6.21,30.383858,,,,,,,,,,,SCT,2500,,,,,,,VFR,,,,,,,,,,,,METAR,2319.0
GUCY 302100Z 30008KT 9999 FEW015 BKN110 29/26 Q1012 NOSIG,GUCY,2023-05-30T21:00:00Z,9.57,-13.62,29.0,26.0,300,8,,6.21,29.88189,,,,,,TRUE,,,,,FEW,1500,BKN,11000,,,,,VFR,,,,,,,,,,,,METAR,10.0
GOTT 302100Z 24004KT CAVOK 38/20 Q1008,GOTT,2023-05-30T21:00:00Z,13.73,-13.65,38.0,20.0,240,4,,6.21,29.763779,,,,,,,,,,,CAVOK,,,,,,,,VFR,,,,,,,,,,,,METAR,53.0
GOSS 302100Z 36012KT 320V110 CAVOK 28/18 Q1010,GOSS,2023-05-30T21:00:00Z,16.05,-16.45,28.0,18.0,360,12,,6.21,29.822834,,,,,,,,,,,CAVOK,,,,,,,,VFR,,,,,,,,,,,,METAR,3.0
GOSP 302100Z 04002KT CAVOK 39/19 Q1009,GOSP,2023-05-30T21:00:00Z,16.68,-14.97,39.0,19.0,40,2,,6.21,29.793306,,,,,,,,,,,CAVOK,,,,,,,,VFR,,,,,,,,,,,,METAR,10.0
GOSM 302100Z 00000KT CAVOK 38/17 Q1008,GOSM,2023-05-30T21:00:00Z,15.6,-13.33,38.0,17.0,0,0,,6.21,29.763779,,,,,,,,,,,CAVOK,,,,,,,,VFR,,,,,,,,,,,,METAR,28.0
GOOY 302100Z 34002KT CAVOK 27/21 Q1011,GOOY,2023-05-30T21:00:00Z,14.73,-17.5,27.0,21.0,340,2,,6.21,29.852362,,,,,,,,,,,CAVOK,,,,,,,,VFR,,,,,,,,,,,,METAR,21.0
GOOK 302100Z 28012KT CAVOK 31/25 Q1012,GOOK,2023-05-30T21:00:00Z,14.15,-16.07,31.0,25.0,280,12,,6.21,29.88189,,,,,,,,,,,CAVOK,,,,,,,,VFR,,,,,,,,,,,,METAR,8.0
GOOD 302100Z 26010KT CAVOK 37/20 Q1011,GOOD,2023-05-30T21:00:00Z,14.65,-16.22,37.0,20.0,260,10,,6.21,29.852362,,,,,,,,,,,CAVOK,,,,,,,,VFR,,,,,,,,,,,,METAR,9.0
GOGS 302100Z 24004KT 9999 BKN013 29/27 Q1013,GOGS,2023-05-30T21:00:00Z,12.4,-16.75,29.0,27.0,240,4,,6.21,29.911417,,,,,,,,,,,BKN,1300,,,,,,,MVFR,,,,,,,,,,,,METAR,13.0
GOGK 302100Z 22010KT CAVOK 34/23 Q1010,GOGK,2023-05-30T21:00:00Z,12.9,-14.97,34.0,23.0,220,10,,6.21,29.822834,,,,,,,,,,,CAVOK,,,,,,,,VFR,,,,,,,,,,,,METAR,37.0
GOGG 302100Z 22006KT CAVOK 30/26 Q1013,GOGG,2023-05-30T21:00:00Z,12.55,-16.27,30.0,26.0,220,6,,6.21,29.911417,,,,,,,,,,,CAVOK,,,,,,,,VFR,,,,,,,,,,,,METAR,24.0
GMTN 302100Z 25008KT 200V280 CAVOK 20/15 Q1018 NOSIG,GMTN,2023-05-30T21:00:00Z,35.58,-5.32,20.0,15.0,250,8,,6.21,30.059055,,,,,,TRUE,,,,,CAVOK,,,,,,,,VFR,,,,,,,,,,,,METAR,10.0
GMTA 302100Z VRB02KT 9999 FEW024 22/13 Q1017 NOSIG,GMTA,2023-05-30T21:00:00Z,35.17,-3.85,22.0,13.0,0,2,,6.21,30.029528,,,,,,TRUE,,,,,FEW,2400,,,,,,,VFR,,,,,,,,,,,,METAR,14.0
GMMZ 302100Z 28011KT 9999 FEW040 22/02 Q1016 NOSIG,GMMZ,2023-05-30T21:00:00Z,30.93,-6.9,22.0,2.0,280,11,,6.21,30.0,,,,,,TRUE,,,,,FEW,4000,,,,,,,VFR,,,,,,,,,,,,METAR,1139.0
GMMW 302100Z 32008KT CAVOK 21/10 Q1017 NOSIG,GMMW,2023-05-30T21:00:00Z,34.98,-3.02,21.0,10.0,320,8,,6.21,30.029528,,,,,,TRUE,,,,,CAVOK,,,,,,,,VFR,,,,,,,,,,,,METAR,174.0
GMML 302100Z 01011KT CAVOK 21/20 Q1018 NOSIG,GMML,2023-05-30T21:00:00Z,27.13,-13.23,21.0,20.0,10,11,,6.21,30.059055,,,,,,TRUE,,,,,CAVOK,,,,,,,,VFR,,,,,,,,,,,,METAR,63.0
GMMI 302100Z AUTO 02008KT 8000 FEW020 20/// Q1018 NOSIG,GMMI,2023-05-30T21:00:00Z,31.4,-9.68,,,20,8,,4.97,30.059055,,,TRUE,,,TRUE,,,,,FEW,2000,,,,,,,MVFR,,,,,,,,,,,,METAR,102.0
GMMH 302100Z 03017KT 8000 NSC 20/17 Q1017 NOSIG,GMMH,2023-05-30T21:00:00Z,23.72,-15.93,20.0,17.0,30,17,,4.97,30.029528,,,,,,TRUE,,,,,CLR,,,,,,,,MVFR,,,,,,,,,,,,METAR,11.0
GMMB 302100Z AUTO 03005KT 9999 NSC 18/18 Q1018 NOSIG,GMMB,2023-05-30T21:00:00Z,33.65,-7.22,18.0,18.0,30,5,,6.21,30.059055,,,TRUE,,,TRUE,,,,,CLR,,,,,,,,VFR,,,,,,,,,,,,METAR,191.0
GMFM 302100Z 32008KT 300V360 9999 FEW020 18/12 Q1019 NOSIG,GMFM,2023-05-30T21:00:00Z,33.87,-5.52,18.0,12.0,320,8,,6.21,30.088583,,,,,,TRUE,,,,,FEW,2000,,,,,,,VFR,,,,,,,,,,,,METAR,569.0
GMFK 302100Z 36012KT 9999 FEW030 SCT080 22/05 Q1019 NOSIG,GMFK,2023-05-30T21:00:00Z,31.95,-4.4,22.0,5.0,360,12,,6.21,30.088583,,,,,,TRUE,,,,,FEW,3000,SCT,8000,,,,,VFR,,,,,,,,,,,,METAR,1033.0
GMAG 302100Z AUTO 33012KT CAVOK 19/14 Q1017,GMAG,2023-05-30T21:00:00Z,29.03,-10.05,19.0,14.0,330,12,,6.21,30.029528,,,TRUE,,,,,,,,CAVOK,,,,,,,,VFR,,,,,,,,,,,,METAR,333.0
GGOV 302100Z 25007KT 210V300 8000 NSC 30/25 Q1012 NOSIG,GGOV,2023-05-30T21:00:00Z,11.88,-15.65,30.0,25.0,250,7,,4.97,29.88189,,,,,,TRUE,,,,,CLR,,,,,,,,MVFR,,,,,,,,,,,,METAR,31.0
GFLL 302100Z 18012KT 9999 TS BKN010 FEW026CB 25/23 Q1011 RMK CB NE,GFLL,2023-05-30T21:00:00Z,8.62,-13.18,25.0,23.0,180,12,,6.21,29.852362,,,,,,,,,,TS,BKN,1000,FEW,2600,,,,,MVFR,,,,,,,,,,,,METAR,28.0
GANR 302100Z 14004KT CAVOK 38/20 Q1011,GANR,2023-05-30T21:00:00Z,15.23,-9.58,38.0,20.0,140,4,,6.21,29.852362,,,,,,,,,,,CAVOK,,,,,,,,VFR,,,,,,,,,,,,METAR,237.0
GAMB 302100Z 04008KT CAVOK 38/09 Q1010,GAMB,2023-05-30T21:00:00Z,14.52,-4.08,38.0,9.0,40,8,,6.21,29.822834,,,,,,,,,,,CAVOK,,,,,,,,VFR,,,,,,,,,,,,METAR,271.0
GAKD 302100Z 08007KT CAVOK 41/14 Q1009,GAKD,2023-05-30T21:00:00Z,14.48,-11.4,41.0,14.0,80,7,,6.21,29.793306,,,,,,,,,,,CAVOK,,,,,,,,VFR,,,,,,,,,,,,METAR,53.0
FYWW 302100Z AUTO 11007KT //// // ////// 10/M05 Q1025,FYWW,2023-05-30T21:00:00Z,-22.57,17.1,10.0,-5.0,110,7,,,30.265747,,,TRUE,,,,,,,,,,,,,,,,,,,,,,,,,,,,SPECI,1672.0
FYWB 302100Z AUTO 24001KT //// // ////// 12/08 Q1019,FYWB,2023-05-30T21:00:00Z,-22.98,14.65,12.0,8.0,240,1,,,30.088583,,,TRUE,,,,,,,,,,,,,,,,,,,,,,,,,,,,METAR,87.0
FYOA 302100Z AUTO 02002KT //// // ////// 16/01 Q1018,FYOA,2023-05-30T21:00:00Z,-17.88,15.97,16.0,1.0,20,2,,,30.059055,,,TRUE,,,,,,,,,,,,,,,,,,,,,,,,,,,,SPECI,1099.0
FYLZ 302100Z AUTO 17011G23KT //// // ////// 14/12 Q1023,FYLZ,2023-05-30T21:00:00Z,-26.68,15.25,14.0,12.0,170,11,23,,30.206694,,,TRUE,,,,,,,,,,,,,,,,,,,,,,,,,,,,METAR,129.0
FYKT 302100Z AUTO 23009KT //// // ////// 10/06 Q1024,FYKT,2023-05-30T21:00:00Z,-26.53,18.12,10.0,6.0,230,9,,,30.236221,,,TRUE,,,,,,,,,,,,,,,,,,,,,,,,,,,,METAR,1064.0
FYKM 302100Z AUTO 02003KT //// // ////// 22/12 Q1019,FYKM,2023-05-30T21:00:00Z,-17.63,24.18,22.0,12.0,20,3,,,30.088583,,,TRUE,,,,,,,,,,,,,,,,,,,,,,,,,,,,METAR,959.0
FYGF 302100Z AUTO 29003KT //// // ////// 13/M01 Q1024,FYGF,2023-05-30T21:00:00Z,-19.6,18.12,13.0,-1.0,290,3,,,30.236221,,,TRUE,,,,,,,,,,,,,,,,,,,,,,,,,,,,METAR,1407.0
FTTJ 302100Z 20006KT 8000 NSC 34/19 Q1010 NOSIG,FTTJ,2023-05-30T21:00:00Z,12.13,15.03,34.0,19.0,200,6,,4.97,29.822834,,,,,,TRUE,,,,,CLR,,,,,,,,MVFR,,,,,,,,,,,,METAR,295.0
FTTA 302100Z 00000KT 9999 TS FEW050CB 26/23 Q1013,FTTA,2023-05-30T21:00:00Z,9.15,18.37,26.0,23.0,0,0,,6.21,29.911417,,,,,,,,,,TS,FEW,5000,,,,,,,VFR,,,,,,,,,,,,METAR,361.0
FSIA 302100Z 16003KT 110V220 9999 FEW021 27/24 Q1013 NOSIG,FSIA,2023-05-30T21:00:00Z,-4.67,55.52,27.0,24.0,160,3,,6.21,29.911417,,,,,,TRUE,,,,,FEW,2100,,,,,,,VFR,,,,,,,,,,,,METAR,3.0
FQTT 302100Z 00000KT CAVOK 17/14 Q1020,FQTT,2023-05-30T21:00:00Z,-16.1,33.63,17.0,14.0,0,0,,6.21,30.11811,,,,,,,,,,,CAVOK,,,,,,,,VFR,,,,,,,,,,,,METAR,146.0
FQQL 302100Z 11003KT CAVOK 23/20 Q1020,FQQL,2023-05-30T21:00:00Z,-17.87,36.87,23.0,20.0,110,3,,6.21,30.11811,,,,,,,,,,,CAVOK,,,,,,,,VFR,,,,,,,,,,,,METAR,5.0
FQNP 302100Z 19006KT CAVOK 20/18 Q1021,FQNP,2023-05-30T21:00:00Z,-15.1,39.27,20.0,18.0,190,6,,6.21,30.147638,,,,,,,,,,,CAVOK,,,,,,,,VFR,,,,,,,,,,,,METAR,434.0
FQMA 302100Z 06007KT 9999 SCT020 23/20 Q1019 NOSIG,FQMA,2023-05-30T21:00:00Z,-25.92,32.57,23.0,20.0,60,7,,6.21,30.088583,,,,,,TRUE,,,,,SCT,2000,,,,,,,VFR,,,,,,,,,,,,METAR,34.0
FQLC 302100Z 12003KT 9999 FEW030 16/12 Q1026,FQLC,2023-05-30T21:00:00Z,-13.27,35.25,16.0,12.0,120,3,,6.21,30.295275,,,,,,,,,,,FEW,3000,,,,,,,VFR,,,,,,,,,,,,METAR,1362.0
FQCH 302100Z /////KT 9999 FEW010 18/17 Q1024,FQCH,2023-05-30T21:00:00Z,-19.15,33.43,18.0,17.0,,,,6.21,30.236221,,,,,,,,,,,FEW,1000,,,,,,,VFR,,,,,,,,,,,,SPECI,695.0
FOOL 302100Z 24009KT 210V280 9999 SCT014 28/24 Q1013 NOSIG,FOOL,2023-05-30T21:00:00Z,0.45,9.42,28.0,24.0,240,9,,6.21,29.911417,,,,,,TRUE,,,,,SCT,1400,,,,,,,VFR,,,,,,,,,,,,METAR,9.0
FOOG 302100Z 20009KT 9999 SCT010 26/24 Q1014,FOOG,2023-05-30T21:00:00Z,-0.7,8.75,26.0,24.0,200,9,,6.21,29.940945,,,,,,,,,,,SCT,1000,,,,,,,VFR,,,,,,,,,,,,METAR,4.0
FNUE 302100Z AUTO 19004KT 9999 FEW001 20/14 Q1024,FNUE,2023-05-30T21:00:00Z,-11.77,19.9,20.0,14.0,190,4,,6.21,30.236221,,,TRUE,,,,,,,,FEW,100,,,,,,,VFR,,,,,,,,,,,,METAR,1354.0
FNLU 302100Z 18008KT 150V210 9999 FEW022 23/20 Q1013,FNLU,2023-05-30T21:00:00Z,-8.85,13.22,23.0,20.0,180,8,,6.21,29.911417,,,,,,,,,,,FEW,2200,,,,,,,VFR,,,,,,,,,,,,METAR,75.0
FNHU 302100Z AUTO 12003KT 9999 // FEW065 17/12 Q1025,FNHU,2023-05-30T21:00:00Z,-12.82,15.77,17.0,12.0,120,3,,6.21,30.265747,,,TRUE,,,,,,,,FEW,6500,,,,,,,VFR,,,,,,,,,,,,METAR,1697.0
FNGI 302100Z AUTO 16001KT 9999 // ////// 18/04 Q1021,FNGI,2023-05-30T21:00:00Z,-17.05,15.68,18.0,4.0,160,1,,6.21,30.147638,,,TRUE,,,,,,,,,,,,,,,,,,,,,,,,,,,,METAR,1116.0
FNCA 302100Z AUTO 18007KT 150V210 9999 OVC045 25/23 Q1014,FNCA,2023-05-30T21:00:00Z,-5.58,12.18,25.0,23.0,180,7,,6.21,29.940945,,,TRUE,,,,,,,,OVC,4500,,,,,,,VFR,,,,,,,,,,,,METAR,14.0
FMSD 302100Z 08004KT 9999 SCT033 21/19 Q1021,FMSD,2023-05-30T21:00:00Z,-25.03,46.95,21.0,19.0,80,4,,6.21,30.147638,,,,,,,,,,,SCT,3300,,,,,,,VFR,,,,,,,,,,,,METAR,7.0
FMNM 302100Z 13005KT 9999 BKN020 26/18 Q1017,FMNM,2023-05-30T21:00:00Z,-15.67,46.35,26.0,18.0,130,5,,6.21,30.029528,,,,,,,,,,,BKN,2000,,,,,,,MVFR,,,,,,,,,,,,METAR,18.0
FIMP 302100Z 13007KT 9999 SCT017 24/19 Q1020,FIMP,2023-05-30T21:00:00Z,-20.43,57.68,24.0,19.0,130,7,,6.21,30.11811,,,,,,,,,,,SCT,1700,,,,,,,VFR,,,,,,,,,,,,METAR,57.0
FGSL 302100Z 00000KT 9999 FEW010 25/24 Q1014 NOSIG,FGSL,2023-05-30T21:00:00Z,3.75,8.72,25.0,24.0,0,0,,6.21,29.940945,,,,,,TRUE,,,,,FEW,1000,,,,,,,VFR,,,,,,,,,,,,METAR,23.0
FBSK 302100Z 09007KT 9999 -TSRA FEW035CB BKN060 15/15 Q1020 NOSIG,FBSK,2023-05-30T21:00:00Z,-24.55,25.92,15.0,15.0,90,7,,6.21,30.11811,,,,,,TRUE,,,,-TSRA,FEW,3500,BKN,6000,,,,,VFR,,,,,,,,,,,,METAR,1007.0
FAWB 302100Z AUTO 10006KT //// // ////// 14/10 Q1022,FAWB,2023-05-30T21:00:00Z,-25.65,28.22,14.0,10.0,100,6,,,30.177166,,,TRUE,,,,,,,,,,,,,,,,,,,,,,,,,,,,METAR,1245.0
FAUP 302100Z AUTO 32003KT //// // ////// 13/09 Q1022,FAUP,2023-05-30T21:00:00Z,-28.38,21.27,13.0,9.0,320,3,,,30.177166,,,TRUE,,,,,,,,,,,,,,,,,,,,,,,,,,,,METAR,845.0
FAPP 302100Z AUTO 09004KT //// // ////// 12/10 Q1025,FAPP,2023-05-30T21:00:00Z,-23.83,29.45,12.0,10.0,90,4,,,30.265747,,,TRUE,,,,,,,,,,,,,,,,,,,,,,,,,,,,METAR,1238.0
FAPN 302100Z AUTO 26002KT //// // ////// 14/13 Q1022,FAPN,2023-05-30T21:00:00Z,-25.33,27.17,14.0,13.0,260,2,,,30.177166,,,TRUE,,,,,,,,,,,,,,,,,,,,,,,,,,,,METAR,1045.0
FAOR 302100Z 02008KT 9999 -RA BKN047 12/08 Q1024 NOSIG,FAOR,2023-05-30T21:00:00Z,-26.13,28.23,12.0,8.0,20,8,,6.21,30.236221,,,,,,TRUE,,,,-RA,BKN,4700,,,,,,,VFR,,,,,,,,,,,,METAR,1684.0
FAMM 302100Z AUTO 29003KT //// // ////// 13/10 Q1022,FAMM,2023-05-30T21:00:00Z,-25.8,25.53,13.0,10.0,290,3,,,30.177166,,,TRUE,,,,,,,,,,,,,,,,,,,,,,,,,,,,METAR,1280.0
FALW 302100Z AUTO 07002KT //// // ////// 13/12 Q1020,FALW,2023-05-30T21:00:00Z,-32.97,18.17,13.0,12.0,70,2,,,30.11811,,,TRUE,,,,,,,,,,,,,,,,,,,,,,,,,,,,METAR,31.0
FALE 302100Z 04005KT 9999 SCT047 19/16 Q1016 NOSIG,FALE,2023-05-30T21:00:00Z,-29.62,31.12,19.0,16.0,40,5,,6.21,30.0,,,,,,TRUE,,,,,SCT,4700,,,,,,,VFR,,,,,,,,,,,,METAR,109.0
FALA 302100Z AUTO 09004KT //// // ////// 13/11 Q1024,FALA,2023-05-30T21:00:00Z,-25.93,27.92,13.0,11.0,90,4,,,30.236221,,,TRUE,,,,,,,,,,,,,,,,,,,,,,,,,,,,METAR,1365.0
FAKN 302100Z AUTO 03003KT //// // ////// 16/12 Q1023,FAKN,2023-05-30T21:00:00Z,-25.38,31.1,16.0,12.0,30,3,,,30.206694,,,TRUE,,,,,,,,,,,,,,,,,,,,,,,,,,,,METAR,864.0
FAKM 302100Z AUTO 25003KT //// // ////// 06/06 Q1021,FAKM,2023-05-30T21:00:00Z,-28.8,24.77,6.0,6.0,250,3,,,30.147638,,,TRUE,,,,,,,,,,,,,,,,,,,,,,,,,,,,METAR,1203.0
FAHS 302100Z AUTO 15002KT //// // ////// 20/16 Q1021,FAHS,2023-05-30T21:00:00Z,-24.37,31.03,20.0,16.0,150,2,,,30.147638,,,TRUE,,,,,,,,,,,,,,,,,,,,,,,,,,,,METAR,532.0
FAGG 302100Z AUTO 31005KT 9999 // FEW060/// SCT077/// 12/09 Q1018,FAGG,2023-05-30T21:00:00Z,-34.0,22.37,12.0,9.0,310,5,,6.21,30.059055,,,TRUE,,,,,,,,FEW,6000,SCT,7700,,,,,VFR,,,,,,,,,,,,METAR,196.0
FACT 302100Z 31004KT 7000 -RA SCT004 OVC020 13/13 Q1021 TEMPO 4000 DZ BKN004,FACT,2023-05-30T21:00:00Z,-33.97,18.6,13.0,13.0,310,4,,4.35,30.147638,,,,,,,,,,-RA,SCT,400,OVC,2000,,,,,MVFR,,,,,,,,,,,,METAR,48.0
FABL 302100Z AUTO 22010KT //// R02///// // ///////// 09/08 Q1021,FABL,2023-05-30T21:00:00Z,-29.1,26.3,9.0,8.0,220,10,,,30.147638,,,TRUE,,,,,,,,,,,,,,,,,,,,,,,,,,,,METAR,1348.0
EIME 302100Z 08005KT CAVOK 13/09 Q1030,EIME,2023-05-30T21:00:00Z,53.3,-6.45,13.0,9.0,80,5,,6.21,30.413385,,,,,,,,,,,CAVOK,,,,,,,,VFR,,,,,,,,,,,,METAR,90.0
DXXX 302100Z 22006KT 9999 FEW012 28/24 Q1013 NOSIG,DXXX,2023-05-30T21:00:00Z,6.17,1.25,28.0,24.0,220,6,,6.21,29.911417,,,,,,TRUE,,,,,FEW,1200,,,,,,,VFR,,,,,,,,,,,,METAR,22.0
DXSK 302100Z 00000KT 9999 FEW013 FEW016CB BKN260 29/24 Q////,DXSK,2023-05-30T21:00:00Z,9.0,1.15,29.0,24.0,0,0,,6.21,,,,,,,,,,,,FEW,1300,FEW,1600,BKN,26000,,,VFR,,,,,,,,,,,,METAR,381.0
DXNG 302100Z 18002KT 9999 TS SCT006 FEW016CB 26/23 Q1016,DXNG,2023-05-30T21:00:00Z,9.77,1.1,26.0,23.0,180,2,,6.21,30.0,,,,,,,,,,TS,SCT,600,FEW,1600,,,,,VFR,,,,,,,,,,,,METAR,343.0
DTTZ 302100Z 09014KT 9999 SCT030 24/13 Q1012,DTTZ,2023-05-30T21:00:00Z,33.93,8.1,24.0,13.0,90,14,,6.21,29.88189,,,,,,,,,,,SCT,3000,,,,,,,VFR,,,,,,,,,,,,METAR,87.0
DTTX 302100Z 01006KT 9999 FEW020 SCT030 21/16 Q1013,DTTX,2023-05-30T21:00:00Z,34.72,10.68,21.0,16.0,10,6,,6.21,29.911417,,,,,,,,,,,FEW,2000,SCT,3000,,,,,VFR,,,,,,,,,,,,METAR,17.0
DTTR 302100Z AUTO 05018KT NCD 24/13 Q1012,DTTR,2023-05-30T21:00:00Z,31.7,9.27,24.0,13.0,50,18,,,29.88189,,,TRUE,,,,,,,,CLR,,,,,,,,,,,,,,,,,,,,METAR,253.0
DTTN 302100Z ///04KT 8000 SCT020 19/15 Q1014,DTTN,2023-05-30T21:00:00Z,36.47,8.8,19.0,15.0,,,,4.97,29.940945,,,,,,,,,,,SCT,2000,,,,,,,MVFR,,,,,,,,,,,,METAR,145.0
DTTL 302100Z VRB02KT 9999 SCT020 19/17 Q1014,DTTL,2023-05-30T21:00:00Z,36.85,11.07,19.0,17.0,0,2,,6.21,29.940945,,,,,,,,,,,SCT,2000,,,,,,,VFR,,,,,,,,,,,,METAR,18.0
DTTK 302100Z VRB02KT 6000 SCT023 SCT030 18/16 Q1014,DTTK,2023-05-30T21:00:00Z,35.67,10.08,18.0,16.0,0,2,,3.73,29.940945,,,,,,,,,,,SCT,2300,SCT,3000,,,,,MVFR,,,,,,,,,,,,METAR,65.0
DTTG 302100Z 07008KT 8000 FEW020 SCT030 20/16 Q1013 NOSIG,DTTG,2023-05-30T21:00:00Z,33.73,9.92,20.0,16.0,70,8,,4.97,29.911417,,,,,,TRUE,,,,,FEW,2000,SCT,3000,,,,,MVFR,,,,,,,,,,,,METAR,120.0
DTTF 302100Z 04006KT 010V080 8000 BKN023 19/15 Q1014 NOSIG,DTTF,2023-05-30T21:00:00Z,34.42,8.82,19.0,15.0,40,6,,4.97,29.940945,,,,,,TRUE,,,,,BKN,2300,,,,,,,MVFR,,,,,,,,,,,,METAR,314.0
DTTD 302100Z AUTO 06007KT 030V100 NCD 20/12 Q1013,DTTD,2023-05-30T21:00:00Z,32.32,10.4,20.0,12.0,60,7,,,29.911417,,,TRUE,,,,,,,,CLR,,,,,,,,,,,,,,,,,,,,METAR,306.0
DTTB 302100Z 27005KT 9999 SCT020 19/16 Q1014,DTTB,2023-05-30T21:00:00Z,37.25,9.8,19.0,16.0,270,5,,6.21,29.940945,,,,,,,,,,,SCT,2000,,,,,,,VFR,,,,,,,,,,,,METAR,4.0
DTKA 302100Z VRB02KT 9999 SCT020 17/15 Q1015 NOSIG,DTKA,2023-05-30T21:00:00Z,36.98,8.88,17.0,15.0,0,2,,6.21,29.970472,,,,,,TRUE,,,,,SCT,2000,,,,,,,VFR,,,,,,,,,,,,METAR,70.0
DRRN 302100Z 04025KT 3400 TSRA SCT040CB 30/20 Q1012 TEMPO 1300 +TSRA,DRRN,2023-05-30T21:00:00Z,13.47,2.17,30.0,20.0,40,25,,2.11,29.88189,,,,,,,,,,TSRA,SCT,4000,,,,,,,IFR,,,,,,,,,,,,SPECI,223.0
DNMM 302100Z 20004KT 9999 FEW012 28/25 Q1014 NOSIG,DNMM,2023-05-30T21:00:00Z,6.57,3.32,28.0,25.0,200,4,,6.21,29.940945,,,,,,TRUE,,,,,FEW,1200,,,,,,,VFR,,,,,,,,,,,,METAR,27.0
DNKN 302100Z 20005KT 9999 TS FEW013 FEW020CB 34/20 Q1014 N0SIG,DNKN,2023-05-30T21:00:00Z,12.05,8.52,34.0,20.0,200,5,,6.21,29.940945,,,,,,,,,,TS,FEW,1300,FEW,2000,,,,,VFR,,,,,,,,,,,,SPECI,471.0
DNKA 302100Z 24005KT 9999 SCT010 27/21 Q1016 TEMPO TSRA,DNKA,2023-05-30T21:00:00Z,10.58,7.45,27.0,21.0,240,5,,6.21,30.0,,,,,,,,,,,SCT,1000,,,,,,,VFR,,,,,,,,,,,,SPECI,631.0
DNIB 302100Z 18003KT 9999 FEW010 27/25 Q1015,DNIB,2023-05-30T21:00:00Z,7.37,3.98,27.0,25.0,180,3,,6.21,29.970472,,,,,,,,,,,FEW,1000,,,,,,,VFR,,,,,,,,,,,,METAR,220.0
DNEN 302100Z 00000KT 9999 FEW011 30/25 Q1013 NOSIG,DNEN,2023-05-30T21:00:00Z,6.47,7.55,30.0,25.0,0,0,,6.21,29.911417,,,,,,TRUE,,,,,FEW,1100,,,,,,,VFR,,,,,,,,,,,,METAR,142.0
DNAA 302100Z 28005KT CAVOK 28/24 Q1014 NOSIG,DNAA,2023-05-30T21:00:00Z,9.0,7.27,28.0,24.0,280,5,,6.21,29.940945,,,,,,TRUE,,,,,CAVOK,,,,,,,,VFR,,,,,,,,,,,,METAR,338.0
DIYO 302100Z 22004KT 9999 FEW011 25/24 Q1014 NOSIG,DIYO,2023-05-30T21:00:00Z,6.9,-5.35,25.0,24.0,220,4,,6.21,29.940945,,,,,,TRUE,,,,,FEW,1100,,,,,,,VFR,,,,,,,,,,,,METAR,202.0
DIBK 302100Z 16008KT 8000 FEW013 27/24 Q1014 NOSIG,DIBK,2023-05-30T21:00:00Z,7.73,-5.07,27.0,24.0,160,8,,4.97,29.940945,,,,,,TRUE,,,,,FEW,1300,,,,,,,MVFR,,,,,,,,,,,,METAR,363.0
DGAA 302100Z 19006KT 9999 FEW018 28/25 Q1013 NOSIG,DGAA,2023-05-30T21:00:00Z,5.58,-0.17,28.0,25.0,190,6,,6.21,29.911417,,,,,,TRUE,,,,,FEW,1800,,,,,,,VFR,,,,,,,,,,,,METAR,68.0
DFOO 302100Z 18008KT 9999 TS FEW020 FEW033CB 32/23 Q1014,DFOO,2023-05-30T21:00:00Z,11.17,-4.32,32.0,23.0,180,8,,6.21,29.940945,,,,,,,,,,TS,FEW,2000,FEW,3300,,,,,VFR,,,,,,,,,,,,METAR,461.0
DFFD 302100Z 19011KT 9999 TS SCT026 FEW040CB 35/20 Q1011 TEMPO 06025G45KT 2500 BLSA SQ TSRA,DFFD,2023-05-30T21:00:00Z,12.35,-1.52,35.0,20.0,190,11,,6.21,29.852362,,,,,,,,,,TS,SCT,2600,FEW,4000,,,,,VFR,,,,,,,,,,,,METAR,309.0
DBBB 302100Z 24005KT 9999 SCT012 28/25 Q1013 NOSIG,DBBB,2023-05-30T21:00:00Z,6.35,2.38,28.0,25.0,240,5,,6.21,29.911417,,,,,,TRUE,,,,,SCT,1200,,,,,,,VFR,,,,,,,,,,,,METAR,4.0
DAUZ 302100Z 02013KT 4000 HZ NSC 28/05 Q1009,DAUZ,2023-05-30T21:00:00Z,28.05,9.63,28.0,5.0,20,13,,2.49,29.793306,,,,,,,,,,HZ,CLR,,,,,,,,IFR,,,,,,,,,,,,METAR,567.0
DAUU 302100Z 36016KT 3000 DRSA FEW033TCU SCT040 24/10 Q1011,DAUU,2023-05-30T21:00:00Z,31.92,5.4,24.0,10.0,360,16,,1.86,29.852362,,,,,,,,,,DRSA,FEW,3300,SCT,4000,,,,,IFR,,,,,,,,,,,,METAR,147.0
DAUO 302100Z 33006KT 8000 FEW040 25/11 Q1012,DAUO,2023-05-30T21:00:00Z,33.5,6.78,25.0,11.0,330,6,,4.97,29.88189,,,,,,,,,,,FEW,4000,,,,,,,MVFR,,,,,,,,,,,,METAR,55.0
DAUL 302100Z 27008KT 8000 BKN033 16/12 Q1016,DAUL,2023-05-30T21:00:00Z,33.77,2.92,16.0,12.0,270,8,,4.97,30.0,,,,,,,,,,,BKN,3300,,,,,,,MVFR,,,,,,,,,,,,METAR,755.0
DAUK 302100Z 34007KT 9999 SCT040 24/09 Q1012,DAUK,2023-05-30T21:00:00Z,33.08,6.08,24.0,9.0,340,7,,6.21,29.88189,,,,,,,,,,,SCT,4000,,,,,,,VFR,,,,,,,,,,,,METAR,83.0
DAUI 302100Z 31011KT 280V340 CAVOK 30/M01 Q1008,DAUI,2023-05-30T21:00:00Z,27.25,2.52,30.0,-1.0,310,11,,6.21,29.763779,,,,,,,,,,,CAVOK,,,,,,,,VFR,,,,,,,,,,,,METAR,271.0
DAUH 302100Z 33024KT 1000 BLSA FEW033CB SCT040 26/09 Q1011,DAUH,2023-05-30T21:00:00Z,31.67,6.15,26.0,9.0,330,24,,0.62,29.852362,,,,,,,,,,BLSA,FEW,3300,SCT,4000,,,,,LIFR,,,,,,,,,,,,METAR,141.0
DAUG 302100Z 36016KT 9999 SCT040 SCT100 19/10 Q1015,DAUG,2023-05-30T21:00:00Z,32.38,3.78,19.0,10.0,360,16,,6.21,29.970472,,,,,,,,,,,SCT,4000,SCT,10000,,,,,VFR,,,,,,,,,,,,METAR,444.0
DAUE 302100Z 01016KT 2000 DRSA SCT040 22/09 Q1015,DAUE,2023-05-30T21:00:00Z,30.57,2.87,22.0,9.0,10,16,,1.24,29.970472,,,,,,,,,,DRSA,SCT,4000,,,,,,,IFR,,,,,,,,,,,,METAR,396.0
DAUB 302100Z 28008KT 240V300 9999 SCT033 BKN100 26/09 Q1012,DAUB,2023-05-30T21:00:00Z,34.78,5.73,26.0,9.0,280,8,,6.21,29.88189,,,,,,,,,,,SCT,3300,BKN,10000,,,,,VFR,,,,,,,,,,,,METAR,75.0
DAUA 302100Z 01007KT 7000 NSC 29/02 Q1010,DAUA,2023-05-30T21:00:00Z,27.83,-0.18,29.0,2.0,10,7,,4.35,29.822834,,,,,,,,,,,CLR,,,,,,,,MVFR,,,,,,,,,,,,METAR,278.0
DAOY 302100Z 03012KT 9999 SCT030 SCT100 11/07 Q1019,DAOY,2023-05-30T21:00:00Z,33.72,1.08,11.0,7.0,30,12,,6.21,30.088583,,,,,,,,,,,SCT,3000,SCT,10000,,,,,VFR,,,,,,,,,,,,METAR,1340.0
DAOV 302100Z 26004KT 9999 FEW023 SCT026 18/10 Q1018,DAOV,2023-05-30T21:00:00Z,35.2,0.15,18.0,10.0,260,4,,6.21,30.059055,,,,,,,,,,,FEW,2300,SCT,2600,,,,,VFR,,,,,,,,,,,,METAR,506.0
DAOR 302100Z 36010KT 9999 SCT033 23/01 Q1017,DAOR,2023-05-30T21:00:00Z,31.65,-2.27,23.0,1.0,360,10,,6.21,30.029528,,,,,,,,,,,SCT,3300,,,,,,,VFR,,,,,,,,,,,,METAR,809.0
DAOL 302100Z 26014KT 9999 FEW026 20/15 Q1018,DAOL,2023-05-30T21:00:00Z,35.53,-0.52,20.0,15.0,260,14,,6.21,30.059055,,,,,,,,,,,FEW,2600,,,,,,,VFR,,,,,,,,,,,,METAR,103.0
DAOI 302100Z VRB02KT 9999 FEW026 SCT100 19/14 Q1017,DAOI,2023-05-30T21:00:00Z,36.22,1.32,19.0,14.0,0,2,,6.21,30.029528,,,,,,,,,,,FEW,2600,SCT,10000,,,,,VFR,,,,,,,,,,,,METAR,141.0
DAOF 302100Z 29014KT CAVOK 26/03 Q1013,DAOF,2023-05-30T21:00:00Z,27.7,-8.17,26.0,3.0,290,14,,6.21,29.911417,,,,,,,,,,,CAVOK,,,,,,,,VFR,,,,,,,,,,,,METAR,441.0
DAOB 302100Z 27009KT 9999 SCT026 14/08 Q1019,DAOB,2023-05-30T21:00:00Z,35.33,1.47,14.0,8.0,270,9,,6.21,30.088583,,,,,,,,,,,SCT,2600,,,,,,,VFR,,,,,,,,,,,,METAR,976.0
DABT 302100Z 09004KT 9999 FEW016 SCT023 BKN200 15/12 Q1017,DABT,2023-05-30T21:00:00Z,35.75,6.32,15.0,12.0,90,4,,6.21,30.029528,,,,,,,,,,,FEW,1600,SCT,2300,BKN,20000,,,VFR,,,,,,,,,,,,METAR,813.0
DABS 302100Z VRB02KT 7000 FEW020 FEW026CB BKN030 13/12 Q1017,DABS,2023-05-30T21:00:00Z,35.43,8.12,13.0,12.0,0,2,,4.35,30.029528,,,,,,,,,,,FEW,2000,FEW,2600,BKN,3000,,,MVFR,,,,,,,,,,,,METAR,806.0
DAAY 302100Z 01010KT 9999 FEW026 SCT033 15/08 Q1022,DAAY,2023-05-30T21:00:00Z,33.53,-0.25,15.0,8.0,10,10,,6.21,30.177166,,,,,,,,,,,FEW,2600,SCT,3300,,,,,VFR,,,,,,,,,,,,METAR,1116.0
DAAV 302100Z 17003KT 9999 FEW020TCU 18/14 Q1015,DAAV,2023-05-30T21:00:00Z,36.8,5.88,18.0,14.0,170,3,,6.21,29.970472,,,,,,,,,,,FEW,2000,,,,,,,VFR,,,,,,,,,,,,METAR,11.0
DAAS 302100Z VRB01KT 8000 SCT026 14/10 Q1016,DAAS,2023-05-30T21:00:00Z,36.18,5.33,14.0,10.0,0,1,,4.97,30.0,,,,,,,,,,,SCT,2600,,,,,,,MVFR,,,,,,,,,,,,METAR,1012.0
DAAP 302100Z 32007KT 8000 NSC 31/// Q1009,DAAP,2023-05-30T21:00:00Z,26.72,8.62,,,320,7,,4.97,29.793306,,,,,,,,,,,CLR,,,,,,,,MVFR,,,,,,,,,,,,METAR,542.0
DAAJ 302100Z VRB02KT CAVOK 29/M03 Q1012,DAAJ,2023-05-30T21:00:00Z,24.28,9.47,29.0,-3.0,0,2,,6.21,29.88189,,,,,,,,,,,CAVOK,,,,,,,,VFR,,,,,,,,,,,,METAR,962.0
DAAE 302100Z 23004KT 9000 -RA SCT023 FEW026TCU SCT026CB 18/17 Q1015,DAAE,2023-05-30T21:00:00Z,36.72,5.07,18.0,17.0,230,4,,5.59,29.970472,,,,,,,,,,-RA,SCT,2300,FEW,2600,SCT,2600,,,VFR,,,,,,,,,,,,METAR,1.0
CZZJ 302100Z AUTO 07009KT 17/08 RMK AO1 SLP062 T01720078 56010,CZZJ,2023-05-30T21:00:00Z,53.58,-116.47,17.2,7.8,70,9,,,,1006.2,,TRUE,TRUE,,,,,,,,,,,,,,,,-1.0,,,,,,,,,,,METAR,927.0
CZVL 302100Z AUTO 15006G15KT 090V180 9SM FEW060 SCT110 24/09 A2966 RMK SLP044 DENSITY ALT 4200FT,CZVL,2023-05-30T21:00:00Z,53.67,-113.85,24.0,9.0,150,6,15,9.0,29.660433,1004.4,,TRUE,,,,,,,,FEW,6000,SCT,11000,,,,,VFR,,,,,,,,,,,,METAR,685.0
CZUM 302100Z AUTO 31014G22KT 9SM CLR 26/04 A2968 RMK SLP059 DENSITY ALT 3300FT,CZUM,2023-05-30T21:00:00Z,53.55,-64.1,26.0,4.0,310,14,22,9.0,29.681103,1005.9,,TRUE,,,,,,,,CLR,,,,,,,,VFR,,,,,,,,,,,,SPECI,431.0
CZTB 302100Z AUTO 06009KT 18/08 RMK AO1 SLP126 T01750075 55001,CZTB,2023-05-30T21:00:00Z,48.37,-89.32,17.5,7.5,60,9,,,,1012.6,,TRUE,TRUE,,,,,,,,,,,,,,,,-0.1,,,,,,,,,,,METAR,197.0
CZSP 302100Z AUTO 26009KT 22/02 RMK AO1 SLP176 T02240022 57014,CZSP,2023-05-30T21:00:00Z,46.45,-62.58,22.4,2.2,260,9,,,,1017.6,,TRUE,TRUE,,,,,,,,,,,,,,,,-1.4,,,,,,,,,,,METAR,31.0
CZSM 302100Z AUTO 03003KT 20/M00 RMK AO1 SLP087 T02041004 57004,CZSM,2023-05-30T21:00:00Z,60.03,-111.93,20.4,-0.4,30,3,,,,1008.7,,TRUE,TRUE,,,,,,,,,,,,,,,,-0.4,,,,,,,,,,,METAR,203.0
CZPS 302100Z AUTO 22001KT 24/06 RMK AO1 T02380060,CZPS,2023-05-30T21:00:00Z,52.43,-113.6,23.8,6.0,220,1,,,,,,TRUE,TRUE,,,,,,,,,,,,,,,,,,,,,,,,,,,METAR,953.0
CZPC 302100Z AUTO 27019G25KT 9SM CLR 24/02 A2977 RMK SLP063 DENSITY ALT 6000FT,CZPC,2023-05-30T21:00:00Z,49.52,-114.0,24.0,2.0,270,19,25,9.0,29.769686,1006.3,,TRUE,,,,,,,,CLR,,,,,,,,VFR,,,,,,,,,,,,SPECI,1187.0
CZOL 302100Z AUTO 15007KT 24/09 RMK AO1 T02390093,CZOL,2023-05-30T21:00:00Z,53.65,-113.35,23.9,9.3,150,7,,,,,,TRUE,TRUE,,,,,,,,,,,,,,,,,,,,,,,,,,,METAR,645.0
CZMT 302100Z 22006KT 170V250 15SM SCT020TCU BKN032 BKN060 BKN150 12/05 A2993 RMK TCU3SC2SC1AC1 SLP136,CZMT,2023-05-30T21:00:00Z,54.03,-132.13,12.0,5.0,220,6,,15.0,29.929134,1013.6,,,,,,,,,,SCT,2000,BKN,3200,BKN,6000,BKN,15000,VFR,,,,,,,,,,,,METAR,11.0
CZMJ 302100Z AUTO 20005KT 28/05 RMK AO1 SLP066 T02840052 58013,CZMJ,2023-05-30T21:00:00Z,50.33,-105.53,28.4,5.2,200,5,,,,1006.6,,TRUE,TRUE,,,,,,,,,,,,,,,,-1.3,,,,,,,,,,,METAR,571.0
CZMD 302100Z AUTO 20004KT 160V220 9SM FEW060 BKN120 BKN210 22/17 A2970 RMK LTNG DIST N E S PRESRR SLP061 DENSITY ALT 2200FT,CZMD,2023-05-30T21:00:00Z,53.43,-91.77,22.0,17.0,200,4,,9.0,29.698818,1006.1,,TRUE,,,,,,,,FEW,6000,BKN,12000,BKN,21000,,,VFR,,,,,,,,,,,,METAR,276.0
CZKD 302100Z AUTO 05008KT 16/11 RMK AO1 SLP100 T01640108 53008,CZKD,2023-05-30T21:00:00Z,56.03,-96.52,16.4,10.8,50,8,,,,1010.0,,TRUE,TRUE,,,,,,,,,,,,,,,,0.8,,,,,,,,,,,METAR,190.0
CZHY 302100Z AUTO 23015G23KT 21/M05 RMK AO1 PK WND 22023/2052 SLP053 T02101054 55002,CZHY,2023-05-30T21:00:00Z,60.83,-115.78,21.0,-5.4,230,15,23,,,1005.3,,TRUE,TRUE,,,,,,,,,,,,,,,,-0.2,,,,,,,,,,,METAR,159.0
CZFS 302100Z AUTO 29007KT 15/05 RMK AO1 SLP041 T01480048 51004,CZFS,2023-05-30T21:00:00Z,61.77,-121.23,14.8,4.8,290,7,,,,1004.1,,TRUE,TRUE,,,,,,,,,,,,,,,,0.4,,,,,,,,,,,METAR,174.0
CZFN 302100Z 11006KT 090V170 20SM BKN053TCU BKN090 17/05 A2957 RMK TCU6AC1 SLP019 DENSITY ALT 1000FT,CZFN,2023-05-30T21:00:00Z,64.92,-125.57,17.0,5.0,110,6,,20.0,29.568897,1001.9,,,,,,,,,,BKN,5300,BKN,9000,,,,,VFR,,,,,,,,,,,,SPECI,135.0
CZFM 302100Z 12008KT 35SM FEW030 BKN080 17/08 A2953 RMK CU1AC4 SLP003 DENSITY ALT 800FT,CZFM,2023-05-30T21:00:00Z,67.4,-134.87,17.0,8.0,120,8,,35.0,29.530512,1000.3,,,,,,,,,,FEW,3000,BKN,8000,,,,,VFR,,,,,,,,,,,,SPECI,33.0
CZFA 302100Z 34004KT 290V020 30SM BKN075 BKN090 10/M06 A2964 RMK AC5AC2 SLP064 DENSITY ALT 2600FT,CZFA,2023-05-30T21:00:00Z,62.2,-133.38,10.0,-6.0,340,4,,30.0,29.639763,1006.4,,,,,,,,,,BKN,7500,BKN,9000,,,,,VFR,,,,,,,,,,,,SPECI,702.0
CZEV 302100Z AUTO 30005KT 17/07 RMK AO1 SLP013 T01730069 58002,CZEV,2023-05-30T21:00:00Z,68.32,-133.48,17.3,6.9,300,5,,,,1001.3,,TRUE,TRUE,,,,,,,,,,,,,,,,-0.2,,,,,,,,,,,METAR,92.0
CZEL 302100Z AUTO 26001KT 28/11 RMK AO1 SLP182 T02830112 56010,CZEL,2023-05-30T21:00:00Z,43.65,-80.42,28.3,11.2,260,1,,,,1018.2,,TRUE,TRUE,,,,,,,,,,,,,,,,-1.0,,,,,,,,,,,METAR,370.0
CZDB 302100Z AUTO 24012G17KT 18/06 RMK AO1 PK WND 23019/2007 SLP196 T01780055 58006,CZDB,2023-05-30T21:00:00Z,45.42,-63.47,17.8,5.5,240,12,17,,,1019.6,,TRUE,TRUE,,,,,,,,,,,,,,,,-0.6,,,,,,,,,,,METAR,38.0
CZCR 302100Z AUTO 24011G19KT 28/02 RMK AO1 PK WND 23019/2052 SLP135 T02820024 56019,CZCR,2023-05-30T21:00:00Z,47.98,-66.33,28.2,2.4,240,11,19,,,1013.5,,TRUE,TRUE,,,,,,,,,,,,,,,,-1.9,,,,,,,,,,,METAR,39.0
CZCP 302100Z AUTO 10015KT ////SM ////// 04/01 A2964,CZCP,2023-05-30T21:00:00Z,70.17,-124.68,4.0,1.0,100,15,,,29.639763,,,TRUE,,,,,,,,,,,,,,,,,,,,,,,,,,,,SPECI,23.0
CZBF 302100Z AUTO 26010G16KT 230V300 9SM CLR 28/02 A2997 RMK SLP150 DENSITY ALT 1700FT,CZBF,2023-05-30T21:00:00Z,47.62,-65.75,28.0,2.0,260,10,16,9.0,29.970472,1015.0,,TRUE,,,,,,,,CLR,,,,,,,,VFR,,,,,,,,,,,,SPECI,60.0
CYZY 302100Z AUTO 20010KT 150V220 9SM BKN086 16/M02 A2976 RMK SLP096 DENSITY ALT 3100FT,CYZY,2023-05-30T21:00:00Z,55.3,-123.13,16.0,-2.0,200,10,,9.0,29.760826,1009.6,,TRUE,,,,,,,,BKN,8600,,,,,,,VFR,,,,,,,,,,,,SPECI,694.0
CYZX 302100Z 26015G20KT 15SM SCT250 22/M01 A3013 RMK CI4 DENSITY ALT 736FT SLP204,CYZX,2023-05-30T21:00:00Z,44.98,-64.92,22.0,-1.0,260,15,20,15.0,30.129921,1020.4,,,,,,,,,,SCT,25000,,,,,,,VFR,,,,,,,,,,,,SPECI,28.0
CYZW 302100Z 18003KT 140V260 30SM FEW035 SCT060TCU BKN120 OVC220 09/M03 A2971 RMK CU1TCU3AC2CI2 SLP091,CYZW,2023-05-30T21:00:00Z,60.17,-132.75,9.0,-3.0,180,3,,30.0,29.71063,1009.1,,,,,,,,,,FEW,3500,SCT,6000,BKN,12000,OVC,22000,VFR,,,,,,,,,,,,SPECI,700.0
CYZV 302100Z 24012KT 30SM BKN200 BKN240 19/02 A2986 RMK CI6CI1 SLP116 DENSITY ALT 800FT,CYZV,2023-05-30T21:00:00Z,50.22,-66.27,19.0,2.0,240,12,,30.0,29.861221,1011.6,,,,,,,,,,BKN,20000,BKN,24000,,,,,VFR,,,,,,,,,,,,SPECI,43.0
"CYZU 302100Z 14012KT 15SM SCT056CB BKN200 20/10 A2968 RMK CB4CI3 CONS DIST LTGCCCG SE-SW, W-NE SLP057 DENSITY ALT 4000FT",CYZU,2023-05-30T21:00:00Z,54.15,-115.78,20.0,10.0,140,12,,15.0,29.681103,1005.7,,,,,,,,,,SCT,5600,BKN,20000,,,,,VFR,,,,,,,,,,,,SPECI,785.0
CYZT 302100Z 36010KT 20SM -SHRA SCT035 BKN049 BKN080 BKN250 13/06 A3007 RMK CU3SC2AC1CI1 AC TR OCNL -SHRA SLP185,CYZT,2023-05-30T21:00:00Z,50.68,-127.37,13.0,6.0,360,10,,20.0,30.070866,1018.5,,,,,,,,,-SHRA,SCT,3500,BKN,4900,BKN,8000,BKN,25000,VFR,,,,,,,,,,,,SPECI,13.0
CYZS 302100Z 34009KT 15SM FEW025 03/M03 A2992 RMK SC1 SC TR SLP139,CYZS,2023-05-30T21:00:00Z,64.2,-83.35,3.0,-3.0,340,9,,15.0,29.920275,1013.9,,,,,,,,,,FEW,2500,,,,,,,VFR,,,,,,,,,,,,SPECI,60.0
CYZR 302100Z AUTO 19009G15KT 170V230 9SM CLR 31/13 A3001 RMK SLP164 DENSITY ALT 2400FT,CYZR,2023-05-30T21:00:00Z,43.0,-82.3,31.0,13.0,190,9,15,9.0,30.008858,1016.4,,TRUE,,,,,,,,CLR,,,,,,,,VFR,,,,,,,,,,,,SPECI,181.0
CYZH 302100Z AUTO VRB02KT 9SM SCT160 BKN190 OVC220 16/08 A2974 RMK LTNG DIST SW SLP084 DENSITY ALT 2800FT,CYZH,2023-05-30T21:00:00Z,55.28,-114.77,16.0,8.0,0,2,,9.0,29.740158,1008.4,,TRUE,,,,,,,,SCT,16000,BKN,19000,OVC,22000,,,VFR,,,,,,,,,,,,SPECI,583.0
CYZG 302100Z 01011KT 4SM BR FEW003 BKN005 OVC011 M02/M02 A2974 RMK SF1ST5ST2 CIG RAG/ LAST STFD OBS/ NEXT 311200 UTC SLP091,CYZG,2023-05-30T21:00:00Z,62.17,-75.67,-2.0,-2.0,10,11,,4.0,29.740158,1009.1,,,,,,,,,BR,FEW,300,BKN,500,OVC,1100,,,IFR,,,,,,,,,,,,SPECI,217.0
CYZF 302100Z 15012KT 15SM FEW040 FEW240 14/02 A2969 RMK SC1CI1 SC TR CI TR FU SLP066 DENSITY ALT 1000FT,CYZF,2023-05-30T21:00:00Z,62.47,-114.45,14.0,2.0,150,12,,15.0,29.68996,1006.6,,,,,,,,,,FEW,4000,FEW,24000,,,,,VFR,,,,,,,,,,,,SPECI,202.0
CYZE 302100Z AUTO 19009KT 9SM CLR 25/10 A3003 RMK SLP174 DENSITY ALT 1800FT,CYZE,2023-05-30T21:00:00Z,45.88,-82.57,25.0,10.0,190,9,,9.0,30.029528,1017.4,,TRUE,,,,,,,,CLR,,,,,,,,VFR,,,,,,,,,,,,SPECI,189.0
CYYZ 302100Z 14007KT 15SM FEW050 26/12 A3006 RMK CU1 CU TR SLP180 DENSITY ALT 1900FT,CYYZ,2023-05-30T21:00:00Z,43.67,-79.62,26.0,12.0,140,7,,15.0,30.059055,1018.0,,,,,,,,,,FEW,5000,,,,,,,VFR,,,,,,,,,,,,SPECI,171.0
CYYY 302100Z 27006KT 30SM BKN240 25/08 A2995 RMK CI6 SLP145 DENSITY ALT 1400FT,CYYY,2023-05-30T21:00:00Z,48.6,-68.22,25.0,8.0,270,6,,30.0,29.949802,1014.5,,,,,,,,,,BKN,24000,,,,,,,VFR,,,,,,,,,,,,SPECI,43.0
CYYW 302100Z AUTO 14014G21KT 9SM CLR 28/07 A2980 RMK SLP084 DENSITY ALT 2900FT,CYYW,2023-05-30T21:00:00Z,50.3,-88.9,28.0,7.0,140,14,21,9.0,29.799213,1008.4,,TRUE,,,,,,,,CLR,,,,,,,,VFR,,,,,,,,,,,,METAR,320.0
CYYU 302100Z 27011G17KT 210V280 15SM FEW110 FEW260 32/08 A2989 RMK AC1CI1 SLP125 DENSITY ALT 2900FT,CYYU,2023-05-30T21:00:00Z,49.42,-82.47,32.0,8.0,270,11,17,15.0,29.890747,1012.5,,,,,,,,,,FEW,11000,FEW,26000,,,,,VFR,,,,,,,,,,,,SPECI,228.0
CYYT 302100Z 14008KT 15SM FEW024 SCT120 BKN150 BKN240 07/01 A3001 RMK CF1AC4AC1CI2 CF TR SLP171,CYYT,2023-05-30T21:00:00Z,47.62,-52.73,7.0,1.0,140,8,,15.0,30.008858,1017.1,,,,,,,,,,FEW,2400,SCT,12000,BKN,15000,BKN,24000,VFR,,,,,,,,,,,,SPECI,128.0
CYYR 302100Z 19002KT 15SM -RA FEW002 SCT045 BKN070 OVC090 10/09 A2974 RMK SF1SC4AC3AC1 DENSITY ALT -20FT VIS LWR NW QUAD PCPN VRY LGT BR IN RIVER VLYS SLP074,CYYR,2023-05-30T21:00:00Z,53.32,-60.42,10.0,9.0,190,2,,15.0,29.740158,1007.4,,,,,,,,,-RA,FEW,200,SCT,4500,BKN,7000,OVC,9000,VFR,,,,,,,,,,,,SPECI,42.0
CYYQ 302100Z 05011KT 6SM BR OVC004 02/M00 A2995 RMK SC8 SLP146,CYYQ,2023-05-30T21:00:00Z,58.75,-94.07,2.0,0.0,50,11,,6.0,29.949802,1014.6,,,,,,,,,BR,OVC,400,,,,,,,LIFR,,,,,,,,,,,,SPECI,20.0
CYYL 302100Z AUTO 30005KT 250V330 5SM HZ CLR 25/07 A2977 RMK SLP090 DENSITY ALT 2800FT,CYYL,2023-05-30T21:00:00Z,56.87,-101.07,25.0,7.0,300,5,,5.0,29.769686,1009.0,,TRUE,,,,,,,HZ,CLR,,,,,,,,MVFR,,,,,,,,,,,,SPECI,351.0
CYYJ 302100Z 10011KT 060V120 30SM FEW047 17/05 A3000 RMK CU1 SLP161 DENSITY ALT 300FT,CYYJ,2023-05-30T21:00:00Z,48.63,-123.42,17.0,5.0,100,11,,30.0,30.0,1016.1,,,,,,,,,,FEW,4700,,,,,,,VFR,,,,,,,,,,,,SPECI,16.0
CYYH 302100Z 26005KT 15SM FEW012 BKN024 OVC030 M02/M06 A3009 RMK SC1SC7SC1 SC TR SLP196,CYYH,2023-05-30T21:00:00Z,69.53,-93.57,-2.0,-6.0,260,5,,15.0,30.088583,1019.6,,,,,,,,,,FEW,1200,BKN,2400,OVC,3000,,,MVFR,,,,,,,,,,,,SPECI,19.0
CYYG 302100Z 24009KT 15SM BKN210 21/05 A3006 RMK CI6 SLP181 DENSITY ALT 700FT,CYYG,2023-05-30T21:00:00Z,46.28,-63.12,21.0,5.0,240,9,,15.0,30.059055,1018.1,,,,,,,,,,BKN,21000,,,,,,,VFR,,,,,,,,,,,,SPECI,48.0
CYYF 302100Z 03005KT 330V070 15SM FEW060 FEW240 26/05 A2975 RMK CU1CI2 CU TR SLP075 DENSITY ALT 2900FT,CYYF,2023-05-30T21:00:00Z,49.47,-119.6,26.0,5.0,30,5,,15.0,29.749016,1007.5,,,,,,,,,,FEW,6000,FEW,24000,,,,,VFR,,,,,,,,,,,,SPECI,342.0
CYYE 302100Z VRB04KT 30SM BKN081 BKN250 16/M03 A2969 RMK CU5CI1 SLP069 DENSITY ALT 2000FT,CYYE,2023-05-30T21:00:00Z,58.83,-122.58,16.0,-3.0,0,4,,30.0,29.68996,1006.9,,,,,,,,,,BKN,8100,BKN,25000,,,,,VFR,,,,,,,,,,,,SPECI,379.0
CYYD 302100Z 04004KT 270V070 25SM VCSH OVC090 12/M02 A2986 RMK CU8 SLP125,CYYD,2023-05-30T21:00:00Z,54.82,-127.18,12.0,-2.0,40,4,,25.0,29.861221,1012.5,,,,,,,,,VCSH,OVC,9000,,,,,,,VFR,,,,,,,,,,,,SPECI,527.0
CYYC 302100Z VRB04KT 10SM SCT075TCU BKN250 24/04 A2972 RMK TCU4CI1 SLP055 DENSITY ALT 5800FT,CYYC,2023-05-30T21:00:00Z,51.12,-114.02,24.0,4.0,0,4,,10.0,29.719488,1005.5,,,,,,,,,,SCT,7500,BKN,25000,,,,,VFR,,,,,,,,,,,,SPECI,1085.0
CYYB 302100Z 23007KT 30SM FEW064 28/11 A3006 RMK CF1 CF TR SLP179 DENSITY ALT 2800FT,CYYB,2023-05-30T21:00:00Z,46.35,-79.42,28.0,11.0,230,7,,30.0,30.059055,1017.9,,,,,,,,,,FEW,6400,,,,,,,VFR,,,,,,,,,,,,SPECI,360.0
CYXZ 302100Z 25007KT 200V300 15SM FEW150 FEW220 FEW250 25/05 A3000 RMK AC1CC1CI1 AC TR CC TR CI TR SLP165 DENSITY ALT 2300FT,CYXZ,2023-05-30T21:00:00Z,47.97,-84.77,25.0,5.0,250,7,,15.0,30.0,1016.5,,,,,,,,,,FEW,15000,FEW,22000,FEW,25000,,,VFR,,,,,,,,,,,,SPECI,287.0
CYXY 302100Z 14011G19KT 40SM VCSH BKN070TCU 08/M04 A2967 RMK TCU7 SLP076,CYXY,2023-05-30T21:00:00Z,60.72,-135.07,8.0,-4.0,140,11,19,40.0,29.66929,1007.6,,,,,,,,,VCSH,BKN,7000,,,,,,,VFR,,,,,,,,,,,,SPECI,677.0
CYXX 302100Z 22012G18KT 15SM SCT045 16/04 A3001 RMK CU3 SLP166,CYXX,2023-05-30T21:00:00Z,49.03,-122.38,16.0,4.0,220,12,18,15.0,30.008858,1016.6,,,,,,,,,,SCT,4500,,,,,,,VFR,,,,,,,,,,,,SPECI,54.0
CYXU 302100Z 22007KT 170V240 15SM FEW055 FEW210 29/11 A3006 RMK CU1CI2 CU TR SLP178 DENSITY ALT 2600FT,CYXU,2023-05-30T21:00:00Z,43.03,-81.15,29.0,11.0,220,7,,15.0,30.059055,1017.8,,,,,,,,,,FEW,5500,FEW,21000,,,,,VFR,,,,,,,,,,,,SPECI,278.0
CYXT 302100Z CCA 17012G18KT 130V210 20SM -SHRA FEW035 BKN060TCU BKN200 12/02 A2995 RMK CU2TCU3CI2 SLP149,CYXT,2023-05-30T21:00:00Z,54.47,-128.57,12.0,2.0,170,12,18,20.0,29.949802,1014.9,,,,,,,,,-SHRA,FEW,3500,BKN,6000,BKN,20000,,,VFR,,,,,,,,,,,,SPECI,213.0
CYXS 302100Z AUTO 23006KT 200V270 9SM FEW081 BKN092 15/01 A2982 RMK SLP113 DENSITY ALT 2900FT,CYXS,2023-05-30T21:00:00Z,53.88,-122.68,15.0,1.0,230,6,,9.0,29.819881,1011.3,,TRUE,,,,,,,,FEW,8100,BKN,9200,,,,,VFR,,,,,,,,,,,,SPECI,685.0
CYXR 302100Z AUTO 18013G21KT 160V240 9SM CLR 31/11 A2997 RMK SLP151 DENSITY ALT 2800FT,CYXR,2023-05-30T21:00:00Z,47.7,-79.85,31.0,11.0,180,13,21,9.0,29.970472,1015.1,,TRUE,,,,,,,,CLR,,,,,,,,VFR,,,,,,,,,,,,SPECI,244.0
CYXQ 302100Z 35010G18KT 300V030 25SM BKN040 OVC080 08/01 A2961 RMK CU5AC3 /DIST SH N/ SLP053,CYXQ,2023-05-30T21:00:00Z,62.42,-140.87,8.0,1.0,350,10,18,25.0,29.610237,1005.3,,,,,,,,,,BKN,4000,OVC,8000,,,,,VFR,,,,,,,,,,,,SPECI,663.0
CYXN 302100Z 10007KT 15SM BKN072 00/M03 A3004 RMK AC6 SLP174,CYXN,2023-05-30T21:00:00Z,62.23,-92.58,0.0,-3.0,100,7,,15.0,30.041338,1017.4,,,,,,,,,,BKN,7200,,,,,,,VFR,,,,,,,,,,,,SPECI,9.0
CYXJ 302100Z 18007KT 080V200 60SM FEW052 SCT095 16/03 A2975 RMK CU2AC2 SLP090 DENSITY ALT 3100FT,CYXJ,2023-05-30T21:00:00Z,56.25,-120.73,16.0,3.0,180,7,,60.0,29.749016,1009.0,,,,,,,,,,FEW,5200,SCT,9500,,,,,VFR,,,,,,,,,,,,SPECI,700.0
CYXH 302100Z 22007G15KT 180V250 30SM SCT095 28/04 A2969 RMK CU3 SLP048 DENSITY ALT 4700FT,CYXH,2023-05-30T21:00:00Z,50.02,-110.72,28.0,4.0,220,7,15,30.0,29.68996,1004.8,,,,,,,,,,SCT,9500,,,,,,,VFR,,,,,,,,,,,,SPECI,717.0
CYXE 302100Z 16008KT 070V170 6SM FU FEW080 BKN300 28/08 A2970 RMK CU2CI4 SLP062 DENSITY ALT 3800FT,CYXE,2023-05-30T21:00:00Z,52.17,-106.7,28.0,8.0,160,8,,6.0,29.698818,1006.2,,,,,,,,,FU,FEW,8000,BKN,30000,,,,,VFR,,,,,,,,,,,,SPECI,504.0
CYXC 302100Z 19011G20KT 25SM FEW095 BKN220 24/01 A2976 RMK CU2CI3 SLP068 DENSITY ALT 5100FT,CYXC,2023-05-30T21:00:00Z,49.6,-115.78,24.0,1.0,190,11,20,25.0,29.760826,1006.8,,,,,,,,,,FEW,9500,BKN,22000,,,,,VFR,,,,,,,,,,,,SPECI,928.0
CYWL 302100Z VRB02KT 15SM BKN073 17/M01 A2980 RMK CU5 SLP096 DENSITY ALT 4200FT,CYWL,2023-05-30T21:00:00Z,52.18,-122.07,17.0,-1.0,0,2,,15.0,29.799213,1009.6,,,,,,,,,,BKN,7300,,,,,,,VFR,,,,,,,,,,,,METAR,942.0
CYWK 302100Z 30018G24KT 250V310 15SM VCBLDU SCT240 26/04 A2979 RMK CI4 SLP093 DENSITY ALT 3700FT,CYWK,2023-05-30T21:00:00Z,52.92,-66.87,26.0,4.0,300,18,24,15.0,29.790354,1009.3,,,,,,,,,VCBLDU,SCT,24000,,,,,,,VFR,,,,,,,,,,,,SPECI,547.0
CYWJ 302100Z 13010G16KT 080V150 40SM SCT055 SCT200 14/05 A2961 RMK SC3CS1 CS TR SLP037 DENSITY ALT 1100FT,CYWJ,2023-05-30T21:00:00Z,65.22,-123.43,14.0,5.0,130,10,16,40.0,29.610237,1003.7,,,,,,,,,,SCT,5500,SCT,20000,,,,,VFR,,,,,,,,,,,,SPECI,208.0
CYWH 302100Z 23016G21KT 15SM FEW020 14/05 A3002 RMK CU1 SLP167,CYWH,2023-05-30T21:00:00Z,48.42,-123.38,14.0,5.0,230,16,21,15.0,30.02067,1016.7,,,,,,,,,,FEW,2000,,,,,,,VFR,,,,,,,,,,,,SPECI,4.0
CYWE 302100Z AUTO 11012KT 9SM OVC017 09/04 A2973 RMK SLP088,CYWE,2023-05-30T21:00:00Z,64.18,-114.08,9.0,4.0,110,12,,9.0,29.731298,1008.8,,TRUE,,,,,,,,OVC,1700,,,,,,,MVFR,,,,,,,,,,,,METAR,374.0
CYWA 302100Z 11008KT 15SM SKC 26/M00 A3005 RMK DENSITY ALT 1794FT SLP177,CYWA,2023-05-30T21:00:00Z,45.95,-77.32,26.0,0.0,110,8,,15.0,30.050198,1017.7,,,,,,,,,,SKC,,,,,,,,VFR,,,,,,,,,,,,SPECI,121.0
CYVV 302100Z 05005KT 340V100 15SM FEW052 27/10 A3005 RMK CU1 CU TR SLP176 DENSITY ALT 2200FT,CYVV,2023-05-30T21:00:00Z,44.75,-81.1,27.0,10.0,50,5,,15.0,30.050198,1017.6,,,,,,,,,,FEW,5200,,,,,,,VFR,,,,,,,,,,,,SPECI,221.0
CYVT 302100Z AUTO 32005KT 7SM FEW160 24/02 A2974 RMK SLP079 DENSITY ALT 3000FT,CYVT,2023-05-30T21:00:00Z,55.83,-108.42,24.0,2.0,320,5,,7.0,29.740158,1007.9,,TRUE,,,,,,,,FEW,16000,,,,,,,VFR,,,,,,,,,,,,SPECI,438.0
CYVR 302100Z 22006KT 190V260 20SM FEW050 FEW210 16/09 A3002 RMK CU1CI1 CI TR SLP167,CYVR,2023-05-30T21:00:00Z,49.17,-123.17,16.0,9.0,220,6,,20.0,30.02067,1016.7,,,,,,,,,,FEW,5000,FEW,21000,,,,,VFR,,,,,,,,,,,,SPECI,2.0
CYVQ 302100Z 12012KT 30SM FEW050 SCT080 BKN140 BKN240 18/06 A2957 RMK SC1CU3AC2CI2 SC TR SLP018 DENSITY ALT 1100FT,CYVQ,2023-05-30T21:00:00Z,65.27,-126.78,18.0,6.0,120,12,,30.0,29.568897,1001.8,,,,,,,,,,FEW,5000,SCT,8000,BKN,14000,BKN,24000,VFR,,,,,,,,,,,,SPECI,63.0
CYVP 302100Z 36011KT 15SM BKN043 BKN090 BKN260 19/09 A2962 RMK SC5AC1CI1 SLP032 DENSITY ALT 1000FT,CYVP,2023-05-30T21:00:00Z,58.12,-68.42,19.0,9.0,360,11,,15.0,29.619095,1003.2,,,,,,,,,,BKN,4300,BKN,9000,BKN,26000,,,VFR,,,,,,,,,,,,SPECI,28.0
CYVO 302100Z 21007G15KT 150V270 15SM FEW075 31/07 A2998 RMK AC1 AC TR SLP157 DENSITY ALT 3100FT,CYVO,2023-05-30T21:00:00Z,48.07,-77.77,31.0,7.0,210,7,15,15.0,29.97933,1015.7,,,,,,,,,,FEW,7500,,,,,,,VFR,,,,,,,,,,,,SPECI,329.0
CYVM 302100Z 03010KT 3SM -FZDZ -SN BKN006 OVC010 M02/M02 A2973 RMK SN3ST4ST1 SLP068,CYVM,2023-05-30T21:00:00Z,67.55,-64.02,-2.0,-2.0,30,10,,3.0,29.731298,1006.8,,,,,,,,,-FZDZ -SN,BKN,600,OVC,1000,,,,,IFR,,,,,,,,,,,,SPECI,3.0
CYVL 302100Z AUTO 18006KT 120V270 9SM BKN049 OVC060 15/04 A2959 RMK SLP033 DENSITY ALT 1500FT,CYVL,2023-05-30T21:00:00Z,67.02,-126.13,15.0,4.0,180,6,,9.0,29.589567,1003.3,,TRUE,,,,,,,,BKN,4900,OVC,6000,,,,,VFR,,,,,,,,,,,,METAR,261.0
CYVC 302100Z 15003KT 090V230 3SM FU BKN035 25/07 A2976 RMK FU3SC3 SLP084 DENSITY ALT 2900FT,CYVC,2023-05-30T21:00:00Z,55.15,-105.27,25.0,7.0,150,3,,3.0,29.760826,1008.4,,,,,,,,,FU,BKN,3500,,,,,,,MVFR,,,,,,,,,,,,SPECI,378.0
CYUY 302100Z 25005G17KT 15SM FEW090 31/11 A2998 RMK CU2 SLP155 DENSITY ALT 3000FT,CYUY,2023-05-30T21:00:00Z,48.2,-78.82,31.0,11.0,250,5,17,15.0,29.97933,1015.5,,,,,,,,,,FEW,9000,,,,,,,VFR,,,,,,,,,,,,SPECI,304.0
CYUX 302100Z 01018G25KT 10SM FEW250 M02/M04 A2988 RMK CI1 SLP120,CYUX,2023-05-30T21:00:00Z,68.77,-81.22,-2.0,-4.0,10,18,25,10.0,29.878937,1012.0,,,,,,,,,,FEW,25000,,,,,,,VFR,,,,,,,,,,,,SPECI,8.0
CYUT 302100Z 35018G24KT 15SM SKC 00/M04 A2997 RMK SLP153,CYUT,2023-05-30T21:00:00Z,66.52,-86.22,0.0,-4.0,350,18,24,15.0,29.970472,1015.3,,,,,,,,,,SKC,,,,,,,,VFR,,,,,,,,,,,,SPECI,22.0
CYUL 302100Z 24006KT 200V260 15SM SKC 28/13 A3005 RMK SLP179 DENSITY ALT 1500FT,CYUL,2023-05-30T21:00:00Z,45.47,-73.73,28.0,13.0,240,6,,15.0,30.050198,1017.9,,,,,,,,,,SKC,,,,,,,,VFR,,,,,,,,,,,,SPECI,31.0
CYUA 302100Z AUTO 04009KT ////SM NCD ///// A////,CYUA,2023-05-30T21:00:00Z,68.92,-137.23,,,40,9,,,,,,TRUE,,,,,,,,CLR,,,,,,,,,,,,,,,,,,,,SPECI,25.0
CYTZ 302100Z AUTO 08010KT 9SM CLR 19/11 A3006 RMK SLP182 DENSITY ALT 700FT,CYTZ,2023-05-30T21:00:00Z,43.63,-79.4,19.0,11.0,80,10,,9.0,30.059055,1018.2,,TRUE,,,,,,,,CLR,,,,,,,,VFR,,,,,,,,,,,,SPECI,76.0
CYTS 302100Z 22007KT 180V270 15SM FEW190 32/03 A2994 RMK CI1 CI TR SLP142 DENSITY ALT 3100FT,CYTS,2023-05-30T21:00:00Z,48.57,-81.37,32.0,3.0,220,7,,15.0,29.940945,1014.2,,,,,,,,,,FEW,19000,,,,,,,VFR,,,,,,,,,,,,SPECI,290.0
CYTR 302100Z 21005KT 15SM FEW250 25/12 A3007 RMK CI1 DENSITY ALT 1533FT SLP183,CYTR,2023-05-30T21:00:00Z,44.12,-77.52,25.0,12.0,210,5,,15.0,30.070866,1018.3,,,,,,,,,,FEW,25000,,,,,,,VFR,,,,,,,,,,,,SPECI,80.0
CYTQ 302100Z 06004KT 15SM BKN058 14/08 A2963 RMK SC7 LAST OBS/NEXT 311200UTC SLP039 DENSITY ALT 400FT,CYTQ,2023-05-30T21:00:00Z,58.67,-69.95,14.0,8.0,60,4,,15.0,29.630905,1003.9,,,,,,,,,,BKN,5800,,,,,,,VFR,,,,,,,,,,,,SPECI,14.0
CYTL 302100Z AUTO 16004KT 9SM CLR 28/12 A2966 RMK SLP050 DENSITY ALT 2800FT,CYTL,2023-05-30T21:00:00Z,53.82,-89.88,28.0,12.0,160,4,,9.0,29.660433,1005.0,,TRUE,,,,,,,,CLR,,,,,,,,VFR,,,,,,,,,,,,SPECI,218.0
CYTH 302100Z 06011KT 12SM FEW040 BKN230 20/12 A2977 RMK FU2CI4 FU SLP088 DENSITY ALT 1700FT,CYTH,2023-05-30T21:00:00Z,55.8,-97.83,20.0,12.0,60,11,,12.0,29.769686,1008.8,,,,,,,,,,FEW,4000,BKN,23000,,,,,VFR,,,,,,,,,,,,SPECI,212.0
CYSP 302100Z 25005KT 170V290 12SM FEW210 21/05 A2997 RMK CC2 HZ LAST STFD OBS/ NEXT 311200 UTC SLP156 DENSITY ALT 2000FT,CYSP,2023-05-30T21:00:00Z,48.75,-86.35,21.0,5.0,250,5,,12.0,29.970472,1015.6,,,,,,,,,,FEW,21000,,,,,,,VFR,,,,,,,,,,,,METAR,312.0
CYSN 302100Z 02007KT 15SM SKC 26/15 A3005 RMK SLP177 DENSITY ALT 1600FT,CYSN,2023-05-30T21:00:00Z,43.2,-79.17,26.0,15.0,20,7,,15.0,30.050198,1017.7,,,,,,,,,,SKC,,,,,,,,VFR,,,,,,,,,,,,SPECI,96.0
CYSM 302100Z 25006KT 140V290 15SM FEW098 FEW150 22/M01 A2974 RMK CU2AC1 AC TR SLP080 DENSITY ALT 1800FT,CYSM,2023-05-30T21:00:00Z,60.03,-111.92,22.0,-1.0,250,6,,15.0,29.740158,1008.0,,,,,,,,,,FEW,9800,FEW,15000,,,,,VFR,,,,,,,,,,,,METAR,203.0
CYSK 302100Z 24008KT 15SM BKN210 16/07 A2968 RMK CS5 SLP054 DENSITY ALT 500FT,CYSK,2023-05-30T21:00:00Z,56.53,-79.25,16.0,7.0,240,8,,15.0,29.681103,1005.4,,,,,,,,,,BKN,21000,,,,,,,VFR,,,,,,,,,,,,SPECI,28.0
CYSJ 302100Z 23012G20KT 15SM BKN250 15/05 A3013 RMK CI5 SLP209,CYSJ,2023-05-30T21:00:00Z,45.32,-65.88,15.0,5.0,230,12,20,15.0,30.129921,1020.9,,,,,,,,,,BKN,25000,,,,,,,VFR,,,,,,,,,,,,SPECI,89.0
CYSF 302100Z AUTO 31005KT 200V320 9SM CLR 21/01 A2982 RMK SLP107 DENSITY ALT 1800FT,CYSF,2023-05-30T21:00:00Z,59.25,-105.83,21.0,1.0,310,5,,9.0,29.819881,1010.7,,TRUE,,,,,,,,CLR,,,,,,,,VFR,,,,,,,,,,,,SPECI,238.0
CYSC 302100Z AUTO 22005KT 140V310 9SM FEW240 27/11 A3008 RMK SLP188 DENSITY ALT 2200FT,CYSC,2023-05-30T21:00:00Z,45.43,-71.68,27.0,11.0,220,5,,9.0,30.079725,1018.8,,TRUE,,,,,,,,FEW,24000,,,,,,,VFR,,,,,,,,,,,,SPECI,236.0
CYSB 302100Z 18014KT 20SM SKC 29/10 A3005 RMK SLP176 DENSITY ALT 2900FT,CYSB,2023-05-30T21:00:00Z,46.63,-80.8,29.0,10.0,180,14,,20.0,30.050198,1017.6,,,,,,,,,,SKC,,,,,,,,VFR,,,,,,,,,,,,SPECI,349.0
CYRV 302100Z AUTO 35007G16KT 300V040 9SM CLR 26/M01 A2973 RMK SLP065 DENSITY ALT 3400FT,CYRV,2023-05-30T21:00:00Z,50.97,-118.17,26.0,-1.0,350,7,16,9.0,29.731298,1006.5,,TRUE,,,,,,,,CLR,,,,,,,,VFR,,,,,,,,,,,,SPECI,456.0
CYRT 302100Z 17010KT 15SM FEW025 SCT090 BKN260 01/M04 A3004 RMK SC1AC2CI4 SLP177,CYRT,2023-05-30T21:00:00Z,62.82,-92.12,1.0,-4.0,170,10,,15.0,30.041338,1017.7,,,,,,,,,,FEW,2500,SCT,9000,BKN,26000,,,VFR,,,,,,,,,,,,SPECI,29.0
CYRQ 302100Z AUTO 22009G15KT 170V240 9SM CLR 26/06 A3005 RMK SLP179 DENSITY ALT 1400FT,CYRQ,2023-05-30T21:00:00Z,46.35,-72.68,26.0,6.0,220,9,15,9.0,30.050198,1017.9,,TRUE,,,,,,,,CLR,,,,,,,,VFR,,,,,,,,,,,,METAR,58.0
CYRL 302100Z 18011G21KT 15SM FEW050TCU BKN100 BKN240 26/15 A2968 RMK TCU2AC3CI1 SLP053 DENSITY ALT 3200FT,CYRL,2023-05-30T21:00:00Z,51.07,-93.78,26.0,15.0,180,11,21,15.0,29.681103,1005.3,,,,,,,,,,FEW,5000,BKN,10000,BKN,24000,,,VFR,,,,,,,,,,,,SPECI,370.0
CYRJ 302100Z 11004KT 060V150 40SM BKN220 26/03 A2999 RMK CI7 SLP158 DENSITY ALT 1900FT,CYRJ,2023-05-30T21:00:00Z,48.52,-72.27,26.0,3.0,110,4,,40.0,29.991142,1015.8,,,,,,,,,,BKN,22000,,,,,,,VFR,,,,,,,,,,,,SPECI,173.0
CYRB 302100Z VRB02KT 15SM -FZDZ OVC009 M04/M07 A3001 RMK ST8 PCPN VRY LGT SLP172,CYRB,2023-05-30T21:00:00Z,74.72,-94.97,-4.0,-7.0,0,2,,15.0,30.008858,1017.2,,,,,,,,,-FZDZ,OVC,900,,,,,,,IFR,,,,,,,,,,,,SPECI,59.0
CYRA 302100Z 08012KT 15SM BKN034 12/06 A2963 RMK SC7 OCNL -RA SLP045,CYRA,2023-05-30T21:00:00Z,64.12,-117.32,12.0,6.0,80,12,,15.0,29.630905,1004.5,,,,,,,,,,BKN,3400,,,,,,,VFR,,,,,,,,,,,,SPECI,232.0
CYQY 302100Z 21018G25KT 15SM SCT100 BKN240 17/01 A3006 RMK AC4CI3 SLP183,CYQY,2023-05-30T21:00:00Z,46.17,-60.03,17.0,1.0,210,18,25,15.0,30.059055,1018.3,,,,,,,,,,SCT,10000,BKN,24000,,,,,VFR,,,,,,,,,,,,SPECI,58.0
CYQX 302100Z 22004KT 20SM FEW060 SCT092 BKN150 BKN240 13/01 A2993 RMK CU2AC1AC4CC1 CC TR SH DIST S SLP144,CYQX,2023-05-30T21:00:00Z,48.95,-54.58,13.0,1.0,220,4,,20.0,29.929134,1014.4,,,,,,,,,,FEW,6000,SCT,9200,BKN,15000,BKN,24000,VFR,,,,,,,,,,,,SPECI,144.0
CYQU 302100Z 26003KT 180V330 25SM SCT060 BKN110 17/05 A2975 RMK SC3AC2 SLP088 DENSITY ALT 3200FT,CYQU,2023-05-30T21:00:00Z,55.18,-118.88,17.0,5.0,260,3,,25.0,29.749016,1008.8,,,,,,,,,,SCT,6000,BKN,11000,,,,,VFR,,,,,,,,,,,,SPECI,668.0
CYQT 302100Z 04010KT 20SM BKN095 BKN130 17/08 A2988 RMK AC5AC2 SLP126 DENSITY ALT 1200FT,CYQT,2023-05-30T21:00:00Z,48.37,-89.32,17.0,8.0,40,10,,20.0,29.878937,1012.6,,,,,,,,,,BKN,9500,BKN,13000,,,,,VFR,,,,,,,,,,,,SPECI,197.0
CYQR 302100Z VRB02KT 15SM FEW072 SCT120 27/10 A2972 RMK CU2AC1 SLP069 DENSITY ALT 3900FT,CYQR,2023-05-30T21:00:00Z,50.43,-104.67,27.0,10.0,0,2,,15.0,29.719488,1006.9,,,,,,,,,,FEW,7200,SCT,12000,,,,,VFR,,,,,,,,,,,,SPECI,576.0
CYQQ 302100Z 05006KT 20SM FEW060 16/04 A3002 RMK CU1 DENSITY ALT 190FT SLP165,CYQQ,2023-05-30T21:00:00Z,49.72,-124.9,16.0,4.0,50,6,,20.0,30.02067,1016.5,,,,,,,,,,FEW,6000,,,,,,,VFR,,,,,,,,,,,,SPECI,24.0
CYQM 302100Z 18006KT 150V210 15SM BKN240 24/09 A3004 RMK CI6 SLP174 DENSITY ALT 1200FT,CYQM,2023-05-30T21:00:00Z,46.12,-64.67,24.0,9.0,180,6,,15.0,30.041338,1017.4,,,,,,,,,,BKN,24000,,,,,,,VFR,,,,,,,,,,,,SPECI,67.0
CYQL 302100Z 25010G21KT 220V280 60SM FEW090 SCT300 27/03 A2973 RMK CU1CI2 SLP057 DENSITY ALT 5300FT,CYQL,2023-05-30T21:00:00Z,49.63,-112.8,27.0,3.0,250,10,21,60.0,29.731298,1005.7,,,,,,,,,,FEW,9000,SCT,30000,,,,,VFR,,,,,,,,,,,,SPECI,923.0
CYQK 302100Z 18011G19KT 20SM FEW025 SCT070 BKN220 24/16 A2974 RMK CU2AC2CI1 CB DIST NW SLP071 DENSITY ALT 2900FT,CYQK,2023-05-30T21:00:00Z,49.78,-94.37,24.0,16.0,180,11,19,20.0,29.740158,1007.1,,,,,,,,,,FEW,2500,SCT,7000,BKN,22000,,,VFR,,,,,,,,,,,,METAR,413.0
CYQI 302100Z 25011G17KT 15SM FEW250 12/07 A3022 RMK CI2 SLP238,CYQI,2023-05-30T21:00:00Z,43.83,-66.08,12.0,7.0,250,11,17,15.0,30.221457,1023.8,,,,,,,,,,FEW,25000,,,,,,,VFR,,,,,,,,,,,,SPECI,37.0
CYQH 302100Z 17008KT 150V250 30SM BKN075 12/M04 A2970 RMK AC7 SLP082 DENSITY ALT 2700FT,CYQH,2023-05-30T21:00:00Z,60.12,-128.82,12.0,-4.0,170,8,,30.0,29.698818,1008.2,,,,,,,,,,BKN,7500,,,,,,,VFR,,,,,,,,,,,,SPECI,692.0
CYQG 302100Z AUTO 14010G17KT 9SM CLR 30/11 A3002 RMK SLP165 DENSITY ALT 2400FT,CYQG,2023-05-30T21:00:00Z,42.27,-82.97,30.0,11.0,140,10,17,9.0,30.02067,1016.5,,TRUE,,,,,,,,CLR,,,,,,,,VFR,,,,,,,,,,,,SPECI,189.0
CYQF 302100Z AUTO 15007KT 060V210 9SM FEW086 25/05 A2969 RMK SLP051 DENSITY ALT 5100FT,CYQF,2023-05-30T21:00:00Z,52.17,-113.9,25.0,5.0,150,7,,9.0,29.68996,1005.1,,TRUE,,,,,,,,FEW,8600,,,,,,,VFR,,,,,,,,,,,,SPECI,912.0
CYQD 302100Z AUTO 02004KT 330V060 7SM CLR 26/06 A2973 RMK SLP070 DENSITY ALT 2600FT,CYQD,2023-05-30T21:00:00Z,53.97,-101.08,26.0,6.0,20,4,,7.0,29.731298,1007.0,,TRUE,,,,,,,,CLR,,,,,,,,VFR,,,,,,,,,,,,SPECI,268.0
CYQB 302100Z 24007KT 30SM BKN250 26/05 A3004 RMK CI6 SLP177 DENSITY ALT 1400FT,CYQB,2023-05-30T21:00:00Z,46.78,-71.38,26.0,5.0,240,7,,30.0,30.041338,1017.7,,,,,,,,,,BKN,25000,,,,,,,VFR,,,,,,,,,,,,SPECI,73.0
CYQA 302100Z AUTO 32007KT 270V330 9SM CLR 29/04 A3006 RMK SLP181 DENSITY ALT 2600FT,CYQA,2023-05-30T21:00:00Z,44.97,-79.3,29.0,4.0,320,7,,9.0,30.059055,1018.1,,TRUE,,,,,,,,CLR,,,,,,,,VFR,,,,,,,,,,,,SPECI,277.0
CYPY 302100Z AUTO 10007KT 9SM OVC042 21/01 A2973 RMK SLP078 DENSITY ALT 1900FT,CYPY,2023-05-30T21:00:00Z,58.77,-111.12,21.0,1.0,100,7,,9.0,29.731298,1007.8,,TRUE,,,,,,,,OVC,4200,,,,,,,VFR,,,,,,,,,,,,SPECI,225.0
CYPW 302100Z 00000KT 15SM FEW048 FEW250 16/05 A3001 RMK CU1CI1 CU TR CI TR FU DIST W SLP166,CYPW,2023-05-30T21:00:00Z,49.83,-124.5,16.0,5.0,0,0,,15.0,30.008858,1016.6,,,,,,,,,,FEW,4800,FEW,25000,,,,,VFR,,,,,,,,,,,,SPECI,122.0
CYPR 302100Z AUTO 15011G20KT 9SM 10/05 A2996 RMK CLD MISG SLP148,CYPR,2023-05-30T21:00:00Z,54.28,-130.45,10.0,5.0,150,11,20,9.0,29.958662,1014.8,,TRUE,,,,,,,,,,,,,,,,,,,,,,,,,,,,SPECI,30.0
CYPQ 302100Z AUTO 15007KT 9SM CLR 27/08 A3007 RMK SLP185 DENSITY ALT 2000FT,CYPQ,2023-05-30T21:00:00Z,44.22,-78.37,27.0,8.0,150,7,,9.0,30.070866,1018.5,,TRUE,,,,,,,,CLR,,,,,,,,VFR,,,,,,,,,,,,SPECI,190.0
CYPO 302100Z AUTO 26010G16KT 220V290 9SM CLR 31/07 A2964 RMK SLP037 DENSITY ALT 2400FT,CYPO,2023-05-30T21:00:00Z,54.98,-85.43,31.0,7.0,260,10,16,9.0,29.639763,1003.7,,TRUE,,,,,,,,CLR,,,,,,,,VFR,,,,,,,,,,,,METAR,49.0
CYPL 302100Z AUTO 17010G20KT 140V200 9SM FEW076 SCT140 29/11 A2973 RMK SLP070 DENSITY ALT 3400FT,CYPL,2023-05-30T21:00:00Z,51.43,-90.22,29.0,11.0,170,10,20,9.0,29.731298,1007.0,,TRUE,,,,,,,,FEW,7600,SCT,14000,,,,,VFR,,,,,,,,,,,,SPECI,390.0
CYPH 302100Z AUTO 21005KT 9SM OVC007 06/05 A2966 RMK SLP049,CYPH,2023-05-30T21:00:00Z,58.47,-78.08,6.0,5.0,210,5,,9.0,29.660433,1004.9,,TRUE,,,,,,,,OVC,700,,,,,,,IFR,,,,,,,,,,,,SPECI,24.0
CYPG 302100Z CCA 31007KT 270V350 8SM FEW045 FEW150 BKN280 27/15 A2970 RMK CU2AC1CI4 DENSITY ALT 2945FT HZ CB TOPS DIST SE SLP055,CYPG,2023-05-30T21:00:00Z,49.9,-98.28,27.0,15.0,310,7,,8.0,29.698818,1005.5,,,,,,,,,,FEW,4500,FEW,15000,BKN,28000,,,VFR,,,,,,,,,,,,METAR,270.0
CYPE 302100Z VRB02KT 15SM FEW048 SCT130 BKN250 18/05 A2975 RMK CU2AC2CI2 SLP087 DENSITY ALT 2900FT,CYPE,2023-05-30T21:00:00Z,56.22,-117.45,18.0,5.0,0,2,,15.0,29.749016,1008.7,,,,,,,,,,FEW,4800,SCT,13000,BKN,25000,,,VFR,,,,,,,,,,,,SPECI,572.0
CYPD 302100Z AUTO 19007KT 140V210 9SM CLR 18/03 A3009 RMK SLP195 DENSITY ALT 700FT,CYPD,2023-05-30T21:00:00Z,45.67,-61.37,18.0,3.0,190,7,,9.0,30.088583,1019.5,,TRUE,,,,,,,,CLR,,,,,,,,VFR,,,,,,,,,,,,METAR,106.0
CYPC 302100Z 16016KT 15SM FEW035 FEW220 15/06 A2964 RMK SC1CI1 SC TR SLP039 DENSITY ALT 400FT,CYPC,2023-05-30T21:00:00Z,69.37,-124.07,15.0,6.0,160,16,,15.0,29.639763,1003.9,,,,,,,,,,FEW,3500,FEW,22000,,,,,VFR,,,,,,,,,,,,METAR,5.0
CYPA 302100Z 11008KT 080V250 5SM FU OVC250 27/08 A2973 RMK FU3CI5 SLP074 DENSITY ALT 3400FT,CYPA,2023-05-30T21:00:00Z,53.22,-105.67,27.0,8.0,110,8,,5.0,29.731298,1007.4,,,,,,,,,FU,OVC,25000,,,,,,,MVFR,,,,,,,,,,,,SPECI,428.0
CYOW 302100Z 22006KT 190V290 15SM FEW250 27/09 A3006 RMK CI1 CI TR SLP181 DENSITY ALT 1800FT,CYOW,2023-05-30T21:00:00Z,45.32,-75.67,27.0,9.0,220,6,,15.0,30.059055,1018.1,,,,,,,,,,FEW,25000,,,,,,,VFR,,,,,,,,,,,,SPECI,111.0
CYOO 302100Z AUTO 13006KT 9SM CLR 25/11 A3007 RMK SLP186 DENSITY ALT 1600FT,CYOO,2023-05-30T21:00:00Z,43.92,-78.9,25.0,11.0,130,6,,9.0,30.070866,1018.6,,TRUE,,,,,,,,CLR,,,,,,,,VFR,,,,,,,,,,,,METAR,136.0
CYOJ 302100Z 22004KT 170V240 15SM FEW070 OVC250 19/00 A2972 RMK CF1CS8 CF TR SLP076 DENSITY ALT 2100FT,CYOJ,2023-05-30T21:00:00Z,58.62,-117.17,19.0,0.0,220,4,,15.0,29.719488,1007.6,,,,,,,,,,FEW,7000,OVC,25000,,,,,VFR,,,,,,,,,,,,SPECI,339.0
CYNM 302100Z AUTO 26011G16KT 230V320 9SM FEW100 32/07 A2992 RMK SLP136 DENSITY ALT 3200FT,CYNM,2023-05-30T21:00:00Z,49.77,-77.78,32.0,7.0,260,11,16,9.0,29.920275,1013.6,,TRUE,,,,,,,,FEW,10000,,,,,,,VFR,,,,,,,,,,,,SPECI,276.0
CYNE 302100Z AUTO 02005KT 330V090 9SM FEW060 25/14 A2969 RMK SLP059 DENSITY ALT 2400FT,CYNE,2023-05-30T21:00:00Z,53.97,-97.83,25.0,14.0,20,5,,9.0,29.68996,1005.9,,TRUE,,,,,,,,FEW,6000,,,,,,,VFR,,,,,,,,,,,,SPECI,220.0
CYND 302100Z VRB02KT 12SM SKC 27/08 A3005 RMK SLP179 DENSITY ALT 1600FT,CYND,2023-05-30T21:00:00Z,45.52,-75.57,27.0,8.0,0,2,,12.0,30.050198,1017.9,,,,,,,,,,SKC,,,,,,,,VFR,,,,,,,,,,,,SPECI,57.0
CYNA 302100Z AUTO 22010KT 9SM FEW230 14/04 A2986 RMK SLP113,CYNA,2023-05-30T21:00:00Z,50.18,-61.78,14.0,4.0,220,10,,9.0,29.861221,1011.3,,TRUE,,,,,,,,FEW,23000,,,,,,,VFR,,,,,,,,,,,,SPECI,9.0
CYMX 302100Z 24003KT 190V310 45SM FEW250 27/12 A3005 RMK CI1 CI TR SLP179 DENSITY ALT 1600FT,CYMX,2023-05-30T21:00:00Z,45.67,-74.03,27.0,12.0,240,3,,45.0,30.050198,1017.9,,,,,,,,,,FEW,25000,,,,,,,VFR,,,,,,,,,,,,SPECI,78.0
CYMU 302100Z 22009KT 15SM BKN180 11/04 A2970 RMK CC7 LAST STFD OBS/NEXT 311200Z SLP063,CYMU,2023-05-30T21:00:00Z,56.53,-76.52,11.0,4.0,220,9,,15.0,29.698818,1006.3,,,,,,,,,,BKN,18000,,,,,,,VFR,,,,,,,,,,,,SPECI,69.0
CYMT 302100Z AUTO 27006KT 180V290 9SM CLR 30/01 A2996 RMK SLP149 DENSITY ALT 3300FT,CYMT,2023-05-30T21:00:00Z,49.77,-74.52,30.0,1.0,270,6,,9.0,29.958662,1014.9,,TRUE,,,,,,,,CLR,,,,,,,,VFR,,,,,,,,,,,,SPECI,388.0
CYMO 302100Z AUTO 24010G16KT 9SM CLR 32/06 A2981 RMK SLP097 DENSITY ALT 2200FT,CYMO,2023-05-30T21:00:00Z,51.28,-80.62,32.0,6.0,240,10,16,9.0,29.811024,1009.7,,TRUE,,,,,,,,CLR,,,,,,,,VFR,,,,,,,,,,,,SPECI,8.0
CYMM 302100Z AUTO 06006KT 350V140 9SM CLR 25/M01 A2971 RMK SLP069 DENSITY ALT 2900FT,CYMM,2023-05-30T21:00:00Z,56.65,-111.22,25.0,-1.0,60,6,,9.0,29.71063,1006.9,,TRUE,,,,,,,,CLR,,,,,,,,VFR,,,,,,,,,,,,SPECI,371.0
CYMJ 302100Z 26002KT 15SM FEW080 28/07 A2971 RMK CU2 DENSITY ALT 4314FT TCU ASOCTD CB TOPS E-SE ANVIL SW LTNG 46 NM S 39 NM SW SLP054,CYMJ,2023-05-30T21:00:00Z,50.32,-105.55,28.0,7.0,260,2,,15.0,29.71063,1005.4,,,,,,,,,,FEW,8000,,,,,,,VFR,,,,,,,,,,,,SPECI,578.0
CYMH 302100Z AUTO 18014G19KT 9SM BKN130 11/M00 A2980 RMK SLP095,CYMH,2023-05-30T21:00:00Z,52.3,-55.82,11.0,0.0,180,14,19,9.0,29.799213,1009.5,,TRUE,,,,,,,,BKN,13000,,,,,,,VFR,,,,,,,,,,,,SPECI,18.0
CYMA 302100Z 24004KT 200V270 20SM BKN070TCU 12/M04 A2960 RMK TCU7 SLP045 DENSITY ALT 2100FT,CYMA,2023-05-30T21:00:00Z,63.62,-135.87,12.0,-4.0,240,4,,20.0,29.601377,1004.5,,,,,,,,,,BKN,7000,,,,,,,VFR,,,,,,,,,,,,SPECI,519.0
CYLW 302100Z AUTO 13004KT 080V220 9SM CLR 25/01 A2977 RMK SLP080 DENSITY ALT 3100FT,CYLW,2023-05-30T21:00:00Z,49.95,-119.37,25.0,1.0,130,4,,9.0,29.769686,1008.0,,TRUE,,,,,,,,CLR,,,,,,,,VFR,,,,,,,,,,,,SPECI,420.0
CYLL 302100Z 10015KT 12SM FEW040 BKN090 20/11 A2973 RMK SC2AC4 SLP072 DENSITY ALT 3500FT,CYLL,2023-05-30T21:00:00Z,53.32,-110.07,20.0,11.0,100,15,,12.0,29.731298,1007.2,,,,,,,,,,FEW,4000,BKN,9000,,,,,VFR,,,,,,,,,,,,SPECI,664.0
CYLK 302100Z 05011KT 25SM FEW055 SCT080 13/07 A2976 RMK SC1AC3 CB TOPS SE SLP090,CYLK,2023-05-30T21:00:00Z,62.42,-110.67,13.0,7.0,50,11,,25.0,29.760826,1009.0,,,,,,,,,,FEW,5500,SCT,8000,,,,,VFR,,,,,,,,,,,,SPECI,183.0
CYLH 302100Z AUTO 23014G20KT 190V270 9SM SCT096 31/08 A2971 RMK SLP065 DENSITY ALT 3200FT,CYLH,2023-05-30T21:00:00Z,52.2,-87.93,31.0,8.0,230,14,20,9.0,29.71063,1006.5,,TRUE,,,,,,,,SCT,9600,,,,,,,VFR,,,,,,,,,,,,METAR,245.0
CYLD 302100Z 23011G19KT 190V270 15SM FEW065 30/07 A2998 RMK CU1 CU TR SLP158 DENSITY ALT 3500FT,CYLD,2023-05-30T21:00:00Z,47.82,-83.35,30.0,7.0,230,11,19,15.0,29.97933,1015.8,,,,,,,,,,FEW,6500,,,,,,,VFR,,,,,,,,,,,,SPECI,449.0
CYLA 302100Z 35007KT 15SM BKN018 BKN041 10/07 A2965 RMK SC5SC2 LAST OBS/NEXT 311200UTC SLP043,CYLA,2023-05-30T21:00:00Z,59.3,-69.58,10.0,7.0,350,7,,15.0,29.648623,1004.3,,,,,,,,,,BKN,1800,BKN,4100,,,,,MVFR,,,,,,,,,,,,METAR,35.0
CYKY 302100Z 22013G24KT 15SM SCT095TCU 29/05 A2966 RMK TCU3 POSS CB TOP NE SLP033 DENSITY ALT 4700FT,CYKY,2023-05-30T21:00:00Z,51.52,-109.17,29.0,5.0,220,13,24,15.0,29.660433,1003.3,,,,,,,,,,SCT,9500,,,,,,,VFR,,,,,,,,,,,,SPECI,692.0
CYKQ 302100Z 25011G16KT 15SM FEW120 FEW150 32/05 A2984 RMK AC1AC1 AC TR LAST STFD OBS/NEXT 311300UTC SLP107 DENSITY ALT 2200FT,CYKQ,2023-05-30T21:00:00Z,51.47,-78.75,32.0,5.0,250,11,16,15.0,29.840551,1010.7,,,,,,,,,,FEW,12000,FEW,15000,,,,,VFR,,,,,,,,,,,,SPECI,28.0
CYKP 302100Z AUTO 20011G17KT 9SM CLR 31/07 A2977 RMK SLP075 DENSITY ALT 2800FT,CYKP,2023-05-30T21:00:00Z,51.67,-85.9,31.0,7.0,200,11,17,9.0,29.769686,1007.5,,TRUE,,,,,,,,CLR,,,,,,,,VFR,,,,,,,,,,,,METAR,181.0
CYKL 302100Z AUTO 28019G28KT 9SM FEW096 27/06 A2966 RMK SLP050 DENSITY ALT 3800FT,CYKL,2023-05-30T21:00:00Z,54.8,-66.8,27.0,6.0,280,19,28,9.0,29.660433,1005.0,,TRUE,,,,,,,,FEW,9600,,,,,,,VFR,,,,,,,,,,,,SPECI,507.0
CYKG 302100Z 36019KT 0SM FZFG VV002 M00/M01 A2966 RMK FG8 LST OBS/ NEXT 311200UTC SLP058,CYKG,2023-05-30T21:00:00Z,61.58,-71.92,0.0,-1.0,360,19,,0.0,29.660433,1005.8,,,,,,,,,FZFG,OVX,0,,,,,,,LIFR,,,,,,,,,,,200,SPECI,134.0
CYKF 302100Z AUTO 21007KT 160V240 9SM FEW076 SCT091 29/13 A3006 RMK SLP179 DENSITY ALT 2800FT,CYKF,2023-05-30T21:00:00Z,43.47,-80.38,29.0,13.0,210,7,,9.0,30.059055,1017.9,,TRUE,,,,,,,,FEW,7600,SCT,9100,,,,,VFR,,,,,,,,,,,,SPECI,312.0
CYKA 302100Z 06010G18KT 40SM FEW100 FEW250 26/01 A2973 RMK CF1CI1 CF TR SLP066 DENSITY ALT 2900FT,CYKA,2023-05-30T21:00:00Z,50.7,-120.45,26.0,1.0,60,10,18,40.0,29.731298,1006.6,,,,,,,,,,FEW,10000,FEW,25000,,,,,VFR,,,,,,,,,,,,SPECI,344.0
CYJT 302100Z 20006KT 15SM FEW015 BKN086 BKN100 07/05 A3002 RMK SC1AC4AC2 SLP169,CYJT,2023-05-30T21:00:00Z,48.55,-58.57,7.0,5.0,200,6,,15.0,30.02067,1016.9,,,,,,,,,,FEW,1500,BKN,8600,BKN,10000,,,VFR,,,,,,,,,,,,SPECI,7.0
CYJF 302100Z 22010G18KT 200V260 15SM FEW090 FEW180 SCT220 18/M04 A2964 RMK AC1AC1CI1 AC TR SLP043 DENSITY ALT 1600FT,CYJF,2023-05-30T21:00:00Z,60.23,-123.47,18.0,-4.0,220,10,18,15.0,29.639763,1004.3,,,,,,,,,,FEW,9000,FEW,18000,SCT,22000,,,VFR,,,,,,,,,,,,SPECI,215.0
CYIO 302100Z 30003KT 40SM FEW042 M03/M09 A2994 RMK SF1 SLP148,CYIO,2023-05-30T21:00:00Z,72.68,-77.97,-3.0,-9.0,300,3,,40.0,29.940945,1014.8,,,,,,,,,,FEW,4200,,,,,,,VFR,,,,,,,,,,,,SPECI,61.0
CYIK 302100Z 35012G19KT 15SM FEW015 BKN017 BKN018 01/M02 A2980 RMK SC1SC5SC2 SC TR LAST STFD OB/NEXT 311200UTC SLP096,CYIK,2023-05-30T21:00:00Z,62.42,-77.93,1.0,-2.0,350,12,19,15.0,29.799213,1009.6,,,,,,,,,,FEW,1500,BKN,1700,BKN,1800,,,MVFR,,,,,,,,,,,,SPECI,44.0
CYHZ 302100Z 21012G20KT 6SM FU BKN250 19/05 A3012 RMK FU1CI5 VIS HYR E-S SLP204 DENSITY ALT 800FT,CYHZ,2023-05-30T21:00:00Z,44.87,-63.5,19.0,5.0,210,12,20,6.0,30.121063,1020.4,,,,,,,,,FU,BKN,25000,,,,,,,VFR,,,,,,,,,,,,SPECI,136.0
CYHY 302100Z 22017G25KT 180V260 15SM SCT050 SCT230 21/M05 A2968 RMK SC3CI1 FU SLP056 DENSITY ALT 1700FT,CYHY,2023-05-30T21:00:00Z,60.83,-115.77,21.0,-5.0,220,17,25,15.0,29.681103,1005.6,,,,,,,,,,SCT,5000,SCT,23000,,,,,VFR,,,,,,,,,,,,SPECI,159.0
CYHU 302100Z AUTO 24006KT 210V280 9SM CLR 28/11 A3005 RMK SLP177 DENSITY ALT 1500FT,CYHU,2023-05-30T21:00:00Z,45.52,-73.42,28.0,11.0,240,6,,9.0,30.050198,1017.7,,TRUE,,,,,,,,CLR,,,,,,,,VFR,,,,,,,,,,,,SPECI,26.0
CYHM 302100Z 16008KT 15SM FEW050 28/16 A3006 RMK CU1 SLP180 DENSITY ALT 2400FT,CYHM,2023-05-30T21:00:00Z,43.17,-79.93,28.0,16.0,160,8,,15.0,30.059055,1018.0,,,,,,,,,,FEW,5000,,,,,,,VFR,,,,,,,,,,,,SPECI,237.0
CYHK 302100Z 00000KT 15SM BKN017 M03/M06 A3012 RMK SC8 SLP208,CYHK,2023-05-30T21:00:00Z,68.62,-95.85,-3.0,-6.0,0,0,,15.0,30.121063,1020.8,,,,,,,,,,BKN,1700,,,,,,,MVFR,,,,,,,,,,,,SPECI,36.0
CYHE 302100Z AUTO 30010G18KT 260V330 9SM CLR 16/08 A2997 RMK SLP150,CYHE,2023-05-30T21:00:00Z,49.37,-121.5,16.0,8.0,300,10,18,9.0,29.970472,1015.0,,TRUE,,,,,,,,CLR,,,,,,,,VFR,,,,,,,,,,,,SPECI,43.0
CYHA 302100Z 33008KT 15SM -DZ VCFG OVC002 01/01 A2967 RMK FG1ST7 VIS NE-SE 11/4 LAST OBS/NEXT 311200 UTC SLP052,CYHA,2023-05-30T21:00:00Z,61.03,-69.62,1.0,1.0,330,8,,15.0,29.66929,1005.2,,,,,,,,,-DZ VCFG,OVC,200,,,,,,,LIFR,,,,,,,,,,,,SPECI,31.0
CYGX 302100Z 04010KT 15SM OVC021 12/07 A2983 RMK SC8 SLP109,CYGX,2023-05-30T21:00:00Z,56.35,-94.7,12.0,7.0,40,10,,15.0,29.828741,1010.9,,,,,,,,,,OVC,2100,,,,,,,MVFR,,,,,,,,,,,,SPECI,145.0
CYGW 302100Z AUTO 27007KT 230V300 9SM CLR 16/07 A2972 RMK SLP066 DENSITY ALT 400FT,CYGW,2023-05-30T21:00:00Z,55.27,-77.77,16.0,7.0,270,7,,9.0,29.719488,1006.6,,TRUE,,,,,,,,CLR,,,,,,,,VFR,,,,,,,,,,,,SPECI,13.0
CYGV 302100Z AUTO 26017G26KT 9SM FEW230 14/05 A2983 RMK SLP106,CYGV,2023-05-30T21:00:00Z,50.28,-63.62,14.0,5.0,260,17,26,9.0,29.828741,1010.6,,TRUE,,,,,,,,FEW,23000,,,,,,,VFR,,,,,,,,,,,,SPECI,32.0
CYGT 302100Z 01016KT 15SM FEW064 M02/M06 A2990 RMK SC1 SC TR LAST STFD OBS/NXT/310900Z SLP133,CYGT,2023-05-30T21:00:00Z,69.37,-81.82,-2.0,-6.0,10,16,,15.0,29.899607,1013.3,,,,,,,,,,FEW,6400,,,,,,,VFR,,,,,,,,,,,,SPECI,49.0
CYGR 302100Z 24012G17KT 20SM FEW100 SCT270 18/03 A3001 RMK AC1CI2 SLP164 DENSITY ALT 300FT,CYGR,2023-05-30T21:00:00Z,47.42,-61.77,18.0,3.0,240,12,17,20.0,30.008858,1016.4,,,,,,,,,,FEW,10000,SCT,27000,,,,,VFR,,,,,,,,,,,,SPECI,4.0
CYGP 302100Z 09008KT 15SM FEW160 BKN300 19/06 A2991 RMK AC1CI5 AC TR AC LENT CC ASOCTD CONTRAILS SLP130 DENSITY ALT 700FT,CYGP,2023-05-30T21:00:00Z,48.77,-64.47,19.0,6.0,90,8,,15.0,29.911417,1013.0,,,,,,,,,,FEW,16000,BKN,30000,,,,,VFR,,,,,,,,,,,,SPECI,31.0
CYGL 302100Z 22014G23KT 15SM FEW180 BKN240 28/07 A2979 RMK AC1CI6 SLP094 DENSITY ALT 2400FT,CYGL,2023-05-30T21:00:00Z,53.62,-77.7,28.0,7.0,220,14,23,15.0,29.790354,1009.4,,,,,,,,,,FEW,18000,BKN,24000,,,,,VFR,,,,,,,,,,,,SPECI,192.0
CYGK 302100Z 18007KT 15SM FEW240 22/12 A3010 RMK CI2 SLP194 DENSITY ALT 1000FT,CYGK,2023-05-30T21:00:00Z,44.22,-76.58,22.0,12.0,180,7,,15.0,30.100393,1019.4,,,,,,,,,,FEW,24000,,,,,,,VFR,,,,,,,,,,,,SPECI,91.0
CYGH 302100Z 33005KT 290V350 25SM VCSH FEW018 SCT048 BKN100 16/07 A2956 RMK CU1SC3AC2 TCU ASOCTD SLP015 DENSITY ALT 900FT,CYGH,2023-05-30T21:00:00Z,66.23,-128.63,16.0,7.0,330,5,,25.0,29.56004,1001.5,,,,,,,,,VCSH,FEW,1800,SCT,4800,BKN,10000,,,VFR,,,,,,,,,,,,SPECI,72.0
CYGE 302100Z 28003KT 150V310 20SM SCT090TCU BKN260 25/03 A2971 RMK TCU4CI1 TCU N+DIST S SLP059 DENSITY ALT 4500FT,CYGE,2023-05-30T21:00:00Z,51.3,-116.98,25.0,3.0,280,3,,20.0,29.71063,1005.9,,,,,,,,,,SCT,9000,BKN,26000,,,,,VFR,,,,,,,,,,,,SPECI,786.0
CYFS 302100Z 29006KT 270V340 15SM FEW047 FEW083 SCT250 15/05 A2963 RMK CU1AC1CI2 SLP042 DENSITY ALT 1100FT,CYFS,2023-05-30T21:00:00Z,61.75,-121.22,15.0,5.0,290,6,,15.0,29.630905,1004.2,,,,,,,,,,FEW,4700,FEW,8300,SCT,25000,,,VFR,,,,,,,,,,,,SPECI,174.0
CYFR 302100Z 34003KT 15SM FEW060 FEW260 19/M02 A2971 RMK CU1CS1 CU TR CS TR SLP069 DENSITY ALT 1400FT,CYFR,2023-05-30T21:00:00Z,61.17,-113.68,19.0,-2.0,340,3,,15.0,29.71063,1006.9,,,,,,,,,,FEW,6000,FEW,26000,,,,,VFR,,,,,,,,,,,,SPECI,159.0
CYFO 302100Z 02004KT 340V050 5SM FU SCT230 26/07 A2975 RMK CI3 SLP078 DENSITY ALT 2700FT,CYFO,2023-05-30T21:00:00Z,54.67,-101.67,26.0,7.0,20,4,,5.0,29.749016,1007.8,,,,,,,,,FU,SCT,23000,,,,,,,MVFR,,,,,,,,,,,,SPECI,303.0
CYFC 302100Z AUTO 24009G16KT 220V280 9SM CLR 26/03 A3005 RMK SLP177 DENSITY ALT 1200FT,CYFC,2023-05-30T21:00:00Z,45.87,-66.53,26.0,3.0,240,9,16,9.0,30.050198,1017.7,,TRUE,,,,,,,,CLR,,,,,,,,VFR,,,,,,,,,,,,SPECI,16.0
CYFB 302100Z 00000KT 30SM FEW007 OVC018 03/01 A2964 RMK SF2SC6 SLP041,CYFB,2023-05-30T21:00:00Z,63.75,-68.55,3.0,1.0,0,0,,30.0,29.639763,1004.1,,,,,,,,,,FEW,700,OVC,1800,,,,,MVFR,,,,,,,,,,,,SPECI,23.0
CYEV 302100Z 29005KT 240V340 15SM SCT048 BKN100 BKN250 18/07 A2954 RMK CU4AC3CI1 CI TR TCU ASOCTD SH DIST NE SLP007 DENSITY ALT 1100FT,CYEV,2023-05-30T21:00:00Z,68.32,-133.5,18.0,7.0,290,5,,15.0,29.53937,1000.7,,,,,,,,,,SCT,4800,BKN,10000,BKN,25000,,,VFR,,,,,,,,,,,,SPECI,74.0
CYEK 302100Z 08013KT 15SM BKN010 OVC075 M00/M02 A3001 RMK SC7AC1 SLP167,CYEK,2023-05-30T21:00:00Z,61.1,-94.07,0.0,-2.0,80,13,,15.0,30.008858,1016.7,,,,,,,,,,BKN,1000,OVC,7500,,,,,MVFR,,,,,,,,,,,,SPECI,7.0
CYEG 302100Z 11012G23KT 060V120 20SM BKN058TCU BKN230 23/09 A2967 RMK TCU6CI1 SLP048 DENSITY ALT 4200FT,CYEG,2023-05-30T21:00:00Z,53.3,-113.58,23.0,9.0,110,12,23,20.0,29.66929,1004.8,,,,,,,,,,BKN,5800,BKN,23000,,,,,VFR,,,,,,,,,,,,SPECI,710.0
CYED 302100Z 10010G15KT 15SM SCT055 SCT100 BKN250 24/09 A2969 RMK CU3AC1CI3 DENSITY ALT 4328FT SH DIST N SLP051,CYED,2023-05-30T21:00:00Z,53.67,-113.47,24.0,9.0,100,10,15,15.0,29.68996,1005.1,,,,,,,,,,SCT,5500,SCT,10000,BKN,25000,,,VFR,,,,,,,,,,,,SPECI,688.0
CYDQ 302100Z AUTO 15006KT 110V200 9SM CLR 16/03 A2976 RMK SLP095 DENSITY ALT 3000FT,CYDQ,2023-05-30T21:00:00Z,55.75,-120.18,16.0,3.0,150,6,,9.0,29.760826,1009.5,,TRUE,,,,,,,,CLR,,,,,,,,VFR,,,,,,,,,,,,SPECI,658.0
CYDP 302100Z 10012KT 15SM BKN043 OVC095 05/03 A2961 RMK SC6AC2 SLP031,CYDP,2023-05-30T21:00:00Z,56.53,-61.68,5.0,3.0,100,12,,15.0,29.610237,1003.1,,,,,,,,,,BKN,4300,OVC,9500,,,,,VFR,,,,,,,,,,,,SPECI,14.0
CYDN 302100Z AUTO 06003KT 350V090 9SM BKN120 25/15 A2971 RMK SLP064 DENSITY ALT 2700FT,CYDN,2023-05-30T21:00:00Z,51.1,-100.05,25.0,15.0,60,3,,9.0,29.71063,1006.4,,TRUE,,,,,,,,BKN,12000,,,,,,,VFR,,,,,,,,,,,,SPECI,302.0
CYDL 302100Z AUTO VRB02KT 9SM FEW060 07/M00 A2977 RMK SLP099,CYDL,2023-05-30T21:00:00Z,58.42,-130.02,7.0,0.0,0,2,,9.0,29.769686,1009.9,,TRUE,,,,,,,,FEW,6000,,,,,,,VFR,,,,,,,,,,,,METAR,804.0
CYDF 302100Z 26006KT 15SM SCT048 OVC070 11/03 A2997 RMK SC4AS4 SLP150,CYDF,2023-05-30T21:00:00Z,49.22,-57.4,11.0,3.0,260,6,,15.0,29.970472,1015.0,,,,,,,,,,SCT,4800,OVC,7000,,,,,VFR,,,,,,,,,,,,SPECI,15.0
CYDC 302100Z 28007G15KT 25SM FEW065 FEW280 21/04 A2983 RMK CU1CI1 CU TR CI TR SLP098 DENSITY ALT 3700FT,CYDC,2023-05-30T21:00:00Z,49.47,-120.52,21.0,4.0,280,7,15,25.0,29.828741,1009.8,,,,,,,,,,FEW,6500,FEW,28000,,,,,VFR,,,,,,,,,,,,SPECI,703.0
CYDB 302100Z 11009KT 15SM SCT040 SCT120 SCT190 SCT200 10/M07 A2959 RMK CU3AC1CC1CI1 CC TR CI TR SLP050 DENSITY ALT 3000FT,CYDB,2023-05-30T21:00:00Z,61.37,-139.02,10.0,-7.0,110,9,,15.0,29.589567,1005.0,,,,,,,,,,SCT,4000,SCT,12000,SCT,19000,SCT,20000,VFR,,,,,,,,,,,,SPECI,807.0
CYDA 302100Z VRB02KT 20SM -RA SCT043 BKN053 OVC090 11/02 A2960 RMK SC3SC3AS2 -RA INTMT HALO SLP040,CYDA,2023-05-30T21:00:00Z,64.03,-139.12,11.0,2.0,0,2,,20.0,29.601377,1004.0,,,,,,,,,-RA,SCT,4300,BKN,5300,OVC,9000,,,VFR,,,,,,,,,,,,SPECI,338.0
CYCY 302100Z 33018G23KT 15SM -SN FEW015 BKN031 BKN120 M04/M05 A2986 RMK SF2SC3AC2 SLP115,CYCY,2023-05-30T21:00:00Z,70.48,-68.52,-4.0,-5.0,330,18,23,15.0,29.861221,1011.5,,,,,,,,,-SN,FEW,1500,BKN,3100,BKN,12000,,,VFR,,,,,,,,,,,,SPECI,73.0
CYCX 302100Z 27009KT 15SM BKN220 25/03 A3006 RMK CI6 DENSITY ALT 1358FT SLP178,CYCX,2023-05-30T21:00:00Z,45.83,-66.45,25.0,3.0,270,9,,15.0,30.059055,1017.8,,,,,,,,,,BKN,22000,,,,,,,VFR,,,,,,,,,,,,SPECI,46.0
CYCS 302100Z 12008KT 15SM FEW240 02/M05 A3003 RMK CC1 SLP172,CYCS,2023-05-30T21:00:00Z,63.35,-90.72,2.0,-5.0,120,8,,15.0,30.029528,1017.2,,,,,,,,,,FEW,24000,,,,,,,VFR,,,,,,,,,,,,SPECI,7.0
CYCQ 302100Z 24008KT 150V260 35SM SCT050TCU BKN060TCU BKN100 BKN110 BKN220 18/02 A2973 RMK TCU4TCU1AC1AS1CI1 AS TR PCPN DIST E+S VIRGA ALQDS FU DIST VLY W SLP083 DENSITY ALT 3000FT,CYCQ,2023-05-30T21:00:00Z,55.7,-121.62,18.0,2.0,240,8,,35.0,29.731298,1008.3,,,,,,,,,,SCT,5000,BKN,6000,BKN,10000,BKN,11000,VFR,,,,,,,,,,,,SPECI,614.0
CYCP 302100Z 20008KT 180V250 15SM SCT064TCU BKN100 22/02 A2975 RMK TCU3AC3 SLP078 DENSITY ALT 3800FT,CYCP,2023-05-30T21:00:00Z,52.13,-119.28,22.0,2.0,200,8,,15.0,29.749016,1007.8,,,,,,,,,,SCT,6400,BKN,10000,,,,,VFR,,,,,,,,,,,,SPECI,677.0
CYCO 302100Z 09014KT 060V120 15SM FEW030 FEW260 09/02 A2980 RMK CU1CI1 CU TR SLP095,CYCO,2023-05-30T21:00:00Z,67.82,-115.15,9.0,2.0,90,14,,15.0,29.799213,1009.5,,,,,,,,,,FEW,3000,FEW,26000,,,,,VFR,,,,,,,,,,,,SPECI,20.0
CYCK 302100Z AUTO 13010KT 9SM CLR 28/13 A3003 RMK SLP170 DENSITY ALT 2200FT,CYCK,2023-05-30T21:00:00Z,42.3,-82.08,28.0,13.0,130,10,,9.0,30.029528,1017.0,,TRUE,,,,,,,,CLR,,,,,,,,VFR,,,,,,,,,,,,METAR,196.0
CYCG 302100Z 20010KT 170V230 15SM FEW080 BKN220 28/05 A2973 RMK CU2CI4 SLP065 DENSITY ALT 3700FT,CYCG,2023-05-30T21:00:00Z,49.28,-117.63,28.0,5.0,200,10,,15.0,29.731298,1006.5,,,,,,,,,,FEW,8000,BKN,22000,,,,,VFR,,,,,,,,,,,,SPECI,487.0
CYCD 302100Z 09006KT 050V150 20SM BKN042 17/06 A3000 RMK CU6 SLP162 DENSITY ALT 300FT,CYCD,2023-05-30T21:00:00Z,49.05,-123.87,17.0,6.0,90,6,,20.0,30.0,1016.2,,,,,,,,,,BKN,4200,,,,,,,VFR,,,,,,,,,,,,SPECI,30.0
CYBX 302100Z 21006KT 180V250 10SM FEW007 BKN100 OVC130 05/03 A2986 RMK ST1AC4AC3 SLP115,CYBX,2023-05-30T21:00:00Z,51.45,-57.18,5.0,3.0,210,6,,10.0,29.861221,1011.5,,,,,,,,,,FEW,700,BKN,10000,OVC,13000,,,VFR,,,,,,,,,,,,SPECI,32.0
CYBW 302100Z AUTO 07004KT 050V140 9SM OVC096 21/06 A2974 RMK SLP069 DENSITY ALT 5700FT,CYBW,2023-05-30T21:00:00Z,51.1,-114.37,21.0,6.0,70,4,,9.0,29.740158,1006.9,,TRUE,,,,,,,,OVC,9600,,,,,,,VFR,,,,,,,,,,,,SPECI,1197.0
CYBV 302100Z 26005KT 10SM FEW010 SCT029 SCT063 BKN130 15/13 A2968 RMK ST2SC2CU1AC2 CU TR FG LKWPG VIS W 1 LAST STFD OBS/NEXT 311200UTC SLP056 DENSITY ALT 1200FT,CYBV,2023-05-30T21:00:00Z,52.35,-97.03,15.0,13.0,260,5,,10.0,29.681103,1005.6,,,,,,,,,,FEW,1000,SCT,2900,SCT,6300,BKN,13000,VFR,,,,,,,,,,,,SPECI,219.0
CYBQ 302100Z AUTO 10008KT 9SM CLR 15/07 A2985 RMK SLP120 DENSITY ALT 1300FT,CYBQ,2023-05-30T21:00:00Z,58.7,-98.5,15.0,7.0,100,8,,9.0,29.84941,1012.0,,TRUE,,,,,,,,CLR,,,,,,,,VFR,,,,,,,,,,,,METAR,272.0
CYBL 302100Z CCA 11008KT 070V150 30SM SCT055 BKN260 16/02 A3001 RMK SC3CI2 FU SLP164,CYBL,2023-05-30T21:00:00Z,49.95,-125.27,16.0,2.0,110,8,,30.0,30.008858,1016.4,,,,,,,,,,SCT,5500,BKN,26000,,,,,VFR,,,,,,,,,,,,METAR,94.0
CYBK 302100Z 15005KT 20SM FEW020 SCT120 BKN160 BKN200 04/M03 A3004 RMK SC1AC4AC2CI1 SC TR SLP176,CYBK,2023-05-30T21:00:00Z,64.3,-96.07,4.0,-3.0,150,5,,20.0,30.041338,1017.6,,,,,,,,,,FEW,2000,SCT,12000,BKN,16000,BKN,20000,VFR,,,,,,,,,,,,SPECI,14.0
CYBG 302100Z 36002KT 25SM SCT250 29/M01 A2998 RMK CI4 DENSITY ALT 2252FT SLP156,CYBG,2023-05-30T21:00:00Z,48.33,-70.98,29.0,-1.0,360,2,,25.0,29.97933,1015.6,,,,,,,,,,SCT,25000,,,,,,,VFR,,,,,,,,,,,,SPECI,151.0
CYBD 302100Z 24013G20KT 15SM FEW050 SCT060TCU BKN095 BKN200 14/02 A2997 RMK CU1TCU4AC1CS2 CU TR HALO SLP152,CYBD,2023-05-30T21:00:00Z,52.38,-126.58,14.0,2.0,240,13,20,15.0,29.970472,1015.2,,,,,,,,,,FEW,5000,SCT,6000,BKN,9500,BKN,20000,VFR,,,,,,,,,,,,SPECI,40.0
CYBC 302100Z AUTO 25020G25KT 9SM CLR 21/04 A2993 RMK SLP139 DENSITY ALT 900FT,CYBC,2023-05-30T21:00:00Z,49.13,-68.2,21.0,4.0,250,20,25,9.0,29.929134,1013.9,,TRUE,,,,,,,,CLR,,,,,,,,VFR,,,,,,,,,,,,SPECI,20.0
CYBB 302100Z 36010G16KT 15SM FEW023 M00/M07 A3005 RMK SF1 SLP180,CYBB,2023-05-30T21:00:00Z,68.53,-89.78,0.0,-7.0,360,10,16,15.0,30.050198,1018.0,,,,,,,,,,FEW,2300,,,,,,,VFR,,,,,,,,,,,,SPECI,13.0
CYAZ 302100Z 28021KT 15SM FEW250 13/05 A3004 RMK CI2 SLP176,CYAZ,2023-05-30T21:00:00Z,49.08,-125.77,13.0,5.0,280,21,,15.0,30.041338,1017.6,,,,,,,,,,FEW,25000,,,,,,,VFR,,,,,,,,,,,,SPECI,26.0
CYAY 302100Z AUTO 13007KT 9SM BKN170 OVC190 09/02 A2986 RMK SLP114,CYAY,2023-05-30T21:00:00Z,51.38,-56.07,9.0,2.0,130,7,,9.0,29.861221,1011.4,,TRUE,,,,,,,,BKN,17000,OVC,19000,,,,,VFR,,,,,,,,,,,,SPECI,23.0
CYAW 302100Z 22015G20KT 10SM SCT250 16/03 A3016 RMK CI4 DENSITY ALT 101FT FU ALQDS SLP213,CYAW,2023-05-30T21:00:00Z,44.63,-63.5,16.0,3.0,220,15,20,10.0,30.159449,1021.3,,,,,,,,,,SCT,25000,,,,,,,VFR,,,,,,,,,,,,METAR,50.0
CYAT 302100Z AUTO 24014G20KT 9SM 32/07 A2973 RMK CLD MISG SLP068 DENSITY ALT 2200FT,CYAT,2023-05-30T21:00:00Z,52.93,-82.43,32.0,7.0,240,14,20,9.0,29.731298,1006.8,,TRUE,,,,,,,,,,,,,,,,,,,,,,,,,,,,METAR,4.0
CYAS 302100Z 01008KT 1SM BR OVC002 06/05 A2965 RMK FG5ST3 LAST STFD OBS/NEXT 311200UTC SLP049,CYAS,2023-05-30T21:00:00Z,60.02,-70.0,6.0,5.0,10,8,,1.0,29.648623,1004.9,,,,,,,,,BR,OVC,200,,,,,,,LIFR,,,,,,,,,,,,SPECI,99.0
CYAM 302100Z 21007KT 20SM FEW065 FEW250 30/10 A2998 RMK CU1CI1 CU TR SLP156 DENSITY ALT 2400FT,CYAM,2023-05-30T21:00:00Z,46.48,-84.52,30.0,10.0,210,7,,20.0,29.97933,1015.6,,,,,,,,,,FEW,6500,FEW,25000,,,,,VFR,,,,,,,,,,,,SPECI,186.0
CYAH 302100Z AUTO 26017G24KT 9SM CLR 30/04 A2978 RMK SLP088 DENSITY ALT 3200FT,CYAH,2023-05-30T21:00:00Z,53.75,-73.67,30.0,4.0,260,17,24,9.0,29.778543,1008.8,,TRUE,,,,,,,,CLR,,,,,,,,VFR,,,,,,,,,,,,SPECI,298.0
CXZV 302100Z AUTO 25007KT 17/02 RMK AO1 PK WND 21017/2034 SLP113 T01700021 56020,CXZV,2023-05-30T21:00:00Z,50.22,-66.25,17.0,2.1,250,7,,,,1011.3,,TRUE,TRUE,,,,,,,,,,,,,,,,-2.0,,,,,,,,,,,METAR,43.0
CXZC 302100Z AUTO 25008G15KT 33/03 RMK AO1 SLP104 T03300034 57012,CXZC,2023-05-30T21:00:00Z,51.3,-80.62,33.0,3.4,250,8,15,,,1010.4,,TRUE,TRUE,,,,,,,,,,,,,,,,-1.2,,,,,,,,,,,METAR,8.0
CXYH 302100Z AUTO 27002KT 19/M04 RMK AO1 SLP011 T01891035 56008,CXYH,2023-05-30T21:00:00Z,61.25,-123.75,18.9,-3.5,270,2,,,,1001.1,,TRUE,TRUE,,,,,,,,,,,,,,,,-0.8,,,,,,,,,,,METAR,197.0
CXWN 302100Z AUTO 21004KT 25/16 RMK AO1 SLP057 T02470157 55000,CXWN,2023-05-30T21:00:00Z,49.88,-97.13,24.7,15.7,210,4,,,,1005.7,,TRUE,TRUE,,,,,,,,,,,,,,,,0.0,,,,,,,,,,,METAR,232.0
CXWM 302100Z AUTO 22010KT 26/02 RMK AO1 T02550019,CXWM,2023-05-30T21:00:00Z,49.5,-112.12,25.5,1.9,220,10,,,,,,TRUE,TRUE,,,,,,,,,,,,,,,,,,,,,,,,,,,METAR,947.0
CXVW 302100Z AUTO 34005KT 18/08 RMK AO1 SLP072 T01810078 56005,CXVW,2023-05-30T21:00:00Z,55.1,-117.2,18.1,7.8,340,5,,,,1007.2,,TRUE,TRUE,,,,,,,,,,,,,,,,-0.5,,,,,,,,,,,METAR,696.0
CXVN 302100Z AUTO 08004KT 20/13 RMK AO1 SLP182 T01950131 56011,CXVN,2023-05-30T21:00:00Z,43.18,-79.4,19.5,13.1,80,4,,,,1018.2,,TRUE,TRUE,,,,,,,,,,,,,,,,-1.1,,,,,,,,,,,METAR,86.0
CXVM 302100Z AUTO 14008KT 23/10 RMK AO1 T02250095,CXVM,2023-05-30T21:00:00Z,53.35,-110.88,22.5,9.5,140,8,,,,,,TRUE,TRUE,,,,,,,,,,,,,,,,,,,,,,,,,,,METAR,622.0
CXTV 302100Z AUTO 03008KT 20/07 RMK AO1 SOG 01 8005 SLP007 T01970067,CXTV,2023-05-30T21:00:00Z,68.75,-133.5,19.7,6.7,30,8,,,,1000.7,,TRUE,TRUE,,,,,,,,,,,,,,,,,,,,,,,,,,,METAR,91.0
CXTP 302100Z AUTO 22006KT 12/02 RMK AO1 SLP141 T01200021 56009,CXTP,2023-05-30T21:00:00Z,48.55,-53.97,12.0,2.1,220,6,,,,1014.1,,TRUE,TRUE,,,,,,,,,,,,,,,,-0.9,,,,,,,,,,,METAR,104.0
CXTO 302100Z AUTO 26/10 RMK AO1 SLP182 T02560100 56011,CXTO,2023-05-30T21:00:00Z,43.67,-79.4,25.6,10.0,,,,,,1018.2,,TRUE,TRUE,,,,,,,,,,,,,,,,-1.1,,,,,,,,,,,METAR,115.0
CXTN 302100Z AUTO 17022KT 07/01 RMK AO1 PK WND 17026/2051 SLP074 T00720014 56004,CXTN,2023-05-30T21:00:00Z,69.2,-122.35,7.2,1.4,170,22,,,,1007.4,,TRUE,TRUE,,,,,,,,,,,,,,,,-0.4,,,,,,,,,,,METAR,564.0
CXTH 302100Z AUTO 13010KT 22/12 RMK AO1 T02240115,CXTH,2023-05-30T21:00:00Z,53.63,-111.68,22.4,11.5,130,10,,,,,,TRUE,TRUE,,,,,,,,,,,,,,,,,,,,,,,,,,,METAR,679.0
CXTD 302100Z AUTO 19009G17KT 19/04 RMK AO1 PK WND 19017/2055 SLP203 T01900042 56007,CXTD,2023-05-30T21:00:00Z,45.62,-61.68,19.0,4.2,190,9,17,,,1020.3,,TRUE,TRUE,,,,,,,,,,,,,,,,-0.7,,,,,,,,,,,METAR,58.0
CXSP 302100Z AUTO 10008KT 22/08 RMK AO1 T02240084,CXSP,2023-05-30T21:00:00Z,54.02,-111.27,22.4,8.4,100,8,,,,,,TRUE,TRUE,,,,,,,,,,,,,,,,,,,,,,,,,,,METAR,652.0
CXSL 302100Z AUTO 13007KT 22/09 RMK AO1 PK WND 14019/2002 T02200094,CXSL,2023-05-30T21:00:00Z,54.28,-112.5,22.0,9.4,130,7,,,,,,TRUE,TRUE,,,,,,,,,,,,,,,,,,,,,,,,,,,METAR,680.0
CXSH 302100Z AUTO 18007KT 26/06 RMK AO1 SLP178 T02600055 56016,CXSH,2023-05-30T21:00:00Z,46.55,-72.73,26.0,5.5,180,7,,,,1017.8,,TRUE,TRUE,,,,,,,,,,,,,,,,-1.6,,,,,,,,,,,METAR,106.0
CXSE 302100Z AUTO 20009KT 01/M04 RMK AO1 SOG 21 8002 SLP147 T00141038,CXSE,2023-05-30T21:00:00Z,73.77,-105.28,1.4,-3.8,200,9,,,,1014.7,,TRUE,TRUE,,,,,,,,,,,,,,,,,,,,,,,,,,,METAR,11.0
CXSC 302100Z AUTO 26010KT 27/04 RMK AO1 PK WND 22021/2012 T02740038,CXSC,2023-05-30T21:00:00Z,50.3,-110.08,27.4,3.8,260,10,,,,,,TRUE,TRUE,,,,,,,,,,,,,,,,,,,,,,,,,,,METAR,809.0
CXRL 302100Z AUTO 10011KT 23/06 RMK AO1 PK WND 12018/2052 T02290055,CXRL,2023-05-30T21:00:00Z,54.5,-111.7,22.9,5.5,100,11,,,,,,TRUE,TRUE,,,,,,,,,,,,,,,,,,,,,,,,,,,METAR,585.0
CXRH 302100Z AUTO 18003KT 08/05 RMK AO1 PK WND 25019/2002 SLP148 T00780053 58005,CXRH,2023-05-30T21:00:00Z,49.57,-57.88,7.8,5.3,180,3,,,,1014.8,,TRUE,TRUE,,,,,,,,,,,,,,,,-0.5,,,,,,,,,,,METAR,68.0
CXRB 302100Z AUTO 17002KT M04/M08 RMK AO1 SOG 10 1004 SLP170 T10401080,CXRB,2023-05-30T21:00:00Z,74.72,-94.98,-4.0,-8.0,170,2,,,,1017.0,,TRUE,TRUE,,,,,,,,,,,,,,,,,,,,,,,,,,,METAR,30.0
CXPL 302100Z AUTO 26006KT 28/02 RMK AO1 T02810021,CXPL,2023-05-30T21:00:00Z,51.13,-111.7,28.1,2.1,260,6,,,,,,TRUE,TRUE,,,,,,,,,,,,,,,,,,,,,,,,,,,METAR,735.0
CXPC 302100Z AUTO 28/08 RMK AO1 SLP181 T02770081 56010,CXPC,2023-05-30T21:00:00Z,45.35,-80.05,27.7,8.1,,,,,,1018.1,,TRUE,TRUE,,,,,,,,,,,,,,,,-1.0,,,,,,,,,,,METAR,176.0
CXPA 302100Z AUTO 33003KT 18/04 RMK AO1 T01760041,CXPA,2023-05-30T21:00:00Z,55.62,-118.3,17.6,4.1,330,3,,,,,,TRUE,TRUE,,,,,,,,,,,,,,,,,,,,,,,,,,,METAR,628.0
CXOY 302100Z AUTO 25010KT 28/06 RMK AO1 PK WND 24019/2028 T02830061,CXOY,2023-05-30T21:00:00Z,51.35,-110.35,28.3,6.1,250,10,,,,,,TRUE,TRUE,,,,,,,,,,,,,,,,,,,,,,,,,,,METAR,784.0
CXOX 302100Z AUTO 21002KT 25/02 RMK AO1 SLP079 T02500020 56005,CXOX,2023-05-30T21:00:00Z,55.15,-105.27,25.0,2.0,210,2,,,,1007.9,,TRUE,TRUE,,,,,,,,,,,,,,,,-0.5,,,,,,,,,,,METAR,381.0
CXOL 302100Z AUTO 14009KT 21/05 RMK AO1 PK WND 20031/2020 T02140049,CXOL,2023-05-30T21:00:00Z,51.77,-114.08,21.4,4.9,140,9,,,,,,TRUE,TRUE,,,,,,,,,,,,,,,,,,,,,,,,,,,METAR,1026.0
CXNP 302100Z AUTO 24011G16KT 18/05 RMK AO1 PK WND 25019/2008 SLP190 T01820052 56005,CXNP,2023-05-30T21:00:00Z,45.75,-64.23,18.2,5.2,240,11,16,,,1019.0,,TRUE,TRUE,,,,,,,,,,,,,,,,-0.5,,,,,,,,,,,METAR,19.0
CXNM 302100Z AUTO 27014G19KT 15/M01 RMK AO1 PK WND 27021/2045 T01511011,CXNM,2023-05-30T21:00:00Z,46.82,-60.67,15.1,-1.1,270,14,19,,,,,TRUE,TRUE,,,,,,,,,,,,,,,,,,,,,,,,,,,METAR,452.0
CXMY 302100Z AUTO 15/05 RMK AO1 T01460046,CXMY,2023-05-30T21:00:00Z,44.98,-62.48,14.6,4.6,,,,,,,,TRUE,TRUE,,,,,,,,,,,,,,,,,,,,,,,,,,,METAR,37.0
CXMO 302100Z AUTO 29006KT 26/08 RMK AO1 T02550075,CXMO,2023-05-30T21:00:00Z,51.67,-112.68,25.5,7.5,290,6,,,,,,TRUE,TRUE,,,,,,,,,,,,,,,,,,,,,,,,,,,METAR,837.0
CXMM 302100Z AUTO 05006KT 25/M01 RMK AO1 SLP069 T02481009 58013,CXMM,2023-05-30T21:00:00Z,56.65,-111.22,24.8,-0.9,50,6,,,,1006.9,,TRUE,TRUE,,,,,,,,,,,,,,,,-1.3,,,,,,,,,,,METAR,372.0
CXMI 302100Z AUTO 23022G27KT 14/03 RMK AO1 PK WND 24028/2045 SLP200 T01370030 56009,CXMI,2023-05-30T21:00:00Z,44.6,-63.53,13.7,3.0,230,22,27,,,1020.0,,TRUE,TRUE,,,,,,,,,,,,,,,,-0.9,,,,,,,,,,,METAR,15.0
CXMG 302100Z AUTO 16016KT 21/04 RMK AO1 PK WND 16023/2059 T02110036,CXMG,2023-05-30T21:00:00Z,56.97,-117.45,21.1,3.6,160,16,,,,,,TRUE,TRUE,,,,,,,,,,,,,,,,,,,,,,,,,,,METAR,467.0
CXMD 302100Z AUTO 14012G17KT 22/14 RMK AO1 PK WND 14019/2050 SLP063 T02200143 53005,CXMD,2023-05-30T21:00:00Z,49.18,-98.08,22.0,14.3,140,12,17,,,1006.3,,TRUE,TRUE,,,,,,,,,,,,,,,,0.5,,,,,,,,,,,METAR,297.0
CXLL 302100Z AUTO 20/M04 RMK AO1 SLP030 T01961035 58004,CXLL,2023-05-30T21:00:00Z,61.12,-122.85,19.6,-3.5,,,,,,1003.0,,TRUE,TRUE,,,,,,,,,,,,,,,,-0.4,,,,,,,,,,,METAR,180.0
CXLB 302100Z AUTO 21021KT 13/04 RMK AO1 PK WND 21029/2034 SLP200 T01340042 56010,CXLB,2023-05-30T21:00:00Z,44.37,-64.3,13.4,4.2,210,21,,,,1020.0,,TRUE,TRUE,,,,,,,,,,,,,,,,-1.0,,,,,,,,,,,METAR,4.0
CXKT 302100Z AUTO 24008G15KT 22/01 RMK AO1 SLP198 T02170008 58006,CXKT,2023-05-30T21:00:00Z,45.07,-64.48,21.7,0.8,240,8,15,,,1019.8,,TRUE,TRUE,,,,,,,,,,,,,,,,-0.6,,,,,,,,,,,METAR,48.0
CXKM 302100Z AUTO 16010KT 26/09 RMK AO1 PK WND 19023/2050 T02560089,CXKM,2023-05-30T21:00:00Z,52.83,-111.87,25.6,8.9,160,10,,,,,,TRUE,TRUE,,,,,,,,,,,,,,,,,,,,,,,,,,,METAR,679.0
CXKI 302100Z AUTO 24006KT 31/06 RMK AO1 SLP140 T03130060 56014,CXKI,2023-05-30T21:00:00Z,48.13,-80.0,31.3,6.0,240,6,,,,1014.0,,TRUE,TRUE,,,,,,,,,,,,,,,,-1.4,,,,,,,,,,,METAR,328.0
CXKE 302100Z AUTO 22005KT 26/07 RMK AO1 SLP182 T02630074 56009,CXKE,2023-05-30T21:00:00Z,45.0,-75.63,26.3,7.4,220,5,,,,1018.2,,TRUE,TRUE,,,,,,,,,,,,,,,,-0.9,,,,,,,,,,,METAR,99.0
CXKA 302100Z AUTO 22011G16KT 32/06 RMK AO1 PK WND 22022/2019 SLP127 T03220061 58015,CXKA,2023-05-30T21:00:00Z,49.4,-82.45,32.2,6.1,220,11,16,,,1012.7,,TRUE,TRUE,,,,,,,,,,,,,,,,-1.5,,,,,,,,,,,METAR,221.0
CXIB 302100Z AUTO 25005KT 19/M00 RMK AO1 SLP166 T01881003 55009,CXIB,2023-05-30T21:00:00Z,46.67,-60.4,18.8,-0.3,250,5,,,,1016.6,,TRUE,TRUE,,,,,,,,,,,,,,,,-0.9,,,,,,,,,,,METAR,6.0
CXHR 302100Z AUTO 18007KT 25/01 RMK AO1 T02540014,CXHR,2023-05-30T21:00:00Z,51.18,-112.5,25.4,1.4,180,7,,,,,,TRUE,TRUE,,,,,,,,,,,,,,,,,,,,,,,,,,,METAR,975.0
CXHP 302100Z AUTO 07007KT 18/04 RMK AO1 9PAST HR M P0004 T01820038 50009,CXHP,2023-05-30T21:00:00Z,55.4,-116.48,18.2,3.8,70,7,,,,,,TRUE,TRUE,,,,,,,,,,,,,,,,0.9,,,,,0.04,,,,,,METAR,601.0
CXHM 302100Z AUTO 11004KT 23/10 RMK AO1 SLP182 T02330095 56010,CXHM,2023-05-30T21:00:00Z,43.28,-79.9,23.3,9.5,110,4,,,,1018.2,,TRUE,TRUE,,,,,,,,,,,,,,,,-1.0,,,,,,,,,,,METAR,105.0
CXHD 302100Z AUTO 17005KT 20/13 RMK AO1 1PAST HR M PK WND 08018/2009 P0004 T01970126 50011,CXHD,2023-05-30T21:00:00Z,53.18,-112.25,19.7,12.6,170,5,,,,,,TRUE,TRUE,,,,,,,,,,,,,,,,1.1,,,,,0.04,,,,,,METAR,688.0
CXHA 302100Z AUTO 13005KT 28/13 RMK AO1 SLP164 T02760126 56012,CXHA,2023-05-30T21:00:00Z,42.03,-82.9,27.6,12.6,130,5,,,,1016.4,,TRUE,TRUE,,,,,,,,,,,,,,,,-1.2,,,,,,,,,,,METAR,193.0
CXGH 302100Z AUTO 13002KT 21/15 RMK AO1 SLP052 T02060154 55003,CXGH,2023-05-30T21:00:00Z,50.63,-97.0,20.6,15.4,130,2,,,,1005.2,,TRUE,TRUE,,,,,,,,,,,,,,,,-0.3,,,,,,,,,,,METAR,217.0
CXFR 302100Z AUTO 19005KT 18/02 RMK AO1 T01780019,CXFR,2023-05-30T21:00:00Z,56.08,-118.43,17.8,1.9,190,5,,,,,,TRUE,TRUE,,,,,,,,,,,,,,,,,,,,,,,,,,,METAR,657.0
CXFM 302100Z AUTO 22009KT 27/03 RMK AO1 PK WND 19022/2044 T02660033,CXFM,2023-05-30T21:00:00Z,49.48,-111.48,26.6,3.3,220,9,,,,,,TRUE,TRUE,,,,,,,,,,,,,,,,,,,,,,,,,,,METAR,884.0
CXET 302100Z AUTO 14004KT 29/10 RMK AO1 SLP182 T02900103 56010,CXET,2023-05-30T21:00:00Z,44.23,-79.78,29.0,10.3,140,4,,,,1018.2,,TRUE,TRUE,,,,,,,,,,,,,,,,-1.0,,,,,,,,,,,METAR,250.0
CXEG 302100Z AUTO 10013G21KT 23/08 RMK AO1 PK WND 10021/2055 SLP045 T02290080 58019,CXEG,2023-05-30T21:00:00Z,53.3,-113.6,22.9,8.0,100,13,21,,,1004.5,,TRUE,TRUE,,,,,,,,,,,,,,,,-1.9,,,,,,,,,,,METAR,706.0
CXEC 302100Z AUTO 13008G15KT 23/09 RMK AO1 SLP044 T02330094 58017,CXEC,2023-05-30T21:00:00Z,53.57,-113.52,23.3,9.4,130,8,15,,,1004.4,,TRUE,TRUE,,,,,,,,,,,,,,,,-1.7,,,,,,,,,,,METAR,666.0
CXEA 302100Z AUTO 19006KT 24/14 RMK AO1 SLP055 T02380141 57015,CXEA,2023-05-30T21:00:00Z,50.63,-93.22,23.8,14.1,190,6,,,,1005.5,,TRUE,TRUE,,,,,,,,,,,,,,,,-1.5,,,,,,,,,,,METAR,351.0
CXDW 302100Z AUTO 32007G17KT 27/14 RMK AO1 PK WND 30017/2053 SLP055 T02730144 55004,CXDW,2023-05-30T21:00:00Z,49.4,-98.32,27.3,14.4,320,7,17,,,1005.5,,TRUE,TRUE,,,,,,,,,,,,,,,,-0.4,,,,,,,,,,,METAR,341.0
CXDK 302100Z AUTO 19/M06 RMK AO1 SLP022 T01901056 56007,CXDK,2023-05-30T21:00:00Z,61.27,-124.47,19.0,-5.6,,,,,,1002.2,,TRUE,TRUE,,,,,,,,,,,,,,,,-0.7,,,,,,,,,,,METAR,269.0
CXDI 302100Z AUTO 20006KT 30/09 RMK AO1 SLP178 T02960092 56008,CXDI,2023-05-30T21:00:00Z,42.87,-80.55,29.6,9.2,200,6,,,,1017.8,,TRUE,TRUE,,,,,,,,,,,,,,,,-0.8,,,,,,,,,,,METAR,234.0
CXDE 302100Z AUTO 13008KT 14/04 RMK AO1 SLP038 T01410044 50000,CXDE,2023-05-30T21:00:00Z,65.22,-123.43,14.1,4.4,130,8,,,,1003.8,,TRUE,TRUE,,,,,,,,,,,,,,,,0.0,,,,,,,,,,,METAR,208.0
CXDB 302100Z AUTO 26011KT 23/03 RMK AO1 PK WND 24021/2045 T02310026,CXDB,2023-05-30T21:00:00Z,49.05,-112.82,23.1,2.6,260,11,,,,,,TRUE,TRUE,,,,,,,,,,,,,,,,,,,,,,,,,,,METAR,1311.0
CXCS 302100Z AUTO 06010KT 24/12 RMK AO1 T02440116,CXCS,2023-05-30T21:00:00Z,51.93,-110.72,24.4,11.6,60,10,,,,,,TRUE,TRUE,,,,,,,,,,,,,,,,,,,,,,,,,,,METAR,771.0
CXCP 302100Z AUTO 23007KT 27/01 RMK AO1 PK WND 21021/2010 T02740005,CXCP,2023-05-30T21:00:00Z,50.28,-113.35,27.4,0.5,230,7,,,,,,TRUE,TRUE,,,,,,,,,,,,,,,,,,,,,,,,,,,METAR,999.0
CXCK 302100Z AUTO 26006KT 10/M04 RMK AO1 SLP058 T00981035 56007,CXCK,2023-05-30T21:00:00Z,62.12,-136.2,9.8,-3.5,260,6,,,,1005.8,,TRUE,TRUE,,,,,,,,,,,,,,,,-0.7,,,,,,,,,,,METAR,526.0
CXCD 302100Z AUTO 22007KT 17/02 RMK AO1 T01700019,CXCD,2023-05-30T21:00:00Z,56.32,-119.75,17.0,1.9,220,7,,,,,,TRUE,TRUE,,,,,,,,,,,,,,,,,,,,,,,,,,,METAR,628.0
CXCA 302100Z AUTO 17013G19KT 22/07 RMK AO1 PK WND 17019/2057 SLP128 T02200070 55004,CXCA,2023-05-30T21:00:00Z,49.15,-88.35,22.0,7.0,170,13,19,,,1012.8,,TRUE,TRUE,,,,,,,,,,,,,,,,-0.4,,,,,,,,,,,METAR,228.0
CXBW 302100Z AUTO 25012KT 28/02 RMK AO1 PK WND 25020/2030 T02810019,CXBW,2023-05-30T21:00:00Z,49.8,-112.3,28.1,1.9,250,12,,,,,,TRUE,TRUE,,,,,,,,,,,,,,,,,,,,,,,,,,,METAR,823.0
CXBR 302100Z AUTO 26014KT RMK AO1 PK WND 27027/2029,CXBR,2023-05-30T21:00:00Z,49.62,-113.82,,,260,14,,,,,,TRUE,TRUE,,,,,,,,,,,,,,,,,,,,,,,,,,,METAR,1137.0
CXBO 302100Z AUTO 24010G16KT 27/04 RMK AO1 T02660037,CXBO,2023-05-30T21:00:00Z,46.83,-71.2,26.6,3.7,240,10,16,,,,,TRUE,TRUE,,,,,,,,,,,,,,,,,,,,,,,,,,,METAR,8.0
CXBK 302100Z AUTO 22008G15KT 27/06 RMK AO1 SLP068 T02680055 57011,CXBK,2023-05-30T21:00:00Z,50.2,-104.7,26.8,5.5,220,8,15,,,1006.8,,TRUE,TRUE,,,,,,,,,,,,,,,,-1.1,,,,,,,,,,,METAR,585.0
CXBI 302100Z AUTO 11005KT 27/07 RMK AO1 SLP191 T02690074 56010,CXBI,2023-05-30T21:00:00Z,44.48,-79.55,26.9,7.4,110,5,,,,1019.1,,TRUE,TRUE,,,,,,,,,,,,,,,,-1.0,,,,,,,,,,,METAR,287.0
CXBA 302100Z AUTO 06016KT 23/12 RMK AO1 PK WND 05028/2005 T02310122,CXBA,2023-05-30T21:00:00Z,52.12,-110.1,23.1,12.2,60,16,,,,,,TRUE,TRUE,,,,,,,,,,,,,,,,,,,,,,,,,,,METAR,696.0
CXAK 302100Z AUTO 19005KT 25/07 RMK AO1 T02450066,CXAK,2023-05-30T21:00:00Z,52.35,-112.6,24.5,6.6,190,5,,,,,,TRUE,TRUE,,,,,,,,,,,,,,,,,,,,,,,,,,,METAR,799.0
CXAJ 302100Z AUTO 28014KT 14/10 RMK AO1 PK WND 29024/2040 T01380103,CXAJ,2023-05-30T21:00:00Z,54.78,-112.82,13.8,10.3,280,14,,,,,,TRUE,TRUE,,,,,,,,,,,,,,,,,,,,,,,,,,,METAR,586.0
CXAG 302100Z AUTO 15007KT 24/08 RMK AO1 T02370080,CXAG,2023-05-30T21:00:00Z,53.92,-112.28,23.7,8.0,150,7,,,,,,TRUE,TRUE,,,,,,,,,,,,,,,,,,,,,,,,,,,METAR,632.0
CXAF 302100Z AUTO 09007KT 21/10 RMK AO1 T02140100,CXAF,2023-05-30T21:00:00Z,54.28,-112.97,21.4,10.0,90,7,,,,,,TRUE,TRUE,,,,,,,,,,,,,,,,,,,,,,,,,,,METAR,667.0
CWZW 302100Z AUTO 24004KT 09/M03 RMK AO1 SLP093 T00901029 58005,CWZW,2023-05-30T21:00:00Z,60.17,-132.73,9.0,-2.9,240,4,,,,1009.3,,TRUE,TRUE,,,,,,,,,,,,,,,,-0.5,,,,,,,,,,,METAR,683.0
CWZQ 302100Z AUTO 20009KT 16/03 RMK AO1 SLP188 T01620032 56011,CWZQ,2023-05-30T21:00:00Z,46.53,-61.05,16.2,3.2,200,9,,,,1018.8,,TRUE,TRUE,,,,,,,,,,,,,,,,-1.1,,,,,,,,,,,METAR,13.0
CWZO 302100Z AUTO 17011KT RMK AO1,CWZO,2023-05-30T21:00:00Z,48.57,-123.25,,,170,11,,,,,,TRUE,TRUE,,,,,,,,,,,,,,,,,,,,,,,,,,,METAR,5.0
CWZN 302100Z AUTO 24012KT 05/02 RMK AO1 PK WND 23021/2011 SLP166 T00520021 55008,CWZN,2023-05-30T21:00:00Z,47.37,-55.8,5.2,2.1,240,12,,,,1016.6,,TRUE,TRUE,,,,,,,,,,,,,,,,-0.8,,,,,,,,,,,METAR,63.0
CWZL 302100Z AUTO 18007KT 11/06 RMK AO1 SLP155 T01060057 53007,CWZL,2023-05-30T21:00:00Z,53.03,-131.6,10.6,5.7,180,7,,,,1015.5,,TRUE,TRUE,,,,,,,,,,,,,,,,0.7,,,,,,,,,,,METAR,17.0
CWZG 302100Z AUTO 24005KT 17/03 RMK AO1 PK WND 24022/2022 SLP088 T01710034 53002,CWZG,2023-05-30T21:00:00Z,51.2,-115.55,17.1,3.4,240,5,,,,1008.8,,TRUE,TRUE,,,,,,,,,,,,,,,,0.2,,,,,,,,,,,METAR,1402.0
CWZA 302100Z AUTO 13005KT 16/08 RMK AO1 SLP162 T01560083 58010,CWZA,2023-05-30T21:00:00Z,49.25,-121.77,15.6,8.3,130,5,,,,1016.2,,TRUE,TRUE,,,,,,,,,,,,,,,,-1.0,,,,,,,,,,,METAR,18.0
CWYY 302100Z AUTO 18003KT 26/04 RMK AO1 SLP067 T02620039 58012,CWYY,2023-05-30T21:00:00Z,49.03,-119.43,26.2,3.9,180,3,,,,1006.7,,TRUE,TRUE,,,,,,,,,,,,,,,,-1.2,,,,,,,,,,,METAR,284.0
CWYL 302100Z AUTO 26010G16KT 21/03 RMK AO1 PK WND 24020/2002 SLP080 T02140031 58004,CWYL,2023-05-30T21:00:00Z,51.45,-116.33,21.4,3.1,260,10,16,,,1008.0,,TRUE,TRUE,,,,,,,,,,,,,,,,-0.4,,,,,,,,,,,METAR,1602.0
CWYJ 302100Z AUTO 23005KT 17/04 RMK AO1 SLP165 T01730035 58004,CWYJ,2023-05-30T21:00:00Z,48.45,-123.3,17.3,3.5,230,5,,,,1016.5,,TRUE,TRUE,,,,,,,,,,,,,,,,-0.4,,,,,,,,,,,METAR,59.0
CWXL 302100Z AUTO 27007G15KT 27/06 RMK AO1 SLP057 T02730055 58012,CWXL,2023-05-30T21:00:00Z,49.73,-111.45,27.3,5.5,270,7,15,,,1005.7,,TRUE,TRUE,,,,,,,,,,,,,,,,-1.2,,,,,,,,,,,METAR,815.0
CWXI 302100Z AUTO 20021KT 05/04 RMK AO1 PK WND 20027/2025 SLP101 T00530035 56005,CWXI,2023-05-30T21:00:00Z,51.02,-57.1,5.3,3.5,200,21,,,,1010.1,,TRUE,TRUE,,,,,,,,,,,,,,,,-0.5,,,,,,,,,,,METAR,15.0
CWXC 302100Z AUTO 25005KT 27/M00 RMK AO1 SLP158 T02711001 58012,CWXC,2023-05-30T21:00:00Z,48.88,-71.03,27.1,-0.1,250,5,,,,1015.8,,TRUE,TRUE,,,,,,,,,,,,,,,,-1.2,,,,,,,,,,,METAR,306.0
CWXA 302100Z AUTO 00027KT 22/01 RMK AO1 SLP081 T02190010 58006,CWXA,2023-05-30T21:00:00Z,51.07,-115.07,21.9,1.0,0,27,,,,1008.1,,TRUE,TRUE,,,,,,,,,,,,,,,,-0.6,,,,,,,,,,,METAR,1303.0
CWWZ 302100Z AUTO 06009KT 16/13 RMK AO1 SLP183 T01640130 56013,CWWZ,2023-05-30T21:00:00Z,43.25,-79.22,16.4,13.0,60,9,,,,1018.3,,TRUE,TRUE,,,,,,,,,,,,,,,,-1.3,,,,,,,,,,,METAR,75.0
CWWS 302100Z AUTO 32012KT 08/08 RMK AO1 SLP062 T00810078 51004,CWWS,2023-05-30T21:00:00Z,52.82,-97.62,8.1,7.8,320,12,,,,1006.2,,TRUE,TRUE,,,,,,,,,,,,,,,,0.4,,,,,,,,,,,METAR,220.0
CWWL 302100Z AUTO 17018KT 11/06 RMK AO1 PK WND 17022/2016 SLP148 T01110060 53003,CWWL,2023-05-30T21:00:00Z,53.5,-130.63,11.1,6.0,170,18,,,,1014.8,,TRUE,TRUE,,,,,,,,,,,,,,,,0.3,,,,,,,,,,,METAR,8.0
CWWK 302100Z AUTO 24003KT 17/07 RMK AO1 SLP175 T01660074 55001,CWWK,2023-05-30T21:00:00Z,49.02,-122.78,16.6,7.4,240,3,,,,1017.5,,TRUE,TRUE,,,,,,,,,,,,,,,,-0.1,,,,,,,,,,,METAR,10.0
CWWF 302100Z AUTO 28005KT 27/06 RMK AO1 SLP071 T02700062 58009,CWWF,2023-05-30T21:00:00Z,49.7,-103.8,27.0,6.2,280,5,,,,1007.1,,TRUE,TRUE,,,,,,,,,,,,,,,,-0.9,,,,,,,,,,,METAR,583.0
CWWE 302100Z AUTO 21015G20KT RMK AO1 PK WND 21021/2044 57013,CWWE,2023-05-30T21:00:00Z,43.98,-64.67,,,210,15,20,,,,,TRUE,TRUE,,,,,,,,,,,,,,,,-1.3,,,,,,,,,,,METAR,4.0
CWWB 302100Z AUTO 02006KT 16/14 RMK AO1 SLP184 T01590136 56011,CWWB,2023-05-30T21:00:00Z,43.3,-79.78,15.9,13.6,20,6,,,,1018.4,,TRUE,TRUE,,,,,,,,,,,,,,,,-1.1,,,,,,,,,,,METAR,77.0
CWWA 302100Z AUTO 18001KT 14/08 RMK AO1 SLP170 T01400083 53002,CWWA,2023-05-30T21:00:00Z,49.35,-123.18,14.0,8.3,180,1,,,,1017.0,,TRUE,TRUE,,,,,,,,,,,,,,,,0.2,,,,,,,,,,,METAR,172.0
CWVU 302100Z AUTO 20012G19KT 13/05 RMK AO1 PK WND 20020/2049 SLP225 T01270052 56007,CWVU,2023-05-30T21:00:00Z,44.28,-66.33,12.7,5.2,200,12,19,,,1022.5,,TRUE,TRUE,,,,,,,,,,,,,,,,-0.7,,,,,,,,,,,METAR,4.0
CWVT 302100Z AUTO 33005KT 24/01 RMK AO1 SLP094 T02390007 58011,CWVT,2023-05-30T21:00:00Z,55.83,-108.42,23.9,0.7,330,5,,,,1009.4,,TRUE,TRUE,,,,,,,,,,,,,,,,-1.1,,,,,,,,,,,METAR,431.0
CWVQ 302100Z AUTO 15005KT 27/12 RMK AO1 SLP177 T02740123 56015,CWVQ,2023-05-30T21:00:00Z,45.42,-73.92,27.4,12.3,150,5,,,,1017.7,,TRUE,TRUE,,,,,,,,,,,,,,,,-1.5,,,,,,,,,,,METAR,38.0
CWVP 302100Z AUTO 23010G15KT 23/04 RMK AO1 SLP072 T02310043 58005,CWVP,2023-05-30T21:00:00Z,49.63,-109.52,23.1,4.3,230,10,15,,,1007.2,,TRUE,TRUE,,,,,,,,,,,,,,,,-0.5,,,,,,,,,,,METAR,1269.0
CWVN 302100Z AUTO 24007KT 27/07 RMK AO1 SLP069 T02740070 58012,CWVN,2023-05-30T21:00:00Z,49.07,-107.58,27.4,7.0,240,7,,,,1006.9,,TRUE,TRUE,,,,,,,,,,,,,,,,-1.2,,,,,,,,,,,METAR,792.0
CWVF 302100Z AUTO 18003KT 16/08 RMK AO1 T01570084,CWVF,2023-05-30T21:00:00Z,49.1,-123.3,15.7,8.4,180,3,,,,,,TRUE,TRUE,,,,,,,,,,,,,,,,,,,,,,,,,,,METAR,13.0
CWUX 302100Z AUTO 31005KT 28/04 RMK AO1 SLP158 T02810041 57013,CWUX,2023-05-30T21:00:00Z,48.3,-70.93,28.1,4.1,310,5,,,,1015.8,,TRUE,TRUE,,,,,,,,,,,,,,,,-1.3,,,,,,,,,,,METAR,150.0
CWUW 302100Z AUTO 08027G36KT ////SM ////// M06/M06 A2955,CWUW,2023-05-30T21:00:00Z,68.62,-71.12,-6.0,-6.0,80,27,36,,29.551182,,,TRUE,,,,,,,,,,,,,,,,,,,,,,,,,,,,SPECI,173.0
CWUS 302100Z AUTO 09004KT 24/04 RMK AO1 SLP076 T02370040 58014,CWUS,2023-05-30T21:00:00Z,49.57,-119.65,23.7,4.0,90,4,,,,1007.6,,TRUE,TRUE,,,,,,,,,,,,,,,,-1.4,,,,,,,,,,,METAR,455.0
CWTY 302100Z AUTO 21008KT 20/11 RMK AO1 SLP177 T02000109 56017,CWTY,2023-05-30T21:00:00Z,46.35,-72.52,20.0,10.9,210,8,,,,1017.7,,TRUE,TRUE,,,,,,,,,,,,,,,,-1.7,,,,,,,,,,,METAR,8.0
CWTT 302100Z AUTO 21003KT 26/10 RMK AO1 T02570103,CWTT,2023-05-30T21:00:00Z,45.27,-72.17,25.7,10.3,210,3,,,,,,TRUE,TRUE,,,,,,,,,,,,,,,,,,,,,,,,,,,METAR,210.0
CWTN 302100Z AUTO 25005KT 26/05 RMK AO1 SLP165 T02630052 57017,CWTN,2023-05-30T21:00:00Z,47.07,-70.78,26.3,5.2,250,5,,,,1016.5,,TRUE,TRUE,,,,,,,,,,,,,,,,-1.7,,,,,,,,,,,METAR,5.0
CWTG 302100Z AUTO 26015KT 12/07 RMK AO1 PK WND 25018/2044 SLP136 T01190068 56019,CWTG,2023-05-30T21:00:00Z,49.32,-67.37,11.9,6.8,260,15,,,,1013.6,,TRUE,TRUE,,,,,,,,,,,,,,,,-1.9,,,,,,,,,,,METAR,6.0
CWTA 302100Z AUTO 22001KT 28/12 RMK AO1 SLP177 T02770115 56016,CWTA,2023-05-30T21:00:00Z,45.5,-73.58,27.7,11.5,220,1,,,,1017.7,,TRUE,TRUE,,,,,,,,,,,,,,,,-1.6,,,,,,,,,,,METAR,71.0
CWSW 302100Z 19008G18KT 120V290 20SM SCT070 SCT130 SCT220 23/03 A2978 RMK CU3AC1CI1 AC TR CI TR SLP075 DENSITY ALT 5800FT,CWSW,2023-05-30T21:00:00Z,49.83,-114.87,23.0,3.0,190,8,18,20.0,29.778543,1007.5,,,,,,,,,,SCT,7000,SCT,13000,SCT,22000,,,VFR,,,,,,,,,,,,SPECI,1173.0
CWST 302100Z AUTO 24014G21KT 27/05 RMK AO1 PK WND 23021/2052 SLP160 T02700052 56018,CWST,2023-05-30T21:00:00Z,47.35,-70.02,27.0,5.2,240,14,21,,,1016.0,,TRUE,TRUE,,,,,,,,,,,,,,,,-1.8,,,,,,,,,,,METAR,31.0
CWSS 302100Z AUTO 20010G16KT 23/06 RMK AO1 PK WND 22020/2020 SLP195 T02290057 56010,CWSS,2023-05-30T21:00:00Z,45.2,-67.25,22.9,5.7,200,10,16,,,1019.5,,TRUE,TRUE,,,,,,,,,,,,,,,,-1.0,,,,,,,,,,,METAR,27.0
CWSR 302100Z AUTO 33010KT 22/09 RMK AO1 SLP079 T02160094 56007,CWSR,2023-05-30T21:00:00Z,53.37,-107.55,21.6,9.4,330,10,,,,1007.9,,TRUE,TRUE,,,,,,,,,,,,,,,,-0.7,,,,,,,,,,,METAR,589.0
CWSP 302100Z AUTO 29021KT 10/06 RMK AO1 PK WND 29028/2007 SLP176 T01020061 55003,CWSP,2023-05-30T21:00:00Z,48.38,-123.92,10.2,6.1,290,21,,,,1017.6,,TRUE,TRUE,,,,,,,,,,,,,,,,-0.3,,,,,,,,,,,METAR,2.0
CWSL 302100Z AUTO 36004KT 24/08 RMK AO1 SLP079 T02430076 57013,CWSL,2023-05-30T21:00:00Z,50.7,-119.28,24.3,7.6,360,4,,,,1007.9,,TRUE,TRUE,,,,,,,,,,,,,,,,-1.3,,,,,,,,,,,METAR,353.0
CWSK 302100Z AUTO 15010G17KT 18/07 RMK AO1 PK WND 16026/2033 SLP137 T01810067 55002,CWSK,2023-05-30T21:00:00Z,49.78,-123.17,18.1,6.7,150,10,17,,,1013.7,,TRUE,TRUE,,,,,,,,,,,,,,,,-0.2,,,,,,,,,,,METAR,59.0
CWSG 302100Z AUTO 27017KT 14/07 RMK AO1 PK WND 26020/2023 SLP136 T01410070 56019,CWSG,2023-05-30T21:00:00Z,49.12,-66.65,14.1,7.0,270,17,,,,1013.6,,TRUE,TRUE,,,,,,,,,,,,,,,,-1.9,,,,,,,,,,,METAR,5.0
CWSF 302100Z AUTO 28015G20KT 18/04 RMK AO1 PK WND 28021/2028 SLP120 T01840035 57024,CWSF,2023-05-30T21:00:00Z,49.25,-65.32,18.4,3.5,280,15,20,,,1012.0,,TRUE,TRUE,,,,,,,,,,,,,,,,-2.4,,,,,,,,,,,METAR,15.0
CWSD 302100Z AUTO 19013KT 21/07 RMK AO1 PK WND 19017/2043 SLP175 T02060072 56015,CWSD,2023-05-30T21:00:00Z,46.43,-63.85,20.6,7.2,190,13,,,,1017.5,,TRUE,TRUE,,,,,,,,,,,,,,,,-1.5,,,,,,,,,,,METAR,12.0
CWSA 302100Z AUTO 24009KT 9SM 09/05 A3021 RMK CLD MISG SLP230,CWSA,2023-05-30T21:00:00Z,43.93,-60.0,9.0,5.0,240,9,,9.0,30.209646,1023.0,,TRUE,,,,,,,,,,,,,,,,,,,,,,,,,,,,SPECI,4.0
CWRZ 302100Z AUTO 08003KT 13/07 RMK AO1 SLP133 T01260071 56024,CWRZ,2023-05-30T21:00:00Z,48.42,-64.32,12.6,7.1,80,3,,,,1013.3,,TRUE,TRUE,,,,,,,,,,,,,,,,-2.4,,,,,,,,,,,METAR,16.0
CWRY 302100Z AUTO 28005KT 26/04 RMK AO1 SLP071 T02560035 58011,CWRY,2023-05-30T21:00:00Z,49.12,-112.05,25.6,3.5,280,5,,,,1007.1,,TRUE,TRUE,,,,,,,,,,,,,,,,-1.1,,,,,,,,,,,METAR,1048.0
CWRX 302100Z AUTO ///// ////SM ////// M01/M05 A2979,CWRX,2023-05-30T21:00:00Z,69.07,-79.07,-1.0,-5.0,,,,,29.790354,,,TRUE,,,,,,,,,,,,,,,,,,,,,,,,,,,,SPECI,39.0
CWRU 302100Z AUTO 28004KT 12/ RMK AO1 SLP191 T0120 51005,CWRU,2023-05-30T21:00:00Z,50.12,-127.93,12.0,,280,4,,,,1019.1,,TRUE,TRUE,,,,,,,,,,,,,,,,0.5,,,,,,,,,,,METAR,76.0
CWRO 302100Z AUTO 20009KT 10/ RMK AO1 PK WND 16022/2011 SLP140 T0102 53008,CWRO,2023-05-30T21:00:00Z,54.17,-131.67,10.2,,200,9,,,,1014.0,,TRUE,TRUE,,,,,,,,,,,,,,,,0.8,,,,,,,,,,,METAR,7.0
CWRN 302100Z AUTO 21019KT 11/01 RMK AO1 PK WND 21023/2005 SLP205 T01100014 56004,CWRN,2023-05-30T21:00:00Z,45.35,-60.98,11.0,1.4,210,19,,,,1020.5,,TRUE,TRUE,,,,,,,,,,,,,,,,-0.4,,,,,,,,,,,METAR,8.0
CWRM 302100Z AUTO 11005KT 23/06 RMK AO1 SLP022 T02340060 56014,CWRM,2023-05-30T21:00:00Z,52.42,-114.92,23.4,6.0,110,5,,,,1002.2,,TRUE,TRUE,,,,,,,,,,,,,,,,-1.4,,,,,,,,,,,METAR,986.0
CWRK 302100Z AUTO 24003KT 28/04 RMK AO1 SLP182 T02810043 56009,CWRK,2023-05-30T21:00:00Z,45.07,-77.87,28.1,4.3,240,3,,,,1018.2,,TRUE,TRUE,,,,,,,,,,,,,,,,-0.9,,,,,,,,,,,METAR,328.0
CWRJ 302100Z AUTO 06011G18KT 21/12 RMK AO1 3PAST HR 8011 PK WND 05020/2008 SLP055 P0001 T02110119 50021,CWRJ,2023-05-30T21:00:00Z,51.57,-107.92,21.1,11.9,60,11,18,,,1005.5,,TRUE,TRUE,,,,,,,,,,,,,,,,2.1,,,,,0.01,,,,,,METAR,586.0
CWRA 302100Z AUTO 25015KT 05/03 RMK AO1 PK WND 25023/2009 SLP178 T00450027 58006,CWRA,2023-05-30T21:00:00Z,46.65,-53.07,4.5,2.7,250,15,,,,1017.8,,TRUE,TRUE,,,,,,,,,,,,,,,,-0.6,,,,,,,,,,,METAR,4.0
CWQV 302100Z AUTO 28014G21KT 28/ RMK AO1 PK WND 28022/2040 T0283,CWQV,2023-05-30T21:00:00Z,48.27,-70.12,28.3,,280,14,21,,,,,TRUE,TRUE,,,,,,,,,,,,,,,,,,,,,,,,,,,METAR,4.0
CWQS 302100Z AUTO 19008KT 09/04 RMK AO1 SLP144 T00910044 53009,CWQS,2023-05-30T21:00:00Z,53.32,-132.77,9.1,4.4,190,8,,,,1014.4,,TRUE,TRUE,,,,,,,,,,,,,,,,0.9,,,,,,,,,,,METAR,10.0
CWQR 302100Z AUTO 25007KT 10/06 RMK AO1 T00990062,CWQR,2023-05-30T21:00:00Z,50.22,-64.22,9.9,6.2,250,7,,,,,,TRUE,TRUE,,,,,,,,,,,,,,,,,,,,,,,,,,,METAR,9.0
CWQP 302100Z AUTO 17005KT 19/14 RMK AO1 SLP191 T01930144 58010,CWQP,2023-05-30T21:00:00Z,43.83,-77.15,19.3,14.4,170,5,,,,1019.1,,TRUE,TRUE,,,,,,,,,,,,,,,,-1.0,,,,,,,,,,,METAR,77.0
CWQO 302100Z AUTO 23017KT 17/06 RMK AO1 PK WND 23021/2059 T01710063,CWQO,2023-05-30T21:00:00Z,48.42,-68.9,17.1,6.3,230,17,,,,,,TRUE,TRUE,,,,,,,,,,,,,,,,,,,,,,,,,,,METAR,7.0
CWQK 302100Z AUTO 29029KT 12/03 RMK AO1 PK WND 29035/2039 SLP164 T01220028 58008,CWQK,2023-05-30T21:00:00Z,48.3,-123.53,12.2,2.8,290,29,,,,1016.4,,TRUE,TRUE,,,,,,,,,,,,,,,,-0.8,,,,,,,,,,,METAR,5.0
CWQH 302100Z AUTO 27005KT 28/11 RMK AO1 SLP185 T02750109 56015,CWQH,2023-05-30T21:00:00Z,45.37,-71.82,27.5,10.9,270,5,,,,1018.5,,TRUE,TRUE,,,,,,,,,,,,,,,,-1.5,,,,,,,,,,,METAR,181.0
CWPZ 302100Z AUTO 24004KT 11/M04 RMK AO1 SLP132 T01141038 50004,CWPZ,2023-05-30T21:00:00Z,54.38,-125.97,11.4,-3.8,240,4,,,,1013.2,,TRUE,TRUE,,,,,,,,,,,,,,,,0.4,,,,,,,,,,,METAR,715.0
CWPR 302100Z AUTO 29009G15KT 21/03 RMK AO1 SLP094 T02110028 56009,CWPR,2023-05-30T21:00:00Z,49.47,-120.52,21.1,2.8,290,9,15,,,1009.4,,TRUE,TRUE,,,,,,,,,,,,,,,,-0.9,,,,,,,,,,,METAR,703.0
CWPO 302100Z AUTO 30011G20KT 27/15 RMK AO1 PK WND 28020/2058 SLP071 T02690147 55007,CWPO,2023-05-30T21:00:00Z,49.2,-98.9,26.9,14.7,300,11,20,,,1007.1,,TRUE,TRUE,,,,,,,,,,,,,,,,-0.7,,,,,,,,,,,METAR,471.0
CWPK 302100Z AUTO 27004KT 28/01 RMK AO1 SLP174 T02790013 58015,CWPK,2023-05-30T21:00:00Z,47.92,-74.62,27.9,1.3,270,4,,,,1017.4,,TRUE,TRUE,,,,,,,,,,,,,,,,-1.5,,,,,,,,,,,METAR,443.0
CWPE 302100Z AUTO 22012G18KT 13/06 RMK AO1 PK WND 24018/2059 SLP210 T01300060 58009,CWPE,2023-05-30T21:00:00Z,45.07,-66.47,13.0,6.0,220,12,18,,,1021.0,,TRUE,TRUE,,,,,,,,,,,,,,,,-0.9,,,,,,,,,,,METAR,9.0
CWPD 302100Z AUTO 07004KT 24/M05 RMK AO1 SLP165 T02381052 56008,CWPD,2023-05-30T21:00:00Z,47.57,-71.22,23.8,-5.2,70,4,,,,1016.5,,TRUE,TRUE,,,,,,,,,,,,,,,,-0.8,,,,,,,,,,,METAR,795.0
CWOY 302100Z AUTO 03005KT 27/07 RMK AO1 SLP067 T02650074 58004,CWOY,2023-05-30T21:00:00Z,51.77,-104.2,26.5,7.4,30,5,,,,1006.7,,TRUE,TRUE,,,,,,,,,,,,,,,,-0.4,,,,,,,,,,,METAR,557.0
CWOE 302100Z AUTO 17007KT 26/06 RMK AO1 SLP067 T02590057 58011,CWOE,2023-05-30T21:00:00Z,49.12,-110.47,25.9,5.7,170,7,,,,1006.7,,TRUE,TRUE,,,,,,,,,,,,,,,,-1.1,,,,,,,,,,,METAR,931.0
CWOD 302100Z AUTO 09010KT 26/07 RMK AO1 SLP153 T02630069 56013,CWOD,2023-05-30T21:00:00Z,48.85,-72.55,26.3,6.9,90,10,,,,1015.3,,TRUE,TRUE,,,,,,,,,,,,,,,,-1.3,,,,,,,,,,,METAR,150.0
CWOC 302100Z AUTO 24004KT 22/04 RMK AO1 SLP142 T02150039 56019,CWOC,2023-05-30T21:00:00Z,48.02,-65.32,21.5,3.9,240,4,,,,1014.2,,TRUE,TRUE,,,,,,,,,,,,,,,,-1.9,,,,,,,,,,,METAR,42.0
CWOB 302100Z AUTO 21010KT ////SM ////// ///// A2958,CWOB,2023-05-30T21:00:00Z,63.33,-64.15,,,210,10,,,29.58071,,,TRUE,,,,,,,,,,,,,,,,,,,,,,,,,,,,SPECI,369.0
CWNZ 302100Z AUTO 22010G16KT 30/06 RMK AO1 PK WND 18017/2003 SLP124 T03010058 56013,CWNZ,2023-05-30T21:00:00Z,49.75,-84.17,30.1,5.8,220,10,16,,,1012.4,,TRUE,TRUE,,,,,,,,,,,,,,,,-1.3,,,,,,,,,,,METAR,261.0
CWNQ 302100Z AUTO 31003KT 25/07 RMK AO1 SLP178 T02510073 56017,CWNQ,2023-05-30T21:00:00Z,46.22,-72.65,25.1,7.3,310,3,,,,1017.8,,TRUE,TRUE,,,,,,,,,,,,,,,,-1.7,,,,,,,,,,,METAR,9.0
CWNP 302100Z AUTO 33003KT 26/04 RMK AO1 SLP056 T02630041 56016,CWNP,2023-05-30T21:00:00Z,50.27,-117.82,26.3,4.1,330,3,,,,1005.6,,TRUE,TRUE,,,,,,,,,,,,,,,,-1.6,,,,,,,,,,,METAR,517.0
CWNM 302100Z AUTO 27012KT 24/05 RMK AO1 SLP063 T02430049 56015,CWNM,2023-05-30T21:00:00Z,49.5,-117.3,24.3,4.9,270,12,,,,1006.3,,TRUE,TRUE,,,,,,,,,,,,,,,,-1.5,,,,,,,,,,,METAR,533.0
CWNK 302100Z AUTO 31003KT 28/14 RMK AO1 SLP053 T02750136 56004,CWNK,2023-05-30T21:00:00Z,49.5,-98.03,27.5,13.6,310,3,,,,1005.3,,TRUE,TRUE,,,,,,,,,,,,,,,,-0.4,,,,,,,,,,,METAR,271.0
CWNH 302100Z AUTO 21006G15KT 24/05 RMK AO1 SLP166 T02400046 58014,CWNH,2023-05-30T21:00:00Z,47.8,-69.53,24.0,4.6,210,6,15,,,1016.6,,TRUE,TRUE,,,,,,,,,,,,,,,,-1.4,,,,,,,,,,,METAR,147.0
CWNE 302100Z AUTO 21012KT 20/05 RMK AO1 SLP154 T02040054 56021,CWNE,2023-05-30T21:00:00Z,47.07,-64.0,20.4,5.4,210,12,,,,1015.4,,TRUE,TRUE,,,,,,,,,,,,,,,,-2.1,,,,,,,,,,,METAR,5.0
CWND 302100Z AUTO 04007KT 06/02 RMK AO1 SLP995 T00570017 58001,CWND,2023-05-30T21:00:00Z,69.63,-135.43,5.7,1.7,40,7,,,,999.5,,TRUE,TRUE,,,,,,,,,,,,,,,,-0.1,,,,,,,,,,,METAR,14.0
CWNC 302100Z AUTO 14003KT 16/13 RMK AO1 SLP189 T01640131 57008,CWNC,2023-05-30T21:00:00Z,43.95,-78.17,16.4,13.1,140,3,,,,1018.9,,TRUE,TRUE,,,,,,,,,,,,,,,,-0.8,,,,,,,,,,,METAR,71.0
CWMQ 302100Z AUTO 29004KT 27/07 RMK AO1 SLP053 T02730072 58012,CWMQ,2023-05-30T21:00:00Z,49.9,-109.47,27.3,7.2,290,4,,,,1005.3,,TRUE,TRUE,,,,,,,,,,,,,,,,-1.2,,,,,,,,,,,METAR,767.0
CWMM 302100Z AUTO 24004KT 18/07 RMK AO1 SLP167 T01810074 55003,CWMM,2023-05-30T21:00:00Z,49.22,-122.68,18.1,7.4,240,4,,,,1016.7,,TRUE,TRUE,,,,,,,,,,,,,,,,-0.3,,,,,,,,,,,METAR,2.0
CWMJ 302100Z AUTO 14003KT 28/01 RMK AO1 SLP179 T02780011 56014,CWMJ,2023-05-30T21:00:00Z,46.27,-76.0,27.8,1.1,140,3,,,,1017.9,,TRUE,TRUE,,,,,,,,,,,,,,,,-1.4,,,,,,,,,,,METAR,198.0
CWME 302100Z AUTO 21007KT 12/04 RMK AO1 SLP174 T01160035 53001,CWME,2023-05-30T21:00:00Z,52.18,-127.47,11.6,3.5,210,7,,,,1017.4,,TRUE,TRUE,,,,,,,,,,,,,,,,0.1,,,,,,,,,,,METAR,23.0
CWLY 302100Z AUTO 19017G33KT 9SM CLR 22/03 A2977 RMK SLP082 DENSITY ALT 2000FT,CWLY,2023-05-30T21:00:00Z,50.22,-121.58,22.0,3.0,190,17,33,9.0,29.769686,1008.2,,TRUE,,,,,,,,CLR,,,,,,,,VFR,,,,,,,,,,,,SPECI,228.0
CWLX 302100Z AUTO ///// ////SM ////// M03/M03 A2968,CWLX,2023-05-30T21:00:00Z,68.9,-75.15,-3.0,-3.0,,,,,29.681103,,,TRUE,,,,,,,,,,,,,,,,,,,,,,,,,,,,SPECI,129.0
CWLS 302100Z AUTO 18004KT 29/11 RMK AO1 SLP176 T02900111 56010,CWLS,2023-05-30T21:00:00Z,43.97,-80.75,29.0,11.1,180,4,,,,1017.6,,TRUE,TRUE,,,,,,,,,,,,,,,,-1.0,,,,,,,,,,,METAR,413.0
CWLP 302100Z AUTO 30008KT 12/07 RMK AO1 SLP188 T01160069 52006,CWLP,2023-05-30T21:00:00Z,50.93,-127.63,11.6,6.9,300,8,,,,1018.8,,TRUE,TRUE,,,,,,,,,,,,,,,,0.6,,,,,,,,,,,METAR,15.0
CWLM 302100Z AUTO 25017G26KT 17/03 RMK AO1 PK WND 25026/2037 SLP166 T01650032 57005,CWLM,2023-05-30T21:00:00Z,48.42,-123.32,16.5,3.2,250,17,26,,,1016.6,,TRUE,TRUE,,,,,,,,,,,,,,,,-0.5,,,,,,,,,,,METAR,62.0
CWLE 302100Z AUTO 20006G15KT 28/06 RMK AO1 SLP057 T02840062 58013,CWLE,2023-05-30T21:00:00Z,50.95,-107.15,28.4,6.2,200,6,15,,,1005.7,,TRUE,TRUE,,,,,,,,,,,,,,,,-1.3,,,,,,,,,,,METAR,666.0
CWLC 302100Z AUTO 13022KT 09/05 RMK AO1 PK WND 13024/2058 T00930053,CWLC,2023-05-30T21:00:00Z,54.3,-130.62,9.3,5.3,130,22,,,,,,TRUE,TRUE,,,,,,,,,,,,,,,,,,,,,,,,,,,METAR,27.0
CWLB 302100Z AUTO 12008G19KT 23/02 RMK AO1 PK WND 11019/2059 SLP070 T02340020 58014,CWLB,2023-05-30T21:00:00Z,54.77,-112.02,23.4,2.0,120,8,19,,,1007.0,,TRUE,TRUE,,,,,,,,,,,,,,,,-1.4,,,,,,,,,,,METAR,561.0
CWKX 302100Z AUTO 08002KT 06/M01 RMK AO1 2PAST HR 7001 SLP114 P0001 T00551014 50002,CWKX,2023-05-30T21:00:00Z,58.43,-130.02,5.5,-1.4,80,2,,,,1011.4,,TRUE,TRUE,,,,,,,,,,,,,,,,0.2,,,,,0.01,,,,,,METAR,807.0
CWKO 302100Z AUTO 21012KT 20/08 RMK AO1 PK WND 23022/2016 SLP088 T02040075 58010,CWKO,2023-05-30T21:00:00Z,49.17,-105.97,20.4,7.5,210,12,,,,1008.8,,TRUE,TRUE,,,,,,,,,,,,,,,,-1.0,,,,,,,,,,,METAR,914.0
CWKM 302100Z AUTO 35003KT ////SM NCD 05/01 A2960,CWKM,2023-05-30T21:00:00Z,69.6,-140.17,5.0,1.0,350,3,,,29.601377,,,TRUE,,,,,,,,CLR,,,,,,,,,,,,,,,,,,,,SPECI,8.0
CWKH 302100Z AUTO 15/06 RMK AO1 SLP152 T01540060 56002,CWKH,2023-05-30T21:00:00Z,48.57,-123.55,15.4,6.0,,,,,,1015.2,,TRUE,TRUE,,,,,,,,,,,,,,,,-0.2,,,,,,,,,,,METAR,327.0
CWKG 302100Z AUTO 28007KT 21/02 RMK AO1 SLP215 T02100017 56004,CWKG,2023-05-30T21:00:00Z,44.43,-65.2,21.0,1.7,280,7,,,,1021.5,,TRUE,TRUE,,,,,,,,,,,,,,,,-0.4,,,,,,,,,,,METAR,154.0
CWKD 302100Z AUTO 24/01 RMK AO1 SLP148 T02420012 56014,CWKD,2023-05-30T21:00:00Z,50.73,-71.02,24.2,1.2,,,,,,1014.8,,TRUE,TRUE,,,,,,,,,,,,,,,,-1.4,,,,,,,,,,,METAR,496.0
CWJX 302100Z AUTO 22012G18KT 29/04 RMK AO1 SOG 02 6011 PK WND 21021/2031 SLP038 T02890044,CWJX,2023-05-30T21:00:00Z,50.88,-109.5,28.9,4.4,220,12,18,,,1003.8,,TRUE,TRUE,,,,,,,,,,,,,,,,,,,,,,,,,,,METAR,671.0
CWJW 302100Z AUTO 18005KT 22/01 RMK AO1 SOG 01 8002 SLP052 T02210005,CWJW,2023-05-30T21:00:00Z,52.93,-118.03,22.1,0.5,180,5,,,,1005.2,,TRUE,TRUE,,,,,,,,,,,,,,,,,,,,,,,,,,,METAR,1022.0
CWJV 302100Z AUTO 31003KT 25/01 RMK AO1 SLP078 T02540006 56013,CWJV,2023-05-30T21:00:00Z,50.22,-119.18,25.4,0.6,310,3,,,,1007.8,,TRUE,TRUE,,,,,,,,,,,,,,,,-1.3,,,,,,,,,,,METAR,487.0
CWJU 302100Z AUTO 22010G16KT 10/08 RMK AO1 PK WND 21021/2017 SLP135 T00970078 53009,CWJU,2023-05-30T21:00:00Z,54.25,-133.07,9.7,7.8,220,10,16,,,1013.5,,TRUE,TRUE,,,,,,,,,,,,,,,,0.9,,,,,,,,,,,METAR,47.0
CWJR 302100Z AUTO 17007KT 26/08 RMK AO1 SLP070 T02570082 56013,CWJR,2023-05-30T21:00:00Z,49.03,-116.5,25.7,8.2,170,7,,,,1007.0,,TRUE,TRUE,,,,,,,,,,,,,,,,-1.3,,,,,,,,,,,METAR,642.0
CWJO 302100Z AUTO 00032KT 29/04 RMK AO1 SLP154 T02910044 56015,CWJO,2023-05-30T21:00:00Z,48.43,-71.15,29.1,4.4,0,32,,,,1015.4,,TRUE,TRUE,,,,,,,,,,,,,,,,-1.5,,,,,,,,,,,METAR,113.0
CWJI 302100Z AUTO 19007G15KT 27/07 RMK AO1 PK WND 24017/2006 SLP070 T02730066 58012,CWJI,2023-05-30T21:00:00Z,49.72,-105.93,27.3,6.6,190,7,15,,,1007.0,,TRUE,TRUE,,,,,,,,,,,,,,,,-1.2,,,,,,,,,,,METAR,724.0
CWJH 302100Z AUTO 05005KT 21/06 RMK AO1 SLP090 T02100060 56001,CWJH,2023-05-30T21:00:00Z,56.32,-103.27,21.0,6.0,50,5,,,,1009.0,,TRUE,TRUE,,,,,,,,,,,,,,,,-0.1,,,,,,,,,,,METAR,345.0
CWJD 302100Z AUTO 07002KT 22/14 RMK AO1 SLP065 T02160137 53003,CWJD,2023-05-30T21:00:00Z,53.18,-99.27,21.6,13.7,70,2,,,,1006.5,,TRUE,TRUE,,,,,,,,,,,,,,,,0.3,,,,,,,,,,,METAR,222.0
CWJC 302100Z AUTO 16007KT 09/07 RMK AO1 SLP134 T00870072 53013,CWJC,2023-05-30T21:00:00Z,61.13,-100.9,8.7,7.2,160,7,,,,1013.4,,TRUE,TRUE,,,,,,,,,,,,,,,,1.3,,,,,,,,,,,METAR,340.0
CWJB 302100Z AUTO 26/06 RMK AO1 T02590057,CWJB,2023-05-30T21:00:00Z,46.78,-71.28,25.9,5.7,,,,,,,,TRUE,TRUE,,,,,,,,,,,,,,,,,,,,,,,,,,,METAR,90.0
CWIZ 302100Z AUTO 21005KT 28/10 RMK AO1 T02780100,CWIZ,2023-05-30T21:00:00Z,45.28,-73.33,27.8,10.0,210,5,,,,,,TRUE,TRUE,,,,,,,,,,,,,,,,,,,,,,,,,,,METAR,45.0
CWIW 302100Z AUTO 06004KT 28/08 RMK AO1 SLP064 T02780081 58007,CWIW,2023-05-30T21:00:00Z,51.67,-105.4,27.8,8.1,60,4,,,,1006.4,,TRUE,TRUE,,,,,,,,,,,,,,,,-0.7,,,,,,,,,,,METAR,524.0
CWIT 302100Z AUTO 17006KT 27/12 RMK AO1 SLP177 T02680121 56011,CWIT,2023-05-30T21:00:00Z,45.17,-73.67,26.8,12.1,170,6,,,,1017.7,,TRUE,TRUE,,,,,,,,,,,,,,,,-1.1,,,,,,,,,,,METAR,53.0
CWIS 302100Z AUTO 22008G15KT 22/02 RMK AO1 PK WND 19017/2041 SLP194 T02170015 56011,CWIS,2023-05-30T21:00:00Z,47.28,-70.63,21.7,1.5,220,8,15,,,1019.4,,TRUE,TRUE,,,,,,,,,,,,,,,,-1.1,,,,,,,,,,,METAR,720.0
CWIP 302100Z AUTO 21017G25KT 23/01 RMK AO1 PK WND 21025/2055 T02290007,CWIP,2023-05-30T21:00:00Z,50.17,-66.43,22.9,0.7,210,17,25,,,,,TRUE,TRUE,,,,,,,,,,,,,,,,,,,,,,,,,,,METAR,27.0
CWIL 302100Z AUTO ///// ////SM OVC008 M03/M05 A3013,CWIL,2023-05-30T21:00:00Z,68.32,-100.07,-3.0,-5.0,,,,,30.129921,,,TRUE,,,,,,,,OVC,800,,,,,,,,,,,,,,,,,,,SPECI,28.0
CWIK 302100Z AUTO 03003KT 27/10 RMK AO1 SLP073 T02670101 56007,CWIK,2023-05-30T21:00:00Z,50.37,-102.58,26.7,10.1,30,3,,,,1007.3,,TRUE,TRUE,,,,,,,,,,,,,,,,-0.7,,,,,,,,,,,METAR,597.0
CWIJ 302100Z AUTO 12016G21KT 07/M03 RMK AO1 PK WND 12023/2003 SLP134 T00721027 58001,CWIJ,2023-05-30T21:00:00Z,65.77,-111.23,7.2,-2.7,120,16,21,,,1013.4,,TRUE,TRUE,,,,,,,,,,,,,,,,-0.1,,,,,,,,,,,METAR,490.0
CWII 302100Z AUTO 27002KT 22/15 RMK AO1 SLP051 T02200152 56008,CWII,2023-05-30T21:00:00Z,50.7,-96.57,22.0,15.2,270,2,,,,1005.1,,TRUE,TRUE,,,,,,,,,,,,,,,,-0.8,,,,,,,,,,,METAR,216.0
CWIG 302100Z AUTO 23014KT RMK AO1 PK WND 23020/2012,CWIG,2023-05-30T21:00:00Z,47.07,-70.53,,,230,14,,,,,,TRUE,TRUE,,,,,,,,,,,,,,,,,,,,,,,,,,,METAR,12.0
CWID 302100Z AUTO 34006KT 20/M01 RMK AO1 SLP040 T01951007 58003,CWID,2023-05-30T21:00:00Z,61.32,-117.6,19.5,-0.7,340,6,,,,1004.0,,TRUE,TRUE,,,,,,,,,,,,,,,,-0.3,,,,,,,,,,,METAR,160.0
CWHV 302100Z AUTO 25002KT 27/06 RMK AO1 SLP180 T02670055 57013,CWHV,2023-05-30T21:00:00Z,46.2,-70.78,26.7,5.5,250,2,,,,1018.0,,TRUE,TRUE,,,,,,,,,,,,,,,,-1.3,,,,,,,,,,,METAR,227.0
CWHT 302100Z AUTO 26009G16KT 10/M06 RMK AO1 PK WND 27018/2045 SLP071 T00991062 56009,CWHT,2023-05-30T21:00:00Z,60.77,-137.58,9.9,-6.2,260,9,16,,,1007.1,,TRUE,TRUE,,,,,,,,,,,,,,,,-0.9,,,,,,,,,,,METAR,601.0
CWHQ 302100Z AUTO 18003KT 26/M01 RMK AO1 T02571011,CWHQ,2023-05-30T21:00:00Z,46.68,-71.97,25.7,-1.1,180,3,,,,,,TRUE,TRUE,,,,,,,,,,,,,,,,,,,,,,,,,,,METAR,56.0
CWHP 302100Z AUTO 22013KT 08/06 RMK AO1 SLP134 T00800055 57013,CWHP,2023-05-30T21:00:00Z,49.08,-61.7,8.0,5.5,220,13,,,,1013.4,,TRUE,TRUE,,,,,,,,,,,,,,,,-1.3,,,,,,,,,,,METAR,7.0
CWHO 302100Z AUTO 00018KT 07/06 RMK AO1 SLP046 T00700055 57016,CWHO,2023-05-30T21:00:00Z,55.45,-60.22,7.0,5.5,0,18,,,,1004.6,,TRUE,TRUE,,,,,,,,,,,,,,,,-1.6,,,,,,,,,,,METAR,16.0
CWHL 302100Z AUTO 14014KT 10/05 RMK AO1 PK WND 15024/2026 SLP144 T00980053 51005,CWHL,2023-05-30T21:00:00Z,54.17,-130.35,9.8,5.3,140,14,,,,1014.4,,TRUE,TRUE,,,,,,,,,,,,,,,,0.5,,,,,,,,,,,METAR,5.0
CWHI 302100Z AUTO 22008KT 26/01 RMK AO1 T02560011,CWHI,2023-05-30T21:00:00Z,51.7,-113.22,25.6,1.1,220,8,,,,,,TRUE,TRUE,,,,,,,,,,,,,,,,,,,,,,,,,,,METAR,906.0
CWGY 302100Z AUTO 25008KT 27/08 RMK AO1 SLP038 T02740079 56011,CWGY,2023-05-30T21:00:00Z,51.67,-110.2,27.4,7.9,250,8,,,,1003.8,,TRUE,TRUE,,,,,,,,,,,,,,,,-1.1,,,,,,,,,,,METAR,709.0
CWGW 302100Z AUTO 17008G19KT 23/03 RMK AO1 PK WND 19019/2057 SLP074 T02290030 58010,CWGW,2023-05-30T21:00:00Z,49.75,-114.9,22.9,3.0,170,8,19,,,1007.4,,TRUE,TRUE,,,,,,,,,,,,,,,,-1.0,,,,,,,,,,,METAR,1137.0
CWGT 302100Z AUTO 01007KT 16/07 RMK AO1 SLP167 T01620070 50001,CWGT,2023-05-30T21:00:00Z,49.48,-124.43,16.2,7.0,10,7,,,,1016.7,,TRUE,TRUE,,,,,,,,,,,,,,,,0.1,,,,,,,,,,,METAR,5.0
CWGR 302100Z AUTO 22012KT 18/03 RMK AO1 PK WND 25017/2011 SLP163 T01760034 57017,CWGR,2023-05-30T21:00:00Z,47.42,-61.77,17.6,3.4,220,12,,,,1016.3,,TRUE,TRUE,,,,,,,,,,,,,,,,-1.7,,,,,,,,,,,METAR,4.0
CWGM 302100Z AUTO 22013G20KT 23/03 RMK AO1 SOG 01 7011 PK WND 19021/2036 SLP063 T02270029,CWGM,2023-05-30T21:00:00Z,49.13,-113.8,22.7,2.9,220,13,20,,,1006.3,,TRUE,TRUE,,,,,,,,,,,,,,,,,,,,,,,,,,,METAR,1292.0
CWGL 302100Z AUTO 27005KT 25/08 RMK AO1 SLP171 T02520082 56009,CWGL,2023-05-30T21:00:00Z,44.53,-79.22,25.2,8.2,270,5,,,,1017.1,,TRUE,TRUE,,,,,,,,,,,,,,,,-0.9,,,,,,,,,,,METAR,220.0
CWGH 302100Z AUTO 19003KT 25/09 RMK AO1 SLP187 T02480092,CWGH,2023-05-30T21:00:00Z,44.42,-75.85,24.8,9.2,190,3,,,,1018.7,,TRUE,TRUE,,,,,,,,,,,,,,,,,,,,,,,,,,,METAR,76.0
CWGD 302100Z AUTO 30003KT 27/12 RMK AO1 SLP169 T02700122 57010,CWGD,2023-05-30T21:00:00Z,43.77,-81.72,27.0,12.2,300,3,,,,1016.9,,TRUE,TRUE,,,,,,,,,,,,,,,,-1.0,,,,,,,,,,,METAR,214.0
CWGB 302100Z AUTO 02003KT 16/ RMK AO1 SLP161 T0160 51004,CWGB,2023-05-30T21:00:00Z,49.35,-124.13,16.0,,20,3,,,,1016.1,,TRUE,TRUE,,,,,,,,,,,,,,,,0.4,,,,,,,,,,,METAR,6.0
CWFQ 302100Z AUTO 20001KT 26/10 RMK AO1 SLP186 T02600101 56013,CWFQ,2023-05-30T21:00:00Z,45.03,-72.85,26.0,10.1,200,1,,,,1018.6,,TRUE,TRUE,,,,,,,,,,,,,,,,-1.3,,,,,,,,,,,METAR,190.0
CWFJ 302100Z AUTO 18007KT 25/03 RMK AO1 T02460030,CWFJ,2023-05-30T21:00:00Z,49.2,-113.27,24.6,3.0,180,7,,,,,,TRUE,TRUE,,,,,,,,,,,,,,,,,,,,,,,,,,,METAR,1142.0
CWFF 302100Z AUTO 10005KT 25/08 RMK AO1 SLP074 T02450076 58007,CWFF,2023-05-30T21:00:00Z,52.82,-104.6,24.5,7.6,100,5,,,,1007.4,,TRUE,TRUE,,,,,,,,,,,,,,,,-0.7,,,,,,,,,,,METAR,482.0
CWEZ 302100Z AUTO 09006KT 17/08 RMK AO1 SLP165 T01720075 56001,CWEZ,2023-05-30T21:00:00Z,48.78,-123.05,17.2,7.5,90,6,,,,1016.5,,TRUE,TRUE,,,,,,,,,,,,,,,,-0.1,,,,,,,,,,,METAR,23.0
CWEW 302100Z AUTO 16003KT 27/11 RMK AO1 SLP179 T02710109 56016,CWEW,2023-05-30T21:00:00Z,45.82,-73.43,27.1,10.9,160,3,,,,1017.9,,TRUE,TRUE,,,,,,,,,,,,,,,,-1.6,,,,,,,,,,,METAR,17.0
CWEU 302100Z 02014KT 15SM FEW100 M02/M09 A2996 RMK AC1 AC TR SLP158,CWEU,2023-05-30T21:00:00Z,80.0,-85.93,-2.0,-9.0,20,14,,15.0,29.958662,1015.8,,,,,,,,,,FEW,10000,,,,,,,VFR,,,,,,,,,,,,SPECI,2.0
CWER 302100Z AUTO 23016KT RMK AO1 PK WND 22019/2024,CWER,2023-05-30T21:00:00Z,47.0,-70.82,,,230,16,,,,,,TRUE,TRUE,,,,,,,,,,,,,,,,,,,,,,,,,,,METAR,4.0
CWEQ 302100Z AUTO 03005KT 22/14 RMK AO1 1003 SLP068 T02190135 50031,CWEQ,2023-05-30T21:00:00Z,52.12,-101.22,21.9,13.5,30,5,,,,1006.8,,TRUE,TRUE,,,,,,,,,,,,,,,,3.1,,,,,,,,,,,METAR,331.0
CWEP 302100Z AUTO 19008KT 16/05 RMK AO1 SLP184 T01590052 56013,CWEP,2023-05-30T21:00:00Z,46.45,-61.98,15.9,5.2,190,8,,,,1018.4,,TRUE,TRUE,,,,,,,,,,,,,,,,-1.3,,,,,,,,,,,METAR,9.0
CWEL 302100Z AUTO 08003KT 16/07 RMK AO1 SLP163 T01580074 50001,CWEL,2023-05-30T21:00:00Z,49.22,-123.8,15.8,7.4,80,3,,,,1016.3,,TRUE,TRUE,,,,,,,,,,,,,,,,0.1,,,,,,,,,,,METAR,0.0
CWEH 302100Z AUTO 24009KT 24/08 RMK AO1 PK WND 22018/2045 SLP074 T02380078 58007,CWEH,2023-05-30T21:00:00Z,49.43,-108.98,23.8,7.8,240,9,,,,1007.4,,TRUE,TRUE,,,,,,,,,,,,,,,,-0.7,,,,,,,,,,,METAR,1077.0
CWEF 302100Z AUTO 24014KT 09/03 RMK AO1 PK WND 26020/2001 SLP161 T00870028 56005,CWEF,2023-05-30T21:00:00Z,47.22,-60.13,8.7,2.8,240,14,,,,1016.1,,TRUE,TRUE,,,,,,,,,,,,,,,,-0.5,,,,,,,,,,,METAR,27.0
CWEE 302100Z AUTO 29/05 RMK AO1 SLP147 T02930047 56015,CWEE,2023-05-30T21:00:00Z,49.27,-73.35,29.3,4.7,,,,,,1014.7,,TRUE,TRUE,,,,,,,,,,,,,,,,-1.5,,,,,,,,,,,METAR,302.0
CWEB 302100Z AUTO 00030KT 12/07 RMK AO1 SLP188 T01150068 50006,CWEB,2023-05-30T21:00:00Z,49.38,-126.55,11.5,6.8,0,30,,,,1018.8,,TRUE,TRUE,,,,,,,,,,,,,,,,0.6,,,,,,,,,,,METAR,1.0
CWDZ 302100Z AUTO 29006KT 28/03 RMK AO1 SLP033 T02780028 57014,CWDZ,2023-05-30T21:00:00Z,51.43,-112.67,27.8,2.8,290,6,,,,1003.3,,TRUE,TRUE,,,,,,,,,,,,,,,,-1.4,,,,,,,,,,,METAR,689.0
CWDV 302100Z AUTO 21007G15KT 25/13 RMK AO1 PK WND 21018/2023 SLP109 T02500129 53002,CWDV,2023-05-30T21:00:00Z,49.02,-90.47,25.0,12.9,210,7,15,,,1010.9,,TRUE,TRUE,,,,,,,,,,,,,,,,0.2,,,,,,,,,,,METAR,487.0
CWDQ 302100Z AUTO 17006KT 28/01 RMK AO1 SLP169 T02750013 56019,CWDQ,2023-05-30T21:00:00Z,47.42,-72.78,27.5,1.3,170,6,,,,1016.9,,TRUE,TRUE,,,,,,,,,,,,,,,,-1.9,,,,,,,,,,,METAR,174.0
CWDO 302100Z AUTO 26001KT 12/02 RMK AO1 SLP127 T01170023 55001,CWDO,2023-05-30T21:00:00Z,49.68,-54.78,11.7,2.3,260,1,,,,1012.7,,TRUE,TRUE,,,,,,,,,,,,,,,,-0.1,,,,,,,,,,,METAR,89.0
CWDM 302100Z AUTO 22005KT 08/06 RMK AO1 SLP115 T00820063 58008,CWDM,2023-05-30T21:00:00Z,50.47,-59.63,8.2,6.3,220,5,,,,1011.5,,TRUE,TRUE,,,,,,,,,,,,,,,,-0.8,,,,,,,,,,,METAR,2.0
CWDK 302100Z AUTO 23012G19KT 27/01 RMK AO1 SOG 01 8012 PK WND 23021/2027 SLP044 T02730006,CWDK,2023-05-30T21:00:00Z,50.02,-113.62,27.3,0.6,230,12,19,,,1004.4,,TRUE,TRUE,,,,,,,,,,,,,,,,,,,,,,,,,,,METAR,1014.0
CWDJ 302100Z AUTO 07002KT 26/06 RMK AO1 SLP064 T02630058 58011,CWDJ,2023-05-30T21:00:00Z,50.4,-104.58,26.3,5.8,70,2,,,,1006.4,,TRUE,TRUE,,,,,,,,,,,,,,,,-1.1,,,,,,,,,,,METAR,576.0
CWDC 302100Z AUTO 23003KT 21/01 RMK AO1 SLP108 T02050008 57002,CWDC,2023-05-30T21:00:00Z,59.57,-108.48,20.5,0.8,230,3,,,,1010.8,,TRUE,TRUE,,,,,,,,,,,,,,,,-0.2,,,,,,,,,,,METAR,311.0
CWDA 302100Z AUTO 00011KT 05/ RMK AO1 T0054,CWDA,2023-05-30T21:00:00Z,50.72,-56.12,5.4,,0,11,,,,,,TRUE,TRUE,,,,,,,,,,,,,,,,,,,,,,,,,,,METAR,30.0
CWCT 302100Z AUTO 11007KT 25/11 RMK AO1 SLP060 T02470108 57008,CWCT,2023-05-30T21:00:00Z,52.07,-111.43,24.7,10.8,110,7,,,,1006.0,,TRUE,TRUE,,,,,,,,,,,,,,,,-0.8,,,,,,,,,,,METAR,793.0
CWCO 302100Z AUTO 34005KT 22/13 RMK AO1 SLP178 T02230129 56008,CWCO,2023-05-30T21:00:00Z,44.5,-80.22,22.3,12.9,340,5,,,,1017.8,,TRUE,TRUE,,,,,,,,,,,,,,,,-0.8,,,,,,,,,,,METAR,182.0
CWCJ 302100Z AUTO 24005KT 22/06 RMK AO1 SLP153 T02210057 56008,CWCJ,2023-05-30T21:00:00Z,48.6,-86.28,22.1,5.7,240,5,,,,1015.3,,TRUE,TRUE,,,,,,,,,,,,,,,,-0.8,,,,,,,,,,,METAR,207.0
CWCI 302100Z AUTO 10012KT 13/07 RMK AO1 SLP150 T01270067 58013,CWCI,2023-05-30T21:00:00Z,47.33,-85.82,12.7,6.7,100,12,,,,1015.0,,TRUE,TRUE,,,,,,,,,,,,,,,,-1.3,,,,,,,,,,,METAR,167.0
CWBZ 302100Z AUTO 26006KT 29/11 RMK AO1 SLP174 T02870109 56011,CWBZ,2023-05-30T21:00:00Z,45.12,-74.28,28.7,10.9,260,6,,,,1017.4,,TRUE,TRUE,,,,,,,,,,,,,,,,-1.1,,,,,,,,,,,METAR,49.0
CWBY 302100Z AUTO 23014G20KT 19/01 RMK AO1 PK WND 25024/2045 SLP121 T01850011 56022,CWBY,2023-05-30T21:00:00Z,49.83,-64.28,18.5,1.1,230,14,20,,,1012.1,,TRUE,TRUE,,,,,,,,,,,,,,,,-2.2,,,,,,,,,,,METAR,56.0
CWBV 302100Z AUTO 22011KT 08/06 RMK AO1 SLP200 T00830059 56003,CWBV,2023-05-30T21:00:00Z,44.82,-62.33,8.3,5.9,220,11,,,,1020.0,,TRUE,TRUE,,,,,,,,,,,,,,,,-0.3,,,,,,,,,,,METAR,16.0
CWBU 302100Z AUTO 34003KT 26/07 RMK AO1 SLP070 T02590068 56005,CWBU,2023-05-30T21:00:00Z,53.33,-104.02,25.9,6.8,340,3,,,,1007.0,,TRUE,TRUE,,,,,,,,,,,,,,,,-0.5,,,,,,,,,,,METAR,369.0
CWBT 302100Z AUTO 24006KT 13/05 RMK AO1 SLP113 T01310050 56019,CWBT,2023-05-30T21:00:00Z,50.27,-64.23,13.1,5.0,240,6,,,,1011.3,,TRUE,TRUE,,,,,,,,,,,,,,,,-1.9,,,,,,,,,,,METAR,12.0
CWBS 302100Z AUTO 09003KT 24/05 RMK AO1 T02370052,CWBS,2023-05-30T21:00:00Z,46.18,-72.92,23.7,5.2,90,3,,,,,,TRUE,TRUE,,,,,,,,,,,,,,,,,,,,,,,,,,,METAR,3.0
CWBO 302100Z AUTO 20008KT 28/04 RMK AO1 SLP049 T02800044 57009,CWBO,2023-05-30T21:00:00Z,50.53,-111.83,28.0,4.4,200,8,,,,1004.9,,TRUE,TRUE,,,,,,,,,,,,,,,,-0.9,,,,,,,,,,,METAR,752.0
CWBK 302100Z AUTO 12005KT 15/08 RMK AO1 SLP189 T01540077 56011,CWBK,2023-05-30T21:00:00Z,45.77,-62.67,15.4,7.7,120,5,,,,1018.9,,TRUE,TRUE,,,,,,,,,,,,,,,,-1.1,,,,,,,,,,,METAR,2.0
CWBA 302100Z AUTO 18004KT 30/10 RMK AO1 T02990097,CWBA,2023-05-30T21:00:00Z,46.72,-79.1,29.9,9.7,180,4,,,,,,TRUE,TRUE,,,,,,,,,,,,,,,,,,,,,,,,,,,METAR,181.0
CWAV 302100Z AUTO 12007G15KT 23/06 RMK AO1 SLP046 T02260057 58014,CWAV,2023-05-30T21:00:00Z,51.77,-114.67,22.6,5.7,120,7,15,,,1004.6,,TRUE,TRUE,,,,,,,,,,,,,,,,-1.4,,,,,,,,,,,METAR,1115.0
CWAR 302100Z AUTO 16015KT 06/03 RMK AO1 PK WND 16019/2003 SLP174 T00570031 58007,CWAR,2023-05-30T21:00:00Z,47.28,-54.0,5.7,3.1,160,15,,,,1017.4,,TRUE,TRUE,,,,,,,,,,,,,,,,-0.7,,,,,,,,,,,METAR,6.0
CWAQ 302100Z AUTO 21011G17KT 26/09 RMK AO1 PK WND 21021/2022 SLP075 T02550087 58014,CWAQ,2023-05-30T21:00:00Z,49.05,-105.48,25.5,8.7,210,11,17,,,1007.5,,TRUE,TRUE,,,,,,,,,,,,,,,,-1.4,,,,,,,,,,,METAR,761.0
CWAJ 302100Z AUTO 08007KT RMK AO1 56010,CWAJ,2023-05-30T21:00:00Z,42.25,-81.9,,,80,7,,,,,,TRUE,TRUE,,,,,,,,,,,,,,,,-1.0,,,,,,,,,,,METAR,177.0
CWAF 302100Z AUTO 18014KT 14/08 RMK AO1 T01390084,CWAF,2023-05-30T21:00:00Z,48.07,-69.55,13.9,8.4,180,14,,,,,,TRUE,TRUE,,,,,,,,,,,,,,,,,,,,,,,,,,,METAR,6.0
CWAE 302100Z 18005KT 15SM FEW080 18/01 A2991 RMK AC1 WIND EST SLP126 DENSITY ALT 3100FT,CWAE,2023-05-30T21:00:00Z,50.13,-122.95,18.0,1.0,180,5,,15.0,29.911417,1012.6,,,,,,,,,,FEW,8000,,,,,,,VFR,,,,,,,,,,,,SPECI,658.0
CTRA 302100Z AUTO 19007KT 23/16 RMK AO1 8011 SLP076 T02250162 50005,CTRA,2023-05-30T21:00:00Z,49.67,-93.73,22.5,16.2,190,7,,,,1007.6,,TRUE,TRUE,,,,,,,,,,,,,,,,0.5,,,,,,,,,,,METAR,432.0
CTNK 302100Z AUTO 26002KT 29/05 RMK AO1 SLP183 T02880047 56012,CTNK,2023-05-30T21:00:00Z,45.53,-78.27,28.8,4.7,260,2,,,,1018.3,,TRUE,TRUE,,,,,,,,,,,,,,,,-1.2,,,,,,,,,,,METAR,405.0
CPSV 302100Z AUTO 25010KT 28/05 RMK AO1 PK WND 24019/2038 T02750053,CPSV,2023-05-30T21:00:00Z,49.92,-110.92,27.5,5.3,250,10,,,,,,TRUE,TRUE,,,,,,,,,,,,,,,,,,,,,,,,,,,METAR,766.0
CPST 302100Z AUTO 23005KT 24/02 RMK AO1 T02440022,CPST,2023-05-30T21:00:00Z,51.03,-113.28,24.4,2.2,230,5,,,,,,TRUE,TRUE,,,,,,,,,,,,,,,,,,,,,,,,,,,METAR,1005.0
CPRY 302100Z AUTO 25012KT 26/01 RMK AO1 PK WND 23020/2051 T02640010,CPRY,2023-05-30T21:00:00Z,49.48,-112.68,26.4,1.0,250,12,,,,,,TRUE,TRUE,,,,,,,,,,,,,,,,,,,,,,,,,,,METAR,947.0
CPRO 302100Z AUTO 22007KT 28/02 RMK AO1 T02770020,CPRO,2023-05-30T21:00:00Z,50.83,-112.05,27.7,2.0,220,7,,,,,,TRUE,TRUE,,,,,,,,,,,,,,,,,,,,,,,,,,,METAR,733.0
CPIN 302100Z AUTO 12022G27KT ////SM ////// ///// A////,CPIN,2023-05-30T21:00:00Z,,,,,120,22,27,,,,,TRUE,,,,,,,,,,,,,,,,,,,,,,,,,,,,METAR,
CPFI 302100Z AUTO 26008KT 28/02 RMK AO1 PK WND 28017/2001 T02750018,CPFI,2023-05-30T21:00:00Z,49.8,-112.03,27.5,1.8,260,8,,,,,,TRUE,TRUE,,,,,,,,,,,,,,,,,,,,,,,,,,,METAR,804.0
CPEH 302100Z AUTO 25/06 RMK AO1 T02510056,CPEH,2023-05-30T21:00:00Z,50.18,-112.43,25.1,5.6,,,,,,,,TRUE,TRUE,,,,,,,,,,,,,,,,,,,,,,,,,,,METAR,814.0
CPBT 302100Z AUTO 24009KT 26/02 RMK AO1 PK WND 23020/2018 T02590015,CPBT,2023-05-30T21:00:00Z,49.53,-113.05,25.9,1.5,240,9,,,,,,TRUE,TRUE,,,,,,,,,,,,,,,,,,,,,,,,,,,METAR,998.0
CMGB 302100Z AUTO 26004KT 27/11 RMK AO1 SLP185 T02680106 56014,CMGB,2023-05-30T21:00:00Z,45.37,-72.77,26.8,10.6,260,4,,,,1018.5,,TRUE,TRUE,,,,,,,,,,,,,,,,-1.4,,,,,,,,,,,METAR,87.0
CMFM 302100Z AUTO 23005KT 23/03 RMK AO1 SLP193 T02340033 56006,CMFM,2023-05-30T21:00:00Z,47.32,-71.15,23.4,3.3,230,5,,,,1019.3,,TRUE,TRUE,,,,,,,,,,,,,,,,-0.6,,,,,,,,,,,METAR,663.0
CERM 302100Z AUTO 25006KT 28/01 RMK AO1 SLP161 T02790008 56014,CERM,2023-05-30T21:00:00Z,47.42,-68.32,27.9,0.8,250,6,,,,1016.1,,TRUE,TRUE,,,,,,,,,,,,,,,,-1.4,,,,,,,,,,,METAR,151.0
CBBC 302100Z AUTO 24007KT 180V310 9SM FEW032 BKN060 OVC094 13/05 A3005 RMK SLP179,CBBC,2023-05-30T21:00:00Z,52.18,-128.15,13.0,5.0,240,7,,9.0,30.050198,1017.9,,TRUE,,,,,,,,FEW,3200,BKN,6000,OVC,9400,,,VFR,,,,,,,,,,,,METAR,36.0
CBAR 302100Z AUTO 10004KT 070V140 ////SM ////// ///// A////,CBAR,2023-05-30T21:00:00Z,,,,,100,4,,,,,,TRUE,,,,,,,,,,,,,,,,,,,,,,,,,,,,METAR,
CAHR 302100Z AUTO 22008KT 20/06 RMK AO1 SLP181 T01990064 56009,CAHR,2023-05-30T21:00:00Z,46.35,-63.17,19.9,6.4,220,8,,,,1018.1,,TRUE,TRUE,,,,,,,,,,,,,,,,-0.9,,,,,,,,,,,METAR,52.0
BIRK 302100Z 26008KT 9999 FEW002 BKN021 07/06 Q1028,BIRK,2023-05-30T21:00:00Z,64.13,-21.93,7.0,6.0,260,8,,6.21,30.35433,,,,,,,,,,,FEW,200,BKN,2100,,,,,MVFR,,,,,,,,,,,,METAR,12.0
BIEG 302100Z 36010G20KT 9999 FEW035 SCT055 08/03 Q1024,BIEG,2023-05-30T21:00:00Z,65.27,-14.4,8.0,3.0,360,10,20,6.21,30.236221,,,,,,,,,,,FEW,3500,SCT,5500,,,,,VFR,,,,,,,,,,,,METAR,20.0
BIAR 302100Z 32006KT 9999 FEW055 09/02 Q1023,BIAR,2023-05-30T21:00:00Z,65.67,-18.07,9.0,2.0,320,6,,6.21,30.206694,,,,,,,,,,,FEW,5500,,,,,,,VFR,,,,,,,,,,,,METAR,1.0
AYNZ 302100Z VRB03KT 9999 HZ SCT030 BKN060 BKN170 25/20 Q1012,AYNZ,2023-05-30T21:00:00Z,-6.57,146.72,25.0,20.0,0,3,,6.21,29.88189,,,,,,,,,,HZ,SCT,3000,BKN,6000,BKN,17000,,,VFR,,,,,,,,,,,,METAR,74.0
ANYN 302100Z VRB03KT 9999 FEW020 BKN100 28/26 Q1013,ANYN,2023-05-30T21:00:00Z,-0.55,166.92,28.0,26.0,0,3,,6.21,29.911417,,,,,,,,,,,FEW,2000,BKN,10000,,,,,VFR,,,,,,,,,,,,METAR,7.0
AGGM 302100Z 09010KT 9999 FEW017 SCT100 29/23 Q1009,AGGM,2023-05-30T21:00:00Z,-8.32,157.27,29.0,23.0,90,10,,6.21,29.793306,,,,,,,,,,,FEW,1700,SCT,10000,,,,,VFR,,,,,,,,,,,,METAR,6.0
PASY 302059Z 13007KT 3/8SM FG VV001 05/05 A3032 RMK AO2A VIS 1/4V5/8 SLP271 T00500046 55003 RVRNO PNO FZRANO $,PASY,2023-05-30T20:59:00Z,52.72,174.12,5.0,4.6,130,7,,0.38,30.318897,1027.1,,,TRUE,TRUE,,,TRUE,,FG,OVX,0,,,,,,,LIFR,-0.3,,,,,,,,,,100,SPECI,6.0
KPMH 302059Z AUTO 13005KT 10SM CLR 29/14 A3000 RMK AO2,KPMH,2023-05-30T20:59:00Z,38.83,-82.85,29.0,14.0,130,5,,10.0,30.0,,,TRUE,TRUE,,,,,,,CLR,,,,,,,,VFR,,,,,,,,,,,,METAR,200.0
KOXD 302059Z AUTO 09006KT 10SM SCT075 30/11 A2999 RMK AO2,KOXD,2023-05-30T20:59:00Z,39.5,-84.78,30.0,11.0,90,6,,10.0,29.991142,,,TRUE,TRUE,,,,,,,SCT,7500,,,,,,,VFR,,,,,,,,,,,,SPECI,317.0
KNGU 302059Z 05014G24KT 3SM BR OVC009 18/16 A3007 RMK AO2 PK WND 06030/2042 RAE09 CIG 006V013 SLP183 P0004 60042 T01780161 58001,KNGU,2023-05-30T20:59:00Z,36.93,-76.27,17.8,16.1,50,14,24,3.0,30.070866,1018.3,,,TRUE,,,,,,BR,OVC,900,,,,,,,IFR,-0.1,,,,,0.04,,,,,,SPECI,3.0
KMRT 302059Z AUTO 10007KT 10SM SCT060 SCT075 30/12 A3001 RMK AO1,KMRT,2023-05-30T20:59:00Z,40.22,-83.35,30.0,12.0,100,7,,10.0,30.008858,,,TRUE,TRUE,,,,,,,SCT,6000,SCT,7500,,,,,VFR,,,,,,,,,,,,SPECI,302.0
K04W 302059Z AUTO 15006KT 10SM SCT060 SCT070 SCT110 27/17 A2983 RMK AO2 LTG DSNT S,K04W,2023-05-30T20:59:00Z,46.02,-92.9,27.0,17.0,150,6,,10.0,29.828741,,,TRUE,TRUE,,,,,,,SCT,6000,SCT,7000,SCT,11000,,,VFR,,,,,,,,,,,,SPECI,310.0
KPRN 302058Z AUTO 00000KT 10SM FEW048 27/14 A2990 RMK AO2 SLP073 T02670139 56010,KPRN,2023-05-30T20:58:00Z,31.85,-86.62,26.7,13.9,0,0,,10.0,29.899607,1007.3,,TRUE,TRUE,,,,,,,FEW,4800,,,,,,,VFR,-1.0,,,,,,,,,,,METAR,137.0
KNJW 302057Z AUTO 01006KT 10SM BKN055 BKN070 28/15 A2995 RMK AO2 SLP056 T02780150 55010 $,KNJW,2023-05-30T20:57:00Z,32.78,-88.82,27.8,15.0,10,6,,10.0,29.949802,1005.6,,TRUE,TRUE,TRUE,,,,,,BKN,5500,BKN,7000,,,,,VFR,-1.0,,,,,,,,,,,METAR,165.0
ROTM 302056Z 09012G20KT 9999 OVC010 27/26 A2965 RMK SLP024 T02670261 53003,ROTM,2023-05-30T20:56:00Z,26.27,127.75,26.7,26.1,90,12,20,6.21,29.648623,1002.4,,,,,,,,,,OVC,1000,,,,,,,MVFR,0.3,,,,,,,,,,,SPECI,80.0
PFCL 302056Z AUTO 21009KT 10SM -RA OVC009 04/03 A2972 RMK AO2 SLP059 P0001 60002 T00390033 56005 TSNO,PFCL,2023-05-30T20:56:00Z,58.83,-158.53,3.9,3.3,210,9,,10.0,29.719488,1005.9,,TRUE,TRUE,,,TRUE,,,-RA,OVC,900,,,,,,,IFR,-0.5,,,,,0.01,0.02,,,,,METAR,23.0
PAPG 302056Z 28004KT 7SM -RA FEW006 BKN025 OVC031 08/06 A2989 RMK AO2 SLP125 12005KT A2988 6//// T00780061 53002,PAPG,2023-05-30T20:56:00Z,56.82,-132.93,7.8,6.1,280,4,,7.0,29.890747,1012.5,,,TRUE,,,,,,-RA,FEW,600,BKN,2500,OVC,3100,,,MVFR,0.2,,,,,,,,,,,METAR,24.0
KSXT 302056Z AUTO 10SM CLR 18/06 A2998 RMK AO2 SLP117 T01830056 58005,KSXT,2023-05-30T20:56:00Z,42.6,-123.37,18.3,5.6,,,,10.0,29.97933,1011.7,,TRUE,TRUE,,,,,,,CLR,,,,,,,,VFR,-0.5,,,,,,,,,,,SPECI,1151.0
KNSE 302056Z 00000KT 10SM SCT060 BKN080 BKN250 27/17 A2989 RMK AO2 SLP106 T02720167 56009 $,KNSE,2023-05-30T20:56:00Z,30.73,-87.02,27.2,16.7,0,0,,10.0,29.890747,1010.6,,,TRUE,TRUE,,,,,,SCT,6000,BKN,8000,BKN,25000,,,VFR,-0.9,,,,,,,,,,,SPECI,56.0
KNID 302056Z VRB03KT 10SM FEW070 SCT180 BKN250 28/02 A2981 RMK AO2 SLP079 T02780022 58020 $,KNID,2023-05-30T20:56:00Z,35.68,-117.68,27.8,2.2,0,3,,10.0,29.811024,1007.9,,,TRUE,TRUE,,,,,,FEW,7000,SCT,18000,BKN,25000,,,VFR,-2.0,,,,,,,,,,,SPECI,682.0
KMTC 302056Z 12010KT 10SM FEW070 28/14 A3000 RMK AO2A SLP162 T02800135 55010 $,KMTC,2023-05-30T20:56:00Z,42.62,-82.83,28.0,13.5,120,10,,10.0,30.0,1016.2,,,TRUE,TRUE,,,,,,FEW,7000,,,,,,,VFR,-1.0,,,,,,,,,,,METAR,177.0
KISO 302056Z 01013G18KT 10SM SCT026 SCT032 BKN120 25/18 A3000,KISO,2023-05-30T20:56:00Z,35.32,-77.62,25.0,18.0,10,13,18,10.0,30.0,,,,,,,,,,,SCT,2600,SCT,3200,BKN,12000,,,VFR,,,,,,,,,,,,METAR,27.0
KBMI 302056Z 15007KT 10SM OVC100 /11 A2994 RMK AO2 SLP129 T03060111,KBMI,2023-05-30T20:56:00Z,40.47,-88.92,,,150,7,,10.0,29.940945,1012.9,,,TRUE,,,,,,,OVC,10000,,,,,,,VFR,,,,,,,,,,,,SPECI,262.0
KBIF 302056Z 21006KT 7SM SCT140 33/M04 A2993 RMK A02 SLPNO ALSTG WND DATA ESTMD T03331039,KBIF,2023-05-30T20:56:00Z,31.85,-106.38,33.3,-3.9,210,6,,7.0,29.929134,,,,TRUE,,,,,,,SCT,14000,,,,,,,VFR,,,,,,,,,,,,METAR,1201.0
K79J 302056Z AUTO 07009KT 10SM OVC065 29/16 A2990 RMK AO2 SLP122 T02940156 55010,K79J,2023-05-30T20:56:00Z,31.32,-86.4,29.4,15.6,70,9,,10.0,29.899607,1012.2,,TRUE,TRUE,,,,,,,OVC,6500,,,,,,,VFR,-1.0,,,,,,,,,,,SPECI,93.0
TNCE 302055Z AUTO 09009KT 040V140 //// // ///////// 30/23 Q1013 RE//,TNCE,2023-05-30T20:55:00Z,17.48,-62.97,30.0,23.0,90,9,,,29.911417,,,TRUE,,,,,,,,,,,,,,,,,,,,,,,,,,,,METAR,38.0
TNCB 302055Z 10011KT 070V130 9999 SCT015 BKN019 30/24 Q1009,TNCB,2023-05-30T20:55:00Z,12.13,-68.28,30.0,24.0,100,11,,6.21,29.793306,,,,,,,,,,,SCT,1500,BKN,1900,,,,,MVFR,,,,,,,,,,,,METAR,6.0
RODN 302055Z 09008G15KT 10SM OVC009 27/26 A2960 RMK AO2A SLP028 T02700264 55001 FZRANO $,RODN,2023-05-30T20:55:00Z,26.35,127.77,27.0,26.4,90,8,15,10.0,29.601377,1002.8,,,TRUE,TRUE,,,TRUE,,,OVC,900,,,,,,,IFR,-0.1,,,,,,,,,,,METAR,38.0
PALJ 302055Z 24008KT 20SM BKN030 OVC060 07/05 A2975 RMK EST PASS CLSD NOSPECI,PALJ,2023-05-30T20:55:00Z,60.2,-154.3,7.0,5.0,240,8,,20.0,29.749016,,,,,,,,,,,BKN,3000,OVC,6000,,,,,MVFR,,,,,,,,,,,,METAR,88.0
PAED 302055Z 26006KT 10SM -RA FEW024 BKN034 OVC042 09/03 A2974 RMK AO2A SLP068 P0000 60000 T00910029 53001,PAED,2023-05-30T20:55:00Z,61.25,-149.83,9.1,2.9,260,6,,10.0,29.740158,1006.8,,,TRUE,,,,,,-RA,FEW,2400,BKN,3400,OVC,4200,,,VFR,0.1,,,,,0.005,,,,,,SPECI,54.0
OTBH 302055Z 32010KT 9999 SCT200 31/20 A2974 Q1005 RMK AO2A SLPNO 404340271 RVRNO FZRANO VISNO RWY34 CHINO RWY34 $,OTBH,2023-05-30T20:55:00Z,25.12,51.32,31.0,20.0,320,10,,6.21,29.675198,,,,TRUE,TRUE,,,TRUE,,,SCT,20000,,,,,,,VFR,,,,43.4,27.1,,,,,,,SPECI,40.0
OPFA 302055Z 23002KT 4000 FU SCT040 BKN100 26/21 Q1006 TEMPO 31015G30KT 2000 TSRA FEW030CB,OPFA,2023-05-30T20:55:00Z,31.37,73.0,26.0,21.0,230,2,,2.49,29.704725,,,,,,,,,,FU,SCT,4000,BKN,10000,,,,,IFR,,,,,,,,,,,,METAR,180.0
LIVT 302055Z AUTO 11004KT 050V150 //// 22/10 Q1017,LIVT,2023-05-30T20:55:00Z,45.68,13.75,22.0,10.0,110,4,,,30.029528,,,TRUE,,,,,,,,,,,,,,,,,,,,,,,,,,,,SPECI,20.0
LIVR 302055Z 01003KT 9999 RA OVC020 05/04 Q1023 RMK OVC MON INC VIS MIN 9999,LIVR,2023-05-30T20:55:00Z,46.28,11.78,5.0,4.0,10,3,,6.21,30.206694,,,,,,,,,,RA,OVC,2000,,,,,,,MVFR,,,,,,,,,,,,SPECI,1997.0
LIVP 302055Z 19008KT 9999 -RA SCT015 BKN020 05/03 Q1022,LIVP,2023-05-30T20:55:00Z,46.15,11.03,5.0,3.0,190,8,,6.21,30.177166,,,,,,,,,,-RA,SCT,1500,BKN,2000,,,,,MVFR,,,,,,,,,,,,METAR,2099.0
LIVM 302055Z AUTO 05005KT //// 21/14 Q1015,LIVM,2023-05-30T20:55:00Z,44.45,12.3,21.0,14.0,50,5,,,29.970472,,,TRUE,,,,,,,,,,,,,,,,,,,,,,,,,,,,SPECI,6.0
LIVF 302055Z 03004KT CAVOK 16/12 Q1015,LIVF,2023-05-30T20:55:00Z,43.52,12.72,16.0,12.0,30,4,,6.21,29.970472,,,,,,,,,,,CAVOK,,,,,,,,VFR,,,,,,,,,,,,METAR,549.0
LIVE 302055Z 06004KT CAVOK 13/04 Q1019 RMK BKN BKN060 VIS MIN 9999,LIVE,2023-05-30T20:55:00Z,46.82,10.5,13.0,4.0,60,4,,6.21,30.088583,,,,,,,,,,,CAVOK,,,,,,,,VFR,,,,,,,,,,,,SPECI,1684.0
LIVD 302055Z AUTO 13005KT 070V210 //// 13/07 Q1022,LIVD,2023-05-30T20:55:00Z,46.72,12.22,13.0,7.0,130,5,,,30.177166,,,TRUE,,,,,,,,,,,,,,,,,,,,,,,,,,,,SPECI,1221.0
LIVC 302055Z AUTO 06025KT //// 05/04 Q1021,LIVC,2023-05-30T20:55:00Z,44.2,10.68,5.0,4.0,60,25,,,30.147638,,,TRUE,,,,,,,,,,,,,,,,,,,,,,,,,,,,SPECI,2139.0
LIRX 302055Z AUTO 36000KT //// ///// Q////,LIRX,2023-05-30T20:55:00Z,42.73,10.38,,,360,0,,,,,,TRUE,,,,,,,,,,,,,,,,,,,,,,,,,,,,SPECI,397.0
LIRS 302055Z 31002KT 9999 FEW018TCU 16/14 Q1013 RMK FEW VIS MIN 9999 WIND THR03 35002KT WIND THR21 01002KT BLU,LIRS,2023-05-30T20:55:00Z,42.75,11.07,16.0,14.0,310,2,,6.21,29.911417,,,,,,,,,,,FEW,1800,,,,,,,VFR,,,,,,,,,,,,METAR,3.0
LIRM 302055Z 36008KT CAVOK 17/14 Q1013 RMK SKC VIS MIN 9999 WIND THR06 04007KT BLU,LIRM,2023-05-30T20:55:00Z,41.05,14.07,17.0,14.0,360,8,,6.21,29.911417,,,,,,,,,,,CAVOK,,,,,,,,VFR,,,,,,,,,,,,METAR,6.0
LIRK 302055Z AUTO /////KT //// 07/05 Q1021,LIRK,2023-05-30T20:55:00Z,42.47,12.97,7.0,5.0,,,,,30.147638,,,TRUE,,,,,,,,,,,,,,,,,,,,,,,,,,,,SPECI,1721.0
LIRE 302055Z 06004KT CAVOK 19/17 Q1013 RMK FEW FEW200 VIS MIN 9999 WIND THR13 03002KT WIND THR31 /////KT BLU,LIRE,2023-05-30T20:55:00Z,41.65,12.43,19.0,17.0,60,4,,6.21,29.911417,,,,,,,,,,,CAVOK,,,,,,,,VFR,,,,,,,,,,,,SPECI,16.0
LIQC 302055Z 13002KT CAVOK 20/14 Q1014 RMK SKC QUK / QUL / VIS MAR 20 KM VIS MIN 9999,LIQC,2023-05-30T20:55:00Z,40.55,14.2,20.0,14.0,130,2,,6.21,29.940945,,,,,,,,,,,CAVOK,,,,,,,,VFR,,,,,,,,,,,,SPECI,154.0
LIPS 302055Z 03006KT 9999 SCT030 BKN090 18/12 Q1017 RMK BKN VIS MIN 9999 WIND THR26 34009KT WIND THR08 01006KT BLU,LIPS,2023-05-30T20:55:00Z,45.68,12.1,18.0,12.0,30,6,,6.21,30.029528,,,,,,,,,,,SCT,3000,BKN,9000,,,,,VFR,,,,,,,,,,,,SPECI,42.0
LIPI 302055Z 31003KT 9999 SCT050 BKN080 18/14 Q1018 RMK BKN VIS MIN 9999 WIND THR06 33007KT WIND THR24 32004KT BLU,LIPI,2023-05-30T20:55:00Z,45.97,13.05,18.0,14.0,310,3,,6.21,30.059055,,,,,,,,,,,SCT,5000,BKN,8000,,,,,VFR,,,,,,,,,,,,SPECI,49.0
LIPC 302055Z 31004KT CAVOK 18/14 Q1016 RMK SKC VIS MIN 9999 WIND THR11 27004KT WIND THR29 22002KT BLU,LIPC,2023-05-30T20:55:00Z,44.22,12.3,18.0,14.0,310,4,,6.21,30.0,,,,,,,,,,,CAVOK,,,,,,,,VFR,,,,,,,,,,,,SPECI,10.0
LIED 302055Z 06002KT 9999 FEW030 SCT060 17/16 Q1012 RMK SCT VIS MIN 9999 WIND THR35 /////KT WIND THR17 08002KT BLU,LIED,2023-05-30T20:55:00Z,39.35,8.97,17.0,16.0,60,2,,6.21,29.88189,,,,,,,,,,,FEW,3000,SCT,6000,,,,,VFR,,,,,,,,,,,,SPECI,26.0
LIEB 302055Z 27006KT 9999 FEW025 19/16 Q1013 RMK BKN SCT060 QUK / QUL / VIS MAR 20 KM MON INVIS VIS MIN 9999,LIEB,2023-05-30T20:55:00Z,39.93,9.72,19.0,16.0,270,6,,6.21,29.911417,,,,,,,,,,,FEW,2500,,,,,,,VFR,,,,,,,,,,,,SPECI,126.0
LICZ 302055Z 11004KT 9999 BKN100 19/19 Q1013 RMK BKN VIS MIN 9999 WIND THR28 10002KT WIND THR10 09004KT A2992 BLU,LICZ,2023-05-30T20:55:00Z,37.4,14.92,19.0,19.0,110,4,,6.21,29.911417,,,,,,,,,,,BKN,10000,,,,,,,VFR,,0.2,,,,,,,,,,SPECI,22.0
LICT 302055Z 31004KT 9999 FEW020 20/17 Q1013 RMK BKN BKN080 VIS MIN 9999 WIND THR13 34004KT BLU,LICT,2023-05-30T20:55:00Z,37.92,12.5,20.0,17.0,310,4,,6.21,29.911417,,,,,,,,,,,FEW,2000,,,,,,,VFR,,,,,,,,,,,,SPECI,4.0
LIBV 302055Z 03005KT 7000 SCT010 15/15 Q1014 RMK SCT SCT200 VIS MIN 7000 WIND THR32 04006KT WIND THR14 ////KT WHT,LIBV,2023-05-30T20:55:00Z,40.77,16.93,15.0,15.0,30,5,,4.35,29.940945,,,,,,,,,,,SCT,1000,,,,,,,MVFR,,,,,,,,,,,,SPECI,344.0
LIBQ 302055Z AUTO 09004KT //// 10/06 Q1019,LIBQ,2023-05-30T20:55:00Z,39.32,16.38,10.0,6.0,90,4,,,30.088583,,,TRUE,,,,,,,,,,,,,,,,,,,,,,,,,,,,SPECI,1660.0
LIBN 302055Z VRB02KT CAVOK 19/19 Q1014 RMK SKC VIS MIN 9999 WIND THR14 VRB02KT WIND THR32 VRB02KT BLU,LIBN,2023-05-30T20:55:00Z,40.23,18.13,19.0,19.0,0,2,,6.21,29.940945,,,,,,,,,,,CAVOK,,,,,,,,VFR,,,,,,,,,,,,SPECI,46.0
LIBA 302055Z 22005KT 9999 FEW060 16/15 Q1015 RMK BKN SCT100 VIS MIN 9999 WIND THR11 21005KT WIND THR29 /////KT BLU,LIBA,2023-05-30T20:55:00Z,41.53,15.72,16.0,15.0,220,5,,6.21,29.970472,,,,,,,,,,,FEW,6000,,,,,,,VFR,,,-0.5,,,,,,,,,METAR,55.0
KY23 302055Z AUTO 20010G19KT 10SM CLR 30/16 A2989 RMK AO2 T03020155,KY23,2023-05-30T20:55:00Z,45.3,-91.63,30.2,15.5,200,10,19,10.0,29.890747,,,TRUE,TRUE,,,,,,,CLR,,,,,,,,VFR,,,,,,,,,,,,SPECI,322.0
KXIF 302055Z AUTO 01003KT 10SM CLR 24/08 A3011 RMK AO2 SLP196 T02420078 57012 $,KXIF,2023-05-30T20:55:00Z,,,24.2,7.8,10,3,,10.0,30.109253,1019.6,,TRUE,TRUE,TRUE,,,,,,CLR,,,,,,,,VFR,-1.2,,,,,,,,,,,SPECI,
KWRI 302055Z AUTO 08007KT 10SM CLR 21/05 A3016 RMK AO2 SLP213 T02080048 56011,KWRI,2023-05-30T20:55:00Z,40.02,-74.58,20.8,4.8,80,7,,10.0,30.159449,1021.3,,TRUE,TRUE,,,,,,,CLR,,,,,,,,VFR,-1.1,,,,,,,,,,,METAR,35.0
KW43 302055Z AUTO 11009KT 10SM -RA CLR 22/10 A2990 RMK AO2 LTG DSNT ALQS,KW43,2023-05-30T20:55:00Z,44.67,-104.57,22.0,10.0,110,9,,10.0,29.899607,,,TRUE,TRUE,,,,,,-RA,CLR,,,,,,,,VFR,,,,,,,,,,,,METAR,1292.0
KVOK 302055Z 15009KT 10SM FEW150 FEW190 31/07 A2990 RMK AO2A SLP125 T03090073 57012,KVOK,2023-05-30T20:55:00Z,43.93,-90.27,30.9,7.3,150,9,,10.0,29.899607,1012.5,,,TRUE,,,,,,,FEW,15000,FEW,19000,,,,,VFR,-1.2,,,,,,,,,,,METAR,278.0
KVJI 302055Z AUTO 13008KT 10SM SCT040 BKN048 BKN050 23/13 A3005 RMK AO2 60003 T02250131,KVJI,2023-05-30T20:55:00Z,36.68,-82.03,22.5,13.1,130,8,,10.0,30.050198,,,TRUE,TRUE,,,,,,,SCT,4000,BKN,4800,BKN,5000,,,VFR,,,,,,,0.03,,,,,METAR,636.0
KVER 302055Z AUTO 13005KT 10SM BKN080 31/14 A2991 RMK AO2 T03080144,KVER,2023-05-30T20:55:00Z,38.95,-92.68,30.8,14.4,130,5,,10.0,29.911417,,,TRUE,TRUE,,,,,,,BKN,8000,,,,,,,VFR,,,,,,,,,,,,METAR,209.0
KTYL 302055Z AUTO 22008G22KT 150V260 10SM CLR 26/M03 A3006 RMK AO2,KTYL,2023-05-30T20:55:00Z,34.45,-110.12,26.0,-3.0,220,8,22,10.0,30.059055,,,TRUE,TRUE,,,,,,,CLR,,,,,,,,VFR,,,,,,,,,,,,METAR,1748.0
KTKV 302055Z AUTO 20007KT 10SM CLR 29/05 A2995 RMK AO2 T02940048 PWINO,KTKV,2023-05-30T20:55:00Z,45.47,-89.82,29.4,4.8,200,7,,10.0,29.949802,,,TRUE,TRUE,,,,,TRUE,,CLR,,,,,,,,VFR,,,,,,,,,,,,SPECI,449.0
KTGI 302055Z AUTO 06012G15KT 10SM OVC022 18/16 A3010 RMK AO1 60007 T01830161,KTGI,2023-05-30T20:55:00Z,37.82,-75.98,18.3,16.1,60,12,15,10.0,30.100393,,,TRUE,TRUE,,,,,,,OVC,2200,,,,,,,MVFR,,,,,,,0.07,,,,,METAR,1.0
KSVC 302055Z AUTO 22009G19KT 10SM SCT110 29/00 A3005 RMK AO2 T02900003,KSVC,2023-05-30T20:55:00Z,32.63,-108.15,29.0,0.3,220,9,19,10.0,30.050198,,,TRUE,TRUE,,,,,,,SCT,11000,,,,,,,VFR,,,,,,,,,,,,METAR,1638.0
KSSC 302055Z AUTO 36011KT 10SM FEW047 28/17 A2993 RMK AO2 SLP135 T02750173 57009 $,KSSC,2023-05-30T20:55:00Z,33.97,-80.47,27.5,17.3,360,11,,10.0,29.929134,1013.5,,TRUE,TRUE,TRUE,,,,,,FEW,4700,,,,,,,VFR,-0.9,,,,,,,,,,,SPECI,71.0
KSNK 302055Z AUTO 14009G15KT 10SM CLR 31/15 A2991 RMK AO2 T03050150,KSNK,2023-05-30T20:55:00Z,32.7,-100.95,30.5,15.0,140,9,15,10.0,29.911417,,,TRUE,TRUE,,,,,,,CLR,,,,,,,,VFR,,,,,,,,,,,,METAR,738.0
KS33 302055Z AUTO 34005KT 10SM CLR A2990 RMK AO2,KS33,2023-05-30T20:55:00Z,44.67,-121.15,,,340,5,,10.0,29.899607,,,TRUE,TRUE,,,,,,,CLR,,,,,,,,VFR,,,,,,,,,,,,METAR,739.0
KRZL 302055Z AUTO 13007KT 101V161 10SM SCT085 SCT120 31/11 A2995 RMK AO2,KRZL,2023-05-30T20:55:00Z,40.95,-87.18,31.0,11.0,130,7,,10.0,29.949802,,,TRUE,TRUE,,,,,,,SCT,8500,SCT,12000,,,,,VFR,,,,,,,,,,,,METAR,210.0
KRYM 302055Z AUTO 19015G19KT 10SM FEW060 29/15 A2976 RMK AO2 LTG DSNT NW-N TSB33E48 SLP075 T02890154 57013 $,KRYM,2023-05-30T20:55:00Z,46.08,-94.37,28.9,15.4,190,15,19,10.0,29.760826,1007.5,,TRUE,TRUE,TRUE,,,,,,FEW,6000,,,,,,,VFR,-1.3,,,,,,,,,,,METAR,344.0
KRDR 302055Z 14003KT 10SM SCT090 BKN140 27/13 A2967 RMK AO2A SLP049 T02650132 56010 $,KRDR,2023-05-30T20:55:00Z,47.93,-97.4,26.5,13.2,140,3,,10.0,29.66929,1004.9,,,TRUE,TRUE,,,,,,SCT,9000,BKN,14000,,,,,VFR,-1.0,,,,,,,,,,,METAR,276.0
KRCE 302055Z AUTO 20008G13KT 160V220 10SM CLR 29/18 A2991 RMK AO2,KRCE,2023-05-30T20:55:00Z,35.48,-97.82,29.0,18.0,200,8,13,10.0,29.911417,,,TRUE,TRUE,,,,,,,CLR,,,,,,,,VFR,,,,,,,,,,,,SPECI,412.0
KQTZ 302055Z 24004KT 9999 SCT150 OVC200 30/18 A2980 RMK SLP094 58012,KQTZ,2023-05-30T20:55:00Z,,,30.0,18.0,240,4,,6.21,29.799213,1009.4,,,,,,,,,,SCT,15000,OVC,20000,,,,,VFR,-1.2,,,,,,,,,,,SPECI,
KQN3 302055Z 02006G15KT 3200 TSRA HZ FEW011 BKN100 31/22 A2992 RMK AO2A LTG DSNT E SLP112 P0002 6000 T03060216 53046,KQN3,2023-05-30T20:55:00Z,,,30.6,21.6,20,6,15,1.99,29.920275,1011.2,,,TRUE,,,,,,TSRA HZ,FEW,1100,BKN,10000,,,,,IFR,4.6,,,,,0.02,,,,,,METAR,
KPVB 302055Z AUTO 17009KT 10SM CLR 31/01 A2995 RMK AO1 T03050006,KPVB,2023-05-30T20:55:00Z,42.68,-90.43,30.5,0.6,170,9,,10.0,29.949802,,,TRUE,TRUE,,,,,,,CLR,,,,,,,,VFR,,,,,,,,,,,,METAR,311.0
KPSM 302055Z 14011KT 8SM BKN200 16/07 A3020 RMK AO2A SLP230 T01640073 56008,KPSM,2023-05-30T20:55:00Z,43.08,-70.82,16.4,7.3,140,11,,8.0,30.200787,1023.0,,,TRUE,,,,,,,BKN,20000,,,,,,,VFR,-0.8,,,,,,,,,,,METAR,34.0
KPCM 302055Z AUTO 00000KT 10SM CLR 32/18 A2989 RMK AO2,KPCM,2023-05-30T20:55:00Z,28.0,-82.17,32.0,18.0,0,0,,10.0,29.890747,,,TRUE,TRUE,,,,,,,CLR,,,,,,,,VFR,,,,,,,,,,,,METAR,43.0
KOQN 302055Z AUTO 08006KT 10SM CLR 24/03 A3015 RMK AO2,KOQN,2023-05-30T20:55:00Z,39.98,-75.58,24.0,3.0,80,6,,10.0,30.15059,,,TRUE,TRUE,,,,,,,CLR,,,,,,,,VFR,,,,,,,,,,,,METAR,141.0
KOLE 302055Z AUTO 17005KT 10SM SCT090 26/08 A3014 RMK AO2,KOLE,2023-05-30T20:55:00Z,42.23,-78.37,26.0,8.0,170,5,,10.0,30.138779,,,TRUE,TRUE,,,,,,,SCT,9000,,,,,,,VFR,,,,,,,,,,,,METAR,651.0
KOIC 302055Z AUTO 00000KT 10SM CLR 27/10 A3014 RMK AO2 T02700095 PWINO,KOIC,2023-05-30T20:55:00Z,42.57,-75.52,27.0,9.5,0,0,,10.0,30.138779,,,TRUE,TRUE,,,,,TRUE,,CLR,,,,,,,,VFR,,,,,,,,,,,,METAR,311.0
KOCQ 302055Z AUTO 12009KT 10SM CLR 28/09 A2994 RMK AO1 T02840086,KOCQ,2023-05-30T20:55:00Z,44.87,-87.92,28.4,8.6,120,9,,10.0,29.940945,,,TRUE,TRUE,,,,,,,CLR,,,,,,,,VFR,,,,,,,,,,,,SPECI,181.0
KMYJ 302055Z AUTO 10007KT 10SM CLR 30/11 A2993 RMK AO2,KMYJ,2023-05-30T20:55:00Z,39.15,-91.82,30.0,11.0,100,7,,10.0,29.929134,,,TRUE,TRUE,,,,,,,CLR,,,,,,,,VFR,,,,,,,,,,,,METAR,249.0
KMUI 302055Z 10007KT 10SM FEW250 26/04 A3011 RMK AO2A SLP197 T02630035 57013 $,KMUI,2023-05-30T20:55:00Z,40.43,-76.57,26.3,3.5,100,7,,10.0,30.109253,1019.7,,,TRUE,TRUE,,,,,,FEW,25000,,,,,,,VFR,-1.3,,,,,,,,,,,METAR,146.0
KMIB 302055Z 35007KT 10SM FEW050 FEW200 27/12 A2971 RMK AO2A SLP060 T02740118 58009 $,KMIB,2023-05-30T20:55:00Z,48.42,-101.35,27.4,11.8,350,7,,10.0,29.71063,1006.0,,,TRUE,TRUE,,,,,,FEW,5000,FEW,20000,,,,,VFR,-0.9,,,,,,,,,,,METAR,505.0
KMGC 302055Z AUTO 04006KT 010V070 10SM SCT110 27/13 A2996 RMK AO2,KMGC,2023-05-30T20:55:00Z,41.7,-86.82,27.0,13.0,40,6,,10.0,29.958662,,,TRUE,TRUE,,,,,,,SCT,11000,,,,,,,VFR,,,,,,,,,,,,SPECI,199.0
KLRY 302055Z AUTO 22005KT 10SM SCT049 BKN055 30/16 A2993 RMK AO2,KLRY,2023-05-30T20:55:00Z,38.62,-94.35,30.0,16.0,220,5,,10.0,29.929134,,,TRUE,TRUE,,,,,,,SCT,4900,BKN,5500,,,,,VFR,,,,,,,,,,,,METAR,272.0
KLRO 302055Z AUTO VRB06G14KT 9SM CLR 25/20 A2994 RMK AO2,KLRO,2023-05-30T20:55:00Z,32.9,-79.78,25.0,20.0,0,6,14,9.0,29.940945,,,TRUE,TRUE,,,,,,,CLR,,,,,,,,VFR,,,,,,,,,,,,METAR,3.0
KLRF 302055Z AUTO 04004KT 10SM FEW160 FEW190 31/14 A2989 RMK AO2 SLP122 T03090136 57015,KLRF,2023-05-30T20:55:00Z,34.92,-92.12,30.9,13.6,40,4,,10.0,29.890747,1012.2,,TRUE,TRUE,,,,,,,FEW,16000,FEW,19000,,,,,VFR,-1.5,,,,,,,,,,,SPECI,85.0
KLHW 302055Z 08008KT 10SM BKN030 BKN110 26/20 A2989 RMK AO2A SLP124 T02600196 55003 $,KLHW,2023-05-30T20:55:00Z,31.88,-81.57,26.0,19.6,80,8,,10.0,29.890747,1012.4,,,TRUE,TRUE,,,,,,BKN,3000,BKN,11000,,,,,MVFR,-0.3,,,,,,,,,,,METAR,14.0
KLFI 302055Z 07015G25KT 10SM -RA OVC007 17/17 A3006 RMK AO2A RAB1955E1957DZB1957E04RAB09 SLP186 P0000 60017 T01720170 50000 $,KLFI,2023-05-30T20:55:00Z,37.08,-76.33,17.2,17.0,70,15,25,10.0,30.059055,1018.6,,,TRUE,TRUE,,,,,-RA,OVC,700,,,,,,,IFR,0.0,,,,,0.005,0.17,,,,,METAR,2.0
KK62 302055Z AUTO 12010G15KT 090V160 10SM CLR 29/15 A2999 RMK AO2,KK62,2023-05-30T20:55:00Z,38.7,-84.4,29.0,15.0,120,10,15,10.0,29.991142,,,TRUE,TRUE,,,,,,,CLR,,,,,,,,VFR,,,,,,,,,,,,METAR,274.0
KI67 302055Z AUTO 14006KT 10SM CLR 30/13 A2997 RMK AO1,KI67,2023-05-30T20:55:00Z,39.25,-84.78,30.0,13.0,140,6,,10.0,29.970472,,,TRUE,TRUE,,,,,,,CLR,,,,,,,,VFR,,,,,,,,,,,,METAR,177.0
KHSP 302055Z AUTO 08006KT 10SM OVC010 18/15 A3020 RMK AO2 T01810146,KHSP,2023-05-30T20:55:00Z,37.95,-79.82,18.1,14.6,80,6,,10.0,30.200787,,,TRUE,TRUE,,,,,,,OVC,1000,,,,,,,MVFR,,,,,,,,,,,,METAR,1148.0
KHOP 302055Z AUTO 13007KT 10SM SCT060 SCT200 29/16 A2991 RMK AO2 SLP126 T02890157 57011,KHOP,2023-05-30T20:55:00Z,36.67,-87.5,28.9,15.7,130,7,,10.0,29.911417,1012.6,,TRUE,TRUE,,,,,,,SCT,6000,SCT,20000,,,,,VFR,-1.1,,,,,,,,,,,METAR,170.0
KHMT 302055Z AUTO 16004KT 10SM CLR 21/08 A2993 RMK AO2 T02110084,KHMT,2023-05-30T20:55:00Z,33.73,-117.02,21.1,8.4,160,4,,10.0,29.929134,,,TRUE,TRUE,,,,,,,CLR,,,,,,,,VFR,,,,,,,,,,,,METAR,462.0
KGUS 302055Z 15013G15KT 10SM FEW075 SCT120 30/14 A2993 RMK AO2A SLP133 T02990140 56012 $,KGUS,2023-05-30T20:55:00Z,40.63,-86.15,29.9,14.0,150,13,15,10.0,29.929134,1013.3,,,TRUE,TRUE,,,,,,FEW,7500,SCT,12000,,,,,VFR,-1.2,,,,,,,,,,,SPECI,245.0
KGTB 302055Z AUTO 31007KT 10SM CLR 27/08 A3006 RMK AO2 SLP177 T02730082 57007,KGTB,2023-05-30T20:55:00Z,44.07,-75.72,27.3,8.2,310,7,,10.0,30.059055,1017.7,,TRUE,TRUE,,,,,,,CLR,,,,,,,,VFR,-0.7,,,,,,,,,,,METAR,206.0
KGOV 302055Z AUTO 22008KT 10SM CLR 31/08 A3000 RMK AO2 SLP163 T03090080 57014 $,KGOV,2023-05-30T20:55:00Z,44.68,-84.73,30.9,8.0,220,8,,10.0,30.0,1016.3,,TRUE,TRUE,TRUE,,,,,,CLR,,,,,,,,VFR,-1.4,,,,,,,,,,,SPECI,350.0
KFTK 302055Z AUTO 11004KT 10SM FEW050 28/16 A2994 RMK AO2 SLP136 T02800159 57012,KFTK,2023-05-30T20:55:00Z,37.9,-85.97,28.0,15.9,110,4,,10.0,29.940945,1013.6,,TRUE,TRUE,,,,,,,FEW,5000,,,,,,,VFR,-1.2,,,,,,,,,,,METAR,225.0
KFGX 302055Z AUTO 11008KT 10SM SCT050 28/15 A3001 RMK AO2 T02840154,KFGX,2023-05-30T20:55:00Z,38.55,-83.75,28.4,15.4,110,8,,10.0,30.008858,,,TRUE,TRUE,,,,,,,SCT,5000,,,,,,,VFR,,,,,,,,,,,,METAR,279.0
KFFO 302055Z 12009KT 10SM SCT065 SCT095 30/12 A2995 RMK AO2A SLP139 T02990123 57011,KFFO,2023-05-30T20:55:00Z,39.83,-84.03,29.9,12.3,120,9,,10.0,29.949802,1013.9,,,TRUE,,,,,,,SCT,6500,SCT,9500,,,,,VFR,-1.1,,,,,,,,,,,SPECI,250.0
KFCS 302055Z 10008KT 10SM SCT080 BKN150 25/04 A3002 RMK AO2A SLP018 WND DATA ESTMD,KFCS,2023-05-30T20:55:00Z,38.67,-104.77,25.0,4.0,100,8,,10.0,30.02067,1001.8,,,TRUE,,,,,,,SCT,8000,BKN,15000,,,,,VFR,,,,,,,,,,,,SPECI,1789.0
KF70 302055Z AUTO 19009KT 10SM SCT031 20/10 A2995 RMK AO2,KF70,2023-05-30T20:55:00Z,33.57,-117.13,20.0,10.0,190,9,,10.0,29.949802,,,TRUE,TRUE,,,,,,,SCT,3100,,,,,,,VFR,,,,,,,,,,,,METAR,406.0
KEZM 302055Z AUTO 00000KT 10SM OVC090 26/15 A2991 RMK AO2,KEZM,2023-05-30T20:55:00Z,32.22,-83.13,26.0,15.0,0,0,,10.0,29.911417,,,TRUE,TRUE,,,,,,,OVC,9000,,,,,,,VFR,,,,,,,,,,,,METAR,86.0
KEVU 302055Z AUTO 28012G22KT 7SM BKN060 BKN075 BKN085 25/15 A2990 RMK AO2 LTG DSNT SW THRU NW T02530156,KEVU,2023-05-30T20:55:00Z,40.35,-94.92,25.3,15.6,280,12,22,7.0,29.899607,,,TRUE,TRUE,,,,,,,BKN,6000,BKN,7500,BKN,8500,,,VFR,,,,,,,,,,,,METAR,351.0
KEGV 302055Z AUTO 15007G14KT 110V170 10SM SCT120 29/02 A2994 RMK AO2 T02880016,KEGV,2023-05-30T20:55:00Z,45.93,-89.27,28.8,1.6,150,7,14,10.0,29.940945,,,TRUE,TRUE,,,,,,,SCT,12000,,,,,,,VFR,,,,,,,,,,,,METAR,499.0
KDOV 302055Z AUTO 10011KT 10SM CLR 22/10 A3013 RMK AO2 SLP207 T02150100 55006,KDOV,2023-05-30T20:55:00Z,39.12,-75.47,21.5,10.0,100,11,,10.0,30.129921,1020.7,,TRUE,TRUE,,,,,,,CLR,,,,,,,,VFR,-0.6,,,,,,,,,,,METAR,6.0
KDCM 302055Z AUTO 02013G18KT 10SM SCT036 SCT046 SCT110 26/16 A2999 RMK AO2,KDCM,2023-05-30T20:55:00Z,34.78,-81.2,26.0,16.0,20,13,18,10.0,29.991142,,,TRUE,TRUE,,,,,,,SCT,3600,SCT,4600,SCT,11000,,,VFR,,,,,,,,,,,,METAR,191.0
KDAA 302055Z AUTO 09005KT 10SM CLR 23/13 A3010 RMK AO2 SLP195 T02320134 55010 $,KDAA,2023-05-30T20:55:00Z,38.72,-77.17,23.2,13.4,90,5,,10.0,30.100393,1019.5,,TRUE,TRUE,TRUE,,,,,,CLR,,,,,,,,VFR,-1.0,,,,,,,,,,,SPECI,17.0
KD25 302055Z AUTO 23008KT 10SM SCT120 27/10 A2994 RMK AO2 T02710096,KD25,2023-05-30T20:55:00Z,46.12,-89.88,27.1,9.6,230,8,,10.0,29.940945,,,TRUE,TRUE,,,,,,,SCT,12000,,,,,,,VFR,,,,,,,,,,,,METAR,490.0
KCXE 302055Z AUTO 10SM OVC013 19/17 A3009 RMK AO1 T01910165,KCXE,2023-05-30T20:55:00Z,36.78,-78.5,19.1,16.5,,,,10.0,30.088583,,,TRUE,TRUE,,,,,,,OVC,1300,,,,,,,MVFR,,,,,,,,,,,,METAR,154.0
KCMY 302055Z AUTO 20009KT 10SM CLR 31/05 A2989 RMK AO2 SLP123 T03100054 57011 FZRANO $,KCMY,2023-05-30T20:55:00Z,43.97,-90.73,31.0,5.4,200,9,,10.0,29.890747,1012.3,,TRUE,TRUE,TRUE,,,TRUE,,,CLR,,,,,,,,VFR,-1.1,,,,,,,,,,,SPECI,253.0
KCLK 302055Z AUTO 16006KT 10SM CLR 29/13 A2991 RMK AO2,KCLK,2023-05-30T20:55:00Z,35.53,-98.93,29.0,13.0,160,6,,10.0,29.911417,,,TRUE,TRUE,,,,,,,CLR,,,,,,,,VFR,,,,,,,,,,,,METAR,489.0
KCJR 302055Z AUTO 00000KT 10SM SCT040 24/13 A3013 RMK AO2 T02430131,KCJR,2023-05-30T20:55:00Z,38.53,-77.87,24.3,13.1,0,0,,10.0,30.129921,,,TRUE,TRUE,,,,,,,SCT,4000,,,,,,,VFR,,,,,,,,,,,,METAR,90.0
KCEF 302055Z 22008KT 10SM FEW250 24/04 A3014 RMK AO2A SLP212 T02440042 57012,KCEF,2023-05-30T20:55:00Z,42.2,-72.52,24.4,4.2,220,8,,10.0,30.138779,1021.2,,,TRUE,,,,,,,FEW,25000,,,,,,,VFR,-1.2,,,,,,,,,,,METAR,72.0
KCBK 302055Z AUTO 16007KT 130V200 10SM SCT070 BKN110 31/12 A2989 RMK AO2 T03130118,KCBK,2023-05-30T20:55:00Z,39.43,-101.05,31.3,11.8,160,7,,10.0,29.890747,,,TRUE,TRUE,,,,,,,SCT,7000,BKN,11000,,,,,VFR,,,,,,,,,,,,METAR,970.0
KBUU 302055Z AUTO 11010G14KT 10SM SCT090 29/09 A2996 RMK AO2 T02930093 PWINO,KBUU,2023-05-30T20:55:00Z,42.68,-88.3,29.3,9.3,110,10,14,10.0,29.958662,,,TRUE,TRUE,,,,,TRUE,,SCT,9000,,,,,,,VFR,,,,,,,,,,,,METAR,238.0
KBLV 302055Z 14006KT 10SM BKN080 31/12 A2990 RMK AO2A SLP125 T03110124 57012 $,KBLV,2023-05-30T20:55:00Z,38.53,-89.83,31.1,12.4,140,6,,10.0,29.899607,1012.5,,,TRUE,TRUE,,,,,,BKN,8000,,,,,,,VFR,-1.2,,,,,,,,,,,METAR,134.0
KBIX 302055Z AUTO 21008KT 10SM FEW200 29/17 A2987 RMK AO2 SLP118 T02850170 56010,KBIX,2023-05-30T20:55:00Z,30.42,-88.92,28.5,17.0,210,8,,10.0,29.870079,1011.8,,TRUE,TRUE,,,,,,,FEW,20000,,,,,,,VFR,-1.0,,,,,,,,,,,SPECI,4.0
KBEA 302055Z AUTO 09006KT 10SM SCT049 SCT055 SCT090 32/17 A2986 RMK AO2 T03190173 PWINO,KBEA,2023-05-30T20:55:00Z,28.37,-97.78,31.9,17.3,90,6,,10.0,29.861221,,,TRUE,TRUE,,,,,TRUE,,SCT,4900,SCT,5500,SCT,9000,,,VFR,,,,,,,,,,,,METAR,83.0
KBBP 302055Z AUTO 31007KT 10SM SCT046 SCT070 OVC100 23/19 A2997 RMK AO2,KBBP,2023-05-30T20:55:00Z,34.62,-79.73,23.0,19.0,310,7,,10.0,29.970472,,,TRUE,TRUE,,,,,,,SCT,4600,SCT,7000,OVC,10000,,,VFR,,,,,,,,,,,,METAR,44.0
KATA 302055Z AUTO 16003KT 10SM FEW070 31/15 A2988 RMK AO2 SLP018 T03070147 $,KATA,2023-05-30T20:55:00Z,33.1,-94.2,30.7,14.7,160,3,,10.0,29.878937,1001.8,,TRUE,TRUE,TRUE,,,,,,FEW,7000,,,,,,,VFR,,,,,,,,,,,,METAR,85.0
KARW 302055Z AUTO 10010KT 10SM CLR 26/16 A2993 RMK AO2,KARW,2023-05-30T20:55:00Z,32.42,-80.63,26.0,16.0,100,10,,10.0,29.929134,,,TRUE,TRUE,,,,,,,CLR,,,,,,,,VFR,,,,,,,,,,,,METAR,2.0
KARV 302055Z AUTO 23010G16KT 10SM SCT080 BKN110 27/07 A2994 RMK AO2 T02740065,KARV,2023-05-30T20:55:00Z,45.92,-89.72,27.4,6.5,230,10,16,10.0,29.940945,,,TRUE,TRUE,,,,,,,SCT,8000,BKN,11000,,,,,VFR,,,,,,,,,,,,METAR,494.0
KAPG 302055Z 14003KT 10SM SCT200 24/09 A3013 RMK AO2A LAST AO2A SLP205,KAPG,2023-05-30T20:55:00Z,39.47,-76.17,24.0,9.0,140,3,,10.0,30.129921,1020.5,,,TRUE,,,,,,,SCT,20000,,,,,,,VFR,,,,,,,,,,,,SPECI,18.0
KADW 302055Z AUTO 11011KT 10SM FEW160 FEW190 22/13 A3010 RMK AO2 SLP199 T02230128 55009 $,KADW,2023-05-30T20:55:00Z,38.82,-76.87,22.3,12.8,110,11,,10.0,30.100393,1019.9,,TRUE,TRUE,TRUE,,,,,,FEW,16000,FEW,19000,,,,,VFR,-0.9,,,,,,,,,,,METAR,87.0
K82C 302055Z AUTO 14005KT 10SM CLR 31/09 A2992 RMK AO2 T03080090,K82C,2023-05-30T20:55:00Z,43.83,-90.13,30.8,9.0,140,5,,10.0,29.920275,,,TRUE,TRUE,,,,,,,CLR,,,,,,,,VFR,,,,,,,,,,,,METAR,273.0
K6L4 302055Z AUTO 14007KT 110V180 10SM FEW060 FEW080 26/14 A3003 RMK AO2,K6L4,2023-05-30T20:55:00Z,37.85,-81.92,26.0,14.0,140,7,,10.0,30.029528,,,TRUE,TRUE,,,,,,,FEW,6000,FEW,8000,,,,,VFR,,,,,,,,,,,,METAR,504.0
K6I2 302055Z AUTO 00000KT 10SM FEW047 SCT100 28/16 A2997 RMK AO2,K6I2,2023-05-30T20:55:00Z,37.63,-85.25,28.0,16.0,0,0,,10.0,29.970472,,,TRUE,TRUE,,,,,,,FEW,4700,SCT,10000,,,,,VFR,,,,,,,,,,,,METAR,258.0
K3R7 302055Z AUTO 08005KT 10SM VCTS SCT060 BKN075 30/17 A2987 RMK AO2 LTG DSNT S T03030165,K3R7,2023-05-30T20:55:00Z,30.25,-92.67,30.3,16.5,80,5,,10.0,29.870079,,,TRUE,TRUE,,,,,,VCTS,SCT,6000,BKN,7500,,,,,VFR,,,,,,,,,,,,METAR,5.0
K3D2 302055Z AUTO 17008KT 10SM CLR 26/07 A2997 RMK AO2 T02610066,K3D2,2023-05-30T20:55:00Z,45.13,-87.18,26.1,6.6,170,8,,10.0,29.970472,,,TRUE,TRUE,,,,,,,CLR,,,,,,,,VFR,,,,,,,,,,,,METAR,233.0
K2P2 302055Z AUTO 17005KT 10SM CLR 24/07 A2998 RMK AO2 T02410068,K2P2,2023-05-30T20:55:00Z,45.38,-86.92,24.1,6.8,170,5,,10.0,29.97933,,,TRUE,TRUE,,,,,,,CLR,,,,,,,,VFR,,,,,,,,,,,,METAR,182.0
K2C8 302055Z AUTO 34017G25KT 8SM VCTS DZ BKN100 23/14 A2971 RMK AO2 LTG DSNT W AND NW,K2C8,2023-05-30T20:55:00Z,48.78,-97.63,23.0,14.0,340,17,25,8.0,29.71063,,,TRUE,TRUE,,,,,,VCTS DZ,BKN,10000,,,,,,,VFR,,,,,,,,,,,,SPECI,271.0
K1P1 302055Z AUTO 14004KT 10SM CLR 26/06 A3013 RMK AO2 T02570056,K1P1,2023-05-30T20:55:00Z,43.78,-71.75,25.7,5.6,140,4,,10.0,30.129921,,,TRUE,TRUE,,,,,,,CLR,,,,,,,,VFR,,,,,,,,,,,,SPECI,155.0
K1ON 302055Z AUTO 29006KT 10SM FEW090 28/11 A2971 RMK AO2 SLP061 T02790110 57010 $,K1ON,2023-05-30T20:55:00Z,,,27.9,11.0,290,6,,10.0,29.71063,1006.1,,TRUE,TRUE,TRUE,,,,,,FEW,9000,,,,,,,VFR,-1.0,,,,,,,,,,,METAR,
K1NN 302055Z AUTO 34005KT 10SM CLR M A2974 RMK AO2 SLPNO ALSTG ESTMD 58007 $,K1NN,2023-05-30T20:55:00Z,,,,,340,5,,10.0,29.740158,,,TRUE,TRUE,TRUE,,,,,,CLR,,,,,,,,VFR,-0.7,,,,,,,,,,,METAR,
K1MN 302055Z AUTO 00000KT 10SM SCT130 27/12 A2972 RMK AO2 LTG DSNT NW SLP062 T02710123 57008 $,K1MN,2023-05-30T20:55:00Z,,,27.1,12.3,0,0,,10.0,29.719488,1006.2,,TRUE,TRUE,TRUE,,,,,,SCT,13000,,,,,,,VFR,-0.8,,,,,,,,,,,METAR,
K1KN 302055Z AUTO 32003KT 10SM FEW065 26/11 A2976 RMK AO2 LTG DSNT NW SLP073 T02590109 57008 $,K1KN,2023-05-30T20:55:00Z,,,25.9,10.9,320,3,,10.0,29.760826,1007.3,,TRUE,TRUE,TRUE,,,,,,FEW,6500,,,,,,,VFR,-0.8,,,,,,,,,,,METAR,
K1JN 302055Z AUTO 27004KT 10SM CLR 26/12 A2974 RMK AO2 SLP068 T02590123 58010 $,K1JN,2023-05-30T20:55:00Z,,,25.9,12.3,270,4,,10.0,29.740158,1006.8,,TRUE,TRUE,TRUE,,,,,,CLR,,,,,,,,VFR,-1.0,,,,,,,,,,,METAR,
K1GN 302055Z AUTO 33006KT 10SM FEW060 26/11 A2973 RMK AO2 SLP072 T02620111 58009 $,K1GN,2023-05-30T20:55:00Z,,,26.2,11.1,330,6,,10.0,29.731298,1007.2,,TRUE,TRUE,TRUE,,,,,,FEW,6000,,,,,,,VFR,-0.9,,,,,,,,,,,METAR,
K1EN 302055Z AUTO 30007KT 10SM SCT060 27/10 A2955 RMK AO2 SLP009 T02730096 58007 $,K1EN,2023-05-30T20:55:00Z,,,27.3,9.6,300,7,,10.0,29.551182,1000.9,,TRUE,TRUE,TRUE,,,,,,SCT,6000,,,,,,,VFR,-0.7,,,,,,,,,,,METAR,
K1CN 302055Z AUTO 30006KT 10SM CLR 28/11 A2974 RMK AO2 SLP068 T02770108 58007 $,K1CN,2023-05-30T20:55:00Z,,,27.7,10.8,300,6,,10.0,29.740158,1006.8,,TRUE,TRUE,TRUE,,,,,,CLR,,,,,,,,VFR,-0.7,,,,,,,,,,,METAR,
K1BN 302055Z AUTO 34004KT 10SM CLR 27/11 A2973 RMK AO2 SLP063 T02670108 58007 $,K1BN,2023-05-30T20:55:00Z,,,26.7,10.8,340,4,,10.0,29.731298,1006.3,,TRUE,TRUE,TRUE,,,,,,CLR,,,,,,,,VFR,-0.7,,,,,,,,,,,METAR,
K1AN 302055Z AUTO 28011KT 10SM CLR 28/13 A2967 RMK AO2 SLP061 T02800127 58009 $,K1AN,2023-05-30T20:55:00Z,,,28.0,12.7,280,11,,10.0,29.66929,1006.1,,TRUE,TRUE,TRUE,,,,,,CLR,,,,,,,,VFR,-0.9,,,,,,,,,,,METAR,
FJDG 302055Z 17007KT 9999 FEW021 SCT041 SCT100 27/23 A2988 RMK SLP115 8/860 T02720233 57014,FJDG,2023-05-30T20:55:00Z,-7.32,72.42,27.2,23.3,170,7,,6.21,29.878937,1011.5,,,,,,,,,,FEW,2100,SCT,4100,SCT,10000,,,VFR,-1.4,,,,,,,,,,,METAR,3.0
ETIK 302055Z AUTO 00000KT 9999 CLR 13/03 A3019 RMK AO2 SLP225 T01250032 52017,ETIK,2023-05-30T20:55:00Z,49.47,10.38,12.5,3.2,0,0,,6.21,30.188976,1022.5,,TRUE,TRUE,,,,,,,CLR,,,,,,,,VFR,1.7,,,,,,,,,,,METAR,326.0
ETIH 302055Z AUTO 00000KT 9999 CLR 14/M01 A3020 RMK AO2 SLP226 T01431014 52019,ETIH,2023-05-30T20:55:00Z,49.22,11.83,14.3,-1.4,0,0,,6.21,30.200787,1022.6,,TRUE,TRUE,,,,,,,CLR,,,,,,,,VFR,1.9,,,,,,,,,,,METAR,436.0
ETIC 302055Z AUTO 00000KT 9999 CLR 13/03 A3019 RMK AO2 SLP225 T01320030 52019 $,ETIC,2023-05-30T20:55:00Z,49.7,11.93,13.2,3.0,0,0,,6.21,30.188976,1022.5,,TRUE,TRUE,TRUE,,,,,,CLR,,,,,,,,VFR,1.9,,,,,,,,,,,METAR,414.0
ETEB 302055Z AUTO 03009KT 9999 CLR 15/02 A3018 RMK AO2 SLP232 T01530021 52016 $,ETEB,2023-05-30T20:55:00Z,49.32,10.63,15.3,2.1,30,9,,6.21,30.180119,1023.2,,TRUE,TRUE,TRUE,,,,,,CLR,,,,,,,,VFR,1.6,,,,,,,,,,,METAR,466.0
BGTL 302055Z AUTO 27006KT 9999 CLR M02/M10 A2972 RMK AO2 SLP050 T10251101 58001 TSNO $,BGTL,2023-05-30T20:55:00Z,76.53,-68.75,-2.5,-10.1,270,6,,6.21,29.719488,1005.0,,TRUE,TRUE,TRUE,,TRUE,,,,CLR,,,,,,,,VFR,-0.1,,,,,,,,,,,SPECI,79.0
PTTP 302053Z 00000KT 15SM FEW018 SCT130 OVC300 28/24 A2992 RMK SLP132 8/171 T02780239 52022,PTTP,2023-05-30T20:53:00Z,6.97,158.22,27.8,23.9,0,0,,15.0,29.920275,1013.2,,,,,,,,,,FEW,1800,SCT,13000,OVC,30000,,,VFR,2.2,,,,,,,,,,,SPECI,36.0
KNSI 302053Z 24012KT 10SM FEW010 SCT020 BKN035 18/10 A2999 RMK SLP152 T01780100 58005,KNSI,2023-05-30T20:53:00Z,33.23,-119.45,17.8,10.0,240,12,,10.0,29.991142,1015.2,,,,,,,,,,FEW,1000,SCT,2000,BKN,3500,,,VFR,-0.5,,,,,,,,,,,SPECI,161.0
KNIP 302053Z 06010KT 10SM SCT045 SCT070 BKN110 BKN250 28/20 A2988 RMK AO2 SLP112 T02830200 56005,KNIP,2023-05-30T20:53:00Z,30.23,-81.67,28.3,20.0,60,10,,10.0,29.878937,1011.2,,,TRUE,,,,,,,SCT,4500,SCT,7000,BKN,11000,BKN,25000,VFR,-0.5,,,,,,,,,,,METAR,3.0
PAEL 302051Z 30012KT 15SM SCT015 OVC030 08/04 A2980 RMK SPB E03015KT SEA 0 SWELL 2 SW NOSPECI,PAEL,2023-05-30T20:51:00Z,58.2,-136.35,8.0,4.0,300,12,,15.0,29.799213,,,,,,,,,,,SCT,1500,OVC,3000,,,,,MVFR,,,,,,,,,,,,SPECI,8.0
PTRO 302050Z 00000KT 14SM SCT015 BKN110 BKN290 25/24 A2978 ,PTRO,2023-05-30T20:50:00Z,7.37,134.55,25.0,24.0,0,0,,14.0,29.778543,,,,,,,,,,,SCT,1500,BKN,11000,BKN,29000,,,VFR,,,,,,,,,,,,METAR,30.0
OOSH 302050Z AUTO 28002KT //// ////// 35/14 Q1003 RMK 0999,OOSH,2023-05-30T20:50:00Z,24.38,56.62,35.0,14.0,280,2,,,29.616142,,,TRUE,,,,,,,,,,,,,,,,,,,,,,,,,,,,METAR,35.0
OOSA 302050Z 18004KT 9999 FEW025 29/26 Q1008 NOSIG,OOSA,2023-05-30T20:50:00Z,17.03,54.1,29.0,26.0,180,4,,6.21,29.763779,,,,,,TRUE,,,,,FEW,2500,,,,,,,VFR,,,,,,,,,,,,METAR,20.0
OOMS 302050Z 21012KT CAVOK 39/19 Q1002 NOSIG,OOMS,2023-05-30T20:50:00Z,23.58,58.28,39.0,19.0,210,12,,6.21,29.586615,,,,,,TRUE,,,,,CAVOK,,,,,,,,VFR,,,,,,,,,,,,METAR,8.0
OOKB 302050Z AUTO 17003KT 120V210 CAVOK 35/18 Q1004 NOSIG,OOKB,2023-05-30T20:50:00Z,26.17,56.23,35.0,18.0,170,3,,6.21,29.64567,,,TRUE,,,TRUE,,,,,CAVOK,,,,,,,,VFR,,,,,,,,,,,,METAR,30.0
OODQ 302050Z AUTO 20016KT CAVOK ////// 27/27 Q1008 NOSIG RMK RH100? 0,OODQ,2023-05-30T20:50:00Z,19.52,57.65,27.0,27.0,200,16,,6.21,29.763779,,,TRUE,,,TRUE,,,,,CAVOK,,,,,,,,VFR,,,,,,,,,,,,METAR,116.0
OOAD 302050Z AUTO 07008KT 9999 // NCD 32/22 Q1009 NOSIG,OOAD,2023-05-30T20:50:00Z,22.5,57.37,32.0,22.0,70,8,,6.21,29.793306,,,TRUE,,,TRUE,,,,,CLR,,,,,,,,VFR,,,,,,,,,,,,METAR,327.0
LTAG 302050Z VRB02KT CAVOK 20/16 Q1014 NOSIG RMK 2CI180,LTAG,2023-05-30T20:50:00Z,37.0,35.42,20.0,16.0,0,2,,6.21,29.940945,,,,,,TRUE,,,,,CAVOK,,,,,,,,VFR,,,,,,,,,,,,METAR,62.0
LTAE 302050Z 28001KT 9999 SCT040 SCT100 13/13 Q1016 NOSIG RMK RWY21 VRB01KT,LTAE,2023-05-30T20:50:00Z,40.07,32.57,13.0,13.0,280,1,,6.21,30.0,,,,,,TRUE,,,,,SCT,4000,SCT,10000,,,,,VFR,,,,,,,,,,,,METAR,836.0
LOXZ 302050Z 09006KT 070V130 9999 FEW060 SCT230 16/07 Q1021,LOXZ,2023-05-30T20:50:00Z,47.2,14.75,16.0,7.0,90,6,,6.21,30.147638,,,,,,,,,,,FEW,6000,SCT,23000,,,,,VFR,,,,,,,,,,,,METAR,678.0
LIPK 302050Z 00000KT CAVOK 17/12 Q1015,LIPK,2023-05-30T20:50:00Z,44.2,12.07,17.0,12.0,0,0,,6.21,29.970472,,,,,,,,,,,CAVOK,,,,,,,,VFR,,,,,,,,,,,,METAR,24.0
LIPH 302050Z 01004KT 340V040 9999 BKN070 20/11 Q1018,LIPH,2023-05-30T20:50:00Z,45.63,12.18,20.0,11.0,10,4,,6.21,30.059055,,,,,,,,,,,BKN,7000,,,,,,,VFR,,,,,,,,,,,,METAR,10.0
LIPB 302050Z 13007KT 9999 SCT050 BKN100 21/07 Q1017,LIPB,2023-05-30T20:50:00Z,46.47,11.32,21.0,7.0,130,7,,6.21,30.029528,,,,,,,,,,,SCT,5000,BKN,10000,,,,,VFR,,,,,,,,,,,,METAR,239.0
LIMP 302050Z 10004KT CAVOK 21/14 Q1015,LIMP,2023-05-30T20:50:00Z,44.82,10.3,21.0,14.0,100,4,,6.21,29.970472,,,,,,,,,,,CAVOK,,,,,,,,VFR,,,,,,,,,,,,METAR,41.0
LIBF 302050Z VRB01KT 9999 FEW040 15/14 Q1015,LIBF,2023-05-30T20:50:00Z,41.42,15.53,15.0,14.0,0,1,,6.21,29.970472,,,,,,,,,,,FEW,4000,,,,,,,VFR,,,,,,,,,,,,METAR,81.0
LGSM 302050Z 00000KT 9999 SCT020 17/15 Q1015,LGSM,2023-05-30T20:50:00Z,37.68,26.92,17.0,15.0,0,0,,6.21,29.970472,,,,,,,,,,,SCT,2000,,,,,,,VFR,,,,,,,,,,,,METAR,5.0
LGMT 302050Z VRB03KT 9999 SCT025 22/17 Q1015,LGMT,2023-05-30T20:50:00Z,39.05,26.6,22.0,17.0,0,3,,6.21,29.970472,,,,,,,,,,,SCT,2500,,,,,,,VFR,,,,,,,,,,,,METAR,4.0
LGMK 302050Z 01008KT 9999 FEW012 18/12 Q1015,LGMK,2023-05-30T20:50:00Z,37.43,25.35,18.0,12.0,10,8,,6.21,29.970472,,,,,,,,,,,FEW,1200,,,,,,,VFR,,,,,,,,,,,,METAR,126.0
LGKF 302050Z 00000KT 9999 FEW018 19/17 Q1014,LGKF,2023-05-30T20:50:00Z,38.12,20.5,19.0,17.0,0,0,,6.21,29.940945,,,,,,,,,,,FEW,1800,,,,,,,VFR,,,,,,,,,,,,METAR,14.0
LGHI 302050Z 22001KT CAVOK 19/16 Q1014,LGHI,2023-05-30T20:50:00Z,38.33,26.13,19.0,16.0,220,1,,6.21,29.940945,,,,,,,,,,,CAVOK,,,,,,,,VFR,,,,,,,,,,,,METAR,6.0
KLAL 302050Z 04003KT 10SM SCT065 31/15 A2987,KLAL,2023-05-30T20:50:00Z,27.98,-82.02,31.0,15.0,40,3,,10.0,29.870079,,,,,,,,,,,SCT,6500,,,,,,,VFR,,,,,,,,,,,,METAR,39.0
KHUM 302050Z 13004KT 7SM CLR 28/18 A2989,KHUM,2023-05-30T20:50:00Z,29.57,-90.67,28.0,18.0,130,4,,7.0,29.890747,,,,,,,,,,,CLR,,,,,,,,VFR,,,,,,,,,,,,METAR,1.0
ENLK 302050Z 28015KT 7000 RA FEW008 SCT015 BKN020 07/06 Q1002,ENLK,2023-05-30T20:50:00Z,68.15,13.62,7.0,6.0,280,15,,4.35,29.586615,,,,,,,,,,RA,FEW,800,SCT,1500,BKN,2000,,,MVFR,,,,,,,,,,,,METAR,26.0
EGYM 302050Z 03011KT 9999 -DZ BKN011 OVC023 11/09 Q1030,EGYM,2023-05-30T20:50:00Z,52.63,0.57,11.0,9.0,30,11,,6.21,30.413385,,,,,,,,,,-DZ,BKN,1100,OVC,2300,,,,,MVFR,,,,,,,,,,,,METAR,25.0
EGNV 302050Z 05009KT 9999 BKN019 11/08 Q1033,EGNV,2023-05-30T20:50:00Z,54.52,-1.42,11.0,8.0,50,9,,6.21,30.501968,,,,,,,,,,,BKN,1900,,,,,,,MVFR,,,,,,,,,,,,METAR,36.0
EGJJ 302050Z 06020G32KT 030V090 9999 FEW020 12/09 Q1024,EGJJ,2023-05-30T20:50:00Z,49.22,-2.2,12.0,9.0,60,20,32,6.21,30.236221,,,,,,,,,,,FEW,2000,,,,,,,VFR,,,,,,,,,,,,METAR,84.0
EGAE 302050Z 05007KT 9999 FEW010 13/09 Q1032,EGAE,2023-05-30T20:50:00Z,55.03,-7.15,13.0,9.0,50,7,,6.21,30.47244,,,,,,,,,,,FEW,1000,,,,,,,VFR,,,,,,,,,,,,METAR,9.0
PAKU 302048Z VRB03KT 10SM R24/P6000FT -RA OVC048 03/03 A2963,PAKU,2023-05-30T20:48:00Z,70.32,-149.6,3.0,3.0,0,3,,10.0,29.630905,,,,,,,,,,-RA,OVC,4800,,,,,,,VFR,,,,,,,,,,,,METAR,23.0
PAPT 302047Z 17010KT 3SM -RA VV010 04/03 A2967 RMK NO SPECI,PAPT,2023-05-30T20:47:00Z,62.1,-152.72,4.0,3.0,170,10,,3.0,29.66929,,,,,,,,,,-RA,OVX,0,,,,,,,LIFR,,,,,,,,,,,1000,METAR,577.0
