No errors
No warnings
151 ms
data source=metars
4766 results
raw_text,station_id,observation_time,latitude,longitude,temp_c,dewpoint_c,wind_dir_degrees,wind_speed_kt,wind_gust_kt,visibility_statute_mi,altim_in_hg,sea_level_pressure_mb,corrected,auto,auto_station,maintenance_indicator_on,no_signal,lightning_sensor_off,freezing_rain_sensor_off,present_weather_sensor_off,wx_string,sky_cover,cloud_base_ft_agl,sky_cover,cloud_base_ft_agl,sky_cover,cloud_base_ft_agl,sky_cover,cloud_base_ft_agl,flight_category,three_hr_pressure_tendency_mb,maxT_c,minT_c,maxT24hr_c,minT24hr_c,precip_in,pcp3hr_in,pcp6hr_in,pcp24hr_in,snow_in,vert_vis_ft,metar_type,elevation_m
SPQT 050422Z 11008KT 070V150 3000 TSRA BKN008 FEW020CB OVC100 23/22 Q1011,SPQT,2023-11-05T04:22:00Z,-3.786,-73.306,23,22,110,8,,1.86,29.85,,,,,,,,,,TSRA,BKN,800,FEW,2000,OVC,10000,,,IFR,,,,,,,,,,,,SPECI,92
KUNV 050422Z AUTO 00000KT 10SM SCT065 OVC080 10/M00 A3007 RMK AO2,KUNV,2023-11-05T04:22:00Z,40.8534,-77.8401,10,0,0,0,,10+,30.07,,,TRUE,TRUE,,,,,,,SCT,6500,OVC,8000,,,,,VFR,,,,,,,,,,,,METAR,365
KSFY 050422Z AUTO 00000KT 10SM CLR 02/01 A3018 RMK AO2,KSFY,2023-11-05T04:22:00Z,42.0454,-90.1101,2,1,0,0,,10+,30.18,,,TRUE,TRUE,,,,,,,CLR,,,,,,,,VFR,,,,,,,,,,,,METAR,188
CYZH 050422Z AUTO 10011G16KT 4SM BR OVC007 01/01 A2959 RMK SLP046,CYZH,2023-11-05T04:22:00Z,55.293,-114.773,1,1,100,11,16,4,29.59,1004.6,,TRUE,,,,,,,BR,OVC,700,,,,,,,IFR,,,,,,,,,,,,SPECI,583
PALG 050421Z AUTO 26003KT 6SM -SN BR BKN020 OVC033 M07/M09 A2961 RMK AO2 FZRANO PNO $,PALG,2023-11-05T04:21:00Z,61.538,-160.34,-7,-9,260,3,,6,29.61,,,TRUE,TRUE,TRUE,,,,,-SN BR,BKN,2000,OVC,3300,,,,,MVFR,,,,,,,,,,,,SPECI,13
PKWA 050420Z AUTO 08016KT 10SM CLR 24/19 A2974 RMK AO2 T02360193 TSNO,PKWA,2023-11-05T04:20:00Z,8.72,167.724,23.6,19.3,80,16,,10+,29.74,,,TRUE,TRUE,,,,,,,CLR,,,,,,,,VFR,,,,,,,,,,,,METAR,6
PAMD 050420Z AUTO 1/2SM FG OVC002 06/05 A2924 RMK AO2 VIS 1/4V1 3/4 RAB0356E12 PNO $,PAMD,2023-11-05T04:20:00Z,59.442,-146.317,6,5,,,,0.5,29.24,,,TRUE,TRUE,TRUE,,,,,FG,OVC,200,,,,,,,LIFR,,,,,,,,,,,,SPECI,20
LSZS 050420Z AUTO 03002KT 9999 OVC009 M01/M01 Q0987,LSZS,2023-11-05T04:20:00Z,46.526,9.879,-1,-1,30,2,,6+,29.14,,,TRUE,,,,,,,,OVC,900,,,,,,,IFR,,,,,,,,,,,,METAR,1708
LSZR 050420Z AUTO 18014KT CAVOK 12/01 Q0982,LSZR,2023-11-05T04:20:00Z,47.485,9.561,12,1,180,14,,6+,29.00,,,TRUE,,,,,,,,CAVOK,,,,,,,,VFR,,,,,,,,,,,,METAR,396
LSZL 050420Z AUTO VRB01KT 9999NDV OVC059 06/05 Q0990 RMK,LSZL,2023-11-05T04:20:00Z,46.164,8.878,6,5,VRB,1,,,29.23,,,TRUE,,,,,,,,OVC,5900,,,,,,,VFR,,,,,,,,,,,,METAR,198
LSZH 050420Z AUTO 24009KT CAVOK 09/05 Q0984 TEMPO SHRA,LSZH,2023-11-05T04:20:00Z,47.48,8.536,9,5,240,9,,6+,29.06,,,TRUE,,,,,,,,CAVOK,,,,,,,,VFR,,,,,,,,,,,,METAR,424
LSZG 050420Z AUTO 23009KT 9999 -RA FEW020 BKN037 BKN041 08/08 Q0984,LSZG,2023-11-05T04:20:00Z,47.179,7.415,8,8,230,9,,6+,29.06,,,TRUE,,,,,,,-RA,FEW,2000,BKN,3700,BKN,4100,,,VFR,,,,,,,,,,,,METAR,428
LSZC 050420Z AUTO VRB02KT 9999 FEW080 SCT130 06/04 Q0984,LSZC,2023-11-05T04:20:00Z,46.972,8.392,6,4,VRB,2,,6+,29.06,,,TRUE,,,,,,,,FEW,8000,SCT,13000,,,,,VFR,,,,,,,,,,,,METAR,445
LSZB 050420Z AUTO VRB02KT 9999 -DZ FEW070 SCT085 BKN100 07/05 Q0984,LSZB,2023-11-05T04:20:00Z,46.914,7.497,7,5,VRB,2,,6+,29.06,,,TRUE,,,,,,,-DZ,FEW,7000,SCT,8500,BKN,10000,,,VFR,,,,,,,,,,,,METAR,510
LSZA 050420Z AUTO VRB01KT 9999 BKN039 07/07 Q0989,LSZA,2023-11-05T04:20:00Z,46.004,8.91,7,7,VRB,1,,6+,29.20,,,TRUE,,,,,,,,BKN,3900,,,,,,,VFR,,,,,,,,,,,,METAR,276
LSGS 050420Z AUTO 08006KT 9999 -RA BKN038 03/02 Q0990,LSGS,2023-11-05T04:20:00Z,46.219,7.33,3,2,80,6,,6+,29.23,,,TRUE,,,,,,,-RA,BKN,3800,,,,,,,VFR,,,,,,,,,,,,METAR,482
LSGG 050420Z AUTO 21019KT 9999 -RA FEW029 BKN043 11/05 Q0986 RESHRA NOSIG,LSGG,2023-11-05T04:20:00Z,46.248,6.128,11,5,210,19,,6+,29.11,,,TRUE,,,,,,,-RA,FEW,2900,BKN,4300,,,,,VFR,,,,,,,,,,,,METAR,411
LSGC 050420Z AUTO 22016G27KT 190V260 9999 -RA BKN020 BKN023 06/04 Q0983 REDZ,LSGC,2023-11-05T04:20:00Z,47.083,6.792,6,4,220,16,27,6+,29.03,,,TRUE,,,,,,,-RA,BKN,2000,BKN,2300,,,,,MVFR,,,,,,,,,,,,METAR,1018
LLBG 050420Z VRB03KT CAVOK 18/11 Q1014 NOSIG,LLBG,2023-11-05T04:20:00Z,32.011,34.887,18,11,VRB,3,,6+,29.94,,,,,,,,,,,CAVOK,,,,,,,,VFR,,,,,,,,,,,,METAR,35
LGRP 050420Z 11006KT 9999 SCT016 24/21 Q1012 NOSIG,LGRP,2023-11-05T04:20:00Z,36.405,28.086,24,21,110,6,,6+,29.88,,,,,,,,,,,SCT,1600,,,,,,,VFR,,,,,,,,,,,,METAR,3
LGKR 050420Z 00000KT 9999 SCT018 14/12 Q1008 NOSIG,LGKR,2023-11-05T04:20:00Z,39.61,19.913,14,12,0,0,,6+,29.76,,,,,,,,,,,SCT,1800,,,,,,,VFR,,,,,,,,,,,,METAR,2
LGIR 050420Z VRB02KT 9999 SCT020 22/17 Q1013,LGIR,2023-11-05T04:20:00Z,35.337,25.173,22,17,VRB,2,,6+,29.91,,,,,,,,,,,SCT,2000,,,,,,,VFR,,,,,,,,,,,,METAR,37
LGAV 050420Z 19003KT 9999 FEW025 15/10 Q1011 NOSIG,LGAV,2023-11-05T04:20:00Z,37.936,23.945,15,10,190,3,,6+,29.85,,,,,,,,,,,FEW,2500,,,,,,,VFR,,,,,,,,,,,,METAR,83
LATI 050420Z 16006KT 9999 FEW045 BKN092 13/11 Q1007 NOSIG,LATI,2023-11-05T04:20:00Z,41.419,19.716,13,11,160,6,,6+,29.73,,,,,,,,,,,FEW,4500,BKN,9200,,,,,VFR,,,,,,,,,,,,METAR,32
KUAO 050420Z AUTO 00000KT 10SM BKN024 BKN060 13/11 A2990 RMK AO2 T01280106 $,KUAO,2023-11-05T04:20:00Z,45.2466,-122.771,12.8,10.6,0,0,,10+,29.90,,,TRUE,TRUE,TRUE,,,,,,BKN,2400,BKN,6000,,,,,MVFR,,,,,,,,,,,,SPECI,60
KTCM 050420Z AUTO 21005KT 10SM SCT024 12/11 A2984 RMK AO2 SLP108 $,KTCM,2023-11-05T04:20:00Z,47.149,-122.475,12,11,210,5,,10+,29.84,1010.8,,TRUE,TRUE,TRUE,,,,,,SCT,2400,,,,,,,VFR,,,,,,,,,,,,SPECI,87
KSJC 050420Z 34008KT 10SM BKN011 17/13 A3008 RMK AO2 T01670128 $,KSJC,2023-11-05T04:20:00Z,37.3594,-121.924,16.7,12.8,340,8,,10+,30.08,,,,TRUE,TRUE,,,,,,BKN,1100,,,,,,,MVFR,,,,,,,,,,,,SPECI,13
KQFX 050420Z AUTO 02002KT 9999 SCT140 22/16 A3003 RMK A02 TSNO,KQFX,2023-11-05T04:20:00Z,-99.99,-99.99,22,16,20,2,,6+,30.03,,,TRUE,TRUE,,,,,,,SCT,14000,,,,,,,VFR,,,,,,,,,,,,METAR,9999
KQFV 050420Z AUTO 31002KT 9999 SCT007 BKN020 BKN060 16/15 A3012 RMK A02 TSNO,KQFV,2023-11-05T04:20:00Z,-99.99,-99.99,16,15,310,2,,6+,30.12,,,TRUE,TRUE,,,,,,,SCT,700,BKN,2000,BKN,6000,,,MVFR,,,,,,,,,,,,METAR,9999
KQFU 050420Z AUTO 15002KT 9999 FEW015 BKN060 BKN120 18/16 A3008 RMK A02 TSNO,KQFU,2023-11-05T04:20:00Z,-99.99,-99.99,18,16,150,2,,6+,30.08,,,TRUE,TRUE,,,,,,,FEW,1500,BKN,6000,BKN,12000,,,VFR,,,,,,,,,,,,METAR,9999
KQFT 050420Z AUTO 35003KT 9999 BKN055 BKN130 BKN140 17/15 A3005 RMK A02 TSNO,KQFT,2023-11-05T04:20:00Z,-99.99,-99.99,17,15,350,3,,6+,30.05,,,TRUE,TRUE,,,,,,,BKN,5500,BKN,13000,BKN,14000,,,VFR,,,,,,,,,,,,METAR,9999
KQFB 050420Z AUTO 25002KT 9999 FEW046 23/17 A3015 RMK A02 TSNO,KQFB,2023-11-05T04:20:00Z,-99.99,-99.99,23,17,250,2,,6+,30.15,,,TRUE,TRUE,,,,,,,FEW,4600,,,,,,,VFR,,,,,,,,,,,,METAR,9999
KQEX 050420Z AUTO 16006G11KT 9999 SCT033 BKN065 23/16 A3001 RMK A02 TSNO,KQEX,2023-11-05T04:20:00Z,-99.99,-99.99,23,16,160,6,11,6+,30.01,,,TRUE,TRUE,,,,,,,SCT,3300,BKN,6500,,,,,VFR,,,,,,,,,,,,METAR,9999
KQEW 050420Z AUTO 34001KT 9999 BKN030 21/16 A3008 RMK A02 TSNO,KQEW,2023-11-05T04:20:00Z,-99.99,-99.99,21,16,340,1,,6+,30.08,,,TRUE,TRUE,,,,,,,BKN,3000,,,,,,,MVFR,,,,,,,,,,,,METAR,9999
KQEV 050420Z AUTO 07004KT 9999 BKN180 23/16 A2997 RMK A02 TSNO,KQEV,2023-11-05T04:20:00Z,-99.99,-99.99,23,16,70,4,,6+,29.97,,,TRUE,TRUE,,,,,,,BKN,18000,,,,,,,VFR,,,,,,,,,,,,METAR,9999
KQEQ 050420Z AUTO 02002KT 9999 BKN060 16/16 A3008 RMK A02 TSNO,KQEQ,2023-11-05T04:20:00Z,-99.99,-99.99,16,16,20,2,,6+,30.08,,,TRUE,TRUE,,,,,,,BKN,6000,,,,,,,VFR,,,,,,,,,,,,METAR,9999
KQEP 050420Z AUTO 01001KT 9999 BKN150 19/17 A3006 RMK A02 TSNO,KQEP,2023-11-05T04:20:00Z,-99.99,-99.99,19,17,10,1,,6+,30.06,,,TRUE,TRUE,,,,,,,BKN,15000,,,,,,,VFR,,,,,,,,,,,,METAR,9999
KQEN 050420Z AUTO 06004KT M0400 FG CLR 13/13 A3015 RMK A02 TSNO,KQEN,2023-11-05T04:20:00Z,-99.99,-99.99,13,13,60,4,,0.25,30.15,,,TRUE,TRUE,,,,,,FG,CLR,,,,,,,,LIFR,,,,,,,,,,,,METAR,9999
KQEJ 050420Z AUTO 09001KT 9999 FEW010 BKN060 BKN140 17/14 A3008 RMK A02 TSNO,KQEJ,2023-11-05T04:20:00Z,-99.99,-99.99,17,14,90,1,,6+,30.08,,,TRUE,TRUE,,,,,,,FEW,1000,BKN,6000,BKN,14000,,,VFR,,,,,,,,,,,,METAR,9999
KQEI 050420Z AUTO 29004KT 9999 FEW009 BKN049 16/14 A3009 RMK A02 TSNO,KQEI,2023-11-05T04:20:00Z,-99.99,-99.99,16,14,290,4,,6+,30.09,,,TRUE,TRUE,,,,,,,FEW,900,BKN,4900,,,,,VFR,,,,,,,,,,,,METAR,9999
KPHF 050420Z AUTO 00000KT 3/4SM BR CLR 06/06 A3011 RMK AO2 T00610061 RVRNO,KPHF,2023-11-05T04:20:00Z,37.1322,-76.494,6.1,6.1,0,0,,0.75,30.11,,,TRUE,TRUE,,,,,,BR,CLR,,,,,,,,LIFR,,,,,,,,,,,,SPECI,12
KNXF 050420Z AUTO 05004KT BKN003 13/12 A3000 RMK AO2 T01330122 PWINO $ ,KNXF,2023-11-05T04:20:00Z,33.287,-117.456,13.3,12.2,50,4,,,30.00,,,TRUE,TRUE,TRUE,,,,,,BKN,300,,,,,,,LIFR,,,,,,,,,,,,SPECI,28
KMTK 050420Z AUTO VRB06KT 10SM SCT032 22/16 A3015 RMK A01,KMTK,2023-11-05T04:20:00Z,28.6967,-89.3958,22,16,VRB,6,,10+,30.15,,,TRUE,TRUE,,,,,,,SCT,3200,,,,,,,VFR,,,,,,,,,,,,METAR,50
KMHV 050420Z AUTO 27011KT 10SM CLR 20/M10 A3008 RMK AO2,KMHV,2023-11-05T04:20:00Z,35.0626,-118.157,20,-10,270,11,,10+,30.08,,,TRUE,TRUE,,,,,,,CLR,,,,,,,,VFR,,,,,,,,,,,,METAR,841
KLCH 050420Z AUTO 00000KT 1/4SM FG 14/14 A3016 RMK AO2 T01390139 RVRNO $,KLCH,2023-11-05T04:20:00Z,30.1255,-93.2277,13.9,13.9,0,0,,0.25,30.16,,,TRUE,TRUE,TRUE,,,,,FG,,,,,,,,,LIFR,,,,,,,,,,,,SPECI,2
KHYR 050420Z AUTO 03003KT 10SM OVC029 03/M03 A3013 RMK AO2 T00281028,KHYR,2023-11-05T04:20:00Z,46.0303,-91.4426,2.8,-2.8,30,3,,10+,30.13,,,TRUE,TRUE,,,,,,,OVC,2900,,,,,,,MVFR,,,,,,,,,,,,SPECI,369
KFTN 050420Z AUTO 10004KT 10SM CLR 19/13 A3012 RMK A01,KFTN,2023-11-05T04:20:00Z,28.2111,-100.024,19,13,100,4,,10+,30.12,,,TRUE,TRUE,,,,,,,CLR,,,,,,,,VFR,,,,,,,,,,,,METAR,236
KFFA 050420Z AUTO 01003KT 10SM SCT065 16/16 A3007 RMK AO2 T01610157,KFFA,2023-11-05T04:20:00Z,36.0165,-75.6739,16.1,15.7,10,3,,10+,30.07,,,TRUE,TRUE,,,,,,,SCT,6500,,,,,,,VFR,,,,,,,,,,,,METAR,2
KDSF 050420Z AUTO 04017KT 10SM FEW026 23/16 A3015 RMK A01,KDSF,2023-11-05T04:20:00Z,28.35,-88.27,23,16,40,17,,10+,30.15,,,TRUE,TRUE,,,,,,,FEW,2600,,,,,,,VFR,,,,,,,,,,,,METAR,40
KCNK 050420Z AUTO 11003KT 1 1/4SM BR CLR 06/05 A3020 RMK AO2 T00610050,KCNK,2023-11-05T04:20:00Z,39.5513,-97.6508,6.1,5,110,3,,1.25,30.20,,,TRUE,TRUE,,,,,,BR,CLR,,,,,,,,IFR,,,,,,,,,,,,SPECI,445
KBPT 050420Z AUTO 00000KT 1/2SM R12/3000VP6000FT FG 16/15 A3015 RMK AO2 T01560150 $,KBPT,2023-11-05T04:20:00Z,29.9521,-94.0262,15.6,15,0,0,,0.5,30.15,,,TRUE,TRUE,TRUE,,,,,FG,,,,,,,,,LIFR,,,,,,,,,,,,SPECI,6
K5T9 050420Z AUTO 14005KT 10SM CLR 18/15 A3009 RMK A01,K5T9,2023-11-05T04:20:00Z,28.8568,-100.516,18,15,140,5,,10+,30.09,,,TRUE,TRUE,,,,,,,CLR,,,,,,,,VFR,,,,,,,,,,,,METAR,269
K1D1 050420Z AUTO 30008KT 6SM BR CLR 01/01 A3008 RMK AO2,K1D1,2023-11-05T04:20:00Z,45.231,-96.566,1,1,300,8,,6,30.08,,,TRUE,TRUE,,,,,,BR,CLR,,,,,,,,VFR,,,,,,,,,,,,METAR,340
EYVI 050420Z 12003KT 9999 MIFG NSC 01/01 Q0992 TEMPO 0600 FG VV002,EYVI,2023-11-05T04:20:00Z,54.634,25.286,1,1,120,3,,6+,29.29,,,,,,,,,,MIFG,CLR,,,,,,,,VFR,,,,,,,,,,,,METAR,180
EYSA 050420Z 14003KT 100V170 9999 FEW029 03/03 Q0991 NOSIG,EYSA,2023-11-05T04:20:00Z,55.894,23.395,3,3,140,3,,6+,29.26,,,,,,,,,,,FEW,2900,,,,,,,VFR,,,,,,,,,,,,METAR,135
EYPA 050420Z 12008KT 9999 FEW032 05/04 Q0989,EYPA,2023-11-05T04:20:00Z,55.973,21.092,5,4,120,8,,6+,29.20,,,,,,,,,,,FEW,3200,,,,,,,VFR,,,,,,,,,,,,METAR,15
EYKA 050420Z 14004KT CAVOK 02/01 Q0991,EYKA,2023-11-05T04:20:00Z,54.962,24.069,2,1,140,4,,6+,29.26,,,,,,,,,,,CAVOK,,,,,,,,VFR,,,,,,,,,,,,METAR,68
EVVA 050420Z AUTO 13005KT 7000 SCT003 05/05 Q0990,EVVA,2023-11-05T04:20:00Z,57.361,21.545,5,5,130,5,,4.35,29.23,,,TRUE,,,,,,,,SCT,300,,,,,,,MVFR,,,,,,,,,,,,METAR,1
EVRA 050420Z 00000KT 9999 MIFG FEW003 04/03 Q0992 NOSIG,EVRA,2023-11-05T04:20:00Z,56.924,23.968,4,3,0,0,,6+,29.29,,,,,,,,,,MIFG,FEW,300,,,,,,,VFR,,,,,,,,,,,,METAR,7
EVLA 050420Z AUTO 12006KT 100V160 9999 FEW034/// 05/04 Q0989,EVLA,2023-11-05T04:20:00Z,56.517,21.097,5,4,120,6,,6+,29.20,,,TRUE,,,,,,,,FEW,3400,,,,,,,VFR,,,,,,,,,,,,METAR,5
EVGA 050420Z 10005KT 9999 BKN037 06/05 Q0992 NOSIG,EVGA,2023-11-05T04:20:00Z,56.778,24.854,6,5,100,5,,6+,29.29,,,,,,,,,,,BKN,3700,,,,,,,VFR,,,,,,,,,,,,METAR,61
ENZV 050420Z 09009KT 9999 FEW040 BKN075 08/03 Q0976,ENZV,2023-11-05T04:20:00Z,58.884,5.637,8,3,90,9,,6+,28.82,,,,,,,,,,,FEW,4000,BKN,7500,,,,,VFR,,,,,,,,,,,,METAR,7
ENVA 050420Z AUTO 08007KT 9999 OVC064/// 04/M02 Q0981 RMK WIND 670FT 09009KT,ENVA,2023-11-05T04:20:00Z,63.46,10.931,4,-2,80,7,,6+,28.97,,,TRUE,,,,,,,,OVC,6400,,,,,,,VFR,,,,,,,,,,,,METAR,12
ENTO 050420Z AUTO 01007KT 9999 -DZ VV003 03/03 Q0981,ENTO,2023-11-05T04:20:00Z,59.184,10.255,3,3,10,7,,6+,28.97,,,TRUE,,,,,,,-DZ,OVX,0,,,,,,,LIFR,,,,,,,,,,,300,METAR,84
ENTC 050420Z AUTO 19009KT 9999 OVC100/// 01/M04 Q0993 RMK WIND 2600FT 16015KT,ENTC,2023-11-05T04:20:00Z,69.675,18.916,1,-4,190,9,,6+,29.32,,,TRUE,,,,,,,,OVC,10000,,,,,,,VFR,,,,,,,,,,,,METAR,9
ENSB 050420Z 13008KT 7000 -SN FEW005 BKN025 M09/M11 Q1012 RMK WIND 1400FT 07005KT,ENSB,2023-11-05T04:20:00Z,78.246,15.466,-9,-11,130,8,,4.35,29.88,,,,,,,,,,-SN,FEW,500,BKN,2500,,,,,MVFR,,,,,,,,,,,,METAR,30
ENRY 050420Z AUTO 06007KT 9999 OVC004/// 05/04 Q0982,ENRY,2023-11-05T04:20:00Z,59.381,10.783,5,4,60,7,,6+,29.00,,,TRUE,,,,,,,,OVC,400,,,,,,,LIFR,,,,,,,,,,,,METAR,45
ENRO 050420Z AUTO 09004KT 9999 BKN006/// BKN010/// OVC070/// M02/M03 Q0981,ENRO,2023-11-05T04:20:00Z,62.578,11.342,-2,-3,90,4,,6+,28.97,,,TRUE,,,,,,,,BKN,600,BKN,1000,OVC,7000,,,IFR,,,,,,,,,,,,METAR,624
ENOL 050420Z 11011KT CAVOK 05/M00 Q0979,ENOL,2023-11-05T04:20:00Z,63.703,9.609,5,0,110,11,,6+,28.91,,,,,,,,,,,CAVOK,,,,,,,,VFR,,,,,,,,,,,,METAR,9
ENHD 050420Z AUTO 08008KT 9999 BKN076/// 07/02 Q0977,ENHD,2023-11-05T04:20:00Z,59.341,5.22,7,2,80,8,,6+,28.85,,,TRUE,,,,,,,,BKN,7600,,,,,,,VFR,,,,,,,,,,,,METAR,22
ENGM 050420Z 04005KT 5000 -DZ BR FEW002 OVC004 01/01 Q0983,ENGM,2023-11-05T04:20:00Z,60.201,11.08,1,1,40,5,,3.11,29.03,,,,,,,,,,-DZ BR,FEW,200,OVC,400,,,,,LIFR,,,,,,,,,,,,METAR,204
ENDU 050420Z 12010KT 9999 FEW040 SCT140 M02/M08 Q0995 RMK WIND 1100FT 11010KT WIND 2200FT 14023KT,ENDU,2023-11-05T04:20:00Z,69.058,18.544,-2,-8,120,10,,6+,29.38,,,,,,,,,,,FEW,4000,SCT,14000,,,,,VFR,,-1,,,,,,,,,,METAR,65
ENCN 050420Z AUTO 08004KT 030V110 9999 RA FEW009/// BKN015/// OVC051/// 08/06 Q0977,ENCN,2023-11-05T04:20:00Z,58.2,8.077,8,6,80,4,,6+,28.85,,,TRUE,,,,,,,RA,FEW,900,BKN,1500,OVC,5100,,,MVFR,,,,,,,,,,,,METAR,17
ENBR 050420Z 08004KT 030V100 CAVOK 07/01 Q0977 RMK WIND 1200FT 10007KT,ENBR,2023-11-05T04:20:00Z,60.29,5.222,7,1,80,4,,6+,28.85,,,,,,,,,,,CAVOK,,,,,,,,VFR,,0.7,,,,,,,,,,METAR,49
ENBO 050420Z AUTO 10025KT 9999 OVC110/// 03/M05 Q0986,ENBO,2023-11-05T04:20:00Z,67.267,14.359,3,-5,100,25,,6+,29.11,,,TRUE,,,,,,,,OVC,11000,,,,,,,VFR,,,,,,,,,,,,METAR,13
ENAN 050420Z AUTO 12022KT 9999 NCD 02/M04 Q0991,ENAN,2023-11-05T04:20:00Z,69.307,16.131,2,-4,120,22,,6+,29.26,,,TRUE,,,,,,,,CLR,,,,,,,,VFR,,,,,,,,,,,,METAR,13
ENAL 050420Z AUTO 15007KT 9999 BKN066/// 08/02 Q0979,ENAL,2023-11-05T04:20:00Z,62.562,6.115,8,2,150,7,,6+,28.91,,,TRUE,,,,,,,,BKN,6600,,,,,,,VFR,,,,,,,,,,,,METAR,21
EKVG 050420Z AUTO 14008KT 9999 SCT049/// SCT080/// BKN100/// 06/06 Q0971 RMK FEW048/// BKN110/// WIND SKEID 13013KT,EKVG,2023-11-05T04:20:00Z,62.065,-7.282,6,6,140,8,,6+,28.67,,,TRUE,,,,,,,,SCT,4900,SCT,8000,BKN,10000,,,VFR,,,,,,,,,,,,METAR,89
EKSP 050420Z 13008KT 8000 -RA BKN008 07/07 Q0972,EKSP,2023-11-05T04:20:00Z,55.225,9.263,7,7,130,8,,4.97,28.70,,,,,,,,,,-RA,BKN,800,,,,,,,IFR,,,,,,,,,,,,METAR,40
EKKA 050420Z AUTO 09010KT 4000 -RA OVC006/// 07/07 Q0974,EKKA,2023-11-05T04:20:00Z,56.293,9.114,7,7,90,10,,2.49,28.76,,,TRUE,,,,,,,-RA,OVC,600,,,,,,,IFR,,,,,,,,,,,,METAR,50
EFVA 050420Z AUTO 15011KT 9999 -SHRA OVC007 06/05 Q0985,EFVA,2023-11-05T04:20:00Z,63.051,21.762,6,5,150,11,,6+,29.08,,,TRUE,,,,,,,-SHRA,OVC,700,,,,,,,IFR,,,,,,,,,,,,METAR,4
EFTU 050420Z AUTO 17005KT CAVOK 07/05 Q0990,EFTU,2023-11-05T04:20:00Z,60.514,22.263,7,5,170,5,,6+,29.23,,,TRUE,,,,,,,,CAVOK,,,,,,,,VFR,,,,,,,,,,,,METAR,47
EFTP 050420Z AUTO 18008KT 9999 SCT009 BKN037 07/05 Q0990,EFTP,2023-11-05T04:20:00Z,61.419,23.616,7,5,180,8,,6+,29.23,,,TRUE,,,,,,,,SCT,900,BKN,3700,,,,,VFR,,,,,,,,,,,,METAR,111
EFRO 050420Z AUTO 08011KT 9999 OVC007 M02/M03 Q0995,EFRO,2023-11-05T04:20:00Z,66.562,25.829,-2,-3,80,11,,6+,29.38,,,TRUE,,,,,,,,OVC,700,,,,,,,IFR,,,,,,,,,,,,METAR,201
EFOU 050420Z AUTO 13016KT 9999 OVC005 03/02 Q0991,EFOU,2023-11-05T04:20:00Z,64.93,25.355,3,2,130,16,,6+,29.26,,,TRUE,,,,,,,,OVC,500,,,,,,,IFR,,,,,,,,,,,,METAR,15
EFMA 050420Z AUTO 19012KT 9999 OVC029 08/05 Q0988,EFMA,2023-11-05T04:20:00Z,60.125,19.903,8,5,190,12,,6+,29.17,,,TRUE,,,,,,,,OVC,2900,,,,,,,MVFR,,,,,,,,,,,,METAR,6
EFIV 050420Z AUTO 03009KT 9999 OVC015 M06/M08 Q1001,EFIV,2023-11-05T04:20:00Z,68.607,27.405,-6,-8,30,9,,6+,29.56,,,TRUE,,,,,,,,OVC,1500,,,,,,,MVFR,,,,,,,,,,,,METAR,145
EFHK 050420Z 17008KT 130V190 9999 SCT009 BKN040 08/07 Q0992 NOSIG,EFHK,2023-11-05T04:20:00Z,60.327,24.957,8,7,170,8,,6+,29.29,,,,,,,,,,,SCT,900,BKN,4000,,,,,VFR,,,,,,,,,,,,METAR,56
EETU 050420Z AUTO 00000KT 9999 OVC042/// 05/03 Q0993,EETU,2023-11-05T04:20:00Z,58.307,26.691,5,3,0,0,,6+,29.32,,,TRUE,,,,,,,,OVC,4200,,,,,,,VFR,,,,,,,,,,,,METAR,67
EETN 050420Z 15006KT 9999 SCT042 07/06 Q0992 NOSIG,EETN,2023-11-05T04:20:00Z,59.413,24.801,7,6,150,6,,6+,29.29,,,,,,,,,,,SCT,4200,,,,,,,VFR,,,,,,,,,,,,METAR,41
EEPU 050420Z AUTO 14005KT 9999 SCT039/// 06/05 Q0992,EEPU,2023-11-05T04:20:00Z,58.419,24.473,6,5,140,5,,6+,29.29,,,TRUE,,,,,,,,SCT,3900,,,,,,,VFR,,,,,,,,,,,,METAR,13
EEKE 050420Z AUTO 16010KT 9999NDV NCD 07/07 Q0990,EEKE,2023-11-05T04:20:00Z,58.23,22.509,7,7,160,10,,,29.23,,,TRUE,,,,,,,,CLR,,,,,,,,VFR,,,,,,,,,,,,METAR,4
EBFS 050420Z AUTO 20011KT 9999 -RA FEW007/// SCT010/// BKN014/// 09/08 Q0970 GRN,EBFS,2023-11-05T04:20:00Z,50.243,4.646,9,8,200,11,,6+,28.64,,,TRUE,,,,,,,-RA,FEW,700,SCT,1000,BKN,1400,,,MVFR,,,,,,,,,,,,SPECI,276
CYZP 050420Z AUTO 17006KT 5SM -RA BR FEW006 BKN040 BKN048 11/11 A2897 RMK SLP812 DENSITY ALT 700FT,CYZP,2023-11-05T04:20:00Z,53.254,-131.814,11,11,170,6,,5,28.97,981.2,,TRUE,,,,,,,-RA BR,FEW,600,BKN,4000,BKN,4800,,,MVFR,,,,,,,,,,,,SPECI,7
PWAK 050419Z AUTO 07014KT 10SM -RA BKN018 28/25 A2985 RMK AO2 RAB04 CIG 018V023 SLP114,PWAK,2023-11-05T04:19:00Z,19.287,166.623,28,25,70,14,,10+,29.85,1011.4,,TRUE,TRUE,,,,,,-RA,BKN,1800,,,,,,,MVFR,,,,,,,,,,,,SPECI,7
PAYA 050419Z AUTO 00000KT 3SM BR CLR 01/01 A2918 RMK AO2 T00110011 PWINO FZRANO TSNO $,PAYA,2023-11-05T04:19:00Z,59.512,-139.671,1.1,1.1,0,0,,3,29.18,,,TRUE,TRUE,TRUE,,,,,BR,CLR,,,,,,,,MVFR,,,,,,,,,,,,SPECI,9
KDEW 050419Z AUTO 17007KT 10SM BKN009 OVC017 11/10 A2979 RMK AO2 T01110100,KDEW,2023-11-05T04:19:00Z,47.9742,-117.429,11.1,10,170,7,,10+,29.79,,,TRUE,TRUE,,,,,,,BKN,900,OVC,1700,,,,,IFR,,,,,,,,,,,,SPECI,672
K2V6 050419Z AUTO 20007KT 10SM CLR 02/M03 A3013 RMK AO2,K2V6,2023-11-05T04:19:00Z,40.1047,-102.713,2,-3,200,7,,10+,30.13,,,TRUE,TRUE,,,,,,,CLR,,,,,,,,VFR,,,,,,,,,,,,METAR,1257
EBBL 050419Z AUTO 20005KT 9999 -DZ FEW009/// OVC016/// 10/09 Q0970 WHT,EBBL,2023-11-05T04:19:00Z,51.168,5.47,10,9,200,5,,6+,28.64,,,TRUE,,,,,,,-DZ,FEW,900,OVC,1600,,,,,MVFR,,,,,,,,,,,,SPECI,50
CYQW 050419Z AUTO 12015G23KT 4SM BR OVC006 01/M00 A2970 RMK SLP085,CYQW,2023-11-05T04:19:00Z,52.769,-108.251,1,0,120,15,23,4,29.70,1008.5,,TRUE,,,,,,,BR,OVC,600,,,,,,,IFR,,,,,,,,,,,,SPECI,545
CYPL 050419Z AUTO 12002KT 9SM BKN011 M11/M13 A3016 RMK SLP248,CYPL,2023-11-05T04:19:00Z,51.449,-90.218,-11,-13,120,2,,9,30.16,1024.8,,TRUE,,,,,,,,BKN,1100,,,,,,,MVFR,,,,,,,,,,,,SPECI,390
CYHK 050419Z AUTO 33014KT 3/4SM -FZRA -SN OVC003 M08/M08 A2999 RMK ICE SLP162,CYHK,2023-11-05T04:19:00Z,68.633,-95.851,-8,-8,330,14,,0.75,29.99,1016.2,,TRUE,,,,,,,-FZRA -SN,OVC,300,,,,,,,LIFR,,,,,,,,,,,,SPECI,36
PALH 050418Z 04006KT 1SM BR VV002 01/01 A2926 RMK AO2 T00060006,PALH,2023-11-05T04:18:00Z,61.179,-149.962,0.6,0.6,40,6,,1,29.26,,,,TRUE,,,,,,BR,OVX,0,,,,,,,LIFR,,,,,,,,,,,200,SPECI,26
KSPB 050418Z AUTO 28003KT 3SM BR CLR 11/09 A2987 RMK AO2 T01060089,KSPB,2023-11-05T04:18:00Z,45.7691,-122.864,10.6,8.9,280,3,,3,29.87,,,TRUE,TRUE,,,,,,BR,CLR,,,,,,,,MVFR,,,,,,,,,,,,SPECI,15
KSAW 050418Z AUTO 33003KT 10SM OVC050 01/M02 A3011 RMK AO2,KSAW,2023-11-05T04:18:00Z,46.341,-87.395,1,-2,330,3,,10+,30.11,,,TRUE,TRUE,,,,,,,OVC,5000,,,,,,,VFR,,,,,,,,,,,,METAR,359
KGSH 050418Z AUTO 30004KT 1/2SM FG CLR 03/03 A3016 RMK AO2 T00280028,KGSH,2023-11-05T04:18:00Z,41.5265,-85.7872,2.8,2.8,300,4,,0.5,30.16,,,TRUE,TRUE,,,,,,FG,CLR,,,,,,,,LIFR,,,,,,,,,,,,SPECI,252
KGAG 050418Z AUTO 00000KT 1 3/4SM BR CLR 07/06 A3017 RMK AO2 T00670056 $,KGAG,2023-11-05T04:18:00Z,36.2966,-99.7686,6.7,5.6,0,0,,1.75,30.17,,,TRUE,TRUE,TRUE,,,,,BR,CLR,,,,,,,,IFR,,,,,,,,,,,,SPECI,670
CYYQ 050418Z 33012G17KT 15SM BKN013 M08/M10 A3013 RMK SC5 SLP207,CYYQ,2023-11-05T04:18:00Z,58.745,-94.074,-8,-10,330,12,17,15,30.13,1020.7,,,,,,,,,,BKN,1300,,,,,,,MVFR,,,,,,,,,,,,SPECI,20
CYEK 050418Z AUTO 32017KT 9SM -SN CLR M14/M16 A3007 RMK SLP187,CYEK,2023-11-05T04:18:00Z,61.098,-94.072,-14,-16,320,17,,9,30.07,1018.7,,TRUE,,,,,,,-SN,CLR,,,,,,,,VFR,,,,,,,,,,,,SPECI,7
CYCB 050418Z 31007KT 12SM FEW005 BKN012 M14/M17 A3014 RMK SF1SC6 SLP213,CYCB,2023-11-05T04:18:00Z,69.106,-105.116,-14,-17,310,7,,12,30.14,1021.3,,,,,,,,,,FEW,500,BKN,1200,,,,,MVFR,,,,,,,,,,,,SPECI,19
KGPI 050417Z 00000KT 4SM BR SCT006 OVC041 05/05 A2980 RMK AO2 T00500050,KGPI,2023-11-05T04:17:00Z,48.3041,-114.264,5,5,0,0,,4,29.80,,,,TRUE,,,,,,BR,SCT,600,OVC,4100,,,,,MVFR,,,,,,,,,,,,SPECI,903
KCMA 050417Z AUTO 05003KT 5SM BR CLR 13/12 A3000 RMK AO2 T01330117 $,KCMA,2023-11-05T04:17:00Z,34.2114,-119.088,13.3,11.7,50,3,,5,30.00,,,TRUE,TRUE,TRUE,,,,,BR,CLR,,,,,,,,MVFR,,,,,,,,,,,,SPECI,20
KBIS 050417Z AUTO 11007KT 1SM R31/4000VP6000FT BR OVC002 01/01 A3002 RMK AO2 T00060006,KBIS,2023-11-05T04:17:00Z,46.7823,-100.757,0.6,0.6,110,7,,1,30.02,,,TRUE,TRUE,,,,,,BR,OVC,200,,,,,,,LIFR,,,,,,,,,,,,SPECI,506
EHVK 050417Z AUTO 17008KT 140V210 9999 FEW008 OVC017 10/09 Q0970 WHT,EHVK,2023-11-05T04:17:00Z,51.658,5.707,10,9,170,8,,6+,28.64,,,TRUE,,,,,,,,FEW,800,OVC,1700,,,,,MVFR,,,,,,,,,,,,SPECI,20
CYIO 050417Z AUTO 16006KT 6SM -SN OVC031 M08/M09 A2979 RMK SLP099,CYIO,2023-11-05T04:17:00Z,72.694,-77.957,-8,-9,160,6,,6,29.79,1009.9,,TRUE,,,,,,,-SN,OVC,3100,,,,,,,VFR,,,,,,,,,,,,SPECI,61
RODN 050416Z 10012KT 10SM -RA SCT021 BKN026 BKN037 BKN046 29/22 A2997 RMK AO2A RAB06 CIG 022V030 CIG 024 RWY05 SLPNO FZRANO $,RODN,2023-11-05T04:16:00Z,26.356,127.768,29,22,100,12,,10+,29.97,,,,TRUE,TRUE,,,,,-RA,SCT,2100,BKN,2600,BKN,3700,BKN,4600,MVFR,,,,,,,,,,,,SPECI,38
PASV 050416Z AUTO VRB06KT 3SM -SN OVC029 M09/M11 A2938 RMK AO2 SLP988,PASV,2023-11-05T04:16:00Z,61.101,-155.577,-9,-11,VRB,6,,3,29.38,998.8,,TRUE,TRUE,,,,,,-SN,OVC,2900,,,,,,,MVFR,,,,,,,,,,,,SPECI,462
KI69 050416Z AUTO 00000KT 10SM CLR 13/05 A3014 RMK AO1 T01270051,KI69,2023-11-05T04:16:00Z,39.078,-84.21,12.7,5.1,0,0,,10+,30.14,,,TRUE,TRUE,,,,,,,CLR,,,,,,,,VFR,,,,,,,,,,,,METAR,238
KDPA 050416Z 00000KT 3SM BR CLR 02/01 A3017 RMK AO2 T00170006,KDPA,2023-11-05T04:16:00Z,41.8964,-88.2512,1.7,0.6,0,0,,3,30.17,,,,TRUE,,,,,,BR,CLR,,,,,,,,MVFR,,,,,,,,,,,,SPECI,228
KBUF 050416Z 00000KT 6SM -RA BR FEW009 BKN014 OVC045 08/07 A3009 RMK AO2 P0000 T00830072,KBUF,2023-11-05T04:16:00Z,42.94,-78.7361,8.3,7.2,0,0,,6,30.09,,,,TRUE,,,,,,-RA BR,FEW,900,BKN,1400,OVC,4500,,,MVFR,,,,,,0.005,,,,,,SPECI,217
K40B 050416Z AUTO 00000KT M04/M04 A3002 RMK AO1 SLP181 T10371045 58013 P0004,K40B,2023-11-05T04:16:00Z,46.616,-69.533,-3.7,-4.5,0,0,,,30.02,1018.1,,TRUE,TRUE,,,,,,,,,,,,,,,VFR,-0.13,,,,,0.04,,,,,,METAR,344
CYRV 050416Z AUTO VRB03KT 9SM -RA FEW005 OVC015 04/03 A2979 RMK SLP103,CYRV,2023-11-05T04:16:00Z,50.958,-118.176,4,3,VRB,3,,9,29.79,1010.3,,TRUE,,,,,,,-RA,FEW,500,OVC,1500,,,,,MVFR,,,,,,,,,,,,SPECI,456
CYKL 050416Z AUTO 24013G24KT 9SM -SN OVC130 M09/M11 A2962 RMK SLP072,CYKL,2023-11-05T04:16:00Z,54.803,-66.804,-9,-11,240,13,24,9,29.62,1007.2,,TRUE,,,,,,,-SN,OVC,13000,,,,,,,VFR,,,,,,,,,,,,SPECI,507
WSSS 050415Z 23005KT 160V270 9999 FEW016 FEW018CB SCT020TCU 28/23 Q1010 WS R02L TEMPO FM0425 TL0455 4500 -SHRA,WSSS,2023-11-05T04:15:00Z,1.368,103.982,28,23,230,5,,6+,29.82,,,,,,,,,,,FEW,1600,FEW,1800,SCT,2000,,,VFR,,,,,,,,,,,,SPECI,17
TJPS 050415Z AUTO 00000KT 10SM CLR 26/22 A2990 RMK AO2 PWINO TSNO,TJPS,2023-11-05T04:15:00Z,18.011,-66.567,26,22,0,0,,10+,29.90,,,TRUE,TRUE,,,,,,,CLR,,,,,,,,VFR,,,,,,,,,,,,METAR,12
PFKW 050415Z AUTO 31013G17KT 9SM -SN SCT018 OVC055 M05/M07 A2965 RMK AO2 P0000 FZRANO,PFKW,2023-11-05T04:15:00Z,60.793,-161.44,-5,-7,310,13,17,9,29.65,,,TRUE,TRUE,,,,,,-SN,SCT,1800,OVC,5500,,,,,VFR,,,,,,0.005,,,,,,SPECI,4
PAMC 050415Z AUTO 35003KT 2 1/2SM -SN BR OVC028 M07/M09 A2949 RMK AO2 P0001 T10721089 TSNO,PAMC,2023-11-05T04:15:00Z,62.957,-155.61,-7.2,-8.9,350,3,,2.5,29.49,,,TRUE,TRUE,,,,,,-SN BR,OVC,2800,,,,,,,IFR,,,,,,0.01,,,,,,SPECI,101
PAKX 050415Z AUTO 25004KT 10SM OVC012 M05/M05 A2942 RMK AO2,PAKX,2023-11-05T04:15:00Z,60.198,-154.323,-5,-5,250,4,,10+,29.42,,,TRUE,TRUE,,,,,,,OVC,1200,,,,,,,MVFR,,,,,,,,,,,,METAR,88
PAFR 050415Z AUTO 04003KT 3/8SM FG VV001 00/00 A2925 RMK AO2 SLP914 RVRNO $,PAFR,2023-11-05T04:15:00Z,61.263,-149.66,0,0,40,3,,0.38,29.25,991.4,,TRUE,TRUE,TRUE,,,,,FG,OVX,0,,,,,,,LIFR,,,,,,,,,,,100,SPECI,106
PAAD 050415Z AUTO 11023KT 4SM HZ SCT015 BKN027 M13/M16 A3003 RMK AO2 T11331159,PAAD,2023-11-05T04:15:00Z,70.136,-146.29,-13.3,-15.9,110,23,,4,30.03,,,TRUE,TRUE,,,,,,HZ,SCT,1500,BKN,2700,,,,,MVFR,,,,,,,,,,,,METAR,8
LMML 050415Z 23009KT 9999 FEW032 21/14 Q1010 NOSIG,LMML,2023-11-05T04:15:00Z,35.858,14.477,21,14,230,9,,6+,29.82,,,,,,,,,,,FEW,3200,,,,,,,VFR,,,,,,,,,,,,METAR,78
KZPH 050415Z AUTO 00000KT 10SM CLR 13/06 A3011 RMK A02 T01290065,KZPH,2023-11-05T04:15:00Z,28.2268,-82.1564,12.9,6.5,0,0,,10+,30.11,,,TRUE,TRUE,,,,,,,CLR,,,,,,,,VFR,,,,,,,,,,,,METAR,26
KZER 050415Z AUTO 22003KT 7SM CLR 11/M03 A3009 RMK AO2,KZER,2023-11-05T04:15:00Z,40.7072,-76.371,11,-3,220,3,,7,30.09,,,TRUE,TRUE,,,,,,,CLR,,,,,,,,VFR,,,,,,,,,,,,METAR,518
KY70 050415Z AUTO 00000KT 10SM CLR 06/03 A3011 RMK AO2 T00590033,KY70,2023-11-05T04:15:00Z,42.9398,-85.0653,5.9,3.3,0,0,,10+,30.11,,,TRUE,TRUE,,,,,,,CLR,,,,,,,,VFR,,,,,,,,,,,,METAR,247
KY63 050415Z AUTO 05004KT 10SM CLR 02/00 A3007 RMK AO2 T00200000,KY63,2023-11-05T04:15:00Z,45.9891,-95.9946,2,0,50,4,,10+,30.07,,,TRUE,TRUE,,,,,,,CLR,,,,,,,,VFR,,,,,,,,,,,,METAR,367
KY51 050415Z AUTO 20003KT 10SM CLR 05/M01 A3014 RMK AO2,KY51,2023-11-05T04:15:00Z,43.5814,-90.8997,5,-1,200,3,,10+,30.14,,,TRUE,TRUE,,,,,,,CLR,,,,,,,,VFR,,,,,,,,,,,,METAR,390
KY49 050415Z AUTO 09003KT 10SM SCT008 M01/M02 A3011 RMK AO2 T10121018,KY49,2023-11-05T04:15:00Z,47.1599,-94.6433,-1.2,-1.8,90,3,,10+,30.11,,,TRUE,TRUE,,,,,,,SCT,800,,,,,,,VFR,,,,,,,,,,,,METAR,413
KY31 050415Z AUTO 28010KT 7SM CLR M02/M03 A3011 RMK AO2 T10241026,KY31,2023-11-05T04:15:00Z,44.2434,-84.18,-2.4,-2.6,280,10,,7,30.11,,,TRUE,TRUE,,,,,,,CLR,,,,,,,,VFR,,,,,,,,,,,,METAR,264
KY23 050415Z AUTO 00000KT 10SM OVC045 05/02 A3013 RMK AO2 T00510018,KY23,2023-11-05T04:15:00Z,45.311,-91.638,5.1,1.8,0,0,,10+,30.13,,,TRUE,TRUE,,,,,,,OVC,4500,,,,,,,VFR,,,,,,,,,,,,METAR,322
KY19 050415Z AUTO 13011KT M1/4SM FZFG OVC002 M00/00 A3001 RMK AO2,KY19,2023-11-05T04:15:00Z,46.7648,-100.894,0,0,130,11,,0.25,30.01,,,TRUE,TRUE,,,,,,FZFG,OVC,200,,,,,,,LIFR,,,,,,,,,,,,METAR,591
KXSA 050415Z AUTO 00000KT 10SM CLR 07/06 A3011 RMK AO2 T00660063,KXSA,2023-11-05T04:15:00Z,37.8606,-76.9016,6.6,6.3,0,0,,10+,30.11,,,TRUE,TRUE,,,,,,,CLR,,,,,,,,VFR,,,,,,,,,,,,METAR,41
KXNX 050415Z AUTO 00000KT 10SM FEW055 SCT065 11/08 A3019 RMK A01,KXNX,2023-11-05T04:15:00Z,36.3745,-86.41,11,8,0,0,,10+,30.19,,,TRUE,TRUE,,,,,,,FEW,5500,SCT,6500,,,,,VFR,,,,,,,,,,,,METAR,178
KXLL 050415Z AUTO 00000KT 10SM BKN110 09/05 A3010 RMK AO2,KXLL,2023-11-05T04:15:00Z,40.5704,-75.4894,9,5,0,0,,10+,30.10,,,TRUE,TRUE,,,,,,,BKN,11000,,,,,,,VFR,,,,,,,,,,,,METAR,118
KXER 050415Z AUTO 06012KT 10SM CLR 24/17 A3016 RMK A01,KXER,2023-11-05T04:15:00Z,27.946,-90.997,24,17,60,12,,10+,30.16,,,TRUE,TRUE,,,,,,,CLR,,,,,,,,VFR,,,,,,,,,,,,METAR,40
KX60 050415Z AUTO 00000KT 10SM SCT080 10/05 A3011 RMK AO2 T01030051,KX60,2023-11-05T04:15:00Z,29.3524,-82.4743,10.3,5.1,0,0,,10+,30.11,,,TRUE,TRUE,,,,,,,SCT,8000,,,,,,,VFR,,,,,,,,,,,,METAR,21
KX26 050415Z AUTO 36010KT 10SM CLR 21/19 A3003 RMK AO2 T02110190,KX26,2023-11-05T04:15:00Z,27.813,-80.497,21.1,19,360,10,,10+,30.03,,,TRUE,TRUE,,,,,,,CLR,,,,,,,,VFR,,,,,,,,,,,,METAR,5
KX07 050415Z AUTO 36006KT 10SM BKN022 OVC065 18/11 A3008 RMK A01,KX07,2023-11-05T04:15:00Z,27.8934,-81.6167,18,11,360,6,,10+,30.08,,,TRUE,TRUE,,,,,,,BKN,2200,OVC,6500,,,,,MVFR,,,,,,,,,,,,METAR,36
KWWR 050415Z AUTO 09003KT 10SM CLR 10/09 A3020 RMK AO2,KWWR,2023-11-05T04:15:00Z,36.4374,-99.5234,10,9,90,3,,10+,30.20,,,TRUE,TRUE,,,,,,,CLR,,,,,,,,VFR,,,,,,,,,,,,METAR,664
KWDR 050415Z AUTO 00000KT 10SM CLR 09/01 A3017 RMK AO2,KWDR,2023-11-05T04:15:00Z,33.981,-83.667,9,1,0,0,,10+,30.17,,,TRUE,TRUE,,,,,,,CLR,,,,,,,,VFR,,,,,,,,,,,,METAR,280
KWDG 050415Z AUTO 11005KT 10SM BKN060 15/12 A3013 RMK AO2,KWDG,2023-11-05T04:15:00Z,36.3781,-97.7888,15,12,110,5,,10+,30.13,,,TRUE,TRUE,,,,,,,BKN,6000,,,,,,,VFR,,,,,,,,,,,,METAR,352
KW96 050415Z AUTO 00000KT 10SM CLR 08/04 A3011 RMK AO1 T00810035,KW96,2023-11-05T04:15:00Z,37.5027,-77.126,8.1,3.5,0,0,,10+,30.11,,,TRUE,TRUE,,,,,,,CLR,,,,,,,,VFR,,,,,,,,,,,,METAR,35
KW81 050415Z AUTO 00000KT 10SM CLR 05/02 A3010 RMK AO1 T00530021,KW81,2023-11-05T04:15:00Z,37.1813,-78.0977,5.3,2.1,0,0,,10+,30.10,,,TRUE,TRUE,,,,,,,CLR,,,,,,,,VFR,,,,,,,,,,,,METAR,121
KW78 050415Z AUTO 00000KT 10SM CLR 04/00 A3012 RMK AO1 T00400001,KW78,2023-11-05T04:15:00Z,36.7087,-78.846,4,0.1,0,0,,10+,30.12,,,TRUE,TRUE,,,,,,,CLR,,,,,,,,VFR,,,,,,,,,,,,METAR,120
KW75 050415Z AUTO 00000KT 10SM CLR 08/07 A3011 RMK AO1 T00810065,KW75,2023-11-05T04:15:00Z,37.6024,-76.4477,8.1,6.5,0,0,,10+,30.11,,,TRUE,TRUE,,,,,,,CLR,,,,,,,,VFR,,,,,,,,,,,,METAR,8
KW43 050415Z AUTO 21008KT 10SM OVC110 12/00 A2994 RMK AO2,KW43,2023-11-05T04:15:00Z,44.6607,-104.568,12,0,210,8,,10+,29.94,,,TRUE,TRUE,,,,,,,OVC,11000,,,,,,,VFR,,,,,,,,,,,,METAR,1292
KW31 050415Z AUTO 00000KT 10SM CLR 08/02 A3010 RMK AO1 T00770018,KW31,2023-11-05T04:15:00Z,36.9599,-78.1838,7.7,1.8,0,0,,10+,30.10,,,TRUE,TRUE,,,,,,,CLR,,,,,,,,VFR,,,,,,,,,,,,METAR,159
KW22 050415Z AUTO 19004KT 10SM FEW026 BKN033 OVC050 11/M03 A3012 RMK AO2,KW22,2023-11-05T04:15:00Z,39.001,-80.2712,11,-3,190,4,,10+,30.12,,,TRUE,TRUE,,,,,,,FEW,2600,BKN,3300,OVC,5000,,,VFR,,,,,,,,,,,,METAR,497
KW13 050415Z AUTO 00000KT 10SM CLR 07/M02 A3012 RMK AO1 T00661016,KW13,2023-11-05T04:15:00Z,38.077,-78.944,6.6,-1.6,0,0,,10+,30.12,,,TRUE,TRUE,,,,,,,CLR,,,,,,,,VFR,,,,,,,,,,,,METAR,440
KVYS 050415Z AUTO 00000KT 10SM CLR 04/01 A3018 RMK AO2 T00400014,KVYS,2023-11-05T04:15:00Z,41.3517,-89.1496,4,1.4,0,0,,10+,30.18,,,TRUE,TRUE,,,,,,,CLR,,,,,,,,VFR,,,,,,,,,,,,METAR,198
KVWU 050415Z AUTO 00000KT 10SM CLR M04/M06 A3014 RMK AO2,KVWU,2023-11-05T04:15:00Z,48.1502,-94.512,-4,-6,0,0,,10+,30.14,,,TRUE,TRUE,,,,,,,CLR,,,,,,,,VFR,,,,,,,,,,,,METAR,359
KVVV 050415Z AUTO 28003KT 7SM CLR 02/01 A3008 RMK AO2,KVVV,2023-11-05T04:15:00Z,45.2994,-96.4256,2,1,280,3,,7,30.08,,,TRUE,TRUE,,,,,,,CLR,,,,,,,,VFR,,,,,,,,,,,,METAR,334
KVVS 050415Z AUTO 23006KT 10SM OVC070 14/M01 A3010 RMK AO2 T01401010,KVVS,2023-11-05T04:15:00Z,39.9581,-79.6575,14,-1,230,6,,10+,30.10,,,TRUE,TRUE,,,,,,,OVC,7000,,,,,,,VFR,,,,,,,,,,,,METAR,386
KVTI 050415Z AUTO 00000KT 10SM CLR 03/01 A3017 RMK AO2 T00260005,KVTI,2023-11-05T04:15:00Z,42.2176,-92.0248,2.6,0.5,0,0,,10+,30.17,,,TRUE,TRUE,,,,,,,CLR,,,,,,,,VFR,,,,,,,,,,,,METAR,256
KVQQ 050415Z AUTO 00000KT 10SM CLR 12/07 A3011 RMK AO2,KVQQ,2023-11-05T04:15:00Z,30.2035,-81.8725,12,7,0,0,,10+,30.11,,,TRUE,TRUE,,,,,,,CLR,,,,,,,,VFR,,,,,,,,,,,,METAR,21
KVPC 050415Z AUTO 00000KT 10SM CLR 07/04 A3019 RMK AO2,KVPC,2023-11-05T04:15:00Z,34.1158,-84.8507,7,4,0,0,,10+,30.19,,,TRUE,TRUE,,,,,,,CLR,,,,,,,,VFR,,,,,,,,,,,,METAR,234
KVOA 050415Z AUTO 07008KT 10SM CLR 26/13 A3016 RMK A01,KVOA,2023-11-05T04:15:00Z,29.229,-87.781,26,13,70,8,,10+,30.16,,,TRUE,TRUE,,,,,,,CLR,,,,,,,,VFR,,,,,,,,,,,,METAR,53
KVNW 050415Z AUTO 30005KT 10SM CLR 07/04 A3014 RMK AO2,KVNW,2023-11-05T04:15:00Z,40.8633,-84.613,7,4,300,5,,10+,30.14,,,TRUE,TRUE,,,,,,,CLR,,,,,,,,VFR,,,,,,,,,,,,METAR,238
KVNC 050415Z AUTO 02009KT 10SM OVC029 21/12 A3007 RMK AO2,KVNC,2023-11-05T04:15:00Z,27.0728,-82.44,21,12,20,9,,10+,30.07,,,TRUE,TRUE,,,,,,,OVC,2900,,,,,,,MVFR,,,,,,,,,,,,METAR,4
KVLL 050415Z AUTO 00000KT 7SM OVC045 08/07 A3012 RMK AO2 T00800065,KVLL,2023-11-05T04:15:00Z,42.543,-83.178,8,6.5,0,0,,7,30.12,,,TRUE,TRUE,,,,,,,OVC,4500,,,,,,,VFR,,,,,,,,,,,,METAR,214
KVKS 050415Z AUTO 00000KT 10SM SCT050 10/ A3015 RMK A01,KVKS,2023-11-05T04:15:00Z,32.2359,-90.9269,10,,0,0,,10+,30.15,,,TRUE,TRUE,,,,,,,SCT,5000,,,,,,,VFR,,,,,,,,,,,,METAR,31
KVJI 050415Z AUTO 00000KT 10SM CLR 06/M01 A3019 RMK AO2 T00561014,KVJI,2023-11-05T04:15:00Z,36.6871,-82.037,5.6,-1.4,0,0,,10+,30.19,,,TRUE,TRUE,,,,,,,CLR,,,,,,,,VFR,,,,,,,,,,,,METAR,636
KVHN 050415Z AUTO 22007KT 10SM CLR 14/M10 A3022 RMK AO2 T01441096,KVHN,2023-11-05T04:15:00Z,31.0602,-104.783,14.4,-9.6,220,7,,10+,30.22,,,TRUE,TRUE,,,,,,,CLR,,,,,,,,VFR,,,,,,,,,,,,METAR,1200
KVGC 050415Z AUTO 00000KT 10SM OVC060 07/04 A3007 RMK AO2,KVGC,2023-11-05T04:15:00Z,42.8444,-75.5637,7,4,0,0,,10+,30.07,,,TRUE,TRUE,,,,,,,OVC,6000,,,,,,,VFR,,,,,,,,,,,,METAR,346
KVES 050415Z AUTO 32007KT 10SM CLR 07/03 A3014 RMK AO2,KVES,2023-11-05T04:15:00Z,40.2056,-84.5346,7,3,320,7,,10+,30.14,,,TRUE,TRUE,,,,,,,CLR,,,,,,,,VFR,,,,,,,,,,,,METAR,308
KVER 050415Z AUTO 00000KT 3/4SM BR BKN005 08/08 A3022 RMK AO2 T00800080,KVER,2023-11-05T04:15:00Z,38.9496,-92.6842,8,8,0,0,,0.75,30.22,,,TRUE,TRUE,,,,,,BR,BKN,500,,,,,,,LIFR,,,,,,,,,,,,METAR,209
KVDI 050415Z AUTO 00000KT 10SM CLR 08/07 A3015 RMK AO2,KVDI,2023-11-05T04:15:00Z,32.1933,-82.3642,8,7,0,0,,10+,30.15,,,TRUE,TRUE,,,,,,,CLR,,,,,,,,VFR,,,,,,,,,,,,METAR,81
KVDF 050415Z AUTO 00000KT 10SM CLR 13/08 A3011 RMK AO2,KVDF,2023-11-05T04:15:00Z,28.0198,-82.3415,13,8,0,0,,10+,30.11,,,TRUE,TRUE,,,,,,,CLR,,,,,,,,VFR,,,,,,,,,,,,METAR,5
KVCV 050415Z AUTO 21003KT 7SM CLR 11/M07 A3011 RMK AO2,KVCV,2023-11-05T04:15:00Z,34.5933,-117.389,11,-7,210,3,,7,30.11,,,TRUE,TRUE,,,,,,,CLR,,,,,,,,VFR,,,,,,,,,,,,METAR,871
KVBW 050415Z AUTO 00000KT 10SM CLR 04/M01 A3012 RMK AO1 T00391012,KVBW,2023-11-05T04:15:00Z,38.366,-78.968,3.9,-1.2,0,0,,10+,30.12,,,TRUE,TRUE,,,,,,,CLR,,,,,,,,VFR,,,,,,,,,,,,METAR,362
KVBG 050415Z 02003KT 4SM BR OVC001 14/14 A3005 RMK AO2A SLP178,KVBG,2023-11-05T04:15:00Z,34.733,-120.583,14,14,20,3,,4,30.05,1017.8,,,TRUE,,,,,,BR,OVC,100,,,,,,,LIFR,,,,,,,,,,,,SPECI,96
KVAF 050415Z AUTO 10010KT 10SM 25/16 A3015 RMK A01,KVAF,2023-11-05T04:15:00Z,27.354,-94.625,25,16,100,10,,10+,30.15,,,TRUE,TRUE,,,,,,,,,,,,,,,VFR,,,,,,,,,,,,METAR,38
KUYF 050415Z AUTO 26005KT 10SM CLR 05/02 A3012 RMK AO2,KUYF,2023-11-05T04:15:00Z,39.9312,-83.465,5,2,260,5,,10+,30.12,,,TRUE,TRUE,,,,,,,CLR,,,,,,,,VFR,,,,,,,,,,,,METAR,326
KUXL 050415Z AUTO 00000KT 1/4SM FG OVC002 13/13 A3017 RMK AO2 T01280128,KUXL,2023-11-05T04:15:00Z,30.135,-93.3767,12.8,12.8,0,0,,0.25,30.17,,,TRUE,TRUE,,,,,,FG,OVC,200,,,,,,,LIFR,,,,,,,,,,,,METAR,2
KUWL 050415Z AUTO 34006KT 10SM CLR 08/07 A3015 RMK A01,KUWL,2023-11-05T04:15:00Z,39.8752,-85.3313,8,7,340,6,,10+,30.15,,,TRUE,TRUE,,,,,,,CLR,,,,,,,,VFR,,,,,,,,,,,,METAR,332
KUVA 050415Z AUTO 00000KT 10SM CLR 17/14 A3014 RMK AO2 T01720143,KUVA,2023-11-05T04:15:00Z,29.2135,-99.743,17.2,14.3,0,0,,10+,30.14,,,TRUE,TRUE,,,,,,,CLR,,,,,,,,VFR,,,,,,,,,,,,METAR,285
KUUV 050415Z AUTO 00000KT 10SM BKN110 08/05 A3023 RMK AO2,KUUV,2023-11-05T04:15:00Z,38.2335,-91.1609,8,5,0,0,,10+,30.23,,,TRUE,TRUE,,,,,,,BKN,11000,,,,,,,VFR,,,,,,,,,,,,METAR,284
KUTA 050415Z AUTO 00000KT 10SM OVC200 09/07 A3017 RMK AO2 T00920070 $,KUTA,2023-11-05T04:15:00Z,34.6766,-90.344,9.2,7,0,0,,10+,30.17,,,TRUE,TRUE,TRUE,,,,,,OVC,20000,,,,,,,VFR,,,,,,,,,,,,METAR,58
KUOX 050415Z AUTO 00000KT 10SM CLR 08/06 A3019 RMK AO2 PWINO,KUOX,2023-11-05T04:15:00Z,34.3851,-89.5435,8,6,0,0,,10+,30.19,,,TRUE,TRUE,,,,,,,CLR,,,,,,,,VFR,,,,,,,,,,,,METAR,123
KUNU 050415Z AUTO 00000KT 10SM CLR 01/00 A3017 RMK AO2 T00070001,KUNU,2023-11-05T04:15:00Z,43.4285,-88.7017,0.7,0.1,0,0,,10+,30.17,,,TRUE,TRUE,,,,,,,CLR,,,,,,,,VFR,,,,,,,,,,,,METAR,281
KUNI 050415Z AUTO 00000KT 7SM -SN CLR 06/03 A3011 RMK AO2 T00570028,KUNI,2023-11-05T04:15:00Z,39.2129,-82.2204,5.7,2.8,0,0,,7,30.11,,,TRUE,TRUE,,,,,,-SN,CLR,,,,,,,,VFR,,,,,,,,,,,,METAR,232
KUMP 050415Z AUTO 35003KT 7SM CLR 07/05 A3018 RMK AO2 T00750054,KUMP,2023-11-05T04:15:00Z,39.936,-86.0478,7.5,5.4,350,3,,7,30.18,,,TRUE,TRUE,,,,,,,CLR,,,,,,,,VFR,,,,,,,,,,,,METAR,247
KULS 050415Z AUTO 15008KT 10SM CLR 10/09 A3017 RMK AO2,KULS,2023-11-05T04:15:00Z,37.6037,-101.377,10,9,150,8,,10+,30.17,,,TRUE,TRUE,,,,,,,CLR,,,,,,,,VFR,,,,,,,,,,,,METAR,934
KULM 050415Z AUTO 17007KT 10SM CLR 04/01 A3008 RMK AO2,KULM,2023-11-05T04:15:00Z,44.3228,-94.5024,4,1,170,7,,10+,30.08,,,TRUE,TRUE,,,,,,,CLR,,,,,,,,VFR,,,,,,,,,,,,METAR,305
KUKT 050415Z AUTO 00000KT 10SM FEW049 FEW060 BKN110 07/07 A3010 RMK A01,KUKT,2023-11-05T04:15:00Z,40.4368,-75.3802,7,7,0,0,,10+,30.10,,,TRUE,TRUE,,,,,,,FEW,4900,FEW,6000,BKN,11000,,,VFR,,,,,,,,,,,,METAR,156
KUKL 050415Z AUTO 07004KT 10SM CLR 07/04 A3021 RMK AO2 T00650039,KUKL,2023-11-05T04:15:00Z,38.3041,-95.7217,6.5,3.9,70,4,,10+,30.21,,,TRUE,TRUE,,,,,,,CLR,,,,,,,,VFR,,,,,,,,,,,,METAR,357
KUES 050415Z AUTO 00000KT 7SM CLR 00/00 A3018 RMK AO2,KUES,2023-11-05T04:15:00Z,43.0425,-88.2465,0,0,0,0,,7,30.18,,,TRUE,TRUE,,,,,,,CLR,,,,,,,,VFR,,,,,,,,,,,,METAR,273
KUCY 050415Z AUTO 00000KT 10SM FEW048 10/10 A3015 RMK A01,KUCY,2023-11-05T04:15:00Z,36.3778,-88.9878,10,10,0,0,,10+,30.15,,,TRUE,TRUE,,,,,,,FEW,4800,,,,,,,VFR,,,,,,,,,,,,METAR,97
KUBE 050415Z AUTO 00000KT 10SM BKN036 OVC043 05/03 A3011 RMK AO2,KUBE,2023-11-05T04:15:00Z,45.5046,-91.978,5,3,0,0,,10+,30.11,,,TRUE,TRUE,,,,,,,BKN,3600,OVC,4300,,,,,VFR,,,,,,,,,,,,METAR,376
KU69 050415Z AUTO 30005KT SCT043 08/M03 A3021 RMK A01,KU69,2023-11-05T04:15:00Z,40.198,-110.387,8,-3,300,5,,,30.21,,,TRUE,TRUE,,,,,,,SCT,4300,,,,,,,VFR,,,,,,,,,,,,METAR,1776
KU68 050415Z AUTO 09003KT 10SM SCT090 08/02 A2996 RMK AO2,KU68,2023-11-05T04:15:00Z,44.9113,-108.447,8,2,90,3,,10+,29.96,,,TRUE,TRUE,,,,,,,SCT,9000,,,,,,,VFR,,,,,,,,,,,,METAR,1244
KU64 050415Z AUTO 22004KT 10SM CLR 05/M07 A3034 RMK AO2 T00501074 $,KU64,2023-11-05T04:15:00Z,37.9333,-109.34,5,-7.4,220,4,,10+,30.34,,,TRUE,TRUE,TRUE,,,,,,CLR,,,,,,,,VFR,,,,,,,,,,,,METAR,2123
KU52 050415Z AUTO 13010KT 10SM CLR 10/M11 A3020 RMK AO2,KU52,2023-11-05T04:15:00Z,38.232,-112.672,10,-11,130,10,,10+,30.20,,,TRUE,TRUE,,,,,,,CLR,,,,,,,,VFR,,,,,,,,,,,,METAR,1787
KTZR 050415Z AUTO 27003KT 10SM CLR 07/04 A3011 RMK AO2 T00690038,KTZR,2023-11-05T04:15:00Z,39.8988,-83.1357,6.9,3.8,270,3,,10+,30.11,,,TRUE,TRUE,,,,,,,CLR,,,,,,,,VFR,,,,,,,,,,,,METAR,275
KTYQ 050415Z AUTO 00000KT 5SM BR CLR 04/03 A3017 RMK AO2 T00370029,KTYQ,2023-11-05T04:15:00Z,40.0345,-86.2488,3.7,2.9,0,0,,5,30.17,,,TRUE,TRUE,,,,,,BR,CLR,,,,,,,,MVFR,,,,,,,,,,,,METAR,279
KTYL 050415Z AUTO 21005KT 10SM SCT043 06/M13 A3030 RMK AO2,KTYL,2023-11-05T04:15:00Z,34.4577,-110.112,6,-13,210,5,,10+,30.30,,,TRUE,TRUE,,,,,,,SCT,4300,,,,,,,VFR,,,,,,,,,,,,METAR,1748
KTXW 050415Z AUTO 13006KT 10SM 21/16 A3012 RMK AO2 T02150156,KTXW,2023-11-05T04:15:00Z,26.1824,-97.9742,21.5,15.6,130,6,,10+,30.12,,,TRUE,TRUE,,,,,,,,,,,,,,,VFR,,,,,,,,,,,,METAR,21
KTWT 050415Z AUTO 00000KT 10SM SCT110 11/08 A3017 RMK AO2,KTWT,2023-11-05T04:15:00Z,37.5432,-87.9568,11,8,0,0,,10+,30.17,,,TRUE,TRUE,,,,,,,SCT,11000,,,,,,,VFR,,,,,,,,,,,,METAR,113
KTWM 050415Z AUTO 03004KT 10SM BKN027 M01/M03 A3014 RMK AO2,KTWM,2023-11-05T04:15:00Z,47.0192,-91.7447,-1,-3,30,4,,10+,30.14,,,TRUE,TRUE,,,,,,,BKN,2700,,,,,,,MVFR,,,,,,,,,,,,METAR,331
KTVY 050415Z AUTO 11004KT 10SM CLR 07/01 A3006 RMK AO2,KTVY,2023-11-05T04:15:00Z,40.6127,-112.354,7,1,110,4,,10+,30.06,,,TRUE,TRUE,,,,,,,CLR,,,,,,,,VFR,,,,,,,,,,,,METAR,1310
KTVK 050415Z AUTO 9SM FEW036 SCT046 BKN060 03/01 A3020 RMK AO2,KTVK,2023-11-05T04:15:00Z,40.6832,-92.8984,3,1,,,,9,30.20,,,TRUE,TRUE,,,,,,,FEW,3600,SCT,4600,BKN,6000,,,VFR,,,,,,,,,,,,METAR,311
KTVI 050415Z AUTO 00000KT 10SM CLR 08/08 A3016 RMK AO2,KTVI,2023-11-05T04:15:00Z,30.9026,-83.8826,8,8,0,0,,10+,30.16,,,TRUE,TRUE,,,,,,,CLR,,,,,,,,VFR,,,,,,,,,,,,METAR,74
KTTF 050415Z AUTO 00000KT 10SM CLR 06/04 A3010 RMK AO2 T00580044,KTTF,2023-11-05T04:15:00Z,41.9371,-83.4332,5.8,4.4,0,0,,10+,30.10,,,TRUE,TRUE,,,,,,,CLR,,,,,,,,VFR,,,,,,,,,,,,METAR,186
KTSP 050415Z AUTO 27006KT 10SM CLR 12/M05 A3019 RMK AO2,KTSP,2023-11-05T04:15:00Z,35.1387,-118.442,12,-5,270,6,,10+,30.19,,,TRUE,TRUE,,,,,,,CLR,,,,,,,,VFR,,,,,,,,,,,,METAR,1209
KTQV 050415Z AUTO 00000KT 10SM CLR 13/M00 A3011 RMK A01,KTQV,2023-11-05T04:15:00Z,36.007,-78.937,13,0,0,0,,10+,30.11,,,TRUE,TRUE,,,,,,,CLR,,,,,,,,VFR,,,,,,,,,,,,METAR,230
KTQK 050415Z AUTO 14009KT 10SM CLR 06/02 A3019 RMK AO2 T00570022,KTQK,2023-11-05T04:15:00Z,38.4782,-100.882,5.7,2.2,140,9,,10+,30.19,,,TRUE,TRUE,,,,,,,CLR,,,,,,,,VFR,,,,,,,,,,,,METAR,906
KTQH 050415Z AUTO 00000KT 10SM BKN080 13/05 A3017 RMK AO2,KTQH,2023-11-05T04:15:00Z,35.9304,-95.0025,13,5,0,0,,10+,30.17,,,TRUE,TRUE,,,,,,,BKN,8000,,,,,,,VFR,,,,,,,,,,,,METAR,265
KTPF 050415Z AUTO 04006KT 10SM CLR 20/06 A3010 RMK AO2,KTPF,2023-11-05T04:15:00Z,27.9153,-82.4518,20,6,40,6,,10+,30.10,,,TRUE,TRUE,,,,,,,CLR,,,,,,,,VFR,,,,,,,,,,,,METAR,1
KTOC 050415Z AUTO 00000KT 10SM CLR 07/00 A3016 RMK AO2 T00731002,KTOC,2023-11-05T04:15:00Z,34.588,-83.2974,7.3,-0.2,0,0,,10+,30.16,,,TRUE,TRUE,,,,,,,CLR,,,,,,,,VFR,,,,,,,,,,,,METAR,292
KTOB 050415Z AUTO 20004KT 10SM BKN060 06/02 A3012 RMK AO2,KTOB,2023-11-05T04:15:00Z,44.0202,-92.8295,6,2,200,4,,10+,30.12,,,TRUE,TRUE,,,,,,,BKN,6000,,,,,,,VFR,,,,,,,,,,,,METAR,394
KTNU 050415Z AUTO 23003KT 10SM CLR 06/01 A3018 RMK A01,KTNU,2023-11-05T04:15:00Z,41.6701,-93.019,6,1,230,3,,10+,30.18,,,TRUE,TRUE,,,,,,,CLR,,,,,,,,VFR,,,,,,,,,,,,METAR,287
KTNB 050415Z AUTO 00000KT 10SM CLR 07/M01 A3019 RMK AO2 T00711013,KTNB,2023-11-05T04:15:00Z,36.199,-81.651,7.1,-1.3,0,0,,10+,30.19,,,TRUE,TRUE,,,,,,,CLR,,,,,,,,VFR,,,,,,,,,,,,METAR,958
KTMT 050415Z AUTO 22008KT CLR 08/M07 A3014 RMK AO2 T00771070 PWINO,KTMT,2023-11-05T04:15:00Z,39.4643,-117.197,7.7,-7,220,8,,,30.14,,,TRUE,TRUE,,,,,,,CLR,,,,,,,,VFR,,,,,,,,,,,,METAR,1748
KTMK 050415Z AUTO 00000KT 6SM -RA BR BKN011 BKN021 OVC046 13/13 A2989 RMK AO2,KTMK,2023-11-05T04:15:00Z,45.421,-123.814,13,13,0,0,,6,29.89,,,TRUE,TRUE,,,,,,-RA BR,BKN,1100,BKN,2100,OVC,4600,,,MVFR,,,,,,,,,,,,METAR,8
KTME 050415Z AUTO 15005KT 10SM CLR 19/18 A3015 RMK AO2,KTME,2023-11-05T04:15:00Z,29.806,-95.903,19,18,150,5,,10+,30.15,,,TRUE,TRUE,,,,,,,CLR,,,,,,,,VFR,,,,,,,,,,,,METAR,49
KTMA 050415Z AUTO 00000KT 8SM CLR 09/08 A3016 RMK AO2 T00890082,KTMA,2023-11-05T04:15:00Z,31.4229,-83.4859,8.9,8.2,0,0,,8,30.16,,,TRUE,TRUE,,,,,,,CLR,,,,,,,,VFR,,,,,,,,,,,,METAR,105
KTKX 050415Z AUTO 24004KT 6SM BR OVC060 13/11 A3015 RMK AO2,KTKX,2023-11-05T04:15:00Z,36.2226,-90.0367,13,11,240,4,,6,30.15,,,TRUE,TRUE,,,,,,BR,OVC,6000,,,,,,,VFR,,,,,,,,,,,,METAR,73
KTKV 050415Z AUTO 00000KT 10SM OVC044 01/M03 A3013 RMK AO2 T00071027 PWINO,KTKV,2023-11-05T04:15:00Z,45.469,-89.805,0.7,-2.7,0,0,,10+,30.13,,,TRUE,TRUE,,,,,,,OVC,4400,,,,,,,VFR,,,,,,,,,,,,METAR,449
KTKC 050415Z AUTO 21010KT 10SM CLR 08/05 A3006 RMK AO2,KTKC,2023-11-05T04:15:00Z,44.25,-95.612,8,5,210,10,,10+,30.06,,,TRUE,TRUE,,,,,,,CLR,,,,,,,,VFR,,,,,,,,,,,,METAR,408
KTIP 050415Z AUTO 34003KT 10SM CLR 04/02 A3019 RMK AO2 T00400015,KTIP,2023-11-05T04:15:00Z,40.291,-88.146,4,1.5,340,3,,10+,30.19,,,TRUE,TRUE,,,,,,,CLR,,,,,,,,VFR,,,,,,,,,,,,METAR,224
KTIF 050415Z AUTO 19007KT 10SM CLR 07/02 A3010 RMK AO2 T00720022,KTIF,2023-11-05T04:15:00Z,41.9646,-100.569,7.2,2.2,190,7,,10+,30.10,,,TRUE,TRUE,,,,,,,CLR,,,,,,,,VFR,,,,,,,,,,,,METAR,888
KTHA 050415Z AUTO 00000KT 10SM CLR 07/02 A3017 RMK A01,KTHA,2023-11-05T04:15:00Z,35.3804,-86.2419,7,2,0,0,,10+,30.17,,,TRUE,TRUE,,,,,,,CLR,,,,,,,,VFR,,,,,,,,,,,,METAR,333
KTEX 050415Z AUTO 15005KT 10SM CLR 03/M09 A3043 RMK AO2,KTEX,2023-11-05T04:15:00Z,37.954,-107.909,3,-9,150,5,,10+,30.43,,,TRUE,TRUE,,,,,,,CLR,,,,,,,,VFR,,,,,,,,,,,,METAR,2760
KTEW 050415Z AUTO 00000KT 5SM BR BKN035 03/03 A3011 RMK AO2 T00340029,KTEW,2023-11-05T04:15:00Z,42.5636,-84.4222,3.4,2.9,0,0,,5,30.11,,,TRUE,TRUE,,,,,,BR,BKN,3500,,,,,,,MVFR,,,,,,,,,,,,METAR,281
KTBX 050415Z AUTO 10SM SCT120 08/M10 A3016 RMK AO2,KTBX,2023-11-05T04:15:00Z,43.4644,-108.238,8,-10,,,,10+,30.16,,,TRUE,TRUE,,,,,,,SCT,12000,,,,,,,VFR,,,,,,,,,,,,METAR,2230
KTBR 050415Z AUTO 00000KT 10SM CLR 05/04 A3014 RMK AO2 T00510039,KTBR,2023-11-05T04:15:00Z,32.48,-81.738,5.1,3.9,0,0,,10+,30.14,,,TRUE,TRUE,,,,,,,CLR,,,,,,,,VFR,,,,,,,,,,,,METAR,54
KTAZ 050415Z AUTO 00000KT 10SM CLR 05/04 A3020 RMK AO2 T00520039,KTAZ,2023-11-05T04:15:00Z,39.535,-89.3294,5.2,3.9,0,0,,10+,30.20,,,TRUE,TRUE,,,,,,,CLR,,,,,,,,VFR,,,,,,,,,,,,METAR,188
KT89 050415Z AUTO 00000KT 10SM CLR 20/05 A3011 RMK A01,KT89,2023-11-05T04:15:00Z,29.2774,-103.691,20,5,0,0,,10+,30.11,,,TRUE,TRUE,,,,,,,CLR,,,,,,,,VFR,,,,,,,,,,,,METAR,801
KT82 050415Z AUTO 00000KT 10SM CLR 13/12 A3015 RMK AO2 T01280116,KT82,2023-11-05T04:15:00Z,30.239,-98.904,12.8,11.6,0,0,,10+,30.15,,,TRUE,TRUE,,,,,,,CLR,,,,,,,,VFR,,,,,,,,,,,,METAR,509
KT78 050415Z AUTO 00000KT 10SM OVC060 14/14 A3015 RMK AO2,KT78,2023-11-05T04:15:00Z,30.0754,-94.6996,14,14,0,0,,10+,30.15,,,TRUE,TRUE,,,,,,,OVC,6000,,,,,,,VFR,,,,,,,,,,,,METAR,21
KT74 050415Z AUTO 00000KT 10SM CLR 14/13 A3013 RMK AO2 T01390130,KT74,2023-11-05T04:15:00Z,30.5704,-97.4447,13.9,13,0,0,,10+,30.13,,,TRUE,TRUE,,,,,,,CLR,,,,,,,,VFR,,,,,,,,,,,,METAR,169
KT69 050415Z AUTO 10SM CLR 16/16 A3012 RMK A01,KT69,2023-11-05T04:15:00Z,28.0418,-97.541,16,16,,,,10+,30.12,,,TRUE,TRUE,,,,,,,CLR,,,,,,,,VFR,,,,,,,,,,,,METAR,15
KT41 050415Z AUTO 10003KT 7SM BR CLR 16/15 A3016 RMK AO2 T01620151,KT41,2023-11-05T04:15:00Z,29.6709,-95.0644,16.2,15.1,100,3,,7,30.16,,,TRUE,TRUE,,,,,,BR,CLR,,,,,,,,VFR,,,,,,,,,,,,METAR,8
KT35 050415Z AUTO 16005KT 10SM CLR 19/16 A3012 RMK AO2 T01870158,KT35,2023-11-05T04:15:00Z,30.8789,-96.9704,18.7,15.8,160,5,,10+,30.12,,,TRUE,TRUE,,,,,,,CLR,,,,,,,,VFR,,,,,,,,,,,,METAR,122
KT20 050415Z AUTO 14004KT 10SM CLR 19/17 A3013 RMK AO2 T01900173,KT20,2023-11-05T04:15:00Z,29.5301,-97.463,19,17.3,140,4,,10+,30.13,,,TRUE,TRUE,,,,,,,CLR,,,,,,,,VFR,,,,,,,,,,,,METAR,107
KSZY 050415Z AUTO 00000KT 10SM CLR 10/06 A3016 RMK A01,KSZY,2023-11-05T04:15:00Z,35.2064,-88.5012,10,6,0,0,,10+,30.16,,,TRUE,TRUE,,,,,,,CLR,,,,,,,,VFR,,,,,,,,,,,,METAR,184
KSYM 050415Z AUTO 24006KT 10SM OVC050 14/02 A3014 RMK AO2,KSYM,2023-11-05T04:15:00Z,38.2199,-83.5835,14,2,240,6,,10+,30.14,,,TRUE,TRUE,,,,,,,OVC,5000,,,,,,,VFR,,,,,,,,,,,,METAR,307
KSYF 050415Z AUTO 18013KT 10SM CLR 08/01 A3014 RMK AO2 T00760008 PWINO,KSYF,2023-11-05T04:15:00Z,39.7583,-101.793,7.6,0.8,180,13,,10+,30.14,,,TRUE,TRUE,,,,,,,CLR,,,,,,,,VFR,,,,,,,,,,,,METAR,1041
KSXU 050415Z AUTO 13004KT CLR 11/M03 A3022 RMK AO2 T01121031 PWINO,KSXU,2023-11-05T04:15:00Z,34.9355,-104.637,11.2,-3.1,130,4,,,30.22,,,TRUE,TRUE,,,,,,,CLR,,,,,,,,VFR,,,,,,,,,,,,METAR,1465
KSXK 050415Z AUTO 19011KT 10SM FEW032 FEW041 06/04 A3009 RMK AO2,KSXK,2023-11-05T04:15:00Z,42.9895,-96.1645,6,4,190,11,,10+,30.09,,,TRUE,TRUE,,,,,,,FEW,3200,FEW,4100,,,,,VFR,,,,,,,,,,,,METAR,430
KSWW 050415Z AUTO 21008KT 10SM 17/13 A3013 RMK AO2 T01720129,KSWW,2023-11-05T04:15:00Z,32.4688,-100.467,17.2,12.9,210,8,,10+,30.13,,,TRUE,TRUE,,,,,,,,,,,,,,,VFR,,,,,,,,,,,,METAR,718
KSVE 050415Z AUTO 25008G18KT 10SM CLR 15/03 A3005 RMK AO2,KSVE,2023-11-05T04:15:00Z,40.376,-120.574,15,3,250,8,18,10+,30.05,,,TRUE,TRUE,,,,,,,CLR,,,,,,,,VFR,,,,,,,,,,,,METAR,1263
KSVC 050415Z AUTO 35009KT 10SM CLR 11/M05 A3026 RMK AO2 T01101047,KSVC,2023-11-05T04:15:00Z,32.631,-108.147,11,-4.7,350,9,,10+,30.26,,,TRUE,TRUE,,,,,,,CLR,,,,,,,,VFR,,,,,,,,,,,,METAR,1638
KSUZ 050415Z AUTO 00000KT 10SM CLR 11/11 A3017 RMK A01,KSUZ,2023-11-05T04:15:00Z,34.5862,-92.4802,11,11,0,0,,10+,30.17,,,TRUE,TRUE,,,,,,,CLR,,,,,,,,VFR,,,,,,,,,,,,METAR,114
KSUW 050415Z AUTO 02004KT 10SM UP SCT020 BKN035 OVC045 01/00 A3017 RMK AO2 T00101004,KSUW,2023-11-05T04:15:00Z,46.6833,-92.0926,1,-0.4,20,4,,10+,30.17,,,TRUE,TRUE,,,,,,UP,SCT,2000,BKN,3500,OVC,4500,,,VFR,,,,,,,,,,,,METAR,205
KSUN 050415Z AUTO 00000KT 7SM SCT050 SCT070 BKN110 07/07 A3009 RMK AO2,KSUN,2023-11-05T04:15:00Z,43.4969,-114.292,7,7,0,0,,7,30.09,,,TRUE,TRUE,,,,,,,SCT,5000,SCT,7000,BKN,11000,,,VFR,,,,,,,,,,,,METAR,1619
KSUA 050415Z AUTO 10SM OVC030 23/21 A3002 RMK AO2 T02290208,KSUA,2023-11-05T04:15:00Z,27.1815,-80.2252,22.9,20.8,,,,10+,30.02,,,TRUE,TRUE,,,,,,,OVC,3000,,,,,,,MVFR,,,,,,,,,,,,METAR,4
KSTK 050415Z AUTO 19007KT 10SM CLR 05/00 A3010 RMK AO2,KSTK,2023-11-05T04:15:00Z,40.6133,-103.261,5,0,190,7,,10+,30.10,,,TRUE,TRUE,,,,,,,CLR,,,,,,,,VFR,,,,,,,,,,,,METAR,1228
KSTF 050415Z AUTO 00000KT 10SM CLR 10/05 A3016 RMK AO2,KSTF,2023-11-05T04:15:00Z,33.4326,-88.8506,10,5,0,0,,10+,30.16,,,TRUE,TRUE,,,,,,,CLR,,,,,,,,VFR,,,,,,,,,,,,METAR,99
KSTE 050415Z AUTO 00000KT 10SM SCT070 OVC080 M01/M01 A3014 RMK AO2 T10061006,KSTE,2023-11-05T04:15:00Z,44.5437,-89.5347,-0.6,-0.6,0,0,,10+,30.14,,,TRUE,TRUE,,,,,,,SCT,7000,OVC,8000,,,,,VFR,,,,,,,,,,,,METAR,335
KSSI 050415Z AUTO 33007KT 10SM CLR 14/05 A3010 RMK AO2,KSSI,2023-11-05T04:15:00Z,31.1527,-81.3905,14,5,330,7,,10+,30.10,,,TRUE,TRUE,,,,,,,CLR,,,,,,,,VFR,,,,,,,,,,,,METAR,6
KSRR 050415Z AUTO 23009KT 10SM CLR 10/M13 A3035 RMK AO2,KSRR,2023-11-05T04:15:00Z,33.4667,-105.528,10,-13,230,9,,10+,30.35,,,TRUE,TRUE,,,,,,,CLR,,,,,,,,VFR,,,,,,,,,,,,METAR,2063
KSRE 050415Z AUTO 12004KT 10SM FEW038 SCT045 SCT055 15/12 A3014 RMK AO2,KSRE,2023-11-05T04:15:00Z,35.271,-96.675,15,12,120,4,,10+,30.14,,,TRUE,TRUE,,,,,,,FEW,3800,SCT,4500,SCT,5500,,,VFR,,,,,,,,,,,,METAR,306
KSRB 050415Z AUTO 00000KT 10SM CLR 07/05 A3017 RMK AO2,KSRB,2023-11-05T04:15:00Z,36.0529,-85.536,7,5,0,0,,10+,30.17,,,TRUE,TRUE,,,,,,,CLR,,,,,,,,VFR,,,,,,,,,,,,METAR,303
KSQL 050415Z AUTO 00000KT 10SM CLR 15/13 A3007 RMK AO2,KSQL,2023-11-05T04:15:00Z,37.5119,-122.248,15,13,0,0,,10+,30.07,,,TRUE,TRUE,,,,,,,CLR,,,,,,,,VFR,,,,,,,,,,,,METAR,1
KSPK 050415Z AUTO 13012KT 10SM CLR 14/M01 A3009 RMK AO2,KSPK,2023-11-05T04:15:00Z,40.1497,-111.677,14,-1,130,12,,10+,30.09,,,TRUE,TRUE,,,,,,,CLR,,,,,,,,VFR,,,,,,,,,,,,METAR,1381
KSPF 050415Z AUTO VRB03KT 10SM SCT110 08/M01 A2993 RMK AO2,KSPF,2023-11-05T04:15:00Z,44.4811,-103.788,8,-1,VRB,3,,10+,29.93,,,TRUE,TRUE,,,,,,,SCT,11000,,,,,,,VFR,,,,,,,,,,,,METAR,1191
KSPA 050415Z AUTO 00000KT 10SM CLR 06/00 A3013 RMK AO2,KSPA,2023-11-05T04:15:00Z,34.9106,-81.9589,6,0,0,0,,10+,30.13,,,TRUE,TRUE,,,,,,,CLR,,,,,,,,VFR,,,,,,,,,,,,METAR,242
KSOW 050415Z AUTO 17005KT 10SM CLR 07/M12 A3032 RMK AO2,KSOW,2023-11-05T04:15:00Z,34.2686,-110.002,7,-12,170,5,,10+,30.32,,,TRUE,TRUE,,,,,,,CLR,,,,,,,,VFR,,,,,,,,,,,,METAR,1954
KSOA 050415Z AUTO 00000KT 10SM CLR 15/13 A3018 RMK AO2,KSOA,2023-11-05T04:15:00Z,30.5853,-100.651,15,13,0,0,,10+,30.18,,,TRUE,TRUE,,,,,,,CLR,,,,,,,,VFR,,,,,,,,,,,,METAR,654
KSNL 050415Z AUTO 15004KT 10SM SCT048 OVC060 17/13 A3013 RMK AO2 T01680125,KSNL,2023-11-05T04:15:00Z,35.3611,-96.9445,16.8,12.5,150,4,,10+,30.13,,,TRUE,TRUE,,,,,,,SCT,4800,OVC,6000,,,,,VFR,,,,,,,,,,,,METAR,327
KSNK 050415Z AUTO 21004KT 10SM CLR 15/12 A3012 RMK AO2 T01470117,KSNK,2023-11-05T04:15:00Z,32.6917,-100.951,14.7,11.7,210,4,,10+,30.12,,,TRUE,TRUE,,,,,,,CLR,,,,,,,,VFR,,,,,,,,,,,,METAR,738
KSNC 050415Z AUTO 23003KT 10SM FEW120 11/09 A3008 RMK AO2,KSNC,2023-11-05T04:15:00Z,41.383,-72.506,11,9,230,3,,10+,30.08,,,TRUE,TRUE,,,,,,,FEW,12000,,,,,,,VFR,,,,,,,,,,,,METAR,114
KSMS 050415Z AUTO 00000KT 10SM CLR 06/01 A3012 RMK AO2,KSMS,2023-11-05T04:15:00Z,34.0003,-80.3582,6,1,0,0,,10+,30.12,,,TRUE,TRUE,,,,,,,CLR,,,,,,,,VFR,,,,,,,,,,,,METAR,53
KSME 050415Z AUTO 00000KT 10SM CLR 10/05 A3014 RMK AO2,KSME,2023-11-05T04:15:00Z,37.0529,-84.6141,10,5,0,0,,10+,30.14,,,TRUE,TRUE,,,,,,,CLR,,,,,,,,VFR,,,,,,,,,,,,METAR,279
KSMD 050415Z AUTO 32005KT 5SM BR CLR 07/07 A3015 RMK A01,KSMD,2023-11-05T04:15:00Z,41.144,-85.1492,7,7,320,5,,5,30.15,,,TRUE,TRUE,,,,,,BR,CLR,,,,,,,,MVFR,,,,,,,,,,,,METAR,252
KSLO 050415Z AUTO 00000KT 10SM CLR 12/06 A3019 RMK AO2 T01150055,KSLO,2023-11-05T04:15:00Z,38.6446,-88.9612,11.5,5.5,0,0,,10+,30.19,,,TRUE,TRUE,,,,,,,CLR,,,,,,,,VFR,,,,,,,,,,,,METAR,173
KSLH 050415Z AUTO 23003KT 10SM SCT080 01/M01 A3012 RMK AO2,KSLH,2023-11-05T04:15:00Z,45.6523,-84.5202,1,-1,230,3,,10+,30.12,,,TRUE,TRUE,,,,,,,SCT,8000,,,,,,,VFR,,,,,,,,,,,,METAR,193
KSLB 050415Z AUTO 21007KT 10SM CLR 06/03 A3013 RMK AO2,KSLB,2023-11-05T04:15:00Z,42.5972,-95.2399,6,3,210,7,,10+,30.13,,,TRUE,TRUE,,,,,,,CLR,,,,,,,,VFR,,,,,,,,,,,,METAR,450
KSKA 050415Z 20015KT 10SM OVC010 10/06 A2977 RMK AO2A CIG 008V010 CIG 007 RWY05 SLP083 $,KSKA,2023-11-05T04:15:00Z,47.612,-117.679,10,6,200,15,,10+,29.77,1008.3,,,TRUE,TRUE,,,,,,OVC,1000,,,,,,,MVFR,,,,,,,,,,,,SPECI,754
KSJX 050415Z AUTO 00000KT 10SM OVC070 01/00 A3013 RMK AO2 T00100002,KSJX,2023-11-05T04:15:00Z,45.6928,-85.5662,1,0.2,0,0,,10+,30.13,,,TRUE,TRUE,,,,,,,OVC,7000,,,,,,,VFR,,,,,,,,,,,,METAR,202
KSJS 050415Z AUTO 21003KT 10SM CLR 14/01 A3014 RMK AO2 T01440007,KSJS,2023-11-05T04:15:00Z,37.7489,-82.6413,14.4,0.7,210,3,,10+,30.14,,,TRUE,TRUE,,,,,,,CLR,,,,,,,,VFR,,,,,,,,,,,,METAR,359
KSIK 050415Z AUTO 00000KT 10SM CLR 13/11 A3017 RMK AO2,KSIK,2023-11-05T04:15:00Z,36.9027,-89.5577,13,11,0,0,,10+,30.17,,,TRUE,TRUE,,,,,,,CLR,,,,,,,,VFR,,,,,,,,,,,,METAR,95
KSHN 050415Z AUTO 23005KT 9SM SCT010 OVC021 11/11 A2981 RMK AO2 T01110106 $,KSHN,2023-11-05T04:15:00Z,47.2384,-123.142,11.1,10.6,230,5,,9,29.81,,,TRUE,TRUE,TRUE,,,,,,SCT,1000,OVC,2100,,,,,MVFR,,,,,,,,,,,,SPECI,84
KSHL 050415Z AUTO 18005KT 10SM CLR 06/04 A3008 RMK AO2,KSHL,2023-11-05T04:15:00Z,43.2082,-95.8354,6,4,180,5,,10+,30.08,,,TRUE,TRUE,,,,,,,CLR,,,,,,,,VFR,,,,,,,,,,,,METAR,430
KSHD 050415Z AUTO 00000KT 10SM CLR 04/M03 A3013 RMK AO2 T00401031,KSHD,2023-11-05T04:15:00Z,38.2601,-78.9013,4,-3.1,0,0,,10+,30.13,,,TRUE,TRUE,,,,,,,CLR,,,,,,,,VFR,,,,,,,,,,,,METAR,360
KSGS 050415Z AUTO 16004KT 10SM OVC050 07/01 A3010 RMK AO2 T00650007,KSGS,2023-11-05T04:15:00Z,44.8601,-93.0321,6.5,0.7,160,4,,10+,30.10,,,TRUE,TRUE,,,,,,,OVC,5000,,,,,,,VFR,,,,,,,,,,,,METAR,250
KSFQ 050415Z AUTO 00000KT 10SM CLR 08/07 A3010 RMK AO2 T00770071,KSFQ,2023-11-05T04:15:00Z,36.6825,-76.6013,7.7,7.1,0,0,,10+,30.10,,,TRUE,TRUE,,,,,,,CLR,,,,,,,,VFR,,,,,,,,,,,,METAR,19
KSEP 050415Z AUTO 17003KT 10SM CLR 16/13 A3014 RMK AO2 T01570130,KSEP,2023-11-05T04:15:00Z,32.215,-98.1793,15.7,13,170,3,,10+,30.14,,,TRUE,TRUE,,,,,,,CLR,,,,,,,,VFR,,,,,,,,,,,,METAR,399
KSEM 050415Z AUTO 00000KT 10SM FEW030 SCT034 07/06 A3017 RMK AO2,KSEM,2023-11-05T04:15:00Z,32.3367,-86.9836,7,6,0,0,,10+,30.17,,,TRUE,TRUE,,,,,,,FEW,3000,SCT,3400,,,,,VFR,,,,,,,,,,,,METAR,48
KSEF 050415Z AUTO 34007KT 10SM CLR 18/ A3007 RMK AO2 T0182////,KSEF,2023-11-05T04:15:00Z,27.4553,-81.3415,18.2,,340,7,,10+,30.07,,,TRUE,TRUE,,,,,,,CLR,,,,,,,,VFR,,,,,,,,,,,,METAR,17
KSEE 050415Z AUTO 31004KT 10SM CLR 15/01 A3000 RMK AO2,KSEE,2023-11-05T04:15:00Z,32.8273,-116.974,15,1,310,4,,10+,30.00,,,TRUE,TRUE,,,,,,,CLR,,,,,,,,VFR,,,,,,,,,,,,METAR,113
KSDC 050415Z AUTO 00000KT 7SM -DZ OVC050 07/05 A3009 RMK AO2,KSDC,2023-11-05T04:15:00Z,43.2355,-77.1201,7,5,0,0,,7,30.09,,,TRUE,TRUE,,,,,,-DZ,OVC,5000,,,,,,,VFR,,,,,,,,,,,,METAR,127
KSDA 050415Z AUTO 00000KT 10SM BKN080 03/02 A3019 RMK AO2,KSDA,2023-11-05T04:15:00Z,40.7533,-95.4112,3,2,0,0,,10+,30.19,,,TRUE,TRUE,,,,,,,BKN,8000,,,,,,,VFR,,,,,,,,,,,,METAR,293
KSCX 050415Z AUTO 00000KT 10SM OVC055 11/00 A3018 RMK A01,KSCX,2023-11-05T04:15:00Z,36.4553,-84.584,11,0,0,0,,10+,30.18,,,TRUE,TRUE,,,,,,,OVC,5500,,,,,,,VFR,,,,,,,,,,,,METAR,462
KSCD 050415Z AUTO 00000KT 10SM SCT085 BKN110 06/04 A3019 RMK AO2 T00600044,KSCD,2023-11-05T04:15:00Z,33.1732,-86.2933,6,4.4,0,0,,10+,30.19,,,TRUE,TRUE,,,,,,,SCT,8500,BKN,11000,,,,,VFR,,,,,,,,,,,,METAR,164
KSBX 050415Z AUTO 18008KT 10SM CLR 09/05 A2971 RMK AO2,KSBX,2023-11-05T04:15:00Z,48.541,-111.871,9,5,180,8,,10+,29.71,,,TRUE,TRUE,,,,,,,CLR,,,,,,,,VFR,,,,,,,,,,,,METAR,1049
KSBS 050415Z AUTO 04003KT 10SM CLR 02/M04 A3024 RMK AO1 T00211040,KSBS,2023-11-05T04:15:00Z,40.5153,-106.868,2.1,-4,40,3,,10+,30.24,,,TRUE,TRUE,,,,,,,CLR,,,,,,,,VFR,,,,,,,,,,,,METAR,2097
KSBO 050415Z AUTO 00000KT 10SM CLR A3015 RMK AO2,KSBO,2023-11-05T04:15:00Z,32.6111,-82.3702,,,0,0,,10+,30.15,,,TRUE,TRUE,,,,,,,CLR,,,,,,,,VFR,,,,,,,,,,,,METAR,98
KSAZ 050415Z AUTO 04005KT 10SM BKN032 03/M01 A3009 RMK AO2,KSAZ,2023-11-05T04:15:00Z,46.3785,-94.8017,3,-1,40,5,,10+,30.09,,,TRUE,TRUE,,,,,,,BKN,3200,,,,,,,VFR,,,,,,,,,,,,METAR,391
KSAR 050415Z AUTO 00000KT 10SM CLR 10/06 A3021 RMK AO2 T01000058,KSAR,2023-11-05T04:15:00Z,38.1463,-89.7025,10,5.8,0,0,,10+,30.21,,,TRUE,TRUE,,,,,,,CLR,,,,,,,,VFR,,,,,,,,,,,,METAR,162
KSAA 050415Z AUTO 22007KT 10SM CLR 06/M06 A3020 RMK AO2,KSAA,2023-11-05T04:15:00Z,41.447,-106.815,6,-6,220,7,,10+,30.20,,,TRUE,TRUE,,,,,,,CLR,,,,,,,,VFR,,,,,,,,,,,,METAR,2093
KS52 050415Z AUTO 00000KT 10SM OVC020 06/06 A2979 RMK AO2 T00610059,KS52,2023-11-05T04:15:00Z,48.4282,-120.15,6.1,5.9,0,0,,10+,29.79,,,TRUE,TRUE,,,,,,,OVC,2000,,,,,,,MVFR,,,,,,,,,,,,METAR,517
KS34 050415Z AUTO 32003KT 1SM BR SCT040 BKN060 OVC075 06/06 A2983 RMK AO2,KS34,2023-11-05T04:15:00Z,47.4718,-114.901,6,6,320,3,,1,29.83,,,TRUE,TRUE,,,,,,BR,SCT,4000,BKN,6000,OVC,7500,,,IFR,,,,,,,,,,,,METAR,750
KS33 050415Z AUTO 22008G15KT 10SM SCT050 SCT065 BKN075 11/06 A2990 RMK AO2,KS33,2023-11-05T04:15:00Z,44.6653,-121.157,11,6,220,8,15,10+,29.90,,,TRUE,TRUE,,,,,,,SCT,5000,SCT,6500,BKN,7500,,,VFR,,,,,,,,,,,,METAR,739
KS32 050415Z AUTO 11005KT 9SM SCT007 OVC016 M01/M01 A3010 RMK AO2 TSNO,KS32,2023-11-05T04:15:00Z,47.424,-98.11,-1,-1,110,5,,9,30.10,,,TRUE,TRUE,,,,,,,SCT,700,OVC,1600,,,,,MVFR,,,,,,,,,,,,METAR,435
KS25 050415Z AUTO 11006KT 5SM BR OVC003 00/00 A2992 RMK AO2,KS25,2023-11-05T04:15:00Z,47.7954,-103.257,0,0,110,6,,5,29.92,,,TRUE,TRUE,,,,,,BR,OVC,300,,,,,,,LIFR,,,,,,,,,,,,METAR,632
KS24 050415Z AUTO 00000KT 5SM BR CLR 03/03 A3009 RMK AO2,KS24,2023-11-05T04:15:00Z,41.296,-83.037,3,3,0,0,,5,30.09,,,TRUE,TRUE,,,,,,BR,CLR,,,,,,,,MVFR,,,,,,,,,,,,METAR,203
KS12 050415Z AUTO 00000KT 10SM FEW032 BKN040 OVC047 13/12 A2990 RMK AO2,KS12,2023-11-05T04:15:00Z,44.6394,-123.058,13,12,0,0,,10+,29.90,,,TRUE,TRUE,,,,,,,FEW,3200,BKN,4000,OVC,4700,,,VFR,,,,,,,,,,,,METAR,69
KRZT 050415Z AUTO 29006KT 10SM CLR 11/04 A3012 RMK AO2 PWINO,KRZT,2023-11-05T04:15:00Z,39.4402,-83.0209,11,4,290,6,,10+,30.12,,,TRUE,TRUE,,,,,,,CLR,,,,,,,,VFR,,,,,,,,,,,,METAR,217
KRZR 050415Z AUTO 00000KT 10SM CLR 04/03 A3016 RMK A01,KRZR,2023-11-05T04:15:00Z,35.207,-84.8005,4,3,0,0,,10+,30.16,,,TRUE,TRUE,,,,,,,CLR,,,,,,,,VFR,,,,,,,,,,,,METAR,259
KRZN 050415Z AUTO 06003KT 10SM SCT044 OVC050 04/M02 A3012 RMK AO2 T00421021,KRZN,2023-11-05T04:15:00Z,45.8229,-92.3706,4.2,-2.1,60,3,,10+,30.12,,,TRUE,TRUE,,,,,,,SCT,4400,OVC,5000,,,,,VFR,,,,,,,,,,,,METAR,301
KRZL 050415Z AUTO 00000KT 1/2SM FG BKN003 02/02 A3019 RMK AO2,KRZL,2023-11-05T04:15:00Z,40.9488,-87.1851,2,2,0,0,,0.5,30.19,,,TRUE,TRUE,,,,,,FG,BKN,300,,,,,,,LIFR,,,,,,,,,,,,METAR,210
KRYV 050415Z AUTO 00000KT 10SM CLR M01/M01 A3016 RMK AO2 T10071007,KRYV,2023-11-05T04:15:00Z,43.1702,-88.7251,-0.7,-0.7,0,0,,10+,30.16,,,TRUE,TRUE,,,,,,,CLR,,,,,,,,VFR,,,,,,,,,,,,METAR,249
KRYN 050415Z AUTO 24005KT 10SM CLR 19/M06 A3004 RMK AO2,KRYN,2023-11-05T04:15:00Z,32.1418,-111.177,19,-6,240,5,,10+,30.04,,,TRUE,TRUE,,,,,,,CLR,,,,,,,,VFR,,,,,,,,,,,,METAR,731
KRWV 050415Z AUTO 15004KT 10SM CLR 16/15 A3014 RMK AO2 T01650148,KRWV,2023-11-05T04:15:00Z,30.5161,-96.7051,16.5,14.8,150,4,,10+,30.14,,,TRUE,TRUE,,,,,,,CLR,,,,,,,,VFR,,,,,,,,,,,,METAR,116
KRVL 050415Z AUTO 00000KT 7SM BKN080 BKN095 07/04 A3008 RMK AO2,KRVL,2023-11-05T04:15:00Z,40.6768,-77.6251,7,4,0,0,,7,30.08,,,TRUE,TRUE,,,,,,,BKN,8000,BKN,9500,,,,,VFR,,,,,,,,,,,,METAR,250
KRVJ 050415Z AUTO 00000KT 10SM CLR 05/04 A3014 RMK AO2 T00500036,KRVJ,2023-11-05T04:15:00Z,32.059,-82.153,5,3.6,0,0,,10+,30.14,,,TRUE,TRUE,,,,,,,CLR,,,,,,,,VFR,,,,,,,,,,,,METAR,60
KRVF 050415Z AUTO 17003G13KT 10SM SCT075 BKN100 OVC120 09/04 A2996 RMK AO2,KRVF,2023-11-05T04:15:00Z,45.534,-112.303,9,4,170,3,13,10+,29.96,,,TRUE,TRUE,,,,,,,SCT,7500,BKN,10000,OVC,12000,,,VFR,,,,,,,,,,,,METAR,1445
KRUG 050415Z AUTO 13012KT 7SM FEW006 OVC010 M00/M00 A3003 RMK AO2,KRUG,2023-11-05T04:15:00Z,48.389,-100.025,0,0,130,12,,7,30.03,,,TRUE,TRUE,,,,,,,FEW,600,OVC,1000,,,,,MVFR,,,,,,,,,,,,METAR,469
KRSN 050415Z AUTO 00000KT 8SM CLR 11/09 A3015 RMK AO2 T01090092 TSNO $,KRSN,2023-11-05T04:15:00Z,32.5159,-92.5899,10.9,9.2,0,0,,8,30.15,,,TRUE,TRUE,TRUE,,,,,,CLR,,,,,,,,VFR,,,,,,,,,,,,METAR,86
KRRT 050415Z AUTO 00000KT 10SM BKN025 M03/M06 A3015 RMK AO2,KRRT,2023-11-05T04:15:00Z,48.9318,-95.3405,-3,-6,0,0,,10+,30.15,,,TRUE,TRUE,,,,,,,BKN,2500,,,,,,,MVFR,,,,,,,,,,,,METAR,327
KRQB 050415Z AUTO 00000KT 10SM CLR 00/00 A3013 RMK AO2 T00031002,KRQB,2023-11-05T04:15:00Z,43.722,-85.498,0.3,-0.2,0,0,,10+,30.13,,,TRUE,TRUE,,,,,,,CLR,,,,,,,,VFR,,,,,,,,,,,,METAR,282
KRPJ 050415Z AUTO 00000KT 7SM CLR 00/M01 A3018 RMK AO2 T00011007 TSNO,KRPJ,2023-11-05T04:15:00Z,41.8906,-89.0817,0.1,-0.7,0,0,,7,30.18,,,TRUE,TRUE,,,,,,,CLR,,,,,,,,VFR,,,,,,,,,,,,METAR,234
KRPH 050415Z AUTO 00000KT 10SM CLR 16/14 A3009 RMK AO2 T01590141,KRPH,2023-11-05T04:15:00Z,33.1096,-98.5537,15.9,14.1,0,0,,10+,30.09,,,TRUE,TRUE,,,,,,,CLR,,,,,,,,VFR,,,,,,,,,,,,METAR,341
KRPD 050415Z AUTO 00000KT 7SM SCT034 OVC044 04/01 A3013 RMK AO2 T00420008,KRPD,2023-11-05T04:15:00Z,45.4186,-91.7764,4.2,0.8,0,0,,7,30.13,,,TRUE,TRUE,,,,,,,SCT,3400,OVC,4400,,,,,VFR,,,,,,,,,,,,METAR,334
KROX 050415Z AUTO 00000KT 10SM OVC080 M03/M03 A3014 RMK AO2,KROX,2023-11-05T04:15:00Z,48.856,-95.6949,-3,-3,0,0,,10+,30.14,,,TRUE,TRUE,,,,,,,OVC,8000,,,,,,,VFR,,,,,,,,,,,,METAR,320
KROS 050415Z AUTO 00000KT 10SM OVC049 05/00 A3010 RMK AO2 T00511001,KROS,2023-11-05T04:15:00Z,45.6962,-92.9543,5.1,-0.1,0,0,,10+,30.10,,,TRUE,TRUE,,,,,,,OVC,4900,,,,,,,VFR,,,,,,,,,,,,METAR,282
KRNP 050415Z AUTO 00000KT 4SM BR CLR 03/02 A3011 RMK AO2 T00320022,KRNP,2023-11-05T04:15:00Z,42.9937,-84.1347,3.2,2.2,0,0,,4,30.11,,,TRUE,TRUE,,,,,,BR,CLR,,,,,,,,MVFR,,,,,,,,,,,,METAR,224
KRNH 050415Z AUTO 11004KT 10SM BKN048 OVC050 05/04 A3010 RMK AO2 T00520038,KRNH,2023-11-05T04:15:00Z,45.1476,-92.5335,5.2,3.8,110,4,,10+,30.10,,,TRUE,TRUE,,,,,,,BKN,4800,OVC,5000,,,,,VFR,,,,,,,,,,,,METAR,302
KRNC 050415Z AUTO 00000KT 10SM CLR 08/03 A3018 RMK A01,KRNC,2023-11-05T04:15:00Z,35.6991,-85.8402,8,3,0,0,,10+,30.18,,,TRUE,TRUE,,,,,,,CLR,,,,,,,,VFR,,,,,,,,,,,,METAR,310
KRMY 050415Z AUTO 29004KT 10SM BKN022 BKN033 OVC046 08/05 A3013 RMK AO2 T00750051,KRMY,2023-11-05T04:15:00Z,42.2524,-84.9526,7.5,5.1,290,4,,10+,30.13,,,TRUE,TRUE,,,,,,,BKN,2200,BKN,3300,OVC,4600,,,MVFR,,,,,,,,,,,,METAR,285
KRMN 050415Z AUTO 00000KT 10SM CLR 05/M01 A3010 RMK AO2 T00491007,KRMN,2023-11-05T04:15:00Z,38.3941,-77.4523,4.9,-0.7,0,0,,10+,30.10,,,TRUE,TRUE,,,,,,,CLR,,,,,,,,VFR,,,,,,,,,,,,METAR,50
KRLD 050415Z AUTO 23004KT 10SM OVC090 14/12 A2981 RMK AO2 T01400123,KRLD,2023-11-05T04:15:00Z,46.3086,-119.306,14,12.3,230,4,,10+,29.81,,,TRUE,TRUE,,,,,,,OVC,9000,,,,,,,VFR,,,,,,,,,,,,METAR,118
KRKR 050415Z AUTO 00000KT 10SM CLR 12/11 A3018 RMK AO2,KRKR,2023-11-05T04:15:00Z,35.0187,-94.6202,12,11,0,0,,10+,30.18,,,TRUE,TRUE,,,,,,,CLR,,,,,,,,VFR,,,,,,,,,,,,METAR,136
KRID 050415Z AUTO 31006KT 10SM CLR 07/04 A3015 RMK AO2,KRID,2023-11-05T04:15:00Z,39.7579,-84.8359,7,4,310,6,,10+,30.15,,,TRUE,TRUE,,,,,,,CLR,,,,,,,,VFR,,,,,,,,,,,,METAR,346
KRHV 050415Z 31008KT 10SM OVC020 16/13 A3008,KRHV,2023-11-05T04:15:00Z,37.3331,-121.82,16,13,310,8,,10+,30.08,,,,,,,,,,,OVC,2000,,,,,,,MVFR,,,,,,,,,,,,SPECI,37
KRGK 050415Z AUTO 00000KT 10SM BKN060 OVC085 05/02 A3011 RMK AO2,KRGK,2023-11-05T04:15:00Z,44.5927,-92.4844,5,2,0,0,,10+,30.11,,,TRUE,TRUE,,,,,,,BKN,6000,OVC,8500,,,,,VFR,,,,,,,,,,,,METAR,238
KRGA 050415Z AUTO 25006KT 10SM CLR 13/05 A3016 RMK AO2,KRGA,2023-11-05T04:15:00Z,37.6305,-84.329,13,5,250,6,,10+,30.16,,,TRUE,TRUE,,,,,,,CLR,,,,,,,,VFR,,,,,,,,,,,,METAR,301
KRFI 050415Z AUTO 00000KT 10SM 14/13 A3017 RMK AO2 T01420128,KRFI,2023-11-05T04:15:00Z,32.1441,-94.8539,14.2,12.8,0,0,,10+,30.17,,,TRUE,TRUE,,,,,,,,,,,,,,,VFR,,,,,,,,,,,,METAR,133
KREG 050415Z AUTO 00000KT 10SM CLR 13/11 A3017 RMK AO2 T01250108,KREG,2023-11-05T04:15:00Z,30.1756,-90.9397,12.5,10.8,0,0,,10+,30.17,,,TRUE,TRUE,,,,,,,CLR,,,,,,,,VFR,,,,,,,,,,,,METAR,3
KRDK 050415Z AUTO 00000KT 7SM CLR 02/02 A3020 RMK AO2,KRDK,2023-11-05T04:15:00Z,41.0107,-95.2622,2,2,0,0,,7,30.20,,,TRUE,TRUE,,,,,,,CLR,,,,,,,,VFR,,,,,,,,,,,,METAR,317
KRCX 050415Z AUTO 00000KT 10SM OVC040 03/02 A3015 RMK AO2 T00260020,KRCX,2023-11-05T04:15:00Z,45.4935,-90.9985,2.6,2,0,0,,10+,30.15,,,TRUE,TRUE,,,,,,,OVC,4000,,,,,,,VFR,,,,,,,,,,,,METAR,373
KRCV 050415Z AUTO 26013KT 10SM CLR 02/M07 A3034 RMK AO2 T00211070,KRCV,2023-11-05T04:15:00Z,37.7092,-106.355,2.1,-7,260,13,,10+,30.34,,,TRUE,TRUE,,,,,,,CLR,,,,,,,,VFR,,,,,,,,,,,,METAR,2418
KRCR 050415Z AUTO 00000KT 6SM BR CLR 05/05 A3017 RMK AO2,KRCR,2023-11-05T04:15:00Z,41.0651,-86.1864,5,5,0,0,,6,30.17,,,TRUE,TRUE,,,,,,BR,CLR,,,,,,,,VFR,,,,,,,,,,,,METAR,240
KRCM 050415Z AUTO 00000KT 7SM CLR 06/05 A3021 RMK AO2,KRCM,2023-11-05T04:15:00Z,38.7855,-93.8058,6,5,0,0,,7,30.21,,,TRUE,TRUE,,,,,,,CLR,,,,,,,,VFR,,,,,,,,,,,,METAR,242
KRCE 050415Z AUTO 20005KT 10SM 16/13 RMK AO2 TSNO,KRCE,2023-11-05T04:15:00Z,35.4971,-97.8255,16,13,200,5,,10+,0.00,,,TRUE,TRUE,,,,,,,,,,,,,,,VFR,,,,,,,,,,,,METAR,412
KRBW 050415Z AUTO 33003KT 10SM CLR 06/02 A3013 RMK AO2,KRBW,2023-11-05T04:15:00Z,32.921,-80.64,6,2,330,3,,10+,30.13,,,TRUE,TRUE,,,,,,,CLR,,,,,,,,VFR,,,,,,,,,,,,METAR,30
KRBO 050415Z AUTO 10003KT 10SM CLR 19/17 A3012 RMK AO2 T01870172,KRBO,2023-11-05T04:15:00Z,27.7781,-97.6878,18.7,17.2,100,3,,10+,30.12,,,TRUE,TRUE,,,,,,,CLR,,,,,,,,VFR,,,,,,,,,,,,METAR,24
KRBG 050415Z AUTO 15003KT 4SM RA BR SCT028 SCT036 OVC044 14/13 A2992 RMK AO2 P0004 T01390128,KRBG,2023-11-05T04:15:00Z,43.2337,-123.358,13.9,12.8,150,3,,4,29.92,,,TRUE,TRUE,,,,,,RA BR,SCT,2800,SCT,3600,OVC,4400,,,MVFR,,,,,,0.04,,,,,,SPECI,152
KRAW 050415Z AUTO 00000KT 10SM CLR 05/04 A3022 RMK AO2,KRAW,2023-11-05T04:15:00Z,38.3484,-93.3436,5,4,0,0,,10+,30.22,,,TRUE,TRUE,,,,,,,CLR,,,,,,,,VFR,,,,,,,,,,,,METAR,285
KRAS 050415Z AUTO 00000KT 10SM CLR 22/20 A3013 RMK AO2 T02250199,KRAS,2023-11-05T04:15:00Z,27.8083,-97.0853,22.5,19.9,0,0,,10+,30.13,,,TRUE,TRUE,,,,,,,CLR,,,,,,,,VFR,,,,,,,,,,,,METAR,3
KPZZ 050415Z AUTO 09014KT 10SM CLR 23/15 A3016 RMK A01,KPZZ,2023-11-05T04:15:00Z,28.434,-91.034,23,15,90,14,,10+,30.16,,,TRUE,TRUE,,,,,,,CLR,,,,,,,,VFR,,,,,,,,,,,,METAR,25
KPZQ 050415Z AUTO 26004KT 10SM CLR 00/M02 A3014 RMK AO2 T00041020,KPZQ,2023-11-05T04:15:00Z,45.4085,-83.812,0.4,-2,260,4,,10+,30.14,,,TRUE,TRUE,,,,,,,CLR,,,,,,,,VFR,,,,,,,,,,,,METAR,199
KPYX 050415Z AUTO 12005KT 10SM CLR 04/02 A3017 RMK AO2 T00400016,KPYX,2023-11-05T04:15:00Z,36.4103,-100.751,4,1.6,120,5,,10+,30.17,,,TRUE,TRUE,,,,,,,CLR,,,,,,,,VFR,,,,,,,,,,,,METAR,890
KPXE 050415Z AUTO 00000KT 10SM CLR 06/06 A3016 RMK AO2 T0063////,KPXE,2023-11-05T04:15:00Z,32.5072,-83.7656,6.3,6,0,0,,10+,30.16,,,TRUE,TRUE,,,,,,,CLR,,,,,,,,VFR,,,,,,,,,,,,METAR,126
KPWD 050415Z AUTO 12014KT 10SM BKN060 OVC070 01/00 A2983 RMK AO2,KPWD,2023-11-05T04:15:00Z,48.7912,-104.525,1,0,120,14,,10+,29.83,,,TRUE,TRUE,,,,,,,BKN,6000,OVC,7000,,,,,VFR,,,,,,,,,,,,METAR,690
KPWC 050415Z AUTO 00000KT 10SM OVC027 01/M02 A3014 RMK AO2,KPWC,2023-11-05T04:15:00Z,46.7266,-94.3849,1,-2,0,0,,10+,30.14,,,TRUE,TRUE,,,,,,,OVC,2700,,,,,,,MVFR,,,,,,,,,,,,METAR,394
KPVJ 050415Z AUTO 16003KT 10SM OVC050 16/14 A3013 RMK AO2 T01560135,KPVJ,2023-11-05T04:15:00Z,34.7041,-97.2211,15.6,13.5,160,3,,10+,30.13,,,TRUE,TRUE,,,,,,,OVC,5000,,,,,,,VFR,,,,,,,,,,,,METAR,287
KPVF 050415Z AUTO 00000KT 10SM FEW110 16/05 A3011 RMK AO1,KPVF,2023-11-05T04:15:00Z,38.7222,-120.757,16,5,0,0,,10+,30.11,,,TRUE,TRUE,,,,,,,FEW,11000,,,,,,,VFR,,,,,,,,,,,,METAR,788
KPVB 050415Z AUTO 17003KT 7SM CLR 06/M04 A3017 RMK AO1 T00581041,KPVB,2023-11-05T04:15:00Z,42.6909,-90.4413,5.8,-4.1,170,3,,7,30.17,,,TRUE,TRUE,,,,,,,CLR,,,,,,,,VFR,,,,,,,,,,,,METAR,311
KPTT 050415Z AUTO 08004KT 10SM 11/05 A3019 RMK AO2 T01070046,KPTT,2023-11-05T04:15:00Z,37.7069,-98.7453,10.7,4.6,80,4,,10+,30.19,,,TRUE,TRUE,,,,,,,,,,,,,,,VFR,,,,,,,,,,,,METAR,594
KPTS 050415Z AUTO 00000KT 7SM SCT044 SCT050 OVC065 11/10 A3018 RMK AO2 T01110097 PWINO,KPTS,2023-11-05T04:15:00Z,37.4512,-94.7322,11.1,9.7,0,0,,7,30.18,,,TRUE,TRUE,,,,,,,SCT,4400,SCT,5000,OVC,6500,,,VFR,,,,,,,,,,,,METAR,286
KPTD 050415Z AUTO 16003KT 10SM BKN010 BKN016 OVC060 06/06 A3006 RMK AO2,KPTD,2023-11-05T04:15:00Z,44.6757,-74.9469,6,6,160,3,,10+,30.06,,,TRUE,TRUE,,,,,,,BKN,1000,BKN,1600,OVC,6000,,,MVFR,,,,,,,,,,,,METAR,144
KPTB 050415Z AUTO 00000KT 10SM CLR 07/04 A3011 RMK AO2 T00650044,KPTB,2023-11-05T04:15:00Z,37.1803,-77.5081,6.5,4.4,0,0,,10+,30.11,,,TRUE,TRUE,,,,,,,CLR,,,,,,,,VFR,,,,,,,,,,,,METAR,56
KPSO 050415Z AUTO 00000KT 10SM CLR 05/M09 A3036 RMK AO2 T00521086,KPSO,2023-11-05T04:15:00Z,37.291,-107.056,5.2,-8.6,0,0,,10+,30.36,,,TRUE,TRUE,,,,,,,CLR,,,,,,,,VFR,,,,,,,,,,,,METAR,2332
KPSN 050415Z AUTO 13004KT 10SM OVC050 18/14 A3013 RMK AO2,KPSN,2023-11-05T04:15:00Z,31.7784,-95.7048,18,14,130,4,,10+,30.13,,,TRUE,TRUE,,,,,,,OVC,5000,,,,,,,VFR,,,,,,,,,,,,METAR,124
KPSK 050415Z AUTO 21007KT 10SM CLR 08/M04 A3016 RMK AO2 T00761036,KPSK,2023-11-05T04:15:00Z,37.1337,-80.6789,7.6,-3.6,210,7,,10+,30.16,,,TRUE,TRUE,,,,,,,CLR,,,,,,,,VFR,,,,,,,,,,,,METAR,629
KPRO 050415Z AUTO 18004KT 10SM CLR 04/01 A3017 RMK AO2 T00360011,KPRO,2023-11-05T04:15:00Z,41.8278,-94.1637,3.6,1.1,180,4,,10+,30.17,,,TRUE,TRUE,,,,,,,CLR,,,,,,,,VFR,,,,,,,,,,,,METAR,308
KPRG 050415Z AUTO 32006KT 10SM CLR 05/03 A3019 RMK AO2 T00530033,KPRG,2023-11-05T04:15:00Z,39.6982,-87.6669,5.3,3.3,320,6,,10+,30.19,,,TRUE,TRUE,,,,,,,CLR,,,,,,,,VFR,,,,,,,,,,,,METAR,197
KPPQ 050415Z AUTO 00000KT 10SM CLR 04/04 A3021 RMK AO2 T00390038,KPPQ,2023-11-05T04:15:00Z,39.6391,-90.7818,3.9,3.8,0,0,,10+,30.21,,,TRUE,TRUE,,,,,,,CLR,,,,,,,,VFR,,,,,,,,,,,,METAR,215
KPPO 050415Z AUTO 00000KT 4SM BR CLR 00/00 A3018 RMK AO2 T00041001,KPPO,2023-11-05T04:15:00Z,41.5705,-86.7333,0.4,-0.1,0,0,,4,30.18,,,TRUE,TRUE,,,,,,BR,CLR,,,,,,,,MVFR,,,,,,,,,,,,METAR,242
KPPA 050415Z AUTO 10006KT 10SM CLR 11/08 A3020 RMK AO2 T01110082,KPPA,2023-11-05T04:15:00Z,35.6139,-100.997,11.1,8.2,100,6,,10+,30.20,,,TRUE,TRUE,,,,,,,CLR,,,,,,,,VFR,,,,,,,,,,,,METAR,989
KPOY 050415Z AUTO 21007KT 10SM CLR 09/00 A2995 RMK AO2,KPOY,2023-11-05T04:15:00Z,44.8641,-108.79,9,0,210,7,,10+,29.95,,,TRUE,TRUE,,,,,,,CLR,,,,,,,,VFR,,,,,,,,,,,,METAR,1547
KPOV 050415Z AUTO 00000KT 10SM BKN065 BKN075 06/02 A3007 RMK AO2 T00600019 PWINO,KPOV,2023-11-05T04:15:00Z,41.209,-81.2479,6,1.9,0,0,,10+,30.07,,,TRUE,TRUE,,,,,,,BKN,6500,BKN,7500,,,,,VFR,,,,,,,,,,,,METAR,363
KPO1 050415Z AUTO 04003KT 10SM OVC070 02/02 A2984 RMK AO2,KPO1,2023-11-05T04:15:00Z,48.134,-105.162,2,2,40,3,,10+,29.84,,,TRUE,TRUE,,,,,,,OVC,7000,,,,,,,VFR,,,,,,,,,,,,METAR,621
KPNT 050415Z AUTO 00000KT 10SM CLR 01/00 A3018 RMK AO2 T00141003,KPNT,2023-11-05T04:15:00Z,40.9233,-88.6213,1.4,-0.3,0,0,,10+,30.18,,,TRUE,TRUE,,,,,,,CLR,,,,,,,,VFR,,,,,,,,,,,,METAR,199
KPNM 050415Z AUTO 00000KT 10SM OVC050 06/01 A3009 RMK AO2,KPNM,2023-11-05T04:15:00Z,45.556,-93.608,6,1,0,0,,10+,30.09,,,TRUE,TRUE,,,,,,,OVC,5000,,,,,,,VFR,,,,,,,,,,,,METAR,298
KPNA 050415Z AUTO 32003KT 10SM OVC085 02/M03 A3019 RMK AO2,KPNA,2023-11-05T04:15:00Z,42.7929,-109.805,2,-3,320,3,,10+,30.19,,,TRUE,TRUE,,,,,,,OVC,8500,,,,,,,VFR,,,,,,,,,,,,METAR,2158
KPMV 050415Z AUTO 22005KT 10SM CLR 07/04 A3019 RMK AO2 T00710040,KPMV,2023-11-05T04:15:00Z,40.9446,-95.9124,7.1,4,220,5,,10+,30.19,,,TRUE,TRUE,,,,,,,CLR,,,,,,,,VFR,,,,,,,,,,,,METAR,365
KPMU 050415Z AUTO 00000KT 10SM BKN050 BKN065 07/06 A3018 RMK AO2,KPMU,2023-11-05T04:15:00Z,34.3656,-89.8904,7,6,0,0,,10+,30.18,,,TRUE,TRUE,,,,,,,BKN,5000,BKN,6500,,,,,VFR,,,,,,,,,,,,METAR,67
KPMH 050415Z AUTO 00000KT 10SM CLR 09/05 A3012 RMK AO2 T00920046,KPMH,2023-11-05T04:15:00Z,38.8387,-82.8493,9.2,4.6,0,0,,10+,30.12,,,TRUE,TRUE,,,,,,,CLR,,,,,,,,VFR,,,,,,,,,,,,METAR,200
KPLU 050415Z AUTO 00000KT 10SM -DZ BKN029 BKN034 OVC044 11/11 A2985 RMK AO2,KPLU,2023-11-05T04:15:00Z,47.1005,-122.285,11,11,0,0,,10+,29.85,,,TRUE,TRUE,,,,,,-DZ,BKN,2900,BKN,3400,OVC,4400,,,MVFR,,,,,,,,,,,,METAR,164
KPLR 050415Z AUTO 00000KT 10SM FEW005 BKN035 OVC041 06/05 A3019 RMK A01,KPLR,2023-11-05T04:15:00Z,33.5608,-86.2463,6,5,0,0,,10+,30.19,,,TRUE,TRUE,,,,,,,FEW,500,BKN,3500,OVC,4100,,,VFR,,,,,,,,,,,,METAR,145
KPLD 050415Z AUTO 32004KT 7SM CLR 08/05 A3015 RMK AO2,KPLD,2023-11-05T04:15:00Z,40.4532,-84.9848,8,5,320,4,,7,30.15,,,TRUE,TRUE,,,,,,,CLR,,,,,,,,VFR,,,,,,,,,,,,METAR,282
KPKV 050415Z AUTO 12006KT 10SM CLR 21/19 A3013 RMK AO2 T02070191,KPKV,2023-11-05T04:15:00Z,28.6499,-96.6799,20.7,19.1,120,6,,10+,30.13,,,TRUE,TRUE,,,,,,,CLR,,,,,,,,VFR,,,,,,,,,,,,METAR,8
KPJC 050415Z AUTO 00000KT 10SM BKN070 OVC080 05/03 A3007 RMK AO2,KPJC,2023-11-05T04:15:00Z,40.8009,-80.1624,5,3,0,0,,10+,30.07,,,TRUE,TRUE,,,,,,,BKN,7000,OVC,8000,,,,,VFR,,,,,,,,,,,,METAR,273
KPIM 050415Z AUTO 00000KT 10SM CLR 08/05 A3018 RMK AO2 T00750054,KPIM,2023-11-05T04:15:00Z,32.8421,-84.8766,7.5,5.4,0,0,,10+,30.18,,,TRUE,TRUE,,,,,,,CLR,,,,,,,,VFR,,,,,,,,,,,,METAR,274
KPHT 050415Z AUTO 00000KT 10SM CLR 11/09 A3016 RMK A01,KPHT,2023-11-05T04:15:00Z,36.3322,-88.3871,11,9,0,0,,10+,30.16,,,TRUE,TRUE,,,,,,,CLR,,,,,,,,VFR,,,,,,,,,,,,METAR,172
KPHN 050415Z AUTO 00000KT 4SM BR BKN047 04/03 A3010 RMK AO2,KPHN,2023-11-05T04:15:00Z,42.9103,-82.5332,4,3,0,0,,4,30.10,,,TRUE,TRUE,,,,,,BR,BKN,4700,,,,,,,MVFR,,,,,,,,,,,,METAR,195
KPEZ 050415Z AUTO 16003KT 10SM CLR 19/14 A3014 RMK AO2 T01910137,KPEZ,2023-11-05T04:15:00Z,28.9561,-98.5184,19.1,13.7,160,3,,10+,30.14,,,TRUE,TRUE,,,,,,,CLR,,,,,,,,VFR,,,,,,,,,,,,METAR,126
KPEX 050415Z AUTO 00000KT 10SM CLR 01/00 A3006 RMK AO2,KPEX,2023-11-05T04:15:00Z,45.3725,-94.7388,1,0,0,0,,10+,30.06,,,TRUE,TRUE,,,,,,,CLR,,,,,,,,VFR,,,,,,,,,,,,METAR,359
KPEQ 050415Z AUTO 00000KT 10SM CLR 13/01 A3011 RMK AO2 T01260011,KPEQ,2023-11-05T04:15:00Z,31.382,-103.512,12.6,1.1,0,0,,10+,30.11,,,TRUE,TRUE,,,,,,,CLR,,,,,,,,VFR,,,,,,,,,,,,METAR,794
KPEA 050415Z AUTO 24003KT 5SM HZ CLR 06/01 A3019 RMK AO2 T00580011,KPEA,2023-11-05T04:15:00Z,41.3989,-92.9431,5.8,1.1,240,3,,5,30.19,,,TRUE,TRUE,,,,,,HZ,CLR,,,,,,,,MVFR,,,,,,,,,,,,METAR,264
KPDT 050415Z AUTO VRB03KT 6SM -RA BR FEW009 FEW016 OVC070 13/11 A2987 RMK AO2 P0002 T01330111,KPDT,2023-11-05T04:15:00Z,45.6975,-118.834,13.3,11.1,VRB,3,,6,29.87,,,TRUE,TRUE,,,,,,-RA BR,FEW,900,FEW,1600,OVC,7000,,,VFR,,,,,,0.02,,,,,,SPECI,453
KPDC 050415Z AUTO 00000KT 1SM HZ VV007 02/M01 A3017 RMK AO2 T00201011,KPDC,2023-11-05T04:15:00Z,43.0194,-91.1212,2,-1.1,0,0,,1,30.17,,,TRUE,TRUE,,,,,,HZ,OVX,0,,,,,,,IFR,,,,,,,,,,,700,METAR,201
KPCZ 050415Z AUTO 00000KT 10SM CLR 00/M02 A3015 RMK AO2 T00001019,KPCZ,2023-11-05T04:15:00Z,44.3342,-89.0203,0,-1.9,0,0,,10+,30.15,,,TRUE,TRUE,,,,,,,CLR,,,,,,,,VFR,,,,,,,,,,,,METAR,248
KPCM 050415Z AUTO 03003KT 10SM CLR 18/10 A3012 RMK AO2,KPCM,2023-11-05T04:15:00Z,28.0013,-82.1593,18,10,30,3,,10+,30.12,,,TRUE,TRUE,,,,,,,CLR,,,,,,,,VFR,,,,,,,,,,,,METAR,43
KPCD 050415Z AUTO 00000KT 10SM CLR 09/06 A3020 RMK AO2 T00910057,KPCD,2023-11-05T04:15:00Z,37.8749,-89.8582,9.1,5.7,0,0,,10+,30.20,,,TRUE,TRUE,,,,,,,CLR,,,,,,,,VFR,,,,,,,,,,,,METAR,112
KPBX 050415Z AUTO 00000KT 10SM CLR 14/M01 A3015 RMK AO2 T01371011,KPBX,2023-11-05T04:15:00Z,37.5587,-82.5674,13.7,-1.1,0,0,,10+,30.15,,,TRUE,TRUE,,,,,,,CLR,,,,,,,,VFR,,,,,,,,,,,,METAR,447
KPBH 050415Z AUTO 00000KT 7SM -SN SCT025 SCT033 OVC040 01/M01 A3013 RMK AO2 T00081014,KPBH,2023-11-05T04:15:00Z,45.7064,-90.4052,0.8,-1.4,0,0,,7,30.13,,,TRUE,TRUE,,,,,,-SN,SCT,2500,SCT,3300,OVC,4000,,,VFR,,,,,,,,,,,,METAR,445
KPAN 050415Z AUTO 00000KT 10SM CLR 13/M11 A3025 RMK AO2 PWINO TSNO,KPAN,2023-11-05T04:15:00Z,34.2551,-111.338,13,-11,0,0,,10+,30.25,,,TRUE,TRUE,,,,,,,CLR,,,,,,,,VFR,,,,,,,,,,,,METAR,1575
KP52 050415Z AUTO 28006KT 10SM CLR 16/M10 A3014 RMK AO2,KP52,2023-11-05T04:15:00Z,34.7263,-112.034,16,-10,280,6,,10+,30.14,,,TRUE,TRUE,,,,,,,CLR,,,,,,,,VFR,,,,,,,,,,,,METAR,1085
KP08 050415Z AUTO 10007KT 10SM CLR 18/M05 A3001 RMK AO2,KP08,2023-11-05T04:15:00Z,32.9359,-111.427,18,-5,100,7,,10+,30.01,,,TRUE,TRUE,,,,,,,CLR,,,,,,,,VFR,,,,,,,,,,,,METAR,477
KOZW 050415Z AUTO 00000KT 5SM BR SCT031 03/03 A3010 RMK AO2 T00310029,KOZW,2023-11-05T04:15:00Z,42.6327,-83.9854,3.1,2.9,0,0,,5,30.10,,,TRUE,TRUE,,,,,,BR,SCT,3100,,,,,,,MVFR,,,,,,,,,,,,METAR,288
KOZS 050415Z AUTO 00000KT 10SM CLR 09/03 A3022 RMK AO2,KOZS,2023-11-05T04:15:00Z,37.9745,-92.6897,9,3,0,0,,10+,30.22,,,TRUE,TRUE,,,,,,,CLR,,,,,,,,VFR,,,,,,,,,,,,METAR,321
KOYM 050415Z AUTO 00000KT 10SM OVC050 10/01 A3009 RMK AO2 PWINO,KOYM,2023-11-05T04:15:00Z,41.4118,-78.5131,10,1,0,0,,10+,30.09,,,TRUE,TRUE,,,,,,,OVC,5000,,,,,,,VFR,,,,,,,,,,,,METAR,582
KOXV 050415Z AUTO 24004KT 10SM CLR 05/00 A3018 RMK AO2,KOXV,2023-11-05T04:15:00Z,41.2984,-93.1114,5,0,240,4,,10+,30.18,,,TRUE,TRUE,,,,,,,CLR,,,,,,,,VFR,,,,,,,,,,,,METAR,280
KOXI 050415Z AUTO 00000KT 1/2SM VV005 00/M01 A3017 RMK AO1,KOXI,2023-11-05T04:15:00Z,41.3275,-86.665,0,-1,0,0,,0.5,30.17,,,TRUE,TRUE,,,,,,,OVX,0,,,,,,,LIFR,,,,,,,,,,,500,METAR,208
KOWP 050415Z AUTO 07003KT 10SM BKN045 BKN050 OVC080 18/14 A3017 RMK AO2 T01820137,KOWP,2023-11-05T04:15:00Z,36.1721,-96.1536,18.2,13.7,70,3,,10+,30.17,,,TRUE,TRUE,,,,,,,BKN,4500,BKN,5000,OVC,8000,,,VFR,,,,,,,,,,,,METAR,267
KOWI 050415Z AUTO 00000KT 8SM CLR 04/04 A3020 RMK AO2,KOWI,2023-11-05T04:15:00Z,38.5409,-95.2542,4,4,0,0,,8,30.20,,,TRUE,TRUE,,,,,,,CLR,,,,,,,,VFR,,,,,,,,,,,,METAR,292
KOVL 050415Z AUTO 18003KT 10SM CLR 03/02 A3006 RMK AO2,KOVL,2023-11-05T04:15:00Z,44.7792,-95.0304,3,2,180,3,,10+,30.06,,,TRUE,TRUE,,,,,,,CLR,,,,,,,,VFR,,,,,,,,,,,,METAR,329
KOUN 050415Z AUTO 16005KT 10SM SCT055 15/13 A3011 RMK AO2 T01530126,KOUN,2023-11-05T04:15:00Z,35.2436,-97.4713,15.3,12.6,160,5,,10+,30.11,,,TRUE,TRUE,,,,,,,SCT,5500,,,,,,,VFR,,,,,,,,,,,,METAR,359
KOSC 050415Z AUTO 33004KT 10SM CLR M01/M02 A3012 RMK AO2 T10131022,KOSC,2023-11-05T04:15:00Z,44.453,-83.396,-1.3,-2.2,330,4,,10+,30.12,,,TRUE,TRUE,,,,,,,CLR,,,,,,,,VFR,,,,,,,,,,,,METAR,191
KOSA 050415Z AUTO 12003KT 10SM CLR 13/13 A3014 RMK AO2 T01340132,KOSA,2023-11-05T04:15:00Z,33.0936,-94.9601,13.4,13.2,120,3,,10+,30.14,,,TRUE,TRUE,,,,,,,CLR,,,,,,,,VFR,,,,,,,,,,,,METAR,108
KORS 050415Z AUTO 00000KT 10SM SCT075 OVC095 12/ A2976 RMK AO2,KORS,2023-11-05T04:15:00Z,48.7081,-122.909,12,,0,0,,10+,29.76,,,TRUE,TRUE,,,,,,,SCT,7500,OVC,9500,,,,,VFR,,,,,,,,,,,,METAR,7
KORK 050415Z AUTO 22004KT 10SM SCT032 SCT048 BKN055 16/12 A3016 RMK AO2,KORK,2023-11-05T04:15:00Z,34.833,-92.2557,16,12,220,4,,10+,30.16,,,TRUE,TRUE,,,,,,,SCT,3200,SCT,4800,BKN,5500,,,VFR,,,,,,,,,,,,METAR,166
KORG 050415Z AUTO 00000KT 1/2SM FG SCT003 17/16 A3018 RMK AO2 T01700159,KORG,2023-11-05T04:15:00Z,30.068,-93.8043,17,15.9,0,0,,0.5,30.18,,,TRUE,TRUE,,,,,,FG,SCT,300,,,,,,,LIFR,,,,,,,,,,,,METAR,2
KOQN 050415Z AUTO 00000KT 10SM CLR 07/05 A3010 RMK AO2,KOQN,2023-11-05T04:15:00Z,39.9889,-75.5803,7,5,0,0,,10+,30.10,,,TRUE,TRUE,,,,,,,CLR,,,,,,,,VFR,,,,,,,,,,,,METAR,141
KOPN 050415Z AUTO 00000KT 10SM CLR 06/02 A3018 RMK AO2,KOPN,2023-11-05T04:15:00Z,32.954,-84.2595,6,2,0,0,,10+,30.18,,,TRUE,TRUE,,,,,,,CLR,,,,,,,,VFR,,,,,,,,,,,,METAR,241
KOPL 050415Z AUTO 00000KT 10SM CLR 11/07 A3017 RMK AO2 T01060065,KOPL,2023-11-05T04:15:00Z,30.5643,-92.1021,10.6,6.5,0,0,,10+,30.17,,,TRUE,TRUE,,,,,,,CLR,,,,,,,,VFR,,,,,,,,,,,,METAR,22
KOOA 050415Z AUTO 00000KT 10SM CLR 07/03 A3019 RMK AO2 T00650027,KOOA,2023-11-05T04:15:00Z,41.2273,-92.4919,6.5,2.7,0,0,,10+,30.19,,,TRUE,TRUE,,,,,,,CLR,,,,,,,,VFR,,,,,,,,,,,,METAR,256
KONZ 050415Z AUTO 35003KT 10SM SCT080 07/06 A3009 RMK AO2 T00670064,KONZ,2023-11-05T04:15:00Z,42.0991,-83.161,6.7,6.4,350,3,,10+,30.09,,,TRUE,TRUE,,,,,,,SCT,8000,,,,,,,VFR,,,,,,,,,,,,METAR,179
KONP 050415Z AUTO 17006KT 5SM BR BKN005 OVC020 12/12 A2993 RMK AO2,KONP,2023-11-05T04:15:00Z,44.5825,-124.057,12,12,170,6,,5,29.93,,,TRUE,TRUE,,,,,,BR,BKN,500,OVC,2000,,,,,IFR,,,,,,,,,,,,METAR,43
KONM 050415Z AUTO 19003KT 10SM CLR 12/M09 A3022 RMK AO2 T01181091,KONM,2023-11-05T04:15:00Z,34.0263,-106.904,11.8,-9.1,190,3,,10+,30.22,,,TRUE,TRUE,,,,,,,CLR,,,,,,,,VFR,,,,,,,,,,,,METAR,1467
KONL 050415Z AUTO 19004KT 10SM CLR 06/05 A3011 RMK AO2 T00620045,KONL,2023-11-05T04:15:00Z,42.4691,-98.6903,6.2,4.5,190,4,,10+,30.11,,,TRUE,TRUE,,,,,,,CLR,,,,,,,,VFR,,,,,,,,,,,,METAR,619
KONA 050415Z AUTO 00000KT 10SM SCT050 00/00 A3015 RMK AO2,KONA,2023-11-05T04:15:00Z,44.076,-91.707,0,0,0,0,,10+,30.15,,,TRUE,TRUE,,,,,,,SCT,5000,,,,,,,VFR,,,,,,,,,,,,METAR,200
KOMH 050415Z AUTO 00000KT 10SM CLR 05/01 A3011 RMK AO2,KOMH,2023-11-05T04:15:00Z,38.2487,-78.0454,5,1,0,0,,10+,30.11,,,TRUE,TRUE,,,,,,,CLR,,,,,,,,VFR,,,,,,,,,,,,METAR,136
KOLZ 050415Z AUTO 19005KT 10SM CLR 03/M01 A3016 RMK A01,KOLZ,2023-11-05T04:15:00Z,42.6831,-91.976,3,-1,190,5,,10+,30.16,,,TRUE,TRUE,,,,,,,CLR,,,,,,,,VFR,,,,,,,,,,,,METAR,328
KOLV 050415Z AUTO 20003KT 10SM FEW055 11/06 A3016 RMK A01,KOLV,2023-11-05T04:15:00Z,34.9808,-89.7851,11,6,200,3,,10+,30.16,,,TRUE,TRUE,,,,,,,FEW,5500,,,,,,,VFR,,,,,,,,,,,,METAR,124
KOLG 050415Z AUTO 05003KT 10SM OVC029 00/00 A3013 RMK AO1,KOLG,2023-11-05T04:15:00Z,46.3153,-91.8183,0,0,50,3,,10+,30.13,,,TRUE,TRUE,,,,,,,OVC,2900,,,,,,,MVFR,,,,,,,,,,,,METAR,334
KOLE 050415Z AUTO 00000KT 10SM OVC049 06/00 A3007 RMK AO2,KOLE,2023-11-05T04:15:00Z,42.2429,-78.3721,6,0,0,0,,10+,30.07,,,TRUE,TRUE,,,,,,,OVC,4900,,,,,,,VFR,,,,,,,,,,,,METAR,651
KOKZ 050415Z AUTO 00000KT 10SM CLR 06/05 A3015 RMK AO2 T00650055,KOKZ,2023-11-05T04:15:00Z,32.9651,-82.8387,6.5,5.5,0,0,,10+,30.15,,,TRUE,TRUE,,,,,,,CLR,,,,,,,,VFR,,,,,,,,,,,,METAR,128
KOKV 050415Z AUTO 00000KT 10SM BKN120 06/M01 A3008 RMK AO2,KOKV,2023-11-05T04:15:00Z,39.1406,-78.1391,6,-1,0,0,,10+,30.08,,,TRUE,TRUE,,,,,,,BKN,12000,,,,,,,VFR,,,,,,,,,,,,METAR,213
KOKM 050415Z AUTO 15006KT 10SM CLR 14/13 A3015 RMK AO2 T01440130,KOKM,2023-11-05T04:15:00Z,35.6713,-95.9514,14.4,13,150,6,,10+,30.15,,,TRUE,TRUE,,,,,,,CLR,,,,,,,,VFR,,,,,,,,,,,,METAR,215
KOJA 050415Z AUTO 00000KT 10SM SCT050 14/11 A3015 RMK AO2 T01420113,KOJA,2023-11-05T04:15:00Z,35.5484,-98.6702,14.2,11.3,0,0,,10+,30.15,,,TRUE,TRUE,,,,,,,SCT,5000,,,,,,,VFR,,,,,,,,,,,,METAR,490
KOIN 050415Z AUTO 22003KT 10SM CLR 08/03 A3019 RMK AO1 T00790028,KOIN,2023-11-05T04:15:00Z,39.8298,-100.538,7.9,2.8,220,3,,10+,30.19,,,TRUE,TRUE,,,,,,,CLR,,,,,,,,VFR,,,,,,,,,,,,METAR,810
KOGS 050415Z AUTO 00000KT 10SM BKN006 OVC055 05/04 A3005 RMK AO2,KOGS,2023-11-05T04:15:00Z,44.68,-75.4641,5,4,0,0,,10+,30.05,,,TRUE,TRUE,,,,,,,BKN,600,OVC,5500,,,,,IFR,,,,,,,,,,,,METAR,88
KOGA 050415Z AUTO 00000KT 10SM CLR 08/00 A3010 RMK AO2 T00761005,KOGA,2023-11-05T04:15:00Z,41.1164,-101.768,7.6,-0.5,0,0,,10+,30.10,,,TRUE,TRUE,,,,,,,CLR,,,,,,,,VFR,,,,,,,,,,,,METAR,991
KOEO 050415Z AUTO 06003KT 10SM OVC055 07/02 A3013 RMK AO2 T00650020,KOEO,2023-11-05T04:15:00Z,45.3108,-92.6948,6.5,2,60,3,,10+,30.13,,,TRUE,TRUE,,,,,,,OVC,5500,,,,,,,VFR,,,,,,,,,,,,METAR,269
KOEL 050415Z AUTO 19008KT 10SM CLR 04/00 A3017 RMK AO1 T00351002,KOEL,2023-11-05T04:15:00Z,39.1139,-100.819,3.5,-0.2,190,8,,10+,30.17,,,TRUE,TRUE,,,,,,,CLR,,,,,,,,VFR,,,,,,,,,,,,METAR,924
KOEB 050415Z AUTO 27004KT 5SM BR SCT027 BKN034 OVC046 06/05 A3013 RMK AO2 T00630050,KOEB,2023-11-05T04:15:00Z,41.9308,-85.0544,6.3,5,270,4,,5,30.13,,,TRUE,TRUE,,,,,,BR,SCT,2700,BKN,3400,OVC,4600,,,MVFR,,,,,,,,,,,,METAR,291
KOCQ 050415Z AUTO 00000KT 10SM OVC070 M02/M02 A3014 RMK AO1 T10161016,KOCQ,2023-11-05T04:15:00Z,44.8749,-87.9084,-1.6,-1.6,0,0,,10+,30.14,,,TRUE,TRUE,,,,,,,OVC,7000,,,,,,,VFR,,,,,,,,,,,,METAR,181
KOBE 050415Z AUTO 36007KT 10SM SCT012 19/19 A3003 RMK AO2,KOBE,2023-11-05T04:15:00Z,27.2663,-80.8487,19,19,360,7,,10+,30.03,,,TRUE,TRUE,,,,,,,SCT,1200,,,,,,,VFR,,,,,,,,,,,,METAR,11
KOAR 050415Z AUTO 24010KT 2 1/2SM BR OVC003 13/13 A3006 RMK AO2,KOAR,2023-11-05T04:15:00Z,36.6815,-121.757,13,13,240,10,,2.5,30.06,,,TRUE,TRUE,,,,,,BR,OVC,300,,,,,,,LIFR,,,,,,,,,,,,METAR,41
KO54 050415Z AUTO 00000KT 10SM BKN060 OVC070 11/10 A3003 RMK A01,KO54,2023-11-05T04:15:00Z,40.746,-122.922,11,10,0,0,,10+,30.03,,,TRUE,TRUE,,,,,,,BKN,6000,OVC,7000,,,,,VFR,,,,,,,,,,,,METAR,693
KO32 050415Z AUTO 00000KT 10SM CLR 15/09 A3001 RMK AO2 T01530085 TSNO $,KO32,2023-11-05T04:15:00Z,36.6691,-119.453,15.3,8.5,0,0,,10+,30.01,,,TRUE,TRUE,TRUE,,,,,,CLR,,,,,,,,VFR,,,,,,,,,,,,METAR,117
KO22 050415Z AUTO 00000KT 10SM CLR 13/05 A3007 RMK A01,KO22,2023-11-05T04:15:00Z,38.03,-120.415,13,5,0,0,,10+,30.07,,,TRUE,TRUE,,,,,,,CLR,,,,,,,,VFR,,,,,,,,,,,,METAR,637
KO05 050415Z AUTO 22008G14KT 10SM FEW050 SCT065 OVC095 14/04 A3009 RMK A01,KO05,2023-11-05T04:15:00Z,40.2865,-121.243,14,4,220,8,14,10+,30.09,,,TRUE,TRUE,,,,,,,FEW,5000,SCT,6500,OVC,9500,,,VFR,,,,,,,,,,,,METAR,1380
KNUQ 050415Z AUTO 33003KT 10SM OVC012 16/13 A3007 RMK AO2,KNUQ,2023-11-05T04:15:00Z,37.4059,-122.049,16,13,330,3,,10+,30.07,,,TRUE,TRUE,,,,,,,OVC,1200,,,,,,,MVFR,,,,,,,,,,,,METAR,9
KNRN 050415Z AUTO 18007KT 10SM CLR 09/02 A3019 RMK AO2,KNRN,2023-11-05T04:15:00Z,39.8497,-99.8915,9,2,180,7,,10+,30.19,,,TRUE,TRUE,,,,,,,CLR,,,,,,,,VFR,,,,,,,,,,,,METAR,726
KNOW 050415Z AUTO 00000KT 7SM SCT070 10/10 A2977 RMK AO2 T00990099,KNOW,2023-11-05T04:15:00Z,48.1394,-123.403,9.9,9.9,0,0,,7,29.77,,,TRUE,TRUE,,,,,,,SCT,7000,,,,,,,VFR,,,,,,,,,,,,METAR,3
KN79 050415Z AUTO 00000KT 10SM FEW085 07/04 A3007 RMK AO2 T00680036 $,KN79,2023-11-05T04:15:00Z,40.8371,-76.546,6.8,3.6,0,0,,10+,30.07,,,TRUE,TRUE,TRUE,,,,,,FEW,8500,,,,,,,VFR,,,,,,,,,,,,METAR,269
KN38 050415Z AUTO 00000KT 10SM FEW049 SCT055 OVC060 09/M00 A3005 RMK AO2,KN38,2023-11-05T04:15:00Z,41.7287,-77.3958,9,0,0,0,,10+,30.05,,,TRUE,TRUE,,,,,,,FEW,4900,SCT,5500,OVC,6000,,,VFR,,,,,,,,,,,,METAR,576
KN03 050415Z AUTO 00000KT 10SM OVC050 07/04 A3008 RMK AO2,KN03,2023-11-05T04:15:00Z,42.5929,-76.2174,7,4,0,0,,10+,30.08,,,TRUE,TRUE,,,,,,,OVC,5000,,,,,,,VFR,,,,,,,,,,,,METAR,361
KMZZ 050415Z AUTO 00000KT 4SM BR CLR 04/04 A3017 RMK AO2 T00430040,KMZZ,2023-11-05T04:15:00Z,40.4863,-85.6859,4.3,4,0,0,,4,30.17,,,TRUE,TRUE,,,,,,BR,CLR,,,,,,,,MVFR,,,,,,,,,,,,METAR,260
KMZJ 050415Z AUTO 00000KT 10SM 18/M05 A3004 RMK AO2,KMZJ,2023-11-05T04:15:00Z,32.5147,-111.335,18,-5,0,0,,10+,30.04,,,TRUE,TRUE,,,,,,,,,,,,,,,VFR,,,,,,,,,,,,METAR,574
KMZH 050415Z AUTO 07003KT 10SM BKN034 OVC044 02/M01 A3013 RMK AO2,KMZH,2023-11-05T04:15:00Z,46.4163,-92.8049,2,-1,70,3,,10+,30.13,,,TRUE,TRUE,,,,,,,BKN,3400,OVC,4400,,,,,VFR,,,,,,,,,,,,METAR,331
KMYZ 050415Z AUTO 00000KT 1/4SM FG BKN003 03/03 A3020 RMK AO2,KMYZ,2023-11-05T04:15:00Z,39.8544,-96.6279,3,3,0,0,,0.25,30.20,,,TRUE,TRUE,,,,,,FG,BKN,300,,,,,,,LIFR,,,,,,,,,,,,METAR,388
KMYP 050415Z AUTO 27024KT 10SM CLR 00/M10 A3058 RMK AO2,KMYP,2023-11-05T04:15:00Z,38.4972,-106.32,0,-10,270,24,,10+,30.58,,,TRUE,TRUE,,,,,,,CLR,,,,,,,,VFR,,,,,,,,,,,,METAR,3629
KMYJ 050415Z AUTO 00000KT 10SM CLR 06/06 A3020 RMK AO2,KMYJ,2023-11-05T04:15:00Z,39.1561,-91.8129,6,6,0,0,,10+,30.20,,,TRUE,TRUE,,,,,,,CLR,,,,,,,,VFR,,,,,,,,,,,,METAR,249
KMWO 050415Z AUTO 00000KT 10SM CLR 06/ A3014 RMK AO2 T0058////,KMWO,2023-11-05T04:15:00Z,39.5324,-84.3973,5.8,,0,0,,10+,30.14,,,TRUE,TRUE,,,,,,,CLR,,,,,,,,VFR,,,,,,,,,,,,METAR,197
KMWM 050415Z AUTO 00000KT 10SM CLR 07/03 A3008 RMK AO2,KMWM,2023-11-05T04:15:00Z,43.91,-95.1073,7,3,0,0,,10+,30.08,,,TRUE,TRUE,,,,,,,CLR,,,,,,,,VFR,,,,,,,,,,,,METAR,427
KMWC 050415Z AUTO 00000KT 2 1/2SM BR CLR 00/00 A3018 RMK AO2,KMWC,2023-11-05T04:15:00Z,43.1095,-88.0343,0,0,0,0,,2.5,30.18,,,TRUE,TRUE,,,,,,BR,CLR,,,,,,,,IFR,,,,,,,,,,,,METAR,225
KMWA 050415Z AUTO 00000KT 10SM CLR 11/07 A3020 RMK AO2 T01050065,KMWA,2023-11-05T04:15:00Z,37.7544,-89.0118,10.5,6.5,0,0,,10+,30.20,,,TRUE,TRUE,,,,,,,CLR,,,,,,,,VFR,,,,,,,,,,,,METAR,142
KMVH 050415Z AUTO 00000KT 10SM FEW039 SCT070 BKN100 08/03 A2983 RMK AO2,KMVH,2023-11-05T04:15:00Z,46.838,-108.936,8,3,0,0,,10+,29.83,,,TRUE,TRUE,,,,,,,FEW,3900,SCT,7000,BKN,10000,,,VFR,,,,,,,,,,,,METAR,1352
KMVE 050415Z AUTO 29004KT 10SM CLR 04/03 A3007 RMK AO2,KMVE,2023-11-05T04:15:00Z,44.9675,-95.7116,4,3,290,4,,10+,30.07,,,TRUE,TRUE,,,,,,,CLR,,,,,,,,VFR,,,,,,,,,,,,METAR,319
KMUT 050415Z AUTO 00000KT 9SM CLR 03/02 A3019 RMK AO2,KMUT,2023-11-05T04:15:00Z,41.367,-91.1406,3,2,0,0,,9,30.19,,,TRUE,TRUE,,,,,,,CLR,,,,,,,,VFR,,,,,,,,,,,,METAR,166
KMTV 050415Z AUTO 00000KT 10SM CLR 05/M01 A3015 RMK AO2 T00501010,KMTV,2023-11-05T04:15:00Z,36.6272,-80.0134,5,-1,0,0,,10+,30.15,,,TRUE,TRUE,,,,,,,CLR,,,,,,,,VFR,,,,,,,,,,,,METAR,276
KMRT 050415Z AUTO 25004KT 10SM CLR 04/02 A3011 RMK AO2 T00390017,KMRT,2023-11-05T04:15:00Z,40.2237,-83.3475,3.9,1.7,250,4,,10+,30.11,,,TRUE,TRUE,,,,,,,CLR,,,,,,,,VFR,,,,,,,,,,,,METAR,302
KMRJ 050415Z AUTO 00000KT 10SM CLR 06/M02 A3018 RMK AO2 PWINO,KMRJ,2023-11-05T04:15:00Z,42.8875,-90.2315,6,-2,0,0,,10+,30.18,,,TRUE,TRUE,,,,,,,CLR,,,,,,,,VFR,,,,,,,,,,,,METAR,350
KMQW 050415Z AUTO 00000KT 10SM CLR 06/06 A3015 RMK AO2 T00610055,KMQW,2023-11-05T04:15:00Z,32.0942,-82.882,6.1,5.5,0,0,,10+,30.15,,,TRUE,TRUE,,,,,,,CLR,,,,,,,,VFR,,,,,,,,,,,,METAR,62
KMQS 050415Z AUTO 00000KT 10SM CLR 09/03 A3010 RMK AO2,KMQS,2023-11-05T04:15:00Z,39.9773,-75.8605,9,3,0,0,,10+,30.10,,,TRUE,TRUE,,,,,,,CLR,,,,,,,,VFR,,,,,,,,,,,,METAR,200
KMQJ 050415Z AUTO 34006KT 10SM CLR 07/05 A3018 RMK AO2 T00670049 $,KMQJ,2023-11-05T04:15:00Z,39.8402,-85.894,6.7,4.9,340,6,,10+,30.18,,,TRUE,TRUE,TRUE,,,,,,CLR,,,,,,,,VFR,,,,,,,,,,,,METAR,262
KMQB 050415Z AUTO 00000KT 10SM CLR 06/04 A3021 RMK AO2 T00610037,KMQB,2023-11-05T04:15:00Z,40.5176,-90.6481,6.1,3.7,0,0,,10+,30.21,,,TRUE,TRUE,,,,,,,CLR,,,,,,,,VFR,,,,,,,,,,,,METAR,205
KMPZ 050415Z AUTO 00000KT 10SM CLR 04/02 A3019 RMK AO2,KMPZ,2023-11-05T04:15:00Z,40.9453,-91.5122,4,2,0,0,,10+,30.19,,,TRUE,TRUE,,,,,,,CLR,,,,,,,,VFR,,,,,,,,,,,,METAR,222
KMPR 050415Z AUTO 18004KT 10SM CLR 08/04 A3018 RMK AO2 T00840036,KMPR,2023-11-05T04:15:00Z,38.3491,-97.6883,8.4,3.6,180,4,,10+,30.18,,,TRUE,TRUE,,,,,,,CLR,,,,,,,,VFR,,,,,,,,,,,,METAR,455
KMOX 050415Z AUTO 04006KT 8SM CLR 01/00 A3004 RMK AO2,KMOX,2023-11-05T04:15:00Z,45.5677,-95.9659,1,0,40,6,,8,30.04,,,TRUE,TRUE,,,,,,,CLR,,,,,,,,VFR,,,,,,,,,,,,METAR,346
KMOR 050415Z AUTO 00000KT 10SM SCT046 SCT055 08/03 A3017 RMK A01,KMOR,2023-11-05T04:15:00Z,36.1746,-83.3853,8,3,0,0,,10+,30.17,,,TRUE,TRUE,,,,,,,SCT,4600,SCT,5500,,,,,VFR,,,,,,,,,,,,METAR,393
KMOP 050415Z AUTO 00000KT 3SM BR CLR 01/01 A3011 RMK AO2 T00110011,KMOP,2023-11-05T04:15:00Z,43.6229,-84.743,1.1,1.1,0,0,,3,30.11,,,TRUE,TRUE,,,,,,BR,CLR,,,,,,,,MVFR,,,,,,,,,,,,METAR,229
KMNZ 050415Z AUTO 00000KT 10SM CLR 16/14 A3013 RMK AO2 T01580141 TSNO,KMNZ,2023-11-05T04:15:00Z,31.6697,-98.1462,15.8,14.1,0,0,,10+,30.13,,,TRUE,TRUE,,,,,,,CLR,,,,,,,,VFR,,,,,,,,,,,,METAR,397
KMNV 050415Z AUTO 00000KT 10SM CLR 06/01 A3017 RMK A01,KMNV,2023-11-05T04:15:00Z,35.5429,-84.3808,6,1,0,0,,10+,30.17,,,TRUE,TRUE,,,,,,,CLR,,,,,,,,VFR,,,,,,,,,,,,METAR,306
KMNI 050415Z AUTO 00000KT 10SM CLR 06/04 A3012 RMK AO2,KMNI,2023-11-05T04:15:00Z,33.5882,-80.2059,6,4,0,0,,10+,30.12,,,TRUE,TRUE,,,,,,,CLR,,,,,,,,VFR,,,,,,,,,,,,METAR,29
KMNH 050415Z AUTO 17014KT 10SM CLR 06/M02 A3024 RMK AO2,KMNH,2023-11-05T04:15:00Z,39.2232,-104.642,6,-2,170,14,,10+,30.24,,,TRUE,TRUE,,,,,,,CLR,,,,,,,,VFR,,,,,,,,,,,,METAR,2152
KMNE 050415Z AUTO 00000KT 10SM CLR 11/10 A3016 RMK AO2,KMNE,2023-11-05T04:15:00Z,32.6433,-93.2972,11,10,0,0,,10+,30.16,,,TRUE,TRUE,,,,,,,CLR,,,,,,,,VFR,,,,,,,,,,,,METAR,84
KMMU 050415Z AUTO 00000KT 10SM SCT080 SCT120 06/05 A3010 RMK AO2,KMMU,2023-11-05T04:15:00Z,40.7989,-74.4164,6,5,0,0,,10+,30.10,,,TRUE,TRUE,,,,,,,SCT,8000,SCT,12000,,,,,VFR,,,,,,,,,,,,METAR,55
KMMI 050415Z AUTO 00000KT 10SM FEW044 SCT050 05/01 A3019 RMK A01,KMMI,2023-11-05T04:15:00Z,35.3952,-84.5612,5,1,0,0,,10+,30.19,,,TRUE,TRUE,,,,,,,FEW,4400,SCT,5000,,,,,VFR,,,,,,,,,,,,METAR,252
KMMH 050415Z AUTO 20005KT 10SM CLR 11/M07 A3026 RMK AO2 T01081067 PWINO,KMMH,2023-11-05T04:15:00Z,37.6253,-118.838,10.8,-6.7,200,5,,10+,30.26,,,TRUE,TRUE,,,,,,,CLR,,,,,,,,VFR,,,,,,,,,,,,METAR,2167
KMLJ 050415Z AUTO 00000KT 10SM CLR 09/08 A3015 RMK AO2,KMLJ,2023-11-05T04:15:00Z,33.153,-83.242,9,8,0,0,,10+,30.15,,,TRUE,TRUE,,,,,,,CLR,,,,,,,,VFR,,,,,,,,,,,,METAR,115
KMLE 050415Z AUTO 00000KT 10SM CLR 06/03 A3019 RMK AO2 T00640030,KMLE,2023-11-05T04:15:00Z,41.1981,-96.1131,6.4,3,0,0,,10+,30.19,,,TRUE,TRUE,,,,,,,CLR,,,,,,,,VFR,,,,,,,,,,,,METAR,318
KMKS 050415Z AUTO 00000KT 10SM CLR 08/06 A3010 RMK AO2,KMKS,2023-11-05T04:15:00Z,33.1874,-80.0363,8,6,0,0,,10+,30.10,,,TRUE,TRUE,,,,,,,CLR,,,,,,,,VFR,,,,,,,,,,,,METAR,22
KMKQ 050415Z AUTO 06014KT 8SM SCT060 OVC070 25/16 A3014 RMK A01,KMKQ,2023-11-05T04:15:00Z,27.5197,-90.0981,25,16,60,14,,8,30.14,,,TRUE,TRUE,,,,,,,SCT,6000,OVC,7000,,,,,VFR,,,,,,,,,,,,METAR,40
KMKN 050415Z AUTO 14006KT 10SM CLR 15/11 A3012 RMK AO2 T01480111,KMKN,2023-11-05T04:15:00Z,31.924,-98.5978,14.8,11.1,140,6,,10+,30.12,,,TRUE,TRUE,,,,,,,CLR,,,,,,,,VFR,,,,,,,,,,,,METAR,428
KMKJ 050415Z AUTO 27003KT 10SM CLR 05/M02 A3021 RMK AO2 T00521020,KMKJ,2023-11-05T04:15:00Z,36.8944,-81.3449,5.2,-2,270,3,,10+,30.21,,,TRUE,TRUE,,,,,,,CLR,,,,,,,,VFR,,,,,,,,,,,,METAR,777
KMJQ 050415Z AUTO 19007KT 10SM CLR 05/02 A3009 RMK AO2,KMJQ,2023-11-05T04:15:00Z,43.6496,-94.9885,5,2,190,7,,10+,30.09,,,TRUE,TRUE,,,,,,,CLR,,,,,,,,VFR,,,,,,,,,,,,METAR,439
KMJD 050415Z AUTO 00000KT 1SM BR CLR 12/12 A3016 RMK AO2 VIS 1/2V5,KMJD,2023-11-05T04:15:00Z,30.494,-89.6535,12,12,0,0,,1,30.16,,,TRUE,TRUE,,,,,,BR,CLR,,,,,,,,IFR,,,,,,,,,,,,METAR,17
KMHR 050415Z AUTO 22008KT 10SM BKN032 OVC038 19/09 A3000 RMK AO2,KMHR,2023-11-05T04:15:00Z,38.56,-121.284,19,9,220,8,,10+,30.00,,,TRUE,TRUE,,,,,,,BKN,3200,OVC,3800,,,,,VFR,,,,,,,,,,,,METAR,30
KMHP 050415Z AUTO 32003KT 10SM CLR 06/05 A3014 RMK AO2 T00620047,KMHP,2023-11-05T04:15:00Z,32.374,-82.079,6.2,4.7,320,3,,10+,30.14,,,TRUE,TRUE,,,,,,,CLR,,,,,,,,VFR,,,,,,,,,,,,METAR,60
KMHL 050415Z AUTO 00000KT 3/4SM BR VV005 05/05 A3022 RMK AO2,KMHL,2023-11-05T04:15:00Z,39.093,-93.2024,5,5,0,0,,0.75,30.22,,,TRUE,TRUE,,,,,,BR,OVX,0,,,,,,,LIFR,,,,,,,,,,,500,METAR,236
KMGR 050415Z AUTO 00000KT 10SM CLR 10/09 A3015 RMK AO2 T01020089 $,KMGR,2023-11-05T04:15:00Z,31.0835,-83.8035,10.2,8.9,0,0,,10+,30.15,,,TRUE,TRUE,TRUE,,,,,,CLR,,,,,,,,VFR,,,,,,,,,,,,METAR,86
KMGN 050415Z AUTO 00000KT 10SM SCT070 00/M01 A3013 RMK AO2 T10011015,KMGN,2023-11-05T04:15:00Z,45.4241,-84.913,-0.1,-1.5,0,0,,10+,30.13,,,TRUE,TRUE,,,,,,,SCT,7000,,,,,,,VFR,,,,,,,,,,,,METAR,205
KMGG 050415Z AUTO 17004KT 10SM CLR 05/01 A3007 RMK AO2 T00520005,KMGG,2023-11-05T04:15:00Z,45.2354,-93.9896,5.2,0.5,170,4,,10+,30.07,,,TRUE,TRUE,,,,,,,CLR,,,,,,,,VFR,,,,,,,,,,,,METAR,310
KMGC 050415Z AUTO 00000KT 1 1/2SM BR VV007 02/01 A3018 RMK AO2,KMGC,2023-11-05T04:15:00Z,41.7048,-86.8183,2,1,0,0,,1.5,30.18,,,TRUE,TRUE,,,,,,BR,OVX,0,,,,,,,IFR,,,,,,,,,,,700,METAR,199
KMEZ 050415Z AUTO 00000KT 6SM BR CLR 09/09 A3019 RMK AO2 T00920092,KMEZ,2023-11-05T04:15:00Z,34.5414,-94.1918,9.2,9.2,0,0,,6,30.19,,,TRUE,TRUE,,,,,,BR,CLR,,,,,,,,VFR,,,,,,,,,,,,METAR,320
KMDZ 050415Z AUTO 00000KT 10SM OVC050 00/00 A3012 RMK AO2 T00010001 PWINO,KMDZ,2023-11-05T04:15:00Z,45.1013,-90.3064,0.1,0.1,0,0,,10+,30.12,,,TRUE,TRUE,,,,,,,OVC,5000,,,,,,,VFR,,,,,,,,,,,,METAR,446
KMDQ 050415Z AUTO 00000KT 10SM CLR 06/02 A3019 RMK A02 T00610020,KMDQ,2023-11-05T04:15:00Z,34.866,-86.559,6.1,2,0,0,,10+,30.19,,,TRUE,TRUE,,,,,,,CLR,,,,,,,,VFR,,,,,,,,,,,,METAR,221
KMDD 050415Z AUTO 19011KT 10SM CLR 17/11 A3013 RMK AO2 T01700113,KMDD,2023-11-05T04:15:00Z,32.0359,-102.1,17,11.3,190,11,,10+,30.13,,,TRUE,TRUE,,,,,,,CLR,,,,,,,,VFR,,,,,,,,,,,,METAR,853
KMCX 050415Z AUTO 00000KT 5SM BR CLR 03/03 A3018 RMK AO2 T00330026,KMCX,2023-11-05T04:15:00Z,40.7127,-86.7649,3.3,2.6,0,0,,5,30.18,,,TRUE,TRUE,,,,,,BR,CLR,,,,,,,,MVFR,,,,,,,,,,,,METAR,205
KMCJ 050415Z AUTO 14009KT 10SM FEW038 OVC049 20/16 A3013 RMK A01,KMCJ,2023-11-05T04:15:00Z,29.714,-95.395,20,16,140,9,,10+,30.13,,,TRUE,TRUE,,,,,,,FEW,3800,OVC,4900,,,,,VFR,,,,,,,,,,,,METAR,70
KMCD 050415Z AUTO 01004KT 10SM BKN065 OVC085 03/00 A3013 RMK AO2 T00300001,KMCD,2023-11-05T04:15:00Z,45.866,-84.634,3,0.1,10,4,,10+,30.13,,,TRUE,TRUE,,,,,,,BKN,6500,OVC,8500,,,,,VFR,,,,,,,,,,,,METAR,228
KMBY 050415Z AUTO 00000KT 10SM CLR 07/04 A3021 RMK AO2,KMBY,2023-11-05T04:15:00Z,39.464,-92.4244,7,4,0,0,,10+,30.21,,,TRUE,TRUE,,,,,,,CLR,,,,,,,,VFR,,,,,,,,,,,,METAR,263
KMBT 050415Z AUTO 00000KT 10SM BKN060 11/04 A3015 RMK A01,KMBT,2023-11-05T04:15:00Z,35.8767,-86.3793,11,4,0,0,,10+,30.15,,,TRUE,TRUE,,,,,,,BKN,6000,,,,,,,VFR,,,,,,,,,,,,METAR,187
KMAW 050415Z AUTO 00000KT 10SM CLR 14/11 A3017 RMK AO1,KMAW,2023-11-05T04:15:00Z,36.5945,-89.9865,14,11,0,0,,10+,30.17,,,TRUE,TRUE,,,,,,,CLR,,,,,,,,VFR,,,,,,,,,,,,METAR,88
KMAO 050415Z AUTO 00000KT 10SM CLR 08/07 A3011 RMK AO2,KMAO,2023-11-05T04:15:00Z,34.1852,-79.3341,8,7,0,0,,10+,30.11,,,TRUE,TRUE,,,,,,,CLR,,,,,,,,VFR,,,,,,,,,,,,METAR,27
KMAN 050415Z AUTO 15009KT 5SM BR SCT031 SCT049 OVC060 11/11 A2996 RMK A01,KMAN,2023-11-05T04:15:00Z,43.582,-116.521,11,11,150,9,,5,29.96,,,TRUE,TRUE,,,,,,BR,SCT,3100,SCT,4900,OVC,6000,,,MVFR,,,,,,,,,,,,METAR,773
KM75 050415Z AUTO 05006KT 10SM CLR 06/05 A2970 RMK A01,KM75,2023-11-05T04:15:00Z,48.3686,-107.919,6,5,50,6,,10+,29.70,,,TRUE,TRUE,,,,,,,CLR,,,,,,,,VFR,,,,,,,,,,,,METAR,687
KM40 050415Z AUTO 00000KT 10SM CLR 07/06 A3019 RMK AO2,KM40,2023-11-05T04:15:00Z,33.8755,-88.4872,7,6,0,0,,10+,30.19,,,TRUE,TRUE,,,,,,,CLR,,,,,,,,VFR,,,,,,,,,,,,METAR,68
KM30 050415Z AUTO 00000KT 10SM CLR 12/08 A3017 RMK AO2 T01200077,KM30,2023-11-05T04:15:00Z,37.1824,-88.7487,12,7.7,0,0,,10+,30.17,,,TRUE,TRUE,,,,,,,CLR,,,,,,,,VFR,,,,,,,,,,,,METAR,116
KM21 050415Z AUTO 00000KT 10SM CLR 10/09 A3016 RMK AO2 T00980085,KM21,2023-11-05T04:15:00Z,37.2291,-87.1542,9.8,8.5,0,0,,10+,30.16,,,TRUE,TRUE,,,,,,,CLR,,,,,,,,VFR,,,,,,,,,,,,METAR,127
KM08 050415Z AUTO 00000KT 10SM CLR 08/06 A3016 RMK A01,KM08,2023-11-05T04:15:00Z,35.2155,-89.0449,8,6,0,0,,10+,30.16,,,TRUE,TRUE,,,,,,,CLR,,,,,,,,VFR,,,,,,,,,,,,METAR,149
KM02 050415Z AUTO 00000KT 10SM FEW032 SCT050 OVC060 11/06 A3016 RMK A01,KM02,2023-11-05T04:15:00Z,36.1289,-87.4283,11,6,0,0,,10+,30.16,,,TRUE,TRUE,,,,,,,FEW,3200,SCT,5000,OVC,6000,,,VFR,,,,,,,,,,,,METAR,268
KLYV 050415Z AUTO 00000KT 10SM CLR 01/00 A3009 RMK AO2,KLYV,2023-11-05T04:15:00Z,43.6217,-96.214,1,0,0,0,,10+,30.09,,,TRUE,TRUE,,,,,,,CLR,,,,,,,,VFR,,,,,,,,,,,,METAR,435
KLYO 050415Z AUTO 00000KT 10SM CLR 08/03 A3019 RMK AO2 T00830033,KLYO,2023-11-05T04:15:00Z,38.343,-98.2266,8.3,3.3,0,0,,10+,30.19,,,TRUE,TRUE,,,,,,,CLR,,,,,,,,VFR,,,,,,,,,,,,METAR,515
KLXY 050415Z AUTO 10009KT 10SM CLR 16/12 A3013 RMK AO2 T01610116,KLXY,2023-11-05T04:15:00Z,31.6446,-96.5122,16.1,11.6,100,9,,10+,30.13,,,TRUE,TRUE,,,,,,,CLR,,,,,,,,VFR,,,,,,,,,,,,METAR,164
KLXN 050415Z AUTO 14005KT 10SM CLR 08/05 A3014 RMK AO2 T00790048,KLXN,2023-11-05T04:15:00Z,40.7915,-99.775,7.9,4.8,140,5,,10+,30.14,,,TRUE,TRUE,,,,,,,CLR,,,,,,,,VFR,,,,,,,,,,,,METAR,734
KLXL 050415Z AUTO 00000KT 10SM BKN040 03/00 A3007 RMK AO2,KLXL,2023-11-05T04:15:00Z,45.9509,-94.3441,3,0,0,0,,10+,30.07,,,TRUE,TRUE,,,,,,,BKN,4000,,,,,,,VFR,,,,,,,,,,,,METAR,335
KLWB 050415Z AUTO 00000KT 10SM CLR 04/M02 A3017 RMK AO2 T00421018,KLWB,2023-11-05T04:15:00Z,37.8633,-80.3923,4.2,-1.8,0,0,,10+,30.17,,,TRUE,TRUE,,,,,,,CLR,,,,,,,,VFR,,,,,,,,,,,,METAR,702
KLWA 050415Z AUTO 00000KT 10SM CLR 06/02 A3015 RMK AO2 T00610019,KLWA,2023-11-05T04:15:00Z,42.3476,-86.2578,6.1,1.9,0,0,,10+,30.15,,,TRUE,TRUE,,,,,,,CLR,,,,,,,,VFR,,,,,,,,,,,,METAR,199
KLVN 050415Z AUTO 00000KT 5SM BR CLR 02/01 A3010 RMK AO2,KLVN,2023-11-05T04:15:00Z,44.6252,-93.2273,2,1,0,0,,5,30.10,,,TRUE,TRUE,,,,,,BR,CLR,,,,,,,,MVFR,,,,,,,,,,,,METAR,292
KLUX 050415Z AUTO 24004KT 10SM CLR 06/01 A3015 RMK AO2,KLUX,2023-11-05T04:15:00Z,34.508,-81.949,6,1,240,4,,10+,30.15,,,TRUE,TRUE,,,,,,,CLR,,,,,,,,VFR,,,,,,,,,,,,METAR,213
KLUV 050415Z AUTO 00000KT 10SM CLR 14/04 A3014 RMK AO2,KLUV,2023-11-05T04:15:00Z,32.7481,-101.913,14,4,0,0,,10+,30.14,,,TRUE,TRUE,,,,,,,CLR,,,,,,,,VFR,,,,,,,,,,,,METAR,910
KLUM 050415Z AUTO 00000KT 10SM BKN047 OVC065 05/00 A3013 RMK AO2 T00520000 PWINO,KLUM,2023-11-05T04:15:00Z,44.8936,-91.8665,5.2,0,0,0,,10+,30.13,,,TRUE,TRUE,,,,,,,BKN,4700,OVC,6500,,,,,VFR,,,,,,,,,,,,METAR,271
KLUL 050415Z AUTO 00000KT 10SM CLR 10/08 A3018 RMK A02 T00970076,KLUL,2023-11-05T04:15:00Z,31.6682,-89.1705,9.7,7.6,0,0,,10+,30.18,,,TRUE,TRUE,,,,,,,CLR,,,,,,,,VFR,,,,,,,,,,,,METAR,74
KLUG 050415Z AUTO 00000KT 10SM CLR 09/03 A3017 RMK A01,KLUG,2023-11-05T04:15:00Z,35.5082,-86.8055,9,3,0,0,,10+,30.17,,,TRUE,TRUE,,,,,,,CLR,,,,,,,,VFR,,,,,,,,,,,,METAR,218
KLUD 050415Z AUTO 13003KT 10SM BKN050 16/14 A3013 RMK AO2 T01600141,KLUD,2023-11-05T04:15:00Z,33.2568,-97.5826,16,14.1,130,3,,10+,30.13,,,TRUE,TRUE,,,,,,,BKN,5000,,,,,,,VFR,,,,,,,,,,,,METAR,319
KLUA 050415Z AUTO 00000KT 10SM CLR 05/00 A3010 RMK AO2,KLUA,2023-11-05T04:15:00Z,38.667,-78.501,5,0,0,0,,10+,30.10,,,TRUE,TRUE,,,,,,,CLR,,,,,,,,VFR,,,,,,,,,,,,METAR,273
KLRY 050415Z AUTO 00000KT 10SM CLR 07/05 A3024 RMK AO2,KLRY,2023-11-05T04:15:00Z,38.6074,-94.3453,7,5,0,0,,10+,30.24,,,TRUE,TRUE,,,,,,,CLR,,,,,,,,VFR,,,,,,,,,,,,METAR,272
KLRU 050415Z AUTO 00000KT 10SM CLR 10/M07 A3021 RMK AO2 T00961075,KLRU,2023-11-05T04:15:00Z,32.2884,-106.913,9.6,-7.5,0,0,,10+,30.21,,,TRUE,TRUE,,,,,,,CLR,,,,,,,,VFR,,,,,,,,,,,,METAR,1355
KLRO 050415Z AUTO 00000KT 10SM CLR 11/10 A3009 RMK AO2,KLRO,2023-11-05T04:15:00Z,32.8982,-79.7796,11,10,0,0,,10+,30.09,,,TRUE,TRUE,,,,,,,CLR,,,,,,,,VFR,,,,,,,,,,,,METAR,3
KLRJ 050415Z AUTO 19005KT 10SM CLR 06/04 A3011 RMK AO2,KLRJ,2023-11-05T04:15:00Z,42.7771,-96.195,6,4,190,5,,10+,30.11,,,TRUE,TRUE,,,,,,,CLR,,,,,,,,VFR,,,,,,,,,,,,METAR,363
KLQK 050415Z AUTO 00000KT 10SM CLR 04/01 A3015 RMK AO2 T00370007,KLQK,2023-11-05T04:15:00Z,34.8069,-82.7047,3.7,0.7,0,0,,10+,30.15,,,TRUE,TRUE,,,,,,,CLR,,,,,,,,VFR,,,,,,,,,,,,METAR,291
KLOT 050415Z AUTO 16003KT 1SM BR CLR 06/06 A3019 RMK AO2,KLOT,2023-11-05T04:15:00Z,41.6031,-88.1017,6,6,160,3,,1,30.19,,,TRUE,TRUE,,,,,,BR,CLR,,,,,,,,IFR,,,,,,,,,,,,METAR,205
KLOM 050415Z AUTO 00000KT 10SM SCT120 04/04 A3010 RMK AO2 T00420040,KLOM,2023-11-05T04:15:00Z,40.1376,-75.2684,4.2,4,0,0,,10+,30.10,,,TRUE,TRUE,,,,,,,SCT,12000,,,,,,,VFR,,,,,,,,,,,,METAR,87
KLNP 050415Z AUTO 24006KT 10SM SCT120 10/M02 A3020 RMK AO2,KLNP,2023-11-05T04:15:00Z,36.9884,-82.524,10,-2,240,6,,10+,30.20,,,TRUE,TRUE,,,,,,,SCT,12000,,,,,,,VFR,,,,,,,,,,,,METAR,817
KLNN 050415Z AUTO 00000KT 10SM SCT060 OVC095 07/06 A3008 RMK AO1 T00730061,KLNN,2023-11-05T04:15:00Z,41.6839,-81.3896,7.3,6.1,0,0,,10+,30.08,,,TRUE,TRUE,,,,,,,SCT,6000,OVC,9500,,,,,VFR,,,,,,,,,,,,METAR,190
KLNL 050415Z AUTO 00000KT 10SM SCT034 BKN043 OVC050 02/M02 A3013 RMK AO2 T00201022,KLNL,2023-11-05T04:15:00Z,46.1515,-89.2108,2,-2.2,0,0,,10+,30.13,,,TRUE,TRUE,,,,,,,SCT,3400,BKN,4300,OVC,5000,,,VFR,,,,,,,,,,,,METAR,517
KLNC 050415Z AUTO 09003KT 10SM CLR 17/14 A3015 RMK AO2 T01660137,KLNC,2023-11-05T04:15:00Z,32.5832,-96.7209,16.6,13.7,90,3,,10+,30.15,,,TRUE,TRUE,,,,,,,CLR,,,,,,,,VFR,,,,,,,,,,,,METAR,152
KLNA 050415Z AUTO 01004KT 10SM BKN040 24/22 A3000 RMK AO2 T02390217,KLNA,2023-11-05T04:15:00Z,26.5925,-80.0848,23.9,21.7,10,4,,10+,30.00,,,TRUE,TRUE,,,,,,,BKN,4000,,,,,,,VFR,,,,,,,,,,,,METAR,3
KLMS 050415Z AUTO 00000KT 10SM CLR 10/05 A3020 RMK AO2,KLMS,2023-11-05T04:15:00Z,33.15,-89.063,10,5,0,0,,10+,30.20,,,TRUE,TRUE,,,,,,,CLR,,,,,,,,VFR,,,,,,,,,,,,METAR,169
KLMO 050415Z AUTO 00000KT 10SM CLR 09/00 A3014 RMK AO2 T00940000,KLMO,2023-11-05T04:15:00Z,40.1612,-105.16,9.4,0,0,0,,10+,30.14,,,TRUE,TRUE,,,,,,,CLR,,,,,,,,VFR,,,,,,,,,,,,METAR,1535
KLLN 050415Z AUTO 05010KT 5SM HZ CLR 13/04 A3018 RMK AO2,KLLN,2023-11-05T04:15:00Z,33.556,-102.375,13,4,50,10,,5,30.18,,,TRUE,TRUE,,,,,,HZ,CLR,,,,,,,,MVFR,,,,,,,,,,,,METAR,1071
KLKU 050415Z AUTO 00000KT 10SM CLR 05/00 A3010 RMK AO2 T00491003,KLKU,2023-11-05T04:15:00Z,38.0085,-77.9681,4.9,-0.3,0,0,,10+,30.10,,,TRUE,TRUE,,,,,,,CLR,,,,,,,,VFR,,,,,,,,,,,,METAR,146
KLKR 050415Z AUTO 00000KT 10SM CLR 04/M00 A3013 RMK AO2,KLKR,2023-11-05T04:15:00Z,34.7266,-80.8532,4,0,0,0,,10+,30.13,,,TRUE,TRUE,,,,,,,CLR,,,,,,,,VFR,,,,,,,,,,,,METAR,166
KLJF 050415Z AUTO 00000KT 10SM CLR 04/01 A3006 RMK AO2,KLJF,2023-11-05T04:15:00Z,45.0948,-94.5084,4,1,0,0,,10+,30.06,,,TRUE,TRUE,,,,,,,CLR,,,,,,,,VFR,,,,,,,,,,,,METAR,347
KLHZ 050415Z AUTO 00000KT 10SM CLR 02/00 A3013 RMK AO2,KLHZ,2023-11-05T04:15:00Z,36.0229,-78.3341,2,0,0,0,,10+,30.13,,,TRUE,TRUE,,,,,,,CLR,,,,,,,,VFR,,,,,,,,,,,,METAR,104
KLHM 050415Z AUTO 17004KT 10SM CLR 20/12 A3000 RMK AO1,KLHM,2023-11-05T04:15:00Z,38.9148,-121.352,20,12,170,4,,10+,30.00,,,TRUE,TRUE,,,,,,,CLR,,,,,,,,VFR,,,,,,,,,,,,METAR,36
KLHB 050415Z AUTO 13004KT 10SM CLR 19/16 A3014 RMK AO2 T01880157,KLHB,2023-11-05T04:15:00Z,30.8693,-96.6207,18.8,15.7,130,4,,10+,30.14,,,TRUE,TRUE,,,,,,,CLR,,,,,,,,VFR,,,,,,,,,,,,METAR,83
KLGC 050415Z AUTO 00000KT 10SM CLR 06/05 A3019 RMK AO2 T00610053,KLGC,2023-11-05T04:15:00Z,33.0093,-85.0717,6.1,5.3,0,0,,10+,30.19,,,TRUE,TRUE,,,,,,,CLR,,,,,,,,VFR,,,,,,,,,,,,METAR,209
KLDM 050415Z AUTO 00000KT 7SM CLR M02/M03 A3015 RMK AO2 T10251029,KLDM,2023-11-05T04:15:00Z,43.9614,-86.4107,-2.5,-2.9,0,0,,7,30.15,,,TRUE,TRUE,,,,,,,CLR,,,,,,,,VFR,,,,,,,,,,,,METAR,194
KLDJ 050415Z AUTO 31003KT 10SM CLR 10/04 A3010 RMK AO2 T00990038,KLDJ,2023-11-05T04:15:00Z,40.6162,-74.2451,9.9,3.8,310,3,,10+,30.10,,,TRUE,TRUE,,,,,,,CLR,,,,,,,,VFR,,,,,,,,,,,,METAR,6
KLCQ 050415Z AUTO 36003KT 10SM CLR 15/07 A3012 RMK AO2,KLCQ,2023-11-05T04:15:00Z,30.1838,-82.5684,15,7,360,3,,10+,30.12,,,TRUE,TRUE,,,,,,,CLR,,,,,,,,VFR,,,,,,,,,,,,METAR,59
KLCG 050415Z AUTO 22007KT 10SM CLR 07/05 A3013 RMK AO2 T00700052,KLCG,2023-11-05T04:15:00Z,42.2423,-96.983,7,5.2,220,7,,10+,30.13,,,TRUE,TRUE,,,,,,,CLR,,,,,,,,VFR,,,,,,,,,,,,METAR,434
KLBO 050415Z AUTO 00000KT 10SM BKN085 OVC120 11/03 A3021 RMK AO2,KLBO,2023-11-05T04:15:00Z,37.6449,-92.6544,11,3,0,0,,10+,30.21,,,TRUE,TRUE,,,,,,,BKN,8500,OVC,12000,,,,,VFR,,,,,,,,,,,,METAR,399
KLBE 050415Z AUTO 19006KT 10SM OVC065 13/01 A3008 RMK AO2,KLBE,2023-11-05T04:15:00Z,40.2767,-79.4039,13,1,190,6,,10+,30.08,,,TRUE,TRUE,,,,,,,OVC,6500,,,,,,,VFR,,,,,,,,,,,,METAR,345
KLAM 050415Z AUTO 32004KT 10SM CLR 13/M07 A3032 RMK AO2 T01341067 $,KLAM,2023-11-05T04:15:00Z,35.8789,-106.262,13.4,-6.7,320,4,,10+,30.32,,,TRUE,TRUE,TRUE,,,,,,CLR,,,,,,,,VFR,,,,,,,,,,,,METAR,2166
KLAL 050415Z AUTO 36006KT 10SM SCT055 16/08 A3009 RMK AO2 T01620079,KLAL,2023-11-05T04:15:00Z,27.9866,-82.0193,16.2,7.9,360,6,,10+,30.09,,,TRUE,TRUE,,,,,,,SCT,5500,,,,,,,VFR,,,,,,,,,,,,METAR,39
KL35 050415Z AUTO 00000KT 10SM CLR 02/M11 A3031 RMK AO2,KL35,2023-11-05T04:15:00Z,34.2626,-116.855,2,-11,0,0,,10+,30.31,,,TRUE,TRUE,,,,,,,CLR,,,,,,,,VFR,,,,,,,,,,,,METAR,2062
KL18 050415Z AUTO 00000KT 10SM CLR 15/09 A3001 RMK AO2,KL18,2023-11-05T04:15:00Z,33.3551,-117.249,15,9,0,0,,10+,30.01,,,TRUE,TRUE,,,,,,,CLR,,,,,,,,VFR,,,,,,,,,,,,METAR,215
KL08 050415Z AUTO 00000KT 10SM FEW035 BKN044 BKN050 16/M11 A2997 RMK AO2,KL08,2023-11-05T04:15:00Z,33.2604,-116.323,16,-11,0,0,,10+,29.97,,,TRUE,TRUE,,,,,,,FEW,3500,BKN,4400,BKN,5000,,,VFR,,,,,,,,,,,,METAR,156
KKY8 050415Z AUTO 00000KT 10SM CLR 11/08 A3017 RMK A01,KKY8,2023-11-05T04:15:00Z,37.953,-86.8592,11,8,0,0,,10+,30.17,,,TRUE,TRUE,,,,,,,CLR,,,,,,,,VFR,,,,,,,,,,,,METAR,124
KKNB 050415Z AUTO 03004KT 10SM CLR 09/M09 A3023 RMK A01,KKNB,2023-11-05T04:15:00Z,37.0078,-112.53,9,-9,30,4,,10+,30.23,,,TRUE,TRUE,,,,,,,CLR,,,,,,,,VFR,,,,,,,,,,,,METAR,1476
KK88 050415Z AUTO 04006KT 10SM CLR 08/04 A3020 RMK AO1 T00820044,KK88,2023-11-05T04:15:00Z,37.8692,-95.384,8.2,4.4,40,6,,10+,30.20,,,TRUE,TRUE,,,,,,,CLR,,,,,,,,VFR,,,,,,,,,,,,METAR,308
KK83 050415Z AUTO 21005KT 3SM BR CLR 05/05 A3021 RMK AO2 T00450045,KK83,2023-11-05T04:15:00Z,39.9053,-95.7747,4.5,4.5,210,5,,3,30.21,,,TRUE,TRUE,,,,,,BR,CLR,,,,,,,,MVFR,,,,,,,,,,,,METAR,405
KK82 050415Z AUTO 10007KT 10SM CLR 06/05 A3019 RMK AO2 T00570048,KK82,2023-11-05T04:15:00Z,39.7606,-98.7957,5.7,4.8,100,7,,10+,30.19,,,TRUE,TRUE,,,,,,,CLR,,,,,,,,VFR,,,,,,,,,,,,METAR,548
KK70 050415Z AUTO VRB05G10KT 10SM CLR 24/21 A2996 RMK AO2,KK70,2023-11-05T04:15:00Z,25.322,-80.277,24,21,VRB,5,10,10+,29.96,,,TRUE,TRUE,,,,,,,CLR,,,,,,,,VFR,,,,,,,,,,,,METAR,20
KJZP 050415Z AUTO 31004KT 10SM CLR 13/M02 A3019 RMK AO2 T01271017,KJZP,2023-11-05T04:15:00Z,34.4542,-84.4597,12.7,-1.7,310,4,,10+,30.19,,,TRUE,TRUE,,,,,,,CLR,,,,,,,,VFR,,,,,,,,,,,,METAR,462
KJZI 050415Z AUTO 33005KT 10SM CLR 12/06 A3009 RMK AO2,KJZI,2023-11-05T04:15:00Z,32.7025,-80.0058,12,6,330,5,,10+,30.09,,,TRUE,TRUE,,,,,,,CLR,,,,,,,,VFR,,,,,,,,,,,,METAR,5
KJYR 050415Z AUTO 18006KT 3/4SM BR BKN001 05/05 A3018 RMK AO2,KJYR,2023-11-05T04:15:00Z,40.8942,-97.6258,5,5,180,6,,0.75,30.18,,,TRUE,TRUE,,,,,,BR,BKN,100,,,,,,,LIFR,,,,,,,,,,,,METAR,508
KJYO 050415Z AUTO 00000KT 10SM OVC110 08/03 A3011 RMK AO2,KJYO,2023-11-05T04:15:00Z,39.0826,-77.5605,8,3,0,0,,10+,30.11,,,TRUE,TRUE,,,,,,,OVC,11000,,,,,,,VFR,,,,,,,,,,,,METAR,112
KJYM 050415Z AUTO 00000KT 10SM OVC025 05/04 A3011 RMK AO2 T00500037,KJYM,2023-11-05T04:15:00Z,41.9197,-84.5853,5,3.7,0,0,,10+,30.11,,,TRUE,TRUE,,,,,,,OVC,2500,,,,,,,MVFR,,,,,,,,,,,,METAR,357
KJYL 050415Z AUTO 00000KT 10SM CLR 05/04 A3015 RMK AO2 T00450036,KJYL,2023-11-05T04:15:00Z,32.6459,-81.5894,4.5,3.6,0,0,,10+,30.15,,,TRUE,TRUE,,,,,,,CLR,,,,,,,,VFR,,,,,,,,,,,,METAR,54
KJYG 050415Z AUTO 19007KT 10SM FEW065 06/04 A3009 RMK AO2,KJYG,2023-11-05T04:15:00Z,43.9855,-94.5527,6,4,190,7,,10+,30.09,,,TRUE,TRUE,,,,,,,FEW,6500,,,,,,,VFR,,,,,,,,,,,,METAR,323
KJXI 050415Z AUTO 00000KT 10SM CLR 13/11 A3015 RMK AO2 T01320113,KJXI,2023-11-05T04:15:00Z,32.7036,-94.9471,13.2,11.3,0,0,,10+,30.15,,,TRUE,TRUE,,,,,,,CLR,,,,,,,,VFR,,,,,,,,,,,,METAR,130
KJWY 050415Z AUTO 00000KT 10SM CLR 15/14 A3017 RMK AO2 T01530135,KJWY,2023-11-05T04:15:00Z,32.456,-96.914,15.3,13.5,0,0,,10+,30.17,,,TRUE,TRUE,,,,,,,CLR,,,,,,,,VFR,,,,,,,,,,,,METAR,211
KJWN 050415Z AUTO 00000KT 10SM SCT050 SCT065 11/07 A3015 RMK AO2,KJWN,2023-11-05T04:15:00Z,36.1852,-86.8833,11,7,0,0,,10+,30.15,,,TRUE,TRUE,,,,,,,SCT,5000,SCT,6500,,,,,VFR,,,,,,,,,,,,METAR,149
KJWG 050415Z AUTO 05008KT 10SM OVC060 15/12 A3017 RMK AO2 T01510116,KJWG,2023-11-05T04:15:00Z,35.863,-98.423,15.1,11.6,50,8,,10+,30.17,,,TRUE,TRUE,,,,,,,OVC,6000,,,,,,,VFR,,,,,,,,,,,,METAR,469
KJVW 050415Z AUTO 00000KT 10SM CLR 08/08 A3017 RMK AO2,KJVW,2023-11-05T04:15:00Z,32.3069,-90.412,8,8,0,0,,10+,30.17,,,TRUE,TRUE,,,,,,,CLR,,,,,,,,VFR,,,,,,,,,,,,METAR,73
KJVL 050415Z AUTO 00000KT 7SM CLR 01/00 A3017 RMK AO2,KJVL,2023-11-05T04:15:00Z,42.6213,-89.0419,1,0,0,0,,7,30.17,,,TRUE,TRUE,,,,,,,CLR,,,,,,,,VFR,,,,,,,,,,,,METAR,244
KJTC 050415Z AUTO 21008KT 10SM CLR 07/M13 A3036 RMK AO2,KJTC,2023-11-05T04:15:00Z,34.1292,-109.309,7,-13,210,8,,10+,30.36,,,TRUE,TRUE,,,,,,,CLR,,,,,,,,VFR,,,,,,,,,,,,METAR,2148
KJSV 050415Z AUTO 00000KT 10SM OVC060 15/13 A3016 RMK AO2,KJSV,2023-11-05T04:15:00Z,35.4381,-94.8012,15,13,0,0,,10+,30.16,,,TRUE,TRUE,,,,,,,OVC,6000,,,,,,,VFR,,,,,,,,,,,,METAR,158
KJSO 050415Z AUTO 17003KT 10SM BKN046 18/12 A3017 RMK AO2 T01780122,KJSO,2023-11-05T04:15:00Z,31.869,-95.2145,17.8,12.2,170,3,,10+,30.17,,,TRUE,TRUE,,,,,,,BKN,4600,,,,,,,VFR,,,,,,,,,,,,METAR,204
KJRO 050415Z AUTO 00000KT 10SM CLR 06/04 A3013 RMK AO2,KJRO,2023-11-05T04:15:00Z,38.9861,-82.5756,6,4,0,0,,10+,30.13,,,TRUE,TRUE,,,,,,,CLR,,,,,,,,VFR,,,,,,,,,,,,METAR,224
KJPX 050415Z AUTO 00000KT 10SM CLR 06/05 A3008 RMK AO2 T00580049,KJPX,2023-11-05T04:15:00Z,40.9605,-72.2511,5.8,4.9,0,0,,10+,30.08,,,TRUE,TRUE,,,,,,,CLR,,,,,,,,VFR,,,,,,,,,,,,METAR,10
KJOT 050415Z AUTO 00000KT 7SM CLR 03/03 A3019 RMK AO2 T00340025,KJOT,2023-11-05T04:15:00Z,41.5176,-88.179,3.4,2.5,0,0,,7,30.19,,,TRUE,TRUE,,,,,,,CLR,,,,,,,,VFR,,,,,,,,,,,,METAR,175
KJMR 050415Z AUTO 03003KT 10SM OVC049 05/00 A3014 RMK AO2,KJMR,2023-11-05T04:15:00Z,45.8885,-93.269,5,0,30,3,,10+,30.14,,,TRUE,TRUE,,,,,,,OVC,4900,,,,,,,VFR,,,,,,,,,,,,METAR,301
KJKJ 050415Z AUTO 01004KT 10SM CLR M01/M02 A3011 RMK AO2,KJKJ,2023-11-05T04:15:00Z,46.8404,-96.6545,-1,-2,10,4,,10+,30.11,,,TRUE,TRUE,,,,,,,CLR,,,,,,,,VFR,,,,,,,,,,,,METAR,280
KJKA 050415Z AUTO 00000KT 3/4SM BR VV005 13/13 A3016 RMK AO2 VIS 1/4V5,KJKA,2023-11-05T04:15:00Z,30.291,-87.661,13,13,0,0,,0.75,30.16,,,TRUE,TRUE,,,,,,BR,OVX,0,,,,,,,LIFR,,,,,,,,,,,500,METAR,5
KJHN 050415Z AUTO 17007KT 10SM CLR 07/04 A3020 RMK AO2 T00680039,KJHN,2023-11-05T04:15:00Z,37.5782,-101.73,6.8,3.9,170,7,,10+,30.20,,,TRUE,TRUE,,,,,,,CLR,,,,,,,,VFR,,,,,,,,,,,,METAR,1013
KJFZ 050415Z AUTO 00000KT 10SM CLR 12/M02 A3019 RMK AO2 T01151020,KJFZ,2023-11-05T04:15:00Z,37.0634,-81.7969,11.5,-2,0,0,,10+,30.19,,,TRUE,TRUE,,,,,,,CLR,,,,,,,,VFR,,,,,,,,,,,,METAR,809
KJFX 050415Z AUTO 00000KT 10SM CLR 05/05 A3018 RMK AO2,KJFX,2023-11-05T04:15:00Z,33.9008,-87.3092,5,5,0,0,,10+,30.18,,,TRUE,TRUE,,,,,,,CLR,,,,,,,,VFR,,,,,,,,,,,,METAR,144
KJES 050415Z AUTO 32003KT 10SM CLR 09/06 A3015 RMK AO2,KJES,2023-11-05T04:15:00Z,31.5521,-81.8896,9,6,320,3,,10+,30.15,,,TRUE,TRUE,,,,,,,CLR,,,,,,,,VFR,,,,,,,,,,,,METAR,26
KJDD 050415Z AUTO 00000KT 10SM CLR 13/12 A3015 RMK AO2,KJDD,2023-11-05T04:15:00Z,32.7403,-95.4945,13,12,0,0,,10+,30.15,,,TRUE,TRUE,,,,,,,CLR,,,,,,,,VFR,,,,,,,,,,,,METAR,127
KJCA 050415Z AUTO 29006KT 10SM CLR 10/03 A3016 RMK AO2 T00990034,KJCA,2023-11-05T04:15:00Z,34.1739,-83.5583,9.9,3.4,290,6,,10+,30.16,,,TRUE,TRUE,,,,,,,CLR,,,,,,,,VFR,,,,,,,,,,,,METAR,287
KJAS 050415Z AUTO 00000KT 10SM FEW037 BKN047 OVC060 13/13 A3015 RMK AO2,KJAS,2023-11-05T04:15:00Z,30.8904,-94.0332,13,13,0,0,,10+,30.15,,,TRUE,TRUE,,,,,,,FEW,3700,BKN,4700,OVC,6000,,,VFR,,,,,,,,,,,,METAR,60
KJAQ 050415Z AUTO 26005KT 10SM 19/06 A3005 RMK AO1 T01920057,KJAQ,2023-11-05T04:15:00Z,38.3742,-120.794,19.2,5.7,260,5,,10+,30.05,,,TRUE,TRUE,,,,,,,,,,,,,,,VFR,,,,,,,,,,,,METAR,518
KIZA 050415Z AUTO 00000KT 10SM CLR 14/12 A3004 RMK AO2,KIZA,2023-11-05T04:15:00Z,34.6059,-120.076,14,12,0,0,,10+,30.04,,,TRUE,TRUE,,,,,,,CLR,,,,,,,,VFR,,,,,,,,,,,,METAR,200
KIYA 050415Z AUTO 00000KT 10SM CLR 12/09 A3018 RMK AO2 T01150087,KIYA,2023-11-05T04:15:00Z,29.976,-92.0826,11.5,8.7,0,0,,10+,30.18,,,TRUE,TRUE,,,,,,,CLR,,,,,,,,VFR,,,,,,,,,,,,METAR,4
KIWA 050415Z AUTO 13004KT 10SM CLR 18/M03 A3000 RMK AO2 T01801030,KIWA,2023-11-05T04:15:00Z,33.3008,-111.644,18,-3,130,4,,10+,30.00,,,TRUE,TRUE,,,,,,,CLR,,,,,,,,VFR,,,,,,,,,,,,METAR,420
KISQ 050415Z AUTO 00000KT 10SM OVC075 03/M01 A3012 RMK AO2 T00251013,KISQ,2023-11-05T04:15:00Z,45.9729,-86.1728,2.5,-1.3,0,0,,10+,30.12,,,TRUE,TRUE,,,,,,,OVC,7500,,,,,,,VFR,,,,,,,,,,,,METAR,206
KIRS 050415Z AUTO 32004KT 10SM SCT034 SCT043 07/05 A3014 RMK AO2 T00720050,KIRS,2023-11-05T04:15:00Z,41.8154,-85.4376,7.2,5,320,4,,10+,30.14,,,TRUE,TRUE,,,,,,,SCT,3400,SCT,4300,,,,,VFR,,,,,,,,,,,,METAR,282
KIOB 050415Z AUTO 26004KT 10SM CLR 10/04 A3016 RMK AO2 PWINO,KIOB,2023-11-05T04:15:00Z,38.0574,-83.9829,10,4,260,4,,10+,30.16,,,TRUE,TRUE,,,,,,,CLR,,,,,,,,VFR,,,,,,,,,,,,METAR,301
KINJ 050415Z AUTO 14007KT 10SM CLR 18/14 A3012 RMK AO2 T01800143,KINJ,2023-11-05T04:15:00Z,32.0844,-97.0959,18,14.3,140,7,,10+,30.12,,,TRUE,TRUE,,,,,,,CLR,,,,,,,,VFR,,,,,,,,,,,,METAR,208
KINF 050415Z AUTO 00000KT 7SM SCT075 12/06 A3011 RMK AO2,KINF,2023-11-05T04:15:00Z,28.8062,-82.319,12,6,0,0,,7,30.11,,,TRUE,TRUE,,,,,,,SCT,7500,,,,,,,VFR,,,,,,,,,,,,METAR,14
KIMS 050415Z AUTO 00000KT 10SM CLR 09/07 A3017 RMK AO2,KIMS,2023-11-05T04:15:00Z,38.7515,-85.4689,9,7,0,0,,10+,30.17,,,TRUE,TRUE,,,,,,,CLR,,,,,,,,VFR,,,,,,,,,,,,METAR,244
KIKW 050415Z AUTO 00000KT 4SM BR CLR 02/02 A3012 RMK AO2 T00150015,KIKW,2023-11-05T04:15:00Z,43.6643,-84.2613,1.5,1.5,0,0,,4,30.12,,,TRUE,TRUE,,,,,,BR,CLR,,,,,,,,MVFR,,,,,,,,,,,,METAR,190
KIKV 050415Z AUTO 00000KT 10SM CLR 02/00 A3019 RMK AO2,KIKV,2023-11-05T04:15:00Z,41.6878,-93.5695,2,0,0,0,,10+,30.19,,,TRUE,TRUE,,,,,,,CLR,,,,,,,,VFR,,,,,,,,,,,,METAR,270
KIKK 050415Z AUTO 00000KT 5SM CLR 04/03 A3019 RMK AO2 T00380030 PWINO,KIKK,2023-11-05T04:15:00Z,41.0687,-87.8537,3.8,3,0,0,,5,30.19,,,TRUE,TRUE,,,,,,,CLR,,,,,,,,MVFR,,,,,,,,,,,,METAR,188
KIKG 050415Z AUTO 00000KT 10SM CLR 16/14 A3012 RMK AO2 T01600142,KIKG,2023-11-05T04:15:00Z,27.5464,-98.0292,16,14.2,0,0,,10+,30.12,,,TRUE,TRUE,,,,,,,CLR,,,,,,,,VFR,,,,,,,,,,,,METAR,37
KIJX 050415Z AUTO 00000KT 10SM CLR 05/00 A3020 RMK AO2 T00500002,KIJX,2023-11-05T04:15:00Z,39.774,-90.2419,5,0.2,0,0,,10+,30.20,,,TRUE,TRUE,,,,,,,CLR,,,,,,,,VFR,,,,,,,,,,,,METAR,187
KIIY 050415Z AUTO 00000KT 10SM CLR 10/03 A3015 RMK AO2 T01020029,KIIY,2023-11-05T04:15:00Z,33.7797,-82.8135,10.2,2.9,0,0,,10+,30.15,,,TRUE,TRUE,,,,,,,CLR,,,,,,,,VFR,,,,,,,,,,,,METAR,192
KIIB 050415Z AUTO 19006KT 10SM CLR 03/M01 A3018 RMK AO2 T00311012,KIIB,2023-11-05T04:15:00Z,42.4544,-91.9504,3.1,-1.2,190,6,,10+,30.18,,,TRUE,TRUE,,,,,,,CLR,,,,,,,,VFR,,,,,,,,,,,,METAR,294
KIGQ 050415Z AUTO 00000KT 2 1/2SM BR CLR 02/01 A3019 RMK AO2 T00220014,KIGQ,2023-11-05T04:15:00Z,41.5412,-87.5282,2.2,1.4,0,0,,2.5,30.19,,,TRUE,TRUE,,,,,,BR,CLR,,,,,,,,IFR,,,,,,,,,,,,METAR,187
KIFP 050415Z AUTO 07004KT 10SM CLR 21/M12 A2999 RMK AO2,KIFP,2023-11-05T04:15:00Z,35.1487,-114.561,21,-12,70,4,,10+,29.99,,,TRUE,TRUE,,,,,,,CLR,,,,,,,,VFR,,,,,,,,,,,,METAR,210
KIFA 050415Z AUTO 20007KT 10SM CLR 05/00 A3017 RMK AO2 T00511001,KIFA,2023-11-05T04:15:00Z,42.4691,-93.2651,5.1,-0.1,200,7,,10+,30.17,,,TRUE,TRUE,,,,,,,CLR,,,,,,,,VFR,,,,,,,,,,,,METAR,344
KIER 050415Z AUTO 00000KT 10SM CLR 11/10 A3016 RMK AO2 T01050097,KIER,2023-11-05T04:15:00Z,31.736,-93.1003,10.5,9.7,0,0,,10+,30.16,,,TRUE,TRUE,,,,,,,CLR,,,,,,,,VFR,,,,,,,,,,,,METAR,35
KIDP 050415Z AUTO 07005KT 10SM SCT043 12/07 A3019 RMK AO2 T01180070,KIDP,2023-11-05T04:15:00Z,37.1566,-95.7792,11.8,7,70,5,,10+,30.19,,,TRUE,TRUE,,,,,,,SCT,4300,,,,,,,VFR,,,,,,,,,,,,METAR,252
KIDI 050415Z AUTO 00000KT 10SM BKN060 OVC075 10/03 A3010 RMK A01,KIDI,2023-11-05T04:15:00Z,40.6337,-79.1036,10,3,0,0,,10+,30.10,,,TRUE,TRUE,,,,,,,BKN,6000,OVC,7500,,,,,VFR,,,,,,,,,,,,METAR,425
KICL 050415Z AUTO 00000KT 7SM CLR 01/M00 A3023 RMK AO2,KICL,2023-11-05T04:15:00Z,40.7242,-95.0222,1,0,0,0,,7,30.23,,,TRUE,TRUE,,,,,,,CLR,,,,,,,,VFR,,,,,,,,,,,,METAR,299
KIBM 050415Z AUTO 22005KT 10SM CLR 03/M02 A3012 RMK AO2 T00331018,KIBM,2023-11-05T04:15:00Z,41.1894,-103.671,3.3,-1.8,220,5,,10+,30.12,,,TRUE,TRUE,,,,,,,CLR,,,,,,,,VFR,,,,,,,,,,,,METAR,1494
KI95 050415Z AUTO 27005KT 10SM SCT038 BKN044 BKN050 07/05 A3009 RMK A01,KI95,2023-11-05T04:15:00Z,40.6142,-83.6374,7,5,270,5,,10+,30.09,,,TRUE,TRUE,,,,,,,SCT,3800,BKN,4400,BKN,5000,,,VFR,,,,,,,,,,,,METAR,312
KI75 050415Z AUTO 23005KT 10SM CLR 05/02 A3019 RMK AO2 T00530020,KI75,2023-11-05T04:15:00Z,41.0472,-93.6876,5.3,2,230,5,,10+,30.19,,,TRUE,TRUE,,,,,,,CLR,,,,,,,,VFR,,,,,,,,,,,,METAR,336
KI74 050415Z AUTO 00000KT 10SM CLR 04/03 A3011 RMK AO2,KI74,2023-11-05T04:15:00Z,40.1314,-83.757,4,3,0,0,,10+,30.11,,,TRUE,TRUE,,,,,,,CLR,,,,,,,,VFR,,,,,,,,,,,,METAR,322
KI68 050415Z AUTO 28003KT 10SM CLR 11/05 A3012 RMK AO2,KI68,2023-11-05T04:15:00Z,39.4664,-84.2532,11,5,280,3,,10+,30.12,,,TRUE,TRUE,,,,,,,CLR,,,,,,,,VFR,,,,,,,,,,,,METAR,274
KI67 050415Z AUTO 00000KT 10SM CLR 11/05 A3014 RMK AO1,KI67,2023-11-05T04:15:00Z,39.2565,-84.7753,11,5,0,0,,10+,30.14,,,TRUE,TRUE,,,,,,,CLR,,,,,,,,VFR,,,,,,,,,,,,METAR,177
KI63 050415Z AUTO 00000KT 10SM CLR 05/02 A3019 RMK AO2 T00450018,KI63,2023-11-05T04:15:00Z,39.9883,-90.8023,4.5,1.8,0,0,,10+,30.19,,,TRUE,TRUE,,,,,,,CLR,,,,,,,,VFR,,,,,,,,,,,,METAR,221
KI23 050415Z AUTO 27004KT 10SM CLR 05/03 A3011 RMK AO1,KI23,2023-11-05T04:15:00Z,39.5697,-83.4239,5,3,270,4,,10+,30.11,,,TRUE,TRUE,,,,,,,CLR,,,,,,,,VFR,,,,,,,,,,,,METAR,298
KI19 050415Z AUTO 00000KT 10SM CLR 11/04 A3011 RMK AO2,KI19,2023-11-05T04:15:00Z,39.6935,-83.9896,11,4,0,0,,10+,30.11,,,TRUE,TRUE,,,,,,,CLR,,,,,,,,VFR,,,,,,,,,,,,METAR,285
KHZX 050415Z AUTO 04005KT 10SM OVC030 00/M01 A3013 RMK AO2,KHZX,2023-11-05T04:15:00Z,46.6189,-93.3128,0,-1,40,5,,10+,30.13,,,TRUE,TRUE,,,,,,,OVC,3000,,,,,,,MVFR,,,,,,,,,,,,METAR,374
KHZR 050415Z AUTO 00000KT 10SM CLR 10/08 A3018 RMK AO2 T01020077,KHZR,2023-11-05T04:15:00Z,30.718,-91.48,10.2,7.7,0,0,,10+,30.18,,,TRUE,TRUE,,,,,,,CLR,,,,,,,,VFR,,,,,,,,,,,,METAR,11
KHZL 050415Z AUTO 00000KT 10SM BKN070 OVC110 07/01 A3011 RMK AO2,KHZL,2023-11-05T04:15:00Z,40.9845,-75.9901,7,1,0,0,,10+,30.11,,,TRUE,TRUE,,,,,,,BKN,7000,OVC,11000,,,,,VFR,,,,,,,,,,,,METAR,481
KHZE 050415Z AUTO 11007KT 3/4SM BR 00/00 A3000 RMK AO2,KHZE,2023-11-05T04:15:00Z,47.288,-101.577,0,0,110,7,,0.75,30.00,,,TRUE,TRUE,,,,,,BR,,,,,,,,,LIFR,,,,,,,,,,,,METAR,542
KHYX 050415Z AUTO 07002KT 7SM BR FEW044 02/02 A3010 RMK AO2,KHYX,2023-11-05T04:15:00Z,43.4319,-83.8648,2,2,70,2,,7,30.10,,,TRUE,TRUE,,,,,,BR,FEW,4400,,,,,,,VFR,,,,,,,,,,,,METAR,181
KHYW 050415Z AUTO 00000KT 10SM SCT039 08/08 A3009 RMK AO2,KHYW,2023-11-05T04:15:00Z,33.8256,-79.1259,8,8,0,0,,10+,30.09,,,TRUE,TRUE,,,,,,,SCT,3900,,,,,,,VFR,,,,,,,,,,,,METAR,10
KHXD 050415Z AUTO 00000KT 10SM CLR 14/04 A3012 RMK AO2,KHXD,2023-11-05T04:15:00Z,32.2263,-80.6949,14,4,0,0,,10+,30.12,,,TRUE,TRUE,,,,,,,CLR,,,,,,,,VFR,,,,,,,,,,,,METAR,5
KHWY 050415Z AUTO 00000KT 10SM CLR 02/M02 A3010 RMK AO2 T00201016,KHWY,2023-11-05T04:15:00Z,38.5876,-77.715,2,-1.6,0,0,,10+,30.10,,,TRUE,TRUE,,,,,,,CLR,,,,,,,,VFR,,,,,,,,,,,,METAR,93
KHVS 050415Z AUTO 00000KT 10SM CLR 17/M01 A3012 RMK AO2 LTG DSNT E,KHVS,2023-11-05T04:15:00Z,34.4065,-80.1198,17,-1,0,0,,10+,30.12,,,TRUE,TRUE,,,,,,,CLR,,,,,,,,VFR,,,,,,,,,,,,METAR,110
KHVE 050415Z AUTO 00000KT 10SM CLR 11/M08 A3019 RMK AO2,KHVE,2023-11-05T04:15:00Z,38.418,-110.704,11,-8,0,0,,10+,30.19,,,TRUE,TRUE,,,,,,,CLR,,,,,,,,VFR,,,,,,,,,,,,METAR,1351
KHVC 050415Z AUTO 00000KT 10SM FEW041 10/10 A3016 RMK AO2,KHVC,2023-11-05T04:15:00Z,36.8603,-87.4478,10,10,0,0,,10+,30.16,,,TRUE,TRUE,,,,,,,FEW,4100,,,,,,,VFR,,,,,,,,,,,,METAR,171
KHUM 050415Z AUTO 00000KT 7SM CLR 15/14 A3017 RMK AO2 T01450137,KHUM,2023-11-05T04:15:00Z,29.5634,-90.6629,14.5,13.7,0,0,,7,30.17,,,TRUE,TRUE,,,,,,,CLR,,,,,,,,VFR,,,,,,,,,,,,METAR,1
KHTH 050415Z AUTO 10008KT 10SM CLR 13/M03 A3007 RMK A01,KHTH,2023-11-05T04:15:00Z,38.5448,-118.631,13,-3,100,8,,10+,30.07,,,TRUE,TRUE,,,,,,,CLR,,,,,,,,VFR,,,,,,,,,,,,METAR,1281
KHSP 050415Z AUTO 27010KT 10SM CLR 11/M06 A3017 RMK AO2 T01051064,KHSP,2023-11-05T04:15:00Z,37.9531,-79.8285,10.5,-6.4,270,10,,10+,30.17,,,TRUE,TRUE,,,,,,,CLR,,,,,,,,VFR,,,,,,,,,,,,METAR,1148
KHSG 050415Z AUTO 30003KT 10SM CLR 05/00 A2999 RMK AO2 T00530004,KHSG,2023-11-05T04:15:00Z,43.7178,-108.385,5.3,0.4,300,3,,10+,29.99,,,TRUE,TRUE,,,,,,,CLR,,,,,,,,VFR,,,,,,,,,,,,METAR,1497
KHSD 050415Z AUTO 00000KT 10SM FEW041 SCT060 16/13 A3013 RMK A01,KHSD,2023-11-05T04:15:00Z,35.6018,-97.7093,16,13,0,0,,10+,30.13,,,TRUE,TRUE,,,,,,,FEW,4100,SCT,6000,,,,,VFR,,,,,,,,,,,,METAR,358
KHSB 050415Z AUTO 00000KT 10SM CLR 10/07 A3019 RMK AO2 T01040068,KHSB,2023-11-05T04:15:00Z,37.8128,-88.5449,10.4,6.8,0,0,,10+,30.19,,,TRUE,TRUE,,,,,,,CLR,,,,,,,,VFR,,,,,,,,,,,,METAR,118
KHRX 050415Z AUTO 04003KT 10SM CLR 08/04 A3021 RMK AO2 T00800039 TSNO,KHRX,2023-11-05T04:15:00Z,34.8628,-102.32,8,3.9,40,3,,10+,30.21,,,TRUE,TRUE,,,,,,,CLR,,,,,,,,VFR,,,,,,,,,,,,METAR,1153
KHQZ 050415Z AUTO 00000KT 10SM CLR 15/12 A3014 RMK AO1 T01470124,KHQZ,2023-11-05T04:15:00Z,32.7514,-96.5291,14.7,12.4,0,0,,10+,30.14,,,TRUE,TRUE,,,,,,,CLR,,,,,,,,VFR,,,,,,,,,,,,METAR,136
KHQU 050415Z AUTO 00000KT 10SM CLR 05/04 A3015 RMK AO2 T00480037,KHQU,2023-11-05T04:15:00Z,33.5279,-82.518,4.8,3.7,0,0,,10+,30.15,,,TRUE,TRUE,,,,,,,CLR,,,,,,,,VFR,,,,,,,,,,,,METAR,141
KHQG 050415Z AUTO 15005KT 10SM CLR 05/04 A3019 RMK AO2 T00510036 PWINO,KHQG,2023-11-05T04:15:00Z,37.1647,-101.371,5.1,3.6,150,5,,10+,30.19,,,TRUE,TRUE,,,,,,,CLR,,,,,,,,VFR,,,,,,,,,,,,METAR,956
KHPT 050415Z AUTO 22007KT 10SM SCT080 03/M02 A3015 RMK AO2,KHPT,2023-11-05T04:15:00Z,42.7175,-93.2244,3,-2,220,7,,10+,30.15,,,TRUE,TRUE,,,,,,,SCT,8000,,,,,,,VFR,,,,,,,,,,,,METAR,354
KHOE 050415Z AUTO 00000KT 10SM CLR 09/07 A3014 RMK AO2 T00950079,KHOE,2023-11-05T04:15:00Z,31.0561,-82.7726,9.5,7.9,0,0,,10+,30.14,,,TRUE,TRUE,,,,,,,CLR,,,,,,,,VFR,,,,,,,,,,,,METAR,56
KHOB 050415Z AUTO 34009KT 10SM FEW048 09/01 A3016 RMK AO2,KHOB,2023-11-05T04:15:00Z,32.6797,-103.222,9,1,340,9,,10+,30.16,,,TRUE,TRUE,,,,,,,FEW,4800,,,,,,,VFR,,,,,,,,,,,,METAR,1112
KHNZ 050415Z AUTO 00000KT 10SM CLR 04/01 A3011 RMK AO2 T00390013,KHNZ,2023-11-05T04:15:00Z,36.3635,-78.5289,3.9,1.3,0,0,,10+,30.11,,,TRUE,TRUE,,,,,,,CLR,,,,,,,,VFR,,,,,,,,,,,,METAR,158
KHNR 050415Z AUTO 20004KT 10SM CLR 02/02 A3018 RMK A01,KHNR,2023-11-05T04:15:00Z,41.5841,-95.3358,2,2,200,4,,10+,30.18,,,TRUE,TRUE,,,,,,,CLR,,,,,,,,VFR,,,,,,,,,,,,METAR,364
KHMZ 050415Z AUTO 00000KT 10SM SCT085 BKN110 05/01 A3009 RMK AO2 T00540010,KHMZ,2023-11-05T04:15:00Z,40.0863,-78.5167,5.4,1,0,0,,10+,30.09,,,TRUE,TRUE,,,,,,,SCT,8500,BKN,11000,,,,,VFR,,,,,,,,,,,,METAR,351
KHMT 050415Z AUTO 11003KT 7SM CLR A3003 RMK AO2,KHMT,2023-11-05T04:15:00Z,33.7303,-117.027,,,110,3,,7,30.03,,,TRUE,TRUE,,,,,,,CLR,,,,,,,,VFR,,,,,,,,,,,,METAR,462
KHMP 050415Z AUTO 00000KT 10SM CLR 05/04 A3021 RMK AO2 T00490044,KHMP,2023-11-05T04:15:00Z,33.3916,-84.3312,4.9,4.4,0,0,,10+,30.21,,,TRUE,TRUE,,,,,,,CLR,,,,,,,,VFR,,,,,,,,,,,,METAR,263
KHLX 050415Z AUTO 27003KT 10SM CLR 11/M04 A3016 RMK AO2 T01101040,KHLX,2023-11-05T04:15:00Z,36.7637,-80.8211,11,-4,270,3,,10+,30.16,,,TRUE,TRUE,,,,,,,CLR,,,,,,,,VFR,,,,,,,,,,,,METAR,819
KHJH 050415Z AUTO 00000KT 3/4SM BR VV005 03/03 A3020 RMK AO2 T00300029,KHJH,2023-11-05T04:15:00Z,40.1493,-97.5872,3,2.9,0,0,,0.75,30.20,,,TRUE,TRUE,,,,,,BR,OVX,0,,,,,,,LIFR,,,,,,,,,,,500,METAR,449
KHII 050415Z AUTO 06005KT 10SM 21/M13 A2998 RMK AO2,KHII,2023-11-05T04:15:00Z,34.5659,-114.352,21,-13,60,5,,10+,29.98,,,TRUE,TRUE,,,,,,,,,,,,,,,VFR,,,,,,,,,,,,METAR,241
KHHW 050415Z AUTO 07003KT 10SM CLR 12/11 A3016 RMK AO2,KHHW,2023-11-05T04:15:00Z,34.0308,-95.5401,12,11,70,3,,10+,30.16,,,TRUE,TRUE,,,,,,,CLR,,,,,,,,VFR,,,,,,,,,,,,METAR,178
KHHF 050415Z AUTO 23003KT 10SM CLR 07/06 A3018 RMK AO2 T00670055,KHHF,2023-11-05T04:15:00Z,35.8929,-100.405,6.7,5.5,230,3,,10+,30.18,,,TRUE,TRUE,,,,,,,CLR,,,,,,,,VFR,,,,,,,,,,,,METAR,729
KHFY 050415Z AUTO 35004KT 10SM CLR 10/04 A3017 RMK AO2 T00990044,KHFY,2023-11-05T04:15:00Z,39.628,-86.088,9.9,4.4,350,4,,10+,30.17,,,TRUE,TRUE,,,,,,,CLR,,,,,,,,VFR,,,,,,,,,,,,METAR,250
KHFJ 050415Z AUTO 10007KT 10SM BKN041 OVC065 12/08 A3019 RMK AO2,KHFJ,2023-11-05T04:15:00Z,36.9105,-94.0099,12,8,100,7,,10+,30.19,,,TRUE,TRUE,,,,,,,BKN,4100,OVC,6500,,,,,VFR,,,,,,,,,,,,METAR,398
KHEQ 050415Z AUTO 00000KT 10SM CLR 05/00 A3013 RMK AO2,KHEQ,2023-11-05T04:15:00Z,40.5715,-102.277,5,0,0,0,,10+,30.13,,,TRUE,TRUE,,,,,,,CLR,,,,,,,,VFR,,,,,,,,,,,,METAR,1136
KHEG 050415Z AUTO 35007KT 10SM CLR 16/05 A3013 RMK AO2,KHEG,2023-11-05T04:15:00Z,30.2771,-81.8087,16,5,350,7,,10+,30.13,,,TRUE,TRUE,,,,,,,CLR,,,,,,,,VFR,,,,,,,,,,,,METAR,25
KHDL 050415Z AUTO 00000KT 10SM CLR 10/10 A3016 RMK AO2,KHDL,2023-11-05T04:15:00Z,31.3641,-85.3112,10,10,0,0,,10+,30.16,,,TRUE,TRUE,,,,,,,CLR,,,,,,,,VFR,,,,,,,,,,,,METAR,109
KHDE 050415Z AUTO 17005KT 10SM CLR 05/05 A3015 RMK AO2 T00530047,KHDE,2023-11-05T04:15:00Z,40.4496,-99.3363,5.3,4.7,170,5,,10+,30.15,,,TRUE,TRUE,,,,,,,CLR,,,,,,,,VFR,,,,,,,,,,,,METAR,703
KHDC 050415Z AUTO 00000KT 10SM CLR 12/11 A3017 RMK AO2 T01210110,KHDC,2023-11-05T04:15:00Z,30.5237,-90.4176,12.1,11,0,0,,10+,30.17,,,TRUE,TRUE,,,,,,,CLR,,,,,,,,VFR,,,,,,,,,,,,METAR,12
KHCR 050415Z AUTO 00000KT 10SM CLR 06/M02 A3014 RMK AO2,KHCR,2023-11-05T04:15:00Z,40.4774,-111.433,6,-2,0,0,,10+,30.14,,,TRUE,TRUE,,,,,,,CLR,,,,,,,,VFR,,,,,,,,,,,,METAR,1708
KHCD 050415Z AUTO 00000KT 10SM CLR 04/00 A3008 RMK AO2 T00440001,KHCD,2023-11-05T04:15:00Z,44.8597,-94.3855,4.4,0.1,0,0,,10+,30.08,,,TRUE,TRUE,,,,,,,CLR,,,,,,,,VFR,,,,,,,,,,,,METAR,320
KHAI 050415Z AUTO 00000KT 5SM BR CLR 05/03 A3016 RMK AO2 T00510033,KHAI,2023-11-05T04:15:00Z,41.9591,-85.5933,5.1,3.3,0,0,,5,30.16,,,TRUE,TRUE,,,,,,BR,CLR,,,,,,,,MVFR,,,,,,,,,,,,METAR,250
KHAF 050415Z AUTO 00000KT 6SM BR FEW017 12/12 A3006 RMK AO2,KHAF,2023-11-05T04:15:00Z,37.5136,-122.5,12,12,0,0,,6,30.06,,,TRUE,TRUE,,,,,,BR,FEW,1700,,,,,,,VFR,,,,,,,,,,,,METAR,11
KHAE 050415Z AUTO 00000KT 10SM CLR 06/03 A3020 RMK AO2,KHAE,2023-11-05T04:15:00Z,39.7262,-91.4425,6,3,0,0,,10+,30.20,,,TRUE,TRUE,,,,,,,CLR,,,,,,,,VFR,,,,,,,,,,,,METAR,230
KGZS 050415Z AUTO 00000KT 10SM BKN046 OVC050 05/04 A3017 RMK A01,KGZS,2023-11-05T04:15:00Z,35.1533,-87.0543,5,4,0,0,,10+,30.17,,,TRUE,TRUE,,,,,,,BKN,4600,OVC,5000,,,,,VFR,,,,,,,,,,,,METAR,198
KGZL 050415Z AUTO 00000KT 10SM FEW049 13/12 A3016 RMK AO2,KGZL,2023-11-05T04:15:00Z,35.2913,-95.0956,13,12,0,0,,10+,30.16,,,TRUE,TRUE,,,,,,,FEW,4900,,,,,,,VFR,,,,,,,,,,,,METAR,176
KGYY 050415Z AUTO 00000KT 1SM BR CLR 03/03 A3018 RMK AO2,KGYY,2023-11-05T04:15:00Z,41.6121,-87.4091,3,3,0,0,,1,30.18,,,TRUE,TRUE,,,,,,BR,CLR,,,,,,,,IFR,,,,,,,,,,,,METAR,179
KGYL 050415Z AUTO 19003KT 10SM CLR 05/00 A3007 RMK AO2 T00500004,KGYL,2023-11-05T04:15:00Z,44.7588,-94.0905,5,0.4,190,3,,10+,30.07,,,TRUE,TRUE,,,,,,,CLR,,,,,,,,VFR,,,,,,,,,,,,METAR,304
KGYI 050415Z AUTO 15008KT 10SM CLR 17/13 A3014 RMK AO2 T01650130 TSNO,KGYI,2023-11-05T04:15:00Z,33.7231,-96.6714,16.5,13,150,8,,10+,30.14,,,TRUE,TRUE,,,,,,,CLR,,,,,,,,VFR,,,,,,,,,,,,METAR,227
KGYH 050415Z AUTO 00000KT 10SM CLR 10/M02 A3015 RMK AO2,KGYH,2023-11-05T04:15:00Z,34.763,-82.375,10,-2,0,0,,10+,30.15,,,TRUE,TRUE,,,,,,,CLR,,,,,,,,VFR,,,,,,,,,,,,METAR,283
KGYF 050415Z AUTO 09018KT 10SM SCT023 SCT030 BKN060 25/19 A3012 RMK AO2 T02520193,KGYF,2023-11-05T04:15:00Z,26.133,-94.9,25.2,19.3,90,18,,10+,30.12,,,TRUE,TRUE,,,,,,,SCT,2300,SCT,3000,BKN,6000,,,VFR,,,,,,,,,,,,METAR,65
KGYB 050415Z AUTO 00000KT 10SM CLR 19/17 A3014 RMK AO2 T01920166,KGYB,2023-11-05T04:15:00Z,30.1714,-96.9785,19.2,16.6,0,0,,10+,30.14,,,TRUE,TRUE,,,,,,,CLR,,,,,,,,VFR,,,,,,,,,,,,METAR,140
KGWR 050415Z AUTO 06007KT 10SM OVC010 02/02 A3008 RMK A01,KGWR,2023-11-05T04:15:00Z,46.2185,-97.6396,2,2,60,7,,10+,30.08,,,TRUE,TRUE,,,,,,,OVC,1000,,,,,,,MVFR,,,,,,,,,,,,METAR,381
KGWB 050415Z AUTO 29006KT 7SM CLR 06/05 A3014 RMK AO2,KGWB,2023-11-05T04:15:00Z,41.3061,-85.0585,6,5,290,6,,7,30.14,,,TRUE,TRUE,,,,,,,CLR,,,,,,,,VFR,,,,,,,,,,,,METAR,268
KGVT 050415Z AUTO 00000KT 10SM CLR 13/13 A3014 RMK AO2 TSNO T01280125,KGVT,2023-11-05T04:15:00Z,33.0669,-96.0614,12.8,12.5,0,0,,10+,30.14,,,TRUE,TRUE,,,,,,,CLR,,,,,,,,VFR,,,,,,,,,,,,METAR,165
KGVE 050415Z AUTO 00000KT 10SM CLR 07/02 A3009 RMK AO1 T00650016,KGVE,2023-11-05T04:15:00Z,38.1569,-78.1656,6.5,1.6,0,0,,10+,30.09,,,TRUE,TRUE,,,,,,,CLR,,,,,,,,VFR,,,,,,,,,,,,METAR,138
KGUL 050415Z AUTO 09004KT 10SM CLR 24/16 A3014 RMK A01,KGUL,2023-11-05T04:15:00Z,27.304,-93.538,24,16,90,4,,10+,30.14,,,TRUE,TRUE,,,,,,,CLR,,,,,,,,VFR,,,,,,,,,,,,METAR,20
KGRN 050415Z AUTO 00000KT 10SM CLR 04/00 A3004 RMK AO2 T00350000,KGRN,2023-11-05T04:15:00Z,42.8039,-102.181,3.5,0,0,0,,10+,30.04,,,TRUE,TRUE,,,,,,,CLR,,,,,,,,VFR,,,,,,,,,,,,METAR,1080
KGPM 050415Z AUTO 00000KT 10SM CLR 17/13 A3015 RMK AO2 T01720132,KGPM,2023-11-05T04:15:00Z,32.6928,-97.0485,17.2,13.2,0,0,,10+,30.15,,,TRUE,TRUE,,,,,,,CLR,,,,,,,,VFR,,,,,,,,,,,,METAR,178
KGPH 050415Z AUTO 00000KT 7SM 03/03 A3022 RMK AO2 TSNO,KGPH,2023-11-05T04:15:00Z,39.3248,-94.3082,3,3,0,0,,7,30.22,,,TRUE,TRUE,,,,,,,,,,,,,,,VFR,,,,,,,,,,,,METAR,233
KGPC 050415Z AUTO 34005KT 10SM CLR 08/05 A3017 RMK AO2 T00780047,KGPC,2023-11-05T04:15:00Z,39.635,-86.816,7.8,4.7,340,5,,10+,30.17,,,TRUE,TRUE,,,,,,,CLR,,,,,,,,VFR,,,,,,,,,,,,METAR,254
KGOP 050415Z AUTO 15003KT 10SM CLR 17/15 A3013 RMK AO2,KGOP,2023-11-05T04:15:00Z,31.4208,-97.7951,17,15,150,3,,10+,30.13,,,TRUE,TRUE,,,,,,,CLR,,,,,,,,VFR,,,,,,,,,,,,METAR,272
KGOO 050415Z AUTO 00000KT 10SM FEW060 BKN100 OVC120 16/06 A3010 RMK A01,KGOO,2023-11-05T04:15:00Z,39.224,-121.003,16,6,0,0,,10+,30.10,,,TRUE,TRUE,,,,,,,FEW,6000,BKN,10000,OVC,12000,,,VFR,,,,,,,,,,,,METAR,950
KGNT 050415Z AUTO 32005KT 10SM CLR 04/M10 A3034 RMK AO2 T00401096,KGNT,2023-11-05T04:15:00Z,35.1653,-107.902,4,-9.6,320,5,,10+,30.34,,,TRUE,TRUE,,,,,,,CLR,,,,,,,,VFR,,,,,,,,,,,,METAR,1988
KGNC 050415Z AUTO 20003KT 10SM CLR 16/M01 A3019 RMK AO2 T01591009,KGNC,2023-11-05T04:15:00Z,32.678,-102.65,15.9,-0.9,200,3,,10+,30.19,,,TRUE,TRUE,,,,,,,CLR,,,,,,,,VFR,,,,,,,,,,,,METAR,1002
KGNB 050415Z AUTO 00000KT 10SM CLR 01/M29 A3033 RMK AO2 T00071286,KGNB,2023-11-05T04:15:00Z,40.0904,-105.911,0.7,-28.6,0,0,,10+,30.33,,,TRUE,TRUE,,,,,,,CLR,,,,,,,,VFR,,,,,,,,,,,,METAR,2500
KGMJ 050415Z AUTO 06005KT 10SM BKN044 OVC050 15/11 A3017 RMK AO2 TSNO,KGMJ,2023-11-05T04:15:00Z,36.607,-94.7369,15,11,60,5,,10+,30.17,,,TRUE,TRUE,,,,,,,BKN,4400,OVC,5000,,,,,VFR,,,,,,,,,,,,METAR,251
KGLY 050415Z AUTO 00000KT 8SM CLR 06/05 A3021 RMK AO2,KGLY,2023-11-05T04:15:00Z,38.3572,-93.6774,6,5,0,0,,8,30.21,,,TRUE,TRUE,,,,,,,CLR,,,,,,,,VFR,,,,,,,,,,,,METAR,247
KGLW 050415Z AUTO 00000KT 10SM CLR 10/07 A3016 RMK AO2 T01040074,KGLW,2023-11-05T04:15:00Z,37.0337,-85.9523,10.4,7.4,0,0,,10+,30.16,,,TRUE,TRUE,,,,,,,CLR,,,,,,,,VFR,,,,,,,,,,,,METAR,216
KGLE 050415Z AUTO 00000KT 10SM OVC050 16/13 A3014 RMK AO2 T01640131 PWINO,KGLE,2023-11-05T04:15:00Z,33.6525,-97.1981,16.4,13.1,0,0,,10+,30.14,,,TRUE,TRUE,,,,,,,OVC,5000,,,,,,,VFR,,,,,,,,,,,,METAR,250
KGKT 050415Z AUTO 00000KT 10SM CLR 07/03 A3019 RMK A01,KGKT,2023-11-05T04:15:00Z,35.8568,-83.5333,7,3,0,0,,10+,30.19,,,TRUE,TRUE,,,,,,,CLR,,,,,,,,VFR,,,,,,,,,,,,METAR,305
KGIC 050415Z AUTO 12005KT 3SM OVC017 07/07 A2989 RMK AO1 P0010,KGIC,2023-11-05T04:15:00Z,45.9411,-116.133,7,7,120,5,,3,29.89,,,TRUE,TRUE,,,,,,,OVC,1700,,,,,,,MVFR,,,,,,0.1,,,,,,METAR,1002
KGHW 050415Z AUTO 35005KT 7SM CLR 02/00 A3006 RMK AO2 TSNO,KGHW,2023-11-05T04:15:00Z,45.6456,-95.3187,2,0,350,5,,7,30.06,,,TRUE,TRUE,,,,,,,CLR,,,,,,,,VFR,,,,,,,,,,,,METAR,423
KGHG 050415Z AUTO 26004KT 10SM SCT120 09/07 A3007 RMK AO2,KGHG,2023-11-05T04:15:00Z,42.0961,-70.6769,9,7,260,4,,10+,30.07,,,TRUE,TRUE,,,,,,,SCT,12000,,,,,,,VFR,,,,,,,,,,,,METAR,3
KGGP 050415Z AUTO 00000KT 7SM CLR 04/03 A3018 RMK AO2,KGGP,2023-11-05T04:15:00Z,40.7127,-86.3673,4,3,0,0,,7,30.18,,,TRUE,TRUE,,,,,,,CLR,,,,,,,,VFR,,,,,,,,,,,,METAR,224
KGGF 050415Z AUTO 18011KT 10SM CLR 07/01 A3011 RMK AO2,KGGF,2023-11-05T04:15:00Z,40.871,-101.734,7,1,180,11,,10+,30.11,,,TRUE,TRUE,,,,,,,CLR,,,,,,,,VFR,,,,,,,,,,,,METAR,1044
KGGE 050415Z AUTO 00000KT 10SM CLR 12/07 A3009 RMK AO2,KGGE,2023-11-05T04:15:00Z,33.3138,-79.3187,12,7,0,0,,10+,30.09,,,TRUE,TRUE,,,,,,,CLR,,,,,,,,VFR,,,,,,,,,,,,METAR,9
KGDB 050415Z AUTO 27003KT 10SM CLR 03/01 A3009 RMK AO2 T00260007,KGDB,2023-11-05T04:15:00Z,44.7521,-95.5591,2.6,0.7,270,3,,10+,30.09,,,TRUE,TRUE,,,,,,,CLR,,,,,,,,VFR,,,,,,,,,,,,METAR,316
KGDA 050415Z AUTO 36003KT 10SM CLR 14/05 A3017 RMK AO2 T01400053 PWINO,KGDA,2023-11-05T04:15:00Z,37.3344,-88.1095,14,5.3,360,3,,10+,30.17,,,TRUE,TRUE,,,,,,,CLR,,,,,,,,VFR,,,,,,,,,,,,METAR,199
KGCY 050415Z AUTO 00000KT 10SM CLR 09/M00 A3018 RMK A01,KGCY,2023-11-05T04:15:00Z,36.1924,-82.8135,9,0,0,0,,10+,30.18,,,TRUE,TRUE,,,,,,,CLR,,,,,,,,VFR,,,,,,,,,,,,METAR,488
KGCM 050415Z AUTO 07005KT 10SM OVC047 17/15 A3015 RMK AO2,KGCM,2023-11-05T04:15:00Z,36.2918,-95.4825,17,15,70,5,,10+,30.15,,,TRUE,TRUE,,,,,,,OVC,4700,,,,,,,VFR,,,,,,,,,,,,METAR,215
KGCD 050415Z AUTO 22003KT 10SM -RA SCT041 BKN047 OVC055 09/08 A2996 RMK AO2 P0001 T00870079,KGCD,2023-11-05T04:15:00Z,44.4029,-118.967,8.7,7.9,220,3,,10+,29.96,,,TRUE,TRUE,,,,,,-RA,SCT,4100,BKN,4700,OVC,5500,,,VFR,,,,,,0.01,,,,,,METAR,1122
KGBG 050415Z AUTO 00000KT 10SM CLR 02/00 A3019 RMK AO2 T00170000 TSNO,KGBG,2023-11-05T04:15:00Z,40.9329,-90.4334,1.7,0,0,0,,10+,30.19,,,TRUE,TRUE,,,,,,,CLR,,,,,,,,VFR,,,,,,,,,,,,METAR,230
KGAF 050415Z AUTO 08004KT 6SM BR SCT100 M03/M03 A3014 RMK AO2,KGAF,2023-11-05T04:15:00Z,48.4081,-97.3694,-3,-3,80,4,,6,30.14,,,TRUE,TRUE,,,,,,BR,SCT,10000,,,,,,,VFR,,,,,,,,,,,,METAR,250
KFZG 050415Z AUTO 00000KT 10SM CLR 09/08 A3015 RMK AO2 T00900078,KFZG,2023-11-05T04:15:00Z,31.684,-83.2712,9,7.8,0,0,,10+,30.15,,,TRUE,TRUE,,,,,,,CLR,,,,,,,,VFR,,,,,,,,,,,,METAR,105
KFYM 050415Z AUTO 00000KT 10SM CLR 10/01 A3019 RMK A01,KFYM,2023-11-05T04:15:00Z,35.0603,-86.5656,10,1,0,0,,10+,30.19,,,TRUE,TRUE,,,,,,,CLR,,,,,,,,VFR,,,,,,,,,,,,METAR,297
KFYJ 050415Z AUTO 00000KT 10SM CLR 06/05 A3012 RMK AO1 T00640046,KFYJ,2023-11-05T04:15:00Z,37.5224,-76.7663,6.4,4.6,0,0,,10+,30.12,,,TRUE,TRUE,,,,,,,CLR,,,,,,,,VFR,,,,,,,,,,,,METAR,3
KFYG 050415Z AUTO 00000KT 10SM FEW065 FEW075 SCT095 10/08 A3020 RMK AO2,KFYG,2023-11-05T04:15:00Z,38.5877,-90.9915,10,8,0,0,,10+,30.20,,,TRUE,TRUE,,,,,,,FEW,6500,FEW,7500,SCT,9500,,,VFR,,,,,,,,,,,,METAR,147
KFYE 050415Z AUTO 00000KT 10SM SCT050 SCT055 09/07 A3015 RMK A01,KFYE,2023-11-05T04:15:00Z,35.2061,-89.3929,9,7,0,0,,10+,30.15,,,TRUE,TRUE,,,,,,,SCT,5000,SCT,5500,,,,,VFR,,,,,,,,,,,,METAR,133
KFXY 050415Z AUTO 20004KT 10SM BKN095 04/01 A3014 RMK AO2,KFXY,2023-11-05T04:15:00Z,43.2323,-93.6237,4,1,200,4,,10+,30.14,,,TRUE,TRUE,,,,,,,BKN,9500,,,,,,,VFR,,,,,,,,,,,,METAR,366
KFWZ 050415Z AUTO 25005KT 10SM CLR 06/M05 A3019 RMK AO2,KFWZ,2023-11-05T04:15:00Z,42.512,-108.776,6,-5,250,5,,10+,30.19,,,TRUE,TRUE,,,,,,,CLR,,,,,,,,VFR,,,,,,,,,,,,METAR,2605
KFWS 050415Z AUTO 00000KT 10SM CLR 16/14 A3014 RMK AO2 T01570137,KFWS,2023-11-05T04:15:00Z,32.558,-97.308,15.7,13.7,0,0,,10+,30.14,,,TRUE,TRUE,,,,,,,CLR,,,,,,,,VFR,,,,,,,,,,,,METAR,211
KFWB 050415Z AUTO 02007G13KT 10SM OVC045 15/09 A3020 RMK AO2,KFWB,2023-11-05T04:15:00Z,36.6933,-93.4049,15,9,20,7,13,10+,30.20,,,TRUE,TRUE,,,,,,,OVC,4500,,,,,,,VFR,,,,,,,,,,,,METAR,392
KFVX 050415Z AUTO 00000KT 10SM CLR 07/01 A3009 RMK AO2 T00740013,KFVX,2023-11-05T04:15:00Z,37.363,-78.4372,7.4,1.3,0,0,,10+,30.09,,,TRUE,TRUE,,,,,,,CLR,,,,,,,,VFR,,,,,,,,,,,,METAR,129
KFSW 050415Z AUTO 00000KT 10SM 06/03 A3018 RMK AO2,KFSW,2023-11-05T04:15:00Z,40.6615,-91.3267,6,3,0,0,,10+,30.18,,,TRUE,TRUE,,,,,,,,,,,,,,,VFR,,,,,,,,,,,,METAR,219
KFSO 050415Z AUTO 00000KT 10SM DZ BKN028 BKN035 OVC055 07/06 A3007 RMK AO2 T00660060,KFSO,2023-11-05T04:15:00Z,44.9411,-73.0997,6.6,6,0,0,,10+,30.07,,,TRUE,TRUE,,,,,,DZ,BKN,2800,BKN,3500,OVC,5500,,,MVFR,,,,,,,,,,,,METAR,70
KFSK 050415Z AUTO 05004KT 10SM BKN050 BKN080 11/05 A3020 RMK AO2 T01070053,KFSK,2023-11-05T04:15:00Z,37.796,-94.7676,10.7,5.3,50,4,,10+,30.20,,,TRUE,TRUE,,,,,,,BKN,5000,BKN,8000,,,,,VFR,,,,,,,,,,,,METAR,276
KFRR 050415Z AUTO 21005KT 10SM CLR 13/M03 A3009 RMK AO1,KFRR,2023-11-05T04:15:00Z,38.9169,-78.2487,13,-3,210,5,,10+,30.09,,,TRUE,TRUE,,,,,,,CLR,,,,,,,,VFR,,,,,,,,,,,,METAR,213
KFRH 050415Z AUTO 00000KT 10SM SCT120 12/02 A3017 RMK AO1,KFRH,2023-11-05T04:15:00Z,38.5034,-86.6442,12,2,0,0,,10+,30.17,,,TRUE,TRUE,,,,,,,SCT,12000,,,,,,,VFR,,,,,,,,,,,,METAR,241
KFPY 050415Z AUTO 00000KT 10SM CLR 12/09 A3015 RMK AO2 T01180090,KFPY,2023-11-05T04:15:00Z,30.0719,-83.5731,11.8,9,0,0,,10+,30.15,,,TRUE,TRUE,,,,,,,CLR,,,,,,,,VFR,,,,,,,,,,,,METAR,12
KFPK 050415Z AUTO 29005KT 8SM BKN023 OVC030 07/05 A3011 RMK AO2,KFPK,2023-11-05T04:15:00Z,42.5764,-84.8125,7,5,290,5,,8,30.11,,,TRUE,TRUE,,,,,,,BKN,2300,OVC,3000,,,,,MVFR,,,,,,,,,,,,METAR,269
KFOT 050415Z AUTO 11009KT 7SM SCT022 BKN028 OVC041 14/14 A2998 RMK AO1,KFOT,2023-11-05T04:15:00Z,40.5529,-124.134,14,14,110,9,,7,29.98,,,TRUE,TRUE,,,,,,,SCT,2200,BKN,2800,OVC,4100,,,MVFR,,,,,,,,,,,,METAR,118
KFOM 050415Z AUTO 10SM CLR 15/M07 A3015 RMK AO1,KFOM,2023-11-05T04:15:00Z,38.9618,-112.36,15,-7,,,,10+,30.15,,,TRUE,TRUE,,,,,,,CLR,,,,,,,,VFR,,,,,,,,,,,,METAR,1519
KFOA 050415Z AUTO 34004KT 10SM BKN110 12/06 A3019 RMK AO2,KFOA,2023-11-05T04:15:00Z,38.6673,-88.4527,12,6,340,4,,10+,30.19,,,TRUE,TRUE,,,,,,,BKN,11000,,,,,,,VFR,,,,,,,,,,,,METAR,141
KFMM 050415Z AUTO 15004KT 10SM 07/00 A3012 RMK AO2,KFMM,2023-11-05T04:15:00Z,40.3315,-103.807,7,0,150,4,,10+,30.12,,,TRUE,TRUE,,,,,,,,,,,,,,,VFR,,,,,,,,,,,,METAR,1376
KFLY 050415Z AUTO 00000KT 10SM CLR 05/M03 A3026 RMK AO2 T00451029,KFLY,2023-11-05T04:15:00Z,38.9439,-104.568,4.5,-2.9,0,0,,10+,30.26,,,TRUE,TRUE,,,,,,,CLR,,,,,,,,VFR,,,,,,,,,,,,METAR,2096
KFKS 050415Z AUTO 00000KT 10SM CLR M01/M03 A3015 RMK AO2 T10111029,KFKS,2023-11-05T04:15:00Z,44.6246,-86.1985,-1.1,-2.9,0,0,,10+,30.15,,,TRUE,TRUE,,,,,,,CLR,,,,,,,,VFR,,,,,,,,,,,,METAR,189
KFKR 050415Z AUTO 25003KT 3SM BR OVC020 03/03 A3017 RMK AO2,KFKR,2023-11-05T04:15:00Z,40.2748,-86.5644,3,3,250,3,,3,30.17,,,TRUE,TRUE,,,,,,BR,OVC,2000,,,,,,,MVFR,,,,,,,,,,,,METAR,260
KFKN 050415Z AUTO 00000KT 10SM CLR 05/04 A3011 RMK AO2 T00470040,KFKN,2023-11-05T04:15:00Z,36.6984,-76.9032,4.7,4,0,0,,10+,30.11,,,TRUE,TRUE,,,,,,,CLR,,,,,,,,VFR,,,,,,,,,,,,METAR,9
KFKA 050415Z AUTO 20005KT 10SM CLR 05/01 A3013 RMK AO2,KFKA,2023-11-05T04:15:00Z,43.677,-92.174,5,1,200,5,,10+,30.13,,,TRUE,TRUE,,,,,,,CLR,,,,,,,,VFR,,,,,,,,,,,,METAR,388
KFIN 050415Z AUTO 32003KT 10SM CLR 15/09 A3009 RMK AO2 T01510089,KFIN,2023-11-05T04:15:00Z,29.467,-81.207,15.1,8.9,320,3,,10+,30.09,,,TRUE,TRUE,,,,,,,CLR,,,,,,,,VFR,,,,,,,,,,,,METAR,10
KFHB 050415Z AUTO 34006KT 10SM CLR 14/07 A3011 RMK AO2,KFHB,2023-11-05T04:15:00Z,30.6131,-81.4623,14,7,340,6,,10+,30.11,,,TRUE,TRUE,,,,,,,CLR,,,,,,,,VFR,,,,,,,,,,,,METAR,4
KFGX 050415Z AUTO 25004KT 10SM CLR 11/05 A3015 RMK AO2 T01120045,KFGX,2023-11-05T04:15:00Z,38.5383,-83.7467,11.2,4.5,250,4,,10+,30.15,,,TRUE,TRUE,,,,,,,CLR,,,,,,,,VFR,,,,,,,,,,,,METAR,279
KFGN 050415Z AUTO 08003KT 10SM CLR M01/M05 A3015 RMK AO2,KFGN,2023-11-05T04:15:00Z,49.318,-94.902,-1,-5,80,3,,10+,30.15,,,TRUE,TRUE,,,,,,,CLR,,,,,,,,VFR,,,,,,,,,,,,METAR,327
KFFX 050415Z AUTO 00000KT 7SM CLR 00/00 A3015 RMK AO2 T00041004,KFFX,2023-11-05T04:15:00Z,43.4417,-85.9936,0.4,-0.4,0,0,,7,30.15,,,TRUE,TRUE,,,,,,,CLR,,,,,,,,VFR,,,,,,,,,,,,METAR,234
KFFM 050415Z AUTO 07006KT 10SM CLR 01/M01 A3007 RMK AO2,KFFM,2023-11-05T04:15:00Z,46.2865,-96.1534,1,-1,70,6,,10+,30.07,,,TRUE,TRUE,,,,,,,CLR,,,,,,,,VFR,,,,,,,,,,,,METAR,362
KFFL 050415Z AUTO 25004KT 7SM CLR 04/01 A3018 RMK A01,KFFL,2023-11-05T04:15:00Z,41.0521,-91.9834,4,1,250,4,,7,30.18,,,TRUE,TRUE,,,,,,,CLR,,,,,,,,VFR,,,,,,,,,,,,METAR,240
KFET 050415Z AUTO 18004KT 10SM SCT065 09/05 A3017 RMK AO2 T00890046,KFET,2023-11-05T04:15:00Z,41.4489,-96.5237,8.9,4.6,180,4,,10+,30.17,,,TRUE,TRUE,,,,,,,SCT,6500,,,,,,,VFR,,,,,,,,,,,,METAR,366
KFEP 050415Z AUTO 00000KT 03/01 A3019 RMK AO2 T00270005,KFEP,2023-11-05T04:15:00Z,42.2475,-89.581,2.7,0.5,0,0,,,30.19,,,TRUE,TRUE,,,,,,,,,,,,,,,VFR,,,,,,,,,,,,METAR,255
KFDW 050415Z AUTO 32003KT 10SM CLR 08/00 A3013 RMK AO1,KFDW,2023-11-05T04:15:00Z,34.3151,-81.1119,8,0,320,3,,10+,30.13,,,TRUE,TRUE,,,,,,,CLR,,,,,,,,VFR,,,,,,,,,,,,METAR,174
KFBR 050415Z AUTO 26007KT 10SM SCT120 10/M04 A3022 RMK AO2 T01001040,KFBR,2023-11-05T04:15:00Z,41.3941,-110.406,10,-4,260,7,,10+,30.22,,,TRUE,TRUE,,,,,,,SCT,12000,,,,,,,VFR,,,,,,,,,,,,METAR,2140
KFBL 050415Z AUTO 16003KT 10SM CLR 04/01 A3011 RMK AO2,KFBL,2023-11-05T04:15:00Z,44.3298,-93.3119,4,1,160,3,,10+,30.11,,,TRUE,TRUE,,,,,,,CLR,,,,,,,,VFR,,,,,,,,,,,,METAR,318
KF70 050415Z AUTO 00000KT 10SM CLR 16/03 A3003 RMK AO2,KF70,2023-11-05T04:15:00Z,33.577,-117.126,16,3,0,0,,10+,30.03,,,TRUE,TRUE,,,,,,,CLR,,,,,,,,VFR,,,,,,,,,,,,METAR,406
KF46 050415Z AUTO 14006KT 10SM CLR 17/13 A3014 RMK AO2 T01710131,KF46,2023-11-05T04:15:00Z,32.9322,-96.4349,17.1,13.1,140,6,,10+,30.14,,,TRUE,TRUE,,,,,,,CLR,,,,,,,,VFR,,,,,,,,,,,,METAR,175
KF44 050415Z AUTO 00000KT 10SM CLR 13/12 A3014 RMK AO2,KF44,2023-11-05T04:15:00Z,32.165,-95.829,13,12,0,0,,10+,30.14,,,TRUE,TRUE,,,,,,,CLR,,,,,,,,VFR,,,,,,,,,,,,METAR,137
KF17 050415Z AUTO 00000KT 10SM CLR 12/10 A3016 RMK AO2,KF17,2023-11-05T04:15:00Z,31.8277,-94.154,12,10,0,0,,10+,30.16,,,TRUE,TRUE,,,,,,,CLR,,,,,,,,VFR,,,,,,,,,,,,METAR,93
KF05 050415Z AUTO 00000KT 10SM CLR 16/14 A3010 RMK AO2 T01640135,KF05,2023-11-05T04:15:00Z,34.2283,-99.2834,16.4,13.5,0,0,,10+,30.10,,,TRUE,TRUE,,,,,,,CLR,,,,,,,,VFR,,,,,,,,,,,,METAR,384
KF00 050415Z AUTO 17004KT 10SM CLR 15/14 A3014 RMK AO2 T01500136,KF00,2023-11-05T04:15:00Z,33.6158,-96.1809,15,13.6,170,4,,10+,30.14,,,TRUE,TRUE,,,,,,,CLR,,,,,,,,VFR,,,,,,,,,,,,METAR,189
KEZZ 050415Z AUTO 00000KT 7SM BR CLR 05/05 A3021 RMK AO2 T00520047,KEZZ,2023-11-05T04:15:00Z,39.729,-94.2785,5.2,4.7,0,0,,7,30.21,,,TRUE,TRUE,,,,,,BR,CLR,,,,,,,,VFR,,,,,,,,,,,,METAR,317
KEZS 050415Z AUTO 00000KT 10SM OVC070 01/M01 A3014 RMK AO2 T00111009,KEZS,2023-11-05T04:15:00Z,44.787,-88.5639,1.1,-0.9,0,0,,10+,30.14,,,TRUE,TRUE,,,,,,,OVC,7000,,,,,,,VFR,,,,,,,,,,,,METAR,247
KEZM 050415Z AUTO 00000KT 10SM CLR 05/05 A3018 RMK AO2,KEZM,2023-11-05T04:15:00Z,32.2136,-83.1321,5,5,0,0,,10+,30.18,,,TRUE,TRUE,,,,,,,CLR,,,,,,,,VFR,,,,,,,,,,,,METAR,86
KEZF 050415Z AUTO 00000KT 10SM CLR 06/02 A3009 RMK AO2 T00580021,KEZF,2023-11-05T04:15:00Z,38.2685,-77.448,5.8,2.1,0,0,,10+,30.09,,,TRUE,TRUE,,,,,,,CLR,,,,,,,,VFR,,,,,,,,,,,,METAR,26
KEVU 050415Z AUTO 21003KT 7SM CLR 06/03 A3020 RMK AO2 T00650040,KEVU,2023-11-05T04:15:00Z,40.3524,-94.9137,6.5,4,210,3,,7,30.20,,,TRUE,TRUE,,,,,,,CLR,,,,,,,,VFR,,,,,,,,,,,,METAR,351
KEVM 050415Z AUTO 06004KT 10SM SCT031 OVC060 M02/M04 A3015 RMK AO2 T10161040,KEVM,2023-11-05T04:15:00Z,47.4274,-92.4972,-1.6,-4,60,4,,10+,30.15,,,TRUE,TRUE,,,,,,,SCT,3100,OVC,6000,,,,,VFR,,,,,,,,,,,,METAR,419
KETB 050415Z AUTO 00000KT 7SM CLR M01/M01 A3016 RMK AO2,KETB,2023-11-05T04:15:00Z,43.4225,-88.1326,-1,-1,0,0,,7,30.16,,,TRUE,TRUE,,,,,,,CLR,,,,,,,,VFR,,,,,,,,,,,,METAR,269
KERY 050415Z AUTO 00000KT 10SM SCT050 SCT060 OVC075 02/00 A3013 RMK AO2 T00211003,KERY,2023-11-05T04:15:00Z,46.3151,-85.4568,2.1,-0.3,0,0,,10+,30.13,,,TRUE,TRUE,,,,,,,SCT,5000,SCT,6000,OVC,7500,,,VFR,,,,,,,,,,,,METAR,261
KERV 050415Z AUTO 00000KT 10SM CLR 13/11 A3015 RMK AO2 T01280110,KERV,2023-11-05T04:15:00Z,29.9779,-99.0872,12.8,11,0,0,,10+,30.15,,,TRUE,TRUE,,,,,,,CLR,,,,,,,,VFR,,,,,,,,,,,,METAR,483
KEQA 050415Z AUTO 10009KT 10SM CLR 12/04 A3017 RMK AO2,KEQA,2023-11-05T04:15:00Z,37.7753,-96.8145,12,4,100,9,,10+,30.17,,,TRUE,TRUE,,,,,,,CLR,,,,,,,,VFR,,,,,,,,,,,,METAR,422
KEOK 050415Z AUTO 24003KT 10SM SCT022 05/05 A3019 RMK A01,KEOK,2023-11-05T04:15:00Z,40.4615,-91.4274,5,5,240,3,,10+,30.19,,,TRUE,TRUE,,,,,,,SCT,2200,,,,,,,VFR,,,,,,,,,,,,METAR,206
KENL 050415Z AUTO 00000KT 10SM SCT095 BKN120 11/06 A3019 RMK AO2 T01130055,KENL,2023-11-05T04:15:00Z,38.5095,-89.09,11.3,5.5,0,0,,10+,30.19,,,TRUE,TRUE,,,,,,,SCT,9500,BKN,12000,,,,,VFR,,,,,,,,,,,,METAR,161
KEMM 050415Z AUTO 00000KT 10SM SCT090 BKN120 06/M02 A3019 RMK AO2,KEMM,2023-11-05T04:15:00Z,41.8224,-110.555,6,-2,0,0,,10+,30.19,,,TRUE,TRUE,,,,,,,SCT,9000,BKN,12000,,,,,VFR,,,,,,,,,,,,METAR,2219
KELO 050415Z AUTO 00000KT 10SM OVC080 M04/M04 A3015 RMK AO2,KELO,2023-11-05T04:15:00Z,47.8287,-91.8371,-4,-4,0,0,,10+,30.15,,,TRUE,TRUE,,,,,,,OVC,8000,,,,,,,VFR,,,,,,,,,,,,METAR,438
KELK 050415Z AUTO 03007KT 10SM CLR 13/12 A3014 RMK AO2 SLP490 T01270122 $,KELK,2023-11-05T04:15:00Z,35.4261,-99.3926,12.7,12.2,30,7,,10+,30.14,1049,,TRUE,TRUE,TRUE,,,,,,CLR,,,,,,,,VFR,,,,,,,,,,,,METAR,603
KELA 050415Z AUTO 16005KT 10SM CLR 18/15 A3013 RMK AO2 T01770154,KELA,2023-11-05T04:15:00Z,29.602,-96.3239,17.7,15.4,160,5,,10+,30.13,,,TRUE,TRUE,,,,,,,CLR,,,,,,,,VFR,,,,,,,,,,,,METAR,56
KEKX 050415Z AUTO 00000KT 10SM SCT120 11/07 A3015 RMK AO2 T01090071,KEKX,2023-11-05T04:15:00Z,37.6924,-85.9204,10.9,7.1,0,0,,10+,30.15,,,TRUE,TRUE,,,,,,,SCT,12000,,,,,,,VFR,,,,,,,,,,,,METAR,234
KEKS 050415Z AUTO 19013KT 10SM BKN050 OVC055 08/03 A3004 RMK AO2,KEKS,2023-11-05T04:15:00Z,45.276,-111.65,8,3,190,13,,10+,30.04,,,TRUE,TRUE,,,,,,,BKN,5000,OVC,5500,,,,,VFR,,,,,,,,,,,,METAR,1636
KEKM 050415Z AUTO 29003KT 2 1/2SM BR CLR 04/04 A3017 RMK AO2 T00430043 $,KEKM,2023-11-05T04:15:00Z,41.7222,-86,4.3,4.3,290,3,,2.5,30.17,,,TRUE,TRUE,TRUE,,,,,BR,CLR,,,,,,,,IFR,,,,,,,,,,,,METAR,236
KEKE 050415Z AUTO 07010KT 10SM FEW031 23/15 A3009 RMK A01,KEKE,2023-11-05T04:15:00Z,28.497,-91.578,23,15,70,10,,10+,30.09,,,TRUE,TRUE,,,,,,,FEW,3100,,,,,,,VFR,,,,,,,,,,,,METAR,31
KEIK 050415Z AUTO 00000KT 10SM CLR 06/M01 A3012 RMK AO2 T00611009,KEIK,2023-11-05T04:15:00Z,40.0117,-105.05,6.1,-0.9,0,0,,10+,30.12,,,TRUE,TRUE,,,,,,,CLR,,,,,,,,VFR,,,,,,,,,,,,METAR,1551
KEHY 050415Z AUTO 10SM 09/M13 A3014 RMK AO2 PWINO,KEHY,2023-11-05T04:15:00Z,41.725,-106.459,9,-13,,,,10+,30.14,,,TRUE,TRUE,,,,,,,,,,,,,,,VFR,,,,,,,,,,,,METAR,2239
KEHA 050415Z AUTO 17006KT 10SM CLR 07/03 A3023 RMK AO2 T00660028,KEHA,2023-11-05T04:15:00Z,37.0011,-101.88,6.6,2.8,170,6,,10+,30.23,,,TRUE,TRUE,,,,,,,CLR,,,,,,,,VFR,,,,,,,,,,,,METAR,1103
KEGV 050415Z AUTO 00000KT 10SM SCT034 OVC043 01/M02 A3012 RMK AO2 T00081018,KEGV,2023-11-05T04:15:00Z,45.9309,-89.267,0.8,-1.8,0,0,,10+,30.12,,,TRUE,TRUE,,,,,,,SCT,3400,OVC,4300,,,,,VFR,,,,,,,,,,,,METAR,499
KEGT 050415Z AUTO 08006KT 10SM CLR 10/06 A3018 RMK AO2 T01020057,KEGT,2023-11-05T04:15:00Z,37.3251,-97.3901,10.2,5.7,80,6,,10+,30.18,,,TRUE,TRUE,,,,,,,CLR,,,,,,,,VFR,,,,,,,,,,,,METAR,387
KEFT 050415Z AUTO 29006KT 10SM CLR 09/02 A3016 RMK AO2 T00860023,KEFT,2023-11-05T04:15:00Z,42.6196,-89.5931,8.6,2.3,290,6,,10+,30.16,,,TRUE,TRUE,,,,,,,CLR,,,,,,,,VFR,,,,,,,,,,,,METAR,332
KEFK 050415Z AUTO 34003KT 10SM BKN019 OVC025 06/06 A3006 RMK AO2 T00640055,KEFK,2023-11-05T04:15:00Z,44.8886,-72.2296,6.4,5.5,340,3,,10+,30.06,,,TRUE,TRUE,,,,,,,BKN,1900,OVC,2500,,,,,MVFR,,,,,,,,,,,,METAR,282
KEDU 050415Z AUTO 00000KT 10SM OVC120 16/12 A3002 RMK AO1,KEDU,2023-11-05T04:15:00Z,38.53,-121.788,16,12,0,0,,10+,30.02,,,TRUE,TRUE,,,,,,,OVC,12000,,,,,,,VFR,,,,,,,,,,,,METAR,20
KEDN 050415Z AUTO 00000KT 10SM CLR 11/09 A3016 RMK AO1 T01050090,KEDN,2023-11-05T04:15:00Z,31.299,-85.9,10.5,9,0,0,,10+,30.16,,,TRUE,TRUE,,,,,,,CLR,,,,,,,,VFR,,,,,,,,,,,,METAR,103
KEDJ 050415Z AUTO 00000KT 10SM SCT028 BKN032 OVC055 07/03 A3012 RMK A01,KEDJ,2023-11-05T04:15:00Z,40.3714,-83.8142,7,3,0,0,,10+,30.12,,,TRUE,TRUE,,,,,,,SCT,2800,BKN,3200,OVC,5500,,,VFR,,,,,,,,,,,,METAR,341
KEDC 050415Z AUTO 00000KT 9SM SCT042 17/15 A3011 RMK AO2,KEDC,2023-11-05T04:15:00Z,30.3926,-97.5621,17,15,0,0,,9,30.11,,,TRUE,TRUE,,,,,,,SCT,4200,,,,,,,VFR,,,,,,,,,,,,METAR,184
KECU 050415Z AUTO 17006KT 10SM CLR 16/12 A3020 RMK AO2,KECU,2023-11-05T04:15:00Z,29.948,-100.174,16,12,170,6,,10+,30.20,,,TRUE,TRUE,,,,,,,CLR,,,,,,,,VFR,,,,,,,,,,,,METAR,725
KECS 050415Z AUTO 12012KT 10SM SCT120 11/M03 A2999 RMK AO2,KECS,2023-11-05T04:15:00Z,43.8845,-104.312,11,-3,120,12,,10+,29.99,,,TRUE,TRUE,,,,,,,SCT,12000,,,,,,,VFR,,,,,,,,,,,,METAR,1273
KEBS 050415Z AUTO 20007KT 10SM CLR 04/M03 A3014 RMK AO2,KEBS,2023-11-05T04:15:00Z,42.4372,-93.8725,4,-3,200,7,,10+,30.14,,,TRUE,TRUE,,,,,,,CLR,,,,,,,,VFR,,,,,,,,,,,,METAR,340
KEBG 050415Z AUTO 13004KT 10SM CLR 19/16 A3010 RMK AO2,KEBG,2023-11-05T04:15:00Z,26.4433,-98.1255,19,16,130,4,,10+,30.10,,,TRUE,TRUE,,,,,,,CLR,,,,,,,,VFR,,,,,,,,,,,,METAR,21
KEBA 050415Z AUTO 00000KT 10SM CLR 07/02 A3015 RMK AO2 T00670021,KEBA,2023-11-05T04:15:00Z,34.0957,-82.8121,6.7,2.1,0,0,,10+,30.15,,,TRUE,TRUE,,,,,,,CLR,,,,,,,,VFR,,,,,,,,,,,,METAR,180
KEAN 050415Z AUTO 16003KT 10SM CLR 13/M06 A3004 RMK AO2 T01341056,KEAN,2023-11-05T04:15:00Z,42.0563,-104.939,13.4,-5.6,160,3,,10+,30.04,,,TRUE,TRUE,,,,,,,CLR,,,,,,,,VFR,,,,,,,,,,,,METAR,1452
KE77 050415Z AUTO 22007KT 10SM CLR 18/M07 A3016 RMK AO2,KE77,2023-11-05T04:15:00Z,32.634,-110.647,18,-7,220,7,,10+,30.16,,,TRUE,TRUE,,,,,,,CLR,,,,,,,,VFR,,,,,,,,,,,,METAR,989
KE57 050415Z AUTO 36005KT 10SM CLR 11/03 A3017 RMK AO2,KE57,2023-11-05T04:15:00Z,32.976,-102.843,11,3,360,5,,10+,30.17,,,TRUE,TRUE,,,,,,,CLR,,,,,,,,VFR,,,,,,,,,,,,METAR,1090
KE42 050415Z AUTO 13006KT 10SM CLR 08/06 A3019 RMK AO2 T00780059,KE42,2023-11-05T04:15:00Z,36.2193,-101.194,7.8,5.9,130,6,,10+,30.19,,,TRUE,TRUE,,,,,,,CLR,,,,,,,,VFR,,,,,,,,,,,,METAR,942
KE41 050415Z AUTO 19007KT 10SM CLR 15/11 A3015 RMK AO2 T01540114,KE41,2023-11-05T04:15:00Z,31.1945,-101.473,15.4,11.4,190,7,,10+,30.15,,,TRUE,TRUE,,,,,,,CLR,,,,,,,,VFR,,,,,,,,,,,,METAR,825
KE38 050415Z AUTO 21005KT 10SM CLR 15/02 A3026 RMK AO2 T01480019,KE38,2023-11-05T04:15:00Z,30.3851,-103.68,14.8,1.9,210,5,,10+,30.26,,,TRUE,TRUE,,,,,,,CLR,,,,,,,,VFR,,,,,,,,,,,,METAR,1372
KE11 050415Z AUTO 21010KT 10SM CLR 16/09 A3014 RMK AO2 T01630090,KE11,2023-11-05T04:15:00Z,32.3281,-102.528,16.3,9,210,10,,10+,30.14,,,TRUE,TRUE,,,,,,,CLR,,,,,,,,VFR,,,,,,,,,,,,METAR,966
KDZJ 050415Z AUTO 00000KT 10SM CLR 04/01 A3020 RMK AO2 T00400008,KDZJ,2023-11-05T04:15:00Z,34.8552,-84.0014,4,0.8,0,0,,10+,30.20,,,TRUE,TRUE,,,,,,,CLR,,,,,,,,VFR,,,,,,,,,,,,METAR,578
KDZB 050415Z AUTO 17005KT 10SM CLR 18/13 A3013 RMK AO2 T01820131,KDZB,2023-11-05T04:15:00Z,30.521,-98.3574,18.2,13.1,170,5,,10+,30.13,,,TRUE,TRUE,,,,,,,CLR,,,,,,,,VFR,,,,,,,,,,,,METAR,329
KDYT 050415Z AUTO 02008KT 10SM BKN013 BKN022 OVC050 02/M00 A3016 RMK AO2,KDYT,2023-11-05T04:15:00Z,46.7231,-92.0438,2,0,20,8,,10+,30.16,,,TRUE,TRUE,,,,,,,BKN,1300,BKN,2200,OVC,5000,,,MVFR,,,,,,,,,,,,METAR,185
KDYB 050415Z AUTO 33003KT 10SM SCT032 08/06 A3010 RMK AO2,KDYB,2023-11-05T04:15:00Z,33.062,-80.28,8,6,330,3,,10+,30.10,,,TRUE,TRUE,,,,,,,SCT,3200,,,,,,,VFR,,,,,,,,,,,,METAR,15
KDYA 050415Z AUTO 00000KT 10SM CLR 08/05 A3018 RMK AO2 T00750053,KDYA,2023-11-05T04:15:00Z,32.4641,-87.9504,7.5,5.3,0,0,,10+,30.18,,,TRUE,TRUE,,,,,,,CLR,,,,,,,,VFR,,,,,,,,,,,,METAR,33
KDXX 050415Z AUTO 30005KT 10SM CLR 04/03 A3008 RMK AO2,KDXX,2023-11-05T04:15:00Z,44.9839,-96.1789,4,3,300,5,,10+,30.08,,,TRUE,TRUE,,,,,,,CLR,,,,,,,,VFR,,,,,,,,,,,,METAR,327
KDWX 050415Z AUTO 00000KT 10SM CLR 02/M04 A3024 RMK AO2 T00191036,KDWX,2023-11-05T04:15:00Z,41.037,-107.5,1.9,-3.6,0,0,,10+,30.24,,,TRUE,TRUE,,,,,,,CLR,,,,,,,,VFR,,,,,,,,,,,,METAR,1974
KDVO 050415Z AUTO 00000KT 10SM SCT120 14/14 A3005 RMK AO2 PWINO,KDVO,2023-11-05T04:15:00Z,38.1417,-122.555,14,14,0,0,,10+,30.05,,,TRUE,TRUE,,,,,,,SCT,12000,,,,,,,VFR,,,,,,,,,,,,METAR,1
KDVK 050415Z AUTO 00000KT 10SM CLR 11/05 A3016 RMK AO2,KDVK,2023-11-05T04:15:00Z,37.5764,-84.7641,11,5,0,0,,10+,30.16,,,TRUE,TRUE,,,,,,,CLR,,,,,,,,VFR,,,,,,,,,,,,METAR,309
KDUX 050415Z AUTO 00000KT 10SM CLR 08/05 A3021 RMK AO2 T00800045,KDUX,2023-11-05T04:15:00Z,35.8608,-102.009,8,4.5,0,0,,10+,30.21,,,TRUE,TRUE,,,,,,,CLR,,,,,,,,VFR,,,,,,,,,,,,METAR,1129
KDUH 050415Z AUTO 00000KT 2 1/2SM BR CLR 04/04 A3010 RMK AO2 T00370036,KDUH,2023-11-05T04:15:00Z,41.7375,-83.6493,3.7,3.6,0,0,,2.5,30.10,,,TRUE,TRUE,,,,,,BR,CLR,,,,,,,,IFR,,,,,,,,,,,,METAR,203
KDUC 050415Z AUTO 12005KT 10SM CLR 16/14 A3013 RMK AO2 T01610139,KDUC,2023-11-05T04:15:00Z,34.4778,-97.9616,16.1,13.9,120,5,,10+,30.13,,,TRUE,TRUE,,,,,,,CLR,,,,,,,,VFR,,,,,,,,,,,,METAR,339
KDUA 050415Z AUTO 00000KT 10SM CLR 15/11 A3015 RMK AO2,KDUA,2023-11-05T04:15:00Z,33.9427,-96.3967,15,11,0,0,,10+,30.15,,,TRUE,TRUE,,,,,,,CLR,,,,,,,,VFR,,,,,,,,,,,,METAR,209
KDTL 050415Z AUTO 00000KT 10SM BKN015 BKN025 M00/M02 A3009 RMK AO2,KDTL,2023-11-05T04:15:00Z,46.8286,-95.8857,0,-2,0,0,,10+,30.09,,,TRUE,TRUE,,,,,,,BKN,1500,BKN,2500,,,,,MVFR,,,,,,,,,,,,METAR,425
KDTA 050415Z AUTO 16014KT 10SM CLR 08/M05 A3011 RMK AO1,KDTA,2023-11-05T04:15:00Z,39.3879,-112.504,8,-5,160,14,,10+,30.11,,,TRUE,TRUE,,,,,,,CLR,,,,,,,,VFR,,,,,,,,,,,,METAR,1452
KDRM 050415Z AUTO 00000KT 10SM SCT090 SCT120 03/00 A3012 RMK AO2 T00340002,KDRM,2023-11-05T04:15:00Z,46.009,-83.743,3.4,0.2,0,0,,10+,30.12,,,TRUE,TRUE,,,,,,,SCT,9000,SCT,12000,,,,,VFR,,,,,,,,,,,,METAR,201
KDRI 050415Z AUTO 00000KT 10SM CLR 13/11 A3017 RMK AO2 T01320109 $,KDRI,2023-11-05T04:15:00Z,30.8344,-93.3359,13.2,10.9,0,0,,10+,30.17,,,TRUE,TRUE,TRUE,,,,,,CLR,,,,,,,,VFR,,,,,,,,,,,,METAR,59
KDQH 050415Z AUTO 00000KT 10SM CLR 09/07 A3015 RMK AO2 T00890074,KDQH,2023-11-05T04:15:00Z,31.4739,-82.8609,8.9,7.4,0,0,,10+,30.15,,,TRUE,TRUE,,,,,,,CLR,,,,,,,,VFR,,,,,,,,,,,,METAR,76
KDNV 050415Z AUTO 00000KT 7SM CLR 05/03 A3020 RMK AO2 T00510029,KDNV,2023-11-05T04:15:00Z,40.2032,-87.5897,5.1,2.9,0,0,,7,30.20,,,TRUE,TRUE,,,,,,,CLR,,,,,,,,VFR,,,,,,,,,,,,METAR,208
KDNS 050415Z AUTO 20006KT 10SM CLR 07/03 A3017 RMK AO2,KDNS,2023-11-05T04:15:00Z,41.9842,-95.38,7,3,200,6,,10+,30.17,,,TRUE,TRUE,,,,,,,CLR,,,,,,,,VFR,,,,,,,,,,,,METAR,382
KDNN 050415Z AUTO 00000KT 10SM CLR 06/02 A3018 RMK AO2 T00580024,KDNN,2023-11-05T04:15:00Z,34.727,-84.8733,5.8,2.4,0,0,,10+,30.18,,,TRUE,TRUE,,,,,,,CLR,,,,,,,,VFR,,,,,,,,,,,,METAR,216
KDNA 050415Z AUTO 19005KT 10SM CLR 15/M07 A3019 RMK AO2,KDNA,2023-11-05T04:15:00Z,31.875,-106.694,15,-7,190,5,,10+,30.19,,,TRUE,TRUE,,,,,,,CLR,,,,,,,,VFR,,,,,,,,,,,,METAR,1254
KDLZ 050415Z AUTO 00000KT 10SM CLR 07/02 A3010 RMK AO2,KDLZ,2023-11-05T04:15:00Z,40.281,-83.114,7,2,0,0,,10+,30.10,,,TRUE,TRUE,,,,,,,CLR,,,,,,,,VFR,,,,,,,,,,,,METAR,287
KDLP 050415Z AUTO 11007KT 10SM CLR 21/14 A3007 RMK A01,KDLP,2023-11-05T04:15:00Z,29.121,-89.547,21,14,110,7,,10+,30.07,,,TRUE,TRUE,,,,,,,CLR,,,,,,,,VFR,,,,,,,,,,,,METAR,31
KDLO 050415Z AUTO 10003KT 10SM CLR 12/05 A3004 RMK AO2 T01150049,KDLO,2023-11-05T04:15:00Z,35.7449,-119.239,11.5,4.9,100,3,,10+,30.04,,,TRUE,TRUE,,,,,,,CLR,,,,,,,,VFR,,,,,,,,,,,,METAR,97
KDLL 050415Z AUTO 00000KT 10SM CLR 00/M01 A3014 RMK AO2 T00021006,KDLL,2023-11-05T04:15:00Z,43.5236,-89.7736,0.2,-0.6,0,0,,10+,30.14,,,TRUE,TRUE,,,,,,,CLR,,,,,,,,VFR,,,,,,,,,,,,METAR,297
KDKX 050415Z AUTO 00000KT 10SM CLR 07/04 A3018 RMK A01,KDKX,2023-11-05T04:15:00Z,35.9658,-83.8717,7,4,0,0,,10+,30.18,,,TRUE,TRUE,,,,,,,CLR,,,,,,,,VFR,,,,,,,,,,,,METAR,253
KDKR 050415Z AUTO 00000KT 7SM BKN046 BKN055 16/16 A3014 RMK AO2,KDKR,2023-11-05T04:15:00Z,31.3097,-95.4039,16,16,0,0,,7,30.14,,,TRUE,TRUE,,,,,,,BKN,4600,BKN,5500,,,,,VFR,,,,,,,,,,,,METAR,105
KDKB 050415Z AUTO 00000KT 10SM CLR 03/M01 A3018 RMK AO2 T00291009,KDKB,2023-11-05T04:15:00Z,41.9338,-88.7066,2.9,-0.9,0,0,,10+,30.18,,,TRUE,TRUE,,,,,,,CLR,,,,,,,,VFR,,,,,,,,,,,,METAR,277
KDEH 050415Z AUTO 00000KT 10SM BKN023 BKN029 BKN035 05/M01 A3013 RMK AO2,KDEH,2023-11-05T04:15:00Z,43.2755,-91.7433,5,-1,0,0,,10+,30.13,,,TRUE,TRUE,,,,,,,BKN,2300,BKN,2900,BKN,3500,,,MVFR,,,,,,,,,,,,METAR,348
KDCY 050415Z AUTO 29004KT 10SM BKN120 15/04 A3018 RMK AO2 T01450042,KDCY,2023-11-05T04:15:00Z,38.6953,-87.1314,14.5,4.2,290,4,,10+,30.18,,,TRUE,TRUE,,,,,,,BKN,12000,,,,,,,VFR,,,,,,,,,,,,METAR,143
KDCM 050415Z AUTO 00000KT 10SM CLR 07/00 A3014 RMK AO2,KDCM,2023-11-05T04:15:00Z,34.7908,-81.1987,7,0,0,0,,10+,30.14,,,TRUE,TRUE,,,,,,,CLR,,,,,,,,VFR,,,,,,,,,,,,METAR,191
KDBN 050415Z AUTO 00000KT 10SM CLR 07/05 A3017 RMK AO2,KDBN,2023-11-05T04:15:00Z,32.5632,-82.9855,7,5,0,0,,10+,30.17,,,TRUE,TRUE,,,,,,,CLR,,,,,,,,VFR,,,,,,,,,,,,METAR,90
KD95 050415Z AUTO 35003KT 5SM BR SCT043 02/02 A3011 RMK AO2 T00220022,KD95,2023-11-05T04:15:00Z,43.0675,-83.2702,2.2,2.2,350,3,,5,30.11,,,TRUE,TRUE,,,,,,BR,SCT,4300,,,,,,,MVFR,,,,,,,,,,,,METAR,253
KD73 050415Z AUTO 00000KT 10SM CLR 07/05 A3016 RMK AO2 T00700047,KD73,2023-11-05T04:15:00Z,33.7826,-83.6948,7,4.7,0,0,,10+,30.16,,,TRUE,TRUE,,,,,,,CLR,,,,,,,,VFR,,,,,,,,,,,,METAR,254
KD60 050415Z AUTO 12007KT 1/4SM FG OVC002 00/00 A2993 RMK AO2,KD60,2023-11-05T04:15:00Z,48.3834,-102.898,0,0,120,7,,0.25,29.93,,,TRUE,TRUE,,,,,,FG,OVC,200,,,,,,,LIFR,,,,,,,,,,,,METAR,682
KD57 050415Z AUTO 13010KT M1/4SM FZFG OVC002 M01/M00 A2996 RMK AO2,KD57,2023-11-05T04:15:00Z,46.814,-101.864,-1,0,130,10,,0.25,29.96,,,TRUE,TRUE,,,,,,FZFG,OVC,200,,,,,,,LIFR,,,,,,,,,,,,METAR,636
KD55 050415Z AUTO 15011KT 8SM OVC012 M02/M02 A3008 RMK AO2,KD55,2023-11-05T04:15:00Z,48.7519,-98.3971,-2,-2,150,11,,8,30.08,,,TRUE,TRUE,,,,,,,OVC,1200,,,,,,,MVFR,,,,,,,,,,,,METAR,488
KD50 050415Z AUTO 15006KT 4SM BR BKN007 BKN070 OVC100 00/00 A2991 RMK AO2,KD50,2023-11-05T04:15:00Z,48.9248,-103.296,0,0,150,6,,4,29.91,,,TRUE,TRUE,,,,,,BR,BKN,700,BKN,7000,OVC,10000,,,IFR,,,,,,,,,,,,METAR,591
KD39 050415Z AUTO 00000KT 10SM CLR 02/00 A3006 RMK AO2 T00190003,KD39,2023-11-05T04:15:00Z,45.7057,-94.9308,1.9,0.3,0,0,,10+,30.06,,,TRUE,TRUE,,,,,,,CLR,,,,,,,,VFR,,,,,,,,,,,,METAR,378
KD25 050415Z AUTO 34003KT 10SM BKN032 OVC048 02/M03 A3013 RMK AO2 T00151029,KD25,2023-11-05T04:15:00Z,46.1203,-89.88,1.5,-2.9,340,3,,10+,30.13,,,TRUE,TRUE,,,,,,,BKN,3200,OVC,4800,,,,,VFR,,,,,,,,,,,,METAR,490
KD09 050415Z AUTO 12011KT 4SM BR OVC003 M00/M00 A3002 RMK AO2,KD09,2023-11-05T04:15:00Z,48.83,-100.417,0,0,120,11,,4,30.02,,,TRUE,TRUE,,,,,,BR,OVC,300,,,,,,,LIFR,,,,,,,,,,,,METAR,512
KCZT 050415Z AUTO 00000KT 10SM CLR 16/12 A3010 RMK AO2,KCZT,2023-11-05T04:15:00Z,28.5204,-99.8192,16,12,0,0,,10+,30.10,,,TRUE,TRUE,,,,,,,CLR,,,,,,,,VFR,,,,,,,,,,,,METAR,176
KCZL 050415Z AUTO 00000KT 10SM 05/03 A3020 RMK AO2,KCZL,2023-11-05T04:15:00Z,34.45,-84.936,5,3,0,0,,10+,30.20,,,TRUE,TRUE,,,,,,,,,,,,,,,VFR,,,,,,,,,,,,METAR,197
KCYD 050415Z AUTO 07015KT 10SM BKN030 BKN036 BKN044 23/16 A3017 RMK A02 T02320161,KCYD,2023-11-05T04:15:00Z,28.169,-89.223,23.2,16.1,70,15,,10+,30.17,,,TRUE,TRUE,,,,,,,BKN,3000,BKN,3600,BKN,4400,,,MVFR,,,,,,,,,,,,METAR,30
KCXW 050415Z AUTO 00000KT 8SM SCT031 BKN046 OVC110 12/12 A3016 RMK A01,KCXW,2023-11-05T04:15:00Z,35.0217,-92.5506,12,12,0,0,,8,30.16,,,TRUE,TRUE,,,,,,,SCT,3100,BKN,4600,OVC,11000,,,VFR,,,,,,,,,,,,METAR,84
KCXU 050415Z AUTO 00000KT 10SM CLR 09/07 A3016 RMK AO1 T00880073,KCXU,2023-11-05T04:15:00Z,31.2141,-84.2358,8.8,7.3,0,0,,10+,30.16,,,TRUE,TRUE,,,,,,,CLR,,,,,,,,VFR,,,,,,,,,,,,METAR,48
KCXP 050415Z AUTO 30005KT 10SM CLR 13/01 A3010 RMK AO2,KCXP,2023-11-05T04:15:00Z,39.1905,-119.732,13,1,300,5,,10+,30.10,,,TRUE,TRUE,,,,,,,CLR,,,,,,,,VFR,,,,,,,,,,,,METAR,1431
KCXE 050415Z AUTO 00000KT 10SM CLR 07/02 A3011 RMK AO1 T00680019,KCXE,2023-11-05T04:15:00Z,36.7923,-78.5027,6.8,1.9,0,0,,10+,30.11,,,TRUE,TRUE,,,,,,,CLR,,,,,,,,VFR,,,,,,,,,,,,METAR,154
KCWV 050415Z AUTO 00000KT 7SM CLR 06/05 A3015 RMK AO2 T00590049,KCWV,2023-11-05T04:15:00Z,32.193,-81.873,5.9,4.9,0,0,,7,30.15,,,TRUE,TRUE,,,,,,,CLR,,,,,,,,VFR,,,,,,,,,,,,METAR,32
KCWF 050415Z AUTO 00000KT 1/4SM FG OVC002 15/14 A3017 RMK AO2 T01450138,KCWF,2023-11-05T04:15:00Z,30.2216,-93.1467,14.5,13.8,0,0,,0.25,30.17,,,TRUE,TRUE,,,,,,FG,OVC,200,,,,,,,LIFR,,,,,,,,,,,,METAR,4
KCWC 050415Z AUTO 18005KT 10SM CLR 16/14 A3012 RMK AO2 T01630140,KCWC,2023-11-05T04:15:00Z,33.8629,-98.4914,16.3,14,180,5,,10+,30.12,,,TRUE,TRUE,,,,,,,CLR,,,,,,,,VFR,,,,,,,,,,,,METAR,304
KCWA 050415Z AUTO 00000KT 10SM SCT041 BKN070 OVC080 02/M01 A3013 RMK AO2,KCWA,2023-11-05T04:15:00Z,44.7795,-89.671,2,-1,0,0,,10+,30.13,,,TRUE,TRUE,,,,,,,SCT,4100,BKN,7000,OVC,8000,,,VFR,,,,,,,,,,,,METAR,387
KCVX 050415Z AUTO 00000KT 10SM SCT070 SCT080 01/M01 A3014 RMK AO2 T00051011,KCVX,2023-11-05T04:15:00Z,45.304,-85.2689,0.5,-1.1,0,0,,10+,30.14,,,TRUE,TRUE,,,,,,,SCT,7000,SCT,8000,,,,,VFR,,,,,,,,,,,,METAR,196
KCVH 050415Z AUTO 28006KT 10SM CLR 16/13 A3006 RMK A01,KCVH,2023-11-05T04:15:00Z,36.8919,-121.41,16,13,280,6,,10+,30.06,,,TRUE,TRUE,,,,,,,CLR,,,,,,,,VFR,,,,,,,,,,,,METAR,68
KCVC 050415Z AUTO 00000KT 10SM CLR 07/05 A3016 RMK AO2,KCVC,2023-11-05T04:15:00Z,33.6312,-83.8482,7,5,0,0,,10+,30.16,,,TRUE,TRUE,,,,,,,CLR,,,,,,,,VFR,,,,,,,,,,,,METAR,240
KCUL 050415Z AUTO 33005KT 10SM SCT120 12/06 A3018 RMK AO2 T01160061,KCUL,2023-11-05T04:15:00Z,38.0887,-88.1212,11.6,6.1,330,5,,10+,30.18,,,TRUE,TRUE,,,,,,,SCT,12000,,,,,,,VFR,,,,,,,,,,,,METAR,116
KCUH 050415Z AUTO 00000KT 10SM BKN042 OVC070 16/12 A3014 RMK AO2 T01630115,KCUH,2023-11-05T04:15:00Z,35.949,-96.768,16.3,11.5,0,0,,10+,30.14,,,TRUE,TRUE,,,,,,,BKN,4200,OVC,7000,,,,,VFR,,,,,,,,,,,,METAR,274
KCTY 050415Z AUTO 00000KT 10SM SCT075 11/08 A3013 RMK AO2,KCTY,2023-11-05T04:15:00Z,29.6334,-83.1055,11,8,0,0,,10+,30.13,,,TRUE,TRUE,,,,,,,SCT,7500,,,,,,,VFR,,,,,,,,,,,,METAR,12
KCTJ 050415Z AUTO 00000KT 10SM CLR 06/03 A3022 RMK AO2 T00590027,KCTJ,2023-11-05T04:15:00Z,33.6313,-85.1538,5.9,2.7,0,0,,10+,30.22,,,TRUE,TRUE,,,,,,,CLR,,,,,,,,VFR,,,,,,,,,,,,METAR,351
KCSQ 050415Z AUTO 23006KT 10SM CLR 05/02 A3019 RMK AO2,KCSQ,2023-11-05T04:15:00Z,41.0188,-94.361,5,2,230,6,,10+,30.19,,,TRUE,TRUE,,,,,,,CLR,,,,,,,,VFR,,,,,,,,,,,,METAR,394
KCQW 050415Z AUTO 00000KT 10SM CLR 05/M01 A3012 RMK AO2,KCQW,2023-11-05T04:15:00Z,34.7128,-79.9622,5,-1,0,0,,10+,30.12,,,TRUE,TRUE,,,,,,,CLR,,,,,,,,VFR,,,,,,,,,,,,METAR,67
KCQM 050415Z AUTO 00000KT 10SM OVC070 M03/M04 A3015 RMK AO2,KCQM,2023-11-05T04:15:00Z,47.8199,-92.6817,-3,-4,0,0,,10+,30.15,,,TRUE,TRUE,,,,,,,OVC,7000,,,,,,,VFR,,,,,,,,,,,,METAR,406
KCQF 050415Z AUTO 00000KT 10SM CLR 10/10 A3017 RMK AO2,KCQF,2023-11-05T04:15:00Z,30.4618,-87.8749,10,10,0,0,,10+,30.17,,,TRUE,TRUE,,,,,,,CLR,,,,,,,,VFR,,,,,,,,,,,,METAR,21
KCPW 050415Z AUTO 22013G18KT 10SM CLR 00/M09 A3057 RMK AO2,KCPW,2023-11-05T04:15:00Z,37.464,-106.804,0,-9,220,13,18,10+,30.57,,,TRUE,TRUE,,,,,,,CLR,,,,,,,,VFR,,,,,,,,,,,,METAR,3570
KCPU 050415Z AUTO 00000KT 10SM CLR 16/06 A3005 RMK AO2 T01630060,KCPU,2023-11-05T04:15:00Z,38.1445,-120.645,16.3,6,0,0,,10+,30.05,,,TRUE,TRUE,,,,,,,CLR,,,,,,,,VFR,,,,,,,,,,,,METAR,400
KCPT 050415Z AUTO 14005KT 10SM CLR 16/15 A3013 RMK A01,KCPT,2023-11-05T04:15:00Z,32.3526,-97.435,16,15,140,5,,10+,30.13,,,TRUE,TRUE,,,,,,,CLR,,,,,,,,VFR,,,,,,,,,,,,METAR,260
KCPP 050415Z AUTO 00000KT 10SM CLR 09/04 A3016 RMK AO2,KCPP,2023-11-05T04:15:00Z,33.5991,-83.1401,9,4,0,0,,10+,30.16,,,TRUE,TRUE,,,,,,,CLR,,,,,,,,VFR,,,,,,,,,,,,METAR,207
KCPK 050415Z AUTO 00000KT 10SM CLR 06/05 A3009 RMK AO2 T00610053,KCPK,2023-11-05T04:15:00Z,36.6631,-76.3264,6.1,5.3,0,0,,10+,30.09,,,TRUE,TRUE,,,,,,,CLR,,,,,,,,VFR,,,,,,,,,,,,METAR,4
KCPF 050415Z AUTO 00000KT 10SM CLR 12/00 A3016 RMK AO2,KCPF,2023-11-05T04:15:00Z,37.3869,-83.2593,12,0,0,0,,10+,30.16,,,TRUE,TRUE,,,,,,,CLR,,,,,,,,VFR,,,,,,,,,,,,METAR,382
KCOQ 050415Z AUTO 03003KT 10SM OVC024 M01/M02 A3012 RMK AO2 TSNO,KCOQ,2023-11-05T04:15:00Z,46.6986,-92.5034,-1,-2,30,3,,10+,30.12,,,TRUE,TRUE,,,,,,,OVC,2400,,,,,,,MVFR,,,,,,,,,,,,METAR,390
KCOM 050415Z AUTO 21005KT 10SM CLR 15/12 A3011 RMK AO2 T01500123,KCOM,2023-11-05T04:15:00Z,31.8415,-99.4058,15,12.3,210,5,,10+,30.11,,,TRUE,TRUE,,,,,,,CLR,,,,,,,,VFR,,,,,,,,,,,,METAR,516
KCNI 050415Z AUTO 35003KT 10SM CLR 07/01 A3018 RMK AO2 T00680007,KCNI,2023-11-05T04:15:00Z,34.31,-84.424,6.8,0.7,350,3,,10+,30.18,,,TRUE,TRUE,,,,,,,CLR,,,,,,,,VFR,,,,,,,,,,,,METAR,371
KCNC 050415Z AUTO 25004KT 10SM 05/01 A3018 RMK AO2,KCNC,2023-11-05T04:15:00Z,41.0185,-93.3608,5,1,250,4,,10+,30.18,,,TRUE,TRUE,,,,,,,,,,,,,,,VFR,,,,,,,,,,,,METAR,319
KCNB 050415Z AUTO 32004KT 10SM CLR 05/04 A3009 RMK AO2 T00450042,KCNB,2023-11-05T04:15:00Z,44.7297,-96.2623,4.5,4.2,320,4,,10+,30.09,,,TRUE,TRUE,,,,,,,CLR,,,,,,,,VFR,,,,,,,,,,,,METAR,363
KCMR 050415Z AUTO 16010KT 10SM FEW032 FEW038 BKN049 06/M14 A3031 RMK AO2,KCMR,2023-11-05T04:15:00Z,35.3016,-112.197,6,-14,160,10,,10+,30.31,,,TRUE,TRUE,,,,,,,FEW,3200,FEW,3800,BKN,4900,,,VFR,,,,,,,,,,,,METAR,2039
KCMD 050415Z AUTO 00000KT 10SM CLR 07/05 A3019 RMK AO2,KCMD,2023-11-05T04:15:00Z,34.2722,-86.8583,7,5,0,0,,10+,30.19,,,TRUE,TRUE,,,,,,,CLR,,,,,,,,VFR,,,,,,,,,,,,METAR,294
KCLW 050415Z AUTO 00000KT 10SM CLR 18/M01 A3010 RMK AO2,KCLW,2023-11-05T04:15:00Z,27.9741,-82.7563,18,-1,0,0,,10+,30.10,,,TRUE,TRUE,,,,,,,CLR,,,,,,,,VFR,,,,,,,,,,,,METAR,21
KCLS 050415Z AUTO 00000KT 9SM FEW034 SCT048 BKN065 11/11 A2986 RMK AO2,KCLS,2023-11-05T04:15:00Z,46.6774,-122.986,11,11,0,0,,9,29.86,,,TRUE,TRUE,,,,,,,FEW,3400,SCT,4800,BKN,6500,,,VFR,,,,,,,,,,,,METAR,52
KCLK 050415Z AUTO 05006KT 10SM BKN049 13/11 A3016 RMK AO2,KCLK,2023-11-05T04:15:00Z,35.5381,-98.9336,13,11,50,6,,10+,30.16,,,TRUE,TRUE,,,,,,,BKN,4900,,,,,,,VFR,,,,,,,,,,,,METAR,489
KCLI 050415Z AUTO 00000KT 10SM CLR 00/M03 A3016 RMK AO2 T10051028,KCLI,2023-11-05T04:15:00Z,44.6152,-88.7313,-0.5,-2.8,0,0,,10+,30.16,,,TRUE,TRUE,,,,,,,CLR,,,,,,,,VFR,,,,,,,,,,,,METAR,248
KCKZ 050415Z AUTO 00000KT 10SM FEW034 SCT046 BKN060 07/07 A3011 RMK AO2,KCKZ,2023-11-05T04:15:00Z,40.3864,-75.2953,7,7,0,0,,10+,30.11,,,TRUE,TRUE,,,,,,,FEW,3400,SCT,4600,BKN,6000,,,VFR,,,,,,,,,,,,METAR,160
KCKP 050415Z AUTO 17004KT 10SM CLR 06/04 A3014 RMK AO2 T00550035,KCKP,2023-11-05T04:15:00Z,42.7304,-95.5538,5.5,3.5,170,4,,10+,30.14,,,TRUE,TRUE,,,,,,,CLR,,,,,,,,VFR,,,,,,,,,,,,METAR,369
KCKN 050415Z AUTO 09005KT 10SM OVC025 00/M02 A3012 RMK AO2,KCKN,2023-11-05T04:15:00Z,47.8404,-96.6201,0,-2,90,5,,10+,30.12,,,TRUE,TRUE,,,,,,,OVC,2500,,,,,,,MVFR,,,,,,,,,,,,METAR,272
KCKM 050415Z AUTO 00000KT 10SM 11/09 A3018 RMK A01,KCKM,2023-11-05T04:15:00Z,34.2945,-90.5146,11,9,0,0,,10+,30.18,,,TRUE,TRUE,,,,,,,,,,,,,,,VFR,,,,,,,,,,,,METAR,52
KCKI 050415Z AUTO 00000KT 10SM CLR 06/03 A3011 RMK AO2,KCKI,2023-11-05T04:15:00Z,33.7187,-79.8567,6,3,0,0,,10+,30.11,,,TRUE,TRUE,,,,,,,CLR,,,,,,,,VFR,,,,,,,,,,,,METAR,19
KCKF 050415Z AUTO 00000KT 10SM CLR 08/07 A3017 RMK AO2 T00800065,KCKF,2023-11-05T04:15:00Z,31.9889,-83.7739,8,6.5,0,0,,10+,30.17,,,TRUE,TRUE,,,,,,,CLR,,,,,,,,VFR,,,,,,,,,,,,METAR,92
KCKC 050415Z AUTO 01004KT 10SM OVC018 M04/M11 A3010 RMK AO2,KCKC,2023-11-05T04:15:00Z,47.8366,-90.3864,-4,-11,10,4,,10+,30.10,,,TRUE,TRUE,,,,,,,OVC,1800,,,,,,,MVFR,,,,,,,,,,,,METAR,544
KCJR 050415Z AUTO 01004KT 10SM CLR 05/M01 A3011 RMK AO2 T00471008,KCJR,2023-11-05T04:15:00Z,38.5261,-77.8574,4.7,-0.8,10,4,,10+,30.11,,,TRUE,TRUE,,,,,,,CLR,,,,,,,,VFR,,,,,,,,,,,,METAR,90
KCIR 050415Z AUTO 00000KT 10SM CLR 14/08 A3018 RMK AO2 T01370080,KCIR,2023-11-05T04:15:00Z,37.0639,-89.2232,13.7,8,0,0,,10+,30.18,,,TRUE,TRUE,,,,,,,CLR,,,,,,,,VFR,,,,,,,,,,,,METAR,96
KCIN 050415Z AUTO 21008KT 10SM CLR 06/03 A3015 RMK AO2,KCIN,2023-11-05T04:15:00Z,42.0444,-94.7888,6,3,210,8,,10+,30.15,,,TRUE,TRUE,,,,,,,CLR,,,,,,,,VFR,,,,,,,,,,,,METAR,365
KCHK 050415Z AUTO 00000KT 10SM BKN041 OVC049 15/14 A3010 RMK AO2 T01550135,KCHK,2023-11-05T04:15:00Z,35.0927,-97.9709,15.5,13.5,0,0,,10+,30.10,,,TRUE,TRUE,,,,,,,BKN,4100,OVC,4900,,,,,VFR,,,,,,,,,,,,METAR,346
KCGF 050415Z AUTO 00000KT 10SM SCT090 07/03 A3008 RMK AO2 T00700027,KCGF,2023-11-05T04:15:00Z,41.566,-81.4827,7,2.7,0,0,,10+,30.08,,,TRUE,TRUE,,,,,,,SCT,9000,,,,,,,VFR,,,,,,,,,,,,METAR,265
KCGC 050415Z AUTO 00000KT 10SM SCT080 12/05 A3011 RMK AO2,KCGC,2023-11-05T04:15:00Z,28.866,-82.5741,12,5,0,0,,10+,30.11,,,TRUE,TRUE,,,,,,,SCT,8000,,,,,,,VFR,,,,,,,,,,,,METAR,3
KCFS 050415Z AUTO 00000KT 5SM HZ CLR 03/00 A3010 RMK AO2 T00320003,KCFS,2023-11-05T04:15:00Z,43.4624,-83.4428,3.2,0.3,0,0,,5,30.10,,,TRUE,TRUE,,,,,,HZ,CLR,,,,,,,,MVFR,,,,,,,,,,,,METAR,214
KCFO 050415Z AUTO 19011KT 10SM CLR 11/M02 A3015 RMK AO2 T01071021,KCFO,2023-11-05T04:15:00Z,39.7948,-104.54,10.7,-2.1,190,11,,10+,30.15,,,TRUE,TRUE,,,,,,,CLR,,,,,,,,VFR,,,,,,,,,,,,METAR,1672
KCFJ 050415Z AUTO 00000KT 10SM CLR 05/01 A3018 RMK AO2 T00510014,KCFJ,2023-11-05T04:15:00Z,39.9767,-86.9148,5.1,1.4,0,0,,10+,30.18,,,TRUE,TRUE,,,,,,,CLR,,,,,,,,VFR,,,,,,,,,,,,METAR,243
KCFE 050415Z AUTO 17003KT 10SM BKN029 BKN034 05/02 A3006 RMK AO2,KCFE,2023-11-05T04:15:00Z,45.1601,-93.846,5,2,170,3,,10+,30.06,,,TRUE,TRUE,,,,,,,BKN,2900,BKN,3400,,,,,MVFR,,,,,,,,,,,,METAR,292
KCFD 050415Z AUTO 15006KT 10SM SCT039 SCT046 20/16 A3016 RMK AO2 T01970162,KCFD,2023-11-05T04:15:00Z,30.7171,-96.3347,19.7,16.2,150,6,,10+,30.16,,,TRUE,TRUE,,,,,,,SCT,3900,SCT,4600,,,,,VFR,,,,,,,,,,,,METAR,106
KCEY 050415Z AUTO 00000KT 10SM BKN042 BKN120 12/11 A3017 RMK A01,KCEY,2023-11-05T04:15:00Z,36.664,-88.372,12,11,0,0,,10+,30.17,,,TRUE,TRUE,,,,,,,BKN,4200,BKN,12000,,,,,VFR,,,,,,,,,,,,METAR,172
KCDN 050415Z AUTO 00000KT 10SM CLR 08/M04 A3013 RMK AO2,KCDN,2023-11-05T04:15:00Z,34.2815,-80.5636,8,-4,0,0,,10+,30.13,,,TRUE,TRUE,,,,,,,CLR,,,,,,,,VFR,,,,,,,,,,,,METAR,90
KCDI 050415Z AUTO 00000KT 10SM BKN060 04/03 A3009 RMK AO2 T00380031,KCDI,2023-11-05T04:15:00Z,39.976,-81.577,3.8,3.1,0,0,,10+,30.09,,,TRUE,TRUE,,,,,,,BKN,6000,,,,,,,VFR,,,,,,,,,,,,METAR,241
KCDH 050415Z AUTO 00000KT 9SM CLR 11/11 A3017 RMK AO2,KCDH,2023-11-05T04:15:00Z,33.619,-92.765,11,11,0,0,,9,30.17,,,TRUE,TRUE,,,,,,,CLR,,,,,,,,VFR,,,,,,,,,,,,METAR,38
KCDA 050415Z AUTO 02003KT 10SM OVC050 06/04 A3006 RMK AO2 T00560041,KCDA,2023-11-05T04:15:00Z,44.5677,-72.0191,5.6,4.1,20,3,,10+,30.06,,,TRUE,TRUE,,,,,,,OVC,5000,,,,,,,VFR,,,,,,,,,,,,METAR,357
KCCY 050415Z AUTO 19007KT 10SM OVC100 05/02 A3014 RMK AO2,KCCY,2023-11-05T04:15:00Z,43.073,-92.6132,5,2,190,7,,10+,30.14,,,TRUE,TRUE,,,,,,,OVC,10000,,,,,,,VFR,,,,,,,,,,,,METAR,340
KCCU 050415Z AUTO 17011KT 10SM CLR 03/M14 A3048 RMK AO2,KCCU,2023-11-05T04:15:00Z,39.475,-106.152,3,-14,170,11,,10+,30.48,,,TRUE,TRUE,,,,,,,CLR,,,,,,,,VFR,,,,,,,,,,,,METAR,3672
KCCB 050415Z AUTO 00000KT 10SM CLR 19/01 A3002 RMK AO2,KCCB,2023-11-05T04:15:00Z,34.1118,-117.685,19,1,0,0,,10+,30.02,,,TRUE,TRUE,,,,,,,CLR,,,,,,,,VFR,,,,,,,,,,,,METAR,440
KCCA 050415Z AUTO 00000KT 8SM FEW027 SCT047 BKN120 10/10 A3018 RMK AO2,KCCA,2023-11-05T04:15:00Z,35.5946,-92.4455,10,10,0,0,,8,30.18,,,TRUE,TRUE,,,,,,,FEW,2700,SCT,4700,BKN,12000,,,VFR,,,,,,,,,,,,METAR,152
KCBK 050415Z AUTO 17008KT 10SM CLR 09/02 A3017 RMK AO2 T00860021,KCBK,2023-11-05T04:15:00Z,39.4301,-101.051,8.6,2.1,170,8,,10+,30.17,,,TRUE,TRUE,,,,,,,CLR,,,,,,,,VFR,,,,,,,,,,,,METAR,970
KCBG 050415Z AUTO 00000KT 10SM OVC050 06/02 A3009 RMK AO2,KCBG,2023-11-05T04:15:00Z,45.557,-93.264,6,2,0,0,,10+,30.09,,,TRUE,TRUE,,,,,,,OVC,5000,,,,,,,VFR,,,,,,,,,,,,METAR,285
KCBF 050415Z AUTO 20008KT 9SM CLR 08/02 A3016 RMK AO2,KCBF,2023-11-05T04:15:00Z,41.2611,-95.7604,8,2,200,8,,9,30.16,,,TRUE,TRUE,,,,,,,CLR,,,,,,,,VFR,,,,,,,,,,,,METAR,379
KCAV 050415Z AUTO 19007KT 10SM FEW027 FEW075 03/01 A3015 RMK A01,KCAV,2023-11-05T04:15:00Z,42.743,-93.7592,3,1,190,7,,10+,30.15,,,TRUE,TRUE,,,,,,,FEW,2700,FEW,7500,,,,,VFR,,,,,,,,,,,,METAR,352
KCAD 050415Z AUTO 00000KT 1SM BR SCT002 BKN110 M04/M04 A3011 RMK AO2 T10381043,KCAD,2023-11-05T04:15:00Z,44.2785,-85.4207,-3.8,-4.3,0,0,,1,30.11,,,TRUE,TRUE,,,,,,BR,SCT,200,BKN,11000,,,,,IFR,,,,,,,,,,,,METAR,397
KC83 050415Z AUTO 24005G10KT 10SM CLR 17/12 A3003 RMK AO2,KC83,2023-11-05T04:15:00Z,37.8276,-121.624,17,12,240,5,10,10+,30.03,,,TRUE,TRUE,,,,,,,CLR,,,,,,,,VFR,,,,,,,,,,,,METAR,16
KC75 050415Z AUTO 00000KT 10SM CLR 02/00 A3018 RMK AO2 T00170000,KC75,2023-11-05T04:15:00Z,41.0231,-89.3886,1.7,0,0,0,,10+,30.18,,,TRUE,TRUE,,,,,,,CLR,,,,,,,,VFR,,,,,,,,,,,,METAR,166
KC65 050415Z AUTO 00000KT 1 1/2SM BR CLR 04/03 A3016 RMK A01,KC65,2023-11-05T04:15:00Z,41.3636,-86.2998,4,3,0,0,,1.5,30.16,,,TRUE,TRUE,,,,,,BR,CLR,,,,,,,,IFR,,,,,,,,,,,,METAR,241
KC62 050415Z AUTO 32004KT 7SM BKN025 06/06 A3014 RMK AO2 T00680063,KC62,2023-11-05T04:15:00Z,41.4739,-85.2541,6.8,6.3,320,4,,7,30.14,,,TRUE,TRUE,,,,,,,BKN,2500,,,,,,,MVFR,,,,,,,,,,,,METAR,304
KC35 050415Z AUTO 00000KT 10SM SCT095 00/00 A3015 RMK AO2 T10021002 PWINO,KC35,2023-11-05T04:15:00Z,43.5261,-89.9809,-0.2,-0.2,0,0,,10+,30.15,,,TRUE,TRUE,,,,,,,SCT,9500,,,,,,,VFR,,,,,,,,,,,,METAR,272
KC29 050415Z AUTO 00000KT 10SM CLR 00/00 A3017 RMK AO1 T00030003,KC29,2023-11-05T04:15:00Z,43.1153,-89.5312,0.3,0.3,0,0,,10+,30.17,,,TRUE,TRUE,,,,,,,CLR,,,,,,,,VFR,,,,,,,,,,,,METAR,282
KC09 050415Z AUTO 00000KT 10SM CLR 02/00 A3018 RMK AO2 T00210004,KC09,2023-11-05T04:15:00Z,41.4317,-88.4152,2.1,0.4,0,0,,10+,30.18,,,TRUE,TRUE,,,,,,,CLR,,,,,,,,VFR,,,,,,,,,,,,METAR,179
KC07 050415Z AUTO 26004KT 10SM CLR 01/M06 A3037 RMK AO2,KC07,2023-11-05T04:15:00Z,40.3544,-106.699,1,-6,260,4,,10+,30.37,,,TRUE,TRUE,,,,,,,CLR,,,,,,,,VFR,,,,,,,,,,,,METAR,3224
KBYY 050415Z AUTO 12005KT 10SM CLR 17/16 A3015 RMK AO2 T01750165,KBYY,2023-11-05T04:15:00Z,28.9717,-95.8584,17.5,16.5,120,5,,10+,30.15,,,TRUE,TRUE,,,,,,,CLR,,,,,,,,VFR,,,,,,,,,,,,METAR,12
KBYL 050415Z AUTO 00000KT 10SM CLR 10/02 A3017 RMK AO1,KBYL,2023-11-05T04:15:00Z,36.7954,-84.2013,10,2,0,0,,10+,30.17,,,TRUE,TRUE,,,,,,,CLR,,,,,,,,VFR,,,,,,,,,,,,METAR,355
KBXK 050415Z AUTO 36007KT 10SM OVC055 18/M07 A2998 RMK A01,KBXK,2023-11-05T04:15:00Z,33.4178,-112.688,18,-7,360,7,,10+,29.98,,,TRUE,TRUE,,,,,,,OVC,5500,,,,,,,VFR,,,,,,,,,,,,METAR,303
KBXA 050415Z AUTO 00000KT 10SM CLR 11/09 A3018 RMK AO2 T01080093,KBXA,2023-11-05T04:15:00Z,30.8104,-89.8627,10.8,9.3,0,0,,10+,30.18,,,TRUE,TRUE,,,,,,,CLR,,,,,,,,VFR,,,,,,,,,,,,METAR,35
KBWW 050415Z AUTO 18011KT 10SM BKN085 07/01 A2991 RMK AO2,KBWW,2023-11-05T04:15:00Z,46.1656,-103.296,7,1,180,11,,10+,29.91,,,TRUE,TRUE,,,,,,,BKN,8500,,,,,,,VFR,,,,,,,,,,,,METAR,911
KBWP 050415Z AUTO 33004KT 8SM FEW022 FEW029 00/M00 A3009 RMK AO2,KBWP,2023-11-05T04:15:00Z,46.2444,-96.6046,0,0,330,4,,8,30.09,,,TRUE,TRUE,,,,,,,FEW,2200,FEW,2900,,,,,VFR,,,,,,,,,,,,METAR,294
KBWD 050415Z AUTO 15004KT 10SM FEW040 14/13 A3012 RMK AO1,KBWD,2023-11-05T04:15:00Z,31.7898,-98.9522,14,13,150,4,,10+,30.12,,,TRUE,TRUE,,,,,,,FEW,4000,,,,,,,VFR,,,,,,,,,,,,METAR,420
KBVU 050415Z AUTO 03003KT 10SM CLR 15/M03 A3004 RMK AO2,KBVU,2023-11-05T04:15:00Z,35.9489,-114.863,15,-3,30,3,,10+,30.04,,,TRUE,TRUE,,,,,,,CLR,,,,,,,,VFR,,,,,,,,,,,,METAR,654
KBVS 050415Z AUTO 19009KT 10SM BKN018 OVC024 14/14 A2979 RMK A01,KBVS,2023-11-05T04:15:00Z,48.4696,-122.419,14,14,190,9,,10+,29.79,,,TRUE,TRUE,,,,,,,BKN,1800,OVC,2400,,,,,MVFR,,,,,,,,,,,,METAR,31
KBVN 050415Z AUTO 16003KT 7SM CLR 06/05 A3015 RMK AO2 T00640052,KBVN,2023-11-05T04:15:00Z,41.7301,-98.0546,6.4,5.2,160,3,,7,30.15,,,TRUE,TRUE,,,,,,,CLR,,,,,,,,VFR,,,,,,,,,,,,METAR,547
KBVI 050415Z AUTO 00000KT 10SM SCT070 11/00 A3007 RMK AO2 T01121001,KBVI,2023-11-05T04:15:00Z,40.7735,-80.3825,11.2,-0.1,0,0,,10+,30.07,,,TRUE,TRUE,,,,,,,SCT,7000,,,,,,,VFR,,,,,,,,,,,,METAR,387
KBTN 050415Z AUTO 04005KT 1/4SM SN FZFG VV002 M02/M02 A3006 RMK AO2,KBTN,2023-11-05T04:15:00Z,45.8186,-97.7457,-2,-2,40,5,,0.25,30.06,,,TRUE,TRUE,,,,,,SN FZFG,OVX,0,,,,,,,LIFR,,,,,,,,,,,200,METAR,400
KBTA 050415Z AUTO 20008KT 10SM CLR 08/04 A3017 RMK AO2 T00760036,KBTA,2023-11-05T04:15:00Z,41.415,-96.109,7.6,3.6,200,8,,10+,30.17,,,TRUE,TRUE,,,,,,,CLR,,,,,,,,VFR,,,,,,,,,,,,METAR,400
KBRY 050415Z AUTO 00000KT 10SM FEW120 SCT150 BKN180 11/10 A3012 RMK AO2 T01060095 $,KBRY,2023-11-05T04:15:00Z,37.8079,-85.5011,10.6,9.5,0,0,,10+,30.12,,,TRUE,TRUE,TRUE,,,,,,FEW,12000,SCT,15000,BKN,18000,,,VFR,,,,,,,,,,,,METAR,192
KBRG 050415Z AUTO 27004KT 10SM CLR 12/M07 A3025 RMK AO2 T01171072,KBRG,2023-11-05T04:15:00Z,34.6477,-106.833,11.7,-7.2,270,4,,10+,30.25,,,TRUE,TRUE,,,,,,,CLR,,,,,,,,VFR,,,,,,,,,,,,METAR,1585
KBQX 050415Z AUTO 13008G13KT 10SM OVC070 25/17 A3015 RMK A01,KBQX,2023-11-05T04:15:00Z,28.493,-95.724,25,17,130,8,13,10+,30.15,,,TRUE,TRUE,,,,,,,OVC,7000,,,,,,,VFR,,,,,,,,,,,,METAR,34
KBQK 050415Z AUTO 32003KT 10SM CLR 07/05 A3012 RMK AO2 T00710049,KBQK,2023-11-05T04:15:00Z,31.2567,-81.4754,7.1,4.9,320,3,,10+,30.12,,,TRUE,TRUE,,,,,,,CLR,,,,,,,,VFR,,,,,,,,,,,,METAR,7
KBPG 050415Z AUTO 17008KT 10SM 15/11 A3012 RMK AO2 T01540113,KBPG,2023-11-05T04:15:00Z,32.2097,-101.525,15.4,11.3,170,8,,10+,30.12,,,TRUE,TRUE,,,,,,,,,,,,,,,VFR,,,,,,,,,,,,METAR,782
KBPC 050415Z AUTO 00000KT 10SM CLR 06/04 A3019 RMK AO2,KBPC,2023-11-05T04:15:00Z,35.8913,-101.027,6,4,0,0,,10+,30.19,,,TRUE,TRUE,,,,,,,CLR,,,,,,,,VFR,,,,,,,,,,,,METAR,844
KBNW 050415Z AUTO 22005KT 10SM CLR 07/03 A3015 RMK AO2,KBNW,2023-11-05T04:15:00Z,42.0486,-93.8486,7,3,220,5,,10+,30.15,,,TRUE,TRUE,,,,,,,CLR,,,,,,,,VFR,,,,,,,,,,,,METAR,350
KBNL 050415Z AUTO 00000KT 10SM CLR 05/03 A3014 RMK AO2,KBNL,2023-11-05T04:15:00Z,33.2601,-81.387,5,3,0,0,,10+,30.14,,,TRUE,TRUE,,,,,,,CLR,,,,,,,,VFR,,,,,,,,,,,,METAR,76
KBMT 050415Z AUTO 00000KT 1/2SM FG OVC065 14/14 A3017 RMK AO2 T01400135,KBMT,2023-11-05T04:15:00Z,30.0686,-94.2155,14,13.5,0,0,,0.5,30.17,,,TRUE,TRUE,,,,,,FG,OVC,6500,,,,,,,LIFR,,,,,,,,,,,,METAR,8
KBMC 050415Z AUTO 00000KT 10SM BKN120 A3007 RMK AO1,KBMC,2023-11-05T04:15:00Z,41.5463,-112.06,,,0,0,,10+,30.07,,,TRUE,TRUE,,,,,,,BKN,12000,,,,,,,VFR,,,,,,,,,,,,METAR,1289
KBKT 050415Z AUTO 00000KT 10SM CLR 08/03 A3011 RMK AO1 T00820028,KBKT,2023-11-05T04:15:00Z,37.082,-77.953,8.2,2.8,0,0,,10+,30.11,,,TRUE,TRUE,,,,,,,CLR,,,,,,,,VFR,,,,,,,,,,,,METAR,134
KBKS 050415Z AUTO 00000KT 10SM CLR 18/18 A3011 RMK AO2 SLP155 T01850177 $,KBKS,2023-11-05T04:15:00Z,27.2064,-98.1216,18.5,17.7,0,0,,10+,30.11,1015.5,,TRUE,TRUE,TRUE,,,,,,CLR,,,,,,,,VFR,,,,,,,,,,,,METAR,34
KBKN 050415Z AUTO 06006KT FEW060 12/10 A3015 RMK AO2,KBKN,2023-11-05T04:15:00Z,36.7431,-97.3479,12,10,60,6,,,30.15,,,TRUE,TRUE,,,,,,,FEW,6000,,,,,,,VFR,,,,,,,,,,,,METAR,208
KBJI 050415Z AUTO 06003KT 10SM OVC020 M01/M02 A3012 RMK AO2 T10151025,KBJI,2023-11-05T04:15:00Z,47.5076,-94.9279,-1.5,-2.5,60,3,,10+,30.12,,,TRUE,TRUE,,,,,,,OVC,2000,,,,,,,MVFR,,,,,,,,,,,,METAR,422
KBJC 050415Z AUTO 02003KT 10SM CLR 11/M03 A3014 RMK AO2,KBJC,2023-11-05T04:15:00Z,39.9008,-105.104,11,-3,20,3,,10+,30.14,,,TRUE,TRUE,,,,,,,CLR,,,,,,,,VFR,,,,,,,,,,,,METAR,1694
KBIJ 050415Z AUTO 00000KT 10SM CLR 07/06 A3017 RMK AO2,KBIJ,2023-11-05T04:15:00Z,31.4,-84.8939,7,6,0,0,,10+,30.17,,,TRUE,TRUE,,,,,,,CLR,,,,,,,,VFR,,,,,,,,,,,,METAR,63
KBIE 050415Z AUTO 00000KT 5SM BR SCT085 03/03 A3020 RMK AO2 T00320027,KBIE,2023-11-05T04:15:00Z,40.3005,-96.7517,3.2,2.7,0,0,,5,30.20,,,TRUE,TRUE,,,,,,BR,SCT,8500,,,,,,,MVFR,,,,,,,,,,,,METAR,398
KBHC 050415Z AUTO 00000KT 10SM CLR 07/06 A3014 RMK AO2,KBHC,2023-11-05T04:15:00Z,31.712,-82.3902,7,6,0,0,,10+,30.14,,,TRUE,TRUE,,,,,,,CLR,,,,,,,,VFR,,,,,,,,,,,,METAR,61
KBGF 050415Z AUTO 10SM CLR 07/02 A3017 RMK A01,KBGF,2023-11-05T04:15:00Z,35.174,-86.0678,7,2,,,,10+,30.17,,,TRUE,TRUE,,,,,,,CLR,,,,,,,,VFR,,,,,,,,,,,,METAR,295
KBGE 050415Z AUTO 00000KT 10SM CLR 13/07 A3016 RMK AO2 T01270075,KBGE,2023-11-05T04:15:00Z,30.9709,-84.6344,12.7,7.5,0,0,,10+,30.16,,,TRUE,TRUE,,,,,,,CLR,,,,,,,,VFR,,,,,,,,,,,,METAR,40
KBFR 050415Z AUTO 00000KT 10SM SCT100 SCT120 12/03 A3016 RMK AO2,KBFR,2023-11-05T04:15:00Z,38.8383,-86.446,12,3,0,0,,10+,30.16,,,TRUE,TRUE,,,,,,,SCT,10000,SCT,12000,,,,,VFR,,,,,,,,,,,,METAR,223
KBFA 050415Z AUTO 18005KT 9SM FEW027 M02/M03 A3014 RMK AO2,KBFA,2023-11-05T04:15:00Z,45.166,-84.924,-2,-3,180,5,,9,30.14,,,TRUE,TRUE,,,,,,,FEW,2700,,,,,,,VFR,,,,,,,,,,,,METAR,219
KBEC 050415Z AUTO 08005KT 10SM CLR 12/04 A3018 RMK AO2 T01150036,KBEC,2023-11-05T04:15:00Z,37.694,-97.215,11.5,3.6,80,5,,10+,30.18,,,TRUE,TRUE,,,,,,,CLR,,,,,,,,VFR,,,,,,,,,,,,METAR,421
KBEA 050415Z AUTO 00000KT 10SM CLR 16/13 A3012 RMK AO2 T01630133 PWINO,KBEA,2023-11-05T04:15:00Z,28.3692,-97.7953,16.3,13.3,0,0,,10+,30.12,,,TRUE,TRUE,,,,,,,CLR,,,,,,,,VFR,,,,,,,,,,,,METAR,83
KBDU 050415Z AUTO 00000KT 10SM CLR 08/M01 A3012 RMK AO2,KBDU,2023-11-05T04:15:00Z,40.0377,-105.227,8,-1,0,0,,10+,30.12,,,TRUE,TRUE,,,,,,,CLR,,,,,,,,VFR,,,,,,,,,,,,METAR,1614
KBDN 050415Z AUTO 00000KT 10SM CLR 09/06 A2991 RMK AO2,KBDN,2023-11-05T04:15:00Z,44.1006,-121.198,9,6,0,0,,10+,29.91,,,TRUE,TRUE,,,,,,,CLR,,,,,,,,VFR,,,,,,,,,,,,METAR,1044
KBDH 050415Z AUTO 24003KT 10SM CLR 04/03 A3006 RMK AO2,KBDH,2023-11-05T04:15:00Z,45.1111,-95.1258,4,3,240,3,,10+,30.06,,,TRUE,TRUE,,,,,,,CLR,,,,,,,,VFR,,,,,,,,,,,,METAR,341
KBDG 050415Z AUTO 34004KT 9SM CLR 07/M08 A3025 RMK AO2 T00731079 $,KBDG,2023-11-05T04:15:00Z,37.587,-109.481,7.3,-7.9,340,4,,9,30.25,,,TRUE,TRUE,TRUE,,,,,,CLR,,,,,,,,VFR,,,,,,,,,,,,METAR,1778
KBCK 050415Z AUTO 00000KT 10SM OVC085 M01/M01 A3014 RMK AO2 T10131015,KBCK,2023-11-05T04:15:00Z,44.2499,-90.85,-1.3,-1.5,0,0,,10+,30.14,,,TRUE,TRUE,,,,,,,OVC,8500,,,,,,,VFR,,,,,,,,,,,,METAR,256
KBCB 050415Z AUTO 00000KT 10SM CLR 08/M01 A3018 RMK AO2 T00821014,KBCB,2023-11-05T04:15:00Z,37.208,-80.4127,8.2,-1.4,0,0,,10+,30.18,,,TRUE,TRUE,,,,,,,CLR,,,,,,,,VFR,,,,,,,,,,,,METAR,642
KBBP 050415Z AUTO 00000KT 10SM CLR 04/03 A3012 RMK AO2,KBBP,2023-11-05T04:15:00Z,34.6228,-79.7354,4,3,0,0,,10+,30.12,,,TRUE,TRUE,,,,,,,CLR,,,,,,,,VFR,,,,,,,,,,,,METAR,44
KBBG 050415Z AUTO 00000KT 10SM BKN065 OVC090 15/10 A3020 RMK AO2,KBBG,2023-11-05T04:15:00Z,36.5259,-93.1969,15,10,0,0,,10+,30.20,,,TRUE,TRUE,,,,,,,BKN,6500,OVC,9000,,,,,VFR,,,,,,,,,,,,METAR,403
KBBD 050415Z AUTO 19006KT 10SM CLR 16/13 A3012 RMK AO2,KBBD,2023-11-05T04:15:00Z,31.1766,-99.3229,16,13,190,6,,10+,30.12,,,TRUE,TRUE,,,,,,,CLR,,,,,,,,VFR,,,,,,,,,,,,METAR,554
KBBB 050415Z AUTO 36004KT 7SM CLR M01/M01 A3007 RMK AO2,KBBB,2023-11-05T04:15:00Z,45.331,-95.6469,-1,-1,360,4,,7,30.07,,,TRUE,TRUE,,,,,,,CLR,,,,,,,,VFR,,,,,,,,,,,,METAR,315
KBAX 050415Z AUTO 00000KT 3/4SM BR OVC002 01/00 A3010 RMK AO2 VIS 1/4V5 T00120001,KBAX,2023-11-05T04:15:00Z,43.7774,-82.9828,1.2,0.1,0,0,,0.75,30.10,,,TRUE,TRUE,,,,,,BR,OVC,200,,,,,,,LIFR,,,,,,,,,,,,METAR,229
KBAM 050415Z AUTO 25005KT 10SM BKN120 14/00 A3004 RMK AO1,KBAM,2023-11-05T04:15:00Z,40.6048,-116.872,14,0,250,5,,10+,30.04,,,TRUE,TRUE,,,,,,,BKN,12000,,,,,,,VFR,,,,,,,,,,,,METAR,1381
KBAC 050415Z AUTO 07005KT 3SM BR OVC004 M02/M02 A3010 RMK AO2,KBAC,2023-11-05T04:15:00Z,46.9419,-98.0179,-2,-2,70,5,,3,30.10,,,TRUE,TRUE,,,,,,BR,OVC,400,,,,,,,LIFR,,,,,,,,,,,,METAR,423
KAZE 050415Z AUTO 00000KT 10SM CLR 10/09 A3014 RMK AO2 T00950088,KAZE,2023-11-05T04:15:00Z,31.8792,-82.6454,9.5,8.8,0,0,,10+,30.14,,,TRUE,TRUE,,,,,,,CLR,,,,,,,,VFR,,,,,,,,,,,,METAR,78
KAZC 050415Z AUTO 10SM CLR 07/M08 A3022 RMK AO2,KAZC,2023-11-05T04:15:00Z,36.959,-113.013,7,-8,,,,10+,30.22,,,TRUE,TRUE,,,,,,,CLR,,,,,,,,VFR,,,,,,,,,,,,METAR,1476
KAYS 050415Z AUTO 00000KT 10SM CLR 10/10 A3013 RMK AO2 T01010095,KAYS,2023-11-05T04:15:00Z,31.2466,-82.4014,10.1,9.5,0,0,,10+,30.13,,,TRUE,TRUE,,,,,,,CLR,,,,,,,,VFR,,,,,,,,,,,,METAR,42
KAXX 050415Z AUTO 00000KT 10SM CLR M06/M14 A3040 RMK AO2 T10591144,KAXX,2023-11-05T04:15:00Z,36.422,-105.29,-5.9,-14.4,0,0,,10+,30.40,,,TRUE,TRUE,,,,,,,CLR,,,,,,,,VFR,,,,,,,,,,,,METAR,2543
KAXV 050415Z AUTO 29004KT 10SM CLR 08/04 A3013 RMK AO2 PNO,KAXV,2023-11-05T04:15:00Z,40.4959,-84.2929,8,4,290,4,,10+,30.13,,,TRUE,TRUE,,,,,,,CLR,,,,,,,,VFR,,,,,,,,,,,,METAR,278
KAXS 050415Z AUTO 07007KT 10SM CLR 16/13 A3011 RMK AO2,KAXS,2023-11-05T04:15:00Z,34.6963,-99.3402,16,13,70,7,,10+,30.11,,,TRUE,TRUE,,,,,,,CLR,,,,,,,,VFR,,,,,,,,,,,,METAR,433
KAXH 050415Z AUTO 00000KT 7SM CLR 17/16 A3016 RMK AO2 T01710164,KAXH,2023-11-05T04:15:00Z,29.505,-95.476,17.1,16.4,0,0,,7,30.16,,,TRUE,TRUE,,,,,,,CLR,,,,,,,,VFR,,,,,,,,,,,,METAR,18
KAXA 050415Z AUTO 19008KT 10SM CLR 05/05 A3012 RMK A01,KAXA,2023-11-05T04:15:00Z,43.0796,-94.2723,5,5,190,8,,10+,30.12,,,TRUE,TRUE,,,,,,,CLR,,,,,,,,VFR,,,,,,,,,,,,METAR,371
KAWG 050415Z AUTO 28004KT 9SM CLR 04/04 A3017 RMK AO2,KAWG,2023-11-05T04:15:00Z,41.2749,-91.6746,4,4,280,4,,9,30.17,,,TRUE,TRUE,,,,,,,CLR,,,,,,,,VFR,,,,,,,,,,,,METAR,229
KAVQ 050415Z AUTO 00000KT 10SM 18/M07 A3002 RMK AO2 T01761066,KAVQ,2023-11-05T04:15:00Z,32.4112,-111.216,17.6,-6.6,0,0,,10+,30.02,,,TRUE,TRUE,,,,,,,,,,,,,,,VFR,,,,,,,,,,,,METAR,618
KAVK 050415Z AUTO 04007KT 10SM CLR 12/11 A3016 RMK AO2,KAVK,2023-11-05T04:15:00Z,36.7765,-98.6724,12,11,40,7,,10+,30.16,,,TRUE,TRUE,,,,,,,CLR,,,,,,,,VFR,,,,,,,,,,,,METAR,450
KAVC 050415Z AUTO 00000KT 10SM CLR 07/03 A3017 RMK AO2 T00710026,KAVC,2023-11-05T04:15:00Z,36.6854,-78.0523,7.1,2.6,0,0,,10+,30.17,,,TRUE,TRUE,,,,,,,CLR,,,,,,,,VFR,,,,,,,,,,,,METAR,119
KAUN 050415Z AUTO 00000KT 10SM BKN120 19/07 A3006 RMK A01,KAUN,2023-11-05T04:15:00Z,38.9553,-121.087,19,7,0,0,,10+,30.06,,,TRUE,TRUE,,,,,,,BKN,12000,,,,,,,VFR,,,,,,,,,,,,METAR,453
KAUM 050415Z AUTO 00000KT 10SM SCT065 OVC100 03/01 A3013 RMK AO2,KAUM,2023-11-05T04:15:00Z,43.6688,-92.9321,3,1,0,0,,10+,30.13,,,TRUE,TRUE,,,,,,,SCT,6500,OVC,10000,,,,,VFR,,,,,,,,,,,,METAR,376
KAUH 050415Z AUTO 18007KT 10SM CLR 07/05 A3017 RMK AO2 T00690048,KAUH,2023-11-05T04:15:00Z,40.8966,-97.9974,6.9,4.8,180,7,,10+,30.17,,,TRUE,TRUE,,,,,,,CLR,,,,,,,,VFR,,,,,,,,,,,,METAR,549
KATW 050415Z AUTO 27005KT 10SM CLR 01/M01 A3014 RMK AO2,KATW,2023-11-05T04:15:00Z,44.2519,-88.526,1,-1,270,5,,10+,30.14,,,TRUE,TRUE,,,,,,,CLR,,,,,,,,VFR,,,,,,,,,,,,METAR,266
KATS 050415Z AUTO 17004KT 10SM CLR 15/M07 A3015 RMK AO2,KATS,2023-11-05T04:15:00Z,32.8524,-104.464,15,-7,170,4,,10+,30.15,,,TRUE,TRUE,,,,,,,CLR,,,,,,,,VFR,,,,,,,,,,,,METAR,1073
KATA 050415Z AUTO 00000KT 7SM CLR 10/10 A3014 RMK AO2 SLP106 T01040104 $,KATA,2023-11-05T04:15:00Z,33.1017,-94.1937,10.4,10.4,0,0,,7,30.14,1010.6,,TRUE,TRUE,TRUE,,,,,,CLR,,,,,,,,VFR,,,,,,,,,,,,METAR,85
KASW 050415Z AUTO 00000KT 7SM CLR 05/04 A3016 RMK AO2 T00560042,KASW,2023-11-05T04:15:00Z,41.274,-85.842,5.6,4.2,0,0,,7,30.16,,,TRUE,TRUE,,,,,,,CLR,,,,,,,,VFR,,,,,,,,,,,,METAR,253
KASN 050415Z AUTO 00000KT 10SM CLR 07/05 A3019 RMK AO2 T00670046,KASN,2023-11-05T04:15:00Z,33.569,-86.0519,6.7,4.6,0,0,,10+,30.19,,,TRUE,TRUE,,,,,,,CLR,,,,,,,,VFR,,,,,,,,,,,,METAR,159
KASL 050415Z AUTO 00000KT 9SM CLR 11/11 A3014 RMK AO2 T01150115 $,KASL,2023-11-05T04:15:00Z,32.5207,-94.3066,11.5,11.5,0,0,,9,30.14,,,TRUE,TRUE,TRUE,,,,,,CLR,,,,,,,,VFR,,,,,,,,,,,,METAR,104
KARW 050415Z AUTO 00000KT 10SM CLR 11/04 A3011 RMK AO2,KARW,2023-11-05T04:15:00Z,32.4104,-80.6335,11,4,0,0,,10+,30.11,,,TRUE,TRUE,,,,,,,CLR,,,,,,,,VFR,,,,,,,,,,,,METAR,2
KARV 050415Z AUTO 00000KT 10SM OVC046 02/M01 A3012 RMK AO2 T00151015,KARV,2023-11-05T04:15:00Z,45.9264,-89.7307,1.5,-1.5,0,0,,10+,30.12,,,TRUE,TRUE,,,,,,,OVC,4600,,,,,,,VFR,,,,,,,,,,,,METAR,494
KARM 050415Z AUTO 00000KT 10SM CLR A3015 RMK AO2 TSNO,KARM,2023-11-05T04:15:00Z,29.2515,-96.1508,,,0,0,,10+,30.15,,,TRUE,TRUE,,,,,,,CLR,,,,,,,,VFR,,,,,,,,,,,,METAR,29
KAQX 050415Z AUTO 00000KT 10SM CLR 07/04 A3012 RMK AO2 TSNO,KAQX,2023-11-05T04:15:00Z,32.9941,-81.271,7,4,0,0,,10+,30.12,,,TRUE,TRUE,,,,,,,CLR,,,,,,,,VFR,,,,,,,,,,,,METAR,48
KAQO 050415Z AUTO 00000KT 10SM FEW047 16/13 A3012 RMK AO2,KAQO,2023-11-05T04:15:00Z,30.7873,-98.6608,16,13,0,0,,10+,30.12,,,TRUE,TRUE,,,,,,,FEW,4700,,,,,,,VFR,,,,,,,,,,,,METAR,334
KAPY 050415Z AUTO 12005KT 10SM CLR 22/15 A3012 RMK AO2 T02180148 TSNO,KAPY,2023-11-05T04:15:00Z,26.969,-99.249,21.8,14.8,120,5,,10+,30.12,,,TRUE,TRUE,,,,,,,CLR,,,,,,,,VFR,,,,,,,,,,,,METAR,129
KAPS 050415Z AUTO 00000KT 5SM CLR 13/12 A3017 RMK AO2,KAPS,2023-11-05T04:15:00Z,30.086,-90.584,13,12,0,0,,5,30.17,,,TRUE,TRUE,,,,,,,CLR,,,,,,,,MVFR,,,,,,,,,,,,METAR,1
KANW 050415Z AUTO 18006KT 10SM CLR 04/03 A3008 RMK AO2 T00420026 TSNO,KANW,2023-11-05T04:15:00Z,42.5748,-99.9984,4.2,2.6,180,6,,10+,30.08,,,TRUE,TRUE,,,,,,,CLR,,,,,,,,VFR,,,,,,,,,,,,METAR,788
KANQ 050415Z AUTO 30005KT 7SM 06/06 A3013 RMK AO2,KANQ,2023-11-05T04:15:00Z,41.6404,-85.0852,6,6,300,5,,7,30.13,,,TRUE,TRUE,,,,,,,,,,,,,,,VFR,,,,,,,,,,,,METAR,299
KANK 050415Z AUTO 34007KT 10SM CLR 08/M12 A3037 RMK AO1 T00781122,KANK,2023-11-05T04:15:00Z,38.538,-106.049,7.8,-12.2,340,7,,10+,30.37,,,TRUE,TRUE,,,,,,,CLR,,,,,,,,VFR,,,,,,,,,,,,METAR,2293
KANE 050415Z AUTO 17005KT 10SM BKN060 08/02 A3008 RMK AO2,KANE,2023-11-05T04:15:00Z,45.1426,-93.2127,8,2,170,5,,10+,30.08,,,TRUE,TRUE,,,,,,,BKN,6000,,,,,,,VFR,,,,,,,,,,,,METAR,276
KAMN 050415Z AUTO 00000KT 1/2SM FG OVC003 01/00 A3011 RMK AO2 T00100002,KAMN,2023-11-05T04:15:00Z,43.3209,-84.6871,1,0.2,0,0,,0.5,30.11,,,TRUE,TRUE,,,,,,FG,OVC,300,,,,,,,LIFR,,,,,,,,,,,,METAR,228
KALX 050415Z AUTO 00000KT 10SM CLR 08/08 A3018 RMK AO2 T00760075,KALX,2023-11-05T04:15:00Z,32.916,-85.964,7.6,7.5,0,0,,10+,30.18,,,TRUE,TRUE,,,,,,,CLR,,,,,,,,VFR,,,,,,,,,,,,METAR,198
KALN 050415Z AUTO 00000KT 10SM SCT110 12/05 A3021 RMK AO2 T01220053,KALN,2023-11-05T04:15:00Z,38.8897,-90.0316,12.2,5.3,0,0,,10+,30.21,,,TRUE,TRUE,,,,,,,SCT,11000,,,,,,,VFR,,,,,,,,,,,,METAR,159
KALM 050415Z AUTO 06008KT 10SM FEW037 SCT047 BKN060 12/M10 A3019 RMK AO2,KALM,2023-11-05T04:15:00Z,32.8351,-105.994,12,-10,60,8,,10+,30.19,,,TRUE,TRUE,,,,,,,FEW,3700,SCT,4700,BKN,6000,,,VFR,,,,,,,,,,,,METAR,1267
KAJZ 050415Z AUTO 08006KT 10SM 08/M02 A3026 RMK AO2 T00801017,KAJZ,2023-11-05T04:15:00Z,38.7869,-108.066,8,-1.7,80,6,,10+,30.26,,,TRUE,TRUE,,,,,,,,,,,,,,,VFR,,,,,,,,,,,,METAR,1583
KAJR 050415Z AUTO 04003KT 10SM CLR 09/03 A3016 RMK AO2 T00860027,KAJR,2023-11-05T04:15:00Z,34.5006,-83.5519,8.6,2.7,40,3,,10+,30.16,,,TRUE,TRUE,,,,,,,CLR,,,,,,,,VFR,,,,,,,,,,,,METAR,441
KAJG 050415Z AUTO 32003KT 10SM BKN110 11/05 A3018 RMK AO2 T01110054,KAJG,2023-11-05T04:15:00Z,38.6093,-87.7251,11.1,5.4,320,3,,10+,30.18,,,TRUE,TRUE,,,,,,,BKN,11000,,,,,,,VFR,,,,,,,,,,,,METAR,130
KAIT 050415Z AUTO 03004KT 10SM OVC032 01/M02 A3012 RMK AO2,KAIT,2023-11-05T04:15:00Z,46.5483,-93.6754,1,-2,30,4,,10+,30.12,,,TRUE,TRUE,,,,,,,OVC,3200,,,,,,,VFR,,,,,,,,,,,,METAR,367
KAIO 050415Z AUTO 00000KT 10SM CLR 01/M00 A3018 RMK AO2,KAIO,2023-11-05T04:15:00Z,41.4059,-95.0465,1,0,0,0,,10+,30.18,,,TRUE,TRUE,,,,,,,CLR,,,,,,,,VFR,,,,,,,,,,,,METAR,349
KAIK 050415Z AUTO 28003KT 10SM CLR 04/01 A3015 RMK AO2 T00400012,KAIK,2023-11-05T04:15:00Z,33.651,-81.6821,4,1.2,280,3,,10+,30.15,,,TRUE,TRUE,,,,,,,CLR,,,,,,,,VFR,,,,,,,,,,,,METAR,155
KAIG 050415Z AUTO 00000KT 10SM SCT050 BKN060 OVC070 M01/M02 A3014 RMK AO2 T10071025,KAIG,2023-11-05T04:15:00Z,45.1566,-89.1115,-0.7,-2.5,0,0,,10+,30.14,,,TRUE,TRUE,,,,,,,SCT,5000,BKN,6000,OVC,7000,,,VFR,,,,,,,,,,,,METAR,462
KAID 050415Z AUTO 33003KT 10SM CLR 07/04 A3017 RMK AO2 T00670040,KAID,2023-11-05T04:15:00Z,40.1061,-85.6097,6.7,4,330,3,,10+,30.17,,,TRUE,TRUE,,,,,,,CLR,,,,,,,,VFR,,,,,,,,,,,,METAR,277
KAHQ 050415Z AUTO 18005KT 10SM CLR 05/04 A3017 RMK AO2 T00490035,KAHQ,2023-11-05T04:15:00Z,41.241,-96.594,4.9,3.5,180,5,,10+,30.17,,,TRUE,TRUE,,,,,,,CLR,,,,,,,,VFR,,,,,,,,,,,,METAR,372
KAGO 050415Z AUTO 00000KT 2 1/2SM BR SCT050 11/10 A3015 RMK A01,KAGO,2023-11-05T04:15:00Z,33.2266,-93.2154,11,10,0,0,,2.5,30.15,,,TRUE,TRUE,,,,,,BR,SCT,5000,,,,,,,IFR,,,,,,,,,,,,METAR,91
KAGI 050415Z AUTO 08009KT 10SM CLR 23/15 A3014 RMK AO2 T02300155,KAGI,2023-11-05T04:15:00Z,27.546,-92.443,23,15.5,80,9,,10+,30.14,,,TRUE,TRUE,,,,,,,CLR,,,,,,,,VFR,,,,,,,,,,,,METAR,41
KAFO 050415Z AUTO 00000KT 10SM SCT120 04/00 A3013 RMK AO2,KAFO,2023-11-05T04:15:00Z,42.7139,-110.944,4,0,0,0,,10+,30.13,,,TRUE,TRUE,,,,,,,SCT,12000,,,,,,,VFR,,,,,,,,,,,,METAR,1881
KAFK 050415Z AUTO 24007KT 10SM CLR 05/04 A3020 RMK AO2 T00530040,KAFK,2023-11-05T04:15:00Z,40.6065,-95.8635,5.3,4,240,7,,10+,30.20,,,TRUE,TRUE,,,,,,,CLR,,,,,,,,VFR,,,,,,,,,,,,METAR,353
KAEL 050415Z AUTO 00000KT 7SM SCT070 BKN100 05/03 A3012 RMK AO2,KAEL,2023-11-05T04:15:00Z,43.6823,-93.3722,5,3,0,0,,7,30.12,,,TRUE,TRUE,,,,,,,SCT,7000,BKN,10000,,,,,VFR,,,,,,,,,,,,METAR,382
KAEJ 050415Z AUTO 28005KT 10SM CLR 03/M07 A3032 RMK AO2 T00271069,KAEJ,2023-11-05T04:15:00Z,38.8116,-106.121,2.7,-6.9,280,5,,10+,30.32,,,TRUE,TRUE,,,,,,,CLR,,,,,,,,VFR,,,,,,,,,,,,METAR,2420
KAEG 050415Z AUTO 27006KT 10SM CLR 07/M11 A3028 RMK AO2 T00661111,KAEG,2023-11-05T04:15:00Z,35.15,-106.793,6.6,-11.1,270,6,,10+,30.28,,,TRUE,TRUE,,,,,,,CLR,,,,,,,,VFR,,,,,,,,,,,,METAR,1771
KADU 050415Z AUTO 00000KT 10SM 01/M01 A3017 RMK AO2,KADU,2023-11-05T04:15:00Z,41.6993,-94.9204,1,-1,0,0,,10+,30.17,,,TRUE,TRUE,,,,,,,,,,,,,,,VFR,,,,,,,,,,,,METAR,391
KADM 050415Z AUTO 00000KT 10SM BKN050 BKN055 13/12 A3013 RMK AO2,KADM,2023-11-05T04:15:00Z,34.3007,-97.0089,13,12,0,0,,10+,30.13,,,TRUE,TRUE,,,,,,,BKN,5000,BKN,5500,,,,,VFR,,,,,,,,,,,,METAR,223
KADH 050415Z AUTO 14003KT 10SM CLR 15/13 A3015 RMK AO2,KADH,2023-11-05T04:15:00Z,34.8021,-96.6701,15,13,140,3,,10+,30.15,,,TRUE,TRUE,,,,,,,CLR,,,,,,,,VFR,,,,,,,,,,,,METAR,301
KADC 050415Z AUTO 06006KT 10SM CLR 00/M03 A3008 RMK AO2,KADC,2023-11-05T04:15:00Z,46.4502,-95.2135,0,-3,60,6,,10+,30.08,,,TRUE,TRUE,,,,,,,CLR,,,,,,,,VFR,,,,,,,,,,,,METAR,416
KACQ 050415Z AUTO 16003KT 10SM CLR 03/00 A3012 RMK AO2,KACQ,2023-11-05T04:15:00Z,44.0702,-93.5535,3,0,160,3,,10+,30.12,,,TRUE,TRUE,,,,,,,CLR,,,,,,,,VFR,,,,,,,,,,,,METAR,339
KACP 050415Z AUTO 00000KT 10SM CLR 10/07 A3017 RMK AO2,KACP,2023-11-05T04:15:00Z,30.7469,-92.687,10,7,0,0,,10+,30.17,,,TRUE,TRUE,,,,,,,CLR,,,,,,,,VFR,,,,,,,,,,,,METAR,31
KACJ 050415Z AUTO 00000KT 10SM CLR 08/07 A3014 RMK AO2 T00830074 $,KACJ,2023-11-05T04:15:00Z,32.1106,-84.1841,8.3,7.4,0,0,,10+,30.14,,,TRUE,TRUE,TRUE,,,,,,CLR,,,,,,,,VFR,,,,,,,,,,,,METAR,140
KACB 050415Z AUTO 00000KT 10SM SCT026 SCT075 M02/M03 A3015 RMK AO2 T10181030,KACB,2023-11-05T04:15:00Z,44.9867,-85.2022,-1.8,-3,0,0,,10+,30.15,,,TRUE,TRUE,,,,,,,SCT,2600,SCT,7500,,,,,VFR,,,,,,,,,,,,METAR,189
KABR 050415Z AUTO 06005KT 4SM BR SCT005 01/00 A3007 RMK AO2 T00110000 $,KABR,2023-11-05T04:15:00Z,45.4436,-98.4138,1.1,0,60,5,,4,30.07,,,TRUE,TRUE,TRUE,,,,,BR,SCT,500,,,,,,,MVFR,,,,,,,,,,,,SPECI,397
KAAS 050415Z AUTO 00000KT 10SM CLR 12/06 A3015 RMK AO1,KAAS,2023-11-05T04:15:00Z,37.3569,-85.3151,12,6,0,0,,10+,30.15,,,TRUE,TRUE,,,,,,,CLR,,,,,,,,VFR,,,,,,,,,,,,METAR,270
KAAA 050415Z AUTO 00000KT 10SM CLR 04/02 A3020 RMK AO2 T00360018,KAAA,2023-11-05T04:15:00Z,40.1584,-89.339,3.6,1.8,0,0,,10+,30.20,,,TRUE,TRUE,,,,,,,CLR,,,,,,,,VFR,,,,,,,,,,,,METAR,179
KA39 050415Z AUTO 00000KT 10SM CLR 15/M03 A3003 RMK AO2,KA39,2023-11-05T04:15:00Z,32.9875,-111.922,15,-3,0,0,,10+,30.03,,,TRUE,TRUE,,,,,,,CLR,,,,,,,,VFR,,,,,,,,,,,,METAR,391
K9V9 050415Z AUTO 14004KT 10SM CLR 06/03 A3003 RMK AO2 T00590026,K9V9,2023-11-05T04:15:00Z,43.7653,-99.3163,5.9,2.6,140,4,,10+,30.03,,,TRUE,TRUE,,,,,,,CLR,,,,,,,,VFR,,,,,,,,,,,,METAR,511
K9S9 050415Z AUTO 00000G12KT 7SM FEW001 SCT037 BKN047 13/13 A2990 RMK AO2 PWINO,K9S9,2023-11-05T04:15:00Z,45.4551,-119.686,13,13,0,0,12,7,29.90,,,TRUE,TRUE,,,,,,,FEW,100,SCT,3700,BKN,4700,,,VFR,,,,,,,,,,,,METAR,498
K9MN 050415Z AUTO 00000KT 10SM BKN055 BKN070 06/00 A3013 RMK AO1 T00611002,K9MN,2023-11-05T04:15:00Z,44.0198,-92.4829,6.1,-0.2,0,0,,10+,30.13,,,TRUE,TRUE,,,,,,,BKN,5500,BKN,7000,,,,,VFR,,,,,,,,,,,,METAR,308
K9D7 050415Z AUTO 14013KT 6SM BR SCT006 OVC014 M01/M01 A3008 RMK AO2,K9D7,2023-11-05T04:15:00Z,48.4816,-99.2346,-1,-1,140,13,,6,30.08,,,TRUE,TRUE,,,,,,BR,SCT,600,OVC,1400,,,,,MVFR,,,,,,,,,,,,METAR,451
K9A5 050415Z AUTO 00000KT 10SM CLR A3019 RMK AO2,K9A5,2023-11-05T04:15:00Z,34.6846,-85.2899,,,0,0,,10+,30.19,,,TRUE,TRUE,,,,,,,CLR,,,,,,,,VFR,,,,,,,,,,,,METAR,234
K96D 050415Z AUTO 17003KT 4SM BR OVC004 M04/M04 A3012 RMK AO2,K96D,2023-11-05T04:15:00Z,48.9402,-97.9053,-4,-4,170,3,,4,30.12,,,TRUE,TRUE,,,,,,BR,OVC,400,,,,,,,LIFR,,,,,,,,,,,,METAR,290
K8W2 050415Z AUTO 00000KT 10SM CLR 04/M02 A3012 RMK AO1 T00351016,K8W2,2023-11-05T04:15:00Z,38.6554,-78.7083,3.5,-1.6,0,0,,10+,30.12,,,TRUE,TRUE,,,,,,,CLR,,,,,,,,VFR,,,,,,,,,,,,METAR,295
K8T6 050415Z AUTO 15003KT 10SM CLR 16/14 A3012 RMK AO2,K8T6,2023-11-05T04:15:00Z,28.3656,-98.1174,16,14,150,3,,10+,30.12,,,TRUE,TRUE,,,,,,,CLR,,,,,,,,VFR,,,,,,,,,,,,METAR,39
K8B0 050415Z AUTO 00000KT 10SM BKN017 BKN025 OVC046 05/05 A3004 RMK AO2,K8B0,2023-11-05T04:15:00Z,44.99,-70.6624,5,5,0,0,,10+,30.04,,,TRUE,TRUE,,,,,,,BKN,1700,BKN,2500,OVC,4600,,,MVFR,,,,,,,,,,,,METAR,552
K8A0 050415Z AUTO 00000KT 10SM CLR 11/03 A3018 RMK AO2,K8A0,2023-11-05T04:15:00Z,34.2316,-86.2481,11,3,0,0,,10+,30.18,,,TRUE,TRUE,,,,,,,CLR,,,,,,,,VFR,,,,,,,,,,,,METAR,313
K82V 050415Z AUTO 20008KT 10SM 04/M02 A3012 RMK AO2,K82V,2023-11-05T04:15:00Z,41.151,-104.129,4,-2,200,8,,10+,30.12,,,TRUE,TRUE,,,,,,,,,,,,,,,VFR,,,,,,,,,,,,METAR,1563
K82C 050415Z AUTO 00000KT 10SM OVC095 00/M01 A3014 RMK AO2 T00001011,K82C,2023-11-05T04:15:00Z,43.8385,-90.1345,0,-1.1,0,0,,10+,30.14,,,TRUE,TRUE,,,,,,,OVC,9500,,,,,,,VFR,,,,,,,,,,,,METAR,273
K81R 050415Z AUTO 15003KT 10SM CLR 17/13 A3014 RMK AO2 T01670130,K81R,2023-11-05T04:15:00Z,31.2321,-98.7154,16.7,13,150,3,,10+,30.14,,,TRUE,TRUE,,,,,,,CLR,,,,,,,,VFR,,,,,,,,,,,,METAR,381
K7W4 050415Z AUTO 00000KT 10SM CLR 06/02 A3010 RMK AO1 T00630022,K7W4,2023-11-05T04:15:00Z,37.9667,-77.7453,6.3,2.2,0,0,,10+,30.10,,,TRUE,TRUE,,,,,,,CLR,,,,,,,,VFR,,,,,,,,,,,,METAR,115
K7L2 050415Z AUTO 11007KT 1/4SM FG OVC003 01/01 A3004 RMK AO2,K7L2,2023-11-05T04:15:00Z,46.219,-100.245,1,1,110,7,,0.25,30.04,,,TRUE,TRUE,,,,,,FG,OVC,300,,,,,,,LIFR,,,,,,,,,,,,METAR,541
K7BM 050415Z AUTO 29007KT 240V020 10SM CLR 07/M15 A3038 RMK AO2,K7BM,2023-11-05T04:15:00Z,38.799,-106.219,7,-15,290,7,,10+,30.38,,,TRUE,TRUE,,,,,,,CLR,,,,,,,,VFR,,,,,,,,,,,,METAR,2996
K77S 050415Z AUTO 00000KT 10SM FEW017 SCT024 BKN046 13/13 A2992 RMK A01,K77S,2023-11-05T04:15:00Z,43.9324,-123.006,13,13,0,0,,10+,29.92,,,TRUE,TRUE,,,,,,,FEW,1700,SCT,2400,BKN,4600,,,VFR,,,,,,,,,,,,METAR,161
K74V 050415Z AUTO 27005KT 10SM CLR 07/M01 A3019 RMK AO2,K74V,2023-11-05T04:15:00Z,40.2799,-110.05,7,-1,270,5,,10+,30.19,,,TRUE,TRUE,,,,,,,CLR,,,,,,,,VFR,,,,,,,,,,,,METAR,1567
K6S2 050415Z AUTO 19005KT 6SM BR OVC003 14/14 A2991 RMK AO2,K6S2,2023-11-05T04:15:00Z,43.9838,-124.11,14,14,190,5,,6,29.91,,,TRUE,TRUE,,,,,,BR,OVC,300,,,,,,,LIFR,,,,,,,,,,,,METAR,16
K6R3 050415Z AUTO 00000KT 10SM CLR 16/15 A3017 RMK AO2 T01570146,K6R3,2023-11-05T04:15:00Z,30.358,-95.007,15.7,14.6,0,0,,10+,30.17,,,TRUE,TRUE,,,,,,,CLR,,,,,,,,VFR,,,,,,,,,,,,METAR,44
K6P9 050415Z AUTO 19005KT 10SM CLR 17/12 A3011 RMK AO2 T01680120,K6P9,2023-11-05T04:15:00Z,32.4294,-98.5959,16.8,12,190,5,,10+,30.11,,,TRUE,TRUE,,,,,,,CLR,,,,,,,,VFR,,,,,,,,,,,,METAR,451
K6I2 050415Z AUTO 00000KT 10SM CLR 14/07 A3015 RMK AO2,K6I2,2023-11-05T04:15:00Z,37.6352,-85.2418,14,7,0,0,,10+,30.15,,,TRUE,TRUE,,,,,,,CLR,,,,,,,,VFR,,,,,,,,,,,,METAR,258
K6B9 050415Z AUTO 00000KT 10SM OVC047 08/08 A3007 RMK AO2,K6B9,2023-11-05T04:15:00Z,42.9141,-76.4428,8,8,0,0,,10+,30.07,,,TRUE,TRUE,,,,,,,OVC,4700,,,,,,,VFR,,,,,,,,,,,,METAR,306
K6B0 050415Z AUTO 00000KT 10SM OVC070 07/02 A3006 RMK AO2 T00670021,K6B0,2023-11-05T04:15:00Z,43.9888,-73.0952,6.7,2.1,0,0,,10+,30.06,,,TRUE,TRUE,,,,,,,OVC,7000,,,,,,,VFR,,,,,,,,,,,,METAR,149
K6A2 050415Z AUTO 00000KT 10SM CLR 07/04 A3017 RMK AO2,K6A2,2023-11-05T04:15:00Z,33.227,-84.275,7,4,0,0,,10+,30.17,,,TRUE,TRUE,,,,,,,CLR,,,,,,,,VFR,,,,,,,,,,,,METAR,290
K6A1 050415Z AUTO 29005KT 10SM CLR 10/04 A3017 RMK AO2 T00990035,K6A1,2023-11-05T04:15:00Z,32.5733,-84.247,9.9,3.5,290,5,,10+,30.17,,,TRUE,TRUE,,,,,,,CLR,,,,,,,,VFR,,,,,,,,,,,,METAR,198
K66R 050415Z AUTO 00000KT 10SM CLR 17/16 A3014 RMK AO2 T01730159,K66R,2023-11-05T04:15:00Z,29.6382,-96.5137,17.3,15.9,0,0,,10+,30.14,,,TRUE,TRUE,,,,,,,CLR,,,,,,,,VFR,,,,,,,,,,,,METAR,70
K65S 050415Z AUTO 00000KT 3SM BR SCT003 OVC009 05/05 A2978 RMK AO2,K65S,2023-11-05T04:15:00Z,48.7255,-116.293,5,5,0,0,,3,29.78,,,TRUE,TRUE,,,,,,BR,SCT,300,OVC,900,,,,,IFR,,,,,,,,,,,,METAR,708
K63S 050415Z AUTO 00000KT 3/4SM BR SCT013 BKN065 BKN075 05/05 A2979 RMK A01,K63S,2023-11-05T04:15:00Z,48.544,-117.884,5,5,0,0,,0.75,29.79,,,TRUE,TRUE,,,,,,BR,SCT,1300,BKN,6500,BKN,7500,,,LIFR,,,,,,,,,,,,METAR,571
K60R 050415Z AUTO 14004KT 10SM CLR 19/17 A3012 RMK AO2 SLP118 T01870168 $,K60R,2023-11-05T04:15:00Z,30.368,-96.113,18.7,16.8,140,4,,10+,30.12,1011.8,,TRUE,TRUE,TRUE,,,,,,CLR,,,,,,,,VFR,,,,,,,,,,,,METAR,70
K5SM 050415Z AUTO 22012G17KT 10SM CLR 00/M07 A3046 RMK AO2,K5SM,2023-11-05T04:15:00Z,39.426,-107.38,0,-7,220,12,17,10+,30.46,,,TRUE,TRUE,,,,,,,CLR,,,,,,,,VFR,,,,,,,,,,,,METAR,3229
K5H4 050415Z AUTO 13008KT 6SM HZ OVC007 00/M11 A3005 RMK AO2,K5H4,2023-11-05T04:15:00Z,47.7906,-99.9346,0,-11,130,8,,6,30.05,,,TRUE,TRUE,,,,,,HZ,OVC,700,,,,,,,IFR,,,,,,,,,,,,METAR,490
K5C1 050415Z AUTO 00000KT 10SM CLR 12/11 A3015 RMK AO1,K5C1,2023-11-05T04:15:00Z,29.7267,-98.6964,12,11,0,0,,10+,30.15,,,TRUE,TRUE,,,,,,,CLR,,,,,,,,VFR,,,,,,,,,,,,METAR,422
K5A6 050415Z AUTO 00000KT 10SM CLR 07/05 A3017 RMK AO2 T00710054,K5A6,2023-11-05T04:15:00Z,33.469,-89.727,7.1,5.4,0,0,,10+,30.17,,,TRUE,TRUE,,,,,,,CLR,,,,,,,,VFR,,,,,,,,,,,,METAR,109
K57C 050415Z AUTO 00000KT 10SM CLR 01/01 A3017 RMK AO2 T00060006,K57C,2023-11-05T04:15:00Z,42.7971,-88.3655,0.6,0.6,0,0,,10+,30.17,,,TRUE,TRUE,,,,,,,CLR,,,,,,,,VFR,,,,,,,,,,,,METAR,454
K54J 050415Z AUTO 01005KT 10SM CLR 13/08 A3018 RMK AO2 T01260082,K54J,2023-11-05T04:15:00Z,30.7312,-86.1542,12.6,8.2,10,5,,10+,30.18,,,TRUE,TRUE,,,,,,,CLR,,,,,,,,VFR,,,,,,,,,,,,METAR,87
K54A 050415Z AUTO 01004KT 10SM BKN029 BKN033 BKN041 20/13 A3005 RMK AO2,K54A,2023-11-05T04:15:00Z,26.8601,-82.2468,20,13,10,4,,10+,30.05,,,TRUE,TRUE,,,,,,,BKN,2900,BKN,3300,BKN,4100,,,MVFR,,,,,,,,,,,,METAR,2
K4V0 050415Z AUTO 00000KT 10SM CLR 04/M02 A3019 RMK AO2 T00381022,K4V0,2023-11-05T04:15:00Z,40.0956,-108.762,3.8,-2.2,0,0,,10+,30.19,,,TRUE,TRUE,,,,,,,CLR,,,,,,,,VFR,,,,,,,,,,,,METAR,1602
K4S2 050415Z AUTO 00000KT 1/4SM FG OVC001 08/08 A2985 RMK AO2 P0001,K4S2,2023-11-05T04:15:00Z,45.6746,-121.535,8,8,0,0,,0.25,29.85,,,TRUE,TRUE,,,,,,FG,OVC,100,,,,,,,LIFR,,,,,,0.01,,,,,,METAR,183
K4S1 050415Z AUTO 20008KT 1 1/4SM -RA OVC003 A2994 RMK AO2,K4S1,2023-11-05T04:15:00Z,42.4161,-124.426,,,200,8,,1.25,29.94,,,TRUE,TRUE,,,,,,-RA,OVC,300,,,,,,,LIFR,,,,,,,,,,,,METAR,7
K4R5 050415Z AUTO 35006KT 10SM BKN019 OVC029 03/00 A3016 RMK AO2 T00271004,K4R5,2023-11-05T04:15:00Z,46.7887,-90.7559,2.7,-0.4,350,6,,10+,30.16,,,TRUE,TRUE,,,,,,,BKN,1900,OVC,2900,,,,,MVFR,,,,,,,,,,,,METAR,195
K4O4 050415Z AUTO 06003KT 10SM SCT039 OVC047 13/13 A3017 RMK AO2,K4O4,2023-11-05T04:15:00Z,33.9133,-94.8546,13,13,60,3,,10+,30.17,,,TRUE,TRUE,,,,,,,SCT,3900,OVC,4700,,,,,VFR,,,,,,,,,,,,METAR,148
K4M9 050415Z AUTO 31005KT 10SM SCT100 SCT120 16/13 A3017 RMK AO2 PWINO,K4M9,2023-11-05T04:15:00Z,36.404,-90.647,16,13,310,5,,10+,30.17,,,TRUE,TRUE,,,,,,,SCT,10000,SCT,12000,,,,,VFR,,,,,,,,,,,,METAR,86
K4I3 050415Z AUTO 29005KT 10SM BKN055 BKN120 08/03 A3010 RMK AO2,K4I3,2023-11-05T04:15:00Z,40.3268,-82.5201,8,3,290,5,,10+,30.10,,,TRUE,TRUE,,,,,,,BKN,5500,BKN,12000,,,,,VFR,,,,,,,,,,,,METAR,361
K4F2 050415Z AUTO 00000KT 7SM BR CLR 12/11 A3015 RMK AO2 T01180114,K4F2,2023-11-05T04:15:00Z,32.18,-94.2976,11.8,11.4,0,0,,7,30.15,,,TRUE,TRUE,,,,,,BR,CLR,,,,,,,,VFR,,,,,,,,,,,,METAR,76
K4BM 050415Z AUTO 18016G19KT 10SM CLR 03/M11 A3044 RMK AO2,K4BM,2023-11-05T04:15:00Z,39.05,-105.514,3,-11,180,16,19,10+,30.44,,,TRUE,TRUE,,,,,,,CLR,,,,,,,,VFR,,,,,,,,,,,,METAR,3432
K4B8 050415Z AUTO 00000KT 9SM BKN120 OVC140 08/05 A3008 RMK AO2 T00770052 $,K4B8,2023-11-05T04:15:00Z,41.69,-72.865,7.7,5.2,0,0,,9,30.08,,,TRUE,TRUE,TRUE,,,,,,BKN,12000,OVC,14000,,,,,VFR,,,,,,,,,,,,METAR,61
K4A9 050415Z AUTO 02003KT 10SM CLR 05/01 A3018 RMK AO2 T00540007,K4A9,2023-11-05T04:15:00Z,34.4759,-85.717,5.4,0.7,20,3,,10+,30.18,,,TRUE,TRUE,,,,,,,CLR,,,,,,,,VFR,,,,,,,,,,,,METAR,273
K4A6 050415Z AUTO 10SM 07/03 A3019 RMK AO2,K4A6,2023-11-05T04:15:00Z,34.688,-86.006,7,3,,,,10+,30.19,,,TRUE,TRUE,,,,,,,,,,,,,,,VFR,,,,,,,,,,,,METAR,191
K49A 050415Z AUTO 33004KT 10SM CLR 06/03 A3019 RMK AO2,K49A,2023-11-05T04:15:00Z,34.6301,-84.5271,6,3,330,4,,10+,30.19,,,TRUE,TRUE,,,,,,,CLR,,,,,,,,VFR,,,,,,,,,,,,METAR,449
K48A 050415Z AUTO 00000KT 10SM CLR 06/05 A3015 RMK AO2 T00640054,K48A,2023-11-05T04:15:00Z,32.3993,-83.2785,6.4,5.4,0,0,,10+,30.15,,,TRUE,TRUE,,,,,,,CLR,,,,,,,,VFR,,,,,,,,,,,,METAR,115
K46D 050415Z AUTO 12009KT 7SM OVC012 01/00 A3006 RMK A01,K46D,2023-11-05T04:15:00Z,47.4509,-99.1479,1,0,120,9,,7,30.06,,,TRUE,TRUE,,,,,,,OVC,1200,,,,,,,MVFR,,,,,,,,,,,,METAR,488
K42J 050415Z AUTO 34004KT 10SM CLR 14/02 A3010 RMK A01,K42J,2023-11-05T04:15:00Z,29.844,-82.05,14,2,340,4,,10+,30.10,,,TRUE,TRUE,,,,,,,CLR,,,,,,,,VFR,,,,,,,,,,,,METAR,57
K41U 050415Z AUTO 00000KT 10SM CLR 04/M05 A3017 RMK AO1 T00371047,K41U,2023-11-05T04:15:00Z,39.3323,-111.614,3.7,-4.7,0,0,,10+,30.17,,,TRUE,TRUE,,,,,,,CLR,,,,,,,,VFR,,,,,,,,,,,,METAR,1676
K40U 050415Z AUTO 00000KT 10SM CLR 04/M02 A3018 RMK AO2 T00451021,K40U,2023-11-05T04:15:00Z,40.986,-109.678,4.5,-2.1,0,0,,10+,30.18,,,TRUE,TRUE,,,,,,,CLR,,,,,,,,VFR,,,,,,,,,,,,METAR,1882
K3T5 050415Z AUTO 15004KT 10SM CLR 19/18 A3012 RMK AO2 T01870181 $,K3T5,2023-11-05T04:15:00Z,29.9064,-96.9478,18.7,18.1,150,4,,10+,30.12,,,TRUE,TRUE,TRUE,,,,,,CLR,,,,,,,,VFR,,,,,,,,,,,,METAR,96
K3S8 050415Z AUTO 00000KT 10SM BKN030 OVC038 12/11 A2999 RMK AO2,K3S8,2023-11-05T04:15:00Z,42.51,-123.388,12,11,0,0,,10+,29.99,,,TRUE,TRUE,,,,,,,BKN,3000,OVC,3800,,,,,MVFR,,,,,,,,,,,,METAR,339
K3R7 050415Z AUTO 00000KT 10SM CLR 14/14 A3018 RMK AO2 T01380138,K3R7,2023-11-05T04:15:00Z,30.2426,-92.6759,13.8,13.8,0,0,,10+,30.18,,,TRUE,TRUE,,,,,,,CLR,,,,,,,,VFR,,,,,,,,,,,,METAR,5
K3N8 050415Z AUTO 13005KT 10SM CLR M02/M03 A3010 RMK AO2 T10161027,K3N8,2023-11-05T04:15:00Z,47.26,-95.928,-1.6,-2.7,130,5,,10+,30.10,,,TRUE,TRUE,,,,,,,CLR,,,,,,,,VFR,,,,,,,,,,,,METAR,379
K3LF 050415Z AUTO 00000KT 10SM BKN120 10/05 A3021 RMK AO2 T00950045,K3LF,2023-11-05T04:15:00Z,39.1605,-89.6742,9.5,4.5,0,0,,10+,30.21,,,TRUE,TRUE,,,,,,,BKN,12000,,,,,,,VFR,,,,,,,,,,,,METAR,207
K3L4 050415Z AUTO 00000KT 6SM BR 17/17 A3016 RMK A01,K3L4,2023-11-05T04:15:00Z,29.8,-92.804,17,17,0,0,,6,30.16,,,TRUE,TRUE,,,,,,BR,,,,,,,,,VFR,,,,,,,,,,,,METAR,1
K3K3 050415Z AUTO 13004KT 10SM 05/02 A3019 RMK AO2,K3K3,2023-11-05T04:15:00Z,37.9988,-101.75,5,2,130,4,,10+,30.19,,,TRUE,TRUE,,,,,,,,,,,,,,,VFR,,,,,,,,,,,,METAR,1010
K3F3 050415Z AUTO 12003KT 10SM CLR 13/11 A3019 RMK AO2 T01340109,K3F3,2023-11-05T04:15:00Z,32.0718,-93.7641,13.4,10.9,120,3,,10+,30.19,,,TRUE,TRUE,,,,,,,CLR,,,,,,,,VFR,,,,,,,,,,,,METAR,96
K3D2 050415Z AUTO 00000KT 10SM OVC070 04/M01 A3012 RMK AO2 T00391013,K3D2,2023-11-05T04:15:00Z,45.1348,-87.1881,3.9,-1.3,0,0,,10+,30.12,,,TRUE,TRUE,,,,,,,OVC,7000,,,,,,,VFR,,,,,,,,,,,,METAR,233
K3AU 050415Z AUTO 09004KT 10SM CLR 11/02 A3018 RMK AO2,K3AU,2023-11-05T04:15:00Z,37.6729,-97.0792,11,2,90,4,,10+,30.18,,,TRUE,TRUE,,,,,,,CLR,,,,,,,,VFR,,,,,,,,,,,,METAR,403
K36K 050415Z AUTO 21004KT 10SM BKN031 08/07 A3022 RMK AO2,K36K,2023-11-05T04:15:00Z,37.9707,-101.255,8,7,210,4,,10+,30.22,,,TRUE,TRUE,,,,,,,BKN,3100,,,,,,,VFR,,,,,,,,,,,,METAR,938
K35A 050415Z AUTO 00000KT 10SM CLR 06/M01 A3018 RMK A02 T00561010,K35A,2023-11-05T04:15:00Z,34.6849,-81.6421,5.6,-1,0,0,,10+,30.18,,,TRUE,TRUE,,,,,,,CLR,,,,,,,,VFR,,,,,,,,,,,,METAR,186
K33V 050415Z AUTO 16006KT 10SM CLR 03/M06 A3028 RMK AO1,K33V,2023-11-05T04:15:00Z,40.7454,-106.275,3,-6,160,6,,10+,30.28,,,TRUE,TRUE,,,,,,,CLR,,,,,,,,VFR,,,,,,,,,,,,METAR,2486
K2V5 050415Z AUTO 22005KT 10SM CLR 08/00 A3014 RMK AO2,K2V5,2023-11-05T04:15:00Z,40.1,-102.241,8,0,220,5,,10+,30.14,,,TRUE,TRUE,,,,,,,CLR,,,,,,,,VFR,,,,,,,,,,,,METAR,1117
K2R9 050415Z AUTO 11003KT 10SM CLR 19/16 A3014 RMK AO2 T01910158,K2R9,2023-11-05T04:15:00Z,28.8267,-97.8676,19.1,15.8,110,3,,10+,30.14,,,TRUE,TRUE,,,,,,,CLR,,,,,,,,VFR,,,,,,,,,,,,METAR,88
K2R2 050415Z AUTO 36006KT 9SM CLR 07/05 A3017 RMK AO2 T00730051 $,K2R2,2023-11-05T04:15:00Z,39.7511,-86.4732,7.3,5.1,360,6,,9,30.17,,,TRUE,TRUE,TRUE,,,,,,CLR,,,,,,,,VFR,,,,,,,,,,,,METAR,273
K2P2 050415Z AUTO 00000KT 10SM BKN070 BKN110 04/02 A3012 RMK AO2 T00410016,K2P2,2023-11-05T04:15:00Z,45.388,-86.924,4.1,1.6,0,0,,10+,30.12,,,TRUE,TRUE,,,,,,,BKN,7000,BKN,11000,,,,,VFR,,,,,,,,,,,,METAR,182
K2M2 050415Z AUTO 00000KT 10SM SCT041 BKN049 BKN055 07/02 A3017 RMK A01,K2M2,2023-11-05T04:15:00Z,35.2372,-87.2611,7,2,0,0,,10+,30.17,,,TRUE,TRUE,,,,,,,SCT,4100,BKN,4900,BKN,5500,,,VFR,,,,,,,,,,,,METAR,286
K2J9 050415Z AUTO 00000KT 10SM CLR 10/09 A3017 RMK AO2,K2J9,2023-11-05T04:15:00Z,30.5987,-84.555,10,9,0,0,,10+,30.17,,,TRUE,TRUE,,,,,,,CLR,,,,,,,,VFR,,,,,,,,,,,,METAR,62
K2J5 050415Z AUTO 10SM CLR 05/04 A3015 RMK AO2 T00520042,K2J5,2023-11-05T04:15:00Z,32.8913,-81.9664,5.2,4.2,,,,10+,30.15,,,TRUE,TRUE,,,,,,,CLR,,,,,,,,VFR,,,,,,,,,,,,METAR,72
K2J3 050415Z AUTO 00000KT 10SM CLR 07/05 A3015 RMK AO2 T00670053,K2J3,2023-11-05T04:15:00Z,32.986,-82.3827,6.7,5.3,0,0,,10+,30.15,,,TRUE,TRUE,,,,,,,CLR,,,,,,,,VFR,,,,,,,,,,,,METAR,97
K2IS 050415Z AUTO 01013KT 10SM OVC012 21/19 A3004 RMK AO2 T02060186,K2IS,2023-11-05T04:15:00Z,26.739,-81.0528,20.6,18.6,10,13,,10+,30.04,,,TRUE,TRUE,,,,,,,OVC,1200,,,,,,,MVFR,,,,,,,,,,,,METAR,5
K2I0 050415Z AUTO 00000KT 10SM CLR 13/08 A3017 RMK AO2 T01310076,K2I0,2023-11-05T04:15:00Z,37.3582,-87.3977,13.1,7.6,0,0,,10+,30.17,,,TRUE,TRUE,,,,,,,CLR,,,,,,,,VFR,,,,,,,,,,,,METAR,127
K2G2 050415Z AUTO 23004KT 1SM HZ OVC050 11/M00 A3006 RMK A01,K2G2,2023-11-05T04:15:00Z,40.359,-80.7,11,0,230,4,,1,30.06,,,TRUE,TRUE,,,,,,HZ,OVC,5000,,,,,,,IFR,,,,,,,,,,,,METAR,365
K2D5 050415Z AUTO 07005KT 4SM BR OVC008 02/02 A3008 RMK AO2,K2D5,2023-11-05T04:15:00Z,46.1739,-98.083,2,2,70,5,,4,30.08,,,TRUE,TRUE,,,,,,BR,OVC,800,,,,,,,IFR,,,,,,,,,,,,METAR,407
K2C8 050415Z AUTO 17004KT 1 1/2SM BR OVC026 M05/M05 A3012 RMK AO2,K2C8,2023-11-05T04:15:00Z,48.7838,-97.6297,-5,-5,170,4,,1.5,30.12,,,TRUE,TRUE,,,,,,BR,OVC,2600,,,,,,,IFR,,,,,,,,,,,,METAR,271
K2A0 050415Z AUTO 00000KT 10SM OVC003 05/02 A3016 RMK A01,K2A0,2023-11-05T04:15:00Z,35.4817,-84.9322,5,2,0,0,,10+,30.16,,,TRUE,TRUE,,,,,,,OVC,300,,,,,,,LIFR,,,,,,,,,,,,METAR,219
K28J 050415Z AUTO 00000KT 10SM CLR 10/08 A3010 RMK AO2,K28J,2023-11-05T04:15:00Z,29.6602,-81.6918,10,8,0,0,,10+,30.10,,,TRUE,TRUE,,,,,,,CLR,,,,,,,,VFR,,,,,,,,,,,,METAR,9
K27K 050415Z AUTO 00000KT 10SM CLR 09/05 A3015 RMK AO1,K27K,2023-11-05T04:15:00Z,38.239,-84.4336,9,5,0,0,,10+,30.15,,,TRUE,TRUE,,,,,,,CLR,,,,,,,,VFR,,,,,,,,,,,,METAR,283
K24J 050415Z AUTO 00000KT 10SM FEW015 11/09 A3012 RMK A01,K24J,2023-11-05T04:15:00Z,30.299,-83.0226,11,9,0,0,,10+,30.12,,,TRUE,TRUE,,,,,,,FEW,1500,,,,,,,VFR,,,,,,,,,,,,METAR,30
K22N 050415Z AUTO 00000KT 10SM SCT080 OVC090 07/05 A3010 RMK AO2,K22N,2023-11-05T04:15:00Z,40.8116,-75.7647,7,5,0,0,,10+,30.10,,,TRUE,TRUE,,,,,,,SCT,8000,OVC,9000,,,,,VFR,,,,,,,,,,,,METAR,159
K21D 050415Z AUTO 00000KT 10SM BKN050 OVC060 06/01 A3010 RMK AO2,K21D,2023-11-05T04:15:00Z,45.0002,-92.8549,6,1,0,0,,10+,30.10,,,TRUE,TRUE,,,,,,,BKN,5000,OVC,6000,,,,,VFR,,,,,,,,,,,,METAR,281
K20V 050415Z AUTO 00000KT 10SM CLR 00/M04 A3031 RMK AO2,K20V,2023-11-05T04:15:00Z,40.0563,-106.374,0,-4,0,0,,10+,30.31,,,TRUE,TRUE,,,,,,,CLR,,,,,,,,VFR,,,,,,,,,,,,METAR,2259
K20U 050415Z AUTO 16008KT 10SM CLR 07/03 A2990 RMK AO2,K20U,2023-11-05T04:15:00Z,46.9251,-103.985,7,3,160,8,,10+,29.90,,,TRUE,TRUE,,,,,,,CLR,,,,,,,,VFR,,,,,,,,,,,,METAR,839
K1V6 050415Z AUTO 30008KT 10SM CLR 07/00 A3019 RMK AO2,K1V6,2023-11-05T04:15:00Z,38.4256,-105.105,7,0,300,8,,10+,30.19,,,TRUE,TRUE,,,,,,,CLR,,,,,,,,VFR,,,,,,,,,,,,METAR,1658
K1S5 050415Z AUTO 00000KT 1/4SM FG OVC001 09/09 A2981 RMK AO2 T00900086,K1S5,2023-11-05T04:15:00Z,46.3288,-119.974,9,8.6,0,0,,0.25,29.81,,,TRUE,TRUE,,,,,,FG,OVC,100,,,,,,,LIFR,,,,,,,,,,,,METAR,228
K1R8 050415Z AUTO 00000KT 10SM FEW033 BKN043 BKN049 11/10 A3017 RMK AO2,K1R8,2023-11-05T04:15:00Z,30.8691,-87.8184,11,10,0,0,,10+,30.17,,,TRUE,TRUE,,,,,,,FEW,3300,BKN,4300,BKN,4900,,,VFR,,,,,,,,,,,,METAR,76
K1R7 050415Z AUTO 00000KT 10SM CLR 11/11 A3019 RMK AO2 PWINO,K1R7,2023-11-05T04:15:00Z,31.6057,-90.4072,11,11,0,0,,10+,30.19,,,TRUE,TRUE,,,,,,,CLR,,,,,,,,VFR,,,,,,,,,,,,METAR,142
K1P1 050415Z AUTO 00000KT 10SM OVC065 06/05 A3007 RMK AO2 T00570045,K1P1,2023-11-05T04:15:00Z,43.7771,-71.756,5.7,4.5,0,0,,10+,30.07,,,TRUE,TRUE,,,,,,,OVC,6500,,,,,,,VFR,,,,,,,,,,,,METAR,155
K1M5 050415Z AUTO 00000KT 10SM BKN050 12/08 A3015 RMK A01,K1M5,2023-11-05T04:15:00Z,36.5956,-86.478,12,8,0,0,,10+,30.15,,,TRUE,TRUE,,,,,,,BKN,5000,,,,,,,VFR,,,,,,,,,,,,METAR,239
K1H2 050415Z AUTO 33003KT 10SM SCT120 10/06 A3020 RMK AO2 T01040055,K1H2,2023-11-05T04:15:00Z,39.0712,-88.5293,10.4,5.5,330,3,,10+,30.20,,,TRUE,TRUE,,,,,,,SCT,12000,,,,,,,VFR,,,,,,,,,,,,METAR,174
K1F0 050415Z AUTO 00000KT 10SM OVC050 15/13 A3013 RMK AO2 T01450128,K1F0,2023-11-05T04:15:00Z,34.1508,-97.1242,14.5,12.8,0,0,,10+,30.13,,,TRUE,TRUE,,,,,,,OVC,5000,,,,,,,VFR,,,,,,,,,,,,METAR,256
K1D8 050415Z AUTO 03006KT 5SM BR CLR 02/02 A3005 RMK AO2,K1D8,2023-11-05T04:15:00Z,44.86,-98.529,2,2,30,6,,5,30.05,,,TRUE,TRUE,,,,,,BR,CLR,,,,,,,,MVFR,,,,,,,,,,,,METAR,398
K1A9 050415Z AUTO 00000KT 10SM CLR 08/06 A3018 RMK AO2 T00800060,K1A9,2023-11-05T04:15:00Z,32.4374,-86.5098,8,6,0,0,,10+,30.18,,,TRUE,TRUE,,,,,,,CLR,,,,,,,,VFR,,,,,,,,,,,,METAR,65
K1A6 050415Z AUTO 00000KT 10SM CLR 07/03 A3020 RMK AO2 T00660030,K1A6,2023-11-05T04:15:00Z,36.6087,-83.7369,6.6,3,0,0,,10+,30.20,,,TRUE,TRUE,,,,,,,CLR,,,,,,,,VFR,,,,,,,,,,,,METAR,348
K19S 050415Z AUTO 16006KT 7SM CLR 08/07 A3019 RMK AO2 T00770073,K19S,2023-11-05T04:15:00Z,37.496,-100.834,7.7,7.3,160,6,,7,30.19,,,TRUE,TRUE,,,,,,,CLR,,,,,,,,VFR,,,,,,,,,,,,METAR,886
K18H 050415Z AUTO 06007G16KT 9SM 25/18 A3011 RMK A01,K18H,2023-11-05T04:15:00Z,26.132,-92.04,25,18,60,7,16,9,30.11,,,TRUE,TRUE,,,,,,,,,,,,,,,VFR,,,,,,,,,,,,METAR,30
K18A 050415Z AUTO 00000KT 10SM CLR 08/00 A3015 RMK AO2 T00831002,K18A,2023-11-05T04:15:00Z,34.3418,-83.1316,8.3,-0.2,0,0,,10+,30.15,,,TRUE,TRUE,,,,,,,CLR,,,,,,,,VFR,,,,,,,,,,,,METAR,260
K17J 050415Z AUTO 31003KT 10SM CLR 10/06 A3016 RMK AO2 T01040058,K17J,2023-11-05T04:15:00Z,31.0038,-84.8794,10.4,5.8,310,3,,10+,30.16,,,TRUE,TRUE,,,,,,,CLR,,,,,,,,VFR,,,,,,,,,,,,METAR,42
K15M 050415Z AUTO 00000KT 10SM CLR 09/05 A3018 RMK AO2 T00900046 $,K15M,2023-11-05T04:15:00Z,34.7745,-88.1676,9,4.6,0,0,,10+,30.18,,,TRUE,TRUE,TRUE,,,,,,CLR,,,,,,,,VFR,,,,,,,,,,,,METAR,192
K14Y 050415Z AUTO 02004KT 10SM CLR 02/00 A3007 RMK AO2,K14Y,2023-11-05T04:15:00Z,45.9017,-94.8727,2,0,20,4,,10+,30.07,,,TRUE,TRUE,,,,,,,CLR,,,,,,,,VFR,,,,,,,,,,,,METAR,404
K13K 050415Z AUTO 10005KT 10SM CLR 10/05 A3019 RMK AO2 T00980049,K13K,2023-11-05T04:15:00Z,37.8519,-96.2929,9.8,4.9,100,5,,10+,30.19,,,TRUE,TRUE,,,,,,,CLR,,,,,,,,VFR,,,,,,,,,,,,METAR,367
K11R 050415Z AUTO 00000KT 10SM CLR 20/16 A3014 RMK AO2 T01960163,K11R,2023-11-05T04:15:00Z,30.2232,-96.3734,19.6,16.3,0,0,,10+,30.14,,,TRUE,TRUE,,,,,,,CLR,,,,,,,,VFR,,,,,,,,,,,,METAR,87
K10G 050415Z AUTO 28004KT 10SM SCT055 11/02 A3009 RMK AO2,K10G,2023-11-05T04:15:00Z,40.5357,-81.9531,11,2,280,4,,10+,30.09,,,TRUE,TRUE,,,,,,,SCT,5500,,,,,,,VFR,,,,,,,,,,,,METAR,371
K0VG 050415Z AUTO 00000KT 10SM CLR 07/02 A3019 RMK AO2,K0VG,2023-11-05T04:15:00Z,36.6576,-83.2147,7,2,0,0,,10+,30.19,,,TRUE,TRUE,,,,,,,CLR,,,,,,,,VFR,,,,,,,,,,,,METAR,426
K0V4 050415Z AUTO 16005KT 10SM CLR 07/01 A3011 RMK AO1,K0V4,2023-11-05T04:15:00Z,37.1399,-79.0171,7,1,160,5,,10+,30.11,,,TRUE,TRUE,,,,,,,CLR,,,,,,,,VFR,,,,,,,,,,,,METAR,186
K0S9 050415Z AUTO 00000KT 10SM OVC025 12/10 A2977 RMK AO2,K0S9,2023-11-05T04:15:00Z,48.0554,-122.812,12,10,0,0,,10+,29.77,,,TRUE,TRUE,,,,,,,OVC,2500,,,,,,,MVFR,,,,,,,,,,,,METAR,33
K0F2 050415Z AUTO 14004KT 10SM OVC050 16/14 A3012 RMK AO2 T01590142,K0F2,2023-11-05T04:15:00Z,33.6011,-97.7735,15.9,14.2,140,4,,10+,30.12,,,TRUE,TRUE,,,,,,,OVC,5000,,,,,,,VFR,,,,,,,,,,,,METAR,330
K0E0 050415Z AUTO 00000KT 10SM CLR 04/M10 A3031 RMK AO2 T00441098,K0E0,2023-11-05T04:15:00Z,34.9837,-105.996,4.4,-9.8,0,0,,10+,30.31,,,TRUE,TRUE,,,,,,,CLR,,,,,,,,VFR,,,,,,,,,,,,METAR,1887
K0CO 050415Z AUTO 29022G30KT 10SM CLR M01/M16 A3044 RMK AO2,K0CO,2023-11-05T04:15:00Z,39.794,-105.764,-1,-16,290,22,30,10+,30.44,,,TRUE,TRUE,,,,,,,CLR,,,,,,,,VFR,,,,,,,,,,,,METAR,3804
K0A0 050415Z AUTO 34004KT 10SM 08/M13 A3022 RMK AO2,K0A0,2023-11-05T04:15:00Z,32.99,-106.967,8,-13,340,4,,10+,30.22,,,TRUE,TRUE,,,,,,,,,,,,,,,VFR,,,,,,,,,,,,METAR,1401
K08D 050415Z AUTO 15010KT 1/4SM FG OVC002 00/00 A2994 RMK AO2,K08D,2023-11-05T04:15:00Z,48.3018,-102.404,0,0,150,10,,0.25,29.94,,,TRUE,TRUE,,,,,,FG,OVC,200,,,,,,,LIFR,,,,,,,,,,,,METAR,683
K06D 050415Z AUTO 15011KT 3SM BR OVC003 M01/M01 A3003 RMK AO2,K06D,2023-11-05T04:15:00Z,48.8821,-99.6217,-1,-1,150,11,,3,30.03,,,TRUE,TRUE,,,,,,BR,OVC,300,,,,,,,LIFR,,,,,,,,,,,,METAR,554
K06C 050415Z AUTO 00000KT 5SM CLR 03/03 A3017 RMK AO2 T00330025,K06C,2023-11-05T04:15:00Z,41.9924,-88.1091,3.3,2.5,0,0,,5,30.17,,,TRUE,TRUE,,,,,,,CLR,,,,,,,,MVFR,,,,,,,,,,,,METAR,243
K05U 050415Z AUTO 31008KT 10SM 10/M08 A3015 RMK A01,K05U,2023-11-05T04:15:00Z,39.6015,-116.006,10,-8,310,8,,10+,30.15,,,TRUE,TRUE,,,,,,,,,,,,,,,VFR,,,,,,,,,,,,METAR,1813
K04W 050415Z AUTO 05004KT 10SM OVC050 03/M01 A3012 RMK AO2,K04W,2023-11-05T04:15:00Z,46.0244,-92.8991,3,-1,50,4,,10+,30.12,,,TRUE,TRUE,,,,,,,OVC,5000,,,,,,,VFR,,,,,,,,,,,,METAR,310
HECA 050415Z 05005KT 0100 R05L/0150 R23R/0150 R05C/5000 R23C/5000 R05R/6000 R23L/5000 FG VVV/// 20/20 Q1015 NOSIG,HECA,2023-11-05T04:15:00Z,30.133,31.405,20,20,50,5,,0.06,29.97,,,,,,,,,,FG,OVX,0,,,,,,,LIFR,,,,,,,,,,,,SPECI,142
ETOU 050415Z AUTO 18011KT 9999 -RA BKN029 BKN034 OVC046 09/08 A2882 RMK AO2 SLP763 $,ETOU,2023-11-05T04:15:00Z,50.048,8.329,9,8,180,11,,6+,28.82,976.3,,TRUE,TRUE,TRUE,,,,,-RA,BKN,2900,BKN,3400,OVC,4600,,,MVFR,,,,,,,,,,,,SPECI,141
EHEH 050415Z AUTO 20006KT 150V220 9999 FEW007 SCT009 BKN013 10/09 Q0970 GRN,EHEH,2023-11-05T04:15:00Z,51.45,5.377,10,9,200,6,,6+,28.64,,,TRUE,,,,,,,,FEW,700,SCT,900,BKN,1300,,,MVFR,,,,,,,,,,,,SPECI,20
EGUL 050415Z AUTO 12008KT 2400 -RA BR OVC002 07/06 A2858 RMK AO2 VIS 2400V5000 DZE00RAB15 SLP682 $,EGUL,2023-11-05T04:15:00Z,52.409,0.561,7,6,120,8,,1.49,28.58,968.2,,TRUE,TRUE,TRUE,,,,,-RA BR,OVC,200,,,,,,,LIFR,,,,,,,,,,,,SPECI,8
CYVL 050415Z AUTO 08007KT 9SM -SN OVC031 M10/M13 A3005 RMK SLP208,CYVL,2023-11-05T04:15:00Z,67.021,-126.129,-10,-13,80,7,,9,30.05,1020.8,,TRUE,,,,,,,-SN,OVC,3100,,,,,,,VFR,,,,,,,,,,,,SPECI,261
PAAQ 050414Z AUTO 28003KT 1/4SM FG VV001 00/M02 A2925 RMK AO2 I1000 T00001017 TSNO,PAAQ,2023-11-05T04:14:00Z,61.5951,-149.092,0,-1.7,280,3,,0.25,29.25,,,TRUE,TRUE,,,,,,FG,OVX,0,,,,,,,LIFR,,,,,,,,,,,100,SPECI,68
KMLP 050414Z AUTO 23006KT 1/2SM FG VV001 04/04 A2986 RMK AO2 T00390039,KMLP,2023-11-05T04:14:00Z,47.4548,-115.671,3.9,3.9,230,6,,0.5,29.86,,,TRUE,TRUE,,,,,,FG,OVX,0,,,,,,,LIFR,,,,,,,,,,,100,SPECI,1837
KGEG 050414Z 21014KT 10SM SCT009 OVC015 11/09 A2979 RMK AO2 T01110089,KGEG,2023-11-05T04:14:00Z,47.6217,-117.528,11.1,8.9,210,14,,10+,29.79,,,,TRUE,,,,,,,SCT,900,OVC,1500,,,,,MVFR,,,,,,,,,,,,SPECI,718
KAFP 050414Z AUTO 00000KT 10SM CLR 03/M01 A3014 RMK AO2 T00311013,KAFP,2023-11-05T04:14:00Z,35.0194,-80.0784,3.1,-1.3,0,0,,10+,30.14,,,TRUE,TRUE,,,,,,,CLR,,,,,,,,VFR,,,,,,,,,,,,METAR,91
CYUX 050414Z AUTO 32017KT 1 1/4SM -SN OVC007 M07/M08 A2985 RMK SLP113,CYUX,2023-11-05T04:14:00Z,68.772,-81.233,-7,-8,320,17,,1.25,29.85,1011.3,,TRUE,,,,,,,-SN,OVC,700,,,,,,,IFR,,,,,,,,,,,,SPECI,8
PAKV 050413Z AUTO 02008KT 3SM -SN OVC024 M08/M12 A2964 RMK AO2 P0000 T10831117 TSNO $,PAKV,2023-11-05T04:13:00Z,64.321,-158.732,-8.3,-11.7,20,8,,3,29.64,,,TRUE,TRUE,TRUE,,,,,-SN,OVC,2400,,,,,,,MVFR,,,,,,0.005,,,,,,SPECI,53
KXVG 050413Z AUTO 06004KT 10SM OVC027 M01/M03 A3012 RMK AO2,KXVG,2023-11-05T04:13:00Z,46.9942,-94.206,-1,-3,60,4,,10+,30.12,,,TRUE,TRUE,,,,,,,OVC,2700,,,,,,,MVFR,,,,,,,,,,,,METAR,407
KOWA 050413Z AUTO 16006KT 10SM SCT060 04/01 A3011 RMK AO2,KOWA,2023-11-05T04:13:00Z,44.1191,-93.2569,4,1,160,6,,10+,30.11,,,TRUE,TRUE,,,,,,,SCT,6000,,,,,,,VFR,,,,,,,,,,,,METAR,345
KORB 050413Z AUTO 00000KT 10SM CLR M03/M04 A3013 RMK AO2,KORB,2023-11-05T04:13:00Z,48.0171,-92.8538,-3,-4,0,0,,10+,30.13,,,TRUE,TRUE,,,,,,,CLR,,,,,,,,VFR,,,,,,,,,,,,METAR,407
KFOZ 050413Z AUTO 00000KT 10SM CLR M03/M04 A3018 RMK AO2,KFOZ,2023-11-05T04:13:00Z,47.7832,-93.6533,-3,-4,0,0,,10+,30.18,,,TRUE,TRUE,,,,,,,CLR,,,,,,,,VFR,,,,,,,,,,,,METAR,412
KETH 050413Z AUTO 00000KT 5SM BR CLR M01/M02 A3009 RMK AO2,KETH,2023-11-05T04:13:00Z,45.7828,-96.5461,-1,-2,0,0,,5,30.09,,,TRUE,TRUE,,,,,,BR,CLR,,,,,,,,MVFR,,,,,,,,,,,,METAR,309
KDVP 050413Z AUTO 21010KT 10SM SCT085 07/05 A3008 RMK AO2 T00650054,KDVP,2023-11-05T04:13:00Z,43.9906,-95.781,6.5,5.4,210,10,,10+,30.08,,,TRUE,TRUE,,,,,,,SCT,8500,,,,,,,VFR,,,,,,,,,,,,METAR,493
KCEC 050413Z AUTO 21005KT 2 1/2SM RA BR BKN003 OVC013 13/13 A2998 RMK AO2 P0003 T01330133,KCEC,2023-11-05T04:13:00Z,41.7836,-124.238,13.3,13.3,210,5,,2.5,29.98,,,TRUE,TRUE,,,,,,RA BR,BKN,300,OVC,1300,,,,,LIFR,,,,,,0.03,,,,,,SPECI,17
KCDD 050413Z AUTO 00000KT 10SM BKN075 M03/M04 A3019 RMK AO2,KCDD,2023-11-05T04:13:00Z,48.2601,-92.4748,-3,-4,0,0,,10+,30.19,,,TRUE,TRUE,,,,,,,BKN,7500,,,,,,,VFR,,,,,,,,,,,,METAR,344
KAQP 050413Z AUTO 26003KT 7SM CLR 02/00 A3006 RMK AO2,KAQP,2023-11-05T04:13:00Z,45.2249,-96.0041,2,0,260,3,,7,30.06,,,TRUE,TRUE,,,,,,,CLR,,,,,,,,VFR,,,,,,,,,,,,METAR,312
K1HN 050413Z AUTO 14006KT 5/8SM BR VV002 01/01 A2995 RMK AO2 RAE0355RAB02E13 SLP170 RVRNO $,K1HN,2023-11-05T04:13:00Z,47.97,-102.22,1,1,140,6,,0.63,29.95,1017,,TRUE,TRUE,TRUE,,,,,BR,OVX,0,,,,,,,LIFR,,,,,,,,,,,200,SPECI,578
EEEI 050413Z AUTO 16005KT 130V190 9999 FEW008/// 07/07 Q0992,EEEI,2023-11-05T04:13:00Z,59.26,24.209,7,7,160,5,,6+,29.29,,,TRUE,,,,,,,,FEW,800,,,,,,,VFR,,,,,,,,,,,,SPECI,19
CYBK 050413Z 32014KT 15SM -SN DRSN OVC015 M11/M13 A3007 RMK SC8 WIND EST SLP185,CYBK,2023-11-05T04:13:00Z,64.306,-96.078,-11,-13,320,14,,15,30.07,1018.5,,,,,,,,,-SN DRSN,OVC,1500,,,,,,,MVFR,,,,,,,,,,,,SPECI,14
LEST 050412Z 25007KT 190V290 5000 RA SCT007 BKN014 BKN032 10/09 Q1003 NOSIG,LEST,2023-11-05T04:12:00Z,42.888,-8.411,10,9,250,7,,3.11,29.62,,,,,,,,,,RA,SCT,700,BKN,1400,BKN,3200,,,MVFR,,,,,,,,,,,,SPECI,363
KMEH 050412Z AUTO 00000KT 6SM -RA BR OVC004 08/07 A2990 RMK AO2 P0003 T00780072,KMEH,2023-11-05T04:12:00Z,45.512,-118.425,7.8,7.2,0,0,,6,29.90,,,TRUE,TRUE,,,,,,-RA BR,OVC,400,,,,,,,LIFR,,,,,,0.03,,,,,,SPECI,1138
PACZ 050411Z AUTO 36023G35KT 300V070 10SM -SHPL BKN030 M04/M09 A2970 RMK AO2 SLP069,PACZ,2023-11-05T04:11:00Z,61.776,-166.043,-4,-9,360,23,35,10+,29.70,1006.9,,TRUE,TRUE,,,,,,-SHPL,BKN,3000,,,,,,,MVFR,,,,,,,,,,,,SPECI,129
MHTG 050411Z 34003KT 5000 -RA SCT005 BKN020 OVC070 20/20 Q1017 A3003 NOSIG,MHTG,2023-11-05T04:11:00Z,14.06,-87.216,20,20,340,3,,3.11,30.03,,,,,,,,,,-RA,SCT,500,BKN,2000,OVC,7000,,,MVFR,,,,,,,,,,,,SPECI,1001
KVPZ 050411Z AUTO 31003KT 2SM BR CLR 03/03 A3018 RMK AO2 T00330028,KVPZ,2023-11-05T04:11:00Z,41.4535,-86.998,3.3,2.8,310,3,,2,30.18,,,TRUE,TRUE,,,,,,BR,CLR,,,,,,,,IFR,,,,,,,,,,,,SPECI,235
KODX 050411Z AUTO 00000KT 1/4SM FG VV002 01/01 A3012 RMK AO2 T00110011,KODX,2023-11-05T04:11:00Z,41.6234,-98.9489,1.1,1.1,0,0,,0.25,30.12,,,TRUE,TRUE,,,,,,FG,OVX,0,,,,,,,LIFR,,,,,,,,,,,200,SPECI,628
KLVK 050411Z 26007KT 10SM FEW006 BKN010 14/13 A3006 RMK AO2 T01390128,KLVK,2023-11-05T04:11:00Z,37.6931,-121.815,13.9,12.8,260,7,,10+,30.06,,,,TRUE,,,,,,,FEW,600,BKN,1000,,,,,MVFR,,,,,,,,,,,,SPECI,120
KLPC 050411Z AUTO 00000KT 9SM BKN006 13/13 A3005 RMK AO2,KLPC,2023-11-05T04:11:00Z,34.6646,-120.464,13,13,0,0,,9,30.05,,,TRUE,TRUE,,,,,,,BKN,600,,,,,,,IFR,,,,,,,,,,,,SPECI,26
VCRI 050410Z VRB02KT 9999 SCT018 30/26 Q1012 NOSIG,VCRI,2023-11-05T04:10:00Z,6.287,81.125,30,26,VRB,2,,6+,29.88,,,,,,,,,,,SCT,1800,,,,,,,VFR,,,,,,,,,,,,METAR,50
VCBI 050410Z 07004KT 360V140 9999 FEW018 29/25 Q1012 NOSIG,VCBI,2023-11-05T04:10:00Z,7.181,79.884,29,25,70,4,,6+,29.88,,,,,,,,,,,FEW,1800,,,,,,,VFR,,,,,,,,,,,,METAR,10
SBSP 050410Z AUTO 20008KT 9999 BKN007 16/14 Q1016,SBSP,2023-11-05T04:10:00Z,-23.627,-46.655,16,14,200,8,,6+,30.00,,,TRUE,,,,,,,,BKN,700,,,,,,,IFR,,,,,,,,,,,,SPECI,802
PASY 050410Z AUTO 21016KT 8SM BKN010 OVC014 09/09 A3002 RMK AO2 SLP169 FZRANO $,PASY,2023-11-05T04:10:00Z,52.711,174.107,9,9,210,16,,8,30.02,1016.9,,TRUE,TRUE,TRUE,,,,,,BKN,1000,OVC,1400,,,,,MVFR,,,,,,,,,,,,SPECI,6
PAOU 050410Z AUTO 28023G34KT 8SM -RA SCT021 BKN029 BKN038 02/00 A2978 RMK AO2 PK WND 27034/0410 RAB0359 FZRANO PNO $,PAOU,2023-11-05T04:10:00Z,56.006,-161.162,2,0,280,23,34,8,29.78,,,TRUE,TRUE,TRUE,,,,,-RA,SCT,2100,BKN,2900,BKN,3800,,,MVFR,,,,,,,,,,,,SPECI,3
KSYI 050410Z AUTO 10003KT 10SM CLR 08/03 A3017 RMK A01,KSYI,2023-11-05T04:10:00Z,35.5594,-86.4406,8,3,100,3,,10+,30.17,,,TRUE,TRUE,,,,,,,CLR,,,,,,,,VFR,,,,,,,,,,,,METAR,244
KSNH 050410Z AUTO 00000KT 10SM CLR 09/07 A3016 RMK A01,KSNH,2023-11-05T04:10:00Z,35.1731,-88.2146,9,7,0,0,,10+,30.16,,,TRUE,TRUE,,,,,,,CLR,,,,,,,,VFR,,,,,,,,,,,,METAR,142
KS21 050410Z AUTO 20005KT 10SM -RA FEW022 BKN039 OVC060 06/05 A2998 RMK AO2,KS21,2023-11-05T04:10:00Z,43.8801,-121.454,6,5,200,5,,10+,29.98,,,TRUE,TRUE,,,,,,-RA,FEW,2200,BKN,3900,OVC,6000,,,VFR,,,,,,,,,,,,METAR,1269
KRHP 050410Z AUTO 00000KT 7SM SCT009 02/00 A3022 RMK AO2 T00200004,KRHP,2023-11-05T04:10:00Z,35.1939,-83.8618,2,0.4,0,0,,7,30.22,,,TRUE,TRUE,,,,,,,SCT,900,,,,,,,VFR,,,,,,,,,,,,METAR,515
KRCZ 050410Z AUTO 00000KT 10SM CLR 06/M01 A3012 RMK AO2 T00631010,KRCZ,2023-11-05T04:10:00Z,34.8955,-79.7576,6.3,-1,0,0,,10+,30.12,,,TRUE,TRUE,,,,,,,CLR,,,,,,,,VFR,,,,,,,,,,,,METAR,110
KQEY 050410Z AUTO 14007G13KT 9999 FEW048 BKN140 24/13 A2976 RMK A02 TSNO,KQEY,2023-11-05T04:10:00Z,-99.99,-99.99,24,13,140,7,13,6+,29.76,,,TRUE,TRUE,,,,,,,FEW,4800,BKN,14000,,,,,VFR,,,,,,,,,,,,METAR,9999
KQER 050410Z AUTO 35006G14KT 1600 HZ BKN095 16/13 A3004 RMK A02 TSNO,KQER,2023-11-05T04:10:00Z,-99.99,-99.99,16,13,350,6,14,0.99,30.04,,,TRUE,TRUE,,,,,,HZ,BKN,9500,,,,,,,LIFR,,,,,,,,,,,,METAR,9999
KPVE 050410Z AUTO 00000KT 10SM CLR 09/07 A3017 RMK A01,KPVE,2023-11-05T04:10:00Z,35.6592,-88.1929,9,7,0,0,,10+,30.17,,,TRUE,TRUE,,,,,,,CLR,,,,,,,,VFR,,,,,,,,,,,,METAR,146
KO86 050410Z AUTO 25003KT 10SM OVC060 10/10 A3003 RMK A01,KO86,2023-11-05T04:10:00Z,40.9845,-122.693,10,10,250,3,,10+,30.03,,,TRUE,TRUE,,,,,,,OVC,6000,,,,,,,VFR,,,,,,,,,,,,METAR,729
KO69 050410Z AUTO 00000KT 10SM BKN120 13/13 A3006 RMK A01,KO69,2023-11-05T04:10:00Z,38.2601,-122.607,13,13,0,0,,10+,30.06,,,TRUE,TRUE,,,,,,,BKN,12000,,,,,,,VFR,,,,,,,,,,,,METAR,26
KMRC 050410Z AUTO 00000KT 10SM CLR 09/05 A3016 RMK A01,KMRC,2023-11-05T04:10:00Z,35.5579,-87.1778,9,5,0,0,,10+,30.16,,,TRUE,TRUE,,,,,,,CLR,,,,,,,,VFR,,,,,,,,,,,,METAR,205
KM91 050410Z AUTO 00000KT 10SM OVC049 11/08 A3015 RMK A01,KM91,2023-11-05T04:10:00Z,36.5363,-86.919,11,8,0,0,,10+,30.15,,,TRUE,TRUE,,,,,,,OVC,4900,,,,,,,VFR,,,,,,,,,,,,METAR,214
KM54 050410Z AUTO 00000KT 10SM BKN060 BKN070 11/06 A3014 RMK A01,KM54,2023-11-05T04:10:00Z,36.1932,-86.3139,11,6,0,0,,10+,30.14,,,TRUE,TRUE,,,,,,,BKN,6000,BKN,7000,,,,,VFR,,,,,,,,,,,,METAR,168
KM04 050410Z AUTO 00000KT 10SM FEW050 FEW060 09/07 A3016 RMK A01,KM04,2023-11-05T04:10:00Z,35.5819,-89.5858,9,7,0,0,,10+,30.16,,,TRUE,TRUE,,,,,,,FEW,5000,FEW,6000,,,,,VFR,,,,,,,,,,,,METAR,83
KJQF 050410Z AUTO 00000KT 10SM CLR 05/00 A3016 RMK AO2,KJQF,2023-11-05T04:10:00Z,35.3896,-80.7074,5,0,0,0,,10+,30.16,,,TRUE,TRUE,,,,,,,CLR,,,,,,,,VFR,,,,,,,,,,,,METAR,204
KJAU 050410Z AUTO 00000KT 10SM CLR 08/03 A3022 RMK A01,KJAU,2023-11-05T04:10:00Z,36.3351,-84.1635,8,3,0,0,,10+,30.22,,,TRUE,TRUE,,,,,,,CLR,,,,,,,,VFR,,,,,,,,,,,,METAR,350
KIXA 050410Z AUTO 00000KT 10SM CLR 03/03 A3012 RMK AO2,KIXA,2023-11-05T04:10:00Z,36.331,-77.6333,3,3,0,0,,10+,30.12,,,TRUE,TRUE,,,,,,,CLR,,,,,,,,VFR,,,,,,,,,,,,METAR,43
KHRJ 050410Z AUTO 00000KT 10SM CLR 06/03 A3013 RMK AO2 T00640035,KHRJ,2023-11-05T04:10:00Z,35.3794,-78.7356,6.4,3.5,0,0,,10+,30.13,,,TRUE,TRUE,,,,,,,CLR,,,,,,,,VFR,,,,,,,,,,,,METAR,55
KGWW 050410Z AUTO 00000KT 10SM CLR 08/08 A3011 RMK AO2 T00840084,KGWW,2023-11-05T04:10:00Z,35.4637,-77.9604,8.4,8.4,0,0,,10+,30.11,,,TRUE,TRUE,,,,,,,CLR,,,,,,,,VFR,,,,,,,,,,,,METAR,40
KGVW 050410Z AUTO 12012KT 10SM BKN070 22/19 A3016 RMK A01,KGVW,2023-11-05T04:10:00Z,29.13,-94.547,22,19,120,12,,10+,30.16,,,TRUE,TRUE,,,,,,,BKN,7000,,,,,,,VFR,,,,,,,,,,,,METAR,37
KGRY 050410Z AUTO 05017KT 10SM SCT036 SCT043 BKN070 24/16 A3014 RMK A01,KGRY,2023-11-05T04:10:00Z,27.625,-90.441,24,16,50,17,,10+,30.14,,,TRUE,TRUE,,,,,,,SCT,3600,SCT,4300,BKN,7000,,,VFR,,,,,,,,,,,,METAR,58
KGLX 050410Z AUTO 03017KT 10SM FEW031 FEW037 23/16 A3015 RMK A01,KGLX,2023-11-05T04:10:00Z,28.235,-88.984,23,16,30,17,,10+,30.15,,,TRUE,TRUE,,,,,,,FEW,3100,FEW,3700,,,,,VFR,,,,,,,,,,,,METAR,32
KFDK 050410Z AUTO 00000KT 7SM OVC110 07/05 A3010 RMK AO2,KFDK,2023-11-05T04:10:00Z,39.4177,-77.3696,7,5,0,0,,7,30.10,,,TRUE,TRUE,,,,,,,OVC,11000,,,,,,,VFR,,,,,,,,,,,,METAR,82
KEZP 050410Z AUTO 10009KT 10SM OVC032 23/16 A3017 RMK A01,KEZP,2023-11-05T04:10:00Z,28.22,-92.794,23,16,100,9,,10+,30.17,,,TRUE,TRUE,,,,,,,OVC,3200,,,,,,,VFR,,,,,,,,,,,,METAR,30
KEYF 050410Z AUTO 35005KT OVC033 14/05 A3010 RMK AO2 PWINO T01420048,KEYF,2023-11-05T04:10:00Z,34.6042,-78.579,14.2,4.8,350,5,,,30.10,,,TRUE,TRUE,,,,,,,OVC,3300,,,,,,,VFR,,,,,,,,,,,,METAR,39
KEDE 050410Z AUTO 00000KT 10SM CLR 13/13 A3010 RMK AO2 T01260126,KEDE,2023-11-05T04:10:00Z,36.0286,-76.5668,12.6,12.6,0,0,,10+,30.10,,,TRUE,TRUE,,,,,,,CLR,,,,,,,,VFR,,,,,,,,,,,,METAR,4
KBIX 050410Z AUTO 00000KT 5/8SM R04/2800V4000FT BR CLR 15/14 A3014 RMK AO2 SLP209,KBIX,2023-11-05T04:10:00Z,30.415,-88.922,15,14,0,0,,0.63,30.14,1020.9,,TRUE,TRUE,,,,,,BR,CLR,,,,,,,,LIFR,,,,,,,,,,,,SPECI,4
ETAR 050410Z 22009G18KT 9999 -RA BKN033 09/08 A2882 RMK AO2A RAE04RAB10 SLP764 $,ETAR,2023-11-05T04:10:00Z,49.437,7.6,9,8,220,9,18,6+,28.82,976.4,,,TRUE,TRUE,,,,,-RA,BKN,3300,,,,,,,VFR,,,,,,,,,,,,SPECI,231
ETAD 050410Z 21015KT 9999 -RA OVC007 08/05 A2874 RMK AO2A SLP726 $,ETAD,2023-11-05T04:10:00Z,49.979,6.698,8,5,210,15,,6+,28.74,972.6,,,TRUE,TRUE,,,,,-RA,OVC,700,,,,,,,IFR,,,,,,,,,,,,SPECI,365
CYPD 050410Z AUTO 25005KT 9SM FEW066 OVC080 09/06 A3006 RMK SLP183,CYPD,2023-11-05T04:10:00Z,45.657,-61.374,9,6,250,5,,9,30.06,1018.3,,TRUE,,,,,,,,FEW,6600,OVC,8000,,,,,VFR,,,,,,,,,,,,SPECI,106
CYLH 050410Z AUTO 33004KT 280V030 9SM OVC022 M07/M10 A3016 RMK SLP238,CYLH,2023-11-05T04:10:00Z,52.196,-87.936,-7,-10,330,4,,9,30.16,1023.8,,TRUE,,,,,,,,OVC,2200,,,,,,,MVFR,,,,,,,,,,,,SPECI,245
CYHZ 050410Z 21005KT 15SM FEW061 OVC100 08/06 A3005 RMK SC1AC7 SLP181,CYHZ,2023-11-05T04:10:00Z,44.8781,-63.5136,8,6,210,5,,15,30.05,1018.1,,,,,,,,,,FEW,6100,OVC,10000,,,,,VFR,,,,,,,,,,,,SPECI,136
CYGW 050410Z AUTO 27009G15KT 6SM -SN BKN030 BKN086 BKN130 M02/M04 A2971 RMK SLP065,CYGW,2023-11-05T04:10:00Z,55.283,-77.76,-2,-4,270,9,15,6,29.71,1006.5,,TRUE,,,,,,,-SN,BKN,3000,BKN,8600,BKN,13000,,,MVFR,,,,,,,,,,,,SPECI,13
PARY 050409Z AUTO VRB04KT 1 3/4SM -SN BR SCT013 BKN022 OVC033 M09/M12 A2953 RMK AO2 P0001 FZRANO,PARY,2023-11-05T04:09:00Z,64.731,-155.463,-9,-12,VRB,4,,1.75,29.53,,,TRUE,TRUE,,,,,,-SN BR,SCT,1300,BKN,2200,OVC,3300,,,IFR,,,,,,0.01,,,,,,SPECI,185
PAIG 050409Z AUTO 25005KT 10SM SCT019 BKN120 M06/M07 A2953 RMK AO2 FZRANO $,PAIG,2023-11-05T04:09:00Z,59.325,-155.897,-6,-7,250,5,,10+,29.53,,,TRUE,TRUE,TRUE,,,,,,SCT,1900,BKN,12000,,,,,VFR,,,,,,,,,,,,SPECI,24
KPMP 050409Z AUTO 34006KT 10SM -RA FEW020 BKN028 BKN039 24/22 A2999 RMK AO2 RAB09 P0000 T02390217,KPMP,2023-11-05T04:09:00Z,26.2464,-80.111,23.9,21.7,340,6,,10+,29.99,,,TRUE,TRUE,,,,,,-RA,FEW,2000,BKN,2800,BKN,3900,,,MVFR,,,,,,0.005,,,,,,SPECI,4
KMTN 050409Z AUTO 00000KT 10SM CLR 07/07 A3011 RMK AO2,KMTN,2023-11-05T04:09:00Z,39.3214,-76.4065,7,7,0,0,,10+,30.11,,,TRUE,TRUE,,,,,,,CLR,,,,,,,,VFR,,,,,,,,,,,,METAR,2
KFME 050409Z AUTO 00000KT 10SM CLR 04/03 A3012 RMK AO1,KFME,2023-11-05T04:09:00Z,39.086,-76.757,4,3,0,0,,10+,30.12,,,TRUE,TRUE,,,,,,,CLR,,,,,,,,VFR,,,,,,,,,,,,METAR,43
EHGR 050408Z AUTO 18008KT 140V230 9999 -RA FEW017 SCT027 OVC036 10/09 Q0969 BLU,EHGR,2023-11-05T04:08:00Z,51.565,4.935,10,9,180,8,,6+,28.61,,,TRUE,,,,,,,-RA,FEW,1700,SCT,2700,OVC,3600,,,VFR,,,,,,,,,,,,SPECI,12
CYYN 050408Z AUTO 18012G19KT 9SM -RA OVC060 04/02 A2965 RMK SLP062,CYYN,2023-11-05T04:08:00Z,50.292,-107.691,4,2,180,12,19,9,29.65,1006.2,,TRUE,,,,,,,-RA,OVC,6000,,,,,,,VFR,,,,,,,,,,,,SPECI,814
CYVP 050408Z 26016G26KT 15SM -SN BKN025 BKN085 M04/M08 A2938 RMK SC6AC1 SLP954,CYVP,2023-11-05T04:08:00Z,58.1,-68.415,-4,-8,260,16,26,15,29.38,995.4,,,,,,,,,-SN,BKN,2500,BKN,8500,,,,,MVFR,,,,,,,,,,,,SPECI,28
KPTK 050407Z AUTO 00000KT 2 1/2SM BR BKN038 05/04 A3011 RMK AO2 T00500039,KPTK,2023-11-05T04:07:00Z,42.6632,-83.41,5,3.9,0,0,,2.5,30.11,,,TRUE,TRUE,,,,,,BR,BKN,3800,,,,,,,IFR,,,,,,,,,,,,SPECI,295
KBTL 050407Z AUTO 30007KT 8SM BKN029 08/05 A3014 RMK AO2 T00780050,KBTL,2023-11-05T04:07:00Z,42.3119,-85.2415,7.8,5,300,7,,8,30.14,,,TRUE,TRUE,,,,,,,BKN,2900,,,,,,,MVFR,,,,,,,,,,,,SPECI,282
EBFN 050407Z AUTO 21009KT 7000 RA OVC058/// 09/08 Q0968 WHT,EBFN,2023-11-05T04:07:00Z,51.09,2.653,9,8,210,9,,4.35,28.58,,,TRUE,,,,,,,RA,OVC,5800,,,,,,,MVFR,,,,,,,,,,,,SPECI,9
YCFS 050406Z AUTO 09007KT 9999 -SHRA SCT014 SCT025 BKN035 18/16 Q1023,YCFS,2023-11-05T04:06:00Z,-30.317,153.119,18,16,90,7,,6+,30.21,,,TRUE,,,,,,,-SHRA,SCT,1400,SCT,2500,BKN,3500,,,VFR,,,,,,,,,,,,SPECI,2
LIVC 050406Z AUTO 26017G43KT //// 02/02 Q0990,LIVC,2023-11-05T04:06:00Z,44.194,10.7,2,2,260,17,43,,29.23,,,TRUE,,,,,,,,,,,,,,,,VFR,,,,,,,,,,,,SPECI,2139
KPQL 050406Z AUTO 00000KT 4SM BR CLR 09/09 A3017 RMK AO2 T00940089,KPQL,2023-11-05T04:06:00Z,30.4631,-88.5316,9.4,8.9,0,0,,4,30.17,,,TRUE,TRUE,,,,,,BR,CLR,,,,,,,,MVFR,,,,,,,,,,,,SPECI,4
CYZY 050406Z AUTO 23003KT 140V300 8SM -FZRA FEW005 BKN020 OVC031 02/01 A2942 RMK ICE SLP991,CYZY,2023-11-05T04:06:00Z,55.303,-123.135,2,1,230,3,,8,29.42,999.1,,TRUE,,,,,,,-FZRA,FEW,500,BKN,2000,OVC,3100,,,MVFR,,,,,,,,,,,,SPECI,694
CYDQ 050406Z AUTO 05004KT 1 1/4SM -SN FEW005 OVC012 M00/M01 A2953 RMK ICE MISG SLP033,CYDQ,2023-11-05T04:06:00Z,55.741,-120.188,0,-1,50,4,,1.25,29.53,1003.3,,TRUE,,,,,,,-SN,FEW,500,OVC,1200,,,,,IFR,,,,,,,,,,,,SPECI,658
CWSA 050406Z AUTO 23016KT 7SM BKN023 BKN030 OVC046 13/13 A3011 RMK SLP198,CWSA,2023-11-05T04:06:00Z,43.933,-60.002,13,13,230,16,,7,30.11,1019.8,,TRUE,,,,,,,,BKN,2300,BKN,3000,OVC,4600,,,MVFR,,,,,,,,,,,,SPECI,4
BGTL 050406Z AUTO 00000KT 9999 FEW015 BKN029 BKN049 OVC070 M04/M06 A2974 RMK AO2 SNE06 SLP058 TSNO $,BGTL,2023-11-05T04:06:00Z,76.527,-68.758,-4,-6,0,0,,6+,29.74,1005.8,,TRUE,TRUE,TRUE,,,,,,FEW,1500,BKN,2900,BKN,4900,OVC,7000,MVFR,,,,,,,,,,,,SPECI,79
KW40 050405Z AUTO 32003KT 10SM CLR 08/07 A3011 RMK AO2 T00830070,KW40,2023-11-05T04:05:00Z,35.2211,-78.0404,8.3,7,320,3,,10+,30.11,,,TRUE,TRUE,,,,,,,CLR,,,,,,,,VFR,,,,,,,,,,,,METAR,50
KW29 050405Z AUTO 00000KT 10SM CLR 08/07 A3010 RMK AO2 T0079////,KW29,2023-11-05T04:05:00Z,38.9777,-76.3276,7.9,7,0,0,,10+,30.10,,,TRUE,TRUE,,,,,,,CLR,,,,,,,,VFR,,,,,,,,,,,,METAR,1
KVUJ 050405Z AUTO 00000KT 10SM CLR 04/00 A3018 RMK AO2 T00360000,KVUJ,2023-11-05T04:05:00Z,35.4173,-80.1508,3.6,0,0,0,,10+,30.18,,,TRUE,TRUE,,,,,,,CLR,,,,,,,,VFR,,,,,,,,,,,,METAR,174
KUKF 050405Z AUTO 00000KT 4SM HZ CLR 09/00 A3018 RMK AO2 TSNO,KUKF,2023-11-05T04:05:00Z,36.2188,-81.1002,9,0,0,0,,4,30.18,,,TRUE,TRUE,,,,,,HZ,CLR,,,,,,,,MVFR,,,,,,,,,,,,METAR,383
KTDF 050405Z AUTO 00000KT 10SM CLR 03/00 A3014 RMK AO2,KTDF,2023-11-05T04:05:00Z,36.284,-78.9884,3,0,0,0,,10+,30.14,,,TRUE,TRUE,,,,,,,CLR,,,,,,,,VFR,,,,,,,,,,,,METAR,180
KTAN 050405Z AUTO 00000KT 3SM BR CLR 07/04 A3008 RMK AO2 T00670044,KTAN,2023-11-05T04:05:00Z,41.8756,-71.0208,6.7,4.4,0,0,,3,30.08,,,TRUE,TRUE,,,,,,BR,CLR,,,,,,,,MVFR,,,,,,,,,,,,SPECI,8
KSVH 050405Z AUTO 00000KT 10SM CLR 07/M01 A3013 RMK AO2 T00701008,KSVH,2023-11-05T04:05:00Z,35.7635,-80.9473,7,-0.8,0,0,,10+,30.13,,,TRUE,TRUE,,,,,,,CLR,,,,,,,,VFR,,,,,,,,,,,,METAR,286
KSUT 050405Z AUTO 35004KT 10SM SCT043 BKN050 19/15 A3007 RMK AO2 T01850150,KSUT,2023-11-05T04:05:00Z,33.9292,-78.0722,18.5,15,350,4,,10+,30.07,,,TRUE,TRUE,,,,,,,SCT,4300,BKN,5000,,,,,VFR,,,,,,,,,,,,METAR,6
KSIF 050405Z AUTO 00000KT 10SM CLR 06/00 A3013 RMK AO2 T00610000,KSIF,2023-11-05T04:05:00Z,36.4408,-79.8544,6.1,0,0,0,,10+,30.13,,,TRUE,TRUE,,,,,,,CLR,,,,,,,,VFR,,,,,,,,,,,,METAR,206
KSCR 050405Z AUTO 00000KT 10SM CLR 03/00 A3013 RMK AO2 T00260002,KSCR,2023-11-05T04:05:00Z,35.7058,-79.5051,2.6,0.2,0,0,,10+,30.13,,,TRUE,TRUE,,,,,,,CLR,,,,,,,,VFR,,,,,,,,,,,,METAR,182
KRUQ 050405Z AUTO 00000KT 10SM CLR 04/00 A3014 RMK AO2 T00370000,KRUQ,2023-11-05T04:05:00Z,35.6441,-80.5236,3.7,0,0,0,,10+,30.14,,,TRUE,TRUE,,,,,,,CLR,,,,,,,,VFR,,,,,,,,,,,,METAR,231
KQVF 050405Z AUTO M 9999 / /0 100C1 M 26/ M RMK AO2 SLPNO WND DATA ESTMD $,KQVF,2023-11-05T04:05:00Z,-99.99,-99.99,26,,,,,6+,0.00,,,TRUE,TRUE,TRUE,,,,,,,,,,,,,,VFR,,,,,,,,,,,,SPECI,9999
KPGV 050405Z AUTO 00000KT 4SM BR CLR 09/09 A3010 RMK AO2,KPGV,2023-11-05T04:05:00Z,35.6374,-77.3851,9,9,0,0,,4,30.10,,,TRUE,TRUE,,,,,,BR,CLR,,,,,,,,MVFR,,,,,,,,,,,,METAR,6
KONX 050405Z AUTO 00000KT 10SM CLR 11/11 A3009 RMK AO2 T01130107,KONX,2023-11-05T04:05:00Z,36.399,-76.014,11.3,10.7,0,0,,10+,30.09,,,TRUE,TRUE,,,,,,,CLR,,,,,,,,VFR,,,,,,,,,,,,METAR,4
KOCW 050405Z AUTO 36004KT 10SM CLR 12/11 A3010 RMK AO2 T01170108,KOCW,2023-11-05T04:05:00Z,35.5703,-77.05,11.7,10.8,360,4,,10+,30.10,,,TRUE,TRUE,,,,,,,CLR,,,,,,,,VFR,,,,,,,,,,,,METAR,10
KMUI 050405Z AUTO 00000KT 10SM FEW065 SCT100 BKN130 08/05 A3006 RMK AO2 RAE0356DZB0356E04RAB04E05 SLP184 $,KMUI,2023-11-05T04:05:00Z,40.4381,-76.5643,8,5,0,0,,10+,30.06,1018.4,,TRUE,TRUE,TRUE,,,,,,FEW,6500,SCT,10000,BKN,13000,,,VFR,,,,,,,,,,,,SPECI,146
KMRN 050405Z AUTO 00000KT CLR 09/01 A3015 RMK AO2 T00940006 PWINO,KMRN,2023-11-05T04:05:00Z,35.8192,-81.6097,9.4,0.6,0,0,,,30.15,,,TRUE,TRUE,,,,,,,CLR,,,,,,,,VFR,,,,,,,,,,,,METAR,375
KMQI 050405Z AUTO 04007KT 10SM OVC055 16/15 A3008 RMK AO2 T01610151,KMQI,2023-11-05T04:05:00Z,35.9188,-75.6989,16.1,15.1,40,7,,10+,30.08,,,TRUE,TRUE,,,,,,,OVC,5500,,,,,,,VFR,,,,,,,,,,,,METAR,3
KMKC 050405Z 00000KT 1 3/4SM BR CLR 06/06 A3021 RMK AO2 VIS 1V5 T00610061,KMKC,2023-11-05T04:05:00Z,39.1279,-94.5892,6.1,6.1,0,0,,1.75,30.21,,,,TRUE,,,,,,BR,CLR,,,,,,,,IFR,,,,,,,,,,,,SPECI,228
KMCZ 050405Z AUTO 00000KT 7SM BR CLR 09/08 A3010 RMK AO2 T00920084,KMCZ,2023-11-05T04:05:00Z,35.862,-77.178,9.2,8.4,0,0,,7,30.10,,,TRUE,TRUE,,,,,,BR,CLR,,,,,,,,VFR,,,,,,,,,,,,METAR,23
KJXN 050405Z AUTO 22004KT 7SM SCT026 03/02 A3011 RMK AO2 T00280022,KJXN,2023-11-05T04:05:00Z,42.259,-84.4589,2.8,2.2,220,4,,7,30.11,,,TRUE,TRUE,,,,,,,SCT,2600,,,,,,,VFR,,,,,,,,,,,,SPECI,303
KJNX 050405Z AUTO 00000KT 10SM CLR 05/03 A3011 RMK AO2,KJNX,2023-11-05T04:05:00Z,35.5369,-78.3934,5,3,0,0,,10+,30.11,,,TRUE,TRUE,,,,,,,CLR,,,,,,,,VFR,,,,,,,,,,,,METAR,41
KISO 050405Z AUTO 00000KT 10SM CLR 10/09 A3011 RMK AO2 T00990089,KISO,2023-11-05T04:05:00Z,35.324,-77.6187,9.9,8.9,0,0,,10+,30.11,,,TRUE,TRUE,,,,,,,CLR,,,,,,,,VFR,,,,,,,,,,,,METAR,27
KIPJ 050405Z AUTO 00000KT 10SM CLR 04/00 A3014 RMK AO2 T00350004,KIPJ,2023-11-05T04:05:00Z,35.4861,-81.1564,3.5,0.4,0,0,,10+,30.14,,,TRUE,TRUE,,,,,,,CLR,,,,,,,,VFR,,,,,,,,,,,,METAR,266
KHBI 050405Z AUTO 00000KT 10SM CLR 05/M01 A3015 RMK AO2 T00541015,KHBI,2023-11-05T04:05:00Z,35.6527,-79.8942,5.4,-1.5,0,0,,10+,30.15,,,TRUE,TRUE,,,,,,,CLR,,,,,,,,VFR,,,,,,,,,,,,METAR,199
KGEV 050405Z AUTO 00000KT 10SM CLR 11/M06 A3019 RMK AO2 T01121064,KGEV,2023-11-05T04:05:00Z,36.4312,-81.4206,11.2,-6.4,0,0,,10+,30.19,,,TRUE,TRUE,,,,,,,CLR,,,,,,,,VFR,,,,,,,,,,,,METAR,961
KFQD 050405Z AUTO 00000KT 10SM CLR 06/M02 A3015 RMK AO2,KFQD,2023-11-05T04:05:00Z,35.43,-81.936,6,-2,0,0,,10+,30.15,,,TRUE,TRUE,,,,,,,CLR,,,,,,,,VFR,,,,,,,,,,,,METAR,325
KEXX 050405Z AUTO 00000KT 10SM CLR 06/01 A3014 RMK AO2 T00550010,KEXX,2023-11-05T04:05:00Z,35.7804,-80.3084,5.5,1,0,0,,10+,30.14,,,TRUE,TRUE,,,,,,,CLR,,,,,,,,VFR,,,,,,,,,,,,METAR,221
KETC 050405Z AUTO 00000KT 5SM BR CLR 06/06 A3011 RMK AO2 T00630061,KETC,2023-11-05T04:05:00Z,35.9363,-77.5416,6.3,6.1,0,0,,5,30.11,,,TRUE,TRUE,,,,,,BR,CLR,,,,,,,,MVFR,,,,,,,,,,,,METAR,15
KESN 050405Z AUTO 00000KT 10SM CLR 06/04 A3010 RMK AO2 T00620035,KESN,2023-11-05T04:05:00Z,38.804,-76.069,6.2,3.5,0,0,,10+,30.10,,,TRUE,TRUE,,,,,,,CLR,,,,,,,,VFR,,,,,,,,,,,,METAR,14
KEHO 050405Z AUTO 00000KT 10SM CLR 07/M02 A3014 RMK AO2 T00701025,KEHO,2023-11-05T04:05:00Z,35.2556,-81.5986,7,-2.5,0,0,,10+,30.14,,,TRUE,TRUE,,,,,,,CLR,,,,,,,,VFR,,,,,,,,,,,,METAR,261
KDPL 050405Z AUTO 00000KT 10SM CLR 09/08 A3011 RMK AO2,KDPL,2023-11-05T04:05:00Z,34.9994,-77.9799,9,8,0,0,,10+,30.11,,,TRUE,TRUE,,,,,,,CLR,,,,,,,,VFR,,,,,,,,,,,,METAR,39
KCTZ 050405Z AUTO 00000KT 10SM BKN033 10/10 A3011 RMK AO2 T01000097,KCTZ,2023-11-05T04:05:00Z,34.9752,-78.3627,10,9.7,0,0,,10+,30.11,,,TRUE,TRUE,,,,,,,BKN,3300,,,,,,,VFR,,,,,,,,,,,,METAR,43
KCPC 050405Z AUTO 00000KT 10SM OVC040 15/06 A3010 RMK AO2 T01460056,KCPC,2023-11-05T04:05:00Z,34.2753,-78.7146,14.6,5.6,0,0,,10+,30.10,,,TRUE,TRUE,,,,,,,OVC,4000,,,,,,,VFR,,,,,,,,,,,,METAR,27
KCGS 050405Z AUTO 00000KT 10SM CLR 06/04 A3011 RMK AO2 T00640036,KCGS,2023-11-05T04:05:00Z,38.9806,-76.9251,6.4,3.6,0,0,,10+,30.11,,,TRUE,TRUE,,,,,,,CLR,,,,,,,,VFR,,,,,,,,,,,,METAR,15
KCGE 050405Z AUTO 00000KT 10SM CLR 06/06 A3010 RMK A01,KCGE,2023-11-05T04:05:00Z,38.5372,-76.0309,6,6,0,0,,10+,30.10,,,TRUE,TRUE,,,,,,,CLR,,,,,,,,VFR,,,,,,,,,,,,METAR,5
KASJ 050405Z AUTO 00000KT 10SM CLR 06/06 A3010 RMK AO2 T00630063,KASJ,2023-11-05T04:05:00Z,36.2941,-77.1724,6.3,6.3,0,0,,10+,30.10,,,TRUE,TRUE,,,,,,,CLR,,,,,,,,VFR,,,,,,,,,,,,METAR,20
K7W6 050405Z AUTO 35003KT 10SM OVC060 16/16 A3007 RMK AO2 T01630155,K7W6,2023-11-05T04:05:00Z,35.5594,-75.955,16.3,15.5,350,3,,10+,30.07,,,TRUE,TRUE,,,,,,,OVC,6000,,,,,,,VFR,,,,,,,,,,,,METAR,1
K2G4 050405Z AUTO 24009G14KT 210V270 10SM BKN048 BKN060 11/M04 A3011 RMK AO2 TSNO,K2G4,2023-11-05T04:05:00Z,39.5827,-79.3418,11,-4,240,9,14,10+,30.11,,,TRUE,TRUE,,,,,,,BKN,4800,BKN,6000,,,,,VFR,,,,,,,,,,,,METAR,908
K24A 050405Z AUTO 00000KT 10SM CLR 09/M04 A3021 RMK AO2 T00941044,K24A,2023-11-05T04:05:00Z,35.3156,-83.2071,9.4,-4.4,0,0,,10+,30.21,,,TRUE,TRUE,,,,,,,CLR,,,,,,,,VFR,,,,,,,,,,,,METAR,864
PAKN 050404Z 01004KT 4SM -SN BR BKN018 OVC036 M04/M06 A2951 RMK AO2 P0000 T10391056,PAKN,2023-11-05T04:04:00Z,58.683,-156.656,-3.9,-5.6,10,4,,4,29.51,,,,TRUE,,,,,,-SN BR,BKN,1800,OVC,3600,,,,,MVFR,,,,,,0.005,,,,,,SPECI,20
PAHC 050404Z AUTO VRB04KT 2 1/2SM -SN BR BKN019 OVC030 M07/M09 A2959 RMK AO2 VIS 2V3 P0000 FZRANO,PAHC,2023-11-05T04:04:00Z,62.191,-159.773,-7,-9,VRB,4,,2.5,29.59,,,TRUE,TRUE,,,,,,-SN BR,BKN,1900,OVC,3000,,,,,IFR,,,,,,0.005,,,,,,SPECI,21
KSFF 050404Z 22006KT 10SM OVC015 12/10 A2980 RMK AO2 T01220100 $,KSFF,2023-11-05T04:04:00Z,47.6857,-117.321,12.2,10,220,6,,10+,29.80,,,,TRUE,TRUE,,,,,,OVC,1500,,,,,,,MVFR,,,,,,,,,,,,SPECI,593
CYNM 050404Z AUTO 29004KT 9SM -SN FEW017 BKN024 OVC044 M07/M09 A3003 RMK SLP192,CYNM,2023-11-05T04:04:00Z,49.759,-77.793,-7,-9,290,4,,9,30.03,1019.2,,TRUE,,,,,,,-SN,FEW,1700,BKN,2400,OVC,4400,,,MVFR,,,,,,,,,,,,SPECI,276
CYHE 050404Z AUTO 30007G15KT 260V330 2 1/2SM +RA BR BKN034 BKN043 OVC060 12/11 A2972 RMK VIS VRB 1 3/4-3 PCPN 1.5MM PAST HR SLP068,CYHE,2023-11-05T04:04:00Z,49.37,-121.493,12,11,300,7,15,2.5,29.72,1006.8,,TRUE,,,,,,,+RA BR,BKN,3400,BKN,4300,OVC,6000,,,IFR,,,,,,,,,,,,SPECI,43
KTVF 050403Z AUTO 09006KT 10SM SCT025 M02/M03 A3013 RMK AO2 FZRANO,KTVF,2023-11-05T04:03:00Z,48.0597,-96.1787,-2,-3,90,6,,10+,30.13,,,TRUE,TRUE,,,,,,,SCT,2500,,,,,,,VFR,,,,,,,,,,,,SPECI,339
KLAX 050403Z 25006KT 10SM SCT008 17/16 A3000 RMK AO2 T01670161,KLAX,2023-11-05T04:03:00Z,33.9382,-118.387,16.7,16.1,250,6,,10+,30.00,,,,TRUE,,,,,,,SCT,800,,,,,,,VFR,,,,,,,,,,,,SPECI,30
CYZR 050403Z AUTO 00000KT 3SM BR CLR 04/03 A3009 RMK SLP198,CYZR,2023-11-05T04:03:00Z,42.995,-82.307,4,3,0,0,,3,30.09,1019.8,,TRUE,,,,,,,BR,CLR,,,,,,,,MVFR,,,,,,,,,,,,SPECI,181
CYWK 050403Z AUTO 26009G15KT 220V290 9SM -SN BKN027 OVC200 M09/M13 A2979 RMK SLP131,CYWK,2023-11-05T04:03:00Z,52.927,-66.874,-9,-13,260,9,15,9,29.79,1013.1,,TRUE,,,,,,,-SN,BKN,2700,OVC,20000,,,,,MVFR,,,,,,,,,,,,SPECI,547
CYVT 050403Z AUTO 12014G19KT 3SM -SN BKN008 OVC019 M04/M06 A2981 RMK SLP126,CYVT,2023-11-05T04:03:00Z,55.842,-108.418,-4,-6,120,14,19,3,29.81,1012.6,,TRUE,,,,,,,-SN,BKN,800,OVC,1900,,,,,IFR,,,,,,,,,,,,SPECI,438
KUIL 050402Z AUTO 19006KT 7SM FEW006 BKN011 OVC050 14/12 A2978 RMK AO2 T01390117,KUIL,2023-11-05T04:02:00Z,47.937,-124.558,13.9,11.7,190,6,,7,29.78,,,TRUE,TRUE,,,,,,,FEW,600,BKN,1100,OVC,5000,,,MVFR,,,,,,,,,,,,SPECI,58
KSMO 050402Z 00000KT 9SM SCT005 17/15 A3001 RMK AO2 T01670150,KSMO,2023-11-05T04:02:00Z,34.021,-118.447,16.7,15,0,0,,9,30.01,,,,TRUE,,,,,,,SCT,500,,,,,,,VFR,,,,,,,,,,,,SPECI,56
KHWD 050402Z 00000KT SCT016 A3006 RMK AO2 $,KHWD,2023-11-05T04:02:00Z,37.6589,-122.121,,,0,0,,,30.06,,,,TRUE,TRUE,,,,,,SCT,1600,,,,,,,VFR,,,,,,,,,,,,SPECI,9
KDEQ 050402Z AUTO 00000KT 3SM BR FEW002 12/12 A3016 RMK AO2 T01170117,KDEQ,2023-11-05T04:02:00Z,34.048,-94.4016,11.7,11.7,0,0,,3,30.16,,,TRUE,TRUE,,,,,,BR,FEW,200,,,,,,,MVFR,,,,,,,,,,,,SPECI,107
PAFS 050401Z AUTO 03004KT 1 1/4SM -SN BR BKN016 OVC023 M08/M09 A2947 RMK AO2 SLP992 P0001 T10781089 FZRANO,PAFS,2023-11-05T04:01:00Z,63.015,-154.367,-7.8,-8.9,30,4,,1.25,29.47,999.2,,TRUE,TRUE,,,,,,-SN BR,BKN,1600,OVC,2300,,,,,IFR,,,,,,0.01,,,,,,METAR,131
CBBC 050401Z AUTO 16017G27KT 9SM FEW025 BKN032 OVC039 11/09 A2933 RMK ICE MISG SLP935 DENSITY ALT 400FT,CBBC,2023-11-05T04:01:00Z,52.181,-128.154,11,9,160,17,27,9,29.33,993.5,,TRUE,,,,,,,,FEW,2500,BKN,3200,OVC,3900,,,VFR,,,,,,,,,,,,SPECI,36
ZYTX 050400Z 03002MPS 5000 -RA SCT040 10/03 Q1019 NOSIG,ZYTX,2023-11-05T04:00:00Z,41.639,123.485,10,3,30,4,,3.11,30.09,,,,,,,,,,-RA,SCT,4000,,,,,,,MVFR,,,,,,,,,,,,METAR,56
ZYTL 050400Z 08005MPS 9999 -SHRA SCT013 BKN033 16/12 Q1013 NOSIG,ZYTL,2023-11-05T04:00:00Z,38.961,121.556,16,12,80,10,,6+,29.91,,,,,,,,,,-SHRA,SCT,1300,BKN,3300,,,,,VFR,,,,,,,,,,,,METAR,33
ZYHB 050400Z 06004MPS 9999 SCT046 02/M10 Q1024 NOSIG,ZYHB,2023-11-05T04:00:00Z,45.628,126.259,2,-10,60,8,,6+,30.24,,,,,,,,,,,SCT,4600,,,,,,,VFR,,,,,,,,,,,,METAR,134
ZYCC 050400Z 01002MPS 320V050 2500 FU FEW030 02/M04 Q1021 BECMG TL0530 3000,ZYCC,2023-11-05T04:00:00Z,43.993,125.682,2,-4,10,4,,1.55,30.15,,,,,,,,,,FU,FEW,3000,,,,,,,IFR,,,,,,,,,,,,METAR,211
ZWWW 050400Z VRB01MPS CAVOK 00/M09 Q1027 NOSIG,ZWWW,2023-11-05T04:00:00Z,43.907,87.474,0,-9,VRB,2,,6+,30.32,,,,,,,,,,,CAVOK,,,,,,,,VFR,,,,,,,,,,,,METAR,654
ZWSH 050400Z 09005MPS 060V120 8000 NSC 09/M08 Q1029 NOSIG,ZWSH,2023-11-05T04:00:00Z,39.542,76.019,9,-8,90,10,,4.97,30.38,,,,,,,,,,,CLR,,,,,,,,MVFR,,,,,,,,,,,,METAR,1374
ZUUU 050400Z 23002MPS 170V290 CAVOK 23/12 Q1017 NOSIG,ZUUU,2023-11-05T04:00:00Z,30.576,103.95,23,12,230,4,,6+,30.03,,,,,,,,,,,CAVOK,,,,,,,,VFR,,,,,,,,,,,,METAR,494
ZUTF 050400Z 25002MPS 180V290 CAVOK 23/13 Q1017 NOSIG,ZUTF,2023-11-05T04:00:00Z,30.304,104.436,23,13,250,4,,6+,30.03,,,,,,,,,,,CAVOK,,,,,,,,VFR,,,,,,,,,,,,METAR,443
ZUGY 050400Z 32004MPS 290V010 9999 BKN026 23/16 Q1017 NOSIG,ZUGY,2023-11-05T04:00:00Z,26.538,106.801,23,16,320,8,,6+,30.03,,,,,,,,,,,BKN,2600,,,,,,,MVFR,,,,,,,,,,,,METAR,1130
ZUCK 050400Z 28003MPS 210V340 9999 FEW026 BKN050 20/14 Q1017 NOSIG,ZUCK,2023-11-05T04:00:00Z,29.718,106.639,20,14,280,6,,6+,30.03,,,,,,,,,,,FEW,2600,BKN,5000,,,,,VFR,,,,,,,,,,,,METAR,416
ZSSS 050400Z 17008MPS 9999 FEW026 28/20 Q1011 NOSIG,ZSSS,2023-11-05T04:00:00Z,31.209,121.337,28,20,170,16,,6+,29.85,,,,,,,,,,,FEW,2600,,,,,,,VFR,,,,,,,,,,,,METAR,2
ZSQD 050400Z 08004MPS 9999 BKN020 19/17 Q1009 NOSIG,ZSQD,2023-11-05T04:00:00Z,36.362,120.087,19,17,80,8,,6+,29.79,,,,,,,,,,,BKN,2000,,,,,,,MVFR,,,,,,,,,,,,METAR,2
ZSPD 050400Z 19010MPS 9999 SCT026 28/21 Q1011 NOSIG,ZSPD,2023-11-05T04:00:00Z,31.146,121.8,28,21,190,19,,6+,29.85,,,,,,,,,,,SCT,2600,,,,,,,VFR,,,,,,,,,,,,METAR,4
ZSOF 050400Z 27005MPS 1900 SHRA BR FEW007 FEW026CB 18/18 Q1010 BECMG AT0430 -SHRA,ZSOF,2023-11-05T04:00:00Z,31.99,116.965,18,18,270,10,,1.18,29.82,,,,,,,,,,SHRA BR,FEW,700,FEW,2600,,,,,IFR,,,,,,,,,,,,METAR,64
ZSNJ 050400Z 18006MPS 7000 NSC 29/18 Q1007 NOSIG,ZSNJ,2023-11-05T04:00:00Z,31.739,118.863,29,18,180,12,,4.35,29.73,,,,,,,,,,,CLR,,,,,,,,MVFR,,,,,,,,,,,,METAR,27
ZSNB 050400Z 17008MPS 9999 SCT026 29/20 Q1012 NOSIG,ZSNB,2023-11-05T04:00:00Z,29.827,121.462,29,20,170,16,,6+,29.88,,,,,,,,,,,SCT,2600,,,,,,,VFR,,,,,,,,,,,,METAR,5
ZSHC 050400Z 19005MPS 160V220 CAVOK 30/18 Q1010 NOSIG,ZSHC,2023-11-05T04:00:00Z,30.229,120.434,30,18,190,10,,6+,29.82,,,,,,,,,,,CAVOK,,,,,,,,VFR,,,,,,,,,,,,METAR,8
ZSFZ 050400Z 09003MPS 060V120 CAVOK 29/21 Q1014 NOSIG,ZSFZ,2023-11-05T04:00:00Z,25.936,119.666,29,21,90,6,,6+,29.94,,,,,,,,,,,CAVOK,,,,,,,,VFR,,,,,,,,,,,,METAR,14
ZSAM 050400Z VRB01MPS 9000 NSC 30/21 Q1014 NOSIG,ZSAM,2023-11-05T04:00:00Z,24.546,118.131,30,21,VRB,2,,5.59,29.94,,,,,,,,,,,CLR,,,,,,,,VFR,,,,,,,,,,,,METAR,13
ZPPP 050400Z 24007MPS CAVOK 20/05 Q1024 NOSIG,ZPPP,2023-11-05T04:00:00Z,25.107,102.934,20,5,240,14,,6+,30.24,,,,,,,,,,,CAVOK,,,,,,,,VFR,,,,,,,,,,,,METAR,2104
ZMUB 050400Z 17003MPS CAVOK M13/M17 Q1024 NOSIG RMK QFE659.7 67,ZMUB,2023-11-05T04:00:00Z,47.843,106.766,-13,-17,170,6,,6+,30.24,,,,,,,,,,,CAVOK,,,,,,,,VFR,,,,,,,,,,,,METAR,1300
ZMCK 050400Z 25004MPS 9999 SCT033 M14/M17 Q1023 NOSIG RMK QFE651.2 73 MOP,ZMCK,2023-11-05T04:00:00Z,47.651,106.822,-14,-17,250,8,,6+,30.21,,,,,,,,,,,SCT,3300,,,,,,,VFR,,,,,,,,,,,,METAR,1366
ZLXY 050400Z 28006MPS 250V310 9999 SCT050 12/00 Q1025 NOSIG,ZLXY,2023-11-05T04:00:00Z,34.449,108.752,12,0,280,12,,6+,30.27,,,,,,,,,,,SCT,5000,,,,,,,VFR,,,,,,,,,,,,METAR,478
ZLLL 050400Z 13005MPS 9999 SCT010 SCT015 BKN040 M03/M06 Q1029 NOSIG,ZLLL,2023-11-05T04:00:00Z,36.513,103.623,-3,-6,130,10,,6+,30.38,,,,,,,,,,,SCT,1000,SCT,1500,BKN,4000,,,VFR,,,,,,,,,,,,METAR,1939
ZJSY 050400Z 22003MPS 180V250 9999 FEW023 SCT033 30/24 Q1013 NOSIG,ZJSY,2023-11-05T04:00:00Z,18.303,109.412,30,24,220,6,,6+,29.91,,,,,,,,,,,FEW,2300,SCT,3300,,,,,VFR,,,,,,,,,,,,METAR,27
ZJHK 050400Z 05004MPS 9999 BKN023 30/25 Q1013 NOSIG,ZJHK,2023-11-05T04:00:00Z,19.934,110.445,30,25,50,8,,6+,29.91,,,,,,,,,,,BKN,2300,,,,,,,MVFR,,,,,,,,,,,,METAR,21
ZHHH 050400Z VRB03MPS 6000 -SHRA FEW005 SCT014 16/16 Q1012 RESHRA BECMG TL0510 SHRA FEW030CB BKN040,ZHHH,2023-11-05T04:00:00Z,30.783,114.205,16,16,VRB,6,,3.73,29.88,,,,,,,,,,-SHRA,FEW,500,SCT,1400,,,,,MVFR,,,,,,,,,,,,METAR,33
ZHCC 050400Z 32005MPS 9999 OVC030 13/11 Q1015 NOSIG,ZHCC,2023-11-05T04:00:00Z,34.52,113.834,13,11,320,10,,6+,29.97,,,,,,,,,,,OVC,3000,,,,,,,MVFR,,,,,,,,,,,,METAR,149
ZGSZ 050400Z 23003MPS 9999 FEW026 29/22 Q1014 NOSIG,ZGSZ,2023-11-05T04:00:00Z,22.639,113.803,29,22,230,6,,6+,29.94,,,,,,,,,,,FEW,2600,,,,,,,VFR,,,,,,,,,,,,METAR,18
ZGOW 050400Z VRB02MPS CAVOK 29/20 Q1015 BECMG AT0530 18005MPS,ZGOW,2023-11-05T04:00:00Z,23.55,116.505,29,20,VRB,4,,6+,29.97,,,,,,,,,,,CAVOK,,,,,,,,VFR,,,,,,,,,,,,METAR,4
ZGNN 050400Z 15004MPS 110V200 9999 BKN020 29/22 Q1014 NOSIG,ZGNN,2023-11-05T04:00:00Z,22.609,108.173,29,22,150,8,,6+,29.94,,,,,,,,,,,BKN,2000,,,,,,,MVFR,,,,,,,,,,,,METAR,128
ZGKL 050400Z 18007MPS 9999 BKN040 29/20 Q1013 NOSIG,ZGKL,2023-11-05T04:00:00Z,25.22,110.04,29,20,180,14,,6+,29.91,,,,,,,,,,,BKN,4000,,,,,,,VFR,,,,,,,,,,,,METAR,151
ZGHA 050400Z 22004MPS 7000 NSC 26/18 Q1011 NOSIG,ZGHA,2023-11-05T04:00:00Z,28.18,113.219,26,18,220,8,,4.35,29.85,,,,,,,,,,,CLR,,,,,,,,MVFR,,,,,,,,,,,,METAR,61
ZGGG 050400Z 19004MPS 140V220 9999 BKN033 31/21 Q1014 NOSIG,ZGGG,2023-11-05T04:00:00Z,23.392,113.307,31,21,190,8,,6+,29.94,,,,,,,,,,,BKN,3300,,,,,,,VFR,,,,,,,,,,,,METAR,11
ZBYN 050400Z 24003MPS 9999 FEW023 OVC033 08/05 Q1018 BECMG TL0530 33008MPS,ZBYN,2023-11-05T04:00:00Z,37.747,112.628,8,5,240,6,,6+,30.06,,,,,,,,,,,FEW,2300,OVC,3300,,,,,VFR,,,,,,,,,,,,METAR,778
ZBTJ 050400Z 01006MPS 6000 -RA BKN010 OVC033 11/09 Q1015 BECMG TL0530 BKN009,ZBTJ,2023-11-05T04:00:00Z,39.124,117.346,11,9,10,12,,3.73,29.97,,,,,,,,,,-RA,BKN,1000,OVC,3300,,,,,MVFR,,,,,,,,,,,,METAR,4
ZBSJ 050400Z 33003MPS 8000 -RA OVC040 12/12 Q1017 NOSIG,ZBSJ,2023-11-05T04:00:00Z,38.281,114.697,12,12,330,6,,4.97,30.03,,,,,,,,,,-RA,OVC,4000,,,,,,,MVFR,,,,,,,,,,,,METAR,70
ZBHH 050400Z VRB02MPS 9999 SCT033 00/M05 Q1021 BECMG TL0530 35008G13MPS,ZBHH,2023-11-05T04:00:00Z,40.854,111.827,0,-5,VRB,4,,6+,30.15,,,,,,,,,,,SCT,3300,,,,,,,VFR,,,,,,,,,,,,METAR,1081
ZBAD 050400Z 02005MPS 8000 -RA OVC040 11/09 Q1016 NOSIG,ZBAD,2023-11-05T04:00:00Z,39.501,116.412,11,9,20,10,,4.97,30.00,,,,,,,,,,-RA,OVC,4000,,,,,,,MVFR,,,,,,,,,,,,METAR,25
ZBAA 050400Z VRB01MPS 9999 -RA BKN013 10/09 Q1017 BECMG TL0540 SCT013 BKN040,ZBAA,2023-11-05T04:00:00Z,40.082,116.603,10,9,VRB,2,,6+,30.03,,,,,,,,,,-RA,BKN,1300,,,,,,,MVFR,,,,,,,,,,,,METAR,31
YWLM 050400Z AUTO 08009KT 7000 RA SCT046 BKN056 BKN064 17/16 Q1024,YWLM,2023-11-05T04:00:00Z,-32.794,151.836,17,16,80,9,,4.35,30.24,,,TRUE,,,,,,,RA,SCT,4600,BKN,5600,BKN,6400,,,MVFR,,,,,,,,,,,,METAR,7
YSTW 050400Z AUTO 15021KT 9999 // SCT041 BKN050 BKN063 21/12 Q1020,YSTW,2023-11-05T04:00:00Z,-31.084,150.847,21,12,150,21,,6+,30.12,,,TRUE,,,,,,,,SCT,4100,BKN,5000,BKN,6300,,,VFR,,,,,,,,,,,,METAR,404
YSSY 050400Z 12014KT 9999 SCT035 BKN080 19/10 Q1026 RF00.0/001.6,YSSY,2023-11-05T04:00:00Z,-33.946,151.173,19,10,120,14,,6+,30.30,,,,,,,,,,,SCT,3500,BKN,8000,,,,,VFR,,,,,,,,,,,,METAR,3
YSRI 050400Z AUTO 27006KT 9999 // SCT025 SCT030 BKN036 16/16 Q1026,YSRI,2023-11-05T04:00:00Z,-33.601,150.777,16,16,270,6,,6+,30.30,,,TRUE,,,,,,,,SCT,2500,SCT,3000,BKN,3600,,,VFR,,,,,,,,,,,,METAR,19
YSNF 050400Z AUTO 16010KT 9999 // NCD 20/14 Q1019 RF00.0////./,YSNF,2023-11-05T04:00:00Z,-29.039,167.941,20,14,160,10,,6+,30.09,,,TRUE,,,,,,,,CLR,,,,,,,,VFR,,,,,,,,,,,,METAR,113
YSDU 050400Z AUTO 02004KT 360V110 9999 // SCT064 28/11 Q1019,YSDU,2023-11-05T04:00:00Z,-32.221,148.575,28,11,20,4,,6+,30.09,,,TRUE,,,,,,,,SCT,6400,,,,,,,VFR,,,,,,,,,,,,METAR,285
YSCB 050400Z AUTO 07015KT 9999 // BKN036 BKN043 BKN051 17/09 Q1026,YSCB,2023-11-05T04:00:00Z,-35.309,149.2,17,9,70,15,,6+,30.30,,,TRUE,,,,,,,,BKN,3600,BKN,4300,BKN,5100,,,VFR,,,,,,,,,,,,METAR,577
YPXM 050400Z AUTO 12013KT 9999 // BKN017 27/22 Q1014 RF00.0/000.0,YPXM,2023-11-05T04:00:00Z,-10.453,105.688,27,22,120,13,,6+,29.94,,,TRUE,,,,,,,,BKN,1700,,,,,,,MVFR,,,,,,,,,,,,METAR,262
YPWR 050400Z AUTO 28005KT 170V340 9999 // NCD 31/M03 Q1018 RF00.0/000.0,YPWR,2023-11-05T04:00:00Z,-31.156,136.805,31,-3,280,5,,6+,30.06,,,TRUE,,,,,,,,CLR,,,,,,,,VFR,,,,,,,,,,,,METAR,169
YPTN 050400Z AUTO 14007KT 100V180 9999 // SCT088 39/17 Q1009,YPTN,2023-11-05T04:00:00Z,-14.523,132.383,39,17,140,7,,6+,29.79,,,TRUE,,,,,,,,SCT,8800,,,,,,,VFR,,,,,,,,,,,,METAR,135
YPPH 050400Z 26011KT CAVOK 26/16 Q1014,YPPH,2023-11-05T04:00:00Z,-31.927,115.976,26,16,260,11,,6+,29.94,,,,,,,,,,,CAVOK,,,,,,,,VFR,,,,,,,,,,,,METAR,16
YPPD 050400Z AUTO 06015KT 9999 // NCD 40/13 Q1010 RF00.0/000.0,YPPD,2023-11-05T04:00:00Z,-20.372,118.632,40,13,60,15,,6+,29.82,,,TRUE,,,,,,,,CLR,,,,,,,,VFR,,,,,,,,,,,,METAR,6
YPLM 050400Z AUTO 11009KT 9999 // NCD 39/11 Q1012 RF00.0/000.0,YPLM,2023-11-05T04:00:00Z,-22.241,114.097,39,11,110,9,,6+,29.88,,,TRUE,,,,,,,,CLR,,,,,,,,VFR,,,,,,,,,,,,METAR,5
YPKU 050400Z AUTO 35006KT 9999 // NCD 38/18 Q1009 RF00.0/000.0,YPKU,2023-11-05T04:00:00Z,-15.781,128.71,38,18,350,6,,6+,29.79,,,TRUE,,,,,,,,CLR,,,,,,,,VFR,,,,,,,,,,,,METAR,42
YPKG 050400Z AUTO 03007KT 9999 // NCD 33/06 Q1015 RF00.0/000.0,YPKG,2023-11-05T04:00:00Z,-30.785,121.453,33,6,30,7,,6+,29.97,,,TRUE,,,,,,,,CLR,,,,,,,,VFR,,,,,,,,,,,,METAR,372
YPJT 050400Z AUTO 27011KT 250V320 9999 // NCD 25/16 Q1014 RF00.0/000.0,YPJT,2023-11-05T04:00:00Z,-32.101,115.879,25,16,270,11,,6+,29.94,,,TRUE,,,,,,,,CLR,,,,,,,,VFR,,,,,,,,,,,,METAR,29
YPGV 050400Z AUTO 08011KT 9999 // SCT031 BKN038 31/22 Q1011,YPGV,2023-11-05T04:00:00Z,-12.274,136.82,31,22,80,11,,6+,29.85,,,TRUE,,,,,,,,SCT,3100,BKN,3800,,,,,VFR,,,,,,,,,,,,METAR,53
YPEA 050400Z AUTO 25006KT 210V270 9999 // NCD 28/14 Q1013 RF00.0/000.0,YPEA,2023-11-05T04:00:00Z,-31.667,116.019,28,14,250,6,,6+,29.91,,,TRUE,,,,,,,,CLR,,,,,,,,VFR,,,,,,,,,,,,METAR,38
YPCC 050400Z AUTO 13012KT 9999 // SCT017 SCT026 28/24 Q1014,YPCC,2023-11-05T04:00:00Z,-12.189,96.834,28,24,130,12,,6+,29.94,,,TRUE,,,,,,,,SCT,1700,SCT,2600,,,,,VFR,,,,,,,,,,,,METAR,3
YPAD 050400Z 21014KT 9999 FEW030 SCT350 21/11 Q1021 RF00.0/000.0,YPAD,2023-11-05T04:00:00Z,-34.952,138.52,21,11,210,14,,6+,30.15,,,,,,,,,,,FEW,3000,SCT,35000,,,,,VFR,,,,,,,,,,,,METAR,2
YMML 050400Z 15007KT 100V180 CAVOK 24/09 Q1022 RF00.0/000.0,YMML,2023-11-05T04:00:00Z,-37.666,144.832,24,9,150,7,,6+,30.18,,,,,,,,,,,CAVOK,,,,,,,,VFR,,,,,,,,,,,,METAR,115
YMLT 050400Z AUTO 29006KT 240V320 9999 // NCD 18/07 Q1027 RF00.0/000.0,YMLT,2023-11-05T04:00:00Z,-41.544,147.213,18,7,290,6,,6+,30.32,,,TRUE,,,,,,,,CLR,,,,,,,,VFR,,,,,,,,,,,,METAR,167
YMAV 050400Z AUTO 11012KT 9999 // NCD 22/10 Q1023 RF00.0/000.0,YMAV,2023-11-05T04:00:00Z,-38.029,144.478,22,10,110,12,,6+,30.21,,,TRUE,,,,,,,,CLR,,,,,,,,VFR,,,,,,,,,,,,METAR,11
YLHI 050400Z AUTO 11009KT 9999 // BKN034 BKN043 OVC060 20/15 Q1022,YLHI,2023-11-05T04:00:00Z,-31.538,159.077,20,15,110,9,,6+,30.18,,,TRUE,,,,,,,,BKN,3400,BKN,4300,OVC,6000,,,VFR,,,,,,,,,,,,METAR,2
YHID 050400Z AUTO 13019KT 9999 // NCD 31/23 Q1010 RF00.0/000.0,YHID,2023-11-05T04:00:00Z,-10.584,142.29,31,23,130,19,,6+,29.82,,,TRUE,,,,,,,,CLR,,,,,,,,VFR,,,,,,,,,,,,METAR,5
YGLA 050400Z AUTO 06013KT 9999 // NCD 27/18 Q1016 RF00.0/000.2,YGLA,2023-11-05T04:00:00Z,-23.87,151.221,27,18,60,13,,6+,30.00,,,TRUE,,,,,,,,CLR,,,,,,,,VFR,,,,,,,,,,,,METAR,17
YGEL 050400Z AUTO 30012KT 9999 // NCD 24/16 Q1015 RF00.0/000.0,YGEL,2023-11-05T04:00:00Z,-28.805,114.699,24,16,300,12,,6+,29.97,,,TRUE,,,,,,,,CLR,,,,,,,,VFR,,,,,,,,,,,,METAR,32
YFRT 050400Z AUTO 09013KT 9999 // NCD 31/04 Q1017 RF00.0/000.0,YFRT,2023-11-05T04:00:00Z,-30.848,128.114,31,4,90,13,,6+,30.03,,,TRUE,,,,,,,,CLR,,,,,,,,VFR,,,,,,,,,,,,METAR,159
YCIN 050400Z AUTO 12010KT 9999 // SCT033 39/12 Q1009 RF00.0/000.0,YCIN,2023-11-05T04:00:00Z,-17.574,123.831,39,12,120,10,,6+,29.79,,,TRUE,,,,,,,,SCT,3300,,,,,,,VFR,,,,,,,,,,,,METAR,83
YBWW 050400Z AUTO 36004KT 280V050 9999 // SCT039 SCT051 BKN085 24/13 Q1018,YBWW,2023-11-05T04:00:00Z,-27.558,151.793,24,13,360,4,,6+,30.06,,,TRUE,,,,,,,,SCT,3900,SCT,5100,BKN,8500,,,VFR,,,,,,,,,,,,METAR,460
YBTL 050400Z AUTO 06017KT 9999 // NCD 29/20 Q1013 RF00.0/000.0,YBTL,2023-11-05T04:00:00Z,-19.248,146.766,29,20,60,17,,6+,29.91,,,TRUE,,,,,,,,CLR,,,,,,,,VFR,,,,,,,,,,,,METAR,4
YBSU 050400Z AUTO 05011KT 9999 -SHRA SCT024 SCT039 SCT063 24/18 Q1019,YBSU,2023-11-05T04:00:00Z,-26.603,153.091,24,18,50,11,,6+,30.09,,,TRUE,,,,,,,-SHRA,SCT,2400,SCT,3900,SCT,6300,,,VFR,,,,,,,,,,,,METAR,4
YBRM 050400Z AUTO 07011KT 9999 // NCD 39/16 Q1009 RF00.0/000.0,YBRM,2023-11-05T04:00:00Z,-17.948,122.235,39,16,70,11,,6+,29.79,,,TRUE,,,,,,,,CLR,,,,,,,,VFR,,,,,,,,,,,,METAR,11
YBRK 050400Z AUTO 10010KT 9999 // SCT051 SCT063 BKN073 29/17 Q1015,YBRK,2023-11-05T04:00:00Z,-23.375,150.477,29,17,100,10,,6+,29.97,,,TRUE,,,,,,,,SCT,5100,SCT,6300,BKN,7300,,,VFR,,,,,,,,,,,,METAR,10
YBMA 050400Z AUTO 22013KT 160V230 9999 // NCD 37/M05 Q1013 RF00.0/000.0,YBMA,2023-11-05T04:00:00Z,-20.678,139.488,37,-5,220,13,,6+,29.91,,,TRUE,,,,,,,,CLR,,,,,,,,VFR,,,,,,,,,,,,METAR,346
YBLN 050400Z AUTO 34010KT 9999 // NCD 24/16 Q1014 RF00.0/000.0,YBLN,2023-11-05T04:00:00Z,-33.688,115.402,24,16,340,10,,6+,29.94,,,TRUE,,,,,,,,CLR,,,,,,,,VFR,,,,,,,,,,,,METAR,17
YBHM 050400Z AUTO 10014KT 9999 // SCT030 26/20 Q1014 RF00.0/000.0,YBHM,2023-11-05T04:00:00Z,-20.357,148.949,26,20,100,14,,6+,29.94,,,TRUE,,,,,,,,SCT,3000,,,,,,,VFR,,,,,,,,,,,,METAR,4
YBCS 050400Z AUTO 05011KT 9999 // NCD 30/21 Q1012 RF00.0/000.0,YBCS,2023-11-05T04:00:00Z,-16.874,145.745,30,21,50,11,,6+,29.88,,,TRUE,,,,,,,,CLR,,,,,,,,VFR,,,,,,,,,,,,METAR,2
YBCG 050400Z AUTO 12009KT 9999 -RA BKN015 BKN020 OVC029 19/18 Q1020 RERA,YBCG,2023-11-05T04:00:00Z,-28.168,153.505,19,18,120,9,,6+,30.12,,,TRUE,,,,,,,-RA,BKN,1500,BKN,2000,OVC,2900,,,MVFR,,,,,,,,,,,,SPECI,5
YBAS 050400Z AUTO 11009KT 9999 // NCD 35/M03 Q1017 RF00.0/000.0,YBAS,2023-11-05T04:00:00Z,-23.795,133.889,35,-3,110,9,,6+,30.03,,,TRUE,,,,,,,,CLR,,,,,,,,VFR,,,,,,,,,,,,METAR,549
YAMB 050400Z AUTO 11011KT 9999 // SCT021 SCT030 BKN039 24/19 Q1019,YAMB,2023-11-05T04:00:00Z,-27.63,152.711,24,19,110,11,,6+,30.09,,,TRUE,,,,,,,,SCT,2100,SCT,3000,BKN,3900,,,VFR,,,,,,,,,,,,METAR,26
WSSL 050400Z 18011KT 8000 VCTS FEW016CB SCT017TCU BKN160 28/25 Q1011,WSSL,2023-11-05T04:00:00Z,1.417,103.866,28,25,180,11,,4.97,29.85,,,,,,,,,,VCTS,FEW,1600,SCT,1700,BKN,16000,,,MVFR,,,,,,,,,,,,METAR,11
WSAP 050400Z 20004KT 6000 -TSRA FEW010 FEW014CB FEW015TCU SCT140 25/24 Q1011 RESHRA,WSAP,2023-11-05T04:00:00Z,1.36,103.909,25,24,200,4,,3.73,29.85,,,,,,,,,,-TSRA,FEW,1000,FEW,1400,FEW,1500,SCT,14000,MVFR,,,,,,,,,,,,METAR,20
WMSA 050400Z VRB02KT 9999 FEW018 31/24 Q1012,WMSA,2023-11-05T04:00:00Z,3.13,101.552,31,24,VRB,2,,6+,29.88,,,,,,,,,,,FEW,1800,,,,,,,VFR,,,,,,,,,,,,METAR,19
WMKP 050400Z 17004KT 100V230 9999 FEW020 32/25 Q1011 NOSIG,WMKP,2023-11-05T04:00:00Z,5.297,100.277,32,25,170,4,,6+,29.85,,,,,,,,,,,FEW,2000,,,,,,,VFR,,,,,,,,,,,,METAR,4
WMKN 050400Z 01005KT 300V080 9999 SCT018 31/26 Q1011,WMKN,2023-11-05T04:00:00Z,5.383,103.103,31,26,10,5,,6+,29.85,,,,,,,,,,,SCT,1800,,,,,,,VFR,,,,,,,,,,,,METAR,12
WMKM 050400Z VRB03KT 9999 FEW017CB SCT020 31/25 Q1012,WMKM,2023-11-05T04:00:00Z,2.263,102.252,31,25,VRB,3,,6+,29.88,,,,,,,,,,,FEW,1700,SCT,2000,,,,,VFR,,,,,,,,,,,,METAR,9
WMKL 050400Z 28003KT 190V350 9999 SCT020 31/26 Q1012,WMKL,2023-11-05T04:00:00Z,6.33,99.729,31,26,280,3,,6+,29.88,,,,,,,,,,,SCT,2000,,,,,,,VFR,,,,,,,,,,,,METAR,4
WMKK 050400Z VRB02KT 9999 SCT018 31/24 Q1011 NOSIG,WMKK,2023-11-05T04:00:00Z,2.747,101.714,31,24,VRB,2,,6+,29.85,,,,,,,,,,,SCT,1800,,,,,,,VFR,,,,,,,,,,,,METAR,21
WMKJ 050400Z VRB03KT 9999 FEW018 32/25 Q1010,WMKJ,2023-11-05T04:00:00Z,1.641,103.67,32,25,VRB,3,,6+,29.82,,,,,,,,,,,FEW,1800,,,,,,,VFR,,,,,,,,,,,,METAR,38
WMKI 050400Z 00000KT 9999 SCT020 32/26 Q1011,WMKI,2023-11-05T04:00:00Z,4.568,101.092,32,26,0,0,,6+,29.85,,,,,,,,,,,SCT,2000,,,,,,,VFR,,,,,,,,,,,,METAR,37
WMKE 050400Z VRB03KT 9999 FEW014CB SCT017 32/25 Q1010 RETS,WMKE,2023-11-05T04:00:00Z,4.537,103.427,32,25,VRB,3,,6+,29.82,,,,,,,,,,,FEW,1400,SCT,1700,,,,,VFR,,,,,,,,,,,,METAR,5
WMKD 050400Z VRB03KT 9999 FEW019 29/25 Q1011 NOSIG,WMKD,2023-11-05T04:00:00Z,3.775,103.209,29,25,VRB,3,,6+,29.85,,,,,,,,,,,FEW,1900,,,,,,,VFR,,,,,,,,,,,,METAR,18
WMKC 050400Z 04004KT 330V100 9999 FEW018 30/26 Q1011,WMKC,2023-11-05T04:00:00Z,6.167,102.293,30,26,40,4,,6+,29.85,,,,,,,,,,,FEW,1800,,,,,,,VFR,,,,,,,,,,,,METAR,7
WMKB 050400Z 31006KT 240V020 9000 FEW020 30/25 Q1011 NOSIG,WMKB,2023-11-05T04:00:00Z,5.466,100.391,30,25,310,6,,5.59,29.85,,,,,,,,,,,FEW,2000,,,,,,,VFR,,,,,,,,,,,,METAR,4
WMKA 050400Z VRB04KT 9999 FEW017CB SCT020 31/24 Q1011,WMKA,2023-11-05T04:00:00Z,6.19,100.398,31,24,VRB,4,,6+,29.85,,,,,,,,,,,FEW,1700,SCT,2000,,,,,VFR,,,,,,,,,,,,METAR,5
WMBA 050400Z VRB03KT 9999 SCT020 30/25 Q1011,WMBA,2023-11-05T04:00:00Z,4.221,100.701,30,25,VRB,3,,6+,29.85,,,,,,,,,,,SCT,2000,,,,,,,VFR,,,,,,,,,,,,METAR,9
WMAU 050400Z VRB06KT 9999 SCT020 33/27 Q1011,WMAU,2023-11-05T04:00:00Z,2.387,103.876,33,27,VRB,6,,6+,29.85,,,,,,,,,,,SCT,2000,,,,,,,VFR,,,,,,,,,,,,METAR,5
WIOO 050400Z 23003KT 9999 FEW011CB SCT012 29/25 Q1011 NOSIG,WIOO,2023-11-05T04:00:00Z,-0.151,109.404,29,25,230,3,,6+,29.85,,,,,,,,,,,FEW,1100,SCT,1200,,,,,VFR,,,,,,,,,,,,METAR,4
WILL 050400Z 08003KT 3000 HZ SCT015 28/26 Q1011 NOSIG,WILL,2023-11-05T04:00:00Z,-5.242,105.179,28,26,80,3,,1.86,29.85,,,,,,,,,,HZ,SCT,1500,,,,,,,IFR,,,,,,,,,,,,METAR,83
WIII 050400Z 09006KT 020V130 5000 HZ SCT020 32/24 Q1010 NOSIG,WIII,2023-11-05T04:00:00Z,-6.125,106.659,32,24,90,6,,3.11,29.82,,,,,,,,,,HZ,SCT,2000,,,,,,,MVFR,,,,,,,,,,,,METAR,9
WIDN 050400Z 03003KT 9999 BKN017 31/24 Q1011 NOSIG,WIDN,2023-11-05T04:00:00Z,0.923,104.532,31,24,30,3,,6+,29.85,,,,,,,,,,,BKN,1700,,,,,,,MVFR,,,,,,,,,,,,METAR,18
WIDD 050400Z 03005KT 9999 FEW014 32/23 Q1012 NOSIG,WIDD,2023-11-05T04:00:00Z,1.121,104.119,32,23,30,5,,6+,29.88,,,,,,,,,,,FEW,1400,,,,,,,VFR,,,,,,,,,,,,METAR,26
WBSB 050400Z 35006KT 9999 SCT015 FEW016CB SCT140 BKN300 32/27 Q1010 NOSIG,WBSB,2023-11-05T04:00:00Z,4.944,114.928,32,27,350,6,,6+,29.82,,,,,,,,,,,SCT,1500,FEW,1600,SCT,14000,BKN,30000,VFR,,,,,,,,,,,,METAR,15
WBKW 050400Z 15009KT 100V210 9999 FEW016CB 32/26 Q1009,WBKW,2023-11-05T04:00:00Z,4.316,118.119,32,26,150,9,,6+,29.79,,,,,,,,,,,FEW,1600,,,,,,,VFR,,,,,,,,,,,,METAR,17
WBKT 050400Z VRB02KT 9999 SCT015 31/27 Q1010,WBKT,2023-11-05T04:00:00Z,6.922,116.837,31,27,VRB,2,,6+,29.82,,,,,,,,,,,SCT,1500,,,,,,,VFR,,,,,,,,,,,,METAR,11
WBKS 050400Z VRB02KT 9999 FEW014 28/26 Q1010 RERA,WBKS,2023-11-05T04:00:00Z,5.901,118.059,28,26,VRB,2,,6+,29.82,,,,,,,,,,,FEW,1400,,,,,,,VFR,,,,,,,,,,,,METAR,13
WBKL 050400Z 33005KT 280V350 9999 FEW016 FEW017CB 31/26 Q1009,WBKL,2023-11-05T04:00:00Z,5.301,115.25,31,26,330,5,,6+,29.79,,,,,,,,,,,FEW,1600,FEW,1700,,,,,VFR,,,,,,,,,,,,METAR,29
WBKK 050400Z VRB03KT 9999 FEW014 32/26 Q1009 NOSIG,WBKK,2023-11-05T04:00:00Z,5.937,116.051,32,26,VRB,3,,6+,29.79,,,,,,,,,,,FEW,1400,,,,,,,VFR,,,,,,,,,,,,METAR,9
WBGY 050400Z VRB02KT 9999 FEW018 32/26 Q1011,WBGY,2023-11-05T04:00:00Z,1.222,111.466,32,26,VRB,2,,6+,29.85,,,,,,,,,,,FEW,1800,,,,,,,VFR,,,,,,,,,,,,METAR,13
WBGS 050400Z VRB03KT 9999 SCT017 32/25 Q1010,WBGS,2023-11-05T04:00:00Z,2.264,111.983,32,25,VRB,3,,6+,29.82,,,,,,,,,,,SCT,1700,,,,,,,VFR,,,,,,,,,,,,METAR,26
WBGR 050400Z VRB03KT 9999 SCT016 32/25 Q1010,WBGR,2023-11-05T04:00:00Z,4.322,113.987,32,25,VRB,3,,6+,29.82,,,,,,,,,,,SCT,1600,,,,,,,VFR,,,,,,,,,,,,METAR,18
WBGG 050400Z VRB04KT 9999 FEW015CB SCT018 32/25 Q1011 NOSIG,WBGG,2023-11-05T04:00:00Z,1.484,110.34,32,25,VRB,4,,6+,29.85,,,,,,,,,,,FEW,1500,SCT,1800,,,,,VFR,,,,,,,,,,,,METAR,26
WBGB 050400Z 35005KT 260V060 9999 SCT014 32/27 Q1010,WBGB,2023-11-05T04:00:00Z,3.12,113.025,32,27,350,5,,6+,29.82,,,,,,,,,,,SCT,1400,,,,,,,VFR,,,,,,,,,,,,METAR,34
WAYY 050400Z 24004KT 9999 SCT014 27/23 Q1010 NOSIG METAR ,WAYY,2023-11-05T04:00:00Z,-4.528,136.887,27,23,240,4,,6+,29.82,,,,,,,,,,,SCT,1400,,,,,,,VFR,,,,,,,,,,,,METAR,32
WATT 050400Z 32012KT 9999 FEW020 32/23 Q1011 NOSIG,WATT,2023-11-05T04:00:00Z,-10.172,123.671,32,23,320,12,,6+,29.85,,,,,,,,,,,FEW,2000,,,,,,,VFR,,,,,,,,,,,,METAR,104
WARR 050400Z 06009KT 9999 FEW020 34/23 Q1010 NOSIG ,WARR,2023-11-05T04:00:00Z,-7.38,112.787,34,23,60,9,,6+,29.82,,,,,,,,,,,FEW,2000,,,,,,,VFR,,,,,,,,,,,,METAR,3
WAQQ 050400Z 18003KT 9999 SCT015 32/28 Q1010,WAQQ,2023-11-05T04:00:00Z,3.327,117.568,32,28,180,3,,6+,29.82,,,,,,,,,,,SCT,1500,,,,,,,VFR,,,,,,,,,,,,METAR,6
WAPP 050400Z 19007KT 150V210 9999 FEW016 31/24 Q1009 NOSIG,WAPP,2023-11-05T04:00:00Z,-3.71,128.089,31,24,190,7,,6+,29.79,,,,,,,,,,,FEW,1600,,,,,,,VFR,,,,,,,,,,,,METAR,20
WAMM 050400Z VRB04KT 9999 SCT020 34/23 Q1009 NOSIG,WAMM,2023-11-05T04:00:00Z,1.541,124.926,34,23,VRB,4,,6+,29.79,,,,,,,,,,,SCT,2000,,,,,,,VFR,,,,,,,,,,,,METAR,86
WAJJ 050400Z 09002KT 9999 SCT013 32/23 Q1006 NOSIG,WAJJ,2023-11-05T04:00:00Z,-2.573,140.514,32,23,90,2,,6+,29.70,,,,,,,,,,,SCT,1300,,,,,,,VFR,,,,,,,,,,,,METAR,93
WAHS 050400Z 06007KT 360V100 9000 SCT014 33/23 Q1010 NOSIG,WAHS,2023-11-05T04:00:00Z,-6.973,110.375,33,23,60,7,,5.59,29.82,,,,,,,,,,,SCT,1400,,,,,,,VFR,,,,,,,,,,,,METAR,3
VYYY 050400Z 06007KT 8000 NSC 32/26 Q1012 NOSIG,VYYY,2023-11-05T04:00:00Z,16.906,96.137,32,26,60,7,,4.97,29.88,,,,,,,,,,,CLR,,,,,,,,MVFR,,,,,,,,,,,,METAR,31
VYNT 050400Z 29003KT 8000 FEW025 30/25 Q1014 NOSIG,VYNT,2023-11-05T04:00:00Z,19.623,96.201,30,25,290,3,,4.97,29.94,,,,,,,,,,,FEW,2500,,,,,,,MVFR,,,,,,,,,,,,METAR,610
VVVD 050400Z 02003KT 9999 SCT013 BKN032 28/26 Q1014 NOSIG,VVVD,2023-11-05T04:00:00Z,21.118,107.414,28,26,20,3,,6+,29.94,,,,,,,,,,,SCT,1300,BKN,3200,,,,,VFR,,,,,,,,,,,,METAR,8
VVTS 050400Z 14006KT 070V180 9999 BKN023 34/25 Q1011 NOSIG,VVTS,2023-11-05T04:00:00Z,10.817,106.667,34,25,140,6,,6+,29.85,,,,,,,,,,,BKN,2300,,,,,,,MVFR,,,,,,,,,,,,METAR,10
VVPQ 050400Z 08006KT 9999 SCT015 30/26 Q1012 NOSIG,VVPQ,2023-11-05T04:00:00Z,10.169,103.995,30,26,80,6,,6+,29.88,,,,,,,,,,,SCT,1500,,,,,,,VFR,,,,,,,,,,,,METAR,8
VVPB 050400Z 11004KT 9999 FEW015 SCT050 31/23 Q1013 NOSIG,VVPB,2023-11-05T04:00:00Z,16.399,107.699,31,23,110,4,,6+,29.91,,,,,,,,,,,FEW,1500,SCT,5000,,,,,VFR,,,,,,,,,,,,METAR,15
VVNB 050400Z 16009KT 120V200 9999 BKN021 BKN031 30/24 Q1013 NOSIG,VVNB,2023-11-05T04:00:00Z,21.218,105.805,30,24,160,9,,6+,29.91,,,,,,,,,,,BKN,2100,BKN,3100,,,,,MVFR,,,,,,,,,,,,METAR,6
VVDN 050400Z 35007KT 9999 FEW015 FEW017TCU SCT070 30/25 Q1013 TEMPO FM0415 4000 SHRA,VVDN,2023-11-05T04:00:00Z,16.044,108.199,30,25,350,7,,6+,29.91,,,,,,,,,,,FEW,1500,FEW,1700,SCT,7000,,,VFR,,,,,,,,,,,,METAR,7
VVCT 050400Z 05005KT 9999 BKN015 32/24 Q1011 NOSIG,VVCT,2023-11-05T04:00:00Z,10.085,105.712,32,24,50,5,,6+,29.85,,,,,,,,,,,BKN,1500,,,,,,,MVFR,,,,,,,,,,,,METAR,6
VVCR 050400Z 09009KT 9999 FEW017 32/24 Q1012 NOSIG,VVCR,2023-11-05T04:00:00Z,11.998,109.219,32,24,90,9,,6+,29.88,,,,,,,,,,,FEW,1700,,,,,,,VFR,,,,,,,,,,,,METAR,12
VVCI 050400Z 14007KT 9999 FEW033 BKN040 BKN046 29/25 Q1014 NOSIG,VVCI,2023-11-05T04:00:00Z,20.823,106.727,29,25,140,7,,6+,29.94,,,,,,,,,,,FEW,3300,BKN,4000,BKN,4600,,,VFR,,,,,,,,,,,,METAR,6
VTUW 050400Z 08004KT 010V170 9999 FEW030 32/22 Q1013 NOSIG,VTUW,2023-11-05T04:00:00Z,17.384,104.643,32,22,80,4,,6+,29.91,,,,,,,,,,,FEW,3000,,,,,,,VFR,,,,,,,,,,,,METAR,167
VTUV 050400Z 08004KT 010V130 9999 FEW020 32/25 Q1013 NOSIG,VTUV,2023-11-05T04:00:00Z,16.117,103.772,32,25,80,4,,6+,29.91,,,,,,,,,,,FEW,2000,,,,,,,VFR,,,,,,,,,,,,METAR,136
VTUU 050400Z VRB03KT 9999 SCT020 32/27 Q1013 NOSIG,VTUU,2023-11-05T04:00:00Z,15.251,104.87,32,27,VRB,3,,6+,29.91,,,,,,,,,,,SCT,2000,,,,,,,VFR,,,,,,,,,,,,METAR,119
VTUQ 050400Z 04004KT 360V080 9999 SCT030 31/25 Q1013 NOSIG,VTUQ,2023-11-05T04:00:00Z,14.95,102.313,31,25,40,4,,6+,29.91,,,,,,,,,,,SCT,3000,,,,,,,VFR,,,,,,,,,,,,METAR,225
VTUO 050400Z 03004KT 360V090 9999 BKN030 32/26 Q1013 NOSIG,VTUO,2023-11-05T04:00:00Z,15.227,103.244,32,26,30,4,,6+,29.91,,,,,,,,,,,BKN,3000,,,,,,,MVFR,,,,,,,,,,,,METAR,182
VTUL 050400Z 07004KT 030V110 CAVOK 31/24 Q1014 NOSIG,VTUL,2023-11-05T04:00:00Z,17.445,101.725,31,24,70,4,,6+,29.94,,,,,,,,,,,CAVOK,,,,,,,,VFR,,,,,,,,,,,,METAR,257
VTUK 050400Z VRB02KT 9999 SCT030 31/24 Q1014 NOSIG,VTUK,2023-11-05T04:00:00Z,16.462,102.786,31,24,VRB,2,,6+,29.94,,,,,,,,,,,SCT,3000,,,,,,,VFR,,,,,,,,,,,,METAR,190
VTUI 050400Z 12004KT 090V150 9999 FEW030 32/22 Q1013 NOSIG,VTUI,2023-11-05T04:00:00Z,17.195,104.119,32,22,120,4,,6+,29.91,,,,,,,,,,,FEW,3000,,,,,,,VFR,,,,,,,,,,,,METAR,162
VTUD 050400Z 23003KT 160V330 9999 SCT035 32/24 Q1013 NOSIG,VTUD,2023-11-05T04:00:00Z,17.382,102.799,32,24,230,3,,6+,29.91,,,,,,,,,,,SCT,3500,,,,,,,VFR,,,,,,,,,,,,METAR,177
VTSY 050400Z 11003KT 070V170 9999 FEW025 30/24 Q1012 NOSIG,VTSY,2023-11-05T04:00:00Z,5.788,101.147,30,24,110,3,,6+,29.88,,,,,,,,,,,FEW,2500,,,,,,,VFR,,,,,,,,,,,,METAR,225
VTST 050400Z 02004KT 290V080 9999 FEW030 31/26 Q1011 NOSIG,VTST,2023-11-05T04:00:00Z,7.512,99.621,31,26,20,4,,6+,29.85,,,,,,,,,,,FEW,3000,,,,,,,VFR,,,,,,,,,,,,METAR,17
VTSS 050400Z 23003KT 090V260 9999 SCT020 BKN100 28/26 Q1012 RETS NOSIG,VTSS,2023-11-05T04:00:00Z,6.933,100.393,28,26,230,3,,6+,29.88,,,,,,,,,,,SCT,2000,BKN,10000,,,,,VFR,,,,,,,,,,,,METAR,28
VTSR 050400Z 32004KT 230V040 9999 FEW020 31/26 Q1012 NOSIG,VTSR,2023-11-05T04:00:00Z,9.773,98.587,31,26,320,4,,6+,29.88,,,,,,,,,,,FEW,2000,,,,,,,VFR,,,,,,,,,,,,METAR,23
VTSP 050400Z 09005KT 010V150 9999 FEW020 31/25 Q1012 NOSIG,VTSP,2023-11-05T04:00:00Z,8.105,98.308,31,25,90,5,,6+,29.88,,,,,,,,,,,FEW,2000,,,,,,,VFR,,,,,,,,,,,,METAR,12
VTSM 050400Z 17004KT 9999 -RA FEW018TCU BKN020 30/26 Q1013 NOSIG,VTSM,2023-11-05T04:00:00Z,9.548,100.062,30,26,170,4,,6+,29.91,,,,,,,,,,-RA,FEW,1800,BKN,2000,,,,,MVFR,,,,,,,,,,,,METAR,12
VTSG 050400Z VRB02KT 9999 FEW023 SCT028 31/26 Q1012 NOSIG,VTSG,2023-11-05T04:00:00Z,8.099,98.986,31,26,VRB,2,,6+,29.88,,,,,,,,,,,FEW,2300,SCT,2800,,,,,VFR,,,,,,,,,,,,METAR,32
VTSF 050400Z 09007KT 060V120 9999 FEW016CB SCT018 BKN050 30/25 Q1012 TEMPO FM0415 3000 TSRA,VTSF,2023-11-05T04:00:00Z,8.546,99.94,30,25,90,7,,6+,29.88,,,,,,,,,,,FEW,1600,SCT,1800,BKN,5000,,,VFR,,,,,,,,,,,,METAR,6
VTSE 050400Z 07008KT 9999 FEW018 32/26 Q1012 NOSIG,VTSE,2023-11-05T04:00:00Z,10.711,99.362,32,26,70,8,,6+,29.88,,,,,,,,,,,FEW,1800,,,,,,,VFR,,,,,,,,,,,,METAR,8
VTSC 050400Z 34004KT 310V010 9999 FEW010 SCT100 28/26 Q1012 NOSIG,VTSC,2023-11-05T04:00:00Z,6.52,101.743,28,26,340,4,,6+,29.88,,,,,,,,,,,FEW,1000,SCT,10000,,,,,VFR,,,,,,,,,,,,METAR,5
VTSB 050400Z 02004KT 340V070 9999 SCT020 30/25 Q1012 NOSIG,VTSB,2023-11-05T04:00:00Z,9.133,99.152,30,25,20,4,,6+,29.88,,,,,,,,,,,SCT,2000,,,,,,,VFR,,,,,,,,,,,,METAR,10
VTPT 050400Z /////KT 9999 FEW026 31/25 Q1013 NOSIG,VTPT,2023-11-05T04:00:00Z,16.897,99.254,31,25,,,,6+,29.91,,,,,,,,,,,FEW,2600,,,,,,,VFR,,,,,,,,,,,,METAR,148
VTPP 050400Z VRB02KT 9999 FEW030 33/27 Q1012 NOSIG,VTPP,2023-11-05T04:00:00Z,16.792,100.274,33,27,VRB,2,,6+,29.88,,,,,,,,,,,FEW,3000,,,,,,,VFR,,,,,,,,,,,,METAR,45
VTPO 050400Z 31005KT 9999 FEW015 31/27 Q1013 NOSIG,VTPO,2023-11-05T04:00:00Z,17.238,99.818,31,27,310,5,,6+,29.91,,,,,,,,,,,FEW,1500,,,,,,,VFR,,,,,,,,,,,,METAR,58
VTPM 050400Z VRB03KT 9999 FEW025 30/26 Q1014 NOSIG,VTPM,2023-11-05T04:00:00Z,16.703,98.542,30,26,VRB,3,,6+,29.94,,,,,,,,,,,FEW,2500,,,,,,,VFR,,,,,,,,,,,,METAR,211
VTPH 050400Z 07006KT 040V120 9999 FEW030 32/26 Q1012 NOSIG,VTPH,2023-11-05T04:00:00Z,12.633,99.951,32,26,70,6,,6+,29.88,,,,,,,,,,,FEW,3000,,,,,,,VFR,,,,,,,,,,,,METAR,12
VTPB 050400Z 00000KT 9999 FEW030 32/27 Q1013 NOSIG,VTPB,2023-11-05T04:00:00Z,16.676,101.195,32,27,0,0,,6+,29.91,,,,,,,,,,,FEW,3000,,,,,,,VFR,,,,,,,,,,,,METAR,134
VTCT 050400Z VRB03KT 9999 FEW020 29/23 Q1015 NOSIG,VTCT,2023-11-05T04:00:00Z,19.961,99.881,29,23,VRB,3,,6+,29.97,,,,,,,,,,,FEW,2000,,,,,,,VFR,,,,,,,,,,,,METAR,389
VTCP 050400Z VRB02KT 9999 FEW035 31/25 Q1014 NOSIG,VTCP,2023-11-05T04:00:00Z,18.129,100.162,31,25,VRB,2,,6+,29.94,,,,,,,,,,,FEW,3500,,,,,,,VFR,,,,,,,,,,,,METAR,166
VTCN 050400Z VRB02KT 9999 FEW020 29/24 Q1014 NOSIG,VTCN,2023-11-05T04:00:00Z,18.807,100.787,29,24,VRB,2,,6+,29.94,,,,,,,,,,,FEW,2000,,,,,,,VFR,,,,,,,,,,,,METAR,211
VTCL 050400Z VRB02KT 9999 FEW014 30/26 Q1014 NOSIG,VTCL,2023-11-05T04:00:00Z,18.277,99.502,30,26,VRB,2,,6+,29.94,,,,,,,,,,,FEW,1400,,,,,,,VFR,,,,,,,,,,,,METAR,240
VTCH 050400Z VRB03KT 9999 FEW025 28/23 Q1015,VTCH,2023-11-05T04:00:00Z,19.302,97.972,28,23,VRB,3,,6+,29.97,,,,,,,,,,,FEW,2500,,,,,,,VFR,,,,,,,,,,,,METAR,266
VTCC 050400Z 16003KT 080V230 9999 FEW022 SCT035 29/24 Q1015 NOSIG,VTCC,2023-11-05T04:00:00Z,18.771,98.963,29,24,160,3,,6+,29.97,,,,,,,,,,,FEW,2200,SCT,3500,,,,,VFR,,,,,,,,,,,,METAR,308
VTBU 050400Z 01002KT 8000 FEW020 32/25 Q1013 NOSIG,VTBU,2023-11-05T04:00:00Z,12.68,101.001,32,25,10,2,,4.97,29.91,,,,,,,,,,,FEW,2000,,,,,,,MVFR,,,,,,,,,,,,METAR,12
VTBS 050400Z VRB03KT 9999 FEW020 32/25 Q1012 NOSIG,VTBS,2023-11-05T04:00:00Z,13.686,100.767,32,25,VRB,3,,6+,29.88,,,,,,,,,,,FEW,2000,,,,,,,VFR,,,,,,,,,,,,METAR,1
VTBO 050400Z 35002KT 9999 FEW020 33/25 Q1012,VTBO,2023-11-05T04:00:00Z,12.275,102.319,33,25,350,2,,6+,29.88,,,,,,,,,,,FEW,2000,,,,,,,VFR,,,,,,,,,,,,METAR,25
VTBD 050400Z VRB03KT 9999 FEW030 32/28 Q1012 NOSIG,VTBD,2023-11-05T04:00:00Z,13.913,100.607,32,28,VRB,3,,6+,29.88,,,,,,,,,,,FEW,3000,,,,,,,VFR,,,,,,,,,,,,METAR,6
VRMM 050400Z 17010KT 9999 SCT017TCU BKN260 29/26 Q1012 TEMPO 5000 SHRA,VRMM,2023-11-05T04:00:00Z,4.192,73.529,29,26,170,10,,6+,29.88,,,,,,,,,,,SCT,1700,BKN,26000,,,,,VFR,,,,,,,,,,,,METAR,2
VRMH 050400Z 13003KT 9999 FEW017 FEW018CB BKN120 30/25 Q1013 CB ENE,VRMH,2023-11-05T04:00:00Z,6.744,73.171,30,25,130,3,,6+,29.91,,,,,,,,,,,FEW,1700,FEW,1800,BKN,12000,,,VFR,,,,,,,,,,,,METAR,1
VRMG 050400Z 14013KT 9000 FEW018TCU BKN270 30/26 Q1012 NOSIG,VRMG,2023-11-05T04:00:00Z,-0.693,73.156,30,26,140,13,,5.59,29.88,,,,,,,,,,,FEW,1800,BKN,27000,,,,,VFR,,,,,,,,,,,,METAR,2
VQPR 050400Z VRB01G13KT 9999 NSC 13/03 Q1026,VQPR,2023-11-05T04:00:00Z,27.403,89.425,13,3,VRB,1,13,6+,30.30,,,,,,,,,,,CLR,,,,,,,,VFR,,,,,,,,,,,,METAR,2227
VOVZ 050400Z 09004KT 6000 SCT018 SCT080 31/23 Q1014 NOSIG,VOVZ,2023-11-05T04:00:00Z,17.722,83.228,31,23,90,4,,3.73,29.94,,,,,,,,,,,SCT,1800,SCT,8000,,,,,MVFR,,,,,,,,,,,,METAR,4
VOTV 050400Z VRB01KT 6000 FEW015 SCT080 30/24 Q1012 NOSIG,VOTV,2023-11-05T04:00:00Z,8.484,76.919,30,24,VRB,1,,3.73,29.88,,,,,,,,,,,FEW,1500,SCT,8000,,,,,MVFR,,,,,,,,,,,,METAR,9
VOTR 050400Z VRB02KT 5000 BR SCT015 BKN080 29/26 Q1013 NOSIG,VOTR,2023-11-05T04:00:00Z,10.765,78.71,29,26,VRB,2,,3.11,29.91,,,,,,,,,,BR,SCT,1500,BKN,8000,,,,,MVFR,,,,,,,,,,,,METAR,90
VOTP 050400Z 05004KT 6000 SCT015 28/24 Q1013 NOSIG,VOTP,2023-11-05T04:00:00Z,13.633,79.543,28,24,50,4,,3.73,29.91,,,,,,,,,,,SCT,1500,,,,,,,MVFR,,,,,,,,,,,,METAR,103
VOTK 050400Z 34003KT 4000 HZ FEW020 SCT100 29/24 Q1012 TEMPO 5000 HZ,VOTK,2023-11-05T04:00:00Z,8.722,78.028,29,24,340,3,,2.49,29.88,,,,,,,,,,HZ,FEW,2000,SCT,10000,,,,,IFR,,,,,,,,,,,,METAR,25
VOSM 050400Z 34003KT 6000 FEW010 SCT020 SCT100 25/24 Q1013 NOSIG,VOSM,2023-11-05T04:00:00Z,11.783,78.066,25,24,340,3,,3.73,29.91,,,,,,,,,,,FEW,1000,SCT,2000,SCT,10000,,,MVFR,,,,,,,,,,,,METAR,301
VORY 050400Z 11006KT 6000 SCT020 SCT025 31/25 Q1014 NOSIG,VORY,2023-11-05T04:00:00Z,17.11,81.818,31,25,110,6,,3.73,29.94,,,,,,,,,,,SCT,2000,SCT,2500,,,,,MVFR,,,,,,,,,,,,METAR,47
VOPC 050400Z 03003KT 6000 SCT015 BKN100 27/26 Q1014 NOSIG,VOPC,2023-11-05T04:00:00Z,11.969,79.81,27,26,30,3,,3.73,29.94,,,,,,,,,,,SCT,1500,BKN,10000,,,,,MVFR,,,,,,,,,,,,METAR,43
VOPB 050400Z 03009KT 6000 SCT012 SCT220 30/26 Q1012 NOSIG,VOPB,2023-11-05T04:00:00Z,11.641,92.73,30,26,30,9,,3.73,29.88,,,,,,,,,,,SCT,1200,SCT,22000,,,,,MVFR,,,,,,,,,,,,METAR,1
VOND 050400Z 02001KT 3000 HZ NSC 27/17 Q1017 NOSIG,VOND,2023-11-05T04:00:00Z,19.181,77.333,27,17,20,1,,1.86,30.03,,,,,,,,,,HZ,CLR,,,,,,,,IFR,,,,,,,,,,,,METAR,86
VOMY 050400Z 10006KT 8000 BKN012 SCT080 25/21 Q1015,VOMY,2023-11-05T04:00:00Z,12.229,76.652,25,21,100,6,,4.97,29.97,,,,,,,,,,,BKN,1200,SCT,8000,,,,,MVFR,,,,,,,,,,,,METAR,727
VOMM 050400Z 12003KT 3000 BR SCT020 SCT100 29/27 Q1012 BECMG 5000 BR,VOMM,2023-11-05T04:00:00Z,12.994,80.18,29,27,120,3,,1.86,29.88,,,,,,,,,,BR,SCT,2000,SCT,10000,,,,,IFR,,,,,,,,,,,,METAR,7
VOML 050400Z 09003KT 8000 FEW007 SCT012 27/25 Q1012 NOSIG,VOML,2023-11-05T04:00:00Z,12.961,74.89,27,25,90,3,,4.97,29.88,,,,,,,,,,,FEW,700,SCT,1200,,,,,MVFR,,,,,,,,,,,,METAR,100
VOMD 050400Z 10004KT 5000 BR SCT018 BKN100 27/26 Q1013 NOSIG,VOMD,2023-11-05T04:00:00Z,9.835,78.093,27,26,100,4,,3.11,29.91,,,,,,,,,,BR,SCT,1800,BKN,10000,,,,,MVFR,,,,,,,,,,,,METAR,135
VOKU 050400Z 05005KT 5000 HZ SCT018 SCT100 28/23 Q1015 NOSIG,VOKU,2023-11-05T04:00:00Z,15.716,78.169,28,23,50,5,,3.11,29.97,,,,,,,,,,HZ,SCT,1800,SCT,10000,,,,,MVFR,,,,,,,,,,,,METAR,280
VOKN 050400Z 22002KT 5000 BR SCT012 BKN080 26/25 Q1013 NOSIG,VOKN,2023-11-05T04:00:00Z,11.917,75.547,26,25,220,2,,3.11,29.91,,,,,,,,,,BR,SCT,1200,BKN,8000,,,,,MVFR,,,,,,,,,,,,METAR,105
VOJV 050400Z 11004KT 7000 FEW015 SCT020 29/21 Q1017,VOJV,2023-11-05T04:00:00Z,15.174,76.635,29,21,110,4,,4.35,30.03,,,,,,,,,,,FEW,1500,SCT,2000,,,,,MVFR,,,,,,,,,,,,METAR,508
VOHY 050400Z VRB02KT 4000 BR FEW010 SCT015 25/23 Q1018 NOSIG,VOHY,2023-11-05T04:00:00Z,17.453,78.468,25,23,VRB,2,,2.49,30.06,,,,,,,,,,BR,FEW,1000,SCT,1500,,,,,IFR,,,,,,,,,,,,METAR,540
VOHS 050400Z 07007KT 3000 HZ FEW010 SCT015 BKN100 26/22 Q1018 BECMG 5000,VOHS,2023-11-05T04:00:00Z,17.233,78.429,26,22,70,7,,1.86,30.06,,,,,,,,,,HZ,FEW,1000,SCT,1500,BKN,10000,,,IFR,,,,,,,,,,,,METAR,607
VOHB 050400Z 08006KT 9999 FEW012 SCT080 26/22 Q1016,VOHB,2023-11-05T04:00:00Z,15.362,75.085,26,22,80,6,,6+,30.00,,,,,,,,,,,FEW,1200,SCT,8000,,,,,VFR,,,,,,,,,,,,METAR,661
VOGO 050400Z 08007KT 6000 FEW020 BKN100 29/24 Q1012 NOSIG,VOGO,2023-11-05T04:00:00Z,15.378,73.828,29,24,80,7,,3.73,29.88,,,,,,,,,,,FEW,2000,BKN,10000,,,,,MVFR,,,,,,,,,,,,METAR,56
VOGB 050400Z 09007KT 5000 BR BKN080 28/24 Q1017,VOGB,2023-11-05T04:00:00Z,17.309,76.957,28,24,90,7,,3.11,30.03,,,,,,,,,,BR,BKN,8000,,,,,,,MVFR,,,,,,,,,,,,METAR,477
VOGA 050400Z 09004KT 3000 VCFG BR SCT090 BKN250 28/22 Q1013 NOSIG,VOGA,2023-11-05T04:00:00Z,-99.99,-99.99,28,22,90,4,,1.86,29.91,,,,,,,,,,VCFG BR,SCT,9000,BKN,25000,,,,,IFR,,,,,,,,,,,,METAR,9999
VOCP 050400Z 33003KT 6000 SCT020 SCT090 29/25 Q1013 NOSIG,VOCP,2023-11-05T04:00:00Z,14.513,78.771,29,25,330,3,,3.73,29.91,,,,,,,,,,,SCT,2000,SCT,9000,,,,,MVFR,,,,,,,,,,,,METAR,134
VOCL 050400Z 08004KT 6000 SCT012 BKN080 25/23 Q1012 NOSIG,VOCL,2023-11-05T04:00:00Z,11.137,75.955,25,23,80,4,,3.73,29.88,,,,,,,,,,,SCT,1200,BKN,8000,,,,,MVFR,,,,,,,,,,,,METAR,104
VOCI 050400Z 09003KT 4000 BR FEW012 BKN080 27/25 Q1012 NOSIG,VOCI,2023-11-05T04:00:00Z,10.152,76.402,27,25,90,3,,2.49,29.88,,,,,,,,,,BR,FEW,1200,BKN,8000,,,,,IFR,,,,,,,,,,,,METAR,8
VOCB 050400Z VRB03KT 4000 BR SCT012 BKN080 25/23 Q1015 BECMG 5000 HZ,VOCB,2023-11-05T04:00:00Z,11.03,77.043,25,23,VRB,3,,2.49,29.97,,,,,,,,,,BR,SCT,1200,BKN,8000,,,,,IFR,,,,,,,,,,,,METAR,394
VOBZ 050400Z 05006KT 6000 FEW020 SCT100 29/24 Q1013 NOSIG,VOBZ,2023-11-05T04:00:00Z,16.53,80.797,29,24,50,6,,3.73,29.91,,,,,,,,,,,FEW,2000,SCT,10000,,,,,MVFR,,,,,,,,,,,,METAR,26
VOBM 050400Z 09008KT 8000 FEW012 24/20 Q1018,VOBM,2023-11-05T04:00:00Z,15.861,74.617,24,20,90,8,,4.97,30.06,,,,,,,,,,,FEW,1200,,,,,,,MVFR,,,,,,,,,,,,METAR,758
VOBL 050400Z 09006KT 6000 FEW010 SCT012 24/20 Q1018 NOSIG,VOBL,2023-11-05T04:00:00Z,13.205,77.704,24,20,90,6,,3.73,30.06,,,,,,,,,,,FEW,1000,SCT,1200,,,,,MVFR,,,,,,,,,,,,METAR,908
VOBG 050400Z 06004KT 6000 SCT008 SCT012 26/22 Q1018 NOSIG,VOBG,2023-11-05T04:00:00Z,12.949,77.663,26,22,60,4,,3.73,30.06,,,,,,,,,,,SCT,800,SCT,1200,,,,,MVFR,,,,,,,,,,,,METAR,884
VOAT 050400Z 12009KT 5000 HZ SCT015 FEW025TCU BKN080 30/26 Q1012 NOSIG,VOAT,2023-11-05T04:00:00Z,10.824,72.176,30,26,120,9,,3.11,29.88,,,,,,,,,,HZ,SCT,1500,FEW,2500,BKN,8000,,,MVFR,,,,,,,,,,,,METAR,5
VOAR 050400Z 01004KT 4500 BR SCT018 SCT090 29/24 Q1013 BECMG 6000,VOAR,2023-11-05T04:00:00Z,13.071,79.691,29,24,10,4,,2.8,29.91,,,,,,,,,,BR,SCT,1800,SCT,9000,,,,,IFR,,,,,,,,,,,,METAR,81
VNKT 050400Z 12003KT 6000 FEW015 18/12 Q1023 NOSIG,VNKT,2023-11-05T04:00:00Z,27.697,85.359,18,12,120,3,,3.73,30.21,,,,,,,,,,,FEW,1500,,,,,,,MVFR,,,,,,,,,,,,METAR,1334
VMMC 050400Z 07005KT 010V120 9999 FEW012 28/24 Q1014 NOSIG,VMMC,2023-11-05T04:00:00Z,22.141,113.596,28,24,70,5,,6+,29.94,,,,,,,,,,,FEW,1200,,,,,,,VFR,,,,,,,,,,,,METAR,1
VLVT 050400Z 27002KT 7000 FEW020 FEW200 32/26 Q1013 NOSIG,VLVT,2023-11-05T04:00:00Z,17.987,102.564,32,26,270,2,,4.35,29.91,,,,,,,,,,,FEW,2000,FEW,20000,,,,,MVFR,,,,,,,,,,,,METAR,171
VLSK 050400Z 09004KT 9999 FEW016 32/21 Q1013 NOSIG,VLSK,2023-11-05T04:00:00Z,16.557,104.76,32,21,90,4,,6+,29.91,,,,,,,,,,,FEW,1600,,,,,,,VFR,,,,,,,,,,,,METAR,148
VLPS 050400Z 32002KT 9999 SCT020 31/26 Q1011 NOSIG,VLPS,2023-11-05T04:00:00Z,15.132,105.781,31,26,320,2,,6+,29.85,,,,,,,,,,,SCT,2000,,,,,,,VFR,,,,,,,,,,,,METAR,102
VLLN 050400Z 27002KT 5000 BR SCT020 BKN010 25/22 Q1016 NOSIG,VLLN,2023-11-05T04:00:00Z,20.963,101.403,25,22,270,2,,3.11,30.00,,,,,,,,,,BR,SCT,2000,BKN,1000,,,,,MVFR,,,,,,,,,,,,METAR,548
VLLB 050400Z 36002KT 9999 SCT010 SCT060 BKN080 27/22 Q1014 NOSIG,VLLB,2023-11-05T04:00:00Z,19.897,102.161,27,22,360,2,,6+,29.94,,,,,,,,,,,SCT,1000,SCT,6000,BKN,8000,,,VFR,,,,,,,,,,,,METAR,297
VISM 050400Z 00000KT 5000 NSC 18/06 Q1022,VISM,2023-11-05T04:00:00Z,31.082,77.068,18,6,0,0,,3.11,30.18,,,,,,,,,,,CLR,,,,,,,,MVFR,,,,,,,,,,,,METAR,1537
VIPT 050400Z 01001KT 4000 HZ NSC 23/18 Q1017,VIPT,2023-11-05T04:00:00Z,29.033,79.474,23,18,10,1,,2.49,30.03,,,,,,,,,,HZ,CLR,,,,,,,,IFR,,,,,,,,,,,,METAR,236
VILK 050400Z VRB02KT 1500 R27/2000 HZ NSC 25/18 Q1016 NOSIG,VILK,2023-11-05T04:00:00Z,26.761,80.889,25,18,VRB,2,,0.93,30.00,,,,,,,,,,HZ,CLR,,,,,,,,LIFR,,,,,,,,,,,,METAR,121
VIJP 050400Z 07005KT 2000 FU NSC 27/15 Q1018 NOSIG,VIJP,2023-11-05T04:00:00Z,26.824,75.812,27,15,70,5,,1.24,30.06,,,,,,,,,,FU,CLR,,,,,,,,IFR,,,,,,,,,,,,METAR,383
VIGG 050400Z 00000KT 5000 HZ NSC 21/14 Q1019,VIGG,2023-11-05T04:00:00Z,32.165,76.263,21,14,0,0,,3.11,30.09,,,,,,,,,,HZ,CLR,,,,,,,,MVFR,,,,,,,,,,,,METAR,760
VIDP 050400Z 00000KT 0600 R28///// R29L/1200 R29R/0900 FU NSC 24/18 Q1017 NOSIG,VIDP,2023-11-05T04:00:00Z,28.567,77.117,24,18,0,0,,0.37,30.03,,,,,,,,,,FU,CLR,,,,,,,,LIFR,,,,,,,,,,,,METAR,236
VIDN 050400Z 30003KT 4000 HZ NSC 18/11 Q1018 NOSIG,VIDN,2023-11-05T04:00:00Z,30.19,78.18,18,11,300,3,,2.49,30.06,,,,,,,,,,HZ,CLR,,,,,,,,IFR,,,,,,,,,,,,METAR,550
VIBR 050400Z 00000KT 6000 NSC 16/06 Q1021,VIBR,2023-11-05T04:00:00Z,31.876,77.154,16,6,0,0,,3.73,30.15,,,,,,,,,,,CLR,,,,,,,,MVFR,,,,,,,,,,,,METAR,1089
VIAR 050400Z VRB02KT 1500 R34/1600 BR NSC 23/20 Q1016 NOSIG,VIAR,2023-11-05T04:00:00Z,31.707,74.801,23,20,VRB,2,,0.93,30.00,,,,,,,,,,BR,CLR,,,,,,,,LIFR,,,,,,,,,,,,METAR,226
VHHH 050400Z VRB04KT 9999 FEW025 SCT040 29/20 Q1015 NOSIG,VHHH,2023-11-05T04:00:00Z,22.309,113.922,29,20,VRB,4,,6+,29.97,,,,,,,,,,,FEW,2500,SCT,4000,,,,,VFR,,,,,,,,,,,,METAR,9
VGHS 050400Z 07003KT 3200 HZ FEW015 SCT100 29/23 Q1016 NOSIG,VGHS,2023-11-05T04:00:00Z,23.846,90.4,29,23,70,3,,1.99,30.00,,,,,,,,,,HZ,FEW,1500,SCT,10000,,,,,IFR,,,,,,,,,,,,METAR,11
VGEG 050400Z 03009KT 4000 HZ FEW018 28/24 Q1014 NOSIG,VGEG,2023-11-05T04:00:00Z,22.249,91.814,28,24,30,9,,2.49,29.94,,,,,,,,,,HZ,FEW,1800,,,,,,,IFR,,,,,,,,,,,,METAR,7
VETJ 050400Z 00000KT 5000 BR FEW020 SCT100 24/19 Q1016 NOSIG,VETJ,2023-11-05T04:00:00Z,27.941,96.134,24,19,0,0,,3.11,30.00,,,,,,,,,,BR,FEW,2000,SCT,10000,,,,,MVFR,,,,,,,,,,,,METAR,244
VERP 050400Z 02003KT 3000 HZ FEW100 26/21 Q1017 NOSIG,VERP,2023-11-05T04:00:00Z,21.182,81.738,26,21,20,3,,1.86,30.03,,,,,,,,,,HZ,FEW,10000,,,,,,,IFR,,,,,,,,,,,,METAR,318
VERC 050400Z 36003KT 3000 HZ NSC 25/14 Q1020 NOSIG,VERC,2023-11-05T04:00:00Z,23.314,85.322,25,14,360,3,,1.86,30.12,,,,,,,,,,HZ,CLR,,,,,,,,IFR,,,,,,,,,,,,METAR,646
VEPY 050400Z 00000KT 5000 BR FEW015 18/14 Q1023 NOSIG,VEPY,2023-11-05T04:00:00Z,27.228,88.587,18,14,0,0,,3.11,30.21,,,,,,,,,,BR,FEW,1500,,,,,,,MVFR,,,,,,,,,,,,METAR,1399
VEPT 050400Z 22003KT 2500 BR NSC 28/23 Q1016 NOSIG,VEPT,2023-11-05T04:00:00Z,25.591,85.088,28,23,220,3,,1.55,30.00,,,,,,,,,,BR,CLR,,,,,,,,IFR,,,,,,,,,,,,METAR,53
VEMR 050400Z 09004KT 4000 BR FEW020 26/21 Q1017 BECMG 5000 HZ,VEMR,2023-11-05T04:00:00Z,25.884,93.771,26,21,90,4,,2.49,30.03,,,,,,,,,,BR,FEW,2000,,,,,,,IFR,,,,,,,,,,,,METAR,147
VEMN 050400Z 00000KT 5000 HZ FEW020 SCT100 24/18 Q1017 NOSIG,VEMN,2023-11-05T04:00:00Z,27.481,95.014,24,18,0,0,,3.11,30.03,,,,,,,,,,HZ,FEW,2000,SCT,10000,,,,,MVFR,,,,,,,,,,,,METAR,111
VELR 050400Z 16002KT 7000 FEW025 SCT090 26/20 Q1017,VELR,2023-11-05T04:00:00Z,27.296,94.098,26,20,160,2,,4.35,30.03,,,,,,,,,,,FEW,2500,SCT,9000,,,,,MVFR,,,,,,,,,,,,METAR,101
VELP 050400Z 35003KT 1500 HZ FEW018 25/20 Q1017 NOSIG,VELP,2023-11-05T04:00:00Z,23.841,92.62,25,20,350,3,,0.93,30.03,,,,,,,,,,HZ,FEW,1800,,,,,,,LIFR,,,,,,,,,,,,METAR,429
VEKI 050400Z VRB01KT 1000 BR NSC 23/23 Q1016 NOSIG,VEKI,2023-11-05T04:00:00Z,26.776,83.889,23,23,VRB,1,,0.62,30.00,,,,,,,,,,BR,CLR,,,,,,,,LIFR,,,,,,,,,,,,METAR,81
VEJS 050400Z 00000KT 2000 HZ FEW020 SCT100 27/21 Q1016,VEJS,2023-11-05T04:00:00Z,22.813,86.169,27,21,0,0,,1.24,30.00,,,,,,,,,,HZ,FEW,2000,SCT,10000,,,,,IFR,,,,,,,,,,,,METAR,151
VEJR 050400Z 00000KT 4000 HZ BKN025 OVC080 25/22 Q1018,VEJR,2023-11-05T04:00:00Z,19.075,82.037,25,22,0,0,,2.49,30.06,,,,,,,,,,HZ,BKN,2500,OVC,8000,,,,,IFR,,,,,,,,,,,,METAR,555
VEIM 050400Z 14002KT 4000 HZ FEW018 22/17 Q1020 NOSIG,VEIM,2023-11-05T04:00:00Z,24.76,93.897,22,17,140,2,,2.49,30.12,,,,,,,,,,HZ,FEW,1800,,,,,,,IFR,,,,,,,,,,,,METAR,777
VEHO 050400Z 07004KT 5000 BR FEW020 SCT100 25/20 Q1017 NOSIG,VEHO,2023-11-05T04:00:00Z,-99.99,-99.99,25,20,70,4,,3.11,30.03,,,,,,,,,,BR,FEW,2000,SCT,10000,,,,,MVFR,,,,,,,,,,,,METAR,9999
VEGY 050400Z 19003KT 2000 HZ NSC 25/19 Q1016 NOSIG,VEGY,2023-11-05T04:00:00Z,24.744,84.951,25,19,190,3,,1.24,30.00,,,,,,,,,,HZ,CLR,,,,,,,,IFR,,,,,,,,,,,,METAR,115
VEGT 050400Z 10004KT 2500 BR FEW018 27/25 Q1016 NOSIG,VEGT,2023-11-05T04:00:00Z,26.107,91.587,27,25,100,4,,1.55,30.00,,,,,,,,,,BR,FEW,1800,,,,,,,IFR,,,,,,,,,,,,METAR,50
VEDG 050400Z 05005KT 2400 HZ SCT018 BKN090 27/22 Q1016 NOSIG,VEDG,2023-11-05T04:00:00Z,23.623,87.243,27,22,50,5,,1.49,30.00,,,,,,,,,,HZ,SCT,1800,BKN,9000,,,,,IFR,,,,,,,,,,,,METAR,88
VECO 050400Z 05004KT 4000 HZ FEW020 27/22 Q1016 NOSIG,VECO,2023-11-05T04:00:00Z,26.331,89.467,27,22,50,4,,2.49,30.00,,,,,,,,,,HZ,FEW,2000,,,,,,,IFR,,,,,,,,,,,,METAR,48
VECC 050400Z 01005KT 2800 HZ FEW100 28/24 Q1015 BECMG 3000 HZ,VECC,2023-11-05T04:00:00Z,22.651,88.445,28,24,10,5,,1.74,29.97,,,,,,,,,,HZ,FEW,10000,,,,,,,IFR,,,,,,,,,,,,METAR,11
VEBS 050400Z 35003KT 3500 HZ FEW018 SCT100 28/24 Q1016 NOSIG,VEBS,2023-11-05T04:00:00Z,20.244,85.818,28,24,350,3,,2.17,30.00,,,,,,,,,,HZ,FEW,1800,SCT,10000,,,,,IFR,,,,,,,,,,,,METAR,42
VEBN 050400Z VRB01KT 1800 HZ NSC 24/19 Q1016 NOSIG,VEBN,2023-11-05T04:00:00Z,25.452,82.859,24,19,VRB,1,,1.12,30.00,,,,,,,,,,HZ,CLR,,,,,,,,IFR,,,,,,,,,,,,METAR,81
VEAT 050400Z 03004KT 3000 HZ NSC 29/24 Q1015 NOSIG,VEAT,2023-11-05T04:00:00Z,23.887,91.24,29,24,30,4,,1.86,29.97,,,,,,,,,,HZ,CLR,,,,,,,,IFR,,,,,,,,,,,,METAR,20
VDSV 050400Z 14006KT 100V170 9999 SCT015 31/25 Q1012,VDSV,2023-11-05T04:00:00Z,10.582,103.637,31,25,140,6,,6+,29.88,,,,,,,,,,,SCT,1500,,,,,,,VFR,,,,,,,,,,,,METAR,1
VDPP 050400Z VRB03KT 9999 SCT015 OVC040 29/27 Q1011,VDPP,2023-11-05T04:00:00Z,11.547,104.844,29,27,VRB,3,,6+,29.85,,,,,,,,,,,SCT,1500,OVC,4000,,,,,VFR,,,,,,,,,,,,METAR,10
VAUD 050400Z 19002KT 4000 HZ NSC 25/20 Q1018 NOSIG,VAUD,2023-11-05T04:00:00Z,24.618,73.896,25,20,190,2,,2.49,30.06,,,,,,,,,,HZ,CLR,,,,,,,,IFR,,,,,,,,,,,,METAR,506
VASU 050400Z 10008KT 2000 FU NSC 30/13 Q1014 TEMPO 1500,VASU,2023-11-05T04:00:00Z,21.114,72.742,30,13,100,8,,1.24,29.94,,,,,,,,,,FU,CLR,,,,,,,,IFR,,,,,,,,,,,,METAR,6
VASD 050400Z 14002KT 3000 HZ NSC 26/09 Q1018 NOSIG,VASD,2023-11-05T04:00:00Z,19.689,74.379,26,9,140,2,,1.86,30.06,,,,,,,,,,HZ,CLR,,,,,,,,IFR,,,,,,,,,,,,METAR,587
VAPR 050400Z 10005KT 6000 NSC 27/16 Q1014 NOSIG,VAPR,2023-11-05T04:00:00Z,21.649,69.657,27,16,100,5,,3.73,29.94,,,,,,,,,,,CLR,,,,,,,,MVFR,,,,,,,,,,,,METAR,8
VANP 050400Z 05002KT 3000 HZ SCT100 26/19 Q1018 NOSIG,VANP,2023-11-05T04:00:00Z,21.089,79.055,26,19,50,2,,1.86,30.06,,,,,,,,,,HZ,SCT,10000,,,,,,,IFR,,,,,,,,,,,,METAR,309
VAKP 050400Z 09010KT 7000 HZ NSC 27/20 Q1017,VAKP,2023-11-05T04:00:00Z,16.664,74.287,27,20,90,10,,4.35,30.03,,,,,,,,,,HZ,CLR,,,,,,,,MVFR,,,,,,,,,,,,METAR,612
VAJJ 050400Z 10003KT 3000 FU NSC 31/18 Q1013 NOSIG,VAJJ,2023-11-05T04:00:00Z,19.098,72.834,31,18,100,3,,1.86,29.91,,,,,,,,,,FU,CLR,,,,,,,,IFR,,,,,,,,,,,,METAR,1
VAJB 050400Z VRB02KT 3500 HZ NSC 23/16 Q1018 NOSIG,VAJB,2023-11-05T04:00:00Z,23.178,80.05,23,16,VRB,2,,2.17,30.06,,,,,,,,,,HZ,CLR,,,,,,,,IFR,,,,,,,,,,,,METAR,489
VAID 050400Z 13005KT 3000 HZ NSC 28/12 Q1019 BECMG 4000 HZ,VAID,2023-11-05T04:00:00Z,22.722,75.801,28,12,130,5,,1.86,30.09,,,,,,,,,,HZ,CLR,,,,,,,,IFR,,,,,,,,,,,,METAR,564
VADU 050400Z 06005KT 5000 FU NSC 29/18 Q1012 NOSIG,VADU,2023-11-05T04:00:00Z,20.714,70.923,29,18,60,5,,3.11,29.88,,,,,,,,,,FU,CLR,,,,,,,,MVFR,,,,,,,,,,,,METAR,10
VABO 050400Z 03004KT 2000 HZ NSC 26/18 Q1014 NOSIG,VABO,2023-11-05T04:00:00Z,22.333,73.225,26,18,30,4,,1.24,29.94,,,,,,,,,,HZ,CLR,,,,,,,,IFR,,,,,,,,,,,,METAR,36
VABB 050400Z 10005KT 2200 FU NSC 31/17 Q1013 NOSIG,VABB,2023-11-05T04:00:00Z,19.1,72.859,31,17,100,5,,1.37,29.91,,,,,,,,,,FU,CLR,,,,,,,,IFR,,,,,,,,,,,,METAR,14
VAAH 050400Z 06003KT 2500 FU NSC 28/15 Q1014 BECMG 3000,VAAH,2023-11-05T04:00:00Z,23.077,72.635,28,15,60,3,,1.55,29.94,,,,,,,,,,FU,CLR,,,,,,,,IFR,,,,,,,,,,,,METAR,52
UWWW 050400Z 06003MPS CAVOK M04/M06 Q1025 R15/CLRD60 NOSIG RMK QFE757/1010,UWWW,2023-11-05T04:00:00Z,53.509,50.163,-4,-6,60,6,,6+,30.27,,,,,,,,,,,CAVOK,,,,,,,,VFR,,,,,,,,,,,,METAR,124
UWUU 050400Z VRB01MPS 5000 BR NSC M07/M08 Q1029 R32L/0///60 TEMPO 0200 FZFG SCT002,UWUU,2023-11-05T04:00:00Z,54.57,55.87,-7,-8,VRB,2,,3.11,30.38,,,,,,,,,,BR,CLR,,,,,,,,MVFR,,,,,,,,,,,,METAR,137
UWSG 050400Z 12004MPS 9999 FEW020 M01/M01 Q1022 R08/CLRD70 NOSIG RMK QFE764/1019,UWSG,2023-11-05T04:00:00Z,51.713,46.171,-1,-1,120,8,,6+,30.18,,,,,,,,,,,FEW,2000,,,,,,,VFR,,,,,,,,,,,,METAR,31
UWPS 050400Z 15007MPS CAVOK 00/M01 Q1020 R20/CLRD60 NOSIG RMK QFE747,UWPS,2023-11-05T04:00:00Z,54.116,45.203,0,-1,150,14,,6+,30.12,,,,,,,,,,,CAVOK,,,,,,,,VFR,,,,,,,,,,,,METAR,206
UWOR 050400Z 07004MPS 0200 0150NW R07/0200N FG VV001 00/00 Q1028 R07/CLRD60 NOSIG RMK QBB030 QFE746/0995,UWOR,2023-11-05T04:00:00Z,51.07,58.597,0,0,70,8,,0.12,30.35,,,,,,,,,,FG,OVX,0,,,,,,,LIFR,,,,,,,,,,,100,METAR,270
UWOO 050400Z 09003MPS CAVOK 01/01 Q1027 R08/CLRD60 NOSIG RMK QFE760/1013,UWOO,2023-11-05T04:00:00Z,51.795,55.457,1,1,90,6,,6+,30.32,,,,,,,,,,,CAVOK,,,,,,,,VFR,,,,,,,,,,,,METAR,90
UWLW 050400Z 12002MPS CAVOK M04/M05 Q1025 R20/CLRD60 NOSIG RMK QFE763/1018,UWLW,2023-11-05T04:00:00Z,54.402,48.8,-4,-5,120,4,,6+,30.27,,,,,,,,,,,CAVOK,,,,,,,,VFR,,,,,,,,,,,,METAR,67
UWLL 050400Z 14002MPS 9999 FEW020 M04/M05 Q1024 R20/120060 NOSIG RMK QFE758/1010,UWLL,2023-11-05T04:00:00Z,54.274,48.236,-4,-5,140,4,,6+,30.24,,,,,,,,,,,FEW,2000,,,,,,,VFR,,,,,,,,,,,,METAR,119
UWKS 050400Z 18004MPS CAVOK M02/M02 Q1022 R06/010060 NOSIG RMK QFE751,UWKS,2023-11-05T04:00:00Z,56.09,47.347,-2,-2,180,8,,6+,30.18,,,,,,,,,,,CAVOK,,,,,,,,VFR,,,,,,,,,,,,METAR,165
UWKE 050400Z 16004MPS CAVOK M02/M04 Q1026 R21/090070 NOSIG RMK QFE753/1004,UWKE,2023-11-05T04:00:00Z,55.566,52.1,-2,-4,160,8,,6+,30.30,,,,,,,,,,,CAVOK,,,,,,,,VFR,,,,,,,,,,,,METAR,193
UWKD 050400Z 13004MPS CAVOK M03/M04 Q1025 R11/CLRD60 NOSIG RMK QFE758/1011,UWKD,2023-11-05T04:00:00Z,55.61,49.275,-3,-4,130,8,,6+,30.27,,,,,,,,,,,CAVOK,,,,,,,,VFR,,,,,,,,,,,,METAR,114
UWGG 050400Z 16005MPS CAVOK 04/00 Q1017 R18L/090060 NOSIG,UWGG,2023-11-05T04:00:00Z,56.225,43.786,4,0,160,10,,6+,30.03,,,,,,,,,,,CAVOK,,,,,,,,VFR,,,,,,,,,,,,METAR,73
UUYY 050400Z 16004MPS 9999 OVC006 M03/M03 Q1022 R18/450242 NOSIG RMK QFE758/1011,UUYY,2023-11-05T04:00:00Z,61.647,50.845,-3,-3,160,8,,6+,30.18,,,,,,,,,,,OVC,600,,,,,,,IFR,,,,,,,,,,,,METAR,107
UUWW 050400Z 14007G12MPS 9000 OVC009 09/08 Q1003 R06/290050 NOSIG,UUWW,2023-11-05T04:00:00Z,55.592,37.261,9,8,140,14,23,5.59,29.62,,,,,,,,,,,OVC,900,,,,,,,IFR,,,,,,,,,,,,METAR,195
UUOO 050400Z 14008MPS CAVOK 07/06 Q1010 R12/190060 NOSIG RMK QFE744,UUOO,2023-11-05T04:00:00Z,51.814,39.228,7,6,140,16,,6+,29.82,,,,,,,,,,,CAVOK,,,,,,,,VFR,,,,,,,,,,,,METAR,154
UUOL 050400Z 15008MPS 9999 OVC010 08/06 Q1011 R15/////// TEMPO 15016MPS,UUOL,2023-11-05T04:00:00Z,52.702,39.534,8,6,150,16,,6+,29.85,,,,,,,,,,,OVC,1000,,,,,,,MVFR,,,,,,,,,,,,METAR,176
UUOK 050400Z 15012MPS CAVOK 12/10 Q1002 R12/290050 NOSIG RMK QFE734/0979,UUOK,2023-11-05T04:00:00Z,51.751,36.297,12,10,150,23,,6+,29.59,,,,,,,,,,,CAVOK,,,,,,,,VFR,,,,,,,,,,,,METAR,203
UUOB 050400Z 14009G14MPS CAVOK 12/10 Q1004 R11/190065 NOSIG,UUOB,2023-11-05T04:00:00Z,50.644,36.59,12,10,140,17,27,6+,29.65,,,,,,,,,,,CAVOK,,,,,,,,VFR,,,,,,,,,,,,METAR,218
UUMO 050400Z 14006G11MPS 9999 BKN011 09/07 Q1004 R25/290050 NOSIG RMK QFE738/0984,UUMO,2023-11-05T04:00:00Z,55.512,37.507,9,7,140,12,21,6+,29.65,,,,,,,,,,,BKN,1100,,,,,,,MVFR,,,,,,,,,,,,METAR,167
UUEE 050400Z 14007G12MPS 9000 OVC009 08/07 Q1003 R06R/290051 R06C/290051 NOSIG,UUEE,2023-11-05T04:00:00Z,55.973,37.415,8,7,140,14,23,5.59,29.62,,,,,,,,,,,OVC,900,,,,,,,IFR,,,,,,,,,,,,METAR,186
UUDL 050400Z 16005G10MPS 120V190 8000 OVC007 06/04 Q1008 R23/010060 NOSIG RMK QFE748,UUDL,2023-11-05T04:00:00Z,57.561,40.157,6,4,160,10,19,4.97,29.76,,,,,,,,,,,OVC,700,,,,,,,IFR,,,,,,,,,,,,METAR,88
UUDD 050400Z 16009MPS 9999 BKN014 09/07 Q1004 R14R/290042 NOSIG,UUDD,2023-11-05T04:00:00Z,55.409,37.906,9,7,160,17,,6+,29.65,,,,,,,,,,,BKN,1400,,,,,,,MVFR,,,,,,,,,,,,METAR,165
UUBW 050400Z 12008MPS 9999 OVC011 08/08 Q1005 R12/290050 NOSIG RMK QFE743,UUBW,2023-11-05T04:00:00Z,55.553,38.15,8,8,120,16,,6+,29.68,,,,,,,,,,,OVC,1100,,,,,,,MVFR,,,,,,,,,,,,METAR,111
UUBC 050400Z 14008MPS CAVOK 11/09 Q1001 R13/290150 NOSIG RMK QFE733/0977,UUBC,2023-11-05T04:00:00Z,54.552,36.37,11,9,140,16,,6+,29.56,,,,,,,,,,,CAVOK,,,,,,,,VFR,,,,,,,,,,,,METAR,198
UTTT 050400Z 07004KT 7000 NSC 15/01 Q1019 R08R/CLRD70 NOSIG,UTTT,2023-11-05T04:00:00Z,41.258,69.281,15,1,70,4,,4.35,30.09,,,,,,,,,,,CLR,,,,,,,,MVFR,,,,,,,,,,,,METAR,429
UTST 050400Z 04004KT CAVOK 13/05 Q1018 R25/CLRD70 NOSIG,UTST,2023-11-05T04:00:00Z,37.287,67.318,13,5,40,4,,6+,30.06,,,,,,,,,,,CAVOK,,,,,,,,VFR,,,,,,,,,,,,METAR,311
UTSS 050400Z 16004KT 9999 NSC 15/M01 Q1018 R09/CLRD70 NOSIG,UTSS,2023-11-05T04:00:00Z,39.7,66.974,15,-1,160,4,,6+,30.06,,,,,,,,,,,CLR,,,,,,,,VFR,,,,,,,,,,,,METAR,665
UTSK 050400Z 08002KT 9999 FEW050CB 13/02 Q1018 R16/CLRD70,UTSK,2023-11-05T04:00:00Z,38.804,65.773,13,2,80,2,,6+,30.06,,,,,,,,,,,FEW,5000,,,,,,,VFR,,,,,,,,,,,,METAR,399
UTSB 050400Z 04004KT CAVOK 11/05 Q1017 R01/CLRD70 NOSIG,UTSB,2023-11-05T04:00:00Z,39.775,64.483,11,5,40,4,,6+,30.03,,,,,,,,,,,CAVOK,,,,,,,,VFR,,,,,,,,,,,,METAR,225
UTSA 050400Z 08008KT 6000 NSC 12/04 Q1017 R07/CLRD70 NOSIG,UTSA,2023-11-05T04:00:00Z,40.116,65.167,12,4,80,8,,3.73,30.03,,,,,,,,,,,CLR,,,,,,,,MVFR,,,,,,,,,,,,METAR,346
UTNU 050400Z 04004KT CAVOK 10/00 Q1018 R31/CLRD70 NOSIG,UTNU,2023-11-05T04:00:00Z,41.584,60.642,10,0,40,4,,6+,30.06,,,,,,,,,,,CAVOK,,,,,,,,VFR,,,,,,,,,,,,METAR,97
UTNN 050400Z VRB02KT CAVOK 05/M02 Q1019 R33/CLRD60 NOSIG,UTNN,2023-11-05T04:00:00Z,42.488,59.623,5,-2,VRB,2,,6+,30.09,,,,,,,,,,,CAVOK,,,,,,,,VFR,,,,,,,,,,,,METAR,76
UTFN 050400Z 34002KT 9999 NSC 14/M00 Q1020 R28/CLRD70 NOSIG,UTFN,2023-11-05T04:00:00Z,40.983,71.573,14,0,340,2,,6+,30.12,,,,,,,,,,,CLR,,,,,,,,VFR,,,,,,,,,,,,METAR,477
UTFF 050400Z VRB02KT 9999 NSC 14/M04 Q1020 R18/CLRD70,UTFF,2023-11-05T04:00:00Z,40.356,71.745,14,-4,VRB,2,,6+,30.12,,,,,,,,,,,CLR,,,,,,,,VFR,,,,,,,,,,,,METAR,612
UTDT 050400Z 00000MPS 6000 NSC 15/07 Q1018 R35/CLRD70 RMK QFE724/0966,UTDT,2023-11-05T04:00:00Z,37.866,68.865,15,7,0,0,,3.73,30.06,,,,,,,,,,,CLR,,,,,,,,MVFR,,,,,,,,,,,,METAR,443
UTDL 050400Z 06002MPS 3000 BR NSC 12/07 Q1020 R08/CLRD70 NOSIG RMK QFE725/0967,UTDL,2023-11-05T04:00:00Z,40.215,69.695,12,7,60,4,,1.86,30.12,,,,,,,,,,BR,CLR,,,,,,,,IFR,,,,,,,,,,,,METAR,436
UTDK 050400Z VRB01MPS 9999 NSC 15/03 Q1020 R01/09//70 RMK QFE707/0943,UTDK,2023-11-05T04:00:00Z,37.988,69.805,15,3,VRB,2,,6+,30.12,,,,,,,,,,,CLR,,,,,,,,VFR,,,,,,,,,,,,METAR,675
UTDD 050400Z 00000MPS 5000 FU NSC 12/03 Q1020 R09/D NOSIG RMK QFE696/0929,UTDD,2023-11-05T04:00:00Z,38.543,68.825,12,3,0,0,,3.11,30.12,,,,,,,,,,FU,CLR,,,,,,,,MVFR,,,,,,,,,,,,METAR,785
UTAV 050400Z 06004KT CAVOK 14/05 Q1017 R13/CLRD70 NOSIG,UTAV,2023-11-05T04:00:00Z,39.083,63.613,14,5,60,4,,6+,30.03,,,,,,,,,,,CAVOK,,,,,,,,VFR,,,,,,,,,,,,METAR,187
UTAT 050400Z VRB02KT CAVOK 09/02 Q1018 R08/CLRD70 NOSIG,UTAT,2023-11-05T04:00:00Z,41.761,59.827,9,2,VRB,2,,6+,30.06,,,,,,,,,,,CAVOK,,,,,,,,VFR,,,,,,,,,,,,METAR,84
UTAM 050400Z 22006KT 4300 HZ SCT100 13/05 Q1017 R88/CLRD70 NOSIG,UTAM,2023-11-05T04:00:00Z,37.619,61.897,13,5,220,6,,2.67,30.03,,,,,,,,,,HZ,SCT,10000,,,,,,,IFR,,,,,,,,,,,,METAR,218
UTAK 050400Z 15002KT 9999 BKN027 OVC100 16/14 Q1018 R16R/CLRD70 NOSIG,UTAK,2023-11-05T04:00:00Z,40.054,53.007,16,14,150,2,,6+,30.06,,,,,,,,,,,BKN,2700,OVC,10000,,,,,MVFR,,,,,,,,,,,,METAR,83
UTAA 050400Z 25004KT 8000 BKN100 16/04 Q1018 R88/70D NOSIG,UTAA,2023-11-05T04:00:00Z,37.975,58.371,16,4,250,4,,4.97,30.06,,,,,,,,,,,BKN,10000,,,,,,,MVFR,,,,,,,,,,,,METAR,207
USTR 050400Z 26002MPS CAVOK M04/M07 Q1029 R30/090065 R21/090065 NOSIG,USTR,2023-11-05T04:00:00Z,57.19,65.324,-4,-7,260,4,,6+,30.38,,,,,,,,,,,CAVOK,,,,,,,,VFR,,,,,,,,,,,,METAR,93
USSS 050400Z 12001MPS CAVOK M07/M07 Q1030 R26L/010060 NOSIG RMK QFE752/1002,USSS,2023-11-05T04:00:00Z,56.745,60.792,-7,-7,120,2,,6+,30.41,,,,,,,,,,,CAVOK,,,,,,,,VFR,,,,,,,,,,,,METAR,222
USRR 050400Z 28007MPS CAVOK M08/M10 Q1017 R25/32//50 NOSIG RMK QFE757,USRR,2023-11-05T04:00:00Z,61.342,73.422,-8,-10,280,14,,6+,30.03,,,,,,,,,,,CAVOK,,,,,,,,VFR,,,,,,,,,,,,METAR,52
USPP 050400Z 16003MPS 130V200 9999 OVC013 M02/M05 Q1029 R21/090060 TEMPO BKN008 RMK QFE761,USPP,2023-11-05T04:00:00Z,57.914,56.021,-2,-5,160,6,,6+,30.38,,,,,,,,,,,OVC,1300,,,,,,,MVFR,,,,,,,,,,,,METAR,120
USNN 050400Z 29005G10MPS 9999 OVC012 M05/M07 Q1014 R21/31//65 NOSIG RMK QFE756,USNN,2023-11-05T04:00:00Z,60.959,76.497,-5,-7,290,10,19,6+,29.94,,,,,,,,,,,OVC,1200,,,,,,,MVFR,,,,,,,,,,,,METAR,52
USHH 050400Z 27005MPS CAVOK M08/M10 Q1022 R24/350045 NOSIG,USHH,2023-11-05T04:00:00Z,61.029,69.086,-8,-10,270,10,,6+,30.18,,,,,,,,,,,CAVOK,,,,,,,,VFR,,,,,,,,,,,,METAR,46
USDA 050400Z 27001MPS 8000 NSC M16/M18 Q0996 R04/390140 NOSIG RMK QFE745/0994,USDA,2023-11-05T04:00:00Z,71.216,72.05,-16,-18,270,2,,4.97,29.41,,,,,,,,,,,CLR,,,,,,,,MVFR,,,,,,,,,,,,METAR,5
USCM 050400Z 14003MPS 7000 0750N FZFG NSC M07/M07 Q1028 R36/////// TEMPO 0300 FZFG VV002 RMK QFE732,USCM,2023-11-05T04:00:00Z,53.393,58.756,-7,-7,140,6,,4.35,30.35,,,,,,,,,,FZFG,CLR,,,,,,,,MVFR,,,,,,,,,,,,METAR,425
USCC 050400Z 34002MPS 9999 BKN013 M05/M05 Q1030 R27/000060 NOSIG RMK QFE752,USCC,2023-11-05T04:00:00Z,55.306,61.503,-5,-5,340,4,,6+,30.41,,,,,,,,,,,BKN,1300,,,,,,,MVFR,,,,,,,,,,,,METAR,227
URWW 050400Z 13005MPS 0300 R05/0300D FG VV001 05/05 Q1018 R05/010070 NOSIG RMK QBB050 OBST OBSC,URWW,2023-11-05T04:00:00Z,48.788,44.336,5,5,130,10,,0.19,30.06,,,,,,,,,,FG,OVX,0,,,,,,,LIFR,,,,,,,,,,,100,METAR,131
URWI 050400Z AUTO 13004MPS 0300 0150W // ///001/// 06/06 Q1016 RMK QBB050,URWI,2023-11-05T04:00:00Z,46.374,44.331,6,6,130,8,,0.19,30.00,,,TRUE,,,,,,,,,,,,,,,,LIFR,,,,,,,,,,,,METAR,145
URWA 050400Z 07004MPS CAVOK 06/06 Q1018 R09/010070 NOSIG RMK QFE765/1021,URWA,2023-11-05T04:00:00Z,46.286,47.995,6,6,70,8,,6+,30.06,,,,,,,,,,,CAVOK,,,,,,,,VFR,,,,,,,,,,,,METAR,-19
URSS 050400Z 08007MPS 9999 NSC 15/06 Q1011 R06/010070 R02/////// NOSIG RMK R02/04006G09MPS QFE757,URSS,2023-11-05T04:00:00Z,43.438,39.926,15,6,80,14,,6+,29.85,,,,,,,,,,,CLR,,,,,,,,VFR,,,,,,,,,,,,METAR,4
URRP 050400Z 11007MPS 9999 FEW/// 09/09 Q1011 R05/CLRD70 TEMPO 12009G16MPS 0200 FG BKN001 RMK QFE754/1005,URRP,2023-11-05T04:00:00Z,47.494,39.925,9,9,110,14,,6+,29.85,,,,,,,,,,,,,,,,,,,VFR,,,,,,,,,,,,METAR,73
URMT 050400Z 16004MPS 6000 NSC 09/08 Q1013 R07/010070 NOSIG RMK QFE720,URMT,2023-11-05T04:00:00Z,45.108,42.1,9,8,160,8,,3.73,29.91,,,,,,,,,,,CLR,,,,,,,,MVFR,,,,,,,,,,,,METAR,448
URMO 050400Z 10003MPS 0050 R09/M0200N FG OVC001 09/08 Q1015 R09/010070 NOSIG RMK QBB040 MT OBSC QFE717/0957,URMO,2023-11-05T04:00:00Z,43.204,44.608,9,8,100,6,,0.03,29.97,,,,,,,,,,FG,OVC,100,,,,,,,LIFR,,,,,,,,,,,,METAR,505
URMN 050400Z 22002MPS 9999 OVC014 11/09 Q1013 R24/////// NOSIG RMK MT OBSC QFE724,URMN,2023-11-05T04:00:00Z,43.514,43.646,11,9,220,4,,6+,29.91,,,,,,,,,,,OVC,1400,,,,,,,MVFR,,,,,,,,,,,,METAR,424
URMM 050400Z 08006MPS 3200 BR OVC002 10/09 Q1014 R12/090070 TEMPO 0300 FG OVC001 RMK QBB060 MT OBSC OBST OBSC QFE732/0976,URMM,2023-11-05T04:00:00Z,44.225,43.082,10,9,80,12,,1.99,29.94,,,,,,,,,,BR,OVC,200,,,,,,,LIFR,,,,,,,,,,,,METAR,318
URML 050400Z 21003MPS 8000 NSC 08/08 Q1016 R14/01//70 NOSIG RMK QFE762/1016,URML,2023-11-05T04:00:00Z,42.817,47.652,8,8,210,6,,4.97,30.00,,,,,,,,,,,CLR,,,,,,,,MVFR,,,,,,,,,,,,METAR,4
URMG 050400Z 04002MPS 010V080 1300 0900E R08/1700U PRFG OVC002 10/09 Q1015 R08/090070 NOSIG RMK QBB060 MT OBSC OBST OBSC QFE747/0996,URMG,2023-11-05T04:00:00Z,43.387,45.702,10,9,40,4,,0.81,29.97,,,,,,,,,,PRFG,OVC,200,,,,,,,LIFR,,,,,,,,,,,,METAR,160
URKK 050400Z 09003MPS CAVOK 11/09 Q1009 R05R/CLRD70 NOSIG RMK QFE753,URKK,2023-11-05T04:00:00Z,45.033,39.15,11,9,90,6,,6+,29.79,,,,,,,,,,,CAVOK,,,,,,,,VFR,,,,,,,,,,,,METAR,29
URKA 050400Z 16009MPS CAVOK 20/10 Q1007 R22/010070 TEMPO 18012G20MPS RMK QFE751/1001,URKA,2023-11-05T04:00:00Z,44.995,37.341,20,10,160,17,,6+,29.73,,,,,,,,,,,CAVOK,,,,,,,,VFR,,,,,,,,,,,,METAR,41
UOOO 050400Z 16005MPS 4600 -SN DRSN BKN014 M09/M10 Q0993 R19/490544 NOSIG RMK QFE729/0972,UOOO,2023-11-05T04:00:00Z,69.308,87.322,-9,-10,160,10,,2.86,29.32,,,,,,,,,,-SN DRSN,BKN,1400,,,,,,,IFR,,,,,,,,,,,,METAR,177
UNWW 050400Z 28004MPS 260V350 9000 -SHSN SCT013 OVC025CB 00/M03 Q1018 R19/590237 NOSIG RMK QFE737,UNWW,2023-11-05T04:00:00Z,53.811,86.878,0,-3,280,8,,5.59,30.06,,,,,,,,,,-SHSN,SCT,1300,OVC,2500,,,,,MVFR,,,,,,,,,,,,METAR,307
UNTT 050400Z 25006MPS 9999 FEW026CB BKN047 M04/M09 Q1016 R21/590237 NOSIG RMK QFE747,UNTT,2023-11-05T04:00:00Z,56.381,85.207,-4,-9,250,12,,6+,30.00,,,,,,,,,,,FEW,2600,BKN,4700,,,,,VFR,,,,,,,,,,,,METAR,179
UNOO 050400Z 28004MPS 9999 BKN025 M02/M06 Q1028 R25/290150 NOSIG RMK QFE762,UNOO,2023-11-05T04:00:00Z,54.964,73.32,-2,-6,280,8,,6+,30.35,,,,,,,,,,,BKN,2500,,,,,,,MVFR,,,,,,,,,,,,METAR,85
UNNT 050400Z 27004MPS 9999 OVC032 M03/M08 Q1022 R25/920145 R34/////// NOSIG RMK QFE756/1009,UNNT,2023-11-05T04:00:00Z,55.013,82.651,-3,-8,270,8,,6+,30.18,,,,,,,,,,,OVC,3200,,,,,,,VFR,,,,,,,,,,,,METAR,106
UNKL 050400Z 25004MPS 3400 -SHSN BKN015CB M00/M02 Q1010 WS R29 R29/450237 NOSIG RMK QFE732,UNKL,2023-11-05T04:00:00Z,56.173,92.493,0,-2,250,8,,2.11,29.82,,,,,,,,,,-SHSN,BKN,1500,,,,,,,IFR,,,,,,,,,,,,METAR,278
UNEE 050400Z 28004MPS 9999 -SHSN BKN026CB M04/M09 Q1018 R23/750245 NOSIG RMK QFE741,UNEE,2023-11-05T04:00:00Z,55.27,86.107,-4,-9,280,8,,6+,30.06,,,,,,,,,,-SHSN,BKN,2600,,,,,,,MVFR,,,,,,,,,,,,METAR,261
UNBB 050400Z 29006MPS 9999 BKN028CB M01/M04 Q1021 R24/290340 NOSIG RMK QFE744,UNBB,2023-11-05T04:00:00Z,53.362,83.54,-1,-4,290,12,,6+,30.15,,,,,,,,,,,BKN,2800,,,,,,,MVFR,,,,,,,,,,,,METAR,249
UNAA 050400Z 35002MPS 9000 NSC M06/M10 Q1016 R20/810174 NOSIG RMK QFE740,UNAA,2023-11-05T04:00:00Z,53.74,91.385,-6,-10,350,4,,5.59,30.00,,,,,,,,,,,CLR,,,,,,,,VFR,,,,,,,,,,,,METAR,249
UMOO 050400Z 29005MPS 5000 -RA BR OVC006 08/08 Q0992 NOSIG RMK QBB180,UMOO,2023-11-05T04:00:00Z,53.954,30.1,8,8,290,10,,3.11,29.29,,,,,,,,,,-RA BR,OVC,600,,,,,,,IFR,,,,,,,,,,,,METAR,188
UMMS 050400Z 27003MPS 9999 -RA OVC025 08/08 Q0993 NOSIG,UMMS,2023-11-05T04:00:00Z,53.883,28.031,8,8,270,6,,6+,29.32,,,,,,,,,,-RA,OVC,2500,,,,,,,MVFR,,,,,,,,,,,,METAR,196
UMMG 050400Z 10002MPS 9999 SCT013 BKN066 05/04 Q0992 NOSIG,UMMG,2023-11-05T04:00:00Z,53.602,24.056,5,4,100,4,,6+,29.29,,,,,,,,,,,SCT,1300,BKN,6600,,,,,VFR,,,,,,,,,,,,METAR,125
UMKK 050400Z 13003MPS CAVOK 03/03 Q0988 R24/19//95 NOSIG RMK QFE740/0987,UMKK,2023-11-05T04:00:00Z,54.885,20.583,3,3,130,6,,6+,29.17,,,,,,,,,,,CAVOK,,,,,,,,VFR,,,,,,,,,,,,METAR,6
UMIO 050400Z 33003MPS 300V360 7000 -SHRA BKN006 OVC015CB 08/08 Q0990 NOSIG RMK QBB200 QFE725/0967,UMIO,2023-11-05T04:00:00Z,54.44,30.297,8,8,330,6,,4.35,29.23,,,,,,,,,,-SHRA,BKN,600,OVC,1500,,,,,IFR,,,,,,,,,,,,METAR,189
UMGG 050400Z 27007MPS 2500 -SHRA BR OVC020CB 10/09 Q0991 TEMPO 1800 SHRA,UMGG,2023-11-05T04:00:00Z,52.525,31.015,10,9,270,14,,1.55,29.26,,,,,,,,,,-SHRA BR,OVC,2000,,,,,,,IFR,,,,,,,,,,,,METAR,135
UMBB 050400Z 16002MPS 5000 BR NSC 05/05 Q0992 NOSIG,UMBB,2023-11-05T04:00:00Z,52.109,23.897,5,5,160,4,,3.11,29.29,,,,,,,,,,BR,CLR,,,,,,,,MVFR,,,,,,,,,,,,METAR,138
ULWC 050400Z 12002G07MPS 9000 -RA OVC002 05/04 Q1002 R21/290260 NOSIG RMK QBB060 QFE741/0988,ULWC,2023-11-05T04:00:00Z,59.281,38.019,5,4,120,4,14,5.59,29.59,,,,,,,,,,-RA,OVC,200,,,,,,,LIFR,,,,,,,,,,,,METAR,113
ULPB 050400Z AUTO 10002MPS 070V140 4300 -RA ///002/// 02/02 Q1000 RMK QBB060 QFE746/0995,ULPB,2023-11-05T04:00:00Z,61.885,34.155,2,2,100,4,,2.67,29.53,,,TRUE,,,,,,,-RA,,,,,,,,,IFR,,,,,,,,,,,,METAR,41
ULOO 050400Z 06002MPS 0450 0400S R19/1100N FG VV001 08/08 Q0993 R19/290050 NOSIG RMK QBB050 OBST OBSC QFE740,ULOO,2023-11-05T04:00:00Z,57.79,28.397,8,8,60,4,,0.28,29.32,,,,,,,,,,FG,OVX,0,,,,,,,LIFR,,,,,,,,,,,100,METAR,46
ULMM 050400Z 10002MPS 9999 SCT025 M06/M06 Q1007 R13/350159 NOSIG RMK QFE748,ULMM,2023-11-05T04:00:00Z,68.781,32.749,-6,-6,100,4,,6+,29.73,,,,,,,,,,,SCT,2500,,,,,,,VFR,,,,,,,,,,,,METAR,79
ULLI 050400Z 10003MPS 070V130 3100 -RA BR BKN002 06/06 Q0995 R10L/290050 NOSIG RMK QBB060 OBST OBSC,ULLI,2023-11-05T04:00:00Z,59.798,30.267,6,6,100,6,,1.93,29.38,,,,,,,,,,-RA BR,BKN,200,,,,,,,LIFR,,,,,,,,,,,,METAR,25
UIUU 050400Z VRB01MPS 9999 NSC M09/M16 Q1027 R26/60D NOSIG RMK QFE725/0967,UIUU,2023-11-05T04:00:00Z,51.808,107.443,-9,-16,VRB,2,,6+,30.32,,,,,,,,,,,CLR,,,,,,,,VFR,,,,,,,,,,,,METAR,508
UIII 050400Z 15007MPS CAVOK M01/M09 Q1018 R12/60D NOSIG RMK QFE721/0961,UIII,2023-11-05T04:00:00Z,52.273,104.38,-1,-9,150,14,,6+,30.06,,,,,,,,,,,CAVOK,,,,,,,,VFR,,,,,,,,,,,,METAR,480
UIBB 050400Z 16005MPS 110V210 9999 FEW013 M05/M11 Q1012 R12/390140 NOSIG RMK QFE716/0955,UIBB,2023-11-05T04:00:00Z,56.365,101.716,-5,-11,160,10,,6+,29.88,,,,,,,,,,,FEW,1300,,,,,,,VFR,,,,,,,,,,,,METAR,485
UIAA 050400Z VRB01MPS 9999 NSC M11/M18 Q1027 R29/CLRD70 NOSIG RMK QFE711/0948,UIAA,2023-11-05T04:00:00Z,52.026,113.31,-11,-18,VRB,2,,6+,30.32,,,,,,,,,,,CLR,,,,,,,,VFR,,,,,,,,,,,,METAR,650
UHWW 050400Z 00000MPS 9999 OVC027 06/M02 Q1027 R25L/0///70 NOSIG RMK QFE769,UHWW,2023-11-05T04:00:00Z,43.399,132.146,6,-2,0,0,,6+,30.32,,,,,,,,,,,OVC,2700,,,,,,,MVFR,,,,,,,,,,,,METAR,11
UHSS 050400Z 25006MPS 9999 NSC 07/M05 Q1026 R01/70D NOSIG RMK QFE768/1024,UHSS,2023-11-05T04:00:00Z,46.887,142.719,7,-5,250,12,,6+,30.30,,,,,,,,,,,CLR,,,,,,,,VFR,,,,,,,,,,,,METAR,14
UHPP 050400Z 31005MPS 9999 FEW040CB SCT050 02/M08 Q1017 R34L/CLRD60 NOSIG RMK MT OBSC QFE759/1012,UHPP,2023-11-05T04:00:00Z,53.175,158.444,2,-8,310,10,,6+,30.03,,,,,,,,,,,FEW,4000,SCT,5000,,,,,VFR,,,,,,,,,,,,METAR,33
UHMM 050400Z 08007MPS 7000 -SHSN OVC016CB M05/M05 Q1003 R10/89//31 TEMPO 0800 +SHSN RMK MT OBSC QFE738 R28/12005MPS,UHMM,2023-11-05T04:00:00Z,59.911,150.725,-5,-5,80,14,,4.35,29.62,,,,,,,,,,-SHSN,OVC,1600,,,,,,,MVFR,,,,,,,,,,,,METAR,175
UHMA 050400Z 01004MPS 9999 -SHSN OVC036CB M06/M09 Q1018 R01/////// NOSIG RMK MID 01005MPS END R01/01004MPS QFE760/1013,UHMA,2023-11-05T04:00:00Z,64.733,177.739,-6,-9,10,8,,6+,30.06,,,,,,,,,,-SHSN,OVC,3600,,,,,,,VFR,,,,,,,,,,,,METAR,53
UHHH 050400Z 26006MPS 9999 FEW040 M04/M15 Q1029 R23R/090060 NOSIG RMK QFE766/1021,UHHH,2023-11-05T04:00:00Z,48.527,135.184,-4,-15,260,12,,6+,30.38,,,,,,,,,,,FEW,4000,,,,,,,VFR,,,,,,,,,,,,METAR,74
UHBB 050400Z 01003MPS 9999 SCT033 M10/M16 Q1030 R36/090068 NOSIG RMK QFE755/1007,UHBB,2023-11-05T04:00:00Z,50.425,127.412,-10,-16,10,6,,6+,30.41,,,,,,,,,,,SCT,3300,,,,,,,VFR,,,,,,,,,,,,METAR,185
UGTB 050400Z 31003KT 9999 OVC023 12/09 Q1020 NOSIG,UGTB,2023-11-05T04:00:00Z,41.669,44.955,12,9,310,3,,6+,30.12,,,,,,,,,,,OVC,2300,,,,,,,MVFR,,,,,,,,,,,,METAR,468
UGSB 050400Z 12024KT CAVOK 18/07 Q1011 NOSIG,UGSB,2023-11-05T04:00:00Z,41.61,41.6,18,7,120,24,,6+,29.85,,,,,,,,,,,CAVOK,,,,,,,,VFR,,,,,,,,,,,,METAR,32
UGMS 050400Z VRB02KT CAVOK 01/01 Q1023,UGMS,2023-11-05T04:00:00Z,43.055,42.75,1,1,VRB,2,,6+,30.21,,,,,,,,,,,CAVOK,,,,,,,,VFR,,,,,,,,,,,,METAR,1442
UGKO 050400Z 08012KT CAVOK 15/09 Q1013 NOSIG,UGKO,2023-11-05T04:00:00Z,42.177,42.483,15,9,80,12,,6+,29.91,,,,,,,,,,,CAVOK,,,,,,,,VFR,,,,,,,,,,,,METAR,44
UGAM 050400Z AUTO /////KT //// ////// 04/04 Q1018,UGAM,2023-11-05T04:00:00Z,42.527,43.135,4,4,,,,,30.06,,,TRUE,,,,,,,,,,,,,,,,VFR,,,,,,,,,,,,METAR,544
UERR 050400Z 20005MPS CAVOK M15/M17 Q1015 R25/410145 NOSIG RMK QFE730/0973,UERR,2023-11-05T04:00:00Z,62.538,114.056,-15,-17,200,10,,6+,29.97,,,,,,,,,,,CAVOK,,,,,,,,VFR,,,,,,,,,,,,METAR,352
UERP 050400Z 18003MPS 9000 -SHSN BKN016CB OVC100 M18/M20 Q1005 NOSIG RMK QFE709,UERP,2023-11-05T04:00:00Z,66.4,112.03,-18,-20,180,6,,5.59,29.68,,,,,,,,,,-SHSN,BKN,1600,OVC,10000,,,,,MVFR,,,,,,,,,,,,METAR,514
UEEE 050400Z 30003MPS 9999 -SN SCT040 M18/M22 Q1019 R23/490153 NOSIG RMK QFE755,UEEE,2023-11-05T04:00:00Z,62.093,129.774,-18,-22,300,6,,6+,30.09,,,,,,,,,,-SN,SCT,4000,,,,,,,VFR,,,,,,,,,,,,METAR,106
UDYZ 050400Z 00000KT 6000 NSC 04/03 Q1021 NOSIG,UDYZ,2023-11-05T04:00:00Z,40.147,44.396,4,3,0,0,,3.73,30.15,,,,,,,,,,,CLR,,,,,,,,MVFR,,,,,,,,,,,,METAR,851
UDSG 050400Z VRB01KT 9999 NSC M02/M04 Q1023 NOSIG,UDSG,2023-11-05T04:00:00Z,40.75,43.859,-2,-4,VRB,1,,6+,30.21,,,,,,,,,,,CLR,,,,,,,,VFR,,,,,,,,,,,,METAR,1515
UCFO 050400Z 17002MPS 140V200 CAVOK 16/M05 Q1020 NOSIG,UCFO,2023-11-05T04:00:00Z,40.61,72.791,16,-5,170,4,,6+,30.12,,,,,,,,,,,CAVOK,,,,,,,,VFR,,,,,,,,,,,,METAR,881
UCFM 050400Z VRB01MPS 9000 NSC 08/03 Q1020 NOSIG,UCFM,2023-11-05T04:00:00Z,43.061,74.478,8,3,VRB,2,,5.59,30.12,,,,,,,,,,,CLR,,,,,,,,VFR,,,,,,,,,,,,METAR,632
UCFL 050400Z VRB01MPS 9999 SCT030CB 10/03 Q1025,UCFL,2023-11-05T04:00:00Z,42.585,76.702,10,3,VRB,2,,6+,30.27,,,,,,,,,,,SCT,3000,,,,,,,VFR,,,,,,,,,,,,METAR,1654
UBEE 050400Z 27004KT 3000 BR OVC015 15/15 Q1018 NOSIG,UBEE,2023-11-05T04:00:00Z,40.632,47.142,15,15,270,4,,1.86,30.06,,,,,,,,,,BR,OVC,1500,,,,,,,IFR,,,,,,,,,,,,METAR,14
UBBZ 050400Z AUTO 25004KT 210V280 9999 // ///////// 12/07 Q1020,UBBZ,2023-11-05T04:00:00Z,39.094,46.734,12,7,250,4,,6+,30.12,,,TRUE,,,,,,,,,,,,,,,,VFR,,,,,,,,,,,,METAR,489
UBBY 050400Z 04002KT 9999 SCT060 13/12 Q1021 NOSIG,UBBY,2023-11-05T04:00:00Z,41.561,46.667,13,12,40,2,,6+,30.15,,,,,,,,,,,SCT,6000,,,,,,,VFR,,,,,,,,,,,,METAR,383
UBBQ 050400Z 33003KT 6000 OVC017 15/13 Q1018 NOSIG,UBBQ,2023-11-05T04:00:00Z,40.809,47.729,15,13,330,3,,3.73,30.06,,,,,,,,,,,OVC,1700,,,,,,,MVFR,,,,,,,,,,,,METAR,339
UBBN 050400Z 33004KT 9999 NSC 07/03 Q1020 NOSIG RMK QFE690,UBBN,2023-11-05T04:00:00Z,39.189,45.458,7,3,330,4,,6+,30.12,,,,,,,,,,,CLR,,,,,,,,VFR,,,,,,,,,,,,METAR,857
UBBL 050400Z 00000KT 9999 SCT060 12/12 Q1018 NOSIG,UBBL,2023-11-05T04:00:00Z,38.746,48.818,12,12,0,0,,6+,30.06,,,,,,,,,,,SCT,6000,,,,,,,VFR,,,,,,,,,,,,METAR,-11
UBBG 050400Z 22006KT 6000 SCT066 13/12 Q1019 NOSIG,UBBG,2023-11-05T04:00:00Z,40.738,46.318,13,12,220,6,,3.73,30.09,,,,,,,,,,,SCT,6600,,,,,,,MVFR,,,,,,,,,,,,METAR,333
UBBF 050400Z AUTO 32008KT 9999 0650NE // ///////// 11/08 Q1018,UBBF,2023-11-05T04:00:00Z,39.595,47.196,11,8,320,8,,6+,30.06,,,TRUE,,,,,,,,,,,,,,,,VFR,,,,,,,,,,,,METAR,370
UBBB 050400Z 14004KT 8000 SCT020 13/12 Q1018 NOSIG,UBBB,2023-11-05T04:00:00Z,40.469,50.061,13,12,140,4,,4.97,30.06,,,,,,,,,,,SCT,2000,,,,,,,MVFR,,,,,,,,,,,,METAR,94
UAUU 050400Z 00000MPS CAVOK M03/M04 Q1030 NOSIG RMK QFE757/1009,UAUU,2023-11-05T04:00:00Z,53.215,63.553,-3,-4,0,0,,6+,30.41,,,,,,,,,,,CAVOK,,,,,,,,VFR,,,,,,,,,,,,METAR,177
UATT 050400Z 08005MPS 9999 OVC003 03/02 Q1027 NOSIG RMK QBB110 OBST OBSC QFE750/1000,UATT,2023-11-05T04:00:00Z,50.248,57.203,3,2,80,10,,6+,30.32,,,,,,,,,,,OVC,300,,,,,,,LIFR,,,,,,,,,,,,METAR,217
UATG 050400Z 07005MPS CAVOK 08/05 Q1019 NOSIG RMK QFE767/1022,UATG,2023-11-05T04:00:00Z,47.122,51.829,8,5,70,10,,6+,30.09,,,,,,,,,,,CAVOK,,,,,,,,VFR,,,,,,,,,,,,METAR,-23
UATE 050400Z 08003MPS CAVOK 09/05 Q1017 NOSIG RMK QFE760/1014,UATE,2023-11-05T04:00:00Z,43.86,51.092,9,5,80,6,,6+,30.03,,,,,,,,,,,CAVOK,,,,,,,,VFR,,,,,,,,,,,,METAR,21
UASS 050400Z 30001MPS 4400 -RA OVC030 02/01 Q1025 NOSIG RMK QFE750/1000,UASS,2023-11-05T04:00:00Z,50.352,80.228,2,1,300,2,,2.73,30.27,,,,,,,,,,-RA,OVC,3000,,,,,,,IFR,,,,,,,,,,,,METAR,215
UASP 050400Z 30002MPS CAVOK M01/M05 Q1027 NOSIG RMK QFE759/1012,UASP,2023-11-05T04:00:00Z,52.202,77.078,-1,-5,300,4,,6+,30.32,,,,,,,,,,,CAVOK,,,,,,,,VFR,,,,,,,,,,,,METAR,122
UASK 050400Z 36003MPS 5000 BR SCT050 BKN070 00/M04 Q1025 NOSIG RMK QFE743/0991,UASK,2023-11-05T04:00:00Z,50.027,82.5,0,-4,360,6,,3.11,30.27,,,,,,,,,,BR,SCT,5000,BKN,7000,,,,,MVFR,,,,,,,,,,,,METAR,285
UARR 050400Z 05003MPS CAVOK M02/M02 Q1024 NOSIG RMK QFE764/1019,UARR,2023-11-05T04:00:00Z,51.151,51.541,-2,-2,50,6,,6+,30.24,,,,,,,,,,,CAVOK,,,,,,,,VFR,,,,,,,,,,,,METAR,33
UAOO 050400Z 04004MPS CAVOK 03/01 Q1021 NOSIG RMK QFE754/1005,UAOO,2023-11-05T04:00:00Z,44.707,65.593,3,1,40,8,,6+,30.15,,,,,,,,,,,CAVOK,,,,,,,,VFR,,,,,,,,,,,,METAR,130
UAKK 050400Z 14001MPS 3000 BCFG BR BKN003 BKN026 04/04 Q1025 NOSIG RMK QBB100 QFE722/0962,UAKK,2023-11-05T04:00:00Z,49.672,73.333,4,4,140,2,,1.86,30.27,,,,,,,,,,BCFG BR,BKN,300,BKN,2600,,,,,LIFR,,,,,,,,,,,,METAR,532
UAKD 050400Z 05005MPS 9000 NSC 02/01 Q1025 NOSIG RMK QFE735/0980,UAKD,2023-11-05T04:00:00Z,47.711,67.739,2,1,50,10,,5.59,30.27,,,,,,,,,,,CLR,,,,,,,,VFR,,,,,,,,,,,,METAR,379
UAIT 050400Z 01001MPS CAVOK 10/M01 Q1020 NOSIG RMK QFE740/0987,UAIT,2023-11-05T04:00:00Z,43.311,68.55,10,-1,10,2,,6+,30.12,,,,,,,,,,,CAVOK,,,,,,,,VFR,,,,,,,,,,,,METAR,301
UAII 050400Z 16002MPS CAVOK 11/M00 Q1019 NOSIG RMK QFE727/0969,UAII,2023-11-05T04:00:00Z,42.366,69.476,11,0,160,4,,6+,30.09,,,,,,,,,,,CAVOK,,,,,,,,VFR,,,,,,,,,,,,METAR,410
UADD 050400Z 18003MPS 9999 NSC 09/02 Q1021 NOSIG RMK QFE708/0944,UADD,2023-11-05T04:00:00Z,42.854,71.304,9,2,180,6,,6+,30.15,,,,,,,,,,,CLR,,,,,,,,VFR,,,,,,,,,,,,METAR,663
UACP 050400Z 24003MPS CAVOK M03/M04 Q1028 NOSIG RMK QFE759/1012,UACP,2023-11-05T04:00:00Z,54.775,69.183,-3,-4,240,6,,6+,30.35,,,,,,,,,,,CAVOK,,,,,,,,VFR,,,,,,,,,,,,METAR,134
UACK 050400Z 28002MPS 250V320 CAVOK M04/M05 Q1029 NOSIG RMK QFE748/0997,UACK,2023-11-05T04:00:00Z,53.332,69.594,-4,-5,280,4,,6+,30.38,,,,,,,,,,,CAVOK,,,,,,,,VFR,,,,,,,,,,,,METAR,261
UACC 050400Z 06001MPS 9999 OVC010 01/M02 Q1027 NOSIG RMK QFE739/0985,UACC,2023-11-05T04:00:00Z,51.024,71.468,1,-2,60,2,,6+,30.32,,,,,,,,,,,OVC,1000,,,,,,,MVFR,,,,,,,,,,,,METAR,354
UAAT 050400Z 00000MPS 9999 SCT200 07/03 Q1021 NOSIG RMK QFE714/0952,UAAT,2023-11-05T04:00:00Z,45.121,78.445,7,3,0,0,,6+,30.15,,,,,,,,,,,SCT,20000,,,,,,,VFR,,,,,,,,,,,,METAR,588
UAAH 050400Z 07005MPS CAVOK 04/M02 Q1024 NOSIG RMK QFE730/0974,UAAH,2023-11-05T04:00:00Z,46.893,75.005,4,-2,70,10,,6+,30.24,,,,,,,,,,,CAVOK,,,,,,,,VFR,,,,,,,,,,,,METAR,427
UAAA 050400Z 00000MPS 5000 FU FEW100 09/03 Q1021 NOSIG,UAAA,2023-11-05T04:00:00Z,43.35,77.027,9,3,0,0,,3.11,30.15,,,,,,,,,,FU,FEW,10000,,,,,,,MVFR,,,,,,,,,,,,METAR,673
TTPP 050400Z 00000KT 9999 FEW016 25/23 Q1010 NOSIG,TTPP,2023-11-05T04:00:00Z,10.593,-61.348,25,23,0,0,,6+,29.82,,,,,,,,,,,FEW,1600,,,,,,,VFR,,,,,,,,,,,,METAR,11
TTCP 050400Z 00000KT 9999 VCSH FEW016 27/24 Q1010 NOSIG RMK VCSH S,TTCP,2023-11-05T04:00:00Z,11.149,-60.836,27,24,0,0,,6+,29.82,,,,,,,,,,VCSH,FEW,1600,,,,,,,VFR,,,,,,,,,,,,METAR,13
TNCM 050400Z 06006KT 9999 FEW018 27/25 Q1014 ,TNCM,2023-11-05T04:00:00Z,18.041,-63.109,27,25,60,6,,6+,29.94,,,,,,,,,,,FEW,1800,,,,,,,VFR,,,,,,,,,,,,METAR,9
TNCC 050400Z 10011KT 9999 SCT018 29/26 Q1010 NOSIG,TNCC,2023-11-05T04:00:00Z,12.189,-68.96,29,26,100,11,,6+,29.82,,,,,,,,,,,SCT,1800,,,,,,,VFR,,,,,,,,,,,,METAR,10
TNCA 050400Z 08011KT 9999 FEW018 29/25 Q1009 NOSIG,TNCA,2023-11-05T04:00:00Z,12.501,-70.015,29,25,80,11,,6+,29.79,,,,,,,,,,,FEW,1800,,,,,,,VFR,,,,,,,,,,,,METAR,7
TLPL 050400Z 06007KT 9999 VCSH FEW007 SCT018 BKN038 25/23 Q1012 NOSIG,TLPL,2023-11-05T04:00:00Z,13.743,-60.948,25,23,60,7,,6+,29.88,,,,,,,,,,VCSH,FEW,700,SCT,1800,BKN,3800,,,VFR,,,,,,,,,,,,METAR,13
TFFR 050400Z AUTO 20005KT 9999 FEW013/// BKN020/// BKN026/// ///TCU 25/24 Q1012 TEMPO VRB15G25KT 1000 TSRA BKN008 BKN012CB,TFFR,2023-11-05T04:00:00Z,16.265,-61.532,25,24,200,5,,6+,29.88,,,TRUE,,,,,,,,FEW,1300,BKN,2000,BKN,2600,,,MVFR,,,,,,,,,,,,METAR,6
TFFF 050400Z AUTO 15009KT 110V180 4200 +RA BR SCT015/// BKN021/// BKN026/// ///CB 25/23 Q1013 TEMPO VRB15G25KT 1200 TSRA BKN005 BKN012CB,TFFF,2023-11-05T04:00:00Z,14.591,-61.003,25,23,150,9,,2.61,29.91,,,TRUE,,,,,,,+RA BR,SCT,1500,BKN,2100,BKN,2600,,,IFR,,,,,,,,,,,,METAR,3
TBPB 050400Z 11010KT 9999 FEW016 SCT032 26/25 Q1010 NOSIG,TBPB,2023-11-05T04:00:00Z,13.075,-59.492,26,25,110,10,,6+,29.82,,,,,,,,,,,FEW,1600,SCT,3200,,,,,VFR,,,,,,,,,,,,METAR,55
TAPA 050400Z 12004KT 060V160 9999 FEW027 26/24 Q1012 NOSIG,TAPA,2023-11-05T04:00:00Z,17.135,-61.797,26,24,120,4,,6+,29.88,,,,,,,,,,,FEW,2700,,,,,,,VFR,,,,,,,,,,,,METAR,15
SYCJ 050400Z VRB02KT CAVOK 26/25 Q1009 NOSIG,SYCJ,2023-11-05T04:00:00Z,6.499,-58.254,26,25,VRB,2,,6+,29.79,,,,,,,,,,,CAVOK,,,,,,,,VFR,,,,,,,,,,,,METAR,30
SVMI 050400Z 00000KT 9999 FEW016 25/21 Q1011,SVMI,2023-11-05T04:00:00Z,10.603,-66.991,25,21,0,0,,6+,29.85,,,,,,,,,,,FEW,1600,,,,,,,VFR,,,,,,,,,,,,METAR,48
SUMU 050400Z 02002KT CAVOK 09/08 Q1015 NOSIG,SUMU,2023-11-05T04:00:00Z,-34.838,-56.031,9,8,20,2,,6+,29.97,,,,,,,,,,,CAVOK,,,,,,,,VFR,,,,,,,,,,,,METAR,32
SULS 050400Z 32002KT CAVOK 07/06 Q1016,SULS,2023-11-05T04:00:00Z,-34.855,-55.094,7,6,320,2,,6+,30.00,,,,,,,,,,,CAVOK,,,,,,,,VFR,,,,,,,,,,,,METAR,22
SPZO 050400Z 08003KT 9999 SCT050 BKN100 12/06 Q1031 NOSIG RMK BIRD HAZARD RWY 10/28 PP000,SPZO,2023-11-05T04:00:00Z,-13.536,-71.939,12,6,80,3,,6+,30.44,,,,,,,,,,,SCT,5000,BKN,10000,,,,,VFR,,,,,,,,,,,,METAR,3249
SPUR 050400Z 20006KT CAVOK 20/16 Q1014 RMK PP000,SPUR,2023-11-05T04:00:00Z,-5.206,-80.616,20,16,200,6,,6+,29.94,,,,,,,,,,,CAVOK,,,,,,,,VFR,,,,,,,,,,,,METAR,30
SPSO 050400Z 20010KT CAVOK 18/16 Q1013 RMK PP000,SPSO,2023-11-05T04:00:00Z,-13.744,-76.221,18,16,200,10,,6+,29.91,,,,,,,,,,,CAVOK,,,,,,,,VFR,,,,,,,,,,,,METAR,8
SPRU 050400Z 14009KT 7000 BCFG FEW025 19/16 Q1013 RMK PP000,SPRU,2023-11-05T04:00:00Z,-8.087,-79.109,19,16,140,9,,4.35,29.91,,,,,,,,,,BCFG,FEW,2500,,,,,,,MVFR,,,,,,,,,,,,METAR,23
SPQU 050400Z VRB02KT CAVOK 14/02 Q1026 RMK PP000,SPQU,2023-11-05T04:00:00Z,-16.341,-71.583,14,2,VRB,2,,6+,30.30,,,,,,,,,,,CAVOK,,,,,,,,VFR,,,,,,,,,,,,METAR,2527
SPJC 050400Z 16013KT 9999 FEW018 SCT100 19/15 Q1013 NOSIG RMK PP000,SPJC,2023-11-05T04:00:00Z,-12.024,-77.113,19,15,160,13,,6+,29.91,,,,,,,,,,,FEW,1800,SCT,10000,,,,,VFR,,,,,,,,,,,,METAR,26
SPHI 050400Z 18013KT CAVOK 20/17 Q1013 RMK BIRD HAZARD RWY 19/01 PP000,SPHI,2023-11-05T04:00:00Z,-6.787,-79.828,20,17,180,13,,6+,29.91,,,,,,,,,,,CAVOK,,,,,,,,VFR,,,,,,,,,,,,METAR,33
SPCL 050400Z 08011KT 9999 -RA BKN015 BKN080 25/24 Q1012 RMK PP002,SPCL,2023-11-05T04:00:00Z,-8.378,-74.574,25,24,80,11,,6+,29.88,,,,,,,,,,-RA,BKN,1500,BKN,8000,,,,,MVFR,,,,,,,,,,,,METAR,154
SOCA 050400Z AUTO 15003KT 9999 FEW017 26/25 Q1009 NOSIG,SOCA,2023-11-05T04:00:00Z,4.822,-52.365,26,25,150,3,,6+,29.79,,,TRUE,,,,,,,,FEW,1700,,,,,,,VFR,,,,,,,,,,,,METAR,7
SLVR 050400Z 26003KT 9999 BKN070 22/12 Q1011,SLVR,2023-11-05T04:00:00Z,-17.645,-63.135,22,12,260,3,,6+,29.85,,,,,,,,,,,BKN,7000,,,,,,,VFR,,,,,,,,,,,,METAR,377
SLLP 050400Z 08007KT 9999 FEW010 05/04 Q1037,SLLP,2023-11-05T04:00:00Z,-16.511,-68.182,5,4,80,7,,6+,30.62,,,,,,,,,,,FEW,1000,,,,,,,VFR,,,,,,,,,,,,METAR,4061
SLCB 050400Z 05004KT 9999 NSC 20/07 Q1022,SLCB,2023-11-05T04:00:00Z,-17.421,-66.179,20,7,50,4,,6+,30.18,,,,,,,,,,,CLR,,,,,,,,VFR,,,,,,,,,,,,METAR,2560
SKSP 050400Z 09003KT 040V130 9999 FEW017 29/26 Q1009,SKSP,2023-11-05T04:00:00Z,12.587,-81.704,29,26,90,3,,6+,29.79,,,,,,,,,,,FEW,1700,,,,,,,VFR,,,,,,,,,,,,METAR,6
SKSM 050400Z 03007KT 9999 VCSH SCT020 BKN080 28/23 Q1009 RMK VCSH/SE,SKSM,2023-11-05T04:00:00Z,11.12,-74.231,28,23,30,7,,6+,29.79,,,,,,,,,,VCSH,SCT,2000,BKN,8000,,,,,VFR,,,,,,,,,,,,METAR,5
SKRG 050400Z 00000KT 9999 SCT012 SCT060 16/14 Q1025 NOSIG,SKRG,2023-11-05T04:00:00Z,6.169,-75.426,16,14,0,0,,6+,30.27,,,,,,,,,,,SCT,1200,SCT,6000,,,,,VFR,,,,,,,,,,,,METAR,2132
SKPE 050400Z 09004KT 050V120 9999 -DZ FEW018 SCT080 22/18 Q1016,SKPE,2023-11-05T04:00:00Z,4.814,-75.735,22,18,90,4,,6+,30.00,,,,,,,,,,-DZ,FEW,1800,SCT,8000,,,,,VFR,,,,,,,,,,,,METAR,1341
SKMR 050400Z 00000KT 9999 FEW020 26/25 Q1009,SKMR,2023-11-05T04:00:00Z,8.826,-75.825,26,25,0,0,,6+,29.79,,,,,,,,,,,FEW,2000,,,,,,,VFR,,,,,,,,,,,,METAR,12
SKLT 050400Z 00000KT 9999 SCT015 26/25 Q1009,SKLT,2023-11-05T04:00:00Z,-4.196,-69.943,26,25,0,0,,6+,29.79,,,,,,,,,,,SCT,1500,,,,,,,VFR,,,,,,,,,,,,METAR,78
SKCL 050400Z 02006KT 9999 FEW030 BKN120 22/20 Q1014 NOSIG,SKCL,2023-11-05T04:00:00Z,3.543,-76.382,22,20,20,6,,6+,29.94,,,,,,,,,,,FEW,3000,BKN,12000,,,,,VFR,,,,,,,,,,,,METAR,967
SKCG 050400Z 36005KT 340V040 CAVOK 28/25 Q1009,SKCG,2023-11-05T04:00:00Z,10.447,-75.516,28,25,360,5,,6+,29.79,,,,,,,,,,,CAVOK,,,,,,,,VFR,,,,,,,,,,,,METAR,6
SKCC 050400Z 00000KT 9999 SCT017 26/23 Q1012,SKCC,2023-11-05T04:00:00Z,7.93,-72.509,26,23,0,0,,6+,29.88,,,,,,,,,,,SCT,1700,,,,,,,VFR,,,,,,,,,,,,METAR,308
SKBQ 050400Z 30003KT 230V350 9999 FEW015 26/25 Q1009 NOSIG,SKBQ,2023-11-05T04:00:00Z,10.883,-74.78,26,25,300,3,,6+,29.79,,,,,,,,,,,FEW,1500,,,,,,,VFR,,,,,,,,,,,,METAR,23
SKBO 050400Z 02002KT 9999 FEW017 SCT070 11/11 Q1026 NOSIG,SKBO,2023-11-05T04:00:00Z,4.706,-74.151,11,11,20,2,,6+,30.30,,,,,,,,,,,FEW,1700,SCT,7000,,,,,VFR,,,,,,,,,,,,METAR,2547
SKBG 050400Z VRB02KT 9999 FEW010 BKN040 21/20 Q1014,SKBG,2023-11-05T04:00:00Z,7.127,-73.185,21,20,VRB,2,,6+,29.94,,,,,,,,,,,FEW,1000,BKN,4000,,,,,VFR,,,,,,,,,,,,METAR,1187
SKAR 050400Z 00000KT 9999 SCT017 BKN090 20/19 Q1016,SKAR,2023-11-05T04:00:00Z,4.455,-75.766,20,19,0,0,,6+,30.00,,,,,,,,,,,SCT,1700,BKN,9000,,,,,VFR,,,,,,,,,,,,METAR,1214
SGES 050400Z 17003KT CAVOK 13/11 Q1013,SGES,2023-11-05T04:00:00Z,-25.461,-54.849,13,11,170,3,,6+,29.91,,,,,,,,,,,CAVOK,,,,,,,,VFR,,,,,,,,,,,,METAR,256
SGAS 050400Z 15005KT CAVOK 16/13 Q1013,SGAS,2023-11-05T04:00:00Z,-25.248,-57.519,16,13,150,5,,6+,29.91,,,,,,,,,,,CAVOK,,,,,,,,VFR,,,,,,,,,,,,METAR,83
SEQM 050400Z VRB02KT 9999 BCFG BKN005 14/12 Q1026 NOSIG RMK A3030,SEQM,2023-11-05T04:00:00Z,-0.124,-78.354,14,12,VRB,2,,6+,30.30,,,,,,,,,,BCFG,BKN,500,,,,,,,IFR,,,,,,,,,,,,METAR,2386
SEMT 050400Z 18013KT 9999 BKN020 25/21 Q1009 RMK A2982,SEMT,2023-11-05T04:00:00Z,-0.946,-80.679,25,21,180,13,,6+,29.79,,,,,,,,,,,BKN,2000,,,,,,,MVFR,,,,,,,,,,,,METAR,13
SELT 050400Z 27002KT 9999 FEW030 SCT070 09/09 Q1030,SELT,2023-11-05T04:00:00Z,-0.921,-78.619,9,9,270,2,,6+,30.41,,,,,,,,,,,FEW,3000,SCT,7000,,,,,VFR,,,,,,,,,,,,METAR,2779
SEGU 050400Z METAR 22013KT 9999 FEW013 SCT100 24/21 Q1010 NOSIG RMK A2984,SEGU,2023-11-05T04:00:00Z,-2.158,-79.884,24,21,220,13,,6+,29.82,,,,,,,,,,,FEW,1300,SCT,10000,,,,,VFR,,,,,,,,,,,,METAR,6
SECU 050400Z 23002KT 9999 BKN040 SCT080 15/14 Q1025,SECU,2023-11-05T04:00:00Z,-2.889,-78.984,15,14,230,2,,6+,30.27,,,,,,,,,,,BKN,4000,SCT,8000,,,,,VFR,,,,,,,,,,,,METAR,2516
SCVM 050400Z 00000KT 7000 BKN023 13/11 Q1017,SCVM,2023-11-05T04:00:00Z,-32.947,-71.479,13,11,0,0,,4.35,30.03,,,,,,,,,,,BKN,2300,,,,,,,MVFR,,,,,,,,,,,,METAR,136
SCVD 050400Z AUTO 04004KT 9999 -RA FEW028 OVC033 12/11 Q1013,SCVD,2023-11-05T04:00:00Z,-39.65,-73.086,12,11,40,4,,6+,29.91,,,TRUE,,,,,,,-RA,FEW,2800,OVC,3300,,,,,VFR,,,,,,,,,,,,METAR,19
SCTN 050400Z AUTO 06005KT 8000 OVC030 09/09 Q1011,SCTN,2023-11-05T04:00:00Z,-42.933,-72.699,9,9,60,5,,4.97,29.85,,,TRUE,,,,,,,,OVC,3000,,,,,,,MVFR,,,,,,,,,,,,METAR,8
SCTE 050400Z 27006KT 220V310 9999 4000S -SHRA SCT004 OVC020 10/10 Q1012 NOSIG,SCTE,2023-11-05T04:00:00Z,-41.439,-73.094,10,10,270,6,,6+,29.88,,,,,,,,,,-SHRA,SCT,400,OVC,2000,,,,,MVFR,,,,,,,,,,,,METAR,85
SCSN 050400Z AUTO 00000KT 9999 SCT035 13/13 Q1017,SCSN,2023-11-05T04:00:00Z,-33.656,-71.615,13,13,0,0,,6+,30.03,,,TRUE,,,,,,,,SCT,3500,,,,,,,VFR,,,,,,,,,,,,METAR,73
SCSE 050400Z AUTO VRB01KT 9999 FEW010/// 13/11 Q1017,SCSE,2023-11-05T04:00:00Z,-29.918,-71.201,13,11,VRB,1,,6+,30.03,,,TRUE,,,,,,,,FEW,1000,,,,,,,VFR,,,,,,,,,,,,METAR,141
SCQP 050400Z 05003KT 9999 SCT030 10/09 Q1015,SCQP,2023-11-05T04:00:00Z,-38.925,-72.648,10,9,50,3,,6+,29.97,,,,,,,,,,,SCT,3000,,,,,,,VFR,,,,,,,,,,,,METAR,97
SCPQ 050400Z AUTO 05003KT //// R35/P2000N -RA BKN036 OVC041 08/07 Q1010,SCPQ,2023-11-05T04:00:00Z,-42.347,-73.718,8,7,50,3,,1.24,29.82,,,TRUE,,,,,,,-RA,BKN,3600,OVC,4100,,,,,IFR,,,,,,,,,,,,METAR,166
SCJO 050400Z AUTO 36006KT 340V040 9999 BKN037/// OVC110/// 13/// Q1012,SCJO,2023-11-05T04:00:00Z,-40.605,-73.061,,,360,6,,6+,29.88,,,TRUE,,,,,,,,BKN,3700,OVC,11000,,,,,VFR,,,,,,,,,,,,METAR,61
SCIP 050400Z 00000KT 9999 FEW026 SCT043 19/15 Q1022 NOSIG,SCIP,2023-11-05T04:00:00Z,-27.161,-109.427,19,15,0,0,,6+,30.18,,,,,,,,,,,FEW,2600,SCT,4300,,,,,VFR,,,,,,,,,,,,METAR,48
SCIE 050400Z 01005KT 9999 FEW015 SCT030 13/11 Q1016,SCIE,2023-11-05T04:00:00Z,-36.773,-73.063,13,11,10,5,,6+,30.00,,,,,,,,,,,FEW,1500,SCT,3000,,,,,VFR,,,,,,,,,,,,METAR,8
SCIC 050400Z AUTO VRB02KT //// R/////// NCD 13/09 Q1016,SCIC,2023-11-05T04:00:00Z,-34.966,-71.217,13,9,VRB,2,,,30.00,,,TRUE,,,,,,,,CLR,,,,,,,,VFR,,,,,,,,,,,,METAR,230
SCFA 050400Z 19006KT 9999 OVC027 16/12 Q1015 NOSIG,SCFA,2023-11-05T04:00:00Z,-23.45,-70.441,16,12,190,6,,6+,29.97,,,,,,,,,,,OVC,2700,,,,,,,MVFR,,,,,,,,,,,,METAR,113
SCEL 050400Z 16008KT 9999 SCT020 OVC040 12/09 Q1017 NOSIG,SCEL,2023-11-05T04:00:00Z,-33.393,-70.786,12,9,160,8,,6+,30.03,,,,,,,,,,,SCT,2000,OVC,4000,,,,,VFR,,,,,,,,,,,,METAR,478
SCDA 050400Z 21005KT 9999 OVC032 19/11 Q1015,SCDA,2023-11-05T04:00:00Z,-20.535,-70.181,19,11,210,5,,6+,29.97,,,,,,,,,,,OVC,3200,,,,,,,VFR,,,,,,,,,,,,METAR,41
SCCY 050400Z AUTO 03004KT CAVOK 05/04 Q1007,SCCY,2023-11-05T04:00:00Z,-45.595,-72.11,5,4,30,4,,6+,29.73,,,TRUE,,,,,,,,CAVOK,,,,,,,,VFR,,,,,,,,,,,,METAR,301
SCCI 050400Z 30029KT CAVOK 06/01 Q0992 NOSIG,SCCI,2023-11-05T04:00:00Z,-53.003,-70.855,6,1,300,29,,6+,29.29,,,,,,,,,,,CAVOK,,,,,,,,VFR,,,,,,,,,,,,METAR,37
SCCH 050400Z AUTO 02005KT 9999 OVC030 10/08 Q1016,SCCH,2023-11-05T04:00:00Z,-36.583,-72.031,10,8,20,5,,6+,30.00,,,TRUE,,,,,,,,OVC,3000,,,,,,,MVFR,,,,,,,,,,,,METAR,148
SCCF 050400Z 08011KT CAVOK 08/M08 Q1026,SCCF,2023-11-05T04:00:00Z,-22.496,-68.905,8,-8,80,11,,6+,30.30,,,,,,,,,,,CAVOK,,,,,,,,VFR,,,,,,,,,,,,METAR,2290
SCBA 050400Z AUTO 26008KT 230V310 9999 NCD 04/01 Q1005,SCBA,2023-11-05T04:00:00Z,-45.913,-71.694,4,1,260,8,,6+,29.68,,,TRUE,,,,,,,,CLR,,,,,,,,VFR,,,,,,,,,,,,METAR,516
SCAT 050400Z AUTO 16005KT 9999 NCD 13/09 Q1015,SCAT,2023-11-05T04:00:00Z,-27.262,-70.774,13,9,160,5,,6+,29.97,,,TRUE,,,,,,,,CLR,,,,,,,,VFR,,,,,,,,,,,,METAR,209
SCAR 050400Z 18005KT 9999 OVC033 19/13 Q1015,SCAR,2023-11-05T04:00:00Z,-18.351,-70.336,19,13,180,5,,6+,29.97,,,,,,,,,,,OVC,3300,,,,,,,VFR,,,,,,,,,,,,METAR,57
SBVT 050400Z 19006KT 9999 BKN030 25/19 Q1009,SBVT,2023-11-05T04:00:00Z,-20.258,-40.286,25,19,190,6,,6+,29.79,,,,,,,,,,,BKN,3000,,,,,,,MVFR,,,,,,,,,,,,METAR,4
SBTE 050400Z 00000KT 9999 FEW025 SCT080 28/23 Q1008,SBTE,2023-11-05T04:00:00Z,-5.06,-42.824,28,23,0,0,,6+,29.76,,,,,,,,,,,FEW,2500,SCT,8000,,,,,VFR,,,,,,,,,,,,METAR,60
SBSV 050400Z 05008KT 9999 BKN015 26/24 Q1009,SBSV,2023-11-05T04:00:00Z,-12.911,-38.331,26,24,50,8,,6+,29.79,,,,,,,,,,,BKN,1500,,,,,,,MVFR,,,,,,,,,,,,METAR,9
SBSN 050400Z 16003KT 7000 NSC 26/25 Q1008,SBSN,2023-11-05T04:00:00Z,-2.423,-54.789,26,25,160,3,,4.35,29.76,,,,,,,,,,,CLR,,,,,,,,MVFR,,,,,,,,,,,,METAR,57
SBSL 050400Z 04008KT 9999 SCT017 27/24 Q1008,SBSL,2023-11-05T04:00:00Z,-2.585,-44.234,27,24,40,8,,6+,29.76,,,,,,,,,,,SCT,1700,,,,,,,VFR,,,,,,,,,,,,METAR,53
SBSG 050400Z 10004KT 9999 SCT020 25/22 Q1010,SBSG,2023-11-05T04:00:00Z,-5.768,-35.376,25,22,100,4,,6+,29.82,,,,,,,,,,,SCT,2000,,,,,,,VFR,,,,,,,,,,,,METAR,83
SBRP 050400Z 09002KT CAVOK 17/13 Q1014,SBRP,2023-11-05T04:00:00Z,-21.134,-47.774,17,13,90,2,,6+,29.94,,,,,,,,,,,CAVOK,,,,,,,,VFR,,,,,,,,,,,,METAR,550
SBRJ 050400Z 20007KT 9999 FEW018 BKN030 22/19 Q1012,SBRJ,2023-11-05T04:00:00Z,-22.91,-43.163,22,19,200,7,,6+,29.88,,,,,,,,,,,FEW,1800,BKN,3000,,,,,MVFR,,,,,,,,,,,,METAR,6
SBRF 050400Z 06007KT 9999 FEW018 SCT040 27/23 Q1010,SBRF,2023-11-05T04:00:00Z,-8.126,-34.923,27,23,60,7,,6+,29.82,,,,,,,,,,,FEW,1800,SCT,4000,,,,,VFR,,,,,,,,,,,,METAR,10
SBRB 050400Z 21004KT 180V240 9999 SCT010 BKN020 21/21 Q1013,SBRB,2023-11-05T04:00:00Z,-9.867,-67.897,21,21,210,4,,6+,29.91,,,,,,,,,,,SCT,1000,BKN,2000,,,,,MVFR,,,,,,,,,,,,METAR,190
SBPV 050400Z 34002KT 9999 BKN025 FEW040TCU 24/23 Q1010,SBPV,2023-11-05T04:00:00Z,-8.708,-63.901,24,23,340,2,,6+,29.82,,,,,,,,,,,BKN,2500,FEW,4000,,,,,MVFR,,,,,,,,,,,,METAR,89
SBPS 050400Z 01007KT 340V040 9999 SCT011 26/24 Q1008,SBPS,2023-11-05T04:00:00Z,-16.439,-39.081,26,24,10,7,,6+,29.76,,,,,,,,,,,SCT,1100,,,,,,,VFR,,,,,,,,,,,,METAR,44
SBPL 050400Z 25002KT CAVOK 25/23 Q1009,SBPL,2023-11-05T04:00:00Z,-9.367,-40.565,25,23,250,2,,6+,29.79,,,,,,,,,,,CAVOK,,,,,,,,VFR,,,,,,,,,,,,METAR,386
SBPJ 050400Z 09003KT 9999 FEW027 25/23 Q1010,SBPJ,2023-11-05T04:00:00Z,-10.291,-48.357,25,23,90,3,,6+,29.82,,,,,,,,,,,FEW,2700,,,,,,,VFR,,,,,,,,,,,,METAR,226
SBPA 050400Z 28003KT CAVOK 14/13 Q1016,SBPA,2023-11-05T04:00:00Z,-29.994,-51.171,14,13,280,3,,6+,30.00,,,,,,,,,,,CAVOK,,,,,,,,VFR,,,,,,,,,,,,METAR,3
SBOI 050400Z AUTO 02001KT 7000 NCD 24/23 Q1009,SBOI,2023-11-05T04:00:00Z,3.861,-51.796,24,23,20,1,,4.35,29.79,,,TRUE,,,,,,,,CLR,,,,,,,,MVFR,,,,,,,,,,,,METAR,15
SBNT 050400Z 09006KT 9999 SCT018 26/22 Q1010,SBNT,2023-11-05T04:00:00Z,-5.911,-35.248,26,22,90,6,,6+,29.82,,,,,,,,,,,SCT,1800,,,,,,,VFR,,,,,,,,,,,,METAR,51
SBMQ 050400Z 07005KT CAVOK 28/25 Q1008,SBMQ,2023-11-05T04:00:00Z,0.051,-51.072,28,25,70,5,,6+,29.76,,,,,,,,,,,CAVOK,,,,,,,,VFR,,,,,,,,,,,,METAR,15
SBMO 050400Z 07004KT 9999 SCT023 25/24 Q1010,SBMO,2023-11-05T04:00:00Z,-9.511,-35.792,25,24,70,4,,6+,29.82,,,,,,,,,,,SCT,2300,,,,,,,VFR,,,,,,,,,,,,METAR,116
SBMN 050400Z 21002KT 5000 FU NSC 29/26 Q1009,SBMN,2023-11-05T04:00:00Z,-3.146,-59.986,29,26,210,2,,3.11,29.79,,,,,,,,,,FU,CLR,,,,,,,,MVFR,,,,,,,,,,,,METAR,71
SBMA 050400Z 00000KT CAVOK 24/23 Q1008,SBMA,2023-11-05T04:00:00Z,-5.368,-49.137,24,23,0,0,,6+,29.76,,,,,,,,,,,CAVOK,,,,,,,,VFR,,,,,,,,,,,,METAR,110
SBLO 050400Z 22002KT CAVOK 16/11 Q1014,SBLO,2023-11-05T04:00:00Z,-23.334,-51.13,16,11,220,2,,6+,29.94,,,,,,,,,,,CAVOK,,,,,,,,VFR,,,,,,,,,,,,METAR,563
SBKP 050400Z 11005KT CAVOK 17/10 Q1015,SBKP,2023-11-05T04:00:00Z,-23.007,-47.135,17,10,110,5,,6+,29.97,,,,,,,,,,,CAVOK,,,,,,,,VFR,,,,,,,,,,,,METAR,659
SBJP 050400Z 08003KT 9999 SCT018 26/23 Q1010,SBJP,2023-11-05T04:00:00Z,-7.148,-34.951,26,23,80,3,,6+,29.82,,,,,,,,,,,SCT,1800,,,,,,,VFR,,,,,,,,,,,,METAR,66
SBGR 050400Z 08004KT 3500 BR NSC 15/14 Q1016,SBGR,2023-11-05T04:00:00Z,-23.432,-46.469,15,14,80,4,,2.17,30.00,,,,,,,,,,BR,CLR,,,,,,,,IFR,,,,,,,,,,,,METAR,745
SBGO 050400Z 13007KT 9999 SCT030 22/19 Q1014,SBGO,2023-11-05T04:00:00Z,-16.632,-49.221,22,19,130,7,,6+,29.94,,,,,,,,,,,SCT,3000,,,,,,,VFR,,,,,,,,,,,,METAR,740
SBGL 050400Z 25005KT 9999 BKN024 BKN030 22/18 Q1012,SBGL,2023-11-05T04:00:00Z,-22.815,-43.261,22,18,250,5,,6+,29.88,,,,,,,,,,,BKN,2400,BKN,3000,,,,,MVFR,,,,,,,,,,,,METAR,3
SBFZ 050400Z 09009KT 9999 BKN018 27/24 Q1009,SBFZ,2023-11-05T04:00:00Z,-3.776,-38.533,27,24,90,9,,6+,29.79,,,,,,,,,,,BKN,1800,,,,,,,MVFR,,,,,,,,,,,,METAR,32
SBFN 050400Z AUTO 12010KT 9999 FEW018 26/22 Q1009,SBFN,2023-11-05T04:00:00Z,-3.855,-32.423,26,22,120,10,,6+,29.79,,,TRUE,,,,,,,,FEW,1800,,,,,,,VFR,,,,,,,,,,,,METAR,52
SBFL 050400Z 25002KT CAVOK 17/11 Q1013,SBFL,2023-11-05T04:00:00Z,-27.671,-48.547,17,11,250,2,,6+,29.91,,,,,,,,,,,CAVOK,,,,,,,,VFR,,,,,,,,,,,,METAR,5
SBFI 050400Z 13006KT CAVOK 14/12 Q1014,SBFI,2023-11-05T04:00:00Z,-25.595,-54.488,14,12,130,6,,6+,29.94,,,,,,,,,,,CAVOK,,,,,,,,VFR,,,,,,,,,,,,METAR,233
SBEG 050400Z 21002KT 5000 FU NSC 27/26 Q1008,SBEG,2023-11-05T04:00:00Z,-3.039,-60.05,27,26,210,2,,3.11,29.76,,,,,,,,,,FU,CLR,,,,,,,,MVFR,,,,,,,,,,,,METAR,69
SBCY 050400Z 20004KT CAVOK 25/19 Q1010,SBCY,2023-11-05T04:00:00Z,-15.653,-56.116,25,19,200,4,,6+,29.82,,,,,,,,,,,CAVOK,,,,,,,,VFR,,,,,,,,,,,,METAR,182
SBCT 050400Z 16004KT CAVOK 11/08 Q1017,SBCT,2023-11-05T04:00:00Z,-25.529,-49.176,11,8,160,4,,6+,30.03,,,,,,,,,,,CAVOK,,,,,,,,VFR,,,,,,,,,,,,METAR,914
SBCG 050400Z 10004KT CAVOK 17/08 Q1013,SBCG,2023-11-05T04:00:00Z,-20.469,-54.672,17,8,100,4,,6+,29.91,,,,,,,,,,,CAVOK,,,,,,,,VFR,,,,,,,,,,,,METAR,556
SBCF 050400Z 20005KT CAVOK 22/19 Q1013,SBCF,2023-11-05T04:00:00Z,-19.635,-43.966,22,19,200,5,,6+,29.91,,,,,,,,,,,CAVOK,,,,,,,,VFR,,,,,,,,,,,,METAR,825
SBBV 050400Z 10005KT CAVOK 29/22 Q1008,SBBV,2023-11-05T04:00:00Z,2.846,-60.69,29,22,100,5,,6+,29.76,,,,,,,,,,,CAVOK,,,,,,,,VFR,,,,,,,,,,,,METAR,80
SBBR 050400Z 19006KT 9999 SCT021 BKN100 22/20 Q1016,SBBR,2023-11-05T04:00:00Z,-15.867,-47.933,22,20,190,6,,6+,30.00,,,,,,,,,,,SCT,2100,BKN,10000,,,,,VFR,,,,,,,,,,,,METAR,1051
SBBG 050400Z AUTO 05004KT CAVOK 09/08 Q1016,SBBG,2023-11-05T04:00:00Z,-31.391,-54.112,9,8,50,4,,6+,30.00,,,TRUE,,,,,,,,CAVOK,,,,,,,,VFR,,,,,,,,,,,,METAR,182
SBBE 050400Z 08003KT CAVOK 26/24 Q1009,SBBE,2023-11-05T04:00:00Z,-1.379,-48.476,26,24,80,3,,6+,29.79,,,,,,,,,,,CAVOK,,,,,,,,VFR,,,,,,,,,,,,METAR,16
SBAR 050400Z 04010KT 9999 SCT013 BKN020 27/24 Q1009,SBAR,2023-11-05T04:00:00Z,-10.984,-37.07,27,24,40,10,,6+,29.79,,,,,,,,,,,SCT,1300,BKN,2000,,,,,MVFR,,,,,,,,,,,,METAR,4
SAZS 050400Z 30016KT 8000 -DZ FEW020 SCT040 BKN050 10/05 Q1010 RMK PP///,SAZS,2023-11-05T04:00:00Z,-41.151,-71.157,10,5,300,16,,4.97,29.82,,,,,,,,,,-DZ,FEW,2000,SCT,4000,BKN,5000,,,MVFR,,,,,,,,,,,,METAR,843
SAZN 050400Z 27004KT CAVOK 20/02 Q1007,SAZN,2023-11-05T04:00:00Z,-38.95,-68.141,20,2,270,4,,6+,29.73,,,,,,,,,,,CAVOK,,,,,,,,VFR,,,,,,,,,,,,METAR,273
SAZM 050400Z 30004KT CAVOK 06/05 Q1015 RMK PP///,SAZM,2023-11-05T04:00:00Z,-37.932,-57.581,6,5,300,4,,6+,29.97,,,,,,,,,,,CAVOK,,,,,,,,VFR,,,,,,,,,,,,METAR,17
SAWH 050400Z VRB02KT CAVOK 04/01 Q0989 RMK PP000,SAWH,2023-11-05T04:00:00Z,-54.844,-68.308,4,1,VRB,2,,6+,29.20,,,,,,,,,,,CAVOK,,,,,,,,VFR,,,,,,,,,,,,METAR,22
SAWG 050400Z 27011KT CAVOK 06/M02 Q0997 RMK PP000,SAWG,2023-11-05T04:00:00Z,-51.609,-69.306,6,-2,270,11,,6+,29.44,,,,,,,,,,,CAVOK,,,,,,,,VFR,,,,,,,,,,,,METAR,18
SAWE 050400Z 32010KT CAVOK 02/00 Q0993 RMK PP000,SAWE,2023-11-05T04:00:00Z,-53.781,-67.754,2,0,320,10,,6+,29.32,,,,,,,,,,,CAVOK,,,,,,,,VFR,,,,,,,,,,,,METAR,22
SAVC 050400Z 28015KT CAVOK 13/M02 Q1005 RMK PP000,SAVC,2023-11-05T04:00:00Z,-45.79,-67.471,13,-2,280,15,,6+,29.68,,,,,,,,,,,CAVOK,,,,,,,,VFR,,,,,,,,,,,,METAR,58
SASJ 050400Z 33006KT CAVOK 16/06 Q1013 RMK PP000,SASJ,2023-11-05T04:00:00Z,-24.387,-65.098,16,6,330,6,,6+,29.91,,,,,,,,,,,CAVOK,,,,,,,,VFR,,,,,,,,,,,,METAR,913
SASA 050400Z VRB02KT CAVOK 12/07 Q1015 RMK PP000,SASA,2023-11-05T04:00:00Z,-24.856,-65.486,12,7,VRB,2,,6+,29.97,,,,,,,,,,,CAVOK,,,,,,,,VFR,,,,,,,,,,,,METAR,1235
SARP 050400Z 14004KT CAVOK 15/11 Q1014,SARP,2023-11-05T04:00:00Z,-27.386,-55.969,15,11,140,4,,6+,29.94,,,,,,,,,,,CAVOK,,,,,,,,VFR,,,,,,,,,,,,METAR,123
SARL 050400Z 23003KT CAVOK 14/12 Q1015,SARL,2023-11-05T04:00:00Z,-29.689,-57.152,14,12,230,3,,6+,29.97,,,,,,,,,,,CAVOK,,,,,,,,VFR,,,,,,,,,,,,METAR,70
SARI 050400Z 13005KT CAVOK 14/10 Q1014 RMK PP000,SARI,2023-11-05T04:00:00Z,-25.737,-54.473,14,10,130,5,,6+,29.94,,,,,,,,,,,CAVOK,,,,,,,,VFR,,,,,,,,,,,,METAR,268
SARF 050400Z 09004KT CAVOK 16/14 Q1013,SARF,2023-11-05T04:00:00Z,-26.213,-58.228,16,14,90,4,,6+,29.91,,,,,,,,,,,CAVOK,,,,,,,,VFR,,,,,,,,,,,,METAR,65
SARE 050400Z 34001KT CAVOK 13/11 Q1014 RMK PP///,SARE,2023-11-05T04:00:00Z,-27.45,-59.056,13,11,340,1,,6+,29.94,,,,,,,,,,,CAVOK,,,,,,,,VFR,,,,,,,,,,,,METAR,52
SARC 050400Z 00000KT CAVOK 15/13 Q1014,SARC,2023-11-05T04:00:00Z,-27.445,-58.762,15,13,0,0,,6+,29.94,,,,,,,,,,,CAVOK,,,,,,,,VFR,,,,,,,,,,,,METAR,60
SAOC 050400Z 34012KT CAVOK 16/06 Q1011,SAOC,2023-11-05T04:00:00Z,-33.095,-64.273,16,6,340,12,,6+,29.85,,,,,,,,,,,CAVOK,,,,,,,,VFR,,,,,,,,,,,,METAR,422
SANT 050400Z 35006KT CAVOK 13/10 Q1009 RMK PP000,SANT,2023-11-05T04:00:00Z,-26.841,-65.105,13,10,350,6,,6+,29.79,,,,,,,,,,,CAVOK,,,,,,,,VFR,,,,,,,,,,,,METAR,446
SAME 050400Z 16002KT CAVOK 20/03 Q1008,SAME,2023-11-05T04:00:00Z,-32.832,-68.793,20,3,160,2,,6+,29.76,,,,,,,,,,,CAVOK,,,,,,,,VFR,,,,,,,,,,,,METAR,709
SAEZ 050400Z 06003KT CAVOK 15/12 Q1014 NOSIG RMK PP000,SAEZ,2023-11-05T04:00:00Z,-34.822,-58.536,15,12,60,3,,6+,29.94,,,,,,,,,,,CAVOK,,,,,,,,VFR,,,,,,,,,,,,METAR,16
SADF 050400Z 00000KT CAVOK 14/11 Q1014 RMK PP000,SADF,2023-11-05T04:00:00Z,-34.457,-58.593,14,11,0,0,,6+,29.94,,,,,,,,,,,CAVOK,,,,,,,,VFR,,,,,,,,,,,,METAR,4
SACO 050400Z 02011KT CAVOK 15/07 Q1013 NOSIG RMK PP000,SACO,2023-11-05T04:00:00Z,-31.324,-64.208,15,7,20,11,,6+,29.91,,,,,,,,,,,CAVOK,,,,,,,,VFR,,,,,,,,,,,,METAR,474
SABE 050400Z VRB02KT CAVOK 18/14 Q1014 NOSIG RMK PP000,SABE,2023-11-05T04:00:00Z,-34.559,-58.416,18,14,VRB,2,,6+,29.94,,,,,,,,,,,CAVOK,,,,,,,,VFR,,,,,,,,,,,,METAR,3
SAAR 050400Z 05005KT CAVOK 13/11 Q1014 RMK PP000,SAAR,2023-11-05T04:00:00Z,-32.918,-60.782,13,11,50,5,,6+,29.94,,,,,,,,,,,CAVOK,,,,,,,,VFR,,,,,,,,,,,,METAR,24
RPVP 050400Z 09004KT 9999 FEW019 SCT080 BKN240 30/26 Q1011 RERA RMK A2985,RPVP,2023-11-05T04:00:00Z,9.742,118.759,30,26,90,4,,6+,29.85,,,,,,,,,,,FEW,1900,SCT,8000,BKN,24000,,,VFR,,,,,,,,,,,,METAR,15
RPVM 050400Z 03005KT 340V070 9999 FEW020 BKN100 31/25 Q1011 NOSIG RMK A2985,RPVM,2023-11-05T04:00:00Z,10.308,123.978,31,25,30,5,,6+,29.85,,,,,,,,,,,FEW,2000,BKN,10000,,,,,VFR,,,,,,,,,,,,METAR,9
RPVD 050400Z 07006KT 9999 SCT015 30/27 Q1009 RMK A2980,RPVD,2023-11-05T04:00:00Z,9.334,123.297,30,27,70,6,,6+,29.79,,,,,,,,,,,SCT,1500,,,,,,,VFR,,,,,,,,,,,,METAR,11
RPMZ 050400Z 17006KT 100V220 9999 FEW016CB FEW017TCU 31/24 Q1010 RMK A2983 CB S-W/NW-N/ TCU NE,RPMZ,2023-11-05T04:00:00Z,6.92,122.063,31,24,170,6,,6+,29.82,,,,,,,,,,,FEW,1600,FEW,1700,,,,,VFR,,,,,,,,,,,,METAR,8
RPMR 050400Z 10005KT 010V160 9999 SCT018 34/21 Q1010 RMK A2983,RPMR,2023-11-05T04:00:00Z,6.058,125.096,34,21,100,5,,6+,29.82,,,,,,,,,,,SCT,1800,,,,,,,VFR,,,,,,,,,,,,METAR,47
RPMD 050400Z 04006KT 350V080 9999 FEW020 32/24 Q1009 RMK A2980,RPMD,2023-11-05T04:00:00Z,7.125,125.646,32,24,40,6,,6+,29.79,,,,,,,,,,,FEW,2000,,,,,,,VFR,,,,,,,,,,,,METAR,19
RPLL 050400Z 13005KT 030V200 9999 FEW025 34/25 Q1011 NOSIG RMK A2985,RPLL,2023-11-05T04:00:00Z,14.507,121.004,34,25,130,5,,6+,29.85,,,,,,,,,,,FEW,2500,,,,,,,VFR,,,,,,,,,,,,METAR,15
RPLI 050400Z 27006KT 230V310 9999 FEW017CB 31/27 Q1010 NOSIG RMK A2983 CB ENE,RPLI,2023-11-05T04:00:00Z,18.178,120.532,31,27,270,6,,6+,29.82,,,,,,,,,,,FEW,1700,,,,,,,VFR,,,,,,,,,,,,METAR,5
RPLC 050400Z 07004KT 9999 SCT020 32/25 Q1012 NOSIG RMK A2988,RPLC,2023-11-05T04:00:00Z,15.186,120.56,32,25,70,4,,6+,29.88,,,,,,,,,,,SCT,2000,,,,,,,VFR,,,,,,,,,,,,METAR,138
RPLB 050400Z 09008KT 060V130 9999 FEW020 BKN300 32/25 Q1011 NOSIG RMK A2985,RPLB,2023-11-05T04:00:00Z,14.794,120.271,32,25,90,8,,6+,29.85,,,,,,,,,,,FEW,2000,BKN,30000,,,,,VFR,,,,,,,,,,,,METAR,19
ROYN 050400Z AUTO 16012KT 130V200 9999 SCT023 BKN026 28/23 Q1014,ROYN,2023-11-05T04:00:00Z,24.467,122.978,28,23,160,12,,6+,29.94,,,TRUE,,,,,,,,SCT,2300,BKN,2600,,,,,MVFR,,,,,,,,,,,,METAR,21
RORY 050400Z AUTO 10011KT 070V140 9999 SCT033 BKN050 29/21 Q1016,RORY,2023-11-05T04:00:00Z,27.044,128.4,29,21,100,11,,6+,30.00,,,TRUE,,,,,,,,SCT,3300,BKN,5000,,,,,VFR,,,,,,,,,,,,METAR,13
RORT 050400Z AUTO 15009KT 110V180 9999 FEW023 29/22 Q1015,RORT,2023-11-05T04:00:00Z,24.653,124.674,29,22,150,9,,6+,29.97,,,TRUE,,,,,,,,FEW,2300,,,,,,,VFR,,,,,,,,,,,,METAR,9
RORS 050400Z 15012KT 9999 FEW027 29/21 Q1015,RORS,2023-11-05T04:00:00Z,24.827,125.145,29,21,150,12,,6+,29.97,,,,,,,,,,,FEW,2700,,,,,,,VFR,,,,,,,,,,,,METAR,13
RORK 050400Z AUTO 09017KT 9999 FEW023 29/22 Q1015,RORK,2023-11-05T04:00:00Z,25.944,131.326,29,22,90,17,,6+,29.97,,,TRUE,,,,,,,,FEW,2300,,,,,,,VFR,,,,,,,,,,,,METAR,11
ROMY 050400Z 15011KT 120V180 9999 FEW030 30/20 Q1015,ROMY,2023-11-05T04:00:00Z,24.782,125.295,30,20,150,11,,6+,29.97,,,,,,,,,,,FEW,3000,,,,,,,VFR,,,,,,,,,,,,METAR,42
ROMD 050400Z AUTO VRB06KT 9999 SCT023 BKN038 29/22 Q1016,ROMD,2023-11-05T04:00:00Z,25.847,131.264,29,22,VRB,6,,6+,30.00,,,TRUE,,,,,,,,SCT,2300,BKN,3800,,,,,VFR,,,,,,,,,,,,METAR,45
ROIG 050400Z 13011KT 9999 SCT021 SCT027 30/24 Q1015,ROIG,2023-11-05T04:00:00Z,24.395,124.245,30,24,130,11,,6+,29.97,,,,,,,,,,,SCT,2100,SCT,2700,,,,,VFR,,,,,,,,,,,,METAR,37
ROAH 050400Z 08013KT 9999 VCSH FEW020 SCT025 27/21 Q1015 RMK 1CU020 3CU025 A3000,ROAH,2023-11-05T04:00:00Z,26.196,127.646,27,21,80,13,,6+,29.97,,,,,,,,,,VCSH,FEW,2000,SCT,2500,,,,,VFR,,,,,,,,,,,,METAR,6
RKTU 050400Z 16004KT 9999 BKN030 BKN140 24/17 Q1017,RKTU,2023-11-05T04:00:00Z,36.717,127.499,24,17,160,4,,6+,30.03,,,,,,,,,,,BKN,3000,BKN,14000,,,,,MVFR,,,,,,,,,,,,METAR,46
RKTN 050400Z 13008KT 9999 FEW025 SCT045 BKN150 23/16 Q1019,RKTN,2023-11-05T04:00:00Z,35.894,128.659,23,16,130,8,,6+,30.09,,,,,,,,,,,FEW,2500,SCT,4500,BKN,15000,,,VFR,,,,,,,,,,,,METAR,25
RKSS 050400Z 11009KT 9999 -RA BKN030 BKN070 18/16 Q1017 NOSIG,RKSS,2023-11-05T04:00:00Z,37.558,126.791,18,16,110,9,,6+,30.03,,,,,,,,,,-RA,BKN,3000,BKN,7000,,,,,MVFR,,,,,,,,,,,,METAR,18
RKSM 050400Z 22007KT 9999 FEW010 SCT030 BKN070 18/16 A3005,RKSM,2023-11-05T04:00:00Z,37.446,127.114,18,16,220,7,,6+,30.05,,,,,,,,,,,FEW,1000,SCT,3000,BKN,7000,,,VFR,,,,,,,,,,,,METAR,18
RKSI 050400Z 08005KT 060V120 9999 -RA FEW030 BKN060 OVC090 18/16 Q1016 NOSIG,RKSI,2023-11-05T04:00:00Z,37.469,126.451,18,16,80,5,,6+,30.00,,,,,,,,,,-RA,FEW,3000,BKN,6000,OVC,9000,,,VFR,,,,,,,,,,,,METAR,7
RKPK 050400Z 12010KT 9999 FEW020 BKN030 BKN200 23/18 Q1019,RKPK,2023-11-05T04:00:00Z,35.179,128.938,23,18,120,10,,6+,30.09,,,,,,,,,,,FEW,2000,BKN,3000,BKN,20000,,,MVFR,,,,,,,,,,,,METAR,3
RKPC 050400Z 08002KT 9999 SCT040 BKN110 24/20 Q1016 WS R25 NOSIG,RKPC,2023-11-05T04:00:00Z,33.511,126.493,24,20,80,2,,6+,30.00,,,,,,,,,,,SCT,4000,BKN,11000,,,,,VFR,,,,,,,,,,,,METAR,23
RKNY 050400Z 36006KT 9999 SCT015 BKN030 OVC070 15/14 Q1020 NOSIG,RKNY,2023-11-05T04:00:00Z,38.061,128.669,15,14,360,6,,6+,30.12,,,,,,,,,,,SCT,1500,BKN,3000,OVC,7000,,,MVFR,,,,,,,,,,,,METAR,76
RKJB 050400Z 15014KT 9999 -RA FEW025 OVC100 22/17 Q1016 NOSIG,RKJB,2023-11-05T04:00:00Z,34.991,126.383,22,17,150,14,,6+,30.00,,,,,,,,,,-RA,FEW,2500,OVC,10000,,,,,VFR,,,,,,,,,,,,METAR,16
RJTT 050400Z 36003KT 300V040 9999 FEW020 BKN/// 23/17 Q1025 NOSIG RMK 1CU020 A3028,RJTT,2023-11-05T04:00:00Z,35.553,139.781,23,17,360,3,,6+,30.27,,,,,,,,,,,FEW,2000,,,,,,,VFR,,,,,,,,,,,,METAR,5
RJTO 050400Z 03009KT 9999 FEW010 BKN020 BKN/// 21/19 Q1025,RJTO,2023-11-05T04:00:00Z,34.782,139.36,21,19,30,9,,6+,30.27,,,,,,,,,,,FEW,1000,BKN,2000,,,,,MVFR,,,,,,,,,,,,METAR,37
RJTI 050400Z 13004KT 070V230 9999 FEW020 SCT030 BKN/// 23/18 Q1025,RJTI,2023-11-05T04:00:00Z,35.637,139.839,23,18,130,4,,6+,30.27,,,,,,,,,,,FEW,2000,SCT,3000,,,,,VFR,,,,,,,,,,,,METAR,4
RJTF 050400Z 28003KT 200V360 9999 FEW020 BKN030 BKN/// 23/15 Q1026,RJTF,2023-11-05T04:00:00Z,35.672,139.528,23,15,280,3,,6+,30.30,,,,,,,,,,,FEW,2000,BKN,3000,,,,,MVFR,,,,,,,,,,,,METAR,37
RJSY 050400Z 08006KT 040V110 9999 FEW030 SCT/// 20/13 Q1025,RJSY,2023-11-05T04:00:00Z,38.812,139.787,20,13,80,6,,6+,30.27,,,,,,,,,,,FEW,3000,,,,,,,VFR,,,,,,,,,,,,METAR,17
RJSS 050400Z 07005KT 9999 FEW015 SCT025 BKN040 17/13 Q1028,RJSS,2023-11-05T04:00:00Z,38.14,140.917,17,13,70,5,,6+,30.35,,,,,,,,,,,FEW,1500,SCT,2500,BKN,4000,,,VFR,,,,,,,,,,,,METAR,5
RJSR 050400Z 03006KT 350V070 9999 FEW040 BKN/// 16/05 Q1027,RJSR,2023-11-05T04:00:00Z,40.192,140.372,16,5,30,6,,6+,30.32,,,,,,,,,,,FEW,4000,,,,,,,VFR,,,,,,,,,,,,METAR,83
RJSN 050400Z 35007KT 9999 FEW030 BKN/// 20/15 Q1025,RJSN,2023-11-05T04:00:00Z,37.956,139.121,20,15,350,7,,6+,30.27,,,,,,,,,,,FEW,3000,,,,,,,VFR,,,,,,,,,,,,METAR,4
RJSM 050400Z 13004KT 060V170 9999 FEW030 BKN230 13/03 Q1029,RJSM,2023-11-05T04:00:00Z,40.705,141.372,13,3,130,4,,6+,30.38,,,,,,,,,,,FEW,3000,BKN,23000,,,,,VFR,,,,,,,,,,,,METAR,31
RJSK 050400Z 14006KT 100V180 9999 FEW035 BKN/// 18/10 Q1026,RJSK,2023-11-05T04:00:00Z,39.616,140.219,18,10,140,6,,6+,30.30,,,,,,,,,,,FEW,3500,,,,,,,VFR,,,,,,,,,,,,METAR,95
RJSI 050400Z VRB01KT 9999 FEW005 BKN015 BKN050 12/05 Q1028,RJSI,2023-11-05T04:00:00Z,39.429,141.135,12,5,VRB,1,,6+,30.35,,,,,,,,,,,FEW,500,BKN,1500,BKN,5000,,,MVFR,,,,,,,,,,,,METAR,89
RJSF 050400Z 35006KT 9999 FEW020 SCT030 BKN070 18/15 Q1027,RJSF,2023-11-05T04:00:00Z,37.227,140.428,18,15,350,6,,6+,30.32,,,,,,,,,,,FEW,2000,SCT,3000,BKN,7000,,,VFR,,,,,,,,,,,,METAR,373
RJSC 050400Z VRB02KT 9999 FEW020 SCT030 19/14 Q1026,RJSC,2023-11-05T04:00:00Z,38.412,140.371,19,14,VRB,2,,6+,30.30,,,,,,,,,,,FEW,2000,SCT,3000,,,,,VFR,,,,,,,,,,,,METAR,104
RJSA 050400Z 01005KT 320V050 CAVOK 13/05 Q1028,RJSA,2023-11-05T04:00:00Z,40.733,140.689,13,5,10,5,,6+,30.35,,,,,,,,,,,CAVOK,,,,,,,,VFR,,,,,,,,,,,,METAR,196
RJOY 050400Z 04005KT 340V100 9999 FEW040 27/10 Q1022,RJOY,2023-11-05T04:00:00Z,34.597,135.601,27,10,40,5,,6+,30.18,,,,,,,,,,,FEW,4000,,,,,,,VFR,,,,,,,,,,,,METAR,10
RJOW 050400Z VRB05KT CAVOK 24/17 Q1020,RJOW,2023-11-05T04:00:00Z,34.676,131.79,24,17,VRB,5,,6+,30.12,,,,,,,,,,,CAVOK,,,,,,,,VFR,,,,,,,,,,,,METAR,54
RJOT 050400Z 10007KT 060V160 9999 FEW030 26/14 Q1021,RJOT,2023-11-05T04:00:00Z,34.214,134.016,26,14,100,7,,6+,30.15,,,,,,,,,,,FEW,3000,,,,,,,VFR,,,,,,,,,,,,METAR,181
RJOS 050400Z 13003KT 090V150 9999 FEW030 BKN070 23/15 Q1022,RJOS,2023-11-05T04:00:00Z,34.132,134.609,23,15,130,3,,6+,30.18,,,,,,,,,,,FEW,3000,BKN,7000,,,,,VFR,,,,,,,,,,,,METAR,3
RJOR 050400Z 05014KT 9999 FEW030 24/19 Q1021,RJOR,2023-11-05T04:00:00Z,35.53,134.165,24,19,50,14,,6+,30.15,,,,,,,,,,,FEW,3000,,,,,,,VFR,,,,,,,,,,,,METAR,11
RJOO 050400Z 11007KT 050V160 9999 FEW030 27/09 Q1022 RMK 1CU030 A3019,RJOO,2023-11-05T04:00:00Z,34.784,135.439,27,9,110,7,,6+,30.18,,,,,,,,,,,FEW,3000,,,,,,,VFR,,,,,,,,,,,,METAR,11
RJOM 050400Z 36011KT 9999 FEW035 24/18 Q1020,RJOM,2023-11-05T04:00:00Z,33.83,132.698,24,18,360,11,,6+,30.12,,,,,,,,,,,FEW,3500,,,,,,,VFR,,,,,,,,,,,,METAR,3
RJOK 050400Z 22007KT 9999 FEW030 26/13 Q1021,RJOK,2023-11-05T04:00:00Z,33.546,133.669,26,13,220,7,,6+,30.15,,,,,,,,,,,FEW,3000,,,,,,,VFR,,,,,,,,,,,,METAR,7
RJOH 050400Z 05011KT 9999 FEW250 23/18 Q1021,RJOH,2023-11-05T04:00:00Z,35.493,133.239,23,18,50,11,,6+,30.15,,,,,,,,,,,FEW,25000,,,,,,,VFR,,,,,,,,,,,,METAR,6
RJOC 050400Z 08012KT CAVOK 24/16 Q1020,RJOC,2023-11-05T04:00:00Z,35.414,132.89,24,16,80,12,,6+,30.12,,,,,,,,,,,CAVOK,,,,,,,,VFR,,,,,,,,,,,,METAR,2
RJOB 050400Z 10009KT 070V140 9999 FEW025 24/11 Q1022,RJOB,2023-11-05T04:00:00Z,34.757,133.855,24,11,100,9,,6+,30.18,,,,,,,,,,,FEW,2500,,,,,,,VFR,,,,,,,,,,,,METAR,242
RJOA 050400Z 13005KT 090V190 9999 FEW030 22/14 Q1022,RJOA,2023-11-05T04:00:00Z,34.436,132.919,22,14,130,5,,6+,30.18,,,,,,,,,,,FEW,3000,,,,,,,VFR,,,,,,,,,,,,METAR,318
RJNW 050400Z 09007KT 030V120 9999 FEW020 20/12 Q1025,RJNW,2023-11-05T04:00:00Z,37.293,136.962,20,12,90,7,,6+,30.27,,,,,,,,,,,FEW,2000,,,,,,,VFR,,,,,,,,,,,,METAR,222
RJNT 050400Z VRB02KT 9999 FEW020 22/15 Q1023,RJNT,2023-11-05T04:00:00Z,36.641,137.187,22,15,VRB,2,,6+,30.21,,,,,,,,,,,FEW,2000,,,,,,,VFR,,,,,,,,,,,,METAR,30
RJNS 050400Z 07005KT 360V110 9999 FEW030 BKN/// 23/16 Q1025,RJNS,2023-11-05T04:00:00Z,34.796,138.189,23,16,70,5,,6+,30.27,,,,,,,,,,,FEW,3000,,,,,,,VFR,,,,,,,,,,,,METAR,133
RJNK 050400Z 03006KT 010V070 9999 FEW050 24/14 Q1023,RJNK,2023-11-05T04:00:00Z,36.394,136.407,24,14,30,6,,6+,30.21,,,,,,,,,,,FEW,5000,,,,,,,VFR,,,,,,,,,,,,METAR,7
RJKI 050400Z AUTO 12007KT 070V180 9999 SCT034 BKN037 BKN042 28/19 Q1017,RJKI,2023-11-05T04:00:00Z,28.321,129.928,28,19,120,7,,6+,30.03,,,TRUE,,,,,,,,SCT,3400,BKN,3700,BKN,4200,,,VFR,,,,,,,,,,,,METAR,6
RJKA 050400Z 11008KT 9999 FEW035 28/19 Q1017,RJKA,2023-11-05T04:00:00Z,28.431,129.713,28,19,110,8,,6+,30.03,,,,,,,,,,,FEW,3500,,,,,,,VFR,,,,,,,,,,,,METAR,7
RJGG 050400Z 29003KT 8000 FEW020 21/17 Q1024 BECMG TL0500 24005KT,RJGG,2023-11-05T04:00:00Z,34.858,136.805,21,17,290,3,,4.97,30.24,,,,,,,,,,,FEW,2000,,,,,,,MVFR,,,,,,,,,,,,METAR,5
RJFU 050400Z VRB04KT 9999 FEW045 SCT/// 26/16 Q1019,RJFU,2023-11-05T04:00:00Z,32.917,129.914,26,16,VRB,4,,6+,30.09,,,,,,,,,,,FEW,4500,,,,,,,VFR,,,,,,,,,,,,METAR,2
RJFT 050400Z 15008KT 100V180 9999 FEW045 28/13 Q1019,RJFT,2023-11-05T04:00:00Z,32.837,130.855,28,13,150,8,,6+,30.09,,,,,,,,,,,FEW,4500,,,,,,,VFR,,,,,,,,,,,,METAR,188
RJFS 050400Z 24004KT 9999 FEW040 27/17 Q1019,RJFS,2023-11-05T04:00:00Z,33.15,130.302,27,17,240,4,,6+,30.09,,,,,,,,,,,FEW,4000,,,,,,,VFR,,,,,,,,,,,,METAR,2
RJFR 050400Z 10014KT 9999 FEW030 23/18 Q1020,RJFR,2023-11-05T04:00:00Z,33.846,131.035,23,18,100,14,,6+,30.12,,,,,,,,,,,FEW,3000,,,,,,,VFR,,,,,,,,,,,,METAR,9
RJFO 050400Z 10008KT 9999 FEW030 24/17 Q1020,RJFO,2023-11-05T04:00:00Z,33.479,131.737,24,17,100,8,,6+,30.12,,,,,,,,,,,FEW,3000,,,,,,,VFR,,,,,,,,,,,,METAR,3
RJFM 050400Z 08012KT 9999 FEW025 BKN035 26/18 Q1020,RJFM,2023-11-05T04:00:00Z,31.877,131.449,26,18,80,12,,6+,30.12,,,,,,,,,,,FEW,2500,BKN,3500,,,,,VFR,,,,,,,,,,,,METAR,10
RJFK 050400Z 12010KT 080V150 9999 FEW035 26/17 Q1020 RMK 2CU035 A3014,RJFK,2023-11-05T04:00:00Z,31.803,130.719,26,17,120,10,,6+,30.12,,,,,,,,,,,FEW,3500,,,,,,,VFR,,,,,,,,,,,,METAR,271
RJFG 050400Z 10011KT 050V130 9999 FEW020 SCT030 24/18 Q1019,RJFG,2023-11-05T04:00:00Z,30.605,130.992,24,18,100,11,,6+,30.09,,,,,,,,,,,FEW,2000,SCT,3000,,,,,VFR,,,,,,,,,,,,METAR,234
RJFF 050400Z 14007KT 090V170 9999 FEW020 SCT/// 28/12 Q1018 BECMG 32007KT RMK 1CU020 A3009,RJFF,2023-11-05T04:00:00Z,33.584,130.452,28,12,140,7,,6+,30.06,,,,,,,,,,,FEW,2000,,,,,,,VFR,,,,,,,,,,,,METAR,7
RJFE 050400Z 15008KT 100V190 9999 FEW020 SCT130 23/18 Q1019,RJFE,2023-11-05T04:00:00Z,32.666,128.833,23,18,150,8,,6+,30.09,,,,,,,,,,,FEW,2000,SCT,13000,,,,,VFR,,,,,,,,,,,,METAR,80
RJEC 050400Z 11003KT 9999 FEW030 BKN/// 10/01 Q1029,RJEC,2023-11-05T04:00:00Z,43.671,142.447,10,1,110,3,,6+,30.38,,,,,,,,,,,FEW,3000,,,,,,,VFR,,,,,,,,,,,,METAR,209
RJEB 050400Z 34005KT 290V020 9999 FEW030 BKN/// 11/M00 Q1028,RJEB,2023-11-05T04:00:00Z,44.304,143.404,11,0,340,5,,6+,30.35,,,,,,,,,,,FEW,3000,,,,,,,VFR,,,,,,,,,,,,METAR,24
RJDT 050400Z 13007KT 100V160 9999 FEW020 BKN/// 24/18 Q1019,RJDT,2023-11-05T04:00:00Z,34.288,129.325,24,18,130,7,,6+,30.09,,,,,,,,,,,FEW,2000,,,,,,,VFR,,,,,,,,,,,,METAR,61
RJDC 050400Z 10012KT 9999 FEW030 24/17 Q1020,RJDC,2023-11-05T04:00:00Z,33.93,131.279,24,17,100,12,,6+,30.12,,,,,,,,,,,FEW,3000,,,,,,,VFR,,,,,,,,,,,,METAR,5
RJDB 050400Z AUTO 08004KT 030V120 9999 NCD 24/18 Q1019,RJDB,2023-11-05T04:00:00Z,33.749,129.785,24,18,80,4,,6+,30.09,,,TRUE,,,,,,,,CLR,,,,,,,,VFR,,,,,,,,,,,,METAR,13
RJCW 050400Z 25014KT 9999 FEW040 BKN/// 10/01 Q1027,RJCW,2023-11-05T04:00:00Z,45.404,141.802,10,1,250,14,,6+,30.32,,,,,,,,,,,FEW,4000,,,,,,,VFR,,,,,,,,,,,,METAR,11
RJCO 050400Z 06003KT 9999 FEW030 BKN200 11/03 Q1031,RJCO,2023-11-05T04:00:00Z,43.117,141.381,11,3,60,3,,6+,30.44,,,,,,,,,,,FEW,3000,BKN,20000,,,,,VFR,,,,,,,,,,,,METAR,7
RJCN 050400Z 22007KT 9999 FEW025 BKN/// 11/04 Q1028,RJCN,2023-11-05T04:00:00Z,43.578,144.96,11,4,220,7,,6+,30.35,,,,,,,,,,,FEW,2500,,,,,,,VFR,,,,,,,,,,,,METAR,62
RJCM 050400Z VRB02KT 9999 FEW030 BKN/// 09/02 Q1028,RJCM,2023-11-05T04:00:00Z,43.881,144.164,9,2,VRB,2,,6+,30.35,,,,,,,,,,,FEW,3000,,,,,,,VFR,,,,,,,,,,,,METAR,30
RJCK 050400Z 17007KT 140V230 9999 FEW025 BKN/// 11/00 Q1029,RJCK,2023-11-05T04:00:00Z,43.041,144.193,11,0,170,7,,6+,30.38,,,,,,,,,,,FEW,2500,,,,,,,VFR,,,,,,,,,,,,METAR,94
RJCH 050400Z 15006KT 110V200 9999 FEW040 SCT/// 13/05 Q1029,RJCH,2023-11-05T04:00:00Z,41.77,140.822,13,5,150,6,,6+,30.38,,,,,,,,,,,FEW,4000,,,,,,,VFR,,,,,,,,,,,,METAR,36
RJCC 050400Z 36003KT 310V090 CAVOK 11/01 Q1030 RMK A3042,RJCC,2023-11-05T04:00:00Z,42.774,141.693,11,1,360,3,,6+,30.41,,,,,,,,,,,CAVOK,,,,,,,,VFR,,,,,,,,,,,,METAR,19
RJCB 050400Z 12003KT 040V210 CAVOK 12/01 Q1028,RJCB,2023-11-05T04:00:00Z,42.733,143.217,12,1,120,3,,6+,30.35,,,,,,,,,,,CAVOK,,,,,,,,VFR,,,,,,,,,,,,METAR,149
RJBT 050400Z VRB02KT 9999 FEW030 24/14 Q1022,RJBT,2023-11-05T04:00:00Z,35.513,134.787,24,14,VRB,2,,6+,30.18,,,,,,,,,,,FEW,3000,,,,,,,VFR,,,,,,,,,,,,METAR,172
RJBE 050400Z 22005KT 9999 FEW025 23/17 Q1022,RJBE,2023-11-05T04:00:00Z,34.633,135.224,23,17,220,5,,6+,30.18,,,,,,,,,,,FEW,2500,,,,,,,VFR,,,,,,,,,,,,METAR,5
RJBD 050400Z 12011KT 090V170 9999 FEW025 SCT040 BKN060 25/16 Q1022,RJBD,2023-11-05T04:00:00Z,33.662,135.364,25,16,120,11,,6+,30.18,,,,,,,,,,,FEW,2500,SCT,4000,BKN,6000,,,VFR,,,,,,,,,,,,METAR,91
RJBB 050400Z 34003KT 310V020 9999 FEW025 22/16 Q1022 BECMG 30005KT,RJBB,2023-11-05T04:00:00Z,34.434,135.233,22,16,340,3,,6+,30.18,,,,,,,,,,,FEW,2500,,,,,,,VFR,,,,,,,,,,,,METAR,8
RJAW 050400Z 08020KT 9999 VA SCT020 27/22 Q1016 RMK 3CU020 A3002 VOLCANIC ASH 3KM S MOV W WIND BY EQPT/25,RJAW,2023-11-05T04:00:00Z,24.784,141.322,27,22,80,20,,6+,30.00,,,,,,,,,,VA,SCT,2000,,,,,,,VFR,,,,,,,,,,,,METAR,116
RJAH 050400Z 05013KT 9999 FEW015 SCT020 22/16 Q1025,RJAH,2023-11-05T04:00:00Z,36.182,140.415,22,16,50,13,,6+,30.27,,,,,,,,,,,FEW,1500,SCT,2000,,,,,VFR,,,,,,,,,,,,METAR,31
RJAF 050400Z VRB03KT 9999 FEW060 19/08 Q1025,RJAF,2023-11-05T04:00:00Z,36.167,137.923,19,8,VRB,3,,6+,30.27,,,,,,,,,,,FEW,6000,,,,,,,VFR,,,,,,,,,,,,METAR,652
RJAA 050400Z 03010KT 350V050 9999 FEW015 SCT020 BKN/// 23/18 Q1025 NOSIG,RJAA,2023-11-05T04:00:00Z,35.765,140.386,23,18,30,10,,6+,30.27,,,,,,,,,,,FEW,1500,SCT,2000,,,,,VFR,,,,,,,,,,,,METAR,36
RCTP 050400Z 29009KT 9999 FEW015 28/23 Q1014 NOSIG RMK A2996,RCTP,2023-11-05T04:00:00Z,25.078,121.233,28,23,290,9,,6+,29.94,,,,,,,,,,,FEW,1500,,,,,,,VFR,,,,,,,,,,,,METAR,33
RCSS 050400Z 23004KT 160V300 9999 FEW020 33/19 Q1013 NOSIG RMK A2994,RCSS,2023-11-05T04:00:00Z,25.069,121.552,33,19,230,4,,6+,29.91,,,,,,,,,,,FEW,2000,,,,,,,VFR,,,,,,,,,,,,METAR,8
RCNN 050400Z 26005KT 9000 FEW012 SCT025 29/19 Q1014 NOSIG RMK A2995,RCNN,2023-11-05T04:00:00Z,22.95,120.206,29,19,260,5,,5.59,29.94,,,,,,,,,,,FEW,1200,SCT,2500,,,,,VFR,,,,,,,,,,,,METAR,15
RCMQ 050400Z 28005KT 9999 FEW010 29/21 Q1014 NOSIG RMK A2997,RCMQ,2023-11-05T04:00:00Z,24.265,120.621,29,21,280,5,,6+,29.94,,,,,,,,,,,FEW,1000,,,,,,,VFR,,,,,,,,,,,,METAR,202
RCKH 050400Z 27008KT 230V310 9000 FEW020 SCT200 30/21 Q1014 NOSIG RMK A2995,RCKH,2023-11-05T04:00:00Z,22.577,120.35,30,21,270,8,,5.59,29.94,,,,,,,,,,,FEW,2000,SCT,20000,,,,,VFR,,,,,,,,,,,,METAR,6
RCFN 050400Z VRB02KT 9999 FEW022 SCT050 30/26 Q1015 NOSIG RMK A3000,RCFN,2023-11-05T04:00:00Z,22.755,121.102,30,26,VRB,2,,6+,29.97,,,,,,,,,,,FEW,2200,SCT,5000,,,,,VFR,,,,,,,,,,,,METAR,42
PLCH 050400Z 09005KT 9999 SCT019 29/25 Q1007,PLCH,2023-11-05T04:00:00Z,1.988,-157.349,29,25,90,5,,6+,29.73,,,,,,,,,,,SCT,1900,,,,,,,VFR,,,,,,,,,,,,METAR,5
PHLI 050400Z 03012KT 10SM FEW019 FEW024 FEW043 26/22 A3006 RMK AO2 T02610217,PHLI,2023-11-05T04:00:00Z,21.9805,-159.339,26.1,21.7,30,12,,10+,30.06,,,,TRUE,,,,,,,FEW,1900,FEW,2400,FEW,4300,,,VFR,,,,,,,,,,,,SPECI,32
OYSY 050400Z VRB02KT CAVOK 20/11 Q1017 RMK MIN17.4,OYSY,2023-11-05T04:00:00Z,15.966,48.788,20,11,VRB,2,,6+,30.03,,,,,,,,,,,CAVOK,,,,,,,,VFR,,,,,,,,,,,,METAR,701
OYAA 050400Z 03003KT 7000 FEW018 26/22 Q1013 RMK NIN 24.2,OYAA,2023-11-05T04:00:00Z,12.829,45.029,26,22,30,3,,4.35,29.91,,,,,,,,,,,FEW,1800,,,,,,,MVFR,,,,,,,,,,,,METAR,3
OTHH 050400Z 28007KT CAVOK 26/21 Q1013 NOSIG,OTHH,2023-11-05T04:00:00Z,25.273,51.609,26,21,280,7,,6+,29.91,,,,,,,,,,,CAVOK,,,,,,,,VFR,,,,,,,,,,,,METAR,3
OTBD 050400Z 28003KT 220V320 CAVOK 27/21 Q1014 NOSIG,OTBD,2023-11-05T04:00:00Z,25.261,51.565,27,21,280,3,,6+,29.94,,,,,,,,,,,CAVOK,,,,,,,,VFR,,,,,,,,,,,,METAR,13
OSLK 050400Z VARB03KT CAVOK 16/09 Q1015,OSLK,2023-11-05T04:00:00Z,35.402,35.949,16,9,,,,6+,29.97,,,,,,,,,,VA,CAVOK,,,,,,,,VFR,,,,,,,,,,,,METAR,47
OSDI 050400Z 00000 CAVOK 12/06 Q1014,OSDI,2023-11-05T04:00:00Z,33.411,36.516,12,6,0,0,,6+,29.94,,,,,,,,,,,CAVOK,,,,,,,,VFR,,,,,,,,,,,,METAR,614
ORSU 050400Z 11005KT CAVOK 15/08 Q1020,ORSU,2023-11-05T04:00:00Z,35.56,45.318,15,8,110,5,,6+,30.12,,,,,,,,,,,CAVOK,,,,,,,,VFR,,,,,,,,,,,,METAR,760
ORNI 050400Z 28006KT 7000 NSC 19/13 Q1016,ORNI,2023-11-05T04:00:00Z,31.99,44.405,19,13,280,6,,4.35,30.00,,,,,,,,,,,CLR,,,,,,,,MVFR,,,,,,,,,,,,METAR,33
ORMM 050400Z 30004KT CAVOK 17/11 Q1014 NOSIG,ORMM,2023-11-05T04:00:00Z,30.549,47.662,17,11,300,4,,6+,29.94,,,,,,,,,,,CAVOK,,,,,,,,VFR,,,,,,,,,,,,METAR,2
ORER 050400Z 30003KT 8000 NSC 12/11 Q1019,ORER,2023-11-05T04:00:00Z,36.232,43.951,12,11,300,3,,4.97,30.09,,,,,,,,,,,CLR,,,,,,,,MVFR,,,,,,,,,,,,METAR,399
ORBI 050400Z 34005KT 7000 NSC 16/13 Q1016 NOSIG,ORBI,2023-11-05T04:00:00Z,33.263,44.235,16,13,340,5,,4.35,30.00,,,,,,,,,,,CLR,,,,,,,,MVFR,,,,,,,,,,,,METAR,37
OPST 050400Z 00000KT 4000 FU NSC 18/14 Q1016 NOSIG RH80,OPST,2023-11-05T04:00:00Z,32.536,74.364,18,14,0,0,,2.49,30.00,,,,,,,,,,FU,CLR,,,,,,,,IFR,,,,,,,,,,,,METAR,234
OPSK 050400Z 00000KT 2000 HZ NSC 24/19 Q1014 BECMG 2500 HZ,OPSK,2023-11-05T04:00:00Z,27.722,68.792,24,19,0,0,,1.24,29.94,,,,,,,,,,HZ,CLR,,,,,,,,IFR,,,,,,,,,,,,METAR,62
OPPS 050400Z 00000KT 1500 HZ FEW200 18/14 Q1017,OPPS,2023-11-05T04:00:00Z,33.996,71.515,18,14,0,0,,0.93,30.03,,,,,,,,,,HZ,FEW,20000,,,,,,,LIFR,,,,,,,,,,,,METAR,356
OPMT 050400Z 00000KT 0600 BR NSC 23/19 Q1015 TEMPO 0800,OPMT,2023-11-05T04:00:00Z,30.203,71.419,23,19,0,0,,0.37,29.97,,,,,,,,,,BR,CLR,,,,,,,,LIFR,,,,,,,,,,,,METAR,122
OPKC 050400Z VRB03KT 2500 BR NSC 27/23 Q1015 BECMG 3000 BR,OPKC,2023-11-05T04:00:00Z,24.902,67.139,27,23,VRB,3,,1.55,29.97,,,,,,,,,,BR,CLR,,,,,,,,IFR,,,,,,,,,,,,METAR,20
OPIS 050400Z 27004KT 6000 NSC 19/09 Q1017 NOSIG,OPIS,2023-11-05T04:00:00Z,33.551,72.827,19,9,270,4,,3.73,30.03,,,,,,,,,,,CLR,,,,,,,,MVFR,,,,,,,,,,,,METAR,542
OMSJ 050400Z 19009KT 9999 FEW035CB SCT045 27/19 Q1013 RETS WS ALL RWY TEMPO 28020G30KT 3000 TSRA,OMSJ,2023-11-05T04:00:00Z,25.329,55.517,27,19,190,9,,6+,29.91,,,,,,,,,,,FEW,3500,SCT,4500,,,,,VFR,,,,,,,,,,,,METAR,33
OMRK 050400Z 18008KT 9999 FEW040 25/21 Q1013 A2993,OMRK,2023-11-05T04:00:00Z,25.613,55.939,25,21,180,8,,6+,29.91,,,,,,,,,,,FEW,4000,,,,,,,VFR,,,,,,,,,,,,METAR,18
OMFJ 050400Z 26002KT 6000 FEW040 28/19 Q1013 A2991,OMFJ,2023-11-05T04:00:00Z,25.112,56.324,28,19,260,2,,3.73,29.91,,,,,,,,,,,FEW,4000,,,,,,,MVFR,,,,,,,,,,,,METAR,27
OMDW 050400Z 19010KT 7000 FEW040TCU 26/20 Q1014 WS ALL RWY TEMPO VRB20G30KT 3000 TSRA FEW035CB,OMDW,2023-11-05T04:00:00Z,24.897,55.161,26,20,190,10,,4.35,29.94,,,,,,,,,,,FEW,4000,,,,,,,MVFR,,,,,,,,,,,,METAR,34
OMDB 050400Z 18008KT 130V210 7000 FEW035CB SCT045 27/20 Q1012 WS ALL RWY TEMPO VRB20G30KT 3000 TSRA,OMDB,2023-11-05T04:00:00Z,25.254,55.366,27,20,180,8,,4.35,29.88,,,,,,,,,,,FEW,3500,SCT,4500,,,,,MVFR,,,,,,,,,,,,METAR,5
OMAL 050400Z 12003KT 8000 NSC 25/19 Q1015 NOSIG,OMAL,2023-11-05T04:00:00Z,24.262,55.609,25,19,120,3,,4.97,29.97,,,,,,,,,,,CLR,,,,,,,,MVFR,,,,,,,,,,,,METAR,247
OMAD 050400Z 19004KT 140V240 9999 FEW035TCU 27/22 Q1013 NOSIG,OMAD,2023-11-05T04:00:00Z,24.428,54.458,27,22,190,4,,6+,29.91,,,,,,,,,,,FEW,3500,,,,,,,VFR,,,,,,,,,,,,METAR,9
OMAA 050400Z 19007KT 9999 FEW035 26/20 Q1013 NOSIG,OMAA,2023-11-05T04:00:00Z,24.433,54.651,26,20,190,7,,6+,29.91,,,,,,,,,,,FEW,3500,,,,,,,VFR,,,,,,,,,,,,METAR,13
OLBA 050400Z 10005KT CAVOK 21/10 Q1015 NOSIG,OLBA,2023-11-05T04:00:00Z,33.82,35.491,21,10,100,5,,6+,29.97,,,,,,,,,,,CAVOK,,,,,,,,VFR,,,,,,,,,,,,METAR,29
OKKK 050400Z 31006KT 7000 NSC 23/17 Q1014 NOSIG,OKKK,2023-11-05T04:00:00Z,29.227,47.969,23,17,310,6,,4.35,29.94,,,,,,,,,,,CLR,,,,,,,,MVFR,,,,,,,,,,,,METAR,55
OJAQ 050400Z 35005KT 8000 NSC 23/11 Q1012 NOSIG,OJAQ,2023-11-05T04:00:00Z,29.612,35.018,23,11,350,5,,4.97,29.88,,,,,,,,,,,CLR,,,,,,,,MVFR,,,,,,,,,,,,METAR,45
OJAM 050400Z 00000KT 4500 HZ NSC 18/05 Q1018 NOSIG,OJAM,2023-11-05T04:00:00Z,31.973,35.992,18,5,0,0,,2.8,30.06,,,,,,,,,,HZ,CLR,,,,,,,,IFR,,,,,,,,,,,,METAR,765
OJAI 050400Z 00000KT 5000 HZ NSC 15/05 Q1018 NOSIG,OJAI,2023-11-05T04:00:00Z,31.723,35.993,15,5,0,0,,3.11,30.06,,,,,,,,,,HZ,CLR,,,,,,,,MVFR,,,,,,,,,,,,METAR,723
OIZJ 050400Z 10006KT 8000 NSC 28/24 Q1012,OIZJ,2023-11-05T04:00:00Z,25.653,57.798,28,24,100,6,,4.97,29.88,,,,,,,,,,,CLR,,,,,,,,MVFR,,,,,,,,,,,,METAR,6
OIZI 050400Z 02006KT CAVOK 23/07 Q1017,OIZI,2023-11-05T04:00:00Z,27.236,60.72,23,7,20,6,,6+,30.03,,,,,,,,,,,CAVOK,,,,,,,,VFR,,,,,,,,,,,,METAR,622
OIZH 050400Z 00000KT 9999 FEW040 BKN200 19/03 Q1020 A3014 NOSIG,OIZH,2023-11-05T04:00:00Z,29.472,60.901,19,3,0,0,,6+,30.12,,,,,,,,,,,FEW,4000,BKN,20000,,,,,VFR,,,,,,,,,,,,METAR,1378
OIZC 050400Z 03006KT 6000 NSC 26/20 Q1012 A2991,OIZC,2023-11-05T04:00:00Z,25.445,60.383,26,20,30,6,,3.73,29.88,,,,,,,,,,,CLR,,,,,,,,MVFR,,,,,,,,,,,,METAR,13
OIZB 050400Z 35010KT CAVOK 18/05 Q1016,OIZB,2023-11-05T04:00:00Z,31.094,61.546,18,5,350,10,,6+,30.00,,,,,,,,,,,CAVOK,,,,,,,,VFR,,,,,,,,,,,,METAR,483
OIYY 050400Z 00000KT 5000 BR FEW035TCU SCT040 12/11 Q1019,OIYY,2023-11-05T04:00:00Z,31.905,54.276,12,11,0,0,,3.11,30.09,,,,,,,,,,BR,FEW,3500,SCT,4000,,,,,MVFR,,,,,,,,,,,,METAR,1226
OITZ 050400Z 12002KT 9999 FEW020 SCT030CB SCT070 05/03 Q1021 A3017,OITZ,2023-11-05T04:00:00Z,36.772,48.363,5,3,120,2,,6+,30.15,,,,,,,,,,,FEW,2000,SCT,3000,SCT,7000,,,VFR,,,,,,,,,,,,METAR,1630
OITT 050400Z 04008KT CAVOK 05/02 Q1022 A3018,OITT,2023-11-05T04:00:00Z,38.13,46.24,5,2,40,8,,6+,30.18,,,,,,,,,,,CAVOK,,,,,,,,VFR,,,,,,,,,,,,METAR,1353
OITR 050400Z 25006KT CAVOK 04/02 Q1020 A3015,OITR,2023-11-05T04:00:00Z,37.665,45.066,4,2,250,6,,6+,30.12,,,,,,,,,,,CAVOK,,,,,,,,VFR,,,,,,,,,,,,METAR,1312
OITP 050400Z 28006KT 0300 FG OVC010 11/11 Q1016,OITP,2023-11-05T04:00:00Z,39.604,47.882,11,11,280,6,,0.19,30.00,,,,,,,,,,FG,OVC,1000,,,,,,,LIFR,,,,,,,,,,,,METAR,72
OITM 050400Z 11006KT CAVOK 06/01 Q1021,OITM,2023-11-05T04:00:00Z,37.348,46.146,6,1,110,6,,6+,30.15,,,,,,,,,,,CAVOK,,,,,,,,VFR,,,,,,,,,,,,METAR,1340
OITL 050400Z 30004KT CAVOK 02/02 Q1021 NOSIG,OITL,2023-11-05T04:00:00Z,38.326,48.424,2,2,300,4,,6+,30.15,,,,,,,,,,,CAVOK,,,,,,,,VFR,,,,,,,,,,,,METAR,1314
OITK 050400Z 00000KT CAVOK 06/02 Q1021 A3016,OITK,2023-11-05T04:00:00Z,38.425,44.975,6,2,0,0,,6+,30.15,,,,,,,,,,,CAVOK,,,,,,,,VFR,,,,,,,,,,,,METAR,1192
OISY 050400Z 00000KT 8000 SCT080 09/08 Q1022,OISY,2023-11-05T04:00:00Z,30.701,51.545,9,8,0,0,,4.97,30.18,,,,,,,,,,,SCT,8000,,,,,,,MVFR,,,,,,,,,,,,METAR,1800
OISS 050400Z 00000KT 7000 3000SE NSC 12/06 Q1019 A3011,OISS,2023-11-05T04:00:00Z,29.539,52.59,12,6,0,0,,4.35,30.09,,,,,,,,,,,CLR,,,,,,,,MVFR,,,,,,,,,,,,METAR,1484
OISR 050400Z 00000KT 8000 NSC 18/14 Q1014 A2997 NOSIG,OISR,2023-11-05T04:00:00Z,27.364,53.203,18,14,0,0,,4.97,29.94,,,,,,,,,,,CLR,,,,,,,,MVFR,,,,,,,,,,,,METAR,402
OISL 050400Z 34004KT CAVOK 18/10 Q1015 A2998 NOSIG,OISL,2023-11-05T04:00:00Z,27.67,54.375,18,10,340,4,,6+,29.97,,,,,,,,,,,CAVOK,,,,,,,,VFR,,,,,,,,,,,,METAR,804
OISF 050400Z 32004KT CAVOK 12/06 Q1018 A3009,OISF,2023-11-05T04:00:00Z,28.895,53.72,12,6,320,4,,6+,30.06,,,,,,,,,,,CAVOK,,,,,,,,VFR,,,,,,,,,,,,METAR,1305
OINZ 050400Z 23006KT 9999 FEW025CB BKN030 OVC070 16/15 Q1019,OINZ,2023-11-05T04:00:00Z,36.636,53.194,16,15,230,6,,6+,30.09,,,,,,,,,,,FEW,2500,BKN,3000,OVC,7000,,,MVFR,,,,,,,,,,,,METAR,8
OINR 050400Z 25002KT 9999 FEW025 SCT090 16/14 Q1016,OINR,2023-11-05T04:00:00Z,36.91,50.68,16,14,250,2,,6+,30.00,,,,,,,,,,,FEW,2500,SCT,9000,,,,,VFR,,,,,,,,,,,,METAR,-19
OINN 050400Z 00000KT 9999 SCT028 BKN090 16/15 Q1017,OINN,2023-11-05T04:00:00Z,36.663,51.465,16,15,0,0,,6+,30.03,,,,,,,,,,,SCT,2800,BKN,9000,,,,,VFR,,,,,,,,,,,,METAR,-25
OING 050400Z 23004KT 8000 SCT035 OVC100 17/15 Q1020 NOSIG,OING,2023-11-05T04:00:00Z,36.908,54.404,17,15,230,4,,4.97,30.12,,,,,,,,,,,SCT,3500,OVC,10000,,,,,MVFR,,,,,,,,,,,,METAR,
OINE 050400Z 00000KT 8000 SCT030 OVC100 17/13 Q1019,OINE,2023-11-05T04:00:00Z,37.383,55.452,17,13,0,0,,4.97,30.09,,,,,,,,,,,SCT,3000,OVC,10000,,,,,MVFR,,,,,,,,,,,,METAR,125
OIMS 050400Z 09006KT 9999 FEW035 SCT200 12/04 Q1020,OIMS,2023-11-05T04:00:00Z,36.171,57.6,12,4,90,6,,6+,30.12,,,,,,,,,,,FEW,3500,SCT,20000,,,,,VFR,,,,,,,,,,,,METAR,920
OIMN 050400Z 00000KT CAVOK 10/04 Q1021,OIMN,2023-11-05T04:00:00Z,37.488,57.303,10,4,0,0,,6+,30.15,,,,,,,,,,,CAVOK,,,,,,,,VFR,,,,,,,,,,,,METAR,1065
OIMM 050400Z 00000KT 9999 FEW040 BKN200 13/05 Q1020 A3012,OIMM,2023-11-05T04:00:00Z,36.236,59.639,13,5,0,0,,6+,30.12,,,,,,,,,,,FEW,4000,BKN,20000,,,,,VFR,,,,,,,,,,,,METAR,995
OIMJ 050400Z 08004KT 4000 BR SCT035 BKN190 09/08 Q1020,OIMJ,2023-11-05T04:00:00Z,36.425,55.104,9,8,80,4,,2.49,30.12,,,,,,,,,,BR,SCT,3500,BKN,19000,,,,,IFR,,,,,,,,,,,,METAR,1285
OIMB 050400Z 10014KT 5000 BR SCT030CB BKN100 12/12 Q1020 A3014 RESHRA,OIMB,2023-11-05T04:00:00Z,32.894,59.29,12,12,100,14,,3.11,30.12,,,,,,,,,,BR,SCT,3000,BKN,10000,,,,,MVFR,,,,,,,,,,,,METAR,1512
OIKQ 050400Z 00000KT 5000 FEW020CB BKN090 27/22 Q1011 TEMPO FEW020CB TS,OIKQ,2023-11-05T04:00:00Z,26.755,55.902,27,22,0,0,,3.11,29.85,,,,,,,,,,,FEW,2000,BKN,9000,,,,,MVFR,,,,,,,,,,,,METAR,9
OIKK 050400Z 15004KT 9999 FEW040 10/07 Q1021 A3016,OIKK,2023-11-05T04:00:00Z,30.251,56.964,10,7,150,4,,6+,30.15,,,,,,,,,,,FEW,4000,,,,,,,VFR,,,,,,,,,,,,METAR,1749
OIKB 050400Z VRB02KT 7000 FEW025CB SCT030 24/20 Q1012 A2989 NOSIG,OIKB,2023-11-05T04:00:00Z,27.218,56.378,24,20,VRB,2,,4.35,29.88,,,,,,,,,,,FEW,2500,SCT,3000,,,,,MVFR,,,,,,,,,,,,METAR,6
OIIP 050400Z 28008KT 1500 BR FEW020 BKN080 06/06 Q1019 A3009,OIIP,2023-11-05T04:00:00Z,35.776,50.827,6,6,280,8,,0.93,30.09,,,,,,,,,,BR,FEW,2000,BKN,8000,,,,,LIFR,,,,,,,,,,,,METAR,1270
OIIK 050400Z 21002KT CAVOK 07/06 Q1020,OIIK,2023-11-05T04:00:00Z,36.243,50.045,7,6,210,2,,6+,30.12,,,,,,,,,,,CAVOK,,,,,,,,VFR,,,,,,,,,,,,METAR,1278
OIII 050400Z 00000KT 5000 HZ SCT035 BKN090 12/08 Q1019 A3010 NOSIG,OIII,2023-11-05T04:00:00Z,35.686,51.304,12,8,0,0,,3.11,30.09,,,,,,,,,,HZ,SCT,3500,BKN,9000,,,,,MVFR,,,,,,,,,,,,METAR,1182
OIIE 050400Z 28008KT 9999 FEW040 11/07 Q1019,OIIE,2023-11-05T04:00:00Z,35.416,51.152,11,7,280,8,,6+,30.09,,,,,,,,,,,FEW,4000,,,,,,,VFR,,,,,,,,,,,,METAR,993
OIHR 050400Z 16002KT 6000 FEW040 SCT090 05/04 Q1022,OIHR,2023-11-05T04:00:00Z,34.138,49.847,5,4,160,2,,3.73,30.18,,,,,,,,,,,FEW,4000,SCT,9000,,,,,MVFR,,,,,,,,,,,,METAR,1658
OIHH 050400Z 15002KT CAVOK 06/05 Q1021 A3017,OIHH,2023-11-05T04:00:00Z,34.869,48.553,6,5,150,2,,6+,30.15,,,,,,,,,,,CAVOK,,,,,,,,VFR,,,,,,,,,,,,METAR,1742
OIGG 050400Z 00000KT 9999 SCT025 16/16 Q1018,OIGG,2023-11-05T04:00:00Z,37.325,49.606,16,16,0,0,,6+,30.06,,,,,,,,,,,SCT,2500,,,,,,,VFR,,,,,,,,,,,,METAR,-16
OIFS 050400Z 26004KT 9999 FEW040 SCT080 04/02 Q1023,OIFS,2023-11-05T04:00:00Z,32.297,50.842,4,2,260,4,,6+,30.21,,,,,,,,,,,FEW,4000,SCT,8000,,,,,VFR,,,,,,,,,,,,METAR,2042
OIFM 050400Z 32006KT 5000 BR FEW040 SCT200 08/07 Q1021 A3018,OIFM,2023-11-05T04:00:00Z,32.752,51.866,8,7,320,6,,3.11,30.15,,,,,,,,,,BR,FEW,4000,SCT,20000,,,,,MVFR,,,,,,,,,,,,METAR,1539
OICS 050400Z 00000KT 5000 BR FEW035 06/05 Q1021 A3017,OICS,2023-11-05T04:00:00Z,35.245,47.009,6,5,0,0,,3.11,30.15,,,,,,,,,,BR,FEW,3500,,,,,,,MVFR,,,,,,,,,,,,METAR,1369
OICM 050400Z 04002KT CAVOK 17/10 Q1011,OICM,2023-11-05T04:00:00Z,-99.99,-99.99,17,10,40,2,,6+,29.85,,,,,,,,,,,CAVOK,,,,,,,,VFR,,,,,,,,,,,,METAR,9999
OICK 050400Z 13004KT 9999 FEW080 11/08 Q1019 A3011,OICK,2023-11-05T04:00:00Z,33.435,48.283,11,8,130,4,,6+,30.09,,,,,,,,,,,FEW,8000,,,,,,,VFR,,,,,,,,,,,,METAR,1156
OICI 050400Z 08004KT 9000 NSC 08/06 Q1020 A3013,OICI,2023-11-05T04:00:00Z,33.588,46.397,8,6,80,4,,5.59,30.12,,,,,,,,,,,CLR,,,,,,,,VFR,,,,,,,,,,,,METAR,1323
OICC 050400Z 00000KT 7000 FEW040 07/06 Q1020 A3015,OICC,2023-11-05T04:00:00Z,34.346,47.158,7,6,0,0,,4.35,30.12,,,,,,,,,,,FEW,4000,,,,,,,MVFR,,,,,,,,,,,,METAR,1310
OIBV 050400Z 36006KT 4000 HZ NSC 28/19 Q1011,OIBV,2023-11-05T04:00:00Z,26.81,53.356,28,19,360,6,,2.49,29.85,,,,,,,,,,HZ,CLR,,,,,,,,IFR,,,,,,,,,,,,METAR,23
OIBS 050400Z 30008KT 5000 HZ FEW030TCU 28/20 Q1012,OIBS,2023-11-05T04:00:00Z,25.903,54.548,28,20,300,8,,3.11,29.88,,,,,,,,,,HZ,FEW,3000,,,,,,,MVFR,,,,,,,,,,,,METAR,4
OIBQ 050400Z 34008KT CAVOK 28/19 Q1012,OIBQ,2023-11-05T04:00:00Z,29.259,50.324,28,19,340,8,,6+,29.88,,,,,,,,,,,CAVOK,,,,,,,,VFR,,,,,,,,,,,,METAR,3
OIBP 050400Z 16004KT 5000 HZ NSC 23/19 Q1011 A2986,OIBP,2023-11-05T04:00:00Z,27.38,52.738,23,19,160,4,,3.11,29.85,,,,,,,,,,HZ,CLR,,,,,,,,MVFR,,,,,,,,,,,,METAR,13
OIBL 050400Z 02004KT 5000 NSC 26/19 Q1011,OIBL,2023-11-05T04:00:00Z,26.532,54.825,26,19,20,4,,3.11,29.85,,,,,,,,,,,CLR,,,,,,,,MVFR,,,,,,,,,,,,METAR,25
OIBK 050400Z 31004KT 7000 NSC 28/20 Q1011,OIBK,2023-11-05T04:00:00Z,26.526,53.98,28,20,310,4,,4.35,29.85,,,,,,,,,,,CLR,,,,,,,,MVFR,,,,,,,,,,,,METAR,27
OIBJ 050400Z 00000KT CAVOK 21/14 Q1016 A3001,OIBJ,2023-11-05T04:00:00Z,27.82,52.352,21,14,0,0,,6+,30.00,,,,,,,,,,,CAVOK,,,,,,,,VFR,,,,,,,,,,,,METAR,647
OIBH 050400Z 33006KT 6000 FEW040 20/16 Q1013 A2992,OIBH,2023-11-05T04:00:00Z,27.213,54.319,20,16,330,6,,3.73,29.91,,,,,,,,,,,FEW,4000,,,,,,,MVFR,,,,,,,,,,,,METAR,412
OIBB 050400Z 08004KT 6000 NSC 24/17 Q1012 A2990 NOSIG,OIBB,2023-11-05T04:00:00Z,28.947,50.834,24,17,80,4,,3.73,29.88,,,,,,,,,,,CLR,,,,,,,,MVFR,,,,,,,,,,,,METAR,15
OIBA 050400Z 28012KT 6000 FEW030TCU 30/20 Q1010,OIBA,2023-11-05T04:00:00Z,25.876,55.033,30,20,280,12,,3.73,29.82,,,,,,,,,,,FEW,3000,,,,,,,MVFR,,,,,,,,,,,,METAR,7
OIAW 050400Z 12002KT 9999 FEW035CB SCT040 20/15 Q1013,OIAW,2023-11-05T04:00:00Z,31.343,48.751,20,15,120,2,,6+,29.91,,,,,,,,,,,FEW,3500,SCT,4000,,,,,VFR,,,,,,,,,,,,METAR,25
OIAM 050400Z 00000KT 7000 NSC 21/16 Q1012,OIAM,2023-11-05T04:00:00Z,30.556,49.152,21,16,0,0,,4.35,29.88,,,,,,,,,,,CLR,,,,,,,,MVFR,,,,,,,,,,,,METAR,7
OIAH 050400Z 00000KT CAVOK 16/10 Q1017,OIAH,2023-11-05T04:00:00Z,30.336,50.83,16,10,0,0,,6+,30.03,,,,,,,,,,,CAVOK,,,,,,,,VFR,,,,,,,,,,,,METAR,730
OIAG 050400Z 02010KT 4000 HZ FEW035CB BKN040 20/11 Q1014 RETS,OIAG,2023-11-05T04:00:00Z,30.74,49.684,20,11,20,10,,2.49,29.94,,,,,,,,,,HZ,FEW,3500,BKN,4000,,,,,IFR,,,,,,,,,,,,METAR,17
OIAA 050400Z 10004KT 3500 HZ FEW040 22/15 Q1013,OIAA,2023-11-05T04:00:00Z,30.366,48.23,22,15,100,4,,2.17,29.91,,,,,,,,,,HZ,FEW,4000,,,,,,,IFR,,,,,,,,,,,,METAR,4
OEYN 050400Z 05004KT CAVOK 26/24 Q1008 NOSIG,OEYN,2023-11-05T04:00:00Z,24.144,38.063,26,24,50,4,,6+,29.76,,,,,,,,,,,CAVOK,,,,,,,,VFR,,,,,,,,,,,,METAR,20
OEWJ 050400Z 03003KT CAVOK 25/12 Q1011 NOSIG,OEWJ,2023-11-05T04:00:00Z,26.199,36.476,25,12,30,3,,6+,29.85,,,,,,,,,,,CAVOK,,,,,,,,VFR,,,,,,,,,,,,METAR,8
OEWD 050400Z 12004KT CAVOK 21/07 Q1016,OEWD,2023-11-05T04:00:00Z,20.504,45.197,21,7,120,4,,6+,30.00,,,,,,,,,,,CAVOK,,,,,,,,VFR,,,,,,,,,,,,METAR,629
OETR 050400Z 09008KT CAVOK 14/06 Q1019 NOSIG,OETR,2023-11-05T04:00:00Z,31.693,38.731,14,6,90,8,,6+,30.09,,,,,,,,,,,CAVOK,,,,,,,,VFR,,,,,,,,,,,,METAR,854
OETF 050400Z 00000KT CAVOK 16/13 Q1022 NOSIG,OETF,2023-11-05T04:00:00Z,21.483,40.544,16,13,0,0,,6+,30.18,,,,,,,,,,,CAVOK,,,,,,,,VFR,,,,,,,,,,,,METAR,1460
OETB 050400Z 07005KT CAVOK 17/12 Q1016 NOSIG,OETB,2023-11-05T04:00:00Z,28.366,36.619,17,12,70,5,,6+,30.00,,,,,,,,,,,CAVOK,,,,,,,,VFR,,,,,,,,,,,,METAR,770
OESK 050400Z 05004KT CAVOK 18/09 Q1020 NOSIG,OESK,2023-11-05T04:00:00Z,29.785,40.1,18,9,50,4,,6+,30.12,,,,,,,,,,,CAVOK,,,,,,,,VFR,,,,,,,,,,,,METAR,671
OESH 050400Z 07005KT 9999 FEW040 23/11 Q1017 NOSIG,OESH,2023-11-05T04:00:00Z,17.467,47.121,23,11,70,5,,6+,30.03,,,,,,,,,,,FEW,4000,,,,,,,VFR,,,,,,,,,,,,METAR,720
OERS 050400Z 00000KT CAVOK 27/15 Q1011 NOSIG,OERS,2023-11-05T04:00:00Z,-99.99,-99.99,27,15,0,0,,6+,29.85,,,,,,,,,,,CAVOK,,,,,,,,VFR,,,,,,,,,,,,METAR,9999
OERR 050400Z 00000KT CAVOK 16/09 Q1018 NOSIG,OERR,2023-11-05T04:00:00Z,30.907,41.138,16,9,0,0,,6+,30.06,,,,,,,,,,,CAVOK,,,,,,,,VFR,,,,,,,,,,,,METAR,554
OERK 050400Z 29002KT 9999 SCT040 21/15 Q1019 NOSIG,OERK,2023-11-05T04:00:00Z,24.945,46.702,21,15,290,2,,6+,30.09,,,,,,,,,,,SCT,4000,,,,,,,VFR,,,,,,,,,,,,METAR,618
OERF 050400Z 00000KT CAVOK 17/11 Q1018 NOSIG,OERF,2023-11-05T04:00:00Z,29.626,43.491,17,11,0,0,,6+,30.06,,,,,,,,,,,CAVOK,,,,,,,,VFR,,,,,,,,,,,,METAR,441
OEPA 050400Z 30004KT CAVOK 20/15 Q1016 NOSIG,OEPA,2023-11-05T04:00:00Z,28.335,46.125,20,15,300,4,,6+,30.00,,,,,,,,,,,CAVOK,,,,,,,,VFR,,,,,,,,,,,,METAR,361
OENG 050400Z 30002KT 9999 FEW030 SCT090 19/05 Q1021 NOSIG,OENG,2023-11-05T04:00:00Z,17.611,44.419,19,5,300,2,,6+,30.15,,,,,,,,,,,FEW,3000,SCT,9000,,,,,VFR,,,,,,,,,,,,METAR,1210
OEMN 050400Z 00000KT 8000 NSC 26/22 Q1014,OEMN,2023-11-05T04:00:00Z,-99.99,-99.99,26,22,0,0,,4.97,29.94,,,,,,,,,,,CLR,,,,,,,,MVFR,,,,,,,,,,,,METAR,9999
OEMA 050400Z 03010KT CAVOK 24/13 Q1018 NOSIG,OEMA,2023-11-05T04:00:00Z,24.553,39.705,24,13,30,10,,6+,30.06,,,,,,,,,,,CAVOK,,,,,,,,VFR,,,,,,,,,,,,METAR,639
OEKM 050400Z 00000KT CAVOK 14/05 Q1025 NOSIG,OEKM,2023-11-05T04:00:00Z,18.301,42.798,14,5,0,0,,6+,30.27,,,,,,,,,,,CAVOK,,,,,,,,VFR,,,,,,,,,,,,METAR,2038
OEKJ 050400Z 24003KT 8000 FEW060 22/17 Q1019,OEKJ,2023-11-05T04:00:00Z,24.07,47.58,22,17,240,3,,4.97,30.09,,,,,,,,,,,FEW,6000,,,,,,,MVFR,,,,,,,,,,,,METAR,487
OEJN 050400Z 00000KT 8000 NSC 28/23 Q1010 NOSIG,OEJN,2023-11-05T04:00:00Z,21.685,39.166,28,23,0,0,,4.97,29.82,,,,,,,,,,,CLR,,,,,,,,MVFR,,,,,,,,,,,,METAR,8
OEHL 050400Z 18004KT CAVOK 18/16 Q1020,OEHL,2023-11-05T04:00:00Z,27.438,41.686,18,16,180,4,,6+,30.12,,,,,,,,,,,CAVOK,,,,,,,,VFR,,,,,,,,,,,,METAR,1002
OEGT 050400Z 00000KT CAVOK 14/02 Q1017 NOSIG,OEGT,2023-11-05T04:00:00Z,31.412,37.279,14,2,0,0,,6+,30.03,,,,,,,,,,,CAVOK,,,,,,,,VFR,,,,,,,,,,,,METAR,512
OEGS 050400Z 23005KT 7000 SCT040 19/18 Q1019,OEGS,2023-11-05T04:00:00Z,26.303,43.774,19,18,230,5,,4.35,30.09,,,,,,,,,,,SCT,4000,,,,,,,MVFR,,,,,,,,,,,,METAR,647
OEGN 050400Z 06003KT 6000 FEW030 SCT100 29/24 Q1012 NOSIG,OEGN,2023-11-05T04:00:00Z,16.901,42.586,29,24,60,3,,3.73,29.88,,,,,,,,,,,FEW,3000,SCT,10000,,,,,MVFR,,,,,,,,,,,,METAR,5
OEDR 050400Z 29008KT 6000 NSC 24/19 Q1013,OEDR,2023-11-05T04:00:00Z,26.265,50.152,24,19,290,8,,3.73,29.91,,,,,,,,,,,CLR,,,,,,,,MVFR,,,,,,,,,,,,METAR,17
OEDM 050400Z 07008KT CAVOK 19/11 Q1019,OEDM,2023-11-05T04:00:00Z,24.45,44.121,19,11,70,8,,6+,30.09,,,,,,,,,,,CAVOK,,,,,,,,VFR,,,,,,,,,,,,METAR,922
OEDF 050400Z 26006KT 7000 NSC 23/20 Q1013 NOSIG,OEDF,2023-11-05T04:00:00Z,26.45,49.817,23,20,260,6,,4.35,29.91,,,,,,,,,,,CLR,,,,,,,,MVFR,,,,,,,,,,,,METAR,15
OEBH 050400Z 06002KT CAVOK 18/02 Q1019 NOSIG,OEBH,2023-11-05T04:00:00Z,19.984,42.621,18,2,60,2,,6+,30.09,,,,,,,,,,,CAVOK,,,,,,,,VFR,,,,,,,,,,,,METAR,1167
OEBA 050400Z 16002KT CAVOK 17/04 Q1022 NOSIG,OEBA,2023-11-05T04:00:00Z,20.296,41.634,17,4,160,2,,6+,30.18,,,,,,,,,,,CAVOK,,,,,,,,VFR,,,,,,,,,,,,METAR,1659
OEAO 050400Z 00000KT 9999 FEW040 21/14 Q1016 NOSIG,OEAO,2023-11-05T04:00:00Z,26.483,38.117,21,14,0,0,,6+,30.00,,,,,,,,,,,FEW,4000,,,,,,,VFR,,,,,,,,,,,,METAR,615
OEAH 050400Z 31004KT CAVOK 23/17 Q1014 NOSIG,OEAH,2023-11-05T04:00:00Z,25.285,49.485,23,17,310,4,,6+,29.94,,,,,,,,,,,CAVOK,,,,,,,,VFR,,,,,,,,,,,,METAR,180
OEAB 050400Z 00000KT CAVOK 14/06 Q1025 NOSIG,OEAB,2023-11-05T04:00:00Z,18.24,42.657,14,6,0,0,,6+,30.27,,,,,,,,,,,CAVOK,,,,,,,,VFR,,,,,,,,,,,,METAR,2092
OBBI 050400Z 28005KT 250V310 CAVOK 27/20 Q1014 NOSIG,OBBI,2023-11-05T04:00:00Z,26.271,50.634,27,20,280,5,,6+,29.94,,,,,,,,,,,CAVOK,,,,,,,,VFR,,,,,,,,,,,,METAR,6
NZWN 050400Z AUTO 18008KT 9999 BKN036/// BKN044/// 15/12 Q1017,NZWN,2023-11-05T04:00:00Z,-41.331,174.806,15,12,180,8,,6+,30.03,,,TRUE,,,,,,,,BKN,3600,BKN,4400,,,,,VFR,,,,,,,,,,,,METAR,12
NZCH 050400Z AUTO 19015KT 9999 BKN012/// OVC018/// 09/08 Q1020,NZCH,2023-11-05T04:00:00Z,-43.489,172.528,9,8,190,15,,6+,30.12,,,TRUE,,,,,,,,BKN,1200,OVC,1800,,,,,MVFR,,,,,,,,,,,,METAR,36
NZAA 050400Z AUTO 22013KT 9999 NCD 18/11 Q1017,NZAA,2023-11-05T04:00:00Z,-37.008,174.792,18,11,220,13,,6+,30.03,,,TRUE,,,,,,,,CLR,,,,,,,,VFR,,,,,,,,,,,,METAR,7
NWWW 050400Z AUTO 17015KT 9999 BKN054 BKN066 26/16 Q1014 NOSIG,NWWW,2023-11-05T04:00:00Z,-22.015,166.213,26,16,170,15,,6+,29.94,,,TRUE,,,,,,,,BKN,5400,BKN,6600,,,,,VFR,,,,,,,,,,,,METAR,16
NVVV 050400Z 13011KT 9999 BKN018 BKN040 27/23 Q1011,NVVV,2023-11-05T04:00:00Z,-17.695,168.313,27,23,130,11,,6+,29.85,,,,,,,,,,,BKN,1800,BKN,4000,,,,,MVFR,,,,,,,,,,,,METAR,23
NVSS 050400Z 14009KT 9999 FEW012 BKN018 OVC040 27/25 Q1009,NVSS,2023-11-05T04:00:00Z,-15.505,167.22,27,25,140,9,,6+,29.79,,,,,,,,,,,FEW,1200,BKN,1800,OVC,4000,,,MVFR,,,,,,,,,,,,METAR,47
NTAA 050400Z 19006KT 9999 -RA FEW013 OVC066 24/23 Q1012 NOSIG,NTAA,2023-11-05T04:00:00Z,-17.554,-149.607,24,23,190,6,,6+,29.88,,,,,,,,,,-RA,FEW,1300,OVC,6600,,,,,VFR,,,,,,,,,,,,METAR,2
NSFA 050400Z 04012KT 9999 SCT025 30/25 Q1008,NSFA,2023-11-05T04:00:00Z,-13.829,-171.993,30,25,40,12,,6+,29.76,,,,,,,,,,,SCT,2500,,,,,,,VFR,,,,,,,,,,,,METAR,6
NLWW 050400Z AUTO 12011KT 080V150 9999 BKN017/// BKN024/// 30/26 Q1008 TEMPO 4000 SHRA BKN014 SCT018CB,NLWW,2023-11-05T04:00:00Z,-13.238,-176.199,30,26,120,11,,6+,29.76,,,TRUE,,,,,,,,BKN,1700,BKN,2400,,,,,MVFR,,,,,,,,,,,,METAR,24
NIUE 050400Z AUTO 09013KT 25/20 Q1013,NIUE,2023-11-05T04:00:00Z,-19.079,-169.926,25,20,90,13,,,29.91,,,TRUE,,,,,,,,,,,,,,,,VFR,,,,,,,,,,,,METAR,22
NGTA 050400Z 21010KT 9999 VCSH SCT018TCU BKN040 OVC100 29/25 Q1006 RMK SHOWERS AT WEST,NGTA,2023-11-05T04:00:00Z,1.381,173.147,29,25,210,10,,6+,29.70,,,,,,,,,,VCSH,SCT,1800,BKN,4000,OVC,10000,,,VFR,,,,,,,,,,,,METAR,8
NGFU 050400Z VRB02KT 9999 VCSH FEW016CB FEW018TCU OVC110 28/27 Q1006 RERA,NGFU,2023-11-05T04:00:00Z,-8.523,179.198,28,27,VRB,2,,6+,29.70,,,,,,,,,,VCSH,FEW,1600,FEW,1800,OVC,11000,,,VFR,,,,,,,,,,,,METAR,2
NFTV 050400Z 10012KT 9999 FEW009 SCT017 BKN280 27/21 Q1012,NFTV,2023-11-05T04:00:00Z,-18.585,-173.963,27,21,100,12,,6+,29.88,,,,,,,,,,,FEW,900,SCT,1700,BKN,28000,,,VFR,,,,,,,,,,,,METAR,71
NFTF 050400Z 08014KT 9999 FEW017 SCT110 26/23 Q1014,NFTF,2023-11-05T04:00:00Z,-21.241,-175.15,26,23,80,14,,6+,29.94,,,,,,,,,,,FEW,1700,SCT,11000,,,,,VFR,,,,,,,,,,,,METAR,38
NFNS 050400Z 12007KT 9999 FEW020 29/25 Q1009,NFNS,2023-11-05T04:00:00Z,-16.803,179.341,29,25,120,7,,6+,29.79,,,,,,,,,,,FEW,2000,,,,,,,VFR,,,,,,,,,,,,METAR,4
NFNM 050400Z 09015KT 9999 FEW018 29/26 Q1009,NFNM,2023-11-05T04:00:00Z,-16.691,-179.877,29,26,90,15,,6+,29.79,,,,,,,,,,,FEW,1800,,,,,,,VFR,,,,,,,,,,,,METAR,21
NFNL 050400Z 12012KT 9999 FEW028 32/20 Q1009,NFNL,2023-11-05T04:00:00Z,-16.467,179.339,32,20,120,12,,6+,29.79,,,,,,,,,,,FEW,2800,,,,,,,VFR,,,,,,,,,,,,METAR,17
NFNA 050400Z 14007KT 100V200 9999 FEW026 30/24 Q1010,NFNA,2023-11-05T04:00:00Z,-18.043,178.559,30,24,140,7,,6+,29.82,,,,,,,,,,,FEW,2600,,,,,,,VFR,,,,,,,,,,,,METAR,6
NFFN 050400Z 28012KT 9999 FEW028 30/23 Q1010 NOSIG,NFFN,2023-11-05T04:00:00Z,-17.755,177.443,30,23,280,12,,6+,29.82,,,,,,,,,,,FEW,2800,,,,,,,VFR,,,,,,,,,,,,METAR,14
NCSW 050400Z AUTO NIL,NCSW,2023-11-05T04:00:00Z,-99.99,-99.99,,,,,,,0.00,,,TRUE,,,,,,,,,,,,,,,,VFR,,,,,,,,,,,,METAR,9999
NCRK 050400Z AUTO 35002KT //// ////// 26/22 Q1008,NCRK,2023-11-05T04:00:00Z,-10.032,-161.101,26,22,350,2,,,29.76,,,TRUE,,,,,,,,,,,,,,,,VFR,,,,,,,,,,,,METAR,7
NCRG 050400Z AUTO 11007KT 350V160 9999 FEW037/// 23/16 Q1016,NCRG,2023-11-05T04:00:00Z,-21.203,-159.806,23,16,110,7,,6+,30.00,,,TRUE,,,,,,,,FEW,3700,,,,,,,VFR,,,,,,,,,,,,METAR,7
NCPY 050400Z AUTO 04004KT //// ////// 29/23 Q1008,NCPY,2023-11-05T04:00:00Z,-9.01,-158.034,29,23,40,4,,,29.76,,,TRUE,,,,,,,,,,,,,,,,VFR,,,,,,,,,,,,METAR,2
NCPL 050400Z AUTO NIL,NCPL,2023-11-05T04:00:00Z,1.98,-157.48,,,,,,,0.00,,,TRUE,,,,,,,,,,,,,,,,VFR,,,,,,,,,,,,METAR,3
NCPK 050400Z AUTO NIL,NCPK,2023-11-05T04:00:00Z,-10.915,-165.839,,,,,,,0.00,,,TRUE,,,,,,,,,,,,,,,,VFR,,,,,,,,,,,,METAR,5
NCNS 050400Z AUTO NIL,NCNS,2023-11-05T04:00:00Z,-99.99,-99.99,,,,,,,0.00,,,TRUE,,,,,,,,,,,,,,,,VFR,,,,,,,,,,,,METAR,9999
NCMR 050400Z AUTO 09008KT //// ////// 24/15 Q1014,NCMR,2023-11-05T04:00:00Z,-19.842,-157.703,24,15,90,8,,,29.94,,,TRUE,,,,,,,,,,,,,,,,VFR,,,,,,,,,,,,METAR,8
NCMK 050400Z AUTO 11008KT //// ////// 23/14 Q1013,NCMK,2023-11-05T04:00:00Z,-20.137,-157.344,23,14,110,8,,,29.91,,,TRUE,,,,,,,,,,,,,,,,VFR,,,,,,,,,,,,METAR,13
NCMH 050400Z AUTO 35004KT //// ////// 27/24 Q1008,NCMH,2023-11-05T04:00:00Z,-10.374,-161.004,27,24,350,4,,,29.76,,,TRUE,,,,,,,,,,,,,,,,VFR,,,,,,,,,,,,METAR,1
NCMG 050400Z AUTO 11008KT //// ////// ///// Q////,NCMG,2023-11-05T04:00:00Z,-21.896,-157.907,,,110,8,,,0.00,,,TRUE,,,,,,,,,,,,,,,,VFR,,,,,,,,,,,,METAR,14
NCAT 050400Z AUTO NIL,NCAT,2023-11-05T04:00:00Z,-19.968,-158.119,,,,,,,0.00,,,TRUE,,,,,,,,,,,,,,,,VFR,,,,,,,,,,,,METAR,11
NCAI 050400Z AUTO 16016KT //// ////// 24/19 Q1013,NCAI,2023-11-05T04:00:00Z,-18.829,-159.766,24,19,160,16,,,29.91,,,TRUE,,,,,,,,,,,,,,,,VFR,,,,,,,,,,,,METAR,7
MYSM 050400Z AUTO 09005KT 9999 FEW026/// BKN240/// 25/23 A2996,MYSM,2023-11-05T04:00:00Z,24.064,-74.529,25,23,90,5,,6+,29.96,,,TRUE,,,,,,,,FEW,2600,BKN,24000,,,,,VFR,,,,,,,,,,,,METAR,5
MYNN 050400Z 00000KT 9999 FEW020 BKN200 25/23 A2997,MYNN,2023-11-05T04:00:00Z,25.04,-77.467,25,23,0,0,,6+,29.97,,,,,,,,,,,FEW,2000,BKN,20000,,,,,VFR,,,,,,,,,,,,METAR,5
MYIG 050400Z AUTO 10005KT CAVOK ///// A2992,MYIG,2023-11-05T04:00:00Z,20.975,-73.674,,,100,5,,6+,29.92,,,TRUE,,,,,,,,CAVOK,,,,,,,,VFR,,,,,,,,,,,,METAR,2
MYGF 050400Z AUTO 09004KT //// R06///// // OVC057/// 23/22 A2998,MYGF,2023-11-05T04:00:00Z,26.555,-78.698,23,22,90,4,,,29.98,,,TRUE,,,,,,,,OVC,5700,,,,,,,VFR,,,,,,,,,,,,METAR,2
MSLP 050400Z 13002KT 9999 FEW025 SCT073 26/25 Q1008 A2979 NOSIG,MSLP,2023-11-05T04:00:00Z,13.438,-89.056,26,25,130,2,,6+,29.76,,,,,,,,,,,FEW,2500,SCT,7300,,,,,VFR,,,,,,,,,,,,METAR,25
MROC 050400Z 00000KT 9999 FEW003 SCT010 BKN015 21/21 A2995 TEMPO BKN010,MROC,2023-11-05T04:00:00Z,9.991,-84.218,21,21,0,0,,6+,29.95,,,,,,,,,,,FEW,300,SCT,1000,BKN,1500,,,MVFR,,,,,,,,,,,,METAR,900
MRLB 050400Z 10006KT CAVOK 24/24 A2980,MRLB,2023-11-05T04:00:00Z,10.589,-85.552,24,24,100,6,,6+,29.80,,,,,,,,,,,CAVOK,,,,,,,,VFR,,,,,,,,,,,,METAR,79
MPTO 050400Z VRB02KT 9999 SCT016 SCT090 26/26 Q1008 NOSIG,MPTO,2023-11-05T04:00:00Z,9.056,-79.391,26,26,VRB,2,,6+,29.76,,,,,,,,,,,SCT,1600,SCT,9000,,,,,VFR,,,,,,,,,,,,METAR,7
MPMG 050400Z AUTO 00000KT //// R01///// // BKN028/// 27/24 Q1009,MPMG,2023-11-05T04:00:00Z,8.967,-79.555,27,24,0,0,,,29.79,,,TRUE,,,,,,,,BKN,2800,,,,,,,MVFR,,,,,,,,,,,,METAR,6
MNMG 050400Z 00000KT 9999 FEW020CB SCT300 25/24 Q1008 A2978 CB:N/S/SW/W FL NOSIG,MNMG,2023-11-05T04:00:00Z,12.141,-86.177,25,24,0,0,,6+,29.76,,,,,,,,,,,FEW,2000,SCT,30000,,,,,VFR,,,,,,,,,,,,METAR,59
MKJS 050400Z VRB02KT 9999 FEW022 27/24 Q1011,MKJS,2023-11-05T04:00:00Z,18.502,-77.915,27,24,VRB,2,,6+,29.85,,,,,,,,,,,FEW,2200,,,,,,,VFR,,,,,,,,,,,,METAR,3
MKJP 050400Z VRB02KT 9999 FEW022 BKN100 27/26 Q1012,MKJP,2023-11-05T04:00:00Z,17.942,-76.798,27,26,VRB,2,,6+,29.88,,,,,,,,,,,FEW,2200,BKN,10000,,,,,VFR,,,,,,,,,,,,METAR,3
MHPR 050400Z 33006KT 8000 BKN042 OVC080 22/21 Q1015 A3000 RERA NOSIG,MHPR,2023-11-05T04:00:00Z,14.382,-87.621,22,21,330,6,,4.97,29.97,,,,,,,,,,,BKN,4200,OVC,8000,,,,,MVFR,,,,,,,,,,,,METAR,628
MHLM 050400Z 17002KT 4000 -RA FEW002 BKN018 OVC070 24/24 Q1012 A2989 NOSIG,MHLM,2023-11-05T04:00:00Z,15.442,-87.934,24,24,170,2,,2.49,29.88,,,,,,,,,,-RA,FEW,200,BKN,1800,OVC,7000,,,IFR,,,,,,,,,,,,METAR,32
MHLC 050400Z VRB02KT 9999 FEW020 BKN070 24/24 Q1011 A2986 NOSIG,MHLC,2023-11-05T04:00:00Z,15.737,-86.864,24,24,VRB,2,,6+,29.85,,,,,,,,,,,FEW,2000,BKN,7000,,,,,VFR,,,,,,,,,,,,METAR,13
MHCA 050400Z 08003KT 9999 FEW008 SCT028 BKN080 23/22 Q1013,MHCA,2023-11-05T04:00:00Z,14.875,-85.775,23,22,80,3,,6+,29.91,,,,,,,,,,,FEW,800,SCT,2800,BKN,8000,,,VFR,,,,,,,,,,,,METAR,386
MGPB 050400Z 00000KT 9999 SCT016 OVC080 25/24 Q1011 A2985,MGPB,2023-11-05T04:00:00Z,15.737,-88.589,25,24,0,0,,6+,29.85,,,,,,,,,,,SCT,1600,OVC,8000,,,,,VFR,,,,,,,,,,,,METAR,6
MGMM 050400Z 00000KT 9999 SCT010 BKN100 24/24 Q1015 A2997,MGMM,2023-11-05T04:00:00Z,16.914,-89.866,24,24,0,0,,6+,29.97,,,,,,,,,,,SCT,1000,BKN,10000,,,,,VFR,,,,,,,,,,,,METAR,105
MGHT 050400Z 00000KT 9999 -DZ OVC015 16/16,MGHT,2023-11-05T04:00:00Z,15.317,-91.503,16,16,0,0,,6+,0.00,,,,,,,,,,-DZ,OVC,1500,,,,,,,MVFR,,,,,,,,,,,,METAR,1875
MGGT 050400Z 01016KT 9999 FEW014 18/17 Q1020 A3012,MGGT,2023-11-05T04:00:00Z,14.585,-90.526,18,17,10,16,,6+,30.12,,,,,,,,,,,FEW,1400,,,,,,,VFR,,,,,,,,,,,,METAR,1497
MDST 050400Z 11003KT 9999 FEW016 24/24 Q1014,MDST,2023-11-05T04:00:00Z,19.407,-70.614,24,24,110,3,,6+,29.94,,,,,,,,,,,FEW,1600,,,,,,,VFR,,,,,,,,,,,,METAR,175
MDSD 050400Z 02005KT 9999 FEW018 24/23 Q1013,MDSD,2023-11-05T04:00:00Z,18.433,-69.667,24,23,20,5,,6+,29.91,,,,,,,,,,,FEW,1800,,,,,,,VFR,,,,,,,,,,,,METAR,18
MDPC 050400Z 06008KT 9999 SCT018 28/24 Q1013,MDPC,2023-11-05T04:00:00Z,18.566,-68.356,28,24,60,8,,6+,29.91,,,,,,,,,,,SCT,1800,,,,,,,VFR,,,,,,,,,,,,METAR,10
LZZI 050400Z VRB01KT 9999 BKN029 08/06 Q0990,LZZI,2023-11-05T04:00:00Z,49.231,18.613,8,6,VRB,1,,6+,29.23,,,,,,,,,,,BKN,2900,,,,,,,MVFR,,,,,,,,,,,,METAR,311
LZTT 050400Z 22006KT 9999 -RA FEW023 BKN033 07/04 Q0992,LZTT,2023-11-05T04:00:00Z,49.068,20.25,7,4,220,6,,6+,29.29,,,,,,,,,,-RA,FEW,2300,BKN,3300,,,,,VFR,,,,,,,,,,,,METAR,693
LZPP 050400Z AUTO 14010KT 9999 OVC016/// 10/08 Q0990,LZPP,2023-11-05T04:00:00Z,48.613,17.832,10,8,140,10,,6+,29.23,,,TRUE,,,,,,,,OVC,1600,,,,,,,MVFR,,,,,,,,,,,,METAR,160
LZKZ 050400Z 20011KT 8000 OVC005 08/07 Q0995 NOSIG,LZKZ,2023-11-05T04:00:00Z,48.661,21.24,8,7,200,11,,4.97,29.38,,,,,,,,,,,OVC,500,,,,,,,IFR,,,,,,,,,,,,METAR,227
LZIB 050400Z 17003KT 130V200 9999 RA NSC 09/08 Q0990 NOSIG,LZIB,2023-11-05T04:00:00Z,48.17,17.207,9,8,170,3,,6+,29.23,,,,,,,,,,RA,CLR,,,,,,,,VFR,,,,,,,,,,,,METAR,129
LYVR 050400Z AUTO 14016KT 120V180 CAVOK 13/07 Q0999,LYVR,2023-11-05T04:00:00Z,45.147,21.31,13,7,140,16,,6+,29.50,,,TRUE,,,,,,,,CAVOK,,,,,,,,VFR,,,,,,,,,,,,METAR,82
LYTV 050400Z AUTO 16010KT 110V190 CAVOK 18/13 Q1004,LYTV,2023-11-05T04:00:00Z,42.405,18.723,18,13,160,10,,6+,29.65,,,TRUE,,,,,,,,CAVOK,,,,,,,,VFR,,,,,,,,,,,,METAR,3
LYPG 050400Z AUTO 32002KT 9999 FEW018/// OVC049/// 12/12 Q1006,LYPG,2023-11-05T04:00:00Z,42.359,19.252,12,12,320,2,,6+,29.70,,,TRUE,,,,,,,,FEW,1800,OVC,4900,,,,,VFR,,,,,,,,,,,,METAR,32
LYNI 050400Z 12004KT 080V140 CAVOK 08/06 Q1004 NOSIG,LYNI,2023-11-05T04:00:00Z,43.338,21.863,8,6,120,4,,6+,29.65,,,,,,,,,,,CAVOK,,,,,,,,VFR,,,,,,,,,,,,METAR,197
LYKV 050400Z 17007KT 140V210 CAVOK 09/09 Q1000 NOSIG,LYKV,2023-11-05T04:00:00Z,43.818,20.587,9,9,170,7,,6+,29.53,,,,,,,,,,,CAVOK,,,,,,,,VFR,,,,,,,,,,,,METAR,209
LYBT 050400Z 11008KT CAVOK 09/09 Q0997 NOSIG,LYBT,2023-11-05T04:00:00Z,44.935,20.258,9,9,110,8,,6+,29.44,,,,,,,,,,,CAVOK,,,,,,,,VFR,,,,,,,,,,,,METAR,78
LYBE 050400Z 13012KT CAVOK 12/05 Q0997 NOSIG,LYBE,2023-11-05T04:00:00Z,44.824,20.291,12,5,130,12,,6+,29.44,,,,,,,,,,,CAVOK,,,,,,,,VFR,,,,,,,,,,,,METAR,93
LWSK 050400Z VRB01KT CAVOK 05/05 Q1007 NOSIG,LWSK,2023-11-05T04:00:00Z,41.952,21.627,5,5,VRB,1,,6+,29.73,,,,,,,,,,,CAVOK,,,,,,,,VFR,,,,,,,,,,,,METAR,232
LWOH 050400Z 16012KT 9999 SCT050 12/06 Q1008,LWOH,2023-11-05T04:00:00Z,41.181,20.744,12,6,160,12,,6+,29.76,,,,,,,,,,,SCT,5000,,,,,,,VFR,,,,,,,,,,,,METAR,700
LUKK 050400Z 26007KT CAVOK 11/11 Q1001 NOSIG,LUKK,2023-11-05T04:00:00Z,46.928,28.931,11,11,260,7,,6+,29.56,,,,,,,,,,,CAVOK,,,,,,,,VFR,,,,,,,,,,,,METAR,102
LRTR 050400Z 12008KT CAVOK 08/08 Q0998,LRTR,2023-11-05T04:00:00Z,45.811,21.333,8,8,120,8,,6+,29.47,,,,,,,,,,,CAVOK,,,,,,,,VFR,,,,,,,,,,,,METAR,104
LRTM 050400Z AUTO 08004KT 0650 R07/0750U FG NCD 03/03 Q1002,LRTM,2023-11-05T04:00:00Z,46.468,24.421,3,3,80,4,,0.4,29.59,,,TRUE,,,,,,,FG,CLR,,,,,,,,LIFR,,,,,,,,,,,,METAR,289
LRTC 050400Z AUTO 23010KT 6000 FEW015/// 11/10 Q1004,LRTC,2023-11-05T04:00:00Z,45.065,28.716,11,10,230,10,,3.73,29.65,,,TRUE,,,,,,,,FEW,1500,,,,,,,MVFR,,,,,,,,,,,,METAR,52
LRSV 050400Z 21004KT CAVOK 08/05 Q1000,LRSV,2023-11-05T04:00:00Z,47.686,26.354,8,5,210,4,,6+,29.53,,,,,,,,,,,CAVOK,,,,,,,,VFR,,,,,,,,,,,,METAR,406
LRSM 050400Z AUTO 17009KT 9999 FEW060/// BKN080/// BKN210/// 10/06 Q0998,LRSM,2023-11-05T04:00:00Z,47.703,22.886,10,6,170,9,,6+,29.47,,,TRUE,,,,,,,,FEW,6000,BKN,8000,BKN,21000,,,VFR,,,,,,,,,,,,METAR,123
LRSB 050400Z VRB01KT CAVOK 03/02 Q1002 NOSIG,LRSB,2023-11-05T04:00:00Z,45.789,24.091,3,2,VRB,1,,6+,29.59,,,,,,,,,,,CAVOK,,,,,,,,VFR,,,,,,,,,,,,METAR,442
LROP 050400Z 22007KT CAVOK 07/07 Q1004 NOSIG,LROP,2023-11-05T04:00:00Z,44.572,26.102,7,7,220,7,,6+,29.65,,,,,,,,,,,CAVOK,,,,,,,,VFR,,,,,,,,,,,,METAR,92
LROD 050400Z AUTO 17013KT 9999 -SHRA BKN060/// 12/08 Q0998,LROD,2023-11-05T04:00:00Z,47.036,21.896,12,8,170,13,,6+,29.47,,,TRUE,,,,,,,-SHRA,BKN,6000,,,,,,,VFR,,,,,,,,,,,,METAR,132
LRIA 050400Z 23003KT 190V250 CAVOK 11/08 Q1001,LRIA,2023-11-05T04:00:00Z,47.164,27.627,11,8,230,3,,6+,29.56,,,,,,,,,,,CAVOK,,,,,,,,VFR,,,,,,,,,,,,METAR,71
LRCV 050400Z 14003KT CAVOK 06/06 Q1003,LRCV,2023-11-05T04:00:00Z,44.31,23.867,6,6,140,3,,6+,29.62,,,,,,,,,,,CAVOK,,,,,,,,VFR,,,,,,,,,,,,METAR,192
LRCL 050400Z 00000KT 1500 BR BKN001 04/03 Q1001,LRCL,2023-11-05T04:00:00Z,46.783,23.676,4,3,0,0,,0.93,29.56,,,,,,,,,,BR,BKN,100,,,,,,,LIFR,,,,,,,,,,,,METAR,313
LRCK 050400Z 23012KT CAVOK 09/08 Q1005 NOSIG,LRCK,2023-11-05T04:00:00Z,44.362,28.488,9,8,230,12,,6+,29.68,,,,,,,,,,,CAVOK,,,,,,,,VFR,,,,,,,,,,,,METAR,108
LRBV 050400Z AUTO 20005KT 9999 NCD 04/03 Q1003,LRBV,2023-11-05T04:00:00Z,-99.99,-99.99,4,3,200,5,,6+,29.62,,,TRUE,,,,,,,,CLR,,,,,,,,VFR,,,,,,,,,,,,METAR,9999
LRBS 050400Z AUTO 24006KT 9999 NCD 09/08 Q1004 NOSIG,LRBS,2023-11-05T04:00:00Z,44.511,26.078,9,8,240,6,,6+,29.65,,,TRUE,,,,,,,,CLR,,,,,,,,VFR,,,,,,,,,,,,METAR,91
LRBM 050400Z AUTO 07004KT 9999 FEW037/// SCT240/// 07/06 Q1000,LRBM,2023-11-05T04:00:00Z,47.658,23.47,7,6,70,4,,6+,29.53,,,TRUE,,,,,,,,FEW,3700,SCT,24000,,,,,VFR,,,,,,,,,,,,METAR,180
LRBC 050400Z 21010KT CAVOK 11/05 Q1001,LRBC,2023-11-05T04:00:00Z,46.522,26.91,11,5,210,10,,6+,29.56,,,,,,,,,,,CAVOK,,,,,,,,VFR,,,,,,,,,,,,METAR,183
LRAR 050400Z AUTO 15012KT 9999 NCD 10/07 Q0998,LRAR,2023-11-05T04:00:00Z,46.176,21.264,10,7,150,12,,6+,29.47,,,TRUE,,,,,,,,CLR,,,,,,,,VFR,,,,,,,,,,,,METAR,102
LQTZ 050400Z 10007KT 9999 FEW040 16/05 Q0994,LQTZ,2023-11-05T04:00:00Z,44.461,18.728,16,5,100,7,,6+,29.35,,,,,,,,,,,FEW,4000,,,,,,,VFR,,,,,,,,,,,,METAR,242
LQSA 050400Z 14016KT 9999 SCT050 14/08 Q0999,LQSA,2023-11-05T04:00:00Z,43.825,18.331,14,8,140,16,,6+,29.50,,,,,,,,,,,SCT,5000,,,,,,,VFR,,,,,,,,,,,,METAR,505
LQMO 050400Z 14012KT 100V170 9999 -RA FEW035 BKN060 17/10 Q1000,LQMO,2023-11-05T04:00:00Z,43.285,17.84,17,10,140,12,,6+,29.53,,,,,,,,,,-RA,FEW,3500,BKN,6000,,,,,VFR,,,,,,,,,,,,METAR,49
LQBK 050400Z 17008KT 9999 FEW030 16/08 Q0990 NOSIG,LQBK,2023-11-05T04:00:00Z,44.937,17.299,16,8,170,8,,6+,29.23,,,,,,,,,,,FEW,3000,,,,,,,VFR,,,,,,,,,,,,METAR,114
LPPT 050400Z 29004KT 240V350 9999 FEW033 14/11 Q1011 RESHRA,LPPT,2023-11-05T04:00:00Z,38.781,-9.136,14,11,290,4,,6+,29.85,,,,,,,,,,,FEW,3300,,,,,,,VFR,,,,,,,,,,,,METAR,98
LPPS 050400Z 36012KT 9999 SCT014 BKN030 20/13 Q1017,LPPS,2023-11-05T04:00:00Z,33.073,-16.35,20,13,360,12,,6+,30.03,,,,,,,,,,,SCT,1400,BKN,3000,,,,,MVFR,,,,,,,,,,,,METAR,89
LPPR 050400Z 28009G20KT 240V310 9999 BKN030 16/08 Q1007,LPPR,2023-11-05T04:00:00Z,41.235,-8.684,16,8,280,9,20,6+,29.73,,,,,,,,,,,BKN,3000,,,,,,,MVFR,,,,,,,,,,,,METAR,64
LPPD 050400Z 34010KT 310V020 9999 VCSH SCT018 SCT045 14/09 Q1024 RESHRA,LPPD,2023-11-05T04:00:00Z,37.741,-25.698,14,9,340,10,,6+,30.24,,,,,,,,,,VCSH,SCT,1800,SCT,4500,,,,,VFR,,,,,,,,,,,,METAR,62
LPMT 050400Z 28009G20KT 240V360 9999 VCSH SCT025 BKN040 16/11 Q1012,LPMT,2023-11-05T04:00:00Z,38.704,-9.036,16,11,280,9,20,6+,29.88,,,,,,,,,,VCSH,SCT,2500,BKN,4000,,,,,VFR,,,,,,,,,,,,METAR,4
LPMR 050400Z 30012G22KT 270V330 9999 SCT020 SCT035 15/09 Q1010,LPMR,2023-11-05T04:00:00Z,39.831,-8.887,15,9,300,12,22,6+,29.82,,,,,,,,,,,SCT,2000,SCT,3500,,,,,VFR,,,,,,,,,,,,METAR,50
LPMA 050400Z 35020KT 9999 BKN014 19/14 Q1016,LPMA,2023-11-05T04:00:00Z,32.698,-16.774,19,14,350,20,,6+,30.00,,,,,,,,,,,BKN,1400,,,,,,,MVFR,,,,,,,,,,,,METAR,54
LPLA 050400Z /////KT 9999 SCT020 14/11 Q1024,LPLA,2023-11-05T04:00:00Z,38.762,-27.091,14,11,,,,6+,30.24,,,,,,,,,,,SCT,2000,,,,,,,VFR,,,,,,,,,,,,METAR,60
LPFR 050400Z 02005KT 9999 FEW030 14/13 Q1013,LPFR,2023-11-05T04:00:00Z,37.014,-7.966,14,13,20,5,,6+,29.91,,,,,,,,,,,FEW,3000,,,,,,,VFR,,,,,,,,,,,,METAR,3
LPBJ 050400Z 24006KT 9999 FEW040 12/10 Q1012,LPBJ,2023-11-05T04:00:00Z,38.073,-7.931,12,10,240,6,,6+,29.88,,,,,,,,,,,FEW,4000,,,,,,,VFR,,,,,,,,,,,,METAR,196
LPAZ 050400Z 36005KT 9999 FEW020 13/10 Q1023,LPAZ,2023-11-05T04:00:00Z,36.971,-25.171,13,10,360,5,,6+,30.21,,,,,,,,,,,FEW,2000,,,,,,,VFR,,,,,,,,,,,,METAR,96
LKTB 050400Z 12008KT 9999 -RA FEW049 07/06 Q0988 NOSIG,LKTB,2023-11-05T04:00:00Z,49.151,16.694,7,6,120,8,,6+,29.17,,,,,,,,,,-RA,FEW,4900,,,,,,,VFR,,,,,,,,,,,,METAR,233
LKPR 050400Z 16009KT 9999 BKN048 09/04 Q0984 NOSIG,LKPR,2023-11-05T04:00:00Z,50.101,14.26,9,4,160,9,,6+,29.06,,,,,,,,,,,BKN,4800,,,,,,,VFR,,,,,,,,,,,,METAR,364
LKPD 050400Z 17013KT 9999 -RA NSC 09/05 Q0986 NOSIG RMK BLU BLU,LKPD,2023-11-05T04:00:00Z,50.016,15.74,9,5,170,13,,6+,29.11,,,,,,,,,,-RA,CLR,,,,,,,,VFR,,,,,,,,,,,,METAR,226
LKNA 050400Z 14006KT 0900 R30/2000U -RA FG OVC002 06/05 Q0988 NOSIG RMK AMB AMB,LKNA,2023-11-05T04:00:00Z,49.166,16.125,6,5,140,6,,0.56,29.17,,,,,,,,,,-RA FG,OVC,200,,,,,,,LIFR,,,,,,,,,,,,METAR,460
LKMT 050400Z 19007KT CAVOK 10/04 Q0989 NOSIG,LKMT,2023-11-05T04:00:00Z,49.696,18.111,10,4,190,7,,6+,29.20,,,,,,,,,,,CAVOK,,,,,,,,VFR,,,,,,,,,,,,METAR,251
LKLN 050400Z AUTO 20004KT 9999 // BKN230 08/04 Q0983,LKLN,2023-11-05T04:00:00Z,49.675,13.275,8,4,200,4,,6+,29.03,,,TRUE,,,,,,,,BKN,23000,,,,,,,VFR,,,,,,,,,,,,METAR,353
LKKV 050400Z 19008KT CAVOK 06/04 Q0982,LKKV,2023-11-05T04:00:00Z,50.202,12.91,6,4,190,8,,6+,29.00,,,,,,,,,,,CAVOK,,,,,,,,VFR,,,,,,,,,,,,METAR,600
LKKB 050400Z 17010KT 9999 BKN047 10/04 Q0984 NOSIG,LKKB,2023-11-05T04:00:00Z,50.123,14.538,10,4,170,10,,6+,29.06,,,,,,,,,,,BKN,4700,,,,,,,VFR,,,,,,,,,,,,METAR,281
LKCV 050400Z 12005KT CAVOK 08/05 Q0986 NOSIG RMK BLU BLU,LKCV,2023-11-05T04:00:00Z,49.94,15.382,8,5,120,5,,6+,29.11,,,,,,,,,,,CAVOK,,,,,,,,VFR,,,,,,,,,,,,METAR,234
LJPZ 050400Z AUTO 15014G25KT 110V200 9999 SHRA FEW021/// BKN036/// BKN050/// 17/14 Q0985,LJPZ,2023-11-05T04:00:00Z,45.473,13.615,17,14,150,14,25,6+,29.08,,,TRUE,,,,,,,SHRA,FEW,2100,BKN,3600,BKN,5000,,,VFR,,,,,,,,,,,,METAR,2
LJMB 050400Z AUTO VRB01KT 9999 -RA OVC031/// 09/08 Q0987 RERA,LJMB,2023-11-05T04:00:00Z,46.48,15.682,9,8,VRB,1,,6+,29.14,,,TRUE,,,,,,,-RA,OVC,3100,,,,,,,VFR,,,,,,,,,,,,METAR,263
LJLJ 050400Z 10009KT 070V130 7000 SHRA SCT010 BKN020TCU OVC025 10/10 Q0984 RESHRA TEMPO TSRA,LJLJ,2023-11-05T04:00:00Z,46.218,14.477,10,10,100,9,,4.35,29.06,,,,,,,,,,SHRA,SCT,1000,BKN,2000,OVC,2500,,,MVFR,,,,,,,,,,,,METAR,363
LJCE 050400Z AUTO 06011KT 9999 -SHRA OVC026/// 11/09 Q0987,LJCE,2023-11-05T04:00:00Z,45.899,15.523,11,9,60,11,,6+,29.14,,,TRUE,,,,,,,-SHRA,OVC,2600,,,,,,,MVFR,,,,,,,,,,,,METAR,153
LHBP 050400Z 12008KT 9999 -RA NSC 09/08 Q0993 RERA NOSIG,LHBP,2023-11-05T04:00:00Z,47.437,19.256,9,8,120,8,,6+,29.32,,,,,,,,,,-RA,CLR,,,,,,,,VFR,,,,,,,,,,,,METAR,141
LGKP 050400Z AUTO 28006KT //// // ////// 21/20 Q1012 RE//,LGKP,2023-11-05T04:00:00Z,35.421,27.146,21,20,280,6,,,29.88,,,TRUE,,,,,,,,,,,,,,,,VFR,,,,,,,,,,,,METAR,20
LFYR 050400Z AUTO 24011KT 200V270 9999 BKN018 BKN025 BKN033 11/09 Q0979,LFYR,2023-11-05T04:00:00Z,47.32,1.688,11,9,240,11,,6+,28.91,,,TRUE,,,,,,,,BKN,1800,BKN,2500,BKN,3300,,,MVFR,,,,,,,,,,,,METAR,83
LFVP 050400Z AUTO 30005KT 270V330 9999 FEW035 SCT050 BKN066 08/06 Q1018,LFVP,2023-11-05T04:00:00Z,46.764,-56.169,8,6,300,5,,6+,30.06,,,TRUE,,,,,,,,FEW,3500,SCT,5000,BKN,6600,,,VFR,,,,,,,,,,,,METAR,5
LFTW 050400Z AUTO 21006KT CAVOK 10/09 Q0993 TEMPO 3000 BR VV///,LFTW,2023-11-05T04:00:00Z,43.757,4.416,10,9,210,6,,6+,29.32,,,TRUE,,,,,,,,CAVOK,,,,,,,,VFR,,,,,,,,,,,,METAR,91
LFTH 050400Z AUTO 29009KT CAVOK 16/09 Q0994 NOSIG,LFTH,2023-11-05T04:00:00Z,43.094,6.146,16,9,290,9,,6+,29.35,,,TRUE,,,,,,,,CAVOK,,,,,,,,VFR,,,,,,,,,,,,METAR,3
LFSX 050400Z AUTO 21020KT 9999 -RA FEW027/// BKN037/// BKN046/// ///TCU 11/07 Q0981,LFSX,2023-11-05T04:00:00Z,47.783,6.364,11,7,210,20,,6+,28.97,,,TRUE,,,,,,,-RA,FEW,2700,BKN,3700,BKN,4600,,,VFR,,,,,,,,,,,,METAR,266
LFST 050400Z AUTO 19016KT 9999 OVC047 13/06 Q0979 TEMPO 19015G30KT 4000 SHRA SCT040CB,LFST,2023-11-05T04:00:00Z,48.549,7.64,13,6,190,16,,6+,28.91,,,TRUE,,,,,,,,OVC,4700,,,,,,,VFR,,,,,,,,,,,,METAR,149
LFSO 050400Z AUTO 20020KT 9000 -DZ SCT016/// BKN023/// BKN028/// ///TCU 09/07 Q0977,LFSO,2023-11-05T04:00:00Z,48.583,5.955,9,7,200,20,,5.59,28.85,,,TRUE,,,,,,,-DZ,SCT,1600,BKN,2300,BKN,2800,,,MVFR,,,,,,,,,,,,METAR,328
LFSN 050400Z AUTO 20015KT 9999 FEW025 BKN034 BKN044 11/08 Q0977,LFSN,2023-11-05T04:00:00Z,48.692,6.231,11,8,200,15,,6+,28.85,,,TRUE,,,,,,,,FEW,2500,BKN,3400,BKN,4400,,,VFR,,,,,,,,,,,,METAR,214
LFSL 050400Z AUTO 23010G21KT 170V290 7000 RA BKN018/// OVC027/// ///TCU 11/09 Q0989 TEMPO 25015G35KT 1500 SHRA BKN012 SCT020CB,LFSL,2023-11-05T04:00:00Z,45.04,1.486,11,9,230,10,21,4.35,29.20,,,TRUE,,,,,,,RA,BKN,1800,OVC,2700,,,,,MVFR,,,,,,,,,,,,METAR,300
LFSI 050400Z AUTO 21017KT 170V230 9999 OVC026 11/08 Q0975,LFSI,2023-11-05T04:00:00Z,48.631,4.904,11,8,210,17,,6+,28.79,,,TRUE,,,,,,,,OVC,2600,,,,,,,MVFR,,,,,,,,,,,,METAR,136
LFSG 050400Z AUTO 20020KT 9999 FEW015/// SCT030/// BKN047/// ///TCU 09/08 Q0978,LFSG,2023-11-05T04:00:00Z,48.325,6.07,9,8,200,20,,6+,28.88,,,TRUE,,,,,,,,FEW,1500,SCT,3000,BKN,4700,,,VFR,,,,,,,,,,,,METAR,320
LFSD 050400Z AUTO 20015G25KT 9999 FEW030 BKN045 BKN068 10/08 Q0981,LFSD,2023-11-05T04:00:00Z,47.269,5.09,10,8,200,15,25,6+,28.97,,,TRUE,,,,,,,,FEW,3000,BKN,4500,BKN,6800,,,VFR,,,,,,,,,,,,METAR,218
LFSB 050400Z AUTO 21021G33KT 9999 -RA BKN056/// BKN074/// OVC100/// ///TCU 13/05 Q0982 TEMPO 4000 SHRA SCT040CB,LFSB,2023-11-05T04:00:00Z,47.614,7.51,13,5,210,21,33,6+,29.00,,,TRUE,,,,,,,-RA,BKN,5600,BKN,7400,OVC,10000,,,VFR,,,,,,,,,,,,METAR,262
LFRZ 050400Z AUTO 28019KT 9999 FEW027 13/09 Q0982 TEMPO 24025G45KT 3000 SHRA SCT015 BKN025CB,LFRZ,2023-11-05T04:00:00Z,47.312,-2.163,13,9,280,19,,6+,29.00,,,TRUE,,,,,,,,FEW,2700,,,,,,,VFR,,,,,,,,,,,,METAR,2
LFRV 050400Z AUTO 28010KT 9999 FEW018 10/08 Q0982,LFRV,2023-11-05T04:00:00Z,47.722,-2.727,10,8,280,10,,6+,29.00,,,TRUE,,,,,,,,FEW,1800,,,,,,,VFR,,,,,,,,,,,,METAR,132
LFRS 050400Z AUTO 27012KT 250V310 9999 FEW028 SCT054 12/09 Q0982 TEMPO 26020G35KT 4000 SHRA BKN025CB,LFRS,2023-11-05T04:00:00Z,47.15,-1.609,12,9,270,12,,6+,29.00,,,TRUE,,,,,,,,FEW,2800,SCT,5400,,,,,VFR,,,,,,,,,,,,METAR,26
LFRQ 050400Z AUTO 30018G29KT 9999 SCT026/// SCT041/// BKN050/// //////TCU 11/08 Q0983,LFRQ,2023-11-05T04:00:00Z,47.975,-4.168,11,8,300,18,29,6+,29.03,,,TRUE,,,,,,,,SCT,2600,SCT,4100,BKN,5000,,,VFR,,,,,,,,,,,,METAR,94
LFRN 050400Z AUTO 26015KT 9999 OVC028 11/08 Q0979 TEMPO 26015G30KT 4000 SHRA BKN025TCU,LFRN,2023-11-05T04:00:00Z,48.069,-1.734,11,8,260,15,,6+,28.91,,,TRUE,,,,,,,,OVC,2800,,,,,,,MVFR,,,,,,,,,,,,METAR,35
LFRM 050400Z AUTO 24012G22KT 200V290 9999 OVC022/// //////TCU 12/09 Q0978,LFRM,2023-11-05T04:00:00Z,47.949,0.202,12,9,240,12,22,6+,28.88,,,TRUE,,,,,,,,OVC,2200,,,,,,,MVFR,,,,,,,,,,,,METAR,51
LFRL 050400Z AUTO 30017KT 9999 SCT030 BKN045 BKN160 12/08 Q0983,LFRL,2023-11-05T04:00:00Z,48.279,-4.439,12,8,300,17,,6+,29.03,,,TRUE,,,,,,,,SCT,3000,BKN,4500,BKN,16000,,,VFR,,,,,,,,,,,,METAR,80
LFRK 050400Z AUTO 26013KT 8000 -RA SCT023 BKN031 BKN045 11/09 Q0973,LFRK,2023-11-05T04:00:00Z,49.18,-0.456,11,9,260,13,,4.97,28.73,,,TRUE,,,,,,,-RA,SCT,2300,BKN,3100,BKN,4500,,,MVFR,,,,,,,,,,,,METAR,66
LFRJ 050400Z AUTO 29015KT 9999 SCT028 BKN036 BKN043 11/07 Q0982,LFRJ,2023-11-05T04:00:00Z,48.527,-4.138,11,7,290,15,,6+,29.00,,,TRUE,,,,,,,,SCT,2800,BKN,3600,BKN,4300,,,VFR,,,,,,,,,,,,METAR,109
LFRI 050400Z AUTO 27013KT 240V300 9999 FEW014/// BKN022/// BKN034/// //////CB 12/10 Q0983,LFRI,2023-11-05T04:00:00Z,46.702,-1.379,12,10,270,13,,6+,29.03,,,TRUE,,,,,,,,FEW,1400,BKN,2200,BKN,3400,,,MVFR,,,,,,,,,,,,METAR,89
LFRH 050400Z AUTO 28013KT 250V310 CAVOK 11/08 Q0983 TEMPO SHRA SCT025TCU,LFRH,2023-11-05T04:00:00Z,47.761,-3.44,11,8,280,13,,6+,29.03,,,TRUE,,,,,,,,CAVOK,,,,,,,,VFR,,,,,,,,,,,,METAR,46
LFRG 050400Z AUTO 24014KT 9999 BKN009/// OVC014/// ///CB 10/09 Q0972,LFRG,2023-11-05T04:00:00Z,49.365,0.154,10,9,240,14,,6+,28.70,,,TRUE,,,,,,,,BKN,900,OVC,1400,,,,,IFR,,,,,,,,,,,,METAR,146
LFRD 050400Z AUTO 30020G31KT 9999 FEW021/// SCT030/// BKN049/// //////CB 12/09 Q0978 TEMPO 3000 SHRA BECMG BKN025,LFRD,2023-11-05T04:00:00Z,48.589,-2.075,12,9,300,20,31,6+,28.88,,,TRUE,,,,,,,,FEW,2100,SCT,3000,BKN,4900,,,VFR,,,,,,,,,,,,METAR,56
LFRC 050400Z AUTO 30023G34KT 9999 3600 -RA FEW010/// BKN015/// BKN038/// //////TCU 11/09 Q0973,LFRC,2023-11-05T04:00:00Z,49.65,-1.47,11,9,300,23,34,6+,28.73,,,TRUE,,,,,,,-RA,FEW,1000,BKN,1500,BKN,3800,,,MVFR,,,,,,,,,,,,METAR,137
LFRB 050400Z AUTO 31015KT 9999 SCT028 SCT034 BKN045 11/07 Q0983 TEMPO 29020G40KT,LFRB,2023-11-05T04:00:00Z,48.444,-4.412,11,7,310,15,,6+,29.03,,,TRUE,,,,,,,,SCT,2800,SCT,3400,BKN,4500,,,VFR,,,,,,,,,,,,METAR,91
LFQQ 050400Z AUTO 20011KT 9999 FEW012 SCT023 BKN030 10/09 Q0969 TEMPO 20020G35KT 1200 SHRA BKN009 BKN014CB,LFQQ,2023-11-05T04:00:00Z,50.562,3.089,10,9,200,11,,6+,28.61,,,TRUE,,,,,,,,FEW,1200,SCT,2300,BKN,3000,,,MVFR,,,2,,,,,,,,,METAR,43
LFQB 050400Z AUTO 21018KT 8000 -RA FEW029/// SCT040/// BKN052/// //////TCU 10/09 Q0976,LFQB,2023-11-05T04:00:00Z,48.325,4.02,10,9,210,18,,4.97,28.82,,,TRUE,,,,,,,-RA,FEW,2900,SCT,4000,BKN,5200,,,MVFR,,,,,,,,,,,,METAR,107
LFQA 050400Z AUTO 22017KT 180V240 5000 RA BR OVC022/// ///CB 11/09 Q0972,LFQA,2023-11-05T04:00:00Z,49.21,4.155,11,9,220,17,,3.11,28.70,,,TRUE,,,,,,,RA BR,OVC,2200,,,,,,,MVFR,,,,,,,,,,,,METAR,92
LFPV 050400Z AUTO 23014KT 190V260 9999 BKN014 OVC020 10/08 Q0974 TEMPO 20015G25KT SCT030TCU,LFPV,2023-11-05T04:00:00Z,48.77,2.205,10,8,230,14,,6+,28.76,,,TRUE,,,,,,,,BKN,1400,OVC,2000,,,,,MVFR,,,1.5,,,,,,,,,METAR,171
LFPT 050400Z AUTO 24015KT 9999 BKN017 BKN023 BKN031 10/09 Q0972,LFPT,2023-11-05T04:00:00Z,49.097,2.041,10,9,240,15,,6+,28.70,,,TRUE,,,,,,,,BKN,1700,BKN,2300,BKN,3100,,,MVFR,,,,,,,,,,,,METAR,91
LFPO 050400Z 23013KT 9999 BKN016 BKN033 11/09 Q0974 TEMPO 4000 SHRA BKN014 BKN020TCU,LFPO,2023-11-05T04:00:00Z,48.717,2.384,11,9,230,13,,6+,28.76,,,,,,,,,,,BKN,1600,BKN,3300,,,,,MVFR,,,,,,,,,,,,METAR,88
LFPN 050400Z AUTO 24014KT 9999 BKN015 OVC023 10/09 Q0973,LFPN,2023-11-05T04:00:00Z,48.752,2.114,10,9,240,14,,6+,28.73,,,TRUE,,,,,,,,BKN,1500,OVC,2300,,,,,MVFR,,,,,,,,,,,,METAR,152
LFPM 050400Z AUTO 23017KT 9999 BKN016 OVC021 10/09 Q0974,LFPM,2023-11-05T04:00:00Z,48.611,2.68,10,9,230,17,,6+,28.76,,,TRUE,,,,,,,,BKN,1600,OVC,2100,,,,,MVFR,,,,,,,,,,,,METAR,91
LFPG 050400Z 23016KT 9999 BKN017 BKN026 10/09 Q0973 TEMPO 21017G27KT,LFPG,2023-11-05T04:00:00Z,49.015,2.534,10,9,230,16,,6+,28.73,,,,,,,,,,,BKN,1700,BKN,2600,,,,,MVFR,,,-1.7,,,,,,,,,METAR,107
LFPB 050400Z AUTO 22013KT 9999 BKN022 OVC037 11/09 Q0973 TEMPO 22020G35KT 4000 -SHRA BKN013TCU,LFPB,2023-11-05T04:00:00Z,48.967,2.428,11,9,220,13,,6+,28.73,,,TRUE,,,,,,,,BKN,2200,OVC,3700,,,,,MVFR,,,,,,,,,,,,METAR,50
LFOZ 050400Z AUTO 24017KT 9999 BKN020 BKN025 OVC050 11/09 Q0977,LFOZ,2023-11-05T04:00:00Z,47.897,2.163,11,9,240,17,,6+,28.85,,,TRUE,,,,,,,,BKN,2000,BKN,2500,OVC,5000,,,MVFR,,,,,,,,,,,,METAR,121
LFOV 050400Z AUTO 25014KT 220V280 9999 BKN019 BKN031 BKN230 10/08 Q0978,LFOV,2023-11-05T04:00:00Z,48.031,-0.746,10,8,250,14,,6+,28.88,,,TRUE,,,,,,,,BKN,1900,BKN,3100,BKN,23000,,,MVFR,,,,,,,,,,,,METAR,99
LFOT 050400Z AUTO 24016KT 210V270 9999 BKN023 BKN030 11/09 Q0979 BECMG 22015G25KT,LFOT,2023-11-05T04:00:00Z,47.444,0.728,11,9,240,16,,6+,28.91,,,TRUE,,,,,,,,BKN,2300,BKN,3000,,,,,MVFR,,,,,,,,,,,,METAR,107
LFOP 050400Z AUTO 23013KT 9999 BKN013/// OVC019/// //////TCU 10/08 Q0972,LFOP,2023-11-05T04:00:00Z,49.383,1.182,10,8,230,13,,6+,28.70,,,TRUE,,,,,,,,BKN,1300,OVC,1900,,,,,MVFR,,,,,,,,,,,,METAR,149
LFOK 050400Z AUTO 22023KT 9999 BKN022 BKN028 BKN035 10/08 Q0974 TEMPO 23025G40KT 2000 SHRA BKN012 BKN016CB,LFOK,2023-11-05T04:00:00Z,48.777,4.165,10,8,220,23,,6+,28.76,,,TRUE,,,,,,,,BKN,2200,BKN,2800,BKN,3500,,,MVFR,,,,,,,,,,,,METAR,166
LFOJ 050400Z AUTO 23020KT 9999 SCT012 SCT018 BKN024 10/09 Q0976 TEMPO 24020G30KT BKN013,LFOJ,2023-11-05T04:00:00Z,47.985,1.754,10,9,230,20,,6+,28.82,,,TRUE,,,,,,,,SCT,1200,SCT,1800,BKN,2400,,,MVFR,,,,,,,,,,,,METAR,122
LFOH 050400Z AUTO 26022KT 9999 -RA FEW012/// BKN043/// OVC056/// //////CB 11/09 Q0972,LFOH,2023-11-05T04:00:00Z,49.533,0.091,11,9,260,22,,6+,28.70,,,TRUE,,,,,,,-RA,FEW,1200,BKN,4300,OVC,5600,,,VFR,,,,,,,,,,,,METAR,87
LFOE 050400Z AUTO 23014KT 9999 BKN016 OVC021 10/08 Q0973 BECMG 22020G30KT,LFOE,2023-11-05T04:00:00Z,49.025,1.222,10,8,230,14,,6+,28.73,,,TRUE,,,,,,,,BKN,1600,OVC,2100,,,,,MVFR,,,,,,,,,,,,METAR,132
LFOB 050400Z AUTO 23014KT 9999 BKN015 BKN022 OVC032 11/08 Q0971 TEMPO 24015G28KT 2000 SHRA BKN009 BKN013CB,LFOB,2023-11-05T04:00:00Z,49.454,2.113,11,8,230,14,,6+,28.67,,,TRUE,,,,,,,,BKN,1500,BKN,2200,OVC,3200,,,MVFR,,,,,,,,,,,,METAR,99
LFOA 050400Z AUTO 24021KT 9999 BKN022 BKN027 BKN038 11/09 Q0980,LFOA,2023-11-05T04:00:00Z,47.052,2.642,11,9,240,21,,6+,28.94,,,TRUE,,,,,,,,BKN,2200,BKN,2700,BKN,3800,,,MVFR,,,,,,,,,,,,METAR,174
LFMY 050400Z AUTO VRB03KT 8000 FEW001 08/08 Q0994,LFMY,2023-11-05T04:00:00Z,43.604,5.108,8,8,VRB,3,,4.97,29.35,,,TRUE,,,,,,,,FEW,100,,,,,,,MVFR,,,,,,,,,,,,METAR,57
LFMV 050400Z AUTO 14005KT 9000 FEW001 08/08 Q0994 TEMPO 0300 FG VV///,LFMV,2023-11-05T04:00:00Z,43.911,4.903,8,8,140,5,,5.59,29.35,,,TRUE,,,,,,,,FEW,100,,,,,,,VFR,,,,,,,,,,,,METAR,33
LFMU 050400Z AUTO VRB01KT CAVOK 06/05 Q0994 BECMG 25020G35KT,LFMU,2023-11-05T04:00:00Z,43.322,3.353,6,5,VRB,1,,6+,29.35,,,TRUE,,,,,,,,CAVOK,,,,,,,,VFR,,,,,,,,,,,,METAR,14
LFMT 050400Z AUTO 00000KT 7000 1100 R30/P5000 NSC 07/07 Q0994 BECMG 26020G30KT,LFMT,2023-11-05T04:00:00Z,43.577,3.963,7,7,0,0,,4.35,29.35,,,TRUE,,,,,,,,CLR,,,,,,,,MVFR,,,,,,,,,,,,METAR,1
LFMP 050400Z AUTO 19005KT CAVOK 08/06 Q0995 NOSIG,LFMP,2023-11-05T04:00:00Z,42.737,2.873,8,6,190,5,,6+,29.38,,,TRUE,,,,,,,,CAVOK,,,,,,,,VFR,,,,,,,,,,,,METAR,41
LFMO 050400Z AUTO 13007KT 8000 BKN002 10/10 Q0993 TEMPO VV/// BECMG 2000 BR,LFMO,2023-11-05T04:00:00Z,44.144,4.861,10,10,130,7,,4.97,29.32,,,TRUE,,,,,,,,BKN,200,,,,,,,LIFR,,,,,,,,,,,,METAR,56
LFMN 050400Z 27012KT CAVOK 15/08 Q0991 NOSIG,LFMN,2023-11-05T04:00:00Z,43.658,7.216,15,8,270,12,,6+,29.26,,,,,,,,,,,CAVOK,,,,,,,,VFR,,,,,,,,,,,,METAR,4
LFML 050400Z AUTO 11003KT CAVOK 10/10 Q0994 TEMPO 2000 BR,LFML,2023-11-05T04:00:00Z,43.438,5.216,10,10,110,3,,6+,29.35,,,TRUE,,,,,,,,CAVOK,,,,,,,,VFR,,,,,,,,,,,,METAR,20
LFMK 050400Z AUTO VRB02KT CAVOK 05/05 Q0995 TEMPO 3000 BR,LFMK,2023-11-05T04:00:00Z,43.214,2.31,5,5,VRB,2,,6+,29.38,,,TRUE,,,,,,,,CAVOK,,,,,,,,VFR,,,,,,,,,,,,METAR,124
LFMI 050400Z AUTO 05005KT 360V090 CAVOK 09/09 Q0994 TEMPO 2000 BR,LFMI,2023-11-05T04:00:00Z,43.516,4.935,9,9,50,5,,6+,29.35,,,TRUE,,,,,,,,CAVOK,,,,,,,,VFR,,,,,,,,,,,,METAR,20
LFMH 050400Z AUTO 19009KT 140V230 9999 BKN040 BKN046 BKN052 11/05 Q0987,LFMH,2023-11-05T04:00:00Z,45.533,4.293,11,5,190,9,,6+,29.14,,,TRUE,,,,,,,,BKN,4000,BKN,4600,BKN,5200,,,VFR,,,,,,,,,,,,METAR,400
LFMD 050400Z AUTO 27007KT 230V320 CAVOK 16/07 Q0992 TEMPO 25022KT,LFMD,2023-11-05T04:00:00Z,43.544,6.953,16,7,270,7,,6+,29.29,,,TRUE,,,,,,,,CAVOK,,,,,,,,VFR,,,,,,,,,,,,METAR,2
LFMC 050400Z AUTO 29010KT 9999 ////// 12/09 Q0993,LFMC,2023-11-05T04:00:00Z,43.383,6.386,12,9,290,10,,6+,29.32,,,TRUE,,,,,,,,,,,,,,,,VFR,,,,,,,,,,,,METAR,79
LFLY 050400Z AUTO 16010KT 9999 BKN052 OVC062 12/07 Q0988 TEMPO 20020G35KT SCT040TCU BKN050,LFLY,2023-11-05T04:00:00Z,45.726,4.938,12,7,160,10,,6+,29.17,,,TRUE,,,,,,,,BKN,5200,OVC,6200,,,,,VFR,,,2,,,,,,,,,METAR,197
LFLX 050400Z AUTO 23019KT 9999 BKN017/// BKN022/// BKN029/// //////CB 11/09 Q0981 TEMPO 21020G40KT 4500 SHRA BKN014 SCT020CB,LFLX,2023-11-05T04:00:00Z,46.87,1.741,11,9,230,19,,6+,28.97,,,TRUE,,,,,,,,BKN,1700,BKN,2200,BKN,2900,,,MVFR,,,-2,,,,,,,,,METAR,157
LFLW 050400Z AUTO 24018G31KT 200V270 9999 BKN016/// OVC023/// ///CB 09/06 Q0991,LFLW,2023-11-05T04:00:00Z,44.899,2.421,9,6,240,18,31,6+,29.26,,,TRUE,,,,,,,,BKN,1600,OVC,2300,,,,,MVFR,,,,,,,,,,,,METAR,638
LFLS 050400Z AUTO 19013KT 9999 FEW052 BKN062 BKN160 12/05 Q0989 TEMPO 20020G35KT,LFLS,2023-11-05T04:00:00Z,45.363,5.329,12,5,190,13,,6+,29.20,,,TRUE,,,,,,,,FEW,5200,BKN,6200,BKN,16000,,,VFR,,,2,,,,,,,,,METAR,386
LFLP 050400Z AUTO 21012G23KT 180V240 9999 OVC054 12/05 Q0989 TEMPO 21020G35KT,LFLP,2023-11-05T04:00:00Z,45.93,6.106,12,5,210,12,23,6+,29.20,,,TRUE,,,,,,,,OVC,5400,,,,,,,VFR,,,-2,,,,,,,,,METAR,460
LFLN 050400Z AUTO 23010KT 190V260 9999 -RA SCT033/// BKN040/// OVC049/// //////CB 11/08 Q0984,LFLN,2023-11-05T04:00:00Z,46.412,4.025,11,8,230,10,,6+,29.06,,,TRUE,,,,,,,-RA,SCT,3300,BKN,4000,OVC,4900,,,VFR,,,,,,,,,,,,METAR,238
LFLL 050400Z 18019KT CAVOK 13/06 Q0988 NOSIG,LFLL,2023-11-05T04:00:00Z,45.726,5.078,13,6,180,19,,6+,29.17,,,,,,,,,,,CAVOK,,,,,,,,VFR,,,,,,,,,,,,METAR,234
LFLC 050400Z AUTO 24020G32KT 210V270 9999 -RA FEW035/// BKN058/// BKN070/// ///CB 11/07 Q0985 BECMG NSC,LFLC,2023-11-05T04:00:00Z,45.787,3.169,11,7,240,20,32,6+,29.08,,,TRUE,,,,,,,-RA,FEW,3500,BKN,5800,BKN,7000,,,VFR,,,,,,,,,,,,METAR,325
LFLB 050400Z AUTO 15019G38KT 110V180 9999 OVC062 15/05 Q0989 NOSIG,LFLB,2023-11-05T04:00:00Z,45.637,5.883,15,5,150,19,38,6+,29.20,,,TRUE,,,,,,,,OVC,6200,,,,,,,VFR,,,,,,,,,,,,METAR,234
LFKS 050400Z AUTO 24016G27KT 180V300 9999 -RA FEW021/// BKN068/// BKN080/// //////CB 21/11 Q0992,LFKS,2023-11-05T04:00:00Z,41.924,9.406,21,11,240,16,27,6+,29.29,,,TRUE,,,,,,,-RA,FEW,2100,BKN,6800,BKN,8000,,,VFR,,,,,,,,,,,,METAR,22
LFKJ 050400Z AUTO 27021KT 9999 FEW039/// SCT045/// BKN074/// ///TCU 20/13 Q0996 TEMPO 4000 SHRA BKN030 SCT040CB,LFKJ,2023-11-05T04:00:00Z,41.924,8.803,20,13,270,21,,6+,29.41,,,TRUE,,,,,,,,FEW,3900,SCT,4500,BKN,7400,,,VFR,,,,,,,,,,,,METAR,9
LFKF 050400Z AUTO 25022KT 9999 FEW017/// BKN025/// BKN052/// ///CB 18/16 Q0995 TEMPO 24030G50KT 4000 SHRA,LFKF,2023-11-05T04:00:00Z,41.501,9.098,18,16,250,22,,6+,29.38,,,TRUE,,,,,,,,FEW,1700,BKN,2500,BKN,5200,,,MVFR,,,,,,,,,,,,METAR,15
LFKC 050400Z AUTO 22019G30KT 170V260 9999 FEW030 BKN036 BKN045 19/12 Q0994 TEMPO 4000 RA BKN030 SCT030CB,LFKC,2023-11-05T04:00:00Z,42.531,8.793,19,12,220,19,30,6+,29.35,,,TRUE,,,,,,,,FEW,3000,BKN,3600,BKN,4500,,,VFR,,,,,,,,,,,,METAR,38
LFKB 050400Z AUTO 23006KT 9999 FEW029 BKN096 16/14 Q0992 TEMPO 24015G25KT RA FEW040CB,LFKB,2023-11-05T04:00:00Z,42.553,9.484,16,14,230,6,,6+,29.29,,,TRUE,,,,,,,,FEW,2900,BKN,9600,,,,,VFR,,,,,,,,,,,,METAR,7
LFJR 050400Z AUTO 26015KT 7000 BKN022 BKN060 11/08 Q0980,LFJR,2023-11-05T04:00:00Z,47.562,-0.317,11,8,260,15,,4.35,28.94,,,TRUE,,,,,,,,BKN,2200,BKN,6000,,,,,MVFR,,,,,,,,,,,,METAR,50
LFJL 050400Z AUTO 20021KT 9999 BKN020 OVC027 10/08 Q0976 TEMPO 3000 SHRA BKN012 FEW025CB BECMG 20015G25KT,LFJL,2023-11-05T04:00:00Z,48.982,6.251,10,8,200,21,,6+,28.82,,,TRUE,,,,,,,,BKN,2000,OVC,2700,,,,,MVFR,,,1.5,,,,,,,,,METAR,259
LFGJ 050400Z AUTO 21020KT 9999 -RA BKN037/// OVC044/// //////TCU 11/08 Q0983,LFGJ,2023-11-05T04:00:00Z,47.044,5.427,11,8,210,20,,6+,29.03,,,TRUE,,,,,,,-RA,BKN,3700,OVC,4400,,,,,VFR,,,,,,,,,,,,METAR,191
LFGA 050400Z AUTO 19019KT 9999 SCT044/// BKN050/// OVC060/// ///TCU 12/07 Q0979,LFGA,2023-11-05T04:00:00Z,48.11,7.359,12,7,190,19,,6+,28.91,,,TRUE,,,,,,,,SCT,4400,BKN,5000,OVC,6000,,,VFR,,,,,,,,,,,,METAR,191
LFCR 050400Z AUTO 24025G36KT 9999 OVC019/// ///TCU 09/07 Q0993 TEMPO 4000 SHRA BKN010 SCT020CB BKN030,LFCR,2023-11-05T04:00:00Z,44.41,2.483,9,7,240,25,36,6+,29.32,,,TRUE,,,,,,,,OVC,1900,,,,,,,MVFR,,,,,,,,,,,,METAR,576
LFCK 050400Z AUTO 03004KT CAVOK 10/06 Q0996,LFCK,2023-11-05T04:00:00Z,43.556,2.289,10,6,30,4,,6+,29.41,,,TRUE,,,,,,,,CAVOK,,,,,,,,VFR,,,,,,,,,,,,METAR,223
LFBZ 050400Z AUTO 25014G28KT 200V290 9999 -RA SCT047/// BKN056/// BKN068/// ///CB 14/08 Q0997 TEMPO 23020G40KT 3500 SHRA,LFBZ,2023-11-05T04:00:00Z,43.469,-1.534,14,8,250,14,28,6+,29.44,,,TRUE,,,,,,,-RA,SCT,4700,BKN,5600,BKN,6800,,,VFR,,,,,,,,,,,,METAR,70
LFBY 050400Z AUTO 25017G34KT 9999 // ////// 13/10 Q0996,LFBY,2023-11-05T04:00:00Z,43.69,-1.07,13,10,250,17,34,6+,29.41,,,TRUE,,,,,,,,,,,,,,,,VFR,,,,,,,,,,,,METAR,32
LFBX 050400Z AUTO 23014G25KT 200V270 9999 -RADZ BKN024/// OVC032/// //////TCU 12/10 Q0989,LFBX,2023-11-05T04:00:00Z,45.196,0.815,12,10,230,14,25,6+,29.20,,,TRUE,,,,,,,-RA -DZ,BKN,2400,OVC,3200,,,,,MVFR,,,,,,,,,,,,METAR,97
LFBU 050400Z AUTO 24017KT 7000 -RA SCT018/// BKN023/// BKN030/// ///CB 12/11 Q0986,LFBU,2023-11-05T04:00:00Z,45.728,0.22,12,11,240,17,,4.35,29.11,,,TRUE,,,,,,,-RA,SCT,1800,BKN,2300,BKN,3000,,,MVFR,,,,,,,,,,,,METAR,124
LFBT 050400Z AUTO 26021KT 9999 BKN070 15/02 Q0996 TEMPO 27020G35KT FEW035TCU BKN065,LFBT,2023-11-05T04:00:00Z,43.189,,15,2,260,21,,6+,29.41,,,TRUE,,,,,,,,BKN,7000,,,,,,,VFR,,,,,,,,,,,,METAR,359
LFBP 050400Z AUTO 26013KT 9999 BKN062/// OVC072/// ///TCU 14/05 Q0996 TEMPO 24022G35KT,LFBP,2023-11-05T04:00:00Z,43.385,-0.416,14,5,260,13,,6+,29.41,,,TRUE,,,,,,,,BKN,6200,OVC,7200,,,,,VFR,,,,,,,,,,,,METAR,182
LFBO 050400Z AUTO 29010KT CAVOK 12/06 Q0995 TEMPO 27022G35KT FEW030TCU BKN060,LFBO,2023-11-05T04:00:00Z,43.621,1.379,12,6,290,10,,6+,29.38,,,TRUE,,,,,,,,CAVOK,,,,,,,,VFR,,,,,,,,,,,,METAR,150
LFBM 050400Z AUTO 25018G31KT 210V280 9999 FEW019/// BKN035/// BKN043/// ///CB 12/11 Q0995 BECMG VRB02KT NSC,LFBM,2023-11-05T04:00:00Z,43.912,-0.507,12,11,250,18,31,6+,29.38,,,TRUE,,,,,,,,FEW,1900,BKN,3500,BKN,4300,,,VFR,,,,,,,,,,,,METAR,56
LFBL 050400Z AUTO 24017G27KT 180V280 9999 BKN017/// OVC024/// ///CB 10/08 Q0985 TEMPO 24025G45KT 2000 SHRA BKN006 FEW020CB BKN025TCU,LFBL,2023-11-05T04:00:00Z,45.863,1.179,10,8,240,17,27,6+,29.08,,,TRUE,,,,,,,,BKN,1700,OVC,2400,,,,,MVFR,,,,,,,,,,,,METAR,402
LFBI 050400Z AUTO 24016KT 9999 FEW017/// SCT033/// ///TCU 11/10 Q0983 TEMPO 23020G45KT 3000 SHRA SCT015 BKN025CB,LFBI,2023-11-05T04:00:00Z,46.584,0.309,11,10,240,16,,6+,29.03,,,TRUE,,,,,,,,FEW,1700,SCT,3300,,,,,VFR,,,,,,,,,,,,METAR,117
LFBH 050400Z AUTO 27024G37KT 9999 FEW022/// SCT028/// BKN034/// ///TCU 14/12 Q0984 TEMPO 23040G55KT 1400 TSRA SCT012 BKN020CB,LFBH,2023-11-05T04:00:00Z,46.178,-1.193,14,12,270,24,37,6+,29.06,,,TRUE,,,,,,,,FEW,2200,SCT,2800,BKN,3400,,,VFR,,,,,,,,,,,,METAR,18
LFBG 050400Z AUTO 27020KT 6000 RA FEW015/// SCT021/// BKN027/// ///CB 13/11 Q0987,LFBG,2023-11-05T04:00:00Z,45.665,-0.316,13,11,270,20,,3.73,29.14,,,TRUE,,,,,,,RA,FEW,1500,SCT,2100,BKN,2700,,,MVFR,,,,,,,,,,,,METAR,28
LFBF 050400Z AUTO 29009KT CAVOK 13/04 Q////,LFBF,2023-11-05T04:00:00Z,43.546,1.367,13,4,290,9,,6+,0.00,,,TRUE,,,,,,,,CAVOK,,,,,,,,VFR,,,,,,,,,,,,METAR,159
LFBE 050400Z AUTO 24016KT 9999 FEW026/// BKN033/// BKN040/// ///CB 13/10 Q0991,LFBE,2023-11-05T04:00:00Z,44.826,0.516,13,10,240,16,,6+,29.26,,,TRUE,,,,,,,,FEW,2600,BKN,3300,BKN,4000,,,VFR,,,,,,,,,,,,METAR,49
LFBD 050400Z AUTO 26022G33KT 9999 BKN030/// BKN050/// BKN066/// ///CB 13/10 Q0991 TEMPO 27030G50KT 2000 SHRA,LFBD,2023-11-05T04:00:00Z,44.831,-0.691,13,10,260,22,33,6+,29.26,,,TRUE,,,,,,,,BKN,3000,BKN,5000,BKN,6600,,,MVFR,,,,,,,,,,,,METAR,48
LFBC 050400Z AUTO 27021G36KT 240V300 9999 -RA FEW022/// SCT035/// BKN074/// ///CB 13/10 Q0992,LFBC,2023-11-05T04:00:00Z,44.533,-1.125,13,10,270,21,36,6+,29.29,,,TRUE,,,,,,,-RA,FEW,2200,SCT,3500,BKN,7400,,,VFR,,,,,,,,,,,,METAR,22
LFBA 050400Z AUTO 24017G31KT 210V270 9999 //////TCU 12/09 Q0993,LFBA,2023-11-05T04:00:00Z,44.176,0.593,12,9,240,17,31,6+,29.32,,,TRUE,,,,,,,,,,,,,,,,VFR,,,,,,,,,,,,METAR,68
LFAT 050400Z AUTO VRB02KT 9999 FEW010/// SCT017/// BKN046/// ///CB 10/09 Q0969,LFAT,2023-11-05T04:00:00Z,50.515,1.623,10,9,VRB,2,,6+,28.61,,,TRUE,,,,,,,,FEW,1000,SCT,1700,BKN,4600,,,VFR,,,,,,,,,,,,METAR,2
LFAQ 050400Z AUTO 21014KT 9999 FEW020/// BKN035/// BKN046/// ///TCU 10/09 Q0970,LFAQ,2023-11-05T04:00:00Z,49.972,2.704,10,9,210,14,,6+,28.64,,,TRUE,,,,,,,,FEW,2000,BKN,3500,BKN,4600,,,VFR,,,,,,,,,,,,METAR,107
LFAC 050400Z AUTO 21010KT 9999 FEW044/// BKN056/// BKN072/// ///TCU 10/09 Q0968,LFAC,2023-11-05T04:00:00Z,50.962,1.955,10,9,210,10,,6+,28.58,,,TRUE,,,,,,,,FEW,4400,BKN,5600,BKN,7200,,,VFR,,,,,,,,,,,,METAR,3
LEZL 050400Z AUTO 25003KT CAVOK 14/13 Q1012,LEZL,2023-11-05T04:00:00Z,37.418,-5.893,14,13,250,3,,6+,29.88,,,TRUE,,,,,,,,CAVOK,,,,,,,,VFR,,,,,,,,,,,,METAR,26
LEZG 050400Z 26017KT 9999 BKN060 14/04 Q1002,LEZG,2023-11-05T04:00:00Z,41.661,-1.004,14,4,260,17,,6+,29.59,,,,,,,,,,,BKN,6000,,,,,,,VFR,,,,,,,,,,,,METAR,245
LEXJ 050400Z AUTO 28015KT 250V310 8000 BKN086 16/07 Q0998,LEXJ,2023-11-05T04:00:00Z,43.429,-3.831,16,7,280,15,,4.97,29.47,,,TRUE,,,,,,,,BKN,8600,,,,,,,MVFR,,,,,,,,,,,,METAR,1
LEVX 050400Z 21006KT 110V260 9999 -SHRA FEW012 BKN024 FEW027TCU 10/07 Q1005 RESHRA TEMPO 3000 SHRA,LEVX,2023-11-05T04:00:00Z,42.239,-8.624,10,7,210,6,,6+,29.68,,,,,,,,,,-SHRA,FEW,1200,BKN,2400,FEW,2700,,,MVFR,,,,,,,,,,,,METAR,253
LEVT 050400Z 24016KT 9999 FEW060 10/04 Q1000,LEVT,2023-11-05T04:00:00Z,42.872,-2.733,10,4,240,16,,6+,29.53,,,,,,,,,,,FEW,6000,,,,,,,VFR,,,,,,,,,,,,METAR,501
LEVS 050400Z AUTO 23012KT 9999 SCT011 BKN045 BKN056 09/07 Q1007,LEVS,2023-11-05T04:00:00Z,40.371,-3.785,9,7,230,12,,6+,29.73,,,TRUE,,,,,,,,SCT,1100,BKN,4500,BKN,5600,,,VFR,,,,,,,,,,,,METAR,683
LEVD 050400Z AUTO 25018KT 9999 BKN014 07/05 Q1004,LEVD,2023-11-05T04:00:00Z,41.706,-4.852,7,5,250,18,,6+,29.65,,,TRUE,,,,,,,,BKN,1400,,,,,,,MVFR,,,,,,,,,,,,METAR,844
LEVC 050400Z 25009KT 220V280 9999 FEW040 15/05 Q1005 NOSIG,LEVC,2023-11-05T04:00:00Z,39.489,-0.482,15,5,250,9,,6+,29.68,,,,,,,,,,,FEW,4000,,,,,,,VFR,,,,,,,,,,,,METAR,58
LETU 050400Z AUTO 26016G28KT 9999 FEW069/// 13/04 Q1001,LETU,2023-11-05T04:00:00Z,-99.99,-99.99,13,4,260,16,28,6+,29.56,,,TRUE,,,,,,,,FEW,6900,,,,,,,VFR,,,,,,,,,,,,METAR,9999
LETO 050400Z 23011KT 9999 FEW016 SCT050 09/07 Q1007 NOSIG,LETO,2023-11-05T04:00:00Z,40.489,-3.451,9,7,230,11,,6+,29.73,,,,,,,,,,,FEW,1600,SCT,5000,,,,,VFR,,,,,,,,,,,,METAR,598
LETL 050400Z AUTO 28015KT 250V310 CAVOK 08/01 Q1005,LETL,2023-11-05T04:00:00Z,40.404,-1.218,8,1,280,15,,6+,29.68,,,TRUE,,,,,,,,CAVOK,,,,,,,,VFR,,,,,,,,,,,,METAR,1024
LESO 050400Z AUTO 24009KT 200V280 9999 BKN065 15/06 Q0998,LESO,2023-11-05T04:00:00Z,43.361,-1.787,15,6,240,9,,6+,29.47,,,TRUE,,,,,,,,BKN,6500,,,,,,,VFR,,,,,,,,,,,,METAR,3
LESB 050400Z AUTO 28009G21KT 250V320 CAVOK 18/08 Q1002,LESB,2023-11-05T04:00:00Z,39.599,2.703,18,8,280,9,21,6+,29.59,,,TRUE,,,,,,,,CAVOK,,,,,,,,VFR,,,,,,,,,,,,METAR,48
LESA 050400Z AUTO 26014KT 6000 FEW043 07/05 Q1007,LESA,2023-11-05T04:00:00Z,40.96,-5.498,7,5,260,14,,3.73,29.73,,,TRUE,,,,,,,,FEW,4300,,,,,,,MVFR,,,,,,,,,,,,METAR,788
LERT 050400Z 33005KT 290V360 9000 SCT035 17/12 Q1013 NOSIG,LERT,2023-11-05T04:00:00Z,36.645,-6.349,17,12,330,5,,5.59,29.91,,,,,,,,,,,SCT,3500,,,,,,,VFR,,,,,,,,,,,,METAR,27
LERS 050400Z AUTO 26015KT CAVOK 16/04 Q1001,LERS,2023-11-05T04:00:00Z,41.15,1.179,16,4,260,15,,6+,29.56,,,TRUE,,,,,,,,CAVOK,,,,,,,,VFR,,,,,,,,,,,,METAR,68
LEPP 050400Z AUTO 22010KT 200V260 8000 BKN046 10/03 Q1000,LEPP,2023-11-05T04:00:00Z,42.777,-1.65,10,3,220,10,,4.97,29.53,,,TRUE,,,,,,,,BKN,4600,,,,,,,MVFR,,,,,,,,,,,,METAR,448
LEPA 050400Z 27018KT 9999 FEW025 19/09 Q1002 NOSIG,LEPA,2023-11-05T04:00:00Z,39.561,2.737,19,9,270,18,,6+,29.59,,,,,,,,,,,FEW,2500,,,,,,,VFR,,,,,,,,,,,,METAR,8
LEMO 050400Z 21004KT 9999 FEW035 BKN054 12/11 Q1013 NOSIG,LEMO,2023-11-05T04:00:00Z,37.175,-5.616,12,11,210,4,,6+,29.91,,,,,,,,,,,FEW,3500,BKN,5400,,,,,VFR,,,,,,,,,,,,METAR,82
LEMI 050400Z AUTO 31013KT CAVOK 18/06 Q1008,LEMI,2023-11-05T04:00:00Z,37.803,-1.125,18,6,310,13,,6+,29.76,,,TRUE,,,,,,,,CAVOK,,,,,,,,VFR,,,,,,,,,,,,METAR,193
LEMH 050400Z AUTO 28016KT 230V320 9999 SCT029/// 19/11 Q1001,LEMH,2023-11-05T04:00:00Z,39.855,4.216,19,11,280,16,,6+,29.56,,,TRUE,,,,,,,,SCT,2900,,,,,,,VFR,,,,,,,,,,,,METAR,82
LEMG 050400Z 29015KT CAVOK 17/09 Q1011 NOSIG,LEMG,2023-11-05T04:00:00Z,36.666,-4.482,17,9,290,15,,6+,29.85,,,,,,,,,,,CAVOK,,,,,,,,VFR,,,,,,,,,,,,METAR,5
LEMD 050400Z 23014KT 9999 FEW049 BKN057 10/07 Q1007 NOSIG,LEMD,2023-11-05T04:00:00Z,40.466,-3.555,10,7,230,14,,6+,29.73,,,,,,,,,,,FEW,4900,BKN,5700,,,,,VFR,,,,,,,,,,,,METAR,589
LELO 050400Z AUTO 28014KT CAVOK 11/04 Q1001,LELO,2023-11-05T04:00:00Z,42.452,-2.331,11,4,280,14,,6+,29.56,,,TRUE,,,,,,,,CAVOK,,,,,,,,VFR,,,,,,,,,,,,METAR,352
LELN 050400Z AUTO 26016KT 230V290 9999 FEW014 06/04 Q1001,LELN,2023-11-05T04:00:00Z,42.588,-5.651,6,4,260,16,,6+,29.56,,,TRUE,,,,,,,,FEW,1400,,,,,,,VFR,,,,,,,,,,,,METAR,911
LELL 050400Z AUTO 26018G30KT 230V290 CAVOK 15/03 Q0999,LELL,2023-11-05T04:00:00Z,41.521,2.105,15,3,260,18,30,6+,29.50,,,TRUE,,,,,,,,CAVOK,,,,,,,,VFR,,,,,,,,,,,,METAR,136
LELC 050400Z AUTO 34006KT CAVOK 18/09 Q1007,LELC,2023-11-05T04:00:00Z,37.775,-0.812,18,9,340,6,,6+,29.73,,,TRUE,,,,,,,,CAVOK,,,,,,,,VFR,,,,,,,,,,,,METAR,3
LEJR 050400Z AUTO 07002KT 4500 BR BKN031 12/12 Q1013,LEJR,2023-11-05T04:00:00Z,36.751,-6.056,12,12,70,2,,2.8,29.91,,,TRUE,,,,,,,BR,BKN,3100,,,,,,,IFR,,,,,,,,,,,,METAR,25
LEIB 050400Z AUTO 28020KT 250V320 CAVOK 18/05 Q1004,LEIB,2023-11-05T04:00:00Z,38.876,1.384,18,5,280,20,,6+,29.65,,,TRUE,,,,,,,,CAVOK,,,,,,,,VFR,,,,,,,,,,,,METAR,4
LEHC 050400Z AUTO 27005KT 9999 FEW069 08/04 Q1001,LEHC,2023-11-05T04:00:00Z,42.082,-0.324,8,4,270,5,,6+,29.56,,,TRUE,,,,,,,,FEW,6900,,,,,,,VFR,,,,,,,,,,,,METAR,540
LEGT 050400Z AUTO 25014KT 210V270 9999 FEW013/// 10/08 Q1007,LEGT,2023-11-05T04:00:00Z,40.299,-3.723,10,8,250,14,,6+,29.73,,,TRUE,,,,,,,,FEW,1300,,,,,,,VFR,,,,,,,,,,,,METAR,619
LEGR 050400Z AUTO 24006KT CAVOK 10/09 Q1013,LEGR,2023-11-05T04:00:00Z,37.19,-3.789,10,9,240,6,,6+,29.91,,,TRUE,,,,,,,,CAVOK,,,,,,,,VFR,,,,,,,,,,,,METAR,560
LEGE 050400Z 25013KT 200V320 CAVOK 15/04 Q0996,LEGE,2023-11-05T04:00:00Z,41.911,2.763,15,4,250,13,,6+,29.41,,,,,,,,,,,CAVOK,,,,,,,,VFR,,,,,,,,,,,,METAR,140
LEDA 050400Z AUTO 25009KT CAVOK 09/05 Q1001,LEDA,2023-11-05T04:00:00Z,41.734,0.538,9,5,250,9,,6+,29.56,,,TRUE,,,,,,,,CAVOK,,,,,,,,VFR,,,,,,,,,,,,METAR,352
LECO 050400Z AUTO 24014G24KT 190V280 8000 -RA FEW026 SCT041 13/10 Q1002,LECO,2023-11-05T04:00:00Z,43.307,-8.372,13,10,240,14,24,4.97,29.59,,,TRUE,,,,,,,-RA,FEW,2600,SCT,4100,,,,,MVFR,,,,,,,,,,,,METAR,80
LECH 050400Z AUTO 24010KT CAVOK 13/M01 Q1002,LECH,2023-11-05T04:00:00Z,40.211,0.067,13,-1,240,10,,6+,29.59,,,TRUE,,,,,,,,CAVOK,,,,,,,,VFR,,,,,,,,,,,,METAR,360
LEBT 050400Z AUTO 27011G22KT 200V350 CAVOK 15/04 Q1004,LEBT,2023-11-05T04:00:00Z,39.58,-0.45,15,4,270,11,22,6+,29.65,,,TRUE,,,,,,,,CAVOK,,,,,,,,VFR,,,,,,,,,,,,METAR,50
LEBR 050400Z AUTO 05004KT CAVOK 10/04 Q1001,LEBR,2023-11-05T04:00:00Z,42.2,-1.43,10,4,50,4,,6+,29.56,,,TRUE,,,,,,,,CAVOK,,,,,,,,VFR,,,,,,,,,,,,METAR,347
LEBL 050400Z 26014KT CAVOK 16/04 Q1000 NOSIG,LEBL,2023-11-05T04:00:00Z,41.293,2.07,16,4,260,14,,6+,29.53,,,,,,,,,,,CAVOK,,,,,,,,VFR,,,,,,,,,,,,METAR,2
LEBG 050400Z AUTO 23024G35KT 9999 SCT016 BKN036 06/03 Q1002,LEBG,2023-11-05T04:00:00Z,42.356,-3.622,6,3,230,24,35,6+,29.59,,,TRUE,,,,,,,,SCT,1600,BKN,3600,,,,,VFR,,,,,,,,,,,,METAR,892
LEBB 050400Z 22011KT 180V260 9999 SCT060 15/05 Q0998 NOSIG,LEBB,2023-11-05T04:00:00Z,43.298,-2.906,15,5,220,11,,6+,29.47,,,,,,,,,,,SCT,6000,,,,,,,VFR,,,,,,,,,,,,METAR,38
LEBA 050400Z AUTO 21002KT CAVOK 10/09 Q1012,LEBA,2023-11-05T04:00:00Z,37.842,-4.849,10,9,210,2,,6+,29.88,,,TRUE,,,,,,,,CAVOK,,,,,,,,VFR,,,,,,,,,,,,METAR,88
LEAS 050400Z AUTO 24014G25KT 210V280 9999 FEW050 SCT066 12/07 Q0999,LEAS,2023-11-05T04:00:00Z,43.567,-6.044,12,7,240,14,25,6+,29.50,,,TRUE,,,,,,,,FEW,5000,SCT,6600,,,,,VFR,,,,,,,,,,,,METAR,120
LEAM 050400Z 26010KT 240V300 CAVOK 17/11 Q1007,LEAM,2023-11-05T04:00:00Z,36.846,-2.357,17,11,260,10,,6+,29.73,,,,,,,,,,,CAVOK,,,,,,,,VFR,,,,,,,,,,,,METAR,16
LEAL 050400Z 28015KT CAVOK 17/03 Q1007 NOSIG,LEAL,2023-11-05T04:00:00Z,38.282,-0.558,17,3,280,15,,6+,29.73,,,,,,,,,,,CAVOK,,,,,,,,VFR,,,,,,,,,,,,METAR,26
LEAG 050400Z AUTO 31006KT 250V360 9999 BKN059/// 18/12 Q1012,LEAG,2023-11-05T04:00:00Z,36.129,-5.441,18,12,310,6,,6+,29.88,,,TRUE,,,,,,,,BKN,5900,,,,,,,VFR,,,,,,,,,,,,METAR,4
LEAB 050400Z 27016KT CAVOK 09/05 Q1009 NOSIG,LEAB,2023-11-05T04:00:00Z,38.952,-1.863,9,5,270,16,,6+,29.79,,,,,,,,,,,CAVOK,,,,,,,,VFR,,,,,,,,,,,,METAR,704
LDZD 050400Z VRB26KT 9999 FEW030 BKN075 18/13 Q0992,LDZD,2023-11-05T04:00:00Z,44.108,15.347,18,13,VRB,26,,6+,29.29,,,,,,,,,,,FEW,3000,BKN,7500,,,,,VFR,,,,,,,,,,,,METAR,82
LDZA 050400Z 02004KT 350V050 9999 FEW045 09/08 Q0988 BECMG 22008KT RA OVC014,LDZA,2023-11-05T04:00:00Z,45.729,16.054,9,8,20,4,,6+,29.17,,,,,,,,,,,FEW,4500,,,,,,,VFR,,,,,,,,,,,,METAR,103
LDSP 050400Z 12010KT 9999 FEW030 BKN040 18/13 Q0997 TEMPO 13018G30KT,LDSP,2023-11-05T04:00:00Z,43.539,16.301,18,13,120,10,,6+,29.44,,,,,,,,,,,FEW,3000,BKN,4000,,,,,VFR,,,,,,,,,,,,METAR,16
LDRI 050400Z 15021G34KT 110V180 9999 -RA FEW020 BKN030 15/15 Q0987,LDRI,2023-11-05T04:00:00Z,45.218,14.573,15,15,150,21,34,6+,29.14,,,,,,,,,,-RA,FEW,2000,BKN,3000,,,,,MVFR,,,,,,,,,,,,METAR,80
LDPL 050400Z 19012G23KT 120V250 8000 RA FEW005 SCT040 BKN050 17/15 Q0987,LDPL,2023-11-05T04:00:00Z,44.894,13.922,17,15,190,12,23,4.97,29.14,,,,,,,,,,RA,FEW,500,SCT,4000,BKN,5000,,,MVFR,,,,,,,,,,,,METAR,63
LDOS 050400Z 13014KT CAVOK 12/07 Q0993,LDOS,2023-11-05T04:00:00Z,45.463,18.81,12,7,130,14,,6+,29.32,,,,,,,,,,,CAVOK,,,,,,,,VFR,,,,,,,,,,,,METAR,82
LDDU 050400Z 14018KT 9999 FEW030 BKN064 18/12 Q1003 BECMG RA TEMPO 13020G30KT,LDDU,2023-11-05T04:00:00Z,42.56,18.269,18,12,140,18,,6+,29.62,,,,,,,,,,,FEW,3000,BKN,6400,,,,,VFR,,,,,,,,,,,,METAR,156
LCPH 050400Z AUTO 05006KT 010V080 9999 NCD 17/14 Q1015 NOSIG,LCPH,2023-11-05T04:00:00Z,34.715,32.479,17,14,50,6,,6+,29.97,,,TRUE,,,,,,,,CLR,,,,,,,,VFR,,,,,,,,,,,,METAR,8
LCLK 050400Z 31006KT CAVOK 17/16 Q1015 NOSIG,LCLK,2023-11-05T04:00:00Z,34.874,33.617,17,16,310,6,,6+,29.97,,,,,,,,,,,CAVOK,,,,,,,,VFR,,,,,,,,,,,,METAR,2
LBWN 050400Z AUTO 31004KT 300V360 9999 NCD 10/08 Q1006 TEMPO 5000 BR,LBWN,2023-11-05T04:00:00Z,43.232,27.825,10,8,310,4,,6+,29.70,,,TRUE,,,,,,,,CLR,,,,,,,,VFR,,,,,,,,,,,,METAR,74
LBSF 050400Z AUTO 12005KT 9999 FEW012/// 04/03 Q1006 NOSIG,LBSF,2023-11-05T04:00:00Z,42.694,23.414,4,3,120,5,,6+,29.70,,,TRUE,,,,,,,,FEW,1200,,,,,,,VFR,,,,,,,,,,,,METAR,531
LBPL 050400Z 18004KT 9999 FEW200 08/06 Q1005,LBPL,2023-11-05T04:00:00Z,43.453,24.504,8,6,180,4,,6+,29.68,,,,,,,,,,,FEW,20000,,,,,,,VFR,,,,,,,,,,,,METAR,93
LBPG 050400Z 33002KT 9999 FEW200 05/05 Q1007,LBPG,2023-11-05T04:00:00Z,42.289,24.714,5,5,330,2,,6+,29.73,,,,,,,,,,,FEW,20000,,,,,,,VFR,,,,,,,,,,,,METAR,198
LBPD 050400Z AUTO 26004KT 9999 BKN220/// 07/05 Q1007 NOSIG,LBPD,2023-11-05T04:00:00Z,42.064,24.86,7,5,260,4,,6+,29.73,,,TRUE,,,,,,,,BKN,22000,,,,,,,VFR,,,,,,,,,,,,METAR,182
LBIA 050400Z 00000KT 9999 SKC 07/07 Q1007,LBIA,2023-11-05T04:00:00Z,42.456,26.352,7,7,0,0,,6+,29.73,,,,,,,,,,,SKC,,,,,,,,VFR,,,,,,,,,,,,METAR,155
LBGO 050400Z AUTO 10004KT 9999 NCD 05/05 Q1006 TEMPO 5000 BR,LBGO,2023-11-05T04:00:00Z,43.151,25.713,5,5,100,4,,6+,29.70,,,TRUE,,,,,,,,CLR,,,,,,,,VFR,,,,,,,,,,,,METAR,84
LBBG 050400Z AUTO 25006KT 5000 BR NCD 10/10 Q1007 TEMPO 3000 BR,LBBG,2023-11-05T04:00:00Z,42.569,27.514,10,10,250,6,,3.11,29.73,,,TRUE,,,,,,,BR,CLR,,,,,,,,MVFR,,,,,,,,,,,,METAR,41
KTTA 050400Z AUTO 00000KT 10SM CLR 02/00 A3013 RMK AO2 T00151001,KTTA,2023-11-05T04:00:00Z,35.5762,-79.1035,1.5,-0.1,0,0,,10+,30.13,,,TRUE,TRUE,,,,,,,CLR,,,,,,,,VFR,,,,,,,,,,,,METAR,71
KSLK 050400Z AUTO 20003KT 1/2SM FG SCT003 BKN055 03/02 A3004 RMK AO2 T00280017,KSLK,2023-11-05T04:00:00Z,44.3928,-74.2029,2.8,1.7,200,3,,0.5,30.04,,,TRUE,TRUE,,,,,,FG,SCT,300,BKN,5500,,,,,LIFR,,,,,,,,,,,,SPECI,502
KMWK 050400Z AUTO 00000KT 10SM CLR 09/00 A3016 RMK AO2 T00870001,KMWK,2023-11-05T04:00:00Z,36.4568,-80.5548,8.7,0.1,0,0,,10+,30.16,,,TRUE,TRUE,,,,,,,CLR,,,,,,,,VFR,,,,,,,,,,,,METAR,374
KLAN 050400Z 02003KT 4SM BR OVC031 05/04 A3013 RMK AO2 T00500044,KLAN,2023-11-05T04:00:00Z,42.7761,-84.5997,5,4.4,20,3,,4,30.13,,,,TRUE,,,,,,BR,OVC,3100,,,,,,,MVFR,,,,,,,,,,,,SPECI,261
KDMW 050400Z AUTO 00000KT 10SM OVC110 12/04 A3009 RMK AO2,KDMW,2023-11-05T04:00:00Z,39.61,-77.007,12,4,0,0,,10+,30.09,,,TRUE,TRUE,,,,,,,OVC,11000,,,,,,,VFR,,,,,,,,,,,,METAR,239
KCMX 050400Z AUTO 32009KT 10SM OVC016 02/M01 A3011 RMK AO2 T00221011,KCMX,2023-11-05T04:00:00Z,47.1705,-88.4854,2.2,-1.1,320,9,,10+,30.11,,,TRUE,TRUE,,,,,,,OVC,1600,,,,,,,MVFR,,,,,,,,,,,,SPECI,326
KBOK 050400Z AUTO 15007KT 3/4SM -RA BR OVC003 13/13 A2998 RMK AO2 VIS 1/2V2 P0000,KBOK,2023-11-05T04:00:00Z,42.0754,-124.29,13,13,150,7,,0.75,29.98,,,TRUE,TRUE,,,,,,-RA BR,OVC,300,,,,,,,LIFR,,,,,,0.005,,,,,,SPECI,140
KACZ 050400Z AUTO 00000KT 10SM CLR 10/10 A3009 RMK AO2 T01040098,KACZ,2023-11-05T04:00:00Z,34.718,-78.005,10.4,9.8,0,0,,10+,30.09,,,TRUE,TRUE,,,,,,,CLR,,,,,,,,VFR,,,,,,,,,,,,METAR,30
HRYR 050400Z VRB02KT 3000 BR SCT004 BKN020 18/18 Q1020 NOSIG,HRYR,2023-11-05T04:00:00Z,-1.969,30.14,18,18,VRB,2,,1.86,30.12,,,,,,,,,,BR,SCT,400,BKN,2000,,,,,IFR,,,,,,,,,,,,METAR,1493
HKWJ 050400Z 15007KT 9999 BKN023 25/23 Q1011,HKWJ,2023-11-05T04:00:00Z,1.74,40.087,25,23,150,7,,6+,29.85,,,,,,,,,,,BKN,2300,,,,,,,MVFR,,,,,,,,,,,,METAR,254
HKNW 050400Z 10003KT 9999 BKN019 17/15 Q1023 RERA,HKNW,2023-11-05T04:00:00Z,-1.322,36.815,17,15,100,3,,6+,30.21,,,,,,,,,,,BKN,1900,,,,,,,MVFR,,,,,,,,,,,,METAR,1666
HKNK 050400Z 00000KT 9999 BKN015 15/14,HKNK,2023-11-05T04:00:00Z,-0.298,36.159,15,14,0,0,,6+,0.00,,,,,,,,,,,BKN,1500,,,,,,,MVFR,,,,,,,,,,,,METAR,1900
HKNI 050400Z 00000KT 4000 -RA BKN016 OVC080 16/15,HKNI,2023-11-05T04:00:00Z,-0.343,36.915,16,15,0,0,,2.49,0.00,,,,,,,,,,-RA,BKN,1600,OVC,8000,,,,,IFR,,,,,,,,,,,,METAR,1769
HKMO 050400Z VRB03KT 9999 FEW019 BKN080 24/23 Q1012 NOSIG,HKMO,2023-11-05T04:00:00Z,-4.015,39.606,24,23,VRB,3,,6+,29.88,,,,,,,,,,,FEW,1900,BKN,8000,,,,,VFR,,,,,,,,,,,,METAR,55
HKML 050400Z 00000KT 9999 FEW019CB BKN020 24/23 Q1012,HKML,2023-11-05T04:00:00Z,-3.229,40.102,24,23,0,0,,6+,29.88,,,,,,,,,,,FEW,1900,BKN,2000,,,,,MVFR,,,,,,,,,,,,METAR,20
HKLO 050400Z 00000KT CAVOK 25/20 Q1010,HKLO,2023-11-05T04:00:00Z,3.122,35.609,25,20,0,0,,6+,29.82,,,,,,,,,,,CAVOK,,,,,,,,VFR,,,,,,,,,,,,METAR,503
HKKI 050400Z 07004KT 9999 FEW018CB SCT080 19/18 Q1018,HKKI,2023-11-05T04:00:00Z,-0.086,34.734,19,18,70,4,,6+,30.06,,,,,,,,,,,FEW,1800,SCT,8000,,,,,VFR,,,,,,,,,,,,METAR,1152
HKEL 050400Z 13003KT 0500 FG BKN005 13/13 Q1024,HKEL,2023-11-05T04:00:00Z,0.404,35.239,13,13,130,3,,0.31,30.24,,,,,,,,,,FG,BKN,500,,,,,,,LIFR,,,,,,,,,,,,METAR,2116
HETR 050400Z 09006KT CAVOK 22/20 Q1011,HETR,2023-11-05T04:00:00Z,28.209,33.646,22,20,90,6,,6+,29.85,,,,,,,,,,,CAVOK,,,,,,,,VFR,,,,,,,,,,,,METAR,35
HESW 050400Z 06004KT CAVOK 16/02 Q1015,HESW,2023-11-05T04:00:00Z,29.346,25.507,16,2,60,4,,6+,29.97,,,,,,,,,,,CAVOK,,,,,,,,VFR,,,,,,,,,,,,METAR,101
HCMM 050400Z 18008KT 9999 FEW019TCU BKN020 28/26 Q1011,HCMM,2023-11-05T04:00:00Z,2.015,45.305,28,26,180,8,,6+,29.85,,,,,,,,,,,FEW,1900,BKN,2000,,,,,MVFR,,,,,,,,,,,,METAR,6
HAAB 050400Z Z 35003 KT 9999 BKN025 SCT070 14/13 Q1027,HAAB,2023-11-05T04:00:00Z,8.978,38.799,14,13,350,3,,6+,30.32,,,,,,,,,,,BKN,2500,SCT,7000,,,,,MVFR,,,,,,,,,,,,METAR,2319
GVSV 050400Z 06013KT 9999 FEW022 SCT200 25/20 Q1011 NOSIG,GVSV,2023-11-05T04:00:00Z,16.833,-25.055,25,20,60,13,,6+,29.85,,,,,,,,,,,FEW,2200,SCT,20000,,,,,VFR,,,,,,,,,,,,METAR,16
GVNP 050400Z 03007KT 9999 FEW016 25/21 Q1011 NOSIG,GVNP,2023-11-05T04:00:00Z,14.947,-23.484,25,21,30,7,,6+,29.85,,,,,,,,,,,FEW,1600,,,,,,,VFR,,,,,,,,,,,,METAR,70
GVAC 050400Z 04009KT 9999 BKN014 25/21 Q1011 NOSIG,GVAC,2023-11-05T04:00:00Z,16.742,-22.949,25,21,40,9,,6+,29.85,,,,,,,,,,,BKN,1400,,,,,,,MVFR,,,,,,,,,,,,METAR,54
GQPP 050400Z 02015KT 8000 NSC 20/16 Q1013 NOSIG,GQPP,2023-11-05T04:00:00Z,20.929,-17.031,20,16,20,15,,4.97,29.91,,,,,,,,,,,CLR,,,,,,,,MVFR,,,,,,,,,,,,METAR,5
GQNO 050400Z 01010KT 8000 NSC 22/17 Q1009 NOSIG,GQNO,2023-11-05T04:00:00Z,18.31,-15.97,22,17,10,10,,4.97,29.79,,,,,,,,,,,CLR,,,,,,,,MVFR,,,,,,,,,,,,METAR,1
GOSS 050400Z VRB02KT CAVOK 22/20 Q1009,GOSS,2023-11-05T04:00:00Z,16.051,-16.461,22,20,VRB,2,,6+,29.79,,,,,,,,,,,CAVOK,,,,,,,,VFR,,,,,,,,,,,,METAR,3
GOSP 050400Z 08002KT CAVOK 26/13 Q1009,GOSP,2023-11-05T04:00:00Z,16.677,-14.964,26,13,80,2,,6+,29.79,,,,,,,,,,,CAVOK,,,,,,,,VFR,,,,,,,,,,,,METAR,10
GOSM 050400Z 00000KT CAVOK 26/20 Q1008,GOSM,2023-11-05T04:00:00Z,15.597,-13.326,26,20,0,0,,6+,29.76,,,,,,,,,,,CAVOK,,,,,,,,VFR,,,,,,,,,,,,METAR,28
GOOY 050400Z 00000KT CAVOK 23/22 Q1009,GOOY,2023-11-05T04:00:00Z,14.741,-17.49,23,22,0,0,,6+,29.79,,,,,,,,,,,CAVOK,,,,,,,,VFR,,,,,,,,,,,,METAR,21
GOGS 050400Z 30004KT CAVOK 28/25 Q1009,GOGS,2023-11-05T04:00:00Z,12.389,-16.742,28,25,300,4,,6+,29.79,,,,,,,,,,,CAVOK,,,,,,,,VFR,,,,,,,,,,,,METAR,13
GOGG 050400Z 30004KT CAVOK 25/25 Q1009,GOGG,2023-11-05T04:00:00Z,12.556,-16.282,25,25,300,4,,6+,29.79,,,,,,,,,,,CAVOK,,,,,,,,VFR,,,,,,,,,,,,METAR,24
GOBD 050400Z 27006KT 8000 NSC 25/25 Q1009 NOSIG,GOBD,2023-11-05T04:00:00Z,14.671,-17.067,25,25,270,6,,4.97,29.79,,,,,,,,,,,CLR,,,,,,,,MVFR,,,,,,,,,,,,METAR,90
GMTT 050400Z 30010KT 6000 SCT013 BKN033 18/14 Q1013 NOSIG,GMTT,2023-11-05T04:00:00Z,35.727,-5.917,18,14,300,10,,3.73,29.91,,,,,,,,,,,SCT,1300,BKN,3300,,,,,MVFR,,,,,,,,,,,,METAR,19
GMTN 050400Z AUTO 26009KT 230V310 17/14 Q1013,GMTN,2023-11-05T04:00:00Z,35.594,-5.32,17,14,260,9,,,29.91,,,TRUE,,,,,,,,,,,,,,,,VFR,,,,,,,,,,,,METAR,10
GMTA 050400Z 29008KT 250V340 CAVOK 19/14 Q1011 NOSIG,GMTA,2023-11-05T04:00:00Z,35.177,-3.84,19,14,290,8,,6+,29.85,,,,,,,,,,,CAVOK,,,,,,,,VFR,,,,,,,,,,,,METAR,14
GMMZ 050400Z VRB02KT CAVOK 16/M01 Q1014 NOSIG,GMMZ,2023-11-05T04:00:00Z,30.939,-6.909,16,-1,VRB,2,,6+,29.94,,,,,,,,,,,CAVOK,,,,,,,,VFR,,,,,,,,,,,,METAR,1139
GMMX 050400Z 26003KT CAVOK 14/12 Q1014 NOSIG,GMMX,2023-11-05T04:00:00Z,31.607,-8.036,14,12,260,3,,6+,29.94,,,,,,,,,,,CAVOK,,,,,,,,VFR,,,,,,,,,,,,METAR,465
GMMW 050400Z 28010KT 230V330 CAVOK 18/07 Q1011 NOSIG,GMMW,2023-11-05T04:00:00Z,34.993,-3.025,18,7,280,10,,6+,29.85,,,,,,,,,,,CAVOK,,,,,,,,VFR,,,,,,,,,,,,METAR,174
GMMN 050400Z 17004KT 9999 SCT020 12/12 Q1014 NOSIG,GMMN,2023-11-05T04:00:00Z,33.367,-7.59,12,12,170,4,,6+,29.94,,,,,,,,,,,SCT,2000,,,,,,,VFR,,,,,,,,,,,,METAR,196
GMML 050400Z 34006KT 9999 SCT020 BKN033 21/21 Q1014 NOSIG,GMML,2023-11-05T04:00:00Z,27.141,-13.23,21,21,340,6,,6+,29.94,,,,,,,,,,,SCT,2000,BKN,3300,,,,,VFR,,,,,,,,,,,,METAR,63
GMMI 050400Z AUTO 06006KT 6000 NSC 17/14 Q1013 NOSIG,GMMI,2023-11-05T04:00:00Z,31.406,-9.687,17,14,60,6,,3.73,29.91,,,TRUE,,,,,,,,CLR,,,,,,,,MVFR,,,,,,,,,,,,METAR,102
GMME 050400Z 21005KT 5000 BKN016 17/17 Q1013 NOSIG,GMME,2023-11-05T04:00:00Z,34.051,-6.752,17,17,210,5,,3.11,29.91,,,,,,,,,,,BKN,1600,,,,,,,MVFR,,,,,,,,,,,,METAR,84
GMMB 050400Z AUTO 16007KT 9999 OVC022/// 16/16 Q1013 NOSIG,GMMB,2023-11-05T04:00:00Z,33.655,-7.221,16,16,160,7,,6+,29.91,,,TRUE,,,,,,,,OVC,2200,,,,,,,MVFR,,,,,,,,,,,,METAR,191
GMFO 050400Z 24015KT CAVOK 17/09 Q1012 NOSIG,GMFO,2023-11-05T04:00:00Z,34.787,-1.924,17,9,240,15,,6+,29.88,,,,,,,,,,,CAVOK,,,,,,,,VFR,,,,,,,,,,,,METAR,452
GMFM 050400Z 17003KT 120V220 4000 BR SCT010 13/11 Q1014 NOSIG,GMFM,2023-11-05T04:00:00Z,33.875,-5.52,13,11,170,3,,2.49,29.94,,,,,,,,,,BR,SCT,1000,,,,,,,IFR,,,,,,,,,,,,METAR,569
GMFK 050400Z 00000KT CAVOK 16/03 Q1015 NOSIG,GMFK,2023-11-05T04:00:00Z,31.946,-4.399,16,3,0,0,,6+,29.97,,,,,,,,,,,CAVOK,,,,,,,,VFR,,,,,,,,,,,,METAR,1033
GMFF 050400Z 23004KT 9999 ////// 13/12 Q1015 NOSIG,GMFF,2023-11-05T04:00:00Z,33.929,-4.976,13,12,230,4,,6+,29.97,,,,,,,,,,,,,,,,,,,VFR,,,,,,,,,,,,METAR,575
GMFB 050400Z AUTO 10006KT 9999 NSC ///// Q1015 NOSIG,GMFB,2023-11-05T04:00:00Z,32.514,-1.978,,,100,6,,6+,29.97,,,TRUE,,,,,,,,CLR,,,,,,,,VFR,,,,,,,,,,,,METAR,1106
GMAD 050400Z 12003KT CAVOK 16/15 Q1012 NOSIG,GMAD,2023-11-05T04:00:00Z,30.325,-9.413,16,15,120,3,,6+,29.88,,,,,,,,,,,CAVOK,,,,,,,,VFR,,,,,,,,,,,,METAR,66
GLRB 050400Z /////KT 9999 BKN011 FEW022CB 24/23 Q//// TEMPO -RETS NOSIG RMK CB/S-SW,GLRB,2023-11-05T04:00:00Z,6.234,-10.362,24,23,,,,6+,0.00,,,,,,,,,,,BKN,1100,FEW,2200,,,,,MVFR,,,,,,,,,,,,METAR,12
GEML 050400Z AUTO 30008KT 250V340 9999 SCT011 19/17 Q1011,GEML,2023-11-05T04:00:00Z,35.278,-2.956,19,17,300,8,,6+,29.85,,,TRUE,,,,,,,,SCT,1100,,,,,,,VFR,,,,,,,,,,,,METAR,48
GECE 050400Z AUTO 30012KT 260V320 9999 OVC051/// 19/14 Q1012,GECE,2023-11-05T04:00:00Z,35.893,-5.306,19,14,300,12,,6+,29.88,,,TRUE,,,,,,,,OVC,5100,,,,,,,VFR,,,,,,,,,,,,METAR,2
GCXO 050400Z AUTO 30014KT 9999 BKN010 BKN015 17/15 Q1017,GCXO,2023-11-05T04:00:00Z,28.483,-16.342,17,15,300,14,,6+,30.03,,,TRUE,,,,,,,,BKN,1000,BKN,1500,,,,,MVFR,,,,,,,,,,,,METAR,623
GCTS 050400Z 36007KT 9999 FEW035 20/14 Q1016 NOSIG,GCTS,2023-11-05T04:00:00Z,28.047,-16.561,20,14,360,7,,6+,30.00,,,,,,,,,,,FEW,3500,,,,,,,VFR,,,,,,,,,,,,METAR,59
GCRR 050400Z AUTO 00000KT 9999 SCT033 21/15 Q1015,GCRR,2023-11-05T04:00:00Z,28.952,-13.6,21,15,0,0,,6+,29.97,,,TRUE,,,,,,,,SCT,3300,,,,,,,VFR,,,,,,,,,,,,METAR,9
GCLP 050400Z 34007KT 9999 FEW035 21/15 Q1015 NOSIG,GCLP,2023-11-05T04:00:00Z,27.923,-15.389,21,15,340,7,,6+,29.97,,,,,,,,,,,FEW,3500,,,,,,,VFR,,,,,,,,,,,,METAR,16
GCLA 050400Z AUTO 30007KT CAVOK 20/15 Q1016,GCLA,2023-11-05T04:00:00Z,28.633,-17.755,20,15,300,7,,6+,30.00,,,TRUE,,,,,,,,CAVOK,,,,,,,,VFR,,,,,,,,,,,,METAR,20
GCHI 050400Z AUTO 01009KT 340V040 9999 SCT027 BKN034 OVC041 23/17 Q1016,GCHI,2023-11-05T04:00:00Z,27.819,-17.889,23,17,10,9,,6+,30.00,,,TRUE,,,,,,,,SCT,2700,BKN,3400,OVC,4100,,,VFR,,,,,,,,,,,,METAR,21
GCGM 050400Z AUTO 31005KT CAVOK 20/15 Q1016 RMK R09/31006KT ARP/31006KT,GCGM,2023-11-05T04:00:00Z,28.032,-17.211,20,15,310,5,,6+,30.00,,,TRUE,,,,,,,,CAVOK,,,,,,,,VFR,,,,,,,,,,,,METAR,217
GCFV 050400Z AUTO 34006KT 9999 SCT029 BKN035 21/16 Q1015,GCFV,2023-11-05T04:00:00Z,28.445,-13.863,21,16,340,6,,6+,29.97,,,TRUE,,,,,,,,SCT,2900,BKN,3500,,,,,VFR,,,,,,,,,,,,METAR,11
GABS 050400Z 17004KT CAVOK 22/17 Q1011 NOSIG,GABS,2023-11-05T04:00:00Z,12.534,-7.95,22,17,170,4,,6+,29.85,,,,,,,,,,,CAVOK,,,,,,,,VFR,,,,,,,,,,,,METAR,375
FZAA 050400Z 00000KT 4000 BR BKN003 20/20 Q1014 TEMPO 3000,FZAA,2023-11-05T04:00:00Z,-4.387,15.448,20,20,0,0,,2.49,29.94,,,,,,,,,,BR,BKN,300,,,,,,,LIFR,,,,,,,,,,,,SPECI,309
FYWW 050400Z AUTO 11004KT //// // ////// 16/M03 Q1020,FYWW,2023-11-05T04:00:00Z,-22.567,17.1,16,-3,110,4,,,30.12,,,TRUE,,,,,,,,,,,,,,,,VFR,,,,,,,,,,,,METAR,1672
FYWH 050400Z 28005KT CAVOK 10/M02 Q1021 NOSIG,FYWH,2023-11-05T04:00:00Z,-22.481,17.47,10,-2,280,5,,6+,30.15,,,,,,,,,,,CAVOK,,,,,,,,VFR,,,,,,,,,,,,METAR,1699
FYWE 050400Z AUTO 17004KT //// // ////// 14/M04 Q1022,FYWE,2023-11-05T04:00:00Z,-22.612,17.08,14,-4,170,4,,,30.18,,,TRUE,,,,,,,,,,,,,,,,VFR,,,,,,,,,,,,METAR,1700
FYWB 050400Z AUTO 00000KT //// // ////// 13/13 Q1013,FYWB,2023-11-05T04:00:00Z,-22.98,14.645,13,13,0,0,,,29.91,,,TRUE,,,,,,,,,,,,,,,,VFR,,,,,,,,,,,,METAR,87
FYOA 050400Z AUTO 27001KT //// // ////// 19/01 Q1013,FYOA,2023-11-05T04:00:00Z,-17.878,15.953,19,1,270,1,,,29.91,,,TRUE,,,,,,,,,,,,,,,,VFR,,,,,,,,,,,,METAR,1099
FYKT 050400Z AUTO 23007KT //// // ////// 16/M00 Q1016,FYKT,2023-11-05T04:00:00Z,-26.54,18.111,16,0,230,7,,,30.00,,,TRUE,,,,,,,,,,,,,,,,VFR,,,,,,,,,,,,METAR,1064
FYGF 050400Z AUTO 26004KT 9999 FEW020 18/02 Q1018,FYGF,2023-11-05T04:00:00Z,-19.599,18.116,18,2,260,4,,6+,30.06,,,TRUE,,,,,,,,FEW,2000,,,,,,,VFR,,,,,,,,,,,,METAR,1407
FWKI 050400Z 00000KT CAVOK 17/13 Q1020 NOSIG,FWKI,2023-11-05T04:00:00Z,-13.789,33.781,17,13,0,0,,6+,30.12,,,,,,,,,,,CAVOK,,,,,,,,VFR,,,,,,,,,,,,METAR,1225
FTTJ 050400Z VRB01KT 8000 NSC 25/21 Q1011 NOSIG,FTTJ,2023-11-05T04:00:00Z,12.134,15.034,25,21,VRB,1,,4.97,29.85,,,,,,,,,,,CLR,,,,,,,,MVFR,,,,,,,,,,,,METAR,295
FSIA 050400Z 13007KT 090V220 9999 SCT020 29/25 Q1011 NOSIG,FSIA,2023-11-05T04:00:00Z,-4.674,55.522,29,25,130,7,,6+,29.85,,,,,,,,,,,SCT,2000,,,,,,,VFR,,,,,,,,,,,,METAR,3
FQXA 050400Z 05003KT 9999 FEW020 BKN070 19/17 Q1018 NOSIG,FQXA,2023-11-05T04:00:00Z,-25.038,33.627,19,17,50,3,,6+,30.06,,,,,,,,,,,FEW,2000,BKN,7000,,,,,VFR,,,,,,,,,,,,METAR,3
FQVL 050400Z 11008KT 9999 FEW020 SCT080 25/17 Q1015,FQVL,2023-11-05T04:00:00Z,-22.017,35.313,25,17,110,8,,6+,29.97,,,,,,,,,,,FEW,2000,SCT,8000,,,,,VFR,,,,,,,,,,,,METAR,15
FQTT 050400Z VRB03KT CAVOK 22/18 Q1017,FQTT,2023-11-05T04:00:00Z,-16.108,33.64,22,18,VRB,3,,6+,30.03,,,,,,,,,,,CAVOK,,,,,,,,VFR,,,,,,,,,,,,METAR,146
FQQL 050400Z 34003KT 9999 FEW020 SCT/// 19/18 Q1017,FQQL,2023-11-05T04:00:00Z,-17.858,36.869,19,18,340,3,,6+,30.03,,,,,,,,,,,FEW,2000,,,,,,,VFR,,,,,,,,,,,,METAR,5
FQPB 050400Z 21008KT 9999 FEW020 SCT/// 26/22 Q1015,FQPB,2023-11-05T04:00:00Z,-12.989,40.525,26,22,210,8,,6+,29.97,,,,,,,,,,,FEW,2000,,,,,,,VFR,,,,,,,,,,,,METAR,101
FQNP 050400Z 19004KT 9999 FEW020 SCT100 21/17 Q1018,FQNP,2023-11-05T04:00:00Z,-15.106,39.282,21,17,190,4,,6+,30.06,,,,,,,,,,,FEW,2000,SCT,10000,,,,,VFR,,,,,,,,,,,,METAR,434
FQMA 050400Z 03006KT 9999 BKN020 20/17 Q1015 NOSIG,FQMA,2023-11-05T04:00:00Z,-25.921,32.573,20,17,30,6,,6+,29.97,,,,,,,,,,,BKN,2000,,,,,,,MVFR,,,,,,,,,,,,METAR,34
FQLC 050400Z 10010KT 9999 FEW030 SCT/// 17/14 Q1021,FQLC,2023-11-05T04:00:00Z,-13.271,35.265,17,14,100,10,,6+,30.15,,,,,,,,,,,FEW,3000,,,,,,,VFR,,,,,,,,,,,,METAR,1362
FQCH 050400Z /////KT 9999 SCT020 17/17 Q1020,FQCH,2023-11-05T04:00:00Z,-19.148,33.428,17,17,,,,6+,30.12,,,,,,,,,,,SCT,2000,,,,,,,VFR,,,,,,,,,,,,METAR,695
FNUE 050400Z AUTO 30004KT 9999 FEW024 19/17 Q1020,FNUE,2023-11-05T04:00:00Z,-11.768,19.898,19,17,300,4,,6+,30.12,,,TRUE,,,,,,,,FEW,2400,,,,,,,VFR,,,,,,,,,,,,METAR,1354
FNUB 050400Z AUTO VRB02KT //// // NCD 13/12 Q1022,FNUB,2023-11-05T04:00:00Z,-14.925,13.575,13,12,VRB,2,,,30.18,,,TRUE,,,,,,,,CLR,,,,,,,,VFR,,,,,,,,,,,,METAR,1749
FNLU 050400Z 16006KT 9999 BKN022 25/23 Q1010,FNLU,2023-11-05T04:00:00Z,-8.858,13.231,25,23,160,6,,6+,29.82,,,,,,,,,,,BKN,2200,,,,,,,MVFR,,,,,,,,,,,,METAR,75
FNHU 050400Z AUTO VRB02KT 9999 ////// 16/15 Q1020,FNHU,2023-11-05T04:00:00Z,-12.809,15.761,16,15,VRB,2,,6+,30.12,,,TRUE,,,,,,,,,,,,,,,,VFR,,,,,,,,,,,,METAR,1697
FNGI 050400Z AUTO 17004KT CAVOK 23/02 Q1016,FNGI,2023-11-05T04:00:00Z,-17.044,15.684,23,2,170,4,,6+,30.00,,,TRUE,,,,,,,,CAVOK,,,,,,,,VFR,,,,,,,,,,,,METAR,1116
FNCT 050400Z AUTO 19007KT 9999 OVC024 25/21 Q1011,FNCT,2023-11-05T04:00:00Z,-12.479,13.487,25,21,190,7,,6+,29.85,,,TRUE,,,,,,,,OVC,2400,,,,,,,MVFR,,,,,,,,,,,,METAR,6
FNCA 050400Z AUTO 09003KT 060V120 9999 BKN011 26/25 Q1010,FNCA,2023-11-05T04:00:00Z,-5.59,12.188,26,25,90,3,,6+,29.82,,,TRUE,,,,,,,,BKN,1100,,,,,,,MVFR,,,,,,,,,,,,METAR,14
FMSD 050400Z 08012KT 9999 FEW020 SCT033 22/19 Q1018,FMSD,2023-11-05T04:00:00Z,-25.038,46.956,22,19,80,12,,6+,30.06,,,,,,,,,,,FEW,2000,SCT,3300,,,,,VFR,,,,,,,,,,,,METAR,7
FMNN 050400Z 20002KT 9999 BKN020 26/// Q1014,FMNN,2023-11-05T04:00:00Z,-13.317,48.31,,,200,2,,6+,29.94,,,,,,,,,,,BKN,2000,,,,,,,MVFR,,,,,,,,,,,,METAR,10
FMNM 050400Z VRB02KT 9999 FEW020 26/24 Q1015 NOSIG,FMNM,2023-11-05T04:00:00Z,-15.667,46.352,26,24,VRB,2,,6+,29.97,,,,,,,,,,,FEW,2000,,,,,,,VFR,,,,,,,,,,,,METAR,18
FMNA 050400Z 14008KT 9999 SCT020 SCT230 27/21 Q1014,FMNA,2023-11-05T04:00:00Z,-12.35,49.293,27,21,140,8,,6+,29.94,,,,,,,,,,,SCT,2000,SCT,23000,,,,,VFR,,,,,,,,,,,,METAR,108
FMMT 050400Z 25006KT 3500 -DZRA FEW007 SCT017 BKN033 23/22 Q1017 TEMPO 2500 DZRA,FMMT,2023-11-05T04:00:00Z,-18.11,49.392,23,22,250,6,,2.17,30.03,,,,,,,,,,-DZ -RA,FEW,700,SCT,1700,BKN,3300,,,IFR,,,,,,,,,,,,METAR,13
FMMI 050400Z 14009KT 110V190 9999 FEW017 BKN020 20/16 Q1022 NOSIG,FMMI,2023-11-05T04:00:00Z,-18.797,47.479,20,16,140,9,,6+,30.18,,,,,,,,,,,FEW,1700,BKN,2000,,,,,MVFR,,,,,,,,,,,,METAR,1269
FMEE 050400Z AUTO 11005KT 060V140 9999 BKN046 OVC054 25/21 Q1017 BECMG 13018KT,FMEE,2023-11-05T04:00:00Z,-20.887,55.51,25,21,110,5,,6+,30.03,,,TRUE,,,,,,,,BKN,4600,OVC,5400,,,,,VFR,,,,,,,,,,,,METAR,20
FMCZ 050400Z AUTO 11004KT 070V140 9999 FEW020 SCT026 28/24 Q1014 TEMPO SHRA SCT020TCU,FMCZ,2023-11-05T04:00:00Z,-12.805,45.281,28,24,110,4,,6+,29.94,,,TRUE,,,,,,,,FEW,2000,SCT,2600,,,,,VFR,,,,,,,,,,,,METAR,7
FIMP 050400Z 00000KT 9999 FEW017 BKN100 26/22 Q1017,FIMP,2023-11-05T04:00:00Z,-20.434,57.684,26,22,0,0,,6+,30.03,,,,,,,,,,,FEW,1700,BKN,10000,,,,,VFR,,,,,,,,,,,,METAR,57
FDST 050400Z AUTO 23009KT //// // ////// ///// Q1015,FDST,2023-11-05T04:00:00Z,-26.439,31.944,,,230,9,,,29.97,,,TRUE,,,,,,,,,,,,,,,,VFR,,,,,,,,,,,,METAR,642
FDSK 050400Z 01006KT CAVOK 18/15 Q1017 NOSIG,FDSK,2023-11-05T04:00:00Z,-26.359,31.719,18,15,10,6,,6+,30.03,,,,,,,,,,,CAVOK,,,,,,,,VFR,,,,,,,,,,,,METAR,323
FDMY 050400Z AUTO 02004KT //// // ////// 20/16 Q1026,FDMY,2023-11-05T04:00:00Z,-25.893,31.51,20,16,20,4,,,30.30,,,TRUE,,,,,,,,,,,,,,,,VFR,,,,,,,,,,,,METAR,401
FDBB 050400Z AUTO 00000KT //// // ////// 20/18 Q1014,FDBB,2023-11-05T04:00:00Z,-26.815,31.934,20,18,0,0,,,29.94,,,TRUE,,,,,,,,,,,,,,,,VFR,,,,,,,,,,,,METAR,106
FBSK 050400Z 13002KT CAVOK 13/13 Q1017 NOSIG,FBSK,2023-11-05T04:00:00Z,-24.555,25.918,13,13,130,2,,6+,30.03,,,,,,,,,,,CAVOK,,,,,,,,VFR,,,,,,,,,,,,METAR,1007
FBPM 050400Z VRB02KT 9999 -RA SCT020 BKN065 21/12 Q1017,FBPM,2023-11-05T04:00:00Z,-21.159,27.477,21,12,VRB,2,,6+,30.03,,,,,,,,,,-RA,SCT,2000,BKN,6500,,,,,VFR,,,,,,,,,,,,METAR,1009
FBMN 050400Z 05006KT CAVOK 22/21 Q1015,FBMN,2023-11-05T04:00:00Z,-19.973,23.431,22,21,50,6,,6+,29.97,,,,,,,,,,,CAVOK,,,,,,,,VFR,,,,,,,,,,,,METAR,946
FAWB 050400Z AUTO 09001KT //// // ////// 14/12 Q1020,FAWB,2023-11-05T04:00:00Z,-25.654,28.224,14,12,90,1,,,30.12,,,TRUE,,,,,,,,,,,,,,,,VFR,,,,,,,,,,,,METAR,1245
FAVV 050400Z AUTO 32002KT //// // ////// 11/10 Q1024,FAVV,2023-11-05T04:00:00Z,-26.566,27.961,11,10,320,2,,,30.24,,,TRUE,,,,,,,,,,,,,,,,VFR,,,,,,,,,,,,METAR,1480
FAUT 050400Z VRB03KT 1700 -DZ BR OVC006 14/14 Q1016,FAUT,2023-11-05T04:00:00Z,-31.546,28.673,14,14,VRB,3,,1.06,30.00,,,,,,,,,,-DZ BR,OVC,600,,,,,,,IFR,,,,,,,,,,,,METAR,735
FAUP 050400Z 21002KT CAVOK 17/05 Q1013 NOSIG,FAUP,2023-11-05T04:00:00Z,-28.399,21.26,17,5,210,2,,6+,29.91,,,,,,,,,,,CAVOK,,,,,,,,VFR,,,,,,,,,,,,METAR,845
FASI 050400Z AUTO 19001KT //// // ////// 13/12 Q1026,FASI,2023-11-05T04:00:00Z,-26.248,28.398,13,12,190,1,,,30.30,,,TRUE,,,,,,,,,,,,,,,,VFR,,,,,,,,,,,,METAR,1627
FAPP 050400Z 21001KT CAVOK 14/12 Q1022 NOSIG,FAPP,2023-11-05T04:00:00Z,-23.845,29.459,14,12,210,1,,6+,30.18,,,,,,,,,,,CAVOK,,,,,,,,VFR,,,,,,,,,,,,METAR,1238
FAPE 050400Z 26008KT CAVOK 16/14 Q1013 NOSIG,FAPE,2023-11-05T04:00:00Z,-33.985,25.617,16,14,260,8,,6+,29.91,,,,,,,,,,,CAVOK,,,,,,,,VFR,,,,,,,,,,,,METAR,58
FAOR 050400Z 01005KT CAVOK 14/10 Q1023 NOSIG,FAOR,2023-11-05T04:00:00Z,-26.139,28.246,14,10,10,5,,6+,30.21,,,,,,,,,,,CAVOK,,,,,,,,VFR,,,,,,,,,,,,METAR,1684
FAMM 050400Z 06005KT CAVOK 15/10 Q1019 NOSIG,FAMM,2023-11-05T04:00:00Z,-25.798,25.548,15,10,60,5,,6+,30.09,,,,,,,,,,,CAVOK,,,,,,,,VFR,,,,,,,,,,,,METAR,1280
FALW 050400Z AUTO 21002KT //// // ////// 14/13 Q1012,FALW,2023-11-05T04:00:00Z,-32.972,18.158,14,13,210,2,,,29.88,,,TRUE,,,,,,,,,,,,,,,,VFR,,,,,,,,,,,,METAR,31
FALE 050400Z 19004KT 9999 OVC021 21/18 Q1014 NOSIG,FALE,2023-11-05T04:00:00Z,-29.602,31.13,21,18,190,4,,6+,29.94,,,,,,,,,,,OVC,2100,,,,,,,MVFR,,,,,,,,,,,,METAR,109
FALA 050400Z VRB02KT CAVOK 13/09 Q1021 NOSIG,FALA,2023-11-05T04:00:00Z,-25.939,27.926,13,9,VRB,2,,6+,30.15,,,,,,,,,,,CAVOK,,,,,,,,VFR,,,,,,,,,,,,METAR,1365
FAKN 050400Z 00000KT CAVOK 16/15 Q1020 NOSIG,FAKN,2023-11-05T04:00:00Z,-25.383,31.106,16,15,0,0,,6+,30.12,,,,,,,,,,,CAVOK,,,,,,,,VFR,,,,,,,,,,,,METAR,864
FAKM 050400Z 35008KT CAVOK 16/14 Q1016,FAKM,2023-11-05T04:00:00Z,-28.803,24.765,16,14,350,8,,6+,30.00,,,,,,,,,,,CAVOK,,,,,,,,VFR,,,,,,,,,,,,METAR,1203
FAJB 050400Z AUTO 18001KT //// // ////// 11/09 Q1022,FAJB,2023-11-05T04:00:00Z,-26.15,28,11,9,180,1,,,30.18,,,TRUE,,,,,,,,,,,,,,,,VFR,,,,,,,,,,,,METAR,1626
FAHS 050400Z AUTO 15003KT //// // ////// 19/17 Q1018,FAHS,2023-11-05T04:00:00Z,-24.381,31.044,19,17,150,3,,,30.06,,,TRUE,,,,,,,,,,,,,,,,VFR,,,,,,,,,,,,METAR,532
FAGG 050400Z 30004KT 9999 FEW015 BKN020 15/14 Q1015,FAGG,2023-11-05T04:00:00Z,-34.006,22.379,15,14,300,4,,6+,29.97,,,,,,,,,,,FEW,1500,BKN,2000,,,,,MVFR,,,,,,,,,,,,METAR,196
FAEL 050400Z /////KT 9999 OVC045 17/15 Q1015,FAEL,2023-11-05T04:00:00Z,-33.036,27.826,17,15,,,,6+,29.97,,,,,,,,,,,OVC,4500,,,,,,,VFR,,,,,,,,,,,,METAR,127
FACT 050400Z VRB02KT CAVOK 12/11 Q1013 NOSIG,FACT,2023-11-05T04:00:00Z,-33.965,18.602,12,11,VRB,2,,6+,29.91,,,,,,,,,,,CAVOK,,,,,,,,VFR,,,,,,,,,,,,METAR,48
FABL 050400Z 06005KT CAVOK 15/13 Q1019 NOSIG,FABL,2023-11-05T04:00:00Z,-29.093,26.302,15,13,60,5,,6+,30.09,,,,,,,,,,,CAVOK,,,,,,,,VFR,,,,,,,,,,,,METAR,1348
EPZG 050400Z 15004KT 110V190 9999 OVC040 08/07 Q0983,EPZG,2023-11-05T04:00:00Z,52.137,15.779,8,7,150,4,,6+,29.03,,,,,,,,,,,OVC,4000,,,,,,,VFR,,,,,,,,,,,,METAR,59
EPWR 050400Z 27005KT 200V290 CAVOK 09/05 Q0986,EPWR,2023-11-05T04:00:00Z,51.1032,16.8998,9,5,270,5,,6+,29.11,,,,,,,,,,,CAVOK,,,,,,,,VFR,,,,,,,,,,,,METAR,118
EPWA 050400Z 15006KT 4700 BR NSC 03/03 Q0989 NOSIG,EPWA,2023-11-05T04:00:00Z,52.163,20.961,3,3,150,6,,2.92,29.20,,,,,,,,,,BR,CLR,,,,,,,,IFR,,,,,,,,,,,,METAR,107
EPSY 050400Z VRB02KT 7000 SCT018 03/02 Q0989,EPSY,2023-11-05T04:00:00Z,53.482,20.938,3,2,VRB,2,,4.35,29.20,,,,,,,,,,,SCT,1800,,,,,,,MVFR,,,,,,,,,,,,METAR,136
EPSC 050400Z 13012KT 9999 SCT031 BKN038 08/05 Q0980,EPSC,2023-11-05T04:00:00Z,53.585,14.902,8,5,130,12,,6+,28.94,,,,,,,,,,,SCT,3100,BKN,3800,,,,,VFR,,,,,,,,,,,,METAR,47
EPRZ 050400Z 18008KT 140V200 9999 FEW023 09/06 Q0992,EPRZ,2023-11-05T04:00:00Z,50.112,22.025,9,6,180,8,,6+,29.29,,,,,,,,,,,FEW,2300,,,,,,,VFR,,,,,,,,,,,,METAR,206
EPPO 050400Z 16008KT 9999 OVC038 08/04 Q0983,EPPO,2023-11-05T04:00:00Z,52.417,16.835,8,4,160,8,,6+,29.03,,,,,,,,,,,OVC,3800,,,,,,,VFR,,,,,,,,,,,,METAR,87
EPMO 050400Z 14006KT 8000 NSC 05/04 Q0989,EPMO,2023-11-05T04:00:00Z,52.452,20.642,5,4,140,6,,4.97,29.20,,,,,,,,,,,CLR,,,,,,,,MVFR,,,,,,,,,,,,METAR,102
EPLL 050400Z 13004KT 090V170 CAVOK 06/03 Q0987,EPLL,2023-11-05T04:00:00Z,51.724,19.401,6,3,130,4,,6+,29.14,,,,,,,,,,,CAVOK,,,,,,,,VFR,,,,,,,,,,,,METAR,176
EPLB 050400Z 17005KT CAVOK 07/05 Q0992,EPLB,2023-11-05T04:00:00Z,51.239,22.714,7,5,170,5,,6+,29.29,,,,,,,,,,,CAVOK,,,,,,,,VFR,,,,,,,,,,,,METAR,206
EPKT 050400Z 14004KT CAVOK 06/04 Q0988,EPKT,2023-11-05T04:00:00Z,50.478,19.085,6,4,140,4,,6+,29.17,,,,,,,,,,,CAVOK,,,,,,,,VFR,,,,,,,,,,,,METAR,296
EPKK 050400Z 05004KT CAVOK 05/03 Q0989,EPKK,2023-11-05T04:00:00Z,50.078,19.797,5,3,50,4,,6+,29.20,,,,,,,,,,,CAVOK,,,,,,,,VFR,,,,,,,,,,,,METAR,237
EPGD 050400Z 13009KT 9000 FEW003 04/04 Q0985,EPGD,2023-11-05T04:00:00Z,54.379,18.466,4,4,130,9,,5.59,29.08,,,,,,,,,,,FEW,300,,,,,,,VFR,,,,,,,,,,,,METAR,136
EPBY 050400Z 14008KT 110V170 CAVOK 06/04 Q0985,EPBY,2023-11-05T04:00:00Z,53.0962,17.9949,6,4,140,8,,6+,29.08,,,,,,,,,,,CAVOK,,,,,,,,VFR,,,,,,,,,,,,METAR,66
EINN 050400Z 24007KT 9999 FEW012 08/06 Q0979 NOSIG,EINN,2023-11-05T04:00:00Z,52.702,-8.925,8,6,240,7,,6+,28.91,,,,,,,,,,,FEW,1200,,,,,,,VFR,,,,,,,,,,,,METAR,20
EIME 050400Z 25011KT 9999 BKN005 BKN007 06/05 Q0976,EIME,2023-11-05T04:00:00Z,53.306,-6.442,6,5,250,11,,6+,28.82,,,,,,,,,,,BKN,500,BKN,700,,,,,IFR,,,,,,,,,,,,METAR,90
EIDW 050400Z 27009KT 9999 FEW006 SCT038 05/05 Q0976 NOSIG,EIDW,2023-11-05T04:00:00Z,53.422,-6.298,5,5,270,9,,6+,28.82,,,,,,,,,,,FEW,600,SCT,3800,,,,,VFR,,,,,,,,,,,,METAR,75
EICK 050400Z 27011KT 9999 FEW020 07/05 Q0980 NOSIG,EICK,2023-11-05T04:00:00Z,51.848,-8.479,7,5,270,11,,6+,28.94,,,,,,,,,,,FEW,2000,,,,,,,VFR,,,,,,,,,,,,METAR,158
DXXX 050400Z 26005KT 9999 FEW012 27/25 Q1010 NOSIG,DXXX,2023-11-05T04:00:00Z,6.166,1.254,27,25,260,5,,6+,29.82,,,,,,,,,,,FEW,1200,,,,,,,VFR,,,,,,,,,,,,METAR,22
DTTZ 050400Z 14002KT CAVOK 18/07 Q1011,DTTZ,2023-11-05T04:00:00Z,33.94,8.111,18,7,140,2,,6+,29.85,,,,,,,,,,,CAVOK,,,,,,,,VFR,,,,,,,,,,,,METAR,87
DTTX 050400Z 21006KT CAVOK 17/07 Q1010,DTTX,2023-11-05T04:00:00Z,34.718,10.691,17,7,210,6,,6+,29.82,,,,,,,,,,,CAVOK,,,,,,,,VFR,,,,,,,,,,,,METAR,17
DTTN 050400Z 23009KT 8000 FEW020 18/05 Q1007,DTTN,2023-11-05T04:00:00Z,36.483,8.8,18,5,230,9,,4.97,29.73,,,,,,,,,,,FEW,2000,,,,,,,MVFR,,,,,,,,,,,,METAR,145
DTTL 050400Z 20005KT 150V240 9999 FEW020 19/10 Q1007,DTTL,2023-11-05T04:00:00Z,36.85,11.083,19,10,200,5,,6+,29.73,,,,,,,,,,,FEW,2000,,,,,,,VFR,,,,,,,,,,,,METAR,18
DTTK 050400Z 21003KT 180V270 CAVOK 17/06 Q1009,DTTK,2023-11-05T04:00:00Z,35.667,10.1,17,6,210,3,,6+,29.79,,,,,,,,,,,CAVOK,,,,,,,,VFR,,,,,,,,,,,,METAR,65
DTTJ 050400Z 19009KT CAVOK 18/06 Q1011 NOSIG,DTTJ,2023-11-05T04:00:00Z,33.875,10.775,18,6,190,9,,6+,29.85,,,,,,,,,,,CAVOK,,,,,,,,VFR,,,,,,,,,,,,METAR,3
DTTG 050400Z 26008KT 230V350 6000 NSC 14/03 Q1011 NOSIG,DTTG,2023-11-05T04:00:00Z,33.733,9.918,14,3,260,8,,3.73,29.85,,,,,,,,,,,CLR,,,,,,,,MVFR,,,,,,,,,,,,METAR,120
DTTF 050400Z VRB02KT CAVOK 15/06 Q1012,DTTF,2023-11-05T04:00:00Z,34.422,8.822,15,6,VRB,2,,6+,29.88,,,,,,,,,,,CAVOK,,,,,,,,VFR,,,,,,,,,,,,METAR,314
DTTD 050400Z AUTO 24006KT 190V300 NCD 20/03 Q1013,DTTD,2023-11-05T04:00:00Z,32.312,10.386,20,3,240,6,,,29.91,,,TRUE,,,,,,,,CLR,,,,,,,,VFR,,,,,,,,,,,,METAR,306
DTTB 050400Z 33003KT 8000 SCT020 13/10 Q1006,DTTB,2023-11-05T04:00:00Z,37.245,9.791,13,10,330,3,,4.97,29.70,,,,,,,,,,,SCT,2000,,,,,,,MVFR,,,,,,,,,,,,METAR,4
DTTA 050400Z 19009KT 9999 SCT023 18/05 Q1007,DTTA,2023-11-05T04:00:00Z,36.851,10.227,18,5,190,9,,6+,29.73,,,,,,,,,,,SCT,2300,,,,,,,VFR,,,,,,,,,,,,METAR,4
DTNH 050400Z 23006KT CAVOK 13/04 Q1008 NOSIG,DTNH,2023-11-05T04:00:00Z,36.074,10.436,13,4,230,6,,6+,29.76,,,,,,,,,,,CAVOK,,,,,,,,VFR,,,,,,,,,,,,METAR,1
DTMB 050400Z 20006KT CAVOK 16/08 Q1008,DTMB,2023-11-05T04:00:00Z,35.758,10.755,16,8,200,6,,6+,29.76,,,,,,,,,,,CAVOK,,,,,,,,VFR,,,,,,,,,,,,METAR,1
DTKA 050400Z 25007KT 9999 FEW020 22/07 Q1006 NOSIG,DTKA,2023-11-05T04:00:00Z,36.98,8.877,22,7,250,7,,6+,29.70,,,,,,,,,,,FEW,2000,,,,,,,VFR,,,,,,,,,,,,METAR,70
DRRN 050400Z 00000KT 6000 NSC 28/12 Q1010 NOSIG,DRRN,2023-11-05T04:00:00Z,13.483,2.17,28,12,0,0,,3.73,29.82,,,,,,,,,,,CLR,,,,,,,,MVFR,,,,,,,,,,,,METAR,223
DNMM 050400Z VRB02KT 7000 FEW010 26/24 Q1011 NOSIG,DNMM,2023-11-05T04:00:00Z,6.577,3.321,26,24,VRB,2,,4.35,29.85,,,,,,,,,,,FEW,1000,,,,,,,MVFR,,,,,,,,,,,,METAR,27
DNIL 050400Z 19003KT CAVOK 25/23 Q1011,DNIL,2023-11-05T04:00:00Z,8.438,4.491,25,23,190,3,,6+,29.85,,,,,,,,,,,CAVOK,,,,,,,,VFR,,,,,,,,,,,,METAR,341
DNEN 050400Z VRB02KT 9999 BKN009 24/23 Q1012 NOSIG,DNEN,2023-11-05T04:00:00Z,6.474,7.562,24,23,VRB,2,,6+,29.88,,,,,,,,,,,BKN,900,,,,,,,IFR,,,,,,,,,,,,METAR,142
DNAA 050400Z 10005KT CAVOK 23/22 Q1012 NOSIG,DNAA,2023-11-05T04:00:00Z,9.007,7.263,23,22,100,5,,6+,29.88,,,,,,,,,,,CAVOK,,,,,,,,VFR,,,,,,,,,,,,METAR,338
DIAP 050400Z 23002KT 9999 SCT012 27/26 Q1009 NOSIG,DIAP,2023-11-05T04:00:00Z,5.261,-3.926,27,26,230,2,,6+,29.79,,,,,,,,,,,SCT,1200,,,,,,,VFR,,,,,,,,,,,,METAR,4
DGAA 050400Z 28006KT CAVOK 26/25 Q1010 NOSIG,DGAA,2023-11-05T04:00:00Z,5.6,-0.17,26,25,280,6,,6+,29.82,,,,,,,,,,,CAVOK,,,,,,,,VFR,,,,,,,,,,,,METAR,68
DFOO 050400Z 22003KT CAVOK 26/22 Q1011,DFOO,2023-11-05T04:00:00Z,11.163,-4.322,26,22,220,3,,6+,29.85,,,,,,,,,,,CAVOK,,,,,,,,VFR,,,,,,,,,,,,METAR,461
DFFD 050400Z 24006KT CAVOK 28/22 Q1010,DFFD,2023-11-05T04:00:00Z,12.356,-1.512,28,22,240,6,,6+,29.82,,,,,,,,,,,CAVOK,,,,,,,,VFR,,,,,,,,,,,,METAR,309
DBBB 050400Z 23007KT 9999 SCT012 28/25 Q1009 NOSIG,DBBB,2023-11-05T04:00:00Z,6.357,2.384,28,25,230,7,,6+,29.79,,,,,,,,,,,SCT,1200,,,,,,,VFR,,,,,,,,,,,,METAR,4
DAUZ 050400Z 09003KT CAVOK 14/M04 Q1016,DAUZ,2023-11-05T04:00:00Z,28.052,9.643,14,-4,90,3,,6+,30.00,,,,,,,,,,,CAVOK,,,,,,,,VFR,,,,,,,,,,,,METAR,567
DAUU 050400Z 20004KT CAVOK 18/04 Q1012,DAUU,2023-11-05T04:00:00Z,31.917,5.413,18,4,200,4,,6+,29.88,,,,,,,,,,,CAVOK,,,,,,,,VFR,,,,,,,,,,,,METAR,147
DAUT 050400Z 22004KT CAVOK 18/M05 Q1011,DAUT,2023-11-05T04:00:00Z,29.237,0.276,18,-5,220,4,,6+,29.85,,,,,,,,,,,CAVOK,,,,,,,,VFR,,,,,,,,,,,,METAR,307
DAUO 050400Z 22007KT CAVOK 18/07 Q1011,DAUO,2023-11-05T04:00:00Z,33.513,6.782,18,7,220,7,,6+,29.85,,,,,,,,,,,CAVOK,,,,,,,,VFR,,,,,,,,,,,,METAR,55
DAUK 050400Z 18005KT CAVOK 17/05 Q1011,DAUK,2023-11-05T04:00:00Z,33.068,6.089,17,5,180,5,,6+,29.85,,,,,,,,,,,CAVOK,,,,,,,,VFR,,,,,,,,,,,,METAR,83
DAUI 050400Z 02006KT CAVOK 19/M07 Q1012,DAUI,2023-11-05T04:00:00Z,27.251,2.512,19,-7,20,6,,6+,29.88,,,,,,,,,,,CAVOK,,,,,,,,VFR,,,,,,,,,,,,METAR,271
DAUH 050400Z VRB02KT 6000 NSC 16/04 Q1012,DAUH,2023-11-05T04:00:00Z,31.673,6.14,16,4,VRB,2,,3.73,29.88,,,,,,,,,,,CLR,,,,,,,,MVFR,,,,,,,,,,,,METAR,141
DAUG 050400Z 00000KT 6000 NSC 18/04 Q1013,DAUG,2023-11-05T04:00:00Z,32.384,3.794,18,4,0,0,,3.73,29.91,,,,,,,,,,,CLR,,,,,,,,MVFR,,,,,,,,,,,,METAR,444
DAUE 050400Z 01006KT 2000 HZ NSC 14/04 Q1013,DAUE,2023-11-05T04:00:00Z,30.571,2.86,14,4,10,6,,1.24,29.91,,,,,,,,,,HZ,CLR,,,,,,,,IFR,,,,,,,,,,,,METAR,396
DAUB 050400Z 35003KT CAVOK 16/06 Q1011,DAUB,2023-11-05T04:00:00Z,34.793,5.738,16,6,350,3,,6+,29.85,,,,,,,,,,,CAVOK,,,,,,,,VFR,,,,,,,,,,,,METAR,75
DAUA 050400Z 15005KT CAVOK 19/M07 Q1012,DAUA,2023-11-05T04:00:00Z,27.839,-0.186,19,-7,150,5,,6+,29.88,,,,,,,,,,,CAVOK,,,,,,,,VFR,,,,,,,,,,,,METAR,278
DAOY 050400Z 13003KT CAVOK 11/03 Q1015,DAOY,2023-11-05T04:00:00Z,33.721,1.091,11,3,130,3,,6+,29.97,,,,,,,,,,,CAVOK,,,,,,,,VFR,,,,,,,,,,,,METAR,1340
DAOV 050400Z 34004KT CAVOK 09/07 Q1012,DAOV,2023-11-05T04:00:00Z,35.208,0.147,9,7,340,4,,6+,29.88,,,,,,,,,,,CAVOK,,,,,,,,VFR,,,,,,,,,,,,METAR,506
DAOR 050400Z 34003KT 4000 DU NSC 14/01 Q1014,DAOR,2023-11-05T04:00:00Z,31.65,-2.261,14,1,340,3,,2.49,29.94,,,,,,,,,,DU,CLR,,,,,,,,IFR,,,,,,,,,,,,METAR,809
DAOO 050400Z 28003KT CAVOK 15/12 Q1010,DAOO,2023-11-05T04:00:00Z,35.623,-0.624,15,12,280,3,,6+,29.82,,,,,,,,,,,CAVOK,,,,,,,,VFR,,,,,,,,,,,,METAR,87
DAON 050400Z 20012KT CAVOK 18/10 Q1012,DAON,2023-11-05T04:00:00Z,35.013,-1.457,18,10,200,12,,6+,29.88,,,,,,,,,,,CAVOK,,,,,,,,VFR,,,,,,,,,,,,METAR,245
DAOL 050400Z 23008KT 8000 FEW026 SCT100 17/10 Q1011,DAOL,2023-11-05T04:00:00Z,35.542,-0.532,17,10,230,8,,4.97,29.85,,,,,,,,,,,FEW,2600,SCT,10000,,,,,MVFR,,,,,,,,,,,,METAR,103
DAOI 050400Z 24007KT CAVOK 17/11 Q1011,DAOI,2023-11-05T04:00:00Z,36.213,1.332,17,11,240,7,,6+,29.85,,,,,,,,,,,CAVOK,,,,,,,,VFR,,,,,,,,,,,,METAR,141
DAOB 050400Z 22014KT CAVOK 10/02 Q1013,DAOB,2023-11-05T04:00:00Z,35.345,1.476,10,2,220,14,,6+,29.91,,,,,,,,,,,CAVOK,,,,,,,,VFR,,,,,,,,,,,,METAR,976
DABT 050400Z 10010KT CAVOK 18/02 Q1012,DABT,2023-11-05T04:00:00Z,35.752,6.309,18,2,100,10,,6+,29.88,,,,,,,,,,,CAVOK,,,,,,,,VFR,,,,,,,,,,,,METAR,813
DABS 050400Z 33005KT CAVOK 16/03 Q1012,DABS,2023-11-05T04:00:00Z,35.432,8.121,16,3,330,5,,6+,29.88,,,,,,,,,,,CAVOK,,,,,,,,VFR,,,,,,,,,,,,METAR,806
DABB 050400Z 26006KT CAVOK 16/09 Q1006,DABB,2023-11-05T04:00:00Z,36.822,7.809,16,9,260,6,,6+,29.70,,,,,,,,,,,CAVOK,,,,,,,,VFR,,,,,,,,,,,,METAR,3
DAAY 050400Z 21010KT CAVOK 13/02 Q1017,DAAY,2023-11-05T04:00:00Z,33.532,-0.248,13,2,210,10,,6+,30.03,,,,,,,,,,,CAVOK,,,,,,,,VFR,,,,,,,,,,,,METAR,1116
DAAV 050400Z VRB02KT CAVOK 13/08 Q1006,DAAV,2023-11-05T04:00:00Z,36.795,5.877,13,8,VRB,2,,6+,29.70,,,,,,,,,,,CAVOK,,,,,,,,VFR,,,,,,,,,,,,METAR,11
DAAT 050400Z 07004KT CAVOK 15/M07 Q1021,DAAT,2023-11-05T04:00:00Z,22.824,5.452,15,-7,70,4,,6+,30.15,,,,,,,,,,,CAVOK,,,,,,,,VFR,,,,,,,,,,,,METAR,1372
DAAS 050400Z 04003KT 9999 FEW026 08/04 Q1012,DAAS,2023-11-05T04:00:00Z,36.18,5.33,8,4,40,3,,6+,29.88,,,,,,,,,,,FEW,2600,,,,,,,VFR,,,,,,,,,,,,METAR,1012
DAAP 050400Z 18003KT CAVOK 17/M08 Q1016,DAAP,2023-11-05T04:00:00Z,26.724,8.622,17,-8,180,3,,6+,30.00,,,,,,,,,,,CAVOK,,,,,,,,VFR,,,,,,,,,,,,METAR,542
DAAJ 050400Z 02004KT CAVOK 13/M08 Q1019,DAAJ,2023-11-05T04:00:00Z,24.286,9.464,13,-8,20,4,,6+,30.09,,,,,,,,,,,CAVOK,,,,,,,,VFR,,,,,,,,,,,,METAR,962
DAAG 050400Z 26018KT CAVOK 22/11 Q1007,DAAG,2023-11-05T04:00:00Z,36.691,3.215,22,11,260,18,,6+,29.73,,,,,,,,,,,CAVOK,,,,,,,,VFR,,,,,,,,,,,,METAR,18
DAAE 050400Z 26011KT CAVOK 19/09 Q1006,DAAE,2023-11-05T04:00:00Z,36.712,5.07,19,9,260,11,,6+,29.70,,,,,,,,,,,CAVOK,,,,,,,,VFR,,,,,,,,,,,,METAR,1
CZZJ 050400Z AUTO 35001KT 01/M00 RMK AO1 SOG 02 6005 SLP037 T00131004,CZZJ,2023-11-05T04:00:00Z,53.583,-116.462,1.3,-0.4,350,1,,,0.00,1003.7,,TRUE,TRUE,,,,,,,,,,,,,,,VFR,,,,,,,,,,,,METAR,927
CZVL 050400Z AUTO 11003KT 070V130 8SM BKN110 OVC220 03/01 A2954 RMK SLP030,CZVL,2023-11-05T04:00:00Z,53.67,-113.863,3,1,110,3,,8,29.54,1003,,TRUE,,,,,,,,BKN,11000,OVC,22000,,,,,VFR,,,,,,,,,,,,METAR,685
CZUM 050400Z AUTO VRB03KT 9SM OVC025 M08/M11 A2976 RMK SLP109,CZUM,2023-11-05T04:00:00Z,53.562,-64.107,-8,-11,VRB,3,,9,29.76,1010.9,,TRUE,,,,,,,,OVC,2500,,,,,,,MVFR,,,,,,,,,,,,METAR,431
CZTB 050400Z AUTO 32002KT M01/M06 RMK AO1 SLP231 T10111055 53008,CZTB,2023-11-05T04:00:00Z,48.369,-89.327,-1.1,-5.5,320,2,,,0.00,1023.1,,TRUE,TRUE,,,,,,,,,,,,,,,VFR,0.08,,,,,,,,,,,METAR,197
CZSP 050400Z AUTO 28002KT 06/06 RMK AO1 SLP181 T00610058 58005,CZSP,2023-11-05T04:00:00Z,46.45,-62.576,6.1,5.8,280,2,,,0.00,1018.1,,TRUE,TRUE,,,,,,,,,,,,,,,VFR,-0.05,,,,,,,,,,,METAR,31
CZSM 050400Z AUTO 09004KT M06/M08 RMK AO1 SOG 12 7015 SLP154 T10591082,CZSM,2023-11-05T04:00:00Z,60.026,-111.929,-5.9,-8.2,90,4,,,0.00,1015.4,,TRUE,TRUE,,,,,,,,,,,,,,,VFR,,,,,,,,,,,,METAR,203
CZSJ 050400Z AUTO 05004KT 9SM OVC014 M08/M11 A3016 RMK SLP240,CZSJ,2023-11-05T04:00:00Z,53.063,-93.344,-8,-11,50,4,,9,30.16,1024,,TRUE,,,,,,,,OVC,1400,,,,,,,MVFR,,,,,,,,,,,,METAR,286
CZRP 050400Z AUTO 32016KT M18/M20 RMK AO1 4PAST HR SOG 24 8010 PK WND 32020/0317 SLP243 P0091 T11841201 50934,CZRP,2023-11-05T04:00:00Z,75.377,-105.715,-18.4,-20.1,320,16,,,0.00,1024.3,,TRUE,TRUE,,,,,,,,,,,,,,,VFR,,,,,,,,,,,,METAR,6
CZPC 050400Z AUTO 30013G18KT 9SM CLR 08/03 A2964 RMK SLP051 DENSITY ALT 4300FT,CZPC,2023-11-05T04:00:00Z,49.522,-114.005,8,3,300,13,18,9,29.64,1005.1,,TRUE,,,,,,,,CLR,,,,,,,,VFR,,,,,,,,,,,,METAR,1187
CZOL 050400Z AUTO 10003KT 04/00 RMK AO1 T00350000,CZOL,2023-11-05T04:00:00Z,53.642,-113.364,3.5,0,100,3,,,0.00,,,TRUE,TRUE,,,,,,,,,,,,,,,VFR,,,,,,,,,,,,METAR,645
CZMJ 050400Z AUTO 12014KT 01/M00 RMK AO1 PK WND 13017/0317 SLP119 T00101001 58025,CZMJ,2023-11-05T04:00:00Z,50.332,-105.538,1,-0.1,120,14,,,0.00,1011.9,,TRUE,TRUE,,,,,,,,,,,,,,,VFR,-0.25,,,,,,,,,,,METAR,571
CZMD 050400Z AUTO 23002KT 9SM CLR M15/M16 A3018 RMK SLP248,CZMD,2023-11-05T04:00:00Z,53.439,-91.766,-15,-16,230,2,,9,30.18,1024.8,,TRUE,,,,,,,,CLR,,,,,,,,VFR,,,,,,,,,,,,METAR,276
CZKD 050400Z AUTO 25002KT M08/M12 RMK AO1 SOG 01 6006 SLP234 T10831116,CZKD,2023-11-05T04:00:00Z,56.037,-96.51,-8.3,-11.6,250,2,,,0.00,1023.4,,TRUE,TRUE,,,,,,,,,,,,,,,VFR,,,,,,,,,,,,METAR,190
CZHY 050400Z AUTO 10006KT M05/M08 RMK AO1 SOG 01 8009 SLP134 T10541077,CZHY,2023-11-05T04:00:00Z,60.839,-115.781,-5.4,-7.7,100,6,,,0.00,1013.4,,TRUE,TRUE,,,,,,,,,,,,,,,VFR,,,,,,,,,,,,METAR,159
CZFS 050400Z AUTO 32008KT M08/M09 RMK AO1 2PAST HR SOG 04 8009 SLP146 P0001 T10781093 50007,CZFS,2023-11-05T04:00:00Z,61.76,-121.23,-7.8,-9.3,320,8,,,0.00,1014.6,,TRUE,TRUE,,,,,,,,,,,,,,,VFR,0.07,,,,,0.01,,,,,,METAR,174
CZEV 050400Z AUTO 08012KT M11/M14 RMK AO1 SOG 17 8017 PK WND 08017/0334 SLP217 T11121140,CZEV,2023-11-05T04:00:00Z,68.313,-133.496,-11.2,-14,80,12,,,0.00,1021.7,,TRUE,TRUE,,,,,,,,,,,,,,,VFR,,,,,,,,,,,,METAR,92
CZEL 050400Z AUTO 04004KT 03/02 RMK AO1 SLP193 T00310024 58006,CZEL,2023-11-05T04:00:00Z,43.642,-80.412,3.1,2.4,40,4,,,0.00,1019.3,,TRUE,TRUE,,,,,,,,,,,,,,,VFR,-0.06,,,,,,,,,,,METAR,370
CZDB 050400Z AUTO 11001KT 07/05 RMK AO1 SLP184 T00670050 56006,CZDB,2023-11-05T04:00:00Z,45.422,-63.466,6.7,5,110,1,,,0.00,1018.4,,TRUE,TRUE,,,,,,,,,,,,,,,VFR,-0.06,,,,,,,,,,,METAR,38
CZCR 050400Z AUTO 26006KT M01/M06 RMK AO1 7009 SLP169 T10051059 50003,CZCR,2023-11-05T04:00:00Z,47.99,-66.334,-0.5,-5.9,260,6,,,0.00,1016.9,,TRUE,TRUE,,,,,,,,,,,,,,,VFR,0.03,,,,,,,,,,,METAR,39
CZBF 050400Z AUTO 28002KT 9SM CLR M03/M04 A3004 RMK SLP177,CZBF,2023-11-05T04:00:00Z,47.628,-65.746,-3,-4,280,2,,9,30.04,1017.7,,TRUE,,,,,,,,CLR,,,,,,,,VFR,,,,,,,,,,,,METAR,60
CYZX 050400Z 26002KT 15SM OVC100 08/06 A3008 RMK AC8 DENSITY ALT -803FT SLP188,CYZX,2023-11-05T04:00:00Z,44.985,-64.912,8,6,260,2,,15,30.08,1018.8,,,,,,,,,,OVC,10000,,,,,,,VFR,,,,,,,,,,,,METAR,28
CYZV 050400Z 31005KT 15SM BKN046 M02/M06 A2997 RMK SC7 SLP154,CYZV,2023-11-05T04:00:00Z,50.217,-66.26,-2,-6,310,5,,15,29.97,1015.4,,,,,,,,,,BKN,4600,,,,,,,VFR,,,,,,,,,,,,METAR,43
CYZU 050400Z 09004KT 10SM OVC008 01/01 A2955 RMK SC8 LAST STFD OBS/NXT 051300Z SLP041,CYZU,2023-11-05T04:00:00Z,54.142,-115.785,1,1,90,4,,10+,29.55,1004.1,,,,,,,,,,OVC,800,,,,,,,IFR,,,,,,,,,,,,METAR,785
CYZT 050400Z 16010KT 15SM FEW036 SCT075 SCT100 11/09 A2948 RMK SC1AC2AC1 SLP985,CYZT,2023-11-05T04:00:00Z,50.685,-127.369,11,9,160,10,,15,29.48,998.5,,,,,,,,,,FEW,3600,SCT,7500,SCT,10000,,,VFR,,,,,,,,,,,,METAR,13
CYZS 050400Z 36012KT 15SM FEW060 M14/M16 A2972 RMK SC1 SLP075,CYZS,2023-11-05T04:00:00Z,64.188,-83.351,-14,-16,360,12,,15,29.72,1007.5,,,,,,,,,,FEW,6000,,,,,,,VFR,,,,,,,,,,,,METAR,60
CYZF 050400Z 07012KT 6SM -SN DRSN BKN016 OVC032 M07/M08 A2999 RMK SC6SC2 SLP176,CYZF,2023-11-05T04:00:00Z,62.475,-114.448,-7,-8,70,12,,6,29.99,1017.6,,,,,,,,,-SN DRSN,BKN,1600,OVC,3200,,,,,MVFR,,,,,,,,,,,,METAR,202
CYZE 050400Z AUTO 29002KT 9SM SCT100 01/M01 A3010 RMK SLP204,CYZE,2023-11-05T04:00:00Z,45.885,-82.57,1,-1,290,2,,9,30.10,1020.4,,TRUE,,,,,,,,SCT,10000,,,,,,,VFR,,,,,,,,,,,,METAR,189
CYYZ 050400Z 36008KT 15SM OVC021 07/04 A3009 RMK SC8 SLP194,CYYZ,2023-11-05T04:00:00Z,43.679,-79.629,7,4,360,8,,15,30.09,1019.4,,,,,,,,,,OVC,2100,,,,,,,MVFR,,,,,,,,,,,,METAR,171
CYYY 050400Z 17004KT 30SM FEW042 M00/M04 A3002 RMK SC2 SLP169,CYYY,2023-11-05T04:00:00Z,48.609,-68.208,0,-4,170,4,,30,30.02,1016.9,,,,,,,,,,FEW,4200,,,,,,,VFR,,,,,,,,,,,,METAR,43
CYYW 050400Z AUTO 00000KT 9SM SCT032 M06/M09 A3014 RMK SLP236,CYYW,2023-11-05T04:00:00Z,50.296,-88.912,-6,-9,0,0,,9,30.14,1023.6,,TRUE,,,,,,,,SCT,3200,,,,,,,VFR,,,,,,,,,,,,METAR,320
CYYU 050400Z 31006KT 15SM BKN036 BKN070 M04/M09 A3010 RMK SC5AC2 SLP212,CYYU,2023-11-05T04:00:00Z,49.416,-82.47,-4,-9,310,6,,15,30.10,1021.2,,,,,,,,,,BKN,3600,BKN,7000,,,,,VFR,,,,,,,,,,,,METAR,228
CYYT 050400Z 27012KT 15SM FEW010 FEW089 BKN140 08/07 A3004 RMK SF1AC1AC3 SLP177,CYYT,2023-11-05T04:00:00Z,47.627,-52.748,8,7,270,12,,15,30.04,1017.7,,,,,,,,,,FEW,1000,FEW,8900,BKN,14000,,,VFR,,,,,,,,,,,,METAR,128
CYYR 050400Z 27013G20KT 15SM FEW012 FEW050 FEW260 M04/M10 A2984 RMK SF1SC1CI2 DENSITY ALT -1982FT SLP108,CYYR,2023-11-05T04:00:00Z,53.32,-60.417,-4,-10,270,13,20,15,29.84,1010.8,,,,,,,,,,FEW,1200,FEW,5000,FEW,26000,,,VFR,,,,,,,,,,,,METAR,42
CYYL 050400Z AUTO 17002KT 9SM CLR M16/M17 A3009 RMK SLP228,CYYL,2023-11-05T04:00:00Z,56.863,-101.073,-16,-17,170,2,,9,30.09,1022.8,,TRUE,,,,,,,,CLR,,,,,,,,VFR,,,,,,,,,,,,METAR,351
CYYJ 050400Z 21011KT 30SM FEW036 FEW059 BKN110 13/10 A2975 RMK SC1SC1AC1 SLP076,CYYJ,2023-11-05T04:00:00Z,48.642,-123.433,13,10,210,11,,30,29.75,1007.6,,,,,,,,,,FEW,3600,FEW,5900,BKN,11000,,,VFR,,,,,,,,,,,,METAR,16
CYYG 050400Z 32003KT 15SM SCT013 BKN063 04/04 A3005 RMK SC3SC2 SLP179,CYYG,2023-11-05T04:00:00Z,46.289,-63.128,4,4,320,3,,15,30.05,1017.9,,,,,,,,,,SCT,1300,BKN,6300,,,,,VFR,,,,,,,,,,,,METAR,48
CYYF 050400Z 19016KT 15SM FEW020 SCT085 10/07 A2972 RMK SC2AC2 SLP071,CYYF,2023-11-05T04:00:00Z,49.46,-119.606,10,7,190,16,,15,29.72,1007.1,,,,,,,,,,FEW,2000,SCT,8500,,,,,VFR,,,,,,,,,,,,METAR,342
CYYE 050400Z 01004KT 2SM -SN BR OVC015 M02/M03 A2968 RMK SC8 /S01/ SLP076,CYYE,2023-11-05T04:00:00Z,58.839,-122.59,-2,-3,10,4,,2,29.68,1007.6,,,,,,,,,-SN BR,OVC,1500,,,,,,,IFR,,,,,,,,,,,,METAR,379
CYYD 050400Z AUTO VRB02KT 1SM -RA BR OVC022 03/03 A2928 RMK PCPN 0.5MM PAST HR SLP931,CYYD,2023-11-05T04:00:00Z,54.823,-127.185,3,3,VRB,2,,1,29.28,993.1,,TRUE,,,,,,,-RA BR,OVC,2200,,,,,,,IFR,,,,,,,,,,,,METAR,527
CYYC 050400Z 22008KT 10SM BKN170 BKN230 08/00 A2955 RMK AC6CI1 VIRGA OVRHD SLP035 DENSITY ALT 4100FT,CYYC,2023-11-05T04:00:00Z,51.116,-114.011,8,0,220,8,,10+,29.55,1003.5,,,,,,,,,,BKN,17000,BKN,23000,,,,,VFR,,,,,,,,,,,,METAR,1085
CYYB 050400Z AUTO 29004KT 9SM CLR M01/M03 A3005 RMK SLP195,CYYB,2023-11-05T04:00:00Z,46.365,-79.423,-1,-3,290,4,,9,30.05,1019.5,,TRUE,,,,,,,,CLR,,,,,,,,VFR,,,,,,,,,,,,METAR,360
CYXY 050400Z 32004KT 6SM -SN SCT008 OVC011 M00/M01 A2936 RMK SF3SC5 SLP980,CYXY,2023-11-05T04:00:00Z,60.71,-135.059,0,-1,320,4,,6,29.36,998,,,,,,,,,-SN,SCT,800,OVC,1100,,,,,MVFR,,,,,,,,,,,,METAR,677
CYXX 050400Z 23005KT 7SM FEW014 BKN043 BKN052 12/12 A2976 RMK SC1SC5SC1 SLP079,CYXX,2023-11-05T04:00:00Z,49.027,-122.377,12,12,230,5,,7,29.76,1007.9,,,,,,,,,,FEW,1400,BKN,4300,BKN,5200,,,VFR,,,,,,,,,,,,METAR,54
CYXU 050400Z 34003KT 15SM FEW048 06/05 A3008 RMK SC2 SLP194,CYXU,2023-11-05T04:00:00Z,43.039,-81.162,6,5,340,3,,15,30.08,1019.4,,,,,,,,,,FEW,4800,,,,,,,VFR,,,,,,,,,,,,METAR,278
CYXT 050400Z 09004KT 8SM -RA SCT003 OVC052 05/05 A2923 RMK SF3SC5 SLP907,CYXT,2023-11-05T04:00:00Z,54.471,-128.577,5,5,90,4,,8,29.23,990.7,,,,,,,,,-RA,SCT,300,OVC,5200,,,,,VFR,,,,,,,,,,,,METAR,213
CYXS 050400Z AUTO 19011G18KT 9SM SCT081 OVC099 10/05 A2938 RMK SLP967 DENSITY ALT 2800FT,CYXS,2023-11-05T04:00:00Z,53.884,-122.677,10,5,190,11,18,9,29.38,996.7,,TRUE,,,,,,,,SCT,8100,OVC,9900,,,,,VFR,,,,,,,,,,,,METAR,685
CYXR 050400Z AUTO 00000KT 9SM BKN100 OVC120 M02/M03 A3004 RMK ICE SLP188,CYXR,2023-11-05T04:00:00Z,47.698,-79.852,-2,-3,0,0,,9,30.04,1018.8,,TRUE,,,,,,,,BKN,10000,OVC,12000,,,,,VFR,,,,,,,,,,,,METAR,244
CYXL 050400Z 00000KT 15SM FEW028 M10/M10 A3014 RMK SC1 SLP237,CYXL,2023-11-05T04:00:00Z,50.114,-91.905,-10,-10,0,0,,15,30.14,1023.7,,,,,,,,,,FEW,2800,,,,,,,VFR,,,,,,,,,,,,METAR,381
CYXJ 050400Z 03005KT 1SM R30/P6000FT/N -SN VV003 M01/M01 A2955 RMK SN8 SLP041,CYXJ,2023-11-05T04:00:00Z,56.247,-120.737,-1,-1,30,5,,1,29.55,1004.1,,,,,,,,,-SN,OVX,0,,,,,,,LIFR,,,,,,,,,,,300,METAR,700
CYXH 050400Z AUTO 21014G20KT 9SM BKN200 BKN220 11/05 A2959 RMK SLP034 DENSITY ALT 2800FT,CYXH,2023-11-05T04:00:00Z,50.018,-110.717,11,5,210,14,20,9,29.59,1003.4,,TRUE,,,,,,,,BKN,20000,BKN,22000,,,,,VFR,,,,,,,,,,,,METAR,717
CYXE 050400Z 12013KT 5SM -RA OVC005 01/01 A2974 RMK ST8 SLP099,CYXE,2023-11-05T04:00:00Z,52.172,-106.695,1,1,120,13,,5,29.74,1009.9,,,,,,,,,-RA,OVC,500,,,,,,,IFR,,,,,,,,,,,,METAR,504
CYXC 050400Z 26004KT 15SM -DZ BKN009 OVC028 04/02 A2977 RMK ST5SC3 SLP105,CYXC,2023-11-05T04:00:00Z,49.614,-115.784,4,2,260,4,,15,29.77,1010.5,,,,,,,,,-DZ,BKN,900,OVC,2800,,,,,IFR,,,,,,,,,,,,METAR,928
CYWL 050400Z 12012G17KT 15SM SKC 07/04 A2950 RMK SLP010 DENSITY ALT 3400FT,CYWL,2023-11-05T04:00:00Z,52.186,-122.066,7,4,120,12,17,15,29.50,1001,,,,,,,,,,SKC,,,,,,,,VFR,,,,,,,,,,,,METAR,942
CYWH 050400Z 27012G17KT 15SM FEW015 BKN060 BKN090 13/09 A2976 RMK SC2SC4AC1 LAST STFD OBS/NXT 051400Z SLP079,CYWH,2023-11-05T04:00:00Z,48.423,-123.387,13,9,270,12,17,15,29.76,1007.9,,,,,,,,,,FEW,1500,BKN,6000,BKN,9000,,,VFR,,,,,,,,,,,,METAR,4
CYWG 050400Z 20003KT 8SM BKN054 BKN075 BKN200 M01/M02 A3014 RMK SC5AC1CI1 SLP221,CYWG,2023-11-05T04:00:00Z,49.916,-97.249,-1,-2,200,3,,8,30.14,1022.1,,,,,,,,,,BKN,5400,BKN,7500,BKN,20000,,,VFR,,,,,,,,,,,,METAR,238
CYWE 050400Z AUTO 07008KT 9SM -SN OVC071 M13/M15 A3004 RMK SLP214,CYWE,2023-11-05T04:00:00Z,64.192,-114.078,-13,-15,70,8,,9,30.04,1021.4,,TRUE,,,,,,,-SN,OVC,7100,,,,,,,VFR,,,,,,,,,,,,METAR,374
CYVV 050400Z 12005KT 15SM FEW030 SCT250 M02/M02 A3010 RMK SC2CI2 SLP203,CYVV,2023-11-05T04:00:00Z,44.745,-81.107,-2,-2,120,5,,15,30.10,1020.3,,,,,,,,,,FEW,3000,SCT,25000,,,,,VFR,,,,,,,,,,,,METAR,221
CYVR 050400Z 18008KT 12SM FEW035 FEW053 SCT071 BKN083 BKN140 13/09 A2974 RMK SC1SC1AC3AC1AS1 SC TR AS TR SLP073,CYVR,2023-11-05T04:00:00Z,49.183,-123.168,13,9,180,8,,12,29.74,1007.3,,,,,,,,,,FEW,3500,FEW,5300,SCT,7100,BKN,8300,VFR,,,,,,,,,,,,METAR,2
CYVQ 050400Z 08004KT 30SM FEW054 M12/M14 A3003 RMK SC1 SC TR SLP180,CYVQ,2023-11-05T04:00:00Z,65.278,-126.796,-12,-14,80,4,,30,30.03,1018,,,,,,,,,,FEW,5400,,,,,,,VFR,,,,,,,,,,,,METAR,63
CYVO 050400Z AUTO 19002KT 9SM OVC130 M03/M03 A3001 RMK SLP185,CYVO,2023-11-05T04:00:00Z,48.056,-77.779,-3,-3,190,2,,9,30.01,1018.5,,TRUE,,,,,,,,OVC,13000,,,,,,,VFR,,,,,,,,,,,,METAR,329
CYVM 050400Z AUTO 21003KT 140V230 9SM CLR M09/M14 A2969 RMK SLP055,CYVM,2023-11-05T04:00:00Z,67.552,-64.026,-9,-14,210,3,,9,29.69,1005.5,,TRUE,,,,,,,,CLR,,,,,,,,VFR,,,,,,,,,,,,METAR,3
CYVC 050400Z 10010G15KT 15SM OVC010 M04/M05 A2995 RMK SC8 SLP171,CYVC,2023-11-05T04:00:00Z,55.15,-105.264,-4,-5,100,10,15,15,29.95,1017.1,,,,,,,,,,OVC,1000,,,,,,,MVFR,,,,,,,,,,,,METAR,378
CYUY 050400Z 23003KT 15SM FEW048 OVC130 M03/M05 A3002 RMK SC1AC7 SLP186,CYUY,2023-11-05T04:00:00Z,48.209,-78.83,-3,-5,230,3,,15,30.02,1018.6,,,,,,,,,,FEW,4800,OVC,13000,,,,,VFR,,,,,,,,,,,,METAR,304
CYUL 050400Z 00000KT 15SM OVC060 05/02 A3006 RMK SC8 SLP183,CYUL,2023-11-05T04:00:00Z,45.468,-73.742,5,2,0,0,,15,30.06,1018.3,,,,,,,,,,OVC,6000,,,,,,,VFR,,,,,,,,,,,,METAR,31
CYUB 050400Z 12012KT 15SM -SN OVC022 M10/M14 A3022 RMK SC8 SLP236,CYUB,2023-11-05T04:00:00Z,69.434,-133.026,-10,-14,120,12,,15,30.22,1023.6,,,,,,,,,-SN,OVC,2200,,,,,,,MVFR,,,,,,,,,,,,METAR,5
CYTZ 050400Z AUTO 36005KT 9SM OVC024 09/05 A3008 RMK SLP191,CYTZ,2023-11-05T04:00:00Z,43.627,-79.397,9,5,360,5,,9,30.08,1019.1,,TRUE,,,,,,,,OVC,2400,,,,,,,MVFR,,,,,,,,,,,,METAR,76
CYTS 050400Z 34004KT 15SM FEW040 BKN080 OVC120 M03/M06 A3007 RMK SC2AC4AC2 SLP202,CYTS,2023-11-05T04:00:00Z,48.568,-81.378,-3,-6,340,4,,15,30.07,1020.2,,,,,,,,,,FEW,4000,BKN,8000,OVC,12000,,,VFR,,,,,,,,,,,,METAR,290
CYTR 050400Z 00000KT 15SM SCT030 OVC060 06/06 A3008 RMK SC4SC4 DENSITY ALT -775FT SLP187,CYTR,2023-11-05T04:00:00Z,44.115,-77.531,6,6,0,0,,15,30.08,1018.7,,,,,,,,,,SCT,3000,OVC,6000,,,,,VFR,,,,,,,,,,,,METAR,80
CYTL 050400Z AUTO 31009KT 9SM CLR M09/M11 A3017 RMK SLP238,CYTL,2023-11-05T04:00:00Z,53.816,-89.892,-9,-11,310,9,,9,30.17,1023.8,,TRUE,,,,,,,,CLR,,,,,,,,VFR,,,,,,,,,,,,METAR,218
CYTH 050400Z 00000KT 15SM -SN OVC016 M09/M12 A3016 RMK SC8 SLP236,CYTH,2023-11-05T04:00:00Z,55.803,-97.846,-9,-12,0,0,,15,30.16,1023.6,,,,,,,,,-SN,OVC,1600,,,,,,,MVFR,,,,,,,,,,,,METAR,212
CYTE 050400Z AUTO 02011G18KT 9SM CLR M09/M10 A2965 RMK SLP047,CYTE,2023-11-05T04:00:00Z,64.23,-76.528,-9,-10,20,11,18,9,29.65,1004.7,,TRUE,,,,,,,,CLR,,,,,,,,VFR,,,,,,,,,,,,METAR,49
CYSM 050400Z 08003KT 040V120 15SM FEW130 BKN170 M06/M08 A2993 RMK AS2AC3 SLP155,CYSM,2023-11-05T04:00:00Z,60.026,-111.929,-6,-8,80,3,,15,29.93,1015.5,,,,,,,,,,FEW,13000,BKN,17000,,,,,VFR,,,,,,,,,,,,METAR,203
CYSJ 050400Z 07004KT 15SM BKN071 BKN150 02/02 A3007 RMK AC6AC1 SLP188,CYSJ,2023-11-05T04:00:00Z,45.309,-65.886,2,2,70,4,,15,30.07,1018.8,,,,,,,,,,BKN,7100,BKN,15000,,,,,VFR,,,,,,,,,,,,METAR,89
CYSF 050400Z AUTO 13004KT 9SM BKN200 BKN230 M15/M16 A3008 RMK SLP214,CYSF,2023-11-05T04:00:00Z,59.252,-105.837,-15,-16,130,4,,9,30.08,1021.4,,TRUE,,,,,,,,BKN,20000,BKN,23000,,,,,VFR,,,,,,,,,,,,METAR,238
CYSC 050400Z AUTO 00000KT 9SM BKN033 OVC060 05/03 A3005 RMK SLP184,CYSC,2023-11-05T04:00:00Z,45.44,-71.692,5,3,0,0,,9,30.05,1018.4,,TRUE,,,,,,,,BKN,3300,OVC,6000,,,,,VFR,,,,,,,,,,,,METAR,236
CYSB 050400Z 29005KT 15SM SCT110 M01/M03 A3005 RMK AC4 SLP196,CYSB,2023-11-05T04:00:00Z,46.622,-80.799,-1,-3,290,5,,15,30.05,1019.6,,,,,,,,,,SCT,11000,,,,,,,VFR,,,,,,,,,,,,METAR,349
CYRT 050400Z 33021KT 15SM -SN DRSN BKN014 M07/M09 A2992 RMK SC7 SLP139,CYRT,2023-11-05T04:00:00Z,62.811,-92.1,-7,-9,330,21,,15,29.92,1013.9,,,,,,,,,-SN DRSN,BKN,1400,,,,,,,MVFR,,,,,,,,,,,,METAR,29
CYRQ 050400Z AUTO VRB02KT 9SM CLR M03/M04 A3005 RMK ICE SLP182,CYRQ,2023-11-05T04:00:00Z,46.358,-72.68,-3,-4,VRB,2,,9,30.05,1018.2,,TRUE,,,,,,,,CLR,,,,,,,,VFR,,,,,,,,,,,,METAR,58
CYRJ 050400Z VRB02KT 25SM OVC036 M00/M05 A3001 RMK SC8 SLP173,CYRJ,2023-11-05T04:00:00Z,48.523,-72.266,0,-5,VRB,2,,25,30.01,1017.3,,,,,,,,,,OVC,3600,,,,,,,VFR,,,,,,,,,,,,METAR,173
CYRB 050400Z 35013KT 15SM IC OVC004 M17/M19 A3000 RMK ST8 OVC TPG HILLS E SLP170,CYRB,2023-11-05T04:00:00Z,74.713,-94.982,-17,-19,350,13,,15,30.00,1017,,,,,,,,,IC,OVC,400,,,,,,,LIFR,,,,,,,,,,,,METAR,59
CYQZ 050400Z AUTO 13005KT 9SM CLR 11/05 A2944 RMK SLP983 DENSITY ALT 2300FT,CYQZ,2023-11-05T04:00:00Z,53.027,-122.506,11,5,130,5,,9,29.44,998.3,,TRUE,,,,,,,,CLR,,,,,,,,VFR,,,,,,,,,,,,METAR,548
CYQY 050400Z 17003KT 110V240 15SM -RA OVC080 09/09 A3005 RMK AS8 SLP178,CYQY,2023-11-05T04:00:00Z,46.166,-60.049,9,9,170,3,,15,30.05,1017.8,,,,,,,,,-RA,OVC,8000,,,,,,,VFR,,,,,,,,,,,,METAR,58
CYQX 050400Z 25006KT 20SM SCT028 04/02 A2998 RMK SC4 SLP159,CYQX,2023-11-05T04:00:00Z,48.946,-54.576,4,2,250,6,,20,29.98,1015.9,,,,,,,,,,SCT,2800,,,,,,,VFR,,,,,,,,,,,,METAR,144
CYQV 050400Z AUTO 14010KT 6SM BR OVC010 M00/M01 A2993 RMK SLP165,CYQV,2023-11-05T04:00:00Z,51.26,-102.461,0,-1,140,10,,6,29.93,1016.5,,TRUE,,,,,,,BR,OVC,1000,,,,,,,MVFR,,,,,,,,,,,,METAR,493
CYQU 050400Z 07006KT 6SM BR BKN003 OVC019 00/00 A2951 RMK CF5SC3 SLP025,CYQU,2023-11-05T04:00:00Z,55.182,-118.882,0,0,70,6,,6,29.51,1002.5,,,,,,,,,BR,BKN,300,OVC,1900,,,,,LIFR,,,,,,,,,,,,METAR,668
CYQT 050400Z VRB02KT 15SM OVC032 M02/M07 A3017 RMK SC8 SLP231,CYQT,2023-11-05T04:00:00Z,48.374,-89.33,-2,-7,VRB,2,,15,30.17,1023.1,,,,,,,,,,OVC,3200,,,,,,,VFR,,,,,,,,,,,,METAR,197
CYQR 050400Z 14019G26KT 1SM R13/P6000FT/D BR OVC002 M00/M00 A2984 RMK ST8 SLP134,CYQR,2023-11-05T04:00:00Z,50.427,-104.67,0,0,140,19,26,1,29.84,1013.4,,,,,,,,,BR,OVC,200,,,,,,,LIFR,,,,,,,,,,,,METAR,576
CYQQ 050400Z 17012KT 20SM SCT055 BKN072 13/09 A2964 RMK SC4AC1 DENSITY ALT 298FT SLP039,CYQQ,2023-11-05T04:00:00Z,49.712,-124.895,13,9,170,12,,20,29.64,1003.9,,,,,,,,,,SCT,5500,BKN,7200,,,,,VFR,,,,,,,,,,,,METAR,24
CYQM 050400Z 23005KT 15SM FEW055 04/03 A3004 RMK SC1 SLP178,CYQM,2023-11-05T04:00:00Z,46.107,-64.682,4,3,230,5,,15,30.04,1017.8,,,,,,,,,,FEW,5500,,,,,,,VFR,,,,,,,,,,,,METAR,67
CYQL 050400Z 24021G26KT 20SM FEW260 09/03 A2959 RMK CI2 LAST STFD OBS/NXT 051300Z SLP036 DENSITY ALT 3500FT,CYQL,2023-11-05T04:00:00Z,49.627,-112.792,9,3,240,21,26,20,29.59,1003.6,,,,,,,,,,FEW,26000,,,,,,,VFR,,,,,,,,,,,,METAR,923
CYQK 050400Z 00000KT 20SM BKN031 OVC240 M04/M06 A3014 RMK SC7CI1 SLP232,CYQK,2023-11-05T04:00:00Z,49.791,-94.361,-4,-6,0,0,,20,30.14,1023.2,,,,,,,,,,BKN,3100,OVC,24000,,,,,VFR,,,,,,,,,,,,METAR,413
CYQI 050400Z 36004KT 15SM OVC170 07/07 A3008 RMK AC8 SLP188,CYQI,2023-11-05T04:00:00Z,43.831,-66.088,7,7,360,4,,15,30.08,1018.8,,,,,,,,,,OVC,17000,,,,,,,VFR,,,,,,,,,,,,METAR,37
CYQH 050400Z 07010G15KT 5SM -SN DRSN OVC024 M04/M07 A2951 RMK SC8 SLP034,CYQH,2023-11-05T04:00:00Z,60.116,-128.832,-4,-7,70,10,15,5,29.51,1003.4,,,,,,,,,-SN DRSN,OVC,2400,,,,,,,MVFR,,,,,,,,,,,,METAR,692
CYQG 050400Z AUTO 35004KT 9SM BKN100 08/07 A3010 RMK SLP198,CYQG,2023-11-05T04:00:00Z,42.269,-82.963,8,7,350,4,,9,30.10,1019.8,,TRUE,,,,,,,,BKN,10000,,,,,,,VFR,,,,,,,,,,,,METAR,189
CYQF 050400Z AUTO 36004KT 350V090 9SM OVC180 01/00 A2950 RMK SLP025,CYQF,2023-11-05T04:00:00Z,52.179,-113.903,1,0,360,4,,9,29.50,1002.5,,TRUE,,,,,,,,OVC,18000,,,,,,,VFR,,,,,,,,,,,,METAR,912
CYQD 050400Z AUTO 10005KT 9SM OVC027 M05/M10 A3006 RMK SLP201,CYQD,2023-11-05T04:00:00Z,53.975,-101.089,-5,-10,100,5,,9,30.06,1020.1,,TRUE,,,,,,,,OVC,2700,,,,,,,MVFR,,,,,,,,,,,,METAR,268
CYQB 050400Z 35002KT 15SM FEW044 M02/M03 A3005 RMK SC1 SC TR SLP181,CYQB,2023-11-05T04:00:00Z,46.791,-71.396,-2,-3,350,2,,15,30.05,1018.1,,,,,,,,,,FEW,4400,,,,,,,VFR,,,,,,,,,,,,METAR,73
CYQA 050400Z AUTO 00000KT 9SM BKN028 00/M00 A3007 RMK SLP195,CYQA,2023-11-05T04:00:00Z,44.971,-79.303,0,0,0,0,,9,30.07,1019.5,,TRUE,,,,,,,,BKN,2800,,,,,,,MVFR,,,,,,,,,,,,METAR,277
CYPY 050400Z AUTO 10007KT 9SM FEW140 M07/M10 A2990 RMK SLP147,CYPY,2023-11-05T04:00:00Z,58.766,-111.117,-7,-10,100,7,,9,29.90,1014.7,,TRUE,,,,,,,,FEW,14000,,,,,,,VFR,,,,,,,,,,,,METAR,225
CYPX 050400Z AUTO 33011KT 9SM -SN OVC066 M10/M12 A2956 RMK SLP015,CYPX,2023-11-05T04:00:00Z,60.045,-77.281,-10,-12,330,11,,9,29.56,1001.5,,TRUE,,,,,,,-SN,OVC,6600,,,,,,,VFR,,,,,,,,,,,,METAR,10
CYPR 050400Z AUTO 13015G20KT 9SM -RA OVC096 11/09 A2905 RMK PCPN 0.5MM PAST HR SLP841 DENSITY ALT 700FT,CYPR,2023-11-05T04:00:00Z,54.291,-130.451,11,9,130,15,20,9,29.05,984.1,,TRUE,,,,,,,-RA,OVC,9600,,,,,,,VFR,,,,,,,,,,,,METAR,30
CYPQ 050400Z AUTO 30005KT 9SM OVC055 05/05 A3008 RMK SLP195,CYPQ,2023-11-05T04:00:00Z,44.232,-78.36,5,5,300,5,,9,30.08,1019.5,,TRUE,,,,,,,,OVC,5500,,,,,,,VFR,,,,,,,,,,,,METAR,190
CYPO 050400Z AUTO 28012G19KT 9SM CLR M06/M09 A2999 RMK SLP163,CYPO,2023-11-05T04:00:00Z,54.988,-85.439,-6,-9,280,12,19,9,29.99,1016.3,,TRUE,,,,,,,,CLR,,,,,,,,VFR,,,,,,,,,,,,METAR,49
CYPH 050400Z AUTO 25004KT 9SM BKN039 M13/M14 A2958 RMK SLP023,CYPH,2023-11-05T04:00:00Z,58.47,-78.08,-13,-14,250,4,,9,29.58,1002.3,,TRUE,,,,,,,,BKN,3900,,,,,,,VFR,,,,,,,,,,,,METAR,24
CYPE 050400Z 04009KT 15SM -SN OVC008 M00/M01 A2958 RMK SC8 SLP047,CYPE,2023-11-05T04:00:00Z,56.228,-117.453,0,-1,40,9,,15,29.58,1004.7,,,,,,,,,-SN,OVC,800,,,,,,,IFR,,,,,,,,,,,,METAR,572
CYPA 050400Z 12015KT 6SM BR OVC014 00/M02 A2984 RMK ST8 SLP130,CYPA,2023-11-05T04:00:00Z,53.217,-105.679,0,-2,120,15,,6,29.84,1013,,,,,,,,,BR,OVC,1400,,,,,,,MVFR,,,,,,,,,,,,METAR,428
CYOW 050400Z 00000KT 15SM FEW022 BKN054 00/M03 A3007 RMK SC1SC6 SC TR SLP188,CYOW,2023-11-05T04:00:00Z,45.307,-75.66,0,-3,0,0,,15,30.07,1018.8,,,,,,,,,,FEW,2200,BKN,5400,,,,,VFR,,,,,,,,,,,,METAR,111
CYOO 050400Z AUTO 36006KT 9SM BKN060 BKN190 BKN210 06/04 A3008 RMK SLP192,CYOO,2023-11-05T04:00:00Z,43.921,-78.899,6,4,360,6,,9,30.08,1019.2,,TRUE,,,,,,,,BKN,6000,BKN,19000,BKN,21000,,,VFR,,,,,,,,,,,,METAR,136
CYOJ 050400Z 10005KT 060V130 1 1/2SM -SN OVC021 M04/M05 A2975 RMK SC8 LAST STFD OBS/NXT 051400Z SLP100,CYOJ,2023-11-05T04:00:00Z,58.628,-117.174,-4,-5,100,5,,1.5,29.75,1010,,,,,,,,,-SN,OVC,2100,,,,,,,IFR,,,,,,,,,,,,METAR,339
CYOD 050400Z 07012KT 10SM SCT005 OVC009 00/M00 A2969 RMK ST4ST4 DENSITY ALT 661FT SLP079,CYOD,2023-11-05T04:00:00Z,54.41,-110.287,0,0,70,12,,10+,29.69,1007.9,,,,,,,,,,SCT,500,OVC,900,,,,,IFR,,,,,,,,,,,,METAR,540
CYNE 050400Z AUTO 09004KT 9SM BKN200 BKN220 M11/ A3014 RMK SLP228,CYNE,2023-11-05T04:00:00Z,53.958,-97.845,-11,,90,4,,9,30.14,1022.8,,TRUE,,,,,,,,BKN,20000,BKN,22000,,,,,VFR,,,,,,,,,,,,METAR,220
CYNA 050400Z AUTO 27009KT 9SM CLR 02/M06 A2997 RMK SLP151,CYNA,2023-11-05T04:00:00Z,50.19,-61.789,2,-6,270,9,,9,29.97,1015.1,,TRUE,,,,,,,,CLR,,,,,,,,VFR,,,,,,,,,,,,METAR,9
CYMX 050400Z 00000KT 25SM BKN058 M00/M02 A3007 RMK SC6 SLP187,CYMX,2023-11-05T04:00:00Z,45.68,-74.038,0,-2,0,0,,25,30.07,1018.7,,,,,,,,,,BKN,5800,,,,,,,VFR,,,,,,,,,,,,METAR,78
CYMT 050400Z AUTO 26005KT 9SM -SN OVC036 M04/M06 A2994 RMK SLP165,CYMT,2023-11-05T04:00:00Z,49.779,-74.527,-4,-6,260,5,,9,29.94,1016.5,,TRUE,,,,,,,-SN,OVC,3600,,,,,,,VFR,,,,,,,,,,,,METAR,388
CYMO 050400Z AUTO 30010KT 9SM FEW033 OVC044 M06/M11 A3008 RMK SLP188,CYMO,2023-11-05T04:00:00Z,51.292,-80.607,-6,-11,300,10,,9,30.08,1018.8,,TRUE,,,,,,,,FEW,3300,OVC,4400,,,,,VFR,,,,,,,,,,,,METAR,8
CYMM 050400Z AUTO 09005KT 8SM -SN OVC009 M04/M05 A2978 RMK SLP112,CYMM,2023-11-05T04:00:00Z,56.65,-111.221,-4,-5,90,5,,8,29.78,1011.2,,TRUE,,,,,,,-SN,OVC,900,,,,,,,IFR,,,,,,,,,,,,METAR,371
CYMH 050400Z AUTO 24010KT 200V270 9SM OVC050 00/M05 A2984 RMK SLP108,CYMH,2023-11-05T04:00:00Z,52.304,-55.833,0,-5,240,10,,9,29.84,1010.8,,TRUE,,,,,,,,OVC,5000,,,,,,,VFR,,,,,,,,,,,,METAR,18
CYMA 050400Z 01009KT 340V050 20SM OVC065 M05/M12 A2954 RMK SC8 SLP043,CYMA,2023-11-05T04:00:00Z,63.616,-135.88,-5,-12,10,9,,20,29.54,1004.3,,,,,,,,,,OVC,6500,,,,,,,VFR,,,,,,,,,,,,METAR,519
CYLW 050400Z AUTO 01003KT 9SM OVC033 08/07 A2973 RMK SLP079,CYLW,2023-11-05T04:00:00Z,49.953,-119.375,8,7,10,3,,9,29.73,1007.9,,TRUE,,,,,,,,OVC,3300,,,,,,,VFR,,,,,,,,,,,,METAR,420
CYLL 050400Z 11013KT 10SM BKN085 01/M01 A2963 RMK AC7 LAST STFD OBS/NXT 051400Z SLP064,CYLL,2023-11-05T04:00:00Z,53.312,-110.074,1,-1,110,13,,10+,29.63,1006.4,,,,,,,,,,BKN,8500,,,,,,,VFR,,,,,,,,,,,,METAR,664
CYKY 050400Z 14011KT 15SM FEW050 BKN080 03/01 A2960 RMK SC1AC6 SC TR SLP050,CYKY,2023-11-05T04:00:00Z,51.517,-109.175,3,1,140,11,,15,29.60,1005,,,,,,,,,,FEW,5000,BKN,8000,,,,,VFR,,,,,,,,,,,,METAR,692
CYKP 050400Z AUTO 30005KT 9SM OVC024 M08/M11 A3015 RMK SLP230,CYKP,2023-11-05T04:00:00Z,51.659,-85.901,-8,-11,300,5,,9,30.15,1023,,TRUE,,,,,,,,OVC,2400,,,,,,,MVFR,,,,,,,,,,,,METAR,181
CYKJ 050400Z AUTO 12006KT 9SM BKN150 BKN170 M11/M13 A2997 RMK SLP195,CYKJ,2023-11-05T04:00:00Z,57.256,-105.618,-11,-13,120,6,,9,29.97,1019.5,,TRUE,,,,,,,,BKN,15000,BKN,17000,,,,,VFR,,,,,,,,,,,,METAR,519
CYKF 050400Z AUTO 33005KT 4SM BR SCT046 06/05 A3008 RMK SLP193,CYKF,2023-11-05T04:00:00Z,43.462,-80.386,6,5,330,5,,4,30.08,1019.3,,TRUE,,,,,,,BR,SCT,4600,,,,,,,MVFR,,,,,,,,,,,,METAR,312
CYKA 050400Z 06016G21KT 40SM FEW062 09/05 A2963 RMK SC1 SLP043,CYKA,2023-11-05T04:00:00Z,50.704,-120.444,9,5,60,16,21,40,29.63,1004.3,,,,,,,,,,FEW,6200,,,,,,,VFR,,,,,,,,,,,,METAR,344
CYJT 050400Z 29003KT 15SM BKN034 05/02 A3003 RMK SC5 SLP173,CYJT,2023-11-05T04:00:00Z,48.545,-58.564,5,2,290,3,,15,30.03,1017.3,,,,,,,,,,BKN,3400,,,,,,,VFR,,,,,,,,,,,,METAR,7
CYIV 050400Z AUTO 19006KT 140V200 9SM OVC014 M06/M09 A3016 RMK SLP233,CYIV,2023-11-05T04:00:00Z,53.857,-94.655,-6,-9,190,6,,9,30.16,1023.3,,TRUE,,,,,,,,OVC,1400,,,,,,,MVFR,,,,,,,,,,,,METAR,234
CYIN 050400Z AUTO 15010G17KT 9SM CLR 07/02 A2954 RMK SLP018 DENSITY ALT 4100FT,CYIN,2023-11-05T04:00:00Z,51.265,-121.681,7,2,150,10,17,9,29.54,1001.8,,TRUE,,,,,,,,CLR,,,,,,,,VFR,,,,,,,,,,,,METAR,1127
CYHU 050400Z AUTO 22003KT 9SM OVC066 04/03 A3006 RMK SLP183,CYHU,2023-11-05T04:00:00Z,45.516,-73.415,4,3,220,3,,9,30.06,1018.3,,TRUE,,,,,,,,OVC,6600,,,,,,,VFR,,,,,,,,,,,,METAR,26
CYHM 050400Z 24003KT 15SM OVC042 08/08 A3007 RMK SC8 SLP190,CYHM,2023-11-05T04:00:00Z,43.173,-79.936,8,8,240,3,,15,30.07,1019,,,,,,,,,,OVC,4200,,,,,,,VFR,,,,,,,,,,,,METAR,237
CYHD 050400Z AUTO 00000KT 9SM OVC032 M03/M08 A3013 RMK SLP233,CYHD,2023-11-05T04:00:00Z,49.83,-92.74,-3,-8,0,0,,9,30.13,1023.3,,TRUE,,,,,,,,OVC,3200,,,,,,,VFR,,,,,,,,,,,,METAR,414
CYGX 050400Z 22004KT 15SM SKC M14/M15 A3016 RMK SLP231,CYGX,2023-11-05T04:00:00Z,56.359,-94.704,-14,-15,220,4,,15,30.16,1023.1,,,,,,,,,,SKC,,,,,,,,VFR,,,,,,,,,,,,METAR,145
CYGV 050400Z AUTO VRB02KT 9SM FEW042 M04/M06 A2995 RMK SLP147,CYGV,2023-11-05T04:00:00Z,50.286,-63.606,-4,-6,VRB,2,,9,29.95,1014.7,,TRUE,,,,,,,,FEW,4200,,,,,,,VFR,,,,,,,,,,,,METAR,32
CYGP 050400Z 00000KT 15SM SKC M04/M06 A3002 RMK SLP169,CYGP,2023-11-05T04:00:00Z,48.777,-64.478,-4,-6,0,0,,15,30.02,1016.9,,,,,,,,,,SKC,,,,,,,,VFR,,,,,,,,,,,,METAR,31
CYGL 050400Z 23008KT 4SM -SN OVC038 M06/M08 A2983 RMK SC8 SLP119,CYGL,2023-11-05T04:00:00Z,53.625,-77.7,-6,-8,230,8,,4,29.83,1011.9,,,,,,,,,-SN,OVC,3800,,,,,,,MVFR,,,,,,,,,,,,METAR,192
CYFS 050400Z 34008KT 3SM -SN VV033 M08/M09 A2992 RMK SN8 SLP148,CYFS,2023-11-05T04:00:00Z,61.76,-121.23,-8,-9,340,8,,3,29.92,1014.8,,,,,,,,,-SN,OVX,0,,,,,,,MVFR,,,,,,,,,,,3300,METAR,174
CYFC 050400Z AUTO 30003KT 260V330 9SM FEW055 00/M01 A3006 RMK SLP184,CYFC,2023-11-05T04:00:00Z,45.873,-66.539,0,-1,300,3,,9,30.06,1018.4,,TRUE,,,,,,,,FEW,5500,,,,,,,VFR,,,,,,,,,,,,METAR,16
CYFB 050400Z 03030G39KT 12SM -SN DRSN BKN070 M03/M07 A2937 RMK AC6 PRESFR SLP951,CYFB,2023-11-05T04:00:00Z,63.75,-68.544,-3,-7,30,30,39,12,29.37,995.1,,,,,,,,,-SN DRSN,BKN,7000,,,,,,,VFR,,,,,,,,,,,,METAR,23
CYEV 050400Z 07012G17KT 15SM -SN SCT024 BKN034 M11/M15 A3014 RMK SC3SC4 SLP216,CYEV,2023-11-05T04:00:00Z,68.309,-133.5,-11,-15,70,12,17,15,30.14,1021.6,,,,,,,,,-SN,SCT,2400,BKN,3400,,,,,VFR,,,,,,,,,,,,METAR,74
CYET 050400Z AUTO 00000KT 6SM BR OVC010 01/00 A2953 RMK SLP036,CYET,2023-11-05T04:00:00Z,53.58,-116.455,1,0,0,0,,6,29.53,1003.6,,TRUE,,,,,,,BR,OVC,1000,,,,,,,MVFR,,,,,,,,,,,,METAR,925
CYER 050400Z AUTO 27013G20KT 9SM FEW021 SCT240 M06/M09 A3004 RMK SLP175,CYER,2023-11-05T04:00:00Z,56.019,-87.675,-6,-9,270,13,20,9,30.04,1017.5,,TRUE,,,,,,,,FEW,2100,SCT,24000,,,,,VFR,,,,,,,,,,,,METAR,11
CYEN 050400Z AUTO 13011G17KT 3SM BR OVC003 M00/M01 A2992 RMK SLP161,CYEN,2023-11-05T04:00:00Z,49.207,-102.963,0,-1,130,11,17,3,29.92,1016.1,,TRUE,,,,,,,BR,OVC,300,,,,,,,LIFR,,,,,,,,,,,,METAR,580
CYEG 050400Z 10006KT 20SM FEW100 SCT180 OVC210 03/01 A2953 RMK AC1AS3CS4 SLP027,CYEG,2023-11-05T04:00:00Z,53.308,-113.592,3,1,100,6,,20,29.53,1002.7,,,,,,,,,,FEW,10000,SCT,18000,OVC,21000,,,VFR,,,,,,,,,,,,METAR,710
CYDN 050400Z AUTO 13007KT 9SM SCT048 OVC100 00/M04 A3004 RMK SLP190,CYDN,2023-11-05T04:00:00Z,51.1,-100.057,0,-4,130,7,,9,30.04,1019,,TRUE,,,,,,,,SCT,4800,OVC,10000,,,,,VFR,,,,,,,,,,,,METAR,302
CYDL 050400Z AUTO 36010G19KT 320V050 9SM OVC060 00/M05 A2926 RMK SLP929,CYDL,2023-11-05T04:00:00Z,58.426,-130.025,0,-5,360,10,19,9,29.26,992.9,,TRUE,,,,,,,,OVC,6000,,,,,,,VFR,,,,,,,,,,,,METAR,804
CYDF 050400Z 00000KT 15SM FEW030 01/00 A3000 RMK SC1 SLP163,CYDF,2023-11-05T04:00:00Z,49.212,-57.394,1,0,0,0,,15,30.00,1016.3,,,,,,,,,,FEW,3000,,,,,,,VFR,,,,,,,,,,,,METAR,15
CYDB 050400Z AUTO 30006KT 5SM -SN OVC004 M06/M06 A2938 RMK SLP000,CYDB,2023-11-05T04:00:00Z,61.37,-139.032,-6,-6,300,6,,5,29.38,1000,,TRUE,,,,,,,-SN,OVC,400,,,,,,,LIFR,,,,,,,,,,,,METAR,807
CYCY 050400Z AUTO 32016KT 4SM -SN OVC055 M06/M07 A2975 RMK SLP079,CYCY,2023-11-05T04:00:00Z,70.484,-68.515,-6,-7,320,16,,4,29.75,1007.9,,TRUE,,,,,,,-SN,OVC,5500,,,,,,,MVFR,,,,,,,,,,,,METAR,73
CYCO 050400Z 23005KT 12SM -SN OVC024 M09/M13 A3021 RMK SC8 SLP235,CYCO,2023-11-05T04:00:00Z,67.817,-115.135,-9,-13,230,5,,12,30.21,1023.5,,,,,,,,,-SN,OVC,2400,,,,,,,MVFR,,,,,,,,,,,,METAR,20
CYCK 050400Z AUTO 01003KT 9SM CLR 08/07 A3008 RMK SLP193,CYCK,2023-11-05T04:00:00Z,42.307,-82.085,8,7,10,3,,9,30.08,1019.3,,TRUE,,,,,,,,CLR,,,,,,,,VFR,,,,,,,,,,,,METAR,196
CYCG 050400Z 14002KT 1 1/2SM -DZ BR SCT002 BKN007 OVC029 06/06 A2979 RMK SF4SF3SC1 LAST STFD OBS/NXT 051300Z SLP103,CYCG,2023-11-05T04:00:00Z,49.295,-117.634,6,6,140,2,,1.5,29.79,1010.3,,,,,,,,,-DZ BR,SCT,200,BKN,700,OVC,2900,,,IFR,,,,,,,,,,,,METAR,487
CYCD 050400Z 18005KT 15SM FEW015 BKN050 12/09 A2972 RMK SC2SC3 LAST STFD OBS/NEXT 051200Z SLP065,CYCD,2023-11-05T04:00:00Z,49.052,-123.874,12,9,180,5,,15,29.72,1006.5,,,,,,,,,,FEW,1500,BKN,5000,,,,,VFR,,,,,,,,,,,,METAR,30
CYCA 050400Z AUTO 27012G21KT 9SM SCT040 M01/M07 A2978 RMK SLP086,CYCA,2023-11-05T04:00:00Z,53.683,-57.042,-1,-7,270,12,21,9,29.78,1008.6,,TRUE,,,,,,,,SCT,4000,,,,,,,VFR,,,,,,,,,,,,METAR,12
CYBX 050400Z 28010KT 15SM BKN052 00/M06 A2991 RMK SC6 SLP133,CYBX,2023-11-05T04:00:00Z,51.442,-57.188,0,-6,280,10,,15,29.91,1013.3,,,,,,,,,,BKN,5200,,,,,,,VFR,,,,,,,,,,,,METAR,32
CYBW 050400Z AUTO 30004KT 9SM OVC170 06/00 A2958 RMK ICE MISG SLP051 DENSITY ALT 4200FT,CYBW,2023-11-05T04:00:00Z,51.108,-114.382,6,0,300,4,,9,29.58,1005.1,,TRUE,,,,,,,,OVC,17000,,,,,,,VFR,,,,,,,,,,,,METAR,1197
CYBU 050400Z AUTO 05008KT 9SM OVC032 M02/M03 A2993 RMK SLP160,CYBU,2023-11-05T04:00:00Z,53.333,-104.005,-2,-3,50,8,,9,29.93,1016,,TRUE,,,,,,,,OVC,3200,,,,,,,VFR,,,,,,,,,,,,METAR,369
CYBR 050400Z 13007KT 15SM BKN016 OVC094 M01/M02 A3005 RMK SC6AC2 SLP200,CYBR,2023-11-05T04:00:00Z,49.91,-99.945,-1,-2,130,7,,15,30.05,1020,,,,,,,,,,BKN,1600,OVC,9400,,,,,MVFR,,,,,,,,,,,,METAR,405
CYBL 050400Z 15007KT 15SM FEW040 BKN055 BKN080 11/09 A2962 RMK SC1SC4AC1 LAST STFD OBS/NEXT 051400 UTC SLP033,CYBL,2023-11-05T04:00:00Z,49.951,-125.269,11,9,150,7,,15,29.62,1003.3,,,,,,,,,,FEW,4000,BKN,5500,BKN,8000,,,VFR,,,,,,,,,,,,METAR,94
CYBG 050400Z 27004KT 25SM BKN035 M01/M04 A3004 RMK SC7 DENSITY ALT -1379FT SLP182,CYBG,2023-11-05T04:00:00Z,48.331,-70.989,-1,-4,270,4,,25,30.04,1018.2,,,,,,,,,,BKN,3500,,,,,,,VFR,,,,,,,,,,,,METAR,151
CYBC 050400Z AUTO 26004KT 9SM SCT046 M01/M05 A3001 RMK SLP165,CYBC,2023-11-05T04:00:00Z,49.135,-68.202,-1,-5,260,4,,9,30.01,1016.5,,TRUE,,,,,,,,SCT,4600,,,,,,,VFR,,,,,,,,,,,,METAR,20
CYAY 050400Z AUTO 27013G19KT 9SM FEW050 00/M06 A2990 RMK SLP128,CYAY,2023-11-05T04:00:00Z,51.39,-56.081,0,-6,270,13,19,9,29.90,1012.8,,TRUE,,,,,,,,FEW,5000,,,,,,,VFR,,,,,,,,,,,,METAR,23
CYAT 050400Z AUTO 27011KT 9SM CLR M08/M11 A3003 RMK SLP173,CYAT,2023-11-05T04:00:00Z,52.927,-82.432,-8,-11,270,11,,9,30.03,1017.3,,TRUE,,,,,,,,CLR,,,,,,,,VFR,,,,,,,,,,,,METAR,4
CYAM 050400Z 33002KT 20SM BKN040 OVC072 04/M01 A3011 RMK SC6AC2 SLP207,CYAM,2023-11-05T04:00:00Z,46.484,-84.504,4,-1,330,2,,20,30.11,1020.7,,,,,,,,,,BKN,4000,OVC,7200,,,,,VFR,,,,,,,,,,,,METAR,186
CYAH 050400Z AUTO 23017G24KT 9SM BKN018 BKN026 OVC036 M07/M10 A2978 RMK SLP110,CYAH,2023-11-05T04:00:00Z,53.757,-73.676,-7,-10,230,17,24,9,29.78,1011,,TRUE,,,,,,,,BKN,1800,BKN,2600,OVC,3600,,,MVFR,,,,,,,,,,,,METAR,298
CXZV 050400Z AUTO 30002KT M02/M06 RMK AO1 SLP149 T10221063 58006,CXZV,2023-11-05T04:00:00Z,50.217,-66.26,-2.2,-6.3,300,2,,,0.00,1014.9,,TRUE,TRUE,,,,,,,,,,,,,,,VFR,-0.06,,,,,,,,,,,METAR,43
CXZC 050400Z AUTO 31005KT M06/M11 RMK AO1 SOG 01 3012 SLP195 T10551109,CXZC,2023-11-05T04:00:00Z,51.292,-80.618,-5.5,-10.9,310,5,,,0.00,1019.5,,TRUE,TRUE,,,,,,,,,,,,,,,VFR,,,,,,,,,,,,METAR,8
CXYH 050400Z AUTO 07001KT M08/M10 RMK AO1 T10791097,CXYH,2023-11-05T04:00:00Z,61.242,-123.742,-7.9,-9.7,70,1,,,0.00,,,TRUE,TRUE,,,,,,,,,,,,,,,VFR,,,,,,,,,,,,METAR,197
CXWN 050400Z AUTO 11001KT M00/M03 RMK AO1 SLP217 T10021029 58008,CXWN,2023-11-05T04:00:00Z,49.889,-97.13,-0.2,-2.9,110,1,,,0.00,1021.7,,TRUE,TRUE,,,,,,,,,,,,,,,VFR,-0.08,,,,,,,,,,,METAR,232
CXWM 050400Z AUTO 20020KT 08/04 RMK AO1 PK WND 20023/0355 T00810039,CXWM,2023-11-05T04:00:00Z,49.495,-112.113,8.1,3.9,200,20,,,0.00,,,TRUE,TRUE,,,,,,,,,,,,,,,VFR,,,,,,,,,,,,METAR,947
CXVW 050400Z AUTO 06004KT 01/M01 RMK AO1 SLP020 T00061008 58006,CXVW,2023-11-05T04:00:00Z,55.098,-117.199,0.6,-0.8,60,4,,,0.00,1002,,TRUE,TRUE,,,,,,,,,,,,,,,VFR,-0.06,,,,,,,,,,,METAR,696
CXVN 050400Z AUTO 24004KT 09/07 RMK AO1 8007 SLP190 T00910073 50002,CXVN,2023-11-05T04:00:00Z,43.183,-79.4,9.1,7.3,240,4,,,0.00,1019,,TRUE,TRUE,,,,,,,,,,,,,,,VFR,0.02,,,,,,,,,,,METAR,86
CXVM 050400Z AUTO 12009KT 03/M01 RMK AO1 T00341006,CXVM,2023-11-05T04:00:00Z,53.344,-110.882,3.4,-0.6,120,9,,,0.00,,,TRUE,TRUE,,,,,,,,,,,,,,,VFR,,,,,,,,,,,,METAR,622
CXTP 050400Z AUTO 24006KT 05/04 RMK AO1 SLP157 T00520042 52004,CXTP,2023-11-05T04:00:00Z,48.557,-53.975,5.2,4.2,240,6,,,0.00,1015.7,,TRUE,TRUE,,,,,,,,,,,,,,,VFR,0.04,,,,,,,,,,,METAR,104
CXTO 050400Z AUTO 09/04 RMK AO1 SLP191 T00880041 58004,CXTO,2023-11-05T04:00:00Z,43.667,-79.4,8.8,4.1,,,,,0.00,1019.1,,TRUE,TRUE,,,,,,,,,,,,,,,VFR,-0.04,,,,,,,,,,,METAR,115
CXTN 050400Z AUTO 02002KT M13/M15 RMK AO1 1PAST HR SOG 91 8004 SLP241 P0000 T11311147 50003,CXTN,2023-11-05T04:00:00Z,69.199,-122.359,-13.1,-14.7,20,2,,,0.00,1024.1,,TRUE,TRUE,,,,,,,,,,,,,,,VFR,0.03,,,,,0.005,,,,,,METAR,564
CXTH 050400Z AUTO 10009KT 03/01 RMK AO1 T00290013,CXTH,2023-11-05T04:00:00Z,53.625,-111.678,2.9,1.3,100,9,,,0.00,,,TRUE,TRUE,,,,,,,,,,,,,,,VFR,,,,,,,,,,,,METAR,679
CXTD 050400Z AUTO 22006KT 09/05 RMK AO1 SOG 01 6007 SLP195 T00860049,CXTD,2023-11-05T04:00:00Z,45.608,-61.68,8.6,4.9,220,6,,,0.00,1019.5,,TRUE,TRUE,,,,,,,,,,,,,,,VFR,,,,,,,,,,,,METAR,58
CXSP 050400Z AUTO 09008KT 02/M01 RMK AO1 T00201006,CXSP,2023-11-05T04:00:00Z,54.011,-111.272,2,-0.6,90,8,,,0.00,,,TRUE,TRUE,,,,,,,,,,,,,,,VFR,,,,,,,,,,,,METAR,652
CXSL 050400Z AUTO 09009KT 01/M00 RMK AO1 T00141003,CXSL,2023-11-05T04:00:00Z,54.278,-112.499,1.4,-0.3,90,9,,,0.00,,,TRUE,TRUE,,,,,,,,,,,,,,,VFR,,,,,,,,,,,,METAR,680
CXSH 050400Z AUTO 34003KT M02/M04 RMK AO1 SLP184 T10161038 56013,CXSH,2023-11-05T04:00:00Z,46.564,-72.733,-1.6,-3.8,340,3,,,0.00,1018.4,,TRUE,TRUE,,,,,,,,,,,,,,,VFR,-0.13,,,,,,,,,,,METAR,106
CXSE 050400Z AUTO 34010KT RMK AO1 56011,CXSE,2023-11-05T04:00:00Z,73.766,-105.296,,,340,10,,,0.00,,,TRUE,TRUE,,,,,,,,,,,,,,,VFR,-0.11,,,,,,,,,,,METAR,11
CXSC 050400Z AUTO 22016KT 08/04 RMK AO1 PK WND 22018/0326 T00750041,CXSC,2023-11-05T04:00:00Z,50.304,-110.089,7.5,4.1,220,16,,,0.00,,,TRUE,TRUE,,,,,,,,,,,,,,,VFR,,,,,,,,,,,,METAR,809
CXRL 050400Z AUTO 11011KT M00/M00 RMK AO1 PK WND 11019/0303 T10041003,CXRL,2023-11-05T04:00:00Z,54.503,-111.691,-0.4,-0.3,110,11,,,0.00,,,TRUE,TRUE,,,,,,,,,,,,,,,VFR,,,,,,,,,,,,METAR,585
CXRH 050400Z AUTO 28006KT 03/M02 RMK AO1 SLP165 T00301017 50000,CXRH,2023-11-05T04:00:00Z,49.57,-57.878,3,-1.7,280,6,,,0.00,1016.5,,TRUE,TRUE,,,,,,,,,,,,,,,VFR,,,,,,,,,,,,METAR,68
CXRB 050400Z AUTO 34009KT M17/M20 RMK AO1 SOG 01 8010 SLP166 T11651195,CXRB,2023-11-05T04:00:00Z,74.716,-94.983,-16.5,-19.5,340,9,,,0.00,1016.6,,TRUE,TRUE,,,,,,,,,,,,,,,VFR,,,,,,,,,,,,METAR,30
CXPL 050400Z AUTO 09005KT 04/02 RMK AO1 T00420015,CXPL,2023-11-05T04:00:00Z,51.128,-111.705,4.2,1.5,90,5,,,0.00,,,TRUE,TRUE,,,,,,,,,,,,,,,VFR,,,,,,,,,,,,METAR,735
CXPC 050400Z AUTO M00/M02 RMK AO1 SLP199 T10021017 58007,CXPC,2023-11-05T04:00:00Z,45.344,-80.044,-0.2,-1.7,,,,,0.00,1019.9,,TRUE,TRUE,,,,,,,,,,,,,,,VFR,-0.07,,,,,,,,,,,METAR,176
CXPA 050400Z AUTO 08007KT M00/M00 RMK AO1 7PAST HR M P0003 T10031001 50016,CXPA,2023-11-05T04:00:00Z,55.621,-118.293,-0.3,-0.1,80,7,,,0.00,,,TRUE,TRUE,,,,,,,,,,,,,,,VFR,0.16,,,,,0.03,,,,,,METAR,628
CXOY 050400Z AUTO 17013KT 04/02 RMK AO1 T00390017,CXOY,2023-11-05T04:00:00Z,51.366,-110.343,3.9,1.7,170,13,,,0.00,,,TRUE,TRUE,,,,,,,,,,,,,,,VFR,,,,,,,,,,,,METAR,784
CXOX 050400Z AUTO 11009KT M04/M06 RMK AO1 SOG 01 6018 SLP161 T10421060,CXOX,2023-11-05T04:00:00Z,55.146,-105.27,-4.2,-6,110,9,,,0.00,1016.1,,TRUE,TRUE,,,,,,,,,,,,,,,VFR,,,,,,,,,,,,METAR,381
CXOL 050400Z AUTO 22012KT 06/01 RMK AO1 T00640009,CXOL,2023-11-05T04:00:00Z,51.76,-114.077,6.4,0.9,220,12,,,0.00,,,TRUE,TRUE,,,,,,,,,,,,,,,VFR,,,,,,,,,,,,METAR,1026
CXNP 050400Z AUTO 00000KT 05/04 RMK AO1 SOG 07 8006 SLP177 T00500039,CXNP,2023-11-05T04:00:00Z,45.76,-64.241,5,3.9,0,0,,,0.00,1017.7,,TRUE,TRUE,,,,,,,,,,,,,,,VFR,,,,,,,,,,,,METAR,19
CXNM 050400Z AUTO 22004KT 04/03 RMK AO1 T00410031,CXNM,2023-11-05T04:00:00Z,46.818,-60.673,4.1,3.1,220,4,,,0.00,,,TRUE,TRUE,,,,,,,,,,,,,,,VFR,,,,,,,,,,,,METAR,452
CXMY 050400Z AUTO 07/07 RMK AO1 T00650073,CXMY,2023-11-05T04:00:00Z,44.984,-62.484,6.5,7.3,,,,,0.00,,,TRUE,TRUE,,,,,,,,,,,,,,,VFR,,,,,,,,,,,,METAR,37
CXMO 050400Z AUTO 18008KT 04/02 RMK AO1 T00440024,CXMO,2023-11-05T04:00:00Z,51.671,-112.678,4.4,2.4,180,8,,,0.00,,,TRUE,TRUE,,,,,,,,,,,,,,,VFR,,,,,,,,,,,,METAR,837
CXMM 050400Z AUTO 09006KT M04/M05 RMK AO1 SOG 01 8022 SLP111 T10381052,CXMM,2023-11-05T04:00:00Z,56.649,-111.221,-3.8,-5.2,90,6,,,0.00,1011.1,,TRUE,TRUE,,,,,,,,,,,,,,,VFR,,,,,,,,,,,,METAR,372
CXMI 050400Z AUTO 30003KT 10/08 RMK AO1 SLP177 T00950078 58011,CXMI,2023-11-05T04:00:00Z,44.602,-63.534,9.5,7.8,300,3,,,0.00,1017.7,,TRUE,TRUE,,,,,,,,,,,,,,,VFR,-0.11,,,,,,,,,,,METAR,15
CXMG 050400Z AUTO 03008KT M02/M02 RMK AO1 T10161021,CXMG,2023-11-05T04:00:00Z,56.974,-117.451,-1.6,-2.1,30,8,,,0.00,,,TRUE,TRUE,,,,,,,,,,,,,,,VFR,,,,,,,,,,,,METAR,467
CXMD 050400Z AUTO 17005KT M04/M04 RMK AO1 SOG 05 8008 SLP212 T10371043,CXMD,2023-11-05T04:00:00Z,49.188,-98.084,-3.7,-4.3,170,5,,,0.00,1021.2,,TRUE,TRUE,,,,,,,,,,,,,,,VFR,,,,,,,,,,,,METAR,297
CXLL 050400Z AUTO 08003KT M07/M09 RMK AO1 3PAST HR SOG 06 8010 SLP154 P0001 T10741090 50013,CXLL,2023-11-05T04:00:00Z,61.125,-122.851,-7.4,-9,80,3,,,0.00,1015.4,,TRUE,TRUE,,,,,,,,,,,,,,,VFR,0.13,,,,,0.01,,,,,,METAR,180
CXLB 050400Z AUTO 28005KT 09/07 RMK AO1 SLP180 T00930071 58009,CXLB,2023-11-05T04:00:00Z,44.36,-64.296,9.3,7.1,280,5,,,0.00,1018,,TRUE,TRUE,,,,,,,,,,,,,,,VFR,-0.09,,,,,,,,,,,METAR,4
CXKT 050400Z AUTO 21003KT 09/05 RMK AO1 SLP183 T00940050 56008,CXKT,2023-11-05T04:00:00Z,45.067,-64.478,9.4,5,210,3,,,0.00,1018.3,,TRUE,TRUE,,,,,,,,,,,,,,,VFR,-0.08,,,,,,,,,,,METAR,48
CXKM 050400Z AUTO 12008KT 03/M00 RMK AO1 T00251001,CXKM,2023-11-05T04:00:00Z,52.849,-111.873,2.5,-0.1,120,8,,,0.00,,,TRUE,TRUE,,,,,,,,,,,,,,,VFR,,,,,,,,,,,,METAR,679
CXKI 050400Z AUTO 00000KT M03/M04 RMK AO1 SLP180 T10301038 50000,CXKI,2023-11-05T04:00:00Z,48.15,-80,-3,-3.8,0,0,,,0.00,1018,,TRUE,TRUE,,,,,,,,,,,,,,,VFR,,,,,,,,,,,,METAR,328
CXKE 050400Z AUTO 30001KT 03/02 RMK AO1 SLP184 T00340015 58010,CXKE,2023-11-05T04:00:00Z,45.005,-75.637,3.4,1.5,300,1,,,0.00,1018.4,,TRUE,TRUE,,,,,,,,,,,,,,,VFR,-0.1,,,,,,,,,,,METAR,99
CXKA 050400Z AUTO 31005KT M05/M09 RMK AO1 PK WND 30018/0311 SLP214 T10501094 53017,CXKA,2023-11-05T04:00:00Z,49.405,-82.443,-5,-9.4,310,5,,,0.00,1021.4,,TRUE,TRUE,,,,,,,,,,,,,,,VFR,0.17,,,,,,,,,,,METAR,221
CXIB 050400Z AUTO 00000KT 05/05 RMK AO1 SLP171 T00540049 51002,CXIB,2023-11-05T04:00:00Z,46.663,-60.406,5.4,4.9,0,0,,,0.00,1017.1,,TRUE,TRUE,,,,,,,,,,,,,,,VFR,0.02,,,,,,,,,,,METAR,6
CXHR 050400Z AUTO 23008KT 06/03 RMK AO1 T00600028,CXHR,2023-11-05T04:00:00Z,51.191,-112.503,6,2.8,230,8,,,0.00,,,TRUE,TRUE,,,,,,,,,,,,,,,VFR,,,,,,,,,,,,METAR,975
CXHP 050400Z AUTO 08008KT 01/M00 RMK AO1 T00111003,CXHP,2023-11-05T04:00:00Z,55.396,-116.48,1.1,-0.3,80,8,,,0.00,,,TRUE,TRUE,,,,,,,,,,,,,,,VFR,,,,,,,,,,,,METAR,601
CXHM 050400Z AUTO 03002KT 09/07 RMK AO1 SLP191 T00900066 58006,CXHM,2023-11-05T04:00:00Z,43.286,-79.905,9,6.6,30,2,,,0.00,1019.1,,TRUE,TRUE,,,,,,,,,,,,,,,VFR,-0.06,,,,,,,,,,,METAR,105
CXHD 050400Z AUTO 11008KT 02/M00 RMK AO1 T00231003,CXHD,2023-11-05T04:00:00Z,53.185,-112.246,2.3,-0.3,110,8,,,0.00,,,TRUE,TRUE,,,,,,,,,,,,,,,VFR,,,,,,,,,,,,METAR,688
CXHA 050400Z AUTO 32002KT 08/06 RMK AO1 SLP193 T00780056 58001,CXHA,2023-11-05T04:00:00Z,42.033,-82.896,7.8,5.6,320,2,,,0.00,1019.3,,TRUE,TRUE,,,,,,,,,,,,,,,VFR,-0.01,,,,,,,,,,,METAR,193
CXGH 050400Z AUTO 20004KT M00/M03 RMK AO1 SLP219 T10021032 58004,CXGH,2023-11-05T04:00:00Z,50.631,-96.984,-0.2,-3.2,200,4,,,0.00,1021.9,,TRUE,TRUE,,,,,,,,,,,,,,,VFR,-0.04,,,,,,,,,,,METAR,217
CXFR 050400Z AUTO 06013KT M01/M01 RMK AO1 9PAST HR M PK WND 07017/0304 P0004 T10071007 50009,CXFR,2023-11-05T04:00:00Z,56.081,-118.44,-0.7,-0.7,60,13,,,0.00,,,TRUE,TRUE,,,,,,,,,,,,,,,VFR,0.09,,,,,0.04,,,,,,METAR,657
CXFM 050400Z AUTO 20019KT 10/04 RMK AO1 PK WND 20025/0333 T00960035,CXFM,2023-11-05T04:00:00Z,49.483,-111.486,9.6,3.5,200,19,,,0.00,,,TRUE,TRUE,,,,,,,,,,,,,,,VFR,,,,,,,,,,,,METAR,884
CXET 050400Z AUTO 00000KT 03/02 RMK AO1 SLP197 T00330020 58005,CXET,2023-11-05T04:00:00Z,44.234,-79.779,3.3,2,0,0,,,0.00,1019.7,,TRUE,TRUE,,,,,,,,,,,,,,,VFR,-0.05,,,,,,,,,,,METAR,250
CXEG 050400Z AUTO 10005KT 03/01 RMK AO1 SLP023 T00310005 56011,CXEG,2023-11-05T04:00:00Z,53.307,-113.606,3.1,0.5,100,5,,,0.00,1002.3,,TRUE,TRUE,,,,,,,,,,,,,,,VFR,-0.11,,,,,,,,,,,METAR,706
CXEC 050400Z AUTO 10006KT 04/M00 RMK AO1 SLP026 T00421001 58012,CXEC,2023-11-05T04:00:00Z,53.573,-113.517,4.2,-0.1,100,6,,,0.00,1002.6,,TRUE,TRUE,,,,,,,,,,,,,,,VFR,-0.12,,,,,,,,,,,METAR,666
CXEA 050400Z AUTO 17001KT M07/M08 RMK AO1 SOG 03 3003 SLP220 T10721080,CXEA,2023-11-05T04:00:00Z,50.631,-93.221,-7.2,-8,170,1,,,0.00,1022,,TRUE,TRUE,,,,,,,,,,,,,,,VFR,,,,,,,,,,,,METAR,351
CXDW 050400Z AUTO 14006KT M02/M03 RMK AO1 SOG 10 8012 SLP209 T10221032,CXDW,2023-11-05T04:00:00Z,49.4,-98.319,-2.2,-3.2,140,6,,,0.00,1020.9,,TRUE,TRUE,,,,,,,,,,,,,,,VFR,,,,,,,,,,,,METAR,341
CXDK 050400Z AUTO M07/M10 RMK AO1 SOG 01 8008 SLP128 T10731104,CXDK,2023-11-05T04:00:00Z,61.257,-124.468,-7.3,-10.4,,,,,0.00,1012.8,,TRUE,TRUE,,,,,,,,,,,,,,,VFR,,,,,,,,,,,,METAR,269
CXDI 050400Z AUTO 00000KT 07/07 RMK AO1 0PAST HR 8010 SLP189 P0004 T00740069 50042,CXDI,2023-11-05T04:00:00Z,42.864,-80.545,7.4,6.9,0,0,,,0.00,1018.9,,TRUE,TRUE,,,,,,,,,,,,,,,VFR,0.42,,,,,0.04,,,,,,METAR,234
CXDE 050400Z AUTO 12004KT M08/M10 RMK AO1 SOG 22 6008 SLP188 T10841100 50002,CXDE,2023-11-05T04:00:00Z,65.209,-123.434,-8.4,-10,120,4,,,0.00,1018.8,,TRUE,TRUE,,,,,,,,,,,,,,,VFR,0.02,,,,,,,,,,,METAR,208
CXDB 050400Z AUTO 22009KT 06/02 RMK AO1 PK WND 23019/0328 T00620021,CXDB,2023-11-05T04:00:00Z,49.048,-112.808,6.2,2.1,220,9,,,0.00,,,TRUE,TRUE,,,,,,,,,,,,,,,VFR,,,,,,,,,,,,METAR,1311
CXCS 050400Z AUTO 13008KT 03/01 RMK AO1 T00260009,CXCS,2023-11-05T04:00:00Z,51.942,-110.708,2.6,0.9,130,8,,,0.00,,,TRUE,TRUE,,,,,,,,,,,,,,,VFR,,,,,,,,,,,,METAR,771
CXCP 050400Z AUTO 24013KT 07/02 RMK AO1 T00710023,CXCP,2023-11-05T04:00:00Z,50.281,-113.35,7.1,2.3,240,13,,,0.00,,,TRUE,TRUE,,,,,,,,,,,,,,,VFR,,,,,,,,,,,,METAR,999
CXCK 050400Z AUTO 31006KT M02/M04 RMK AO1 SOG 07 8007 SLP001 T10181035,CXCK,2023-11-05T04:00:00Z,62.115,-136.192,-1.8,-3.5,310,6,,,0.00,1000.1,,TRUE,TRUE,,,,,,,,,,,,,,,VFR,,,,,,,,,,,,METAR,526
CXCD 050400Z AUTO 04008KT M01/M01 RMK AO1 7PAST HR M P0007 T10111013 50022,CXCD,2023-11-05T04:00:00Z,56.314,-119.745,-1.1,-1.3,40,8,,,0.00,,,TRUE,TRUE,,,,,,,,,,,,,,,VFR,0.22,,,,,0.07,,,,,,METAR,628
CXCA 050400Z AUTO 34002KT M01/M07 RMK AO1 SLP222 T10081066 53005,CXCA,2023-11-05T04:00:00Z,49.154,-88.344,-0.8,-6.6,340,2,,,0.00,1022.2,,TRUE,TRUE,,,,,,,,,,,,,,,VFR,0.05,,,,,,,,,,,METAR,228
CXBW 050400Z AUTO 23014KT 08/04 RMK AO1 PK WND 23017/0305 T00770040,CXBW,2023-11-05T04:00:00Z,49.801,-112.303,7.7,4,230,14,,,0.00,,,TRUE,TRUE,,,,,,,,,,,,,,,VFR,,,,,,,,,,,,METAR,823
CXBR 050400Z AUTO 24020KT 10/03 RMK AO1 PK WND 24029/0348 T00970030,CXBR,2023-11-05T04:00:00Z,49.62,-113.819,9.7,3,240,20,,,0.00,,,TRUE,TRUE,,,,,,,,,,,,,,,VFR,,,,,,,,,,,,METAR,1137
CXBO 050400Z AUTO 27004KT M00/M03 RMK AO1 T10031028,CXBO,2023-11-05T04:00:00Z,46.837,-71.197,-0.3,-2.8,270,4,,,0.00,,,TRUE,TRUE,,,,,,,,,,,,,,,VFR,,,,,,,,,,,,METAR,8
CXBK 050400Z AUTO 14019KT 00/M00 RMK AO1 PK WND 14022/0332 SLP125 T00001003 57029,CXBK,2023-11-05T04:00:00Z,50.201,-104.71,0,-0.3,140,19,,,0.00,1012.5,,TRUE,TRUE,,,,,,,,,,,,,,,VFR,-0.29,,,,,,,,,,,METAR,585
CXBI 050400Z AUTO 35001KT 01/M00 RMK AO1 SLP203 T00051002 58003,CXBI,2023-11-05T04:00:00Z,44.484,-79.546,0.5,-0.2,350,1,,,0.00,1020.3,,TRUE,TRUE,,,,,,,,,,,,,,,VFR,-0.03,,,,,,,,,,,METAR,287
CXBA 050400Z AUTO 14012KT 03/02 RMK AO1 PK WND 14019/0309 T00330015,CXBA,2023-11-05T04:00:00Z,52.124,-110.101,3.3,1.5,140,12,,,0.00,,,TRUE,TRUE,,,,,,,,,,,,,,,VFR,,,,,,,,,,,,METAR,696
CXAT 050400Z AUTO 35001KT M08/M11 RMK AO1 SOG 01 7012 SLP112 T10751108 50002,CXAT,2023-11-05T04:00:00Z,73.006,-85.033,-7.5,-10.8,350,1,,,0.00,1011.2,,TRUE,TRUE,,,,,,,,,,,,,,,VFR,0.02,,,,,,,,,,,METAR,10
CXAK 050400Z AUTO 13008KT 03/03 RMK AO1 T00270027,CXAK,2023-11-05T04:00:00Z,52.349,-112.591,2.7,2.7,130,8,,,0.00,,,TRUE,TRUE,,,,,,,,,,,,,,,VFR,,,,,,,,,,,,METAR,799
CXAJ 050400Z AUTO 09010KT 01/M00 RMK AO1 T00091002,CXAJ,2023-11-05T04:00:00Z,54.785,-112.819,0.9,-0.2,90,10,,,0.00,,,TRUE,TRUE,,,,,,,,,,,,,,,VFR,,,,,,,,,,,,METAR,586
CXAG 050400Z AUTO 10010KT 03/01 RMK AO1 T00260005,CXAG,2023-11-05T04:00:00Z,53.917,-112.279,2.6,0.5,100,10,,,0.00,,,TRUE,TRUE,,,,,,,,,,,,,,,VFR,,,,,,,,,,,,METAR,632
CXAF 050400Z AUTO 11010KT 02/M01 RMK AO1 T00161006,CXAF,2023-11-05T04:00:00Z,54.278,-112.971,1.6,-0.6,110,10,,,0.00,,,TRUE,TRUE,,,,,,,,,,,,,,,VFR,,,,,,,,,,,,METAR,667
CWZW 050400Z AUTO 10006KT M01/M03 RMK AO1 SOG 04 0000 SLP983 T10081026,CWZW,2023-11-05T04:00:00Z,60.167,-132.733,-0.8,-2.6,100,6,,,0.00,998.3,,TRUE,TRUE,,,,,,,,,,,,,,,VFR,,,,,,,,,,,,METAR,683
CWZV 050400Z AUTO 17022KT 09/09 RMK AO1 6PAST HR 3023 PK WND 17026/0315 SLP838 P0006 T00900090 50021,CWZV,2023-11-05T04:00:00Z,51.936,-131.016,9,9,170,22,,,0.00,983.8,,TRUE,TRUE,,,,,,,,,,,,,,,VFR,0.21,,,,,0.06,,,,,,METAR,83
CWZQ 050400Z AUTO 22004KT 09/07 RMK AO1 SLP176 T00940069 58007,CWZQ,2023-11-05T04:00:00Z,46.547,-61.049,9.4,6.9,220,4,,,0.00,1017.6,,TRUE,TRUE,,,,,,,,,,,,,,,VFR,-0.07,,,,,,,,,,,METAR,13
CWZO 050400Z AUTO 27021G27KT RMK AO1 PK WND 27027/0351,CWZO,2023-11-05T04:00:00Z,48.568,-123.265,,,270,21,27,,0.00,,,TRUE,TRUE,,,,,,,,,,,,,,,VFR,,,,,,,,,,,,METAR,5
CWZN 050400Z AUTO 26017KT 08/06 RMK AO1 PK WND 25022/0343 SLP175 T00750063 58002,CWZN,2023-11-05T04:00:00Z,47.368,-55.795,7.5,6.3,260,17,,,0.00,1017.5,,TRUE,TRUE,,,,,,,,,,,,,,,VFR,-0.02,,,,,,,,,,,METAR,63
CWZL 050400Z AUTO 16021KT 11/10 RMK AO1 PK WND 16025/0319 SLP816 T01090104 53020,CWZL,2023-11-05T04:00:00Z,53.03,-131.602,10.9,10.4,160,21,,,0.00,981.6,,TRUE,TRUE,,,,,,,,,,,,,,,VFR,0.2,,,,,,,,,,,METAR,17
CWZG 050400Z AUTO 23005KT 03/01 RMK AO1 SLP059 T00310008 56008,CWZG,2023-11-05T04:00:00Z,51.194,-115.552,3.1,0.8,230,5,,,0.00,1005.9,,TRUE,TRUE,,,,,,,,,,,,,,,VFR,-0.08,,,,,,,,,,,METAR,1402
CWZA 050400Z AUTO 17004KT 13/12 RMK AO1 5PAST HR 1026 SLP074 P0002 T01310117 50156,CWZA,2023-11-05T04:00:00Z,49.244,-121.759,13.1,11.7,170,4,,,0.00,1007.4,,TRUE,TRUE,,,,,,,,,,,,,,,VFR,,,,,,0.02,,,,,,METAR,18
CWYY 050400Z AUTO 14005KT 10/08 RMK AO1 SLP081 T00980075 52002,CWYY,2023-11-05T04:00:00Z,49.028,-119.441,9.8,7.5,140,5,,,0.00,1008.1,,TRUE,TRUE,,,,,,,,,,,,,,,VFR,0.02,,,,,,,,,,,METAR,284
CWYL 050400Z AUTO 27016G22KT 01/M00 RMK AO1 SOG 20 5006 PK WND 27024/0309 SLP088 T00071004,CWYL,2023-11-05T04:00:00Z,51.443,-116.345,0.7,-0.4,270,16,22,,0.00,1008.8,,TRUE,TRUE,,,,,,,,,,,,,,,VFR,,,,,,,,,,,,METAR,1602
CWYJ 050400Z AUTO 25007KT 13/08 RMK AO1 SLP074 T01290082 50012,CWYJ,2023-11-05T04:00:00Z,48.457,-123.305,12.9,8.2,250,7,,,0.00,1007.4,,TRUE,TRUE,,,,,,,,,,,,,,,VFR,0.12,,,,,,,,,,,METAR,59
CWXL 050400Z AUTO 22009KT 10/05 RMK AO1 SLP039 T00950047 56019,CWXL,2023-11-05T04:00:00Z,49.734,-111.45,9.5,4.7,220,9,,,0.00,1003.9,,TRUE,TRUE,,,,,,,,,,,,,,,VFR,-0.19,,,,,,,,,,,METAR,815
CWXI 050400Z AUTO 29021KT 03/M05 RMK AO1 SOG 01 0014 PK WND 28026/0347 SLP132 T00291047,CWXI,2023-11-05T04:00:00Z,51.022,-57.096,2.9,-4.7,290,21,,,0.00,1013.2,,TRUE,TRUE,,,,,,,,,,,,,,,VFR,,,,,,,,,,,,METAR,15
CWXC 050400Z AUTO 21002KT M01/M07 RMK AO1 SLP169 T10121066 58010,CWXC,2023-11-05T04:00:00Z,48.894,-71.032,-1.2,-6.6,210,2,,,0.00,1016.9,,TRUE,TRUE,,,,,,,,,,,,,,,VFR,-0.1,,,,,,,,,,,METAR,306
CWXA 050400Z AUTO 25008G17KT 10/M02 RMK AO1 PK WND 24017/0350 SLP053 T00991017 56009,CWXA,2023-11-05T04:00:00Z,51.083,-115.066,9.9,-1.7,250,8,17,,0.00,1005.3,,TRUE,TRUE,,,,,,,,,,,,,,,VFR,-0.09,,,,,,,,,,,METAR,1303
CWWZ 050400Z AUTO 21003KT 09/08 RMK AO1 SLP189 T00940075 58006,CWWZ,2023-11-05T04:00:00Z,43.244,-79.218,9.4,7.5,210,3,,,0.00,1018.9,,TRUE,TRUE,,,,,,,,,,,,,,,VFR,-0.06,,,,,,,,,,,METAR,75
CWWS 050400Z AUTO 12007KT M02/M05 RMK AO1 SOG 28 7006 SLP212 T10211054,CWWS,2023-11-05T04:00:00Z,52.819,-97.616,-2.1,-5.4,120,7,,,0.00,1021.2,,TRUE,TRUE,,,,,,,,,,,,,,,VFR,,,,,,,,,,,,METAR,220
CWWL 050400Z AUTO 13038G46KT 11/11 RMK AO1 6PAST HR 3018 PK WND 13046/0331 SLP830 P0002 T01110108 50036,CWWL,2023-11-05T04:00:00Z,53.493,-130.638,11.1,10.8,130,38,46,,0.00,983,,TRUE,TRUE,,,,,,,,,,,,,,,VFR,0.36,,,,,0.02,,,,,,METAR,8
CWWK 050400Z AUTO 16002KT 12/11 RMK AO1 4PAST HR 1018 SLP083 P0002 T01190106 50012,CWWK,2023-11-05T04:00:00Z,49.018,-122.784,11.9,10.6,160,2,,,0.00,1008.3,,TRUE,TRUE,,,,,,,,,,,,,,,VFR,0.12,,,,,0.02,,,,,,METAR,10
CWWF 050400Z AUTO 16013KT M00/M01 RMK AO1 PK WND 15020/0349 SLP145 T10021009 58019,CWWF,2023-11-05T04:00:00Z,49.695,-103.801,-0.2,-0.9,160,13,,,0.00,1014.5,,TRUE,TRUE,,,,,,,,,,,,,,,VFR,-0.19,,,,,,,,,,,METAR,583
CWWE 050400Z AUTO 29004KT 09/07 RMK AO1 SLP189 T00860074 58009,CWWE,2023-11-05T04:00:00Z,43.989,-64.662,8.6,7.4,290,4,,,0.00,1018.9,,TRUE,TRUE,,,,,,,,,,,,,,,VFR,-0.09,,,,,,,,,,,METAR,4
CWWB 050400Z AUTO 36007KT 09/06 RMK AO1 SLP190 T00940055 58005,CWWB,2023-11-05T04:00:00Z,43.302,-79.791,9.4,5.5,360,7,,,0.00,1019,,TRUE,TRUE,,,,,,,,,,,,,,,VFR,-0.05,,,,,,,,,,,METAR,77
CWWA 050400Z AUTO 06001KT 12/09 RMK AO1 SLP074 T01230090 51015,CWWA,2023-11-05T04:00:00Z,49.347,-123.193,12.3,9,60,1,,,0.00,1007.4,,TRUE,TRUE,,,,,,,,,,,,,,,VFR,0.15,,,,,,,,,,,METAR,172
CWVU 050400Z AUTO 25004KT 10/08 RMK AO1 SLP181 T00950081 58012,CWVU,2023-11-05T04:00:00Z,44.287,-66.342,9.5,8.1,250,4,,,0.00,1018.1,,TRUE,TRUE,,,,,,,,,,,,,,,VFR,-0.12,,,,,,,,,,,METAR,4
CWVT 050400Z AUTO 12010G16KT M04/M06 RMK AO1 2PAST HR SOG 05 8025 SLP141 P0001 T10421056 50002,CWVT,2023-11-05T04:00:00Z,55.841,-108.421,-4.2,-5.6,120,10,16,,0.00,1014.1,,TRUE,TRUE,,,,,,,,,,,,,,,VFR,0.02,,,,,0.01,,,,,,METAR,431
CWVQ 050400Z AUTO 00000KT 04/02 RMK AO1 SLP183 T00400024 58012,CWVQ,2023-11-05T04:00:00Z,45.427,-73.929,4,2.4,0,0,,,0.00,1018.3,,TRUE,TRUE,,,,,,,,,,,,,,,VFR,-0.12,,,,,,,,,,,METAR,38
CWVP 050400Z AUTO 19008KT 04/03 RMK AO1 SLP054 T00420027 58026,CWVP,2023-11-05T04:00:00Z,49.64,-109.514,4.2,2.7,190,8,,,0.00,1005.4,,TRUE,TRUE,,,,,,,,,,,,,,,VFR,-0.26,,,,,,,,,,,METAR,1269
CWVN 050400Z AUTO 21002KT 06/02 RMK AO1 SLP091 T00600019 58025,CWVN,2023-11-05T04:00:00Z,49.058,-107.586,6,1.9,210,2,,,0.00,1009.1,,TRUE,TRUE,,,,,,,,,,,,,,,VFR,-0.25,,,,,,,,,,,METAR,792
CWVI 050400Z AUTO 10006KT 04/M00 RMK AO1 SLP038 T00381003 58015,CWVI,2023-11-05T04:00:00Z,53.505,-112.098,3.8,-0.3,100,6,,,0.00,1003.8,,TRUE,TRUE,,,,,,,,,,,,,,,VFR,-0.15,,,,,,,,,,,METAR,640
CWVH 050400Z AUTO 10020G33KT 060V130 ////SM ////// M13/M14 A3010,CWVH,2023-11-05T04:00:00Z,68.894,-133.943,-13,-14,100,20,33,,30.10,,,TRUE,,,,,,,,,,,,,,,,VFR,,,,,,,,,,,,METAR,246
CWVF 050400Z AUTO 19014KT 14/09 RMK AO1 PK WND 19019/0347 T01350091,CWVF,2023-11-05T04:00:00Z,49.106,-123.303,13.5,9.1,190,14,,,0.00,,,TRUE,TRUE,,,,,,,,,,,,,,,VFR,,,,,,,,,,,,METAR,13
CWUX 050400Z AUTO 27002KT M01/M04 RMK AO1 SLP185 T10071035 58008,CWUX,2023-11-05T04:00:00Z,48.298,-70.92,-0.7,-3.5,270,2,,,0.00,1018.5,,TRUE,TRUE,,,,,,,,,,,,,,,VFR,-0.08,,,,,,,,,,,METAR,150
CWUS 050400Z AUTO 30006KT 09/06 RMK AO1 SLP066 T00860062 52004,CWUS,2023-11-05T04:00:00Z,49.563,-119.649,8.6,6.2,300,6,,,0.00,1006.6,,TRUE,TRUE,,,,,,,,,,,,,,,VFR,0.04,,,,,,,,,,,METAR,455
CWTY 050400Z AUTO 25002KT 02/M00 RMK AO1 SLP185 T00181003 58010,CWTY,2023-11-05T04:00:00Z,46.354,-72.516,1.8,-0.3,250,2,,,0.00,1018.5,,TRUE,TRUE,,,,,,,,,,,,,,,VFR,-0.1,,,,,,,,,,,METAR,8
CWTT 050400Z AUTO 29003KT 07/03 RMK AO1 T00690033,CWTT,2023-11-05T04:00:00Z,45.27,-72.17,6.9,3.3,290,3,,,0.00,,,TRUE,TRUE,,,,,,,,,,,,,,,VFR,,,,,,,,,,,,METAR,210
CWTN 050400Z AUTO 32002KT M02/M02 RMK AO1 SLP175 T10211021 58013,CWTN,2023-11-05T04:00:00Z,47.079,-70.781,-2.1,-2.1,320,2,,,0.00,1017.5,,TRUE,TRUE,,,,,,,,,,,,,,,VFR,-0.13,,,,,,,,,,,METAR,5
CWTG 050400Z AUTO 28007KT 02/M06 RMK AO1 SLP162 T00181058 58002,CWTG,2023-11-05T04:00:00Z,49.317,-67.381,1.8,-5.8,280,7,,,0.00,1016.2,,TRUE,TRUE,,,,,,,,,,,,,,,VFR,-0.02,,,,,,,,,,,METAR,6
CWTA 050400Z AUTO 00000KT 06/03 RMK AO1 SLP182 T00590031 58011,CWTA,2023-11-05T04:00:00Z,45.506,-73.579,5.9,3.1,0,0,,,0.00,1018.2,,TRUE,TRUE,,,,,,,,,,,,,,,VFR,-0.11,,,,,,,,,,,METAR,71
CWST 050400Z AUTO 23004KT M00/M03 RMK AO1 SLP165 T10021034 58014,CWST,2023-11-05T04:00:00Z,47.354,-70.03,-0.2,-3.4,230,4,,,0.00,1016.5,,TRUE,TRUE,,,,,,,,,,,,,,,VFR,-0.14,,,,,,,,,,,METAR,31
CWSS 050400Z AUTO 34001KT 02/01 RMK AO1 SLP186 T00150013 58006,CWSS,2023-11-05T04:00:00Z,45.21,-67.253,1.5,1.3,340,1,,,0.00,1018.6,,TRUE,TRUE,,,,,,,,,,,,,,,VFR,-0.06,,,,,,,,,,,METAR,27
CWSR 050400Z AUTO 12014G20KT M00/M02 RMK AO1 PK WND 12022/0338 SLP093 T10021021 58025,CWSR,2023-11-05T04:00:00Z,53.368,-107.553,-0.2,-2.1,120,14,20,,0.00,1009.3,,TRUE,TRUE,,,,,,,,,,,,,,,VFR,-0.25,,,,,,,,,,,METAR,589
CWSP 050400Z AUTO 30010KT 12/10 RMK AO1 1011 SLP088 T01200098 50010,CWSP,2023-11-05T04:00:00Z,48.377,-123.921,12,9.8,300,10,,,0.00,1008.8,,TRUE,TRUE,,,,,,,,,,,,,,,VFR,0.1,,,,,,,,,,,METAR,2
CWSL 050400Z AUTO 10001KT 07/06 RMK AO1 SLP076 T00710064 51005,CWSL,2023-11-05T04:00:00Z,50.703,-119.291,7.1,6.4,100,1,,,0.00,1007.6,,TRUE,TRUE,,,,,,,,,,,,,,,VFR,0.05,,,,,,,,,,,METAR,353
CWSK 050400Z AUTO 14007G15KT 13/09 RMK AO1 3012 PK WND 14018/0332 SLP054 T01340093 50006,CWSK,2023-11-05T04:00:00Z,49.783,-123.161,13.4,9.3,140,7,15,,0.00,1005.4,,TRUE,TRUE,,,,,,,,,,,,,,,VFR,0.06,,,,,,,,,,,METAR,59
CWSG 050400Z AUTO 24007KT 02/M03 RMK AO1 SLP167 T00161030 58003,CWSG,2023-11-05T04:00:00Z,49.109,-66.655,1.6,-3,240,7,,,0.00,1016.7,,TRUE,TRUE,,,,,,,,,,,,,,,VFR,-0.03,,,,,,,,,,,METAR,5
CWSF 050400Z AUTO 24008KT 03/M06 RMK AO1 SLP157 T00291055 58005,CWSF,2023-11-05T04:00:00Z,49.251,-65.325,2.9,-5.5,240,8,,,0.00,1015.7,,TRUE,TRUE,,,,,,,,,,,,,,,VFR,-0.05,,,,,,,,,,,METAR,15
CWSD 050400Z AUTO 29002KT 02/02 RMK AO1 SLP179 T00240017 58006,CWSD,2023-11-05T04:00:00Z,46.441,-63.837,2.4,1.7,290,2,,,0.00,1017.9,,TRUE,TRUE,,,,,,,,,,,,,,,VFR,-0.06,,,,,,,,,,,METAR,12
CWRZ 050400Z AUTO 28008KT 02/M05 RMK AO1 SLP163 T00161047 58008,CWRZ,2023-11-05T04:00:00Z,48.419,-64.317,1.6,-4.7,280,8,,,0.00,1016.3,,TRUE,TRUE,,,,,,,,,,,,,,,VFR,-0.08,,,,,,,,,,,METAR,16
CWRY 050400Z AUTO 21011KT 08/04 RMK AO1 SOG 02 6021 PK WND 22019/0313 SLP057 T00780039,CWRY,2023-11-05T04:00:00Z,49.133,-112.051,7.8,3.9,210,11,,,0.00,1005.7,,TRUE,TRUE,,,,,,,,,,,,,,,VFR,,,,,,,,,,,,METAR,1048
CWRU 050400Z AUTO 16040G45KT 12/10 RMK AO1 2PAST HR 1016 PK WND 18071/0333 SLP987 P0005 T01210100 50012,CWRU,2023-11-05T04:00:00Z,50.112,-127.941,12.1,10,160,40,45,,0.00,998.7,,TRUE,TRUE,,,,,,,,,,,,,,,VFR,0.12,,,,,0.05,,,,,,METAR,76
CWRT 050400Z AUTO 30005KT 09/03 RMK AO1 PK WND 27019/0318 SLP063 T00880034 58007,CWRT,2023-11-05T04:00:00Z,49.628,-114.482,8.8,3.4,300,5,,,0.00,1006.3,,TRUE,TRUE,,,,,,,,,,,,,,,VFR,-0.07,,,,,,,,,,,METAR,1311
CWRO 050400Z AUTO 14028G35KT 11/10 RMK AO1 5PAST HR 1012 PK WND 13035/0345 SLP811 P0025 T01050103 50200,CWRO,2023-11-05T04:00:00Z,54.161,-131.66,10.5,10.3,140,28,35,,0.00,981.1,,TRUE,TRUE,,,,,,,,,,,,,,,VFR,,,,,,0.25,,,,,,METAR,7
CWRN 050400Z AUTO 23007KT 11/10 RMK AO1 SLP187 T01060098 56004,CWRN,2023-11-05T04:00:00Z,45.347,-60.98,10.6,9.8,230,7,,,0.00,1018.7,,TRUE,TRUE,,,,,,,,,,,,,,,VFR,-0.04,,,,,,,,,,,METAR,8
CWRM 050400Z AUTO 33002KT 01/M00 RMK AO1 SOG 01 6011 SLP999 T00081004,CWRM,2023-11-05T04:00:00Z,52.431,-114.907,0.8,-0.4,330,2,,,0.00,999.9,,TRUE,TRUE,,,,,,,,,,,,,,,VFR,,,,,,,,,,,,METAR,986
CWRK 050400Z AUTO 00000KT M02/M02 RMK AO1 SLP192 T10191015 56006,CWRK,2023-11-05T04:00:00Z,45.072,-77.879,-1.9,-1.5,0,0,,,0.00,1019.2,,TRUE,TRUE,,,,,,,,,,,,,,,VFR,-0.06,,,,,,,,,,,METAR,328
CWRJ 050400Z AUTO 09008KT 01/00 RMK AO1 SLP069 T00130000 58027,CWRJ,2023-11-05T04:00:00Z,51.565,-107.924,1.3,0,90,8,,,0.00,1006.9,,TRUE,TRUE,,,,,,,,,,,,,,,VFR,-0.27,,,,,,,,,,,METAR,586
CWRA 050400Z AUTO 00023KT 09/08 RMK AO1 8007 SLP193 T00920075 50053,CWRA,2023-11-05T04:00:00Z,46.659,-53.073,9.2,7.5,VRB,23,,,0.00,1019.3,,TRUE,TRUE,,,,,,,,,,,,,,,VFR,0.53,,,,,,,,,,,METAR,4
CWQV 050400Z AUTO 28019G24KT 03/ RMK AO1 PK WND 28024/0353 T0029,CWQV,2023-11-05T04:00:00Z,48.26,-70.116,2.9,,280,19,24,,0.00,,,TRUE,TRUE,,,,,,,,,,,,,,,VFR,,,,,,,,,,,,METAR,4
CWQS 050400Z AUTO 27003KT RMK AO1 53024,CWQS,2023-11-05T04:00:00Z,53.316,-132.772,,,270,3,,,0.00,,,TRUE,TRUE,,,,,,,,,,,,,,,VFR,0.24,,,,,,,,,,,METAR,10
CWQR 050400Z AUTO 32007KT 01/M06 RMK AO1 T00091063,CWQR,2023-11-05T04:00:00Z,50.221,-64.207,0.9,-6.3,320,7,,,0.00,,,TRUE,TRUE,,,,,,,,,,,,,,,VFR,,,,,,,,,,,,METAR,9
CWQP 050400Z AUTO 28009KT 10/07 RMK AO1 SLP190 T01030074 57005,CWQP,2023-11-05T04:00:00Z,43.84,-77.153,10.3,7.4,280,9,,,0.00,1019,,TRUE,TRUE,,,,,,,,,,,,,,,VFR,-0.05,,,,,,,,,,,METAR,77
CWQO 050400Z AUTO 26010KT 04/M00 RMK AO1 T00361003,CWQO,2023-11-05T04:00:00Z,48.416,-68.893,3.6,-0.3,260,10,,,0.00,,,TRUE,TRUE,,,,,,,,,,,,,,,VFR,,,,,,,,,,,,METAR,7
CWQK 050400Z AUTO 28023KT 13/08 RMK AO1 PK WND 28030/0318 SLP077 T01260075 50015,CWQK,2023-11-05T04:00:00Z,48.298,-123.531,12.6,7.5,280,23,,,0.00,1007.7,,TRUE,TRUE,,,,,,,,,,,,,,,VFR,0.15,,,,,,,,,,,METAR,5
CWQH 050400Z AUTO 00000KT 05/04 RMK AO1 SLP185 T00480035 58011,CWQH,2023-11-05T04:00:00Z,45.369,-71.824,4.8,3.5,0,0,,,0.00,1018.5,,TRUE,TRUE,,,,,,,,,,,,,,,VFR,-0.11,,,,,,,,,,,METAR,181
CWPZ 050400Z AUTO 36001KT 03/03 RMK AO1 2005 SLP941 T00290029 50004,CWPZ,2023-11-05T04:00:00Z,54.383,-125.959,2.9,2.9,360,1,,,0.00,994.1,,TRUE,TRUE,,,,,,,,,,,,,,,VFR,0.04,,,,,,,,,,,METAR,715
CWPR 050400Z AUTO 26002KT 04/04 RMK AO1 SLP073 T00350042 50004,CWPR,2023-11-05T04:00:00Z,49.468,-120.514,3.5,4.2,260,2,,,0.00,1007.3,,TRUE,TRUE,,,,,,,,,,,,,,,VFR,0.04,,,,,,,,,,,METAR,703
CWPO 050400Z AUTO 14008KT M04/M05 RMK AO1 SOG 09 8009 SLP215 T10411049,CWPO,2023-11-05T04:00:00Z,49.191,-98.905,-4.1,-4.9,140,8,,,0.00,1021.5,,TRUE,TRUE,,,,,,,,,,,,,,,VFR,,,,,,,,,,,,METAR,471
CWPK 050400Z AUTO 32003KT M01/M04 RMK AO1 SLP178 T10141041 58014,CWPK,2023-11-05T04:00:00Z,47.922,-74.624,-1.4,-4.1,320,3,,,0.00,1017.8,,TRUE,TRUE,,,,,,,,,,,,,,,VFR,-0.14,,,,,,,,,,,METAR,443
CWPF 050400Z AUTO 24013KT 13/ RMK AO1 PK WND 24023/0329 SLP075 T0133 50019,CWPF,2023-11-05T04:00:00Z,48.432,-123.439,13.3,,240,13,,,0.00,1007.5,,TRUE,TRUE,,,,,,,,,,,,,,,VFR,0.19,,,,,,,,,,,METAR,5
CWPE 050400Z AUTO 33002KT 07/06 RMK AO1 SOG 01 8006 SLP184 T00670058,CWPE,2023-11-05T04:00:00Z,45.058,-66.459,6.7,5.8,330,2,,,0.00,1018.4,,TRUE,TRUE,,,,,,,,,,,,,,,VFR,,,,,,,,,,,,METAR,9
CWPD 050400Z AUTO 21002KT M07/M08 RMK AO1 SLP171 T10651075 58010,CWPD,2023-11-05T04:00:00Z,47.562,-71.229,-6.5,-7.5,210,2,,,0.00,1017.1,,TRUE,TRUE,,,,,,,,,,,,,,,VFR,-0.1,,,,,,,,,,,METAR,795
CWOY 050400Z AUTO 14016G22KT M00/M02 RMK AO1 SOG 03 8027 PK WND 14022/0341 SLP132 T10021019,CWOY,2023-11-05T04:00:00Z,51.767,-104.2,-0.2,-1.9,140,16,22,,0.00,1013.2,,TRUE,TRUE,,,,,,,,,,,,,,,VFR,,,,,,,,,,,,METAR,557
CWOE 050400Z AUTO 16003KT 05/04 RMK AO1 SOG 01 7029 SLP062 T00530037,CWOE,2023-11-05T04:00:00Z,49.123,-110.469,5.3,3.7,160,3,,,0.00,1006.2,,TRUE,TRUE,,,,,,,,,,,,,,,VFR,,,,,,,,,,,,METAR,931
CWOD 050400Z AUTO 24004KT M00/M04 RMK AO1 SLP172 T10011041 58017,CWOD,2023-11-05T04:00:00Z,48.842,-72.546,-0.1,-4.1,240,4,,,0.00,1017.2,,TRUE,TRUE,,,,,,,,,,,,,,,VFR,-0.17,,,,,,,,,,,METAR,150
CWOC 050400Z AUTO 36003KT M02/M04 RMK AO1 SLP165 T10181037 58009,CWOC,2023-11-05T04:00:00Z,48.012,-65.332,-1.8,-3.7,360,3,,,0.00,1016.5,,TRUE,TRUE,,,,,,,,,,,,,,,VFR,-0.09,,,,,,,,,,,METAR,42
CWNZ 050400Z AUTO 30003KT M04/M08 RMK AO1 SLP211 T10381081 51006,CWNZ,2023-11-05T04:00:00Z,49.747,-84.164,-3.8,-8.1,300,3,,,0.00,1021.1,,TRUE,TRUE,,,,,,,,,,,,,,,VFR,0.06,,,,,,,,,,,METAR,261
CWNQ 050400Z AUTO 00000KT M01/M02 RMK AO1 SLP183 T10141020 58008,CWNQ,2023-11-05T04:00:00Z,46.226,-72.657,-1.4,-2,0,0,,,0.00,1018.3,,TRUE,TRUE,,,,,,,,,,,,,,,VFR,-0.08,,,,,,,,,,,METAR,9
CWNP 050400Z AUTO 00000KT 05/05 RMK AO1 SLP100 T00500047 56007,CWNP,2023-11-05T04:00:00Z,50.269,-117.817,5,4.7,0,0,,,0.00,1010,,TRUE,TRUE,,,,,,,,,,,,,,,VFR,-0.07,,,,,,,,,,,METAR,517
CWNM 050400Z AUTO 12002KT 06/06 RMK AO1 SLP099 T00620055 56009,CWNM,2023-11-05T04:00:00Z,49.491,-117.305,6.2,5.5,120,2,,,0.00,1009.9,,TRUE,TRUE,,,,,,,,,,,,,,,VFR,-0.09,,,,,,,,,,,METAR,533
CWNK 050400Z AUTO 15006KT M02/M03 RMK AO1 SLP215 T10241033 58008,CWNK,2023-11-05T04:00:00Z,49.498,-98.03,-2.4,-3.3,150,6,,,0.00,1021.5,,TRUE,TRUE,,,,,,,,,,,,,,,VFR,-0.08,,,,,,,,,,,METAR,271
CWNH 050400Z AUTO 19003KT M01/M04 RMK AO1 SLP172 T10091044 58012,CWNH,2023-11-05T04:00:00Z,47.806,-69.548,-0.9,-4.4,190,3,,,0.00,1017.2,,TRUE,TRUE,,,,,,,,,,,,,,,VFR,-0.12,,,,,,,,,,,METAR,147
CWNE 050400Z AUTO 30010KT 08/01 RMK AO1 SLP172 T00810011 58002,CWNE,2023-11-05T04:00:00Z,47.058,-63.997,8.1,1.1,300,10,,,0.00,1017.2,,TRUE,TRUE,,,,,,,,,,,,,,,VFR,-0.02,,,,,,,,,,,METAR,5
CWNC 050400Z AUTO 34002KT 07/05 RMK AO1 SLP184 T00680053 58005,CWNC,2023-11-05T04:00:00Z,43.951,-78.165,6.8,5.3,340,2,,,0.00,1018.4,,TRUE,TRUE,,,,,,,,,,,,,,,VFR,-0.05,,,,,,,,,,,METAR,71
CWMT 050400Z AUTO 08009KT M07/M09 RMK AO1 2PAST HR SOG 12 8006 SLP166 P0001 T10721086 50010,CWMT,2023-11-05T04:00:00Z,63.134,-117.245,-7.2,-8.6,80,9,,,0.00,1016.6,,TRUE,TRUE,,,,,,,,,,,,,,,VFR,0.1,,,,,0.01,,,,,,METAR,274
CWMQ 050400Z AUTO 19012KT 09/03 RMK AO1 PK WND 20021/0300 SLP038 T00860033 56023,CWMQ,2023-11-05T04:00:00Z,49.903,-109.466,8.6,3.3,190,12,,,0.00,1003.8,,TRUE,TRUE,,,,,,,,,,,,,,,VFR,-0.23,,,,,,,,,,,METAR,767
CWMM 050400Z AUTO 15003KT 13/11 RMK AO1 1019 SLP080 T01280106 50001,CWMM,2023-11-05T04:00:00Z,49.208,-122.69,12.8,10.6,150,3,,,0.00,1008,,TRUE,TRUE,,,,,,,,,,,,,,,VFR,0.01,,,,,,,,,,,METAR,2
CWMJ 050400Z AUTO 22001KT M03/M03 RMK AO1 SLP190 T10331033 57006,CWMJ,2023-11-05T04:00:00Z,46.275,-75.992,-3.3,-3.3,220,1,,,0.00,1019,,TRUE,TRUE,,,,,,,,,,,,,,,VFR,-0.06,,,,,,,,,,,METAR,198
CWME 050400Z AUTO 19004KT 11/09 RMK AO1 6PAST HR 1018 SLP945 P0002 T01050094 50064,CWME,2023-11-05T04:00:00Z,52.187,-127.471,10.5,9.4,190,4,,,0.00,994.5,,TRUE,TRUE,,,,,,,,,,,,,,,VFR,0.64,,,,,0.02,,,,,,METAR,23
CWLY 050400Z AUTO 20014G25KT 160V240 9SM FEW060 BKN087 13/09 A2959 RMK SLP025 DENSITY ALT 1100FT,CWLY,2023-11-05T04:00:00Z,50.224,-121.582,13,9,200,14,25,9,29.59,1002.5,,TRUE,,,,,,,,FEW,6000,BKN,8700,,,,,VFR,,,,,,,,,,,,METAR,228
CWLS 050400Z AUTO 07001KT 02/01 RMK AO1 SLP199 T00160014 58006,CWLS,2023-11-05T04:00:00Z,43.983,-80.74,1.6,1.4,70,1,,,0.00,1019.9,,TRUE,TRUE,,,,,,,,,,,,,,,VFR,-0.06,,,,,,,,,,,METAR,413
CWLP 050400Z AUTO 14021KT 11/09 RMK AO1 4PAST HR 1019 PK WND 14027/0300 SLP978 P0002 T01120094 50010,CWLP,2023-11-05T04:00:00Z,50.94,-127.632,11.2,9.4,140,21,,,0.00,997.8,,TRUE,TRUE,,,,,,,,,,,,,,,VFR,0.1,,,,,0.02,,,,,,METAR,15
CWLM 050400Z AUTO 27013G20KT 13/08 RMK AO1 PK WND 29023/0329 SLP071 T01270083 50013,CWLM,2023-11-05T04:00:00Z,48.413,-123.325,12.7,8.3,270,13,20,,0.00,1007.1,,TRUE,TRUE,,,,,,,,,,,,,,,VFR,0.13,,,,,,,,,,,METAR,62
CWLE 050400Z AUTO 10003KT 02/01 RMK AO1 2PAST HR 8030 SLP085 P0001 T00170008 50002,CWLE,2023-11-05T04:00:00Z,50.951,-107.143,1.7,0.8,100,3,,,0.00,1008.5,,TRUE,TRUE,,,,,,,,,,,,,,,VFR,0.02,,,,,0.01,,,,,,METAR,666
CWLC 050400Z AUTO 13037G42KT 12/10 RMK AO1 PK WND 13042/0358 T01220098,CWLC,2023-11-05T04:00:00Z,54.296,-130.609,12.2,9.8,130,37,42,,0.00,,,TRUE,TRUE,,,,,,,,,,,,,,,VFR,,,,,,,,,,,,METAR,27
CWLB 050400Z AUTO 13007G17KT 02/M00 RMK AO1 PK WND 13017/0359 SLP065 T00171002 56017,CWLB,2023-11-05T04:00:00Z,54.769,-112.024,1.7,-0.2,130,7,17,,0.00,1006.5,,TRUE,TRUE,,,,,,,,,,,,,,,VFR,-0.17,,,,,,,,,,,METAR,561
CWKX 050400Z AUTO 36010G15KT 00/M05 RMK AO1 PK WND 35018/0334 SLP945 T00001046 58001,CWKX,2023-11-05T04:00:00Z,58.429,-130.011,0,-4.6,360,10,15,,0.00,994.5,,TRUE,TRUE,,,,,,,,,,,,,,,VFR,-0.01,,,,,,,,,,,METAR,807
CWKO 050400Z AUTO 16010KT 01/M00 RMK AO1 SLP119 T00121002 58025,CWKO,2023-11-05T04:00:00Z,49.168,-105.979,1.2,-0.2,160,10,,,0.00,1011.9,,TRUE,TRUE,,,,,,,,,,,,,,,VFR,-0.25,,,,,,,,,,,METAR,914
CWKM 050400Z AUTO 11015KT ////SM ////// ///// A3015,CWKM,2023-11-05T04:00:00Z,69.595,-140.174,,,110,15,,,30.15,,,TRUE,,,,,,,,,,,,,,,,VFR,,,,,,,,,,,,METAR,8
CWKK 050400Z AUTO 36010KT M00/M06 RMK AO1 SLP226 T10011059 53007,CWKK,2023-11-05T04:00:00Z,49.713,-88.332,-0.1,-5.9,360,10,,,0.00,1022.6,,TRUE,TRUE,,,,,,,,,,,,,,,VFR,0.07,,,,,,,,,,,METAR,259
CWKH 050400Z AUTO 10/08 RMK AO1 SLP065 T01010075 50012,CWKH,2023-11-05T04:00:00Z,48.568,-123.542,10.1,7.5,,,,,0.00,1006.5,,TRUE,TRUE,,,,,,,,,,,,,,,VFR,0.12,,,,,,,,,,,METAR,327
CWKG 050400Z AUTO 00000KT 07/06 RMK AO1 SOG 02 8006 SLP187 T00710060,CWKG,2023-11-05T04:00:00Z,44.432,-65.203,7.1,6,0,0,,,0.00,1018.7,,TRUE,TRUE,,,,,,,,,,,,,,,VFR,,,,,,,,,,,,METAR,154
CWJX 050400Z AUTO 09005KT 04/01 RMK AO1 SLP043 T00370010 56023,CWJX,2023-11-05T04:00:00Z,50.876,-109.501,3.7,1,90,5,,,0.00,1004.3,,TRUE,TRUE,,,,,,,,,,,,,,,VFR,-0.23,,,,,,,,,,,METAR,671
CWJW 050400Z AUTO 17004KT 05/01 RMK AO1 SLP036 T00510008 55002,CWJW,2023-11-05T04:00:00Z,52.926,-118.03,5.1,0.8,170,4,,,0.00,1003.6,,TRUE,TRUE,,,,,,,,,,,,,,,VFR,-0.02,,,,,,,,,,,METAR,1022
CWJV 050400Z AUTO 10008KT 06/05 RMK AO1 SLP076 T00640052 51008,CWJV,2023-11-05T04:00:00Z,50.223,-119.194,6.4,5.2,100,8,,,0.00,1007.6,,TRUE,TRUE,,,,,,,,,,,,,,,VFR,0.08,,,,,,,,,,,METAR,487
CWJU 050400Z AUTO 19008KT 10/09 RMK AO1 5PAST HR 2016 SLP805 P0002 T00960093 50006,CWJU,2023-11-05T04:00:00Z,54.255,-133.058,9.6,9.3,190,8,,,0.00,980.5,,TRUE,TRUE,,,,,,,,,,,,,,,VFR,0.06,,,,,0.02,,,,,,METAR,47
CWJT 050400Z AUTO 00000KT M03/M04 RMK AO1 SLP192 T10281036 56009,CWJT,2023-11-05T04:00:00Z,46.08,-74.556,-2.8,-3.6,0,0,,,0.00,1019.2,,TRUE,TRUE,,,,,,,,,,,,,,,VFR,-0.09,,,,,,,,,,,METAR,236
CWJR 050400Z AUTO 09004KT 05/05 RMK AO1 2PAST HR 8009 SLP100 P0001 T00540052 50010,CWJR,2023-11-05T04:00:00Z,49.04,-116.483,5.4,5.2,90,4,,,0.00,1010,,TRUE,TRUE,,,,,,,,,,,,,,,VFR,0.1,,,,,0.01,,,,,,METAR,642
CWJI 050400Z AUTO 14008KT 04/01 RMK AO1 SLP100 T00430011 58030,CWJI,2023-11-05T04:00:00Z,49.729,-105.946,4.3,1.1,140,8,,,0.00,1010,,TRUE,TRUE,,,,,,,,,,,,,,,VFR,-0.3,,,,,,,,,,,METAR,724
CWJH 050400Z AUTO 00000KT M09/M11 RMK AO1 SOG 05 8009 SLP208 T10921108,CWJH,2023-11-05T04:00:00Z,56.333,-103.283,-9.2,-10.8,0,0,,,0.00,1020.8,,TRUE,TRUE,,,,,,,,,,,,,,,VFR,,,,,,,,,,,,METAR,345
CWJD 050400Z AUTO 17001KT M03/M05 RMK AO1 SLP205 T10291053 56010,CWJD,2023-11-05T04:00:00Z,53.187,-99.268,-2.9,-5.3,170,1,,,0.00,1020.5,,TRUE,TRUE,,,,,,,,,,,,,,,VFR,-0.1,,,,,,,,,,,METAR,222
CWJC 050400Z AUTO 31008KT M12/M14 RMK AO1 SOG 01 5002 SLP225 T11241139,CWJC,2023-11-05T04:00:00Z,61.132,-100.884,-12.4,-13.9,310,8,,,0.00,1022.5,,TRUE,TRUE,,,,,,,,,,,,,,,VFR,,,,,,,,,,,,METAR,340
CWJB 050400Z AUTO 00000KT M01/M02 RMK AO1 T10081024,CWJB,2023-11-05T04:00:00Z,46.781,-71.288,-0.8,-2.4,0,0,,,0.00,,,TRUE,TRUE,,,,,,,,,,,,,,,VFR,,,,,,,,,,,,METAR,90
CWIZ 050400Z AUTO 00000KT 04/04 RMK AO1 T00390038,CWIZ,2023-11-05T04:00:00Z,45.294,-73.35,3.9,3.8,0,0,,,0.00,,,TRUE,TRUE,,,,,,,,,,,,,,,VFR,,,,,,,,,,,,METAR,45
CWIW 050400Z AUTO 14013KT M00/M00 RMK AO1 SOG 11 6022 PK WND 14017/0304 SLP123 T10041002,CWIW,2023-11-05T04:00:00Z,51.667,-105.4,-0.4,-0.2,140,13,,,0.00,1012.3,,TRUE,TRUE,,,,,,,,,,,,,,,VFR,,,,,,,,,,,,METAR,524
CWIT 050400Z AUTO 00000KT 03/02 RMK AO1 SLP181 T00320015 58013,CWIT,2023-11-05T04:00:00Z,45.167,-73.678,3.2,1.5,0,0,,,0.00,1018.1,,TRUE,TRUE,,,,,,,,,,,,,,,VFR,-0.13,,,,,,,,,,,METAR,53
CWIS 050400Z AUTO 24003KT M03/M06 RMK AO1 SOG 05 7013 SLP164 T10271055,CWIS,2023-11-05T04:00:00Z,47.284,-70.637,-2.7,-5.5,240,3,,,0.00,1016.4,,TRUE,TRUE,,,,,,,,,,,,,,,VFR,,,,,,,,,,,,METAR,720
CWIP 050400Z AUTO 27006KT 01/M06 RMK AO1 T00061061,CWIP,2023-11-05T04:00:00Z,50.162,-66.434,0.6,-6.1,270,6,,,0.00,,,TRUE,TRUE,,,,,,,,,,,,,,,VFR,,,,,,,,,,,,METAR,27
CWIK 050400Z AUTO 15010KT M01/M01 RMK AO1 SLP159 T10061014 58019,CWIK,2023-11-05T04:00:00Z,50.366,-102.567,-0.6,-1.4,150,10,,,0.00,1015.9,,TRUE,TRUE,,,,,,,,,,,,,,,VFR,-0.19,,,,,,,,,,,METAR,597
CWIJ 050400Z AUTO 06006KT M12/M14 RMK AO1 SOG 02 8001 SLP231 T11221142,CWIJ,2023-11-05T04:00:00Z,65.756,-111.246,-12.2,-14.2,60,6,,,0.00,1023.1,,TRUE,TRUE,,,,,,,,,,,,,,,VFR,,,,,,,,,,,,METAR,490
CWII 050400Z AUTO 20008KT M00/M04 RMK AO1 SLP222 T10021044 58004,CWII,2023-11-05T04:00:00Z,50.695,-96.562,-0.2,-4.4,200,8,,,0.00,1022.2,,TRUE,TRUE,,,,,,,,,,,,,,,VFR,-0.04,,,,,,,,,,,METAR,216
CWIG 050400Z AUTO 19007KT RMK AO1,CWIG,2023-11-05T04:00:00Z,47.074,-70.533,,,190,7,,,0.00,,,TRUE,TRUE,,,,,,,,,,,,,,,VFR,,,,,,,,,,,,METAR,12
CWID 050400Z AUTO 08003KT M03/M03 RMK AO1 SLP135 T10261033 57012,CWID,2023-11-05T04:00:00Z,61.317,-117.605,-2.6,-3.3,80,3,,,0.00,1013.5,,TRUE,TRUE,,,,,,,,,,,,,,,VFR,-0.12,,,,,,,,,,,METAR,160
CWHV 050400Z AUTO 17002KT M02/M02 RMK AO1 SLP177 T10201015 58014,CWHV,2023-11-05T04:00:00Z,46.205,-70.785,-2,-1.5,170,2,,,0.00,1017.7,,TRUE,TRUE,,,,,,,,,,,,,,,VFR,-0.14,,,,,,,,,,,METAR,227
CWHT 050400Z AUTO 00000KT M02/M02 RMK AO1 SLP987 T10161022 56008,CWHT,2023-11-05T04:00:00Z,60.773,-137.581,-1.6,-2.2,0,0,,,0.00,998.7,,TRUE,TRUE,,,,,,,,,,,,,,,VFR,-0.08,,,,,,,,,,,METAR,601
CWHQ 050400Z AUTO 33001KT M04/M05 RMK AO1 T10431051,CWHQ,2023-11-05T04:00:00Z,46.691,-71.972,-4.3,-5.1,330,1,,,0.00,,,TRUE,TRUE,,,,,,,,,,,,,,,VFR,,,,,,,,,,,,METAR,56
CWHO 050400Z AUTO 00025KT M03/M09 RMK AO1 SLP043 T10271089 53003,CWHO,2023-11-05T04:00:00Z,55.448,-60.23,-2.7,-8.9,VRB,25,,,0.00,1004.3,,TRUE,TRUE,,,,,,,,,,,,,,,VFR,0.03,,,,,,,,,,,METAR,16
CWHL 050400Z AUTO 14027G36KT 13/09 RMK AO1 8PAST HR 3021 PK WND 14036/0358 SLP848 P0003 T01270091 50012,CWHL,2023-11-05T04:00:00Z,54.172,-130.361,12.7,9.1,140,27,36,,0.00,984.8,,TRUE,TRUE,,,,,,,,,,,,,,,VFR,0.12,,,,,0.03,,,,,,METAR,5
CWHI 050400Z AUTO 12003KT 03/02 RMK AO1 T00290018,CWHI,2023-11-05T04:00:00Z,51.697,-113.217,2.9,1.8,120,3,,,0.00,,,TRUE,TRUE,,,,,,,,,,,,,,,VFR,,,,,,,,,,,,METAR,906
CWGY 050400Z AUTO 13013KT 03/01 RMK AO1 SLP036 T00330011 58025,CWGY,2023-11-05T04:00:00Z,51.67,-110.206,3.3,1.1,130,13,,,0.00,1003.6,,TRUE,TRUE,,,,,,,,,,,,,,,VFR,-0.25,,,,,,,,,,,METAR,709
CWGW 050400Z AUTO 20003KT 05/04 RMK AO1 8016 SLP088 T00500042 50001,CWGW,2023-11-05T04:00:00Z,49.745,-114.884,5,4.2,200,3,,,0.00,1008.8,,TRUE,TRUE,,,,,,,,,,,,,,,VFR,0.01,,,,,,,,,,,METAR,1137
CWGT 050400Z AUTO 10009KT 12/10 RMK AO1 PK WND 13017/0328 SLP054 T01240095 51021,CWGT,2023-11-05T04:00:00Z,49.487,-124.435,12.4,9.5,100,9,,,0.00,1005.4,,TRUE,TRUE,,,,,,,,,,,,,,,VFR,0.21,,,,,,,,,,,METAR,5
CWGR 050400Z AUTO 23006KT 05/03 RMK AO1 SLP171 T00530030 58002,CWGR,2023-11-05T04:00:00Z,47.425,-61.775,5.3,3,230,6,,,0.00,1017.1,,TRUE,TRUE,,,,,,,,,,,,,,,VFR,-0.02,,,,,,,,,,,METAR,4
CWGM 050400Z AUTO 22019G31KT 09/03 RMK AO1 PK WND 21031/0356 SLP046 T00940033 58008,CWGM,2023-11-05T04:00:00Z,49.133,-113.806,9.4,3.3,220,19,31,,0.00,1004.6,,TRUE,TRUE,,,,,,,,,,,,,,,VFR,-0.08,,,,,,,,,,,METAR,1292
CWGL 050400Z AUTO 04002KT 04/01 RMK AO1 SLP180 T00380006 58004,CWGL,2023-11-05T04:00:00Z,44.55,-79.218,3.8,0.6,40,2,,,0.00,1018,,TRUE,TRUE,,,,,,,,,,,,,,,VFR,-0.04,,,,,,,,,,,METAR,220
CWGH 050400Z AUTO 30001KT 08/07 RMK AO1 SLP184 T00770068 58006,CWGH,2023-11-05T04:00:00Z,44.417,-75.847,7.7,6.8,300,1,,,0.00,1018.4,,TRUE,TRUE,,,,,,,,,,,,,,,VFR,-0.06,,,,,,,,,,,METAR,76
CWGD 050400Z AUTO 08004KT 04/02 RMK AO1 SLP197 T00360021 58006,CWGD,2023-11-05T04:00:00Z,43.765,-81.712,3.6,2.1,80,4,,,0.00,1019.7,,TRUE,TRUE,,,,,,,,,,,,,,,VFR,-0.06,,,,,,,,,,,METAR,214
CWGB 050400Z AUTO 18004KT 14/08 RMK AO1 SLP054 T01370080 51017,CWGB,2023-11-05T04:00:00Z,49.336,-124.149,13.7,8,180,4,,,0.00,1005.4,,TRUE,TRUE,,,,,,,,,,,,,,,VFR,0.17,,,,,,,,,,,METAR,6
CWFQ 050400Z AUTO 00000KT 06/04 RMK AO1 SLP179 T00570035 58014,CWFQ,2023-11-05T04:00:00Z,45.05,-72.861,5.7,3.5,0,0,,,0.00,1017.9,,TRUE,TRUE,,,,,,,,,,,,,,,VFR,-0.14,,,,,,,,,,,METAR,190
CWFJ 050400Z AUTO 26004KT 11/02 RMK AO1 SLP037 T01060019 58012,CWFJ,2023-11-05T04:00:00Z,49.2,-113.278,10.6,1.9,260,4,,,0.00,1003.7,,TRUE,TRUE,,,,,,,,,,,,,,,VFR,-0.12,,,,,,,,,,,METAR,1142
CWFF 050400Z AUTO 11009KT M00/M03 RMK AO1 SLP130 T10011031 58027,CWFF,2023-11-05T04:00:00Z,52.817,-104.601,-0.1,-3.1,110,9,,,0.00,1013,,TRUE,TRUE,,,,,,,,,,,,,,,VFR,-0.27,,,,,,,,,,,METAR,482
CWEZ 050400Z AUTO 28005KT 13/09 RMK AO1 PK WND 23022/0336 SLP074 T01320089 51018,CWEZ,2023-11-05T04:00:00Z,48.783,-123.046,13.2,8.9,280,5,,,0.00,1007.4,,TRUE,TRUE,,,,,,,,,,,,,,,VFR,0.18,,,,,,,,,,,METAR,23
CWEW 050400Z AUTO 30001KT 01/01 RMK AO1 SLP187 T00050005 58010,CWEW,2023-11-05T04:00:00Z,45.809,-73.435,0.5,0.5,300,1,,,0.00,1018.7,,TRUE,TRUE,,,,,,,,,,,,,,,VFR,-0.1,,,,,,,,,,,METAR,17
CWER 050400Z AUTO 26005KT RMK AO1,CWER,2023-11-05T04:00:00Z,46.997,-70.808,,,260,5,,,0.00,,,TRUE,TRUE,,,,,,,,,,,,,,,VFR,,,,,,,,,,,,METAR,4
CWEQ 050400Z AUTO 07003KT M00/M04 RMK AO1 SLP183 T10011038 56014,CWEQ,2023-11-05T04:00:00Z,52.115,-101.233,-0.1,-3.8,70,3,,,0.00,1018.3,,TRUE,TRUE,,,,,,,,,,,,,,,VFR,-0.14,,,,,,,,,,,METAR,331
CWEP 050400Z AUTO 29007KT 07/06 RMK AO1 SLP179 T00710060 58003,CWEP,2023-11-05T04:00:00Z,46.46,-61.988,7.1,6,290,7,,,0.00,1017.9,,TRUE,TRUE,,,,,,,,,,,,,,,VFR,-0.03,,,,,,,,,,,METAR,9
CWEL 050400Z AUTO 17011KT 13/09 RMK AO1 PK WND 16018/0300 SLP058 T01250091 53021,CWEL,2023-11-05T04:00:00Z,49.209,-123.808,12.5,9.1,170,11,,,0.00,1005.8,,TRUE,TRUE,,,,,,,,,,,,,,,VFR,0.21,,,,,,,,,,,METAR,
CWEK 050400Z AUTO 14013KT 12/08 RMK AO1 3017 PK WND 07023/0300 SLP842 T01220082 50014,CWEK,2023-11-05T04:00:00Z,54.58,-130.698,12.2,8.2,140,13,,,0.00,984.2,,TRUE,TRUE,,,,,,,,,,,,,,,VFR,0.14,,,,,,,,,,,METAR,8
CWEH 050400Z AUTO 17005KT 04/01 RMK AO1 SLP068 T00350011 58025,CWEH,2023-11-05T04:00:00Z,49.438,-108.989,3.5,1.1,170,5,,,0.00,1006.8,,TRUE,TRUE,,,,,,,,,,,,,,,VFR,-0.25,,,,,,,,,,,METAR,1077
CWEF 050400Z AUTO 24005KT 08/06 RMK AO1 SLP165 T00840060 58004,CWEF,2023-11-05T04:00:00Z,47.226,-60.141,8.4,6,240,5,,,0.00,1016.5,,TRUE,TRUE,,,,,,,,,,,,,,,VFR,-0.04,,,,,,,,,,,METAR,27
CWEB 050400Z AUTO 17022KT 12/11 RMK AO1 PK WND 17024/0352 SLP045 T01190112 51017,CWEB,2023-11-05T04:00:00Z,49.383,-126.543,11.9,11.2,170,22,,,0.00,1004.5,,TRUE,TRUE,,,,,,,,,,,,,,,VFR,0.17,,,,,,,,,,,METAR,1
CWDZ 050400Z AUTO 14007KT 04/02 RMK AO1 SLP018 T00370015 56017,CWDZ,2023-11-05T04:00:00Z,51.445,-112.677,3.7,1.5,140,7,,,0.00,1001.8,,TRUE,TRUE,,,,,,,,,,,,,,,VFR,-0.17,,,,,,,,,,,METAR,689
CWDV 050400Z AUTO 01002KT M04/M07 RMK AO1 SOG 01 3005 SLP228 T10371071,CWDV,2023-11-05T04:00:00Z,49.033,-90.467,-3.7,-7.1,10,2,,,0.00,1022.8,,TRUE,TRUE,,,,,,,,,,,,,,,VFR,,,,,,,,,,,,METAR,487
CWDQ 050400Z AUTO 11001KT M04/M05 RMK AO1 SLP189 T10371046 58012,CWDQ,2023-11-05T04:00:00Z,47.415,-72.788,-3.7,-4.6,110,1,,,0.00,1018.9,,TRUE,TRUE,,,,,,,,,,,,,,,VFR,-0.12,,,,,,,,,,,METAR,174
CWDO 050400Z AUTO 26014G19KT 05/02 RMK AO1 PK WND 27021/0333 SLP131 T00460016 51014,CWDO,2023-11-05T04:00:00Z,49.688,-54.8,4.6,1.6,260,14,19,,0.00,1013.1,,TRUE,TRUE,,,,,,,,,,,,,,,VFR,0.14,,,,,,,,,,,METAR,89
CWDM 050400Z AUTO 26006KT M00/M04 RMK AO1 SLP146 T10041037 51008,CWDM,2023-11-05T04:00:00Z,50.465,-59.64,-0.4,-3.7,260,6,,,0.00,1014.6,,TRUE,TRUE,,,,,,,,,,,,,,,VFR,0.08,,,,,,,,,,,METAR,2
CWDK 050400Z AUTO 21011KT 08/02 RMK AO1 PK WND 25017/0300 SLP042 T00840020 55010,CWDK,2023-11-05T04:00:00Z,50.006,-113.631,8.4,2,210,11,,,0.00,1004.2,,TRUE,TRUE,,,,,,,,,,,,,,,VFR,-0.1,,,,,,,,,,,METAR,1014
CWDJ 050400Z AUTO 15018KT 00/M01 RMK AO1 PK WND 16024/0320 SLP132 T00001013 56026,CWDJ,2023-11-05T04:00:00Z,50.408,-104.58,0,-1.3,150,18,,,0.00,1013.2,,TRUE,TRUE,,,,,,,,,,,,,,,VFR,-0.26,,,,,,,,,,,METAR,576
CWDC 050400Z AUTO 08005KT M09/M10 RMK AO1 SOG 07 8014 SLP189 T10891102,CWDC,2023-11-05T04:00:00Z,59.56,-108.487,-8.9,-10.2,80,5,,,0.00,1018.9,,TRUE,TRUE,,,,,,,,,,,,,,,VFR,,,,,,,,,,,,METAR,311
CWDA 050400Z AUTO 29016KT 03/M04 RMK AO1 PK WND 29020/0358 SLP150 T00261036 52028,CWDA,2023-11-05T04:00:00Z,50.721,-56.113,2.6,-3.6,290,16,,,0.00,1015,,TRUE,TRUE,,,,,,,,,,,,,,,VFR,0.28,,,,,,,,,,,METAR,30
CWCT 050400Z AUTO 12006KT 03/02 RMK AO1 SLP033 T00340020 57024,CWCT,2023-11-05T04:00:00Z,52.074,-111.448,3.4,2,120,6,,,0.00,1003.3,,TRUE,TRUE,,,,,,,,,,,,,,,VFR,-0.24,,,,,,,,,,,METAR,793
CWCJ 050400Z AUTO 05002KT M03/M08 RMK AO1 SLP220 T10281076 51008,CWCJ,2023-11-05T04:00:00Z,48.588,-86.295,-2.8,-7.6,50,2,,,0.00,1022,,TRUE,TRUE,,,,,,,,,,,,,,,VFR,0.08,,,,,,,,,,,METAR,207
CWCF 050400Z AUTO 10006KT M05/ RMK AO1 SOG 15 7005 SLP221 T1048,CWCF,2023-11-05T04:00:00Z,52.36,-97.022,-4.8,,100,6,,,0.00,1022.1,,TRUE,TRUE,,,,,,,,,,,,,,,VFR,,,,,,,,,,,,METAR,219
CWBZ 050400Z AUTO 00000KT 04/04 RMK AO1 SLP179 T00380035 58012,CWBZ,2023-11-05T04:00:00Z,45.121,-74.289,3.8,3.5,0,0,,,0.00,1017.9,,TRUE,TRUE,,,,,,,,,,,,,,,VFR,-0.12,,,,,,,,,,,METAR,49
CWBY 050400Z AUTO 02002KT M01/M04 RMK AO1 SLP153 T10131042 58003,CWBY,2023-11-05T04:00:00Z,49.839,-64.293,-1.3,-4.2,20,2,,,0.00,1015.3,,TRUE,TRUE,,,,,,,,,,,,,,,VFR,-0.03,,,,,,,,,,,METAR,56
CWBV 050400Z AUTO 25008KT 11/09 RMK AO1 SLP172 T01060094 58007,CWBV,2023-11-05T04:00:00Z,44.825,-62.338,10.6,9.4,250,8,,,0.00,1017.2,,TRUE,TRUE,,,,,,,,,,,,,,,VFR,-0.07,,,,,,,,,,,METAR,16
CWBU 050400Z AUTO 08008KT M02/M03 RMK AO1 SLP151 T10171030 58022,CWBU,2023-11-05T04:00:00Z,53.333,-104.005,-1.7,-3,80,8,,,0.00,1015.1,,TRUE,TRUE,,,,,,,,,,,,,,,VFR,-0.22,,,,,,,,,,,METAR,369
CWBT 050400Z AUTO 00000KT M04/M05 RMK AO1 SLP149 T10391052 58006,CWBT,2023-11-05T04:00:00Z,50.271,-64.226,-3.9,-5.2,0,0,,,0.00,1014.9,,TRUE,TRUE,,,,,,,,,,,,,,,VFR,-0.06,,,,,,,,,,,METAR,12
CWBS 050400Z AUTO 31005KT 04/M01 RMK AO1 T00441010,CWBS,2023-11-05T04:00:00Z,46.189,-72.916,4.4,-1,310,5,,,0.00,,,TRUE,TRUE,,,,,,,,,,,,,,,VFR,,,,,,,,,,,,METAR,3
CWBO 050400Z AUTO 20007KT 06/04 RMK AO1 SLP022 T00620036 56021,CWBO,2023-11-05T04:00:00Z,50.55,-111.849,6.2,3.6,200,7,,,0.00,1002.2,,TRUE,TRUE,,,,,,,,,,,,,,,VFR,-0.21,,,,,,,,,,,METAR,752
CWBK 050400Z AUTO 25005KT 10/04 RMK AO1 SLP183 T00970044 55004,CWBK,2023-11-05T04:00:00Z,45.764,-62.681,9.7,4.4,250,5,,,0.00,1018.3,,TRUE,TRUE,,,,,,,,,,,,,,,VFR,-0.04,,,,,,,,,,,METAR,2
CWBA 050400Z AUTO 17003KT M01/M02 RMK AO1 T10111020,CWBA,2023-11-05T04:00:00Z,46.71,-79.101,-1.1,-2,170,3,,,0.00,,,TRUE,TRUE,,,,,,,,,,,,,,,VFR,,,,,,,,,,,,METAR,181
CWAV 050400Z AUTO 22005KT 06/02 RMK AO1 SOG 01 8005 SLP020 T00600018,CWAV,2023-11-05T04:00:00Z,51.777,-114.681,6,1.8,220,5,,,0.00,1002,,TRUE,TRUE,,,,,,,,,,,,,,,VFR,,,,,,,,,,,,METAR,1115
CWAR 050400Z AUTO 18010KT 09/08 RMK AO1 SLP178 T00890082 58001,CWAR,2023-11-05T04:00:00Z,47.294,-53.993,8.9,8.2,180,10,,,0.00,1017.8,,TRUE,TRUE,,,,,,,,,,,,,,,VFR,-0.01,,,,,,,,,,,METAR,6
CWAQ 050400Z AUTO 12006KT 02/01 RMK AO1 SLP126 T00220007 58021,CWAQ,2023-11-05T04:00:00Z,49.05,-105.483,2.2,0.7,120,6,,,0.00,1012.6,,TRUE,TRUE,,,,,,,,,,,,,,,VFR,-0.21,,,,,,,,,,,METAR,761
CWAF 050400Z AUTO 31018KT 03/M01 RMK AO1 PK WND 31021/0357 T00251012,CWAF,2023-11-05T04:00:00Z,48.069,-69.556,2.5,-1.2,310,18,,,0.00,,,TRUE,TRUE,,,,,,,,,,,,,,,VFR,,,,,,,,,,,,METAR,6
CTNK 050400Z AUTO 00000KT M04/M05 RMK AO1 SLP194 T10371046 57008,CTNK,2023-11-05T04:00:00Z,45.533,-78.266,-3.7,-4.6,0,0,,,0.00,1019.4,,TRUE,TRUE,,,,,,,,,,,,,,,VFR,-0.08,,,,,,,,,,,METAR,405
CTCK 050400Z AUTO 00000KT 01/M00 RMK AO1 SLP184 T00111001 58012,CTCK,2023-11-05T04:00:00Z,45.251,-74.963,1.1,-0.1,0,0,,,0.00,1018.4,,TRUE,TRUE,,,,,,,,,,,,,,,VFR,-0.12,,,,,,,,,,,METAR,84
CPSV 050400Z AUTO 20015KT 09/05 RMK AO1 PK WND 20019/0308 T00900046,CPSV,2023-11-05T04:00:00Z,49.92,-110.915,9,4.6,200,15,,,0.00,,,TRUE,TRUE,,,,,,,,,,,,,,,VFR,,,,,,,,,,,,METAR,766
CPST 050400Z AUTO 23006KT 04/01 RMK AO1 T00420007,CPST,2023-11-05T04:00:00Z,51.02,-113.27,4.2,0.7,230,6,,,0.00,,,TRUE,TRUE,,,,,,,,,,,,,,,VFR,,,,,,,,,,,,METAR,1005
CPRY 050400Z AUTO 23007KT 09/04 RMK AO1 PK WND 21017/0325 T00870035,CPRY,2023-11-05T04:00:00Z,49.488,-112.674,8.7,3.5,230,7,,,0.00,,,TRUE,TRUE,,,,,,,,,,,,,,,VFR,,,,,,,,,,,,METAR,947
CPRO 050400Z AUTO 17007KT 02/02 RMK AO1 T00230017,CPRO,2023-11-05T04:00:00Z,50.826,-112.06,2.3,1.7,170,7,,,0.00,,,TRUE,TRUE,,,,,,,,,,,,,,,VFR,,,,,,,,,,,,METAR,733
CPIN 050400Z AUTO 25003KT 210V270 ////SM ////// M10/M12 A3021,CPIN,2023-11-05T04:00:00Z,-99.99,-99.99,-10,-12,250,3,,,30.21,,,TRUE,,,,,,,,,,,,,,,,VFR,,,,,,,,,,,,METAR,9999
CPFI 050400Z AUTO 23007KT 07/04 RMK AO1 T00740035,CPFI,2023-11-05T04:00:00Z,49.805,-112.037,7.4,3.5,230,7,,,0.00,,,TRUE,TRUE,,,,,,,,,,,,,,,VFR,,,,,,,,,,,,METAR,804
CPEH 050400Z AUTO 10/04 RMK AO1 T01000035,CPEH,2023-11-05T04:00:00Z,50.172,-112.438,10,3.5,,,,,0.00,,,TRUE,TRUE,,,,,,,,,,,,,,,VFR,,,,,,,,,,,,METAR,814
CPBT 050400Z AUTO 27006KT 05/02 RMK AO1 T00530022,CPBT,2023-11-05T04:00:00Z,49.543,-113.049,5.3,2.2,270,6,,,0.00,,,TRUE,TRUE,,,,,,,,,,,,,,,VFR,,,,,,,,,,,,METAR,998
CMGB 050400Z AUTO 00000KT 04/03 RMK AO1 SLP188 T00360034 58014,CMGB,2023-11-05T04:00:00Z,45.373,-72.774,3.6,3.4,0,0,,,0.00,1018.8,,TRUE,TRUE,,,,,,,,,,,,,,,VFR,-0.14,,,,,,,,,,,METAR,87
CMFM 050400Z AUTO 00000KT M07/M08 RMK AO1 SOG 05 8014 SLP175 T10651083,CMFM,2023-11-05T04:00:00Z,47.323,-71.148,-6.5,-8.3,0,0,,,0.00,1017.5,,TRUE,TRUE,,,,,,,,,,,,,,,VFR,,,,,,,,,,,,METAR,663
CERM 050400Z AUTO 00000KT M06/M06 RMK AO1 SLP182 T10551062 57010,CERM,2023-11-05T04:00:00Z,47.417,-68.325,-5.5,-6.2,0,0,,,0.00,1018.2,,TRUE,TRUE,,,,,,,,,,,,,,,VFR,-0.1,,,,,,,,,,,METAR,151
CAHR 050400Z AUTO 30004KT 06/04 RMK AO1 SLP179 T00550043 58006,CAHR,2023-11-05T04:00:00Z,46.344,-63.17,5.5,4.3,300,4,,,0.00,1017.9,,TRUE,TRUE,,,,,,,,,,,,,,,VFR,-0.06,,,,,,,,,,,METAR,52
BKPR 050400Z 17012KT 130V200 9999 SCT050 13/05 Q1004 NOSIG,BKPR,2023-11-05T04:00:00Z,42.576,21.03,13,5,170,12,,6+,29.65,,,,,,,,,,,SCT,5000,,,,,,,VFR,,,,,,,,,,,,METAR,545
BIRK 050400Z 01012KT CAVOK 04/M01 Q0993,BIRK,2023-11-05T04:00:00Z,64.129,-21.941,4,-1,10,12,,6+,29.32,,,,,,,,,,,CAVOK,,,,,,,,VFR,,,,,,,,,,,,METAR,12
BIKF 050400Z 02021G32KT 9999 FEW021 SCT089 BKN300 04/M00 Q0993,BIKF,2023-11-05T04:00:00Z,63.987,-22.614,4,0,20,21,32,6+,29.32,,,,,,,,,,,FEW,2100,SCT,8900,BKN,30000,,,VFR,,,,,,,,,,,,METAR,49
BIEG 050400Z 01020G30KT 5000 RA BKN007 OVC030 03/02 Q0991,BIEG,2023-11-05T04:00:00Z,65.275,-14.409,3,2,10,20,30,3.11,29.26,,,,,,,,,,RA,BKN,700,OVC,3000,,,,,IFR,,,,,,,,,,,,METAR,20
BIAR 050400Z 34016KT 8000 -RA FEW022 BKN026 OVC034 02/00 Q0998,BIAR,2023-11-05T04:00:00Z,65.655,-18.069,2,0,340,16,,4.97,29.47,,,,,,,,,,-RA,FEW,2200,BKN,2600,OVC,3400,,,MVFR,,,,,,,,,,,,METAR,1
AYPY 050400Z 15015G20KT 9999 RASH FEW010 SCT020 BKN030 28/25 Q1008,AYPY,2023-11-05T04:00:00Z,-9.443,147.216,28,25,150,15,20,6+,29.76,,,,,,,,,,SH RA,FEW,1000,SCT,2000,BKN,3000,,,MVFR,,,,,,,,,,,,METAR,44
AYNZ 050400Z 11015G25KT 9999 HZ SCT020 SCT070 31/24 Q1008 RMK:SHRA FM N TO NE AND SE TO S. CB IN AREA,AYNZ,2023-11-05T04:00:00Z,-6.568,146.727,31,24,110,15,25,6+,29.76,,,,,,,,,,HZ,SCT,2000,SCT,7000,,,,,VFR,,,,,,,,,,,,METAR,74
AYMH 050400Z 23010KT 9999 HZ BKN035 25/16 Q1018,AYMH,2023-11-05T04:00:00Z,-5.831,144.3,25,16,230,10,,6+,30.06,,,,,,,,,,HZ,BKN,3500,,,,,,,VFR,,,,,,,,,,,,METAR,1634
ANYN 050400Z 18006KT 9999 FEW019 SCT040 BKN300 28/26 Q1008,ANYN,2023-11-05T04:00:00Z,-0.547,166.919,28,26,180,6,,6+,29.76,,,,,,,,,,,FEW,1900,SCT,4000,BKN,30000,,,VFR,,,,,,,,,,,,METAR,7
RODE 050359Z AUTO 08006KT BKN033 OVC046 36/ A3003 RMK AO2 SLP206 T0361 $,RODE,2023-11-05T03:59:00Z,26.718,127.783,36.1,,80,6,,,30.03,1020.6,,TRUE,TRUE,TRUE,,,,,,BKN,3300,OVC,4600,,,,,VFR,,,,,,,,,,,,METAR,69
PKMJ 050359Z 08011KT 15SM FEW015 SCT050 BKN120 OVC300 30/25 A2974 ,PKMJ,2023-11-05T03:59:00Z,7.065,171.269,30,25,80,11,,15,29.74,,,,,,,,,,,FEW,1500,SCT,5000,BKN,12000,OVC,30000,VFR,,,,,,,,,,,,METAR,2
MUCF 050359Z AUTO 05005KT 020V080 25/24 Q1014,MUCF,2023-11-05T03:59:00Z,22.159,-80.41,25,24,50,5,,,29.94,,,TRUE,,,,,,,,,,,,,,,,VFR,,,,,,,,,,,,METAR,35
MTPP 050359Z AUTO 13006KT //// ////// 27/22 Q1012 A2990 NOSIG,MTPP,2023-11-05T03:59:00Z,18.577,-72.305,27,22,130,6,,,29.88,,,TRUE,,,,,,,,,,,,,,,,VFR,,,,,,,,,,,,METAR,36
KP92 050359Z AUTO 00000KT 16/15 A3017 RMK AO1 SLP214 T01560150,KP92,2023-11-05T03:59:00Z,29.559,-91.525,15.6,15,0,0,,,30.17,1021.4,,TRUE,TRUE,,,,,,,,,,,,,,,VFR,,,,,,,,,,,,METAR,1
KNOZ 050359Z AUTO A2994 RMK AO2 SLPNO PWINO TSNO,KNOZ,2023-11-05T03:59:00Z,32.55,-114.512,,,,,,,29.94,,,TRUE,TRUE,,,,,,,,,,,,,,,VFR,,,,,,,,,,,,METAR,78
KNGU 050359Z 00000KT 7SM FEW170 10/09 A3011 RMK AO2 SLP197 T01000089,KNGU,2023-11-05T03:59:00Z,36.937,-76.281,10,8.9,0,0,,7,30.11,1019.7,,,TRUE,,,,,,,FEW,17000,,,,,,,VFR,,,,,,,,,,,,METAR,3
ETMN 050359Z 17008KT 9999 FEW030 SCT050 08/07 Q0972 BLU+,ETMN,2023-11-05T03:59:00Z,53.765,8.658,8,7,170,8,,6+,28.70,,,,,,,,,,,FEW,3000,SCT,5000,,,,,VFR,,,,,,,,,,,,SPECI,23
PATL 050358Z AUTO 00000KT 2 1/2SM -SN OVC023 M08/M09 A2947 RMK AO2 SLP004 $,PATL,2023-11-05T03:58:00Z,62.893,-155.977,-8,-9,0,0,,2.5,29.47,1000.4,,TRUE,TRUE,TRUE,,,,,-SN,OVC,2300,,,,,,,IFR,,,,,,,,,,,,SPECI,261
KROG 050358Z AUTO 02005KT 10SM OVC050 13/12 A3019 RMK AO2 RAB27E41 SLP217 P0000 T01330117 TSNO,KROG,2023-11-05T03:58:00Z,36.3749,-94.1078,13.3,11.7,20,5,,10+,30.19,1021.7,,TRUE,TRUE,,,,,,,OVC,5000,,,,,,,VFR,,,,,,0.005,,,,,,METAR,407
KMWN 050358Z 27035G39KT 1/16SM FZFG BLSN VV001 M03/M03 RMK VRY LGT ICG,KMWN,2023-11-05T03:58:00Z,44.271,-71.304,-3,-3,270,35,39,0.06,0.00,,,,,,,,,,FZFG BLSN,OVX,0,,,,,,,LIFR,,,,,,,,,,,100,METAR,1911
KMRH 050358Z AUTO 04005KT 10SM BKN060 17/16 A3005 RMK AO2 SLP176 T01720156,KMRH,2023-11-05T03:58:00Z,34.7326,-76.6566,17.2,15.6,40,5,,10+,30.05,1017.6,,TRUE,TRUE,,,,,,,BKN,6000,,,,,,,VFR,,,,,,,,,,,,METAR,2
KMEI 050358Z AUTO 00000KT CLR 09/06 A3018 RMK AO2 SLP218 T00890056 $,KMEI,2023-11-05T03:58:00Z,32.3348,-88.7507,8.9,5.6,0,0,,,30.18,1021.8,,TRUE,TRUE,TRUE,,,,,,CLR,,,,,,,,VFR,,,,,,,,,,,,METAR,90
KEUF 050358Z AUTO 00000KT 10SM CLR 08/06 A3018 RMK AO2 SLP218 I1000 T00780056 $,KEUF,2023-11-05T03:58:00Z,31.9516,-85.1312,7.8,5.6,0,0,,10+,30.18,1021.8,,TRUE,TRUE,TRUE,,,,,,CLR,,,,,,,,VFR,,,,,,,,,,,,METAR,87
KBKF 050358Z 19012KT 10SM FEW140 BKN220 11/M04 A3013 RMK AO2A SLP162 T01121037,KBKF,2023-11-05T03:58:00Z,39.713,-104.758,11.2,-3.7,190,12,,10+,30.13,1016.2,,,TRUE,,,,,,,FEW,14000,BKN,22000,,,,,VFR,,,,,,,,,,,,METAR,1703
KBCR 050358Z AUTO 00000KT 10SM CLR 10/08 A3018 RMK AO2 SLP175 T01000083,KBCR,2023-11-05T03:58:00Z,30.8432,-85.6043,10,8.3,0,0,,10+,30.18,1017.5,,TRUE,TRUE,,,,,,,CLR,,,,,,,,VFR,,,,,,,,,,,,METAR,26
K0J4 050358Z AUTO 00000KT 10SM CLR 11/07 A3019 RMK AO2 SLP222 T01110067,K0J4,2023-11-05T03:58:00Z,31.0447,-86.3119,11.1,6.7,0,0,,10+,30.19,1022.2,,TRUE,TRUE,,,,,,,CLR,,,,,,,,VFR,,,,,,,,,,,,METAR,96
PHNG 050357Z AUTO 07012G17KT 10SM FEW030 FEW040 SCT047 28/19 A3002 RMK AO2 SLP161 T02830194,PHNG,2023-11-05T03:57:00Z,21.45,-157.763,28.3,19.4,70,12,17,10+,30.02,1016.1,,TRUE,TRUE,,,,,,,FEW,3000,FEW,4000,SCT,4700,,,VFR,,,,,,,,,,,,METAR,1
PANC 050357Z 04006KT 1/4SM R07R/2000V3500FT FG VV002 02/01 A2926 RMK AO2 TWR VIS 2 T00170011 $,PANC,2023-11-05T03:57:00Z,61.1691,-150.028,1.7,1.1,40,6,,0.25,29.26,,,,TRUE,TRUE,,,,,FG,OVX,0,,,,,,,LIFR,,,,,,,,,,,200,SPECI,39
KNYL 050357Z AUTO 30005KT 10SM CLR 23/M03 A2994 RMK AO2 SLP135 T02281028 $,KNYL,2023-11-05T03:57:00Z,32.66,-114.608,22.8,-2.8,300,5,,10+,29.94,1013.5,,TRUE,TRUE,TRUE,,,,,,CLR,,,,,,,,VFR,,,,,,,,,,,,METAR,58
KNJW 050357Z AUTO 10SM CLR 10/04 A3021 RMK AO2 SLP144 T01000044 $,KNJW,2023-11-05T03:57:00Z,32.792,-88.832,10,4.4,,,,10+,30.21,1014.4,,TRUE,TRUE,TRUE,,,,,,CLR,,,,,,,,VFR,,,,,,,,,,,,METAR,165
KNJM 050357Z AUTO 01006KT 10SM OVC055 18/15 A3006 RMK AO2 SLP182 T01780150,KNJM,2023-11-05T03:57:00Z,34.694,-77.029,17.8,15,10,6,,10+,30.06,1018.2,,TRUE,TRUE,,,,,,,OVC,5500,,,,,,,VFR,,,,,,,,,,,,METAR,5
KMNM 050357Z AUTO 27004KT 10SM OVC070 04/M02 A3014 RMK AO2 SLP230 T00441017 PNO $,KMNM,2023-11-05T03:57:00Z,45.126,-87.639,4.4,-1.7,270,4,,10+,30.14,1023,,TRUE,TRUE,TRUE,,,,,,OVC,7000,,,,,,,VFR,,,,,,,,,,,,METAR,188
KFLG 050357Z AUTO 00000KT 10SM CLR 03/M12 A3033 RMK AO2 SLP222 T00331117,KFLG,2023-11-05T03:57:00Z,35.1443,-111.666,3.3,-11.7,0,0,,10+,30.33,1022.2,,TRUE,TRUE,,,,,,,CLR,,,,,,,,VFR,,,,,,,,,,,,METAR,2134
KDUB 050357Z AUTO 35012G20KT 10SM OVC060 07/M04 A3010 RMK AO2,KDUB,2023-11-05T03:57:00Z,43.5485,-109.684,7,-4,350,12,20,10+,30.10,,,TRUE,TRUE,,,,,,,OVC,6000,,,,,,,VFR,,,,,,,,,,,,METAR,2205
TJSJ 050356Z 13003KT 10SM FEW027 27/24 A2994 RMK AO2 SLP136 T02670239 403170261,TJSJ,2023-11-05T03:56:00Z,18.4326,-66.0107,26.7,23.9,130,3,,10+,29.94,1013.6,,,TRUE,,,,,,,FEW,2700,,,,,,,VFR,,,,,,,,,,,,METAR,3
ROTM 050356Z 11011G17KT 9999 SCT030 BKN050 28/23 A2998 RMK SLP152 T02830233,ROTM,2023-11-05T03:56:00Z,26.271,127.754,28.3,23.3,110,11,17,6+,29.98,1015.2,,,,,,,,,,SCT,3000,BKN,5000,,,,,VFR,,,,,,,,,,,,METAR,80
RJOI 050356Z VRB03KT 8000 HZ FEW240 23/16 A3017 RMK AO2 SLP216 T02280161,RJOI,2023-11-05T03:56:00Z,34.144,132.236,22.8,16.1,VRB,3,,4.97,30.17,1021.6,,,TRUE,,,,,,HZ,FEW,24000,,,,,,,MVFR,,,,,,,,,,,,METAR,2
PPIZ 050356Z AUTO 05021KT 9SM OVC026 M09/M12 A3012 RMK AO2 PK WND 05029/0318 SNE56 SLP203 P0000 T10941122 FZRANO,PPIZ,2023-11-05T03:56:00Z,69.735,-163.003,-9.4,-12.2,50,21,,9,30.12,1020.3,,TRUE,TRUE,,,,,,,OVC,2600,,,,,,,MVFR,,,,,,0.005,,,,,,METAR,5
PMDY 050356Z AUTO 22010KT 10SM SCT021 SCT029 BKN060 27/23 A2998 RMK AO2 SLP153 T02720228,PMDY,2023-11-05T03:56:00Z,28.206,-177.382,27.2,22.8,220,10,,10+,29.98,1015.3,,TRUE,TRUE,,,,,,,SCT,2100,SCT,2900,BKN,6000,,,VFR,,,,,,,,,,,,METAR,6
PHNY 050356Z AUTO 05014G19KT 10SM CLR 22/17 A3008 RMK AO2 SLP165 T02220172,PHNY,2023-11-05T03:56:00Z,20.783,-156.955,22.2,17.2,50,14,19,10+,30.08,1016.5,,TRUE,TRUE,,,,,,,CLR,,,,,,,,VFR,,,,,,,,,,,,METAR,395
PHHI 050356Z AUTO 04007KT 10SM OVC032 25/18 A3007 RMK AO2 SLPNO T02500179 $,PHHI,2023-11-05T03:56:00Z,21.478,-158.044,25,17.9,40,7,,10+,30.07,,,TRUE,TRUE,TRUE,,,,,,OVC,3200,,,,,,,VFR,,,,,,,,,,,,METAR,246
PFWS 050356Z AUTO 35011KT 8SM -SN SCT026 BKN041 OVC049 M04/M06 A2956 RMK AO2 SNB00 SLP053 P0000 T10441061 FZRANO,PFWS,2023-11-05T03:56:00Z,58.704,-157.005,-4.4,-6.1,350,11,,8,29.56,1005.3,,TRUE,TRUE,,,,,,-SN,SCT,2600,BKN,4100,OVC,4900,,,VFR,,,,,,0.005,,,,,,METAR,40
PFTO 050356Z AUTO 00000KT 8SM OVC011 M06/M07 A2948 RMK AO2 SLP640 T10611067 FZRANO $,PFTO,2023-11-05T03:56:00Z,63.329,-142.954,-6.1,-6.7,0,0,,8,29.48,964,,TRUE,TRUE,TRUE,,,,,,OVC,1100,,,,,,,MVFR,,,,,,,,,,,,METAR,500
PFSH 050356Z AUTO 02020KT 10SM -SN SCT075 BKN090 M09/M11 A2967 RMK AO2 PK WND 02027/0344 SNB54 SLP047 P0000 T10891111 FZRANO,PFSH,2023-11-05T03:56:00Z,64.367,-161.217,-8.9,-11.1,20,20,,10+,29.67,1004.7,,TRUE,TRUE,,,,,,-SN,SCT,7500,BKN,9000,,,,,VFR,,,,,,0.005,,,,,,METAR,6
PFKT 050356Z AUTO 07006KT 10SM OVC040 M07/M11 A2981 RMK AO2 SLP097 T10721106 FZRANO,PFKT,2023-11-05T03:56:00Z,65.33,-166.479,-7.2,-10.6,70,6,,10+,29.81,1009.7,,TRUE,TRUE,,,,,,,OVC,4000,,,,,,,VFR,,,,,,,,,,,,METAR,8
PFEL 050356Z AUTO 36010KT 10SM SCT065 M10/M16 A2968 RMK AO2 SLP056 T11001156 FZRANO,PFEL,2023-11-05T03:56:00Z,64.616,-162.272,-10,-15.6,360,10,,10+,29.68,1005.6,,TRUE,TRUE,,,,,,,SCT,6500,,,,,,,VFR,,,,,,,,,,,,METAR,50
PFCL 050356Z AUTO 31013KT 10SM OVC036 M04/M08 A2958 RMK AO2 SLP009 T10441078 FZRANO TSNO,PFCL,2023-11-05T03:56:00Z,58.837,-158.526,-4.4,-7.8,310,13,,10+,29.58,1000.9,,TRUE,TRUE,,,,,,,OVC,3600,,,,,,,VFR,,,,,,,,,,,,METAR,23
PAZK 050356Z AUTO 04004KT 1/2SM FZFG OVC002 M06/M07 A2925 RMK AO2 SLP963 T10611067 FZRANO,PAZK,2023-11-05T03:56:00Z,61.938,-147.169,-6.1,-6.7,40,4,,0.5,29.25,996.3,,TRUE,TRUE,,,,,,FZFG,OVC,200,,,,,,,LIFR,,,,,,,,,,,,METAR,1002
PAWS 050356Z AUTO 36003KT 10SM CLR M02/M02 A2927 RMK AO2 SLP919 T10171017 FZRANO,PAWS,2023-11-05T03:56:00Z,61.571,-149.538,-1.7,-1.7,360,3,,10+,29.27,991.9,,TRUE,TRUE,,,,,,,CLR,,,,,,,,VFR,,,,,,,,,,,,METAR,102
PAWN 050356Z AUTO 03008G16KT 10SM CLR M09/M14 A2983 RMK AO2 SLP115 T10891139 FZRANO,PAWN,2023-11-05T03:56:00Z,67.567,-162.977,-8.9,-13.9,30,8,16,10+,29.83,1011.5,,TRUE,TRUE,,,,,,,CLR,,,,,,,,VFR,,,,,,,,,,,,METAR,26
PAWM 050356Z AUTO 35008KT 10SM CLR M12/M16 A2971 RMK AO2 SLP069 T11171156 FZRANO PNO $,PAWM,2023-11-05T03:56:00Z,64.688,-163.41,-11.7,-15.6,350,8,,10+,29.71,1006.9,,TRUE,TRUE,TRUE,,,,,,CLR,,,,,,,,VFR,,,,,,,,,,,,METAR,80
PAWG 050356Z 00000KT 8SM -RA OVC050 08/07 A2909,PAWG,2023-11-05T03:56:00Z,56.486,-132.377,8,7,0,0,,8,29.09,,,,,,,,,,-RA,OVC,5000,,,,,,,VFR,,,,,,,,,,,,METAR,6
PAVD 050356Z 00000KT 10SM CLR M01/M01 A2934 RMK AO2 SLP933 T10111011 $,PAVD,2023-11-05T03:56:00Z,61.133,-146.251,-1.1,-1.1,0,0,,10+,29.34,993.3,,,TRUE,TRUE,,,,,,CLR,,,,,,,,VFR,,,,,,,,,,,,METAR,21
PAVC 050356Z AUTO 29016G31KT 10SM -RA BKN031 OVC055 03/M03 A2983 RMK AO2 PK WND 30035/0329 RAE19B43UPB19E35 SLP102 T00281028 PNO $,PAVC,2023-11-05T03:56:00Z,55.115,-162.271,2.8,-2.8,290,16,31,10+,29.83,1010.2,,TRUE,TRUE,TRUE,,,,,-RA,BKN,3100,OVC,5500,,,,,VFR,,,,,,,,,,,,METAR,48
PAUN 050356Z AUTO 06009KT 10SM -SN BKN042 OVC055 M07/M11 A2964 RMK AO2 SNB52 SLP040 T10721111 FZRANO PNO $,PAUN,2023-11-05T03:56:00Z,63.885,-160.794,-7.2,-11.1,60,9,,10+,29.64,1004,,TRUE,TRUE,TRUE,,,,,-SN,BKN,4200,OVC,5500,,,,,VFR,,,,,,,,,,,,METAR,4
PATQ 050356Z AUTO 06016KT 9SM -SN OVC025 M10/M12 A3014 RMK AO2 SLP211 P0000 T11001122 FZRANO TSNO,PATQ,2023-11-05T03:56:00Z,70.469,-157.428,-10,-12.2,60,16,,9,30.14,1021.1,,TRUE,TRUE,,,,,,-SN,OVC,2500,,,,,,,MVFR,,,,,,0.005,,,,,,METAR,28
PATG 050356Z AUTO 31013KT 9SM -SN SCT032 OVC047 M04/M07 A2964 RMK AO2 SLP038 P0000 T10391067 FZRANO,PATG,2023-11-05T03:56:00Z,59.051,-160.398,-3.9,-6.7,310,13,,9,29.64,1003.8,,TRUE,TRUE,,,,,,-SN,SCT,3200,OVC,4700,,,,,VFR,,,,,,0.005,,,,,,METAR,1
PATE 050356Z AUTO 04010KT 10SM OVC036 M08/M11 A2978 RMK AO2 SLP094 T10781106 FZRANO,PATE,2023-11-05T03:56:00Z,65.242,-166.328,-7.8,-10.6,40,10,,10+,29.78,1009.4,,TRUE,TRUE,,,,,,,OVC,3600,,,,,,,VFR,,,,,,,,,,,,METAR,93
PASX 050356Z AUTO 00000KT 1 3/4SM -RA OVC002 03/ A2930 RMK AO2 UPE04RAB04 SLP928 P0001 T0028,PASX,2023-11-05T03:56:00Z,60.476,-151.053,2.8,,0,0,,1.75,29.30,992.8,,TRUE,TRUE,,,,,,-RA,OVC,200,,,,,,,LIFR,,,,,,0.01,,,,,,METAR,28
PASM 050356Z AUTO 34009KT 9SM -SN BKN031 M08/M11 A2969 RMK AO2 SLP066 P0000 T10781106 FZRANO,PASM,2023-11-05T03:56:00Z,62.057,-163.298,-7.8,-10.6,340,9,,9,29.69,1006.6,,TRUE,TRUE,,,,,,-SN,BKN,3100,,,,,,,VFR,,,,,,0.005,,,,,,METAR,108
PASK 050356Z AUTO 02010KT 10SM OVC060 M09/M14 A2978 RMK AO2 SLP082 T10941144 FZRANO,PASK,2023-11-05T03:56:00Z,66.599,-159.991,-9.4,-14.4,20,10,,10+,29.78,1008.2,,TRUE,TRUE,,,,,,,OVC,6000,,,,,,,VFR,,,,,,,,,,,,METAR,3
PASH 050356Z AUTO 13004KT 7SM -SN FEW022 SCT029 OVC038 M07/M09 A2982 RMK AO2 SLP099 P0000 T10671094 FZRANO,PASH,2023-11-05T03:56:00Z,66.252,-166.084,-6.7,-9.4,130,4,,7,29.82,1009.9,,TRUE,TRUE,,,,,,-SN,FEW,2200,SCT,2900,OVC,3800,,,VFR,,,,,,0.005,,,,,,METAR,3
PASD 050356Z AUTO 31014KT 10SM FEW034 SCT045 BKN050 02/M02 A2978 RMK AO2 RAB22E55 SLP087 T00221017 FZRANO PNO $,PASD,2023-11-05T03:56:00Z,55.318,-160.525,2.2,-1.7,310,14,,10+,29.78,1008.7,,TRUE,TRUE,TRUE,,,,,,FEW,3400,SCT,4500,BKN,5000,,,VFR,,,,,,,,,,,,METAR,6
PARS 050356Z AUTO VRB06KT 9SM -SN FEW027 OVC060 M05/M08 A2962 RMK AO2 SLP034 P0000 T10501083 FZRANO $,PARS,2023-11-05T03:56:00Z,61.78,-161.321,-5,-8.3,VRB,6,,9,29.62,1003.4,,TRUE,TRUE,TRUE,,,,,-SN,FEW,2700,OVC,6000,,,,,VFR,,,,,,0.005,,,,,,METAR,15
PAPO 050356Z AUTO 06030G34KT 9SM -SN BKN018 M09/M12 A3000 RMK AO2 PK WND 06039/0257 SNB24 SLP156 T10891122 FZRANO PNO $,PAPO,2023-11-05T03:56:00Z,68.345,-166.807,-8.9,-12.2,60,30,34,9,30.00,1015.6,,TRUE,TRUE,TRUE,,,,,-SN,BKN,1800,,,,,,,MVFR,,,,,,,,,,,,METAR,4
PAPN 050356Z AUTO 31024G29KT 6SM -SN BKN025 OVC031 M01/M04 A2958 RMK AO2 PK WND 31031/0258 UPB48E53SNE00B35E48B53 SLP018 T10061039 FZRANO PNO $,PAPN,2023-11-05T03:56:00Z,57.578,-157.569,-0.6,-3.9,310,24,29,6,29.58,1001.8,,TRUE,TRUE,TRUE,,,,,-SN,BKN,2500,OVC,3100,,,,,MVFR,,,,,,,,,,,,METAR,19
PAPM 050356Z AUTO 32019G25KT 9SM -SN OVC034 M03/M08 A2971 RMK AO2 PK WND 33026/0329 SLP063 P0000 T10331078 FZRANO,PAPM,2023-11-05T03:56:00Z,59.011,-161.82,-3.3,-7.8,320,19,25,9,29.71,1006.3,,TRUE,TRUE,,,,,,-SN,OVC,3400,,,,,,,VFR,,,,,,0.005,,,,,,METAR,4
PAPH 050356Z AUTO 31023G28KT 10SM UP OVC034 00/M05 A2967 RMK AO2 PK WND 29031/0336 SLP046 P0000 T00001050 FZRANO $,PAPH,2023-11-05T03:56:00Z,56.959,-158.631,0,-5,310,23,28,10+,29.67,1004.6,,TRUE,TRUE,TRUE,,,,,UP,OVC,3400,,,,,,,VFR,,,,,,0.005,,,,,,METAR,29
PAPG 050356Z 00000KT 5SM -RA BR FEW007 OVC050 06/06 A2912 RMK AO2 SLP865 P0004 T00560056,PAPG,2023-11-05T03:56:00Z,56.805,-132.935,5.6,5.6,0,0,,5,29.12,986.5,,,TRUE,,,,,,-RA BR,FEW,700,OVC,5000,,,,,MVFR,,,,,,0.04,,,,,,METAR,24
PAOH 050356Z AUTO 00000KT 8SM OVC065 04/04 A2917 RMK AO2 SLP877 T00390039,PAOH,2023-11-05T03:56:00Z,58.108,-135.448,3.9,3.9,0,0,,8,29.17,987.7,,TRUE,TRUE,,,,,,,OVC,6500,,,,,,,VFR,,,,,,,,,,,,METAR,
PANW 050356Z AUTO 35007KT 9SM -SN SCT043 OVC080 M07/M09 A2955 RMK AO2 SNB00 SLP015 P0000 T10671089 FZRANO,PANW,2023-11-05T03:56:00Z,59.451,-157.325,-6.7,-8.9,350,7,,9,29.55,1001.5,,TRUE,TRUE,,,,,,-SN,SCT,4300,OVC,8000,,,,,VFR,,,,,,0.005,,,,,,METAR,100
PANV 050356Z AUTO 34004KT 10SM M08/M12 A2957 RMK AO2 SLP118 T10781117 FZRANO TSNO $,PANV,2023-11-05T03:56:00Z,62.647,-160.191,-7.8,-11.7,340,4,,10+,29.57,1011.8,,TRUE,TRUE,TRUE,,,,,,,,,,,,,,VFR,,,,,,,,,,,,METAR,91
PANI 050356Z AUTO 33003KT 1SM -SN BR SCT006 OVC014 M07/M09 A2965 RMK AO2 SLP033 P0000 T10721089 FZRANO RVRNO $,PANI,2023-11-05T03:56:00Z,61.578,-159.539,-7.2,-8.9,330,3,,1,29.65,1003.3,,TRUE,TRUE,TRUE,,,,,-SN BR,SCT,600,OVC,1400,,,,,IFR,,,,,,0.005,,,,,,METAR,21
PANA 050356Z AUTO 10SM FEW028 OVC060 M06/M08 A2968 RMK AO2 SNE32 SLP049 P0000 T10561078 FZRANO,PANA,2023-11-05T03:56:00Z,60.694,-161.978,-5.6,-7.8,,,,10+,29.68,1004.9,,TRUE,TRUE,,,,,,,FEW,2800,OVC,6000,,,,,VFR,,,,,,0.005,,,,,,METAR,7
PAMY 050356Z AUTO 30016KT 10SM OVC048 M01/M07 A2979 RMK AO2 UPB02E07SNE02 SLP085 T10061072 FZRANO PNO $,PAMY,2023-11-05T03:56:00Z,60.376,-166.262,-0.6,-7.2,300,16,,10+,29.79,1008.5,,TRUE,TRUE,TRUE,,,,,,OVC,4800,,,,,,,VFR,,,,,,,,,,,,METAR,14
PAMO 050356Z AUTO 33008KT 7SM -SN FEW015 SCT021 OVC037 M07/M08 A2970 RMK AO2 SLP065 P0000 T10721083 FZRANO,PAMO,2023-11-05T03:56:00Z,62.095,-163.686,-7.2,-8.3,330,8,,7,29.70,1006.5,,TRUE,TRUE,,,,,,-SN,FEW,1500,SCT,2100,OVC,3700,,,VFR,,,,,,0.005,,,,,,METAR,93
PAMM 050356Z AUTO 09012G16KT 8SM RA OVC037 11/08 A2904 RMK AO2 SLP925 T01060078 $,PAMM,2023-11-05T03:56:00Z,55.131,-131.578,10.6,7.8,90,12,16,8,29.04,992.5,,TRUE,TRUE,TRUE,,,,,RA,OVC,3700,,,,,,,VFR,,,,,,,,,,,,METAR,
PAMK 050356Z AUTO 36014KT 7SM -SN OVC021 M06/M09 A2965 RMK AO2 SLP042 P0000 T10561089 FZRANO,PAMK,2023-11-05T03:56:00Z,63.484,-162.115,-5.6,-8.9,360,14,,7,29.65,1004.2,,TRUE,TRUE,,,,,,-SN,OVC,2100,,,,,,,MVFR,,,,,,0.005,,,,,,METAR,31
PAMH 050356Z AUTO VRB03KT 10SM OVC021 M08/M12 A2944 RMK AO2 SLP976 T10831122 FZRANO,PAMH,2023-11-05T03:56:00Z,63.889,-152.292,-8.3,-12.2,VRB,3,,10+,29.44,997.6,,TRUE,TRUE,,,,,,,OVC,2100,,,,,,,MVFR,,,,,,,,,,,,METAR,200
PAMB 050356Z AUTO 29008KT 6SM BR BKN050 M06/M08 A2958 RMK AO2 SLP022 T10561078 FZRANO,PAMB,2023-11-05T03:56:00Z,58.986,-159.05,-5.6,-7.8,290,8,,6,29.58,1002.2,,TRUE,TRUE,,,,,,BR,BKN,5000,,,,,,,VFR,,,,,,,,,,,,METAR,28
PAKP 050356Z AUTO 36007KT 10SM CLR M26/M29 A2971 RMK AO2 SLP158 T12611294 FZRANO,PAKP,2023-11-05T03:56:00Z,68.136,-151.74,-26.1,-29.4,360,7,,10+,29.71,1015.8,,TRUE,TRUE,,,,,,,CLR,,,,,,,,VFR,,,,,,,,,,,,METAR,649
PAKK 050356Z AUTO 36009G15KT 10SM -SN BKN047 BKN060 OVC080 M10/M14 A2965 RMK AO2 SNB54 SLP051 P0000 T11001144 FZRANO,PAKK,2023-11-05T03:56:00Z,64.939,-161.156,-10,-14.4,360,9,15,10+,29.65,1005.1,,TRUE,TRUE,,,,,,-SN,BKN,4700,BKN,6000,OVC,8000,,,VFR,,,,,,0.005,,,,,,METAR,56
PAKH 050356Z AUTO 10SM OVC027 01/M04 A2948 RMK AO2 SLP982 T00111044 FZRANO $,PAKH,2023-11-05T03:56:00Z,56.94,-154.181,1.1,-4.4,,,,10+,29.48,998.2,,TRUE,TRUE,TRUE,,,,,,OVC,2700,,,,,,,MVFR,,,,,,,,,,,,METAR,15
PAJZ 050356Z AUTO 32006KT 6SM BR OVC075 M06/M08 A2959 RMK AO2 SNE22 SLP026 P0000 T10611083 FZRANO $,PAJZ,2023-11-05T03:56:00Z,59.727,-157.267,-6.1,-8.3,320,6,,6,29.59,1002.6,,TRUE,TRUE,TRUE,,,,,BR,OVC,7500,,,,,,,VFR,,,,,,0.005,,,,,,METAR,80
PAIW 050356Z AUTO 08004KT 9SM -SN FEW020 OVC043 M07/M08 A2984 RMK AO2 SLP106 P0000 T10671078 FZRANO,PAIW,2023-11-05T03:56:00Z,65.621,-168.093,-6.7,-7.8,80,4,,9,29.84,1010.6,,TRUE,TRUE,,,,,,-SN,FEW,2000,OVC,4300,,,,,VFR,,,,,,0.005,,,,,,METAR,6
PAIN 050356Z AUTO 00000KT 10SM OVC009 M10/M12 A2937 RMK AO2 SLP982 T11001117 FZRANO,PAIN,2023-11-05T03:56:00Z,63.733,-148.912,-10,-11.7,0,0,,10+,29.37,998.2,,TRUE,TRUE,,,,,,,OVC,900,,,,,,,IFR,,,,,,,,,,,,METAR,525
PAIK 050356Z AUTO 36005KT 10SM OVC060 M12/M15 A2980 RMK AO2 SLP097 T11171150 FZRANO,PAIK,2023-11-05T03:56:00Z,66.975,-160.439,-11.7,-15,360,5,,10+,29.80,1009.7,,TRUE,TRUE,,,,,,,OVC,6000,,,,,,,VFR,,,,,,,,,,,,METAR,49
PAHY 050356Z AUTO 31003KT 5SM -RA BR OVC027 09/09 A2899 RMK AO2 SLP813 P0003 T00940089 $,PAHY,2023-11-05T03:56:00Z,55.202,-132.825,9.4,8.9,310,3,,5,28.99,981.3,,TRUE,TRUE,TRUE,,,,,-RA BR,OVC,2700,,,,,,,MVFR,,,,,,0.03,,,,,,METAR,
PAHL 050356Z AUTO 05008KT SCT026 BKN030 OVC036 M08/M12 A2966 RMK AO2 SLP049 T10831122 PWINO FZRANO $,PAHL,2023-11-05T03:56:00Z,65.699,-156.353,-8.3,-12.2,50,8,,,29.66,1004.9,,TRUE,TRUE,TRUE,,,,,,SCT,2600,BKN,3000,OVC,3600,,,MVFR,,,,,,,,,,,,METAR,49
PAGS 050356Z AUTO 00000KT 10SM FEW001 03/03 A2918 RMK AO2 SLP881 T00280028,PAGS,2023-11-05T03:56:00Z,58.425,-135.707,2.8,2.8,0,0,,10+,29.18,988.1,,TRUE,TRUE,,,,,,,FEW,100,,,,,,,VFR,,,,,,,,,,,,METAR,9
PAGN 050356Z AUTO 00000KT 10SM -RA OVC055 06/06 A2916 RMK AO2 SLP862 P0000 T00610061,PAGN,2023-11-05T03:56:00Z,57.502,-134.589,6.1,6.1,0,0,,10+,29.16,986.2,,TRUE,TRUE,,,,,,-RA,OVC,5500,,,,,,,VFR,,,,,,0.005,,,,,,METAR,2
PAGH 050356Z AUTO 00000KT 10SM SCT035 BKN045 OVC060 M14/M15 A2977 RMK AO2 SLP088 T11391150 FZRANO,PAGH,2023-11-05T03:56:00Z,66.886,-157.159,-13.9,-15,0,0,,10+,29.77,1008.8,,TRUE,TRUE,,,,,,,SCT,3500,BKN,4500,OVC,6000,,,VFR,,,,,,,,,,,,METAR,56
PAFM 050356Z AUTO 03011KT 10SM OVC065 M11/M17 A2978 RMK AO2 SLP096 T11061172 FZRANO,PAFM,2023-11-05T03:56:00Z,67.106,-157.858,-10.6,-17.2,30,11,,10+,29.78,1009.6,,TRUE,TRUE,,,,,,,OVC,6500,,,,,,,VFR,,,,,,,,,,,,METAR,79
PAFE 050356Z AUTO 31005KT 10SM -RA OVC033 07/06 A2914 RMK AO2 SLP879 P0000 T00670061,PAFE,2023-11-05T03:56:00Z,56.961,-133.91,6.7,6.1,310,5,,10+,29.14,987.9,,TRUE,TRUE,,,,,,-RA,OVC,3300,,,,,,,VFR,,,,,,0.005,,,,,,METAR,1
PADU 050356Z AUTO 31012KT 10SM -RA SCT025 BKN034 05/02 A2999 RMK AO2 RAE11B46 SLP158 P0000 T00500017,PADU,2023-11-05T03:56:00Z,53.896,-166.543,5,1.7,310,12,,10+,29.99,1015.8,,TRUE,TRUE,,,,,,-RA,SCT,2500,BKN,3400,,,,,VFR,,,,,,0.005,,,,,,METAR,4
PADM 050356Z AUTO 33015G20KT 9SM -SN OVC021 M06/M08 A2969 RMK AO2 SLP059 P0000 T10561083 FZRANO,PADM,2023-11-05T03:56:00Z,61.865,-162.033,-5.6,-8.3,330,15,20,9,29.69,1005.9,,TRUE,TRUE,,,,,,-SN,OVC,2100,,,,,,,MVFR,,,,,,0.005,,,,,,METAR,17
PADL 050356Z 00000KT 9SM BKN031 BKN038 M06/M07 A2958 RMK AO2 SNE0259B41E55 SLP018 P0000 T10561067,PADL,2023-11-05T03:56:00Z,59.04,-158.507,-5.6,-6.7,0,0,,9,29.58,1001.8,,,TRUE,,,,,,,BKN,3100,BKN,3800,,,,,VFR,,,,,,0.005,,,,,,METAR,20
PADK 050356Z AUTO 24017G23KT 4SM BR OVC004 09/08 A3015 RMK AO2 RAB0258E11 SLP211 P0000 T00890083 $,PADK,2023-11-05T03:56:00Z,51.881,-176.644,8.9,8.3,240,17,23,4,30.15,1021.1,,TRUE,TRUE,TRUE,,,,,BR,OVC,400,,,,,,,LIFR,,,,,,0.005,,,,,,METAR,3
PACX 050356Z AUTO 06016G24KT 10SM CLR M09/M17 A2974 RMK AO2 SLP700 T10941172 FZRANO,PACX,2023-11-05T03:56:00Z,67.252,-150.204,-9.4,-17.2,60,16,24,10+,29.74,970,,TRUE,TRUE,,,,,,,CLR,,,,,,,,VFR,,,,,,,,,,,,METAR,319
PACM 050356Z AUTO 31010KT 9SM -SN OVC041 M03/M07 A2977 RMK AO2 SNE22B38 SLP079 P0000 T10331067 FZRANO,PACM,2023-11-05T03:56:00Z,61.846,-165.579,-3.3,-6.7,310,10,,9,29.77,1007.9,,TRUE,TRUE,,,,,,-SN,OVC,4100,,,,,,,VFR,,,,,,0.005,,,,,,METAR,3
PABV 050356Z AUTO 20003KT 1/4SM FG OVC003 01/00 A2928 RMK AO2 SLP920 T00060000 FZRANO,PABV,2023-11-05T03:56:00Z,61.416,-149.511,0.6,0,200,3,,0.25,29.28,992,,TRUE,TRUE,,,,,,FG,OVC,300,,,,,,,LIFR,,,,,,,,,,,,METAR,21
PABL 050356Z AUTO 28007KT 10SM CLR M11/M16 A2976 RMK AO2 SLP080 T11061156 FZRANO,PABL,2023-11-05T03:56:00Z,65.979,-161.146,-10.6,-15.6,280,7,,10+,29.76,1008,,TRUE,TRUE,,,,,,,CLR,,,,,,,,VFR,,,,,,,,,,,,METAR,7
KYKN 050356Z AUTO 20010KT 10SM CLR 11/08 A3009 RMK AO2 SLP208 T01060078,KYKN,2023-11-05T03:56:00Z,42.9142,-97.3807,10.6,7.8,200,10,,10+,30.09,1020.8,,TRUE,TRUE,,,,,,,CLR,,,,,,,,VFR,,,,,,,,,,,,METAR,388
KWWD 050356Z AUTO 00000KT 10SM CLR 08/08 A3011 RMK AO2 SLP199 T00830078 $,KWWD,2023-11-05T03:56:00Z,39.0108,-74.9079,8.3,7.8,0,0,,10+,30.11,1019.9,,TRUE,TRUE,TRUE,,,,,,CLR,,,,,,,,VFR,,,,,,,,,,,,METAR,4
KWVL 050356Z AUTO 00000KT 10SM OVC065 06/04 A3004 RMK AO2 SLP201 T00610044,KWVL,2023-11-05T03:56:00Z,44.5301,-69.6753,6.1,4.4,0,0,,10+,30.04,1020.1,,TRUE,TRUE,,,,,,,OVC,6500,,,,,,,VFR,,,,,,,,,,,,METAR,87
KWMC 050356Z AUTO 22004KT 10SM FEW070 SCT090 SCT110 16/M01 A3002 RMK AO2 SLP144 T01611011,KWMC,2023-11-05T03:56:00Z,40.9018,-117.808,16.1,-1.1,220,4,,10+,30.02,1014.4,,TRUE,TRUE,,,,,,,FEW,7000,SCT,9000,SCT,11000,,,VFR,,,,,,,,,,,,METAR,1311
KWJF 050356Z 29006KT 10SM CLR 13/M06 A3007 RMK AO2 SLP183 T01331061,KWJF,2023-11-05T03:56:00Z,34.7412,-118.213,13.3,-6.1,290,6,,10+,30.07,1018.3,,,TRUE,,,,,,,CLR,,,,,,,,VFR,,,,,,,,,,,,METAR,712
KVIS 050356Z AUTO 00000KT 7SM CLR 14/08 A3004 RMK AO2 SLP181 T01440078 PNO $,KVIS,2023-11-05T03:56:00Z,36.3135,-119.388,14.4,7.8,0,0,,7,30.04,1018.1,,TRUE,TRUE,TRUE,,,,,,CLR,,,,,,,,VFR,,,,,,,,,,,,METAR,92
KVBT 050356Z AUTO 00000KT 8SM FEW055 BKN085 14/12 A3019 RMK AO2 SLP223 T01390117 $,KVBT,2023-11-05T03:56:00Z,36.3444,-94.2211,13.9,11.7,0,0,,8,30.19,1022.3,,TRUE,TRUE,TRUE,,,,,,FEW,5500,BKN,8500,,,,,VFR,,,,,,,,,,,,METAR,390
KUKI 050356Z AUTO 10003KT 10SM -RA FEW080 OVC095 17/13 A3005 RMK AO2 RAB52 SLP170 P0000 T01670128,KUKI,2023-11-05T03:56:00Z,39.1278,-123.2,16.7,12.8,100,3,,10+,30.05,1017,,TRUE,TRUE,,,,,,-RA,FEW,8000,OVC,9500,,,,,VFR,,,,,,0.005,,,,,,METAR,183
KUDG 050356Z AUTO 00000KT 10SM CLR 07/00 A3013 RMK AO2 SLP204 T00670000 402390006,KUDG,2023-11-05T03:56:00Z,34.4474,-79.8902,6.7,0,0,0,,10+,30.13,1020.4,,TRUE,TRUE,,,,,,,CLR,,,,,,,,VFR,,,,,,,,,,,,METAR,57
KUCP 050356Z AUTO 00000KT 10SM OVC070 09/03 A3007 RMK AO2 SLP201 T00890028 401440083 $,KUCP,2023-11-05T03:56:00Z,41.0228,-80.4153,8.9,2.8,0,0,,10+,30.07,1020.1,,TRUE,TRUE,TRUE,,,,,,OVC,7000,,,,,,,VFR,,,,,,,,,,,,METAR,313
KTPH 050356Z AUTO 35004KT 10SM CLR 07/M08 A3018 RMK AO2 SLP199 T00671078,KTPH,2023-11-05T03:56:00Z,38.0505,-117.091,6.7,-7.8,350,4,,10+,30.18,1019.9,,TRUE,TRUE,,,,,,,CLR,,,,,,,,VFR,,,,,,,,,,,,METAR,1647
KSXT 050356Z AUTO 20008G18KT M1/4SM -RA FG VV001 07/07 A2996 RMK AO2 SLP134 P0000 T00720072,KSXT,2023-11-05T03:56:00Z,42.6,-123.366,7.2,7.2,200,8,18,0.25,29.96,1013.4,,TRUE,TRUE,,,,,,-RA FG,OVX,0,,,,,,,LIFR,,,,,,0.005,,,,,100,METAR,1151
KSUE 050356Z AUTO 22005KT 10SM FEW120 02/M02 A3014 RMK AO2 SLP209 T00221017 FZRANO,KSUE,2023-11-05T03:56:00Z,44.847,-87.425,2.2,-1.7,220,5,,10+,30.14,1020.9,,TRUE,TRUE,,,,,,,FEW,12000,,,,,,,VFR,,,,,,,,,,,,METAR,215
KSRC 050356Z AUTO 00000KT 10SM CLR 11/09 A3018 RMK AO2 SLP217 T01060089,KSRC,2023-11-05T03:56:00Z,35.2134,-91.7393,10.6,8.9,0,0,,10+,30.18,1021.7,,TRUE,TRUE,,,,,,,CLR,,,,,,,,VFR,,,,,,,,,,,,METAR,80
KSQI 050356Z AUTO 00000KT 10SM CLR 02/02 A3019 RMK AO2 SLP088 T00220017 FZRANO PNO $,KSQI,2023-11-05T03:56:00Z,41.7432,-89.6655,2.2,1.7,0,0,,10+,30.19,1008.8,,TRUE,TRUE,TRUE,,,,,,CLR,,,,,,,,VFR,,,,,,,,,,,,METAR,196
KSPD 050356Z AUTO 20005KT 06/00 A3021 RMK AO1 SLP201 T00560000,KSPD,2023-11-05T03:56:00Z,37.2834,-102.614,5.6,0,200,5,,,30.21,1020.1,,TRUE,TRUE,,,,,,,,,,,,,,,VFR,,,,,,,,,,,,METAR,1340
KSOP 050356Z AUTO 00000KT 10SM CLR 05/M02 A3013 RMK AO2 SLP209 T00501022,KSOP,2023-11-05T03:56:00Z,35.2371,-79.3921,5,-2.2,0,0,,10+,30.13,1020.9,,TRUE,TRUE,,,,,,,CLR,,,,,,,,VFR,,,,,,,,,,,,METAR,135
KSMP 050356Z AUTO VRB06KT 10SM FEW030 SCT035 06/04 A2982 RMK AO2 SLP104 T00610044,KSMP,2023-11-05T03:56:00Z,47.2764,-121.338,6.1,4.4,VRB,6,,10+,29.82,1010.4,,TRUE,TRUE,,,,,,,FEW,3000,SCT,3500,,,,,VFR,,,,,,,,,,,,METAR,1206
KSMN 050356Z AUTO 00000KT 8SM BKN075 04/03 A3002 RMK AO2 SLP859 T00390033,KSMN,2023-11-05T03:56:00Z,45.1283,-113.883,3.9,3.3,0,0,,8,30.02,985.9,,TRUE,TRUE,,,,,,,BKN,7500,,,,,,,VFR,,,,,,,,,,,,METAR,1228
KSLG 050356Z AUTO 00000KT 7SM BKN085 14/11 A3018 RMK AO2 SLP214 T01440111,KSLG,2023-11-05T03:56:00Z,36.1941,-94.488,14.4,11.1,0,0,,7,30.18,1021.4,,TRUE,TRUE,,,,,,,BKN,8500,,,,,,,VFR,,,,,,,,,,,,METAR,361
KSLE 050356Z 20006KT 10SM BKN043 BKN050 13/11 A2989 RMK AO2 SLP120 T01330106,KSLE,2023-11-05T03:56:00Z,44.9049,-123.001,13.3,10.6,200,6,,10+,29.89,1012,,,TRUE,,,,,,,BKN,4300,BKN,5000,,,,,VFR,,,,,,,,,,,,METAR,63
KSKX 050356Z AUTO 13005KT 10SM CLR 03/M16 A3033 RMK AO2 SLP264 T00331161,KSKX,2023-11-05T03:56:00Z,36.4584,-105.675,3.3,-16.1,130,5,,10+,30.33,1026.4,,TRUE,TRUE,,,,,,,CLR,,,,,,,,VFR,,,,,,,,,,,,METAR,2163
KSHV 050356Z 00000KT 10SM CLR 13/11 A3015 RMK SLPNO,KSHV,2023-11-05T03:56:00Z,32.4473,-93.8244,13,11,0,0,,10+,30.15,,,,,,,,,,,CLR,,,,,,,,VFR,,,,,,,,,,,,METAR,70
KSGU 050356Z AUTO 02003KT 9SM CLR 16/M05 A3010 RMK AO2 SLP182 T01561050,KSGU,2023-11-05T03:56:00Z,37.0444,-113.503,15.6,-5,20,3,,9,30.10,1018.2,,TRUE,TRUE,,,,,,,CLR,,,,,,,,VFR,,,,,,,,,,,,METAR,877
KSGT 050356Z AUTO 16004KT 9SM CLR 13/11 A3018 RMK AO2 SLP219 T01330106,KSGT,2023-11-05T03:56:00Z,34.5998,-91.5763,13.3,10.6,160,4,,9,30.18,1021.9,,TRUE,TRUE,,,,,,,CLR,,,,,,,,VFR,,,,,,,,,,,,METAR,67
KSGJ 050356Z AUTO 34009KT 10SM 17/08 A3010 RMK AO2 SLP192 T01670078 402220161 $,KSGJ,2023-11-05T03:56:00Z,29.9592,-81.341,16.7,7.8,340,9,,10+,30.10,1019.2,,TRUE,TRUE,TRUE,,,,,,,,,,,,,,VFR,,,,,,,,,,,,METAR,2
KSGH 050356Z AUTO 26004KT 10SM CLR 06/03 A3012 RMK AO2 SLP203 T00610033 401830061,KSGH,2023-11-05T03:56:00Z,39.8358,-83.8443,6.1,3.3,260,4,,10+,30.12,1020.3,,TRUE,TRUE,,,,,,,CLR,,,,,,,,VFR,,,,,,,,,,,,METAR,318
KSFZ 050356Z AUTO 23003KT 10SM OVC120 08/06 A3009 RMK AO2 SLP189 T00830056 $,KSFZ,2023-11-05T03:56:00Z,41.9168,-71.4924,8.3,5.6,230,3,,10+,30.09,1018.9,,TRUE,TRUE,TRUE,,,,,,OVC,12000,,,,,,,VFR,,,,,,,,,,,,METAR,129
KSFO 050356Z 00000KT 10SM FEW013 FEW019 17/13 A3006 RMK AO2 SLP179 T01670133 VISNO $,KSFO,2023-11-05T03:56:00Z,37.6196,-122.366,16.7,13.3,0,0,,10+,30.06,1017.9,,,TRUE,TRUE,,,,,,FEW,1300,FEW,1900,,,,,VFR,,,,,,,,,,,,METAR,2
KSFM 050356Z AUTO 00000KT 10SM OVC100 07/04 A3008 RMK AO2 SLP188 T00720039 401280050,KSFM,2023-11-05T03:56:00Z,43.3876,-70.7154,7.2,3.9,0,0,,10+,30.08,1018.8,,TRUE,TRUE,,,,,,,OVC,10000,,,,,,,VFR,,,,,,,,,,,,METAR,70
KSDY 050356Z AUTO 35003KT 10SM OVC110 02/01 A2989 RMK AO2 SLP145 T00220011 FZRANO,KSDY,2023-11-05T03:56:00Z,47.7029,-104.195,2.2,1.1,350,3,,10+,29.89,1014.5,,TRUE,TRUE,,,,,,,OVC,11000,,,,,,,VFR,,,,,,,,,,,,METAR,600
KSDF 050356Z 29006KT 10SM BKN150 OVC250 14/07 A3014 RMK AO2 SLP206 T01440072,KSDF,2023-11-05T03:56:00Z,38.1774,-85.7308,14.4,7.2,290,6,,10+,30.14,1020.6,,,TRUE,,,,,,,BKN,15000,OVC,25000,,,,,VFR,,,,,,,,,,,,METAR,146
KSBP 050356Z AUTO 32004KT 10SM CLR 17/12 A3003 RMK AO2 SLP169 T01670122,KSBP,2023-11-05T03:56:00Z,35.2382,-120.644,16.7,12.2,320,4,,10+,30.03,1016.9,,TRUE,TRUE,,,,,,,CLR,,,,,,,,VFR,,,,,,,,,,,,METAR,52
KRUT 050356Z AUTO 12005KT 10SM OVC065 08/02 A3008 RMK AO2 SLP181 T00780022 $,KRUT,2023-11-05T03:56:00Z,43.53,-72.9517,7.8,2.2,120,5,,10+,30.08,1018.1,,TRUE,TRUE,TRUE,,,,,,OVC,6500,,,,,,,VFR,,,,,,,,,,,,METAR,238
KRKD 050356Z AUTO 27003KT 10SM -RA FEW065 SCT080 OVC110 07/07 A3007 RMK AO2 RAB31 SLP181 P0000 T00670067,KRKD,2023-11-05T03:56:00Z,44.0611,-69.1014,6.7,6.7,270,3,,10+,30.07,1018.1,,TRUE,TRUE,,,,,,-RA,FEW,6500,SCT,8000,OVC,11000,,,VFR,,,,,,0.005,,,,,,METAR,15
KRDM 050356Z 20013G20KT 10SM BKN100 BKN120 12/05 A2989 RMK AO2 SLP113 T01170050,KRDM,2023-11-05T03:56:00Z,44.2558,-121.141,11.7,5,200,13,20,10+,29.89,1011.3,,,TRUE,,,,,,,BKN,10000,BKN,12000,,,,,VFR,,,,,,,,,,,,METAR,930
KPWT 050356Z AUTO 20010G17KT 10SM BKN009 BKN055 12/12 A2982 RMK AO2 RAB12E34 CIG 006V012 SLP100 P0000 T01170117,KPWT,2023-11-05T03:56:00Z,47.4942,-122.759,11.7,11.7,200,10,17,10+,29.82,1010,,TRUE,TRUE,,,,,,,BKN,900,BKN,5500,,,,,IFR,,,,,,0.005,,,,,,METAR,143
KPWG 050356Z AUTO 16004KT 10SM CLR 17/14 A3012 RMK AO2 SLP197 T01670144,KPWG,2023-11-05T03:56:00Z,31.4891,-97.3202,16.7,14.4,160,4,,10+,30.12,1019.7,,TRUE,TRUE,,,,,,,CLR,,,,,,,,VFR,,,,,,,,,,,,METAR,178
KPVU 050356Z AUTO 20005KT 10SM CLR 08/05 A3010 RMK AO2 SLP180 T00830050,KPVU,2023-11-05T03:56:00Z,40.224,-111.725,8.3,5,200,5,,10+,30.10,1018,,TRUE,TRUE,,,,,,,CLR,,,,,,,,VFR,,,,,,,,,,,,METAR,1370
KPVG 050356Z AUTO 00000KT 10SM CLR 07/06 A3011 RMK AO2 SLP197 T00670061 402220017 PNO $,KPVG,2023-11-05T03:56:00Z,36.7824,-76.452,6.7,6.1,0,0,,10+,30.11,1019.7,,TRUE,TRUE,TRUE,,,,,,CLR,,,,,,,,VFR,,,,,,,,,,,,METAR,7
KPVC 050356Z AUTO 26006KT 10SM CLR 12/09 A3009 RMK AO2 SLP188 T01170094,KPVC,2023-11-05T03:56:00Z,42.0743,-70.2183,11.7,9.4,260,6,,10+,30.09,1018.8,,TRUE,TRUE,,,,,,,CLR,,,,,,,,VFR,,,,,,,,,,,,METAR,1
KPTV 050356Z AUTO 10004KT 6SM HZ CLR 14/07 A3005 RMK AO2 SLP175 T01440072,KPTV,2023-11-05T03:56:00Z,36.0274,-119.063,14.4,7.2,100,4,,6,30.05,1017.5,,TRUE,TRUE,,,,,,HZ,CLR,,,,,,,,VFR,,,,,,,,,,,,METAR,132
KPTN 050356Z AUTO 00000KT 10SM CLR 13/12 A3019 RMK AO2 SLP222 T01280122 $,KPTN,2023-11-05T03:56:00Z,29.71,-91.3381,12.8,12.2,0,0,,10+,30.19,1022.2,,TRUE,TRUE,TRUE,,,,,,CLR,,,,,,,,VFR,,,,,,,,,,,,METAR,2
KPRX 050356Z AUTO 12003KT 10SM CLR 14/13 A3015 RMK AO2 SLP208 T01440128,KPRX,2023-11-05T03:56:00Z,33.6359,-95.4514,14.4,12.8,120,3,,10+,30.15,1020.8,,TRUE,TRUE,,,,,,,CLR,,,,,,,,VFR,,,,,,,,,,,,METAR,165
KPQI 050356Z AUTO 00000KT 10SM CLR M04/M05 A3005 RMK AO2 SLP208 T10391050,KPQI,2023-11-05T03:56:00Z,46.697,-68.054,-3.9,-5,0,0,,10+,30.05,1020.8,,TRUE,TRUE,,,,,,,CLR,,,,,,,,VFR,,,,,,,,,,,,METAR,154
KPIB 050356Z AUTO 00000KT 10SM CLR 10/08 A3019 RMK AO2 SLP222 T01000078 $,KPIB,2023-11-05T03:56:00Z,31.4727,-89.3383,10,7.8,0,0,,10+,30.19,1022.2,,TRUE,TRUE,TRUE,,,,,,CLR,,,,,,,,VFR,,,,,,,,,,,,METAR,91
KP60 050356Z AUTO 00000KT 01/00 A3015 RMK AO1 SLP201 T00060000,KP60,2023-11-05T03:56:00Z,44.5448,-110.422,0.6,0,0,0,,,30.15,1020.1,,TRUE,TRUE,,,,,,,,,,,,,,,VFR,,,,,,,,,,,,METAR,2377
KP28 050356Z AUTO 08004KT 13/08 A3017 RMK AO1 SLP212 T01280083 $,KP28,2023-11-05T03:56:00Z,37.2664,-98.5463,12.8,8.3,80,4,,,30.17,1021.2,,TRUE,TRUE,TRUE,,,,,,,,,,,,,,VFR,,,,,,,,,,,,METAR,469
KOWB 050356Z AUTO 31003KT 10SM CLR 13/08 A3017 RMK AO2 SLP216 T01280078,KOWB,2023-11-05T03:56:00Z,37.7297,-87.1683,12.8,7.8,310,3,,10+,30.17,1021.6,,TRUE,TRUE,,,,,,,CLR,,,,,,,,VFR,,,,,,,,,,,,METAR,121
KOTH 050356Z 00000KT 8SM OVC006 14/14 A2995 RMK AO2 SLP141 T01440139,KOTH,2023-11-05T03:56:00Z,43.4194,-124.244,14.4,13.9,0,0,,8,29.95,1014.1,,,TRUE,,,,,,,OVC,600,,,,,,,IFR,,,,,,,,,,,,METAR,3
KOTG 050356Z AUTO 21012KT 10SM CLR 07/04 A3009 RMK AO2 SLP203 T00720039,KOTG,2023-11-05T03:56:00Z,43.6525,-95.5759,7.2,3.9,210,12,,10+,30.09,1020.3,,TRUE,TRUE,,,,,,,CLR,,,,,,,,VFR,,,,,,,,,,,,METAR,478
KOLU 050356Z AUTO 16005KT 10SM CLR 07/06 A3016 RMK AO2 SLP223 T00720061,KOLU,2023-11-05T03:56:00Z,41.4472,-97.3391,7.2,6.1,160,5,,10+,30.16,1022.3,,TRUE,TRUE,,,,,,,CLR,,,,,,,,VFR,,,,,,,,,,,,METAR,438
KOKK 050356Z AUTO 31003KT 6SM BR CLR 05/04 A3018 RMK AO2 SLP221 T00500044,KOKK,2023-11-05T03:56:00Z,40.5304,-86.055,5,4.4,310,3,,6,30.18,1022.1,,TRUE,TRUE,,,,,,BR,CLR,,,,,,,,VFR,,,,,,,,,,,,METAR,251
KOFK 050356Z AUTO 20011KT 10SM CLR 09/06 A3013 RMK AO2 SLP207 T00890061,KOFK,2023-11-05T03:56:00Z,41.9799,-97.4335,8.9,6.1,200,11,,10+,30.13,1020.7,,TRUE,TRUE,,,,,,,CLR,,,,,,,,VFR,,,,,,,,,,,,METAR,476
KOCH 050356Z AUTO 00000KT 10SM CLR 13/13 A3016 RMK AO2 SLP217 T01280128,KOCH,2023-11-05T03:56:00Z,31.5809,-94.7081,12.8,12.8,0,0,,10+,30.16,1021.7,,TRUE,TRUE,,,,,,,CLR,,,,,,,,VFR,,,,,,,,,,,,METAR,105
KOAJ 050356Z AUTO 00000KT 10SM CLR 13/12 A3009 RMK AO2 SLP192 T01280122,KOAJ,2023-11-05T03:56:00Z,34.8251,-77.6189,12.8,12.2,0,0,,10+,30.09,1019.2,,TRUE,TRUE,,,,,,,CLR,,,,,,,,VFR,,,,,,,,,,,,METAR,26
KNYG 050356Z AUTO 28006KT 9SM CLR 07/ A3011 RMK AO2 SLP198 T0072 $,KNYG,2023-11-05T03:56:00Z,38.503,-77.301,7.2,,280,6,,9,30.11,1019.8,,TRUE,TRUE,TRUE,,,,,,CLR,,,,,,,,VFR,,,,,,,,,,,,METAR,2
KNXP 050356Z AUTO 00000KT 10SM CLR 16/M15 A3011 RMK AO2 SLP174 T01611150,KNXP,2023-11-05T03:56:00Z,34.294,-116.147,16.1,-15,0,0,,10+,30.11,1017.4,,TRUE,TRUE,,,,,,,CLR,,,,,,,,VFR,,,,,,,,,,,,METAR,610
KNUC 050356Z AUTO 28008KT BKN005 22/ A3003 RMK AO2 SLP166 T0222 $,KNUC,2023-11-05T03:56:00Z,33.022,-118.583,22.2,,280,8,,,30.03,1016.6,,TRUE,TRUE,TRUE,,,,,,BKN,500,,,,,,,IFR,,,,,,,,,,,,METAR,52
KNTU 050356Z 00000KT 8SM FEW250 10/09 A3009 RMK AO2 SLP191 T01000094,KNTU,2023-11-05T03:56:00Z,36.8209,-76.0277,10,9.4,0,0,,8,30.09,1019.1,,,TRUE,,,,,,,FEW,25000,,,,,,,VFR,,,,,,,,,,,,METAR,6
KNQI 050356Z AUTO 11003KT 10SM CLR 20/18 A3012 RMK AO2 SLP195 T02000183 PNO $,KNQI,2023-11-05T03:56:00Z,27.507,-97.81,20,18.3,110,3,,10+,30.12,1019.5,,TRUE,TRUE,TRUE,,,,,,CLR,,,,,,,,VFR,,,,,,,,,,,,METAR,15
KNPA 050356Z AUTO 32003KT 10SM CLR 13/12 A3016 RMK AO2 SLP214 T01280117 $,KNPA,2023-11-05T03:56:00Z,30.356,-87.323,12.8,11.7,320,3,,10+,30.16,1021.4,,TRUE,TRUE,TRUE,,,,,,CLR,,,,,,,,VFR,,,,,,,,,,,,METAR,6
KNOG 050356Z AUTO 00000KT 10SM CLR 18/17 A3013 RMK AO2 SLP183 T01780172 TSNO $,KNOG,2023-11-05T03:56:00Z,27.895,-98.043,17.8,17.2,0,0,,10+,30.13,1018.3,,TRUE,TRUE,TRUE,,,,,,CLR,,,,,,,,VFR,,,,,,,,,,,,METAR,72
KNMM 050356Z AUTO 00000KT 10SM CLR 09/06 A3018 RMK AO2 SLP229 T00890061 $,KNMM,2023-11-05T03:56:00Z,32.546,-88.543,8.9,6.1,0,0,,10+,30.18,1022.9,,TRUE,TRUE,TRUE,,,,,,CLR,,,,,,,,VFR,,,,,,,,,,,,METAR,94
KNLC 050356Z AUTO 00000KT 10SM CLR 16/02 A3002 RMK AO2 SLP168 T01560017,KNLC,2023-11-05T03:56:00Z,36.3024,-119.94,15.6,1.7,0,0,,10+,30.02,1016.8,,TRUE,TRUE,,,,,,,CLR,,,,,,,,VFR,,,,,,,,,,,,METAR,69
KNKT 050356Z 36006KT 10SM OVC055 17/15 A3007 RMK AO2 SLP180 T01670150,KNKT,2023-11-05T03:56:00Z,34.897,-76.881,16.7,15,360,6,,10+,30.07,1018,,,TRUE,,,,,,,OVC,5500,,,,,,,VFR,,,,,,,,,,,,METAR,8
KNJK 050356Z AUTO 29003KT 10SM CLR 19/03 A2995 RMK AO2 SLP158 T01940033 $,KNJK,2023-11-05T03:56:00Z,32.823,-115.668,19.4,3.3,290,3,,10+,29.95,1015.8,,TRUE,TRUE,TRUE,,,,,,CLR,,,,,,,,VFR,,,,,,,,,,,,METAR,-15
KNID 050356Z AUTO 16006KT 10SM CLR 15/M05 A3003 RMK AO2 SLP166 T01501050 $,KNID,2023-11-05T03:56:00Z,35.688,-117.69,15,-5,160,6,,10+,30.03,1016.6,,TRUE,TRUE,TRUE,,,,,,CLR,,,,,,,,VFR,,,,,,,,,,,,METAR,682
KNGP 050356Z AUTO 08004KT 10SM CLR 23/19 A3011 RMK AO2 SLP196 T02280194 $,KNGP,2023-11-05T03:56:00Z,27.688,-97.292,22.8,19.4,80,4,,10+,30.11,1019.6,,TRUE,TRUE,TRUE,,,,,,CLR,,,,,,,,VFR,,,,,,,,,,,,METAR,5
KNFL 050356Z AUTO 34005KT 10SM CLR 16/01 A3003 RMK AO2 SLP139 T01610006,KNFL,2023-11-05T03:56:00Z,39.417,-118.705,16.1,0.6,340,5,,10+,30.03,1013.9,,TRUE,TRUE,,,,,,,CLR,,,,,,,,VFR,,,,,,,,,,,,METAR,1199
KNFE 050356Z AUTO 00000KT 8SM CLR 10/06 A3010 RMK AO2 SLP194 T01000061,KNFE,2023-11-05T03:56:00Z,36.701,-76.129,10,6.1,0,0,,8,30.10,1019.4,,TRUE,TRUE,,,,,,,CLR,,,,,,,,VFR,,,,,,,,,,,,METAR,4
KNDZ 050356Z AUTO 28003KT 10SM CLR 12/08 A3017 RMK AO2 SLP203 T01220083 $,KNDZ,2023-11-05T03:56:00Z,30.6973,-87.0207,12.2,8.3,280,3,,10+,30.17,1020.3,,TRUE,TRUE,TRUE,,,,,,CLR,,,,,,,,VFR,,,,,,,,,,,,METAR,51
KNCA 050356Z AUTO 34006KT 10SM FEW055 16/14 A3007 RMK AO2 SLP183 T01610139,KNCA,2023-11-05T03:56:00Z,34.7062,-77.4406,16.1,13.9,340,6,,10+,30.07,1018.3,,TRUE,TRUE,,,,,,,FEW,5500,,,,,,,VFR,,,,,,,,,,,,METAR,9
KNBC 050356Z AUTO 33006KT 10SM CLR 12/04 A3011 RMK AO2 SLP198 T01170044,KNBC,2023-11-05T03:56:00Z,32.477,-80.722,11.7,4.4,330,6,,10+,30.11,1019.8,,TRUE,TRUE,,,,,,,CLR,,,,,,,,VFR,,,,,,,,,,,,METAR,9
KMYR 050356Z AUTO 34006KT 10SM CLR 14/09 A3009 RMK AO2 SLP189 T01440094,KMYR,2023-11-05T03:56:00Z,33.6769,-78.9325,14.4,9.4,340,6,,10+,30.09,1018.9,,TRUE,TRUE,,,,,,,CLR,,,,,,,,VFR,,,,,,,,,,,,METAR,7
KMWH 050356Z 17003KT 1/4SM R32R/P6000FT FG OVC002 09/08 A2980 RMK AO2 T00890083 $,KMWH,2023-11-05T03:56:00Z,47.193,-119.315,8.9,8.3,170,3,,0.25,29.80,,,,TRUE,TRUE,,,,,FG,OVC,200,,,,,,,LIFR,,,,,,,,,,,,SPECI,355
KMVN 050356Z AUTO 00000KT 10SM OVC100 10/06 A3019 RMK AO2 SLP227 T01000061,KMVN,2023-11-05T03:56:00Z,38.3284,-88.853,10,6.1,0,0,,10+,30.19,1022.7,,TRUE,TRUE,,,,,,,OVC,10000,,,,,,,VFR,,,,,,,,,,,,METAR,145
KMTW 050356Z AUTO 00000KT 10SM CLR M01/M02 A3016 RMK AO2 SLP218 T10111022 FZRANO,KMTW,2023-11-05T03:56:00Z,44.1322,-87.6819,-1.1,-2.2,0,0,,10+,30.16,1021.8,,TRUE,TRUE,,,,,,,CLR,,,,,,,,VFR,,,,,,,,,,,,METAR,197
KMRF 050356Z AUTO 00000KT 10SM CLR 13/M01 A3025 RMK AO2 SLP194 T01331011,KMRF,2023-11-05T03:56:00Z,30.3706,-104.012,13.3,-1.1,0,0,,10+,30.25,1019.4,,TRUE,TRUE,,,,,,,CLR,,,,,,,,VFR,,,,,,,,,,,,METAR,1476
KMQY 050356Z AUTO 00000KT 10SM CLR 09/05 A3018 RMK AO2 SLP226 T00890050,KMQY,2023-11-05T03:56:00Z,36.0029,-86.5144,8.9,5,0,0,,10+,30.18,1022.6,,TRUE,TRUE,,,,,,,CLR,,,,,,,,VFR,,,,,,,,,,,,METAR,156
KMOB 050356Z 00000KT 10SM CLR 12/09 A3018 RMK AO2 SLP218 T01220094,KMOB,2023-11-05T03:56:00Z,30.6882,-88.2459,12.2,9.4,0,0,,10+,30.18,1021.8,,,TRUE,,,,,,,CLR,,,,,,,,VFR,,,,,,,,,,,,METAR,67
KMML 050356Z AUTO 30006KT 10SM CLR 06/03 A3008 RMK AO2 SLP197 T00610028 $,KMML,2023-11-05T03:56:00Z,44.4504,-95.8215,6.1,2.8,300,6,,10+,30.08,1019.7,,TRUE,TRUE,TRUE,,,,,,CLR,,,,,,,,VFR,,,,,,,,,,,,METAR,358
KMKY 050356Z AUTO 01008KT 10SM CLR 22/18 A3004 RMK AO2 SLP172 T02170183 402830183 TSNO PNO $,KMKY,2023-11-05T03:56:00Z,25.999,-81.674,21.7,18.3,10,8,,10+,30.04,1017.2,,TRUE,TRUE,TRUE,,,,,,CLR,,,,,,,,VFR,,,,,,,,,,,,METAR,2
KMKT 050356Z AUTO 18004KT 10SM CLR 06/02 A3011 RMK AO2 SLP207 T00610017,KMKT,2023-11-05T03:56:00Z,44.2184,-93.9179,6.1,1.7,180,4,,10+,30.11,1020.7,,TRUE,TRUE,,,,,,,CLR,,,,,,,,VFR,,,,,,,,,,,,METAR,309
KMJX 050356Z AUTO 00000KT 10SM CLR 05/04 A3010 RMK AO2 SLP197 T00500039,KMJX,2023-11-05T03:56:00Z,39.9235,-74.297,5,3.9,0,0,,10+,30.10,1019.7,,TRUE,TRUE,,,,,,,CLR,,,,,,,,VFR,,,,,,,,,,,,METAR,22
KMHS 050356Z AUTO 00000KT 10SM -RA BKN060 BKN075 OVC100 10/05 A3003 RMK AO2 SLP175 P0001 T01000050 $,KMHS,2023-11-05T03:56:00Z,41.3149,-122.317,10,5,0,0,,10+,30.03,1017.5,,TRUE,TRUE,TRUE,,,,,-RA,BKN,6000,BKN,7500,OVC,10000,,,VFR,,,,,,0.01,,,,,,METAR,1080
KMDT 050356Z 00000KT 10SM BKN110 10/06 A3008 RMK AO2 SLP188 T01000056,KMDT,2023-11-05T03:56:00Z,40.1962,-76.7725,10,5.6,0,0,,10+,30.08,1018.8,,,TRUE,,,,,,,BKN,11000,,,,,,,VFR,,,,,,,,,,,,METAR,91
KMBL 050356Z AUTO 00000KT 10SM FEW120 M03/M03 A3016 RMK AO2 SLP218 T10331033 401001033 FZRANO,KMBL,2023-11-05T03:56:00Z,44.2714,-86.2377,-3.3,-3.3,0,0,,10+,30.16,1021.8,,TRUE,TRUE,,,,,,,FEW,12000,,,,,,,VFR,,,,,,,,,,,,METAR,187
KM19 050356Z AUTO 21003KT 10SM CLR 13/09 A3017 RMK AO2 SLP216 T01280089 $,KM19,2023-11-05T03:56:00Z,35.643,-91.1735,12.8,8.9,210,3,,10+,30.17,1021.6,,TRUE,TRUE,TRUE,,,,,,CLR,,,,,,,,VFR,,,,,,,,,,,,METAR,72
KLZU 050356Z AUTO 00000KT 10SM CLR 08/03 A3017 RMK AO2 SLP225 T00830033 402220011,KLZU,2023-11-05T03:56:00Z,33.9828,-83.9585,8.3,3.3,0,0,,10+,30.17,1022.5,,TRUE,TRUE,,,,,,,CLR,,,,,,,,VFR,,,,,,,,,,,,METAR,316
KLWS 050356Z AUTO 13006KT 10SM -RA OVC070 13/11 A2984 RMK AO2 SLP106 P0005 T01330106,KLWS,2023-11-05T03:56:00Z,46.3746,-117.015,13.3,10.6,130,6,,10+,29.84,1010.6,,TRUE,TRUE,,,,,,-RA,OVC,7000,,,,,,,VFR,,,,,,0.05,,,,,,METAR,435
KLSV 050356Z 35001KT 10SM CLR 16/M09 A3004 RMK SLPNO WND DATA ESTMD ALSTG ESTMD $,KLSV,2023-11-05T03:56:00Z,36.236,-115.034,16,-9,350,1,,10+,30.04,,,,,TRUE,,,,,,CLR,,,,,,,,VFR,,,,,,,,,,,,METAR,563
KLRD 050356Z 12007KT 10SM CLR 21/16 A3011 RMK AO2 SLP193 T02110156,KLRD,2023-11-05T03:56:00Z,27.551,-99.4614,21.1,15.6,120,7,,10+,30.11,1019.3,,,TRUE,,,,,,,CLR,,,,,,,,VFR,,,,,,,,,,,,METAR,150
KLNR 050356Z AUTO 00000KT 9SM CLR 00/M02 A3017 RMK AO2 SLP219 T00001022,KLNR,2023-11-05T03:56:00Z,43.2111,-90.1874,0,-2.2,0,0,,9,30.17,1021.9,,TRUE,TRUE,,,,,,,CLR,,,,,,,,VFR,,,,,,,,,,,,METAR,218
KLGD 050356Z AUTO 11008KT 8SM RA SCT038 BKN049 OVC055 09/09 A2992 RMK AO2 SLP134 P0019 T00940094,KLGD,2023-11-05T03:56:00Z,45.2906,-118.009,9.4,9.4,110,8,,8,29.92,1013.4,,TRUE,TRUE,,,,,,RA,SCT,3800,BKN,4900,OVC,5500,,,VFR,,,,,,0.19,,,,,,METAR,827
KLEW 050356Z AUTO 00000KT 10SM OVC065 06/04 A3006 RMK AO2 SLP187 T00560044 401390050,KLEW,2023-11-05T03:56:00Z,44.0444,-70.2853,5.6,4.4,0,0,,10+,30.06,1018.7,,TRUE,TRUE,,,,,,,OVC,6500,,,,,,,VFR,,,,,,,,,,,,METAR,81
KLCI 050356Z AUTO 00000KT 10SM SCT070 OVC085 08/05 A3007 RMK AO2 SLP185 T00780050,KLCI,2023-11-05T03:56:00Z,43.5718,-71.4254,7.8,5,0,0,,10+,30.07,1018.5,,TRUE,TRUE,,,,,,,SCT,7000,OVC,8500,,,,,VFR,,,,,,,,,,,,METAR,166
KLBT 050356Z AUTO 00000KT 10SM CLR 08/06 A3010 RMK AO2 SLP193 T00830061,KLBT,2023-11-05T03:56:00Z,34.6082,-79.059,8.3,6.1,0,0,,10+,30.10,1019.3,,TRUE,TRUE,,,,,,,CLR,,,,,,,,VFR,,,,,,,,,,,,METAR,37
KLBL 050356Z AUTO 12007KT 10SM CLR 11/09 A3019 RMK AO2 SLP218 T01060089,KLBL,2023-11-05T03:56:00Z,37.0375,-100.957,10.6,8.9,120,7,,10+,30.19,1021.8,,TRUE,TRUE,,,,,,,CLR,,,,,,,,VFR,,,,,,,,,,,,METAR,877
KLAS 050356Z 22003KT 10SM FEW160 SCT250 18/M07 A3004 RMK AO2 SLP160 T01831067,KLAS,2023-11-05T03:56:00Z,36.0719,-115.163,18.3,-6.7,220,3,,10+,30.04,1016,,,TRUE,,,,,,,FEW,16000,SCT,25000,,,,,VFR,,,,,,,,,,,,METAR,662
KKLS 050356Z AUTO 12003KT 10SM FEW060 SCT085 12/11 A2988 RMK AO2 SLP121 T01170106,KKLS,2023-11-05T03:56:00Z,46.118,-122.898,11.7,10.6,120,3,,10+,29.88,1012.1,,TRUE,TRUE,,,,,,,FEW,6000,SCT,8500,,,,,VFR,,,,,,,,,,,,METAR,4
KJRB 050356Z AUTO 27004KT 10SM FEW090 13/04 A3011 RMK AO2 SLP195 T01280044 401610089 PNO $,KJRB,2023-11-05T03:56:00Z,40.701,-74.009,12.8,4.4,270,4,,10+,30.11,1019.5,,TRUE,TRUE,TRUE,,,,,,FEW,9000,,,,,,,VFR,,,,,,,,,,,,METAR,2
KJMS 050356Z AUTO 09006KT 8SM OVC012 02/M01 A3007 RMK AO2 SLP197 T00221006,KJMS,2023-11-05T03:56:00Z,46.9259,-98.6704,2.2,-0.6,90,6,,8,30.07,1019.7,,TRUE,TRUE,,,,,,,OVC,1200,,,,,,,MVFR,,,,,,,,,,,,METAR,455
KJHW 050356Z AUTO 36005KT 10SM OVC055 07/03 A3008 RMK AO2 SLP197 T00670033,KJHW,2023-11-05T03:56:00Z,42.1534,-79.2542,6.7,3.3,360,5,,10+,30.08,1019.7,,TRUE,TRUE,,,,,,,OVC,5500,,,,,,,VFR,,,,,,,,,,,,METAR,520
KJAX 050356Z 35006KT 10SM FEW075 13/06 A3010 RMK AO2 SLP194 T01330061 $,KJAX,2023-11-05T03:56:00Z,30.4953,-81.6937,13.3,6.1,350,6,,10+,30.10,1019.4,,,TRUE,TRUE,,,,,,FEW,7500,,,,,,,VFR,,,,,,,,,,,,METAR,8
KJAC 050356Z AUTO 16003KT 10SM BKN065 OVC100 06/01 A3012 RMK AO2 SLP205 T00610011 PNO $,KJAC,2023-11-05T03:56:00Z,43.6129,-110.737,6.1,1.1,160,3,,10+,30.12,1020.5,,TRUE,TRUE,TRUE,,,,,,BKN,6500,OVC,10000,,,,,VFR,,,,,,,,,,,,METAR,1967
KIWD 050356Z AUTO 24004KT 10SM BKN024 OVC029 01/M01 A3015 RMK AO2 UPE06B24E35RAB15E24B42E56 SLP223 P0000 T00061006 FZRANO,KIWD,2023-11-05T03:56:00Z,46.5321,-90.126,0.6,-0.6,240,4,,10+,30.15,1022.3,,TRUE,TRUE,,,,,,,BKN,2400,OVC,2900,,,,,MVFR,,,,,,0.005,,,,,,METAR,373
KITH 050356Z AUTO 32003KT 10SM OVC050 08/06 A3008 RMK AO2 SLP190 T00830056 401440078,KITH,2023-11-05T03:56:00Z,42.4931,-76.4569,8.3,5.6,320,3,,10+,30.08,1019,,TRUE,TRUE,,,,,,,OVC,5000,,,,,,,VFR,,,,,,,,,,,,METAR,338
KISP 050356Z 00000KT 10SM BKN160 BKN250 09/08 A3009 RMK AO2 SLP188 LAST T00890083,KISP,2023-11-05T03:56:00Z,40.7939,-73.1018,8.9,8.3,0,0,,10+,30.09,1018.8,,,TRUE,,,,,,,BKN,16000,BKN,25000,,,,,VFR,,,,,,,,,,,,METAR,25
KISM 050356Z AUTO 36007KT 10SM CLR 19/09 A3009 RMK AO2 SLP191 T01890089 $,KISM,2023-11-05T03:56:00Z,28.2924,-81.4371,18.9,8.9,360,7,,10+,30.09,1019.1,,TRUE,TRUE,TRUE,,,,,,CLR,,,,,,,,VFR,,,,,,,,,,,,METAR,25
KINW 050356Z AUTO 21004KT 10SM CLR 10/M10 A3022 RMK AO2 SLP215 T01001100,KINW,2023-11-05T03:56:00Z,35.028,-110.722,10,-10,210,4,,10+,30.22,1021.5,,TRUE,TRUE,,,,,,,CLR,,,,,,,,VFR,,,,,,,,,,,,METAR,1492
KILE 050356Z AUTO 17004KT 10SM CLR 17/14 A3012 RMK AO2 SLP192 T01720139,KILE,2023-11-05T03:56:00Z,31.084,-97.6885,17.2,13.9,170,4,,10+,30.12,1019.2,,TRUE,TRUE,,,,,,,CLR,,,,,,,,VFR,,,,,,,,,,,,METAR,256
KHYS 050356Z AUTO 00000KT 10SM CLR 07/02 A3020 RMK AO2 SLP230 T00670022 $,KHYS,2023-11-05T03:56:00Z,38.8392,-99.2742,6.7,2.2,0,0,,10+,30.20,1023,,TRUE,TRUE,TRUE,,,,,,CLR,,,,,,,,VFR,,,,,,,,,,,,METAR,607
KHYI 050356Z AUTO 15007KT 10SM CLR 18/16 A3013 RMK AO2 SLP199 T01780161,KHYI,2023-11-05T03:56:00Z,29.8958,-97.8664,17.8,16.1,150,7,,10+,30.13,1019.9,,TRUE,TRUE,,,,,,,CLR,,,,,,,,VFR,,,,,,,,,,,,METAR,180
KHYA 050356Z AUTO 00000KT 10SM CLR 08/07 A3007 RMK AO2 SLP183 T00780067,KHYA,2023-11-05T03:56:00Z,41.6719,-70.2697,7.8,6.7,0,0,,10+,30.07,1018.3,,TRUE,TRUE,,,,,,,CLR,,,,,,,,VFR,,,,,,,,,,,,METAR,11
KHWV 050356Z AUTO 00000KT 10SM CLR 08/06 A3009 RMK AO2 SLP190 T00830061 $,KHWV,2023-11-05T03:56:00Z,40.8212,-72.8674,8.3,6.1,0,0,,10+,30.09,1019,,TRUE,TRUE,TRUE,,,,,,CLR,,,,,,,,VFR,,,,,,,,,,,,METAR,20
KHPN 050356Z 28005KT 10SM SCT100 SCT120 11/04 A3008 RMK AO2 SLP189 T01110044,KHPN,2023-11-05T03:56:00Z,41.0624,-73.7046,11.1,4.4,280,5,,10+,30.08,1018.9,,,TRUE,,,,,,,SCT,10000,SCT,12000,,,,,VFR,,,,,,,,,,,,METAR,113
KHND 050356Z AUTO 16009KT 10SM CLR 16/M07 A3007 RMK AO2 SLP189 T01561072,KHND,2023-11-05T03:56:00Z,35.9658,-115.134,15.6,-7.2,160,9,,10+,30.07,1018.9,,TRUE,TRUE,,,,,,,CLR,,,,,,,,VFR,,,,,,,,,,,,METAR,740
KHNB 050356Z AUTO 32005KT 10SM CLR 13/06 A3018 RMK AO2 SLP218 T01280061,KHNB,2023-11-05T03:56:00Z,38.2505,-86.9473,12.8,6.1,320,5,,10+,30.18,1021.8,,TRUE,TRUE,,,,,,,CLR,,,,,,,,VFR,,,,,,,,,,,,METAR,159
KHEZ 050356Z AUTO 00000KT 10SM CLR 11/09 A3018 RMK AO2 SLP220 T01110089,KHEZ,2023-11-05T03:56:00Z,31.6159,-91.2973,11.1,8.9,0,0,,10+,30.18,1022,,TRUE,TRUE,,,,,,,CLR,,,,,,,,VFR,,,,,,,,,,,,METAR,82
KHEF 050356Z AUTO 00000KT 10SM CLR 03/01 A3011 RMK AO2 SLP201 T00330006 402221039,KHEF,2023-11-05T03:56:00Z,38.724,-77.5175,3.3,0.6,0,0,,10+,30.11,1020.1,,TRUE,TRUE,,,,,,,CLR,,,,,,,,VFR,,,,,,,,,,,,METAR,53
KHDN 050356Z AUTO 10004KT 10SM CLR 05/M04 A3025 RMK AO2 SLP230 T00501039 $,KHDN,2023-11-05T03:56:00Z,40.4842,-107.24,5,-3.9,100,4,,10+,30.25,1023,,TRUE,TRUE,TRUE,,,,,,CLR,,,,,,,,VFR,,,,,,,,,,,,METAR,2012
KGXY 050356Z 00000KT 10SM CLR 05/M02 A3012 RMK AO2 SLP203 T00501017,KGXY,2023-11-05T03:56:00Z,40.4345,-104.63,5,-1.7,0,0,,10+,30.12,1020.3,,,TRUE,,,,,,,CLR,,,,,,,,VFR,,,,,,,,,,,,METAR,1420
KGVQ 050356Z AUTO 23004KT 10SM -RA FEW045 OVC050 08/06 A3008 RMK AO2 SLP191 P0000 T00780061,KGVQ,2023-11-05T03:56:00Z,43.0298,-78.1665,7.8,6.1,230,4,,10+,30.08,1019.1,,TRUE,TRUE,,,,,,-RA,FEW,4500,OVC,5000,,,,,VFR,,,,,,0.005,,,,,,METAR,279
KGUC 050356Z AUTO 00000KT 10SM CLR M01/M05 A3037 RMK AO2 SLP295 T10061050 FZRANO,KGUC,2023-11-05T03:56:00Z,38.5322,-106.942,-0.6,-5,0,0,,10+,30.37,1029.5,,TRUE,TRUE,,,,,,,CLR,,,,,,,,VFR,,,,,,,,,,,,METAR,2337
KGTU 050356Z AUTO 00000KT 10SM CLR 17/13 RMK AO2 SLPNO T01670133 $,KGTU,2023-11-05T03:56:00Z,30.6809,-97.6767,16.7,13.3,0,0,,10+,0.00,,,TRUE,TRUE,TRUE,,,,,,CLR,,,,,,,,VFR,,,,,,,,,,,,METAR,232
KGTR 050356Z AUTO 00000KT 10SM CLR 11/06 A3018 RMK AO2 SLP225 T01060061,KGTR,2023-11-05T03:56:00Z,33.456,-88.593,10.6,6.1,0,0,,10+,30.18,1022.5,,TRUE,TRUE,,,,,,,CLR,,,,,,,,VFR,,,,,,,,,,,,METAR,80
KGRD 050356Z AUTO 00000KT 10SM CLR 04/01 A3016 RMK AO2 SLP213 T00440011,KGRD,2023-11-05T03:56:00Z,34.2539,-82.1526,4.4,1.1,0,0,,10+,30.16,1021.3,,TRUE,TRUE,,,,,,,CLR,,,,,,,,VFR,,,,,,,,,,,,METAR,188
KGPZ 050356Z AUTO 00000KT 10SM UP OVC042 M01/M03 A3015 RMK AO2 UPB38SNE38 SLP233 P0000 T10111028 FZRANO,KGPZ,2023-11-05T03:56:00Z,47.2029,-93.5071,-1.1,-2.8,0,0,,10+,30.15,1023.3,,TRUE,TRUE,,,,,,UP,OVC,4200,,,,,,,VFR,,,,,,0.005,,,,,,METAR,410
KGON 050356Z AUTO 36004KT 10SM CLR 09/08 A3009 RMK AO2 SLP188 T00890083 $,KGON,2023-11-05T03:56:00Z,41.3279,-72.0489,8.9,8.3,360,4,,10+,30.09,1018.8,,TRUE,TRUE,TRUE,,,,,,CLR,,,,,,,,VFR,,,,,,,,,,,,METAR,2
KGNR 050356Z AUTO 00000KT 03/01 A3001 RMK AO1 SLP176 T00280011,KGNR,2023-11-05T03:56:00Z,45.4649,-69.5543,2.8,1.1,0,0,,,30.01,1017.6,,TRUE,TRUE,,,,,,,,,,,,,,,VFR,,,,,,,,,,,,METAR,426
KGDV 050356Z AUTO 04005KT 10SM OVC075 04/02 A2987 RMK AO2 SLP133 T00440022 TSNO,KGDV,2023-11-05T03:56:00Z,47.14,-104.813,4.4,2.2,40,5,,10+,29.87,1013.3,,TRUE,TRUE,,,,,,,OVC,7500,,,,,,,VFR,,,,,,,,,,,,METAR,749
KGBD 050356Z AUTO 12003KT 10SM CLR 07/02 A3020 RMK AO2 SLP228 T00670017,KGBD,2023-11-05T03:56:00Z,38.3405,-98.8592,6.7,1.7,120,3,,10+,30.20,1022.8,,TRUE,TRUE,,,,,,,CLR,,,,,,,,VFR,,,,,,,,,,,,METAR,573
KGAI 050356Z AUTO 00000KT 10SM OVC110 11/01 A3010 RMK AO2 SLP208 T01060011,KGAI,2023-11-05T03:56:00Z,39.1696,-77.1653,10.6,1.1,0,0,,10+,30.10,1020.8,,TRUE,TRUE,,,,,,,OVC,11000,,,,,,,VFR,,,,,,,,,,,,METAR,151
KGAD 050356Z AUTO 00000KT 10SM CLR 06/03 A3019 RMK AO2 SLP228 T00560028 PNO $,KGAD,2023-11-05T03:56:00Z,33.9686,-86.0917,5.6,2.8,0,0,,10+,30.19,1022.8,,TRUE,TRUE,TRUE,,,,,,CLR,,,,,,,,VFR,,,,,,,,,,,,METAR,169
KFSD 050356Z 21006KT 10SM CLR 10/05 A3007 RMK AO2 SLP190 T01000050,KFSD,2023-11-05T03:56:00Z,43.5775,-96.7539,10,5,210,6,,10+,30.07,1019,,,TRUE,,,,,,,CLR,,,,,,,,VFR,,,,,,,,,,,,METAR,433
KFRM 050356Z AUTO 20007KT 10SM CLR 06/03 A3011 RMK AO2 SLP210 T00610028,KFRM,2023-11-05T03:56:00Z,43.6455,-94.4168,6.1,2.8,200,7,,10+,30.11,1021,,TRUE,TRUE,,,,,,,CLR,,,,,,,,VFR,,,,,,,,,,,,METAR,353
KFOD 050356Z AUTO 21004KT 10SM CLR 06/02 A3016 RMK AO2 SLP232 T00610022,KFOD,2023-11-05T03:56:00Z,42.549,-94.182,6.1,2.2,210,4,,10+,30.16,1023.2,,TRUE,TRUE,,,,,,,CLR,,,,,,,,VFR,,,,,,,,,,,,METAR,347
KFNL 050356Z 03006KT 10SM CLR 08/01 A3012 RMK AO2 SLP179 T00830006,KFNL,2023-11-05T03:56:00Z,40.4427,-105.01,8.3,0.6,30,6,,10+,30.12,1017.9,,,TRUE,,,,,,,CLR,,,,,,,,VFR,,,,,,,,,,,,METAR,1529
KFMH 050356Z 00000KT 10SM CLR 11/09 A3008,KFMH,2023-11-05T03:56:00Z,41.6608,-70.5221,11,9,0,0,,10+,30.08,,,,,,,,,,,CLR,,,,,,,,VFR,,,,,,,,,,,,METAR,35
KFLP 050356Z AUTO 00000KT 10SM BKN060 13/12 A3019 RMK AO2 SLP219 T01330117,KFLP,2023-11-05T03:56:00Z,36.2925,-92.5851,13.3,11.7,0,0,,10+,30.19,1021.9,,TRUE,TRUE,,,,,,,BKN,6000,,,,,,,VFR,,,,,,,,,,,,METAR,215
KFKL 050356Z AUTO 00000KT 10SM SCT060 OVC085 09/M01 A3007 RMK AO2 SLP187 T00941011,KFKL,2023-11-05T03:56:00Z,41.3806,-79.8603,9.4,-1.1,0,0,,10+,30.07,1018.7,,TRUE,TRUE,,,,,,,SCT,6000,OVC,8500,,,,,VFR,,,,,,,,,,,,METAR,468
KFCI 050356Z AUTO 00000KT CLR 07/04 RMK AO2 SLPNO T00670044 402111033 PWINO $,KFCI,2023-11-05T03:56:00Z,37.407,-77.522,6.7,4.4,0,0,,,0.00,,,TRUE,TRUE,TRUE,,,,,,CLR,,,,,,,,VFR,,,,,,,,,,,,METAR,63
KFAM 050356Z AUTO 00000KT 10SM FEW120 09/05 A3021 RMK AO2 SLP239 T00890050,KFAM,2023-11-05T03:56:00Z,37.7631,-90.4292,8.9,5,0,0,,10+,30.21,1023.9,,TRUE,TRUE,,,,,,,FEW,12000,,,,,,,VFR,,,,,,,,,,,,METAR,276
KEWK 050356Z AUTO 12006KT 10SM CLR 11/06 A3019 RMK AO2 SLP220 T01060056,KEWK,2023-11-05T03:56:00Z,38.0621,-97.275,10.6,5.6,120,6,,10+,30.19,1022,,TRUE,TRUE,,,,,,,CLR,,,,,,,,VFR,,,,,,,,,,,,METAR,468
KEUL 050356Z AUTO 15009KT 10SM -RA SCT070 OVC085 12/09 A2995 RMK AO2 RAB22 SLP144 P0000 T01170089,KEUL,2023-11-05T03:56:00Z,43.6405,-116.63,11.7,8.9,150,9,,10+,29.95,1014.4,,TRUE,TRUE,,,,,,-RA,SCT,7000,OVC,8500,,,,,VFR,,,,,,0.005,,,,,,METAR,741
KESC 050356Z AUTO 00000KT 10SM BKN060 03/M02 A3013 RMK AO2 SLP211 T00281022,KESC,2023-11-05T03:56:00Z,45.7225,-87.0893,2.8,-2.2,0,0,,10+,30.13,1021.1,,TRUE,TRUE,,,,,,,BKN,6000,,,,,,,VFR,,,,,,,,,,,,METAR,180
KENV 050356Z AUTO 00000KT 10SM BKN120 08/01 A3007 RMK AO2 SLP186 T00830006,KENV,2023-11-05T03:56:00Z,40.7211,-114.031,8.3,0.6,0,0,,10+,30.07,1018.6,,TRUE,TRUE,,,,,,,BKN,12000,,,,,,,VFR,,,,,,,,,,,,METAR,1291
KELZ 050356Z AUTO 00000KT 10SM OVC042 09/00 A3008 RMK AO2 SLP193 T00890000,KELZ,2023-11-05T03:56:00Z,42.1077,-77.9842,8.9,0,0,0,,10+,30.08,1019.3,,TRUE,TRUE,,,,,,,OVC,4200,,,,,,,VFR,,,,,,,,,,,,METAR,639
KEKY 050356Z AUTO 00000KT 10SM CLR 11/04 A3019 RMK AO2 SLP070 T01060039,KEKY,2023-11-05T03:56:00Z,33.314,-86.925,10.6,3.9,0,0,,10+,30.19,1007,,TRUE,TRUE,,,,,,,CLR,,,,,,,,VFR,,,,,,,,,,,,METAR,213
KEKQ 050356Z AUTO 00000KT 10SM CLR 06/05 A3019 RMK AO2 SLP222 T00610050 402061011,KEKQ,2023-11-05T03:56:00Z,36.8576,-84.8562,6.1,5,0,0,,10+,30.19,1022.2,,TRUE,TRUE,,,,,,,CLR,,,,,,,,VFR,,,,,,,,,,,,METAR,291
KEKO 050356Z AUTO 00000KT 10SM OVC095 08/01 A3005 RMK AO2 SLP172 T00830006,KEKO,2023-11-05T03:56:00Z,40.824,-115.786,8.3,0.6,0,0,,10+,30.05,1017.2,,TRUE,TRUE,,,,,,,OVC,9500,,,,,,,VFR,,,,,,,,,,,,METAR,1541
KEHR 050356Z AUTO 31005KT 10SM SCT110 13/06 A3018 RMK AO2 SLP218 T01330061,KEHR,2023-11-05T03:56:00Z,37.8066,-87.6824,13.3,6.1,310,5,,10+,30.18,1021.8,,TRUE,TRUE,,,,,,,SCT,11000,,,,,,,VFR,,,,,,,,,,,,METAR,117
KEGE 050356Z AUTO 11005KT 10SM CLR 03/M04 A3031 RMK AO2 SLP161 T00281039,KEGE,2023-11-05T03:56:00Z,39.6448,-106.918,2.8,-3.9,110,5,,10+,30.31,1016.1,,TRUE,TRUE,,,,,,,CLR,,,,,,,,VFR,,,,,,,,,,,,METAR,1993
KEEN 050356Z AUTO 00000KT 10SM OVC080 06/04 A3009 RMK AO2 SLP195 T00560039 $,KEEN,2023-11-05T03:56:00Z,42.898,-72.2695,5.6,3.9,0,0,,10+,30.09,1019.5,,TRUE,TRUE,TRUE,,,,,,OVC,8000,,,,,,,VFR,,,,,,,,,,,,METAR,143
KEED 050356Z AUTO 28005KT 10SM CLR 19/M11 A3000 RMK AO2 SLP140 T01891111,KEED,2023-11-05T03:56:00Z,34.7678,-114.618,18.9,-11.1,280,5,,10+,30.00,1014,,TRUE,TRUE,,,,,,,CLR,,,,,,,,VFR,,,,,,,,,,,,METAR,271
KEAU 050356Z AUTO 07004KT 7SM BKN055 OVC070 03/01 A3012 RMK AO2 SLP208 T00330006,KEAU,2023-11-05T03:56:00Z,44.8665,-91.4881,3.3,0.6,70,4,,7,30.12,1020.8,,TRUE,TRUE,,,,,,,BKN,5500,OVC,7000,,,,,VFR,,,,,,,,,,,,METAR,271
KEAR 050356Z AUTO 17007KT 3SM -RA BR CLR 04/04 A3017 RMK AO2 SLP222 P0000 T00440044,KEAR,2023-11-05T03:56:00Z,40.7193,-99.0086,4.4,4.4,170,7,,3,30.17,1022.2,,TRUE,TRUE,,,,,,-RA BR,CLR,,,,,,,,MVFR,,,,,,0.005,,,,,,METAR,649
KDYR 050356Z AUTO 00000KT 10SM CLR 12/10 A3017 RMK AO2 SLP223 T01220100,KDYR,2023-11-05T03:56:00Z,35.9957,-89.4057,12.2,10,0,0,,10+,30.17,1022.3,,TRUE,TRUE,,,,,,,CLR,,,,,,,,VFR,,,,,,,,,,,,METAR,98
KDWU 050356Z AUTO 00000KT 10SM SCT060 10/07 A3013 RMK AO2 SLP203 T01000067 402110006,KDWU,2023-11-05T03:56:00Z,38.556,-82.7375,10,6.7,0,0,,10+,30.13,1020.3,,TRUE,TRUE,,,,,,,SCT,6000,,,,,,,VFR,,,,,,,,,,,,METAR,165
KDVL 050356Z AUTO 11007KT 9SM OVC006 M01/M02 A3008 RMK AO2 SLP220 T10061017 FZRANO,KDVL,2023-11-05T03:56:00Z,48.1136,-98.9034,-0.6,-1.7,110,7,,9,30.08,1022,,TRUE,TRUE,,,,,,,OVC,600,,,,,,,IFR,,,,,,,,,,,,METAR,439
KDUG 050356Z AUTO 34005KT 10SM CLR 13/M02 A3014 RMK AO2 SLP167 T01331022 TSNO,KDUG,2023-11-05T03:56:00Z,31.4725,-109.602,13.3,-2.2,340,5,,10+,30.14,1016.7,,TRUE,TRUE,,,,,,,CLR,,,,,,,,VFR,,,,,,,,,,,,METAR,1260
KDIK 050356Z AUTO 13008KT 10SM CLR 02/01 A2991 RMK AO2 SLP145 T00220011,KDIK,2023-11-05T03:56:00Z,46.7997,-102.797,2.2,1.1,130,8,,10+,29.91,1014.5,,TRUE,TRUE,,,,,,,CLR,,,,,,,,VFR,,,,,,,,,,,,METAR,788
KDIJ 050356Z AUTO 15007KT 10SM FEW065 BKN080 OVC100 07/02 A3011 RMK AO2 SLP189 T00720017,KDIJ,2023-11-05T03:56:00Z,43.745,-111.091,7.2,1.7,150,7,,10+,30.11,1018.9,,TRUE,TRUE,,,,,,,FEW,6500,BKN,8000,OVC,10000,,,VFR,,,,,,,,,,,,METAR,1896
KDAY 050356Z 29007KT 10SM BKN180 09/03 A3012 RMK AO2 SLP201 T00940033,KDAY,2023-11-05T03:56:00Z,39.9064,-84.2185,9.4,3.3,290,7,,10+,30.12,1020.1,,,TRUE,,,,,,,BKN,18000,,,,,,,VFR,,,,,,,,,,,,METAR,303
KD07 050356Z AUTO 15012KT 07/01 A2995 RMK AO1 SLP160 T00670011 $,KD07,2023-11-05T03:56:00Z,45.0326,-102.02,6.7,1.1,150,12,,,29.95,1016,,TRUE,TRUE,TRUE,,,,,,,,,,,,,,VFR,,,,,,,,,,,,METAR,786
KCXY 050356Z AUTO 00000KT 10SM OVC110 09/04 A3009 RMK AO2 SLP191 T00890039,KCXY,2023-11-05T03:56:00Z,40.2184,-76.8552,8.9,3.9,0,0,,10+,30.09,1019.1,,TRUE,TRUE,,,,,,,OVC,11000,,,,,,,VFR,,,,,,,,,,,,METAR,102
KCWI 050356Z AUTO 00000KT 10SM CLR 04/M01 A3018 RMK AO2 SLP229 T00391006,KCWI,2023-11-05T03:56:00Z,41.8295,-90.3328,3.9,-0.6,0,0,,10+,30.18,1022.9,,TRUE,TRUE,,,,,,,CLR,,,,,,,,VFR,,,,,,,,,,,,METAR,212
KCVO 050356Z AUTO 26004KT 10SM CLR 11/10 A2992 RMK AO2 SLP131 T01110100,KCVO,2023-11-05T03:56:00Z,44.5013,-123.293,11.1,10,260,4,,10+,29.92,1013.1,,TRUE,TRUE,,,,,,,CLR,,,,,,,,VFR,,,,,,,,,,,,METAR,75
KCVN 050356Z AUTO 04008KT 10SM CLR 09/02 A3022 RMK AO2 SLP221 T00890022,KCVN,2023-11-05T03:56:00Z,34.4227,-103.08,8.9,2.2,40,8,,10+,30.22,1022.1,,TRUE,TRUE,,,,,,,CLR,,,,,,,,VFR,,,,,,,,,,,,METAR,1278
KCTB 050356Z AUTO 26010KT 10SM CLR 08/03 A2969 RMK AO2 SLP058 T00780028,KCTB,2023-11-05T03:56:00Z,48.6036,-112.377,7.8,2.8,260,10,,10+,29.69,1005.8,,TRUE,TRUE,,,,,,,CLR,,,,,,,,VFR,,,,,,,,,,,,METAR,1172
KCOE 050356Z AUTO 16007KT 10SM OVC018 12/10 A2981 RMK AO2 SLP114 T01170100 PNO $,KCOE,2023-11-05T03:56:00Z,47.7719,-116.833,11.7,10,160,7,,10+,29.81,1011.4,,TRUE,TRUE,TRUE,,,,,,OVC,1800,,,,,,,MVFR,,,,,,,,,,,,METAR,693
KCOD 050356Z AUTO 20005KT 10SM FEW095 12/M01 A3001 RMK AO2 SLP139 T01221011,KCOD,2023-11-05T03:56:00Z,44.52,-109.027,12.2,-1.1,200,5,,10+,30.01,1013.9,,TRUE,TRUE,,,,,,,FEW,9500,,,,,,,VFR,,,,,,,,,,,,METAR,1550
KCIU 050356Z AUTO 26003KT 10SM BKN070 OVC090 02/M01 A3013 RMK AO2 SLP207 T00221006 FZRANO $,KCIU,2023-11-05T03:56:00Z,46.2531,-84.4773,2.2,-0.6,260,3,,10+,30.13,1020.7,,TRUE,TRUE,TRUE,,,,,,BKN,7000,OVC,9000,,,,,VFR,,,,,,,,,,,,METAR,242
KCHS 050356Z 33007KT 10SM CLR 11/04 A3010 RMK AO2 SLP192 T01110044,KCHS,2023-11-05T03:56:00Z,32.8994,-80.0407,11.1,4.4,330,7,,10+,30.10,1019.2,,,TRUE,,,,,,,CLR,,,,,,,,VFR,,,,,,,,,,,,METAR,12
KCGZ 050356Z AUTO 07003KT 10SM CLR 18/M04 A3001 RMK AO2 SLP156 T01781039 PNO $,KCGZ,2023-11-05T03:56:00Z,32.9531,-111.773,17.8,-3.9,70,3,,10+,30.01,1015.6,,TRUE,TRUE,TRUE,,,,,,CLR,,,,,,,,VFR,,,,,,,,,,,,METAR,444
KCAE 050356Z 00000KT 10SM CLR 05/02 A3013 RMK AO2 SLP204 T00500022,KCAE,2023-11-05T03:56:00Z,33.9422,-81.118,5,2.2,0,0,,10+,30.13,1020.4,,,TRUE,,,,,,,CLR,,,,,,,,VFR,,,,,,,,,,,,METAR,69
KBZN 050356Z 15003KT 10SM SCT120 07/05 A2993 RMK AO2 SLP144 T00670050,KBZN,2023-11-05T03:56:00Z,45.7876,-111.162,6.7,5,150,3,,10+,29.93,1014.4,,,TRUE,,,,,,,SCT,12000,,,,,,,VFR,,,,,,,,,,,,METAR,1349
KBVX 050356Z AUTO 33003KT 10SM CLR 12/10 A3018 RMK AO2 SLP219 T01220100,KBVX,2023-11-05T03:56:00Z,35.7259,-91.6517,12.2,10,330,3,,10+,30.18,1021.9,,TRUE,TRUE,,,,,,,CLR,,,,,,,,VFR,,,,,,,,,,,,METAR,137
KBTP 050356Z AUTO 00000KT 10SM OVC060 09/04 A3008 RMK AO2 SLP193 T00940039 TSNO $,KBTP,2023-11-05T03:56:00Z,40.7765,-79.9568,9.4,3.9,0,0,,10+,30.08,1019.3,,TRUE,TRUE,TRUE,,,,,,OVC,6000,,,,,,,VFR,,,,,,,,,,,,METAR,375
KBMI 050356Z AUTO 01003KT 10SM CLR 06/01 A3020 RMK AO2 SLP225 T00610011,KBMI,2023-11-05T03:56:00Z,40.4777,-88.9144,6.1,1.1,10,3,,10+,30.20,1022.5,,TRUE,TRUE,,,,,,,CLR,,,,,,,,VFR,,,,,,,,,,,,METAR,262
KBLM 050356Z AUTO 26003KT 10SM CLR 08/04 A3011 RMK AO2 SLP196 T00780044,KBLM,2023-11-05T03:56:00Z,40.1822,-74.1207,7.8,4.4,260,3,,10+,30.11,1019.6,,TRUE,TRUE,,,,,,,CLR,,,,,,,,VFR,,,,,,,,,,,,METAR,45
KBKX 050356Z AUTO 13004KT 10SM CLR 06/03 A3007 RMK AO2 SLP209 T00560028,KBKX,2023-11-05T03:56:00Z,44.3075,-96.8183,5.6,2.8,130,4,,10+,30.07,1020.9,,TRUE,TRUE,,,,,,,CLR,,,,,,,,VFR,,,,,,,,,,,,METAR,494
KBJJ 050356Z AUTO 00000KT 5SM HZ CLR 06/03 A3008 RMK AO2 SLP189 T00560028,KBJJ,2023-11-05T03:56:00Z,40.8732,-81.8886,5.6,2.8,0,0,,5,30.08,1018.9,,TRUE,TRUE,,,,,,HZ,CLR,,,,,,,,MVFR,,,,,,,,,,,,METAR,338
KBIH 050356Z AUTO 00000KT 10SM CLR 09/M05 A3013 RMK AO2 SLP185 T00891050,KBIH,2023-11-05T03:56:00Z,37.3711,-118.359,8.9,-5,0,0,,10+,30.13,1018.5,,TRUE,TRUE,,,,,,,CLR,,,,,,,,VFR,,,,,,,,,,,,METAR,1252
KBID 050356Z AUTO 25006KT 10SM CLR 11/08 A3010 RMK AO2 SLP192 T01110083 401560106,KBID,2023-11-05T03:56:00Z,41.1668,-71.5757,11.1,8.3,250,6,,10+,30.10,1019.2,,TRUE,TRUE,,,,,,,CLR,,,,,,,,VFR,,,,,,,,,,,,METAR,32
KBHB 050356Z AUTO 00000KT 10SM FEW065 OVC100 08/07 A3008 RMK AO2 SLP186 T00780067 401330078,KBHB,2023-11-05T03:56:00Z,44.4549,-68.3617,7.8,6.7,0,0,,10+,30.08,1018.6,,TRUE,TRUE,,,,,,,FEW,6500,OVC,10000,,,,,VFR,,,,,,,,,,,,METAR,21
KAWO 050356Z AUTO 16014KT 10SM BKN023 OVC029 13/11 A2980 RMK AO2 SLP094 T01330106,KAWO,2023-11-05T03:56:00Z,48.1584,-122.159,13.3,10.6,160,14,,10+,29.80,1009.4,,TRUE,TRUE,,,,,,,BKN,2300,OVC,2900,,,,,MVFR,,,,,,,,,,,,METAR,38
KAUO 050356Z AUTO 34003KT 10SM CLR 11/08 A3019 RMK AO2 SLP244 T01060078,KAUO,2023-11-05T03:56:00Z,32.617,-85.4342,10.6,7.8,340,3,,10+,30.19,1024.4,,TRUE,TRUE,,,,,,,CLR,,,,,,,,VFR,,,,,,,,,,,,METAR,231
KASH 050356Z AUTO 00000KT 10SM CLR 07/07 A3009 RMK AO2 SLP193 T00720072,KASH,2023-11-05T03:56:00Z,42.7798,-71.5141,7.2,7.2,0,0,,10+,30.09,1019.3,,TRUE,TRUE,,,,,,,CLR,,,,,,,,VFR,,,,,,,,,,,,METAR,56
KART 050356Z AUTO 00000KT 10SM OVC060 07/06 A3007 RMK AO2 SLP184 T00720061,KART,2023-11-05T03:56:00Z,43.9888,-76.0261,7.2,6.1,0,0,,10+,30.07,1018.4,,TRUE,TRUE,,,,,,,OVC,6000,,,,,,,VFR,,,,,,,,,,,,METAR,100
KARG 050356Z AUTO 20007KT 10SM FEW110 14/11 A3017 RMK AO2 SLP216 T01390106,KARG,2023-11-05T03:56:00Z,36.1256,-90.9216,13.9,10.6,200,7,,10+,30.17,1021.6,,TRUE,TRUE,,,,,,,FEW,11000,,,,,,,VFR,,,,,,,,,,,,METAR,82
KAND 050356Z AUTO 00000KT 10SM CLR 07/01 A3015 RMK AO2 SLP208 T00670011,KAND,2023-11-05T03:56:00Z,34.498,-82.7092,6.7,1.1,0,0,,10+,30.15,1020.8,,TRUE,TRUE,,,,,,,CLR,,,,,,,,VFR,,,,,,,,,,,,METAR,233
KALK 050356Z AUTO 24007KT 10SM CLR 17/M06 A3020 RMK AO2 SLP146 T01671056,KALK,2023-11-05T03:56:00Z,31.606,-110.428,16.7,-5.6,240,7,,10+,30.20,1014.6,,TRUE,TRUE,,,,,,,CLR,,,,,,,,VFR,,,,,,,,,,,,METAR,1451
KAJO 050356Z AUTO 00000KT 10SM CLR 16/08 A3002 RMK AO2 SLP160 T01560078,KAJO,2023-11-05T03:56:00Z,33.8956,-117.596,15.6,7.8,0,0,,10+,30.02,1016,,TRUE,TRUE,,,,,,,CLR,,,,,,,,VFR,,,,,,,,,,,,METAR,161
KAIZ 050356Z AUTO 00000KT 10SM CLR 07/05 A3022 RMK AO2 SLP234 T00670050,KAIZ,2023-11-05T03:56:00Z,38.1005,-92.5475,6.7,5,0,0,,10+,30.22,1023.4,,TRUE,TRUE,,,,,,,CLR,,,,,,,,VFR,,,,,,,,,,,,METAR,263
KAFJ 050356Z AUTO 10SM FEW060 12/01 A3011 RMK AO2 SLP195 T01170011 $,KAFJ,2023-11-05T03:56:00Z,40.1362,-80.2851,11.7,1.1,,,,10+,30.11,1019.5,,TRUE,TRUE,TRUE,,,,,,FEW,6000,,,,,,,VFR,,,,,,,,,,,,METAR,360
KADF 050356Z AUTO 00000KT 10SM CLR 10/10 A3018 RMK AO2 SLP219 T01000100,KADF,2023-11-05T03:56:00Z,34.0953,-93.069,10,10,0,0,,10+,30.18,1021.9,,TRUE,TRUE,,,,,,,CLR,,,,,,,,VFR,,,,,,,,,,,,METAR,54
K8D3 050356Z AUTO 28004KT 01/M01 A3008 RMK AO1 SLP201 T00061006,K8D3,2023-11-05T03:56:00Z,45.669,-96.9918,0.6,-0.6,280,4,,,30.08,1020.1,,TRUE,TRUE,,,,,,,,,,,,,,,VFR,,,,,,,,,,,,METAR,535
K79J 050356Z AUTO 00000KT 10SM CLR 11/08 A3018 RMK AO2 SLP216 T01110078 $,K79J,2023-11-05T03:56:00Z,31.3061,-86.3902,11.1,7.8,0,0,,10+,30.18,1021.6,,TRUE,TRUE,TRUE,,,,,,CLR,,,,,,,,VFR,,,,,,,,,,,,METAR,93
K2WX 050356Z AUTO 17007KT 08/02 A2990 RMK AO1 SLP135 T00780017,K2WX,2023-11-05T03:56:00Z,45.6043,-103.547,7.8,1.7,170,7,,,29.90,1013.5,,TRUE,TRUE,,,,,,,,,,,,,,,VFR,,,,,,,,,,,,METAR,925
K1M4 050356Z AUTO 00000KT 10SM CLR 07/04 A3020 RMK AO2 SLP218 T00720039,K1M4,2023-11-05T03:56:00Z,34.2832,-87.5986,7.2,3.9,0,0,,10+,30.20,1021.8,,TRUE,TRUE,,,,,,,CLR,,,,,,,,VFR,,,,,,,,,,,,METAR,283
TXKF 050355Z 11017KT 9999 BKN011 OVC160 23/21 Q1016 ,TXKF,2023-11-05T03:55:00Z,32.364,-64.679,23,21,110,17,,6+,30.00,,,,,,,,,,,BKN,1100,OVC,16000,,,,,MVFR,,,,,,,,,,,,METAR,4
TNCE 050355Z AUTO 09012KT 050V110 //// // ///////// 27/23 Q1013 RE//,TNCE,2023-11-05T03:55:00Z,17.497,-62.979,27,23,90,12,,,29.91,,,TRUE,,,,,,,,,,,,,,,,VFR,,,,,,,,,,,,METAR,38
TNCB 050355Z AUTO 08011KT 9999 NCD 28/25 Q1009,TNCB,2023-11-05T03:55:00Z,12.133,-68.277,28,25,80,11,,6+,29.79,,,TRUE,,,,,,,,CLR,,,,,,,,VFR,,,,,,,,,,,,METAR,6
RKSO 050355Z 10008KT 7SM OVC130 19/19 A3003 RMK AO2A SLP173 T01890187 $,RKSO,2023-11-05T03:55:00Z,37.091,127.03,18.9,18.7,100,8,,7,30.03,1017.3,,,TRUE,TRUE,,,,,,OVC,13000,,,,,,,VFR,,,,,,,,,,,,METAR,10
RKSG 050355Z 09009KT 5SM BR FEW018 SCT140 19/19 A3002 RMK AO2A SLP169 T01900188 $,RKSG,2023-11-05T03:55:00Z,36.962,127.031,19,18.8,90,9,,5,30.02,1016.9,,,TRUE,TRUE,,,,,BR,FEW,1800,SCT,14000,,,,,MVFR,,,,,,,,,,,,METAR,12
RKJK 050355Z AUTO 15013KT 10SM BKN110 24/16 A2998 RMK AO2 SLP156 T02410163 $,RKJK,2023-11-05T03:55:00Z,35.9,126.618,24.1,16.3,150,13,,10+,29.98,1015.6,,TRUE,TRUE,TRUE,,,,,,BKN,11000,,,,,,,VFR,,,,,,,,,,,,METAR,8
RJTY 050355Z AUTO 01004KT 10SM CLR 22/14 A3032 RMK AO2 SLP269 T02240142 $,RJTY,2023-11-05T03:55:00Z,35.749,139.349,22.4,14.2,10,4,,10+,30.32,1026.9,,TRUE,TRUE,TRUE,,,,,,CLR,,,,,,,,VFR,,,,,,,,,,,,METAR,136
PTYA 050355Z 34007KT 12SM SCT017TCU BKN300 30/26 A2978 RMK TCU N-E-S SLP084 T03030259,PTYA,2023-11-05T03:55:00Z,9.487,138.077,30.3,25.9,340,7,,12,29.78,1008.4,,,,,,,,,,SCT,1700,BKN,30000,,,,,VFR,,,,,,,,,,,,METAR,4
PTTP 050355Z 12003KT 15SM SCT018 OVC300 27/25 A2975 RMK SHRAE35 SLP074 T02750262,PTTP,2023-11-05T03:55:00Z,6.96,158.21,27.5,25,120,3,,15,29.75,1007.4,,,,,,,,,,SCT,1800,OVC,30000,,,,,VFR,,,,,,,,,,,,METAR,36
PTSA 050355Z 09006KT 10SM BKN021TCU BKN130 BKN300 31/25 A2971 RMK TCU NE-E AND S,PTSA,2023-11-05T03:55:00Z,5.352,162.956,31,25,90,6,,10+,29.71,,,,,,,,,,,BKN,2100,BKN,13000,BKN,30000,,,MVFR,,,,,,,,,,,,METAR,3
PTPN 050355Z 08004KT 15SM BKN017TCU OVC130 27/25 A2974 RMK TCU ALQDS LAST,PTPN,2023-11-05T03:55:00Z,6.986,158.21,27,25,80,4,,15,29.74,,,,,,,,,,,BKN,1700,OVC,13000,,,,,MVFR,,,,,,,,,,,,METAR,3
PHSF 050355Z AUTO 11020G28KT 9SM CLR 18/M02 A3033 RMK AO2 SLP149 T01841020 TSNO $,PHSF,2023-11-05T03:55:00Z,19.758,-155.557,18.4,-2,110,20,28,9,30.33,1014.9,,TRUE,TRUE,TRUE,,,,,,CLR,,,,,,,,VFR,,,,,,,,,,,,METAR,1863
PGUA 050355Z AUTO 09012KT 10SM SCT015 29/25 A2983 RMK AO2 RAB14E23 SLP092 P0002 T02930252 $,PGUA,2023-11-05T03:55:00Z,13.583,144.918,29.3,25.2,90,12,,10+,29.83,1009.2,,TRUE,TRUE,TRUE,,,,,,SCT,1500,,,,,,,VFR,,,,,,0.02,,,,,,METAR,159
PATC 050355Z AUTO 02007KT 9SM -SN SCT014 OVC041 M07/M09 A2980 RMK AO2 SNB0302 SLP099 P0000 T10741091,PATC,2023-11-05T03:55:00Z,65.562,-167.924,-7.4,-9.1,20,7,,9,29.80,1009.9,,TRUE,TRUE,,,,,,-SN,SCT,1400,OVC,4100,,,,,VFR,,,,,,0.005,,,,,,METAR,77
PALU 050355Z AUTO 07028G34KT 9SM -SN OVC020 M05/M08 A3005 RMK AO2 PK WND 06034/0340 SNB0155 SLP175 P0000 T10521083,PALU,2023-11-05T03:55:00Z,68.873,-166.101,-5.2,-8.3,70,28,34,9,30.05,1017.5,,TRUE,TRUE,,,,,,-SN,OVC,2000,,,,,,,MVFR,,,,,,0.005,,,,,,METAR,8
PAIM 050355Z AUTO 07016G33KT 010V110 10SM -SN FEW070 OVC080 M11/M16 A2959 RMK AO2 PK WND 05033/0221 SNB0200 SLP058 T11091158,PAIM,2023-11-05T03:55:00Z,65.994,-153.695,-10.9,-15.8,70,16,33,10+,29.59,1005.8,,TRUE,TRUE,,,,,,-SN,FEW,7000,OVC,8000,,,,,VFR,,,,,,,,,,,,METAR,309
PAFB 050355Z AUTO 03003KT 10SM BKN034 M07/M13 A2952 RMK AO2 SLP010 T10721129,PAFB,2023-11-05T03:55:00Z,64.836,-147.614,-7.2,-12.9,30,3,,10+,29.52,1001,,TRUE,TRUE,,,,,,,BKN,3400,,,,,,,VFR,,,,,,,,,,,,METAR,137
PAEI 050355Z 01008KT 10SM OVC036 M07/M13 A2948 RMK AO2A SLP995 T10671126 $,PAEI,2023-11-05T03:55:00Z,64.654,-147.094,-6.7,-12.6,10,8,,10+,29.48,999.5,,,TRUE,TRUE,,,,,,OVC,3600,,,,,,,VFR,,,,,,,,,,,,METAR,166
PAEH 050355Z AUTO 34030G36KT 290V010 10SM -SHSN OVC025 M03/M08 A2971 RMK AO2 PK WND 34036/0321 SHSNB0241 SLP071 P0000 T10321082,PAEH,2023-11-05T03:55:00Z,58.652,-162.062,-3.2,-8.2,340,30,36,10+,29.71,1007.1,,TRUE,TRUE,,,,,,-SHSN,OVC,2500,,,,,,,MVFR,,,,,,0.005,,,,,,METAR,101
PAED 050355Z 03006KT 1/2SM R06/3000V4500FT FG VV001 01/01 A2925 RMK AO2A SLP903 T00140007 $,PAED,2023-11-05T03:55:00Z,61.25,-149.837,1.4,0.7,30,6,,0.5,29.25,990.3,,,TRUE,TRUE,,,,,FG,OVX,0,,,,,,,LIFR,,,,,,,,,,,100,METAR,54
OTBH 050355Z 29003KT 9000 HZ CLR 23/21 A2992 Q1013 RMK AO2A SLP133 T02340205 FZRANO $,OTBH,2023-11-05T03:55:00Z,25.117,51.315,23.4,20.5,290,3,,5.59,29.91,1013.3,,,TRUE,TRUE,,,,,HZ,CLR,,,,,,,,VFR,,,,,,,,,,,,METAR,40
OPLA 050355Z 00000KT 1200 R36/P2000 R18/P2000 FU NSC 21/16 Q1016 BECMG 1500 RMK RMID/P2000 QFE990 A30.01,OPLA,2023-11-05T03:55:00Z,31.522,74.404,21,16,0,0,,0.75,30.00,,,,,,,,,,FU,CLR,,,,,,,,LIFR,,,,,,,,,,,,METAR,217
OPFA 050355Z 00000KT 0150 FG VV/// 20/19 Q1016 BECMG 0200,OPFA,2023-11-05T03:55:00Z,31.365,72.995,20,19,0,0,,0.09,30.00,,,,,,,,,,FG,OVX,0,,,,,,,LIFR,,,,,,,,,,,,METAR,180
OKAS 050355Z AUTO 28007KT 9999 CLR 22/12 A2996 RMK AO2 SLP142 T02150123 $,OKAS,2023-11-05T03:55:00Z,29.347,47.521,21.5,12.3,280,7,,6+,29.96,1014.2,,TRUE,TRUE,TRUE,,,,,,CLR,,,,,,,,VFR,,,,,,,,,,,,METAR,144
OEPS 050355Z AUTO VRB03KT 9999 SCT140 22/17 A3011 RMK AO2 SLP183 WND DATA ESTMD T02220166,OEPS,2023-11-05T03:55:00Z,24.063,47.581,22.2,16.6,VRB,3,,6+,30.11,1018.3,,TRUE,TRUE,,,,,,,SCT,14000,,,,,,,VFR,,,,,,,,,,,,SPECI,503
NZCM 050355Z AUTO 14018G23KT 9999 BKN039 OVC055 M11/M16 A2891 RMK AO2 SNE0258 SLP796 T11101163,NZCM,2023-11-05T03:55:00Z,-77.85,166.667,-11,-16.3,140,18,23,6+,28.91,979.6,,TRUE,TRUE,,,,,,,BKN,3900,OVC,5500,,,,,VFR,,,,,,,,,,,,METAR,24
LIVT 050355Z AUTO 15009G22KT //// 16/15 Q0984,LIVT,2023-11-05T03:55:00Z,45.677,13.754,16,15,150,9,22,,29.06,,,TRUE,,,,,,,,,,,,,,,,VFR,,,,,,,,,,,,METAR,20
LIVM 050355Z AUTO /////KT //// ///// Q////,LIVM,2023-11-05T03:55:00Z,44.441,12.296,,,,,,,0.00,,,TRUE,,,,,,,,,,,,,,,,VFR,,,,,,,,,,,,METAR,6
LIVF 050355Z 20018KT 9999 -RA SCT025 SCT030 14/12 Q0989 RMK BKN MON INVIS VAL NC VIS MIN 9999,LIVF,2023-11-05T03:55:00Z,43.517,12.728,14,12,200,18,,6+,29.20,,,,,,,,,,-RA,SCT,2500,SCT,3000,,,,,VFR,,,,,,,,,,,,METAR,549
LIVD 050355Z AUTO VRB03KT //// 00/00 Q0990,LIVD,2023-11-05T03:55:00Z,46.729,12.228,0,0,VRB,3,,,29.23,,,TRUE,,,,,,,,,,,,,,,,VFR,,,,,,,,,,,,METAR,1221
LIRY 050355Z AUTO 16010KT 120V200 //// 18/15 Q0996,LIRY,2023-11-05T03:55:00Z,-99.99,-99.99,18,15,160,10,,,29.41,,,TRUE,,,,,,,,,,,,,,,,VFR,,,,,,,,,,,,METAR,9999
LIRX 050355Z AUTO 27007KT 240V310 //// 16/13 Q0992,LIRX,2023-11-05T03:55:00Z,42.731,10.396,16,13,270,7,,,29.29,,,TRUE,,,,,,,,,,,,,,,,VFR,,,,,,,,,,,,METAR,397
LIRS 050355Z 21024G34KT 9999 FEW020 BKN030 19/17 Q0991 RMK OVC VIS MIN 9999 WIND THR03 21023KT WIND THR21 22025G36KT BLU,LIRS,2023-11-05T03:55:00Z,42.76,11.072,19,17,210,24,34,6+,29.26,,,,,,,,,,,FEW,2000,BKN,3000,,,,,MVFR,,,-2.3,,,,,,,,,METAR,3
LIRM 050355Z /////KT 9999 SCT025 BKN070 20/17 Q1002 RMK OVC VIS MIN 9999 WIND THR06 22022KT BLU,LIRM,2023-11-05T03:55:00Z,41.061,14.082,20,17,,,,6+,29.59,,,,,,,,,,,SCT,2500,BKN,7000,,,,,VFR,,,,,,,,,,,,METAR,6
LIRK 050355Z AUTO 01011G28KT //// 07/07 Q1015,LIRK,2023-11-05T03:55:00Z,42.466,12.979,7,7,10,11,28,,29.97,,,TRUE,,,,,,,,,,,,,,,,VFR,,,,,,,,,,,,METAR,1721
LIRE 050355Z 20025KT 9999 FEW020 SCT060 20/18 Q0998 RMK BKN VIS MIN 9999 WIND THR13 /////KT WIND THR31 /////KT BLU,LIRE,2023-11-05T03:55:00Z,41.656,12.449,20,18,200,25,,6+,29.47,,,,,,,,,,,FEW,2000,SCT,6000,,,,,VFR,,,,,,,,,,,,METAR,16
LIQO 050355Z AUTO 12037KT //// ///// Q////,LIQO,2023-11-05T03:55:00Z,42.387,11.17,,,120,37,,,0.00,,,TRUE,,,,,,,,,,,,,,,,VFR,,,,,,,,,,,,METAR,627
LIQC 050355Z 27015G35KT 9999 BKN025 19/15 Q1004 RMK BKN QUK / QUL / VIS MAR 20 KM VIS MIN 9999,LIQC,2023-11-05T03:55:00Z,40.558,14.201,19,15,270,15,35,6+,29.65,,,,,,,,,,,BKN,2500,,,,,,,MVFR,,,,,,,,,,,,METAR,154
LIPS 050355Z 33002KT 9999 FEW040 SCT100 09/09 Q0986 RMK SCT VIS MIN 9999 WIND THR26 27002KT WIND THR08 32003KT BLU,LIPS,2023-11-05T03:55:00Z,45.689,12.101,9,9,330,2,,6+,29.11,,,,,,,,,,,FEW,4000,SCT,10000,,,,,VFR,,,,,,,,,,,,METAR,42
LIPL 050355Z 26006KT 8000 -RA SCT010 SCT020 10/10 Q0988 RMK OVC VIS MIN 8000 WIND THR31 /////KT WIND THR13 /////KT BLU,LIPL,2023-11-05T03:55:00Z,45.432,10.268,10,10,260,6,,4.97,29.17,,,,,,,,,,-RA,SCT,1000,SCT,2000,,,,,MVFR,,,,,,,,,,,,METAR,96
LIPI 050355Z 34008KT 9999 SCT030 12/10 Q0985 RERA RMK BKN SCT130 VIS MIN 9999 WIND THR06 01009KT WIND THR24 /////KT BLU,LIPI,2023-11-05T03:55:00Z,45.979,13.049,12,10,340,8,,6+,29.08,,,,,,,,,,,SCT,3000,,,,,,,VFR,,,,,,,,,,,,METAR,49
LIPC 050355Z 30015G25KT 9999 RA FEW020 SCT030 16/13 Q0988 RMK OVC BKN070 VIS MIN 9999 WIND THR11 29017KT WIND THR29 26014KT BLU,LIPC,2023-11-05T03:55:00Z,44.224,12.307,16,13,300,15,25,6+,29.17,,,,,,,,,,RA,FEW,2000,SCT,3000,,,,,VFR,,,,,,,,,,,,METAR,10
LIMK 050355Z AUTO VRB01KT //// 04/03 Q0988,LIMK,2023-11-05T03:55:00Z,45.033,7.731,4,3,VRB,1,,,29.17,,,TRUE,,,,,,,,,,,,,,,,VFR,,,,,,,,,,,,METAR,693
LIED 050355Z 25009KT 9999 FEW025 20/16 Q1001 RMK SCT VIS MIN 9999 WIND THR35 /////KT WIND THR17 25009KT BLU,LIED,2023-11-05T03:55:00Z,39.354,8.973,20,16,250,9,,6+,29.56,,,,,,,,,,,FEW,2500,,,,,,,VFR,,,,,,,,,,,,METAR,26
LIEB 050355Z 27017G27KT 9999 BKN020 21/14 Q0999 RMK BKN QUK / QUL / VIS MAR 20 KM MON INVIS VIS MIN 9999,LIEB,2023-11-05T03:55:00Z,39.931,9.713,21,14,270,17,27,6+,29.50,,,,,,,,,,,BKN,2000,,,,,,,MVFR,,,,,,,,,,,,METAR,126
LICZ 050355Z 27008KT 9999 FEW070 16/16 Q1009 RMK FEW VIS MIN 9999 WIND THR28 27007KT WIND THR10 27007KT A2981 BLU,LICZ,2023-11-05T03:55:00Z,37.406,14.919,16,16,270,8,,6+,29.79,,,,,,,,,,,FEW,7000,,,,,,,VFR,,,,,,,,,,,,METAR,22
LIBY 050355Z AUTO 21017G27KT //// 19/12 Q1006,LIBY,2023-11-05T03:55:00Z,39.811,18.342,19,12,210,17,27,,29.70,,,TRUE,,,,,,,,,,,,,,,,VFR,,,,,,,,,,,,METAR,105
LIBV 050355Z 18015KT CAVOK 15/12 Q1003 RMK BKN SCT060 SCT240 VIS MIN 9999 WIND THR32 18105KT WIND THR14 18013KT BLU,LIBV,2023-11-05T03:55:00Z,40.766,16.935,15,12,180,15,,6+,29.62,,,,,,,,,,,CAVOK,,,,,,,,VFR,,,,,,,,,,,,METAR,344
LIBQ 050355Z AUTO 26010G24KT 210V280 //// 06/06 Q1009,LIBQ,2023-11-05T03:55:00Z,39.331,16.396,6,6,260,10,24,,29.79,,,TRUE,,,,,,,,,,,,,,,,VFR,,,,,,,,,,,,METAR,1660
LIBN 050355Z 15005KT CAVOK 14/14 Q1006 RMK SCT SCT080 VIS MIN 9999 WIND THR14 15007KT WIND THR32 16005KT BLU,LIBN,2023-11-05T03:55:00Z,40.238,18.138,14,14,150,5,,6+,29.70,,,,,,,,,,,CAVOK,,,,,,,,VFR,,,,,,,,,,,,METAR,46
LIBA 050355Z 19012KT 9999 BKN045 20/12 Q1000 RMK BKN VIS MIN 9999 WIND THR11 19012KT WIND THR29 /////KT BLU,LIBA,2023-11-05T03:55:00Z,41.538,15.714,20,12,190,12,,6+,29.53,,,,,,,,,,,BKN,4500,,,,,,,VFR,,,,,,,,,,,,METAR,55
KXNO 050355Z AUTO 22003KT 10SM CLR 05/01 A3012 RMK AO2 SLP203 T00530009 $,KXNO,2023-11-05T03:55:00Z,33.612,-81.07,5.3,0.9,220,3,,10+,30.12,1020.3,,TRUE,TRUE,TRUE,,,,,,CLR,,,,,,,,VFR,,,,,,,,,,,,METAR,94
KXMR 050355Z AUTO 36009KT 10SM CLR 22/18 A3001 RMK AO2 SLP165 T02160182 CHINO RWY31 $,KXMR,2023-11-05T03:55:00Z,28.4674,-80.5589,21.6,18.2,360,9,,10+,30.01,1016.5,,TRUE,TRUE,TRUE,,,,,,CLR,,,,,,,,VFR,,,,,,,,,,,,METAR,5
KWRI 050355Z AUTO 00000KT 10SM SCT140 06/05 A3010 RMK AO2 SLP193 T00600045,KWRI,2023-11-05T03:55:00Z,40.016,-74.591,6,4.5,0,0,,10+,30.10,1019.3,,TRUE,TRUE,,,,,,,SCT,14000,,,,,,,VFR,,,,,,,,,,,,METAR,35
KWRB 050355Z AUTO 00000KT 10SM CLR 09/07 A3015 RMK AO2 SLP212 T00850070 $,KWRB,2023-11-05T03:55:00Z,32.639,-83.593,8.5,7,0,0,,10+,30.15,1021.2,,TRUE,TRUE,TRUE,,,,,,CLR,,,,,,,,VFR,,,,,,,,,,,,METAR,82
KVPS 050355Z AUTO 00000KT 10SM CLR 14/09 A3016 RMK AO2 SLP220 T01370093 $,KVPS,2023-11-05T03:55:00Z,30.483,-86.526,13.7,9.3,0,0,,10+,30.16,1022,,TRUE,TRUE,TRUE,,,,,,CLR,,,,,,,,VFR,,,,,,,,,,,,METAR,21
KVOK 050355Z AUTO 00000KT 10SM OVC090 M01/M03 A3013 RMK AO2 SLP216 T10071034 RVRNO $,KVOK,2023-11-05T03:55:00Z,43.938,-90.253,-0.7,-3.4,0,0,,10+,30.13,1021.6,,TRUE,TRUE,TRUE,,,,,,OVC,9000,,,,,,,VFR,,,,,,,,,,,,METAR,278
KVAD 050355Z AUTO 00000KT 10SM CLR 10/07 A3012 RMK AO2 SLP201 T00980070 $,KVAD,2023-11-05T03:55:00Z,30.979,-83.192,9.8,7,0,0,,10+,30.12,1020.1,,TRUE,TRUE,TRUE,,,,,,CLR,,,,,,,,VFR,,,,,,,,,,,,METAR,70
KTTS 050355Z AUTO 36010KT 10SM CLR 21/17 A3003 RMK AO2 SLP173 T02110173 $,KTTS,2023-11-05T03:55:00Z,28.5987,-80.6815,21.1,17.3,360,10,,10+,30.03,1017.3,,TRUE,TRUE,TRUE,,,,,,CLR,,,,,,,,VFR,,,,,,,,,,,,METAR,1
KTIK 050355Z AUTO 19008KT 10SM OVC060 16/13 A3009 RMK AO2 SLP191 T01610128 $,KTIK,2023-11-05T03:55:00Z,35.415,-97.386,16.1,12.8,190,8,,10+,30.09,1019.1,,TRUE,TRUE,TRUE,,,,,,OVC,6000,,,,,,,VFR,,,,,,,,,,,,METAR,387
KTDR 050355Z AUTO 05003KT 10SM CLR 17/12 A3011 RMK AO2 SLP200 T01720115 $,KTDR,2023-11-05T03:55:00Z,30.038,-85.528,17.2,11.5,50,3,,10+,30.11,1020,,TRUE,TRUE,TRUE,,,,,,CLR,,,,,,,,VFR,,,,,,,,,,,,METAR,4
KTBN 050355Z AUTO 00000KT 9SM FEW090 09/04 A3018 RMK AO2 SLP221 T00920044 $,KTBN,2023-11-05T03:55:00Z,37.7445,-92.1447,9.2,4.4,0,0,,9,30.18,1022.1,,TRUE,TRUE,TRUE,,,,,,FEW,9000,,,,,,,VFR,,,,,,,,,,,,METAR,349
KT70 050355Z AUTO 13004KT 10SM CLR 17/12 A3010 RMK AO2 SLPNO T01660121 $,KT70,2023-11-05T03:55:00Z,29.117,-100.473,16.6,12.1,130,4,,10+,30.10,,,TRUE,TRUE,TRUE,,,,,,CLR,,,,,,,,VFR,,,,,,,,,,,,METAR,296
KSZL 050355Z AUTO 00000KT 10SM CLR 05/04 A3019 RMK AO2 SLP229 TMP 06C RWY 19 T00530038 $,KSZL,2023-11-05T03:55:00Z,38.736,-93.55,5.3,3.8,0,0,,10+,30.19,1022.9,,TRUE,TRUE,TRUE,,,,,,CLR,,,,,,,,VFR,,,,,,,,,,,,METAR,259
KSXS 050355Z AUTO 00000KT 10SM M 13/08 A3015 RMK AO2 SLP210 T01300083 $,KSXS,2023-11-05T03:55:00Z,31.364,-85.846,13,8.3,0,0,,10+,30.15,1021,,TRUE,TRUE,TRUE,,,,,,,,,,,,,,VFR,,,,,,,,,,,,METAR,120
KSVN 050355Z 30003KT 10SM CLR 11/01 A3009 RMK AO2A SLP193 T01100012 $,KSVN,2023-11-05T03:55:00Z,32.011,-81.131,11,1.2,300,3,,10+,30.09,1019.3,,,TRUE,TRUE,,,,,,CLR,,,,,,,,VFR,,,,,,,,,,,,METAR,13
KSUU 050355Z 22011KT 10SM BKN120 15/12 A3000 RMK AO2A SLP165 T01540121 $,KSUU,2023-11-05T03:55:00Z,38.25,-121.938,15.4,12.1,220,11,,10+,30.00,1016.5,,,TRUE,TRUE,,,,,,BKN,12000,,,,,,,VFR,,,,,,,,,,,,METAR,9
KSSC 050355Z 00000KT 10SM CLR 13/M06 A3011 RMK AO2A SLP197 T01341062 $,KSSC,2023-11-05T03:55:00Z,33.978,-80.466,13.4,-6.2,0,0,,10+,30.11,1019.7,,,TRUE,TRUE,,,,,,CLR,,,,,,,,VFR,,,,,,,,,,,,METAR,71
KSLI 050355Z AUTO 00000KT 10SM CLR 15/12 A2996 RMK AO2 SLP148 T01510122,KSLI,2023-11-05T03:55:00Z,33.796,-118.042,15.1,12.2,0,0,,10+,29.96,1014.8,,TRUE,TRUE,,,,,,,CLR,,,,,,,,VFR,,,,,,,,,,,,METAR,8
KSKF 050355Z AUTO 15003KT 10SM CLR 17/12 A3009 RMK AO2 SLP186 T01680121 $,KSKF,2023-11-05T03:55:00Z,29.392,-98.581,16.8,12.1,150,3,,10+,30.09,1018.6,,TRUE,TRUE,TRUE,,,,,,CLR,,,,,,,,VFR,,,,,,,,,,,,METAR,214
KSHM 050355Z AUTO 19005KT 10SM CLR 07/M02 A3019 RMK AO2 SLP203 T00711024 $,KSHM,2023-11-05T03:55:00Z,38.8,-104.52,7.1,-2.4,190,5,,10+,30.19,1020.3,,TRUE,TRUE,TRUE,,,,,,CLR,,,,,,,,VFR,,,,,,,,,,,,METAR,1900
KSEQ 050355Z AUTO 15006KT 10SM CLR 16/16 A3009 RMK AO2 SLP189 T01610158,KSEQ,2023-11-05T03:55:00Z,29.566,-97.908,16.1,15.8,150,6,,10+,30.09,1018.9,,TRUE,TRUE,,,,,,,CLR,,,,,,,,VFR,,,,,,,,,,,,METAR,160
KSCK 050355Z 30008KT 10SM CLR 18/13 A3001 RMK AO2 SLP163 T01830133,KSCK,2023-11-05T03:55:00Z,37.89,-121.226,18.3,13.3,300,8,,10+,30.01,1016.3,,,TRUE,,,,,,,CLR,,,,,,,,VFR,,,,,,,,,,,,METAR,8
KRYM 050355Z AUTO 02007KT 10SM OVC040 05/01 A3007 RMK AO2 SLP198 T00470006 $,KRYM,2023-11-05T03:55:00Z,46.0878,-94.353,4.7,0.6,20,7,,10+,30.07,1019.8,,TRUE,TRUE,TRUE,,,,,,OVC,4000,,,,,,,VFR,,,,,,,,,,,,METAR,344
KRNO 050355Z 17014G25KT 10SM FEW130 SCT230 17/01 A3005 RMK AO2 SLP144 ACSL DSNT NE AND SE T01720011,KRNO,2023-11-05T03:55:00Z,39.5077,-119.768,17.2,1.1,170,14,25,10+,30.05,1014.4,,,TRUE,,,,,,,FEW,13000,SCT,23000,,,,,VFR,,,,,,,,,,,,METAR,1344
KRND 050355Z AUTO 13003KT 10SM CLR 18/16 A3010 RMK AO2 SLP189 T01760158 $,KRND,2023-11-05T03:55:00Z,29.537,-98.268,17.6,15.8,130,3,,10+,30.10,1018.9,,TRUE,TRUE,TRUE,,,,,,CLR,,,,,,,,VFR,,,,,,,,,,,,METAR,224
KRIV 050355Z AUTO 29004KT 10SM CLR 16/02 A3003 RMK AO2 SLP164 T01580019,KRIV,2023-11-05T03:55:00Z,33.878,-117.244,15.8,1.9,290,4,,10+,30.03,1016.4,,TRUE,TRUE,,,,,,,CLR,,,,,,,,VFR,,,,,,,,,,,,METAR,454
KRDR 050355Z AUTO 13003KT 10SM OVC013 M01/M03 A3011 RMK AO2 SLP214 T10141027 $,KRDR,2023-11-05T03:55:00Z,47.9477,-97.4029,-1.4,-2.7,130,3,,10+,30.11,1021.4,,TRUE,TRUE,TRUE,,,,,,OVC,1300,,,,,,,MVFR,,,,,,,,,,,,METAR,276
KRCA 050355Z 16009KT 10SM CLR 08/00 A2992 RMK AO2A SLP139 T00780000 RVRNO PWINO TSNO $,KRCA,2023-11-05T03:55:00Z,44.155,-103.118,7.8,0,160,9,,10+,29.92,1013.9,,,TRUE,TRUE,,,,,,CLR,,,,,,,,VFR,,,,,,,,,,,,METAR,993
KQVA 050355Z 06001KT 10SM CLR 19/M15 3015 RMK AO2A SLP143 T01881156,KQVA,2023-11-05T03:55:00Z,-99.99,-99.99,18.8,-15.6,60,1,,10+,0.00,1014.3,,,TRUE,,,,,,,CLR,,,,,,,,VFR,,,,,,,,,,,,METAR,9999
KQTZ 050355Z 30001KT 9999 SKC 17/12 A3001 RMK SLP164 WND DATA ESTMD ALSTG/SLP ESTMD,KQTZ,2023-11-05T03:55:00Z,-99.99,-99.99,17,12,300,1,,6+,30.01,1016.4,,,,,,,,,,SKC,,,,,,,,VFR,,,,,,,,,,,,METAR,9999
KQN3 050355Z AUTO 00000KT 9000 CLR 27/13 A2986 RMK AO2 SLP093 WND DATA ESTMD T02740127 $,KQN3,2023-11-05T03:55:00Z,-99.99,-99.99,27.4,12.7,0,0,,5.59,29.86,1009.3,,TRUE,TRUE,TRUE,,,,,,CLR,,,,,,,,VFR,,,,,,,,,,,,METAR,9999
KQDG 050355Z AUTO 09006KT 9999 CLR 15/06 A3038 RMK AO2 SLP289 T01530060 $,KQDG,2023-11-05T03:55:00Z,-99.99,-99.99,15.3,6,90,6,,6+,30.38,1028.9,,TRUE,TRUE,TRUE,,,,,,CLR,,,,,,,,VFR,,,,,,,,,,,,METAR,9999
KQD3 050355Z 14003KT 9999 FEW020 BKN200 28/24 A2993 RMK AO2A SLP130 WND DATA ESTMD T02770239,KQD3,2023-11-05T03:55:00Z,-99.99,-99.99,27.7,23.9,140,3,,6+,29.93,1013,,,TRUE,,,,,,,FEW,2000,BKN,20000,,,,,VFR,,,,,,,,,,,,METAR,9999
KQBL 050355Z AUTO 00000KT 10SM CLR 14/14 A3017 RMK AO2 SLP223 WND DATA ESTMD T01420141,KQBL,2023-11-05T03:55:00Z,-99.99,-99.99,14.2,14.1,0,0,,10+,30.17,1022.3,,TRUE,TRUE,,,,,,,CLR,,,,,,,,VFR,,,,,,,,,,,,METAR,9999
KQAZ 050355Z AUTO 00000KT 9999 CLR 23/00 A2993 RMK AO2 SLP131 WND DATA ESTMD T02270003,KQAZ,2023-11-05T03:55:00Z,-99.99,-99.99,22.7,0.3,0,0,,6+,29.93,1013.1,,TRUE,TRUE,,,,,,,CLR,,,,,,,,VFR,,,,,,,,,,,,METAR,9999
KPSM 050355Z 00000KT 10SM BKN110 OVC150 08/05 A3007 RMK AO2A SLP186 T00790045,KPSM,2023-11-05T03:55:00Z,43.0677,-70.8127,7.9,4.5,0,0,,10+,30.07,1018.6,,,TRUE,,,,,,,BKN,11000,OVC,15000,,,,,VFR,,,,,,,,,,,,METAR,34
KPOE 050355Z AUTO 00000KT 10SM CLR 13/09 A3015 RMK AO2 SLP211 T01340093,KPOE,2023-11-05T03:55:00Z,31.047,-93.194,13.4,9.3,0,0,,10+,30.15,1021.1,,TRUE,TRUE,,,,,,,CLR,,,,,,,,VFR,,,,,,,,,,,,METAR,98
KPOB 050355Z AUTO 00000KT 10SM CLR 06/01 A3011 RMK AO2 SLP199 T00620011 $,KPOB,2023-11-05T03:55:00Z,35.175,-79.008,6.2,1.1,0,0,,10+,30.11,1019.9,,TRUE,TRUE,TRUE,,,,,,CLR,,,,,,,,VFR,,,,,,,,,,,,METAR,57
KPHP 050355Z AUTO 15004KT 10SM CLR 09/03 A2998 RMK AO2 SLP155 T00890028,KPHP,2023-11-05T03:55:00Z,44.051,-101.601,8.9,2.8,150,4,,10+,29.98,1015.5,,TRUE,TRUE,,,,,,,CLR,,,,,,,,VFR,,,,,,,,,,,,METAR,673
KPAM 050355Z AUTO 00000KT 10SM CLR 13/11 A3014 RMK AO2 SLP209 T01330112 $,KPAM,2023-11-05T03:55:00Z,30.071,-85.577,13.3,11.2,0,0,,10+,30.14,1020.9,,TRUE,TRUE,TRUE,,,,,,CLR,,,,,,,,VFR,,,,,,,,,,,,METAR,4
KP58 050355Z AUTO 17003KT 03/01 A3009 RMK AO1 SLP196 T00280011,KP58,2023-11-05T03:55:00Z,44.0217,-82.7929,2.8,1.1,170,3,,,30.09,1019.6,,TRUE,TRUE,,,,,,,,,,,,,,,VFR,,,,,,,,,,,,METAR,180
KOZR 050355Z AUTO 00000KT 10SM CLR 11/08 A3015 RMK AO2 SLP211 T01050076,KOZR,2023-11-05T03:55:00Z,31.2767,-85.7105,10.5,7.6,0,0,,10+,30.15,1021.1,,TRUE,TRUE,,,,,,,CLR,,,,,,,,VFR,,,,,,,,,,,,METAR,90
KOWX 050355Z AUTO 27006KT 10SM CLR 03/01 A3013 RMK AO1,KOWX,2023-11-05T03:55:00Z,41.0341,-83.9862,3,1,270,6,,10+,30.13,,,TRUE,TRUE,,,,,,,CLR,,,,,,,,VFR,,,,,,,,,,,,METAR,232
KOFF 050355Z 00000KT 10SM CLR 05/02 A3018 RMK AO2A SLP230 T00520015 $,KOFF,2023-11-05T03:55:00Z,41.122,-95.91,5.2,1.5,0,0,,10+,30.18,1023,,,TRUE,TRUE,,,,,,CLR,,,,,,,,VFR,,,,,,,,,,,,METAR,308
KNTD 050355Z 01005KT 5SM BR FEW002 14/13 A3001 RMK AO2 SLP164 VIS W 2 T01390133 VISNO S $,KNTD,2023-11-05T03:55:00Z,34.124,-119.123,13.9,13.3,10,5,,5,30.01,1016.4,,,TRUE,TRUE,,,,,BR,FEW,200,,,,,,,MVFR,,,,,,,,,,,,METAR,1
KNKX 050355Z 00000KT 10SM CLR 11/02 A3000 RMK AO2 SLP154 T01110022,KNKX,2023-11-05T03:55:00Z,32.865,-117.137,11.1,2.2,0,0,,10+,30.00,1015.4,,,TRUE,,,,,,,CLR,,,,,,,,VFR,,,,,,,,,,,,METAR,138
KNBG 050355Z AUTO 00000KT 3SM CLR 12/12 A3017 RMK AO2 SLP214 T01220117 $,KNBG,2023-11-05T03:55:00Z,29.837,-90.024,12.2,11.7,0,0,,3,30.17,1021.4,,TRUE,TRUE,TRUE,,,,,,CLR,,,,,,,,MVFR,,,,,,,,,,,,METAR,
KMXF 050355Z AUTO 00000KT 10SM CLR 10/09 A3016 RMK AO2 SLP216 T00980086,KMXF,2023-11-05T03:55:00Z,32.3877,-86.3724,9.8,8.6,0,0,,10+,30.16,1021.6,,TRUE,TRUE,,,,,,,CLR,,,,,,,,VFR,,,,,,,,,,,,METAR,47
KMUO 050355Z 15009KT 10SM BKN100 10/08 A2995 RMK AO2A SLP143 T01040083 $,KMUO,2023-11-05T03:55:00Z,43.03,-115.859,10.4,8.3,150,9,,10+,29.95,1014.3,,,TRUE,TRUE,,,,,,BKN,10000,,,,,,,VFR,,,,,,,,,,,,METAR,915
KMTC 050355Z AUTO 00000KT 5SM BR FEW049 05/05 A3008 RMK AO2 SLP194 T00460045 $,KMTC,2023-11-05T03:55:00Z,42.6045,-82.8353,4.6,4.5,0,0,,5,30.08,1019.4,,TRUE,TRUE,TRUE,,,,,BR,FEW,4900,,,,,,,MVFR,,,,,,,,,,,,METAR,177
KMMT 050355Z AUTO 27003KT 10SM CLR 06/01 A3011 RMK AO2 SLP199 T00560011 $,KMMT,2023-11-05T03:55:00Z,33.922,-80.802,5.6,1.1,270,3,,10+,30.11,1019.9,,TRUE,TRUE,TRUE,,,,,,CLR,,,,,,,,VFR,,,,,,,,,,,,METAR,76
KMKG 050355Z AUTO 00000KT 8SM CLR 03/00 A3016 RMK AO2 SLP217 T00280000 CHINO RWY 14 VISNO RWY 14 $,KMKG,2023-11-05T03:55:00Z,43.1711,-86.2368,2.8,0,0,0,,8,30.16,1021.7,,TRUE,TRUE,TRUE,,,,,,CLR,,,,,,,,VFR,,,,,,,,,,,,METAR,190
KMIB 050355Z 16010KT 5/8SM FG VV002 00/M01 A2996 RMK AO2A CIG 001 RWY12 SLP170 T00001007 $,KMIB,2023-11-05T03:55:00Z,48.4062,-101.341,0,-0.7,160,10,,0.63,29.96,1017,,,TRUE,TRUE,,,,,FG,OVX,0,,,,,,,LIFR,,,,,,,,,,,200,METAR,505
KMGE 050355Z AUTO 00000KT 10SM CLR 08/03 A3015 RMK AO2 SLP210 T00770034 $,KMGE,2023-11-05T03:55:00Z,33.9189,-84.5266,7.7,3.4,0,0,,10+,30.15,1021,,TRUE,TRUE,TRUE,,,,,,CLR,,,,,,,,VFR,,,,,,,,,,,,METAR,309
KMCF 050355Z AUTO 02006KT 10SM CLR 20/01 A3004 RMK AO2 SLP175 T01950010 FZRANO $,KMCF,2023-11-05T03:55:00Z,27.8598,-82.5133,19.5,1,20,6,,10+,30.04,1017.5,,TRUE,TRUE,TRUE,,,,,,CLR,,,,,,,,VFR,,,,,,,,,,,,METAR,3
KMBO 050355Z AUTO 00000KT 10SM SCT038 BKN044 10/06 A3017 RMK AO2,KMBO,2023-11-05T03:55:00Z,32.4385,-90.1014,10,6,0,0,,10+,30.17,,,TRUE,TRUE,,,,,,,SCT,3800,BKN,4400,,,,,VFR,,,,,,,,,,,,METAR,98
KLZZ 050355Z AUTO 00000KT 10SM CLR 16/13 A3010 RMK AO2 T01640131,KLZZ,2023-11-05T03:55:00Z,31.1059,-98.1975,16.4,13.1,0,0,,10+,30.10,,,TRUE,TRUE,,,,,,,CLR,,,,,,,,VFR,,,,,,,,,,,,METAR,356
KLUF 050355Z AUTO 00000KT 10SM CLR 20/M03 A2996 RMK AO2 SLP139 T02011029,KLUF,2023-11-05T03:55:00Z,33.538,-112.38,20.1,-2.9,0,0,,10+,29.96,1013.9,,TRUE,TRUE,,,,,,,CLR,,,,,,,,VFR,,,,,,,,,,,,METAR,333
KLTS 050355Z AUTO 07005KT 10SM CLR 14/12 A3008 RMK AO2 SLP181 T01390121 $,KLTS,2023-11-05T03:55:00Z,34.666,-99.27,13.9,12.1,70,5,,10+,30.08,1018.1,,TRUE,TRUE,TRUE,,,,,,CLR,,,,,,,,VFR,,,,,,,,,,,,METAR,416
KLSF 050355Z AUTO 00000KT 10SM CLR 07/05 A3015 RMK AO2 SLP215 T00680050 $,KLSF,2023-11-05T03:55:00Z,32.3239,-84.9826,6.8,5,0,0,,10+,30.15,1021.5,,TRUE,TRUE,TRUE,,,,,,CLR,,,,,,,,VFR,,,,,,,,,,,,METAR,68
KLRF 050355Z AUTO 00000KT 10SM FEW160 BKN200 11/09 A3014 RMK AO2 SLP209 T01080094 $,KLRF,2023-11-05T03:55:00Z,34.92,-92.131,10.8,9.4,0,0,,10+,30.14,1020.9,,TRUE,TRUE,TRUE,,,,,,FEW,16000,BKN,20000,,,,,VFR,,,,,,,,,,,,METAR,85
KLOR 050355Z AUTO 00000KT 10SM CLR 10/08 A3016 RMK AO2 SLP196 T00960080,KLOR,2023-11-05T03:55:00Z,31.36,-85.749,9.6,8,0,0,,10+,30.16,1019.6,,TRUE,TRUE,,,,,,,CLR,,,,,,,,VFR,,,,,,,,,,,,METAR,92
KLLJ 050355Z AUTO 22004KT 10SM SCT038 SCT044 BKN060 04/03 A3002 RMK AO2 SLP167 T00440033,KLLJ,2023-11-05T03:55:00Z,44.523,-114.216,4.4,3.3,220,4,,10+,30.02,1016.7,,TRUE,TRUE,,,,,,,SCT,3800,SCT,4400,BKN,6000,,,VFR,,,,,,,,,,,,METAR,1535
KLIC 050355Z AUTO 16004KT 10SM CLR 03/M03 A3019 RMK AO2 SLP196 T00281033,KLIC,2023-11-05T03:55:00Z,39.2733,-103.667,2.8,-3.3,160,4,,10+,30.19,1019.6,,TRUE,TRUE,,,,,,,CLR,,,,,,,,VFR,,,,,,,,,,,,METAR,1635
KLHW 050355Z AUTO 00000KT 10SM CLR 08/04 A3010 RMK AO2 SLP196 T00810039 $,KLHW,2023-11-05T03:55:00Z,31.8872,-81.5625,8.1,3.9,0,0,,10+,30.10,1019.6,,TRUE,TRUE,TRUE,,,,,,CLR,,,,,,,,VFR,,,,,,,,,,,,METAR,14
KLGF 050355Z AUTO 35005KT 10SM CLR 21/M09 A2993 RMK AO2 SLP134 T02131093,KLGF,2023-11-05T03:55:00Z,32.868,-114.393,21.3,-9.3,350,5,,10+,29.93,1013.4,,TRUE,TRUE,,,,,,,CLR,,,,,,,,VFR,,,,,,,,,,,,METAR,118
KLFI 050355Z AUTO 00000KT 9SM CLR 09/08 A3010 RMK AO2 SLP199 T00900078 $,KLFI,2023-11-05T03:55:00Z,37.088,-76.349,9,7.8,0,0,,9,30.10,1019.9,,TRUE,TRUE,TRUE,,,,,,CLR,,,,,,,,VFR,,,,,,,,,,,,METAR,2
KLCK 050355Z AUTO 21003KT 10SM CLR 09/04 A3011 RMK AO2 T00920042,KLCK,2023-11-05T03:55:00Z,39.83,-82.919,9.2,4.2,210,3,,10+,30.11,,,TRUE,TRUE,,,,,,,CLR,,,,,,,,VFR,,,,,,,,,,,,METAR,225
KIRK 050355Z AUTO 00000KT 5SM BR CLR 02/01 A3020 RMK AO2 SLP237 T00220011,KIRK,2023-11-05T03:55:00Z,40.0966,-92.5469,2.2,1.1,0,0,,5,30.20,1023.7,,TRUE,TRUE,,,,,,BR,CLR,,,,,,,,MVFR,,,,,,,,,,,,METAR,292
KINS 050355Z AUTO 00000KT 10SM CLR 15/M10 A3008 RMK AO2 SLP166 T01531096 $,KINS,2023-11-05T03:55:00Z,36.586,-115.69,15.3,-9.6,0,0,,10+,30.08,1016.6,,TRUE,TRUE,TRUE,,,,,,CLR,,,,,,,,VFR,,,,,,,,,,,,METAR,954
KIAB 050355Z AUTO 09006KT 10SM CLR 12/04 A3016 RMK AO2 SLP216 T01230040,KIAB,2023-11-05T03:55:00Z,37.622,-97.268,12.3,4,90,6,,10+,30.16,1021.6,,TRUE,TRUE,,,,,,,CLR,,,,,,,,VFR,,,,,,,,,,,,METAR,413
KI35 050355Z AUTO 00000KT 10SM CLR 11/02 A3019 RMK AO2 T01050023,KI35,2023-11-05T03:55:00Z,36.8577,-83.3586,10.5,2.3,0,0,,10+,30.19,,,TRUE,TRUE,,,,,,,CLR,,,,,,,,VFR,,,,,,,,,,,,METAR,467
KHUA 050355Z AUTO 00000KT 9SM CLR 10/05 A3016 RMK AO2 SLPNO T01030051 $,KHUA,2023-11-05T03:55:00Z,34.676,-86.6854,10.3,5.1,0,0,,9,30.16,,,TRUE,TRUE,TRUE,,,,,,CLR,,,,,,,,VFR,,,,,,,,,,,,METAR,200
KHST 050355Z AUTO 31005KT 10SM FEW180 23/19 A2999 RMK AO2 SLP159 T02330194,KHST,2023-11-05T03:55:00Z,25.49,-80.379,23.3,19.4,310,5,,10+,29.99,1015.9,,TRUE,TRUE,,,,,,,FEW,18000,,,,,,,VFR,,,,,,,,,,,,METAR,1
KHRT 050355Z AUTO 36005KT 10SM CLR 13/06 A3015 RMK AO2 SLP212 T01260055 $,KHRT,2023-11-05T03:55:00Z,30.428,-86.69,12.6,5.5,360,5,,10+,30.15,1021.2,,TRUE,TRUE,TRUE,,,,,,CLR,,,,,,,,VFR,,,,,,,,,,,,METAR,10
KHOP 050355Z AUTO 00000KT 10SM FEW170 SCT190 14/08 A3015 RMK AO2 SLP210 T01420077 $,KHOP,2023-11-05T03:55:00Z,36.672,-87.495,14.2,7.7,0,0,,10+,30.15,1021,,TRUE,TRUE,TRUE,,,,,,FEW,17000,SCT,19000,,,,,VFR,,,,,,,,,,,,METAR,170
KHON 050355Z AUTO 00000KT 10SM CLR 02/01 A3005 RMK AO2 SLP186 T00220011,KHON,2023-11-05T03:55:00Z,44.3792,-98.2227,2.2,1.1,0,0,,10+,30.05,1018.6,,TRUE,TRUE,,,,,,,CLR,,,,,,,,VFR,,,,,,,,,,,,METAR,391
KHMN 050355Z AUTO 05008KT 10SM CLR 10/M09 A3021 RMK AO2 SLP199 T01031089 $,KHMN,2023-11-05T03:55:00Z,32.852,-106.108,10.3,-8.9,50,8,,10+,30.21,1019.9,,TRUE,TRUE,TRUE,,,,,,CLR,,,,,,,,VFR,,,,,,,,,,,,METAR,1240
KHLR 050355Z AUTO 18003KT 10SM CLR 17/13 A3014 RMK AO2 SLP205 T01720133,KHLR,2023-11-05T03:55:00Z,31.1361,-97.7149,17.2,13.3,180,3,,10+,30.14,1020.5,,TRUE,TRUE,,,,,,,CLR,,,,,,,,VFR,,,,,,,,,,,,METAR,271
KHIF 050355Z AUTO 12005KT 10SM FEW130 12/01 A3004 RMK AO2 SLP149 T01170008,KHIF,2023-11-05T03:55:00Z,41.111,-111.962,11.7,0.8,120,5,,10+,30.04,1014.9,,TRUE,TRUE,,,,,,,FEW,13000,,,,,,,VFR,,,,,,,,,,,,METAR,1461
KHFF 050355Z AUTO 00000KT 10SM CLR 04/M00 A3010 RMK AO2 SLP196 T00351005,KHFF,2023-11-05T03:55:00Z,35.0424,-79.4973,3.5,-0.5,0,0,,10+,30.10,1019.6,,TRUE,TRUE,,,,,,,CLR,,,,,,,,VFR,,,,,,,,,,,,METAR,100
KHEY 050355Z AUTO 00000KT 10SM CLR 10/09 A3013 RMK AO2 SLP205 T01040090,KHEY,2023-11-05T03:55:00Z,31.348,-85.655,10.4,9,0,0,,10+,30.13,1020.5,,TRUE,TRUE,,,,,,,CLR,,,,,,,,VFR,,,,,,,,,,,,METAR,95
KHCO 050355Z AUTO 09004KT 10SM SCT100 M03/M04 A3014 RMK AO2,KHCO,2023-11-05T03:55:00Z,48.7524,-96.9376,-3,-4,90,4,,10+,30.14,,,TRUE,TRUE,,,,,,,SCT,10000,,,,,,,VFR,,,,,,,,,,,,METAR,250
KGXF 050355Z AUTO 16006KT 9SM CLR 19/M09 A2997 RMK AO2 SLP141 T01891092 FZRANO $,KGXF,2023-11-05T03:55:00Z,32.885,-112.721,18.9,-9.2,160,6,,9,29.97,1014.1,,TRUE,TRUE,TRUE,,,,,,CLR,,,,,,,,VFR,,,,,,,,,,,,METAR,261
KGXA 050355Z AUTO 25004KT 10SM CLR 12/M04 A3007 RMK AO2 SLP169 WND DATA ESTMD T01241037,KGXA,2023-11-05T03:55:00Z,34.565,-117.669,12.4,-3.7,250,4,,10+,30.07,1016.9,,TRUE,TRUE,,,,,,,CLR,,,,,,,,VFR,,,,,,,,,,,,METAR,927
KGUS 050355Z AUTO 00000KT 10SM CLR 07/04 A3015 RMK AO2 SLP215 T00680038 $,KGUS,2023-11-05T03:55:00Z,40.6375,-86.1631,6.8,3.8,0,0,,10+,30.15,1021.5,,TRUE,TRUE,TRUE,,,,,,CLR,,,,,,,,VFR,,,,,,,,,,,,METAR,245
KGUR 050355Z AUTO 00000KT 8SM CLR 05/M02 A3003 RMK AO2 SLP193 T00471017,KGUR,2023-11-05T03:55:00Z,42.261,-104.732,4.7,-1.7,0,0,,8,30.03,1019.3,,TRUE,TRUE,,,,,,,CLR,,,,,,,,VFR,,,,,,,,,,,,METAR,1341
KGTB 050355Z AUTO 21003KT 10SM OVC055 08/06 A3004 RMK AO2 SLP176 T00750063,KGTB,2023-11-05T03:55:00Z,44.0617,-75.7218,7.5,6.3,210,3,,10+,30.04,1017.6,,TRUE,TRUE,,,,,,,OVC,5500,,,,,,,VFR,,,,,,,,,,,,METAR,206
KGSB 050355Z AUTO 26003KT 10SM CLR 11/08 A3008 RMK AO2 SLP189 T01100084 $,KGSB,2023-11-05T03:55:00Z,35.3446,-77.9458,11,8.4,260,3,,10+,30.08,1018.9,,TRUE,TRUE,TRUE,,,,,,CLR,,,,,,,,VFR,,,,,,,,,,,,METAR,33
KGRK 050355Z AUTO 13003KT 10SM CLR 16/13 A3011 RMK AO2 SLP191 T01590128,KGRK,2023-11-05T03:55:00Z,31.0779,-97.8323,15.9,12.8,130,3,,10+,30.11,1019.1,,TRUE,TRUE,,,,,,,CLR,,,,,,,,VFR,,,,,,,,,,,,METAR,311
KGRF 050355Z 13003KT 10SM SCT027 SCT065 BKN085 11/09 A2982 RMK AO2A SLP102 T01060092 $,KGRF,2023-11-05T03:55:00Z,47.079,-122.58,10.6,9.2,130,3,,10+,29.82,1010.2,,,TRUE,TRUE,,,,,,SCT,2700,SCT,6500,BKN,8500,,,VFR,,,,,,,,,,,,METAR,91
KGOV 050355Z AUTO 00000KT 10SM FEW110 M04/M04 A3011 RMK AO2 SLP216 T10441045 400881049 $,KGOV,2023-11-05T03:55:00Z,44.681,-84.727,-4.4,-4.5,0,0,,10+,30.11,1021.6,,TRUE,TRUE,TRUE,,,,,,FEW,11000,,,,,,,VFR,,,,,,,,,,,,METAR,350
KGFA 050355Z AUTO 22018KT 10SM CLR 11/05 A2975 RMK AO2 SLP086 T01100045 $,KGFA,2023-11-05T03:55:00Z,47.505,-111.187,11,4.5,220,18,,10+,29.75,1008.6,,TRUE,TRUE,TRUE,,,,,,CLR,,,,,,,,VFR,,,,,,,,,,,,METAR,1058
KGAO 050355Z AUTO 12003KT 10SM CLR 14/12 A3017 RMK AO2 T01400124,KGAO,2023-11-05T03:55:00Z,29.4352,-90.2599,14,12.4,120,3,,10+,30.17,,,TRUE,TRUE,,,,,,,CLR,,,,,,,,VFR,,,,,,,,,,,,METAR,
KFTK 050355Z AUTO 28003KT 9SM BKN150 BKN180 12/07 A3013 RMK AO2 SLP204 T01180069 $,KFTK,2023-11-05T03:55:00Z,37.907,-85.973,11.8,6.9,280,3,,9,30.13,1020.4,,TRUE,TRUE,TRUE,,,,,,BKN,15000,BKN,18000,,,,,VFR,,,,,,,,,,,,METAR,225
KFSI 050355Z AUTO 14005KT 10SM CLR 16/14 A3008 RMK AO2 SLP182 T01590143 FZRANO $,KFSI,2023-11-05T03:55:00Z,34.6457,-98.404,15.9,14.3,140,5,,10+,30.08,1018.2,,TRUE,TRUE,TRUE,,,,,,CLR,,,,,,,,VFR,,,,,,,,,,,,METAR,360
KFRI 050355Z AUTO 00000KT 10SM CLR 06/03 A3020 RMK AO2 SLP229 T00630027 $,KFRI,2023-11-05T03:55:00Z,39.0568,-96.7617,6.3,2.7,0,0,,10+,30.20,1022.9,,TRUE,TRUE,TRUE,,,,,,CLR,,,,,,,,VFR,,,,,,,,,,,,METAR,232
KFHU 050355Z AUTO 00000KT 10SM CLR 17/M02 A3018 RMK AO2 SLP173 T01731024,KFHU,2023-11-05T03:55:00Z,31.586,-110.348,17.3,-2.4,0,0,,10+,30.18,1017.3,,TRUE,TRUE,,,,,,,CLR,,,,,,,,VFR,,,,,,,,,,,,METAR,1424
KFFO 050355Z AUTO 00000KT 10SM CLR 05/03 A3009 RMK AO2 SLP195 T00520030,KFFO,2023-11-05T03:55:00Z,39.837,-84.035,5.2,3,0,0,,10+,30.09,1019.5,,TRUE,TRUE,,,,,,,CLR,,,,,,,,VFR,,,,,,,,,,,,METAR,250
KFEW 050355Z AUTO 24009KT 10SM CLR 09/M03 A3016 RMK AO2 SLP174 T00871032 $,KFEW,2023-11-05T03:55:00Z,41.141,-104.869,8.7,-3.2,240,9,,10+,30.16,1017.4,,TRUE,TRUE,TRUE,,,,,,CLR,,,,,,,,VFR,,,,,,,,,,,,METAR,1877
KFCS 050355Z AUTO 18006KT 10SM CLR 08/M03 A3019 RMK AO2 SLP216 T00841029 $,KFCS,2023-11-05T03:55:00Z,38.6756,-104.751,8.4,-2.9,180,6,,10+,30.19,1021.6,,TRUE,TRUE,TRUE,,,,,,CLR,,,,,,,,VFR,,,,,,,,,,,,METAR,1789
KFBG 050355Z AUTO 00000KT 10SM CLR 07/03 A3009 RMK AO2 SLP192 T00700027,KFBG,2023-11-05T03:55:00Z,35.131,-78.932,7,2.7,0,0,,10+,30.09,1019.2,,TRUE,TRUE,,,,,,,CLR,,,,,,,,VFR,,,,,,,,,,,,METAR,69
KFAF 050355Z AUTO 00000KT 10SM CLR 10/07 A3008 RMK AO2 SLP190 T00950071 $,KFAF,2023-11-05T03:55:00Z,37.134,-76.61,9.5,7.1,0,0,,10+,30.08,1019,,TRUE,TRUE,TRUE,,,,,,CLR,,,,,,,,VFR,,,,,,,,,,,,METAR,3
KEND 050355Z AUTO 07005KT 10SM FEW065 14/10 A3011 RMK AO2 SLP195 T01350101,KEND,2023-11-05T03:55:00Z,36.338,-97.919,13.5,10.1,70,5,,10+,30.11,1019.5,,TRUE,TRUE,,,,,,,FEW,6500,,,,,,,VFR,,,,,,,,,,,,METAR,392
KEGI 050355Z AUTO 00000KT 10SM CLR 11/08 A3016 RMK AO2 SLP213 T01100079 $,KEGI,2023-11-05T03:55:00Z,30.653,-86.525,11,7.9,0,0,,10+,30.16,1021.3,,TRUE,TRUE,TRUE,,,,,,CLR,,,,,,,,VFR,,,,,,,,,,,,METAR,59
KEDW 050355Z AUTO 24008KT 6SM HZ CLR 13/M09 A3004 RMK AO2 SLP171 T01321087,KEDW,2023-11-05T03:55:00Z,34.908,-117.874,13.2,-8.7,240,8,,6,30.04,1017.1,,TRUE,TRUE,,,,,,HZ,CLR,,,,,,,,VFR,,,,,,,,,,,,METAR,698
KEAT 050355Z AUTO 30003KT 10SM OVC011 07/07 A2978 RMK AO2 SLP090 T00720067,KEAT,2023-11-05T03:55:00Z,47.3975,-120.201,7.2,6.7,300,3,,10+,29.78,1009,,TRUE,TRUE,,,,,,,OVC,1100,,,,,,,MVFR,,,,,,,,,,,,METAR,375
KDYS 050355Z AUTO 20004KT 10SM CLR 16/11 A3005 RMK AO2 SLP152 T01610106 TSNO $,KDYS,2023-11-05T03:55:00Z,32.406,-99.85,16.1,10.6,200,4,,10+,30.05,1015.2,,TRUE,TRUE,TRUE,,,,,,CLR,,,,,,,,VFR,,,,,,,,,,,,METAR,544
KDOV 050355Z AUTO 18003KT 10SM CLR 10/06 A3008 RMK AO2 SLP190 T00990061,KDOV,2023-11-05T03:55:00Z,39.13,-75.465,9.9,6.1,180,3,,10+,30.08,1019,,TRUE,TRUE,,,,,,,CLR,,,,,,,,VFR,,,,,,,,,,,,METAR,6
KDMA 050355Z AUTO 19005KT 10SM CLR 19/M06 A3004 RMK AO2 SLP142 T01851056 $,KDMA,2023-11-05T03:55:00Z,32.165,-110.887,18.5,-5.6,190,5,,10+,30.04,1014.2,,TRUE,TRUE,TRUE,,,,,,CLR,,,,,,,,VFR,,,,,,,,,,,,METAR,804
KDLH 050355Z 01006KT 10SM FEW005 BKN032 OVC046 M01/M03 A3013 RMK AO2 SNE27 SLP223 P0000 T10061028 $,KDLH,2023-11-05T03:55:00Z,46.8435,-92.1866,-0.6,-2.8,10,6,,10+,30.13,1022.3,,,TRUE,TRUE,,,,,,FEW,500,BKN,3200,OVC,4600,,,VFR,,,,,,0.005,,,,,,METAR,434
KDLF 050355Z AUTO 12003KT 10SM CLR 17/13 A3008 RMK AO2 SLPNO T01710128 $,KDLF,2023-11-05T03:55:00Z,29.3666,-100.785,17.1,12.8,120,3,,10+,30.08,,,TRUE,TRUE,TRUE,,,,,,CLR,,,,,,,,VFR,,,,,,,,,,,,METAR,328
KDAA 050355Z AUTO 00000KT 10SM CLR 05/03 A3008 RMK AO2 SLP189 T00490034,KDAA,2023-11-05T03:55:00Z,38.714,-77.178,4.9,3.4,0,0,,10+,30.08,1018.9,,TRUE,TRUE,,,,,,,CLR,,,,,,,,VFR,,,,,,,,,,,,METAR,17
KCWN 050355Z AUTO 19008KT 10SM CLR 11/M04 A3023 RMK AO2 SLP095 T01071045 $,KCWN,2023-11-05T03:55:00Z,38.748,-104.847,10.7,-4.5,190,8,,10+,30.23,1009.5,,TRUE,TRUE,TRUE,,,,,,CLR,,,,,,,,VFR,,,,,,,,,,,,METAR,2040
KCVS 050355Z AUTO 08006KT 10SM CLR 12/04 A3020 RMK AO2 VIS 1 5/8 RWY04 VIS 1 5/8 RWY13 SLP197 T01180040 $,KCVS,2023-11-05T03:55:00Z,34.381,-103.322,11.8,4,80,6,,10+,30.20,1019.7,,TRUE,TRUE,TRUE,,,,,,CLR,,,,,,,,VFR,,,,,,,,,,,,METAR,1305
KCQB 050355Z AUTO 00000KT 10SM OVC065 17/13 A3014 RMK AO2,KCQB,2023-11-05T03:55:00Z,35.7223,-96.8187,17,13,0,0,,10+,30.14,,,TRUE,TRUE,,,,,,,OVC,6500,,,,,,,VFR,,,,,,,,,,,,METAR,298
KCOF 050355Z AUTO 35010KT 10SM CLR 21/18 A3001 RMK AO2 SLP167 T02080178 $,KCOF,2023-11-05T03:55:00Z,28.242,-80.608,20.8,17.8,350,10,,10+,30.01,1016.7,,TRUE,TRUE,TRUE,,,,,,CLR,,,,,,,,VFR,,,,,,,,,,,,METAR,1
KCNW 050355Z 00000KT 10SM SKC 14/13 A3014,KCNW,2023-11-05T03:55:00Z,31.637,-97.071,14,13,0,0,,10+,30.14,,,,,,,,,,,SKC,,,,,,,,VFR,,,,,,,,,,,,METAR,139
KCMY 050355Z AUTO 00000KT 10SM CLR M03/M03 A3013 RMK AO2 SLP216 T10321033 $,KCMY,2023-11-05T03:55:00Z,43.9581,-90.7398,-3.2,-3.3,0,0,,10+,30.13,1021.6,,TRUE,TRUE,TRUE,,,,,,CLR,,,,,,,,VFR,,,,,,,,,,,,METAR,253
KCEF 050355Z AUTO 00000KT 10SM FEW110 BKN140 BKN180 06/04 A3005 RMK AO2 SLP183 T00580038,KCEF,2023-11-05T03:55:00Z,42.201,-72.525,5.8,3.8,0,0,,10+,30.05,1018.3,,TRUE,TRUE,,,,,,,FEW,11000,BKN,14000,BKN,18000,,,VFR,,,,,,,,,,,,METAR,72
KCBM 050355Z AUTO 00000KT 10SM CLR 09/06 A3013 RMK AO2 SLP205 T00860064 $,KCBM,2023-11-05T03:55:00Z,33.6519,-88.4567,8.6,6.4,0,0,,10+,30.13,1020.5,,TRUE,TRUE,TRUE,,,,,,CLR,,,,,,,,VFR,,,,,,,,,,,,METAR,59
KCAO 050355Z AUTO 22005KT 10SM CLR 09/02 A3025 RMK AO2 SLP209 T00890022,KCAO,2023-11-05T03:55:00Z,36.4483,-103.154,8.9,2.2,220,5,,10+,30.25,1020.9,,TRUE,TRUE,,,,,,,CLR,,,,,,,,VFR,,,,,,,,,,,,METAR,1517
KBYS 050355Z AUTO 00000KT 10SM CLR 11/M08 A3002 RMK AO2 SLP161 T01051082 $,KBYS,2023-11-05T03:55:00Z,35.271,-116.634,10.5,-8.2,0,0,,10+,30.02,1016.1,,TRUE,TRUE,TRUE,,,,,,CLR,,,,,,,,VFR,,,,,,,,,,,,METAR,717
KBUU 050355Z AUTO 00000KT 10SM CLR 00/00 A3016 RMK AO2 T00000000 PWINO,KBUU,2023-11-05T03:55:00Z,42.6908,-88.308,0,0,0,0,,10+,30.16,,,TRUE,TRUE,,,,,,,CLR,,,,,,,,VFR,,,,,,,,,,,,METAR,238
KBLV 050355Z AUTO 00000KT 9SM FEW130 FEW170 12/05 A3019 RMK AO2 SLP226 T01180050 VISNO RWY14L $,KBLV,2023-11-05T03:55:00Z,38.54,-89.845,11.8,5,0,0,,9,30.19,1022.6,,TRUE,TRUE,TRUE,,,,,,FEW,13000,FEW,17000,,,,,VFR,,,,,,,,,,,,METAR,134
KBAD 050355Z AUTO 00000KT 10SM CLR 13/11 A3015 RMK AO2 SLP213 T01270111,KBAD,2023-11-05T03:55:00Z,32.488,-93.658,12.7,11.1,0,0,,10+,30.15,1021.3,,TRUE,TRUE,,,,,,,CLR,,,,,,,,VFR,,,,,,,,,,,,METAR,49
KBAB 050355Z 15006KT 10SM OVC130 21/10 A2998 RMK AO2A SLP155 T02110100 $,KBAB,2023-11-05T03:55:00Z,39.145,-121.436,21.1,10,150,6,,10+,29.98,1015.5,,,TRUE,TRUE,,,,,,OVC,13000,,,,,,,VFR,,,,,,,,,,,,METAR,31
KAST 050355Z AUTO A2985 RMK AO2 SLP109 PWINO FZRANO CHINO RWY 08 $,KAST,2023-11-05T03:55:00Z,46.157,-123.883,,,,,,,29.85,1010.9,,TRUE,TRUE,TRUE,,,,,,,,,,,,,,VFR,,,,,,,,,,,,METAR,3
KANJ 050355Z AUTO 00000KT 10SM BKN039 OVC075 04/01 A3011 RMK AO2 SLP201 T00390006,KANJ,2023-11-05T03:55:00Z,46.48,-84.3581,3.9,0.6,0,0,,10+,30.11,1020.1,,TRUE,TRUE,,,,,,,BKN,3900,OVC,7500,,,,,VFR,,,,,,,,,,,,METAR,220
KAFF 050355Z AUTO 00000KT 10SM CLR 07/M04 A3022 RMK AO2 SLP189 T00721039,KAFF,2023-11-05T03:55:00Z,38.971,-104.816,7.2,-3.9,0,0,,10+,30.22,1018.9,,TRUE,TRUE,,,,,,,CLR,,,,,,,,VFR,,,,,,,,,,,,METAR,2003
KADW 050355Z AUTO 00000KT 10SM CLR 06/03 A3008 RMK AO2 SLP193 T00550027 $,KADW,2023-11-05T03:55:00Z,38.8215,-76.8654,5.5,2.7,0,0,,10+,30.08,1019.3,,TRUE,TRUE,TRUE,,,,,,CLR,,,,,,,,VFR,,,,,,,,,,,,METAR,87
KABH 050355Z AUTO 15011KT 10SM CLR 06/M01 A3023 RMK AO2 SLP215 T00631011,KABH,2023-11-05T03:55:00Z,38.7587,-104.299,6.3,-1.1,150,11,,10+,30.23,1021.5,,TRUE,TRUE,,,,,,,CLR,,,,,,,,VFR,,,,,,,,,,,,METAR,1838
KAAT 050355Z AUTO 27012KT 9SM -RA BKN049 BKN075 OVC100 10/07 A3006 RMK AO2 RAB41 SLP165 P0001 T01000067,KAAT,2023-11-05T03:55:00Z,41.4836,-120.561,10,6.7,270,12,,9,30.06,1016.5,,TRUE,TRUE,,,,,,-RA,BKN,4900,BKN,7500,OVC,10000,,,VFR,,,,,,0.01,,,,,,METAR,1336
K9L2 050355Z AUTO 14004KT 10SM CLR 12/M11 A3005 RMK AO2 SLP175 T01211115,K9L2,2023-11-05T03:55:00Z,34.996,-117.857,12.1,-11.5,140,4,,10+,30.05,1017.5,,TRUE,TRUE,,,,,,,CLR,,,,,,,,VFR,,,,,,,,,,,,METAR,697
K4MR 050355Z AUTO 13009KT 10SM CLR 11/02 A3016 RMK AO2 SLP162 T01050018,K4MR,2023-11-05T03:55:00Z,34.29,-103.791,10.5,1.8,130,9,,10+,30.16,1016.2,,TRUE,TRUE,,,,,,,CLR,,,,,,,,VFR,,,,,,,,,,,,METAR,1339
K1OW 050355Z AUTO 18006KT 10SM CLR 09/M02 A3025 RMK AO2 SLP221 T00871020 $,K1OW,2023-11-05T03:55:00Z,40.885,-103.999,8.7,-2,180,6,,10+,30.25,1022.1,,TRUE,TRUE,TRUE,,,,,,CLR,,,,,,,,VFR,,,,,,,,,,,,METAR,1650
K1ON 050355Z AUTO 15010KT 2 1/2SM BR OVC003 M00/M00 M RMK AO2 SLPNO T10041005 $,K1ON,2023-11-05T03:55:00Z,48.82,-101.28,-0.4,-0.5,150,10,,2.5,0.00,,,TRUE,TRUE,TRUE,,,,,BR,OVC,300,,,,,,,LIFR,,,,,,,,,,,,METAR,466
K1OM 050355Z AUTO 26015KT 10SM BKN120 OVC180 14/04 A2973 RMK AO2 SLP071 T01400035 $,K1OM,2023-11-05T03:55:00Z,47.328,-108.927,14,3.5,260,15,,10+,29.73,1007.1,,TRUE,TRUE,TRUE,,,,,,BKN,12000,OVC,18000,,,,,VFR,,,,,,,,,,,,METAR,1088
K1NW 050355Z AUTO 19008KT 10SM CLR 07/M01 A3011 RMK AO2 SLP176 T00691015 $,K1NW,2023-11-05T03:55:00Z,40.632,-103.836,6.9,-1.5,190,8,,10+,30.11,1017.6,,TRUE,TRUE,TRUE,,,,,,CLR,,,,,,,,VFR,,,,,,,,,,,,METAR,1461
K1NM 050355Z AUTO 27012KT 10SM BKN110 OVC140 10/04 A2975 RMK AO2 SLP086 T01020035 $,K1NM,2023-11-05T03:55:00Z,47.059,-109.031,10.2,3.5,270,12,,10+,29.75,1008.6,,TRUE,TRUE,TRUE,,,,,,BKN,11000,OVC,14000,,,,,VFR,,,,,,,,,,,,METAR,1169
K1MW 050355Z AUTO 20007KT 10SM CLR 06/M02 A3010 RMK AO2 SLP176 T00631016 $,K1MW,2023-11-05T03:55:00Z,40.704,-103.477,6.3,-1.6,200,7,,10+,30.10,1017.6,,TRUE,TRUE,TRUE,,,,,,CLR,,,,,,,,VFR,,,,,,,,,,,,METAR,1338
K1MN 050355Z AUTO 15011KT M M OVC002 00/00 A2995 RMK AO2 SLP168 T00010000 RVRNO PWINO $,K1MN,2023-11-05T03:55:00Z,48.67,-101.88,0.1,0,150,11,,,29.95,1016.8,,TRUE,TRUE,TRUE,,,,,,OVC,200,,,,,,,LIFR,,,,,,,,,,,,METAR,569
K1MM 050355Z AUTO 21018KT 10SM BKN120 10/04 A2979 RMK AO2 RAB15E38 SLP099 P0000 T01010038 $,K1MM,2023-11-05T03:55:00Z,47.014,-109.63,10.1,3.8,210,18,,10+,29.79,1009.9,,TRUE,TRUE,TRUE,,,,,,BKN,12000,,,,,,,VFR,,,,,,0.005,,,,,,METAR,1256
K1LM 050355Z AUTO 15006KT 10SM SCT100 BKN120 OVC170 10/03 A2985 RMK AO2 SLP108 T00990030 $,K1LM,2023-11-05T03:55:00Z,46.694,-109.74,9.9,3,150,6,,10+,29.85,1010.8,,TRUE,TRUE,TRUE,,,,,,SCT,10000,BKN,12000,OVC,17000,,,VFR,,,,,,,,,,,,METAR,1417
K1KW 050355Z AUTO 21010KT 10SM CLR 05/00 A3008 RMK AO2 SLP170 T00520000 $,K1KW,2023-11-05T03:55:00Z,41.137,-103.488,5.2,0,210,10,,10+,30.08,1017,,TRUE,TRUE,TRUE,,,,,,CLR,,,,,,,,VFR,,,,,,,,,,,,METAR,1443
K1KN 050355Z AUTO 17012KT 1/2SM -UP FZFG VV002 M00/M00 A2993 RMK AO2 DZE10UPB10E24DZB24E37UPB37 SLP164 P0000 T10021002 RVRNO $,K1KN,2023-11-05T03:55:00Z,48.55,-102.12,-0.2,-0.2,170,12,,0.5,29.93,1016.4,,TRUE,TRUE,TRUE,,,,,FZFG UP,OVX,0,,,,,,,LIFR,,,,,,0.005,,,,,200,METAR,693
K1KM 050355Z AUTO 08005KT 10SM FEW240 08/02 A2984 RMK AO2 SLP114 T00840024 $,K1KM,2023-11-05T03:55:00Z,46.444,-109.801,8.4,2.4,80,5,,10+,29.84,1011.4,,TRUE,TRUE,TRUE,,,,,,FEW,24000,,,,,,,VFR,,,,,,,,,,,,METAR,1332
K1JW 050355Z AUTO 20011KT 10SM CLR 08/M01 A3009 RMK AO2 SLP173 T00791008 PWINO $,K1JW,2023-11-05T03:55:00Z,40.961,-103.199,7.9,-0.8,200,11,,10+,30.09,1017.3,,TRUE,TRUE,TRUE,,,,,,CLR,,,,,,,,VFR,,,,,,,,,,,,METAR,1382
K1JN 050355Z AUTO 17012KT 1/2SM -UP FZFG VV002 M00/M00 A2994 RMK AO2 SLP168 P0000 T10021003 RVRNO $,K1JN,2023-11-05T03:55:00Z,48.41,-101.89,-0.2,-0.3,170,12,,0.5,29.94,1016.8,,TRUE,TRUE,TRUE,,,,,FZFG UP,OVX,0,,,,,,,LIFR,,,,,,0.005,,,,,200,METAR,670
K1JM 050355Z AUTO 20022KT 10SM CLR 10/03 A2970 RMK AO2 PK WND 20028/28 SLP072 T00950032 $,K1JM,2023-11-05T03:55:00Z,47.751,-111.547,9.5,3.2,200,22,,10+,29.70,1007.2,,TRUE,TRUE,TRUE,,,,,,CLR,,,,,,,,VFR,,,,,,,,,,,,METAR,1154
K1IW 050355Z AUTO 19010KT 10SM CLR 07/00 A3007 RMK AO2 SLP175 T00650002 $,K1IW,2023-11-05T03:55:00Z,41.046,-102.865,6.5,0.2,190,10,,10+,30.07,1017.5,,TRUE,TRUE,TRUE,,,,,,CLR,,,,,,,,VFR,,,,,,,,,,,,METAR,1294
K1IN 050355Z AUTO 16009KT 1/4SM -UP FG VV002 00/00 A2993 RMK AO2 SLP166 P0000 T00000000 RVRNO $,K1IN,2023-11-05T03:55:00Z,48.34,-102.3,0,0,160,9,,0.25,29.93,1016.6,,TRUE,TRUE,TRUE,,,,,FG UP,OVX,0,,,,,,,LIFR,,,,,,0.005,,,,,200,METAR,678
K1IM 050355Z AUTO 21016KT 10SM FEW130 11/04 A2975 RMK AO2 SLPNO T01050044 $,K1IM,2023-11-05T03:55:00Z,47.312,-111.473,10.5,4.4,210,16,,10+,29.75,,,TRUE,TRUE,TRUE,,,,,,FEW,13000,,,,,,,VFR,,,,,,,,,,,,METAR,1110
K1HW 050355Z AUTO 21009KT 10SM CLR 04/M00 A3007 RMK AO2 SLP183 T00371003 $,K1HW,2023-11-05T03:55:00Z,41.325,-102.83,3.7,-0.3,210,9,,10+,30.07,1018.3,,TRUE,TRUE,TRUE,,,,,,CLR,,,,,,,,VFR,,,,,,,,,,,,METAR,1265
K1HM 050355Z AUTO 26015KT 10SM CLR 10/04 A2972 RMK AO2 SLP075 T00990038 $,K1HM,2023-11-05T03:55:00Z,47.698,-111.943,9.9,3.8,260,15,,10+,29.72,1007.5,,TRUE,TRUE,TRUE,,,,,,CLR,,,,,,,,VFR,,,,,,,,,,,,METAR,1181
K1GN 050355Z AUTO 15008KT 1/4SM FG VV002 00/00 A2993 RMK AO2 SLP171 T00040003 RVRNO $,K1GN,2023-11-05T03:55:00Z,48.12,-101.96,0.4,0.3,150,8,,0.25,29.93,1017.1,,TRUE,TRUE,TRUE,,,,,FG,OVX,0,,,,,,,LIFR,,,,,,,,,,,200,METAR,644
K1GM 050355Z AUTO 19018G26KT 10SM CLR 10/04 A2973 RMK AO2 PK WND 20026/47 SLP080 T00950037 $,K1GM,2023-11-05T03:55:00Z,47.325,-112.093,9.5,3.7,190,18,26,10+,29.73,1008,,TRUE,TRUE,TRUE,,,,,,CLR,,,,,,,,VFR,,,,,,,,,,,,METAR,1317
K1FW 050355Z AUTO 00000KT 10SM CLR 07/M01 A3008 RMK AO2 SLP166 T00671007 $,K1FW,2023-11-05T03:55:00Z,41.364,-103.489,6.7,-0.7,0,0,,10+,30.08,1016.6,,TRUE,TRUE,TRUE,,,,,,CLR,,,,,,,,VFR,,,,,,,,,,,,METAR,1451
K1FN 050355Z AUTO 15013KT M -RA OVC002 M A2985 RMK AO2 SLPNO ALSTG ESTMD P0000 RVRNO $,K1FN,2023-11-05T03:55:00Z,47.9,-101.67,,,150,13,,,29.85,,,TRUE,TRUE,TRUE,,,,,-RA,OVC,200,,,,,,,LIFR,,,,,,0.005,,,,,,METAR,619
K1FM 050355Z AUTO 23013KT 10SM CLR 10/02 A2974 RMK AO2 SLP078 T01010024 $,K1FM,2023-11-05T03:55:00Z,47.605,-112.311,10.1,2.4,230,13,,10+,29.74,1007.8,,TRUE,TRUE,TRUE,,,,,,CLR,,,,,,,,VFR,,,,,,,,,,,,METAR,1344
K1EW 050355Z AUTO 19009KT 10SM CLR 06/M02 A3010 RMK AO2 SLP181 T00601021 $,K1EW,2023-11-05T03:55:00Z,41.103,-103.983,6,-2.1,190,9,,10+,30.10,1018.1,,TRUE,TRUE,TRUE,,,,,,CLR,,,,,,,,VFR,,,,,,,,,,,,METAR,1609
K1EN 050355Z AUTO 15012KT 1/4SM FG VV000 00/00 A2973 RMK AO2 SLP101 T00020001 RVRNO $,K1EN,2023-11-05T03:55:00Z,47.75,-101.67,0.2,0.1,150,12,,0.25,29.73,1010.1,,TRUE,TRUE,TRUE,,,,,FG,OVX,0,,,,,,,LIFR,,,,,,,,,,,0,METAR,641
K1EM 050355Z AUTO 22017KT 10SM FEW110 BKN140 OVC160 12/04 A2974 RMK AO2 SLP079 T01170037 $,K1EM,2023-11-05T03:55:00Z,47.454,-109.416,11.7,3.7,220,17,,10+,29.74,1007.9,,TRUE,TRUE,TRUE,,,,,,FEW,11000,BKN,14000,OVC,16000,,,VFR,,,,,,,,,,,,METAR,1118
K1DW 050355Z AUTO 22006KT 10SM CLR 04/M02 A3014 RMK AO2 SLP199 T00381022 $,K1DW,2023-11-05T03:55:00Z,41.361,-103.794,3.8,-2.2,220,6,,10+,30.14,1019.9,,TRUE,TRUE,TRUE,,,,,,CLR,,,,,,,,VFR,,,,,,,,,,,,METAR,1539
K1DN 050355Z AUTO 17013KT 1/4SM -UP FZFG VV000 M00/M00 A2837 RMK AO2 RAE10UPB10 SLP625 P0000 T10021003 RVRNO $,K1DN,2023-11-05T03:55:00Z,47.8,-101.3,-0.2,-0.3,170,13,,0.25,28.37,962.5,,TRUE,TRUE,TRUE,,,,,FZFG UP,OVX,0,,,,,,,LIFR,,,,,,0.005,,,,,0,METAR,632
K1DM 050355Z AUTO 19009KT 10SM OVC140 09/05 A2976 RMK AO2 SLP096 T00870045 $,K1DM,2023-11-05T03:55:00Z,47.376,-109.814,8.7,4.5,190,9,,10+,29.76,1009.6,,TRUE,TRUE,TRUE,,,,,,OVC,14000,,,,,,,VFR,,,,,,,,,,,,METAR,1093
K1CW 050355Z AUTO 20019KT 10SM CLR 10/M02 A3006 RMK AO2 SLP164 T00991024,K1CW,2023-11-05T03:55:00Z,41.581,-103.573,9.9,-2.4,200,19,,10+,30.06,1016.4,,TRUE,TRUE,,,,,,,CLR,,,,,,,,VFR,,,,,,,,,,,,METAR,1370
K1CN 050355Z AUTO 17013KT 3/8SM -RA FG VV002 00/00 A2998 RMK AO2 SLP177 P0000 T00030000 RVRNO $,K1CN,2023-11-05T03:55:00Z,47.71,-101.01,0.3,0,170,13,,0.38,29.98,1017.7,,TRUE,TRUE,TRUE,,,,,-RA FG,OVX,0,,,,,,,LIFR,,,,,,0.005,,,,,200,METAR,599
K1CM 050355Z AUTO 16007KT 10SM FEW240 09/03 A2980 RMK AO2 SLP100 T00860028 $,K1CM,2023-11-05T03:55:00Z,47.096,-110.164,8.6,2.8,160,7,,10+,29.80,1010,,TRUE,TRUE,TRUE,,,,,,FEW,24000,,,,,,,VFR,,,,,,,,,,,,METAR,1338
K1BW 050355Z AUTO 22014KT 10SM CLR 08/M02 A3013 RMK AO2 SLP187 T00811023 $,K1BW,2023-11-05T03:55:00Z,41.511,-103.995,8.1,-2.3,220,14,,10+,30.13,1018.7,,TRUE,TRUE,TRUE,,,,,,CLR,,,,,,,,VFR,,,,,,,,,,,,METAR,1606
K1BM 050355Z AUTO 24020G26KT 10SM FEW240 11/03 A2977 RMK AO2 SLP089 T01130033 $,K1BM,2023-11-05T03:55:00Z,47.285,-110.359,11.3,3.3,240,20,26,10+,29.77,1008.9,,TRUE,TRUE,TRUE,,,,,,FEW,24000,,,,,,,VFR,,,,,,,,,,,,METAR,1234
K1AW 050355Z AUTO 26005KT 10SM M M M RMK AO2 SLPNO $,K1AW,2023-11-05T03:55:00Z,41.329,-104.265,,,260,5,,10+,0.00,,,TRUE,TRUE,TRUE,,,,,,,,,,,,,,VFR,,,,,,,,,,,,METAR,1670
K1AN 050355Z AUTO 15007KT 4SM BR OVC004 01/00 A2996 RMK AO2 SLP184 T00100004 $,K1AN,2023-11-05T03:55:00Z,47.97,-100.58,1,0.4,150,7,,4,29.96,1018.4,,TRUE,TRUE,TRUE,,,,,BR,OVC,400,,,,,,,LIFR,,,,,,,,,,,,METAR,483
K1AM 050355Z AUTO 23007G16KT 10SM CLR 12/03 A2976 RMK AO2 PK WND 22028/23 SLP087 T01210028 $,K1AM,2023-11-05T03:55:00Z,47.281,-110.801,12.1,2.8,230,7,16,10+,29.76,1008.7,,TRUE,TRUE,TRUE,,,,,,CLR,,,,,,,,VFR,,,,,,,,,,,,METAR,1228
FJDG 050355Z 14018G24KT 9999 FEW024 SCT250 30/24 A2992 RMK SLP129 T03000244,FJDG,2023-11-05T03:55:00Z,-7.313,72.411,30,24.4,140,18,24,6+,29.92,1012.9,,,,,,,,,,FEW,2400,SCT,25000,,,,,VFR,,,,,,,,,,,,METAR,3
ETIK 050355Z AUTO 16007KT 9999 BKN060 09/04 A2893 RMK AO2 DZB06E15 SLP801 P0000 T00850041,ETIK,2023-11-05T03:55:00Z,49.472,10.39,8.5,4.1,160,7,,6+,28.93,980.1,,TRUE,TRUE,,,,,,,BKN,6000,,,,,,,VFR,,,,,,0.005,,,,,,METAR,326
ETIH 050355Z AUTO 12004KT 9999 CLR 05/04 A2903 RMK AO2 SLP836 T00520039,ETIH,2023-11-05T03:55:00Z,49.216,11.839,5.2,3.9,120,4,,6+,29.03,983.6,,TRUE,TRUE,,,,,,,CLR,,,,,,,,VFR,,,,,,,,,,,,METAR,436
ETIC 050355Z AUTO 15006KT 9999 CLR 06/05 A2898 RMK AO2 SLP820 T00640046 $,ETIC,2023-11-05T03:55:00Z,49.696,11.941,6.4,4.6,150,6,,6+,28.98,982,,TRUE,TRUE,TRUE,,,,,,CLR,,,,,,,,VFR,,,,,,,,,,,,METAR,414
ETEB 050355Z AUTO 17013G19KT 9999 BKN065 BKN085 08/04 A2895 RMK AO2 SLP821 T00790037 $,ETEB,2023-11-05T03:55:00Z,49.308,10.639,7.9,3.7,170,13,19,6+,28.95,982.1,,TRUE,TRUE,TRUE,,,,,,BKN,6500,BKN,8500,,,,,VFR,,,,,,,,,,,,METAR,466
EHWO 050355Z AUTO 18005KT 150V220 9999 FEW013 BKN015 OVC019 10/09 Q0969 WHT,EHWO,2023-11-05T03:55:00Z,51.448,4.342,10,9,180,5,,6+,28.61,,,TRUE,,,,,,,,FEW,1300,BKN,1500,OVC,1900,,,MVFR,,,,,,,,,,,,METAR,15
EHVL 050355Z AUTO 17015KT 9999 BKN025 OVC028 10/08 Q0968 BLU,EHVL,2023-11-05T03:55:00Z,53.297,5.086,10,8,170,15,,6+,28.58,,,TRUE,,,,,,,,BKN,2500,OVC,2800,,,,,MVFR,,,,,,,,,,,,METAR,2
EHSC 050355Z AUTO 19018KT 9999 ///////// 11/10 Q0968 W14/H13,EHSC,2023-11-05T03:55:00Z,51.926,3.67,11,10,190,18,,6+,28.58,,,TRUE,,,,,,,,,,,,,,,,VFR,,,,,,,,,,,,METAR,19
EHSA 050355Z AUTO 19018KT 9999 ///////// 12/09 Q0967 W15/H16,EHSA,2023-11-05T03:55:00Z,51.998,3.275,12,9,190,18,,6+,28.55,,,TRUE,,,,,,,,,,,,,,,,VFR,,,,,,,,,,,,METAR,18
EHRD 050355Z AUTO 17008KT 9999 FEW008 OVC019 10/09 Q0968 TEMPO 7000 -RA BKN008,EHRD,2023-11-05T03:55:00Z,51.954,4.444,10,9,170,8,,6+,28.58,,,TRUE,,,,,,,,FEW,800,OVC,1900,,,,,MVFR,,,,,,,,,,,,METAR,-4
EHPG 050355Z AUTO 20016KT 120V290 9999 FEW014 FEW015CB SCT016 BKN026 13/09 Q0967,EHPG,2023-11-05T03:55:00Z,52.36,3.342,13,9,200,16,,6+,28.55,,,TRUE,,,,,,,,FEW,1400,FEW,1500,SCT,1600,BKN,2600,MVFR,,,,,,,,,,,,METAR,24
EHMG 050355Z AUTO /////KT 9999 SCT009 SCT025 11/09 Q0969,EHMG,2023-11-05T03:55:00Z,53.614,4.96,11,9,,,,6+,28.61,,,TRUE,,,,,,,,SCT,900,SCT,2500,,,,,VFR,,,,,,,,,,,,METAR,30
EHMA 050355Z AUTO 18019KT //// // SCT018 09/08 Q//// RE//,EHMA,2023-11-05T03:55:00Z,53.492,5.942,9,8,180,19,,,0.00,,,TRUE,,,,,,,,SCT,1800,,,,,,,VFR,,,,,,,,,,,,METAR,27
EHLW 050355Z AUTO 16008KT 130V190 9999 SCT031 OVC200 09/07 Q0969 BLU,EHLW,2023-11-05T03:55:00Z,53.223,5.752,9,7,160,8,,6+,28.61,,,TRUE,,,,,,,,SCT,3100,OVC,20000,,,,,VFR,,,,,,,,,,,,METAR,1
EHLE 050355Z AUTO 17011KT 9999 -RA OVC040 09/08 Q0969,EHLE,2023-11-05T03:55:00Z,52.456,5.522,9,8,170,11,,6+,28.61,,,TRUE,,,,,,,-RA,OVC,4000,,,,,,,VFR,,,,,,,,,,,,METAR,-3
EHKV 050355Z AUTO 23015KT 200V260 2600 SHRA FEW009 FEW015CB SCT016 BKN020 12/09 Q0967 REDZ,EHKV,2023-11-05T03:55:00Z,53.269,3.628,12,9,230,15,,1.62,28.55,,,TRUE,,,,,,,SHRA,FEW,900,FEW,1500,SCT,1600,BKN,2000,IFR,,,,,,,,,,,,METAR,28
EHKD 050355Z AUTO 16009KT 9999 BKN048 BKN052 BKN100 09/08 Q0968 BLU,EHKD,2023-11-05T03:55:00Z,52.927,4.781,9,8,160,9,,6+,28.58,,,TRUE,,,,,,,,BKN,4800,BKN,5200,BKN,10000,,,VFR,,,,,,,,,,,,METAR,1
EHJR 050355Z AUTO 28006KT //// // ///////// 12/08 Q0967 RE// W15/H17,EHJR,2023-11-05T03:55:00Z,53.218,3.22,12,8,280,6,,,28.55,,,TRUE,,,,,,,,,,,,,,,,VFR,,,,,,,,,,,,METAR,31
EHJA 050355Z AUTO 19005KT 9999 FEW012/// 12/09 Q0966,EHJA,2023-11-05T03:55:00Z,53.824,2.945,12,9,190,5,,6+,28.52,,,TRUE,,,,,,,,FEW,1200,,,,,,,VFR,,,,,,,,,,,,METAR,34
EHHW 050355Z AUTO ///17KT 9999 SCT010/// BKN013/// BKN048/// 11/09 Q0969,EHHW,2023-11-05T03:55:00Z,54.037,6.042,11,9,,,,6+,28.61,,,TRUE,,,,,,,,SCT,1000,BKN,1300,BKN,4800,,,MVFR,,,,,,,,,,,,METAR,10
EHGG 050355Z AUTO 15007KT 110V190 9999 SCT028 OVC032 09/08 Q0970,EHGG,2023-11-05T03:55:00Z,53.12,6.579,9,8,150,7,,6+,28.64,,,TRUE,,,,,,,,SCT,2800,OVC,3200,,,,,VFR,,,,,,,,,,,,METAR,2
EHFS 050355Z AUTO 18016KT 9999 NSC 11/09 Q0968,EHFS,2023-11-05T03:55:00Z,51.441,3.596,11,9,180,16,,6+,28.58,,,TRUE,,,,,,,,CLR,,,,,,,,VFR,,,,,,,,,,,,METAR,1
EHFD 050355Z AUTO 22011KT 9999 FEW009/// 12/10 Q0967,EHFD,2023-11-05T03:55:00Z,54.854,4.696,12,10,220,11,,6+,28.55,,,TRUE,,,,,,,,FEW,900,,,,,,,VFR,,,,,,,,,,,,METAR,24
EHDV 050355Z AUTO 15005KT 9999 FEW011/// SCT021/// 12/10 Q0967,EHDV,2023-11-05T03:55:00Z,54.326,2.936,12,10,150,5,,6+,28.55,,,TRUE,,,,,,,,FEW,1100,SCT,2100,,,,,VFR,,,,,,,,,,,,METAR,36
EHDL 050355Z AUTO 17007KT 120V240 9999 FEW007 SCT008 BKN010 09/08 Q0970 REDZ GRN,EHDL,2023-11-05T03:55:00Z,52.061,5.887,9,8,170,7,,6+,28.64,,,TRUE,,,,,,,,FEW,700,SCT,800,BKN,1000,,,MVFR,,,,,,,,,,,,METAR,49
EHBK 050355Z AUTO 19011KT 150V220 9999 FEW015CB SCT027 BKN041 10/08 Q0971,EHBK,2023-11-05T03:55:00Z,50.905,5.762,10,8,190,11,,6+,28.67,,,TRUE,,,,,,,,FEW,1500,SCT,2700,BKN,4100,,,VFR,,,,,,,,,,,,METAR,112
EHAM 050355Z 16009KT 140V200 9999 -RA FEW006 BKN016 09/09 Q0969 BECMG 9999 NSW BKN012,EHAM,2023-11-05T03:55:00Z,52.315,4.79,9,9,160,9,,6+,28.61,,,,,,,,,,-RA,FEW,600,BKN,1600,,,,,MVFR,,,,,,,,,,,,METAR,-2
EHAK 050355Z AUTO 11007KT 050V150 9999 FEW010/// 11/09 Q0968,EHAK,2023-11-05T03:55:00Z,55.399,3.81,11,9,110,7,,6+,28.58,,,TRUE,,,,,,,,FEW,1000,,,,,,,VFR,,,,,,,,,,,,METAR,33
EGVA 050355Z AUTO 32008KT 9999 OVC010 09/M20 A2867 RMK AO2 SLP712 T00861203,EGVA,2023-11-05T03:55:00Z,51.682,-1.79,8.6,-20.3,320,8,,6+,28.67,971.2,,TRUE,TRUE,,,,,,,OVC,1000,,,,,,,MVFR,,,,,,,,,,,,METAR,84
EGUN 050355Z 26006KT 2400 BR OVC003 07/07 A2858 RMK AO2A SLP681 T00720066 $,EGUN,2023-11-05T03:55:00Z,52.362,0.486,7.2,6.6,260,6,,1.49,28.58,968.1,,,TRUE,TRUE,,,,,BR,OVC,300,,,,,,,LIFR,,,,,,,,,,,,METAR,10
EBLB 050355Z AUTO 21009KT 5000 -DZ OVC006/// 07/07 Q0971 YLO,EBLB,2023-11-05T03:55:00Z,50.482,6.181,7,7,210,9,,3.11,28.67,,,TRUE,,,,,,,-DZ,OVC,600,,,,,,,IFR,,,,,,,,,,,,METAR,563
EBDT 050355Z AUTO 20007KT 9999 OVC020/// 10/09 Q0970 WHT,EBDT,2023-11-05T03:55:00Z,51.005,5.067,10,9,200,7,,6+,28.64,,,TRUE,,,,,,,,OVC,2000,,,,,,,MVFR,,,,,,,,,,,,METAR,25
EBCV 050355Z AUTO 20012KT 9999 FEW019/// SCT039/// BKN060/// 10/09 Q0969 BLU,EBCV,2023-11-05T03:55:00Z,50.576,3.831,10,9,200,12,,6+,28.61,,,TRUE,,,,,,,,FEW,1900,SCT,3900,BKN,6000,,,VFR,,,,,,,,,,,,METAR,56
EBBE 050355Z AUTO 20011KT 9999 FEW016/// SCT032/// BKN045/// 10/08 Q0970 BLU,EBBE,2023-11-05T03:55:00Z,50.759,4.768,10,8,200,11,,6+,28.64,,,TRUE,,,,,,,,FEW,1600,SCT,3200,BKN,4500,,,VFR,,,,,,,,,,,,METAR,127
PHOG 050354Z 05020G25KT 10SM CLR 26/18 A3002 RMK AO2 PK WND 05036/0311 SLP169 T02560178,PHOG,2023-11-05T03:54:00Z,20.8887,-156.435,25.6,17.8,50,20,25,10+,30.02,1016.9,,,TRUE,,,,,,,CLR,,,,,,,,VFR,,,,,,,,,,,,METAR,14
PHMK 050354Z 06008KT 10SM CLR 25/18 A3005 RMK AO2 SLP177 T02500178 $,PHMK,2023-11-05T03:54:00Z,21.1545,-157.096,25,17.8,60,8,,10+,30.05,1017.7,,,TRUE,TRUE,,,,,,CLR,,,,,,,,VFR,,,,,,,,,,,,METAR,135
PGUM 050354Z 09015G20KT 9SM SCT024 BKN031 31/24 A2983 RMK AO2 RAE0258 SLP092 P0000 T03060244,PGUM,2023-11-05T03:54:00Z,13.4796,144.796,30.6,24.4,90,15,20,9,29.83,1009.2,,,TRUE,,,,,,,SCT,2400,BKN,3100,,,,,VFR,,,,,,0.005,,,,,,METAR,74
PGSN 050354Z 09011KT 10SM SCT019 31/25 A2983 RMK AO2 SLP123 T03060250,PGSN,2023-11-05T03:54:00Z,15.116,145.72,30.6,25,90,11,,10+,29.83,1012.3,,,TRUE,,,,,,,SCT,1900,,,,,,,VFR,,,,,,,,,,,,METAR,65
PAHN 050354Z AUTO 32012G20KT 10SM BKN075 08/01 A2926 RMK AO2 SLP910 T00830006 TSNO $,PAHN,2023-11-05T03:54:00Z,59.243,-135.511,8.3,0.6,320,12,20,10+,29.26,991,,TRUE,TRUE,TRUE,,,,,,BKN,7500,,,,,,,VFR,,,,,,,,,,,,METAR,15
KWLD 050354Z AUTO 08005KT 10SM CLR 13/06 A3017 RMK AO2 SLP215 T01330056,KWLD,2023-11-05T03:54:00Z,37.1649,-97.035,13.3,5.6,80,5,,10+,30.17,1021.5,,TRUE,TRUE,,,,,,,CLR,,,,,,,,VFR,,,,,,,,,,,,METAR,351
KWAL 050354Z AUTO 31003KT 8SM CLR 10/09 A3011 RMK AO2 SLP193 T01000089,KWAL,2023-11-05T03:54:00Z,37.9372,-75.4662,10,8.9,310,3,,8,30.11,1019.3,,TRUE,TRUE,,,,,,,CLR,,,,,,,,VFR,,,,,,,,,,,,METAR,10
KVTA 050354Z AUTO 00000KT 10SM CLR 04/03 A3010 RMK AO2 SLP192 T00440028,KVTA,2023-11-05T03:54:00Z,40.0263,-82.4635,4.4,2.8,0,0,,10+,30.10,1019.2,,TRUE,TRUE,,,,,,,CLR,,,,,,,,VFR,,,,,,,,,,,,METAR,268
KVSF 050354Z AUTO 00000KT 10SM OVC080 06/04 A3009 RMK AO2 SLP191 T00610039 TSNO,KVSF,2023-11-05T03:54:00Z,43.3421,-72.5213,6.1,3.9,0,0,,10+,30.09,1019.1,,TRUE,TRUE,,,,,,,OVC,8000,,,,,,,VFR,,,,,,,,,,,,METAR,176
KVAY 050354Z AUTO 00000KT 10SM CLR 05/03 A3010 RMK AO2 SLP192 T00500033 $,KVAY,2023-11-05T03:54:00Z,39.9408,-74.8407,5,3.3,0,0,,10+,30.10,1019.2,,TRUE,TRUE,TRUE,,,,,,CLR,,,,,,,,VFR,,,,,,,,,,,,METAR,15
KUZA 050354Z AUTO 00000KT 9SM CLR 05/00 A3014 RMK AO2 SLP207 T00500000,KUZA,2023-11-05T03:54:00Z,34.9836,-81.0562,5,0,0,0,,9,30.14,1020.7,,TRUE,TRUE,,,,,,,CLR,,,,,,,,VFR,,,,,,,,,,,,METAR,198
KUIN 050354Z AUTO 00000KT 6SM HZ CLR 07/04 A3020 RMK AO2 SLP227 T00720039 $,KUIN,2023-11-05T03:54:00Z,39.9371,-91.1966,7.2,3.9,0,0,,6,30.20,1022.7,,TRUE,TRUE,TRUE,,,,,HZ,CLR,,,,,,,,VFR,,,,,,,,,,,,METAR,233
KTQE 050354Z AUTO 17009KT 10SM CLR 04/01 A3016 RMK AO2 SLP215 T00440011,KTQE,2023-11-05T03:54:00Z,41.763,-96.1797,4.4,1.1,170,9,,10+,30.16,1021.5,,TRUE,TRUE,,,,,,,CLR,,,,,,,,VFR,,,,,,,,,,,,METAR,312
KTAD 050354Z AUTO 28007KT 10SM CLR 07/M07 A3021 RMK AO2 SLP194 T00671067,KTAD,2023-11-05T03:54:00Z,37.2618,-104.332,6.7,-6.7,280,7,,10+,30.21,1019.4,,TRUE,TRUE,,,,,,,CLR,,,,,,,,VFR,,,,,,,,,,,,METAR,1751
KSYR 050354Z 00000KT 7SM -RA SCT042 OVC060 09/07 A3009 RMK AO2 RAB44 SLP188 P0001 T00940067 $,KSYR,2023-11-05T03:54:00Z,43.1111,-76.1038,9.4,6.7,0,0,,7,30.09,1018.8,,,TRUE,TRUE,,,,,-RA,SCT,4200,OVC,6000,,,,,VFR,,,,,,0.01,,,,,,METAR,125
KSUS 050354Z 00000KT 10SM OVC100 09/07 A3020 RMK AO2 SLP226 T00940067,KSUS,2023-11-05T03:54:00Z,38.6575,-90.6557,9.4,6.7,0,0,,10+,30.20,1022.6,,,TRUE,,,,,,,OVC,10000,,,,,,,VFR,,,,,,,,,,,,METAR,140
KSLC 050354Z 08003KT 10SM SCT150 BKN200 11/04 A3005 RMK AO2 SLP157 T01060044,KSLC,2023-11-05T03:54:00Z,40.7707,-111.965,10.6,4.4,80,3,,10+,30.05,1015.7,,,TRUE,,,,,,,SCT,15000,BKN,20000,,,,,VFR,,,,,,,,,,,,METAR,1286
KSET 050354Z AUTO 34003KT 10SM OVC120 12/06 A3020 RMK AO2 SLP225 T01220056,KSET,2023-11-05T03:54:00Z,38.9304,-90.4329,12.2,5.6,340,3,,10+,30.20,1022.5,,TRUE,TRUE,,,,,,,OVC,12000,,,,,,,VFR,,,,,,,,,,,,METAR,133
KSBY 050354Z AUTO 00000KT 10SM CLR 09/07 A3011 RMK AO2 SLP197 T00940072 TSNO,KSBY,2023-11-05T03:54:00Z,38.3409,-75.5132,9.4,7.2,0,0,,10+,30.11,1019.7,,TRUE,TRUE,,,,,,,CLR,,,,,,,,VFR,,,,,,,,,,,,METAR,14
KSBN 050354Z AUTO 00000KT 5SM BR CLR 04/02 A3017 RMK AO2 SLP221 T00390022,KSBN,2023-11-05T03:54:00Z,41.7072,-86.3163,3.9,2.2,0,0,,5,30.17,1022.1,,TRUE,TRUE,,,,,,BR,CLR,,,,,,,,MVFR,,,,,,,,,,,,METAR,236
KRST 050354Z AUTO 18006KT 10SM CLR 02/M01 A3012 RMK AO2 SLP213 T00171011,KRST,2023-11-05T03:54:00Z,43.904,-92.4921,1.7,-1.1,180,6,,10+,30.12,1021.3,,TRUE,TRUE,,,,,,,CLR,,,,,,,,VFR,,,,,,,,,,,,METAR,398
KRSP 050354Z AUTO 24008G16KT 10SM CLR 13/M06 A3009 RMK AO2 SLP192 T01281061 $,KRSP,2023-11-05T03:54:00Z,39.646,-77.468,12.8,-6.1,240,8,16,10+,30.09,1019.2,,TRUE,TRUE,TRUE,,,,,,CLR,,,,,,,,VFR,,,,,,,,,,,,METAR,555
KROC 050354Z 00000KT 9SM -RA BKN045 OVC060 09/06 A3009 RMK AO2 RAE14B37 SLP197 P0000 T00890061,KROC,2023-11-05T03:54:00Z,43.1172,-77.6754,8.9,6.1,0,0,,9,30.09,1019.7,,,TRUE,,,,,,-RA,BKN,4500,OVC,6000,,,,,VFR,,,,,,0.005,,,,,,METAR,166
KROA 050354Z 02003KT 10SM BKN190 12/M01 A3015 RMK AO2 SLP205 T01221006,KROA,2023-11-05T03:54:00Z,37.3172,-79.9737,12.2,-0.6,20,3,,10+,30.15,1020.5,,,TRUE,,,,,,,BKN,19000,,,,,,,VFR,,,,,,,,,,,,METAR,349
KRKS 050354Z AUTO 21006KT 10SM CLR 08/M04 A3018 RMK AO2 SLP185 T00831044,KRKS,2023-11-05T03:54:00Z,41.5947,-109.053,8.3,-4.4,210,6,,10+,30.18,1018.5,,TRUE,TRUE,,,,,,,CLR,,,,,,,,VFR,,,,,,,,,,,,METAR,2062
KRIC 050354Z 13003KT 10SM SCT200 09/03 A3010 RMK AO2 SLP199 T00940033 $,KRIC,2023-11-05T03:54:00Z,37.5115,-77.3234,9.4,3.3,130,3,,10+,30.10,1019.9,,,TRUE,TRUE,,,,,,SCT,20000,,,,,,,VFR,,,,,,,,,,,,METAR,51
KRFD 050354Z 00000KT 9SM CLR 02/00 A3019 RMK AO2 SLP228 T00170000,KRFD,2023-11-05T03:54:00Z,42.1915,-89.0876,1.7,0,0,0,,9,30.19,1022.8,,,TRUE,,,,,,,CLR,,,,,,,,VFR,,,,,,,,,,,,METAR,222
KRDG 050354Z AUTO 00000KT 8SM BKN095 OVC110 11/05 A3009 RMK AO2 SLP194 T01060050,KRDG,2023-11-05T03:54:00Z,40.3734,-75.9593,10.6,5,0,0,,8,30.09,1019.4,,TRUE,TRUE,,,,,,,BKN,9500,OVC,11000,,,,,VFR,,,,,,,,,,,,METAR,101
KRBL 050354Z AUTO 00000KT 10SM BKN110 19/09 A2995 RMK AO2 SLP141 T01890094,KRBL,2023-11-05T03:54:00Z,40.1519,-122.255,18.9,9.4,0,0,,10+,29.95,1014.1,,TRUE,TRUE,,,,,,,BKN,11000,,,,,,,VFR,,,,,,,,,,,,METAR,107
KPTW 050354Z AUTO 00000KT 9SM OVC110 08/06 A3011 RMK AO2 SLP197 T00780056,KPTW,2023-11-05T03:54:00Z,40.238,-75.5549,7.8,5.6,0,0,,9,30.11,1019.7,,TRUE,TRUE,,,,,,,OVC,11000,,,,,,,VFR,,,,,,,,,,,,METAR,88
KPSF 050354Z AUTO 27003KT 10SM BKN070 OVC085 07/03 A3007 RMK AO2 SLP177 T00720028,KPSF,2023-11-05T03:54:00Z,42.4268,-73.2891,7.2,2.8,270,3,,10+,30.07,1017.7,,TRUE,TRUE,,,,,,,BKN,7000,OVC,8500,,,,,VFR,,,,,,,,,,,,METAR,352
KPNE 050354Z 00000KT 8SM CLR 08/04 A3011 RMK AO2 SLP196 T00780044,KPNE,2023-11-05T03:54:00Z,40.0789,-75.0133,7.8,4.4,0,0,,8,30.11,1019.6,,,TRUE,,,,,,,CLR,,,,,,,,VFR,,,,,,,,,,,,METAR,32
KPLN 050354Z AUTO 00000KT 10SM CLR M02/M03 A3014 RMK AO2 SLP214 T10171028,KPLN,2023-11-05T03:54:00Z,45.5644,-84.7929,-1.7,-2.8,0,0,,10+,30.14,1021.4,,TRUE,TRUE,,,,,,,CLR,,,,,,,,VFR,,,,,,,,,,,,METAR,215
KPIA 050354Z 00000KT 10SM CLR 07/02 A3019 RMK AO2 SLP227 T00670017,KPIA,2023-11-05T03:54:00Z,40.6675,-89.6842,6.7,1.7,0,0,,10+,30.19,1022.7,,,TRUE,,,,,,,CLR,,,,,,,,VFR,,,,,,,,,,,,METAR,200
KPHL 050354Z 00000KT 10SM FEW150 FEW240 09/07 A3010 RMK AO2 SLP193 T00890072 $,KPHL,2023-11-05T03:54:00Z,39.8733,-75.2268,8.9,7.2,0,0,,10+,30.10,1019.3,,,TRUE,TRUE,,,,,,FEW,15000,FEW,24000,,,,,VFR,,,,,,,,,,,,METAR,2
KORH 050354Z AUTO 25006KT 10SM FEW100 08/02 A3007 RMK AO2 SLP185 T00830017,KORH,2023-11-05T03:54:00Z,42.2706,-71.8731,8.3,1.7,250,6,,10+,30.07,1018.5,,TRUE,TRUE,,,,,,,FEW,10000,,,,,,,VFR,,,,,,,,,,,,METAR,306
KOLS 050354Z AUTO 00000KT 10SM CLR 18/M02 A3012 RMK AO2 SLP151 T01831022,KOLS,2023-11-05T03:54:00Z,31.4208,-110.847,18.3,-2.2,0,0,,10+,30.12,1015.1,,TRUE,TRUE,,,,,,,CLR,,,,,,,,VFR,,,,,,,,,,,,METAR,1194
KOLM 050354Z AUTO 17005KT 10SM CLR 12/10 A2984 RMK AO2 SLP105 T01170100 $,KOLM,2023-11-05T03:54:00Z,46.9737,-122.905,11.7,10,170,5,,10+,29.84,1010.5,,TRUE,TRUE,TRUE,,,,,,CLR,,,,,,,,VFR,,,,,,,,,,,,METAR,58
KOFP 050354Z AUTO 00000KT 10SM CLR 08/04 A3011 RMK AO2 SLP197 T00830044,KOFP,2023-11-05T03:54:00Z,37.7093,-77.4349,8.3,4.4,0,0,,10+,30.11,1019.7,,TRUE,TRUE,,,,,,,CLR,,,,,,,,VFR,,,,,,,,,,,,METAR,63
KNAK 050354Z AUTO 00000KT 7SM CLR 09/08 A3010 RMK AO2 SLP194 T00890078 $,KNAK,2023-11-05T03:54:00Z,38.9913,-76.4891,8.9,7.8,0,0,,7,30.10,1019.4,,TRUE,TRUE,TRUE,,,,,,CLR,,,,,,,,VFR,,,,,,,,,,,,METAR,2
KN60 050354Z AUTO 14011KT 00/00 A2999 RMK AO1 SLP178 T00000000,KN60,2023-11-05T03:54:00Z,47.654,-101.436,0,0,140,11,,,29.99,1017.8,,TRUE,TRUE,,,,,,,,,,,,,,,VFR,,,,,,,,,,,,METAR,582
KMTP 050354Z AUTO 26003KT 13/09 A3010 RMK AO1 SLP193 T01280089,KMTP,2023-11-05T03:54:00Z,41.073,-71.9235,12.8,8.9,260,3,,,30.10,1019.3,,TRUE,TRUE,,,,,,,,,,,,,,,VFR,,,,,,,,,,,,METAR,2
KMRY 050354Z AUTO 00000KT 10SM OVC005 15/14 A3008 RMK AO2 CIG 004V009 SLP197 T01500139,KMRY,2023-11-05T03:54:00Z,36.5904,-121.849,15,13.9,0,0,,10+,30.08,1019.7,,TRUE,TRUE,,,,,,,OVC,500,,,,,,,IFR,,,,,,,,,,,,METAR,51
KMOT 050354Z AUTO 13009KT 1/2SM FG VV001 01/00 A2999 RMK AO2 SLP176 T00060000,KMOT,2023-11-05T03:54:00Z,48.252,-101.269,0.6,0,130,9,,0.5,29.99,1017.6,,TRUE,TRUE,,,,,,FG,OVX,0,,,,,,,LIFR,,,,,,,,,,,100,METAR,507
KMIV 050354Z AUTO 00000KT 10SM CLR 04/03 A3010 RMK AO2 SLP191 T00440033 $,KMIV,2023-11-05T03:54:00Z,39.3662,-75.0778,4.4,3.3,0,0,,10+,30.10,1019.1,,TRUE,TRUE,TRUE,,,,,,CLR,,,,,,,,VFR,,,,,,,,,,,,METAR,18
KMGJ 050354Z AUTO 16004KT 10SM -RA OVC070 06/04 A3008 RMK AO2 RAB37 SLP187 P0000 T00610044,KMGJ,2023-11-05T03:54:00Z,41.509,-74.2645,6.1,4.4,160,4,,10+,30.08,1018.7,,TRUE,TRUE,,,,,,-RA,OVC,7000,,,,,,,VFR,,,,,,0.005,,,,,,METAR,106
KMFI 050354Z AUTO 00000KT 10SM OVC080 02/M02 A3012 RMK AO2 SLP214 T00171022,KMFI,2023-11-05T03:54:00Z,44.6379,-90.1875,1.7,-2.2,0,0,,10+,30.12,1021.4,,TRUE,TRUE,,,,,,,OVC,8000,,,,,,,VFR,,,,,,,,,,,,METAR,383
KMEM 050354Z 19003KT 10SM SCT250 12/08 A3017 RMK AO2 SLP213 T01220078,KMEM,2023-11-05T03:54:00Z,35.0564,-89.9864,12.2,7.8,190,3,,10+,30.17,1021.3,,,TRUE,,,,,,,SCT,25000,,,,,,,VFR,,,,,,,,,,,,METAR,78
KLYH 050354Z AUTO 00000KT 10SM CLR 08/01 A3011 RMK AO2 SLP194 T00830011 $,KLYH,2023-11-05T03:54:00Z,37.3213,-79.2065,8.3,1.1,0,0,,10+,30.11,1019.4,,TRUE,TRUE,TRUE,,,,,,CLR,,,,,,,,VFR,,,,,,,,,,,,METAR,282
KLWT 050354Z AUTO 21012KT 10SM FEW048 SCT120 09/04 A2983 RMK AO2 RAB29E48 SLP102 P0000 T00890044 $,KLWT,2023-11-05T03:54:00Z,47.0544,-109.457,8.9,4.4,210,12,,10+,29.83,1010.2,,TRUE,TRUE,TRUE,,,,,,FEW,4800,SCT,12000,,,,,VFR,,,,,,0.005,,,,,,METAR,1254
KLWM 050354Z AUTO 00000KT 10SM CLR 07/04 A3009 RMK AO2 SLP190 T00720039,KLWM,2023-11-05T03:54:00Z,42.7125,-71.1256,7.2,3.9,0,0,,10+,30.09,1019,,TRUE,TRUE,,,,,,,CLR,,,,,,,,VFR,,,,,,,,,,,,METAR,42
KLNK 050354Z AUTO 15003KT 9SM CLR 06/04 A3020 RMK AO2 SLP234 T00560039 $,KLNK,2023-11-05T03:54:00Z,40.8478,-96.7647,5.6,3.9,150,3,,9,30.20,1023.4,,TRUE,TRUE,TRUE,,,,,,CLR,,,,,,,,VFR,,,,,,,,,,,,METAR,357
KLEX 050354Z 25003KT 10SM CLR 13/05 A3015 RMK AO2 SLP205 T01280050 $,KLEX,2023-11-05T03:54:00Z,38.0339,-84.6114,12.8,5,250,3,,10+,30.15,1020.5,,,TRUE,TRUE,,,,,,CLR,,,,,,,,VFR,,,,,,,,,,,,METAR,294
KLAF 050354Z AUTO 00000KT 5SM BR CLR 06/04 A3018 RMK AO2 SLP222 T00560039,KLAF,2023-11-05T03:54:00Z,40.4124,-86.9474,5.6,3.9,0,0,,5,30.18,1022.2,,TRUE,TRUE,,,,,,BR,CLR,,,,,,,,MVFR,,,,,,,,,,,,METAR,182
KJST 050354Z AUTO 18006KT 10SM OVC055 12/M02 A3008 RMK AO2 SLP189 T01221022,KJST,2023-11-05T03:54:00Z,40.3149,-78.8307,12.2,-2.2,180,6,,10+,30.08,1018.9,,TRUE,TRUE,,,,,,,OVC,5500,,,,,,,VFR,,,,,,,,,,,,METAR,695
KJAN 050354Z 00000KT 10SM CLR 11/04 A3018 RMK AO2 SLP216 T01060039,KJAN,2023-11-05T03:54:00Z,32.3198,-90.0778,10.6,3.9,0,0,,10+,30.18,1021.6,,,TRUE,,,,,,,CLR,,,,,,,,VFR,,,,,,,,,,,,METAR,92
KIZG 050354Z AUTO 00000KT 10SM OVC065 06/04 A3007 RMK AO2 SLP184 T00610039,KIZG,2023-11-05T03:54:00Z,43.9899,-70.9501,6.1,3.9,0,0,,10+,30.07,1018.4,,TRUE,TRUE,,,,,,,OVC,6500,,,,,,,VFR,,,,,,,,,,,,METAR,138
KISW 050354Z AUTO 00000KT 10SM BKN090 00/M02 A3015 RMK AO2 SLP219 T00001022,KISW,2023-11-05T03:54:00Z,44.3591,-89.837,0,-2.2,0,0,,10+,30.15,1021.9,,TRUE,TRUE,,,,,,,BKN,9000,,,,,,,VFR,,,,,,,,,,,,METAR,311
KIPT 050354Z AUTO 00000KT 10SM OVC075 09/04 A3008 RMK AO2 SLP186 T00890044,KIPT,2023-11-05T03:54:00Z,41.243,-76.9217,8.9,4.4,0,0,,10+,30.08,1018.6,,TRUE,TRUE,,,,,,,OVC,7500,,,,,,,VFR,,,,,,,,,,,,METAR,160
KINT 050354Z AUTO 00000KT 10SM CLR 11/M02 A3014 RMK AO2 SLP200 T01111022,KINT,2023-11-05T03:54:00Z,36.1335,-80.2244,11.1,-2.2,0,0,,10+,30.14,1020,,TRUE,TRUE,,,,,,,CLR,,,,,,,,VFR,,,,,,,,,,,,METAR,292
KINL 050354Z AUTO 00000KT 10SM M04/M06 A3015 RMK AO2 SLP231 T10441056 $,KINL,2023-11-05T03:54:00Z,48.5594,-93.3955,-4.4,-5.6,0,0,,10+,30.15,1023.1,,TRUE,TRUE,TRUE,,,,,,,,,,,,,,VFR,,,,,,,,,,,,METAR,353
KIND 050354Z 35005KT 10SM SCT200 09/05 A3017 RMK AO2 SLP215 T00890050,KIND,2023-11-05T03:54:00Z,39.7252,-86.2816,8.9,5,350,5,,10+,30.17,1021.5,,,TRUE,,,,,,,SCT,20000,,,,,,,VFR,,,,,,,,,,,,METAR,242
KIMT 050354Z AUTO 00000KT 10SM OVC055 02/M03 A3010 RMK AO2 SLP207 T00221028 $,KIMT,2023-11-05T03:54:00Z,45.8134,-88.1129,2.2,-2.8,0,0,,10+,30.10,1020.7,,TRUE,TRUE,TRUE,,,,,,OVC,5500,,,,,,,VFR,,,,,,,,,,,,METAR,343
KILN 050354Z AUTO 00000KT 9SM CLR 09/04 A3012 RMK AO2 SLP206 T00940044,KILN,2023-11-05T03:54:00Z,39.4308,-83.777,9.4,4.4,0,0,,9,30.12,1020.6,,TRUE,TRUE,,,,,,,CLR,,,,,,,,VFR,,,,,,,,,,,,METAR,325
KGSO 050354Z 00000KT 10SM FEW190 09/M01 A3012 RMK AO2 SLP196 T00891006,KGSO,2023-11-05T03:54:00Z,36.0969,-79.9432,8.9,-0.6,0,0,,10+,30.12,1019.6,,,TRUE,,,,,,,FEW,19000,,,,,,,VFR,,,,,,,,,,,,METAR,275
KGED 050354Z AUTO 00000KT 10SM CLR 08/07 A3010 RMK AO2 SLP193 T00830067,KGED,2023-11-05T03:54:00Z,38.6898,-75.3625,8.3,6.7,0,0,,10+,30.10,1019.3,,TRUE,TRUE,,,,,,,CLR,,,,,,,,VFR,,,,,,,,,,,,METAR,15
KGCN 050354Z AUTO 00000KT 10SM CLR 03/M13 A3030 RMK AO2 SLP219 T00331128,KGCN,2023-11-05T03:54:00Z,35.9458,-112.155,3.3,-12.8,0,0,,10+,30.30,1021.9,,TRUE,TRUE,,,,,,,CLR,,,,,,,,VFR,,,,,,,,,,,,METAR,1993
KGCK 050354Z AUTO 13008KT 10SM CLR 07/05 A3016 RMK AO2 SLP212 T00720050,KGCK,2023-11-05T03:54:00Z,37.9221,-100.723,7.2,5,130,8,,10+,30.16,1021.2,,TRUE,TRUE,,,,,,,CLR,,,,,,,,VFR,,,,,,,,,,,,METAR,877
KFZY 050354Z AUTO 00000KT 10SM OVC060 08/07 A3008 RMK AO2 SLP189 T00830067,KFZY,2023-11-05T03:54:00Z,43.3504,-76.3831,8.3,6.7,0,0,,10+,30.08,1018.9,,TRUE,TRUE,,,,,,,OVC,6000,,,,,,,VFR,,,,,,,,,,,,METAR,143
KFWA 050354Z 31004KT 10SM FEW250 07/06 A3015 RMK AO2 SLP211 T00720056,KFWA,2023-11-05T03:54:00Z,40.9725,-85.2064,7.2,5.6,310,4,,10+,30.15,1021.1,,,TRUE,,,,,,,FEW,25000,,,,,,,VFR,,,,,,,,,,,,METAR,243
KFIG 050354Z AUTO 00000KT 10SM OVC060 12/01 A3007 RMK AO2 SLP185 T01220011,KFIG,2023-11-05T03:54:00Z,41.0465,-78.4112,12.2,1.1,0,0,,10+,30.07,1018.5,,TRUE,TRUE,,,,,,,OVC,6000,,,,,,,VFR,,,,,,,,,,,,METAR,461
KFFZ 050354Z AUTO 02005KT 21/M01 A2999 RMK AO2 SLP137 T02061011 $,KFFZ,2023-11-05T03:54:00Z,33.4659,-111.721,20.6,-1.1,20,5,,,29.99,1013.7,,TRUE,TRUE,TRUE,,,,,,,,,,,,,,VFR,,,,,,,,,,,,METAR,420
KEWN 050354Z AUTO 35005KT 10SM CLR 14/14 A3008 RMK AO2 SLP187 T01440139,KEWN,2023-11-05T03:54:00Z,35.0684,-77.0478,14.4,13.9,350,5,,10+,30.08,1018.7,,TRUE,TRUE,,,,,,,CLR,,,,,,,,VFR,,,,,,,,,,,,METAR,3
KEVV 050354Z AUTO 34004KT 10SM BKN110 14/06 A3018 RMK AO2 SLP217 T01440056,KEVV,2023-11-05T03:54:00Z,38.0502,-87.5147,14.4,5.6,340,4,,10+,30.18,1021.7,,TRUE,TRUE,,,,,,,BKN,11000,,,,,,,VFR,,,,,,,,,,,,METAR,123
KEUG 050354Z 18003KT 10SM FEW023 BKN035 OVC110 13/12 A2992 RMK AO2 SLP129 T01280117 $,KEUG,2023-11-05T03:54:00Z,44.1331,-123.216,12.8,11.7,180,3,,10+,29.92,1012.9,,,TRUE,TRUE,,,,,,FEW,2300,BKN,3500,OVC,11000,,,VFR,,,,,,,,,,,,METAR,109
KEFD 050354Z 00000KT 10SM FEW045 17/16 A3015,KEFD,2023-11-05T03:54:00Z,29.606,-95.16,17,16,0,0,,10+,30.15,,,,,,,,,,,FEW,4500,,,,,,,VFR,,,,,,,,,,,,METAR,9
KECG 050354Z 00000KT 10SM CLR 11/10 A3010 RMK AO2 SLP191 T01060100,KECG,2023-11-05T03:54:00Z,36.2571,-76.1716,10.6,10,0,0,,10+,30.10,1019.1,,,TRUE,,,,,,,CLR,,,,,,,,VFR,,,,,,,,,,,,METAR,2
KDYL 050354Z AUTO 00000KT 10SM FEW075 BKN110 09/04 A3009 RMK AO2 SLP192 T00890039,KDYL,2023-11-05T03:54:00Z,40.3302,-75.1228,8.9,3.9,0,0,,10+,30.09,1019.2,,TRUE,TRUE,,,,,,,FEW,7500,BKN,11000,,,,,VFR,,,,,,,,,,,,METAR,121
KDSV 050354Z AUTO 00000KT 10SM OVC045 09/06 A3010 RMK AO2 SLP202 T00890056,KDSV,2023-11-05T03:54:00Z,42.5699,-77.7142,8.9,5.6,0,0,,10+,30.10,1020.2,,TRUE,TRUE,,,,,,,OVC,4500,,,,,,,VFR,,,,,,,,,,,,METAR,195
KDSM 050354Z 00000KT 10SM CLR 07/02 A3019 RMK AO2 SLP227 T00720017,KDSM,2023-11-05T03:54:00Z,41.534,-93.6531,7.2,1.7,0,0,,10+,30.19,1022.7,,,TRUE,,,,,,,CLR,,,,,,,,VFR,,,,,,,,,,,,METAR,286
KDMH 050354Z AUTO 12/08 A3010 RMK AO1 SLP193 T01220078,KDMH,2023-11-05T03:54:00Z,39.281,-76.611,12.2,7.8,,,,,30.10,1019.3,,TRUE,TRUE,,,,,,,,,,,,,,,VFR,,,,,,,,,,,,METAR,4
KDEC 050354Z AUTO 00000KT 10SM CLR 07/04 A3020 RMK AO2 SLP227 T00720044,KDEC,2023-11-05T03:54:00Z,39.8308,-88.8719,7.2,4.4,0,0,,10+,30.20,1022.7,,TRUE,TRUE,,,,,,,CLR,,,,,,,,VFR,,,,,,,,,,,,METAR,205
KDDH 050354Z AUTO 00000KT 10SM OVC065 07/02 A3008 RMK AO2 SLP189 T00670022,KDDH,2023-11-05T03:54:00Z,42.8935,-73.2488,6.7,2.2,0,0,,10+,30.08,1018.9,,TRUE,TRUE,,,,,,,OVC,6500,,,,,,,VFR,,,,,,,,,,,,METAR,241
KCRW 050354Z 00000KT 10SM FEW250 09/02 A3013 RMK AO2 SLP200 T00890017,KCRW,2023-11-05T03:54:00Z,38.3795,-81.5911,8.9,1.7,0,0,,10+,30.13,1020,,,TRUE,,,,,,,FEW,25000,,,,,,,VFR,,,,,,,,,,,,METAR,278
KCOU 050354Z AUTO 00000KT 9SM OVC100 09/08 A3021 RMK AO2 SLP230 T00940078,KCOU,2023-11-05T03:54:00Z,38.8171,-92.2148,9.4,7.8,0,0,,9,30.21,1023,,TRUE,TRUE,,,,,,,OVC,10000,,,,,,,VFR,,,,,,,,,,,,METAR,272
KCOS 050354Z 12005KT 10SM CLR 08/M02 A3024 RMK AO2 SLP208 T00781022,KCOS,2023-11-05T03:54:00Z,38.8095,-104.689,7.8,-2.2,120,5,,10+,30.24,1020.8,,,TRUE,,,,,,,CLR,,,,,,,,VFR,,,,,,,,,,,,METAR,1886
KCEU 050354Z AUTO 31003KT 10SM CLR 11/06 A3016 RMK AO2 SLP208 T01110056,KCEU,2023-11-05T03:54:00Z,34.6722,-82.8814,11.1,5.6,310,3,,10+,30.16,1020.8,,TRUE,TRUE,,,,,,,CLR,,,,,,,,VFR,,,,,,,,,,,,METAR,270
KCAR 050354Z AUTO 00000KT 10SM CLR M01/M04 A3003 RMK AO2 SLP178 T10111039,KCAR,2023-11-05T03:54:00Z,46.8705,-68.0172,-1.1,-3.9,0,0,,10+,30.03,1017.8,,TRUE,TRUE,,,,,,,CLR,,,,,,,,VFR,,,,,,,,,,,,METAR,189
KBWI 050354Z 00000KT 10SM FEW130 FEW250 07/04 A3009 RMK AO2 SLP190 T00720039,KBWI,2023-11-05T03:54:00Z,39.1733,-76.684,7.2,3.9,0,0,,10+,30.09,1019,,,TRUE,,,,,,,FEW,13000,FEW,25000,,,,,VFR,,,,,,,,,,,,METAR,42
KBUY 050354Z AUTO 00000KT 10SM CLR 06/01 A3011 RMK AO2 SLP197 T00610011,KBUY,2023-11-05T03:54:00Z,36.0475,-79.4737,6.1,1.1,0,0,,10+,30.11,1019.7,,TRUE,TRUE,,,,,,,CLR,,,,,,,,VFR,,,,,,,,,,,,METAR,185
KBTV 050354Z 20003KT 10SM OVC065 07/06 A3007 RMK AO2 SLP184 /LAST/ T00720056,KBTV,2023-11-05T03:54:00Z,44.4683,-73.1499,7.2,5.6,200,3,,10+,30.07,1018.4,,,TRUE,,,,,,,OVC,6500,,,,,,,VFR,,,,,,,,,,,,METAR,101
KBOS 050354Z 23006KT 10SM OVC140 12/04 A3007 RMK AO2 SLP183 T01170044,KBOS,2023-11-05T03:54:00Z,42.3606,-71.0097,11.7,4.4,230,6,,10+,30.07,1018.3,,,TRUE,,,,,,,OVC,14000,,,,,,,VFR,,,,,,,,,,,,METAR,4
KBFL 050354Z 06005KT 5SM HZ CLR 18/02 A3003 RMK AO2 SLP167 T01830022,KBFL,2023-11-05T03:54:00Z,35.4342,-119.055,18.3,2.2,60,5,,5,30.03,1016.7,,,TRUE,,,,,,HZ,CLR,,,,,,,,MVFR,,,,,,,,,,,,METAR,146
KAVP 050354Z AUTO 00000KT 10SM BKN065 OVC075 10/M01 A3007 RMK AO2 SLP184 T01001006,KAVP,2023-11-05T03:54:00Z,41.3335,-75.7227,10,-0.6,0,0,,10+,30.07,1018.4,,TRUE,TRUE,,,,,,,BKN,6500,OVC,7500,,,,,VFR,,,,,,,,,,,,METAR,290
KAVL 050354Z AUTO 00000KT 10SM CLR 07/M02 A3019 RMK AO2 SLP216 T00671017,KAVL,2023-11-05T03:54:00Z,35.4318,-82.5379,6.7,-1.7,0,0,,10+,30.19,1021.6,,TRUE,TRUE,,,,,,,CLR,,,,,,,,VFR,,,,,,,,,,,,METAR,646
KAPN 050354Z AUTO 00000KT 10SM FEW038 M02/M03 A3013 RMK AO2 SLP212 T10221033,KAPN,2023-11-05T03:54:00Z,45.0716,-83.5645,-2.2,-3.3,0,0,,10+,30.13,1021.2,,TRUE,TRUE,,,,,,,FEW,3800,,,,,,,VFR,,,,,,,,,,,,METAR,208
KAPC 050354Z AUTO 25007KT 10SM CLR 15/13 A3004 RMK AO2 SLP163 T01500128 $,KAPC,2023-11-05T03:54:00Z,38.2075,-122.28,15,12.8,250,7,,10+,30.04,1016.3,,TRUE,TRUE,TRUE,,,,,,CLR,,,,,,,,VFR,,,,,,,,,,,,METAR,5
KALO 050354Z AUTO 00000KT 10SM CLR 02/M02 A3016 RMK AO2 SLP220 T00171022,KALO,2023-11-05T03:54:00Z,42.5544,-92.4013,1.7,-2.2,0,0,,10+,30.16,1022,,TRUE,TRUE,,,,,,,CLR,,,,,,,,VFR,,,,,,,,,,,,METAR,264
KAKR 050354Z AUTO 00000KT 10SM OVC060 09/04 A3006 RMK AO2 SLP180 T00890039,KAKR,2023-11-05T03:54:00Z,41.0373,-81.4634,8.9,3.9,0,0,,10+,30.06,1018,,TRUE,TRUE,,,,,,,OVC,6000,,,,,,,VFR,,,,,,,,,,,,METAR,319
KAKQ 050354Z AUTO 00000KT 10SM CLR 06/04 A3011 RMK AO2 SLP197 T00610044 $,KAKQ,2023-11-05T03:54:00Z,36.9827,-77.0014,6.1,4.4,0,0,,10+,30.11,1019.7,,TRUE,TRUE,TRUE,,,,,,CLR,,,,,,,,VFR,,,,,,,,,,,,METAR,34
KAKH 050354Z AUTO 00000KT 10SM CLR 06/00 A3014 RMK AO2 SLP206 T00560000,KAKH,2023-11-05T03:54:00Z,35.1968,-81.1555,5.6,0,0,0,,10+,30.14,1020.6,,TRUE,TRUE,,,,,,,CLR,,,,,,,,VFR,,,,,,,,,,,,METAR,242
KACY 050354Z 00000KT 10SM CLR 07/04 A3010 RMK AO2 SLP192 T00670044,KACY,2023-11-05T03:54:00Z,39.452,-74.567,6.7,4.4,0,0,,10+,30.10,1019.2,,,TRUE,,,,,,,CLR,,,,,,,,VFR,,,,,,,,,,,,METAR,18
KAAO 050354Z AUTO 08003KT 10SM CLR 11/04 A3018 RMK AO2 SLP220 T01060044 $,KAAO,2023-11-05T03:54:00Z,37.7496,-97.2191,10.6,4.4,80,3,,10+,30.18,1022,,TRUE,TRUE,TRUE,,,,,,CLR,,,,,,,,VFR,,,,,,,,,,,,METAR,429
K1V4 050354Z AUTO 07/04 A3004 RMK AO1 SLP175 T00720039,K1V4,2023-11-05T03:54:00Z,44.42,-72.019,7.2,3.9,,,,,30.04,1017.5,,TRUE,TRUE,,,,,,,,,,,,,,,VFR,,,,,,,,,,,,METAR,213
K12N 050354Z AUTO 00000KT 08/05 A3011 RMK AO1 SLP198 P0001 T00780050,K12N,2023-11-05T03:54:00Z,41.0093,-74.7363,7.8,5,0,0,,,30.11,1019.8,,TRUE,TRUE,,,,,,,,,,,,,,,VFR,,,,,,0.01,,,,,,METAR,178
TJNR 050353Z AUTO 07006KT 10SM FEW022 28/24 A2994 RMK AO2 SLP138 T02780244 403110272 $,TJNR,2023-11-05T03:53:00Z,18.253,-65.638,27.8,24.4,70,6,,10+,29.94,1013.8,,TRUE,TRUE,TRUE,,,,,,FEW,2200,,,,,,,VFR,,,,,,,,,,,,METAR,7
TISX 050353Z AUTO 02005KT 10SM FEW030 SCT036 27/23 A2992 RMK AO2 SLP128 T02720233 403330261 PNO $,TISX,2023-11-05T03:53:00Z,17.6997,-64.8126,27.2,23.3,20,5,,10+,29.92,1012.8,,TRUE,TRUE,TRUE,,,,,,FEW,3000,SCT,3600,,,,,VFR,,,,,,,,,,,,METAR,16
TIST 050353Z AUTO 07007KT 10SM CLR 27/24 A2991 RMK AO2 SLP129 T02720239 403110261 $,TIST,2023-11-05T03:53:00Z,18.3362,-64.9799,27.2,23.9,70,7,,10+,29.91,1012.9,,TRUE,TRUE,TRUE,,,,,,CLR,,,,,,,,VFR,,,,,,,,,,,,METAR,5
PHTO 050353Z 08004KT 10SM FEW050 25/17 A3005 RMK AO2 SLP175 T02500167 $,PHTO,2023-11-05T03:53:00Z,19.7191,-155.049,25,16.7,80,4,,10+,30.05,1017.5,,,TRUE,TRUE,,,,,,FEW,5000,,,,,,,VFR,,,,,,,,,,,,METAR,9
PHNL 050353Z 06010KT 10SM FEW025 SCT043 27/20 A3002 RMK AO2 SLP167 T02670200 $,PHNL,2023-11-05T03:53:00Z,21.3151,-157.924,26.7,20,60,10,,10+,30.02,1016.7,,,TRUE,TRUE,,,,,,FEW,2500,SCT,4300,,,,,VFR,,,,,,,,,,,,METAR,2
PHKO 050353Z 26006KT 10SM BKN048 27/19 A3000 RMK AO2 SLP156 T02720194,PHKO,2023-11-05T03:53:00Z,19.7378,-156.048,27.2,19.4,260,6,,10+,30.00,1015.6,,,TRUE,,,,,,,BKN,4800,,,,,,,VFR,,,,,,,,,,,,METAR,11
PHJR 050353Z 06007KT 10SM CLR 27/18 A3003 RMK AO2 SLP177 T02720178,PHJR,2023-11-05T03:53:00Z,21.312,-158.07,27.2,17.8,60,7,,10+,30.03,1017.7,,,TRUE,,,,,,,CLR,,,,,,,,VFR,,,,,,,,,,,,METAR,9
PAWD 050353Z AUTO 35003KT 10SM BKN090 02/02 A2925 RMK AO2 SLP906 T00170017 TSNO,PAWD,2023-11-05T03:53:00Z,60.129,-149.418,1.7,1.7,350,3,,10+,29.25,990.6,,TRUE,TRUE,,,,,,,BKN,9000,,,,,,,VFR,,,,,,,,,,,,METAR,3
PAVL 050353Z AUTO 03014KT 10SM CLR M08/M13 A3000 RMK AO2 SLP158 T10831133 TSNO $,PAVL,2023-11-05T03:53:00Z,67.731,-164.548,-8.3,-13.3,30,14,,10+,30.00,1015.8,,TRUE,TRUE,TRUE,,,,,,CLR,,,,,,,,VFR,,,,,,,,,,,,METAR,6
PATO 050353Z AUTO VRB04KT 3/4SM BR VV002 02/02 A2927 RMK AO2 SLP911 T00220017 TSNO,PATO,2023-11-05T03:53:00Z,60.783,-148.843,2.2,1.7,VRB,4,,0.75,29.27,991.1,,TRUE,TRUE,,,,,,BR,OVX,0,,,,,,,LIFR,,,,,,,,,,,200,METAR,47
PATK 050353Z AUTO 01007KT 10SM CLR 03/M02 A2926 RMK AO2 SLP914 T00331017 TSNO,PATK,2023-11-05T03:53:00Z,62.319,-150.097,3.3,-1.7,10,7,,10+,29.26,991.4,,TRUE,TRUE,,,,,,,CLR,,,,,,,,VFR,,,,,,,,,,,,METAR,107
PASO 050353Z AUTO 17006G15KT 10SM -RA BKN028 OVC041 03/02 A2935 RMK AO2 SLP939 P0000 T00330022 TSNO,PASO,2023-11-05T03:53:00Z,59.443,-151.702,3.3,2.2,170,6,15,10+,29.35,993.9,,TRUE,TRUE,,,,,,-RA,BKN,2800,OVC,4100,,,,,MVFR,,,,,,0.005,,,,,,METAR,20
PASN 050353Z AUTO 00000KT 10SM OVC035 01/M01 A2990 RMK AO2 SLP127 T00111011 TSNO,PASN,2023-11-05T03:53:00Z,57.155,-170.223,1.1,-1.1,0,0,,10+,29.90,1012.7,,TRUE,TRUE,,,,,,,OVC,3500,,,,,,,VFR,,,,,,,,,,,,METAR,8
PASI 050353Z 00000KT 10SM BKN060 BKN080 OVC110 10/05 A2907 RMK AO2 RAB15E25 SLP845 P0000 T01000050,PASI,2023-11-05T03:53:00Z,57.047,-135.364,10,5,0,0,,10+,29.07,984.5,,,TRUE,,,,,,,BKN,6000,BKN,8000,OVC,11000,,,VFR,,,,,,0.005,,,,,,METAR,2
PASC 050353Z 09022KT 3/4SM R06/3000VP6000FT -SN BLSN VV018 M09/M11 A3004 RMK AO2 PK WND 06031/0301 SLP173 T10891106 $,PASC,2023-11-05T03:53:00Z,70.191,-148.48,-8.9,-10.6,90,22,,0.75,30.04,1017.3,,,TRUE,TRUE,,,,,-SN BLSN,OVX,0,,,,,,,LIFR,,,,,,,,,,,1800,METAR,17
PAQT 050353Z AUTO 05017KT 10SM OVC029 M09/M12 A3007 RMK AO2 SNE22 SLP182 T10891117 TSNO $,PAQT,2023-11-05T03:53:00Z,70.213,-150.994,-8.9,-11.7,50,17,,10+,30.07,1018.2,,TRUE,TRUE,TRUE,,,,,,OVC,2900,,,,,,,MVFR,,,,,,,,,,,,METAR,11
PAPB 050353Z AUTO 30004KT 10SM FEW024 OVC037 02/M01 A2992 RMK AO2 RAB27E37UPB28E36 SLP119 P0000 T00221006 TSNO,PAPB,2023-11-05T03:53:00Z,56.576,-169.663,2.2,-0.6,300,4,,10+,29.92,1011.9,,TRUE,TRUE,,,,,,,FEW,2400,OVC,3700,,,,,VFR,,,,,,0.005,,,,,,METAR,33
PAOT 050353Z 06007KT 10SM OVC080 M09/M14 A2979 RMK AO2 SLP088 T10941139,PAOT,2023-11-05T03:53:00Z,66.886,-162.607,-9.4,-13.9,60,7,,10+,29.79,1008.8,,,TRUE,,,,,,,OVC,8000,,,,,,,VFR,,,,,,,,,,,,METAR,3
PAOR 050353Z 00000KT 4SM BR FEW003 OVC010 M03/M04 A2945 RMK AO2 SLP007 I1001 T10281044 $,PAOR,2023-11-05T03:53:00Z,62.962,-141.938,-2.8,-4.4,0,0,,4,29.45,1000.7,,,TRUE,TRUE,,,,,BR,FEW,300,OVC,1000,,,,,MVFR,,,,,,,,,,,,METAR,524
PAOM 050353Z 33010KT 10SM CLR M08/M16 A2975 RMK AO2 SLP074 T10781156,PAOM,2023-11-05T03:53:00Z,64.5111,-165.44,-7.8,-15.6,330,10,,10+,29.75,1007.4,,,TRUE,,,,,,,CLR,,,,,,,,VFR,,,,,,,,,,,,METAR,6
PAMR 050353Z 02005KT M1/4SM FG VV002 01/01 A2926 RMK AO2 SLP911 T00110006 $,PAMR,2023-11-05T03:53:00Z,61.215,-149.85,1.1,0.6,20,5,,0.25,29.26,991.1,,,TRUE,TRUE,,,,,FG,OVX,0,,,,,,,LIFR,,,,,,,,,,,200,METAR,43
PAKW 050353Z AUTO 03009G17KT 340V050 8SM OVC040 09/08 A2900 RMK AO2 SLP820 T00940078 TSNO,PAKW,2023-11-05T03:53:00Z,55.582,-133.075,9.4,7.8,30,9,17,8,29.00,982,,TRUE,TRUE,,,,,,,OVC,4000,,,,,,,VFR,,,,,,,,,,,,METAR,7
PAKT 050353Z VRB06KT 5SM RA BR OVC045 10/08 A2904 RMK AO2 SLP833 P0020 T01000083,PAKT,2023-11-05T03:53:00Z,55.3592,-131.722,10,8.3,VRB,6,,5,29.04,983.3,,,TRUE,,,,,,RA BR,OVC,4500,,,,,,,MVFR,,,,,,0.2,,,,,,METAR,27
PAJN 050353Z 00000KT 10SM BKN065 OVC080 06/05 A2917 RMK AO2 SLP877 T00560050 $,PAJN,2023-11-05T03:53:00Z,58.354,-134.556,5.6,5,0,0,,10+,29.17,987.7,,,TRUE,TRUE,,,,,,BKN,6500,OVC,8000,,,,,VFR,,,,,,,,,,,,METAR,6
PAIL 050353Z 27009G17KT 10SM SCT013 SCT037 M04/M07 A2946 RMK AO2 SLP978 T10441072,PAIL,2023-11-05T03:53:00Z,59.7492,-154.909,-4.4,-7.2,270,9,17,10+,29.46,997.8,,,TRUE,,,,,,,SCT,1300,SCT,3700,,,,,VFR,,,,,,,,,,,,METAR,44
PAHO 050353Z 25011KT 9SM -RA SCT013 OVC018 03/01 A2933 RMK AO2 SLP933 P0004 T00280011,PAHO,2023-11-05T03:53:00Z,59.642,-151.491,2.8,1.1,250,11,,9,29.33,993.3,,,TRUE,,,,,,-RA,SCT,1300,OVC,1800,,,,,MVFR,,,,,,0.04,,,,,,METAR,6
PAGY 050353Z AUTO 03011KT 10SM OVC070 09/01 A2926 RMK AO2 SLP908 T00940011 TSNO,PAGY,2023-11-05T03:53:00Z,59.457,-135.322,9.4,1.1,30,11,,10+,29.26,990.8,,TRUE,TRUE,,,,,,,OVC,7000,,,,,,,VFR,,,,,,,,,,,,METAR,7
PAGK 050353Z AUTO 00000KT 10SM OVC011 M04/M05 A2935 RMK AO2 SLP972 T10391050 TSNO,PAGK,2023-11-05T03:53:00Z,62.1592,-145.459,-3.9,-5,0,0,,10+,29.35,997.2,,TRUE,TRUE,,,,,,,OVC,1100,,,,,,,MVFR,,,,,,,,,,,,METAR,481
PAFA 050353Z 01010KT 10SM OVC034 M06/M13 A2952 RMK AO2 SLP006 T10561128,PAFA,2023-11-05T03:53:00Z,64.8031,-147.876,-5.6,-12.8,10,10,,10+,29.52,1000.6,,,TRUE,,,,,,,OVC,3400,,,,,,,VFR,,,,,,,,,,,,METAR,130
PAEN 050353Z 00000KT 5SM UP BR BKN004 BKN009 OVC016 02/02 A2928 RMK AO2 RAB24E36 SLP916 P0001 T00220022,PAEN,2023-11-05T03:53:00Z,60.579,-151.242,2.2,2.2,0,0,,5,29.28,991.6,,,TRUE,,,,,,BR UP,BKN,400,BKN,900,OVC,1600,,,LIFR,,,,,,0.01,,,,,,METAR,30
PAEG 050353Z AUTO 00000KT 9SM OVC041 M09/M13 A2968 RMK AO2 SNE04 SLP067 P0000 T10941133 TSNO,PAEG,2023-11-05T03:53:00Z,64.7761,-141.164,-9.4,-13.3,0,0,,9,29.68,1006.7,,TRUE,TRUE,,,,,,,OVC,4100,,,,,,,VFR,,,,,,0.005,,,,,,METAR,273
PADQ 050353Z AUTO 30017G26KT 10SM CLR 02/M04 A2935 RMK AO2 PK WND 29029/0256 SLP939 T00171044 TSNO,PADQ,2023-11-05T03:53:00Z,57.7507,-152.488,1.7,-4.4,300,17,26,10+,29.35,993.9,,TRUE,TRUE,,,,,,,CLR,,,,,,,,VFR,,,,,,,,,,,,METAR,5
PADE 050353Z AUTO 34010KT 10SM BKN039 BKN050 OVC060 M07/M12 A2975 RMK AO2 SLP073 T10671122 TSNO $,PADE,2023-11-05T03:53:00Z,66.0695,-162.761,-6.7,-12.2,340,10,,10+,29.75,1007.3,,TRUE,TRUE,TRUE,,,,,,BKN,3900,BKN,5000,OVC,6000,,,VFR,,,,,,,,,,,,METAR,5
PACV 050353Z 00000KT 10SM FEW030 01/01 A2922 RMK AO2 SLP894 T00060006,PACV,2023-11-05T03:53:00Z,60.486,-145.445,0.6,0.6,0,0,,10+,29.22,989.4,,,TRUE,,,,,,,FEW,3000,,,,,,,VFR,,,,,,,,,,,,METAR,15
PACD 050353Z AUTO 32018G26KT 10SM SCT034 OVC049 03/M02 A2984 RMK AO2 PK WND 32026/0347 SLP106 T00281017 TSNO,PACD,2023-11-05T03:53:00Z,55.2207,-162.732,2.8,-1.7,320,18,26,10+,29.84,1010.6,,TRUE,TRUE,,,,,,,SCT,3400,OVC,4900,,,,,VFR,,,,,,,,,,,,METAR,23
PABT 050353Z 36004KT 10SM FEW110 M13/M18 A2975 RMK SLP093 T11281178,PABT,2023-11-05T03:53:00Z,66.9176,-151.519,-12.8,-17.8,360,4,,10+,29.75,1009.3,,,,,,,,,,FEW,11000,,,,,,,VFR,,,,,,,,,,,,METAR,195
PABR 050353Z 07018G28KT 1SM -SN BR BKN023 OVC034 M09/M11 A3019 RMK PK WND 07030/0337,PABR,2023-11-05T03:53:00Z,71.2837,-156.784,-9,-11,70,18,28,1,30.19,,,,,,,,,,-SN BR,BKN,2300,OVC,3400,,,,,IFR,,,,,,,,,,,,METAR,6
PABI 050353Z 12017G25KT 10SM BKN022 OVC028 M04/M07 A2945 RMK AO2 PK WND 14026/0340 SLP001 T10441072 $,PABI,2023-11-05T03:53:00Z,63.9931,-145.721,-4.4,-7.2,120,17,25,10+,29.45,1000.1,,,TRUE,TRUE,,,,,,BKN,2200,OVC,2800,,,,,MVFR,,,,,,,,,,,,METAR,388
PABE 050353Z 31014G24KT 10SM BKN028 OVC055 M06/M08 A2967 RMK AO2 SLP050 T10561078,PABE,2023-11-05T03:53:00Z,60.785,-161.829,-5.6,-7.8,310,14,24,10+,29.67,1005,,,TRUE,,,,,,,BKN,2800,OVC,5500,,,,,MVFR,,,,,,,,,,,,METAR,28
KZZV 050353Z AUTO 00000KT 10SM BKN060 07/03 A3009 RMK AO2 SLP189 T00720028,KZZV,2023-11-05T03:53:00Z,39.9461,-81.8932,7.2,2.8,0,0,,10+,30.09,1018.9,,TRUE,TRUE,,,,,,,BKN,6000,,,,,,,VFR,,,,,,,,,,,,METAR,268
KYIP 050353Z 00000KT 8SM BKN043 06/04 A3011 RMK AO2 SLP196 T00610044,KYIP,2023-11-05T03:53:00Z,42.242,-83.5214,6.1,4.4,0,0,,8,30.11,1019.6,,,TRUE,,,,,,,BKN,4300,,,,,,,VFR,,,,,,,,,,,,METAR,215
KXNA 050353Z AUTO 00000KT 10SM FEW050 BKN085 13/11 A3018 RMK AO2 SLP214 T01280106,KXNA,2023-11-05T03:53:00Z,36.2897,-94.3115,12.8,10.6,0,0,,10+,30.18,1021.4,,TRUE,TRUE,,,,,,,FEW,5000,BKN,8500,,,,,VFR,,,,,,,,,,,,METAR,390
KWVI 050353Z AUTO 12005KT 10SM OVC004 14/14 A3006 RMK AO2 SLP180 T01440144,KWVI,2023-11-05T03:53:00Z,36.9394,-121.79,14.4,14.4,120,5,,10+,30.06,1018,,TRUE,TRUE,,,,,,,OVC,400,,,,,,,LIFR,,,,,,,,,,,,METAR,47
KWST 050353Z AUTO 00000KT 10SM CLR 09/07 A3009 RMK AO2 SLP188 T00890067,KWST,2023-11-05T03:53:00Z,41.3509,-71.8055,8.9,6.7,0,0,,10+,30.09,1018.8,,TRUE,TRUE,,,,,,,CLR,,,,,,,,VFR,,,,,,,,,,,,METAR,20
KWRL 050353Z AUTO 23004KT 10SM CLR 07/02 A2997 RMK AO2 SLP158 T00670022,KWRL,2023-11-05T03:53:00Z,43.9654,-107.95,6.7,2.2,230,4,,10+,29.97,1015.8,,TRUE,TRUE,,,,,,,CLR,,,,,,,,VFR,,,,,,,,,,,,METAR,1281
KVUO 050353Z AUTO VRB03KT 10SM FEW050 12/11 A2989 RMK AO2 SLP123 T01220106 $,KVUO,2023-11-05T03:53:00Z,45.621,-122.654,12.2,10.6,VRB,3,,10+,29.89,1012.3,,TRUE,TRUE,TRUE,,,,,,FEW,5000,,,,,,,VFR,,,,,,,,,,,,METAR,7
KVRB 050353Z AUTO 35012KT 9SM CLR 22/20 A3003 RMK AO2 SLP167 T02170200,KVRB,2023-11-05T03:53:00Z,27.6553,-80.4142,21.7,20,350,12,,9,30.03,1016.7,,TRUE,TRUE,,,,,,,CLR,,,,,,,,VFR,,,,,,,,,,,,METAR,7
KVLD 050353Z 00000KT 10SM CLR 11/08 A3014 RMK AO2 SLP214 T01110083,KVLD,2023-11-05T03:53:00Z,30.7763,-83.2739,11.1,8.3,0,0,,10+,30.14,1021.4,,,TRUE,,,,,,,CLR,,,,,,,,VFR,,,,,,,,,,,,METAR,59
KVIH 050353Z AUTO 00000KT 10SM SCT110 07/04 A3020 RMK AO2 SLP228 T00720039,KVIH,2023-11-05T03:53:00Z,38.1318,-91.7647,7.2,3.9,0,0,,10+,30.20,1022.8,,TRUE,TRUE,,,,,,,SCT,11000,,,,,,,VFR,,,,,,,,,,,,METAR,342
KVGT 050353Z AUTO 28004KT 10SM CLR 17/M03 A3003 RMK AO2 SLP178 T01671028,KVGT,2023-11-05T03:53:00Z,36.2121,-115.194,16.7,-2.8,280,4,,10+,30.03,1017.8,,TRUE,TRUE,,,,,,,CLR,,,,,,,,VFR,,,,,,,,,,,,METAR,664
KVEL 050353Z AUTO 00000KT 10SM CLR 09/M02 A3018 RMK AO2 SLP203 T00891022,KVEL,2023-11-05T03:53:00Z,40.4429,-109.513,8.9,-2.2,0,0,,10+,30.18,1020.3,,TRUE,TRUE,,,,,,,CLR,,,,,,,,VFR,,,,,,,,,,,,METAR,1604
KVCB 050353Z AUTO 21004KT 10SM FEW120 18/11 A3001 RMK AO2 SLP160 T01830106,KVCB,2023-11-05T03:53:00Z,38.3775,-121.959,18.3,10.6,210,4,,10+,30.01,1016,,TRUE,TRUE,,,,,,,FEW,12000,,,,,,,VFR,,,,,,,,,,,,METAR,30
KUUU 050353Z AUTO 00000KT 10SM CLR 11/08 A3008 RMK AO2 SLP184 T01060083,KUUU,2023-11-05T03:53:00Z,41.5299,-71.2833,10.6,8.3,0,0,,10+,30.08,1018.4,,TRUE,TRUE,,,,,,,CLR,,,,,,,,VFR,,,,,,,,,,,,METAR,45
KUTS 050353Z AUTO 17006KT 10SM FEW041 SCT048 19/15 A3014 RMK AO2 SLP204 T01940150 $,KUTS,2023-11-05T03:53:00Z,30.7443,-95.5866,19.4,15,170,6,,10+,30.14,1020.4,,TRUE,TRUE,TRUE,,,,,,FEW,4100,SCT,4800,,,,,VFR,,,,,,,,,,,,METAR,103
KUNO 050353Z AUTO 02006KT 10SM -RA OVC085 13/07 A3020 RMK AO2 RAB16 SLP222 P0000 T01280067,KUNO,2023-11-05T03:53:00Z,36.8791,-91.9052,12.8,6.7,20,6,,10+,30.20,1022.2,,TRUE,TRUE,,,,,,-RA,OVC,8500,,,,,,,VFR,,,,,,0.005,,,,,,METAR,376
KTYS 050353Z 00000KT 10SM SCT200 09/01 A3017 RMK AO2 SLP216 T00940011,KTYS,2023-11-05T03:53:00Z,35.818,-83.9857,9.4,1.1,0,0,,10+,30.17,1021.6,,,TRUE,,,,,,,SCT,20000,,,,,,,VFR,,,,,,,,,,,,METAR,300
KTYR 050353Z AUTO 12005KT 10SM CLR 16/12 A3015 RMK AO2 SLP204 T01560117,KTYR,2023-11-05T03:53:00Z,32.3587,-95.404,15.6,11.7,120,5,,10+,30.15,1020.4,,TRUE,TRUE,,,,,,,CLR,,,,,,,,VFR,,,,,,,,,,,,METAR,161
KTXK 050353Z AUTO 11005KT 10SM CLR 16/11 A3016 RMK AO2 SLP211 T01610106,KTXK,2023-11-05T03:53:00Z,33.4561,-93.9878,16.1,10.6,110,5,,10+,30.16,1021.1,,TRUE,TRUE,,,,,,,CLR,,,,,,,,VFR,,,,,,,,,,,,METAR,118
KTWF 050353Z AUTO 19004KT 10SM -RA OVC070 09/07 A3004 RMK AO2 PK WND 28027/0254 WSHFT 0240 RAE08B27 SLP152 P0002 T00940072,KTWF,2023-11-05T03:53:00Z,42.4785,-114.477,9.4,7.2,190,4,,10+,30.04,1015.2,,TRUE,TRUE,,,,,,-RA,OVC,7000,,,,,,,VFR,,,,,,0.02,,,,,,METAR,1269
KTVR 050353Z AUTO 00000KT 10SM CLR 11/07 A3017 RMK AO2 SLP223 T01060072 PWINO $,KTVR,2023-11-05T03:53:00Z,32.3481,-91.0299,10.6,7.2,0,0,,10+,30.17,1022.3,,TRUE,TRUE,TRUE,,,,,,CLR,,,,,,,,VFR,,,,,,,,,,,,METAR,25
KTVL 050353Z AUTO 18013G23KT 10SM CLR 12/M02 A3014 RMK AO2 SLP182 T01171017,KTVL,2023-11-05T03:53:00Z,38.8984,-119.996,11.7,-1.7,180,13,23,10+,30.14,1018.2,,TRUE,TRUE,,,,,,,CLR,,,,,,,,VFR,,,,,,,,,,,,METAR,1907
KTVC 050353Z AUTO 19003KT 10SM CLR M01/M02 A3013 RMK AO2 SLP209 T10061022,KTVC,2023-11-05T03:53:00Z,44.739,-85.5694,-0.6,-2.2,190,3,,10+,30.13,1020.9,,TRUE,TRUE,,,,,,,CLR,,,,,,,,VFR,,,,,,,,,,,,METAR,188
KTUS 050353Z 23003KT 10SM CLR 21/M04 A3007 RMK AO2 SLP151 T02111044 $,KTUS,2023-11-05T03:53:00Z,32.1315,-110.956,21.1,-4.4,230,3,,10+,30.07,1015.1,,,TRUE,TRUE,,,,,,CLR,,,,,,,,VFR,,,,,,,,,,,,METAR,776
KTUP 050353Z AUTO 00000KT 10SM CLR 11/06 A3018 RMK AO2 SLP218 T01060061 $,KTUP,2023-11-05T03:53:00Z,34.2622,-88.7713,10.6,6.1,0,0,,10+,30.18,1021.8,,TRUE,TRUE,TRUE,,,,,,CLR,,,,,,,,VFR,,,,,,,,,,,,METAR,107
KTUL 050353Z 03004KT 10SM BKN055 OVC075 18/13 A3015 RMK AO2 SLP205 T01780128,KTUL,2023-11-05T03:53:00Z,36.1985,-95.8783,17.8,12.8,30,4,,10+,30.15,1020.5,,,TRUE,,,,,,,BKN,5500,OVC,7500,,,,,VFR,,,,,,,,,,,,METAR,196
KTTN 050353Z AUTO 34003KT 10SM FEW110 08/04 A3009 RMK AO2 SLP185 T00780044,KTTN,2023-11-05T03:53:00Z,40.2768,-74.8159,7.8,4.4,340,3,,10+,30.09,1018.5,,TRUE,TRUE,,,,,,,FEW,11000,,,,,,,VFR,,,,,,,,,,,,METAR,58
KTTD 050353Z 00000KT 10SM OVC055 14/12 A2988 RMK AO2 SLP118 T01440122,KTTD,2023-11-05T03:53:00Z,45.551,-122.41,14.4,12.2,0,0,,10+,29.88,1011.8,,,TRUE,,,,,,,OVC,5500,,,,,,,VFR,,,,,,,,,,,,METAR,8
KTRL 050353Z AUTO 14003KT 10SM CLR 16/12 A3014 RMK AO2 SLP203 T01560122,KTRL,2023-11-05T03:53:00Z,32.7131,-96.2688,15.6,12.2,140,3,,10+,30.14,1020.3,,TRUE,TRUE,,,,,,,CLR,,,,,,,,VFR,,,,,,,,,,,,METAR,144
KTRI 050353Z 00000KT 10SM SCT180 05/M01 A3019 RMK AO2 SLP214 T00501006,KTRI,2023-11-05T03:53:00Z,36.4797,-82.3989,5,-0.6,0,0,,10+,30.19,1021.4,,,TRUE,,,,,,,SCT,18000,,,,,,,VFR,,,,,,,,,,,,METAR,456
KTPA 050353Z 01005KT 10SM SCT060 20/03 A3010 RMK AO2 SLP192 T02000028,KTPA,2023-11-05T03:53:00Z,27.9633,-82.54,20,2.8,10,5,,10+,30.10,1019.2,,,TRUE,,,,,,,SCT,6000,,,,,,,VFR,,,,,,,,,,,,METAR,2
KTOR 050353Z AUTO 13008KT 10SM CLR 07/M01 A3004 RMK AO2 SLP173 T00721006,KTOR,2023-11-05T03:53:00Z,42.0613,-104.158,7.2,-0.6,130,8,,10+,30.04,1017.3,,TRUE,TRUE,,,,,,,CLR,,,,,,,,VFR,,,,,,,,,,,,METAR,1285
KTOP 050353Z AUTO 00000KT 5SM BR CLR 05/03 A3021 RMK AO2 SLP231 T00500033,KTOP,2023-11-05T03:53:00Z,39.0724,-95.626,5,3.3,0,0,,5,30.21,1023.1,,TRUE,TRUE,,,,,,BR,CLR,,,,,,,,MVFR,,,,,,,,,,,,METAR,268
KTOI 050353Z AUTO 00000KT 10SM CLR 09/06 A3018 RMK AO2 SLP218 T00940061,KTOI,2023-11-05T03:53:00Z,31.8574,-86.0103,9.4,6.1,0,0,,10+,30.18,1021.8,,TRUE,TRUE,,,,,,,CLR,,,,,,,,VFR,,,,,,,,,,,,METAR,120
KTMB 050353Z AUTO 35007KT 10SM CLR 23/21 A3000 RMK AO2 SLP158 T02280206,KTMB,2023-11-05T03:53:00Z,25.6423,-80.4347,22.8,20.6,350,7,,10+,30.00,1015.8,,TRUE,TRUE,,,,,,,CLR,,,,,,,,VFR,,,,,,,,,,,,METAR,2
KTLH 050353Z AUTO 30003KT 10SM CLR 11/08 A3015 RMK AO2 SLP209 T01060078,KTLH,2023-11-05T03:53:00Z,30.3935,-84.3513,10.6,7.8,300,3,,10+,30.15,1020.9,,TRUE,TRUE,,,,,,,CLR,,,,,,,,VFR,,,,,,,,,,,,METAR,17
KTKI 050353Z AUTO 00000KT 10SM BKN050 16/13 A3013 RMK AO2 SLP208 T01560133,KTKI,2023-11-05T03:53:00Z,33.1828,-96.5899,15.6,13.3,0,0,,10+,30.13,1020.8,,TRUE,TRUE,,,,,,,BKN,5000,,,,,,,VFR,,,,,,,,,,,,METAR,173
KTIW 050353Z 20009G16KT 10SM FEW030 OVC055 12/11 A2983 RMK AO2 RAB27E52 SLP101 P0000 T01220106,KTIW,2023-11-05T03:53:00Z,47.2674,-122.576,12.2,10.6,200,9,16,10+,29.83,1010.1,,,TRUE,,,,,,,FEW,3000,OVC,5500,,,,,VFR,,,,,,0.005,,,,,,METAR,89
KTHV 050353Z AUTO 00000KT 10SM BKN085 06/02 A3008 RMK AO2 SLP191 T00610022,KTHV,2023-11-05T03:53:00Z,39.9194,-76.8768,6.1,2.2,0,0,,10+,30.08,1019.1,,TRUE,TRUE,,,,,,,BKN,8500,,,,,,,VFR,,,,,,,,,,,,METAR,141
KTDZ 050353Z AUTO 34003KT 4SM BR SCT055 08/07 A3011 RMK AO2 SLP198 T00780067,KTDZ,2023-11-05T03:53:00Z,41.5633,-83.4767,7.8,6.7,340,3,,4,30.11,1019.8,,TRUE,TRUE,,,,,,BR,SCT,5500,,,,,,,MVFR,,,,,,,,,,,,METAR,189
KTCS 050353Z AUTO 30008KT 10SM CLR 11/M08 A3021 RMK AO2 SLP184 T01111083,KTCS,2023-11-05T03:53:00Z,33.2369,-107.268,11.1,-8.3,300,8,,10+,30.21,1018.4,,TRUE,TRUE,,,,,,,CLR,,,,,,,,VFR,,,,,,,,,,,,METAR,1471
KTCL 050353Z 00000KT 9SM CLR 09/07 A3018 RMK AO2 SLP219 T00940067,KTCL,2023-11-05T03:53:00Z,33.2122,-87.6155,9.4,6.7,0,0,,9,30.18,1021.9,,,TRUE,,,,,,,CLR,,,,,,,,VFR,,,,,,,,,,,,METAR,48
KTCC 050353Z AUTO 06006KT 10SM CLR 09/02 A3017 RMK AO2 SLP195 T00890022 $,KTCC,2023-11-05T03:53:00Z,35.1805,-103.601,8.9,2.2,60,6,,10+,30.17,1019.5,,TRUE,TRUE,TRUE,,,,,,CLR,,,,,,,,VFR,,,,,,,,,,,,METAR,1233
KSWO 050353Z AUTO 03006KT 10SM OVC070 18/12 A3014 RMK AO2 SLP197 T01780117,KSWO,2023-11-05T03:53:00Z,36.1624,-97.0832,17.8,11.7,30,6,,10+,30.14,1019.7,,TRUE,TRUE,,,,,,,OVC,7000,,,,,,,VFR,,,,,,,,,,,,METAR,293
KSTS 050353Z 14004KT 10SM SCT120 14/13 A3004 RMK AO2 SLP167 T01440128,KSTS,2023-11-05T03:53:00Z,38.5037,-122.811,14.4,12.8,140,4,,10+,30.04,1016.7,,,TRUE,,,,,,,SCT,12000,,,,,,,VFR,,,,,,,,,,,,METAR,35
KSTP 050353Z AUTO 14005KT 10SM OVC060 07/02 A3011 RMK AO2 SLP199 T00720017,KSTP,2023-11-05T03:53:00Z,44.9324,-93.0559,7.2,1.7,140,5,,10+,30.11,1019.9,,TRUE,TRUE,,,,,,,OVC,6000,,,,,,,VFR,,,,,,,,,,,,METAR,213
KSTJ 050353Z AUTO 00000KT 1/4SM FG VV001 02/02 A3022 RMK AO2 SLP236 T00220017,KSTJ,2023-11-05T03:53:00Z,39.7683,-94.9095,2.2,1.7,0,0,,0.25,30.22,1023.6,,TRUE,TRUE,,,,,,FG,OVX,0,,,,,,,LIFR,,,,,,,,,,,100,METAR,247
KSTC 050353Z 08006KT 10SM BKN048 07/01 A3007 RMK AO2 SLP199 T00670011,KSTC,2023-11-05T03:53:00Z,45.5442,-94.0517,6.7,1.1,80,6,,10+,30.07,1019.9,,,TRUE,,,,,,,BKN,4800,,,,,,,VFR,,,,,,,,,,,,METAR,302
KSSF 050353Z AUTO 00000KT 10SM CLR 18/13 A3011 RMK AO2 SLP190 T01780133 $,KSSF,2023-11-05T03:53:00Z,29.339,-98.472,17.8,13.3,0,0,,10+,30.11,1019,,TRUE,TRUE,TRUE,,,,,,CLR,,,,,,,,VFR,,,,,,,,,,,,METAR,175
KSRQ 050353Z AUTO 01007KT 10SM FEW065 21/07 A3008 RMK AO2 SLP185 T02060067,KSRQ,2023-11-05T03:53:00Z,27.4015,-82.5596,20.6,6.7,10,7,,10+,30.08,1018.5,,TRUE,TRUE,,,,,,,FEW,6500,,,,,,,VFR,,,,,,,,,,,,METAR,5
KSPW 050353Z AUTO 22006KT 10SM CLR 05/01 A3012 RMK AO2 SLP208 T00500011 $,KSPW,2023-11-05T03:53:00Z,43.1682,-95.2101,5,1.1,220,6,,10+,30.12,1020.8,,TRUE,TRUE,TRUE,,,,,,CLR,,,,,,,,VFR,,,,,,,,,,,,METAR,407
KSPG 050353Z AUTO 03010KT 10SM FEW075 22/09 A3007 RMK AO2 SLP183 T02170089,KSPG,2023-11-05T03:53:00Z,27.7685,-82.6257,21.7,8.9,30,10,,10+,30.07,1018.3,,TRUE,TRUE,,,,,,,FEW,7500,,,,,,,VFR,,,,,,,,,,,,METAR,1
KSNY 050353Z AUTO 20009KT 10SM CLR 04/M01 A3010 RMK AO2 SLP188 T00391006 $,KSNY,2023-11-05T03:53:00Z,41.0993,-102.986,3.9,-0.6,200,9,,10+,30.10,1018.8,,TRUE,TRUE,TRUE,,,,,,CLR,,,,,,,,VFR,,,,,,,,,,,,METAR,1307
KSNS 050353Z AUTO 34008KT 10SM BKN005 OVC009 16/14 A3006 RMK AO2 SLP190 T01560139,KSNS,2023-11-05T03:53:00Z,36.6635,-121.609,15.6,13.9,340,8,,10+,30.06,1019,,TRUE,TRUE,,,,,,,BKN,500,OVC,900,,,,,IFR,,,,,,,,,,,,METAR,20
KSNA 050353Z 00000KT 9SM CLR 19/16 A3000 RMK AO2 SLP157 T01940156 $,KSNA,2023-11-05T03:53:00Z,33.6798,-117.867,19.4,15.6,0,0,,9,30.00,1015.7,,,TRUE,TRUE,,,,,,CLR,,,,,,,,VFR,,,,,,,,,,,,METAR,14
KSMQ 050353Z AUTO 00000KT 10SM CLR 07/05 A3009 RMK AO2 SLP191 T00720050 $,KSMQ,2023-11-05T03:53:00Z,40.6241,-74.669,7.2,5,0,0,,10+,30.09,1019.1,,TRUE,TRUE,TRUE,,,,,,CLR,,,,,,,,VFR,,,,,,,,,,,,METAR,30
KSMF 050353Z 19006KT 10SM BKN130 BKN200 20/13 A2999 RMK AO2 SLP156 T02000133,KSMF,2023-11-05T03:53:00Z,38.7007,-121.595,20,13.3,190,6,,10+,29.99,1015.6,,,TRUE,,,,,,,BKN,13000,BKN,20000,,,,,VFR,,,,,,,,,,,,METAR,7
KSLN 050353Z 00000KT 10SM CLR 09/03 A3019 RMK AO2 SLP226 T00890033,KSLN,2023-11-05T03:53:00Z,38.78,-97.6446,8.9,3.3,0,0,,10+,30.19,1022.6,,,TRUE,,,,,,,CLR,,,,,,,,VFR,,,,,,,,,,,,METAR,377
KSIY 050353Z AUTO 17004KT 10SM BKN055 BKN070 11/06 A2999 RMK AO2 SLP161 T01060056,KSIY,2023-11-05T03:53:00Z,41.7737,-122.468,10.6,5.6,170,4,,10+,29.99,1016.1,,TRUE,TRUE,,,,,,,BKN,5500,BKN,7000,,,,,VFR,,,,,,,,,,,,METAR,807
KSHR 050353Z AUTO 23003KT 10SM OVC110 09/02 A2991 RMK AO2 SLP128 T00940022,KSHR,2023-11-05T03:53:00Z,44.7603,-106.974,9.4,2.2,230,3,,10+,29.91,1012.8,,TRUE,TRUE,,,,,,,OVC,11000,,,,,,,VFR,,,,,,,,,,,,METAR,1212
KSGR 050353Z AUTO 13004KT 10SM CLR 19/18 A3014 RMK AO2 SLP208 T01940178,KSGR,2023-11-05T03:53:00Z,29.6197,-95.6575,19.4,17.8,130,4,,10+,30.14,1020.8,,TRUE,TRUE,,,,,,,CLR,,,,,,,,VFR,,,,,,,,,,,,METAR,22
KSFB 050353Z AUTO 36006KT 10SM CLR 18/09 A3008 RMK AO2 SLP184 T01780094,KSFB,2023-11-05T03:53:00Z,28.7795,-81.2436,17.8,9.4,360,6,,10+,30.08,1018.4,,TRUE,TRUE,,,,,,,CLR,,,,,,,,VFR,,,,,,,,,,,,METAR,16
KSEG 050353Z AUTO 00000KT 10SM OVC100 06/04 A3009 RMK AO2 SLP192 T00610039,KSEG,2023-11-05T03:53:00Z,40.8193,-76.8658,6.1,3.9,0,0,,10+,30.09,1019.2,,TRUE,TRUE,,,,,,,OVC,10000,,,,,,,VFR,,,,,,,,,,,,METAR,136
KSEA 050353Z 19010KT 10SM FEW030 SCT060 BKN090 13/10 A2983 RMK AO2 SLP106 T01280100 $,KSEA,2023-11-05T03:53:00Z,47.4447,-122.314,12.8,10,190,10,,10+,29.83,1010.6,,,TRUE,TRUE,,,,,,FEW,3000,SCT,6000,BKN,9000,,,VFR,,,,,,,,,,,,METAR,115
KSDM 050353Z AUTO 13004KT 10SM CLR 13/08 A3000 RMK AO2 SLP156 T01280083 $,KSDM,2023-11-05T03:53:00Z,32.5758,-116.994,12.8,8.3,130,4,,10+,30.00,1015.6,,TRUE,TRUE,TRUE,,,,,,CLR,,,,,,,,VFR,,,,,,,,,,,,METAR,161
KSDL 050353Z AUTO 00000KT 10SM CLR 22/M03 A3001 RMK AO2 SLP145 T02171028,KSDL,2023-11-05T03:53:00Z,33.6124,-111.923,21.7,-2.8,0,0,,10+,30.01,1014.5,,TRUE,TRUE,,,,,,,CLR,,,,,,,,VFR,,,,,,,,,,,,METAR,438
KSBM 050353Z AUTO 00000KT 6SM BR CLR M01/M03 A3015 RMK AO2 SLP218 T10111028,KSBM,2023-11-05T03:53:00Z,43.7748,-87.849,-1.1,-2.8,0,0,,6,30.15,1021.8,,TRUE,TRUE,,,,,,BR,CLR,,,,,,,,VFR,,,,,,,,,,,,METAR,225
KSBA 050353Z 00000KT 6SM BR BKN005 14/12 A2999 RMK AO2 SLP155 T01390122 $,KSBA,2023-11-05T03:53:00Z,34.4241,-119.842,13.9,12.2,0,0,,6,29.99,1015.5,,,TRUE,TRUE,,,,,BR,BKN,500,,,,,,,IFR,,,,,,,,,,,,METAR,2
KSAV 050353Z 28003KT 10SM CLR 10/03 A3013 RMK AO2 SLP201 LAST T01000028,KSAV,2023-11-05T03:53:00Z,32.1313,-81.2023,10,2.8,280,3,,10+,30.13,1020.1,,,TRUE,,,,,,,CLR,,,,,,,,VFR,,,,,,,,,,,,METAR,10
KSAF 050353Z AUTO 35006KT 10SM CLR 06/M08 A3028 RMK AO2 SLP207 T00611078 $,KSAF,2023-11-05T03:53:00Z,35.611,-106.096,6.1,-7.8,350,6,,10+,30.28,1020.7,,TRUE,TRUE,TRUE,,,,,,CLR,,,,,,,,VFR,,,,,,,,,,,,METAR,1918
KSAC 050353Z AUTO 21008KT 10SM CLR 17/10 A3000 RMK AO2 SLP158 T01720100,KSAC,2023-11-05T03:53:00Z,38.5066,-121.496,17.2,10,210,8,,10+,30.00,1015.8,,TRUE,TRUE,,,,,,,CLR,,,,,,,,VFR,,,,,,,,,,,,METAR,5
KRXE 050353Z AUTO 03004KT 10SM OVC080 09/05 A3005 RMK AO2 SLP172 T00940050,KRXE,2023-11-05T03:53:00Z,43.8321,-111.808,9.4,5,30,4,,10+,30.05,1017.2,,TRUE,TRUE,,,,,,,OVC,8000,,,,,,,VFR,,,,,,,,,,,,METAR,1483
KRWL 050353Z AUTO 24012KT 10SM CLR 09/M04 A3017 RMK AO2 SLP170 T00941039,KRWL,2023-11-05T03:53:00Z,41.8065,-107.195,9.4,-3.9,240,12,,10+,30.17,1017,,TRUE,TRUE,,,,,,,CLR,,,,,,,,VFR,,,,,,,,,,,,METAR,2066
KRWI 050353Z AUTO 00000KT 10SM CLR 08/05 A3012 RMK AO2 SLP197 T00780050,KRWI,2023-11-05T03:53:00Z,35.8502,-77.8951,7.8,5,0,0,,10+,30.12,1019.7,,TRUE,TRUE,,,,,,,CLR,,,,,,,,VFR,,,,,,,,,,,,METAR,46
KRWF 050353Z AUTO 00000KT 9SM CLR 06/02 A3007 RMK AO2 SLP193 T00610022,KRWF,2023-11-05T03:53:00Z,44.5483,-95.0804,6.1,2.2,0,0,,9,30.07,1019.3,,TRUE,TRUE,,,,,,,CLR,,,,,,,,VFR,,,,,,,,,,,,METAR,312
KRVS 050353Z AUTO 00000KT 10SM OVC050 17/13 A3015 RMK AO2 SLP216 T01670128 $,KRVS,2023-11-05T03:53:00Z,36.0424,-95.9902,16.7,12.8,0,0,,10+,30.15,1021.6,,TRUE,TRUE,TRUE,,,,,,OVC,5000,,,,,,,VFR,,,,,,,,,,,,METAR,191
KRUE 050353Z AUTO 00000KT 10SM CLR 12/10 A3016 RMK AO2 SLP207 T01220100,KRUE,2023-11-05T03:53:00Z,35.2573,-93.095,12.2,10,0,0,,10+,30.16,1020.7,,TRUE,TRUE,,,,,,,CLR,,,,,,,,VFR,,,,,,,,,,,,METAR,119
KRTN 050353Z AUTO 25009KT 10SM CLR 08/M05 A3028 RMK AO2 SLP208 T00781050,KRTN,2023-11-05T03:53:00Z,36.7418,-104.508,7.8,-5,250,9,,10+,30.28,1020.8,,TRUE,TRUE,,,,,,,CLR,,,,,,,,VFR,,,,,,,,,,,,METAR,1939
KRSW 050353Z AUTO 02005KT 10SM CLR 21/18 A3004 RMK AO2 SLP171 T02110178,KRSW,2023-11-05T03:53:00Z,26.538,-81.7567,21.1,17.8,20,5,,10+,30.04,1017.1,,TRUE,TRUE,,,,,,,CLR,,,,,,,,VFR,,,,,,,,,,,,METAR,8
KRSL 050353Z AUTO 16007KT 10SM CLR 08/04 A3018 RMK AO2 SLP223 T00830039,KRSL,2023-11-05T03:53:00Z,38.8725,-98.8093,8.3,3.9,160,7,,10+,30.18,1022.3,,TRUE,TRUE,,,,,,,CLR,,,,,,,,VFR,,,,,,,,,,,,METAR,569
KRQE 050353Z AUTO 20003KT 10SM CLR 03/M10 A3033 RMK AO2 SLP236 T00281100 $,KRQE,2023-11-05T03:53:00Z,35.6571,-109.06,2.8,-10,200,3,,10+,30.33,1023.6,,TRUE,TRUE,TRUE,,,,,,CLR,,,,,,,,VFR,,,,,,,,,,,,METAR,2056
KRNT 050353Z AUTO 15003KT 10SM FEW046 SCT065 BKN095 13/11 A2983 RMK AO2 SLP106 T01330106,KRNT,2023-11-05T03:53:00Z,47.4951,-122.214,13.3,10.6,150,3,,10+,29.83,1010.6,,TRUE,TRUE,,,,,,,FEW,4600,SCT,6500,BKN,9500,,,VFR,,,,,,,,,,,,METAR,7
KRNM 050353Z AUTO 12003KT 10SM CLR 10/M01 A3002 RMK AO2 SLP161 T01001006 $,KRNM,2023-11-05T03:53:00Z,33.038,-116.916,10,-0.6,120,3,,10+,30.02,1016.1,,TRUE,TRUE,TRUE,,,,,,CLR,,,,,,,,VFR,,,,,,,,,,,,METAR,423
KRME 050353Z AUTO 00000KT 10SM OVC065 08/05 A3009 RMK AO2 SLP189 T00830050,KRME,2023-11-05T03:53:00Z,43.2242,-75.3956,8.3,5,0,0,,10+,30.09,1018.9,,TRUE,TRUE,,,,,,,OVC,6500,,,,,,,VFR,,,,,,,,,,,,METAR,146
KRKP 050353Z AUTO 00000KT 7SM CLR 19/00 A3012 RMK AO2 SLP200 T01940000,KRKP,2023-11-05T03:53:00Z,28.0837,-97.0467,19.4,0,0,0,,7,30.12,1020,,TRUE,TRUE,,,,,,,CLR,,,,,,,,VFR,,,,,,,,,,,,METAR,8
KRIW 050353Z AUTO 31003KT 10SM CLR 07/M04 A3004 RMK AO2 SLP160 T00671039,KRIW,2023-11-05T03:53:00Z,43.0622,-108.447,6.7,-3.9,310,3,,10+,30.04,1016,,TRUE,TRUE,,,,,,,CLR,,,,,,,,VFR,,,,,,,,,,,,METAR,1662
KRIL 050353Z AUTO 00000KT 10SM CLR 06/M02 A3025 RMK AO2 SLP237 T00611022,KRIL,2023-11-05T03:53:00Z,39.5279,-107.72,6.1,-2.2,0,0,,10+,30.25,1023.7,,TRUE,TRUE,,,,,,,CLR,,,,,,,,VFR,,,,,,,,,,,,METAR,1683
KRDD 050353Z 36005KT 10SM FEW110 18/09 A2995 RMK AO2 SLP139 T01780094,KRDD,2023-11-05T03:53:00Z,40.5146,-122.298,17.8,9.4,360,5,,10+,29.95,1013.9,,,TRUE,,,,,,,FEW,11000,,,,,,,VFR,,,,,,,,,,,,METAR,152
KRBD 050353Z AUTO 08003KT 10SM CLR 16/13 A3013 RMK AO2 SLP199 T01560128,KRBD,2023-11-05T03:53:00Z,32.6782,-96.8677,15.6,12.8,80,3,,10+,30.13,1019.9,,TRUE,TRUE,,,,,,,CLR,,,,,,,,VFR,,,,,,,,,,,,METAR,200
KRAL 050353Z AUTO 10003KT 10SM CLR 19/05 A3001 RMK AO2 SLP151 T01890050 $,KRAL,2023-11-05T03:53:00Z,33.9528,-117.435,18.9,5,100,3,,10+,30.01,1015.1,,TRUE,TRUE,TRUE,,,,,,CLR,,,,,,,,VFR,,,,,,,,,,,,METAR,254
KRAC 050353Z AUTO 00000KT 4SM BR CLR 02/01 A3018 RMK AO2 SLP222 T00220011,KRAC,2023-11-05T03:53:00Z,42.7586,-87.8178,2.2,1.1,0,0,,4,30.18,1022.2,,TRUE,TRUE,,,,,,BR,CLR,,,,,,,,MVFR,,,,,,,,,,,,METAR,203
KPWA 050353Z AUTO 20005KT 10SM SCT047 BKN060 17/14 A3012 RMK AO2 SLP193 T01670139,KPWA,2023-11-05T03:53:00Z,35.5411,-97.6472,16.7,13.9,200,5,,10+,30.12,1019.3,,TRUE,TRUE,,,,,,,SCT,4700,BKN,6000,,,,,VFR,,,,,,,,,,,,METAR,390
KPUW 050353Z AUTO 20007KT 10SM -RA FEW055 BKN095 OVC110 10/08 A2985 RMK AO2 RAB0259E13B44 SLP112 P0000 T01000083,KPUW,2023-11-05T03:53:00Z,46.7438,-117.116,10,8.3,200,7,,10+,29.85,1011.2,,TRUE,TRUE,,,,,,-RA,FEW,5500,BKN,9500,OVC,11000,,,VFR,,,,,,0.005,,,,,,METAR,774
KPUC 050353Z AUTO 02008KT 10SM CLR 08/M08 A3022 RMK AO2 SLP223 T00831078,KPUC,2023-11-05T03:53:00Z,39.6089,-110.755,8.3,-7.8,20,8,,10+,30.22,1022.3,,TRUE,TRUE,,,,,,,CLR,,,,,,,,VFR,,,,,,,,,,,,METAR,1777
KPUB 050353Z 06007KT 10SM CLR 07/M03 A3017 RMK AO2 SLP200 T00721033,KPUB,2023-11-05T03:53:00Z,38.2887,-104.506,7.2,-3.3,60,7,,10+,30.17,1020,,,TRUE,,,,,,,CLR,,,,,,,,VFR,,,,,,,,,,,,METAR,1441
KPSX 050353Z AUTO 10008KT 10SM CLR 20/19 A3013 RMK AO2 SLP201 T02000194,KPSX,2023-11-05T03:53:00Z,28.7248,-96.2535,20,19.4,100,8,,10+,30.13,1020.1,,TRUE,TRUE,,,,,,,CLR,,,,,,,,VFR,,,,,,,,,,,,METAR,4
KPSP 050353Z 33007KT 10SM CLR 22/M04 A2998 RMK AO2 SLP151 T02171039 $,KPSP,2023-11-05T03:53:00Z,33.8222,-116.504,21.7,-3.9,330,7,,10+,29.98,1015.1,,,TRUE,TRUE,,,,,,CLR,,,,,,,,VFR,,,,,,,,,,,,METAR,123
KPSC 050353Z 19008KT 10SM OVC090 14/11 A2980 RMK AO2 RAE14 SLP090 P0001 T01440111,KPSC,2023-11-05T03:53:00Z,46.2695,-119.118,14.4,11.1,190,8,,10+,29.80,1009,,,TRUE,,,,,,,OVC,9000,,,,,,,VFR,,,,,,0.01,,,,,,METAR,121
KPRC 050353Z 19008KT 10SM FU CLR 12/M09 A3021 RMK AO2 SLP181 T01221089,KPRC,2023-11-05T03:53:00Z,34.6491,-112.422,12.2,-8.9,190,8,,10+,30.21,1018.1,,,TRUE,,,,,,FU,CLR,,,,,,,,VFR,,,,,,,,,,,,METAR,1528
KPRB 050353Z AUTO 31009KT 10SM CLR 19/09 A3004 RMK AO2 SLP169 T01890089,KPRB,2023-11-05T03:53:00Z,35.6693,-120.629,18.9,8.9,310,9,,10+,30.04,1016.9,,TRUE,TRUE,,,,,,,CLR,,,,,,,,VFR,,,,,,,,,,,,METAR,249
KPOU 050353Z AUTO 00000KT 10SM OVC095 07/05 A3009 RMK AO2 SLP185 T00720050,KPOU,2023-11-05T03:53:00Z,41.6257,-73.8816,7.2,5,0,0,,10+,30.09,1018.5,,TRUE,TRUE,,,,,,,OVC,9500,,,,,,,VFR,,,,,,,,,,,,METAR,45
KPOF 050353Z AUTO 34003KT 10SM CLR 12/10 A3016 RMK AO2 SLP215 T01170100,KPOF,2023-11-05T03:53:00Z,36.7697,-90.3224,11.7,10,340,3,,10+,30.16,1021.5,,TRUE,TRUE,,,,,,,CLR,,,,,,,,VFR,,,,,,,,,,,,METAR,99
KPNS 050353Z AUTO 34004KT 10SM CLR 18/11 A3016 RMK AO2 SLP215 T01780106,KPNS,2023-11-05T03:53:00Z,30.478,-87.1869,17.8,10.6,340,4,,10+,30.16,1021.5,,TRUE,TRUE,,,,,,,CLR,,,,,,,,VFR,,,,,,,,,,,,METAR,34
KPNC 050353Z AUTO 08010KT 10SM CLR 14/09 A3015 RMK AO2 SLP203 T01440094,KPNC,2023-11-05T03:53:00Z,36.7369,-97.1024,14.4,9.4,80,10,,10+,30.15,1020.3,,TRUE,TRUE,,,,,,,CLR,,,,,,,,VFR,,,,,,,,,,,,METAR,304
KPMD 050353Z 23004KT 10SM CLR 14/M03 A3008 RMK AO2 SLP175 T01441028,KPMD,2023-11-05T03:53:00Z,34.6295,-118.083,14.4,-2.8,230,4,,10+,30.08,1017.5,,,TRUE,,,,,,,CLR,,,,,,,,VFR,,,,,,,,,,,,METAR,764
KPKD 050353Z AUTO 08003KT 10SM BKN033 00/M03 A3009 RMK AO2 SLP211 T00001033,KPKD,2023-11-05T03:53:00Z,46.8971,-95.0695,0,-3.3,80,3,,10+,30.09,1021.1,,TRUE,TRUE,,,,,,,BKN,3300,,,,,,,VFR,,,,,,,,,,,,METAR,439
KPKB 050353Z AUTO 19005KT 10SM CLR 13/01 A3010 RMK AO2 SLP190 T01280006,KPKB,2023-11-05T03:53:00Z,39.3395,-81.4438,12.8,0.6,190,5,,10+,30.10,1019,,TRUE,TRUE,,,,,,,CLR,,,,,,,,VFR,,,,,,,,,,,,METAR,245
KPIR 050353Z AUTO 12003KT 10SM CLR 04/03 A3000 RMK AO2 SLP169 T00390028,KPIR,2023-11-05T03:53:00Z,44.3819,-100.286,3.9,2.8,120,3,,10+,30.00,1016.9,,TRUE,TRUE,,,,,,,CLR,,,,,,,,VFR,,,,,,,,,,,,METAR,524
KPIL 050353Z AUTO 13004KT 10SM CLR 20/18 A3011 RMK AO2 SLP197 T02000178,KPIL,2023-11-05T03:53:00Z,26.1597,-97.3378,20,17.8,130,4,,10+,30.11,1019.7,,TRUE,TRUE,,,,,,,CLR,,,,,,,,VFR,,,,,,,,,,,,METAR,5
KPIH 050353Z AUTO 35004KT 10SM OVC100 12/03 A3001 RMK AO2 SLP161 T01170028,KPIH,2023-11-05T03:53:00Z,42.9197,-112.572,11.7,2.8,350,4,,10+,30.01,1016.1,,TRUE,TRUE,,,,,,,OVC,10000,,,,,,,VFR,,,,,,,,,,,,METAR,1357
KPIE 050353Z AUTO 02005KT 10SM FEW075 20/06 A3010 RMK AO2 SLP191 T02000056,KPIE,2023-11-05T03:53:00Z,27.9126,-82.6855,20,5.6,20,5,,10+,30.10,1019.1,,TRUE,TRUE,,,,,,,FEW,7500,,,,,,,VFR,,,,,,,,,,,,METAR,1
KPHD 050353Z AUTO 00000KT 10SM CLR 06/03 A3008 RMK AO2 SLP190 T00610028,KPHD,2023-11-05T03:53:00Z,40.4703,-81.4218,6.1,2.8,0,0,,10+,30.08,1019,,TRUE,TRUE,,,,,,,CLR,,,,,,,,VFR,,,,,,,,,,,,METAR,272
KPGD 050353Z 01006KT 10SM CLR 19/16 A3007 RMK AO2 SLP181 T01940156,KPGD,2023-11-05T03:53:00Z,26.9185,-81.9939,19.4,15.6,10,6,,10+,30.07,1018.1,,,TRUE,,,,,,,CLR,,,,,,,,VFR,,,,,,,,,,,,METAR,7
KPGA 050353Z AUTO 00000KT 10SM CLR 14/M07 A3016 RMK AO2 SLP180 T01391067,KPGA,2023-11-05T03:53:00Z,36.9211,-111.449,13.9,-6.7,0,0,,10+,30.16,1018,,TRUE,TRUE,,,,,,,CLR,,,,,,,,VFR,,,,,,,,,,,,METAR,1310
KPEO 050353Z AUTO 00000KT 9SM OVC040 08/04 A3009 RMK AO2 RAB30E41 SLP194 P0000 T00780044,KPEO,2023-11-05T03:53:00Z,42.6441,-77.0528,7.8,4.4,0,0,,9,30.09,1019.4,,TRUE,TRUE,,,,,,,OVC,4000,,,,,,,VFR,,,,,,0.005,,,,,,METAR,268
KPDX 050353Z 21005KT 10SM BKN055 13/11 A2988 RMK AO2 SLP118 T01280106,KPDX,2023-11-05T03:53:00Z,45.5958,-122.609,12.8,10.6,210,5,,10+,29.88,1011.8,,,TRUE,,,,,,,BKN,5500,,,,,,,VFR,,,,,,,,,,,,METAR,7
KPDK 050353Z 00000KT 10SM CLR 07/04 A3017 RMK AO2 SLP217 T00720044 $,KPDK,2023-11-05T03:53:00Z,33.8783,-84.298,7.2,4.4,0,0,,10+,30.17,1021.7,,,TRUE,TRUE,,,,,,CLR,,,,,,,,VFR,,,,,,,,,,,,METAR,299
KPBI 050353Z 03006KT 10SM FEW025 SCT250 24/22 A3001 RMK AO2 SLP160 T02390217 $,KPBI,2023-11-05T03:53:00Z,26.6851,-80.0992,23.9,21.7,30,6,,10+,30.01,1016,,,TRUE,TRUE,,,,,,FEW,2500,SCT,25000,,,,,VFR,,,,,,,,,,,,METAR,4
KPBG 050353Z AUTO 32003KT 10SM OVC065 07/05 A3007 RMK AO2 SLP184 T00720050,KPBG,2023-11-05T03:53:00Z,44.6392,-73.4631,7.2,5,320,3,,10+,30.07,1018.4,,TRUE,TRUE,,,,,,,OVC,6500,,,,,,,VFR,,,,,,,,,,,,METAR,61
KPBF 050353Z AUTO 00000KT 10SM CLR 13/09 A3017 RMK AO2 SLP217 T01330094,KPBF,2023-11-05T03:53:00Z,34.1798,-91.9344,13.3,9.4,0,0,,10+,30.17,1021.7,,TRUE,TRUE,,,,,,,CLR,,,,,,,,VFR,,,,,,,,,,,,METAR,63
KPAH 050353Z 00000KT 10SM CLR 11/09 A3016 RMK AO2 SLP212 T01110089 $,KPAH,2023-11-05T03:53:00Z,37.0652,-88.7793,11.1,8.9,0,0,,10+,30.16,1021.2,,,TRUE,TRUE,,,,,,CLR,,,,,,,,VFR,,,,,,,,,,,,METAR,125
KPAE 050353Z AUTO 18016G25KT 10SM SCT090 BKN100 13/09 A2980 RMK AO2 PK WND 17029/0329 SLP090 T01280094,KPAE,2023-11-05T03:53:00Z,47.9232,-122.283,12.8,9.4,180,16,25,10+,29.80,1009,,TRUE,TRUE,,,,,,,SCT,9000,BKN,10000,,,,,VFR,,,,,,,,,,,,METAR,166
KP68 050353Z AUTO 14009KT 09/M08 A3013 RMK AO1 SLP168 T00891078,KP68,2023-11-05T03:53:00Z,39.602,-116.006,8.9,-7.8,140,9,,,30.13,1016.8,,TRUE,TRUE,,,,,,,,,,,,,,,VFR,,,,,,,,,,,,METAR,1813
KOXB 050353Z AUTO 00000KT 10SM CLR 10/08 A3011 RMK AO2 SLP196 T01000083,KOXB,2023-11-05T03:53:00Z,38.3091,-75.1234,10,8.3,0,0,,10+,30.11,1019.6,,TRUE,TRUE,,,,,,,CLR,,,,,,,,VFR,,,,,,,,,,,,METAR,2
KOWD 050353Z AUTO 00000KT 10SM FEW120 07/04 A3008 RMK AO2 SLP187 T00720044,KOWD,2023-11-05T03:53:00Z,42.1912,-71.1732,7.2,4.4,0,0,,10+,30.08,1018.7,,TRUE,TRUE,,,,,,,FEW,12000,,,,,,,VFR,,,,,,,,,,,,METAR,14
KOVS 050353Z AUTO 00000KT 10SM CLR 00/M02 A3018 RMK AO2 SLP225 T00001017,KOVS,2023-11-05T03:53:00Z,43.1561,-90.6775,0,-1.7,0,0,,10+,30.18,1022.5,,TRUE,TRUE,,,,,,,CLR,,,,,,,,VFR,,,,,,,,,,,,METAR,205
KOVE 050353Z AUTO 17007KT 10SM CLR 22/09 A2999 RMK AO2 SLP156 T02220089,KOVE,2023-11-05T03:53:00Z,39.4943,-121.622,22.2,8.9,170,7,,10+,29.99,1015.6,,TRUE,TRUE,,,,,,,CLR,,,,,,,,VFR,,,,,,,,,,,,METAR,56
KOTM 050353Z AUTO 21004KT 6SM BR CLR 02/01 A3018 RMK AO2 SLP225 T00220006,KOTM,2023-11-05T03:53:00Z,41.1008,-92.4445,2.2,0.6,210,4,,6,30.18,1022.5,,TRUE,TRUE,,,,,,BR,CLR,,,,,,,,VFR,,,,,,,,,,,,METAR,254
KOSU 050353Z AUTO 27003KT 10SM CLR 09/04 A3010 RMK AO2 SLP192 T00940039,KOSU,2023-11-05T03:53:00Z,40.0784,-83.0782,9.4,3.9,270,3,,10+,30.10,1019.2,,TRUE,TRUE,,,,,,,CLR,,,,,,,,VFR,,,,,,,,,,,,METAR,276
KOSH 050353Z AUTO 00000KT 10SM CLR M01/M02 A3014 RMK AO2 SLP219 T10061022,KOSH,2023-11-05T03:53:00Z,43.9669,-88.5582,-0.6,-2.2,0,0,,10+,30.14,1021.9,,TRUE,TRUE,,,,,,,CLR,,,,,,,,VFR,,,,,,,,,,,,METAR,239
KORL 050353Z AUTO 35008KT 10SM CLR 19/08 A3008 RMK AO2 SLP189 T01890083,KORL,2023-11-05T03:53:00Z,28.5465,-81.3354,18.9,8.3,350,8,,10+,30.08,1018.9,,TRUE,TRUE,,,,,,,CLR,,,,,,,,VFR,,,,,,,,,,,,METAR,32
KOQT 050353Z AUTO 00000KT 10SM CLR 09/02 A3019 RMK AO2 SLP227 T00890022,KOQT,2023-11-05T03:53:00Z,36.023,-84.2336,8.9,2.2,0,0,,10+,30.19,1022.7,,TRUE,TRUE,,,,,,,CLR,,,,,,,,VFR,,,,,,,,,,,,METAR,276
KOPF 050353Z AUTO 34007KT 10SM CLR 23/21 A3000 RMK AO2 SLP160 T02280206 $,KOPF,2023-11-05T03:53:00Z,25.9102,-80.2828,22.8,20.6,340,7,,10+,30.00,1016,,TRUE,TRUE,TRUE,,,,,,CLR,,,,,,,,VFR,,,,,,,,,,,,METAR,1
KONT 050353Z 00000KT 10SM FEW250 20/09 A3001 RMK AO2 SLP153 T02000094,KONT,2023-11-05T03:53:00Z,34.0531,-117.577,20,9.4,0,0,,10+,30.01,1015.3,,,TRUE,,,,,,,FEW,25000,,,,,,,VFR,,,,,,,,,,,,METAR,279
KONO 050353Z AUTO 00000KT 5SM -RA BR FEW055 BKN075 OVC090 09/08 A2995 RMK AO2 RAB38 SLP147 P0000 T00940083,KONO,2023-11-05T03:53:00Z,44.0143,-117.008,9.4,8.3,0,0,,5,29.95,1014.7,,TRUE,TRUE,,,,,,-RA BR,FEW,5500,BKN,7500,OVC,9000,,,MVFR,,,,,,0.005,,,,,,METAR,668
KOMK 050353Z AUTO 20008KT 10SM OVC019 09/07 A2977 RMK AO2 SLP088 T00890067,KOMK,2023-11-05T03:53:00Z,48.4611,-119.521,8.9,6.7,200,8,,10+,29.77,1008.8,,TRUE,TRUE,,,,,,,OVC,1900,,,,,,,MVFR,,,,,,,,,,,,METAR,395
KOLF 050353Z AUTO 07006KT 10SM BKN065 OVC085 02/01 A2984 RMK AO2 SLP130 T00170006,KOLF,2023-11-05T03:53:00Z,48.0942,-105.578,1.7,0.6,70,6,,10+,29.84,1013,,TRUE,TRUE,,,,,,,BKN,6500,OVC,8500,,,,,VFR,,,,,,,,,,,,METAR,605
KOJC 050353Z AUTO 08003KT 10SM CLR 08/04 A3021 RMK AO2 SLP229 T00780044,KOJC,2023-11-05T03:53:00Z,38.85,-94.7395,7.8,4.4,80,3,,10+,30.21,1022.9,,TRUE,TRUE,,,,,,,CLR,,,,,,,,VFR,,,,,,,,,,,,METAR,328
KOGD 050353Z AUTO 17007KT 10SM CLR 12/03 A3006 RMK AO2 SLP153 T01220028,KOGD,2023-11-05T03:53:00Z,41.1941,-112.017,12.2,2.8,170,7,,10+,30.06,1015.3,,TRUE,TRUE,,,,,,,CLR,,,,,,,,VFR,,,,,,,,,,,,METAR,1356
KOGB 050353Z AUTO 00000KT 10SM CLR 08/03 A3013 RMK AO2 SLP203 T00830028,KOGB,2023-11-05T03:53:00Z,33.4637,-80.8534,8.3,2.8,0,0,,10+,30.13,1020.3,,TRUE,TRUE,,,,,,,CLR,,,,,,,,VFR,,,,,,,,,,,,METAR,59
KODO 050353Z AUTO 20006KT 10SM CLR 17/11 A3013 RMK AO2 SLP174 T01670111,KODO,2023-11-05T03:53:00Z,31.925,-102.387,16.7,11.1,200,6,,10+,30.13,1017.4,,TRUE,TRUE,,,,,,,CLR,,,,,,,,VFR,,,,,,,,,,,,METAR,912
KOAK 050353Z 30006KT 10SM SCT014 BKN200 15/13 A3007 RMK AO2 SLP181 T01500133 $,KOAK,2023-11-05T03:53:00Z,37.7178,-122.233,15,13.3,300,6,,10+,30.07,1018.1,,,TRUE,TRUE,,,,,,SCT,1400,BKN,20000,,,,,VFR,,,,,,,,,,,,METAR,3
KNUW 050353Z 00000KT 10SM OVC029 13/11 A2978 RMK AO2 SLP088 T01280106 $,KNUW,2023-11-05T03:53:00Z,48.355,-122.664,12.8,10.6,0,0,,10+,29.78,1008.8,,,TRUE,TRUE,,,,,,OVC,2900,,,,,,,MVFR,,,,,,,,,,,,METAR,14
KNUI 050353Z AUTO 00000KT 10SM CLR 08/08 A3010 RMK AO2 SLP192 T00830078 $,KNUI,2023-11-05T03:53:00Z,38.152,-76.432,8.3,7.8,0,0,,10+,30.10,1019.2,,TRUE,TRUE,TRUE,,,,,,CLR,,,,,,,,VFR,,,,,,,,,,,,METAR,4
KNSI 050353Z AUTO 31012KT 10SM CLR 16/12 A3002 RMK AO2 SLP159 T01610122 $,KNSI,2023-11-05T03:53:00Z,33.2337,-119.456,16.1,12.2,310,12,,10+,30.02,1015.9,,TRUE,TRUE,TRUE,,,,,,CLR,,,,,,,,VFR,,,,,,,,,,,,METAR,161
KNRS 050353Z AUTO 8SM CLR 11/08 A3000 RMK AO2 SLP157 T01110083 $,KNRS,2023-11-05T03:53:00Z,32.563,-117.111,11.1,8.3,,,,8,30.00,1015.7,,TRUE,TRUE,TRUE,,,,,,CLR,,,,,,,,VFR,,,,,,,,,,,,METAR,15
KNQX 050353Z AUTO 03011KT 10SM SCT050 26/21 A3000 RMK AO2 SLP157 T02560206 $,KNQX,2023-11-05T03:53:00Z,24.5801,-81.6829,25.6,20.6,30,11,,10+,30.00,1015.7,,TRUE,TRUE,TRUE,,,,,,SCT,5000,,,,,,,VFR,,,,,,,,,,,,METAR,2
KNIP 050353Z AUTO 36011KT 10SM CLR 19/08 A3011 RMK AO2 SLP192 T01890078 $,KNIP,2023-11-05T03:53:00Z,30.2346,-81.6746,18.9,7.8,360,11,,10+,30.11,1019.2,,TRUE,TRUE,TRUE,,,,,,CLR,,,,,,,,VFR,,,,,,,,,,,,METAR,3
KNFG 050353Z AUTO 06003KT 10SM 13/10 A3000 RMK AO2 SLP158 T01330100 $,KNFG,2023-11-05T03:53:00Z,33.304,-117.355,13.3,10,60,3,,10+,30.00,1015.8,,TRUE,TRUE,TRUE,,,,,,,,,,,,,,VFR,,,,,,,,,,,,METAR,21
KNEW 050353Z AUTO 16005KT 10SM CLR 18/14 A3018 RMK AO2 SLP212 T01780144,KNEW,2023-11-05T03:53:00Z,30.0494,-90.029,17.8,14.4,160,5,,10+,30.18,1021.2,,TRUE,TRUE,,,,,,,CLR,,,,,,,,VFR,,,,,,,,,,,,METAR,1
KMYV 050353Z AUTO 16007KT 10SM CLR 21/13 A2999 RMK AO2 SLP158 T02110128,KMYV,2023-11-05T03:53:00Z,39.102,-121.569,21.1,12.8,160,7,,10+,29.99,1015.8,,TRUE,TRUE,,,,,,,CLR,,,,,,,,VFR,,,,,,,,,,,,METAR,18
KMYF 050353Z 00000KT 10SM CLR 16/05 A3000 RMK AO2 SLP155 T01610050 $,KMYF,2023-11-05T03:53:00Z,32.8145,-117.137,16.1,5,0,0,,10+,30.00,1015.5,,,TRUE,TRUE,,,,,,CLR,,,,,,,,VFR,,,,,,,,,,,,METAR,128
KMWT 050353Z AUTO 00000KT 10SM CLR 11/09 A3015 RMK AO2 SLP210 T01060089,KMWT,2023-11-05T03:53:00Z,34.5466,-93.5779,10.6,8.9,0,0,,10+,30.15,1021,,TRUE,TRUE,,,,,,,CLR,,,,,,,,VFR,,,,,,,,,,,,METAR,220
KMWL 050353Z AUTO 13009KT 10SM CLR 17/14 A3010 RMK AO2 SLP183 T01670144,KMWL,2023-11-05T03:53:00Z,32.7816,-98.0602,16.7,14.4,130,9,,10+,30.10,1018.3,,TRUE,TRUE,,,,,,,CLR,,,,,,,,VFR,,,,,,,,,,,,METAR,288
KMVY 050353Z AUTO 00000KT 10SM CLR 08/05 A3008 RMK AO2 SLP187 T00780050,KMVY,2023-11-05T03:53:00Z,41.393,-70.6159,7.8,5,0,0,,10+,30.08,1018.7,,TRUE,TRUE,,,,,,,CLR,,,,,,,,VFR,,,,,,,,,,,,METAR,18
KMTO 050353Z AUTO 30003KT 10SM CLR 08/03 A3018 RMK AO2 SLP222 T00830033,KMTO,2023-11-05T03:53:00Z,39.4744,-88.2724,8.3,3.3,300,3,,10+,30.18,1022.2,,TRUE,TRUE,,,,,,,CLR,,,,,,,,VFR,,,,,,,,,,,,METAR,216
KMTJ 050353Z AUTO 14008KT 10SM CLR 06/M02 A3027 RMK AO2 SLP229 T00561022,KMTJ,2023-11-05T03:53:00Z,38.5054,-107.898,5.6,-2.2,140,8,,10+,30.27,1022.9,,TRUE,TRUE,,,,,,,CLR,,,,,,,,VFR,,,,,,,,,,,,METAR,1755
KMTH 050353Z AUTO 02008KT 10SM OVC055 24/21 A2999 RMK AO2 SLP154 T02440211,KMTH,2023-11-05T03:53:00Z,24.7262,-81.0477,24.4,21.1,20,8,,10+,29.99,1015.4,,TRUE,TRUE,,,,,,,OVC,5500,,,,,,,VFR,,,,,,,,,,,,METAR,1
KMSY 050353Z 15003KT 10SM CLR 17/14 A3017 RMK AO2 SLP220 T01670139,KMSY,2023-11-05T03:53:00Z,29.9974,-90.2777,16.7,13.9,150,3,,10+,30.17,1022,,,TRUE,,,,,,,CLR,,,,,,,,VFR,,,,,,,,,,,,METAR,
KMSS 050353Z AUTO 00000KT 10SM OVC060 04/02 A3008 RMK AO2 SLP190 T00390022,KMSS,2023-11-05T03:53:00Z,44.9334,-74.8484,3.9,2.2,0,0,,10+,30.08,1019,,TRUE,TRUE,,,,,,,OVC,6000,,,,,,,VFR,,,,,,,,,,,,METAR,60
KMSP 050353Z 15004KT 9SM BKN050 08/01 A3010 RMK AO2 SLP197 T00780011,KMSP,2023-11-05T03:53:00Z,44.8852,-93.2313,7.8,1.1,150,4,,9,30.10,1019.7,,,TRUE,,,,,,,BKN,5000,,,,,,,VFR,,,,,,,,,,,,METAR,255
KMSO 050353Z 00000KT 8SM OVC055 05/04 A2988 RMK AO2 SLP136 T00500039,KMSO,2023-11-05T03:53:00Z,46.9208,-114.094,5,3.9,0,0,,8,29.88,1013.6,,,TRUE,,,,,,,OVC,5500,,,,,,,VFR,,,,,,,,,,,,METAR,974
KMSN 050353Z 00000KT 9SM CLR 00/M02 A3016 RMK AO2 SLP222 LAST T00001017,KMSN,2023-11-05T03:53:00Z,43.1407,-89.3452,0,-1.7,0,0,,9,30.16,1022.2,,,TRUE,,,,,,,CLR,,,,,,,,VFR,,,,,,,,,,,,METAR,262
KMSL 050353Z AUTO 00000KT 10SM CLR 09/03 A3017 RMK AO2 SLP215 T00890028 $,KMSL,2023-11-05T03:53:00Z,34.7439,-87.5997,8.9,2.8,0,0,,10+,30.17,1021.5,,TRUE,TRUE,TRUE,,,,,,CLR,,,,,,,,VFR,,,,,,,,,,,,METAR,170
KMRB 050353Z AUTO 00000KT 10SM OVC110 04/M01 A3009 RMK AO2 SLP190 T00391006,KMRB,2023-11-05T03:53:00Z,39.4037,-77.975,3.9,-0.6,0,0,,10+,30.09,1019,,TRUE,TRUE,,,,,,,OVC,11000,,,,,,,VFR,,,,,,,,,,,,METAR,165
KMPO 050353Z AUTO 26003KT 10SM OVC070 08/M01 A3008 RMK AO2 RAE0259 SLP192 P0000 T00831006,KMPO,2023-11-05T03:53:00Z,41.1368,-75.3771,8.3,-0.6,260,3,,10+,30.08,1019.2,,TRUE,TRUE,,,,,,,OVC,7000,,,,,,,VFR,,,,,,0.005,,,,,,METAR,576
KMOD 050353Z 32003KT 5SM HZ CLR 19/09 A3000 RMK AO2 SLP159 T01890094,KMOD,2023-11-05T03:53:00Z,37.6254,-120.955,18.9,9.4,320,3,,5,30.00,1015.9,,,TRUE,,,,,,HZ,CLR,,,,,,,,MVFR,,,,,,,,,,,,METAR,25
KMNN 050353Z AUTO 28004KT 9SM CLR 10/03 A3009 RMK AO2 SLP193 T01000028,KMNN,2023-11-05T03:53:00Z,40.6158,-83.0673,10,2.8,280,4,,9,30.09,1019.3,,TRUE,TRUE,,,,,,,CLR,,,,,,,,VFR,,,,,,,,,,,,METAR,301
KMMV 050353Z AUTO 22005KT 10SM BKN055 12/12 A2988 RMK AO2 SLP118 T01170117 $,KMMV,2023-11-05T03:53:00Z,45.1957,-123.134,11.7,11.7,220,5,,10+,29.88,1011.8,,TRUE,TRUE,TRUE,,,,,,BKN,5500,,,,,,,VFR,,,,,,,,,,,,METAR,48
KMMK 050353Z AUTO 00000KT 10SM CLR 07/04 A3009 RMK AO2 SLP189 T00720044,KMMK,2023-11-05T03:53:00Z,41.5097,-72.8278,7.2,4.4,0,0,,10+,30.09,1018.9,,TRUE,TRUE,,,,,,,CLR,,,,,,,,VFR,,,,,,,,,,,,METAR,30
KMLU 050353Z AUTO 00000KT 10SM CLR 12/09 A3017 RMK AO2 SLP216 T01220089,KMLU,2023-11-05T03:53:00Z,32.5155,-92.03,12.2,8.9,0,0,,10+,30.17,1021.6,,TRUE,TRUE,,,,,,,CLR,,,,,,,,VFR,,,,,,,,,,,,METAR,22
KMLT 050353Z AUTO 00000KT 10SM CLR 01/01 A3007 RMK AO2 SLP188 T00110006,KMLT,2023-11-05T03:53:00Z,45.6478,-68.6925,1.1,0.6,0,0,,10+,30.07,1018.8,,TRUE,TRUE,,,,,,,CLR,,,,,,,,VFR,,,,,,,,,,,,METAR,121
KMLS 050353Z AUTO 16008KT 10SM FEW055 OVC070 09/05 A2986 RMK AO2 RAB21E47 SLP120 P0000 T00940050,KMLS,2023-11-05T03:53:00Z,46.4265,-105.883,9.4,5,160,8,,10+,29.86,1012,,TRUE,TRUE,,,,,,,FEW,5500,OVC,7000,,,,,VFR,,,,,,0.005,,,,,,METAR,800
KMLC 050353Z AUTO 00000KT 10SM CLR 14/12 A3016 RMK AO2 SLP206 T01390117,KMLC,2023-11-05T03:53:00Z,34.8824,-95.7815,13.9,11.7,0,0,,10+,30.16,1020.6,,TRUE,TRUE,,,,,,,CLR,,,,,,,,VFR,,,,,,,,,,,,METAR,231
KMLB 050353Z AUTO 34012KT 10SM CLR 21/18 A3004 RMK AO2 SLP171 T02060178,KMLB,2023-11-05T03:53:00Z,28.0997,-80.6356,20.6,17.8,340,12,,10+,30.04,1017.1,,TRUE,TRUE,,,,,,,CLR,,,,,,,,VFR,,,,,,,,,,,,METAR,7
KMKO 050353Z AUTO 15004KT 10SM BKN055 14/12 A3018 RMK AO2 SLP217 T01440122,KMKO,2023-11-05T03:53:00Z,35.6576,-95.3658,14.4,12.2,150,4,,10+,30.18,1021.7,,TRUE,TRUE,,,,,,,BKN,5500,,,,,,,VFR,,,,,,,,,,,,METAR,184
KMKL 050353Z AUTO 00000KT 10SM CLR 07/06 A3017 RMK AO2 SLP216 T00670056,KMKL,2023-11-05T03:53:00Z,35.5933,-88.917,6.7,5.6,0,0,,10+,30.17,1021.6,,TRUE,TRUE,,,,,,,CLR,,,,,,,,VFR,,,,,,,,,,,,METAR,130
KMIW 050353Z AUTO 19003KT 10SM CLR 04/M01 A3017 RMK AO2 SLP221 T00441006,KMIW,2023-11-05T03:53:00Z,42.1106,-92.9163,4.4,-0.6,190,3,,10+,30.17,1022.1,,TRUE,TRUE,,,,,,,CLR,,,,,,,,VFR,,,,,,,,,,,,METAR,296
KMIE 050353Z AUTO 29003KT 10SM CLR 08/04 A3016 RMK AO2 SLP209 T00830044,KMIE,2023-11-05T03:53:00Z,40.2345,-85.3936,8.3,4.4,290,3,,10+,30.16,1020.9,,TRUE,TRUE,,,,,,,CLR,,,,,,,,VFR,,,,,,,,,,,,METAR,286
KMIC 050353Z 16006KT 9SM BKN055 07/01 A3008 RMK AO2 SLP193 T00720011,KMIC,2023-11-05T03:53:00Z,45.0623,-93.3511,7.2,1.1,160,6,,9,30.08,1019.3,,,TRUE,,,,,,,BKN,5500,,,,,,,VFR,,,,,,,,,,,,METAR,263
KMIA 050353Z 34005KT 10SM FEW070 SCT200 24/21 A3000 RMK AO2 SLP159 T02440206 $,KMIA,2023-11-05T03:53:00Z,25.7881,-80.3169,24.4,20.6,340,5,,10+,30.00,1015.9,,,TRUE,TRUE,,,,,,FEW,7000,SCT,20000,,,,,VFR,,,,,,,,,,,,METAR,1
KMHT 050353Z 00000KT 10SM OVC150 08/04 A3006 RMK AO2 SLP195 T00780044,KMHT,2023-11-05T03:53:00Z,42.9245,-71.4377,7.8,4.4,0,0,,10+,30.06,1019.5,,,TRUE,,,,,,,OVC,15000,,,,,,,VFR,,,,,,,,,,,,METAR,68
KMHE 050353Z AUTO 00000KT 10SM CLR 04/03 A3006 RMK AO2 SLP189 T00390028,KMHE,2023-11-05T03:53:00Z,43.7743,-98.0384,3.9,2.8,0,0,,10+,30.06,1018.9,,TRUE,TRUE,,,,,,,CLR,,,,,,,,VFR,,,,,,,,,,,,METAR,397
KMGY 050353Z AUTO 00000KT 10SM CLR 11/03 A3012 RMK AO2 SLP199 T01060033,KMGY,2023-11-05T03:53:00Z,39.5918,-84.2263,10.6,3.3,0,0,,10+,30.12,1019.9,,TRUE,TRUE,,,,,,,CLR,,,,,,,,VFR,,,,,,,,,,,,METAR,290
KMGW 050353Z AUTO 20006KT 10SM OVC065 15/M02 A3011 RMK AO2 SLP194 T01501017,KMGW,2023-11-05T03:53:00Z,39.6498,-79.9206,15,-1.7,200,6,,10+,30.11,1019.4,,TRUE,TRUE,,,,,,,OVC,6500,,,,,,,VFR,,,,,,,,,,,,METAR,375
KMGM 050353Z 00000KT 10SM CLR 11/07 A3018 RMK AO2 SLP219 T01060072 $,KMGM,2023-11-05T03:53:00Z,32.2997,-86.4074,10.6,7.2,0,0,,10+,30.18,1021.9,,,TRUE,TRUE,,,,,,CLR,,,,,,,,VFR,,,,,,,,,,,,METAR,64
KMFR 050353Z AUTO 01004KT 8SM -RA OVC070 12/11 A2996 RMK AO2 RAE0259B19 SLP142 P0002 T01220111,KMFR,2023-11-05T03:53:00Z,42.375,-122.877,12.2,11.1,10,4,,8,29.96,1014.2,,TRUE,TRUE,,,,,,-RA,OVC,7000,,,,,,,VFR,,,,,,0.02,,,,,,METAR,397
KMFE 050353Z 12005KT 10SM CLR 19/14 A3012 RMK AO2 SLP196 T01890139,KMFE,2023-11-05T03:53:00Z,26.1791,-98.2445,18.9,13.9,120,5,,10+,30.12,1019.6,,,TRUE,,,,,,,CLR,,,,,,,,VFR,,,,,,,,,,,,METAR,29
KMDW 050353Z 00000KT 10SM CLR 07/04 A3018 RMK AO2 SLP221 T00670039 $,KMDW,2023-11-05T03:53:00Z,41.7841,-87.7551,6.7,3.9,0,0,,10+,30.18,1022.1,,,TRUE,TRUE,,,,,,CLR,,,,,,,,VFR,,,,,,,,,,,,METAR,186
KMCW 050353Z AUTO 19005KT 10SM FEW080 OVC095 06/02 A3015 RMK AO2 SLP211 T00610022 $,KMCW,2023-11-05T03:53:00Z,43.1543,-93.3262,6.1,2.2,190,5,,10+,30.15,1021.1,,TRUE,TRUE,TRUE,,,,,,FEW,8000,OVC,9500,,,,,VFR,,,,,,,,,,,,METAR,363
KMCO 050353Z 35009KT 10SM FEW050 18/11 A3008 RMK AO2 SLP186 T01780106 $,KMCO,2023-11-05T03:53:00Z,28.4182,-81.3241,17.8,10.6,350,9,,10+,30.08,1018.6,,,TRUE,TRUE,,,,,,FEW,5000,,,,,,,VFR,,,,,,,,,,,,METAR,27
KMCN 050353Z AUTO 00000KT 10SM CLR 07/06 A3016 RMK AO2 SLP212 T00670056,KMCN,2023-11-05T03:53:00Z,32.6889,-83.6529,6.7,5.6,0,0,,10+,30.16,1021.2,,TRUE,TRUE,,,,,,,CLR,,,,,,,,VFR,,,,,,,,,,,,METAR,104
KMCK 050353Z AUTO 17006KT 10SM CLR 09/03 A3013 RMK AO2 SLP205 T00940028,KMCK,2023-11-05T03:53:00Z,40.204,-100.59,9.4,2.8,170,6,,10+,30.13,1020.5,,TRUE,TRUE,,,,,,,CLR,,,,,,,,VFR,,,,,,,,,,,,METAR,780
KMCI 050353Z 00000KT 7SM FEW200 08/06 A3020 RMK AO2 SLP229 T00780056,KMCI,2023-11-05T03:53:00Z,39.2975,-94.7309,7.8,5.6,0,0,,7,30.20,1022.9,,,TRUE,,,,,,,FEW,20000,,,,,,,VFR,,,,,,,,,,,,METAR,308
KMCE 050353Z AUTO 00000KT 8SM CLR 18/09 A3000 RMK AO2 SLP159 T01780089,KMCE,2023-11-05T03:53:00Z,37.286,-120.518,17.8,8.9,0,0,,8,30.00,1015.9,,TRUE,TRUE,,,,,,,CLR,,,,,,,,VFR,,,,,,,,,,,,METAR,49
KMCB 050353Z AUTO 00000KT 10SM CLR 12/07 A3017 RMK AO2 SLP213 T01170067,KMCB,2023-11-05T03:53:00Z,31.1823,-90.4721,11.7,6.7,0,0,,10+,30.17,1021.3,,TRUE,TRUE,,,,,,,CLR,,,,,,,,VFR,,,,,,,,,,,,METAR,124
KMBS 050353Z AUTO 00000KT 7SM CLR 03/02 A3013 RMK AO2 SLP206 T00330017,KMBS,2023-11-05T03:53:00Z,43.5281,-84.0813,3.3,1.7,0,0,,7,30.13,1020.6,,TRUE,TRUE,,,,,,,CLR,,,,,,,,VFR,,,,,,,,,,,,METAR,201
KMAI 050353Z AUTO 00000KT 10SM CLR 11/08 A3015 RMK AO2 SLP209 T01060078 $,KMAI,2023-11-05T03:53:00Z,30.837,-85.1835,10.6,7.8,0,0,,10+,30.15,1020.9,,TRUE,TRUE,TRUE,,,,,,CLR,,,,,,,,VFR,,,,,,,,,,,,METAR,33
KMAF 050353Z 18008KT 10SM CLR 16/12 A3012 RMK AO2 SLP169 T01610122,KMAF,2023-11-05T03:53:00Z,31.9475,-102.209,16.1,12.2,180,8,,10+,30.12,1016.9,,,TRUE,,,,,,,CLR,,,,,,,,VFR,,,,,,,,,,,,METAR,874
KMAE 050353Z AUTO 07003KT 10SM CLR 17/06 A3003 RMK AO2 SLP166 T01670061,KMAE,2023-11-05T03:53:00Z,36.9851,-120.111,16.7,6.1,70,3,,10+,30.03,1016.6,,TRUE,TRUE,,,,,,,CLR,,,,,,,,VFR,,,,,,,,,,,,METAR,77
KLXV 050353Z AUTO 06006KT 10SM CLR M02/M10 A3038 RMK AO2 SLP214 T10221100,KLXV,2023-11-05T03:53:00Z,39.228,-106.316,-2.2,-10,60,6,,10+,30.38,1021.4,,TRUE,TRUE,,,,,,,CLR,,,,,,,,VFR,,,,,,,,,,,,METAR,3027
KLXT 050353Z AUTO 09005KT 8SM CLR 08/06 A3021 RMK AO2 SLP231 T00830061,KLXT,2023-11-05T03:53:00Z,38.9577,-94.3712,8.3,6.1,90,5,,8,30.21,1023.1,,TRUE,TRUE,,,,,,,CLR,,,,,,,,VFR,,,,,,,,,,,,METAR,306
KLWV 050353Z AUTO 32006KT 10SM CLR 12/06 A3018 RMK AO2 SLP220 T01220061,KLWV,2023-11-05T03:53:00Z,38.7604,-87.599,12.2,6.1,320,6,,10+,30.18,1022,,TRUE,TRUE,,,,,,,CLR,,,,,,,,VFR,,,,,,,,,,,,METAR,128
KLWD 050353Z AUTO 24004KT 10SM CLR 07/02 A3019 RMK AO2 SLP228 T00670022,KLWD,2023-11-05T03:53:00Z,40.6306,-93.9005,6.7,2.2,240,4,,10+,30.19,1022.8,,TRUE,TRUE,,,,,,,CLR,,,,,,,,VFR,,,,,,,,,,,,METAR,345
KLVS 050353Z AUTO 24005KT 10SM CLR 10/M06 A3032 RMK AO2 SLP190 T01001061,KLVS,2023-11-05T03:53:00Z,35.6558,-105.139,10,-6.1,240,5,,10+,30.32,1019,,TRUE,TRUE,,,,,,,CLR,,,,,,,,VFR,,,,,,,,,,,,METAR,2095
KLVM 050353Z AUTO 26010G22KT 10SM FEW065 FEW120 11/03 A2991 RMK AO2 PK WND 20034/0303 SLP116 T01060028,KLVM,2023-11-05T03:53:00Z,45.6984,-110.442,10.6,2.8,260,10,22,10+,29.91,1011.6,,TRUE,TRUE,,,,,,,FEW,6500,FEW,12000,,,,,VFR,,,,,,,,,,,,METAR,1418
KLVJ 050353Z AUTO 00000KT 9SM CLR 17/16 A3017 RMK AO2 SLP214 T01720156,KLVJ,2023-11-05T03:53:00Z,29.5192,-95.2423,17.2,15.6,0,0,,9,30.17,1021.4,,TRUE,TRUE,,,,,,,CLR,,,,,,,,VFR,,,,,,,,,,,,METAR,11
KLUK 050353Z AUTO 00000KT 8SM CLR 09/00 A3015 RMK AO2 SLP207 T00890000,KLUK,2023-11-05T03:53:00Z,39.106,-84.4161,8.9,0,0,0,,8,30.15,1020.7,,TRUE,TRUE,,,,,,,CLR,,,,,,,,VFR,,,,,,,,,,,,METAR,144
KLSE 050353Z AUTO 15005KT 10SM CLR 02/M01 A3015 RMK AO2 SLP220 T00221011,KLSE,2023-11-05T03:53:00Z,43.8792,-91.253,2.2,-1.1,150,5,,10+,30.15,1022,,TRUE,TRUE,,,,,,,CLR,,,,,,,,VFR,,,,,,,,,,,,METAR,198
KLPR 050353Z AUTO 00000KT 8SM CLR 05/03 A3008 RMK AO2 SLP189 T00500033,KLPR,2023-11-05T03:53:00Z,41.3463,-82.1788,5,3.3,0,0,,8,30.08,1018.9,,TRUE,TRUE,,,,,,,CLR,,,,,,,,VFR,,,,,,,,,,,,METAR,241
KLOZ 050353Z AUTO 00000KT 10SM CLR 09/03 A3017 RMK AO2 SLP213 T00890033,KLOZ,2023-11-05T03:53:00Z,37.0896,-84.0688,8.9,3.3,0,0,,10+,30.17,1021.3,,TRUE,TRUE,,,,,,,CLR,,,,,,,,VFR,,,,,,,,,,,,METAR,361
KLOU 050353Z AUTO 29003KT 10SM CLR 12/07 A3015 RMK AO2 SLP207 T01220072,KLOU,2023-11-05T03:53:00Z,38.2302,-85.6629,12.2,7.2,290,3,,10+,30.15,1020.7,,TRUE,TRUE,,,,,,,CLR,,,,,,,,VFR,,,,,,,,,,,,METAR,165
KLOL 050353Z AUTO 08004KT 10SM CLR 12/M02 A3002 RMK AO2 SLP159 T01171017,KLOL,2023-11-05T03:53:00Z,40.0685,-118.57,11.7,-1.7,80,4,,10+,30.02,1015.9,,TRUE,TRUE,,,,,,,CLR,,,,,,,,VFR,,,,,,,,,,,,METAR,1191
KLNS 050353Z AUTO 09003KT 8SM BKN110 10/04 A3009 RMK AO2 RAB17E26 SLP190 P0000 T01000044 $,KLNS,2023-11-05T03:53:00Z,40.1206,-76.2944,10,4.4,90,3,,8,30.09,1019,,TRUE,TRUE,TRUE,,,,,,BKN,11000,,,,,,,VFR,,,,,,0.005,,,,,,METAR,122
KLND 050353Z AUTO 21004KT 10SM CLR 11/M06 A3004 RMK AO2 SLP155 T01061056,KLND,2023-11-05T03:53:00Z,42.8154,-108.726,10.6,-5.6,210,4,,10+,30.04,1015.5,,TRUE,TRUE,,,,,,,CLR,,,,,,,,VFR,,,,,,,,,,,,METAR,1700
KLMT 050353Z AUTO 20011KT 10SM FEW070 SCT095 09/04 A3000 RMK AO2 SLP144 T00890044,KLMT,2023-11-05T03:53:00Z,42.147,-121.726,8.9,4.4,200,11,,10+,30.00,1014.4,,TRUE,TRUE,,,,,,,FEW,7000,SCT,9500,,,,,VFR,,,,,,,,,,,,METAR,1246
KLLQ 050353Z AUTO 00000KT 10SM CLR 12/10 A3018 RMK AO2 SLP217 T01220100,KLLQ,2023-11-05T03:53:00Z,33.636,-91.7555,12.2,10,0,0,,10+,30.18,1021.7,,TRUE,TRUE,,,,,,,CLR,,,,,,,,VFR,,,,,,,,,,,,METAR,86
KLKV 050353Z AUTO 19017G21KT 10SM -RA BKN038 OVC049 11/05 A3004 RMK AO2 PK WND 21032/0342 RAB42 SLP164 P0000 T01060050,KLKV,2023-11-05T03:53:00Z,42.1538,-120.403,10.6,5,190,17,21,10+,30.04,1016.4,,TRUE,TRUE,,,,,,-RA,BKN,3800,OVC,4900,,,,,VFR,,,,,,0.005,,,,,,METAR,1440
KLIT 050353Z 00000KT 10SM SCT190 14/10 A3017 RMK AO2 SLP217 T01390100,KLIT,2023-11-05T03:53:00Z,34.7273,-92.2358,13.9,10,0,0,,10+,30.17,1021.7,,,TRUE,,,,,,,SCT,19000,,,,,,,VFR,,,,,,,,,,,,METAR,77
KLHX 050353Z AUTO 17006KT 10SM CLR 09/M01 A3018 RMK AO2 SLP200 T00941006,KLHX,2023-11-05T03:53:00Z,38.0495,-103.513,9.4,-0.6,170,6,,10+,30.18,1020,,TRUE,TRUE,,,,,,,CLR,,,,,,,,VFR,,,,,,,,,,,,METAR,1289
KLHQ 050353Z AUTO 00000KT 10SM FEW055 05/00 A3011 RMK AO2 SLP197 T00500000,KLHQ,2023-11-05T03:53:00Z,39.7573,-82.6633,5,0,0,0,,10+,30.11,1019.7,,TRUE,TRUE,,,,,,,FEW,5500,,,,,,,VFR,,,,,,,,,,,,METAR,259
KLGB 050353Z 29004KT 8SM CLR 18/15 A3000 RMK AO2 SLP157 T01830150,KLGB,2023-11-05T03:53:00Z,33.8118,-118.147,18.3,15,290,4,,8,30.00,1015.7,,,TRUE,,,,,,,CLR,,,,,,,,VFR,,,,,,,,,,,,METAR,10
KLFT 050353Z AUTO 00000KT 10SM CLR 14/13 A3017 RMK AO2 SLP216 T01390133,KLFT,2023-11-05T03:53:00Z,30.1986,-91.9896,13.9,13.3,0,0,,10+,30.17,1021.6,,TRUE,TRUE,,,,,,,CLR,,,,,,,,VFR,,,,,,,,,,,,METAR,9
KLFK 050353Z AUTO 00000KT CLR 15/13 A3015 RMK AO2 SLP207 T01500128,KLFK,2023-11-05T03:53:00Z,31.2359,-94.7546,15,12.8,0,0,,,30.15,1020.7,,TRUE,TRUE,,,,,,,CLR,,,,,,,,VFR,,,,,,,,,,,,METAR,87
KLEE 050353Z AUTO 35003KT 10SM CLR 14/06 A3011 RMK AO2 SLP195 T01440056,KLEE,2023-11-05T03:53:00Z,28.8214,-81.8006,14.4,5.6,350,3,,10+,30.11,1019.5,,TRUE,TRUE,,,,,,,CLR,,,,,,,,VFR,,,,,,,,,,,,METAR,21
KLEB 050353Z AUTO 00000KT 10SM OVC065 07/05 A3007 RMK AO2 SLP183 T00720050,KLEB,2023-11-05T03:53:00Z,43.6271,-72.3054,7.2,5,0,0,,10+,30.07,1018.3,,TRUE,TRUE,,,,,,,OVC,6500,,,,,,,VFR,,,,,,,,,,,,METAR,169
KLBX 050353Z AUTO 11004KT 9SM CLR 18/17 A3015 RMK AO2 SLP208 T01830172,KLBX,2023-11-05T03:53:00Z,29.1154,-95.4632,18.3,17.2,110,4,,9,30.15,1020.8,,TRUE,TRUE,,,,,,,CLR,,,,,,,,VFR,,,,,,,,,,,,METAR,4
KLBF 050353Z AUTO 18007KT 10SM CLR 09/03 A3011 RMK AO2 SLP195 T00940033,KLBF,2023-11-05T03:53:00Z,41.122,-100.669,9.4,3.3,180,7,,10+,30.11,1019.5,,TRUE,TRUE,,,,,,,CLR,,,,,,,,VFR,,,,,,,,,,,,METAR,843
KLBB 050353Z 05010KT 10SM CLR 12/07 A3016 RMK AO2 SLP188 T01220072,KLBB,2023-11-05T03:53:00Z,33.6658,-101.823,12.2,7.2,50,10,,10+,30.16,1018.8,,,TRUE,,,,,,,CLR,,,,,,,,VFR,,,,,,,,,,,,METAR,996
KLAW 050353Z AUTO 11005KT 10SM CLR 16/13 A3011 RMK AO2 SLP190 T01610133,KLAW,2023-11-05T03:53:00Z,34.5577,-98.4172,16.1,13.3,110,5,,10+,30.11,1019,,TRUE,TRUE,,,,,,,CLR,,,,,,,,VFR,,,,,,,,,,,,METAR,328
KLAR 050353Z AUTO 22009KT 10SM CLR 08/M08 A3018 RMK AO2 SLP154 T00831083,KLAR,2023-11-05T03:53:00Z,41.3165,-105.673,8.3,-8.3,220,9,,10+,30.18,1015.4,,TRUE,TRUE,,,,,,,CLR,,,,,,,,VFR,,,,,,,,,,,,METAR,2217
KLAA 050353Z AUTO 23008KT 10SM CLR 07/01 A3017 RMK AO2 SLP207 T00720011,KLAA,2023-11-05T03:53:00Z,38.0718,-102.687,7.2,1.1,230,8,,10+,30.17,1020.7,,TRUE,TRUE,,,,,,,CLR,,,,,,,,VFR,,,,,,,,,,,,METAR,1129
KJLN 050353Z AUTO 08006KT 10SM BKN040 BKN055 OVC070 12/10 A3020 RMK AO2 SLP222 T01220100,KJLN,2023-11-05T03:53:00Z,37.1522,-94.4952,12.2,10,80,6,,10+,30.20,1022.2,,TRUE,TRUE,,,,,,,BKN,4000,BKN,5500,OVC,7000,,,VFR,,,,,,,,,,,,METAR,297
KJKL 050353Z AUTO 22004KT 5SM HZ FEW050 14/02 A3016 RMK AO2 SLP206 T01440022,KJKL,2023-11-05T03:53:00Z,37.5913,-83.3137,14.4,2.2,220,4,,5,30.16,1020.6,,TRUE,TRUE,,,,,,HZ,FEW,5000,,,,,,,MVFR,,,,,,,,,,,,METAR,414
KJER 050353Z AUTO 05013KT 10SM BKN075 OVC110 11/06 A3003 RMK AO2 RAE53 SLP165 P0002 T01060056 $,KJER,2023-11-05T03:53:00Z,42.7274,-114.455,10.6,5.6,50,13,,10+,30.03,1016.5,,TRUE,TRUE,TRUE,,,,,,BKN,7500,OVC,11000,,,,,VFR,,,,,,0.02,,,,,,METAR,1226
KJEF 050353Z AUTO 00000KT 6SM HZ BKN100 11/07 A3021 RMK AO2 SLP221 T01060072,KJEF,2023-11-05T03:53:00Z,38.5945,-92.1567,10.6,7.2,0,0,,6,30.21,1022.1,,TRUE,TRUE,,,,,,HZ,BKN,10000,,,,,,,VFR,,,,,,,,,,,,METAR,167
KJBR 050353Z AUTO 00000KT 10SM CLR 14/09 A3016 RMK AO2 SLP212 T01390089 $,KJBR,2023-11-05T03:53:00Z,35.8357,-90.6442,13.9,8.9,0,0,,10+,30.16,1021.2,,TRUE,TRUE,TRUE,,,,,,CLR,,,,,,,,VFR,,,,,,,,,,,,METAR,79
KIXD 050353Z AUTO 08004KT 10SM CLR 07/04 A3021 RMK AO2 SLP230 T00720039,KIXD,2023-11-05T03:53:00Z,38.8221,-94.8902,7.2,3.9,80,4,,10+,30.21,1023,,TRUE,TRUE,,,,,,,CLR,,,,,,,,VFR,,,,,,,,,,,,METAR,322
KIWI 050353Z AUTO 00000KT 10SM OVC110 07/05 A3008 RMK AO2 SLP184 T00670050,KIWI,2023-11-05T03:53:00Z,43.9639,-69.7114,6.7,5,0,0,,10+,30.08,1018.4,,TRUE,TRUE,,,,,,,OVC,11000,,,,,,,VFR,,,,,,,,,,,,METAR,16
KITR 050353Z AUTO 19012KT 10SM CLR 06/M01 A3016 RMK AO2 SLP200 T00561011,KITR,2023-11-05T03:53:00Z,39.2415,-102.282,5.6,-1.1,190,12,,10+,30.16,1020,,TRUE,TRUE,,,,,,,CLR,,,,,,,,VFR,,,,,,,,,,,,METAR,1285
KIPL 050353Z AUTO 00000KT 10SM CLR 19/02 A2993 RMK AO2 SLP135 T01890017,KIPL,2023-11-05T03:53:00Z,32.8346,-115.577,18.9,1.7,0,0,,10+,29.93,1013.5,,TRUE,TRUE,,,,,,,CLR,,,,,,,,VFR,,,,,,,,,,,,METAR,-16
KINK 050353Z AUTO 13010KT 10SM CLR 17/09 A3010 RMK AO2 SLP167 T01720094,KINK,2023-11-05T03:53:00Z,31.7801,-103.202,17.2,9.4,130,10,,10+,30.10,1016.7,,TRUE,TRUE,,,,,,,CLR,,,,,,,,VFR,,,,,,,,,,,,METAR,857
KIML 050353Z AUTO 16006KT 10SM CLR 06/M01 A3012 RMK AO2 SLP204 T00561006,KIML,2023-11-05T03:53:00Z,40.5106,-101.624,5.6,-0.6,160,6,,10+,30.12,1020.4,,TRUE,TRUE,,,,,,,CLR,,,,,,,,VFR,,,,,,,,,,,,METAR,997
KILM 050353Z AUTO 33004KT 10SM OVC050 17/14 A3007 RMK AO2 SLP183 T01720144,KILM,2023-11-05T03:53:00Z,34.2668,-77.8999,17.2,14.4,330,4,,10+,30.07,1018.3,,TRUE,TRUE,,,,,,,OVC,5000,,,,,,,VFR,,,,,,,,,,,,METAR,9
KIDA 050353Z AUTO 34005KT 10SM OVC090 08/04 A3005 RMK AO2 SLP181 T00780044,KIDA,2023-11-05T03:53:00Z,43.5204,-112.068,7.8,4.4,340,5,,10+,30.05,1018.1,,TRUE,TRUE,,,,,,,OVC,9000,,,,,,,VFR,,,,,,,,,,,,METAR,1444
KICT 050353Z 08006KT 10SM CLR 12/05 A3017 RMK AO2 SLP215 T01170050,KICT,2023-11-05T03:53:00Z,37.6475,-97.43,11.7,5,80,6,,10+,30.17,1021.5,,,TRUE,,,,,,,CLR,,,,,,,,VFR,,,,,,,,,,,,METAR,428
KICR 050353Z AUTO 20009KT 10SM CLR 09/03 A3003 RMK AO2 SLP173 T00940033,KICR,2023-11-05T03:53:00Z,43.391,-99.8462,9.4,3.3,200,9,,10+,30.03,1017.3,,TRUE,TRUE,,,,,,,CLR,,,,,,,,VFR,,,,,,,,,,,,METAR,618
KIAH 050353Z 14005KT 10SM FEW055 SCT250 19/17 A3015 RMK AO2 SLP207 T01940172 $,KIAH,2023-11-05T03:53:00Z,29.9844,-95.3607,19.4,17.2,140,5,,10+,30.15,1020.7,,,TRUE,TRUE,,,,,,FEW,5500,SCT,25000,,,,,VFR,,,,,,,,,,,,METAR,27
KIAG 050353Z AUTO 20004KT 8SM OVC046 09/07 A3008 RMK AO2 RAE53 SLP193 P0004 T00940072,KIAG,2023-11-05T03:53:00Z,43.1083,-78.9382,9.4,7.2,200,4,,8,30.08,1019.3,,TRUE,TRUE,,,,,,,OVC,4600,,,,,,,VFR,,,,,,0.04,,,,,,METAR,179
KHZY 050353Z AUTO 00000KT 10SM BKN065 OVC100 09/04 A3009 RMK AO2 SLP191 T00890039 $,KHZY,2023-11-05T03:53:00Z,41.7794,-80.6968,8.9,3.9,0,0,,10+,30.09,1019.1,,TRUE,TRUE,TRUE,,,,,,BKN,6500,OVC,10000,,,,,VFR,,,,,,,,,,,,METAR,279
KHWO 050353Z AUTO 32006KT 10SM CLR 22/21 A3001 RMK AO2 SLP161 T02220211,KHWO,2023-11-05T03:53:00Z,25.9996,-80.2412,22.2,21.1,320,6,,10+,30.01,1016.1,,TRUE,TRUE,,,,,,,CLR,,,,,,,,VFR,,,,,,,,,,,,METAR,2
KHVR 050353Z AUTO 22019KT 10SM FEW095 13/05 A2968 RMK AO2 PK WND 22027/0327 SLP055 T01330050,KHVR,2023-11-05T03:53:00Z,48.5425,-109.764,13.3,5,220,19,,10+,29.68,1005.5,,TRUE,TRUE,,,,,,,FEW,9500,,,,,,,VFR,,,,,,,,,,,,METAR,789
KHVN 050353Z AUTO 00000KT 7SM CLR 09/08 A3008 RMK AO2 SLP186 T00940078,KHVN,2023-11-05T03:53:00Z,41.259,-72.8891,9.4,7.8,0,0,,7,30.08,1018.6,,TRUE,TRUE,,,,,,,CLR,,,,,,,,VFR,,,,,,,,,,,,METAR,4
KHUL 050353Z AUTO 00000KT 10SM CLR M02/M03 A3005 RMK AO2 SLP180 T10171033,KHUL,2023-11-05T03:53:00Z,46.1185,-67.7929,-1.7,-3.3,0,0,,10+,30.05,1018,,TRUE,TRUE,,,,,,,CLR,,,,,,,,VFR,,,,,,,,,,,,METAR,148
KHUF 050353Z 34004KT 10SM FEW100 12/06 A3018 RMK AO2 SLP219 T01170056,KHUF,2023-11-05T03:53:00Z,39.4429,-87.3221,11.7,5.6,340,4,,10+,30.18,1021.9,,,TRUE,,,,,,,FEW,10000,,,,,,,VFR,,,,,,,,,,,,METAR,174
KHTL 050353Z AUTO 31003KT 10SM CLR M01/M01 A3013 RMK AO2 SLP213 T10111011,KHTL,2023-11-05T03:53:00Z,44.359,-84.6739,-1.1,-1.1,310,3,,10+,30.13,1021.3,,TRUE,TRUE,,,,,,,CLR,,,,,,,,VFR,,,,,,,,,,,,METAR,350
KHSV 050353Z 10003KT 10SM CLR 09/04 A3018 RMK AO2 SLP216 T00940039 $,KHSV,2023-11-05T03:53:00Z,34.6441,-86.7861,9.4,3.9,100,3,,10+,30.18,1021.6,,,TRUE,TRUE,,,,,,CLR,,,,,,,,VFR,,,,,,,,,,,,METAR,190
KHSI 050353Z AUTO 16008KT 10SM CLR 07/05 A3018 RMK AO2 SLP227 T00670050,KHSI,2023-11-05T03:53:00Z,40.6002,-98.4264,6.7,5,160,8,,10+,30.18,1022.7,,TRUE,TRUE,,,,,,,CLR,,,,,,,,VFR,,,,,,,,,,,,METAR,592
KHRO 050353Z AUTO 27003KT 10SM FEW050 OVC070 14/11 A3019 RMK AO2 SLP217 T01390106,KHRO,2023-11-05T03:53:00Z,36.2673,-93.1566,13.9,10.6,270,3,,10+,30.19,1021.7,,TRUE,TRUE,,,,,,,FEW,5000,OVC,7000,,,,,VFR,,,,,,,,,,,,METAR,417
KHRI 050353Z AUTO 21007KT 10SM -RA FEW034 OVC048 14/12 A2984 RMK AO2 RAB02 SLP104 P0009 T01390122,KHRI,2023-11-05T03:53:00Z,45.8259,-119.261,13.9,12.2,210,7,,10+,29.84,1010.4,,TRUE,TRUE,,,,,,-RA,FEW,3400,OVC,4800,,,,,VFR,,,,,,0.09,,,,,,METAR,194
KHQM 050353Z AUTO 21008KT 10SM FEW023 FEW034 OVC055 13/12 A2984 RMK AO2 SLP107 T01280117,KHQM,2023-11-05T03:53:00Z,46.9729,-123.931,12.8,11.7,210,8,,10+,29.84,1010.7,,TRUE,TRUE,,,,,,,FEW,2300,FEW,3400,OVC,5500,,,VFR,,,,,,,,,,,,METAR,4
KHOU 050353Z 10003KT 10SM FEW060 FEW250 19/16 A3015 RMK AO2 SLP213 T01890161,KHOU,2023-11-05T03:53:00Z,29.6458,-95.2821,18.9,16.1,100,3,,10+,30.15,1021.3,,,TRUE,,,,,,,FEW,6000,FEW,25000,,,,,VFR,,,,,,,,,,,,METAR,13
KHOT 050353Z AUTO 00000KT 7SM CLR 12/11 A3018 RMK AO2 SLP218 T01220111,KHOT,2023-11-05T03:53:00Z,34.4755,-93.1041,12.2,11.1,0,0,,7,30.18,1021.8,,TRUE,TRUE,,,,,,,CLR,,,,,,,,VFR,,,,,,,,,,,,METAR,153
KHLN 050353Z AUTO 24005KT 10SM CLR 06/03 A2986 RMK AO2 SLP139 T00610028,KHLN,2023-11-05T03:53:00Z,46.6045,-111.989,6.1,2.8,240,5,,10+,29.86,1013.9,,TRUE,TRUE,,,,,,,CLR,,,,,,,,VFR,,,,,,,,,,,,METAR,1178
KHLG 050353Z AUTO 24005KT 10SM OVC070 13/00 A3008 RMK AO2 SLP188 T01280000,KHLG,2023-11-05T03:53:00Z,40.1699,-80.6441,12.8,0,240,5,,10+,30.08,1018.8,,TRUE,TRUE,,,,,,,OVC,7000,,,,,,,VFR,,,,,,,,,,,,METAR,365
KHLC 050353Z AUTO 13004KT 10SM CLR 09/02 A3018 RMK AO2 SLP218 T00890017,KHLC,2023-11-05T03:53:00Z,39.3741,-99.8299,8.9,1.7,130,4,,10+,30.18,1021.8,,TRUE,TRUE,,,,,,,CLR,,,,,,,,VFR,,,,,,,,,,,,METAR,667
KHKY 050353Z AUTO 00000KT 10SM CLR 09/00 A3014 RMK AO2 SLP192 T00940000,KHKY,2023-11-05T03:53:00Z,35.742,-81.3822,9.4,0,0,0,,10+,30.14,1019.2,,TRUE,TRUE,,,,,,,CLR,,,,,,,,VFR,,,,,,,,,,,,METAR,357
KHKS 050353Z AUTO 00000KT 10SM CLR 12/05 A3017 RMK AO2 SLP211 T01170050,KHKS,2023-11-05T03:53:00Z,32.3376,-90.2214,11.7,5,0,0,,10+,30.17,1021.1,,TRUE,TRUE,,,,,,,CLR,,,,,,,,VFR,,,,,,,,,,,,METAR,103
KHKA 050353Z AUTO 20003KT 10SM CLR 13/09 A3015 RMK AO2 SLP209 T01330089 $,KHKA,2023-11-05T03:53:00Z,35.9378,-89.8332,13.3,8.9,200,3,,10+,30.15,1020.9,,TRUE,TRUE,TRUE,,,,,,CLR,,,,,,,,VFR,,,,,,,,,,,,METAR,78
KHJO 050353Z AUTO 00000KT 5SM HZ CLR 14/08 A3004 RMK AO2 SLP172 T01440083,KHJO,2023-11-05T03:53:00Z,36.3114,-119.623,14.4,8.3,0,0,,5,30.04,1017.2,,TRUE,TRUE,,,,,,HZ,CLR,,,,,,,,MVFR,,,,,,,,,,,,METAR,73
KHIO 050353Z 18004KT 10SM CLR 11/09 A2987 RMK AO2 SLP115 T01060094 $,KHIO,2023-11-05T03:53:00Z,45.5476,-122.956,10.6,9.4,180,4,,10+,29.87,1011.5,,,TRUE,TRUE,,,,,,CLR,,,,,,,,VFR,,,,,,,,,,,,METAR,62
KHIB 050353Z AUTO 02003KT 10SM OVC029 M02/M04 A3014 RMK AO2 SLP230 T10171039,KHIB,2023-11-05T03:53:00Z,47.3804,-92.8325,-1.7,-3.9,20,3,,10+,30.14,1023,,TRUE,TRUE,,,,,,,OVC,2900,,,,,,,MVFR,,,,,,,,,,,,METAR,409
KHHR 050353Z 29003KT 8SM SCT008 18/16 A3001 RMK AO2 SLP161 T01780161,KHHR,2023-11-05T03:53:00Z,33.9235,-118.333,17.8,16.1,290,3,,8,30.01,1016.1,,,TRUE,,,,,,,SCT,800,,,,,,,VFR,,,,,,,,,,,,METAR,21
KHGR 050353Z AUTO 00000KT 10SM BKN120 11/M01 A3009 RMK AO2 SLP199 T01061011 $,KHGR,2023-11-05T03:53:00Z,39.7062,-77.7304,10.6,-1.1,0,0,,10+,30.09,1019.9,,TRUE,TRUE,TRUE,,,,,,BKN,12000,,,,,,,VFR,,,,,,,,,,,,METAR,206
KHFD 050353Z 16003KT 10SM CLR 08/06 A3008 RMK AO2 SLP186 T00780056,KHFD,2023-11-05T03:53:00Z,41.7352,-72.6512,7.8,5.6,160,3,,10+,30.08,1018.6,,,TRUE,,,,,,,CLR,,,,,,,,VFR,,,,,,,,,,,,METAR,3
KHEI 050353Z AUTO 12007KT 10SM CLR 06/01 A2995 RMK AO2 SLP153 T00560006,KHEI,2023-11-05T03:53:00Z,46.0108,-102.652,5.6,0.6,120,7,,10+,29.95,1015.3,,TRUE,TRUE,,,,,,,CLR,,,,,,,,VFR,,,,,,,,,,,,METAR,824
KHBR 050353Z AUTO 06007KT 10SM OVC043 14/13 A3013 RMK AO2 SLP196 T01390128,KHBR,2023-11-05T03:53:00Z,34.9891,-99.0528,13.9,12.8,60,7,,10+,30.13,1019.6,,TRUE,TRUE,,,,,,,OVC,4300,,,,,,,VFR,,,,,,,,,,,,METAR,475
KHBG 050353Z AUTO 00000KT 10SM CLR 10/08 A3018 RMK AO2 SLP220 T01000083,KHBG,2023-11-05T03:53:00Z,31.2648,-89.2561,10,8.3,0,0,,10+,30.18,1022,,TRUE,TRUE,,,,,,,CLR,,,,,,,,VFR,,,,,,,,,,,,METAR,45
KHAO 050353Z AUTO 00000KT CLR 07/05 A3015 RMK AO2 SLP210 T00670050 $,KHAO,2023-11-05T03:53:00Z,39.3612,-84.5206,6.7,5,0,0,,,30.15,1021,,TRUE,TRUE,TRUE,,,,,,CLR,,,,,,,,VFR,,,,,,,,,,,,METAR,185
KGZH 050353Z AUTO 00000KT 10SM CLR 09/07 A3018 RMK AO2 SLP220 T00890067,KGZH,2023-11-05T03:53:00Z,31.4191,-87.0484,8.9,6.7,0,0,,10+,30.18,1022,,TRUE,TRUE,,,,,,,CLR,,,,,,,,VFR,,,,,,,,,,,,METAR,77
KGWO 050353Z AUTO 04003KT 10SM CLR 11/06 A3017 RMK AO2 SLP214 T01110061,KGWO,2023-11-05T03:53:00Z,33.4961,-90.0894,11.1,6.1,40,3,,10+,30.17,1021.4,,TRUE,TRUE,,,,,,,CLR,,,,,,,,VFR,,,,,,,,,,,,METAR,42
KGVL 050353Z AUTO 32003KT 10SM CLR 11/03 A3018 RMK AO2 SLP213 T01110033,KGVL,2023-11-05T03:53:00Z,34.2721,-83.8305,11.1,3.3,320,3,,10+,30.18,1021.3,,TRUE,TRUE,,,,,,,CLR,,,,,,,,VFR,,,,,,,,,,,,METAR,387
KGUY 050353Z AUTO 24005KT 10SM CLR 07/03 A3019 RMK AO2 SLP209 T00670028,KGUY,2023-11-05T03:53:00Z,36.6819,-101.505,6.7,2.8,240,5,,10+,30.19,1020.9,,TRUE,TRUE,,,,,,,CLR,,,,,,,,VFR,,,,,,,,,,,,METAR,950
KGUP 050353Z AUTO 00000KT 10SM CLR 02/M11 A3031 RMK AO2 SLP242 T00171111,KGUP,2023-11-05T03:53:00Z,35.5086,-108.793,1.7,-11.1,0,0,,10+,30.31,1024.2,,TRUE,TRUE,,,,,,,CLR,,,,,,,,VFR,,,,,,,,,,,,METAR,1972
KGTF 050353Z 22013KT 10SM CLR 11/04 A2976 RMK AO2 PK WND 22027/0314 SLP079 T01110039 $,KGTF,2023-11-05T03:53:00Z,47.4733,-111.383,11.1,3.9,220,13,,10+,29.76,1007.9,,,TRUE,TRUE,,,,,,CLR,,,,,,,,VFR,,,,,,,,,,,,METAR,1117
KGSP 050353Z AUTO 00000KT 10SM CLR 07/M02 A3015 RMK AO2 SLP206 T00721022,KGSP,2023-11-05T03:53:00Z,34.8842,-82.2209,7.2,-2.2,0,0,,10+,30.15,1020.6,,TRUE,TRUE,,,,,,,CLR,,,,,,,,VFR,,,,,,,,,,,,METAR,285
KGRR 050353Z 00000KT 10SM CLR 04/02 A3013 RMK AO2 SLP208 LAST T00440022,KGRR,2023-11-05T03:53:00Z,42.8821,-85.523,4.4,2.2,0,0,,10+,30.13,1020.8,,,TRUE,,,,,,,CLR,,,,,,,,VFR,,,,,,,,,,,,METAR,239
KGRI 050353Z AUTO 18009KT 10SM CLR 07/06 A3017 RMK AO2 SLP226 T00720056,KGRI,2023-11-05T03:53:00Z,40.9615,-98.313,7.2,5.6,180,9,,10+,30.17,1022.6,,TRUE,TRUE,,,,,,,CLR,,,,,,,,VFR,,,,,,,,,,,,METAR,562
KGRB 050353Z AUTO 00000KT 10SM CLR M01/M02 A3015 RMK AO2 SLP216 T10061022,KGRB,2023-11-05T03:53:00Z,44.4796,-88.137,-0.6,-2.2,0,0,,10+,30.15,1021.6,,TRUE,TRUE,,,,,,,CLR,,,,,,,,VFR,,,,,,,,,,,,METAR,209
KGPT 050353Z AUTO 00000KT 10SM CLR 14/13 A3017 RMK AO2 SLP214 T01390128,KGPT,2023-11-05T03:53:00Z,30.4121,-89.0809,13.9,12.8,0,0,,10+,30.17,1021.4,,TRUE,TRUE,,,,,,,CLR,,,,,,,,VFR,,,,,,,,,,,,METAR,5
KGOK 050353Z AUTO 08006KT 10SM SCT044 SCT055 OVC065 17/12 A3012 RMK AO2 SLP196 T01670117,KGOK,2023-11-05T03:53:00Z,35.8517,-97.4142,16.7,11.7,80,6,,10+,30.12,1019.6,,TRUE,TRUE,,,,,,,SCT,4400,SCT,5500,OVC,6500,,,VFR,,,,,,,,,,,,METAR,326
KGNV 050353Z AUTO 33004KT 10SM CLR 16/05 A3013 RMK AO2 SLP202 T01560050,KGNV,2023-11-05T03:53:00Z,29.6917,-82.276,15.6,5,330,4,,10+,30.13,1020.2,,TRUE,TRUE,,,,,,,CLR,,,,,,,,VFR,,,,,,,,,,,,METAR,41
KGMU 050353Z AUTO 00000KT 10SM CLR 09/M01 A3016 RMK AO2 SLP209 T00941006,KGMU,2023-11-05T03:53:00Z,34.8487,-82.3501,9.4,-0.6,0,0,,10+,30.16,1020.9,,TRUE,TRUE,,,,,,,CLR,,,,,,,,VFR,,,,,,,,,,,,METAR,309
KGLR 050353Z AUTO 00000KT 10SM CLR M01/M04 A3010 RMK AO2 SLP206 T10111039,KGLR,2023-11-05T03:53:00Z,45.0166,-84.6894,-1.1,-3.9,0,0,,10+,30.10,1020.6,,TRUE,TRUE,,,,,,,CLR,,,,,,,,VFR,,,,,,,,,,,,METAR,403
KGLH 050353Z AUTO 35005KT 10SM CLR 11/06 A3017 RMK AO2 SLP223 T01060056,KGLH,2023-11-05T03:53:00Z,33.4772,-90.9847,10.6,5.6,350,5,,10+,30.17,1022.3,,TRUE,TRUE,,,,,,,CLR,,,,,,,,VFR,,,,,,,,,,,,METAR,40
KGLD 050353Z AUTO 19011KT 10SM CLR 08/02 A3015 RMK AO2 SLP203 T00830017,KGLD,2023-11-05T03:53:00Z,39.3673,-101.693,8.3,1.7,190,11,,10+,30.15,1020.3,,TRUE,TRUE,,,,,,,CLR,,,,,,,,VFR,,,,,,,,,,,,METAR,1111
KGKY 050353Z AUTO 00000KT 10SM CLR 14/13 A3012 RMK AO2 SLP196 T01440128,KGKY,2023-11-05T03:53:00Z,32.6583,-97.0951,14.4,12.8,0,0,,10+,30.12,1019.6,,TRUE,TRUE,,,,,,,CLR,,,,,,,,VFR,,,,,,,,,,,,METAR,189
KGKJ 050353Z AUTO 02003KT 10SM OVC085 09/02 A3006 RMK AO2 SLP183 T00890022,KGKJ,2023-11-05T03:53:00Z,41.6258,-80.2123,8.9,2.2,20,3,,10+,30.06,1018.3,,TRUE,TRUE,,,,,,,OVC,8500,,,,,,,VFR,,,,,,,,,,,,METAR,428
KGJT 050353Z 07005KT 10SM CLR 10/M02 A3019 RMK AO2 SLP200 T01001022,KGJT,2023-11-05T03:53:00Z,39.1344,-108.541,10,-2.2,70,5,,10+,30.19,1020,,,TRUE,,,,,,,CLR,,,,,,,,VFR,,,,,,,,,,,,METAR,1475
KGIF 050353Z AUTO 01005KT 10SM CLR 18/08 A3010 RMK AO2 SLP190 T01780078,KGIF,2023-11-05T03:53:00Z,28.0614,-81.7568,17.8,7.8,10,5,,10+,30.10,1019,,TRUE,TRUE,,,,,,,CLR,,,,,,,,VFR,,,,,,,,,,,,METAR,44
KGGW 050353Z AUTO 12014KT 10SM FEW065 BKN080 OVC110 04/02 A2977 RMK AO2 SLP104 T00390017,KGGW,2023-11-05T03:53:00Z,48.2142,-106.621,3.9,1.7,120,14,,10+,29.77,1010.4,,TRUE,TRUE,,,,,,,FEW,6500,BKN,8000,OVC,11000,,,VFR,,,,,,,,,,,,METAR,698
KGGG 050353Z AUTO 00000KT 10SM 14/12 A3014 RMK AO2 SLP204 T01390122 $,KGGG,2023-11-05T03:53:00Z,32.3909,-94.714,13.9,12.2,0,0,,10+,30.14,1020.4,,TRUE,TRUE,TRUE,,,,,,,,,,,,,,VFR,,,,,,,,,,,,METAR,107
KGFL 050353Z AUTO 00000KT 10SM OVC065 07/04 A3008 RMK AO2 SLP190 T00670044,KGFL,2023-11-05T03:53:00Z,43.3385,-73.6102,6.7,4.4,0,0,,10+,30.08,1019,,TRUE,TRUE,,,,,,,OVC,6500,,,,,,,VFR,,,,,,,,,,,,METAR,99
KGFK 050353Z 07003KT 10SM BKN015 OVC022 M01/M03 A3013 RMK AO2 SLP215 T10061028,KGFK,2023-11-05T03:53:00Z,47.9428,-97.1829,-0.6,-2.8,70,3,,10+,30.13,1021.5,,,TRUE,,,,,,,BKN,1500,OVC,2200,,,,,MVFR,,,,,,,,,,,,METAR,256
KGEZ 050353Z AUTO 34005KT 10SM CLR 11/06 A3016 RMK AO2 SLP211 T01110056,KGEZ,2023-11-05T03:53:00Z,39.5854,-85.7998,11.1,5.6,340,5,,10+,30.16,1021.1,,TRUE,TRUE,,,,,,,CLR,,,,,,,,VFR,,,,,,,,,,,,METAR,245
KGEY 050353Z AUTO 00000KT 10SM CLR 07/03 A2995 RMK AO2 SLP158 T00670033,KGEY,2023-11-05T03:53:00Z,44.5173,-108.075,6.7,3.3,0,0,,10+,29.95,1015.8,,TRUE,TRUE,,,,,,,CLR,,,,,,,,VFR,,,,,,,,,,,,METAR,1191
KGCC 050353Z AUTO 15008KT 10SM BKN120 09/M02 A2993 RMK AO2 SLP126 T00941017,KGCC,2023-11-05T03:53:00Z,44.3398,-105.542,9.4,-1.7,150,8,,10+,29.93,1012.6,,TRUE,TRUE,,,,,,,BKN,12000,,,,,,,VFR,,,,,,,,,,,,METAR,1328
KFYV 050353Z AUTO 00000KT 9SM OVC075 11/09 A3019 RMK AO2 SLP217 T01110094,KFYV,2023-11-05T03:53:00Z,36.0103,-94.1624,11.1,9.4,0,0,,9,30.19,1021.7,,TRUE,TRUE,,,,,,,OVC,7500,,,,,,,VFR,,,,,,,,,,,,METAR,377
KFXE 050353Z 33004KT 10SM CLR 23/22 A2999 RMK AO2 SLP159 T02280217,KFXE,2023-11-05T03:53:00Z,26.199,-80.1776,22.8,21.7,330,4,,10+,29.99,1015.9,,,TRUE,,,,,,,CLR,,,,,,,,VFR,,,,,,,,,,,,METAR,3
KFWN 050353Z AUTO 00000KT 9SM -RA OVC075 08/05 A3011 RMK AO2 RAB37 SLP196 P0001 T00780050,KFWN,2023-11-05T03:53:00Z,41.1993,-74.6259,7.8,5,0,0,,9,30.11,1019.6,,TRUE,TRUE,,,,,,-RA,OVC,7500,,,,,,,VFR,,,,,,0.01,,,,,,METAR,129
KFVE 050353Z AUTO 20004KT 10SM CLR 01/M04 A3000 RMK AO2 SLP167 T00111039,KFVE,2023-11-05T03:53:00Z,47.2852,-68.3072,1.1,-3.9,200,4,,10+,30.00,1016.7,,TRUE,TRUE,,,,,,,CLR,,,,,,,,VFR,,,,,,,,,,,,METAR,299
KFUL 050353Z 00000KT 10SM CLR 17/13 A2999 RMK AO2 SLP153 T01720133,KFUL,2023-11-05T03:53:00Z,33.8715,-117.986,17.2,13.3,0,0,,10+,29.99,1015.3,,,TRUE,,,,,,,CLR,,,,,,,,VFR,,,,,,,,,,,,METAR,23
KFTY 050353Z 00000KT 10SM CLR 07/04 A3017 RMK AO2 SLP215 T00720044,KFTY,2023-11-05T03:53:00Z,33.7776,-84.5247,7.2,4.4,0,0,,10+,30.17,1021.5,,,TRUE,,,,,,,CLR,,,,,,,,VFR,,,,,,,,,,,,METAR,245
KFTW 050353Z 09005KT 10SM CLR 17/14 A3012 RMK AO2 SLP193 T01720144,KFTW,2023-11-05T03:53:00Z,32.8248,-97.364,17.2,14.4,90,5,,10+,30.12,1019.3,,,TRUE,,,,,,,CLR,,,,,,,,VFR,,,,,,,,,,,,METAR,213
KFST 050353Z AUTO 16011KT 10SM CLR 18/11 A3013 RMK AO2 SLP164 T01830106,KFST,2023-11-05T03:53:00Z,30.9119,-102.917,18.3,10.6,160,11,,10+,30.13,1016.4,,TRUE,TRUE,,,,,,,CLR,,,,,,,,VFR,,,,,,,,,,,,METAR,917
KFSM 050353Z 00000KT 10SM BKN060 15/11 A3017 RMK AO2 SLP214 T01500111 $,KFSM,2023-11-05T03:53:00Z,35.3335,-94.3653,15,11.1,0,0,,10+,30.17,1021.4,,,TRUE,TRUE,,,,,,BKN,6000,,,,,,,VFR,,,,,,,,,,,,METAR,136
KFRG 050353Z 00000KT 10SM CLR 11/07 A3010 RMK AO2 SLP192 T01060072,KFRG,2023-11-05T03:53:00Z,40.7344,-73.4164,10.6,7.2,0,0,,10+,30.10,1019.2,,,TRUE,,,,,,,CLR,,,,,,,,VFR,,,,,,,,,,,,METAR,23
KFPR 050353Z AUTO 34006KT 10SM OVC030 22/20 A3002 RMK AO2 SLP165 T02220200,KFPR,2023-11-05T03:53:00Z,27.4981,-80.3763,22.2,20,340,6,,10+,30.02,1016.5,,TRUE,TRUE,,,,,,,OVC,3000,,,,,,,MVFR,,,,,,,,,,,,METAR,7
KFOK 050353Z AUTO 00000KT 10SM CLR 04/03 A3010 RMK AO2 SLP194 T00390033,KFOK,2023-11-05T03:53:00Z,40.8506,-72.6193,3.9,3.3,0,0,,10+,30.10,1019.4,,TRUE,TRUE,,,,,,,CLR,,,,,,,,VFR,,,,,,,,,,,,METAR,13
KFOE 050353Z AUTO 00000KT 10SM CLR 05/02 A3020 RMK AO2 SLP229 T00500017 $,KFOE,2023-11-05T03:53:00Z,38.9414,-95.6513,5,1.7,0,0,,10+,30.20,1022.9,,TRUE,TRUE,TRUE,,,,,,CLR,,,,,,,,VFR,,,,,,,,,,,,METAR,315
KFNT 050353Z 00000KT 10SM FEW042 05/04 A3012 RMK AO2 SLP204 T00500039,KFNT,2023-11-05T03:53:00Z,42.9669,-83.75,5,3.9,0,0,,10+,30.12,1020.4,,,TRUE,,,,,,,FEW,4200,,,,,,,VFR,,,,,,,,,,,,METAR,235
KFNB 050353Z AUTO 00000KT 1/4SM FG BKN002 BKN085 02/02 A3021 RMK AO2 SLP234 T00220017,KFNB,2023-11-05T03:53:00Z,40.0791,-95.5893,2.2,1.7,0,0,,0.25,30.21,1023.4,,TRUE,TRUE,,,,,,FG,BKN,200,BKN,8500,,,,,LIFR,,,,,,,,,,,,METAR,301
KFMY 050353Z AUTO 03010KT 10SM CLR 21/18 A3004 RMK AO2 SLP174 T02110178,KFMY,2023-11-05T03:53:00Z,26.584,-81.8615,21.1,17.8,30,10,,10+,30.04,1017.4,,TRUE,TRUE,,,,,,,CLR,,,,,,,,VFR,,,,,,,,,,,,METAR,4
KFMN 050353Z AUTO 09005KT 10SM CLR 11/M07 A3025 RMK AO2 SLP229 T01061072 $,KFMN,2023-11-05T03:53:00Z,36.7435,-108.229,10.6,-7.2,90,5,,10+,30.25,1022.9,,TRUE,TRUE,TRUE,,,,,,CLR,,,,,,,,VFR,,,,,,,,,,,,METAR,1677
KFLO 050353Z AUTO 33003KT 10SM CLR 11/01 A3012 RMK AO2 SLP197 T01060006,KFLO,2023-11-05T03:53:00Z,34.1877,-79.7308,10.6,0.6,330,3,,10+,30.12,1019.7,,TRUE,TRUE,,,,,,,CLR,,,,,,,,VFR,,,,,,,,,,,,METAR,43
KFLL 050353Z 30005KT 10SM FEW065 22/21 A2999 RMK AO2 SLP153 T02220206,KFLL,2023-11-05T03:53:00Z,26.0787,-80.1622,22.2,20.6,300,5,,10+,29.99,1015.3,,,TRUE,,,,,,,FEW,6500,,,,,,,VFR,,,,,,,,,,,,METAR,1
KFLD 050353Z AUTO 19003KT 9SM CLR M01/M03 A3015 RMK AO2 SLP219 T10111028,KFLD,2023-11-05T03:53:00Z,43.7695,-88.4907,-1.1,-2.8,190,3,,9,30.15,1021.9,,TRUE,TRUE,,,,,,,CLR,,,,,,,,VFR,,,,,,,,,,,,METAR,242
KFHR 050353Z AUTO VRB03KT 8SM -RA SCT065 BKN085 13/09 A2977 RMK AO2 RAB0259 SLP081 P0001 T01330094,KFHR,2023-11-05T03:53:00Z,48.52,-123.026,13.3,9.4,VRB,3,,8,29.77,1008.1,,TRUE,TRUE,,,,,,-RA,SCT,6500,BKN,8500,,,,,VFR,,,,,,0.01,,,,,,METAR,34
KFFT 050353Z AUTO 00000KT 10SM CLR 10/06 A3014 RMK AO2 SLP203 T01000056,KFFT,2023-11-05T03:53:00Z,38.1846,-84.9039,10,5.6,0,0,,10+,30.14,1020.3,,TRUE,TRUE,,,,,,,CLR,,,,,,,,VFR,,,,,,,,,,,,METAR,235
KFFC 050353Z AUTO 00000KT 10SM CLR 06/04 A3018 RMK AO2 SLP222 T00560044,KFFC,2023-11-05T03:53:00Z,33.3543,-84.5689,5.6,4.4,0,0,,10+,30.18,1022.2,,TRUE,TRUE,,,,,,,CLR,,,,,,,,VFR,,,,,,,,,,,,METAR,242
KFDY 050353Z AUTO 00000KT 7SM CLR 07/03 A3009 RMK AO2 SLP187 T00720033,KFDY,2023-11-05T03:53:00Z,41.0137,-83.6681,7.2,3.3,0,0,,7,30.09,1018.7,,TRUE,TRUE,,,,,,,CLR,,,,,,,,VFR,,,,,,,,,,,,METAR,247
KFDR 050353Z AUTO 07007KT 10SM CLR 15/13 A3007 RMK AO2 SLP174 T01500128,KFDR,2023-11-05T03:53:00Z,34.3531,-98.9876,15,12.8,70,7,,10+,30.07,1017.4,,TRUE,TRUE,,,,,,,CLR,,,,,,,,VFR,,,,,,,,,,,,METAR,378
KFCM 050353Z 17005KT 7SM CLR 06/00 A3008 RMK AO2 SLP194 T00560000,KFCM,2023-11-05T03:53:00Z,44.8321,-93.4705,5.6,0,170,5,,7,30.08,1019.4,,,TRUE,,,,,,,CLR,,,,,,,,VFR,,,,,,,,,,,,METAR,276
KFAY 050353Z 35003KT 10SM CLR 11/02 A3011 RMK AO2 SLP190 T01110022,KFAY,2023-11-05T03:53:00Z,34.9895,-78.8801,11.1,2.2,350,3,,10+,30.11,1019,,,TRUE,,,,,,,CLR,,,,,,,,VFR,,,,,,,,,,,,METAR,57
KFAT 050353Z 08003KT 10SM BKN200 19/07 A3003 RMK AO2 SLP166 T01890067,KFAT,2023-11-05T03:53:00Z,36.78,-119.72,18.9,6.7,80,3,,10+,30.03,1016.6,,,TRUE,,,,,,,BKN,20000,,,,,,,VFR,,,,,,,,,,,,METAR,102
KFAR 050353Z 02003KT 10SM BKN019 01/M02 A3011 RMK AO2 SLP207 T00111017,KFAR,2023-11-05T03:53:00Z,46.9242,-96.8119,1.1,-1.7,20,3,,10+,30.11,1020.7,,,TRUE,,,,,,,BKN,1900,,,,,,,MVFR,,,,,,,,,,,,METAR,276
KEYW 050353Z AUTO 03009KT 10SM OVC048 25/21 A3000 RMK AO2 SLP164 T02500206,KEYW,2023-11-05T03:53:00Z,24.5571,-81.7554,25,20.6,30,9,,10+,30.00,1016.4,,TRUE,TRUE,,,,,,,OVC,4800,,,,,,,VFR,,,,,,,,,,,,METAR,1
KEYE 050353Z AUTO 36005KT 10SM CLR 09/06 A3016 RMK AO2 SLP214 T00940061,KEYE,2023-11-05T03:53:00Z,39.8248,-86.2958,9.4,6.1,360,5,,10+,30.16,1021.4,,TRUE,TRUE,,,,,,,CLR,,,,,,,,VFR,,,,,,,,,,,,METAR,248
KEWB 050353Z AUTO 00000KT 10SM CLR 07/06 A3007 RMK AO2 SLP183 T00720061,KEWB,2023-11-05T03:53:00Z,41.6791,-70.9591,7.2,6.1,0,0,,10+,30.07,1018.3,,TRUE,TRUE,,,,,,,CLR,,,,,,,,VFR,,,,,,,,,,,,METAR,22
KEVW 050353Z AUTO 19007KT 10SM CLR 09/M03 A3019 RMK AO2 SLP175 T00941028,KEVW,2023-11-05T03:53:00Z,41.2727,-111.031,9.4,-2.8,190,7,,10+,30.19,1017.5,,TRUE,TRUE,,,,,,,CLR,,,,,,,,VFR,,,,,,,,,,,,METAR,2178
KESF 050353Z AUTO 00000KT 10SM CLR 11/07 A3015 RMK AO2 SLP210 T01060072 $,KESF,2023-11-05T03:53:00Z,31.3963,-92.2828,10.6,7.2,0,0,,10+,30.15,1021,,TRUE,TRUE,TRUE,,,,,,CLR,,,,,,,,VFR,,,,,,,,,,,,METAR,27
KEQY 050353Z AUTO 00000KT 10SM CLR 07/01 A3013 RMK AO2 SLP215 T00670006,KEQY,2023-11-05T03:53:00Z,35.0147,-80.6242,6.7,0.6,0,0,,10+,30.13,1021.5,,TRUE,TRUE,,,,,,,CLR,,,,,,,,VFR,,,,,,,,,,,,METAR,205
KEPH 050353Z AUTO 19003KT 4SM BR OVC004 08/08 A2978 RMK AO2 SLP089 T00830078,KEPH,2023-11-05T03:53:00Z,47.3078,-119.516,8.3,7.8,190,3,,4,29.78,1008.9,,TRUE,TRUE,,,,,,BR,OVC,400,,,,,,,LIFR,,,,,,,,,,,,METAR,382
KENW 050353Z AUTO 00000KT 6SM BR CLR 03/01 A3016 RMK AO2 SLP219 T00280011 $,KENW,2023-11-05T03:53:00Z,42.5953,-87.9383,2.8,1.1,0,0,,6,30.16,1021.9,,TRUE,TRUE,TRUE,,,,,BR,CLR,,,,,,,,VFR,,,,,,,,,,,,METAR,222
KEMP 050353Z AUTO 04007KT 10SM CLR 08/04 A3019 RMK AO2 SLP228 T00830044,KEMP,2023-11-05T03:53:00Z,38.3291,-96.1945,8.3,4.4,40,7,,10+,30.19,1022.8,,TRUE,TRUE,,,,,,,CLR,,,,,,,,VFR,,,,,,,,,,,,METAR,366
KELY 050353Z AUTO 20011KT 10SM CLR 10/M10 A3018 RMK AO2 SLP176 T01001100,KELY,2023-11-05T03:53:00Z,39.2954,-114.847,10,-10,200,11,,10+,30.18,1017.6,,TRUE,TRUE,,,,,,,CLR,,,,,,,,VFR,,,,,,,,,,,,METAR,1906
KELN 050353Z AUTO 00000KT 1/4SM FG BKN001 OVC046 07/06 A2980 RMK AO2 SLP095 T00720061,KELN,2023-11-05T03:53:00Z,47.0338,-120.531,7.2,6.1,0,0,,0.25,29.80,1009.5,,TRUE,TRUE,,,,,,FG,BKN,100,OVC,4600,,,,,LIFR,,,,,,,,,,,,METAR,532
KELM 050353Z AUTO 15003KT 10SM OVC050 10/05 A3007 RMK AO2 RAB31E40 SLP184 P0000 T01000050,KELM,2023-11-05T03:53:00Z,42.1601,-76.89,10,5,150,3,,10+,30.07,1018.4,,TRUE,TRUE,,,,,,,OVC,5000,,,,,,,VFR,,,,,,0.005,,,,,,METAR,287
KELD 050353Z AUTO 00000KT 10SM CLR 11/11 A3017 RMK AO2 SLP216 T01060106 $,KELD,2023-11-05T03:53:00Z,33.2207,-92.814,10.6,10.6,0,0,,10+,30.17,1021.6,,TRUE,TRUE,TRUE,,,,,,CLR,,,,,,,,VFR,,,,,,,,,,,,METAR,76
KEET 050353Z AUTO 00000KT 10SM CLR 09/06 A3018 RMK AO2 SLP217 T00890056,KEET,2023-11-05T03:53:00Z,33.1783,-86.7818,8.9,5.6,0,0,,10+,30.18,1021.7,,TRUE,TRUE,,,,,,,CLR,,,,,,,,VFR,,,,,,,,,,,,METAR,172
KEEO 050353Z AUTO 09007KT 10SM CLR 03/M03 A3025 RMK AO2 SLP229 T00331033,KEEO,2023-11-05T03:53:00Z,40.0444,-107.888,3.3,-3.3,90,7,,10+,30.25,1022.9,,TRUE,TRUE,,,,,,,CLR,,,,,,,,VFR,,,,,,,,,,,,METAR,1957
KECP 050353Z AUTO 30003KT 10SM CLR 12/09 A3015 RMK AO1 SLP222 T01170089,KECP,2023-11-05T03:53:00Z,30.3487,-85.7884,11.7,8.9,300,3,,10+,30.15,1022.2,,TRUE,TRUE,,,,,,,CLR,,,,,,,,VFR,,,,,,,,,,,,METAR,17
KDXR 050353Z AUTO 00000KT 10SM CLR 07/04 A3010 RMK AO2 SLP192 T00720039,KDXR,2023-11-05T03:53:00Z,41.3722,-73.4834,7.2,3.9,0,0,,10+,30.10,1019.2,,TRUE,TRUE,,,,,,,CLR,,,,,,,,VFR,,,,,,,,,,,,METAR,138
KDWH 050353Z AUTO 00000KT 10SM CLR 18/16 A3015 RMK AO2 SLP207 T01780156,KDWH,2023-11-05T03:53:00Z,30.068,-95.5563,17.8,15.6,0,0,,10+,30.15,1020.7,,TRUE,TRUE,,,,,,,CLR,,,,,,,,VFR,,,,,,,,,,,,METAR,46
KDVT 050353Z 04009KT 10SM CLR 21/M06 A3000 RMK AO2 SLP142 T02111056,KDVT,2023-11-05T03:53:00Z,33.6902,-112.066,21.1,-5.6,40,9,,10+,30.00,1014.2,,,TRUE,,,,,,,CLR,,,,,,,,VFR,,,,,,,,,,,,METAR,454
KDUJ 050353Z AUTO 00000KT 10SM OVC055 11/M01 A3006 RMK AO2 SLP180 T01061006,KDUJ,2023-11-05T03:53:00Z,41.1795,-78.8933,10.6,-0.6,0,0,,10+,30.06,1018,,TRUE,TRUE,,,,,,,OVC,5500,,,,,,,VFR,,,,,,,,,,,,METAR,552
KDTW 050353Z 34003KT 8SM FEW085 08/04 A3011 RMK AO2 SLP199 T00780044,KDTW,2023-11-05T03:53:00Z,42.2311,-83.3312,7.8,4.4,340,3,,8,30.11,1019.9,,,TRUE,,,,,,,FEW,8500,,,,,,,VFR,,,,,,,,,,,,METAR,192
KDTS 050353Z AUTO 00000KT 10SM CLR 15/12 A3016 RMK AO2 SLP212 T01500117,KDTS,2023-11-05T03:53:00Z,30.3933,-86.4674,15,11.7,0,0,,10+,30.16,1021.2,,TRUE,TRUE,,,,,,,CLR,,,,,,,,VFR,,,,,,,,,,,,METAR,5
KDTO 050353Z AUTO 13004KT 10SM OVC050 18/14 A3013 RMK AO2 SLP198 T01830139,KDTO,2023-11-05T03:53:00Z,33.2088,-97.1992,18.3,13.9,130,4,,10+,30.13,1019.8,,TRUE,TRUE,,,,,,,OVC,5000,,,,,,,VFR,,,,,,,,,,,,METAR,199
KDTN 050353Z 00000KT 10SM CLR 14/11 A3016 RMK AO2 SLP212 T01390106 $,KDTN,2023-11-05T03:53:00Z,32.5429,-93.745,13.9,10.6,0,0,,10+,30.16,1021.2,,,TRUE,TRUE,,,,,,CLR,,,,,,,,VFR,,,,,,,,,,,,METAR,53
KDRT 050353Z AUTO 13006KT 10SM CLR 21/13 A3010 RMK AO2 SLP187 T02060133 $,KDRT,2023-11-05T03:53:00Z,29.3784,-100.927,20.6,13.3,130,6,,10+,30.10,1018.7,,TRUE,TRUE,TRUE,,,,,,CLR,,,,,,,,VFR,,,,,,,,,,,,METAR,303
KDRO 050353Z AUTO 03004KT 10SM CLR 05/M07 A3029 RMK AO2 SLP247 T00501072,KDRO,2023-11-05T03:53:00Z,37.1431,-107.76,5,-7.2,30,4,,10+,30.29,1024.7,,TRUE,TRUE,,,,,,,CLR,,,,,,,,VFR,,,,,,,,,,,,METAR,2021
KDRA 050353Z AUTO 02005KT 10SM CLR 13/M12 A3008 RMK AO2 SLP163 T01331122,KDRA,2023-11-05T03:53:00Z,36.621,-116.029,13.3,-12.2,20,5,,10+,30.08,1016.3,,TRUE,TRUE,,,,,,,CLR,,,,,,,,VFR,,,,,,,,,,,,METAR,988
KDNL 050353Z AUTO 00000KT 10SM CLR 12/03 A3015 RMK AO2 SLP208 T01170028,KDNL,2023-11-05T03:53:00Z,33.4668,-82.0385,11.7,2.8,0,0,,10+,30.15,1020.8,,TRUE,TRUE,,,,,,,CLR,,,,,,,,VFR,,,,,,,,,,,,METAR,126
KDMO 050353Z AUTO 00000KT 10SM SCT090 09/06 A3022 RMK AO2 SLP234 T00940056,KDMO,2023-11-05T03:53:00Z,38.712,-93.1747,9.4,5.6,0,0,,10+,30.22,1023.4,,TRUE,TRUE,,,,,,,SCT,9000,,,,,,,VFR,,,,,,,,,,,,METAR,271
KDMN 050353Z AUTO 32005KT 10SM CLR 13/M03 A3019 RMK AO2 SLP182 T01281028,KDMN,2023-11-05T03:53:00Z,32.2592,-107.721,12.8,-2.8,320,5,,10+,30.19,1018.2,,TRUE,TRUE,,,,,,,CLR,,,,,,,,VFR,,,,,,,,,,,,METAR,1310
KDLS 050353Z AUTO 00000KT 1/2SM FG VV003 11/09 A2984 RMK AO2 SLP106 T01060094,KDLS,2023-11-05T03:53:00Z,45.619,-121.166,10.6,9.4,0,0,,0.5,29.84,1010.6,,TRUE,TRUE,,,,,,FG,OVX,0,,,,,,,LIFR,,,,,,,,,,,300,METAR,71
KDLN 050353Z AUTO 15013KT 10SM FEW060 BKN070 BKN095 07/04 A2994 RMK AO2 RAE18 PRESFR SLP132 P0000 T00720044,KDLN,2023-11-05T03:53:00Z,45.2584,-112.555,7.2,4.4,150,13,,10+,29.94,1013.2,,TRUE,TRUE,,,,,,,FEW,6000,BKN,7000,BKN,9500,,,VFR,,,,,,0.005,,,,,,METAR,1586
KDKK 050353Z AUTO 00000KT 10SM OVC070 08/06 A3009 RMK AO2 SLP193 T00830061,KDKK,2023-11-05T03:53:00Z,42.4932,-79.2762,8.3,6.1,0,0,,10+,30.09,1019.3,,TRUE,TRUE,,,,,,,OVC,7000,,,,,,,VFR,,,,,,,,,,,,METAR,205
KDHT 050353Z AUTO 15003KT 10SM CLR 08/03 A3022 RMK AO2 SLP206 T00830028,KDHT,2023-11-05T03:53:00Z,36.0252,-102.549,8.3,2.8,150,3,,10+,30.22,1020.6,,TRUE,TRUE,,,,,,,CLR,,,,,,,,VFR,,,,,,,,,,,,METAR,1217
KDHN 050353Z AUTO 00000KT 10SM CLR 11/07 A3019 RMK AO2 SLP222 T01110072,KDHN,2023-11-05T03:53:00Z,31.3177,-85.4432,11.1,7.2,0,0,,10+,30.19,1022.2,,TRUE,TRUE,,,,,,,CLR,,,,,,,,VFR,,,,,,,,,,,,METAR,113
KDGW 050353Z AUTO 00000KT 10SM CLR 07/M02 A3001 RMK AO2 SNB19E34 SLP154 P0000 T00671022,KDGW,2023-11-05T03:53:00Z,42.796,-105.38,6.7,-2.2,0,0,,10+,30.01,1015.4,,TRUE,TRUE,,,,,,,CLR,,,,,,,,VFR,,,,,,0.005,,,,,,METAR,1503
KDFW 050353Z 11003KT 10SM FEW050 17/13 A3012 RMK AO2 SLP193 T01720133,KDFW,2023-11-05T03:53:00Z,32.8974,-97.0219,17.2,13.3,110,3,,10+,30.12,1019.3,,,TRUE,,,,,,,FEW,5000,,,,,,,VFR,,,,,,,,,,,,METAR,168
KDFI 050353Z AUTO 31005KT 10SM CLR 07/03 A3012 RMK AO2 SLP201 T00670028 $,KDFI,2023-11-05T03:53:00Z,41.3357,-84.4285,6.7,2.8,310,5,,10+,30.12,1020.1,,TRUE,TRUE,TRUE,,,,,,CLR,,,,,,,,VFR,,,,,,,,,,,,METAR,215
KDET 050353Z 36003KT 6SM HZ SCT095 09/06 A3011 RMK AO2 SLP197 T00940061 $,KDET,2023-11-05T03:53:00Z,42.4072,-83.009,9.4,6.1,360,3,,6,30.11,1019.7,,,TRUE,TRUE,,,,,HZ,SCT,9500,,,,,,,VFR,,,,,,,,,,,,METAR,190
KDEN 050353Z 17010KT 10SM FEW150 BKN220 07/M01 A3013 RMK AO2 SLP169 T00721011,KDEN,2023-11-05T03:53:00Z,39.8466,-104.656,7.2,-1.1,170,10,,10+,30.13,1016.9,,,TRUE,,,,,,,FEW,15000,BKN,22000,,,,,VFR,,,,,,,,,,,,METAR,1656
KDCU 050353Z AUTO 00000KT 10SM CLR 07/03 A3018 RMK AO2 SLP219 T00670028 $,KDCU,2023-11-05T03:53:00Z,34.658,-86.9434,6.7,2.8,0,0,,10+,30.18,1021.9,,TRUE,TRUE,TRUE,,,,,,CLR,,,,,,,,VFR,,,,,,,,,,,,METAR,180
KDBQ 050353Z AUTO 00000KT 10SM CLR 02/M02 A3017 RMK AO2 SLP226 T00171017,KDBQ,2023-11-05T03:53:00Z,42.3984,-90.7092,1.7,-1.7,0,0,,10+,30.17,1022.6,,TRUE,TRUE,,,,,,,CLR,,,,,,,,VFR,,,,,,,,,,,,METAR,317
KDAL 050353Z 12006KT 10SM FEW040 18/14 A3013 RMK AO2 SLP199 T01780144,KDAL,2023-11-05T03:53:00Z,32.8384,-96.8358,17.8,14.4,120,6,,10+,30.13,1019.9,,,TRUE,,,,,,,FEW,4000,,,,,,,VFR,,,,,,,,,,,,METAR,148
KDAB 050353Z 00000KT 10SM CLR 14/11 A3008 RMK AO2 SLP184 T01440111,KDAB,2023-11-05T03:53:00Z,29.1735,-81.0719,14.4,11.1,0,0,,10+,30.08,1018.4,,,TRUE,,,,,,,CLR,,,,,,,,VFR,,,,,,,,,,,,METAR,8
KCYS 050353Z 23011KT 10SM CLR 07/M02 A3015 RMK AO2 SLP174 T00721017,KCYS,2023-11-05T03:53:00Z,41.1579,-104.808,7.2,-1.7,230,11,,10+,30.15,1017.4,,,TRUE,,,,,,,CLR,,,,,,,,VFR,,,,,,,,,,,,METAR,1868
KCXO 050353Z AUTO 00000KT 10SM CLR 16/15 A3016 RMK AO2 SLP211 T01610150,KCXO,2023-11-05T03:53:00Z,30.3611,-95.4176,16.1,15,0,0,,10+,30.16,1021.1,,TRUE,TRUE,,,,,,,CLR,,,,,,,,VFR,,,,,,,,,,,,METAR,69
KCUT 050353Z AUTO 22005KT 10SM CLR 06/M02 A3003 RMK AO2 SLP160 T00561022,KCUT,2023-11-05T03:53:00Z,43.7331,-103.615,5.6,-2.2,220,5,,10+,30.03,1016,,TRUE,TRUE,,,,,,,CLR,,,,,,,,VFR,,,,,,,,,,,,METAR,1700
KCUB 050353Z AUTO 00000KT 10SM CLR 07/03 A3014 RMK AO2 SLP205 T00670033,KCUB,2023-11-05T03:53:00Z,33.972,-80.9939,6.7,3.3,0,0,,10+,30.14,1020.5,,TRUE,TRUE,,,,,,,CLR,,,,,,,,VFR,,,,,,,,,,,,METAR,55
KCSV 050353Z AUTO 00000KT 10SM CLR 09/00 A3019 RMK AO2 SLP218 T00940000,KCSV,2023-11-05T03:53:00Z,35.951,-85.0814,9.4,0,0,0,,10+,30.19,1021.8,,TRUE,TRUE,,,,,,,CLR,,,,,,,,VFR,,,,,,,,,,,,METAR,569
KCSM 050353Z AUTO 35006KT 10SM SCT044 12/11 A3015 RMK AO2 SLP205 T01170106,KCSM,2023-11-05T03:53:00Z,35.3568,-99.2041,11.7,10.6,350,6,,10+,30.15,1020.5,,TRUE,TRUE,,,,,,,SCT,4400,,,,,,,VFR,,,,,,,,,,,,METAR,586
KCRS 050353Z AUTO 13006KT 10SM CLR 18/13 A3014 RMK AO2 SLP204 T01780133,KCRS,2023-11-05T03:53:00Z,32.0316,-96.3994,17.8,13.3,130,6,,10+,30.14,1020.4,,TRUE,TRUE,,,,,,,CLR,,,,,,,,VFR,,,,,,,,,,,,METAR,136
KCRQ 050353Z AUTO 00000KT 7SM CLR 17/12 A2999 RMK AO2 SLP154 T01720117,KCRQ,2023-11-05T03:53:00Z,33.1299,-117.277,17.2,11.7,0,0,,7,29.99,1015.4,,TRUE,TRUE,,,,,,,CLR,,,,,,,,VFR,,,,,,,,,,,,METAR,96
KCRG 050353Z AUTO 35005KT 10SM FEW075 16/06 A3011 RMK AO2 SLP194 T01610061,KCRG,2023-11-05T03:53:00Z,30.3371,-81.5128,16.1,6.1,350,5,,10+,30.11,1019.4,,TRUE,TRUE,,,,,,,FEW,7500,,,,,,,VFR,,,,,,,,,,,,METAR,12
KCRE 050353Z AUTO 01003KT 10SM CLR 16/09 A3008 RMK AO1 SLP186 T01560094,KCRE,2023-11-05T03:53:00Z,33.8162,-78.7204,15.6,9.4,10,3,,10+,30.08,1018.6,,TRUE,TRUE,,,,,,,CLR,,,,,,,,VFR,,,,,,,,,,,,METAR,9
KCQC 050353Z AUTO 24007KT 10SM CLR 07/M08 A3033 RMK AO2 SLP222 T00721083,KCQC,2023-11-05T03:53:00Z,35.003,-105.663,7.2,-8.3,240,7,,10+,30.33,1022.2,,TRUE,TRUE,,,,,,,CLR,,,,,,,,VFR,,,,,,,,,,,,METAR,2163
KCPS 050353Z AUTO 00000KT 10SM BKN110 12/06 A3020 RMK AO2 SLP224 T01170061 $,KCPS,2023-11-05T03:53:00Z,38.57,-90.156,11.7,6.1,0,0,,10+,30.20,1022.4,,TRUE,TRUE,TRUE,,,,,,BKN,11000,,,,,,,VFR,,,,,,,,,,,,METAR,125
KCPR 050353Z AUTO 10SM CLR 12/M05 A3002 RMK AO2 SLP139 T01171050,KCPR,2023-11-05T03:53:00Z,42.8978,-106.474,11.7,-5,,,,10+,30.02,1013.9,,TRUE,TRUE,,,,,,,CLR,,,,,,,,VFR,,,,,,,,,,,,METAR,1623
KCOT 050353Z AUTO 16006KT 10SM CLR 21/14 A3011 RMK AO2 SLP190 T02110139,KCOT,2023-11-05T03:53:00Z,28.4585,-99.2228,21.1,13.9,160,6,,10+,30.11,1019,,TRUE,TRUE,,,,,,,CLR,,,,,,,,VFR,,,,,,,,,,,,METAR,144
KCNY 050353Z AUTO 26004KT 10SM CLR 08/M07 A3016 RMK AO2 SLP197 T00831072,KCNY,2023-11-05T03:53:00Z,38.7501,-109.763,8.3,-7.2,260,4,,10+,30.16,1019.7,,TRUE,TRUE,,,,,,,CLR,,,,,,,,VFR,,,,,,,,,,,,METAR,1392
KCNO 050353Z 00000KT 10SM CLR 16/07 A3002 RMK AO2 SLP161 T01610072,KCNO,2023-11-05T03:53:00Z,33.9756,-117.625,16.1,7.2,0,0,,10+,30.02,1016.1,,,TRUE,,,,,,,CLR,,,,,,,,VFR,,,,,,,,,,,,METAR,191
KCNM 050353Z AUTO 23005KT 10SM CLR 13/M03 A3013 RMK AO2 SLP172 T01331028,KCNM,2023-11-05T03:53:00Z,32.3335,-104.258,13.3,-2.8,230,5,,10+,30.13,1017.2,,TRUE,TRUE,,,,,,,CLR,,,,,,,,VFR,,,,,,,,,,,,METAR,993
KCMI 050353Z AUTO 31003KT 10SM CLR 06/03 A3019 RMK AO2 SLP225 T00560028,KCMI,2023-11-05T03:53:00Z,40.0324,-88.2755,5.6,2.8,310,3,,10+,30.19,1022.5,,TRUE,TRUE,,,,,,,CLR,,,,,,,,VFR,,,,,,,,,,,,METAR,227
KCLM 050353Z AUTO 19006KT 10SM SCT070 BKN090 12/09 A2978 RMK AO2 RAE00 SLP084 P0000 T01170094,KCLM,2023-11-05T03:53:00Z,48.1219,-123.507,11.7,9.4,190,6,,10+,29.78,1008.4,,TRUE,TRUE,,,,,,,SCT,7000,BKN,9000,,,,,VFR,,,,,,0.005,,,,,,METAR,81
KCLL 050353Z AUTO 14006KT 10SM SCT041 BKN050 22/16 A3014 RMK AO2 SLP201 T02220161,KCLL,2023-11-05T03:53:00Z,30.5912,-96.3631,22.2,16.1,140,6,,10+,30.14,1020.1,,TRUE,TRUE,,,,,,,SCT,4100,BKN,5000,,,,,VFR,,,,,,,,,,,,METAR,96
KCKB 050353Z AUTO 19004KT 10SM BKN065 11/M01 A3011 RMK AO2 SLP191 T01111011,KCKB,2023-11-05T03:53:00Z,39.3022,-80.2239,11.1,-1.1,190,4,,10+,30.11,1019.1,,TRUE,TRUE,,,,,,,BKN,6500,,,,,,,VFR,,,,,,,,,,,,METAR,368
KCHO 050353Z AUTO 00000KT 10SM CLR 14/M04 A3009 RMK AO2 SLP186 T01391039,KCHO,2023-11-05T03:53:00Z,38.1374,-78.4551,13.9,-3.9,0,0,,10+,30.09,1018.6,,TRUE,TRUE,,,,,,,CLR,,,,,,,,VFR,,,,,,,,,,,,METAR,193
KCHA 050353Z 00000KT 10SM CLR 09/02 A3018 RMK AO2 SLP219 LAST T00890022 $,KCHA,2023-11-05T03:53:00Z,35.0336,-85.2004,8.9,2.2,0,0,,10+,30.18,1021.9,,,TRUE,TRUE,,,,,,CLR,,,,,,,,VFR,,,,,,,,,,,,METAR,203
KCGI 050353Z AUTO 00000KT 10SM CLR 12/08 A3017 RMK AO2 SLP215 T01220083,KCGI,2023-11-05T03:53:00Z,37.2254,-89.5785,12.2,8.3,0,0,,10+,30.17,1021.5,,TRUE,TRUE,,,,,,,CLR,,,,,,,,VFR,,,,,,,,,,,,METAR,103
KCEZ 050353Z AUTO 06005KT 9SM CLR 04/M07 A3027 RMK AO2 SLP224 T00441067,KCEZ,2023-11-05T03:53:00Z,37.3071,-108.626,4.4,-6.7,60,5,,9,30.27,1022.4,,TRUE,TRUE,,,,,,,CLR,,,,,,,,VFR,,,,,,,,,,,,METAR,1801
KCEW 050353Z AUTO 00000KT 10SM CLR 09/08 A3018 RMK AO2 SLP220 T00940078,KCEW,2023-11-05T03:53:00Z,30.7771,-86.5194,9.4,7.8,0,0,,10+,30.18,1022,,TRUE,TRUE,,,,,,,CLR,,,,,,,,VFR,,,,,,,,,,,,METAR,47
KCDW 050353Z AUTO 00000KT 10SM SCT110 11/04 A3010 RMK AO2 RAB23E34 SLP199 P0000 T01060044,KCDW,2023-11-05T03:53:00Z,40.8764,-74.2829,10.6,4.4,0,0,,10+,30.10,1019.9,,TRUE,TRUE,,,,,,,SCT,11000,,,,,,,VFR,,,,,,0.005,,,,,,METAR,52
KCDS 050353Z AUTO 07004KT 10SM CLR 15/11 A3011 RMK AO2 SLP185 T01500111,KCDS,2023-11-05T03:53:00Z,34.4275,-100.284,15,11.1,70,4,,10+,30.11,1018.5,,TRUE,TRUE,,,,,,,CLR,,,,,,,,VFR,,,,,,,,,,,,METAR,595
KCDR 050353Z AUTO 23005KT 10SM CLR 06/M01 A3000 RMK AO2 SLP175 T00611006,KCDR,2023-11-05T03:53:00Z,42.8374,-103.098,6.1,-0.6,230,5,,10+,30.00,1017.5,,TRUE,TRUE,,,,,,,CLR,,,,,,,,VFR,,,,,,,,,,,,METAR,1002
KCDC 050353Z AUTO 13007KT 10SM CLR 11/M12 A3021 RMK AO2 SLP196 T01061117,KCDC,2023-11-05T03:53:00Z,37.7067,-113.097,10.6,-11.7,130,7,,10+,30.21,1019.6,,TRUE,TRUE,,,,,,,CLR,,,,,,,,VFR,,,,,,,,,,,,METAR,1703
KCCR 050353Z 22008KT 10SM CLR 16/13 A3005 RMK AO2 SLP161 T01560128,KCCR,2023-11-05T03:53:00Z,37.9916,-122.053,15.6,12.8,220,8,,10+,30.05,1016.1,,,TRUE,,,,,,,CLR,,,,,,,,VFR,,,,,,,,,,,,METAR,6
KCAG 050353Z AUTO 00000KT 10SM CLR 02/M03 A3023 RMK AO2 SLP243 T00221033,KCAG,2023-11-05T03:53:00Z,40.493,-107.524,2.2,-3.3,0,0,,10+,30.23,1024.3,,TRUE,TRUE,,,,,,,CLR,,,,,,,,VFR,,,,,,,,,,,,METAR,1888
KBYI 050353Z AUTO 25009KT 10SM FEW060 BKN095 OVC110 14/03 A3003 RMK AO2 RAB26E44 SLP160 P0000 T01440028,KBYI,2023-11-05T03:53:00Z,42.5452,-113.769,14.4,2.8,250,9,,10+,30.03,1016,,TRUE,TRUE,,,,,,,FEW,6000,BKN,9500,OVC,11000,,,VFR,,,,,,0.005,,,,,,METAR,1263
KBYG 050353Z AUTO 25007KT 10SM CLR 09/00 A2994 RMK AO2 SLP124 T00940000 $,KBYG,2023-11-05T03:53:00Z,44.3812,-106.719,9.4,0,250,7,,10+,29.94,1012.4,,TRUE,TRUE,TRUE,,,,,,CLR,,,,,,,,VFR,,,,,,,,,,,,METAR,1503
KBWG 050353Z AUTO 00000KT 10SM CLR 13/08 A3016 RMK AO2 SLP212 T01330083,KBWG,2023-11-05T03:53:00Z,36.9647,-86.4238,13.3,8.3,0,0,,10+,30.16,1021.2,,TRUE,TRUE,,,,,,,CLR,,,,,,,,VFR,,,,,,,,,,,,METAR,159
KBVY 050353Z AUTO 00000KT 10SM CLR 06/04 A3007 RMK AO2 SLP179 T00610039,KBVY,2023-11-05T03:53:00Z,42.5841,-70.9153,6.1,3.9,0,0,,10+,30.07,1017.9,,TRUE,TRUE,,,,,,,CLR,,,,,,,,VFR,,,,,,,,,,,,METAR,28
KBVO 050353Z AUTO 03003KT 10SM SCT050 14/08 A3018 RMK AO2 SLP215 T01390078,KBVO,2023-11-05T03:53:00Z,36.7664,-96.0129,13.9,7.8,30,3,,10+,30.18,1021.5,,TRUE,TRUE,,,,,,,SCT,5000,,,,,,,VFR,,,,,,,,,,,,METAR,210
KBUR 050353Z 31004KT 10SM CLR 18/06 A3001 RMK AO2 SLP154 T01830061,KBUR,2023-11-05T03:53:00Z,34.1996,-118.365,18.3,6.1,310,4,,10+,30.01,1015.4,,,TRUE,,,,,,,CLR,,,,,,,,VFR,,,,,,,,,,,,METAR,221
KBTR 050353Z 00000KT 10SM CLR 13/09 A3017 RMK AO2 SLP215 T01280089,KBTR,2023-11-05T03:53:00Z,30.5378,-91.1468,12.8,8.9,0,0,,10+,30.17,1021.5,,,TRUE,,,,,,,CLR,,,,,,,,VFR,,,,,,,,,,,,METAR,20
KBTM 050353Z AUTO 31003KT 10SM OVC110 06/02 A2995 RMK AO2 SLP152 T00560022,KBTM,2023-11-05T03:53:00Z,45.9644,-112.501,5.6,2.2,310,3,,10+,29.95,1015.2,,TRUE,TRUE,,,,,,,OVC,11000,,,,,,,VFR,,,,,,,,,,,,METAR,1680
KBRO 050353Z 12004KT 10SM CLR 18/16 A3011 RMK AO2 SLP195 T01830156 $,KBRO,2023-11-05T03:53:00Z,25.9146,-97.4231,18.3,15.6,120,4,,10+,30.11,1019.5,,,TRUE,TRUE,,,,,,CLR,,,,,,,,VFR,,,,,,,,,,,,METAR,6
KBRL 050353Z AUTO 00000KT 10SM CLR 06/02 A3018 RMK AO2 SLP223 T00560022,KBRL,2023-11-05T03:53:00Z,40.7729,-91.1255,5.6,2.2,0,0,,10+,30.18,1022.3,,TRUE,TRUE,,,,,,,CLR,,,,,,,,VFR,,,,,,,,,,,,METAR,208
KBRD 050353Z AUTO 04006KT 10SM OVC035 02/M02 A3011 RMK AO2 SLP213 T00221022,KBRD,2023-11-05T03:53:00Z,46.4021,-94.1273,2.2,-2.2,40,6,,10+,30.11,1021.3,,TRUE,TRUE,,,,,,,OVC,3500,,,,,,,VFR,,,,,,,,,,,,METAR,372
KBPK 050353Z AUTO 06004KT 10SM SCT080 15/09 A3018 RMK AO2 SLP214 T01500089,KBPK,2023-11-05T03:53:00Z,36.3705,-92.4719,15,8.9,60,4,,10+,30.18,1021.4,,TRUE,TRUE,,,,,,,SCT,8000,,,,,,,VFR,,,,,,,,,,,,METAR,279
KBPI 050353Z AUTO 07006KT 10SM SCT120 04/M06 A3018 RMK AO2 SLP206 T00391061,KBPI,2023-11-05T03:53:00Z,42.578,-110.11,3.9,-6.1,70,6,,10+,30.18,1020.6,,TRUE,TRUE,,,,,,,SCT,12000,,,,,,,VFR,,,,,,,,,,,,METAR,2120
KBOI 050353Z AUTO 22010KT 9SM -RA SCT060 BKN080 OVC110 13/08 A2997 RMK AO2 RAB48 PRESRR SLP145 P0000 T01280083,KBOI,2023-11-05T03:53:00Z,43.567,-116.241,12.8,8.3,220,10,,9,29.97,1014.5,,TRUE,TRUE,,,,,,-RA,SCT,6000,BKN,8000,OVC,11000,,,VFR,,,,,,0.005,,,,,,METAR,860
KBNO 050353Z AUTO 29008KT 10SM FEW050 OVC060 11/07 A2998 RMK AO2 RAB17E39 SLP147 P0000 T01060072,KBNO,2023-11-05T03:53:00Z,43.5949,-118.958,10.6,7.2,290,8,,10+,29.98,1014.7,,TRUE,TRUE,,,,,,,FEW,5000,OVC,6000,,,,,VFR,,,,,,0.005,,,,,,METAR,1263
KBNA 050353Z 18004KT 10SM BKN180 12/06 A3017 RMK AO2 SLP214 T01220056,KBNA,2023-11-05T03:53:00Z,36.1105,-86.6881,12.2,5.6,180,4,,10+,30.17,1021.4,,,TRUE,,,,,,,BKN,18000,,,,,,,VFR,,,,,,,,,,,,METAR,168
KBMQ 050353Z AUTO 00000KT 10SM CLR 16/13 A3014 RMK AO2 SLP196 T01610133,KBMQ,2023-11-05T03:53:00Z,30.7407,-98.2354,16.1,13.3,0,0,,10+,30.14,1019.6,,TRUE,TRUE,,,,,,,CLR,,,,,,,,VFR,,,,,,,,,,,,METAR,387
KBMG 050353Z AUTO 36004KT 10SM OVC110 10/05 A3016 RMK AO2 SLP210 T01000050,KBMG,2023-11-05T03:53:00Z,39.1432,-86.6168,10,5,360,4,,10+,30.16,1021,,TRUE,TRUE,,,,,,,OVC,11000,,,,,,,VFR,,,,,,,,,,,,METAR,254
KBLI 050353Z VRB06KT 10SM SCT025 BKN035 OVC060 12/11 A2976 RMK AO2 RAE39 SLP083 P0001 T01220106,KBLI,2023-11-05T03:53:00Z,48.7991,-122.541,12.2,10.6,VRB,6,,10+,29.76,1008.3,,,TRUE,,,,,,,SCT,2500,BKN,3500,OVC,6000,,,VFR,,,,,,0.01,,,,,,METAR,46
KBKV 050353Z AUTO 00000KT 10SM OVC075 12/06 A3011 RMK AO2 SLP196 T01220056 $,KBKV,2023-11-05T03:53:00Z,28.4739,-82.4537,12.2,5.6,0,0,,10+,30.11,1019.6,,TRUE,TRUE,TRUE,,,,,,OVC,7500,,,,,,,VFR,,,,,,,,,,,,METAR,21
KBKL 050353Z 11004KT 10SM FEW090 11/05 A3007 RMK AO2 SLP183 T01110050,KBKL,2023-11-05T03:53:00Z,41.5173,-81.6832,11.1,5,110,4,,10+,30.07,1018.3,,,TRUE,,,,,,,FEW,9000,,,,,,,VFR,,,,,,,,,,,,METAR,177
KBKE 050353Z AUTO 24006KT 4SM RA BR FEW005 BKN048 OVC055 09/08 A2994 RMK AO2 SLP140 T00890078 PNO $,KBKE,2023-11-05T03:53:00Z,44.843,-117.81,8.9,7.8,240,6,,4,29.94,1014,,TRUE,TRUE,TRUE,,,,,RA BR,FEW,500,BKN,4800,OVC,5500,,,MVFR,,,,,,,,,,,,METAR,1025
KBIV 050353Z AUTO 00000KT 10SM CLR 03/01 A3015 RMK AO2 SLP212 T00330006,KBIV,2023-11-05T03:53:00Z,42.7463,-86.0968,3.3,0.6,0,0,,10+,30.15,1021.2,,TRUE,TRUE,,,,,,,CLR,,,,,,,,VFR,,,,,,,,,,,,METAR,207
KBIL 050353Z 23009KT 10SM BKN130 12/01 A2988 RMK AO2 SLP120 T01170011,KBIL,2023-11-05T03:53:00Z,45.8072,-108.546,11.7,1.1,230,9,,10+,29.88,1012,,,TRUE,,,,,,,BKN,13000,,,,,,,VFR,,,,,,,,,,,,METAR,1089
KBHM 050353Z 00000KT 10SM CLR 10/04 A3021 RMK AO2 SLP226 T01000044,KBHM,2023-11-05T03:53:00Z,33.5655,-86.7449,10,4.4,0,0,,10+,30.21,1022.6,,,TRUE,,,,,,,CLR,,,,,,,,VFR,,,,,,,,,,,,METAR,191
KBGR 050353Z 00000KT 10SM OVC065 08/04 A3007 RMK AO2 SLP181 T00780039,KBGR,2023-11-05T03:53:00Z,44.7979,-68.8195,7.8,3.9,0,0,,10+,30.07,1018.1,,,TRUE,,,,,,,OVC,6500,,,,,,,VFR,,,,,,,,,,,,METAR,45
KBGM 050353Z AUTO 29003KT 10SM OVC049 10/M02 A3006 RMK AO2 SLP181 T01001017,KBGM,2023-11-05T03:53:00Z,42.2068,-75.9799,10,-1.7,290,3,,10+,30.06,1018.1,,TRUE,TRUE,,,,,,,OVC,4900,,,,,,,VFR,,,,,,,,,,,,METAR,485
KBFM 050353Z AUTO 30003KT 10SM CLR 12/09 A3019 RMK AO2 SLP222 T01170094,KBFM,2023-11-05T03:53:00Z,30.6147,-88.063,11.7,9.4,300,3,,10+,30.19,1022.2,,TRUE,TRUE,,,,,,,CLR,,,,,,,,VFR,,,,,,,,,,,,METAR,7
KBFI 050353Z 17007KT 10SM BKN090 13/11 A2982 RMK AO2 SLP099 T01280111,KBFI,2023-11-05T03:53:00Z,47.5455,-122.315,12.8,11.1,170,7,,10+,29.82,1009.9,,,TRUE,,,,,,,BKN,9000,,,,,,,VFR,,,,,,,,,,,,METAR,7
KBFF 050353Z AUTO 09006KT 10SM CLR 04/ A3006 RMK AO2 SLP181 T0044 $,KBFF,2023-11-05T03:53:00Z,41.8747,-103.601,4.4,,90,6,,10+,30.06,1018.1,,TRUE,TRUE,TRUE,,,,,,CLR,,,,,,,,VFR,,,,,,,,,,,,METAR,1204
KBFD 050353Z AUTO 00000KT 10SM OVC050 08/02 A3006 RMK AO2 SLP183 T00830017,KBFD,2023-11-05T03:53:00Z,41.7984,-78.6354,8.3,1.7,0,0,,10+,30.06,1018.3,,TRUE,TRUE,,,,,,,OVC,5000,,,,,,,VFR,,,,,,,,,,,,METAR,642
KBEH 050353Z AUTO VRB04KT 10SM CLR 08/04 A3017 RMK AO2 SLP216 T00780039,KBEH,2023-11-05T03:53:00Z,42.129,-86.4152,7.8,3.9,VRB,4,,10+,30.17,1021.6,,TRUE,TRUE,,,,,,,CLR,,,,,,,,VFR,,,,,,,,,,,,METAR,196
KBDE 050353Z AUTO 00000KT 10SM OVC080 M02/M06 A3014 RMK AO2 SLP225 T10171056,KBDE,2023-11-05T03:53:00Z,48.7261,-94.6122,-1.7,-5.6,0,0,,10+,30.14,1022.5,,TRUE,TRUE,,,,,,,OVC,8000,,,,,,,VFR,,,,,,,,,,,,METAR,330
KBCE 050353Z AUTO 25006KT 10SM CLR 00/M09 A3032 RMK AO2 SLP218 T00001089 $,KBCE,2023-11-05T03:53:00Z,37.7013,-112.149,0,-8.9,250,6,,10+,30.32,1021.8,,TRUE,TRUE,TRUE,,,,,,CLR,,,,,,,,VFR,,,,,,,,,,,,METAR,2311
KBBW 050353Z AUTO 17007KT 10SM CLR 08/06 A3012 RMK AO2 SLP202 T00780061,KBBW,2023-11-05T03:53:00Z,41.4365,-99.6385,7.8,6.1,170,7,,10+,30.12,1020.2,,TRUE,TRUE,,,,,,,CLR,,,,,,,,VFR,,,,,,,,,,,,METAR,771
KBAF 050353Z AUTO 00000KT 10SM SCT110 07/04 A3008 RMK AO2 SLP188 T00670039,KBAF,2023-11-05T03:53:00Z,42.16,-72.7124,6.7,3.9,0,0,,10+,30.08,1018.8,,TRUE,TRUE,,,,,,,SCT,11000,,,,,,,VFR,,,,,,,,,,,,METAR,80
KAZO 050353Z AUTO 31004KT 8SM CLR 06/04 A3015 RMK AO2 SLP214 T00610039 $,KAZO,2023-11-05T03:53:00Z,42.2283,-85.546,6.1,3.9,310,4,,8,30.15,1021.4,,TRUE,TRUE,TRUE,,,,,,CLR,,,,,,,,VFR,,,,,,,,,,,,METAR,264
KAXN 050353Z AUTO 03004KT 9SM CLR 02/M01 A3007 RMK AO2 SLP200 T00171006,KAXN,2023-11-05T03:53:00Z,45.868,-95.394,1.7,-0.6,30,4,,9,30.07,1020,,TRUE,TRUE,,,,,,,CLR,,,,,,,,VFR,,,,,,,,,,,,METAR,433
KAWM 050353Z AUTO 00000KT 10SM CLR 11/07 A3016 RMK AO2 SLP211 T01060067,KAWM,2023-11-05T03:53:00Z,35.1401,-90.2359,10.6,6.7,0,0,,10+,30.16,1021.1,,TRUE,TRUE,,,,,,,CLR,,,,,,,,VFR,,,,,,,,,,,,METAR,64
KAUS 050353Z 00000KT 10SM SCT250 13/13 A3012 RMK AO2 SLP198 T01330128,KAUS,2023-11-05T03:53:00Z,30.2099,-97.6806,13.3,12.8,0,0,,10+,30.12,1019.8,,,TRUE,,,,,,,SCT,25000,,,,,,,VFR,,,,,,,,,,,,METAR,148
KAUG 050353Z AUTO 00000KT 10SM OVC060 08/04 A3007 RMK AO2 SLP184 T00830039,KAUG,2023-11-05T03:53:00Z,44.3161,-69.797,8.3,3.9,0,0,,10+,30.07,1018.4,,TRUE,TRUE,,,,,,,OVC,6000,,,,,,,VFR,,,,,,,,,,,,METAR,107
KATY 050353Z AUTO 00000KT 10SM CLR 04/02 A3005 RMK AO2 SLP192 T00390017,KATY,2023-11-05T03:53:00Z,44.9045,-97.1496,3.9,1.7,0,0,,10+,30.05,1019.2,,TRUE,TRUE,,,,,,,CLR,,,,,,,,VFR,,,,,,,,,,,,METAR,531
KASX 050353Z AUTO 18003KT 4SM -SN BR BKN012 BKN033 OVC041 01/M01 A3016 RMK AO2 SNE03B38 SLP224 P0000 T00111006,KASX,2023-11-05T03:53:00Z,46.5468,-90.9184,1.1,-0.6,180,3,,4,30.16,1022.4,,TRUE,TRUE,,,,,,-SN BR,BKN,1200,BKN,3300,OVC,4100,,,MVFR,,,,,,0.005,,,,,,METAR,249
KASE 050353Z AUTO 21008KT 10SM CLR 01/M06 A3032 RMK AO2 SLP233 T00061061,KASE,2023-11-05T03:53:00Z,39.2299,-106.871,0.6,-6.1,210,8,,10+,30.32,1023.3,,TRUE,TRUE,,,,,,,CLR,,,,,,,,VFR,,,,,,,,,,,,METAR,2384
KASD 050353Z AUTO 00000KT 10SM CLR 13/12 A3017 RMK AO2 SLP215 T01280117,KASD,2023-11-05T03:53:00Z,30.3436,-89.8224,12.8,11.7,0,0,,10+,30.17,1021.5,,TRUE,TRUE,,,,,,,CLR,,,,,,,,VFR,,,,,,,,,,,,METAR,8
KARB 050353Z AUTO 00000KT 6SM BR CLR 04/03 A3010 RMK AO2 SLP196 T00440033,KARB,2023-11-05T03:53:00Z,42.2239,-83.7398,4.4,3.3,0,0,,6,30.10,1019.6,,TRUE,TRUE,,,,,,BR,CLR,,,,,,,,VFR,,,,,,,,,,,,METAR,251
KARA 050353Z AUTO 00000KT 10SM CLR 13/10 A3017 RMK AO2 SLP217 T01330100,KARA,2023-11-05T03:53:00Z,30.0292,-91.8845,13.3,10,0,0,,10+,30.17,1021.7,,TRUE,TRUE,,,,,,,CLR,,,,,,,,VFR,,,,,,,,,,,,METAR,5
KAPF 050353Z AUTO 02006KT 10SM FEW021 22/20 A3003 RMK AO2 SLP167 T02220200,KAPF,2023-11-05T03:53:00Z,26.155,-81.7751,22.2,20,20,6,,10+,30.03,1016.7,,TRUE,TRUE,,,,,,,FEW,2100,,,,,,,VFR,,,,,,,,,,,,METAR,2
KAPA 050353Z 17010KT 10SM FEW100 SCT200 10/M02 A3015 RMK AO2 SLP184 T01001022,KAPA,2023-11-05T03:53:00Z,39.5599,-104.848,10,-2.2,170,10,,10+,30.15,1018.4,,,TRUE,,,,,,,FEW,10000,SCT,20000,,,,,VFR,,,,,,,,,,,,METAR,1791
KAOO 050353Z AUTO 21005KT 10SM FEW075 BKN090 09/M01 A3008 RMK AO2 SLP187 T00941006,KAOO,2023-11-05T03:53:00Z,40.2999,-78.3168,9.4,-0.6,210,5,,10+,30.08,1018.7,,TRUE,TRUE,,,,,,,FEW,7500,BKN,9000,,,,,VFR,,,,,,,,,,,,METAR,450
KAOH 050353Z AUTO 27007KT 10SM CLR 07/03 A3011 RMK AO2 SLP199 T00720033,KAOH,2023-11-05T03:53:00Z,40.7081,-84.0214,7.2,3.3,270,7,,10+,30.11,1019.9,,TRUE,TRUE,,,,,,,CLR,,,,,,,,VFR,,,,,,,,,,,,METAR,294
KANB 050353Z AUTO 10003KT 10SM CLR 06/04 A3019 RMK AO2 SLP225 T00610039,KANB,2023-11-05T03:53:00Z,33.5904,-85.8479,6.1,3.9,100,3,,10+,30.19,1022.5,,TRUE,TRUE,,,,,,,CLR,,,,,,,,VFR,,,,,,,,,,,,METAR,187
KAMW 050353Z AUTO 00000KT 9SM CLR 04/00 A3017 RMK AO2 SLP221 T00390000,KAMW,2023-11-05T03:53:00Z,41.9905,-93.6185,3.9,0,0,0,,9,30.17,1022.1,,TRUE,TRUE,,,,,,,CLR,,,,,,,,VFR,,,,,,,,,,,,METAR,282
KAMG 050353Z AUTO 35003KT 9SM CLR 10/08 A3013 RMK AO2 SLP202 T01000083,KAMG,2023-11-05T03:53:00Z,31.5401,-82.5074,10,8.3,350,3,,9,30.13,1020.2,,TRUE,TRUE,,,,,,,CLR,,,,,,,,VFR,,,,,,,,,,,,METAR,61
KAMA 050353Z 09003KT 10SM CLR 10/06 A3018 RMK AO2 SLP205 T01000061 $,KAMA,2023-11-05T03:53:00Z,35.2203,-101.717,10,6.1,90,3,,10+,30.18,1020.5,,,TRUE,TRUE,,,,,,CLR,,,,,,,,VFR,,,,,,,,,,,,METAR,1102
KALW 050353Z AUTO 19014KT 7SM -RA FEW047 SCT060 OVC075 13/12 A2984 RMK AO2 SLP106 P0004 T01330117,KALW,2023-11-05T03:53:00Z,46.0946,-118.286,13.3,11.7,190,14,,7,29.84,1010.6,,TRUE,TRUE,,,,,,-RA,FEW,4700,SCT,6000,OVC,7500,,,VFR,,,,,,0.04,,,,,,METAR,355
KAKO 050353Z AUTO 18009KT 10SM CLR 07/M01 A3013 RMK AO2 SLP187 T00721011,KAKO,2023-11-05T03:53:00Z,40.1743,-103.215,7.2,-1.1,180,9,,10+,30.13,1018.7,,TRUE,TRUE,,,,,,,CLR,,,,,,,,VFR,,,,,,,,,,,,METAR,1431
KAIA 050353Z AUTO 15007KT 10SM CLR 03/M02 A3006 RMK AO2 SLP196 T00331017 $,KAIA,2023-11-05T03:53:00Z,42.0573,-102.802,3.3,-1.7,150,7,,10+,30.06,1019.6,,TRUE,TRUE,TRUE,,,,,,CLR,,,,,,,,VFR,,,,,,,,,,,,METAR,1198
KAGS 050353Z 00000KT 10SM CLR 04/03 A3014 RMK AO2 SLP207 T00440033 $,KAGS,2023-11-05T03:53:00Z,33.3652,-81.9635,4.4,3.3,0,0,,10+,30.14,1020.7,,,TRUE,TRUE,,,,,,CLR,,,,,,,,VFR,,,,,,,,,,,,METAR,40
KAGC 050353Z 20006KT 10SM OVC070 13/M01 A3006 RMK AO2 SLP184 T01281006 $,KAGC,2023-11-05T03:53:00Z,40.3551,-79.9215,12.8,-0.6,200,6,,10+,30.06,1018.4,,,TRUE,TRUE,,,,,,OVC,7000,,,,,,,VFR,,,,,,,,,,,,METAR,380
KAFW 050353Z 10004KT 10SM FEW040 18/14 A3012 RMK AO2 SLP193 T01780139,KAFW,2023-11-05T03:53:00Z,32.99,-97.32,17.8,13.9,100,4,,10+,30.12,1019.3,,,TRUE,,,,,,,FEW,4000,,,,,,,VFR,,,,,,,,,,,,METAR,208
KAEX 050353Z 00000KT 10SM CLR 12/07 A3016 RMK AO2 SLP216 T01220067,KAEX,2023-11-05T03:53:00Z,31.3346,-92.5585,12.2,6.7,0,0,,10+,30.16,1021.6,,,TRUE,,,,,,,CLR,,,,,,,,VFR,,,,,,,,,,,,METAR,25
KADG 050353Z AUTO 00000KT 9SM CLR 06/03 A3012 RMK AO2 SLP203 T00560033,KADG,2023-11-05T03:53:00Z,41.8678,-84.0794,5.6,3.3,0,0,,9,30.12,1020.3,,TRUE,TRUE,,,,,,,CLR,,,,,,,,VFR,,,,,,,,,,,,METAR,244
KACV 050353Z AUTO 13005KT 10SM OVC021 15/13 A2997 RMK AO2 SLP153 T01500128,KACV,2023-11-05T03:53:00Z,40.9784,-124.105,15,12.8,130,5,,10+,29.97,1015.3,,TRUE,TRUE,,,,,,,OVC,2100,,,,,,,MVFR,,,,,,,,,,,,METAR,63
KACK 050353Z AUTO 24005KT 10SM CLR 09/08 A3010 RMK AO2 SLP192 T00940083,KACK,2023-11-05T03:53:00Z,41.2541,-70.0589,9.4,8.3,240,5,,10+,30.10,1019.2,,TRUE,TRUE,,,,,,,CLR,,,,,,,,VFR,,,,,,,,,,,,METAR,12
KABY 050353Z AUTO 00000KT 10SM CLR 09/06 A3018 RMK AO2 SLP218 T00940061,KABY,2023-11-05T03:53:00Z,31.5364,-84.1958,9.4,6.1,0,0,,10+,30.18,1021.8,,TRUE,TRUE,,,,,,,CLR,,,,,,,,VFR,,,,,,,,,,,,METAR,60
KAAF 050353Z AUTO 00000KT 10SM CLR 14/12 A3015 RMK AO2 SLP209 T01390117,KAAF,2023-11-05T03:53:00Z,29.7268,-85.0248,13.9,11.7,0,0,,10+,30.15,1020.9,,TRUE,TRUE,,,,,,,CLR,,,,,,,,VFR,,,,,,,,,,,,METAR,5
K04V 050353Z AUTO 33008KT 10SM CLR 03/M11 A3036 RMK AO2,K04V,2023-11-05T03:53:00Z,38.099,-106.17,3,-11,330,8,,10+,30.36,,,TRUE,TRUE,,,,,,,CLR,,,,,,,,VFR,,,,,,,,,,,,METAR,2389
PKMR 050352Z 09004KT 15SM FEW015 SCT050 BKN120 OVC300 30/25 A2973 RMK SLP068 T02960249,PKMR,2023-11-05T03:52:00Z,7.09,171.383,29.6,24.9,90,4,,15,29.73,1006.8,,,,,,,,,,FEW,1500,SCT,5000,BKN,12000,OVC,30000,VFR,,,,,,,,,,,,METAR,7
PATA 050352Z 09007KT 10SM OVC041 M07/M14 A2958 RMK AO2 SLP022 T10721144 $,PATA,2023-11-05T03:52:00Z,65.173,-152.107,-7.2,-14.4,90,7,,10+,29.58,1002.2,,,TRUE,TRUE,,,,,,OVC,4100,,,,,,,VFR,,,,,,,,,,,,METAR,62
PABA 050352Z AUTO 11023KT 3SM -SN BR OVC026 M10/M12 A3009 RMK AO2 PK WND 11030/0336 SLP195 P0000 T11001122 FZRANO,PABA,2023-11-05T03:52:00Z,70.135,-143.585,-10,-12.2,110,23,,3,30.09,1019.5,,TRUE,TRUE,,,,,,-SN BR,OVC,2600,,,,,,,MVFR,,,,,,0.005,,,,,,METAR,1
MMSP 050352Z 00000KT 8SM SKC 14/07 A3031 RMK CI,MMSP,2023-11-05T03:52:00Z,22.256,-100.93,14,7,0,0,,8,30.31,,,,,,,,,,,SKC,,,,,,,,VFR,,,,,,,,,,,,METAR,1841
KVTN 050352Z AUTO 00000KT 10SM CLR 06/02 A3006 RMK AO2 SLP186 T00560017,KVTN,2023-11-05T03:52:00Z,42.8585,-100.551,5.6,1.7,0,0,,10+,30.06,1018.6,,TRUE,TRUE,,,,,,,CLR,,,,,,,,VFR,,,,,,,,,,,,METAR,790
KTRM 050352Z AUTO 36003KT 10SM CLR 13/05 A2993 RMK AO2 SLP137 T01330050 $,KTRM,2023-11-05T03:52:00Z,33.6317,-116.164,13.3,5,360,3,,10+,29.93,1013.7,,TRUE,TRUE,TRUE,,,,,,CLR,,,,,,,,VFR,,,,,,,,,,,,METAR,-39
KTOL 050352Z 00000KT 7SM CLR 07/04 A3010 RMK AO2 SLP196 T00720044,KTOL,2023-11-05T03:52:00Z,41.5871,-83.8054,7.2,4.4,0,0,,7,30.10,1019.6,,,TRUE,,,,,,,CLR,,,,,,,,VFR,,,,,,,,,,,,METAR,206
KSUX 050352Z AUTO 14005KT 10SM CLR 04/02 A3013 RMK AO2 SLP210 T00440022,KSUX,2023-11-05T03:52:00Z,42.3917,-96.3795,4.4,2.2,140,5,,10+,30.13,1021,,TRUE,TRUE,,,,,,,CLR,,,,,,,,VFR,,,,,,,,,,,,METAR,332
KSPS 050352Z AUTO 10006KT 10SM CLR 16/13 A3010 RMK AO2 SLP186 T01560133,KSPS,2023-11-05T03:52:00Z,33.9785,-98.493,15.6,13.3,100,6,,10+,30.10,1018.6,,TRUE,TRUE,,,,,,,CLR,,,,,,,,VFR,,,,,,,,,,,,METAR,310
KSPI 050352Z AUTO 22003KT 8SM CLR 03/02 A3020 RMK AO2 SLP227 T00330022,KSPI,2023-11-05T03:52:00Z,39.8453,-89.684,3.3,2.2,220,3,,8,30.20,1022.7,,TRUE,TRUE,,,,,,,CLR,,,,,,,,VFR,,,,,,,,,,,,METAR,179
KSGF 050352Z 11004KT 10SM FEW080 OVC100 11/10 A3019 RMK AO2 RAE49 TSB21E36 SLP220 P0014 T01060100,KSGF,2023-11-05T03:52:00Z,37.2398,-93.39,10.6,10,110,4,,10+,30.19,1022,,,TRUE,,,,,,,FEW,8000,OVC,10000,,,,,VFR,,,,,,0.14,,,,,,METAR,387
KREO 050352Z AUTO 18008KT 11/08 A2996 RMK AO1 SLP140 T01060078 $,KREO,2023-11-05T03:52:00Z,42.5902,-117.865,10.6,7.8,180,8,,,29.96,1014,,TRUE,TRUE,TRUE,,,,,,,,,,,,,,VFR,,,,,,,,,,,,METAR,1237
KRAP 050352Z 15007KT 10SM CLR 06/01 A2996 RMK AO2 SLP153 T00610011 $,KRAP,2023-11-05T03:52:00Z,44.0458,-103.054,6.1,1.1,150,7,,10+,29.96,1015.3,,,TRUE,TRUE,,,,,,CLR,,,,,,,,VFR,,,,,,,,,,,,METAR,965
KPYM 050352Z AUTO 00000KT 10SM CLR 07/07 A3008 RMK AO2 SLP187 T00720067,KPYM,2023-11-05T03:52:00Z,41.9085,-70.7278,7.2,6.7,0,0,,10+,30.08,1018.7,,TRUE,TRUE,,,,,,,CLR,,,,,,,,VFR,,,,,,,,,,,,METAR,42
KPWK 050352Z 00000KT 7SM CLR 02/01 A3019 RMK AO2 SLP225 T00220011 $,KPWK,2023-11-05T03:52:00Z,42.1208,-87.9048,2.2,1.1,0,0,,7,30.19,1022.5,,,TRUE,TRUE,,,,,,CLR,,,,,,,,VFR,,,,,,,,,,,,METAR,194
KPPF 050352Z AUTO VRB05KT 10SM OVC042 13/07 A3019 RMK AO2 SLP220 T01330067,KPPF,2023-11-05T03:52:00Z,37.3281,-95.5044,13.3,6.7,VRB,5,,10+,30.19,1022,,TRUE,TRUE,,,,,,,OVC,4200,,,,,,,VFR,,,,,,,,,,,,METAR,265
KP69 050352Z AUTO 00000KT 08/07 A2991 RMK AO1 SLP136 P0004 T00830072,KP69,2023-11-05T03:52:00Z,46.144,-115.597,8.3,7.2,0,0,,,29.91,1013.6,,TRUE,TRUE,,,,,,,,,,,,,,,VFR,,,,,,0.04,,,,,,METAR,447
KORE 050352Z AUTO 00000KT 10SM BKN100 06/04 A3009 RMK AO2 SLP192 T00560044,KORE,2023-11-05T03:52:00Z,42.57,-72.287,5.6,4.4,0,0,,10+,30.09,1019.2,,TRUE,TRUE,,,,,,,BKN,10000,,,,,,,VFR,,,,,,,,,,,,METAR,165
KOMA 050352Z 16007KT 10SM CLR 05/02 A3020 RMK AO2 SLP231 T00500022,KOMA,2023-11-05T03:52:00Z,41.3119,-95.9018,5,2.2,160,7,,10+,30.20,1023.1,,,TRUE,,,,,,,CLR,,,,,,,,VFR,,,,,,,,,,,,METAR,299
KOKC 050352Z 16005KT 10SM BKN050 BKN090 14/13 A3012 RMK AO2 SLP196 T01440128,KOKC,2023-11-05T03:52:00Z,35.3843,-97.6003,14.4,12.8,160,5,,10+,30.12,1019.6,,,TRUE,,,,,,,BKN,5000,BKN,9000,,,,,VFR,,,,,,,,,,,,METAR,391
KOKB 050352Z AUTO 00000KT 10SM OVC006 13/12 A2999 RMK AO2 SLP155 T01330117,KOKB,2023-11-05T03:52:00Z,33.2195,-117.35,13.3,11.7,0,0,,10+,29.99,1015.5,,TRUE,TRUE,,,,,,,OVC,600,,,,,,,IFR,,,,,,,,,,,,METAR,7
KNZY 050352Z 35004KT 7SM CLR 17/13 A2999 RMK AO2 SLP154 T01670128 $,KNZY,2023-11-05T03:52:00Z,32.6922,-117.21,16.7,12.8,350,4,,7,29.99,1015.4,,,TRUE,TRUE,,,,,,CLR,,,,,,,,VFR,,,,,,,,,,,,METAR,4
KNRB 050352Z AUTO 33006KT 10SM CLR 17/07 A3010 RMK AO2 SLP193 T01720072,KNRB,2023-11-05T03:52:00Z,30.396,-81.423,17.2,7.2,330,6,,10+,30.10,1019.3,,TRUE,TRUE,,,,,,,CLR,,,,,,,,VFR,,,,,,,,,,,,METAR,4
KNHK 050352Z AUTO 00000KT 10SM CLR 09/06 A3011 RMK AO2 SLP194 T00940061 $,KNHK,2023-11-05T03:52:00Z,38.284,-76.408,9.4,6.1,0,0,,10+,30.11,1019.4,,TRUE,TRUE,TRUE,,,,,,CLR,,,,,,,,VFR,,,,,,,,,,,,METAR,5
KNFW 050352Z AUTO 11006KT 10SM CLR 18/ A3012 RMK AO2 SLP184 T0178 $,KNFW,2023-11-05T03:52:00Z,32.781,-97.436,17.8,,110,6,,10+,30.12,1018.4,,TRUE,TRUE,TRUE,,,,,,CLR,,,,,,,,VFR,,,,,,,,,,,,METAR,188
KMLI 050352Z AUTO 00000KT 6SM BR CLR 02/M01 A3018 RMK AO2 SLP223 T00171006,KMLI,2023-11-05T03:52:00Z,41.4482,-90.5237,1.7,-0.6,0,0,,6,30.18,1022.3,,TRUE,TRUE,,,,,,BR,CLR,,,,,,,,VFR,,,,,,,,,,,,METAR,174
KMKE 050352Z 00000KT 8SM CLR 03/00 A3015 RMK AO2 SLP215 T00280000,KMKE,2023-11-05T03:52:00Z,42.9549,-87.9045,2.8,0,0,0,,8,30.15,1021.5,,,TRUE,,,,,,,CLR,,,,,,,,VFR,,,,,,,,,,,,METAR,203
KMHK 050352Z AUTO 00000KT 10SM CLR 07/03 A3020 RMK AO2 SLP231 T00670033,KMHK,2023-11-05T03:52:00Z,39.1346,-96.6789,6.7,3.3,0,0,,10+,30.20,1023.1,,TRUE,TRUE,,,,,,,CLR,,,,,,,,VFR,,,,,,,,,,,,METAR,320
KMFD 050352Z AUTO 24004KT 10SM CLR 09/03 A3009 RMK AO2 SLP192 T00890028,KMFD,2023-11-05T03:52:00Z,40.8204,-82.5177,8.9,2.8,240,4,,10+,30.09,1019.2,,TRUE,TRUE,,,,,,,CLR,,,,,,,,VFR,,,,,,,,,,,,METAR,394
KMEB 050352Z AUTO 00000KT 10SM CLR 07/03 A3012 RMK AO2 SLP199 T00670028,KMEB,2023-11-05T03:52:00Z,34.7913,-79.3683,6.7,2.8,0,0,,10+,30.12,1019.9,,TRUE,TRUE,,,,,,,CLR,,,,,,,,VFR,,,,,,,,,,,,METAR,65
KMDH 050352Z AUTO 00000KT 7SM CLR 11/07 A3019 RMK AO2 SLP222 T01060072,KMDH,2023-11-05T03:52:00Z,37.7833,-89.2453,10.6,7.2,0,0,,7,30.19,1022.2,,TRUE,TRUE,,,,,,,CLR,,,,,,,,VFR,,,,,,,,,,,,METAR,122
KMBG 050352Z AUTO 10011KT 7SM CLR 02/00 A2998 RMK AO2 SLP166 T00170000 $,KMBG,2023-11-05T03:52:00Z,45.543,-100.404,1.7,0,100,11,,7,29.98,1016.6,,TRUE,TRUE,TRUE,,,,,,CLR,,,,,,,,VFR,,,,,,,,,,,,METAR,515
KLWC 050352Z AUTO 00000KT 5SM BR CLR 04/03 A3021 RMK AO1 SLP232 T00390028,KLWC,2023-11-05T03:52:00Z,39.0078,-95.2115,3.9,2.8,0,0,,5,30.21,1023.2,,TRUE,TRUE,,,,,,BR,CLR,,,,,,,,MVFR,,,,,,,,,,,,METAR,252
KIOW 050352Z AUTO 00000KT 8SM CLR 02/M01 A3020 RMK AO2 SLP229 T00221006,KIOW,2023-11-05T03:52:00Z,41.6394,-91.5445,2.2,-0.6,0,0,,8,30.20,1022.9,,TRUE,TRUE,,,,,,,CLR,,,,,,,,VFR,,,,,,,,,,,,METAR,199
KIJD 050352Z AUTO 00000KT 10SM CLR 06/04 A3009 RMK AO2 SLP190 T00610044,KIJD,2023-11-05T03:52:00Z,41.7425,-72.1825,6.1,4.4,0,0,,10+,30.09,1019,,TRUE,TRUE,,,,,,,CLR,,,,,,,,VFR,,,,,,,,,,,,METAR,73
KIEN 050352Z AUTO 22006KT 10SM CLR 06/01 A3002 RMK AO2 SLP171 T00610006,KIEN,2023-11-05T03:52:00Z,43.0261,-102.52,6.1,0.6,220,6,,10+,30.02,1017.1,,TRUE,TRUE,,,,,,,CLR,,,,,,,,VFR,,,,,,,,,,,,METAR,1002
KIAD 050352Z 00000KT 10SM BKN110 BKN250 09/02 A3010 RMK AO2 SLP191 T00890022 $,KIAD,2023-11-05T03:52:00Z,38.9348,-77.4473,8.9,2.2,0,0,,10+,30.10,1019.1,,,TRUE,TRUE,,,,,,BKN,11000,BKN,25000,,,,,VFR,,,,,,,,,,,,METAR,90
KHUT 050352Z AUTO 10003KT 10SM CLR 08/04 A3018 RMK AO2 SLP215 T00830039,KHUT,2023-11-05T03:52:00Z,38.0682,-97.8607,8.3,3.9,100,3,,10+,30.18,1021.5,,TRUE,TRUE,,,,,,,CLR,,,,,,,,VFR,,,,,,,,,,,,METAR,464
KHRL 050352Z 13006KT 10SM CLR 18/15 A3011 RMK AO2 SLP194 T01830150,KHRL,2023-11-05T03:52:00Z,26.2303,-97.6556,18.3,15,130,6,,10+,30.11,1019.4,,,TRUE,,,,,,,CLR,,,,,,,,VFR,,,,,,,,,,,,METAR,9
KHIE 050352Z AUTO 00000KT 10SM FEW032 OVC055 05/04 A3006 RMK AO2 SLP185 T00500039,KHIE,2023-11-05T03:52:00Z,44.3659,-71.5522,5,3.9,0,0,,10+,30.06,1018.5,,TRUE,TRUE,,,,,,,FEW,3200,OVC,5500,,,,,VFR,,,,,,,,,,,,METAR,321
KGLS 050352Z AUTO 12005KT 10SM BKN070 21/19 A3016 RMK AO2 SLP212 T02060189,KGLS,2023-11-05T03:52:00Z,29.2704,-94.8642,20.6,18.9,120,5,,10+,30.16,1021.2,,TRUE,TRUE,,,,,,,BKN,7000,,,,,,,VFR,,,,,,,,,,,,METAR,2
KFIT 050352Z AUTO 00000KT 10SM CLR 08/03 A3008 RMK AO2 SLP188 T00780033,KFIT,2023-11-05T03:52:00Z,42.5549,-71.757,7.8,3.3,0,0,,10+,30.08,1018.8,,TRUE,TRUE,,,,,,,CLR,,,,,,,,VFR,,,,,,,,,,,,METAR,102
KEST 050352Z AUTO 20010KT 10SM CLR 05/02 A3011 RMK AO2 SLP205 T00500017,KEST,2023-11-05T03:52:00Z,43.4008,-94.7476,5,1.7,200,10,,10+,30.11,1020.5,,TRUE,TRUE,,,,,,,CLR,,,,,,,,VFR,,,,,,,,,,,,METAR,401
KDVN 050352Z AUTO 00000KT 10SM CLR 05/M01 A3019 RMK AO2 SLP226 T00501006,KDVN,2023-11-05T03:52:00Z,41.6133,-90.5948,5,-0.6,0,0,,10+,30.19,1022.6,,TRUE,TRUE,,,,,,,CLR,,,,,,,,VFR,,,,,,,,,,,,METAR,227
KDDC 050352Z AUTO 13007KT 8SM CLR 07/04 A3018 RMK AO2 SLP216 T00720044,KDDC,2023-11-05T03:52:00Z,37.7711,-99.9692,7.2,4.4,130,7,,8,30.18,1021.6,,TRUE,TRUE,,,,,,,CLR,,,,,,,,VFR,,,,,,,,,,,,METAR,786
KDCA 050352Z 00000KT 10SM SCT250 11/05 A3011 RMK AO2 SLP195 T01110050,KDCA,2023-11-05T03:52:00Z,38.8472,-77.0345,11.1,5,0,0,,10+,30.11,1019.5,,,TRUE,,,,,,,SCT,25000,,,,,,,VFR,,,,,,,,,,,,METAR,4
KCVG 050352Z 32005KT 10SM BKN150 12/06 A3013 RMK AO2 SLP201 T01220056,KCVG,2023-11-05T03:52:00Z,39.0444,-84.6724,12.2,5.6,320,5,,10+,30.13,1020.1,,,TRUE,,,,,,,BKN,15000,,,,,,,VFR,,,,,,,,,,,,METAR,264
KCQX 050352Z AUTO 00000KT 10SM CLR 11/08 A3009 RMK AO2 SLP190 T01060083,KCQX,2023-11-05T03:52:00Z,41.6878,-69.9932,10.6,8.3,0,0,,10+,30.09,1019,,TRUE,TRUE,,,,,,,CLR,,,,,,,,VFR,,,,,,,,,,,,METAR,17
KCNU 050352Z AUTO 10005KT 10SM BKN065 14/05 A3018 RMK AO2 SLP217 T01390050,KCNU,2023-11-05T03:52:00Z,37.6705,-95.4846,13.9,5,100,5,,10+,30.18,1021.7,,TRUE,TRUE,,,,,,,BKN,6500,,,,,,,VFR,,,,,,,,,,,,METAR,301
KCLT 050352Z 00000KT 9SM CLR 07/01 A3014 RMK AO2 SLP220 T00720006,KCLT,2023-11-05T03:52:00Z,35.2225,-80.9543,7.2,0.6,0,0,,9,30.14,1022,,,TRUE,,,,,,,CLR,,,,,,,,VFR,,,,,,,,,,,,METAR,223
KCKV 050352Z AUTO 28004KT 10SM CLR 13/07 A3016 RMK AO2 SLP212 T01330072 $,KCKV,2023-11-05T03:52:00Z,36.6169,-87.4118,13.3,7.2,280,4,,10+,30.16,1021.2,,TRUE,TRUE,TRUE,,,,,,CLR,,,,,,,,VFR,,,,,,,,,,,,METAR,166
KCID 050352Z 20003KT 10SM CLR 04/M01 A3017 RMK AO2 SLP222 T00391011,KCID,2023-11-05T03:52:00Z,41.8829,-91.7246,3.9,-1.1,200,3,,10+,30.17,1022.2,,,TRUE,,,,,,,CLR,,,,,,,,VFR,,,,,,,,,,,,METAR,257
KCFV 050352Z AUTO 06006KT 10SM CLR 12/08 A3017 RMK AO2 SLP216 T01220078,KCFV,2023-11-05T03:52:00Z,37.0912,-95.5726,12.2,7.8,60,6,,10+,30.17,1021.6,,TRUE,TRUE,,,,,,,CLR,,,,,,,,VFR,,,,,,,,,,,,METAR,228
KBML 050352Z AUTO 00000KT 10SM BKN028 OVC055 06/04 A3005 RMK AO2 SLP184 T00610044,KBML,2023-11-05T03:52:00Z,44.576,-71.1782,6.1,4.4,0,0,,10+,30.05,1018.4,,TRUE,TRUE,,,,,,,BKN,2800,OVC,5500,,,,,MVFR,,,,,,,,,,,,METAR,344
KBLU 050352Z AUTO 17006KT 10SM SCT033 OVC100 12/06 A3018 RMK AO2 SLP168 T01170061,KBLU,2023-11-05T03:52:00Z,39.2762,-120.709,11.7,6.1,170,6,,10+,30.18,1016.8,,TRUE,TRUE,,,,,,,SCT,3300,OVC,10000,,,,,VFR,,,,,,,,,,,,METAR,1605
KBLH 050352Z AUTO 33007KT 10SM CLR 18/M06 A2996 RMK AO2 SLP143 T01831061,KBLH,2023-11-05T03:52:00Z,33.6188,-114.715,18.3,-6.1,330,7,,10+,29.96,1014.3,,TRUE,TRUE,,,,,,,CLR,,,,,,,,VFR,,,,,,,,,,,,METAR,119
KBLF 050352Z AUTO 25004KT 10SM CLR 09/M04 A3019 RMK AO2 SLP211 T00941044,KBLF,2023-11-05T03:52:00Z,37.2978,-81.2036,9.4,-4.4,250,4,,10+,30.19,1021.1,,TRUE,TRUE,,,,,,,CLR,,,,,,,,VFR,,,,,,,,,,,,METAR,871
KBKB 050352Z AUTO 00000KT 10SM -RA CLR 12/08 A3015 RMK AO2 RAB51 SLP236 P0000 T01220083 $,KBKB,2023-11-05T03:52:00Z,31.022,-92.911,12.2,8.3,0,0,,10+,30.15,1023.6,,TRUE,TRUE,TRUE,,,,,-RA,CLR,,,,,,,,VFR,,,,,,0.005,,,,,,METAR,74
KBDR 050352Z AUTO 00000KT 10SM FEW120 10/07 A3009 RMK AO2 SLP189 T01000067,KBDR,2023-11-05T03:52:00Z,41.1642,-73.1266,10,6.7,0,0,,10+,30.09,1018.9,,TRUE,TRUE,,,,,,,FEW,12000,,,,,,,VFR,,,,,,,,,,,,METAR,5
KBAN 050352Z AUTO 10SM CLR 12/M02 A3017 RMK AO2 SLP187 T01171017 $,KBAN,2023-11-05T03:52:00Z,38.355,-119.522,11.7,-1.7,,,,10+,30.17,1018.7,,TRUE,TRUE,TRUE,,,,,,CLR,,,,,,,,VFR,,,,,,,,,,,,METAR,2067
KATL 050352Z 00000KT 10SM CLR 11/04 A3017 RMK AO2 SLP215 T01060039,KATL,2023-11-05T03:52:00Z,33.6297,-84.4422,10.6,3.9,0,0,,10+,30.17,1021.5,,,TRUE,,,,,,,CLR,,,,,,,,VFR,,,,,,,,,,,,METAR,309
KARR 050352Z AUTO 00000KT 6SM BR CLR 01/M01 A3017 RMK AO2 SLP223 T00061011,KARR,2023-11-05T03:52:00Z,41.7713,-88.4815,0.6,-1.1,0,0,,6,30.17,1022.3,,TRUE,TRUE,,,,,,BR,CLR,,,,,,,,VFR,,,,,,,,,,,,METAR,213
KAQW 050352Z AUTO 00000KT 10SM -RA OVC060 07/04 A3010 RMK AO2 RAB36 SLP196 P0000 T00670039,KAQW,2023-11-05T03:52:00Z,42.6973,-73.1696,6.7,3.9,0,0,,10+,30.10,1019.6,,TRUE,TRUE,,,,,,-RA,OVC,6000,,,,,,,VFR,,,,,,0.005,,,,,,METAR,196
KALS 050352Z AUTO 08005KT 10SM CLR M01/M11 A3031 RMK AO2 SLP251 T10111111,KALS,2023-11-05T03:52:00Z,37.4393,-105.862,-1.1,-11.1,80,5,,10+,30.31,1025.1,,TRUE,TRUE,,,,,,,CLR,,,,,,,,VFR,,,,,,,,,,,,METAR,2299
KAFN 050352Z AUTO 00000KT 10SM SCT080 OVC100 07/04 A3007 RMK AO2 SLP193 T00670039,KAFN,2023-11-05T03:52:00Z,42.8067,-72.0013,6.7,3.9,0,0,,10+,30.07,1019.3,,TRUE,TRUE,,,,,,,SCT,8000,OVC,10000,,,,,VFR,,,,,,,,,,,,METAR,308
KABQ 050352Z 28005KT 10SM FEW250 17/M06 A3025 RMK AO2 SLP198 T01671061,KABQ,2023-11-05T03:52:00Z,35.0419,-106.615,16.7,-6.1,280,5,,10+,30.25,1019.8,,,TRUE,,,,,,,FEW,25000,,,,,,,VFR,,,,,,,,,,,,METAR,1620
KABI 050352Z 17008KT 10SM CLR 17/13 A3009 RMK AO2 SLP175 T01670128,KABI,2023-11-05T03:52:00Z,32.4106,-99.6821,16.7,12.8,170,8,,10+,30.09,1017.5,,,TRUE,,,,,,,CLR,,,,,,,,VFR,,,,,,,,,,,,METAR,543
PHBK 050351Z AUTO 21007KT 10SM CLR 28/21 A3000 RMK AO2 SLP162 T02830211 $,PHBK,2023-11-05T03:51:00Z,22.034,-159.783,28.3,21.1,210,7,,10+,30.00,1016.2,,TRUE,TRUE,TRUE,,,,,,CLR,,,,,,,,VFR,,,,,,,,,,,,METAR,5
MUGM 050351Z 33005KT 10SM CLR 26/26 A2992 RMK AO2 SLP132 T02610256 $,MUGM,2023-11-05T03:51:00Z,19.909,-75.206,26.1,25.6,330,5,,10+,29.92,1013.2,,,TRUE,TRUE,,,,,,CLR,,,,,,,,VFR,,,,,,,,,,,,METAR,21
MMSD 050351Z 27006KT 12SM SCT100 BKN250 24/19 A2992 RMK 8/038,MMSD,2023-11-05T03:51:00Z,23.157,-109.72,24,19,270,6,,12,29.92,,,,,,,,,,,SCT,10000,BKN,25000,,,,,VFR,,,,,,,,,,,,METAR,107
LHKE 050351Z 15008KT 120V180 9999 -RA NSC 09/08 Q0995 TEMPO NSW RMK BLU,LHKE,2023-11-05T03:51:00Z,46.917,19.749,9,8,150,8,,6+,29.38,,,,,,,,,,-RA,CLR,,,,,,,,VFR,,,,,,,,,,,,SPECI,113
KYNG 050351Z 00000KT 10SM FEW060 OVC080 09/01 A3006 RMK AO2 SLP183 T00940006,KYNG,2023-11-05T03:51:00Z,41.2548,-80.6736,9.4,0.6,0,0,,10+,30.06,1018.3,,,TRUE,,,,,,,FEW,6000,OVC,8000,,,,,VFR,,,,,,,,,,,,METAR,356
KXWA 050351Z AUTO 12007KT 5SM BR OVC110 01/00 A2988 RMK AO2 SLP154 T00060000,KXWA,2023-11-05T03:51:00Z,48.2542,-103.747,0.6,0,120,7,,5,29.88,1015.4,,TRUE,TRUE,,,,,,BR,OVC,11000,,,,,,,MVFR,,,,,,,,,,,,METAR,717
KVNY 050351Z 00000KT 10SM CLR 20/06 A3000 RMK AO2 SLP153 T02000056,KVNY,2023-11-05T03:51:00Z,34.2121,-118.491,20,5.6,0,0,,10+,30.00,1015.3,,,TRUE,,,,,,,CLR,,,,,,,,VFR,,,,,,,,,,,,METAR,241
KVCT 050351Z AUTO 10003KT 8SM CLR 17/17 A3013 RMK AO2 SLP201 T01670167,KVCT,2023-11-05T03:51:00Z,28.8624,-96.9301,16.7,16.7,100,3,,8,30.13,1020.1,,TRUE,TRUE,,,,,,,CLR,,,,,,,,VFR,,,,,,,,,,,,METAR,33
KUGN 050351Z AUTO 25003KT 5SM BR CLR 01/M01 A3016 RMK AO2 SLP220 T00111006,KUGN,2023-11-05T03:51:00Z,42.4255,-87.8634,1.1,-0.6,250,3,,5,30.16,1022,,TRUE,TRUE,,,,,,BR,CLR,,,,,,,,MVFR,,,,,,,,,,,,METAR,217
KTPL 050351Z AUTO 17006KT 10SM CLR 17/14 A3013 RMK AO2 SLP195 T01720139,KTPL,2023-11-05T03:51:00Z,31.157,-97.4094,17.2,13.9,170,6,,10+,30.13,1019.5,,TRUE,TRUE,,,,,,,CLR,,,,,,,,VFR,,,,,,,,,,,,METAR,206
KTEB 050351Z 00000KT 10SM SCT110 11/05 A3009 RMK AO2 SLP188 T01060050 $,KTEB,2023-11-05T03:51:00Z,40.859,-74.0562,10.6,5,0,0,,10+,30.09,1018.8,,,TRUE,TRUE,,,,,,SCT,11000,,,,,,,VFR,,,,,,,,,,,,METAR,3
KSTL 050351Z 00000KT 10SM BKN095 13/06 A3021 RMK AO2 SLP228 T01280056 $,KSTL,2023-11-05T03:51:00Z,38.7524,-90.3734,12.8,5.6,0,0,,10+,30.21,1022.8,,,TRUE,TRUE,,,,,,BKN,9500,,,,,,,VFR,,,,,,,,,,,,METAR,163
KSNT 050351Z AUTO 15013G23KT 07/03 A3004 RMK AO1 SLP140 T00670028,KSNT,2023-11-05T03:51:00Z,44.1708,-114.927,6.7,2.8,150,13,23,,30.04,1014,,TRUE,TRUE,,,,,,,,,,,,,,,VFR,,,,,,,,,,,,METAR,1980
KSMX 050351Z AUTO 00000KT 9SM CLR 13/13 A3005 RMK AO2 SLP178 T01330128,KSMX,2023-11-05T03:51:00Z,34.894,-120.452,13.3,12.8,0,0,,9,30.05,1017.8,,TRUE,TRUE,,,,,,,CLR,,,,,,,,VFR,,,,,,,,,,,,METAR,73
KSJT 050351Z 00000KT 10SM CLR 14/13 A3011 RMK AO2 SLP189 T01390128,KSJT,2023-11-05T03:51:00Z,31.3517,-100.495,13.9,12.8,0,0,,10+,30.11,1018.9,,,TRUE,,,,,,,CLR,,,,,,,,VFR,,,,,,,,,,,,METAR,582
KSDB 050351Z AUTO 32011KT 10SM CLR 18/M08 A3017 RMK AO2 SLP171 T01831083 $,KSDB,2023-11-05T03:51:00Z,34.7433,-118.725,18.3,-8.3,320,11,,10+,30.17,1017.1,,TRUE,TRUE,TRUE,,,,,,CLR,,,,,,,,VFR,,,,,,,,,,,,METAR,1377
KSBD 050351Z 00000KT 10SM CLR 18/01 A3003,KSBD,2023-11-05T03:51:00Z,34.09,-117.247,18,1,0,0,,10+,30.03,,,,,,,,,,,CLR,,,,,,,,VFR,,,,,,,,,,,,METAR,353
KSAT 050351Z 00000KT 10SM BKN250 18/14 A3012 RMK AO2 SLP185 T01830139,KSAT,2023-11-05T03:51:00Z,29.5443,-98.4839,18.3,13.9,0,0,,10+,30.12,1018.5,,,TRUE,,,,,,,BKN,25000,,,,,,,VFR,,,,,,,,,,,,METAR,246
KSAN 050351Z 33003KT 6SM BR FEW010 FEW200 16/13 A3001 RMK AO2 SLP161 T01610133 $,KSAN,2023-11-05T03:51:00Z,32.7365,-117.197,16.1,13.3,330,3,,6,30.01,1016.1,,,TRUE,TRUE,,,,,BR,FEW,1000,FEW,20000,,,,,VFR,,,,,,,,,,,,METAR,3
KSAD 050351Z AUTO 09005KT 10SM CLR 14/M04 A3010 RMK AO2 SLP169 T01441044,KSAD,2023-11-05T03:51:00Z,32.8565,-109.636,14.4,-4.4,90,5,,10+,30.10,1016.9,,TRUE,TRUE,,,,,,,CLR,,,,,,,,VFR,,,,,,,,,,,,METAR,937
KROW 050351Z AUTO 01004KT 10SM CLR 14/M04 A3013 RMK AO2 SLP165 T01441039,KROW,2023-11-05T03:51:00Z,33.3074,-104.508,14.4,-3.9,10,4,,10+,30.13,1016.5,,TRUE,TRUE,,,,,,,CLR,,,,,,,,VFR,,,,,,,,,,,,METAR,1105
KRDU 050351Z 00000KT 10SM FEW250 08/01 A3012 RMK AO2 SLP200 T00780011,KRDU,2023-11-05T03:51:00Z,35.8923,-78.782,7.8,1.1,0,0,,10+,30.12,1020,,,TRUE,,,,,,,FEW,25000,,,,,,,VFR,,,,,,,,,,,,METAR,121
KPWM 050351Z 14003KT 10SM FEW060 OVC100 08/04 A3007 RMK AO2 SLP183 LAST T00830039,KPWM,2023-11-05T03:51:00Z,43.6424,-70.3044,8.3,3.9,140,3,,10+,30.07,1018.3,,,TRUE,,,,,,,FEW,6000,OVC,10000,,,,,VFR,,,,,,,,,,,,METAR,15
KPVD 050351Z 00000KT 10SM BKN120 OVC150 08/07 A3009 RMK AO2 SLP189 LAST T00830067,KPVD,2023-11-05T03:51:00Z,41.7225,-71.4325,8.3,6.7,0,0,,10+,30.09,1018.9,,,TRUE,,,,,,,BKN,12000,OVC,15000,,,,,VFR,,,,,,,,,,,,METAR,15
KPIT 050351Z 00000KT 10SM BKN065 OVC080 12/01 A3007 RMK AO2 SLP190 T01220006,KPIT,2023-11-05T03:51:00Z,40.4814,-80.2083,12.2,0.6,0,0,,10+,30.07,1019,,,TRUE,,,,,,,BKN,6500,OVC,8000,,,,,VFR,,,,,,,,,,,,METAR,339
KPHX 050351Z 00000KT 10SM FEW250 24/M02 A2996 RMK AO2 SLP133 T02391017,KPHX,2023-11-05T03:51:00Z,33.4278,-112.004,23.9,-1.7,0,0,,10+,29.96,1013.3,,,TRUE,,,,,,,FEW,25000,,,,,,,VFR,,,,,,,,,,,,METAR,338
KP59 050351Z AUTO 36007KT 03/00 A3012 RMK AO1 SLP209 T00330000,KP59,2023-11-05T03:51:00Z,47.467,-87.875,3.3,0,360,7,,,30.12,1020.9,,TRUE,TRUE,,,,,,,,,,,,,,,VFR,,,,,,,,,,,,METAR,185
KOXR 050351Z 00000KT 1/2SM FG VV002 14/14 A3001 RMK AO2 SLP161 T01440144 $,KOXR,2023-11-05T03:51:00Z,34.2001,-119.204,14.4,14.4,0,0,,0.5,30.01,1016.1,,,TRUE,TRUE,,,,,FG,OVX,0,,,,,,,LIFR,,,,,,,,,,,200,METAR,12
KOXC 050351Z AUTO 00000KT 10SM CLR 09/05 A3009 RMK AO2 SLP204 T00890050,KOXC,2023-11-05T03:51:00Z,41.4741,-73.1353,8.9,5,0,0,,10+,30.09,1020.4,,TRUE,TRUE,,,,,,,CLR,,,,,,,,VFR,,,,,,,,,,,,METAR,211
KORF 050351Z 00000KT 8SM CLR 10/09 A3009 RMK AO2 SLP189 T01000094,KORF,2023-11-05T03:51:00Z,36.9037,-76.1927,10,9.4,0,0,,8,30.09,1018.9,,,TRUE,,,,,,,CLR,,,,,,,,VFR,,,,,,,,,,,,METAR,5
KORD 050351Z 00000KT 9SM CLR 06/03 A3017 RMK AO2 SLP218 T00610033,KORD,2023-11-05T03:51:00Z,41.9602,-87.9316,6.1,3.3,0,0,,9,30.17,1021.8,,,TRUE,,,,,,,CLR,,,,,,,,VFR,,,,,,,,,,,,METAR,202
KOCF 050351Z AUTO 00000KT 10SM BKN075 13/04 A3012 RMK AO2 SLP201 T01330039,KOCF,2023-11-05T03:51:00Z,29.1636,-82.221,13.3,3.9,0,0,,10+,30.12,1020.1,,TRUE,TRUE,,,,,,,BKN,7500,,,,,,,VFR,,,,,,,,,,,,METAR,24
KNYC 050351Z AUTO 25003KT 10SM SCT100 13/02 A3012 RMK AO2 SLP190 T01280022 $,KNYC,2023-11-05T03:51:00Z,40.779,-73.9692,12.8,2.2,250,3,,10+,30.12,1019,,TRUE,TRUE,TRUE,,,,,,SCT,10000,,,,,,,VFR,,,,,,,,,,,,METAR,33
KNBT 050351Z AUTO 01005KT 10SM OVC060 19/16 A3006 RMK AO2 SLP183 T01940161,KNBT,2023-11-05T03:51:00Z,35.022,-76.463,19.4,16.1,10,5,,10+,30.06,1018.3,,TRUE,TRUE,,,,,,,OVC,6000,,,,,,,VFR,,,,,,,,,,,,METAR,5
KMYL 050351Z AUTO 00000KT 10SM FEW031 BKN065 OVC080 07/06 A2992 RMK AO2 RAB26E39 SLP135 P0000 T00670061 $,KMYL,2023-11-05T03:51:00Z,44.8943,-116.1,6.7,6.1,0,0,,10+,29.92,1013.5,,TRUE,TRUE,TRUE,,,,,,FEW,3100,BKN,6500,OVC,8000,,,VFR,,,,,,0.005,,,,,,METAR,1532
KMPV 050351Z AUTO 18003KT 10SM OVC055 06/03 A3009 RMK AO2 SLP197 T00560028,KMPV,2023-11-05T03:51:00Z,44.205,-72.5655,5.6,2.8,180,3,,10+,30.09,1019.7,,TRUE,TRUE,,,,,,,OVC,5500,,,,,,,VFR,,,,,,,,,,,,METAR,336
KLGU 050351Z AUTO 22004KT 9SM SCT120 08/04 A3006 RMK AO2 SLP178 T00830044 $,KLGU,2023-11-05T03:51:00Z,41.7865,-111.852,8.3,4.4,220,4,,9,30.06,1017.8,,TRUE,TRUE,TRUE,,,,,,SCT,12000,,,,,,,VFR,,,,,,,,,,,,METAR,1359
KLGA 050351Z 19005KT 10SM BKN110 BKN250 13/03 A3009 RMK AO2 SLP189 T01280033,KLGA,2023-11-05T03:51:00Z,40.7794,-73.8803,12.8,3.3,190,5,,10+,30.09,1018.9,,,TRUE,,,,,,,BKN,11000,BKN,25000,,,,,VFR,,,,,,,,,,,,METAR,9
KJFK 050351Z 26005KT 10SM BKN130 BKN150 BKN250 11/06 A3010 RMK AO2 SLP194 T01060056,KJFK,2023-11-05T03:51:00Z,40.6392,-73.7639,10.6,5.6,260,5,,10+,30.10,1019.4,,,TRUE,,,,,,,BKN,13000,BKN,15000,BKN,25000,,,VFR,,,,,,,,,,,,METAR,3
KJCT 050351Z AUTO 00000KT 10SM CLR 15/13 A3014 RMK AO2 SLP180 T01500128 $,KJCT,2023-11-05T03:51:00Z,30.5105,-99.7665,15,12.8,0,0,,10+,30.14,1018,,TRUE,TRUE,TRUE,,,,,,CLR,,,,,,,,VFR,,,,,,,,,,,,METAR,522
KILG 050351Z 00000KT 9SM CLR 08/06 A3010 RMK AO2 SLP193 T00780056 $,KILG,2023-11-05T03:51:00Z,39.6744,-75.6057,7.8,5.6,0,0,,9,30.10,1019.3,,,TRUE,TRUE,,,,,,CLR,,,,,,,,VFR,,,,,,,,,,,,METAR,22
KIGM 050351Z AUTO 15009KT 10SM CLR 13/M10 A3012 RMK AO2 SLP154 T01331100,KIGM,2023-11-05T03:51:00Z,35.2575,-113.934,13.3,-10,150,9,,10+,30.12,1015.4,,TRUE,TRUE,,,,,,,CLR,,,,,,,,VFR,,,,,,,,,,,,METAR,1045
KHTS 050351Z 00000KT 10SM CLR 11/02 A3012 RMK AO2 SLP197 T01110022,KHTS,2023-11-05T03:51:00Z,38.3653,-82.5548,11.1,2.2,0,0,,10+,30.12,1019.7,,,TRUE,,,,,,,CLR,,,,,,,,VFR,,,,,,,,,,,,METAR,252
KHSE 050351Z AUTO 02005KT 9SM OVC048 17/17 A3005 RMK AO2 SLP176 T01670167 $,KHSE,2023-11-05T03:51:00Z,35.2324,-75.6223,16.7,16.7,20,5,,9,30.05,1017.6,,TRUE,TRUE,TRUE,,,,,,OVC,4800,,,,,,,VFR,,,,,,,,,,,,METAR,4
KHDO 050351Z AUTO 09003KT 10SM CLR 14/11 A3012 RMK AO2 SLP191 T01440106,KHDO,2023-11-05T03:51:00Z,29.3601,-99.1742,14.4,10.6,90,3,,10+,30.12,1019.1,,TRUE,TRUE,,,,,,,CLR,,,,,,,,VFR,,,,,,,,,,,,METAR,280
KGDP 050351Z AUTO 23008KT 8SM 18/M08 A3026 RMK AO2 SLP191 T01781083 PWINO,KGDP,2023-11-05T03:51:00Z,31.8327,-104.809,17.8,-8.3,230,8,,8,30.26,1019.1,,TRUE,TRUE,,,,,,,,,,,,,,,VFR,,,,,,,,,,,,METAR,1664
KEWR 050351Z 25004KT 10SM BKN110 BKN170 BKN250 12/04 A3010 RMK AO2 SLP190 T01220044 $,KEWR,2023-11-05T03:51:00Z,40.6828,-74.1692,12.2,4.4,250,4,,10+,30.10,1019,,,TRUE,TRUE,,,,,,BKN,11000,BKN,17000,BKN,25000,,,VFR,,,,,,,,,,,,METAR,2
KERI 050351Z 00000KT 9SM OVC065 08/07 A3009 RMK AO2 SLP191 T00830067 $,KERI,2023-11-05T03:51:00Z,42.0803,-80.1824,8.3,6.7,0,0,,9,30.09,1019.1,,,TRUE,TRUE,,,,,,OVC,6500,,,,,,,VFR,,,,,,,,,,,,METAR,222
KELP 050351Z 03005KT 10SM FEW250 16/M06 A3016 RMK AO2 SLP170 T01611061,KELP,2023-11-05T03:51:00Z,31.8123,-106.377,16.1,-6.1,30,5,,10+,30.16,1017,,,TRUE,,,,,,,FEW,25000,,,,,,,VFR,,,,,,,,,,,,METAR,1205
KEKN 050351Z AUTO 00000KT 10SM OVC085 06/01 A3015 RMK AO2 SLP218 T00610011,KEKN,2023-11-05T03:51:00Z,38.8899,-79.8554,6.1,1.1,0,0,,10+,30.15,1021.8,,TRUE,TRUE,,,,,,,OVC,8500,,,,,,,VFR,,,,,,,,,,,,METAR,596
KDAW 050351Z AUTO 00000KT 10SM OVC100 09/03 A3007 RMK AO2 SLP180 T00890028,KDAW,2023-11-05T03:51:00Z,43.2794,-70.9243,8.9,2.8,0,0,,10+,30.07,1018,,TRUE,TRUE,,,,,,,OVC,10000,,,,,,,VFR,,,,,,,,,,,,METAR,100
KCSG 050351Z AUTO 00000KT 10SM CLR 10/07 A3017 RMK AO2 SLP215 T01000072 $,KCSG,2023-11-05T03:51:00Z,32.5163,-84.9422,10,7.2,0,0,,10+,30.17,1021.5,,TRUE,TRUE,TRUE,,,,,,CLR,,,,,,,,VFR,,,,,,,,,,,,METAR,120
KCRP 050351Z 10005KT 10SM BKN250 19/18 A3011 RMK AO2 SLP195 T01940183 $,KCRP,2023-11-05T03:51:00Z,27.7733,-97.513,19.4,18.3,100,5,,10+,30.11,1019.5,,,TRUE,TRUE,,,,,,BKN,25000,,,,,,,VFR,,,,,,,,,,,,METAR,11
KCON 050351Z AUTO 00000KT 10SM FEW080 BKN095 OVC110 06/04 A3008 RMK AO2 SLP187 T00610039,KCON,2023-11-05T03:51:00Z,43.2049,-71.5026,6.1,3.9,0,0,,10+,30.08,1018.7,,TRUE,TRUE,,,,,,,FEW,8000,BKN,9500,OVC,11000,,,VFR,,,,,,,,,,,,METAR,102
KCMH 050351Z 00000KT 10SM FEW250 09/05 A3010 RMK AO2 SLP193 T00890050 $,KCMH,2023-11-05T03:51:00Z,39.9907,-82.8771,8.9,5,0,0,,10+,30.10,1019.3,,,TRUE,TRUE,,,,,,FEW,25000,,,,,,,VFR,,,,,,,,,,,,METAR,257
KCLE 050351Z 00000KT 10SM SCT090 09/04 A3006 RMK AO2 SLP196 T00940044,KCLE,2023-11-05T03:51:00Z,41.4057,-81.8519,9.4,4.4,0,0,,10+,30.06,1019.6,,,TRUE,,,,,,,SCT,9000,,,,,,,VFR,,,,,,,,,,,,METAR,237
KCDJ 050351Z AUTO 00000KT 04/03 A3022 RMK AO1 SLP238 T00390028,KCDJ,2023-11-05T03:51:00Z,39.8198,-93.577,3.9,2.8,0,0,,,30.22,1023.8,,TRUE,TRUE,,,,,,,,,,,,,,,VFR,,,,,,,,,,,,METAR,234
KCAK 050351Z 25003KT 10SM BKN060 BKN080 09/01 A3007 RMK AO2 SLP185 T00890011 $,KCAK,2023-11-05T03:51:00Z,40.9181,-81.4434,8.9,1.1,250,3,,10+,30.07,1018.5,,,TRUE,TRUE,,,,,,BKN,6000,BKN,8000,,,,,VFR,,,,,,,,,,,,METAR,369
KBKW 050351Z AUTO 22004KT 10SM CLR 10/M04 A3017 RMK AO2 SLP211 T01001044,KBKW,2023-11-05T03:51:00Z,37.7836,-81.1228,10,-4.4,220,4,,10+,30.17,1021.1,,TRUE,TRUE,,,,,,,CLR,,,,,,,,VFR,,,,,,,,,,,,METAR,762
KBHK 050351Z AUTO 18007KT 10SM OVC080 09/02 A2990 RMK AO2 SLP132 T00890022,KBHK,2023-11-05T03:51:00Z,46.3521,-104.261,8.9,2.2,180,7,,10+,29.90,1013.2,,TRUE,TRUE,,,,,,,OVC,8000,,,,,,,VFR,,,,,,,,,,,,METAR,904
KBGD 050351Z AUTO 10003KT 10SM CLR 14/08 A3020 RMK AO2 SLP210 T01390078,KBGD,2023-11-05T03:51:00Z,35.695,-101.396,13.9,7.8,100,3,,10+,30.20,1021,,TRUE,TRUE,,,,,,,CLR,,,,,,,,VFR,,,,,,,,,,,,METAR,928
KBED 050351Z AUTO 00000KT 10SM CLR 06/04 A3007 RMK AO2 SLP196 T00610044,KBED,2023-11-05T03:51:00Z,42.4681,-71.2946,6.1,4.4,0,0,,10+,30.07,1019.6,,TRUE,TRUE,,,,,,,CLR,,,,,,,,VFR,,,,,,,,,,,,METAR,39
KBDL 050351Z 00000KT 10SM SCT140 BKN200 09/04 A3008 RMK AO2 SLP187 T00890039,KBDL,2023-11-05T03:51:00Z,41.9374,-72.682,8.9,3.9,0,0,,10+,30.08,1018.7,,,TRUE,,,,,,,SCT,14000,BKN,20000,,,,,VFR,,,,,,,,,,,,METAR,52
KBAZ 050351Z AUTO 14007KT 10SM CLR 17/15 A3011 RMK AO2 SLP191 T01720150,KBAZ,2023-11-05T03:51:00Z,29.7089,-98.0459,17.2,15,140,7,,10+,30.11,1019.1,,TRUE,TRUE,,,,,,,CLR,,,,,,,,VFR,,,,,,,,,,,,METAR,199
KAVX 050351Z AUTO 26008KT 10SM CLR 21/01 A3005 RMK AO2 SLP151 T02060011 $,KAVX,2023-11-05T03:51:00Z,33.4042,-118.415,20.6,1.1,260,8,,10+,30.05,1015.1,,TRUE,TRUE,TRUE,,,,,,CLR,,,,,,,,VFR,,,,,,,,,,,,METAR,482
KATT 050351Z AUTO 00000KT 10SM CLR 17/14 A3013 RMK AO2 SLP198 T01720144,KATT,2023-11-05T03:51:00Z,30.3208,-97.7604,17.2,14.4,0,0,,10+,30.13,1019.8,,TRUE,TRUE,,,,,,,CLR,,,,,,,,VFR,,,,,,,,,,,,METAR,203
KALB 050351Z 00000KT 10SM OVC070 08/04 A3010 RMK AO2 RAB28E47 SLP194 P0000 T00830044,KALB,2023-11-05T03:51:00Z,42.7473,-73.7991,8.3,4.4,0,0,,10+,30.10,1019.4,,,TRUE,,,,,,,OVC,7000,,,,,,,VFR,,,,,,0.005,,,,,,METAR,82
KAHN 050351Z AUTO 00000KT 10SM CLR 09/03 A3015 RMK AO2 SLP210 T00890028,KAHN,2023-11-05T03:51:00Z,33.9477,-83.3274,8.9,2.8,0,0,,10+,30.15,1021,,TRUE,TRUE,,,,,,,CLR,,,,,,,,VFR,,,,,,,,,,,,METAR,241
KACT 050351Z 14005KT 10SM CLR 16/14 A3011 RMK AO2 SLP194 T01610139,KACT,2023-11-05T03:51:00Z,31.618,-97.2283,16.1,13.9,140,5,,10+,30.11,1019.4,,,TRUE,,,,,,,CLR,,,,,,,,VFR,,,,,,,,,,,,METAR,150
KABE 050351Z 00000KT 10SM BKN085 OVC110 08/05 A3010 RMK AO2 RAB05E27 SLP193 P0000 T00780050 $,KABE,2023-11-05T03:51:00Z,40.658,-75.4347,7.8,5,0,0,,10+,30.10,1019.3,,,TRUE,TRUE,,,,,,BKN,8500,OVC,11000,,,,,VFR,,,,,,0.005,,,,,,METAR,117
K6R6 050351Z AUTO 01007KT 16/12 A3013 RMK AO1 SLP183 T01610122,K6R6,2023-11-05T03:51:00Z,30.0482,-102.213,16.1,12.2,10,7,,,30.13,1018.3,,TRUE,TRUE,,,,,,,,,,,,,,,VFR,,,,,,,,,,,,METAR,702
PTRO 050350Z 21006KT 12SM BKN015CB BKN120 BKN300 28/25 A2981 RMK CB ALQDS,PTRO,2023-11-05T03:50:00Z,7.367,134.544,28,25,210,6,,12,29.81,,,,,,,,,,,BKN,1500,BKN,12000,BKN,30000,,,MVFR,,,,,,,,,,,,METAR,30
PTKK 050350Z 04008KT 15SM FEW014 SCT120 BKN280 31/26 A2975 RMK SLP076 T03110262,PTKK,2023-11-05T03:50:00Z,7.462,151.843,31.1,26.2,40,8,,15,29.75,1007.6,,,,,,,,,,FEW,1400,SCT,12000,BKN,28000,,,VFR,,,,,,,,,,,,METAR,3
PGWT 050350Z 07013KT 7SM FEW015 SCT020 SCT100 30/25,PGWT,2023-11-05T03:50:00Z,14.997,145.624,30,25,70,13,,7,0.00,,,,,,,,,,,FEW,1500,SCT,2000,SCT,10000,,,VFR,,,,,,,,,,,,METAR,84
PGRO 050350Z 07014KT 7SM SCT016 SCT100 29/23 A2979,PGRO,2023-11-05T03:50:00Z,14.172,145.24,29,23,70,14,,7,29.79,,,,,,,,,,,SCT,1600,SCT,10000,,,,,VFR,,,,,,,,,,,,METAR,181
OOSH 050350Z AUTO /////KT //// ////// ///// Q//// RMK RH//?,OOSH,2023-11-05T03:50:00Z,24.388,56.624,,,,,,,0.00,,,TRUE,,,,,,,,,,,,,,,,VFR,,,,,,,,,,,,METAR,35
OOSA 050350Z VRB01KT CAVOK 26/22 Q1014 NOSIG,OOSA,2023-11-05T03:50:00Z,17.044,54.102,26,22,VRB,1,,6+,29.94,,,,,,,,,,,CAVOK,,,,,,,,VFR,,,,,,,,,,,,METAR,20
OOMS 050350Z 12004KT 060V160 CAVOK 29/17 Q1012 NOSIG,OOMS,2023-11-05T03:50:00Z,23.595,58.298,29,17,120,4,,6+,29.88,,,,,,,,,,,CAVOK,,,,,,,,VFR,,,,,,,,,,,,METAR,8
OOKB 050350Z 17004KT 130V210 9999 FEW030 29/19 Q1012 NOSIG,OOKB,2023-11-05T03:50:00Z,26.168,56.239,29,19,170,4,,6+,29.88,,,,,,,,,,,FEW,3000,,,,,,,VFR,,,,,,,,,,,,METAR,30
OODQ 050350Z AUTO 27004KT 9999 R22///// BKN021 25/22 Q1014 NOSIG RMK RH86? 0,OODQ,2023-11-05T03:50:00Z,19.511,57.657,25,22,270,4,,6+,29.94,,,TRUE,,,,,,,,BKN,2100,,,,,,,MVFR,,,,,,,,,,,,METAR,116
NSTU 050350Z 12018G22KT 12SM BKN016TCU BKN040 OVC100 28/26 A2979 RMK TCU ALQDS SLP088 T02840262,NSTU,2023-11-05T03:50:00Z,-14.337,-170.721,28.4,26.2,120,18,22,12,29.79,1008.8,,,,,,,,,,BKN,1600,BKN,4000,OVC,10000,,,MVFR,,,,,,,,,,,,METAR,8
MUVR 050350Z 05005KT 9000 SCT020 24/24 Q1015,MUVR,2023-11-05T03:50:00Z,23.033,-81.435,24,24,50,5,,5.59,29.97,,,,,,,,,,,SCT,2000,,,,,,,VFR,,,,,,,,,,,,METAR,65
MUSC 050350Z 04004KT 020V080 9000 BKN030 25/24 Q1015,MUSC,2023-11-05T03:50:00Z,22.494,-79.931,25,24,40,4,,5.59,29.97,,,,,,,,,,,BKN,3000,,,,,,,MVFR,,,,,,,,,,,,METAR,97
MUHG 050350Z VRB03KT CAVOK 24/23 Q1013,MUHG,2023-11-05T03:50:00Z,20.786,-76.316,24,23,VRB,3,,6+,29.91,,,,,,,,,,,CAVOK,,,,,,,,VFR,,,,,,,,,,,,METAR,100
MUHA 050350Z 04008KT 9000 SCT030 25/23 Q1015,MUHA,2023-11-05T03:50:00Z,22.991,-82.41,25,23,40,8,,5.59,29.97,,,,,,,,,,,SCT,3000,,,,,,,VFR,,,,,,,,,,,,METAR,61
MUCU 050350Z 33003KT 9000 FEW020 26/24 Q1013,MUCU,2023-11-05T03:50:00Z,19.971,-75.837,26,24,330,3,,5.59,29.91,,,,,,,,,,,FEW,2000,,,,,,,VFR,,,,,,,,,,,,METAR,70
MUCM 050350Z 06006KT 9000 NSC 25/24 Q1014,MUCM,2023-11-05T03:50:00Z,21.42,-77.85,25,24,60,6,,5.59,29.94,,,,,,,,,,,CLR,,,,,,,,VFR,,,,,,,,,,,,METAR,125
MUCL 050350Z AUTO 06009KT 020V100 27/24 Q1014,MUCL,2023-11-05T03:50:00Z,21.621,-81.552,27,24,60,9,,,29.94,,,TRUE,,,,,,,,,,,,,,,,VFR,,,,,,,,,,,,METAR,5
MUCC 050350Z 07006KT 9000 SCT020 26/25 Q1013,MUCC,2023-11-05T03:50:00Z,22.456,-78.339,26,25,70,6,,5.59,29.91,,,,,,,,,,,SCT,2000,,,,,,,VFR,,,,,,,,,,,,METAR,7
MMIA 050350Z 36006KT 6SM SKC 24/22 A2998,MMIA,2023-11-05T03:50:00Z,19.276,-103.576,24,22,360,6,,6,29.98,,,,,,,,,,,SKC,,,,,,,,VFR,,,,,,,,,,,,METAR,744
LXGB 050350Z AUTO 27016KT 9999 OVC053/// 17/13 Q1012,LXGB,2023-11-05T03:50:00Z,36.151,-5.35,17,13,270,16,,6+,29.88,,,TRUE,,,,,,,,OVC,5300,,,,,,,VFR,,,,,,,,,,,,METAR,5
LTFO 050350Z 15003KT 080V180 CAVOK 16/10 Q1011,LTFO,2023-11-05T03:50:00Z,41.179,40.845,16,10,150,3,,6+,29.85,,,,,,,,,,,CAVOK,,,,,,,,VFR,,,,,,,,,,,,METAR,5
LTFM 050350Z 21014KT CAVOK 16/14 Q1009 NOSIG RMK RWY17L 21014KT RWY34L 20013KT RWY16R 20013KT RWY36 20015KT RWY18 20016KT,LTFM,2023-11-05T03:50:00Z,41.262,28.74,16,14,210,14,,6+,29.79,,,,,,,,,,,CAVOK,,,,,,,,VFR,,,-1.4,,,,,,,,,METAR,99
LTFJ 050350Z 23006KT 100V260 9999 SCT035 17/13 Q1009 NOSIG RMK RWY24 VRB02KT,LTFJ,2023-11-05T03:50:00Z,40.899,29.309,17,13,230,6,,6+,29.79,,,,,,,,,,,SCT,3500,,,,,,,VFR,,,,,,,,,,,,METAR,83
LTFH 050350Z 32015KT CAVOK 19/15 Q1011 BECMG VRB02KT,LTFH,2023-11-05T03:50:00Z,41.255,36.567,19,15,320,15,,6+,29.85,,,,,,,,,,,CAVOK,,,,,,,,VFR,,,,,,,,,,,,METAR,7
LTFG 050350Z 12005KT 9999 SCT030 17/13 Q1016,LTFG,2023-11-05T03:50:00Z,36.299,32.3,17,13,120,5,,6+,30.00,,,,,,,,,,,SCT,3000,,,,,,,VFR,,,,,,,,,,,,METAR,26
LTFE 050350Z 07003KT 030V110 9999 SCT035 BKN100 20/17 Q1012 NOSIG RMK RWY10 02003KT 340V060,LTFE,2023-11-05T03:50:00Z,37.245,27.673,20,17,70,3,,6+,29.88,,,,,,,,,,,SCT,3500,BKN,10000,,,,,VFR,,,,,,,,,,,,METAR,6
LTFD 050350Z 08004KT 030V110 9999 FEW035 SCT200 14/13 Q1010,LTFD,2023-11-05T03:50:00Z,39.559,27.025,14,13,80,4,,6+,29.82,,,,,,,,,,,FEW,3500,SCT,20000,,,,,VFR,,,,,,,,,,,,METAR,15
LTFC 050350Z 34005KT CAVOK 11/10 Q1017 RMK RWY23 35004KT 330V030,LTFC,2023-11-05T03:50:00Z,37.855,30.368,11,10,340,5,,6+,30.03,,,,,,,,,,,CAVOK,,,,,,,,VFR,,,,,,,,,,,,METAR,862
LTDA 050350Z 00000KT 9999 FEW040 14/12 Q1016 NOSIG,LTDA,2023-11-05T03:50:00Z,36.361,36.283,14,12,0,0,,6+,30.00,,,,,,,,,,,FEW,4000,,,,,,,VFR,,,,,,,,,,,,METAR,80
LTCW 050350Z 00000KT 6000 FEW030 M02/M02 Q1024,LTCW,2023-11-05T03:50:00Z,37.55,44.238,-2,-2,0,0,,3.73,30.24,,,,,,,,,,,FEW,3000,,,,,,,MVFR,,,,,,,,,,,,METAR,1852
LTCV 050350Z 24009KT CAVOK 11/10 Q1018,LTCV,2023-11-05T03:50:00Z,37.365,42.06,11,10,240,9,,6+,30.06,,,,,,,,,,,CAVOK,,,,,,,,VFR,,,,,,,,,,,,METAR,620
LTCT 050350Z 25007KT CAVOK 08/04 Q1021,LTCT,2023-11-05T03:50:00Z,39.977,43.878,8,4,250,7,,6+,30.15,,,,,,,,,,,CAVOK,,,,,,,,VFR,,,,,,,,,,,,METAR,936
LTCS 050350Z 00000KT 8000 NSC 15/12 Q1019 RMK RWY22 07004KT SKC,LTCS,2023-11-05T03:50:00Z,37.445,38.904,15,12,0,0,,4.97,30.09,,,,,,,,,,,CLR,,,,,,,,MVFR,,,,,,,,,,,,METAR,825
LTCR 050350Z 07004KT CAVOK 14/11 Q1018,LTCR,2023-11-05T03:50:00Z,37.232,40.638,14,11,70,4,,6+,30.06,,,,,,,,,,,CAVOK,,,,,,,,VFR,,,,,,,,,,,,METAR,529
LTCP 050350Z 06006KT 5000 BR NSC 12/11 Q1019,LTCP,2023-11-05T03:50:00Z,37.731,38.469,12,11,60,6,,3.11,30.09,,,,,,,,,,BR,CLR,,,,,,,,MVFR,,,,,,,,,,,,METAR,672
LTCN 050350Z 10003KT CAVOK 11/11 Q1018,LTCN,2023-11-05T03:50:00Z,37.539,36.953,11,11,100,3,,6+,30.06,,,,,,,,,,,CAVOK,,,,,,,,VFR,,,,,,,,,,,,METAR,505
LTCL 050350Z 00000KT 0500 R06/0450N R24/0250N FG OVC001 09/09 Q1020,LTCL,2023-11-05T03:50:00Z,37.978,41.842,9,9,0,0,,0.31,30.12,,,,,,,,,,FG,OVC,100,,,,,,,LIFR,,,,,,,,,,,,METAR,602
LTCJ 050350Z VRB01KT 0250 R02/0400N R20/0400N FG OVC001 11/11 Q1019 NOSIG RMK RWY20 VRB01KT 8ST001,LTCJ,2023-11-05T03:50:00Z,37.93,41.117,11,11,VRB,1,,0.16,30.09,,,,,,,,,,FG,OVC,100,,,,,,,LIFR,,,,,,,,,,,,METAR,559
LTCI 050350Z 08004KT 9999 FEW040 02/M00 Q1026 NOSIG,LTCI,2023-11-05T03:50:00Z,38.469,43.337,2,0,80,4,,6+,30.30,,,,,,,,,,,FEW,4000,,,,,,,VFR,,,,,,,,,,,,METAR,1654
LTCG 050350Z 22018KT CAVOK 27/05 Q1010 NOSIG RMK RWY29 VRB03KT,LTCG,2023-11-05T03:50:00Z,40.995,39.782,27,5,220,18,,6+,29.82,,,,,,,,,,,CAVOK,,,,,,,,VFR,,,,,,,,,,,,METAR,28
LTCF 050350Z 30004KT CAVOK M04/M04 Q1023 NOSIG,LTCF,2023-11-05T03:50:00Z,40.562,43.115,-4,-4,300,4,,6+,30.21,,,,,,,,,,,CAVOK,,,,,,,,VFR,,,,,,,,,,,,METAR,1794
LTCE 050350Z VRB02KT CAVOK M01/M02 Q1023 NOSIG RMK RWY08R 12001KT RWY26R VRB02KT RWY08L 00000KT SKC,LTCE,2023-11-05T03:50:00Z,39.956,41.17,-1,-2,VRB,2,,6+,30.21,,,,,,,,,,,CAVOK,,,,,,,,VFR,,,,,,,,,,,,METAR,1758
LTCD 050350Z VRB01KT 1400 0400E R28/0600D R10/P1500N BCFG SCT005 03/03 Q1021 NOSIG,LTCD,2023-11-05T03:50:00Z,39.71,39.527,3,3,VRB,1,,0.87,30.15,,,,,,,,,,BCFG,SCT,500,,,,,,,LIFR,,,,,,,,,,,,METAR,1146
LTCC 050350Z 00000KT 0700 0350S R34/0225N R16/0350U FG NSC 08/08 Q1019 NOSIG RMK RWY16 00000KT SKC,LTCC,2023-11-05T03:50:00Z,37.894,40.201,8,8,0,0,,0.43,30.09,,,,,,,,,,FG,CLR,,,,,,,,LIFR,,,,,,,,,,,,METAR,676
LTCB 050350Z 26001KT CAVOK 16/10 Q1009 NOSIG,LTCB,2023-11-05T03:50:00Z,40.967,38.081,16,10,260,1,,6+,29.79,,,,,,,,,,,CAVOK,,,,,,,,VFR,,,,,,,,,,,,METAR,5
LTCA 050350Z 20005KT 1700 BR SCT007 06/06 Q1020 BECMG TL0450 4000,LTCA,2023-11-05T03:50:00Z,38.607,39.291,6,6,200,5,,1.06,30.12,,,,,,,,,,BR,SCT,700,,,,,,,IFR,,,,,,,,,,,,METAR,887
LTBY 050350Z VRB01KT 9999 FEW035 BKN100 13/10 Q1013,LTBY,2023-11-05T03:50:00Z,39.81,30.519,13,10,VRB,1,,6+,29.91,,,,,,,,,,,FEW,3500,BKN,10000,,,,,VFR,,,,,,,,,,,,METAR,788
LTBU 050350Z 20008KT CAVOK 15/14 Q1008 RMK RWY22 21008KT,LTBU,2023-11-05T03:50:00Z,41.139,27.919,15,14,200,8,,6+,29.76,,,,,,,,,,,CAVOK,,,,,,,,VFR,,,-0.8,,,,,,,,,METAR,165
LTBS 050350Z 14011KT 110V170 9999 FEW015CB SCT025 BKN120 24/18 Q1013 TEMPO 4000 TSRA RMK RWY19 13011KT 1CB015 3CU025 6AC120,LTBS,2023-11-05T03:50:00Z,36.713,28.793,24,18,140,11,,6+,29.91,,,,,,,,,,,FEW,1500,SCT,2500,BKN,12000,,,VFR,,,,,,,,,,,,METAR,2
LTBR 050350Z 00000KT 9999 FEW035 BKN100 13/13 Q1011 NOSIG RMK RWY07 00000KT,LTBR,2023-11-05T03:50:00Z,40.255,29.562,13,13,0,0,,6+,29.85,,,,,,,,,,,FEW,3500,BKN,10000,,,,,VFR,,,,,,,,,,,,METAR,233
LTBQ 050350Z 00000KT 9999 SCT035 BKN100 13/12 Q1010 NOSIG,LTBQ,2023-11-05T03:50:00Z,40.735,30.083,13,12,0,0,,6+,29.82,,,,,,,,,,,SCT,3500,BKN,10000,,,,,VFR,,,,,,,,,,,,METAR,51
LTBJ 050350Z 15004KT 9999 SCT025 18/18 Q1011 NOSIG RMK RWY16 20004KT,LTBJ,2023-11-05T03:50:00Z,38.285,27.155,18,18,150,4,,6+,29.85,,,,,,,,,,,SCT,2500,,,,,,,VFR,,,0.4,,,,,,,,,METAR,123
LTBH 050350Z 23008KT CAVOK 18/11 Q1009,LTBH,2023-11-05T03:50:00Z,40.14,26.425,18,11,230,8,,6+,29.79,,,,,,,,,,,CAVOK,,,,,,,,VFR,,,,,,,,,,,,METAR,8
LTBF 050350Z 00000KT 7000 FEW035 SCT200 13/13 Q1011 NOSIG,LTBF,2023-11-05T03:50:00Z,39.619,27.926,13,13,0,0,,4.35,29.85,,,,,,,,,,,FEW,3500,SCT,20000,,,,,MVFR,,,,,,,,,,,,METAR,95
LTBA 050350Z 19011KT CAVOK 18/15 Q1009 RMK RWY23 20013KT,LTBA,2023-11-05T03:50:00Z,40.982,28.821,18,15,190,11,,6+,29.79,,,,,,,,,,,CAVOK,,,,,,,,VFR,,,1.3,,,,,,,,,METAR,33
LTAZ 050350Z 13012KT CAVOK 10/06 Q1017 RMK RWY29 17006KT,LTAZ,2023-11-05T03:50:00Z,38.771,34.521,10,6,130,12,,6+,30.03,,,,,,,,,,,CAVOK,,,,,,,,VFR,,,,,,,,,,,,METAR,944
LTAY 050350Z 24006KT 9999 FEW040 BKN100 15/09 Q1015 NOSIG,LTAY,2023-11-05T03:50:00Z,37.785,29.701,15,9,240,6,,6+,29.97,,,,,,,,,,,FEW,4000,BKN,10000,,,,,VFR,,,,,,,,,,,,METAR,851
LTAW 050350Z 00000KT 4000 BR NSC 05/05 Q1016,LTAW,2023-11-05T03:50:00Z,40.308,36.368,5,5,0,0,,2.49,30.00,,,,,,,,,,BR,CLR,,,,,,,,IFR,,,,,,,,,,,,METAR,561
LTAU 050350Z 06002KT CAVOK 05/04 Q1019 NOSIG RMK RWY07 00000KT,LTAU,2023-11-05T03:50:00Z,38.77,35.495,5,4,60,2,,6+,30.09,,,,,,,,,,,CAVOK,,,,,,,,VFR,,,,,,,,,,,,METAR,1053
LTAT 050350Z 21006KT 6000 NSC 06/06 Q1019 NOSIG RMK RWY03 22006KT,LTAT,2023-11-05T03:50:00Z,38.435,38.092,6,6,210,6,,3.73,30.09,,,,,,,,,,,CLR,,,,,,,,MVFR,,,,,,,,,,,,METAR,850
LTAR 050350Z 15005KT CAVOK 05/04 Q1021,LTAR,2023-11-05T03:50:00Z,39.798,36.894,5,4,150,5,,6+,30.15,,,,,,,,,,,CAVOK,,,,,,,,VFR,,,,,,,,,,,,METAR,1601
LTAP 050350Z 00000KT CAVOK 08/05 Q1013 NOSIG RMK RWY23 03003KT,LTAP,2023-11-05T03:50:00Z,40.826,35.52,8,5,0,0,,6+,29.91,,,,,,,,,,,CAVOK,,,,,,,,VFR,,,,,,,,,,,,METAR,536
LTAN 050350Z 33004KT 9999 FEW040 SCT100 08/06 Q1018 NOSIG,LTAN,2023-11-05T03:50:00Z,37.979,32.562,8,6,330,4,,6+,30.06,,,,,,,,,,,FEW,4000,SCT,10000,,,,,VFR,,,,,,,,,,,,METAR,1029
LTAJ 050350Z 28003KT 5000 BR NSC 11/10 Q1018 NOSIG RMK RWY10 27004KT SKC,LTAJ,2023-11-05T03:50:00Z,36.947,37.479,11,10,280,3,,3.11,30.06,,,,,,,,,,BR,CLR,,,,,,,,MVFR,,,,,,,,,,,,METAR,684
LTAI 050350Z 07005KT 9999 BKN030 20/17 Q1015 NOSIG RMK RWY18C 06003KT 030V100 RWY36R 07005KT 030V100 RWY18L VRB02KT,LTAI,2023-11-05T03:50:00Z,36.9,30.798,20,17,70,5,,6+,29.97,,,,,,,,,,,BKN,3000,,,,,,,MVFR,,,,,,,,,,,,METAR,50
LTAG 050350Z 34002KT CAVOK 16/14 Q1015 NOSIG RMK SKC,LTAG,2023-11-05T03:50:00Z,37.002,35.426,16,14,340,2,,6+,29.97,,,,,,,,,,,CAVOK,,,,,,,,VFR,,,,,,,,,,,,METAR,62
LTAF 050350Z 03003KT CAVOK 17/16 Q1015 NOSIG RMK RWY23 07003KT SKC,LTAF,2023-11-05T03:50:00Z,36.989,35.293,17,16,30,3,,6+,29.97,,,,,,,,,,,CAVOK,,,,,,,,VFR,,,,,,,,,,,,METAR,19
LTAE 050350Z 19006KT 160V220 CAVOK 15/07 Q1014 NOSIG RMK RWY21 VRB01KT,LTAE,2023-11-05T03:50:00Z,40.079,32.566,15,7,190,6,,6+,29.94,,,,,,,,,,,CAVOK,,,,,,,,VFR,,,,,,,,,,,,METAR,836
LTAC 050350Z VRB02KT 9999 FEW035 SCT090 10/06 Q1014 NOSIG RMK RWY21L VRB02KT RWY03L VRB02KT RWY21R 35002KT,LTAC,2023-11-05T03:50:00Z,40.128,32.995,10,6,VRB,2,,6+,29.94,,,,,,,,,,,FEW,3500,SCT,9000,,,,,VFR,,,,,,,,,,,,METAR,952
LSMP 050350Z AUTO 22013KT 200V260 9999NDV -SHRA FEW040 BKN058 BKN100 09/06 Q0984 RMK,LSMP,2023-11-05T03:50:00Z,46.844,6.916,9,6,220,13,,,29.06,,,TRUE,,,,,,,-SHRA,FEW,4000,BKN,5800,BKN,10000,,,VFR,,,,,,,,,,,,METAR,490
LSMM 050350Z AUTO 25005KT 220V290 9999NDV OVC081 04/04 Q0985 RMK,LSMM,2023-11-05T03:50:00Z,46.743,8.11,4,4,250,5,,,29.08,,,TRUE,,,,,,,,OVC,8100,,,,,,,VFR,,,,,,,,,,,,METAR,570
LSME 050350Z AUTO 26005KT 150V300 9999NDV FEW061 BKN100 09/04 Q0983 RMK,LSME,2023-11-05T03:50:00Z,47.092,8.305,9,4,260,5,,,29.03,,,TRUE,,,,,,,,FEW,6100,BKN,10000,,,,,VFR,,,,,,,,,,,,METAR,427
LSMD 050350Z AUTO 14003KT 110V190 9999NDV FEW100 BKN120 08/04 Q0983 RMK,LSMD,2023-11-05T03:50:00Z,47.399,8.648,8,4,140,3,,,29.03,,,TRUE,,,,,,,,FEW,10000,BKN,12000,,,,,VFR,,,,,,,,,,,,METAR,436
LSMA 050350Z AUTO VRB02KT 9999NDV BKN086 05/04 Q0983 RMK,LSMA,2023-11-05T03:50:00Z,46.943,8.286,5,4,VRB,2,,,29.03,,,TRUE,,,,,,,,BKN,8600,,,,,,,VFR,,,,,,,,,,,,METAR,441
LOXZ 050350Z VRB01KT 8000 RA FEW020 BKN030 04/03 Q0988,LOXZ,2023-11-05T03:50:00Z,47.203,14.744,4,3,VRB,1,,4.97,29.17,,,,,,,,,,RA,FEW,2000,BKN,3000,,,,,MVFR,,,,,,,,,,,,METAR,678
LOWW 050350Z 17015KT 9999 RA FEW038 09/07 Q0988 RERA TEMPO -RA,LOWW,2023-11-05T03:50:00Z,48.117,16.582,9,7,170,15,,6+,29.17,,,,,,,,,,RA,FEW,3800,,,,,,,VFR,,,,,,,,,,,,METAR,179
LOWS 050350Z AUTO 17015KT 9999 FEW050 BKN070 06/05 Q0986,LOWS,2023-11-05T03:50:00Z,47.789,13.009,6,5,170,15,,6+,29.11,,,TRUE,,,,,,,,FEW,5000,BKN,7000,,,,,VFR,,,,,,,,,,,,METAR,427
LOWL 050350Z AUTO 15003KT 120V280 9999 -RA BKN050 06/05 Q0987,LOWL,2023-11-05T03:50:00Z,48.233,14.188,6,5,150,3,,6+,29.14,,,TRUE,,,,,,,-RA,BKN,5000,,,,,,,VFR,,,,,,,,,,,,METAR,290
LOWK 050350Z AUTO VRB02KT 6000 RA FEW001 SCT007 BKN014 05/05 Q0987,LOWK,2023-11-05T03:50:00Z,46.648,14.318,5,5,VRB,2,,3.73,29.14,,,TRUE,,,,,,,RA,FEW,100,SCT,700,BKN,1400,,,MVFR,,,,,,,,,,,,METAR,450
LOWI 050350Z AUTO 28008KT 9999 FEW009 SCT026 04/04 Q0988,LOWI,2023-11-05T03:50:00Z,47.26,11.344,4,4,280,8,,6+,29.17,,,TRUE,,,,,,,,FEW,900,SCT,2600,,,,,VFR,,,,,,,,,,,,METAR,570
LOWG 050350Z AUTO 36005KT 9999 RA FEW004 BKN006 07/06 Q0987 RESHRA,LOWG,2023-11-05T03:50:00Z,46.997,15.447,7,6,360,5,,6+,29.14,,,TRUE,,,,,,,RA,FEW,400,BKN,600,,,,,IFR,,,,,,,,,,,,METAR,337
LLER 050350Z 35012KT CAVOK 23/09 Q1013,LLER,2023-11-05T03:50:00Z,29.722,35.012,23,9,350,12,,6+,29.91,,,,,,,,,,,CAVOK,,,,,,,,VFR,,,,,,,,,,,,METAR,88
LIRZ 050350Z AUTO 20019G29KT 9999 -RA BKN021/// 17/14 Q0991 RERA,LIRZ,2023-11-05T03:50:00Z,43.097,12.51,17,14,200,19,29,6+,29.26,,,TRUE,,,,,,,-RA,BKN,2100,,,,,,,MVFR,,,,,,,,,,,,METAR,206
LIRQ 050350Z 24011KT 9999 -RA FEW010 SCT035 BKN070 17/15 Q0989,LIRQ,2023-11-05T03:50:00Z,43.81,11.205,17,15,240,11,,6+,29.20,,,,,,,,,,-RA,FEW,1000,SCT,3500,BKN,7000,,,VFR,,,,,,,,,,,,METAR,33
LIRN 050350Z 21013G23KT 9999 BKN030 20/15 Q1002 NOSIG,LIRN,2023-11-05T03:50:00Z,40.885,14.292,20,15,210,13,23,6+,29.59,,,,,,,,,,,BKN,3000,,,,,,,MVFR,,,,,,,,,,,,METAR,76
LIRF 050350Z 20024KT 9999 BKN050 21/16 Q0997 NOSIG,LIRF,2023-11-05T03:50:00Z,41.8,12.239,21,16,200,24,,6+,29.44,,,,,,,,,,,BKN,5000,,,,,,,VFR,,,,,,,,,,,,METAR,2
LIPZ 050350Z 31012KT 9999 -RA BKN060 10/09 Q0985 NOSIG,LIPZ,2023-11-05T03:50:00Z,45.505,12.352,10,9,310,12,,6+,29.08,,,,,,,,,,-RA,BKN,6000,,,,,,,VFR,,,,,,,,,,,,METAR,3
LIPY 050350Z AUTO 21016KT 9999 FEW050/// 19/13 Q0988,LIPY,2023-11-05T03:50:00Z,43.617,13.36,19,13,210,16,,6+,29.17,,,TRUE,,,,,,,,FEW,5000,,,,,,,VFR,,,,,,,,,,,,METAR,11
LIPX 050350Z 26008KT 9999 -RA SCT025 SCT045 BKN070 09/07 Q0987,LIPX,2023-11-05T03:50:00Z,45.387,10.872,9,7,260,8,,6+,29.14,,,,,,,,,,-RA,SCT,2500,SCT,4500,BKN,7000,,,VFR,,,,,,,,,,,,METAR,67
LIPR 050350Z AUTO 21013KT 9999 -RA BKN061/// BKN086/// 18/14 Q0987,LIPR,2023-11-05T03:50:00Z,44.02,12.612,18,14,210,13,,6+,29.14,,,TRUE,,,,,,,-RA,BKN,6100,BKN,8600,,,,,VFR,,,,,,,,,,,,METAR,10
LIPQ 050350Z AUTO 21020KT 180V240 1800 +RA OVC021/// 17/16 Q0984,LIPQ,2023-11-05T03:50:00Z,45.828,13.472,17,16,210,20,,1.12,29.06,,,TRUE,,,,,,,+RA,OVC,2100,,,,,,,IFR,,,,,,,,,,,,METAR,6
LIPO 050350Z AUTO 22003KT 180V250 9999 OVC004/// 09/09 Q0988,LIPO,2023-11-05T03:50:00Z,45.429,10.331,9,9,220,3,,6+,29.17,,,TRUE,,,,,,,,OVC,400,,,,,,,LIFR,,,,,,,,,,,,METAR,104
LIPH 050350Z AUTO 26004KT 190V300 9999 BKN031/// 09/09 Q0985,LIPH,2023-11-05T03:50:00Z,45.648,12.194,9,9,260,4,,6+,29.08,,,TRUE,,,,,,,,BKN,3100,,,,,,,VFR,,,,,,,,,,,,METAR,10
LIPE 050350Z 26011KT 9999 -RA BKN007 11/10 Q0989,LIPE,2023-11-05T03:50:00Z,44.531,11.297,11,10,260,11,,6+,29.20,,,,,,,,,,-RA,BKN,700,,,,,,,IFR,,,,,,,,,,,,METAR,37
LIMZ 050350Z AUTO 14003KT 1900 BCFG BKN004/// 06/06 Q0990,LIMZ,2023-11-05T03:50:00Z,44.547,7.623,6,6,140,3,,1.18,29.23,,,TRUE,,,,,,,BCFG,BKN,400,,,,,,,LIFR,,,,,,,,,,,,METAR,377
LIML 050350Z 23003KT 150V280 9999 FEW005 SCT025 08/07 Q0989 NOSIG,LIML,2023-11-05T03:50:00Z,45.461,9.263,8,7,230,3,,6+,29.20,,,,,,,,,,,FEW,500,SCT,2500,,,,,VFR,,,,,,,,,,,,METAR,109
LIMJ 050350Z VRB05KT 9999 SCT040 11/09 Q0989,LIMJ,2023-11-05T03:50:00Z,44.413,8.838,11,9,VRB,5,,6+,29.20,,,,,,,,,,,SCT,4000,,,,,,,VFR,,,,,,,,,,,,METAR,3
LIMF 050350Z AUTO VRB02KT 8000 NCD 05/05 Q0989,LIMF,2023-11-05T03:50:00Z,45.203,7.649,5,5,VRB,2,,4.97,29.20,,,TRUE,,,,,,,,CLR,,,,,,,,MVFR,,,,,,,,,,,,METAR,295
LIME 050350Z 27004KT 9999 BKN025 09/08 Q0988 NOSIG,LIME,2023-11-05T03:50:00Z,45.674,9.704,9,8,270,4,,6+,29.17,,,,,,,,,,,BKN,2500,,,,,,,MVFR,,,,,,,,,,,,METAR,239
LIMC 050350Z 28006KT CAVOK 07/05 Q0989 NOSIG,LIMC,2023-11-05T03:50:00Z,45.631,8.728,7,5,280,6,,6+,29.20,,,,,,,,,,,CAVOK,,,,,,,,VFR,,,,,,,,,,,,METAR,221
LIEO 050350Z 23015KT 9999 SCT030 20/16 Q0997,LIEO,2023-11-05T03:50:00Z,40.899,9.518,20,16,230,15,,6+,29.44,,,,,,,,,,,SCT,3000,,,,,,,VFR,,,,,,,,,,,,METAR,8
LIEE 050350Z 29009KT 9999 SCT045 21/15 Q1002,LIEE,2023-11-05T03:50:00Z,39.243,9.06,21,15,290,9,,6+,29.59,,,,,,,,,,,SCT,4500,,,,,,,VFR,,,,,,,,,,,,METAR,1
LIEA 050350Z 25024G38KT 220V280 9999 SCT030 22/16 Q0998,LIEA,2023-11-05T03:50:00Z,40.631,8.289,22,16,250,24,38,6+,29.47,,,,,,,,,,,SCT,3000,,,,,,,VFR,,,,,,,,,,,,METAR,22
LICR 050350Z AUTO 10006KT 9999 NCD 17/09 Q1008,LICR,2023-11-05T03:50:00Z,38.072,15.654,17,9,100,6,,6+,29.76,,,TRUE,,,,,,,,CLR,,,,,,,,VFR,,,,,,,,,,,,METAR,16
LICJ 050350Z 19026G40KT CAVOK 21/13 Q1004,LICJ,2023-11-05T03:50:00Z,38.176,13.091,21,13,190,26,40,6+,29.65,,,,,,,,,,,CAVOK,,,,,,,,VFR,,,,,,,,,,,,METAR,20
LICD 050350Z AUTO 23019KT 9999 NCD 23/13 Q1009,LICD,2023-11-05T03:50:00Z,35.498,12.618,23,13,230,19,,6+,29.79,,,TRUE,,,,,,,,CLR,,,,,,,,VFR,,,,,,,,,,,,METAR,20
LICC 050350Z 25010KT CAVOK 14/12 Q1009,LICC,2023-11-05T03:50:00Z,37.467,15.064,14,12,250,10,,6+,29.79,,,,,,,,,,,CAVOK,,,,,,,,VFR,,,,,,,,,,,,METAR,6
LICB 050350Z AUTO VRB02KT 9999 SCT035/// 14/13 Q1010,LICB,2023-11-05T03:50:00Z,36.994,14.606,14,13,VRB,2,,6+,29.82,,,TRUE,,,,,,,,SCT,3500,,,,,,,VFR,,,,,,,,,,,,METAR,212
LICA 050350Z AUTO 07006KT 9999 NCD 12/10 Q1008,LICA,2023-11-05T03:50:00Z,38.908,16.242,12,10,70,6,,6+,29.76,,,TRUE,,,,,,,,CLR,,,,,,,,VFR,,,,,,,,,,,,METAR,7
LIBR 050350Z 15007KT CAVOK 15/11 Q1005,LIBR,2023-11-05T03:50:00Z,40.658,17.951,15,11,150,7,,6+,29.68,,,,,,,,,,,CAVOK,,,,,,,,VFR,,,,,,,,,,,,METAR,5
LIBP 050350Z AUTO 24017KT 9999 NCD 23/10 Q0992,LIBP,2023-11-05T03:50:00Z,42.432,14.181,23,10,240,17,,6+,29.29,,,TRUE,,,,,,,,CLR,,,,,,,,VFR,,,,,,,,,,,,METAR,10
LIBD 050350Z 16008KT CAVOK 18/09 Q1002,LIBD,2023-11-05T03:50:00Z,41.138,16.765,18,9,160,8,,6+,29.59,,,,,,,,,,,CAVOK,,,,,,,,VFR,,,,,,,,,,,,METAR,42
LGTS 050350Z 11006KT 9999 FEW020 11/08 Q1008 NOSIG,LGTS,2023-11-05T03:50:00Z,40.52,22.971,11,8,110,6,,6+,29.76,,,,,,,,,,,FEW,2000,,,,,,,VFR,,,,,,,,,,,,METAR,4
LGSR 050350Z 25010KT 9999 FEW025 22/17 Q1011,LGSR,2023-11-05T03:50:00Z,36.399,25.479,22,17,250,10,,6+,29.85,,,,,,,,,,,FEW,2500,,,,,,,VFR,,,,,,,,,,,,METAR,31
LGSO 050350Z AUTO 26006KT //// // ////// 19/13 Q1011 RE//,LGSO,2023-11-05T03:50:00Z,37.422,24.95,19,13,260,6,,,29.85,,,TRUE,,,,,,,,,,,,,,,,VFR,,,,,,,,,,,,METAR,71
LGSM 050350Z VRB03KT 9999 SCT020 17/16 Q1011,LGSM,2023-11-05T03:50:00Z,37.69,26.912,17,16,VRB,3,,6+,29.85,,,,,,,,,,,SCT,2000,,,,,,,VFR,,,,,,,,,,,,METAR,5
LGSA 050350Z 25010KT 9999 FEW100 19/15 Q1012,LGSA,2023-11-05T03:50:00Z,35.54,24.141,19,15,250,10,,6+,29.88,,,,,,,,,,,FEW,10000,,,,,,,VFR,,,,,,,,,,,,METAR,122
LGPZ 050350Z 04005KT 9999 SCT020 16/14 Q1010,LGPZ,2023-11-05T03:50:00Z,38.921,20.761,16,14,40,5,,6+,29.82,,,,,,,,,,,SCT,2000,,,,,,,VFR,,,,,,,,,,,,METAR,3
LGPA 050350Z AUTO 19005KT //// // ////// 20/15 Q1011 RE//,LGPA,2023-11-05T03:50:00Z,37.022,25.114,20,15,190,5,,,29.85,,,TRUE,,,,,,,,,,,,,,,,VFR,,,,,,,,,,,,METAR,42
LGMT 050350Z 23005KT 9999 FEW025 18/13 Q1010,LGMT,2023-11-05T03:50:00Z,39.054,26.604,18,13,230,5,,6+,29.82,,,,,,,,,,,FEW,2500,,,,,,,VFR,,,,,,,,,,,,METAR,4
LGLM 050350Z 23004KT 9999 FEW018 17/11 Q1008,LGLM,2023-11-05T03:50:00Z,39.917,25.236,17,11,230,4,,6+,29.76,,,,,,,,,,,FEW,1800,,,,,,,VFR,,,,,,,,,,,,METAR,4
LGKZ 050350Z 00000KT 9999 SCT020 SCT070 08/05 Q1010,LGKZ,2023-11-05T03:50:00Z,40.288,21.842,8,5,0,0,,6+,29.82,,,,,,,,,,,SCT,2000,SCT,7000,,,,,VFR,,,,,,,,,,,,METAR,615
LGKO 050350Z 16004KT 9999 FEW018 21/16 Q1012,LGKO,2023-11-05T03:50:00Z,36.801,27.091,21,16,160,4,,6+,29.88,,,,,,,,,,,FEW,1800,,,,,,,VFR,,,,,,,,,,,,METAR,130
LGKL 050350Z 00000KT 8000 FEW020 11/11 Q1012,LGKL,2023-11-05T03:50:00Z,37.068,22.026,11,11,0,0,,4.97,29.88,,,,,,,,,,,FEW,2000,,,,,,,MVFR,,,,,,,,,,,,METAR,4
LGIO 050350Z AUTO VRB01KT //// // ////// 08/08 Q1011 RE//,LGIO,2023-11-05T03:50:00Z,39.696,20.823,8,8,VRB,1,,,29.85,,,TRUE,,,,,,,,,,,,,,,,VFR,,,,,,,,,,,,METAR,476
LGHI 050350Z VRB03KT 9999 FEW025 17/14 Q1009,LGHI,2023-11-05T03:50:00Z,38.343,26.141,17,14,VRB,3,,6+,29.79,,,,,,,,,,,FEW,2500,,,,,,,VFR,,,,,,,,,,,,METAR,6
LGEL 050350Z VRB01KT 9999 FEW025 14/10 Q1010,LGEL,2023-11-05T03:50:00Z,38.064,23.556,14,10,VRB,1,,6+,29.82,,,,,,,,,,,FEW,2500,,,,,,,VFR,,,,,,,,,,,,METAR,21
LGBL 050350Z 27004KT 9999 FEW025 11/09 Q1009,LGBL,2023-11-05T03:50:00Z,39.22,22.794,11,9,270,4,,6+,29.79,,,,,,,,,,,FEW,2500,,,,,,,VFR,,,,,,,,,,,,METAR,13
LGAL 050350Z 03003KT 9999 FEW025 13/11 Q1007,LGAL,2023-11-05T03:50:00Z,40.856,25.945,13,11,30,3,,6+,29.73,,,,,,,,,,,FEW,2500,,,,,,,VFR,,,,,,,,,,,,METAR,5
LGAD 050350Z 00000KT 9999 FEW020 14/12 Q1011,LGAD,2023-11-05T03:50:00Z,37.923,21.287,14,12,0,0,,6+,29.85,,,,,,,,,,,FEW,2000,,,,,,,VFR,,,,,,,,,,,,METAR,8
LCRA 050350Z 32002KT CAVOK 17/13 Q1015 NOSIG,LCRA,2023-11-05T03:50:00Z,34.59,32.988,17,13,320,2,,6+,29.97,,,,,,,,,,,CAVOK,,,,,,,,VFR,,,,,,,,,,,,METAR,23
LCEN 050350Z 24007KT CAVOK 16/14 Q1016 NOSIG RMK RWY11R 26005KT RWY29R 28006KT RWY11L 27006KT,LCEN,2023-11-05T03:50:00Z,35.155,33.496,16,14,240,7,,6+,30.00,,,,,,,,,,,CAVOK,,,,,,,,VFR,,,,,,,,,,,,METAR,91
KXBP 050350Z AUTO 00000KT 10SM SCT055 15/15 A3014 RMK AO2 T01450145,KXBP,2023-11-05T03:50:00Z,33.1729,-97.8268,14.5,14.5,0,0,,10+,30.14,,,TRUE,TRUE,,,,,,,SCT,5500,,,,,,,VFR,,,,,,,,,,,,METAR,256
KSZT 050350Z AUTO 00000KT 10SM BKN003 OVC015 06/06 A2980 RMK AO2,KSZT,2023-11-05T03:50:00Z,48.2945,-116.567,6,6,0,0,,10+,29.80,,,TRUE,TRUE,,,,,,,BKN,300,OVC,1500,,,,,LIFR,,,,,,,,,,,,METAR,649
KRYY 050350Z AUTO 00000KT 10SM CLR 08/04 A3019 RMK AO2 SLP218 T00780044 402170017 $,KRYY,2023-11-05T03:50:00Z,34.0146,-84.5964,7.8,4.4,0,0,,10+,30.19,1021.8,,TRUE,TRUE,TRUE,,,,,,CLR,,,,,,,,VFR,,,,,,,,,,,,METAR,306
KPUJ 050350Z AUTO 00000KT CLR 10/02 A3018 RMK AO2,KPUJ,2023-11-05T03:50:00Z,33.9085,-84.9369,10,2,0,0,,,30.18,,,TRUE,TRUE,,,,,,,CLR,,,,,,,,VFR,,,,,,,,,,,,METAR,385
KOZA 050350Z AUTO 00000KT 10SM CLR 11/10 A3016 RMK AO2,KOZA,2023-11-05T03:50:00Z,30.7312,-101.203,11,10,0,0,,10+,30.16,,,TRUE,TRUE,,,,,,,CLR,,,,,,,,VFR,,,,,,,,,,,,METAR,721
KOLY 050350Z AUTO 34004KT 10SM SCT090 BKN110 12/04 A3020 RMK AO2 T01190041,KOLY,2023-11-05T03:50:00Z,38.7213,-88.1799,11.9,4.1,340,4,,10+,30.20,,,TRUE,TRUE,,,,,,,SCT,9000,BKN,11000,,,,,VFR,,,,,,,,,,,,METAR,144
KHBV 050350Z AUTO 00000KT 10SM CLR 19/16 A3014 RMK AO2 T01860155,KHBV,2023-11-05T03:50:00Z,27.3516,-98.7415,18.6,15.5,0,0,,10+,30.14,,,TRUE,TRUE,,,,,,,CLR,,,,,,,,VFR,,,,,,,,,,,,METAR,200
KETN 050350Z AUTO 00000KT 10SM CLR 12/12 A3010 RMK AO2 T01200117,KETN,2023-11-05T03:50:00Z,32.4164,-98.8113,12,11.7,0,0,,10+,30.10,,,TRUE,TRUE,,,,,,,CLR,,,,,,,,VFR,,,,,,,,,,,,METAR,445
KDED 050350Z AUTO 32005KT 10SM CLR 15/08 A3010 RMK AO2 T01550080,KDED,2023-11-05T03:50:00Z,29.075,-81.286,15.5,8,320,5,,10+,30.10,,,TRUE,TRUE,,,,,,,CLR,,,,,,,,VFR,,,,,,,,,,,,METAR,21
KDAG 050350Z AUTO 31004KT 10SM CLR 13/M08 A3004 RMK AO2 SLP161 T01331078,KDAG,2023-11-05T03:50:00Z,34.8537,-116.787,13.3,-7.8,310,4,,10+,30.04,1016.1,,TRUE,TRUE,,,,,,,CLR,,,,,,,,VFR,,,,,,,,,,,,METAR,584
KBQP 050350Z AUTO 00000KT 10SM CLR 12/08 A3017 RMK AO2 T01150077,KBQP,2023-11-05T03:50:00Z,32.7583,-91.8793,11.5,7.7,0,0,,10+,30.17,,,TRUE,TRUE,,,,,,,CLR,,,,,,,,VFR,,,,,,,,,,,,METAR,50
K2G9 050350Z AUTO 22006KT 10SM SCT060 OVC070 10/M02 A3010 RMK AO2,K2G9,2023-11-05T03:50:00Z,40.0401,-79.0158,10,-2,220,6,,10+,30.10,,,TRUE,TRUE,,,,,,,SCT,6000,OVC,7000,,,,,VFR,,,,,,,,,,,,METAR,677
K1A5 050350Z AUTO 00000KT 10SM CLR 02/00 A3024 RMK AO2 T00150000,K1A5,2023-11-05T03:50:00Z,35.2228,-83.415,1.5,0,0,0,,10+,30.24,,,TRUE,TRUE,,,,,,,CLR,,,,,,,,VFR,,,,,,,,,,,,METAR,611
ESUT 050350Z AUTO 14013G34KT 090V190 6000 -SN OVC036/// M01/M05 Q0986 RESG,ESUT,2023-11-05T03:50:00Z,65.806,15.083,-1,-5,140,13,34,3.73,29.11,,,TRUE,,,,,,,-SN,OVC,3600,,,,,,,MVFR,,,,,,,,,,,,METAR,457
ESUP 050350Z AUTO 05007KT 020V080 3700 -SN FEW012/// SCT015/// OVC021/// M03/M03 Q0995,ESUP,2023-11-05T03:50:00Z,67.246,23.069,-3,-3,50,7,,2.3,29.38,,,TRUE,,,,,,,-SN,FEW,1200,SCT,1500,OVC,2100,,,IFR,,,,,,,,,,,,METAR,164
ESTL 050350Z AUTO 11009KT 9999 -DZ FEW014/// 08/08 Q0979 REUP,ESTL,2023-11-05T03:50:00Z,56.083,13.213,8,8,110,9,,6+,28.91,,,TRUE,,,,,,,-DZ,FEW,1400,,,,,,,VFR,,,,,,,,,,,,METAR,39
ESTA 050350Z AUTO 12013KT 9999 FEW046/// BKN066/// OVC098/// 08/06 Q0978,ESTA,2023-11-05T03:50:00Z,56.294,12.848,8,6,120,13,,6+,28.88,,,TRUE,,,,,,,,FEW,4600,BKN,6600,OVC,9800,,,VFR,,,,,,,,,,,,METAR,19
ESSV 050350Z AUTO 13008KT 9999 NCD 06/06 Q0986,ESSV,2023-11-05T03:50:00Z,57.662,18.348,6,6,130,8,,6+,29.11,,,TRUE,,,,,,,,CLR,,,,,,,,VFR,,,,,,,,,,,,METAR,38
ESST 050350Z AUTO 32003KT 9999 OVC006/// 02/01 Q0984,ESST,2023-11-05T03:50:00Z,60.158,12.992,2,1,320,3,,6+,29.06,,,TRUE,,,,,,,,OVC,600,,,,,,,IFR,,,,,,,,,,,,METAR,110
ESSP 050350Z 10004KT 9999 BKN041 06/05 Q0985,ESSP,2023-11-05T03:50:00Z,58.584,16.255,6,5,100,4,,6+,29.08,,,,,,,,,,,BKN,4100,,,,,,,VFR,,,,,,,,,,,,METAR,3
ESSL 050350Z AUTO 10005KT 9999 OVC040/// 06/05 Q0984,ESSL,2023-11-05T03:50:00Z,58.406,15.681,6,5,100,5,,6+,29.06,,,TRUE,,,,,,,,OVC,4000,,,,,,,VFR,,,,,,,,,,,,METAR,51
ESSD 050350Z AUTO VRB02KT 9999 SCT004/// OVC025/// 01/01 Q0984,ESSD,2023-11-05T03:50:00Z,60.422,15.515,1,1,VRB,2,,6+,29.06,,,TRUE,,,,,,,,SCT,400,OVC,2500,,,,,MVFR,,,,,,,,,,,,METAR,151
ESSB 050350Z AUTO 13005KT 9999 OVC036/// 07/05 Q0987,ESSB,2023-11-05T03:50:00Z,59.356,17.933,7,5,130,5,,6+,29.14,,,TRUE,,,,,,,,OVC,3600,,,,,,,VFR,,,,,,,,,,,,METAR,14
ESSA 050350Z 17007KT 9999 FEW008 BKN030 06/05 Q0986 BECMG BKN020,ESSA,2023-11-05T03:50:00Z,59.664,17.92,6,5,170,7,,6+,29.11,,,,,,,,,,,FEW,800,BKN,3000,,,,,MVFR,,,,,,,,,,,,METAR,36
ESPE 050350Z AUTO 06005KT 030V090 5000 -SN FEW012/// OVC020/// M02/M03 Q0991,ESPE,2023-11-05T03:50:00Z,65.875,20.144,-2,-3,60,5,,3.11,29.26,,,TRUE,,,,,,,-SN,FEW,1200,OVC,2000,,,,,MVFR,,,,,,,,,,,,METAR,182
ESPA 050350Z AUTO 07007KT 040V100 2200 -SN OVC004/// 00/M00 Q0991,ESPA,2023-11-05T03:50:00Z,65.541,22.126,0,0,70,7,,1.37,29.26,,,TRUE,,,,,,,-SN,OVC,400,,,,,,,LIFR,,,,,,,,,,,,METAR,12
ESOW 050350Z AUTO 14004KT 9999 OVC031/// 06/05 Q0986,ESOW,2023-11-05T03:50:00Z,59.595,16.638,6,5,140,4,,6+,29.11,,,TRUE,,,,,,,,OVC,3100,,,,,,,VFR,,,,,,,,,,,,METAR,7
ESOK 050350Z AUTO 06006KT 0350 R03///// R21/1100U FG OVC002/// 04/04 Q0983,ESOK,2023-11-05T03:50:00Z,59.442,13.342,4,4,60,6,,0.22,29.03,,,TRUE,,,,,,,FG,OVC,200,,,,,,,LIFR,,,,,,,,,,,,METAR,101
ESOH 050350Z AUTO VRB02KT 9999 R18///// OVC006/// 01/01 Q0984,ESOH,2023-11-05T03:50:00Z,60.02,13.579,1,1,VRB,2,,6+,29.06,,,TRUE,,,,,,,,OVC,600,,,,,,,IFR,,,,,,,,,,,,METAR,145
ESOE 050350Z AUTO 10004KT 9999 BKN040/// 05/04 Q0984,ESOE,2023-11-05T03:50:00Z,59.229,15.046,5,4,100,4,,6+,29.06,,,TRUE,,,,,,,,BKN,4000,,,,,,,VFR,,,,,,,,,,,,METAR,57
ESNZ 050350Z AUTO 04003KT 010V070 0450 R12/P2000N R30/1500D FZFG VV003 M00/M00 Q0983,ESNZ,2023-11-05T03:50:00Z,63.199,14.489,0,0,40,3,,0.28,29.03,,,TRUE,,,,,,,FZFG,OVX,0,,,,,,,LIFR,,,,,,,,,,,300,METAR,360
ESNX 050350Z AUTO 05007KT 7000 SG BKN011/// OVC015/// M03/M04 Q0989,ESNX,2023-11-05T03:50:00Z,65.592,19.283,-3,-4,50,7,,4.35,29.20,,,TRUE,,,,,,,SG,BKN,1100,OVC,1500,,,,,MVFR,,,,,,,,,,,,METAR,380
ESNV 050350Z AUTO 02004KT 350V060 0600 R10/P2000D R28/P2000N SN VV010 M02/M03 Q0986,ESNV,2023-11-05T03:50:00Z,64.579,16.839,-2,-3,20,4,,0.37,29.11,,,TRUE,,,,,,,SN,OVX,0,,,,,,,LIFR,,,,,,,,,,,1000,METAR,348
ESNU 050350Z AUTO 11011KT 9999 OVC003/// 05/04 Q0983 REDZ,ESNU,2023-11-05T03:50:00Z,63.789,20.285,5,4,110,11,,6+,29.03,,,TRUE,,,,,,,,OVC,300,,,,,,,LIFR,,,,,,,,,,,,METAR,8
ESNS 050350Z AUTO 03008KT 2300 DZ OVC003/// 03/03 Q0986,ESNS,2023-11-05T03:50:00Z,64.625,21.077,3,3,30,8,,1.43,29.11,,,TRUE,,,,,,,DZ,OVC,300,,,,,,,LIFR,,,,,,,,,,,,METAR,41
ESNQ 050350Z AUTO 04005KT 2500 -SN FEW023/// BKN031/// OVC040/// M07/M08 Q0994,ESNQ,2023-11-05T03:50:00Z,67.823,20.34,-7,-8,40,5,,1.55,29.35,,,TRUE,,,,,,,-SN,FEW,2300,BKN,3100,OVC,4000,,,IFR,,,,,,,,,,,,METAR,447
ESNO 050350Z AUTO 33007KT 2200 DZ OVC003/// 01/01 Q0983,ESNO,2023-11-05T03:50:00Z,63.412,18.98,1,1,330,7,,1.37,29.03,,,TRUE,,,,,,,DZ,OVC,300,,,,,,,LIFR,,,,,,,,,,,,METAR,100
ESNN 050350Z AUTO 33007KT 9999 SCT022/// OVC057/// 02/01 Q0984,ESNN,2023-11-05T03:50:00Z,62.532,17.436,2,1,330,7,,6+,29.06,,,TRUE,,,,,,,,SCT,2200,OVC,5700,,,,,VFR,,,,,,,,,,,,METAR,4
ESNL 050350Z AUTO 33004KT 300V360 2400 -SN ///////// 00/M00 Q0986,ESNL,2023-11-05T03:50:00Z,64.552,18.711,0,0,330,4,,1.49,29.11,,,TRUE,,,,,,,-SN,,,,,,,,,IFR,,,,,,,,,,,,METAR,220
ESNK 050350Z AUTO 32003KT 9999 -DZ SCT015/// BKN066/// OVC086/// 01/00 Q0984 RESHUP REDZ,ESNK,2023-11-05T03:50:00Z,63.047,17.766,1,0,320,3,,6+,29.06,,,TRUE,,,,,,,-DZ,SCT,1500,BKN,6600,OVC,8600,,,VFR,,,,,,,,,,,,METAR,4
ESNG 050350Z AUTO 05006KT 020V090 9999 OVC012/// M04/M05 Q0993,ESNG,2023-11-05T03:50:00Z,67.133,20.81,-4,-5,50,6,,6+,29.32,,,TRUE,,,,,,,,OVC,1200,,,,,,,MVFR,,,,,,,,,,,,METAR,300
ESND 050350Z AUTO 23003KT 9999 -RASN BKN003/// OVC004/// 00/M00 Q0983,ESND,2023-11-05T03:50:00Z,62.047,14.416,0,0,230,3,,6+,29.03,,,TRUE,,,,,,,-RA -SN,BKN,300,OVC,400,,,,,LIFR,,,,,,,,,,,,METAR,352
ESMX 050350Z AUTO 11007KT 070V150 9999 OVC008/// 07/07 Q0981,ESMX,2023-11-05T03:50:00Z,56.927,14.73,7,7,110,7,,6+,28.97,,,TRUE,,,,,,,,OVC,800,,,,,,,IFR,,,,,,,,,,,,METAR,176
ESMV 050350Z AUTO 10005KT 070V130 9999 BKN010/// OVC046/// 06/05 Q0982,ESMV,2023-11-05T03:50:00Z,57.29,14.134,6,5,100,5,,6+,29.00,,,TRUE,,,,,,,,BKN,1000,OVC,4600,,,,,MVFR,,,,,,,,,,,,METAR,167
ESMT 050350Z AUTO 11009KT 9999 SCT086/// 08/06 Q0979,ESMT,2023-11-05T03:50:00Z,56.691,12.82,8,6,110,9,,6+,28.91,,,TRUE,,,,,,,,SCT,8600,,,,,,,VFR,,,,,,,,,,,,METAR,24
ESMS 050350Z 12010KT 9999 BKN019 BKN024 08/06 Q0978,ESMS,2023-11-05T03:50:00Z,55.539,13.373,8,6,120,10,,6+,28.88,,,,,,,,,,,BKN,1900,BKN,2400,,,,,MVFR,,,,,,,,,,,,METAR,68
ESMQ 050350Z AUTO 12008KT 9999 FEW010/// 08/07 Q0983,ESMQ,2023-11-05T03:50:00Z,56.685,16.284,8,7,120,8,,6+,29.03,,,TRUE,,,,,,,,FEW,1000,,,,,,,VFR,,,,,,,,,,,,METAR,3
ESMK 050350Z AUTO 11008KT 9999 FEW014/// BKN053/// 08/08 Q0980,ESMK,2023-11-05T03:50:00Z,55.922,14.085,8,8,110,8,,6+,28.94,,,TRUE,,,,,,,,FEW,1400,BKN,5300,,,,,VFR,,,,,,,,,,,,METAR,20
ESKS 050350Z AUTO VRB02KT 0500 R15/P2000N R33/1700D BR BKN002/// BKN003/// OVC037/// M01/M01 Q0982,ESKS,2023-11-05T03:50:00Z,61.165,12.834,-1,-1,VRB,2,,0.31,29.00,,,TRUE,,,,,,,BR,BKN,200,BKN,300,OVC,3700,,,LIFR,,,,,,,,,,,,METAR,503
ESKN 050350Z 10006KT 9999 BKN040 06/05 Q0986,ESKN,2023-11-05T03:50:00Z,58.786,16.918,6,5,100,6,,6+,29.11,,,,,,,,,,,BKN,4000,,,,,,,VFR,,,,,,,,,,,,METAR,41
ESKM 050350Z AUTO 19004KT 170V230 9999 BKN021/// OVC046/// 01/M00 Q0984,ESKM,2023-11-05T03:50:00Z,60.96,14.507,1,0,190,4,,6+,29.06,,,TRUE,,,,,,,,BKN,2100,OVC,4600,,,,,MVFR,,,,,,,,,,,,METAR,184
ESIB 050350Z AUTO 11008KT 9999 OVC043/// 06/06 Q0981,ESIB,2023-11-05T03:50:00Z,58.431,12.71,6,6,110,8,,6+,28.97,,,TRUE,,,,,,,,OVC,4300,,,,,,,VFR,,,,,,,,,,,,METAR,51
ESIA 050350Z AUTO 11009KT 9999 OVC040/// 06/05 Q0983,ESIA,2023-11-05T03:50:00Z,58.514,14.507,6,5,110,9,,6+,29.03,,,TRUE,,,,,,,,OVC,4000,,,,,,,VFR,,,,,,,,,,,,METAR,94
ESGT 050350Z AUTO 10010KT 070V130 9999 OVC043/// 07/04 Q0981,ESGT,2023-11-05T03:50:00Z,58.314,12.347,7,4,100,10,,6+,28.97,,,TRUE,,,,,,,,OVC,4300,,,,,,,VFR,,,,,,,,,,,,METAR,40
ESGP 050350Z AUTO 10008KT 9999 SCT049/// 07/04 Q0980,ESGP,2023-11-05T03:50:00Z,57.781,11.869,7,4,100,8,,6+,28.94,,,TRUE,,,,,,,,SCT,4900,,,,,,,VFR,,,,,,,,,,,,METAR,15
ESGJ 050350Z AUTO 10005KT 9999 BKN009/// BKN013/// 05/05 Q0982,ESGJ,2023-11-05T03:50:00Z,57.752,14.069,5,5,100,5,,6+,29.00,,,TRUE,,,,,,,,BKN,900,BKN,1300,,,,,IFR,,,,,,,,,,,,METAR,224
ESGG 050350Z 11010KT 9999 FEW009 BKN043 05/04 Q0980,ESGG,2023-11-05T03:50:00Z,57.667,12.285,5,4,110,10,,6+,28.94,,,,,,,,,,,FEW,900,BKN,4300,,,,,VFR,,,,,,,,,,,,METAR,152
ESDF 050350Z AUTO 13011KT 9999 OVC009/// 08/08 Q0982,ESDF,2023-11-05T03:50:00Z,56.266,15.267,8,8,130,11,,6+,29.00,,,TRUE,,,,,,,,OVC,900,,,,,,,IFR,,,,,,,,,,,,METAR,52
ESCM 050350Z AUTO 19008KT 9999 DZRA VV020 07/07 Q0986,ESCM,2023-11-05T03:50:00Z,59.899,17.589,7,7,190,8,,6+,29.11,,,TRUE,,,,,,,DZ RA,OVX,0,,,,,,,MVFR,,,,,,,,,,,2000,METAR,21
ESCF 050350Z AUTO 10005KT 9999 OVC039/// 06/05 Q0984,ESCF,2023-11-05T03:50:00Z,58.398,15.526,6,5,100,5,,6+,29.06,,,TRUE,,,,,,,,OVC,3900,,,,,,,VFR,,,,,,,,,,,,METAR,86
ENWV 050350Z AUTO 08024KT 9999NDV FEW010/// SCT047/// BKN100/// 10/09 Q0969 W///S4,ENWV,2023-11-05T03:50:00Z,56.278,3.395,10,9,80,24,,,28.61,,,TRUE,,,,,,,,FEW,1000,SCT,4700,BKN,10000,,,VFR,,,,,,,,,,,,METAR,30
ENVD 050350Z AUTO 12021KT 9999 FEW160/// SCT220/// 00/M07 Q1006,ENVD,2023-11-05T03:50:00Z,70.065,29.835,0,-7,120,21,,6+,29.70,,,TRUE,,,,,,,,FEW,16000,SCT,22000,,,,,VFR,,,,,,,,,,,,METAR,39
ENUN 050350Z AUTO /////KT 9999NDV OVC023/// ///// Q//// W///S4,ENUN,2023-11-05T03:50:00Z,-99.99,-99.99,,,,,,,0.00,,,TRUE,,,,,,,,OVC,2300,,,,,,,MVFR,,,,,,,,,,,,METAR,9999
ENUG 050350Z AUTO 14021G38KT 050V180 9999NDV BKN180/// BKN210/// 01/M05 Q1000 W///S4,ENUG,2023-11-05T03:50:00Z,71.305,22.253,1,-5,140,21,38,,29.53,,,TRUE,,,,,,,,BKN,18000,BKN,21000,,,,,VFR,,,,,,,,,,,,METAR,30
ENSS 050350Z AUTO 14022KT 9999 FEW028/// 02/M04 Q1008 RMK WIND 0500FT 12022G34KT,ENSS,2023-11-05T03:50:00Z,70.355,31.044,2,-4,140,22,,6+,29.76,,,TRUE,,,,,,,,FEW,2800,,,,,,,VFR,,,,,,,,,,,,METAR,13
ENSL 050350Z AUTO 09019KT 9999NDV BKN053/// 09/08 Q0973 W07/S3,ENSL,2023-11-05T03:50:00Z,58.367,1.907,9,8,90,19,,,28.73,,,TRUE,,,,,,,,BKN,5300,,,,,,,VFR,,,,,,,,,,,,METAR,50
ENSK 050350Z AUTO 16015KT 9999 OVC150/// 03/M04 Q0989,ENSK,2023-11-05T03:50:00Z,68.58,15.029,3,-4,160,15,,6+,29.20,,,TRUE,,,,,,,,OVC,15000,,,,,,,VFR,,,,,,,,,,,,METAR,3
ENSH 050350Z AUTO 09022KT 9999 NCD 03/M04 Q0989 RMK WIND 0150FT 07032G48KT,ENSH,2023-11-05T03:50:00Z,68.245,14.669,3,-4,90,22,,6+,29.20,,,TRUE,,,,,,,,CLR,,,,,,,,VFR,,,,,,,,,,,,METAR,9
ENSG 050350Z AUTO 06005KT 9999 OVC049/// 03/M00 Q0980 RMK WIND 3806FT 09013KT,ENSG,2023-11-05T03:50:00Z,61.158,7.141,3,0,60,5,,6+,28.94,,,TRUE,,,,,,,,OVC,4900,,,,,,,VFR,,,,,,,,,,,,METAR,493
ENSF 050350Z AUTO 15013KT //// BKN017/// ///// Q//// W///S4,ENSF,2023-11-05T03:50:00Z,61.25,1.85,,,150,13,,,0.00,,,TRUE,,,,,,,,BKN,1700,,,,,,,MVFR,,,,,,,,,,,,METAR,15
ENSE 050350Z AUTO 14021KT //// BKN022/// OVC055/// 10/08 Q0977 W///S4,ENSE,2023-11-05T03:50:00Z,61.45,2.15,10,8,140,21,,,28.85,,,TRUE,,,,,,,,BKN,2200,OVC,5500,,,,,MVFR,,,,,,,,,,,,METAR,10
ENSD 050350Z AUTO VRB02KT 9999 SCT096/// 07/03 Q0979 RMK WIND RWY26 17004KT WIND 1140FT 07006KT,ENSD,2023-11-05T03:50:00Z,61.829,6.104,7,3,VRB,2,,6+,28.91,,,TRUE,,,,,,,,SCT,9600,,,,,,,VFR,,,,,,,,,,,,METAR,61
ENRS 050350Z AUTO 11015KT 9999 FEW055/// 05/M00 Q0986,ENRS,2023-11-05T03:50:00Z,67.527,12.104,5,0,110,15,,6+,29.11,,,TRUE,,,,,,,,FEW,5500,,,,,,,VFR,,,,,,,,,,,,METAR,4
ENRM 050350Z AUTO 10014KT 070V130 9999 BKN068/// 05/M01 Q0981,ENRM,2023-11-05T03:50:00Z,64.835,11.141,5,-1,100,14,,6+,28.97,,,TRUE,,,,,,,,BKN,6800,,,,,,,VFR,,,,,,,,,,,,METAR,4
ENRA 050350Z AUTO 08011KT 050V140 9999 OVC059/// 01/M06 Q0988,ENRA,2023-11-05T03:50:00Z,66.364,14.302,1,-6,80,11,,6+,29.17,,,TRUE,,,,,,,,OVC,5900,,,,,,,VFR,,,,,,,,,,,,METAR,66
ENQR 050350Z AUTO 13020KT 9999NDV BKN020/// BKN058/// 09/07 Q0977 W10/S4,ENQR,2023-11-05T03:50:00Z,61.53,2.22,9,7,130,20,,,28.85,,,TRUE,,,,,,,,BKN,2000,BKN,5800,,,,,MVFR,,,,,,,,,,,,METAR,10
ENQC 050350Z AUTO 10015KT 9999NDV FEW041/// OVC055/// 11/06 Q0977 W///S4,ENQC,2023-11-05T03:50:00Z,60.886,3.61,11,6,100,15,,,28.85,,,TRUE,,,,,,,,FEW,4100,OVC,5500,,,,,VFR,,,,,,,,,,,,METAR,20
ENQA 050350Z AUTO 15015KT 9999NDV OVC055/// 11/06 Q0978 W13/S4,ENQA,2023-11-05T03:50:00Z,60.645,3.725,11,6,150,15,,,28.88,,,TRUE,,,,,,,,OVC,5500,,,,,,,VFR,,,,,,,,,,,,METAR,90
ENOV 050350Z AUTO 00000KT 9999 BKN100/// OVC140/// 03/02 Q0979 RMK WIND RWY24 VRB01KT WIND 2090FT 12005KT,ENOV,2023-11-05T03:50:00Z,62.18,6.078,3,2,0,0,,6+,28.91,,,TRUE,,,,,,,,BKN,10000,OVC,14000,,,,,VFR,,,,,,,,,,,,METAR,72
ENOA 050350Z 15020KT 9999 BKN040 10/07 Q0976 W///S4,ENOA,2023-11-05T03:50:00Z,60.492,2.827,10,7,150,20,,6+,28.82,,,,,,,,,,,BKN,4000,,,,,,,VFR,,,,,,,,,,,,METAR,5
ENNM 050350Z AUTO 09014KT 9999 OVC098/// 03/M02 Q0982,ENNM,2023-11-05T03:50:00Z,64.471,11.57,3,-2,90,14,,6+,29.00,,,TRUE,,,,,,,,OVC,9800,,,,,,,VFR,,,,,,,,,,,,METAR,2
ENNE 050350Z AUTO 12020KT 9999NDV OVC016/// 05/02 Q0981 W///S5,ENNE,2023-11-05T03:50:00Z,66.03,8.08,5,2,120,20,,,28.97,,,TRUE,,,,,,,,OVC,1600,,,,,,,MVFR,,,,,,,,,,,,METAR,10
ENNA 050350Z AUTO 19012KT 9999 OVC029/// M04/M08 Q1004 RMK WIND 1800FT 16037KT,ENNA,2023-11-05T03:50:00Z,70.059,24.971,-4,-8,190,12,,6+,29.65,,,TRUE,,,,,,,,OVC,2900,,,,,,,MVFR,,,,,,,,,,,,METAR,12
ENMS 050350Z AUTO 18004KT 110V200 9999 -SN SCT041/// BKN057/// OVC074/// 02/M04 Q0986 RMK WIND 412FT 13003KT,ENMS,2023-11-05T03:50:00Z,65.784,13.218,2,-4,180,4,,6+,29.11,,,TRUE,,,,,,,-SN,SCT,4100,BKN,5700,OVC,7400,,,VFR,,,,,,,,,,,,METAR,44
ENML 050350Z AUTO 02005KT 9999NDV FEW060/// BKN110/// OVC140/// 05/01 Q0979,ENML,2023-11-05T03:50:00Z,62.744,7.262,5,1,20,5,,,28.91,,,TRUE,,,,,,,,FEW,6000,BKN,11000,OVC,14000,,,VFR,,,,,,,,,,,,METAR,3
ENMH 050350Z AUTO 14018KT 9999 NCD M02/M06 Q1006,ENMH,2023-11-05T03:50:00Z,71.029,27.829,-2,-6,140,18,,6+,29.70,,,TRUE,,,,,,,,CLR,,,,,,,,VFR,,,,,,,,,,,,METAR,10
ENLE 050350Z 08017KT 9999 VCSH FEW018TCU BKN045 09/08 Q0970 W12/S4,ENLE,2023-11-05T03:50:00Z,56.535,3.205,9,8,80,17,,6+,28.64,,,,,,,,,,VCSH,FEW,1800,BKN,4500,,,,,VFR,,,,,,,,,,,,METAR,10
ENLA 050350Z AUTO 07020KT 9999NDV BKN057/// 10/// Q0970 W///S4,ENLA,2023-11-05T03:50:00Z,57.111,2.846,,,70,20,,,28.64,,,TRUE,,,,,,,,BKN,5700,,,,,,,VFR,,,,,,,,,,,,METAR,10
ENKR 050350Z AUTO 11011KT 9999 BKN120/// M05/M08 Q1006 RMK WIND 731FT /////KT,ENKR,2023-11-05T03:50:00Z,69.725,29.898,-5,-8,110,11,,6+,29.70,,,TRUE,,,,,,,,BKN,12000,,,,,,,VFR,,,,,,,,,,,,METAR,86
ENKB 050350Z AUTO 11003KT 060V160 9999 BKN051/// OVC110/// 08/01 Q0979 REUP RMK WIND 745FT 16011KT,ENKB,2023-11-05T03:50:00Z,63.109,7.816,8,1,110,3,,6+,28.91,,,TRUE,,,,,,,,BKN,5100,OVC,11000,,,,,VFR,,,,,,,,,,,,METAR,62
ENJS 050350Z 12023KT 9999 BKN040 09/07 Q0975 W09/S/,ENJS,2023-11-05T03:50:00Z,58.835,2.545,9,7,120,23,,6+,28.79,,,,,,,,,,,BKN,4000,,,,,,,VFR,,,,,,,,,,,,METAR,
ENHV 050350Z AUTO 14013KT 9999 SCT180/// OVC210/// M00/M07 Q1005,ENHV,2023-11-05T03:50:00Z,71.009,25.982,0,-7,140,13,,6+,29.68,,,TRUE,,,,,,,,SCT,18000,OVC,21000,,,,,VFR,,,,,,,,,,,,METAR,13
ENHM 050350Z AUTO 13022KT //// FEW018/// SCT043/// BKN052/// 09/09 Q0975 W10/S/,ENHM,2023-11-05T03:50:00Z,59.57,2.22,9,9,130,22,,,28.79,,,TRUE,,,,,,,,FEW,1800,SCT,4300,BKN,5200,,,VFR,,,,,,,,,,,,METAR,10
ENHK 050350Z AUTO 11025KT 9999 SCT028/// M01/M05 Q0999,ENHK,2023-11-05T03:50:00Z,70.487,22.14,-1,-5,110,25,,6+,29.50,,,TRUE,,,,,,,,SCT,2800,,,,,,,VFR,,,,,,,,,,,,METAR,6
ENHF 050350Z AUTO 09010KT 060V150 9999 BKN160/// M03/M09 Q1002 RMK WIND 1254FT 13027KT,ENHF,2023-11-05T03:50:00Z,70.681,23.677,-3,-9,90,10,,6+,29.59,,,TRUE,,,,,,,,BKN,16000,,,,,,,VFR,,,,,,,,,,,,METAR,79
ENGC 050350Z 14019KT 9999 -SHRA FEW020 BKN025 09/07 Q0977 W09/S4,ENGC,2023-11-05T03:50:00Z,61.033,2.033,9,7,140,19,,6+,28.85,,,,,,,,,,-SHRA,FEW,2000,BKN,2500,,,,,MVFR,,,,,,,,,,,,METAR,10
ENFL 050350Z AUTO 09004KT 020V130 9999NDV OVC064/// 10/04 Q0978,ENFL,2023-11-05T03:50:00Z,61.582,5.02,10,4,90,4,,,28.88,,,TRUE,,,,,,,,OVC,6400,,,,,,,VFR,,,,,,,,,,,,METAR,1
ENFB 050350Z AUTO 14012KT 9999NDV BKN017/// BKN056/// 10/07 Q0977 W///S4,ENFB,2023-11-05T03:50:00Z,61.206,1.829,10,7,140,12,,,28.85,,,TRUE,,,,,,,,BKN,1700,BKN,5600,,,,,MVFR,,,,,,,,,,,,METAR,10
ENEV 050350Z 11012KT 070V150 CAVOK M00/M07 Q0992 RMK WIND 1400FT 09026KT,ENEV,2023-11-05T03:50:00Z,68.491,16.683,0,-7,110,12,,6+,29.29,,,,,,,,,,,CAVOK,,,,,,,,VFR,,,,,,,,,,,,METAR,26
ENBV 050350Z AUTO 14012KT 9999 OVC216/// M01/M06 Q1007,ENBV,2023-11-05T03:50:00Z,70.871,29.032,-1,-6,140,12,,6+,29.73,,,TRUE,,,,,,,,OVC,21600,,,,,,,VFR,,,,,,,,,,,,METAR,13
ENBS 050350Z AUTO 12018KT 9999 NCD M02/M05 Q1007,ENBS,2023-11-05T03:50:00Z,70.601,29.698,-2,-5,120,18,,6+,29.73,,,TRUE,,,,,,,,CLR,,,,,,,,VFR,,,,,,,,,,,,METAR,144
ENBN 050350Z AUTO 10011G22KT 030V150 9999NDV FEW039/// OVC064/// 05/M01 Q0983,ENBN,2023-11-05T03:50:00Z,65.458,12.216,5,-1,100,11,22,,29.03,,,TRUE,,,,,,,,FEW,3900,OVC,6400,,,,,VFR,,,,,,,,,,,,METAR,3
ENBL 050350Z AUTO 36003KT 310V110 9999 SCT072/// 07/M01 Q0978,ENBL,2023-11-05T03:50:00Z,61.391,5.76,7,-1,360,3,,6+,28.88,,,TRUE,,,,,,,,SCT,7200,,,,,,,VFR,,,,,,,,,,,,METAR,313
ENAT 050350Z AUTO 16009KT 9999 OVC020/// M03/M07 Q1003 RMK WIND 700FT 18014KT,ENAT,2023-11-05T03:50:00Z,69.978,23.358,-3,-7,160,9,,6+,29.62,,,TRUE,,,,,,,,OVC,2000,,,,,,,MVFR,,,,,,,,,,,,METAR,3
ELLX 050350Z 21014KT 3000 -SHRA SCT004 BKN006 08/08 Q0974 NOSIG,ELLX,2023-11-05T03:50:00Z,49.626,6.204,8,8,210,14,,1.86,28.76,,,,,,,,,,-SHRA,SCT,400,BKN,600,,,,,IFR,,,,,,,,,,,,METAR,374
EKYT 050350Z AUTO 10011KT 9999 -RA FEW011/// OVC031/// 08/07 Q0976,EKYT,2023-11-05T03:50:00Z,57.093,9.879,8,7,100,11,,6+,28.82,,,TRUE,,,,,,,-RA,FEW,1100,OVC,3100,,,,,VFR,,,,,,,,,,,,METAR,2
EKVD 050350Z AUTO 12008KT //// ///////// 08/07 Q0973,EKVD,2023-11-05T03:50:00Z,55.436,9.329,8,7,120,8,,,28.73,,,TRUE,,,,,,,,,,,,,,,,VFR,,,,,,,,,,,,METAR,41
EKSB 050350Z AUTO 15009KT 9999 SCT014/// BKN045/// 09/07 Q0973,EKSB,2023-11-05T03:50:00Z,54.962,9.787,9,7,150,9,,6+,28.73,,,TRUE,,,,,,,,SCT,1400,BKN,4500,,,,,VFR,,,,,,,,,,,,METAR,23
EKRN 050350Z AUTO 15019KT 9999 FEW016/// BKN039/// BKN095/// BKN100/// 09/06 Q0980,EKRN,2023-11-05T03:50:00Z,55.068,14.749,9,6,150,19,,6+,28.94,,,TRUE,,,,,,,,FEW,1600,BKN,3900,BKN,9500,BKN,10000,VFR,,,,,,,,,,,,METAR,14
EKRK 050350Z AUTO 14013KT 9999 OVC017/// 09/06 Q0977,EKRK,2023-11-05T03:50:00Z,55.587,12.136,9,6,140,13,,6+,28.85,,,TRUE,,,,,,,,OVC,1700,,,,,,,MVFR,,,,,,,,,,,,METAR,40
EKEB 050350Z AUTO 11009KT 2900 +DZ BR OVC006/// 07/07 Q0972,EKEB,2023-11-05T03:50:00Z,55.528,8.563,7,7,110,9,,1.8,28.70,,,TRUE,,,,,,,+DZ BR,OVC,600,,,,,,,IFR,,,,,,,,,,,,METAR,29
EKCH 050350Z AUTO 12014KT 9999 BKN027/// OVC038/// 09/06 Q0978 NOSIG,EKCH,2023-11-05T03:50:00Z,55.618,12.656,9,6,120,14,,6+,28.88,,,TRUE,,,,,,,,BKN,2700,OVC,3800,,,,,MVFR,,,,,,,,,,,,METAR,4
EKBI 050350Z AUTO 10008KT 9999 -RA OVC006/// 07/07 Q0973,EKBI,2023-11-05T03:50:00Z,55.74,9.152,7,7,100,8,,6+,28.73,,,TRUE,,,,,,,-RA,OVC,600,,,,,,,IFR,,,,,,,,,,,,METAR,67
EKAH 050350Z AUTO 12009KT 090V160 6000 -RA BKN010/// 08/07 Q0976,EKAH,2023-11-05T03:50:00Z,56.3,10.619,8,7,120,9,,3.73,28.82,,,TRUE,,,,,,,-RA,BKN,1000,,,,,,,MVFR,,,,,,,,,,,,METAR,25
EGYP 050350Z 34007KT 9999 FEW049 BKN120 07/05 Q0995 RERA,EGYP,2023-11-05T03:50:00Z,-51.82,-58.448,7,5,340,7,,6+,29.38,,,,,,,,,,,FEW,4900,BKN,12000,,,,,VFR,,,,,,,,,,,,METAR,70
EGYM 050350Z AUTO 26007KT 5000 BR SCT003/// OVC014/// 08/08 Q0968,EGYM,2023-11-05T03:50:00Z,52.648,0.567,8,8,260,7,,3.11,28.58,,,TRUE,,,,,,,BR,SCT,300,OVC,1400,,,,,MVFR,,,,,,,,,,,,METAR,25
EGYH 050350Z AUTO 28010KT 4100 // OVC005/// 08/08 Q0967,EGYH,2023-11-05T03:50:00Z,52.873,0.139,8,8,280,10,,2.55,28.55,,,TRUE,,,,,,,,OVC,500,,,,,,,IFR,,,,,,,,,,,,METAR,5
EGYE 050350Z AUTO 31016KT //// OVC005/// 08/07 Q0969,EGYE,2023-11-05T03:50:00Z,52.962,-0.562,8,7,310,16,,,28.61,,,TRUE,,,,,,,,OVC,500,,,,,,,IFR,,,,,,,,,,,,METAR,105
EGYD 050350Z AUTO 30013KT 6000 -RA OVC004/// 08/08 Q0968,EGYD,2023-11-05T03:50:00Z,53.031,-0.503,8,8,300,13,,3.73,28.58,,,TRUE,,,,,,,-RA,OVC,400,,,,,,,LIFR,,,,,,,,,,,,METAR,65
EGXZ 050350Z AUTO 32014KT 9999 -RA BKN010/// SCT018/// 09/08 Q0970,EGXZ,2023-11-05T03:50:00Z,54.205,-1.39,9,8,320,14,,6+,28.64,,,TRUE,,,,,,,-RA,BKN,1000,SCT,1800,,,,,MVFR,,,,,,,,,,,,METAR,24
EGXW 050350Z AUTO 31011KT 9999 -DZ OVC004/// 08/08 Q0968,EGXW,2023-11-05T03:50:00Z,53.175,-0.523,8,8,310,11,,6+,28.58,,,TRUE,,,,,,,-DZ,OVC,400,,,,,,,LIFR,,,,,,,,,,,,METAR,70
EGXV 050350Z AUTO 32009KT 9999 // OVC008/// 10/09 Q0967,EGXV,2023-11-05T03:50:00Z,53.876,-0.435,10,9,320,9,,6+,28.55,,,TRUE,,,,,,,,OVC,800,,,,,,,IFR,,,,,,,,,,,,METAR,6
EGXT 050350Z AUTO 29011KT 6000 -RA OVC009/// 08/08 Q0968,EGXT,2023-11-05T03:50:00Z,52.611,-0.461,8,8,290,11,,3.73,28.58,,,TRUE,,,,,,,-RA,OVC,900,,,,,,,IFR,,,,,,,,,,,,METAR,74
EGXS 050350Z AUTO 28010KT 5000 -RA OVC004/// 09/09 Q0966,EGXS,2023-11-05T03:50:00Z,53.475,0.152,9,9,280,10,,3.11,28.52,,,TRUE,,,,,,,-RA,OVC,400,,,,,,,LIFR,,,,,,,,,,,,METAR,6
EGXE 050350Z AUTO 32012KT 9999 // FEW015/// OVC046/// 09/07 Q0970,EGXE,2023-11-05T03:50:00Z,54.297,-1.533,9,7,320,12,,6+,28.64,,,TRUE,,,,,,,,FEW,1500,OVC,4600,,,,,VFR,,,,,,,,,,,,METAR,30
EGXC 050350Z 30012KT 9999 -RA BKN007 09/08 Q0967 RMK GRN,EGXC,2023-11-05T03:50:00Z,53.094,-0.173,9,8,300,12,,6+,28.55,,,,,,,,,,-RA,BKN,700,,,,,,,IFR,,,,,,,,,,,,METAR,9
EGWU 050350Z AUTO 28004KT 6000 BR FEW009/// OVC044/// 07/07 Q0969,EGWU,2023-11-05T03:50:00Z,51.549,-0.417,7,7,280,4,,3.73,28.61,,,TRUE,,,,,,,BR,FEW,900,OVC,4400,,,,,MVFR,,,,,,,,,,,,METAR,33
EGWC 050350Z AUTO 31008KT //// ///////// ///// Q////,EGWC,2023-11-05T03:50:00Z,52.64,-2.311,,,310,8,,,0.00,,,TRUE,,,,,,,,,,,,,,,,VFR,,,,,,,,,,,,METAR,79
EGVP 050350Z AUTO 31009KT 9000 // OVC008/// 08/08 Q0971,EGVP,2023-11-05T03:50:00Z,51.139,-1.569,8,8,310,9,,5.59,28.67,,,TRUE,,,,,,,,OVC,800,,,,,,,IFR,,,,,,,,,,,,METAR,80
EGVO 050350Z AUTO 29009KT 8000 BR OVC003/// 08/07 Q0970,EGVO,2023-11-05T03:50:00Z,51.239,-0.945,8,7,290,9,,4.97,28.64,,,TRUE,,,,,,,BR,OVC,300,,,,,,,LIFR,,,,,,,,,,,,METAR,118
EGVN 050350Z 31010KT 9999 BKN009 08/08 Q0971 NOSIG RMK GRN GRN,EGVN,2023-11-05T03:50:00Z,51.758,-1.578,8,8,310,10,,6+,28.67,,,,,,,,,,,BKN,900,,,,,,,IFR,,,,,,,,,,,,METAR,83
EGUW 050350Z AUTO 30008KT 5000 // OVC003/// 08/07 Q0967,EGUW,2023-11-05T03:50:00Z,52.124,0.957,8,7,300,8,,3.11,28.55,,,TRUE,,,,,,,,OVC,300,,,,,,,LIFR,,,,,,,,,,,,METAR,86
EGUB 050350Z AUTO 29004KT 5000 BR OVC006/// 08/07 Q0970,EGUB,2023-11-05T03:50:00Z,51.62,-1.099,8,7,290,4,,3.11,28.64,,,TRUE,,,,,,,BR,OVC,600,,,,,,,IFR,,,,,,,,,,,,METAR,56
EGSY 050350Z AUTO 29011KT 9999 NCD 08/06 Q0975,EGSY,2023-11-05T03:50:00Z,51.406,-3.434,8,6,290,11,,6+,28.79,,,TRUE,,,,,,,,CLR,,,,,,,,VFR,,,,,,,,,,,,METAR,46
EGSS 050350Z AUTO 30007KT 260V340 2600 BR OVC002 08/07 Q0969,EGSS,2023-11-05T03:50:00Z,51.881,0.223,8,7,300,7,,1.62,28.61,,,TRUE,,,,,,,BR,OVC,200,,,,,,,LIFR,,,,,,,,,,,,METAR,101
EGSH 050350Z AUTO 25007KT 220V280 6000 BKN005/// 08/08 Q0967,EGSH,2023-11-05T03:50:00Z,52.676,1.283,8,8,250,7,,3.73,28.55,,,TRUE,,,,,,,,BKN,500,,,,,,,IFR,,,,,,,,,,,,METAR,21
EGQS 050350Z 24008KT 1500 BR BKN000 06/06 Q0974 RMK RED,EGQS,2023-11-05T03:50:00Z,57.711,-3.324,6,6,240,8,,0.93,28.76,,,,,,,,,,BR,BKN,0,,,,,,,LIFR,,,,,,,,,,,,METAR,6
EGQM 050350Z AUTO 36010KT 9999 // BKN011/// OVC051/// 10/08 Q0971,EGQM,2023-11-05T03:50:00Z,55.421,-1.601,10,8,360,10,,6+,28.67,,,TRUE,,,,,,,,BKN,1100,OVC,5100,,,,,MVFR,,,,,,,,,,,,METAR,24
EGQL 050350Z 28004KT 9999 BKN036 07/06 Q0973 RMK BLU,EGQL,2023-11-05T03:50:00Z,56.377,-2.862,7,6,280,4,,6+,28.73,,,,,,,,,,,BKN,3600,,,,,,,VFR,,,,,,,,,,,,METAR,11
EGQK 050350Z AUTO 23006KT 1000 BR BKN001/// 05/05 Q0974,EGQK,2023-11-05T03:50:00Z,57.646,-3.563,5,5,230,6,,0.62,28.76,,,TRUE,,,,,,,BR,BKN,100,,,,,,,LIFR,,,,,,,,,,,,METAR,5
EGQA 050350Z AUTO 23002KT 0350 // OVC002/// 04/04 Q0974,EGQA,2023-11-05T03:50:00Z,57.825,-3.955,4,4,230,2,,0.22,28.76,,,TRUE,,,,,,,,OVC,200,,,,,,,LIFR,,,,,,,,,,,,METAR,4
EGPU 050350Z AUTO 33003KT 9999 -RA FEW036/// OVC045/// 07/06 Q0974,EGPU,2023-11-05T03:50:00Z,56.499,-6.872,7,6,330,3,,6+,28.76,,,TRUE,,,,,,,-RA,FEW,3600,OVC,4500,,,,,VFR,,,,,,,,,,,,METAR,12
EGPO 050350Z AUTO 00000KT 9999 NCD 05/05 Q0973,EGPO,2023-11-05T03:50:00Z,58.215,-6.329,5,5,0,0,,6+,28.73,,,TRUE,,,,,,,,CLR,,,,,,,,VFR,,,,,,,,,,,,METAR,10
EGPL 050350Z AUTO 23005KT 9999 ///////// 08/07 Q0974,EGPL,2023-11-05T03:50:00Z,57.475,-7.364,8,7,230,5,,6+,28.76,,,TRUE,,,,,,,,,,,,,,,,VFR,,,,,,,,,,,,METAR,3
EGPK 050350Z AUTO VRB01KT 9000 SCT009/// OVC019/// 03/03 Q0974,EGPK,2023-11-05T03:50:00Z,55.509,-4.587,3,3,VRB,1,,5.59,28.76,,,TRUE,,,,,,,,SCT,900,OVC,1900,,,,,MVFR,,,,,,,,,,,,METAR,14
EGPI 050350Z AUTO 00000KT 9999 BKN048/// 05/04 Q0974,EGPI,2023-11-05T03:50:00Z,55.681,-6.25,5,4,0,0,,6+,28.76,,,TRUE,,,,,,,,BKN,4800,,,,,,,VFR,,,,,,,,,,,,METAR,17
EGPH 050350Z 27003KT 9000 SCT015 OVC047 06/05 Q0973,EGPH,2023-11-05T03:50:00Z,55.952,-3.36,6,5,270,3,,5.59,28.73,,,,,,,,,,,SCT,1500,OVC,4700,,,,,VFR,,,,,,,,,,,,METAR,29
EGPF 050350Z 22005KT 9999 NSC 03/03 Q0974,EGPF,2023-11-05T03:50:00Z,55.867,-4.433,3,3,220,5,,6+,28.76,,,,,,,,,,,CLR,,,,,,,,VFR,,,,,,,,,,,,METAR,8
EGPE 050350Z AUTO 23005KT 0300 FG BKN001/// 04/03 Q0974,EGPE,2023-11-05T03:50:00Z,57.538,-4.053,4,3,230,5,,0.19,28.76,,,TRUE,,,,,,,FG,BKN,100,,,,,,,LIFR,,,,,,,,,,,,METAR,7
EGPD 050350Z AUTO 32007KT 9999 SCT014 SCT043 06/05 Q0973,EGPD,2023-11-05T03:50:00Z,57.205,-2.205,6,5,320,7,,6+,28.73,,,TRUE,,,,,,,,SCT,1400,SCT,4300,,,,,VFR,,,,,,,,,,,,METAR,65
EGPC 050350Z AUTO 26003KT 4700 BR BKN017/// 03/03 Q0974,EGPC,2023-11-05T03:50:00Z,58.459,-3.093,3,3,260,3,,2.92,28.76,,,TRUE,,,,,,,BR,BKN,1700,,,,,,,IFR,,,,,,,,,,,,METAR,38
EGPB 050350Z AUTO 10005KT 9999 SCT012/// OVC046/// 08/07 Q0975,EGPB,2023-11-05T03:50:00Z,59.88,-1.296,8,7,100,5,,6+,28.79,,,TRUE,,,,,,,,SCT,1200,OVC,4600,,,,,VFR,,,,,,,,,,,,METAR,2
EGPA 050350Z AUTO 00000KT 9999 NCD 04/03 Q0974,EGPA,2023-11-05T03:50:00Z,58.958,-2.905,4,3,0,0,,6+,28.76,,,TRUE,,,,,,,,CLR,,,,,,,,VFR,,,,,,,,,,,,METAR,15
EGOV 050350Z AUTO 32011KT 9999 // BKN031/// BKN053/// BKN180/// 10/06 Q0974,EGOV,2023-11-05T03:50:00Z,53.252,-4.536,10,6,320,11,,6+,28.76,,,TRUE,,,,,,,,BKN,3100,BKN,5300,BKN,18000,,,VFR,,,,,,,,,,,,METAR,11
EGOS 050350Z AUTO 28008KT 9999 BKN051/// 07/06 Q0972,EGOS,2023-11-05T03:50:00Z,52.795,-2.665,7,6,280,8,,6+,28.70,,,TRUE,,,,,,,,BKN,5100,,,,,,,VFR,,,,,,,,,,,,METAR,76
EGOP 050350Z AUTO 32013KT 9999 -RA FEW010/// OVC021/// 09/08 Q0976,EGOP,2023-11-05T03:50:00Z,51.714,-4.367,9,8,320,13,,6+,28.82,,,TRUE,,,,,,,-RA,FEW,1000,OVC,2100,,,,,MVFR,,,,,,,,,,,,METAR,8
EGOM 050350Z AUTO 34006KT 9999 NCD 05/04 Q0971,EGOM,2023-11-05T03:50:00Z,55.05,-2.554,5,4,340,6,,6+,28.67,,,TRUE,,,,,,,,CLR,,,,,,,,VFR,,,,,,,,,,,,METAR,286
EGNX 050350Z 29010KT 9999 -RA SCT018 BKN030 08/07 Q0970,EGNX,2023-11-05T03:50:00Z,52.833,-1.333,8,7,290,10,,6+,28.64,,,,,,,,,,-RA,SCT,1800,BKN,3000,,,,,MVFR,,,,,,,,,,,,METAR,91
EGNT 050350Z 35008KT 8000 -RA FEW007 BKN015 08/07 Q0971,EGNT,2023-11-05T03:50:00Z,55.037,-1.702,8,7,350,8,,4.97,28.67,,,,,,,,,,-RA,FEW,700,BKN,1500,,,,,MVFR,,,,,,,,,,,,METAR,77
EGNS 050350Z 32003KT 9999 FEW020 SCT030 07/05 Q0974,EGNS,2023-11-05T03:50:00Z,54.085,-4.632,7,5,320,3,,6+,28.76,,,,,,,,,,,FEW,2000,SCT,3000,,,,,VFR,,,,,,,,,,,,METAR,18
EGNM 050350Z 31014KT 9999 FEW007 SCT030 07/06 Q0970,EGNM,2023-11-05T03:50:00Z,53.862,-1.665,7,6,310,14,,6+,28.64,,,,,,,,,,,FEW,700,SCT,3000,,,,,VFR,,,,,,,,,,,,METAR,221
EGNJ 050350Z AUTO 30015KT 3900 RA BKN008/// OVC027/// 10/08 Q0967 RERA REDZ,EGNJ,2023-11-05T03:50:00Z,53.58,-0.341,10,8,300,15,,2.42,28.55,,,TRUE,,,,,,,RA,BKN,800,OVC,2700,,,,,IFR,,,,,,,,,,,,METAR,23
EGMD 050350Z AUTO 29009KT 9999 FEW049/// 09/08 Q0968,EGMD,2023-11-05T03:50:00Z,50.956,0.939,9,8,290,9,,6+,28.58,,,TRUE,,,,,,,,FEW,4900,,,,,,,VFR,,,,,,,,,,,,METAR,4
EGLL 050350Z AUTO 29006KT 9999 FEW041 OVC049 08/08 Q0970 TEMPO BKN009,EGLL,2023-11-05T03:50:00Z,51.477,-0.461,8,8,290,6,,6+,28.64,,,TRUE,,,,,,,,FEW,4100,OVC,4900,,,,,VFR,,,,,,,,,,,,METAR,26
EGLF 050350Z AUTO 28007KT 250V310 7000 SCT005/// BKN047/// 07/07 Q0970,EGLF,2023-11-05T03:50:00Z,51.28,-0.773,7,7,280,7,,4.35,28.64,,,TRUE,,,,,,,,SCT,500,BKN,4700,,,,,MVFR,,,,,,,,,,,,METAR,65
EGLC 050350Z AUTO 30009KT 9000 BKN008 OVC046 09/08 Q0969,EGLC,2023-11-05T03:50:00Z,51.505,0.055,9,8,300,9,,5.59,28.61,,,TRUE,,,,,,,,BKN,800,OVC,4600,,,,,IFR,,,,,,,,,,,,METAR,10
EGKK 050350Z 30008KT 9999 FEW009 BKN047 09/08 Q0969,EGKK,2023-11-05T03:50:00Z,51.148,-0.19,9,8,300,8,,6+,28.61,,,,,,,,,,,FEW,900,BKN,4700,,,,,VFR,,,,,,,,,,,,METAR,58
EGJJ 050350Z AUTO 30026G46KT 270V330 9999 BKN023/// BKN028/// BKN043/// 12/10 Q0975 RESHRA,EGJJ,2023-11-05T03:50:00Z,49.21,-2.194,12,10,300,26,46,6+,28.79,,,TRUE,,,,,,,,BKN,2300,BKN,2800,BKN,4300,,,MVFR,,,,,,,,,,,,METAR,84
EGJB 050350Z 31023G36KT 9999 VCSH FEW015CB SCT020 BKN042 12/08 Q0975,EGJB,2023-11-05T03:50:00Z,49.433,-2.598,12,8,310,23,36,6+,28.79,,,,,,,,,,VCSH,FEW,1500,SCT,2000,BKN,4200,,,VFR,,,,,,,,,,,,METAR,102
EGHQ 050350Z AUTO 31027KT 9999 BKN022/// 10/07 Q0979,EGHQ,2023-11-05T03:50:00Z,50.438,-4.998,10,7,310,27,,6+,28.91,,,TRUE,,,,,,,,BKN,2200,,,,,,,MVFR,,,,,,,,,,,,METAR,101
EGGW 050350Z AUTO 30009KT 3800 BR OVC003 07/07 Q0969,EGGW,2023-11-05T03:50:00Z,51.875,-0.368,7,7,300,9,,2.36,28.61,,,TRUE,,,,,,,BR,OVC,300,,,,,,,LIFR,,,,,,,,,,,,METAR,159
EGGP 050350Z AUTO 34008KT 9999 R27/M0050N FEW047/// 09/07 Q0972,EGGP,2023-11-05T03:50:00Z,53.334,-2.85,9,7,340,8,,6+,28.70,,,TRUE,,,,,,,,FEW,4700,,,,,,,VFR,,,,,,,,,,,,METAR,23
EGGD 050350Z AUTO 30012KT 9999 BKN010 OVC015 08/06 Q0973,EGGD,2023-11-05T03:50:00Z,51.383,-2.719,8,6,300,12,,6+,28.73,,,TRUE,,,,,,,,BKN,1000,OVC,1500,,,,,MVFR,,,,,,,,,,,,METAR,182
EGFF 050350Z AUTO 31012KT 9999 NCD 08/06 Q0974,EGFF,2023-11-05T03:50:00Z,51.397,-3.343,8,6,310,12,,6+,28.76,,,TRUE,,,,,,,,CLR,,,,,,,,VFR,,,,,,,,,,,,METAR,65
EGDY 050350Z AUTO 30014KT 9999 // OVC018/// 10/07 Q0973,EGDY,2023-11-05T03:50:00Z,51.006,-2.643,10,7,300,14,,6+,28.73,,,TRUE,,,,,,,,OVC,1800,,,,,,,MVFR,,,,,,,,,,,,METAR,21
EGDR 050350Z AUTO 30014KT 9999 FEW021/// BKN029/// 10/07 Q0980,EGDR,2023-11-05T03:50:00Z,50.084,-5.257,10,7,300,14,,6+,28.94,,,TRUE,,,,,,,,FEW,2100,BKN,2900,,,,,MVFR,,,,,,,,,,,,METAR,74
EGDM 050350Z AUTO 32013KT 9999 BR OVC004/// 08/08 Q0971,EGDM,2023-11-05T03:50:00Z,51.153,-1.75,8,8,320,13,,6+,28.67,,,TRUE,,,,,,,BR,OVC,400,,,,,,,LIFR,,,,,,,,,,,,METAR,122
EGCK 050350Z AUTO 34007KT 9000 -RA FEW001/// BKN021/// 09/07 Q0975 RERA,EGCK,2023-11-05T03:50:00Z,53.104,-4.34,9,7,340,7,,5.59,28.79,,,TRUE,,,,,,,-RA,FEW,100,BKN,2100,,,,,MVFR,,,,,,,,,,,,METAR,6
EGCC 050350Z AUTO 30008KT 9999 -RA BKN047 08/07 Q0972 TEMPO RA,EGCC,2023-11-05T03:50:00Z,53.354,-2.275,8,7,300,8,,6+,28.70,,,TRUE,,,,,,,-RA,BKN,4700,,,,,,,VFR,,,,,,,,,,,,METAR,78
EGBB 050350Z 31012KT 9999 SCT011 BKN031 08/07 Q0971,EGBB,2023-11-05T03:50:00Z,52.46,-1.758,8,7,310,12,,6+,28.67,,,,,,,,,,,SCT,1100,BKN,3100,,,,,VFR,,,,,,,,,,,,METAR,91
EGAC 050350Z AUTO VRB02KT 9999 NCD 05/05 Q0975,EGAC,2023-11-05T03:50:00Z,54.614,-5.873,5,5,VRB,2,,6+,28.79,,,TRUE,,,,,,,,CLR,,,,,,,,VFR,,,,,,,,,,,,METAR,2
EGAA 050350Z AUTO 30004KT 9999 FEW039 BKN049 06/06 Q0975 REDZ,EGAA,2023-11-05T03:50:00Z,54.654,-6.225,6,6,300,4,,6+,28.79,,,TRUE,,,,,,,,FEW,3900,BKN,4900,,,,,VFR,,,,,,,,,,,,METAR,65
EFUT 050350Z AUTO 13006KT 9999 BKN006 OVC017 07/06 Q0994,EFUT,2023-11-05T03:50:00Z,60.896,26.938,7,6,130,6,,6+,29.35,,,TRUE,,,,,,,,BKN,600,OVC,1700,,,,,IFR,,,,,,,,,,,,METAR,104
EFSI 050350Z AUTO 15012KT 9999 OVC011 06/05 Q0987,EFSI,2023-11-05T03:50:00Z,62.693,22.83,6,5,150,12,,6+,29.14,,,TRUE,,,,,,,,OVC,1100,,,,,,,MVFR,,,,,,,,,,,,METAR,90
EFSA 050350Z AUTO 12007KT 0800 0650 R30/1100N FG VV002 04/04 Q0996,EFSA,2023-11-05T03:50:00Z,61.943,28.945,4,4,120,7,,0.5,29.41,,,TRUE,,,,,,,FG,OVX,0,,,,,,,LIFR,,,,,,,,,,,200,METAR,90
EFPO 050350Z AUTO 19007KT 160V220 9999 OVC007 08/07 Q0988,EFPO,2023-11-05T03:50:00Z,61.462,21.8,8,7,190,7,,6+,29.17,,,TRUE,,,,,,,,OVC,700,,,,,,,IFR,,,,,,,,,,,,METAR,10
EFMI 050350Z AUTO 12006KT 9999 OVC004 05/05 Q0994,EFMI,2023-11-05T03:50:00Z,61.687,27.201,5,5,120,6,,6+,29.35,,,TRUE,,,,,,,,OVC,400,,,,,,,LIFR,,,,,,,,,,,,METAR,99
EFLP 050350Z AUTO 13005KT 100V160 9999 OVC002 06/06 Q0994,EFLP,2023-11-05T03:50:00Z,61.044,28.151,6,6,130,5,,6+,29.35,,,TRUE,,,,,,,,OVC,200,,,,,,,LIFR,,,,,,,,,,,,METAR,102
EFKU 050350Z AUTO 13008KT 4500 BR OVC001 04/03 Q0995,EFKU,2023-11-05T03:50:00Z,63.008,27.799,4,3,130,8,,2.8,29.38,,,TRUE,,,,,,,BR,OVC,100,,,,,,,LIFR,,,,,,,,,,,,METAR,92
EFKT 050350Z AUTO 06006KT 030V090 4000 -SN OVC013 M03/M04 Q0997,EFKT,2023-11-05T03:50:00Z,67.701,24.847,-3,-4,60,6,,2.49,29.44,,,TRUE,,,,,,,-SN,OVC,1300,,,,,,,IFR,,,,,,,,,,,,METAR,190
EFKS 050350Z AUTO 11009KT 8000 -FZDZSN OVC005 M03/M04 Q0998,EFKS,2023-11-05T03:50:00Z,65.992,29.236,-3,-4,110,9,,4.97,29.47,,,TRUE,,,,,,,-FZDZ SN,OVC,500,,,,,,,IFR,,,,,,,,,,,,METAR,270
EFKK 050350Z AUTO 12010KT 9999 -DZ OVC007 05/04 Q0987,EFKK,2023-11-05T03:50:00Z,63.721,23.143,5,4,120,10,,6+,29.14,,,TRUE,,,,,,,-DZ,OVC,700,,,,,,,IFR,,,,,,,,,,,,METAR,25
EFKI 050350Z AUTO 12012KT 5000 OVC002 01/01 Q0994,EFKI,2023-11-05T03:50:00Z,64.283,27.673,1,1,120,12,,3.11,29.35,,,TRUE,,,,,,,,OVC,200,,,,,,,LIFR,,,,,,,,,,,,METAR,132
EFKE 050350Z AUTO 09012KT 7000 -RA OVC008 00/M00 Q0993,EFKE,2023-11-05T03:50:00Z,65.784,24.579,0,0,90,12,,4.35,29.32,,,TRUE,,,,,,,-RA,OVC,800,,,,,,,IFR,,,,,,,,,,,,METAR,15
EFJY 050350Z AUTO 15009KT 9999 OVC005 05/05 Q0992,EFJY,2023-11-05T03:50:00Z,62.404,25.675,5,5,150,9,,6+,29.29,,,TRUE,,,,,,,,OVC,500,,,,,,,IFR,,,,,,,,,,,,METAR,139
EFJO 050350Z AUTO 14009KT 1100 R28/1300N BCFG OVC001 03/03 Q0997,EFJO,2023-11-05T03:50:00Z,62.66,29.611,3,3,140,9,,0.68,29.44,,,TRUE,,,,,,,BCFG,OVC,100,,,,,,,LIFR,,,,,,,,,,,,METAR,118
EFHA 050350Z AUTO 16008KT 130V190 9999 OVC005 06/06 Q0990,EFHA,2023-11-05T03:50:00Z,61.855,24.805,6,6,160,8,,6+,29.23,,,TRUE,,,,,,,,OVC,500,,,,,,,IFR,,,,,,,,,,,,METAR,144
EFET 050350Z AUTO 08008KT 030V120 6000 -SHSN OVC005 M06/M07 Q0997,EFET,2023-11-05T03:50:00Z,68.363,23.424,-6,-7,80,8,,3.73,29.44,,,TRUE,,,,,,,-SHSN,OVC,500,,,,,,,IFR,,,,,,,,,,,,METAR,300
EDXW 050350Z AUTO 15012KT 6000 // BKN003/// OVC011/// 08/08 Q0971,EDXW,2023-11-05T03:50:00Z,54.913,8.341,8,8,150,12,,3.73,28.67,,,TRUE,,,,,,,,BKN,300,OVC,1100,,,,,LIFR,,,,,,,,,,,,METAR,8
EDWE 050350Z AUTO 17007KT 9999 // FEW028/// OVC056/// 09/08 Q0971,EDWE,2023-11-05T03:50:00Z,53.388,7.229,9,8,170,7,,6+,28.67,,,TRUE,,,,,,,,FEW,2800,OVC,5600,,,,,VFR,,,,,,,,,,,,METAR,
EDVK 050350Z AUTO 17012KT 140V200 9999 // FEW020/// SCT040/// 09/07 Q0975,EDVK,2023-11-05T03:50:00Z,51.421,9.388,9,7,170,12,,6+,28.79,,,TRUE,,,,,,,,FEW,2000,SCT,4000,,,,,VFR,,,,,,,,,,,,METAR,262
EDVE 050350Z AUTO 16006KT 9999 BKN056/// BKN065/// 10/07 Q0975,EDVE,2023-11-05T03:50:00Z,52.319,10.558,10,7,160,6,,6+,28.79,,,TRUE,,,,,,,,BKN,5600,BKN,6500,,,,,VFR,,,,,,,,,,,,METAR,83
EDTY 050350Z AUTO 18005KT 110V240 9999 // SCT085/// BKN100/// 10/04 Q0979,EDTY,2023-11-05T03:50:00Z,49.118,9.784,10,4,180,5,,6+,28.91,,,TRUE,,,,,,,,SCT,8500,BKN,10000,,,,,VFR,,,,,,,,,,,,METAR,398
EDTL 050350Z AUTO 21022G38KT 180V230 9999 // SCT110/// 13/06 Q0979,EDTL,2023-11-05T03:50:00Z,48.369,7.828,13,6,210,22,38,6+,28.91,,,TRUE,,,,,,,,SCT,11000,,,,,,,VFR,,,,,,,,,,,,METAR,152
EDSB 050350Z AUTO 20022KT 9999 // BKN059/// OVC110/// 14/05 Q0978,EDSB,2023-11-05T03:50:00Z,48.779,8.081,14,5,200,22,,6+,28.88,,,TRUE,,,,,,,,BKN,5900,OVC,11000,,,,,VFR,,,,,,,,,,,,METAR,122
EDQM 050350Z AUTO 19009KT 140V210 9999 // BKN045/// 07/05 Q0981,EDQM,2023-11-05T03:50:00Z,50.289,11.86,7,5,190,9,,6+,28.97,,,TRUE,,,,,,,,BKN,4500,,,,,,,VFR,,,,,,,,,,,,METAR,578
EDNY 050350Z AUTO 13009KT 9999 // FEW095/// SCT130/// 09/04 Q0982,EDNY,2023-11-05T03:50:00Z,47.671,9.511,9,4,130,9,,6+,29.00,,,TRUE,,,,,,,,FEW,9500,SCT,13000,,,,,VFR,,,,,,,,,,,,METAR,411
EDMO 050350Z AUTO 17008KT 9999 // FEW240/// 04/02 Q0984,EDMO,2023-11-05T03:50:00Z,48.081,11.283,4,2,170,8,,6+,29.06,,,TRUE,,,,,,,,FEW,24000,,,,,,,VFR,,,,,,,,,,,,METAR,587
EDMA 050350Z AUTO 16008KT 9999 // FEW120/// 07/03 Q0983,EDMA,2023-11-05T03:50:00Z,48.425,10.932,7,3,160,8,,6+,29.03,,,TRUE,,,,,,,,FEW,12000,,,,,,,VFR,,,,,,,,,,,,METAR,462
EDLW 050350Z AUTO 17011KT 9999 // FEW017/// SCT042/// BKN054/// 10/08 Q0971,EDLW,2023-11-05T03:50:00Z,51.518,7.612,10,8,170,11,,6+,28.67,,,TRUE,,,,,,,,FEW,1700,SCT,4200,BKN,5400,,,VFR,,,,,,,,,,,,METAR,122
EDLV 050350Z AUTO 15007KT 9999 // FEW008/// SCT012/// BKN031/// 10/09 Q0970,EDLV,2023-11-05T03:50:00Z,51.602,6.142,10,9,150,7,,6+,28.64,,,TRUE,,,,,,,,FEW,800,SCT,1200,BKN,3100,,,VFR,,,,,,,,,,,,METAR,27
EDLP 050350Z 14008KT 9999 -RA FEW039 09/07 Q0973,EDLP,2023-11-05T03:50:00Z,51.614,8.616,9,7,140,8,,6+,28.73,,,,,,,,,,-RA,FEW,3900,,,,,,,VFR,,,,,,,,,,,,METAR,211
EDLN 050350Z AUTO 17006KT 130V200 9999 // BKN027/// BKN031/// OVC049/// 10/08 Q0971,EDLN,2023-11-05T03:50:00Z,51.23,6.504,10,8,170,6,,6+,28.67,,,TRUE,,,,,,,,BKN,2700,BKN,3100,OVC,4900,,,MVFR,,,,,,,,,,,,METAR,38
EDJA 050350Z AUTO 20009KT 9999 FEW130/// 05/02 Q0982,EDJA,2023-11-05T03:50:00Z,47.989,10.239,5,2,200,9,,6+,29.00,,,TRUE,,,,,,,,FEW,13000,,,,,,,VFR,,,,,,,,,,,,METAR,625
EDHL 050350Z AUTO 17004KT 110V230 9999 // FEW008/// BKN023/// OVC048/// 08/07 Q0975,EDHL,2023-11-05T03:50:00Z,53.805,10.719,8,7,170,4,,6+,28.79,,,TRUE,,,,,,,,FEW,800,BKN,2300,OVC,4800,,,MVFR,,,,,,,,,,,,METAR,13
EDHK 050350Z AUTO 18008KT 9999 // FEW010/// BKN043/// OVC054/// 08/06 Q0974,EDHK,2023-11-05T03:50:00Z,54.376,10.143,8,6,180,8,,6+,28.76,,,TRUE,,,,,,,,FEW,1000,BKN,4300,OVC,5400,,,VFR,,,,,,,,,,,,METAR,24
EDHI 050350Z AUTO 13004KT 100V160 9999 // BKN031/// OVC059/// 09/08 Q0974,EDHI,2023-11-05T03:50:00Z,53.536,9.837,9,8,130,4,,6+,28.76,,,TRUE,,,,,,,,BKN,3100,OVC,5900,,,,,VFR,,,,,,,,,,,,METAR,5
EDGS 050350Z AUTO 20015G25KT 5000 // BKN003/// OVC005/// 07/07 Q0974,EDGS,2023-11-05T03:50:00Z,50.708,8.083,7,7,200,15,25,3.11,28.76,,,TRUE,,,,,,,,BKN,300,OVC,500,,,,,LIFR,,,,,,,,,,,,METAR,595
EDFM 050350Z AUTO 15004KT 110V180 9999 // OVC052/// 10/08 Q0977,EDFM,2023-11-05T03:50:00Z,49.474,8.515,10,8,150,4,,6+,28.85,,,TRUE,,,,,,,,OVC,5200,,,,,,,VFR,,,,,,,,,,,,METAR,94
EDFH 050350Z 21019KT 9999 -DZ SCT016 08/07 Q0974,EDFH,2023-11-05T03:50:00Z,49.946,7.265,8,7,210,19,,6+,28.76,,,,,,,,,,-DZ,SCT,1600,,,,,,,VFR,,,,,,,,,,,,METAR,494
EDDW 050350Z AUTO 14007KT 9999 SCT036 BKN048 09/07 Q0973 NOSIG,EDDW,2023-11-05T03:50:00Z,53.047,8.787,9,7,140,7,,6+,28.73,,,TRUE,,,,,,,,SCT,3600,BKN,4800,,,,,VFR,,,,,,,,,,,,METAR,5
EDDV 050350Z AUTO 10006KT 080V150 9999 BKN046 10/07 Q0974 NOSIG,EDDV,2023-11-05T03:50:00Z,52.466,9.68,10,7,100,6,,6+,28.76,,,TRUE,,,,,,,,BKN,4600,,,,,,,VFR,,,,,,,,,,,,METAR,53
EDDS 050350Z AUTO 19011G21KT 150V230 CAVOK 11/03 Q0979,EDDS,2023-11-05T03:50:00Z,48.69,9.222,11,3,190,11,21,6+,28.91,,,TRUE,,,,,,,,CAVOK,,,,,,,,VFR,,,,,,,,,,,,METAR,374
EDDR 050350Z AUTO 22017G30KT 190V250 9999 -RA SCT013 BKN025 BKN036 09/08 Q0976 RESHRA,EDDR,2023-11-05T03:50:00Z,49.213,7.108,9,8,220,17,30,6+,28.82,,,TRUE,,,,,,,-RA,SCT,1300,BKN,2500,BKN,3600,,,MVFR,,,,,,,,,,,,METAR,317
EDDP 050350Z AUTO 17011KT 9999 FEW033 09/06 Q0979 NOSIG,EDDP,2023-11-05T03:50:00Z,51.435,12.24,9,6,170,11,,6+,28.91,,,TRUE,,,,,,,,FEW,3300,,,,,,,VFR,,,,,,,,,,,,METAR,129
EDDN 050350Z AUTO 16013KT 9999 FEW028 10/05 Q0981,EDDN,2023-11-05T03:50:00Z,49.503,11.055,10,5,160,13,,6+,28.97,,,TRUE,,,,,,,,FEW,2800,,,,,,,VFR,,,,,,,,,,,,METAR,312
EDDM 050350Z AUTO 17006KT CAVOK 08/04 Q0984 NOSIG,EDDM,2023-11-05T03:50:00Z,48.348,11.813,8,4,170,6,,6+,29.06,,,TRUE,,,,,,,,CAVOK,,,,,,,,VFR,,,,,,,,,,,,METAR,445
EDDL 050350Z AUTO 16009KT 9999 -SHRA BKN028 OVC038 FEW///TCU 10/08 Q0971 NOSIG,EDDL,2023-11-05T03:50:00Z,51.296,6.769,10,8,160,9,,6+,28.67,,,TRUE,,,,,,,-SHRA,BKN,2800,OVC,3800,,,,,MVFR,,,,,,,,,,,,METAR,37
EDDK 050350Z AUTO 16010KT 9999 SCT026 BKN043 10/08 Q0972 NOSIG,EDDK,2023-11-05T03:50:00Z,50.865,7.157,10,8,160,10,,6+,28.70,,,TRUE,,,,,,,,SCT,2600,BKN,4300,,,,,VFR,,,,,,,,,,,,METAR,92
EDDH 050350Z AUTO 14009KT 9999 FEW006 BKN028 08/07 Q0974 NOSIG,EDDH,2023-11-05T03:50:00Z,53.633,9.988,8,7,140,9,,6+,28.76,,,TRUE,,,,,,,,FEW,600,BKN,2800,,,,,MVFR,,,,,,,,,,,,METAR,8
EDDG 050350Z AUTO 13006KT 110V170 9999 -RADZ SCT029 BKN043 09/08 Q0972 TEMPO RA,EDDG,2023-11-05T03:50:00Z,52.135,7.697,9,8,130,6,,6+,28.70,,,TRUE,,,,,,,-RA -DZ,SCT,2900,BKN,4300,,,,,VFR,,,,,,,,,,,,METAR,46
EDDF 050350Z AUTO 19015G26KT 9999 -RA SCT041 11/07 Q0976 TEMPO SHRA BKN040CB,EDDF,2023-11-05T03:50:00Z,50.045,8.598,11,7,190,15,26,6+,28.82,,,TRUE,,,,,,,-RA,SCT,4100,,,,,,,VFR,,,,,,,,,,,,METAR,113
EDDE 050350Z AUTO 19012KT 9999 FEW031 09/06 Q0978,EDDE,2023-11-05T03:50:00Z,50.983,10.961,9,6,190,12,,6+,28.88,,,TRUE,,,,,,,,FEW,3100,,,,,,,VFR,,,,,,,,,,,,METAR,314
EDDC 050350Z AUTO 17011KT CAVOK 09/04 Q0982,EDDC,2023-11-05T03:50:00Z,51.128,13.7543,9,4,170,11,,6+,29.00,,,TRUE,,,,,,,,CAVOK,,,,,,,,VFR,,,,,,,,,,,,METAR,227
EDDB 050350Z AUTO 16010KT 9999 -SHRA FEW047 FEW///CB 08/07 Q0979 NOSIG,EDDB,2023-11-05T03:50:00Z,52.3807,13.5306,8,7,160,10,,6+,28.91,,,TRUE,,,,,,,-SHRA,FEW,4700,,,,,,,VFR,,,,,,,,,,,,METAR,48
EDBC 050350Z AUTO 15006KT 120V180 9999 // FEW037/// SCT200/// 08/05 Q0978,EDBC,2023-11-05T03:50:00Z,51.856,11.42,8,5,150,6,,6+,28.88,,,TRUE,,,,,,,,FEW,3700,SCT,20000,,,,,VFR,,,,,,,,,,,,METAR,178
EDAH 050350Z AUTO 15011KT 9999 // FEW026/// SCT032/// OVC037/// 09/05 Q0979,EDAH,2023-11-05T03:50:00Z,53.879,14.152,9,5,150,11,,6+,28.91,,,TRUE,,,,,,,,FEW,2600,SCT,3200,OVC,3700,,,VFR,,,,,,,,,,,,METAR,22
EDAC 050350Z AUTO 17007KT 140V200 9999 // SCT055/// 09/05 Q0980,EDAC,2023-11-05T03:50:00Z,50.982,12.506,9,5,170,7,,6+,28.94,,,TRUE,,,,,,,,SCT,5500,,,,,,,VFR,,,,,,,,,,,,METAR,193
EBOS 050350Z 19011KT 9000 SCT020 SCT025 09/08 Q0968 TEMPO 4000 SHRA,EBOS,2023-11-05T03:50:00Z,51.199,2.862,9,8,190,11,,5.59,28.58,,,,,,,,,,,SCT,2000,SCT,2500,,,,,VFR,,,,,,,,,,,,METAR,5
EBLG 050350Z 19011KT 9999 FEW015 BKN020 09/08 Q0971 TEMPO BKN012,EBLG,2023-11-05T03:50:00Z,50.637,5.443,9,8,190,11,,6+,28.67,,,,,,,,,,,FEW,1500,BKN,2000,,,,,MVFR,,,,,,,,,,,,METAR,187
EBCI 050350Z 20010KT 9999 FEW006 BKN013 09/08 Q0970 NOSIG,EBCI,2023-11-05T03:50:00Z,50.459,4.454,9,8,200,10,,6+,28.64,,,,,,,,,,,FEW,600,BKN,1300,,,,,MVFR,,,,,,,,,,,,METAR,176
EBBR 050350Z 19008KT 9999 -SHRA SCT009 BKN022 10/09 Q0970 TEMPO 4500 SHRA BKN014,EBBR,2023-11-05T03:50:00Z,50.896,4.526,10,9,190,8,,6+,28.64,,,,,,,,,,-SHRA,SCT,900,BKN,2200,,,,,MVFR,,,,,,,,,,,,METAR,49
EBAW 050350Z AUTO 18006KT 150V210 9999 DZRA BKN027/// OVC030/// 10/08 Q0969,EBAW,2023-11-05T03:50:00Z,51.189,4.46,10,8,180,6,,6+,28.61,,,TRUE,,,,,,,DZ RA,BKN,2700,OVC,3000,,,,,MVFR,,,,,,,,,,,,METAR,7
BGSF 050350Z AUTO 07009KT 9999NDV NCD M10/M13 Q1008,BGSF,2023-11-05T03:50:00Z,67.013,-50.718,-10,-13,70,9,,,29.76,,,TRUE,,,,,,,,CLR,,,,,,,,VFR,,,,,,,,,,,,METAR,75
BGKK 050350Z AUTO 09015KT 9999NDV BKN140/// M02/M08 Q1012,BGKK,2023-11-05T03:50:00Z,65.575,-37.133,-2,-8,90,15,,,29.88,,,TRUE,,,,,,,,BKN,14000,,,,,,,VFR,,,,,,,,,,,,METAR,37
BGJN 050350Z AUTO 09007KT 060V120 9999NDV NCD M05/M12 Q1009,BGJN,2023-11-05T03:50:00Z,69.24,-51.064,-5,-12,90,7,,,29.79,,,TRUE,,,,,,,,CLR,,,,,,,,VFR,,,,,,,,,,,,METAR,22
BGGH 050350Z AUTO 07014KT 9999 BKN210/// M02/M10 Q1001,BGGH,2023-11-05T03:50:00Z,64.191,-51.677,-2,-10,70,14,,6+,29.56,,,TRUE,,,,,,,,BKN,21000,,,,,,,VFR,,,,,,,,,,,,METAR,76
BGBW 050350Z AUTO 00000KT 9999NDV BKN100/// M07/M14 Q1006,BGBW,2023-11-05T03:50:00Z,61.164,-45.42,-7,-14,0,0,,,29.70,,,TRUE,,,,,,,,BKN,10000,,,,,,,VFR,,,,,,,,,,,,METAR,49
MMUN 050349Z 09003KT 7SM SCT015 OVC100 25/24 A2998 RMK 60135 8/77/ INTMT -RA,MMUN,2023-11-05T03:49:00Z,21.038,-86.855,25,24,90,3,,7,29.98,,,,,,,,,,,SCT,1500,OVC,10000,,,,,VFR,,,,,,,,,,,,METAR,13
MMGL 050349Z 00000KT 8SM SKC 16/08 A3018,MMGL,2023-11-05T03:49:00Z,20.523,-103.312,16,8,0,0,,8,30.18,,,,,,,,,,,SKC,,,,,,,,VFR,,,,,,,,,,,,METAR,1531
RKTP 050348Z 12010KT 9999 BKN060 BKN120 21/17 A3002 RMK CIG060,RKTP,2023-11-05T03:48:00Z,36.704,126.486,21,17,120,10,,6+,30.02,,,,,,,,,,,BKN,6000,BKN,12000,,,,,VFR,,,,,,,,,,,,SPECI,13
KJDN 050348Z AUTO 00000KT 11/04 A2980 RMK AO1 SLP102 T01060039,KJDN,2023-11-05T03:48:00Z,47.3259,-106.949,10.6,3.9,0,0,,,29.80,1010.2,,TRUE,TRUE,,,,,,,,,,,,,,,VFR,,,,,,,,,,,,METAR,802
MMSM 050347Z 35005KT 8SM SKC 09/05 A3039 RMK HZY CI,MMSM,2023-11-05T03:47:00Z,19.763,-99.002,9,5,350,5,,8,30.39,,,,,,,,,,,SKC,,,,,,,,VFR,,,,,,,,,,,,METAR,2250
KPOC 050347Z 27004KT 10SM CLR 18/07 A3002,KPOC,2023-11-05T03:47:00Z,34.0928,-117.779,18,7,270,4,,10+,30.02,,,,,,,,,,,CLR,,,,,,,,VFR,,,,,,,,,,,,METAR,304
KPAO 050347Z 29008KT 10SM SCT008 15/13 A3007 RMK LAST,KPAO,2023-11-05T03:47:00Z,37.458,-122.112,15,13,290,8,,10+,30.07,,,,,,,,,,,SCT,800,,,,,,,VFR,,,,,,,,,,,,METAR,2
KGYR 050347Z 00000KT 10SM SKC 21/M02 A2998 RMK LAST,KGYR,2023-11-05T03:47:00Z,33.428,-112.368,21,-2,0,0,,10+,29.98,,,,,,,,,,,SKC,,,,,,,,VFR,,,,,,,,,,,,METAR,292
KCQT 050347Z AUTO 00000KT 7SM CLR 18/16 A3001 RMK AO2 SLP162 T01780161,KCQT,2023-11-05T03:47:00Z,34.024,-118.291,17.8,16.1,0,0,,7,30.01,1016.2,,TRUE,TRUE,,,,,,,CLR,,,,,,,,VFR,,,,,,,,,,,,METAR,51
KCHD 050347Z 00000KT 10SM CLR 20/03 A2999 RMK LAST,KCHD,2023-11-05T03:47:00Z,33.2669,-111.809,20,3,0,0,,10+,29.99,,,,,,,,,,,CLR,,,,,,,,VFR,,,,,,,,,,,,METAR,378
KAQV 050347Z AUTO 00000KT 10SM CLR 11/07 A3015 RMK AO2 SLP209 T01110072,KAQV,2023-11-05T03:47:00Z,31.396,-93.297,11.1,7.2,0,0,,10+,30.15,1020.9,,TRUE,TRUE,,,,,,,CLR,,,,,,,,VFR,,,,,,,,,,,,METAR,123
MMQT 050346Z 10008KT 8SM SKC 12/06 A3038,MMQT,2023-11-05T03:46:00Z,20.617,-100.194,12,6,100,8,,8,30.38,,,,,,,,,,,SKC,,,,,,,,VFR,,,,,,,,,,,,METAR,1909
MMPS 050346Z 00000KT 10SM SKC 26/20 A2984,MMPS,2023-11-05T03:46:00Z,15.876,-97.093,26,20,0,0,,10+,29.84,,,,,,,,,,,SKC,,,,,,,,VFR,,,,,,,,,,,,METAR,65
MMMX 050346Z 30007KT 12SM FEW220 16/03 A3037 NOSIG RMK 8/001,MMMX,2023-11-05T03:46:00Z,19.436,-99.072,16,3,300,7,,12,30.37,,,,,,,,,,,FEW,22000,,,,,,,VFR,,,,,,,,,,,,METAR,2224
MMML 050346Z 35006KT 10SM SKC 20/M05 A2995,MMML,2023-11-05T03:46:00Z,32.631,-115.238,20,-5,350,6,,10+,29.95,,,,,,,,,,,SKC,,,,,,,,VFR,,,,,,,,,,,,METAR,21
MMMZ 050345Z 00000KT 10SM FEW100 SCT240 24/24 A2983 RMK 8/032 HZY,MMMZ,2023-11-05T03:45:00Z,23.161,-106.271,24,24,0,0,,10+,29.83,,,,,,,,,,,FEW,10000,SCT,24000,,,,,VFR,,,,,,,,,,,,METAR,7
MMLM 050345Z 34006KT 10SM SCT080 OVC220 25/22 A2987 RMK 8/027,MMLM,2023-11-05T03:45:00Z,25.688,-109.085,25,22,340,6,,10+,29.87,,,,,,,,,,,SCT,8000,OVC,22000,,,,,VFR,,,,,,,,,,,,METAR,6
LIRP 050345Z 25022G33KT 9999 FEW023 BKN035 19/17 Q0989 NOSIG,LIRP,2023-11-05T03:45:00Z,43.684,10.393,19,17,250,22,33,6+,29.20,,,,,,,,,,,FEW,2300,BKN,3500,,,,,VFR,,,,,,,,,,,,METAR,1
LHSN 050345Z 13010KT 9999 -RA NSC 09/08 Q0995 TEMPO NSW RMK BLU,LHSN,2023-11-05T03:45:00Z,47.123,20.235,9,8,130,10,,6+,29.38,,,,,,,,,,-RA,CLR,,,,,,,,VFR,,,,,,,,,,,,METAR,89
LHSM 050345Z AUTO 09003KT 070V140 CAVOK 10/08 Q0990,LHSM,2023-11-05T03:45:00Z,46.689,17.161,10,8,90,3,,6+,29.23,,,TRUE,,,,,,,,CAVOK,,,,,,,,VFR,,,,,,,,,,,,METAR,119
LHPR 050345Z AUTO 14010KT 9999 -SHRA OVC050 //////TCU 10/09 Q0991,LHPR,2023-11-05T03:45:00Z,47.627,17.808,10,9,140,10,,6+,29.26,,,TRUE,,,,,,,-SHRA,OVC,5000,,,,,,,VFR,,,,,,,,,,,,METAR,127
LHPP 050345Z AUTO 13011KT 9999 ////// 11/06 Q0992,LHPP,2023-11-05T03:45:00Z,45.991,18.241,11,6,130,11,,6+,29.29,,,TRUE,,,,,,,,,,,,,,,,VFR,,,,,,,,,,,,METAR,193
LHPA 050345Z 18006KT 9999 SCT047 BKN083 12/08 Q0990 TEMPO -RA SHRA RMK BLU,LHPA,2023-11-05T03:45:00Z,47.362,17.494,12,8,180,6,,6+,29.23,,,,,,,,,,,SCT,4700,BKN,8300,,,,,VFR,,,,,,,,,,,,METAR,143
LHDC 050345Z AUTO 18012KT 150V210 9999 -SHRA BKN046 10/08 Q0997 NOSIG,LHDC,2023-11-05T03:45:00Z,47.489,21.615,10,8,180,12,,6+,29.44,,,TRUE,,,,,,,-SHRA,BKN,4600,,,,,,,VFR,,,,,,,,,,,,METAR,105
KSWF 050345Z 00000KT 7SM SCT040 09/03 A3008,KSWF,2023-11-05T03:45:00Z,41.5045,-74.0999,9,3,0,0,,7,30.08,,,,,,,,,,,SCT,4000,,,,,,,VFR,,,,,,,,,,,,METAR,139
KCBE 050345Z AUTO 33003KT 10SM CLR 07/00 A3014 RMK AO2 T00650005,KCBE,2023-11-05T03:45:00Z,39.6182,-78.7598,6.5,0.5,330,3,,10+,30.14,,,TRUE,TRUE,,,,,,,CLR,,,,,,,,VFR,,,,,,,,,,,,METAR,226
MMTG 050344Z 30008KT 10SM SCT015 OVC070 21/19 A3003 RMK 60035 8/57/ -DZ E20 OCNL DROPS,MMTG,2023-11-05T03:44:00Z,16.571,-93.03,21,19,300,8,,10+,30.03,,,,,,,,,,,SCT,1500,OVC,7000,,,,,VFR,,,,,,,0.35,,,,,METAR,463
MMAS 050344Z 05008KT 8SM SKC 16/M02 A3028 RMK HZY,MMAS,2023-11-05T03:44:00Z,21.702,-102.318,16,-2,50,8,,8,30.28,,,,,,,,,,,SKC,,,,,,,,VFR,,,,,,,,,,,,METAR,1866
MMLO 050343Z 02004G14KT 8SM SKC 19/M03 A3024,MMLO,2023-11-05T03:43:00Z,20.997,-101.481,19,-3,20,4,14,8,30.24,,,,,,,,,,,SKC,,,,,,,,VFR,,,,,,,,,,,,METAR,1805
MMTO 050342Z 32003KT 7SM SKC 10/02 A3043 RMK HZY,MMTO,2023-11-05T03:42:00Z,19.343,-99.568,10,2,320,3,,7,30.43,,,,,,,,,,,SKC,,,,,,,,VFR,,,,,,,,,,,,METAR,2582
MMMM 050342Z 00000KT 8SM FEW280 15/02 A3027 RMK 8/002,MMMM,2023-11-05T03:42:00Z,19.844,-101.037,15,2,0,0,,8,30.27,,,,,,,,,,,FEW,28000,,,,,,,VFR,,,,,,,,,,,,METAR,1840
MMMD 050342Z 07006KT 6SM BKN100 25/21 A3001 RMK 8/030 HZY,MMMD,2023-11-05T03:42:00Z,20.936,-89.659,25,21,70,6,,6,30.01,,,,,,,,,,,BKN,10000,,,,,,,VFR,,,,,,,,,,,,METAR,10
KTRK 050342Z AUTO 16010G15KT 10SM CLR 11/02 A3016 RMK AO2,KTRK,2023-11-05T03:42:00Z,39.3154,-120.137,11,2,160,10,15,10+,30.16,,,TRUE,TRUE,,,,,,,CLR,,,,,,,,VFR,,,,,,,,,,,,METAR,1800
MMTC 050341Z 00000KT 8SM SKC 20/11 A3018,MMTC,2023-11-05T03:41:00Z,25.564,-103.408,20,11,0,0,,8,30.18,,,,,,,,,,,SKC,,,,,,,,VFR,,,,,,,,,,,,METAR,1128
MMPR 050341Z 36003KT 8SM SKC 28/26 A2984 RMK HZY CI,MMPR,2023-11-05T03:41:00Z,20.68,-105.25,28,26,360,3,,8,29.84,,,,,,,,,,,SKC,,,,,,,,VFR,,,,,,,,,,,,METAR,6
MMLP 050341Z 14006KT 10SM SCT100 OVC200 23/19 A2991 RMK 8/037,MMLP,2023-11-05T03:41:00Z,24.077,-110.364,23,19,140,6,,10+,29.91,,,,,,,,,,,SCT,10000,OVC,20000,,,,,VFR,,,,,,,,,,,,METAR,16
KSLR 050341Z AUTO 00000KT 10SM CLR 14/14 A3016 RMK AO2,KSLR,2023-11-05T03:41:00Z,33.1615,-95.6189,14,14,0,0,,10+,30.16,,,TRUE,TRUE,,,,,,,CLR,,,,,,,,VFR,,,,,,,,,,,,METAR,144
RKSQ 050340Z 06005KT 0800 RA FG VV002 16/16 A3008 RMK CIG002,RKSQ,2023-11-05T03:40:00Z,37.667,125.686,16,16,60,5,,0.5,30.08,,,,,,,,,,RA FG,OVX,0,,,,,,,LIFR,,,,,,,,,,,200,SPECI,6
MMZC 050340Z E00000KT 10SM SKC 15/01 A3032,MMZC,2023-11-05T03:40:00Z,22.904,-102.68,15,1,0,0,,10+,30.32,,,,,,,,,,,SKC,,,,,,,,VFR,,,,,,,,,,,,METAR,2175
MMVR 050340Z 34003KT 7SM SKC 23/21 A3008 RMK HZY ISOL CU CI,MMVR,2023-11-05T03:40:00Z,19.144,-96.189,23,21,340,3,,7,30.08,,,,,,,,,,,SKC,,,,,,,,VFR,,,,,,,,,,,,METAR,26
MMTJ 050340Z 00000KT 8SM SKC 16/10 A3003 RMK HZY,MMTJ,2023-11-05T03:40:00Z,32.544,-116.982,16,10,0,0,,8,30.03,,,,,,,,,,,SKC,,,,,,,,VFR,,,,,,,,,,,,METAR,150
MMRX 050340Z 16005KT 6SM BKN200 21/13 A3011 RMK 8/008 HZY,MMRX,2023-11-05T03:40:00Z,26.01,-98.232,21,13,160,5,,6,30.11,,,,,,,,,,,BKN,20000,,,,,,,VFR,,,,,,,,,,,,METAR,45
MMMY 050340Z 26004KT 8SM SKC 19/15 A3011,MMMY,2023-11-05T03:40:00Z,25.774,-100.104,19,15,260,4,,8,30.11,,,,,,,,,,,SKC,,,,,,,,VFR,,,,,,,,,,,,METAR,382
MMHO 050340Z 00000KT 10SM SKC 27/12 A2992 RMK ISOL AC HZY,MMHO,2023-11-05T03:40:00Z,29.097,-111.051,27,12,0,0,,10+,29.92,,,,,,,,,,,SKC,,,,,,,,VFR,,,,,,,,,,,,METAR,186
MMCU 050340Z 00000KT 10SM SCT080 BKN200 17/04 A3022 RMK 8/078,MMCU,2023-11-05T03:40:00Z,28.701,-105.965,17,4,0,0,,10+,30.22,,,,,,,,,,,SCT,8000,BKN,20000,,,,,VFR,,,,,,,,,,,,METAR,1349
MMCL 050340Z 00000KT 10SM SCT140 BKN250 26/22 A2985 RMK 8/038 HZY,MMCL,2023-11-05T03:40:00Z,24.766,-107.476,26,22,0,0,,10+,29.85,,,,,,,,,,,SCT,14000,BKN,25000,,,,,VFR,,,,,,,,,,,,METAR,35
MMAN 050340Z 00000KT 10SM SCT200 19/14 A3014 RMK 8/002,MMAN,2023-11-05T03:40:00Z,25.865,-100.239,19,14,0,0,,10+,30.14,,,,,,,,,,,SCT,20000,,,,,,,VFR,,,,,,,,,,,,METAR,447
KC99 050336Z AUTO 29020G31KT 10SM CLR 01/M13 A3036 RMK AO2,KC99,2023-11-05T03:36:00Z,39.869,-105.553,1,-13,290,20,31,10+,30.36,,,TRUE,TRUE,,,,,,,CLR,,,,,,,,VFR,,,,,,,,,,,,METAR,3334
YPDN 050330Z 34009KT 9999 FEW048 34/24 Q1010,YPDN,2023-11-05T03:30:00Z,-12.424,130.893,34,24,340,9,,6+,29.82,,,,,,,,,,,FEW,4800,,,,,,,VFR,,,,,,,,,,,,METAR,32
YMHB 050330Z 17013KT 9999 FEW037 SCT053 16/05 Q1029 RF00.0/000.0,YMHB,2023-11-05T03:30:00Z,-42.834,147.503,16,5,170,13,,6+,30.38,,,,,,,,,,,FEW,3700,SCT,5300,,,,,VFR,,,,,,,,,,,,METAR,2
YBBN 050330Z 12008KT 9999 FEW016 SCT018 BKN073 21/19 Q1020 RF00/0/004/4,YBBN,2023-11-05T03:30:00Z,-27.391,153.13,21,19,120,8,,6+,30.12,,,,,,,,,,,FEW,1600,SCT,1800,BKN,7300,,,VFR,,,,,,,,,,,,METAR,3
WIPP 050330Z 08004KT 8000 SCT010 32/24 Q1011 NOSIG,WIPP,2023-11-05T03:30:00Z,-2.898,104.7,32,24,80,4,,4.97,29.85,,,,,,,,,,,SCT,1000,,,,,,,MVFR,,,,,,,,,,,,METAR,7
WIMM 050330Z 31003KT 3000 BR BKN016 27/27 Q1011 RERA NOSIG,WIMM,2023-11-05T03:30:00Z,3.636,98.874,27,27,310,3,,1.86,29.85,,,,,,,,,,BR,BKN,1600,,,,,,,IFR,,,,,,,,,,,,METAR,7
WIEE 050330Z 26004KT 210V320 9999 SCT020 28/25 Q1011 NOSIG,WIEE,2023-11-05T03:30:00Z,-0.783,100.283,28,25,260,4,,6+,29.85,,,,,,,,,,,SCT,2000,,,,,,,VFR,,,,,,,,,,,,METAR,5
WIBB 050330Z 10004KT 9999 SCT015 30/25 Q1010 NOSIG,WIBB,2023-11-05T03:30:00Z,0.461,101.445,30,25,100,4,,6+,29.82,,,,,,,,,,,SCT,1500,,,,,,,VFR,,,,,,,,,,,,METAR,41
WAOO 050330Z 32002KT 300V080 9999 FEW020 33/21 Q1009 NOSIG,WAOO,2023-11-05T03:30:00Z,-3.44,114.759,33,21,320,2,,6+,29.79,,,,,,,,,,,FEW,2000,,,,,,,VFR,,,,,,,,,,,,METAR,23
WALL 050330Z 09003KT 9999 FEW020 31/27 Q1009 NOSIG,WALL,2023-11-05T03:30:00Z,-1.268,116.894,31,27,90,3,,6+,29.79,,,,,,,,,,,FEW,2000,,,,,,,VFR,,,,,,,,,,,,METAR,3
WADD 050330Z 10008KT 9999 FEW017 32/25 Q1011 NOSIG,WADD,2023-11-05T03:30:00Z,-8.748,115.167,32,25,100,8,,6+,29.85,,,,,,,,,,,FEW,1700,,,,,,,VFR,,,,,,,,,,,,METAR,3
WAAA 050330Z VRB05KT CAVOK 33/21 Q1010 NOSIG,WAAA,2023-11-05T03:30:00Z,-5.062,119.554,33,21,VRB,5,,6+,29.82,,,,,,,,,,,CAVOK,,,,,,,,VFR,,,,,,,,,,,,METAR,13
VAHS 050330Z 07007KT 6000 NSC 30/14 Q1015 NOSIG,VAHS,2023-11-05T03:30:00Z,-99.99,-99.99,30,14,70,7,,3.73,29.97,,,,,,,,,,,CLR,,,,,,,,MVFR,,,,,,,,,,,,METAR,9999
HKJK 050330Z 08004KT 9999 SCT008 BKN016 17/16 Q1021 NOSIG,HKJK,2023-11-05T03:30:00Z,-1.319,36.928,17,16,80,4,,6+,30.15,,,,,,,,,,,SCT,800,BKN,1600,,,,,MVFR,,,,,,,,,,,,METAR,1615
DABC 050330Z 32004KT CAVOK 12/05 Q1010,DABC,2023-11-05T03:30:00Z,36.278,6.629,12,5,320,4,,6+,29.82,,,,,,,,,,,CAVOK,,,,,,,,VFR,,,,,,,,,,,,METAR,686
RKSW 050327Z 10004KT 9999 FEW030 BKN070 18/17 A3008 RMK CIG070 WR24,RKSW,2023-11-05T03:27:00Z,37.239,127.007,18,17,100,4,,6+,30.08,,,,,,,,,,,FEW,3000,BKN,7000,,,,,VFR,,,,,,,,,,,,SPECI,24
RKSF 050322Z 09003KT 9999 FEW010 BKN030 BKN070 18/15 A3004 RMK CIG030,RKSF,2023-11-05T03:22:00Z,37.533,126.967,18,15,90,3,,6+,30.04,,,,,,,,,,,FEW,1000,BKN,3000,BKN,7000,,,MVFR,,,,,,,,,,,,SPECI,21
LIRA 050320Z 20020G30KT 9999 SCT050 19/15 Q0998,LIRA,2023-11-05T03:20:00Z,41.808,12.585,19,15,200,20,30,6+,29.47,,,,,,,,,,,SCT,5000,,,,,,,VFR,,,,,,,,,,,,METAR,101
LGRX 050320Z 00000KT 9999 FEW025 12/12 Q1011,LGRX,2023-11-05T03:20:00Z,38.151,21.426,12,12,0,0,,6+,29.85,,,,,,,,,,,FEW,2500,,,,,,,VFR,,,,,,,,,,,,METAR,16
ETWM 050320Z AUTO VRB03KT //// // ////// 09/08 Q0971 ///,ETWM,2023-11-05T03:20:00Z,52.725,7.33,9,8,VRB,3,,,28.67,,,TRUE,,,,,,,,,,,,,,,,VFR,,,,,,,,,,,,METAR,18
ETSN 050320Z 09001KT 9999 SCT230 05/03 Q0983 BLU+,ETSN,2023-11-05T03:20:00Z,48.71,11.21,5,3,90,1,,6+,29.03,,,,,,,,,,,SCT,23000,,,,,,,VFR,,,,,,,,,,,,METAR,378
ETSL 050320Z AUTO 16007KT 9999 // ////// 06/02 Q0983 ///,ETSL,2023-11-05T03:20:00Z,48.185,10.861,6,2,160,7,,6+,29.03,,,TRUE,,,,,,,,,,,,,,,,VFR,,,,,,,,,,,,METAR,548
ETSI 050320Z AUTO VRB02KT //// // ////// 08/04 Q0983 ///,ETSI,2023-11-05T03:20:00Z,48.716,11.534,8,4,VRB,2,,,29.03,,,TRUE,,,,,,,,,,,,,,,,VFR,,,,,,,,,,,,METAR,366
ETSH 050320Z 17007KT 9999 BKN055 09/07 Q0980 BLU,ETSH,2023-11-05T03:20:00Z,51.768,13.168,9,7,170,7,,6+,28.94,,,,,,,,,,,BKN,5500,,,,,,,VFR,,,,,,,,,,,,METAR,79
ETSB 050320Z AUTO 22020G30KT //// // ////// 08/07 Q0973 ///,ETSB,2023-11-05T03:20:00Z,50.175,7.06,8,7,220,20,30,,28.73,,,TRUE,,,,,,,,,,,,,,,,VFR,,,,,,,,,,,,METAR,477
ETNW 050320Z 17008KT 9999 FEW038 BKN050 10/07 Q0974 BLU,ETNW,2023-11-05T03:20:00Z,52.457,9.427,10,7,170,8,,6+,28.76,,,,,,,,,,,FEW,3800,BKN,5000,,,,,VFR,,,,,,,,,,,,METAR,57
ETNT 050320Z AUTO 19007KT //// // ////// 09/08 Q0971 ///,ETNT,2023-11-05T03:20:00Z,53.548,7.667,9,8,190,7,,,28.67,,,TRUE,,,,,,,,,,,,,,,,VFR,,,,,,,,,,,,METAR,5
ETNS 050320Z AUTO 15010KT 3700 // ////// 08/07 Q0973 ///,ETNS,2023-11-05T03:20:00Z,54.457,9.52,8,7,150,10,,2.3,28.73,,,TRUE,,,,,,,,,,,,,,,,IFR,,,,,,,,,,,,METAR,22
ETNN 050320Z 15006KT 9999 -RA FEW020 BKN035 BKN080 10/07 Q0971 BLU,ETNN,2023-11-05T03:20:00Z,50.829,6.66,10,7,150,6,,6+,28.67,,,,,,,,,,-RA,FEW,2000,BKN,3500,BKN,8000,,,VFR,,,,,,,,,,,,METAR,108
ETNL 050320Z AUTO 14005KT 9999 // ////// 08/07 Q0976 ///,ETNL,2023-11-05T03:20:00Z,53.916,12.279,8,7,140,5,,6+,28.82,,,TRUE,,,,,,,,,,,,,,,,VFR,,,,,,,,,,,,METAR,40
ETNH 050320Z AUTO 14004KT //// // ////// 08/07 Q0973 ///,ETNH,2023-11-05T03:20:00Z,54.312,9.538,8,7,140,4,,,28.73,,,TRUE,,,,,,,,,,,,,,,,VFR,,,,,,,,,,,,METAR,6
ETHS 050320Z AUTO 17006KT 9999 // ////// 08/07 Q0974 ///,ETHS,2023-11-05T03:20:00Z,52.918,10.184,8,7,170,6,,6+,28.76,,,TRUE,,,,,,,,,,,,,,,,VFR,,,,,,,,,,,,METAR,71
ETHN 050320Z 17011KT 9999 BKN050 08/04 Q0979 BLU,ETHN,2023-11-05T03:20:00Z,49.398,9.958,8,4,170,11,,6+,28.91,,,,,,,,,,,BKN,5000,,,,,,,VFR,,,,,,,,,,,,METAR,466
ETHL 050320Z AUTO VRB01KT 9999 // ////// 04/03 Q0982 ///,ETHL,2023-11-05T03:20:00Z,48.218,9.91,4,3,VRB,1,,6+,29.00,,,TRUE,,,,,,,,,,,,,,,,VFR,,,,,,,,,,,,METAR,536
ETHF 050320Z 19009KT 9999 -RA BKN018 10/07 Q0975 WHT,ETHF,2023-11-05T03:20:00Z,51.114,9.286,10,7,190,9,,6+,28.79,,,,,,,,,,-RA,BKN,1800,,,,,,,MVFR,,,,,,,,,,,,METAR,171
ETHC 050320Z 15006KT 9999 SCT040 BKN060 09/08 Q0975 BLU,ETHC,2023-11-05T03:20:00Z,52.591,10.022,9,8,150,6,,6+,28.79,,,,,,,,,,,SCT,4000,BKN,6000,,,,,VFR,,,,,,,,,,,,METAR,35
ETHB 050320Z AUTO 18012KT 9999 // ////// 10/07 Q0973 ///,ETHB,2023-11-05T03:20:00Z,52.279,9.082,10,7,180,12,,6+,28.73,,,TRUE,,,,,,,,,,,,,,,,VFR,,,,,,,,,,,,METAR,69
ETHA 050320Z AUTO VRB03KT 9999 // ////// 06/01 Q0984 ///,ETHA,2023-11-05T03:20:00Z,47.834,10.867,6,1,VRB,3,,6+,29.06,,,TRUE,,,,,,,,,,,,,,,,VFR,,,,,,,,,,,,METAR,738
ETGG 050320Z AUTO 16010KT 9999 // ////// 07/07 Q0972 ///,ETGG,2023-11-05T03:20:00Z,54.827,9.506,7,7,160,10,,6+,28.70,,,TRUE,,,,,,,,,,,,,,,,VFR,,,,,,,,,,,,METAR,33
KMFV 050315Z AUTO 00000KT 10SM CLR 07/06 A3012 RMK AO2 T00690060,KMFV,2023-11-05T03:15:00Z,37.646,-75.763,6.9,6,0,0,,10+,30.12,,,TRUE,TRUE,,,,,,,CLR,,,,,,,,VFR,,,,,,,,,,,,METAR,13
KGDJ 050315Z AUTO 14006KT 10SM CLR 17/15 A3012 RMK AO2 T01720145,KGDJ,2023-11-05T03:15:00Z,32.4469,-97.817,17.2,14.5,140,6,,10+,30.12,,,TRUE,TRUE,,,,,,,CLR,,,,,,,,VFR,,,,,,,,,,,,METAR,235
